 2017  923 1641 42.1 L   6.741 -73.153142.9  RSN 17 0.6 2.2LRSN                1
 GAP=113        1.17       3.6     3.8  5.8  0.1330E+01  0.7836E+01  0.7008E+01E
 Epicentro: LOS SANTOS - SANTANDER                                             3
 ACTION:UPD 17-10-05 19:15 OP:rebc STATUS:               ID:20170923164142 L   I
 OLDACT:REG 17-09-23 20:49 OP:lv   STATUS:               ID:20170923163741     3
 2017-09-23-1638-00M.COL___450                                                 6
 STAT SP IPHASW D HRMM SECON CODA AMPLIT PERI AZIMU VELO AIN AR TRES W  DIS CAZ7
 BAR2 EZ EP       1642  1.06                             173   -0.2610 16.7 191 
 BAR2 EZ ES       1642 16.32                             173    0.0510 16.7 191 
 BAR2 EZ I        1642 17.45        43.6 0.42            169           16.7 191 
 BRR  HZ IP     D 1642  2.97                             151   -0.1710 73.8 303 
 BRR  HN ES       1642 19.61                             151    0.0910 73.8 303 
 PAM  EZ EP       1642  4.71                             149    0.3010 83.0  37 
 PAM  EN ES       1642 21.43                             149   -0.3510 83.0  37 
 PAM  EZ I        1642 23.39        35.9 0.46            146           83.0  37 
 RUS  HZ EP       1642  5.04                             145   -0.1210 94.1 175 
 RUS  HN ES       1642 23.85                             145    0.7510 94.1 175 
 RUS  HZ I        1642 26.60        16.4 0.34            139           94.1 175 
 YPLC HZ IP     D 1642 11.77                             127    0.55 9  172 150 
 YPLC HN ES       1642 33.38                             127   -0.51 9  172 150 
 YPLC HZ I        1642 37.56        33.9 0.38            121            172 150 
 ZAR  HZ EP       1642 14.24                             122   -0.35 8  206 294 
 ZAR  HE ES       1642 39.48                             122   -0.42 8  206 294 
 ZAR  HZ I        1642 43.99        43.8 0.26            118            206 294 
 NOR  HZ EP       1642 17.10                             118   -0.13 8  230 236 
 NOR  HN ES       1642 44.50                             118   -0.10 8  230 236 
 NOR  HZ I        1642 49.24        16.0 0.18            114            230 236 
 CHI  HZ EP       1642 19.66                             117    0.68 8  242 195 
 CHI  HN ES       1642 47.52                             117   -0.18 8  242 195 
 CHI  HZ I        1642 52.89         7.0 0.34            113            242 195 
 HEL  HZ EP       1642 22.96                             114    1.01 8  270 257 
 HEL  HN ES   4   1642 51.90                             114   -1.10 0  270 257 
 HEL  HZ I        1642 59.26        10.7 0.22            111            270 257 
 GUY2CHZ EP       1642 25.62                             112    0.49 7  297 236 
 GUY2CHN ES       1642 59.24                             112    0.59 7  297 236 
 GUY2CHZ I        1643  5.24         8.1 0.28                           297 236 
 PTGC HZ EP       1642 24.51                             112   -0.71 7  303 158 
 PTGC HZ I        1643  2.74        17.0 0.62            107            303 158 
 ELA  HZ EP   9   1642 29.41                             110    1.09 0  324 230 
 ELA  HN ES       1643  5.86                                    0.44 7  324 230 
 ELA  HZ I        1643 14.42         4.9 0.30            107            324 230 
 CBOC HZ EP       1642 28.91                             110    0.28 7  331 253 
 CBOC HE ES       1643  5.05                             110    0.17 7  331 253 
 CBOC HZ I        1643 10.15         2.8 0.28            106            331 253 
 PRA  HZ EP       1642 33.86                             106   -1.00 6  386 210 
 PRA  HN ES       1643 15.71                             106   -0.26 6  386 210 
 PRA  HZ I        1643 21.45         4.5 0.32            103            386 210 
 ORTC HZ EP       1642 35.98                             106    0.69 6  390 217 
 ORTC HN ES       1643 14.79                             106   -1.96 6  390 217 
 ORTC HZ I        1643 21.06         3.6 0.20            103            390 217 
 PAL  HZ EP       1642 36.60                             106   -0.14 6  402 240 
 SJC  HZ EP   4   1642 35.54                             105   -2.67 0  414 328 
 SJC  HN ES   4   1643 18.44                             105   -3.50 0  414 328 
 SJC  HZ I        1643 25.23         2.0 0.31            102            414 328 
                                                                                
