 2015  823 1455 48.4 L   6.823 -73.132146.5  RSN 22 0.4 2.5LRSN                1
 GAP= 71        0.91       2.3     3.0  4.6 -0.1048E+01  0.3830E+01  0.4803E+00E
 Epicentro: LOS SANTOS - SANTANDER                                             3
 ACTION:UPD 15-09-15 23:04 OP:cam  STATUS:               ID:20150823145548 L   I
 OLDACT:UP  15-08-24 00:40 OP:spq  STATUS:               ID:20150823144747     3
 OLDACT:REG 15-08-23 20:27 OP:spq  STATUS:               ID:20150823144747     3
 2015-08-23-1447-47M.COL___346                                                 6
 STAT SP IPHASW D HRMM SECON CODA AMPLIT PERI AZIMU VELO AIN AR TRES W  DIS CAZ7
 BAR2 EZ EP     D 1456  8.07                             169   -0.1510 26.2 192 
 BAR2 EZ ES   1   1456 23.10                             169   -0.55 7 26.2 192 
 BAR2 EZ I        1456 24.50        96.6 0.20            168           26.2 192 
 BRR  HZ IP     C 1456  9.93                             153    0.2510 71.4 296 
 BRR  HN ES       1456 27.04                             153    0.7910 71.4 296 
 BRR  HZ I        1456 30.11        72.4 0.32            151           71.4 296 
 PAM  EZ IP     C 1456 11.03                             152    0.4710 74.4  40 
 PAM  EN ES       1456 28.10                             152    0.2910 74.4  40 
 PAM  EZ I        1456 30.32        74.8 0.66            153           74.4  40 
 RUS  HZ EP       1456 12.06                             143   -0.3810  103 177 
 RUS  HN ES       1456 30.91                             143   -0.2610  103 177 
 RUS  HZ I        1456 31.66        26.7 0.22            143            103 177 
 TAM  HZ EP     D 1456 16.43                             131    0.33 9  154 106 
 OCA  HZ EP       1456 16.28                             130   -0.31 9  158 352 
 OCA  HN ES       1456 38.17                             130   -0.37 9  158 352 
 OCA  HZ I        1456 41.39        79.9 0.24            130            158 352 
 SPBC HZ EP       1456 17.26                             129   -0.02 9  166 219 
 SPBC HN ES       1456 39.05                             129   -0.72 9  166 219 
 SPBC HZ I        1456 46.37        34.4 0.22            128            166 219 
 ZAR  HZ EP       1456 21.07                             122    0.09 9  205 291 
 ZAR  HN ES       1456 46.59                             122    0.22 9  205 291 
 ZAR  HZ I        1456 52.70        53.2 0.30            122            205 291 
 NOR  HZ EP       1456 24.27                             118   -0.24 8  237 234 
 NOR  HN ES       1456 52.30                             118   -0.34 8  237 234 
 NOR  HZ I        1456 56.30        16.3 0.18            118            237 234 
 SML  HZ EP       1456 24.53                             118   -0.39 8  242 335 
 SML  HE ES   1   1456 52.90                             118   -0.48 6  242 335 
 SML  HZ I        1456 58.94        40.4 0.05            118            242 335 
 CHI  HZ EP       1456 26.44                             117   -0.05 8  252 195 
 CHI  HE ES       1456 56.51                             117    0.33 8  252 195 
 CHI  HZ I        1457  2.56         7.1 0.36            117            252 195 
 ROSC BZ EP   4   1456 27.81                             117    0.88 0  256 211 
 ROSC BN ES   4   1456 59.32                             117    2.37 0  256 211 
 ROSC BZ I        1457  3.79        13.3 0.35            116            256 211 
 HEL  HZ EP   4   1456 30.20                             115    1.27 0  274 255 
 HEL  HE ES       1457  0.75                             115    0.24 8  274 255 
 HEL  HZ I        1457  6.25        13.4 0.40            114            274 255 
 URE  HZ EP       1456 29.13                             114   -0.47 7  284 291 
 URE  HN ES   4   1456 59.87                             114   -1.84 0  284 291 
 URE  HZ I        1457  2.42        19.3 0.14            113            284 291 
 LL2C HZ EP   4   1456 34.16                             112    2.38 0  304 354 
 LL2C HN ES   4   1457  7.36                             112    1.77 0  304 354 
 LL2C HZ I        1457 11.23        20.9 0.35            112            304 354 
 GUY2CHZ EP       1456 32.88                             112    0.49 7  304 235 
 GUY2CHE ES   1   1457  6.51                             112   -0.17 5  304 235 
 GUY2CHZ I        1457 12.44         7.1 0.42                           304 235 
 PTGC HZ EP   4   1456 31.34                             112   -1.20 0  311 159 
 PTGC HE ES   4   1457  4.21                             112   -2.72 0  311 159 
 PTGC HZ I        1457 12.76        28.5 0.46            112            311 159 
 CBOC HZ EP   4   1456 36.84                             110    1.19 0  336 252 
 DBB  SZ EP   1   1456 36.22                             110    0.12 5  341 274 
 DBB  SZ ES       1457 13.18                             110   -0.10 7  341 274 
 TOL  SZ EP   4   1456 38.33                             109    1.27 0  346 225 
 TOL  SN ES       1457 15.75                             109    0.76 6  346 225 
 TOL  SZ I        1457 21.51         7.1 0.44            109            346 225 
 ORTC HE ES   1   1457 26.02                             106    0.93 4  398 216 
 ORTC HZ I        1457 30.38         5.8 0.28            106            398 216 
 SJC  HZ EP   4   1456 42.27                             106   -1.60 0  408 327 
 SJC  HE ES   4   1457 24.73                             106   -2.38 0  408 327 
 SJC  HZ I        1457 27.88         7.3 0.62            106            408 327 
 CRJC HZ EP   4   1456 48.64                             104   -2.00 0  465   3 
 CRJC HN ES   1   1457 39.45                             104    0.29 4  465   3 
 CRJC HZ I        1457 46.14         4.2 0.46            104            465   3 
                                                                                
