 2013  123 1138 43.6 L   6.772 -73.152150.3  RSN  5 0.4 1.4LRSN                1
 GAP=151        0.88      10.9     6.1  9.7 -0.2132E+02  0.1614E+02 -0.8400E+01E
 Epicentro: LOS SANTOS - SANTANDER                                             3
 ACTION:UPD 13-02-15 09:16 OP:ep   STATUS:               ID:20130123113843 L   I
 2013-01-23-1137-37M.COL___186                                                 6
 STAT SP IPHASW D HRMM SECON CODA AMPLIT PERI AZIMU VELO AIN AR TRES W  DIS CAZ7
 BAR2 SZ ES   1   1139 19.56                             172    0.14 7 20.2 190 
 BAR2 SZ I        1139 20.89         5.8 0.36            173           20.2 190 
 BRR  HZ EP   1   1139  5.83                             153    0.53 7 72.1 301 
 BRR  HN ES   1   1139 22.81                             153    0.59 7 72.1 301 
 BRR  HZ I        1139 24.76         5.7 0.18            153           72.1 301 
 PAM  SZ EP   1   1139  6.75                             151    0.27 7 80.2  39 
 PAM  SN ES   1   1139 23.61                             151   -0.70 7 80.2  39 
 PAM  SZ I        1139 25.72         5.1 0.42            153           80.2  39 
 PTB  HZ EP   1   1139 10.50                             133   -0.34 7  146 260 
 PTB  HN ES   1   1139 31.63                             133   -0.45 7  146 260 
 PTB  HZ I        1139 34.20         2.8 0.42            135            146 260 
 ZAR  HN ES   1   1139 41.79                             123   -0.20 6  205 293 
                                                                                
