 2011  923 1557 27.2 L   6.779 -73.108143.9  RSN  6 0.2 1.8LRSN                1
 GAP=142        0.47       3.7     5.7  5.4  0.8379E+01 -0.1200E+02 -0.6420E+01E
 Epicentro: LOS SANTOS - SANTANDER                                             3
 ACTION:UPD 12-07-13 15:59 OP:ep   STATUS:               ID:20110923155727 L   I
 2011-09-23-1554-30S.COL___165                                                 6
 STAT SP IPHASW D HRMM SECON CODA AMPLIT PERI AZIMU VELO AIN AR TRES W  DIS CAZ7
 BAR2 SZ EP       1557 46.49                             171   -0.1110 22.2 202 
 BAR2 SZ ES   1   1558  1.55                             171   -0.17 7 22.2 202 
 BAR2 SZ I        1558  4.00        13.2 0.34                          22.2 202 
 BTL  SZ EP       1557 46.70                             170    0.0810 23.4 311 
 BRR  HZ EP       1557 48.29                             150   -0.1510 76.0 299 
 BRR  HE ES   1   1558  5.30                             150    0.30 7 76.0 299 
 BRR  HZ I        1558  8.59        12.0 0.32                          76.0 299 
 PAM  SZ EP       1557 49.17                             151   -0.0210 76.7  36 
 RUS  HZ EP       1557 50.85                             144    0.2510 98.1 178 
 RUS  HN ES   1   1558  8.70                             144   -0.15 7 98.1 178 
 ZAR  HE ES   3   1558 24.73                             121   -0.90 2  209 292 
 ZAR  HZ I        1558 30.91         7.1 0.26                           209 292 
                                                                                
