 2013  923 1940 47.3 L   6.831 -73.143146.0  RSN 12 0.6 2.1LRSN 2.6WRSN        1
 SPEC AVERAGE  MO 13.0 ST205.1 OM  1.2 f0 20.6 R0.1676 AL 0.00 WI 20.0 MW  2.6 3
 SPEC SD       MO  0.2 ST295.5 OM  0.3 f0 13.7 R0.1345 AL      WI      MW  0.2 3
 GAP=135        1.50       4.2     5.4  7.7 -0.5750E+01  0.9830E+01 -0.3098E+01E
 Epicentro: LOS SANTOS - SANTANDER                                             3
 SPEC BAR2SH Z MO 12.9 ST0.454 OM  1.1 f0 4.37 R0.4403 AL-0.00 WI 20.0 MW  2.6 3
 SPEC BAR2SH Z T194121 K 0.050 GD  148 VS 5.20 DE 3.20 Q0750.0 QA 1.50 VS 5.20 3
 SPEC BRR HH Z MO 13.2 ST 23.1 OM  1.3 f0 13.5 R0.1425 AL-0.00 WI 20.0 MW  2.7 3
 SPEC BRR HH Z T194124 K 0.050 GD  161 VS 5.20 DE 3.20 Q0750.0 QA 1.50 VS 5.20 3
 SPEC PAM SH Z MO 12.8 ST  4.3 OM  0.9 f0 10.4 R0.1850 AL-0.00 WI 20.0 MW  2.5 3
 SPEC PAM SH Z T194125 K 0.050 GD  163 VS 5.20 DE 3.20 Q0750.0 QA 1.50 VS 5.20 3
 SPEC RUS HH Z MO 12.5 ST 27.7 OM  0.6 f0 23.7 R0.0812 AL-0.00 WI 20.0 MW  2.3 3
 SPEC RUS HH Z T194127 K 0.050 GD  179 VS 5.20 DE 3.20 Q0750.0 QA 1.50 VS 5.20 3
 SPEC PTB HH Z MO 13.1 ST  1.1 OM  1.1 f0 5.30 R0.3630 AL-0.00 WI 20.0 MW  2.7 3
 SPEC PTB HH Z T194133 K 0.050 GD  208 VS 5.20 DE 3.20 Q0750.0 QA 1.50 VS 5.20 3
 SPEC SPBCHH Z MO 13.1 ST356.4 OM  1.1 f0 35.3 R0.0545 AL-0.00 WI 20.0 MW  2.7 3
 SPEC SPBCHH Z T194136 K 0.050 GD  221 VS 5.20 DE 3.20 Q0750.0 QA 1.50 VS 5.20 3
 SPEC ZAR HH Z MO 13.2 ST586.5 OM  1.1 f0 40.0 R0.0481 AL-0.00 WI 20.0 MW  2.7 3
 SPEC ZAR HH Z T194143 K 0.050 GD  250 VS 5.20 DE 3.20 Q0750.0 QA 1.50 VS 5.20 3
 SPEC NOR HH Z MO 13.0 ST 14.8 OM  0.9 f0 13.2 R0.1458 AL-0.00 WI 20.0 MW  2.6 3
 SPEC NOR HH Z T194149 K 0.050 GD  278 VS 5.20 DE 3.20 Q0750.0 QA 1.50 VS 5.20 3
 SPEC SML HH Z MO 13.3 ST832.0 OM  1.2 f0 40.0 R0.0481 AL-0.00 WI 20.0 MW  2.8 3
 SPEC SML HH Z T194149 K 0.050 GD  281 VS 5.20 DE 3.20 Q0750.0 QA 1.50 VS 5.20 3
 SPECGUY2CHH Z MO 13.1 ST  0.3 OM  0.9 f0 3.29 R 0.585 AL-0.00 WI 20.0 MW  2.7 3
 SPECGUY2CHH Z T1942 4 K 0.050 GD336.3 VS 5.20 DE 3.20 Q0750.0 QA 1.50 VS 5.20 3
 OLDACT:REG 13-09-23 15:48 OP:stll STATUS:               ID:20130923193836     3
 ACTION:UPD 13-10-22 09:24 OP:ep   STATUS:               ID:20130923194047 L   I
 OLDACT:UP  13-09-23 20:27 OP:stll STATUS:               ID:20130923193836     3
 OLDACT:UP  13-09-23 20:26 OP:stll STATUS:               ID:20130923193836     3
 2013-09-23-1938-36M.COL___244                                                 6
 STAT SP IPHASW D HRMM SECON CODA AMPLIT PERI AZIMU VELO AIN AR TRES W  DIS CAZ7
 BAR2 SZ EP       1941  7.11                             169    0.1210 26.7 189 
 BAR2 SZ ES       1941 22.82                             169    0.4410 26.7 189 
 BAR2 SZ I        1941 23.20        20.3 0.36            167           26.7 189 
 BRR  HZ IP     C 1941  8.89                             153    0.5410 69.9 296 
 BRR  HN ES       1941 25.72                             153    0.9110 69.9 296 
 BRR  SZ I        1941 29.76        19.6 0.12            147           69.9 296 
 PAM  SZ EP       1941  9.80                             152    0.4710 74.6  41 
 PAM  SN ES       1941 26.78                             152    0.2310 74.6  41 
 PAM  SZ I        1941 29.15        16.9 0.54            152           74.6  41 
 RUS  HZ EP       1941 11.19                             143   -0.0910  104 176 
 RUS  HN ES       1941 29.31                             143   -0.7010  104 176 
 RUS  SZ I        1941 31.38        14.1 0.30            141            104 176 
 CAPV BZ EP       1941 14.96                             132    0.55 9  146  39 
 CAPV BZ ES       1941 35.00                             132   -0.59 9  146  39 
 PTB  HZ EP       1941 13.71                             132   -0.62 9  149 258 
 PTB  HZ I        1941 14.94        17.6 0.12            127            149 258 
 PTB  HN ES       1941 34.56                             132   -0.88 9  149 258 
 PTB  SZ I        1941 39.97        15.9 0.22            127            149 258 
 OCA  HZ EP       1941 14.53                             130   -0.74 9  157 353 
 OCA  HN ES       1941 36.56                             130   -0.56 9  157 353 
 OCA  SZ I        1941 41.50        11.9 0.26            127            157 353 
 SPBC HZ EP       1941 16.17                             129    0.13 9  166 218 
 SPBC HN ES       1941 38.13                             129   -0.36 9  166 218 
 SPBC SZ I        1941 41.78        16.5 0.16            125            166 218 
 ZAR  HZ EP       1941 21.06                             123    1.45 9  203 291 
 ZAR  HN ES       1941 45.14                             123    0.29 9  203 291 
 ZAR  SZ I        1941 50.46        20.5 0.68            119            203 291 
 NOR  HZ EP       1941 23.25                             118    0.02 8  237 234 
 NOR  SZ I        1941 53.24         8.8 0.16            115            237 234 
 SML  HZ EP       1941 23.19                             118   -0.38 8  241 335 
 SML  HN ES       1941 51.12                             118   -0.78 8  241 335 
 SML  SZ I        1942  3.63        18.8 0.08            115            241 335 
 GUY2CHZ EP       1941 31.45                             112    0.33 7  303 234 
 GUY2CSZ I        1942 13.31         5.5 0.46                           303 234 
                                                                                
