 2011  223 1241 22.8 L   6.778 -73.032147.7  RSN  5 0.3 1.6LRSN                1
 GAP=172        0.57       4.9    18.2  7.6 -0.5604E+02 -0.2195E+02  0.1009E+01E
 Epicentro: CEPITA - SANTANDER                                                 3
 ACTION:UP  11-03-28 15:10 OP:jfem STATUS:               ID:20110223124122 L   I
 2011-02-23-1237-30S.COL___136                                                 6
 STAT SP IPHASW D HRMM SECON CODA AMPLIT PERI AZIMU VELO SNR AR TRES W  DIS CAZ7
 BAR2 SZ EP       1241 42.59                             170    -0.210   27 219 
 BAR2 SZ I        1241 42.87         9.7 0.19                            27 219 
 BAR2 SZ ES   2   1241 58.47                             170     0.1 5   27 219 
 BTL  SZ EP       1241 42.96                             169     0.110   30 301 
 BTL  SZ ES   3   1241 59.41                             169     0.9 2   30 301 
 GIR2 SZ EP       1241 42.67                             165    -0.310   38 332 
 GIR2 SZ ES   3   1241 58.88                             165     0.3 2   38 332 
 RUS  HZ EP   1   1241 46.93                             145     0.3 7   98 183 
 RUS  HN ES   2   1242  5.00                             145    -0.2 5   98 183 
 RUS  HZ I        1242  6.23         4.8 0.38                            98 183 
 GRA  SZ EP       1241 48.43                             137     0.210  125  12 
 GRA  SZ ES   1   1242  7.79                             137    -0.2 7  125  12 
 GRA  SZ I        1242  9.16         8.2 0.32                           125  12 
                                                                                
