 2017  923 1553  7.4 L   6.110 -73.303153.3  RSN 10 0.4 1.9LRSN                1
 GAP= 64        0.84       3.1     2.6  5.2 -0.2933E+00  0.5025E+01  0.5816E+00E
 Epicentro: SUAITA - SANTANDER                                                 3
 ACTION:UPD 17-10-05 19:15 OP:rebc STATUS:               ID:20170923155307 L   I
 OLDACT:REG 17-09-23 20:45 OP:lv   STATUS:               ID:20170923154737     3
 2017-09-23-1548-00M.COL___444                                                 6
 STAT SP IPHASW D HRMM SECON CODA AMPLIT PERI AZIMU VELO AIN AR TRES W  DIS CAZ7
 RUS  HZ EP       1553 29.10                             167    0.4910 34.2 135 
 RUS  HN ES       1553 44.96                             167   -0.1610 34.2 135 
 RUS  HZ I        1553 49.17         5.8 0.26            168           34.2 135 
 BAR2 EZ IP     D 1553 29.38                             159    0.4110 55.0  14 
 BAR2 EZ ES       1553 46.24                             159    0.4810 55.0  14 
 BAR2 EZ I        1553 48.50        19.3 0.44            165           55.0  14 
 YPLC HZ IP     D 1553 33.71                             138    0.1910  129 128 
 YPLC HN ES       1553 53.60                             138   -0.2710  129 128 
 CHI  HZ EP       1553 37.37                             130   -0.26 9  170 196 
 CHI  HN ES       1554  1.32                             130    0.13 9  170 196 
 CHI  HZ I        1554  9.57         7.0 0.34            131            170 196 
 TAM  HZ EP       1553 37.19                             129   -0.02 9  171  78 
 TAM  HN ES       1553 59.77                             129   -0.65 9  171  78 
 NOR  HZ EP       1553 38.38                             127   -0.03 9  184 251 
 NOR  HN ES       1554  2.38                             127   -0.20 9  184 251 
 NOR  HZ I        1554  8.12        10.9 0.38            129            184 251 
 ZAR  HZ EP       1553 42.94                             121   -0.12 8  230 312 
 ZAR  HE ES       1554 10.37                             121   -0.48 8  230 312 
 GUY2CHZ EP   1   1553 46.45                             119    0.82 6  248 247 
 GUY2CHE ES   4   1554 17.73                             119    2.32 0  248 247 
 GUY2CHZ I        1554 27.29         5.2 0.42                           248 247 
 CBOC HZ EP       1553 50.93                             114   -0.08 7  301 265 
 CBOC HN ES       1554 24.76                             114   -0.23 7  301 265 
 CBOC HZ I        1554 32.31         3.7 0.48            116            301 265 
 PRA  HZ EP   4   1553 51.25                             112   -1.46 0  318 214 
 PRA  HN ES       1554 27.90                             112   -0.13 7  318 214 
 PRA  HZ I        1554 31.13         7.4 0.32            114            318 214 
                                                                                
