 2017  123 1702 18.9 L   6.812 -73.152143.6  RSN  5 0.3 1.4LRSN                1
 GAP=135        0.57       3.2     3.1  5.4 -0.1546E+01 -0.1393E+01  0.3777E+01E
 Epicentro: LOS SANTOS - SANTANDER                                             3
 ACTION:UPD 17-05-22 16:02 OP:jn   STATUS:               ID:20170123170218 L   I
 OLDACT:REG 17-01-23 20:29 OP:dnl  STATUS:               ID:20170123165747     3
 2017-01-23-1658-00M.COL___355                                                 6
 STAT SP IPHASW D HRMM SECON CODA AMPLIT PERI AZIMU VELO AIN AR TRES W  DIS CAZ7
 BAR2 EZ EP       17 2 38.11                             170   -0.2010 24.5 188 
 BAR2 EZ ES   2   17 2 53.58                             170    0.14 5 24.5 188 
 BAR2 EZ I        17 2 56.04         4.1 0.34            170           24.5 188 
 BRR  HZ EP   3   17 2 40.09                             153    0.32 2 70.0 298 
 BRR  HE ES       17 2 56.24                             153    0.2110 70.0 298 
 BRR  HZ I        17 3  0.22        11.2 0.30            152           70.0 298 
 PAM  EZ EP     C 17 2 40.85                             151   -0.0210 76.8  41 
 PAM  EN ES       17 2 57.88                             151   -0.1110 76.8  41 
 PAM  EZ I        17 3  0.20         3.3 0.58            155           76.8  41 
 RUS  HZ EP       17 2 42.62                             143    0.0610  102 176 
 RUS  HE ES       17 3  1.14                             143    0.1510  102 176 
 RUS  HZ I        17 3  2.31         2.3 0.40            147            102 176 
 PTB  HZ EP   2   17 2 46.48                             132    0.80 5  147 258 
 PTB  HN ES       17 3  6.18                             132   -0.37 9  147 258 
 PTB  HZ I        17 3 11.82         3.3 0.44            133            147 258 
                                                                                
