 2012 1223 1852  0.3 L   6.753 -73.187146.5  RSN  5 0.4 1.5LRSN                1
 GAP=174        0.77       6.7     7.3 10.0  0.8423E+01  0.1520E+02 -0.4686E+01E
 Epicentro: VILLANUEVA - SANTANDER                                             3
 ACTION:UPD 13-01-04 14:30 OP:ep   STATUS:               ID:20121223185200 L   I
 2012-12-23-1850-00M.COL___243                                                 6
 STAT SP IPHASW D HRMM SECON CODA AMPLIT PERI AZIMU VELO AIN AR TRES W  DIS CAZ7
 BAR2 SZ ES   1   1852 34.95                             173   -0.24 7 17.8 178 
 BAR2 SZ I        1852 36.01        14.4 0.20                          17.8 178 
 GIR2 SZ EP   1   1852 19.88                             165   -0.28 7 36.0 359 
 GIR2 SZ ES   1   1852 35.36                             165   -0.32 7 36.0 359 
 GIR2 SZ I        1852 37.27         3.9 0.44                          36.0 359 
 BRR  HZ EP   1   1852 21.71                             153    0.29 7 70.0 304 
 BRR  HE ES   1   1852 38.58                             153    0.65 7 70.0 304 
 BRR  HZ I        1852 42.56         6.0 0.14                          70.0 304 
 RUS  HN ES   1   1852 42.36                             145    0.28 7 95.9 173 
 RUS  HZ I        1852 44.11         4.6 0.26                          95.9 173 
 PTB  HN ES   1   1852 47.07                             133   -0.44 7  142 261 
 PTB  HZ I        1852 50.07         4.2 0.20                           142 261 
                                                                                
