 2016  423 1100 18.6 L   6.820 -73.146145.5  RSN  9 0.4 2.0LRSN                1
 GAP=136        1.03       3.5     4.2  6.4 -0.3309E+01  0.1130E+02 -0.2436E+01E
 Epicentro: LOS SANTOS - SANTANDER                                             3
 ACTION:UPD 16-05-05 14:23 OP:rebc STATUS:               ID:20160423110018 L   I
 OLDACT:REG 16-04-23 21:04 OP:ar   STATUS:               ID:20160423105746     3
 2016-04-23-1057-46M.COL___299                                                 6
 STAT SP IPHASW D HRMM SECON CODA AMPLIT PERI AZIMU VELO AIN AR TRES W  DIS CAZ7
 BAR2 EZ EP       11 0 38.13                             170   -0.1410 25.5 189 
 BAR2 EZ ES       11 0 53.96                             170    0.3710 25.5 189 
 BAR2 EZ I        11 0 55.14        17.7 0.18            172           25.5 189 
 PAM  EZ EP       11 0 40.95                             151    0.2410 75.7  41 
 PAM  EN ES       11 0 58.32                             151    0.3910 75.7  41 
 PAM  EZ I        11 1  2.63        10.9 0.82            154           75.7  41 
 RUS  HZ EP       11 0 42.25                             143   -0.2610  103 176 
 RUS  HE ES       11 1  0.85                             143   -0.2910  103 176 
 RUS  HZ I        11 1  1.67        10.2 0.28            149            103 176 
 PTB  HZ EP       11 0 44.76                             132   -0.85 9  148 258 
 PTB  HN ES       11 1  6.35                             132   -0.31 9  148 258 
 PTB  HZ I        11 1 10.68        14.6 0.30            133            148 258 
 OCA  HZ EP       11 0 46.84                             130    0.14 9  158 353 
 OCA  HN ES       11 1  8.24                             130   -0.37 9  158 353 
 OCA  HZ I        11 1 14.03        27.0 0.20            131            158 353 
 SPBC HZ EP       11 0 47.03                             129   -0.24 9  165 219 
 SPBC HN ES       11 1  9.67                             129    0.06 9  165 219 
 SPBC HZ I        11 1 11.24        16.4 0.12            132            165 219 
 ZAR  HZ EP       11 0 50.81                             122   -0.16 9  203 292 
 ZAR  HE ES       11 1 16.05                             122   -0.14 9  203 292 
 ZAR  HZ I        11 1 22.16        18.2 0.40            124            203 292 
 HEL  HZ EP       11 0 59.64                             115    0.76 8  273 255 
 HEL  HN ES       11 1 30.99                             115    0.70 8  273 255 
 HEL  HZ I        11 1 37.14         4.5 0.58            117            273 255 
 GUY2CHZ EP       11 1  3.21                             112    0.84 7  302 234 
 GUY2CHN ES   4   11 1 40.35                             112    3.86 0  302 234 
 GUY2CHZ I        11 1 43.49         4.3 0.58                           302 234 
                                                                                
