 2017 1223 1227 41.4 L   7.386 -73.191129.1  RSN  4 0.2 1.4LRSN                1
 GAP=182        0.59       4.8     3.5  6.5  0.2292E+00  0.1432E+02 -0.4817E+01E
 Epicentro: EL PLAYON - SANTANDER                                              3
 ACTION:UPD 18-01-04 13:23 OP:rebc STATUS:               ID:20171223122741 L   I
 OLDACT:REG 17-12-23 20:28 OP:dani STATUS:               ID:20171223121738     3
 2017-12-23-1218-00M.COL___456                                                 6
 STAT SP IPHASW D HRMM SECON CODA AMPLIT PERI AZIMU VELO AIN AR TRES W  DIS CAZ7
 PAM  EE ES       1228 15.46                             156    0.0010 54.5  95 
 BAR2 EZ EP       1228  2.09                             144   -0.1210 87.7 179 
 BAR2 EZ ES       1228 18.52                             144    0.0610 87.7 179 
 BAR2 EZ I        1228 20.41         5.8 0.28            145           87.7 179 
 PTB  HZ EP       1228  9.49                             124    0.42 9  168 236 
 PTB  HN ES       1228 30.43                             124   -0.24 9  168 236 
 PTB  HZ I        1228 35.07         2.0 0.15            125            168 236 
 ZAR  HZ EP       1228 10.42                             121   -0.30 9  184 274 
 ZAR  HN ES       1228 33.77                             121    0.17 9  184 274 
 ZAR  HZ I        1228 36.96         4.3 0.28            123            184 274 
                                                                                
