 2016 1223 1013 55.8 L   6.335 -73.574110.4  RSN  7 0.4 1.5LRSN                1
 GAP=105        0.85       3.2     3.6  6.2  0.1980E+01  0.1107E+02  0.4001E+01E
 Epicentro: SANTA HELENA DEL OPON - SANTANDER                                  3
 ACTION:UPD 17-01-11 20:18 OP:rebc STATUS:               ID:20161223101355 L   I
 OLDACT:UP  16-12-23 21:34 OP:dani STATUS:               ID:20161223100743     3
 OLDACT:UP  16-12-23 21:29 OP:dani STATUS:               ID:20161223100743     3
 OLDACT:UP  16-12-23 21:29 OP:dani STATUS:               ID:20161223100743     3
 OLDACT:UP  16-12-23 21:29 OP:dani STATUS:               ID:20161223100743     3
 OLDACT:UP  16-12-23 21:28 OP:dani STATUS:               ID:20161223100743     3
 OLDACT:UP  16-12-23 21:22 OP:dani STATUS:               ID:20161223100743     3
 OLDACT:UP  16-12-23 21:22 OP:dani STATUS:               ID:20161223100743     3
 OLDACT:UP  16-12-23 21:22 OP:dani STATUS:               ID:20161223100743     3
 OLDACT:REG 16-12-23 20:38 OP:edw  STATUS:               ID:20161223100743     3
 2016-12-23-1008-00M.COL___387                                                 6
 STAT SP IPHASW D HRMM SECON CODA AMPLIT PERI AZIMU VELO AIN AR TRES W  DIS CAZ7
 BAR2 EZ EP       1014 12.47                             153    0.0710 51.8  57 
 BAR2 EZ ES       1014 25.86                             153    0.5310 51.8  57 
 BAR2 EZ I        1014 27.18        20.1 0.34            156           51.8  57 
 RUS  HZ EP       1014 13.90                             144   -0.2110 73.1 132 
 RUS  HE ES       1014 27.94                             144   -0.4410 73.1 132 
 RUS  HZ I        1014 30.63         7.5 0.28            148           73.1 132 
 PTB  HZ EP   9   1014 14.23                             134   -1.38 0  100 283 
 PTB  HN ES       1014 29.55                             134   -0.1110  100 283 
 PTB  HZ I        1014 32.60         4.3 0.14            135            100 283 
 NOR  HZ EP       1014 22.09                             119   -0.13 9  167 239 
 NOR  HN ES       1014 42.64                             119   -0.17 9  167 239 
 NOR  HZ I        1014 44.19         5.7 0.26            121            167 239 
 CHI  HZ EP       1014 25.23                             116    0.10 9  189 185 
 CHI  HE ES       1014 48.15                             116    0.16 9  189 185 
 CHI  HZ I        1014 50.86         1.2 0.26            118            189 185 
 ZAR  HZ EP       1014 24.26                             115   -0.54 9  191 312 
 ZAR  HN ES       1014 47.45                             115    0.05 9  191 312 
 ZAR  HZ I        1014 54.26         4.7 0.26            116            191 312 
 GUY2CHZ EP       1014 30.87                             110    0.73 8  233 238 
 GUY2CHE ES   4   1014 58.90                             110    1.98 0  233 238 
 GUY2CHZ I        1015  3.52         1.8 0.13                           233 238 
                                                                                
