 2013  823 1651 58.7 L   6.765 -73.150136.0  RSN  6 0.5 1.7LRSN                1
 GAP=138        1.21       5.8     5.3  8.6  0.3386E+01  0.9639E+01 -0.4282E+01E
 Epicentro: LOS SANTOS - SANTANDER                                             3
 ACTION:UPD 14-01-14 09:06 OP:ep   STATUS:               ID:20130823165158 L   I
 OLDACT:REG 13-08-23 17:07 OP:stll STATUS:               ID:20130823164848     3
 2013-08-23-1648-48M.COL___221                                                 6
 STAT SP IPHASW D HRMM SECON CODA AMPLIT PERI AZIMU VELO AIN AR TRES W  DIS CAZ7
 BAR2 SZ EP       1652 16.87                             171   -0.2310 19.4 190 
 BAR2 SZ ES       1652 31.23                             171   -0.2010 19.4 190 
 BAR2 SZ I        1652 32.80        10.6 0.26            171           19.4 190 
 BRR  HZ EP       1652 18.68                             150   -0.2310 72.7 301 
 BRR  HN ES       1652 35.51                             150    0.8510 72.7 301 
 BRR  HN I        1652 36.52        22.4 0.28            149           72.7 301 
 PAM  SZ EP       1652 19.58                             148   -0.5410 80.7  38 
 PAM  SN ES       1652 36.82                             148    0.0110 80.7  38 
 PAM  SZ I        1652 38.84         8.2 0.60            151           80.7  38 
 RUS  HZ EP       1652 21.68                             143    0.4410 96.8 176 
 RUS  HN ES       1652 38.98                             143    0.1810 96.8 176 
 RUS  HZ I        1652 40.98         3.3 0.48            145           96.8 176 
 PTB  HN ES       1652 44.37                             130   -0.76 9  147 260 
 PTB  HN I        1652 50.05        12.9 0.26            130            147 260 
 ZAR  HZ EP       1652 31.32                             120    0.67 9  205 293 
 ZAR  HN ES       1652 55.41                             120   -0.15 9  205 293 
 ZAR  HZ I        1653  1.62         5.8 0.30            120            205 293 
                                                                                
