 2013  323 1417 39.1 L   6.776 -73.136148.9  RSN 11 0.3 2.5LRSN                1
 GAP=139        0.83       3.1     3.2  4.6  0.5768E-01  0.4680E+01  0.3255E+01E
 Epicentro: LOS SANTOS - SANTANDER                                             3
 ACTION:UPD 13-04-09 14:04 OP:ep   STATUS:               ID:20130323141739 L   I
 2013-03-23-1410-00M.COL___245                                                 6
 STAT SP IPHASW D HRMM SECON CODA AMPLIT PERI AZIMU VELO AIN AR TRES W  DIS CAZ7
 BAR2 SZ EP       1417 58.96                             172   -0.0710 21.0 194 
 BAR2 SZ ES       1418 14.65                             172    0.0510 21.0 194 
 BAR2 SZ I        1418 17.48        49.3 0.18            167           21.0 194 
 BRR  HZ IP     C 1418  0.93                             152    0.2510 73.4 300 
 BRR  HN ES       1418 17.99                             152    0.4510 73.4 300 
 BRR  HN I        1418 21.61       130.9 0.18            149           73.4 300 
 PAM  SZ EP       1418  1.82                             151    0.1210 78.8  38 
 PAM  SN ES       1418 19.08                             151   -0.2710 78.8  38 
 PAM  SN I        1418 20.35        49.2 0.54            152           78.8  38 
 RUS  HZ EP       1418  2.78                             145   -0.1610 97.9 177 
 RUS  HN ES       1418 21.55                             145   -0.0110 97.9 177 
 RUS  HN I        1418 24.38        23.9 0.32            140           97.9 177 
 PTB  HZ EP       1418  5.69                             133   -0.66 9  148 260 
 PTB  HN ES       1418 27.14                             133   -0.48 9  148 260 
 ZAR  HZ EP       1418 11.51                             123   -0.42 8  206 293 
 ZAR  HN ES       1418 37.96                             123    0.40 8  206 293 
 ZAR  HN I        1418 45.00        49.4 0.14            119            206 293 
 NOR  HZ EP       1418 14.88                             119   -0.04 8  234 235 
 NOR  HN ES       1418 43.00                             119    0.12 8  234 235 
 CHI  HZ EP       1418 16.95                             118    0.25 8  246 196 
 CHI  HN ES       1418 46.23                             118    0.18 8  246 196 
 CHI  HN I        1418 51.21        18.4 0.30            114            246 196 
 HEL  HZ EP       1418 20.24                             115    0.75 8  273 256 
 HEL  HN ES       1418 50.65                             115   -0.37 8  273 256 
 HEL  HN I        1419  1.69        14.7 0.62            112            273 256 
 PRA  HZ EP       1418 32.77                             107    0.27 6  390 210 
 PRA  HN I        1419 20.61         9.6 0.36            104            390 210 
 SJC  HN ES   4   1419 14.22                             106   -4.52 0  412 327 
 SJC  HN I        1419 17.88        19.2 0.36            104            412 327 
                                                                                
