 2017 1223 1202 31.8 L   6.835 -73.190142.0  RSN  4 0.3 1.5LRSN                1
 GAP=147        0.70       6.0     5.2  6.0 -0.2197E+02  0.8591E+01 -0.1742E+01E
 Epicentro: ZAPATOCA - SANTANDER                                               3
 ACTION:UPD 18-01-04 13:23 OP:rebc STATUS:               ID:20171223120231 L   I
 OLDACT:REG 17-12-23 20:26 OP:dani STATUS:               ID:20171223115740     3
 2017-12-23-1158-00M.COL___457                                                 6
 STAT SP IPHASW D HRMM SECON CODA AMPLIT PERI AZIMU VELO AIN AR TRES W  DIS CAZ7
 BAR2 EZ EP       12 2 50.78                             169   -0.3010 26.9 178 
 BAR2 EZ ES       12 3  5.75                             169   -0.3510 26.9 178 
 BAR2 EZ I        12 3  6.99         9.3 0.30            170           26.9 178 
 PAM  EZ EP       12 2 53.76                             150    0.1010 77.7  44 
 PAM  EN ES       12 3 11.00                             150    0.3110 77.7  44 
 PAM  EZ I        12 3 12.76         6.0 0.28            154           77.7  44 
 PTB  HZ EP       12 2 57.98                             132   -0.15 9  144 257 
 PTB  HN ES       12 3 18.63                             132   -0.01 9  144 257 
 PTB  HZ I        12 3 24.75         1.5 0.12            132            144 257 
 SPBC HZ EP       12 3  0.03                             128   -0.02 9  163 217 
 SPBC HN ES       12 3 22.52                             128    0.47 9  163 217 
 SPBC HZ I        12 3 26.39         5.7 0.10            130            163 217 
                                                                                
