 2016  623 1159 27.5 L   6.783 -73.159144.5  RSN  6 0.4 1.6LRSN                1
 GAP=235        1.13       6.3     6.6  8.3  0.1715E+02  0.9632E+01  0.3924E+01E
 Epicentro: LOS SANTOS - SANTANDER                                             3
 ACTION:UPD 16-07-21 22:22 OP:rebc STATUS:               ID:20160623115927 L   I
 OLDACT:REG 16-06-23 20:44 OP:ar   STATUS:               ID:20160623115744     3
 2016-06-23-1157-44M.COL___331                                                 6
 STAT SP IPHASW D HRMM SECON CODA AMPLIT PERI AZIMU VELO AIN AR TRES W  DIS CAZ7
 BAR2 EZ EP       1159 46.60                             171   -0.2810 21.2 187 
 BAR2 EZ ES       12 0  1.26                             171   -0.7810 21.2 187 
 BAR2 EZ I        12 0  4.29         8.7 0.24                          21.2 187 
 BRR  HZ EP       1159 48.69                             152    0.2510 70.8 300 
 BRR  HN ES       12 0  5.41                             152    0.6010 70.8 300 
 BRR  HZ I        12 0  9.23        11.2 0.30                          70.8 300 
 RUS  HZ EP       1159 51.08                             144    0.1310 98.8 175 
 RUS  HE ES       12 0  9.81                             144    0.5410 98.8 175 
 RUS  HZ I        12 0 10.51         4.8 0.46                          98.8 175 
 PTB  HZ EP       1159 53.59                             132   -0.56 9  146 259 
 PTB  HE ES       12 0 14.51                             132   -0.46 9  146 259 
 PTB  HZ I        12 0 16.26         3.9 0.27                           146 259 
 SPBC HZ EP       1159 55.73                             129    0.11 9  161 219 
 SPBC HN ES       12 0 17.75                             129    0.16 9  161 219 
 SPBC HZ I        12 0 20.30         7.4 0.12                           161 219 
 ZAR  HN ES       12 0 25.20                             122    0.27 9  203 293 
 ZAR  HZ I        12 0 30.83         5.2 0.07                           203 293 
                                                                                
