 2013  623 1149  6.1 L   6.788 -73.173154.3  RSN  7 0.4 1.6LRSN                1
 GAP=178        0.83       5.2     5.8  7.6  0.8000E+01  0.1177E+01 -0.1364E+01E
 Epicentro: LOS SANTOS - SANTANDER                                             3
 ACTION:UPD 14-01-08 09:56 OP:ep   STATUS:               ID:20130623114906 L   I
 OLDACT:UP  13-06-23 17:38 OP:cam  STATUS:               ID:20130623114845     3
 OLDACT:REG 13-06-23 17:25 OP:cam  STATUS:               ID:20130623114845     3
 2013-06-23-1148-45M.COL___229                                                 6
 STAT SP IPHASW D HRMM SECON CODA AMPLIT PERI AZIMU VELO AIN AR TRES W  DIS CAZ7
 BAR2 SZ EP   1   1149 26.35                             172   -0.40 7 21.7 183 
 GIR2 SZ EP       1149 26.78                             167   -0.0610 32.2 356 
 GIR2 SZ ES   1   1149 42.76                             167   -0.24 7 32.2 356 
 BRR  HZ EP       1149 28.38                             155    0.2810 69.2 301 
 BRR  HE ES   1   1149 45.99                             155    0.75 7 69.2 301 
 BRR  HZ I        1149 54.62         9.0 0.34            154           69.2 301 
 RUS  HZ EP       1149 31.10                             146    0.4510 99.5 174 
 RUS  HN ES       1149 49.59                             146   -0.1910 99.5 174 
 RUS  HZ I        1149 50.33         4.1 0.34            154           99.5 174 
 GRA  SZ E      C 1151 12.20                                            128  19 
 PTB  HZ EP       1149 33.30                             135   -0.22 9  145 259 
 PTB  HN ES       1149 54.62                             135   -0.27 9  145 259 
 PTB  HZ I        1149 57.92         4.6 0.16            138            145 259 
 SML  HN ES   2   1150 11.53                             119   -0.66 4  244 336 
                                                                                
