 2014  823 1608 16.2 L   6.801 -73.115150.3  RSN 12 0.3 2.4LRSN                1
 GAP=140        0.84       2.6     4.1  4.6  0.9821E+00  0.4288E+01 -0.3690E+00E
 Epicentro: LOS SANTOS - SANTANDER                                             3
 ACTION:UPD 14-09-15 21:52 OP:nd   STATUS:               ID:20140823160816 L   I
 OLDACT:UP  14-08-23 22:43 OP:cam  STATUS:               ID:20140823160000     3
 OLDACT:REG 14-08-23 20:57 OP:cam  STATUS:               ID:20140823160000     3
 2014-08-23-1600-00M.COL___288                                                 6
 STAT SP IPHASW D HRMM SECON CODA AMPLIT PERI AZIMU VELO AIN AR TRES W  DIS CAZ7
 BAR2 SZ EP     D 16 8 36.42                             171    0.0510 24.3 198 
 BAR2 SZ ES       16 8 51.95                             171   -0.1710 24.3 198 
 BAR2 SZ I        16 8 54.02        40.6 0.18            175           24.3 198 
 BRR  HZ EP       16 8 38.24                             152    0.2610 74.2 297 
 BRR  HE ES       16 8 55.64                             152    0.6510 74.2 297 
 BRR  HZ I        16 9  0.18        30.3 0.24            153           74.2 297 
 PAM  SZ EP     D 16 8 39.24                             152    0.4910 75.2  38 
 PAM  SZ I        16 8 58.66        28.6 0.20            150           75.2  38 
 RUS  HZ EP     C 16 8 40.29                             145   -0.0810  101 178 
 RUS  HE ES       16 8 58.66                             145   -0.5810  101 178 
 RUS  HZ I        16 8 59.77        13.8 0.34            148            101 178 
 PTB  HZ EP       16 8 43.31                             132   -0.51 9  151 259 
 PTB  HN ES   4   16 9  4.44                             132   -0.94 0  151 259 
 PTB  HZ I        16 9 10.27        38.3 0.24            135            151 259 
 SPBC HZ EP       16 8 45.43                             130    0.20 9  165 220 
 SPBC HN ES       16 9  8.09                             130    0.19 9  165 220 
 SPBC HZ I        16 9 14.38        46.9 0.38            133            165 220 
 ZAR  HZ EP       16 8 49.14                             123   -0.10 8  207 292 
 ZAR  HE ES       16 9 14.84                             123   -0.19 8  207 292 
 ZAR  HN I        16 9 20.82        39.6 0.30            124            207 292 
 NOR  HZ EP       16 8 52.28                             119   -0.19 8  238 235 
 NOR  HN ES       16 9 20.62                             119   -0.17 8  238 235 
 NOR  HZ I        16 9 24.68        24.7 0.24            121            238 235 
 SML  HZ EP       16 8 52.82                             118   -0.38 8  245 335 
 SML  HE ES       16 9 21.60                             118   -0.48 8  245 335 
 SML  HZ I        16 9 25.05        34.2 0.24            118            245 335 
 CHI  HZ EP       16 8 54.39                             118    0.15 8  250 196 
 CHI  HN ES       16 9 24.03                             118    0.10 8  250 196 
 HEL  HZ EP       16 8 57.41                             115    0.42 7  275 256 
 GUY2CHZ EP       16 9  0.48                             113    0.17 7  304 235 
                                                                                
