 2012  623 1424 17.3 L   6.700 -73.159149.6  RSN  5 0.2 1.6LRSN                1
 GAP=228        0.51       6.0     6.6  5.5  0.2183E+02  0.8596E+01 -0.4439E+01E
 Epicentro: VILLANUEVA - SANTANDER                                             3
 ACTION:UPD 12-08-06 17:51 OP:ep   STATUS:               ID:20120623142417 L   I
 2012-06-23-1419-38M.COL___182                                                 6
 STAT SP IPHASW D HRMM SECON CODA AMPLIT PERI AZIMU VELO AIN AR TRES W  DIS CAZ7
 BAR2 SZ EP   1   1424 37.10                             175   -0.10 7 12.2 192 
 BAR2 SZ ES   1   1424 52.83                             175    0.09 7 12.2 192 
 BAR2 SZ I        1424 53.74         8.1 0.34                          12.2 192 
 BRR  HZ EP   1   1424 38.82                             152   -0.29 7 75.9 306 
 BRR  HN ES   2   1424 56.23                             152    0.10 5 75.9 306 
 RUS  HZ EP   1   1424 41.04                             148    0.37 7 89.7 175 
 RUS  HN ES   1   1424 58.75                             148   -0.16 7 89.7 175 
 RUS  HZ I        1425  0.84         4.1 0.41                          89.7 175 
 PTB  HZ EP   1   1424 43.95                             133   -0.33 7  145 263 
 PTB  HN ES   2   1425  5.49                             133    0.16 5  145 263 
 PTB  HZ I        1425 12.26         4.8 0.55                           145 263 
 ZAR  HZ EP   1   1424 50.66                             123    0.37 6  207 295 
 ZAR  HZ I        1425 22.03         5.5 0.42                           207 295 
                                                                                
