 2016  323 1139 23.2 L   6.814 -73.310122.0  RSN  4 0.4 1.4LRSN                1
 GAP=216        0.55      10.9     5.7  8.4  0.1991E+02  0.1483E+02 -0.3816E+02E
 Epicentro: ZAPATOCA - SANTANDER                                               3
 ACTION:UPD 16-05-13 21:26 OP:cam  STATUS:               ID:20160323113923 L   I
 OLDACT:REG 16-03-23 20:35 OP:dnl  STATUS:               ID:20160323113747     3
 2016-03-23-1137-47M.COL___301                                                 6
 STAT SP IPHASW D HRMM SECON CODA AMPLIT PERI AZIMU VELO AIN AR TRES W  DIS CAZ7
 BAR2 EZ EP       1139 40.09                             166    0.0110 28.3 150 
 BAR2 EZ ES       1139 53.24                             166   -0.0310 28.3 150 
 BAR2 EZ I        1139 54.47        21.5 0.32            177           28.3 150 
 PTB  HZ EP   3   1139 45.74                             130   -0.88 2  130 257 
 PTB  HN ES   2   1140  5.35                             130    0.43 5  130 257 
 PTB  HZ I        1140  7.52         2.1 0.22            131            130 257 
 SPBC HZ EP   4   1139 46.47                             124   -2.52 0  154 213 
 SPBC HE ES   3   1140  8.45                             124   -0.69 2  154 213 
 ZAR  HZ EP   2   1139 52.90                             119    0.59 4  187 294 
 ZAR  HE ES   2   1140 14.46                             119   -0.58 4  187 294 
 ZAR  HZ I        1140 22.11         1.8 0.10            119            187 294 
                                                                                
