 2010 1023 1232 52.8 L   6.765 -73.168141.4  RSN  8 0.5 1.9LRSN                1
 GAP=157        1.00       6.9    14.3 12.0 -0.6218E+02  0.6797E+02 -0.1150E+02E
 Epicentro: LOS SANTOS - SANTANDER                                             3
 ACTION:UP  11-02-18 11:11 OP:tino STATUS:               ID:20101023123252 L   I
 2010-10-23-1230-26S.COL___127                                                 6
 STAT SP IPHASW D HRMM SECON CODA AMPLIT PERI AZIMU VELO SNR AR TRES W  DIS CAZ7
 BAR2 SZ EP   1   1233 11.46                             172    -0.4 7   19 185 
 BAR2 SZ ES   2   1233 26.42                             172    -0.3 5   19 185 
 BAR2 SZ I        1233 28.19        13.0 0.16                            19 185 
 BTL  SZ EP   1   1233 10.96                             172    -0.9 7   20 327 
 RUS  HZ EP   1   1233 15.97                             143     0.1 7   97 174 
 RUS  HE ES   2   1233 34.28                             143     0.4 5   97 174 
 RUS  HZ I        1233 35.45         9.7 0.25                            97 174 
 GUE  SZ EP   1   1233 17.86                             137     0.3 7  121  13 
 GRA  SZ EP   1   1233 18.91                             134     0.8 7  130  18 
 GRA  SZ ES   2   1233 37.85                             134     0.1 5  130  18 
 GRA  SZ I        1233 39.18        13.3 0.30                           130  18 
 NOR  SZ EP   1   1233 27.47                             118    -0.4 6  231 235 
 NOR  SN ES   2   1233 56.15                             118     0.9 4  231 235 
 CHI  HZ EP   1   1233 29.77                             116    -0.1 6  244 195 
 CHI  HE ES   2   1233 59.16                             116     0.5 4  244 195 
 CHI  HZ I        1234  2.42         3.8 0.33                           244 195 
 PRA  HZ EP   1   1233 45.41                             106    -0.3 4  387 210 
 PRA  HZ I        1233 47.12         8.0 0.12                           387 210 
 PRA  HN ES   2   1234 27.74                             106     0.8 3  387 210 
                                                                                
