 2017  423 1548  9.2 L   6.495 -73.713118.0  RSN  6 0.4 1.8LRSN                1
 GAP=144        0.85       4.3     3.1  6.1  0.2422E+01 -0.6717E+00  0.6654E+01E
 Epicentro: SANTA HELENA DEL OPON - SANTANDER                                  3
 ACTION:UPD 17-05-30 21:15 OP:jn   STATUS:               ID:20170423154809 L   I
 OLDACT:UP  17-04-23 22:53 OP:dani STATUS:               ID:20170423153740d    3
 OLDACT:UP  17-04-23 22:53 OP:dani STATUS:               ID:20170423153740d    3
 OLDACT:UP  17-04-23 22:53 OP:dani STATUS:               ID:20170423153740d    3
 OLDACT:DUP 17-04-23 22:48 OP:dani STATUS:               ID:20170423153740d    3
 2017-04-23-1538-00M.COL___371                                                 6
 STAT SP IPHASW D HRMM SECON CODA AMPLIT PERI AZIMU VELO AIN AR TRES W  DIS CAZ7
 BAR2 EZ EP       1548 26.97                             152   -0.0610 59.7  80 
 BAR2 EZ ES       1548 40.75                             152   -0.2010 59.7  80 
 BAR2 EZ I        1548 42.27        25.7 0.40            153           59.7  80 
 BRR  HZ EP       1548 27.21                             148    0.0410 67.7   0 
 BRR  HN ES       1548 41.75                             148    0.5410 67.7   0 
 BRR  HZ I        1548 46.36        10.4 0.30            146           67.7   0 
 PTB  HZ EP       1548 28.13                             143   -0.0810 82.3 273 
 PTB  HN ES       1548 42.70                             143   -0.3610 82.3 273 
 PTB  HZ I        1548 43.81         9.8 0.29            142           82.3 273 
 PAM  EZ EP       1548 34.14                             126   -0.33 9  146  50 
 PAM  EE ES       1548 53.89                             126   -0.32 9  146  50 
 PAM  EZ I        1548 55.89         4.7 0.07            126            146  50 
 ZAR  HZ EP       1548 36.28                             121    0.20 9  168 311 
 ZAR  HE ES   3   1548 59.34                             121    2.27 2  168 311 
 ZAR  HZ I        1549  4.36        15.5 0.44            121            168 311 
 YPLC HZ EP       1548 38.67                             117    0.01 9  191 129 
 YPLC HE ES       1549  2.19                             117    0.53 9  191 129 
 YPLC HZ I        1549  3.42         8.0 0.28            119            191 129 
                                                                                
