 2011  523 1616 24.4 L   6.553 -73.600106.6  RSN  7 0.2 1.9LRSN                1
 GAP=148        0.45       4.6     4.6  5.4 -0.1197E+02  0.7351E+01 -0.4364E+01E
 Epicentro: EL CARMEN DE CHUCURI - SANTANDER                                   3
 ACTION:UP  11-06-29 08:55 OP:tino STATUS:               ID:20110523161624 L   I
 2011-05-23-1614-29S.COL___141                                                 6
 STAT SP IPHASW D HRMM SECON CODA AMPLIT PERI AZIMU VELO SNR AR TRES W  DIS CAZ7
 BAR2 SZ EP   2   1616 39.89                             155    -0.4 5   46  85 
 BAR2 SZ ES   1   1616 52.72                             155     0.1 7   46  85 
 BAR2 SZ I        1616 54.11        87.9 0.29                            46  85 
 BTL  SZ EP   2   1616 40.69                             151     0.0 5   55  42 
 BRR  HZ EP   1   1616 41.21                             147     0.4 7   63 349 
 BRR  HE ES   2   1616 53.53                             147    -0.2 5   63 349 
 BRR  HZ I        1616 58.07        15.3 0.29                            63 349 
 GIR2 SZ EP   2   1616 41.56                             143    -0.3 5   74  38 
 PAM  SZ EP   1   1616 47.60                             125     0.1 7  132  49 
 GRA  SZ EP   2   1616 50.91                             117    -0.3 4  172  31 
 GRA  SZ ES   2   1617 11.98                             117    -0.1 4  172  31 
 GRA  SZ I        1617 15.76         4.2 0.50                           172  31 
 NOR  SZ EP   2   1616 52.03                             116     0.3 4  178 232 
 NOR  SE ES   2   1617 12.82                             116    -0.3 4  178 232 
                                                                                
