 2016 1123 1509  0.5 L   6.791 -73.141147.9  RSN 14 0.4 2.6LRSN                1
 GAP=120        1.17       4.6     4.6  6.4  0.1382E+01  0.6095E+01  0.9443E+01E
 Epicentro: LOS SANTOS - SANTANDER                                             3
 ACTION:UPD 17-10-26 21:10 OP:lp   STATUS:               ID:20161123150900 L   I
 OLDACT:UP  16-11-24 00:19 OP:edw  STATUS:               ID:20161123150744     3
 OLDACT:UP  16-11-24 00:17 OP:edw  STATUS:               ID:20161123150744     3
 OLDACT:REG 16-11-23 20:40 OP:edw  STATUS:               ID:20161123150744     3
 2016-11-23-1508-00M.COL___355                                                 6
 STAT SP IPHASW D HRMM SECON CODA AMPLIT PERI AZIMU VELO AIN AR TRES W  DIS CAZ7
 BAR2 EZ IP     D 15 9 20.32                             171   -0.0110 22.5 192 
 BAR2 EZ ES       15 9 35.19                             171   -0.6410 22.5 192 
 BAR2 EZ I        15 9 36.58        86.1 0.28            165           22.5 192 
 BRR  HZ EP       15 9 22.20                             152    0.3110 72.1 299 
 BRR  HN ES       15 9 39.24                             152    0.6410 72.1 299 
 BRR  HZ I        15 9 40.94        59.3 0.12            150           72.1 299 
 PAM  EZ EP     C 15 9 23.12                             150    0.1910 77.8  39 
 PAM  EN ES       15 9 40.32                             150   -0.1310 77.8  39 
 PAM  EZ I        15 9 42.55        97.4 0.50            158           77.8  39 
 PTB  HZ EP   9   15 9 26.94                             132   -0.69 0  148 259 
 PTB  HN ES       15 9 46.94                             132   -1.19 9  148 259 
 PTB  HZ I        15 9 49.95        18.5 0.12            131            148 259 
 ZAR  HZ EP       15 9 33.50                             122    0.37 9  205 292 
 ZAR  HN ES       15 9 58.35                             122   -0.26 9  205 292 
 ZAR  HZ I        1510  5.12        38.1 0.36            123            205 292 
 NOR  HZ EP       15 9 36.49                             118    0.20 8  235 235 
 NOR  HN ES       1510  4.32                             118    0.08 8  235 235 
 NOR  HZ I        1510 11.83        22.4 0.26            118            235 235 
 CHI  HZ EP       15 9 38.51                             117    0.32 8  248 195 
 CHI  HN ES       1510  7.58                             117   -0.04 8  248 195 
 CHI  HZ I        1510 11.38        25.4 0.44            118            248 195 
 ROSC BZ EP   4   15 9 41.12                             117    2.49 0  252 211 
 ROSC BN ES   4   1510  9.19                             117    0.78 0  252 211 
 ROSC BZ I        1510 14.16        47.8 0.45            117            252 211 
 URE  HZ EP       15 9 40.98                             113   -0.74 7  285 292 
 URE  HN ES       1510 13.66                             113   -0.25 7  285 292 
 URE  HZ I        1510 22.03        25.1 0.18            114            285 292 
 PTGC HZ EP       15 9 43.51                             112   -0.78 7  308 159 
 PTGC HN ES   4   1510 16.77                             112   -1.70 0  308 159 
 PTGC HZ I        1510 19.80        23.3 0.34            113            308 159 
 LL6C HZ EP   4   15 9 25.52                             110   -20.8 0  326 358 
 LL6C HN ES   4   1510  0.70                             110   -21.5 0  326 358 
 LL6C HZ I        1510  6.88        11.2 0.38            113            326 358 
 ANIL HZ EP   4   15 9 51.84                             108    1.54 0  357 225 
 ANIL HN ES   4   1510 29.99                             108    0.81 0  357 225 
 ORTC HZ EP       15 9 54.76                             106    0.37 6  395 216 
 ORTC HN ES   4   1510 38.03                             106    1.57 0  395 216 
 ORTC HZ I        1510 41.20        12.0 0.28            107            395 216 
 SJC  HZ EP   4   15 9 54.61                             105   -1.61 0  410 327 
 SJC  HN ES   4   1510 35.37                             105   -4.34 0  410 327 
 SJC  HZ I        1510 47.97         6.6 0.22            107            410 327 
 CRJC HZ EP   4   1510  0.59                             103   -2.54 0  469   3 
 CRJC HE ES   4   1510 44.09                             103   -7.92 0  469   3 
 CRJC HZ I        1510 51.88         8.4 0.20            105            469   3 
                                                                                
