 2014  623 1903  7.0 L   6.783 -73.137145.4  RSN 11 0.5 2.2LRSN                1
 GAP=138        1.15       4.0     4.5  6.4 -0.2969E+01  0.9764E+01  0.4311E+01E
 Epicentro: LOS SANTOS - SANTANDER                                             3
 ACTION:UPD 14-07-01 22:56 OP:nd   STATUS:               ID:20140623190307 L   I
 OLDACT:REG 14-06-23 23:57 OP:carl STATUS:               ID:20140623185812     3
 2014-06-23-1858-12M.COL___265                                                 6
 STAT SP IPHASW D HRMM SECON CODA AMPLIT PERI AZIMU VELO AIN AR TRES W  DIS CAZ7
 BAR2 SZ EP       19 3 26.28                             171   -0.3110 21.6 193 
 BAR2 SZ ES       19 3 41.56                             171   -0.2810 21.6 193 
 BAR2 SZ I        19 3 43.38        39.5 0.20            170           21.6 193 
 BRR  HZ IP     C 19 3 28.54                             152    0.2910 73.0 299 
 BRR  HN ES       19 3 45.56                             152    0.7710 73.0 299 
 BRR  HZ I        19 3 48.19        30.9 0.12            151           73.0 299 
 PAM  SZ EP     C 19 3 29.62                             151    0.3510 78.3  38 
 PAM  SN ES       19 3 46.64                             151    0.0310 78.3  38 
 PAM  SZ I        19 3 50.84        14.7 0.24            155           78.3  38 
 RUS  HZ EP     C 19 3 30.30                             144   -0.3110 98.6 177 
 RUS  HN ES       19 3 49.14                             144    0.1410 98.6 177 
 RUS  HZ I        19 3 50.49        20.6 0.24            146           98.6 177 
 PTB  HZ EP       19 3 33.00                             132   -1.03 9  148 260 
 PTB  HN ES       19 3 54.29                             132   -0.79 9  148 260 
 PTB  HZ I        19 3 56.38        15.7 0.14            133            148 260 
 SPBC HZ EP       19 3 35.31                             129   -0.12 9  162 220 
 SPBC HN ES       19 3 57.78                             129    0.22 9  162 220 
 SPBC HZ I        19 4  4.22        28.7 0.34            131            162 220 
 ZAR  HZ EP       19 3 39.58                             122   -0.05 8  206 293 
 ZAR  HE ES       19 4  4.87                             122   -0.17 8  206 293 
 ZAR  HZ I        19 4 10.07        13.6 0.24            124            206 293 
 NOR  HZ EP       19 3 42.18                             118   -0.53 8  234 235 
 NOR  HN ES       19 4 10.62                             118    0.09 8  234 235 
 NOR  HZ I        19 4 17.14        18.0 0.22            120            234 235 
 CHI  HN ES       19 4 13.72                             117   -0.07 8  247 195 
 GUY2CHZ EP       19 3 51.21                             112    0.62 7  301 235 
 GUY2CHN ES       19 4 25.34                             112    0.78 7  301 235 
 GUY2CHZ I        19 4 32.57        10.0 0.26                           301 235 
 RREF HZ EP       19 3 53.90                             111    0.79 7  321 230 
 RREF HN ES       19 4 29.49                             111    0.45 7  321 230 
 RREF HZ I        19 4 36.02         8.9 0.24            112            321 230 
                                                                                
