 2013 1123 1426 44.4 L   6.762 -73.112138.4  RSN  6 0.3 1.8LRSN                1
 GAP=167        0.68       3.6     3.5  4.9 -0.2899E+01  0.4701E+01  0.8888E+00E
 Epicentro: LOS SANTOS - SANTANDER                                             3
 ACTION:UPD 14-01-09 16:30 OP:ep   STATUS:               ID:20131123142644 L   I
 OLDACT:REG 13-11-23 14:12 OP:nd   STATUS:               ID:20131123142000     3
 2013-11-23-1420-00M.COL___282                                                 6
 STAT SP IPHASW D HRMM SECON CODA AMPLIT PERI AZIMU VELO AIN AR TRES W  DIS CAZ7
 BAR2 SZ IP     D 1427  3.10                             171    0.0110 20.3 203 
 BAR2 SZ ES       1427 17.62                             171   -0.0510 20.3 203 
 BAR2 SZ I        1427 18.84        24.1 0.20            168           20.3 203 
 BRR  HZ IP     C 1427  4.99                             149   -0.1010 76.5 300 
 BRR  HN ES       1427 21.56                             149    0.3410 76.5 300 
 BRR  HZ I        1427 22.23        12.9 0.16            148           76.5 300 
 PAM  SZ EP       1427  6.07                             149    0.1610 78.5  35 
 PAM  SN ES       1427 22.47                             149   -0.2210 78.5  35 
 PAM  SZ I        1427 25.53        10.2 0.52            153           78.5  35 
 PTB  HZ EP   4   1427  9.64                             130   -1.42 0  151 261 
 PTB  HN ES   2   1427 31.24                             130   -0.61 5  151 261 
 PTB  HZ I        1427 33.37        10.8 0.50            129            151 261 
 SPBC HZ EP       1427 11.95                             127   -0.32 9  162 221 
 SPBC HN ES       1427 34.24                             127    0.24 9  162 221 
 SPBC HZ I        1427 42.80         4.4 0.30            127            162 221 
 ZAR  HZ EP       1427 17.38                             120    0.46 8  209 293 
 ZAR  HN ES       1427 41.90                             120   -0.37 8  209 293 
 ZAR  HZ I        1427 50.89         4.8 0.16            120            209 293 
                                                                                
