 2012  123 1510 39.5 L   6.762 -73.151144.0  RSN  5 0.3 1.5LRSN                1
 GAP=153        0.75      12.0     5.7 11.2 -0.1529E+02  0.3781E+01  0.7825E+02E
 Epicentro: LOS SANTOS - SANTANDER                                             3
 ACTION:UP  12-02-03 08:19 OP:REBC STATUS:               ID:20120123151039 L   I
 2012-01-23-1510-00M.COL___186                                                 6
 STAT SP IPHASW D HRMM SECON CODA AMPLIT PERI AZIMU VELO SNR AR TRES W  DIS CAZ7
 BAR2 SZ EP       1510 59.00                             172     0.110   19 190 
 BAR2 SZ I        1511 17.74         6.5 0.62                            19 190 
 BRR  HZ EP       1511  0.78                             152     0.210   73 302 
 BRR  HN ES   1   1511 17.36                             152     0.4 7   73 302 
 PAM  SZ EP       1511  1.80                             150     0.010   81  38 
 PAM  SN ES   1   1511 18.77                             150    -0.4 7   81  38 
 PTB  HZ EP       1511  5.83                             132    -0.4 9  146 260 
 PTB  HZ I        1511 29.63         3.2 0.56                           146 260 
 ZAR  HZ EP   3   1511 12.96                             122     1.0 2  205 293 
 ZAR  HN ES   2   1511 36.78                             122    -0.5 4  205 293 
 ZAR  HZ I        1511 43.48         4.3 0.26                           205 293 
                                                                                
