 2015 1023 1105 54.7 L   6.818 -73.142143.9  RSN 20 0.4 2.6LRSN                1
 GAP= 71        0.96       2.3     2.7  4.4 -0.8744E+00  0.4290E+01  0.1278E+01E
 Epicentro: LOS SANTOS - SANTANDER                                             3
 ACTION:UPD 15-12-22 20:42 OP:cam  STATUS:               ID:20151023110554 L   I
 OLDACT:DUP 15-10-23 21:39 OP:drio STATUS:               ID:20151023105750d    3
 2015-10-23-1057-49M.COL___307                                                 6
 STAT SP IPHASW D HRMM SECON CODA AMPLIT PERI AZIMU VELO AIN AR TRES W  DIS CAZ7
 BAR2 EZ EP     C 11 6 14.07                             170   -0.0810 25.3 190 
 BAR2 EZ ES       11 6 29.25                             170   -0.0810 25.3 190 
 BAR2 EZ I        11 6 30.50       118.4 0.16            167           25.3 190 
 BRR  HZ EP       11 6 15.92                             152    0.3010 70.7 297 
 BRR  HN ES       11 6 32.61                             152    0.6710 70.7 297 
 BRR  HZ I        11 6 34.12        42.2 0.24            150           70.7 297 
 PAM  EZ EP       11 6 16.94                             151    0.3310 75.6  40 
 PAM  EN ES       11 6 33.97                             151    0.2610 75.6  40 
 PAM  EZ I        11 6 36.09        62.9 0.50            156           75.6  40 
 RUS  HZ EP       11 6 18.03                             143   -0.3810  103 176 
 RUS  HN ES       11 6 36.57                             143   -0.3410  103 176 
 RUS  HZ I        11 6 37.71        28.9 0.32            144            103 176 
 TAM  HZ EP       11 6 22.12                             130   -0.12 9  155 106 
 TAM  HE ES       11 6 44.04                             130    0.32 9  155 106 
 OCA  HZ EP       11 6 22.46                             130   -0.23 9  158 353 
 OCA  HE ES       11 6 44.12                             130   -0.40 9  158 353 
 OCA  HZ I        11 6 47.37        66.6 0.26            131            158 353 
 SPBC HZ EP       11 6 22.98                             128   -0.25 9  165 219 
 SPBC HN ES       11 6 44.93                             128   -0.55 9  165 219 
 SPBC HZ I        11 6 51.02        74.9 0.36            128            165 219 
 ZAR  HZ EP       11 6 27.33                             122    0.34 9  204 292 
 ZAR  HN ES       11 6 52.20                             122    0.02 9  204 292 
 ZAR  HZ I        11 6 57.65        40.4 0.38            122            204 292 
 NOR  HZ EP       11 6 30.27                             118   -0.22 8  236 234 
 NOR  HE ES       11 6 58.27                             118   -0.13 8  236 234 
 NOR  HZ I        11 7  5.95        35.1 0.14            118            236 234 
 SML  HZ EP       11 6 30.52                             117   -0.53 8  242 335 
 SML  HE ES       11 6 59.01                             117   -0.40 8  242 335 
 SML  HZ I        11 7  2.76        28.4 0.26            119            242 335 
 CHI  HZ EP       11 6 32.16                             116   -0.36 8  251 195 
 CHI  HE ES       11 7  1.68                             116   -0.33 8  251 195 
 CHI  HZ I        11 7  5.19        13.3 0.38            118            251 195 
 HEL  HZ EP       11 6 35.87                             114    0.95 8  273 255 
 HEL  HN ES       11 7  5.59                             114   -0.70 8  273 255 
 HEL  HZ I        11 7 12.64        22.0 0.36            115            273 255 
 GUY2CHZ EP       11 6 39.13                             112    0.74 7  303 235 
 GUY2CHE ES       11 7 12.89                             112    0.42 7  303 235 
 GUY2CHZ I        11 7 20.61        26.8 0.50                           303 235 
 ELA  HZ EP       11 6 42.34                             110    0.68 7  331 229 
 ELA  HN ES       11 7 17.99                             110   -0.29 7  331 229 
 ELA  HZ I        11 7 24.33        18.1 0.58            111            331 229 
 CBOC HZ EP       11 6 41.86                             109    0.20 7  335 252 
 CBOC HE ES   4   11 7 17.48                             109   -0.80 0  335 252 
 CBOC HZ I        11 7 31.08         7.3 0.74            110            335 252 
 DBB  SZ EP       11 6 41.51                             109   -0.63 7  340 274 
 DBB  SZ ES   4   11 7 16.99                             109   -2.15 0  340 274 
 DBB  SZ I        11 7 20.10        52.1 0.34            110            340 274 
 MON  HZ EP   4   11 6 41.46                             108   -2.07 0  353 308 
 MON  HN ES   4   11 7 20.20                             108   -1.42 0  353 308 
 MON  HZ I        11 7 22.27         7.2 0.32            109            353 308 
 ANIL HZ EP       11 6 45.34                             108    0.71 6  359 224 
 ANIL HE ES       11 7 24.27                             108    0.69 6  359 224 
 ANIL HZ I        11 7 34.93        44.0 0.40            109            359 224 
 ORTC HZ EP       11 6 48.72                             106   -0.05 6  397 216 
 ORTC HE ES       11 7 31.67                             106    0.72 6  397 216 
 ORTC HZ I        11 7 38.21        17.1 0.38            107            397 216 
 PAL  HZ EP       11 6 49.40                             105   -0.56 6  407 239 
 PAL  HE ES       11 7 33.10                             105    0.03 6  407 239 
 PAL  HZ I        11 7 35.26         5.9 0.64            106            407 239 
                                                                                
