 2016  323 1423  4.4 L   6.657 -73.508103.2  RSN  4 0.3 1.2LRSN                1
 GAP=159        0.65       7.1     5.6  7.0  0.2498E+02  0.2082E+02  0.8039E+01E
 Epicentro: EL CARMEN - SANTANDER                                              3
 ACTION:UPD 16-05-13 21:26 OP:cam  STATUS:               ID:20160323142304 L   I
 OLDACT:REG 16-03-23 20:37 OP:dnl  STATUS:               ID:20160323141743     3
 2016-03-23-1417-43M.COL___310                                                 6
 STAT SP IPHASW D HRMM SECON CODA AMPLIT PERI AZIMU VELO AIN AR TRES W  DIS CAZ7
 BAR2 EZ EP       1423 19.01                             159   -0.4210 36.7 101 
 BAR2 EZ ES       1423 31.26                             159    0.1210 36.7 101 
 BAR2 EZ I        1423 32.25         5.2 0.12            162           36.7 101 
 RUS  HZ EP       1423 24.16                             134    0.2410 96.7 151 
 RUS  HZ E    2   1423 24.16                                           96.7 151 
 RUS  HN ES   2   1423 39.29                             134    0.15 5 96.7 151 
 RUS  HZ I        1423 43.42         1.3 0.22            134           96.7 151 
 PTB  HZ EP   2   1423 23.52                             130   -0.57 5  106 263 
 PTB  HN ES   2   1423 39.24                             130   -0.21 5  106 263 
 PTB  HZ I        1423 41.03         4.5 0.14            130            106 263 
 ZAR  HZ EP       1423 31.41                             115    0.12 9  175 302 
 ZAR  HE ES   2   1423 52.86                             115    0.61 4  175 302 
 ZAR  HZ I        1423 55.62         4.0 0.12            117            175 302 
                                                                                
