 2011  923 1417 22.0 L   6.783 -73.082149.2  RSN  5 0.4 1.7LRSN                1
 GAP=234        0.52      10.3    16.2  9.6  0.1440E+03 -0.8516E+02 -0.3715E+02E
 Epicentro: LOS SANTOS - SANTANDER                                             3
 ACTION:UPD 12-07-13 15:59 OP:ep   STATUS:               ID:20110923141722 L   I
 2011-09-23-1416-42S.COL___165                                                 6
 STAT SP IPHASW D HRMM SECON CODA AMPLIT PERI AZIMU VELO AIN AR TRES W  DIS CAZ7
 BAR2 SZ EP       1417 41.96                             169   -0.1310 23.9 208 
 BAR2 SZ I        1418  0.29         4.8 0.66                          23.9 208 
 BTL  SZ ES   3   1417 56.55                             169   -1.24 2 25.4 306 
 BRR  HZ EP       1417 44.04                             150    0.0810 78.3 297 
 BRR  HZ I        1417 54.15        15.8 0.46                          78.3 297 
 BRR  HN ES   1   1418  1.26                             150    0.19 7 78.3 297 
 RUS  HZ EP       1417 46.05                             144    0.0710 98.5 180 
 RUS  HN ES   2   1418  4.68                             144    0.02 5 98.5 180 
 ZAR  HN ES   3   1418 20.25                             122   -1.26 2  211 292 
 ZAR  HZ I        1418 30.63         4.5 0.46                           211 292 
                                                                                
