 2016  723 1006 36.8 L   6.808 -73.191133.8  RSN  8 0.3 1.7LRSN                1
 GAP=131        0.64       2.9     3.0  4.5 -0.1216E+01  0.6530E+01  0.2450E+00E
 Epicentro: ZAPATOCA - SANTANDER                                               3
 ACTION:UPD 17-03-29 16:54 OP:lp   STATUS:               ID:20160723100636 L   I
 OLDACT:REG 16-07-23 20:17 OP:lv   STATUS:               ID:20160723095759     3
 2016-07-23-0957-59S.COL___322                                                 6
 STAT SP IPHASW D HRMM SECON CODA AMPLIT PERI AZIMU VELO AIN AR TRES W  DIS CAZ7
 BAR2 EZ EP       10 6 54.70                             169   -0.2710 23.8 178 
 BAR2 EZ ES       10 7  9.26                             169    0.0910 23.8 178 
 BAR2 EZ I        10 7 12.01       246.3 0.21            173           23.8 178 
 PAM  EZ EP       10 6 58.06                             148    0.1710 80.0  43 
 PAM  EN ES   2   10 7 14.72                             148    0.35 5 80.0  43 
 PAM  EZ I        10 7 21.64         7.7 0.26            150           80.0  43 
 RUS  HZ EP       10 6 59.15                             141   -0.3110  102 173 
 RUS  HE ES       10 7 17.17                             141    0.0110  102 173 
 RUS  HZ I        10 7 19.05         4.6 0.40            147            102 173 
 SPBC HZ EP       10 7  3.90                             127   -0.23 9  161 217 
 SPBC HN ES       10 7 25.70                             127    0.22 9  161 217 
 SPBC HZ I        10 7 30.44         3.2 0.13            131            161 217 
 ZAR  HZ EP   4   10 7  9.49                             120    1.56 0  199 292 
 ZAR  HE ES       10 7 32.20                             120   -0.05 9  199 292 
 ZAR  HZ I        10 7 39.08         3.1 0.14            123            199 292 
 GUY2CHZ EP       10 7 19.71                             110    0.27 7  298 234 
 GUY2CHN ES       10 7 52.43                             110   -0.29 7  298 234 
 GUY2CHZ I        10 8  1.28         1.6 0.37                           298 234 
 CBOC HZ EP       10 7 23.30                             108    0.61 7  329 252 
 CBOC HN ES       10 7 58.23                             108   -0.28 7  329 252 
 CBOC HZ I        10 8  1.60         0.8 0.26            111            329 252 
 PRA  HZ EP       10 7 29.42                             105   -0.27 6  390 209 
 PRA  HE ES       10 8 11.63                             105    0.65 6  390 209 
 PRA  HZ I        10 8 17.23         1.1 0.24            107            390 209 
                                                                                
