 2016 1023 1704 39.3 L   6.772 -73.112150.4  RSN  8 0.4 2.0LRSN                1
 GAP=142        1.01       3.4     5.2  6.1 -0.2905E+01  0.1229E+01  0.1739E+01E
 Epicentro: LOS SANTOS - SANTANDER                                             3
 ACTION:UPD 16-11-09 19:22 OP:rebc STATUS:               ID:20161023170439 L   I
 OLDACT:REG 16-10-23 20:59 OP:cara STATUS:               ID:20161023165747     3
 2016-10-23-1658-00M.COL___353                                                 6
 STAT SP IPHASW D HRMM SECON CODA AMPLIT PERI AZIMU VELO AIN AR TRES W  DIS CAZ7
 BAR2 EZ IP       17 4 59.53                             171    0.1010 21.4 201 
 BAR2 EZ ES       17 5 15.36                             171    0.2110 21.4 201 
 BAR2 EZ I        17 5 15.98        44.2 0.20            169           21.4 201 
 BRR  HZ EP       17 5  1.40                             152    0.2010 76.0 299 
 BRR  HN ES       17 5 18.83                             152    0.5310 76.0 299 
 BRR  HZ I        17 5 21.66        14.6 0.24            150           76.0 299 
 PAM  EZ EP       17 5  2.43                             152    0.4310 77.5  36 
 PAM  EN ES       17 5 19.49                             152   -0.2210 77.5  36 
 PAM  EZ I        17 5 21.84        14.2 0.58            156           77.5  36 
 RUS  HZ EP       17 5  3.23                             146   -0.0410 97.3 178 
 RUS  HN ES       17 5 21.38                             146   -0.5910 97.3 178 
 RUS  HZ I        17 5 23.67        14.5 0.30            146           97.3 178 
 PTB  HZ EP       17 5  6.28                             132   -0.64 9  151 260 
 PTB  HE ES       17 5 28.19                             132   -0.28 9  151 260 
 PTB  HZ I        17 5 34.68        13.8 0.22            132            151 260 
 OCA  HZ EP       17 5  7.79                             130   -0.50 9  164 352 
 OCA  HN ES       17 5 30.94                             130    0.04 9  164 352 
 CHI  HZ EP       17 5 17.69                             118    0.65 8  247 196 
 CHI  HN ES       17 5 46.72                             118    0.24 8  247 196 
 CHI  HZ I        17 5 52.55         4.5 0.38            119            247 196 
 GUY2CHZ EP   9   17 5 25.16                             113    1.89 0  303 236 
 GUY2CHN ES       17 6  0.05                                    0.59 7  303 236 
 GUY2CHZ I        17 6  3.72         6.2 0.24                           303 236 
                                                                                
