 2014  923 1327 15.3 L   6.870 -73.044118.9  RSN  5 0.4 1.2LRSN                1
 GAP=210        0.76       3.9     5.4  7.7  0.1657E+01  0.3645E+01 -0.1288E+02E
 Epicentro: PIEDECUESTA - SANTANDER                                            3
 ACTION:UPD 14-10-03 23:07 OP:nd   STATUS:               ID:20140923132715 L   I
 OLDACT:DUP 14-09-24 00:28 OP:spq  STATUS:               ID:20140923131822d    3
 OLDACT:DUP 14-09-24 00:24 OP:spq  STATUS:               ID:20140923131821d    3
 OLDACT:REG 14-09-23 21:10 OP:spq  STATUS:               ID:20140923131819     3
 2014-09-23-1318-19M.COL___284                                                 6
 STAT SP IPHASW D HRMM SECON CODA AMPLIT PERI AZIMU VELO AIN AR TRES W  DIS CAZ7
 BAR2 SZ ES   1   1327 45.39                             163    0.31 8 34.2 206 
 BAR2 SZ I        1327 49.99         3.1 0.42            162           34.2 206 
 RUS  HZ EP       1327 37.02                             135   -0.1110  108 182 
 RUS  HN ES   1   1327 53.76                             135   -0.42 7  108 182 
 RUS  HZ I        1327 57.92         1.7 0.28            139            108 182 
 PTB  HZ EP       1327 41.32                             123   -0.15 9  160 257 
 PTB  HE ES       1328  1.51                             123   -0.40 9  160 257 
 PTB  HZ I        1328  4.82         2.9 0.18            127            160 257 
 SPBC HZ EP   1   1327 43.91                             120    0.68 7  176 220 
 SPBC HN ES       1328  5.43                             120    0.39 9  176 220 
 SPBC HZ I        1328 11.47         2.7 0.27            124            176 220 
 SML  HZ EP       1327 50.15                             111   -0.18 8  242 332 
 SML  HN ES   1   1328 18.00                             111    0.33 6  242 332 
                                                                                
