 2011 1023 1819 23.7 L   6.806 -73.143137.9  RSN  4 0.2 1.5LRSN                1
 GAP=187        0.49       8.3    14.7  8.7  0.1029E+03 -0.7089E+02 -0.3742E+02E
 Epicentro: LOS SANTOS - SANTANDER                                             3
 ACTION:UPD 12-07-13 16:05 OP:ep   STATUS:               ID:20111023181923 L   I
 2011-10-23-1817-06S.COL___171                                                 6
 STAT SP IPHASW D HRMM SECON CODA AMPLIT PERI AZIMU VELO AIN AR TRES W  DIS CAZ7
 BAR2 SZ EP   1   1819 42.40                             170   -0.01 7 24.0 190 
 BAR2 SZ ES   2   1819 57.28                             170    0.29 5 24.0 190 
 BAR2 SZ I        1819 59.92         6.9 0.30                          24.0 190 
 GIR2 SZ EP   2   1819 42.15                             167   -0.28 5 30.7 350 
 BRR  HZ EP   1   1819 44.40                             151    0.39 7 71.1 298 
 BRR  HE ES   1   1819 59.62                             151   -0.22 7 71.1 298 
 BRR  HZ I        1820  3.63         7.0 0.26                          71.1 298 
 RUS  HZ EP   2   1819 46.44                             142   -0.30 5  101 176 
 RUS  HN ES   1   1820  4.67                             142   -0.04 7  101 176 
                                                                                
