 2011  923 1529 35.1 L   7.162 -73.906 89.6  RSN  6 0.2 2.1LRSN                1
 GAP=142        0.47       2.2     2.3  4.1  0.1846E+01  0.1967E-01  0.4009E+00E
 Epicentro: BARRANCABERMEJA - SANTANDER                                        3
 ACTION:UPD 12-07-13 15:59 OP:ep   STATUS:               ID:20110923152935 L   I
 2011-09-23-1527-16S.COL___165                                                 6
 STAT SP IPHASW D HRMM SECON CODA AMPLIT PERI AZIMU VELO AIN AR TRES W  DIS CAZ7
 BRR  HZ IP     D 1529 47.36                             165   -0.2410 22.2 106 
 BRR  HZ I        1529 47.47       202.2 0.14                          22.2 106 
 BRR  HE ES   1   1529 57.40                             165    0.03 7 22.2 106 
 BTL  SZ IP       1529 51.01                             137   -0.2110 75.5 111 
 BAR2 SZ EP       1529 53.46                             127   -0.1710  102 128 
 BAR2 SZ ES   2   1530  8.63                             127    0.53 5  102 128 
 BAR2 SZ I        1530  9.87        23.3 0.56                           102 128 
 ZAR  HZ EP       1529 54.27                             124    0.0010  111 289 
 ZAR  HN ES   1   1530  9.36                             124    0.11 7  111 289 
 ZAR  HZ I        1530 11.86        24.9 0.24                           111 289 
 OCA  SZ EP       1529 57.18                             119    0.18 9  136  28 
 OCA  SZ ES   1   1530 14.15                             119    0.04 7  136  28 
 OCA  SZ I        1530 15.13        15.1 0.33                           136  28 
 RUS  HZ EP       1530  1.13                             114    0.18 9  167 147 
 RUS  HN ES   1   1530 21.29                             114    0.16 7  167 147 
                                                                                
