 2014  923 1911 49.1 L   6.770 -73.090149.5  RSN  6 0.4 1.6LRSN                1
 GAP=145        0.92       5.6     4.6  8.3  0.3852E+01 -0.3268E+00  0.5292E+00E
 Epicentro: LOS SANTOS - SANTANDER                                             3
 ACTION:UPD 14-10-03 23:07 OP:nd   STATUS:               ID:20140923191149 L   I
 OLDACT:REG 14-09-23 21:56 OP:spq  STATUS:               ID:20140923190818     3
 2014-09-23-1908-18M.COL___284                                                 6
 STAT SP IPHASW D HRMM SECON CODA AMPLIT PERI AZIMU VELO AIN AR TRES W  DIS CAZ7
 BAR2 SZ EP       1912  9.08                             171   -0.0610 22.1 208 
 BAR2 SZ ES   1   1912 24.27                             171   -0.51 7 22.1 208 
 BAR2 SZ I        1912 26.33         5.1 0.24            170           22.1 208 
 PAM  SZ EP       1912 11.64                             152    0.0110 76.3  34 
 PAM  SN ES   1   1912 28.81                             152   -0.41 7 76.3  34 
 PAM  SZ I        1912 31.12         6.1 0.58            155           76.3  34 
 BRR  HZ EP       1912 10.98                             151   -0.0610 78.2 299 
 BRR  HE ES       1912 28.93                             151    0.7710 78.2 299 
 BRR  HZ I        1912 30.31        17.4 0.36            151           78.2 299 
 RUS  HZ EP       1912 13.24                             146    0.2910 97.0 180 
 RUS  HN ES   1   1912 31.71                             146    0.14 7 97.0 180 
 RUS  HZ I        1912 34.31         2.0 0.16            147           97.0 180 
 PTB  HE ES       1912 38.01                             132   -0.50 9  153 261 
 PTB  HZ I        1912 42.63         6.3 0.34            132            153 261 
 ZAR  HN ES       1912 48.40                             122   -0.14 8  211 292 
 ZAR  HZ I        1912 52.44         3.6 0.48            124            211 292 
                                                                                
