 2013  923 1209 17.1 L   6.809 -73.165141.2  RSN  6 0.4 1.7LRSN                1
 GAP=129        0.98       3.9     6.4  7.0  0.4207E+00 -0.8864E+01  0.4998E+01E
 Epicentro: LOS SANTOS - SANTANDER                                             3
 ACTION:UPD 13-10-22 09:24 OP:ep   STATUS:               ID:20130923120917 L   I
 OLDACT:REG 13-09-23 15:32 OP:stll STATUS:               ID:20130923115838     3
 2013-09-23-1158-38M.COL___238                                                 6
 STAT SP IPHASW D HRMM SECON CODA AMPLIT PERI AZIMU VELO AIN AR TRES W  DIS CAZ7
 BAR2 SZ EP       12 9 36.25                             170    0.0910 24.1 185 
 BAR2 SZ ES       12 9 50.71                             170   -0.3510 24.1 185 
 BAR2 SZ I        12 9 52.24         9.7 0.26            170           24.1 185 
 BRR  HZ IP     C 12 9 38.22                             152    0.6410 68.8 299 
 BRR  HN ES       12 9 53.94                             152    0.3510 68.8 299 
 TAM  HZ EP       12 9 44.58                             129   -0.02 9  157 105 
 SPBC HZ EP       12 9 45.28                             128    0.12 9  163 218 
 SPBC HN ES       1210  6.99                             128   -0.09 9  163 218 
 SML  HN ES       1210 20.62                             116   -0.83 8  242 336 
 SML  HZ I        1210 24.69         7.1 0.24            116            242 336 
 CHI  HZ EP       12 9 54.79                             116    0.23 8  249 195 
 CHI  HN ES       1210 23.26                             116   -0.55 8  249 195 
 CHI  HZ I        1210 27.65         2.7 0.62            116            249 195 
                                                                                
