 2016 1023 1432 27.0 L   6.786 -73.140143.8  RSN 10 0.4 1.9LRSN                1
 GAP=138        0.96       3.0     3.9  5.3 -0.3300E+01  0.4914E+01  0.1663E+01E
 Epicentro: LOS SANTOS - SANTANDER                                             3
 ACTION:UPD 16-11-09 19:22 OP:rebc STATUS:               ID:20161023143227 L   I
 OLDACT:REG 16-10-23 20:34 OP:cara STATUS:               ID:20161023142743     3
 2016-10-23-1428-00M.COL___355                                                 6
 STAT SP IPHASW D HRMM SECON CODA AMPLIT PERI AZIMU VELO AIN AR TRES W  DIS CAZ7
 BAR2 EZ EP       1432 46.36                             171   -0.0110 21.9 192 
 BAR2 EZ ES       1433  1.70                             171    0.2310 21.9 192 
 BAR2 EZ I        1433  3.12        29.9 0.26            168           21.9 192 
 BRR  HZ EP       1432 48.23                             152    0.2210 72.6 299 
 BRR  HN ES       1433  4.86                             152    0.4610 72.6 299 
 BRR  HZ I        1433  5.51        16.3 0.16            152           72.6 299 
 PAM  EZ IP       1432 49.24                             150    0.1810 78.2  38 
 PAM  EN ES       1433  6.00                             150   -0.2610 78.2  38 
 PAM  EZ I        1433  8.44        15.6 0.54            154           78.2  38 
 RUS  HZ EP       1432 50.33                             144   -0.1110 98.9 176 
 RUS  HN ES       1433  8.72                             144   -0.0010 98.9 176 
 RUS  HZ I        1433  9.51         9.5 0.20            143           98.9 176 
 PTB  HZ EP       1432 53.62                             131   -0.22 9  148 259 
 PTB  HN ES       1433 14.53                             131   -0.25 9  148 259 
 PTB  HZ I        1433 16.84        19.3 0.14            131            148 259 
 OCA  HZ EP       1432 55.94                             129    0.62 9  162 353 
 OCA  HN ES       1433 16.55                             129   -0.85 9  162 353 
 SPBC HZ EP       1432 55.46                             129    0.19 9  162 220 
 SPBC HN ES       1433 17.44                             129    0.12 9  162 220 
 SPBC HZ I        1433 22.27         9.7 0.24            128            162 220 
 NOR  HZ EP       1433  3.08                             118    0.50 8  234 235 
 NOR  HN ES       1433 30.61                             118    0.29 8  234 235 
 NOR  HZ I        1433 34.66         6.2 0.12            118            234 235 
 CHI  HZ EP       1433  3.79                             117   -0.65 8  247 195 
 CHI  HN ES       1433 33.20                             117   -0.45 8  247 195 
 CHI  HZ I        1433 44.18         2.5 0.34            117            247 195 
 HEL  HZ EP       1433  7.51                             114    0.37 8  272 256 
 HEL  HN ES       1433 37.73                             114   -0.72 8  272 256 
 HEL  HZ I        1433 45.37         7.1 0.30            115            272 256 
                                                                                
