 2017 1223 1127 48.2 L   6.823 -73.160141.4  RSN  6 0.3 1.5LRSN                1
 GAP=144        0.76       3.3     3.8  6.4 -0.4182E+01  0.8179E+01  0.1761E+00E
 Epicentro: LOS SANTOS - SANTANDER                                             3
 ACTION:UPD 18-01-04 13:23 OP:rebc STATUS:               ID:20171223112748 L   I
 OLDACT:UP  17-12-23 22:32 OP:dani STATUS:               ID:20171223111736d    3
 OLDACT:DUP 17-12-23 22:26 OP:dani STATUS:               ID:20171223111736d    3
 2017-12-23-1118-00M.COL___446                                                 6
 STAT SP IPHASW D HRMM SECON CODA AMPLIT PERI AZIMU VELO AIN AR TRES W  DIS CAZ7
 BAR2 EZ EP       1128  7.01                             169   -0.3810 25.7 185 
 BAR2 EZ ES       1128 22.27                             169   -0.0610 25.7 185 
 BAR2 EZ I        1128 24.81        10.6 0.28            168           25.7 185 
 PAM  EZ EP       1128  9.95                             150    0.0210 76.5  42 
 PAM  EN ES       1128 27.14                             150    0.2910 76.5  42 
 PAM  EZ I        1128 27.74         4.2 0.30            156           76.5  42 
 PTB  HZ EP       1128 15.24                             131    0.49 9  147 258 
 PTB  HN ES       1128 35.05                             131   -0.38 9  147 258 
 PTB  HZ I        1128 41.89         2.4 0.14            132            147 258 
 OCA  HN ES       1128 37.38                             129   -0.18 9  158 354 
 SPBC HZ EP       1128 16.23                             128   -0.27 9  164 218 
 SPBC HN ES       1128 38.87                             128    0.33 9  164 218 
 SPBC HZ I        1128 42.92         6.2 0.20            129            164 218 
 ZAR  HE ES       1128 45.20                             122    0.17 9  202 292 
                                                                                
