 2010  623 1409 58.2 L   6.781 -73.054144.1  RSN  9 0.4 2.8LRSN                1
 GAP=167        0.73       3.6     8.5  7.2 -0.1474E+02 -0.4405E+01  0.3302E+01E
 Epicentro: LOS SANTOS - SANTANDER                                             3
 ACTION:UP  10-08-24 10:12 OP:vdl  STATUS:               ID:20100623140958 L   I
 2010-06-23-1405-59S.COL___118                                                 6
 STAT SP IPHASW D HRMM SECON CODA AMPLIT PERI AZIMU VELO SNR AR TRES W  DIS CAZ7
 BAR2 SZ EP   1   1410 17.62                             170     0.0 7   25 214 
 BAR2 SZ ES   2   1410 32.58                             170    -0.3 5   25 214 
 BRR  HZ IP     C 1410 19.49                             149    -0.310   81 296 
 BRR  HZ I        1410 19.74       323.0 0.18                            81 296 
 BRR  HN ES   2   1410 36.85                             149     0.3 5   81 296 
 RUS  HZ EP   1   1410 21.50                             144    -0.1 7   98 182 
 RUS  HN ES   2   1410 39.86                             144     0.0 5   98 182 
 RUS  HZ I        1410 41.07        74.9 0.40                            98 182 
 BRI  SZ IP       1410 22.15                             141     0.310  107  15 
 BRI  SZ ES   2   1410 40.56                             141     0.3 5  107  15 
 GUE  SZ EP   1   1410 22.54                             139    -0.2 7  117   7 
 GRA  SZ IP       1410 23.42                             137     0.210  125  13 
 GRA  SZ ES   2   1410 42.51                             137    -0.2 5  125  13 
 OCA  SZ EP   1   1410 26.12                             128    -0.6 7  164 350 
 OCA  SZ ES   2   1410 49.03                             128     0.1 5  164 350 
 CHI  HZ EP   1   1410 35.62                             116    -0.3 6  250 198 
 CHI  HZ I        1410 36.65        26.8 0.54                           250 198 
 CHI  HE ES   2   1411  4.45                             116    -0.8 4  250 198 
 ROSC BZ EP   1   1410 37.52                             116     0.9 6  256 213 
 ROSC BN ES   2   1411  7.25                             116     0.7 4  256 213 
 ROSC BZ I        1411 15.31        34.1 0.35                           256 213 
                                                                                
