 2017  923 1209 52.3 L   6.698 -73.147143.7  RSN  4 0.4 1.4LRSN                1
 GAP=230        1.07      11.5    13.4  9.5  0.1276E+03  0.8522E+01 -0.2831E+01E
 Epicentro: VILLANUEVA - SANTANDER                                             3
 ACTION:UPD 17-10-05 19:15 OP:rebc STATUS:               ID:20170923120952 L   I
 OLDACT:REG 17-09-23 20:28 OP:lv   STATUS:               ID:20170923120740     3
 2017-09-23-1208-00M.COL___434                                                 6
 STAT SP IPHASW D HRMM SECON CODA AMPLIT PERI AZIMU VELO AIN AR TRES W  DIS CAZ7
 BAR2 EZ EP       1210 11.43                             175   -0.0310 12.3 198 
 BAR2 EZ ES       1210 25.93                             175   -0.5210 12.3 198 
 BAR2 EZ I        1210 28.04         9.2 0.36            172           12.3 198 
 BRR  HZ EP       1210 13.22                             150   -0.3110 77.1 306 
 BRR  HN ES       1210 30.86                             150    0.7410 77.1 306 
 RUS  HZ EP       1210 15.40                             147    0.3810 89.4 175 
 RUS  HN ES       1210 32.77                             147   -0.0010 89.4 175 
 RUS  HZ I        1210 35.03         2.7 0.24            146           89.4 175 
 ZAR  HE ES       1210 50.21                             121   -0.37 8  208 295 
                                                                                
