 2013  923 1812 18.8 L   6.788 -73.151143.4  RSN 13 0.5 2.1LRSN 2.8WRSN        1
 SPEC AVERAGE  MO 13.4 ST238.2 OM  1.5 f0 17.2 R0.6911 AL 0.00 WI 20.0 MW  2.8 3
 SPEC SD       MO  0.6 ST372.7 OM  0.6 f0 15.4 R1.1993 AL      WI      MW  0.4 3
 GAP=119        1.12       3.1     3.9  5.4 -0.2678E+01  0.1828E+01  0.6808E+00E
 Epicentro: LOS SANTOS - SANTANDER                                             3
 SPEC BAR2SH Z MO 13.0 ST 41.7 OM  1.2 f0 18.4 R0.1046 AL-0.00 WI 20.0 MW  2.6 3
 SPEC BAR2SH Z T181251 K 0.050 GD  145 VS 5.20 DE 3.20 Q0750.0 QA 1.50 VS 5.20 3
 SPEC BRR HH Z MO 13.4 ST 17.6 OM  1.5 f0 10.6 R0.1815 AL-0.00 WI 20.0 MW  2.9 3
 SPEC BRR HH Z T181255 K 0.050 GD  160 VS 5.20 DE 3.20 Q0750.0 QA 1.50 VS 5.20 3
 SPEC RUS HH Z MO 12.8 ST  1.7 OM  0.9 f0 7.52 R0.2559 AL-0.00 WI 20.0 MW  2.5 3
 SPEC RUS HH Z T181258 K 0.050 GD  174 VS 5.20 DE 3.20 Q0750.0 QA 1.50 VS 5.20 3
 SPEC PTB HH Z MO 13.2 ST606.3 OM  1.2 f0 40.0 R0.0481 AL-0.00 WI 20.0 MW  2.7 3
 SPEC PTB HH Z T1813 4 K 0.050 GD  205 VS 5.20 DE 3.20 Q0750.0 QA 1.50 VS 5.20 3
 SPEC OCA HH Z MO 14.6 ST0.038 OM  2.6 f00.535 R3.5963 AL-0.00 WI 20.0 MW  3.7 3
 SPEC OCA HH Z T1813 7 K 0.050 GD  216 VS 5.20 DE 3.20 Q0750.0 QA 1.50 VS 5.20 3
 SPEC SML HH Z MO 13.5 ST999.9 OM  1.4 f0 40.0 R0.0481 AL-0.00 WI 20.0 MW  3.0 3
 SPEC SML HH Z T181321 K 0.050 GD  283 VS 5.20 DE 3.20 Q0750.0 QA 1.50 VS 5.20 3
 SPEC CHI HH Z MO 12.9 ST0.170 OM  0.8 f0 3.19 R0.6031 AL-0.00 WI 20.0 MW  2.6 3
 SPEC CHI HH Z T181323 K 0.050 GD  285 VS 5.20 DE 3.20 Q0750.0 QA 1.50 VS 5.20 3
 OLDACT:REG 13-09-23 15:46 OP:stll STATUS:               ID:20130923180849     3
 ACTION:UPD 13-10-22 09:24 OP:ep   STATUS:               ID:20130923181218 L   I
 OLDACT:UP  13-09-23 20:16 OP:stll STATUS:               ID:20130923180849     3
 2013-09-23-1808-49M.COL___250                                                 6
 STAT SP IPHASW D HRMM SECON CODA AMPLIT PERI AZIMU VELO AIN AR TRES W  DIS CAZ7
 BAR2 SZ IP     C 1812 38.23                             171    0.1410 21.9 189 
 BAR2 SZ ES       1812 52.93                             171   -0.2310 21.9 189 
 BAR2 SZ I        1812 54.40        32.5 0.18            173           21.9 189 
 BRR  HZ EP       1812 40.05                             152    0.3810 71.3 300 
 BRR  HN ES       1812 56.85                             152    0.8810 71.3 300 
 BRR  SZ I        1813  0.89        26.7 0.14            146           71.3 300 
 PAM  SZ EP       1812 41.12                             150    0.3010 78.8  39 
 PAM  SN ES       1812 57.98                             150   -0.0310 78.8  39 
 PAM  SZ I        1813  2.22        13.8 0.38            146           78.8  39 
 RUS  HZ EP       1812 42.76                             144    0.5710 99.3 176 
 RUS  HN ES       1813  0.03                             144   -0.4410 99.3 176 
 RUS  SZ I        1813  1.85        13.1 0.34            143           99.3 176 
 PTB  HZ EP       1812 45.41                             132   -0.06 9  147 259 
 PTB  HN ES       1813  5.64                             132   -0.66 9  147 259 
 PTB  SZ I        1813  8.47        20.1 0.12            127            147 259 
 CAPV BZ IP     D 1812 46.19                             131    0.09 9  151  38 
 OCA  HZ EP       1812 47.55                             129    0.54 9  162 353 
 OCA  HN ES       1813  8.50                             129   -0.54 9  162 353 
 OCA  SZ I        1813 11.30        19.0 0.44            124            162 353 
 ZAR  HZ EP       1812 50.94                             122   -0.12 9  204 293 
 ZAR  HN ES       1813 15.91                             122   -0.33 9  204 293 
 ZAR  SZ I        1813 22.79        16.0 0.32            117            204 293 
 NOR  HZ EP       1812 54.80                             118    0.57 8  233 235 
 NOR  HE ES       1813 21.74                             118   -0.15 8  233 235 
 NOR  SZ I        1813 24.12        10.4 0.20            115            233 235 
 SML  HZ EP       1812 54.84                             117   -0.52 8  245 336 
 SML  SZ I        1813 30.53        20.8 0.08            113            245 336 
 CHI  HZ EP       1812 56.48                             117    0.30 8  247 195 
 CHI  HE ES       1813 25.01                             117   -0.35 8  247 195 
 CHI  SZ I        1813 31.52         4.7 0.36            114            247 195 
 SOCV BZ EP       1813  0.64                             112   -1.20 7  302  57 
 PRA  HZ EP       1813 12.00                             106   -0.04 6  391 210 
 PRA  HN ES       1813 53.63                             106    0.04 6  391 210 
 PRA  SZ I        1814  1.06         7.1 0.58            104            391 210 
                                                                                
