 2011  623 1159 36.7 L   6.758 -73.015135.9  RSN  4 0.3 1.4LRSN                1
 GAP=242        0.75      11.8    21.8 12.3  0.2057E+03 -0.1167E+03 -0.5588E+02E
 Epicentro: CEPITA - SANTANDER                                                 3
 ACTION:UP  11-07-14 19:07 OP:ep   STATUS:               ID:20110623115936 L   I
 2011-06-23-1158-16S.COL___140                                                 6
 STAT SP IPHASW D HRMM SECON CODA AMPLIT PERI AZIMU VELO SNR AR TRES W  DIS CAZ7
 BAR2 SZ EP       1159 54.99                             168    -0.210   26 225 
 BAR2 SZ ES   2   12 0  9.92                             168     0.3 5   26 225 
 BAR2 SZ I        12 0 11.64         5.3 0.42                            26 225 
 BTL  SZ EP       1159 55.45                             165     0.010   33 303 
 BRR  HZ EP       1159 58.11                             145     0.310   86 297 
 BRR  HN ES   2   12 0 13.50                             145    -0.7 5   86 297 
 BRR  HZ I        12 0 16.52         7.8 0.18                            86 297 
 RUS  HZ EP       1159 59.04                             143    -0.110   96 184 
 RUS  HN ES   2   12 0 17.12                             143     0.4 5   96 184 
 RUS  HZ I        12 0 18.51         3.4 0.30                            96 184 
                                                                                
