 2012  623 1844  3.9 L   6.781 -73.141154.8  RSN  7 0.4 1.7LRSN                1
 GAP=138        0.67       5.0     4.0  6.4 -0.6757E+00  0.5043E+01  0.2999E+01E
 Epicentro: LOS SANTOS - SANTANDER                                             3
 ACTION:UPD 12-08-06 17:51 OP:ep   STATUS:               ID:20120623184403 L   I
 2012-06-23-1840-00M.COL___199                                                 6
 STAT SP IPHASW D HRMM SECON CODA AMPLIT PERI AZIMU VELO AIN AR TRES W  DIS CAZ7
 BAR2 SZ EP   1   1844 24.64                             172    0.04 7 21.3 192 
 BAR2 SZ ES   1   1844 40.74                             172    0.00 7 21.3 192 
 BAR2 SZ I        1844 42.77        10.6 0.21                          21.3 192 
 BRR  HZ EP   1   1844 26.57                             154    0.44 7 72.7 300 
 BRR  HN ES   1   1844 43.94                             154    0.48 7 72.7 300 
 BRR  HZ I        1844 55.63        25.7 0.35                          72.7 300 
 PAM  SZ EP   1   1844 27.13                             152   -0.05 7 78.7  38 
 PAM  SN ES   1   1844 45.02                             152   -0.31 7 78.7  38 
 RUS  HZ EP   1   1844 28.64                             146    0.22 7 98.4 176 
 RUS  HE ES   2   1844 47.44                             146   -0.10 5 98.4 176 
 RUS  HZ I        1844 48.89         3.7 0.29                          98.4 176 
 PTB  HZ EP   1   1844 31.11                             134   -0.54 7  148 260 
 PTB  HN ES   1   1844 52.65                             134   -0.63 7  148 260 
 PTB  HZ I        1844 54.69         5.6 0.17                           148 260 
 ZAR  HZ EP   2   1844 37.09                             124   -0.01 4  205 293 
 ZAR  HN ES   1   1845  3.02                             124    0.04 6  205 293 
 NOR  SE ES   2   1845  9.09                             120    0.76 4  234 235 
                                                                                
