 2015  123 1128 58.7 L   6.770 -73.544106.2  RSN  6 0.3 1.4LRSN                1
 GAP=104        0.65       3.8     3.0  5.1  0.2882E+01  0.6331E+00  0.2742E+01E
 Epicentro: EL CARMEN - SANTANDER                                              3
 ACTION:UPD 15-03-02 15:41 OP:nd   STATUS:               ID:20150123112858 L   I
 OLDACT:REG 15-01-23 22:45 OP:spq  STATUS:               ID:20150123111745     3
 2015-01-23-1117-45M.COL___261                                                 6
 STAT SP IPHASW D HRMM SECON CODA AMPLIT PERI AZIMU VELO AIN AR TRES W  DIS CAZ7
 BRR  HZ EP       1129 13.76                             157   -0.2010 41.6 334 
 BRR  HN ES       1129 26.07                             157    0.2210 41.6 334 
 BRR  HZ I        1129 27.80        13.9 0.38            157           41.6 334 
 BAR2 EZ EP       1129 14.53                             156    0.0710 44.6 116 
 BAR2 EZ ES   1   1129 26.63                             156   -0.10 7 44.6 116 
 BAR2 EZ I        1129 27.80        17.4 0.46            158           44.6 116 
 PTB  HZ EP       1129 18.26                             132   -0.2410  104 256 
 PTB  HE ES       1129 33.77                             132   -0.1510  104 256 
 PTB  HZ I        1129 35.22         6.3 0.16            133            104 256 
 RUS  HZ EP       1129 19.96                             131    0.3110  110 152 
 RUS  HE ES   1   1129 35.95                             131   -0.03 7  110 152 
 RUS  HZ I        1129 38.46         1.6 0.34            133            110 152 
 PAM  SZ EP   1   1129 19.51                             130   -0.41 7  113  56 
 PAM  SN ES   4   1129 33.92                             130   -2.53 0  113  56 
 PAM  SZ I        1129 37.11         2.5 0.16            132            113  56 
 ZAR  HZ EP   1   1129 25.30                             118    0.61 7  166 299 
 ZAR  HE ES   4   1129 46.52                             118    1.58 0  166 299 
 ZAR  HZ I        1129 48.94         4.4 0.40            119            166 299 
                                                                                
