 2011 1023 1520  8.0 L   6.759 -73.121139.1  RSN  4 0.1 1.6LRSN                1
 GAP=142        0.31       3.7     6.1  5.8 -0.1726E+01  0.3834E+01 -0.5362E+01E
 Epicentro: LOS SANTOS - SANTANDER                                             3
 ACTION:UPD 12-07-13 16:05 OP:ep   STATUS:               ID:20111023152008 L   I
 2011-10-23-1518-41S.COL___171                                                 6
 STAT SP IPHASW D HRMM SECON CODA AMPLIT PERI AZIMU VELO AIN AR TRES W  DIS CAZ7
 GIR2 SZ EP   2   1520 26.88                             165   -0.13 5 36.3 347 
 GIR2 SZ ES   2   1520 41.98                             165    0.12 5 36.3 347 
 BRR  HZ EP   1   1520 28.66                             150   -0.03 7 75.8 301 
 BRR  HZ I        1520 29.11         7.3 0.24                          75.8 301 
 PAM  SZ EP   1   1520 29.68                             149    0.07 7 79.3  36 
 PAM  SN ES   3   1520 46.07                             149   -0.41 2 79.3  36 
 RUS  HZ EP   3   1520 30.85                             144    0.11 2 95.9 178 
 RUS  HE ES   2   1520 48.48                             144   -0.01 5 95.9 178 
                                                                                
