 2012  823 1245 48.4 L   6.759 -73.143148.4  RSN  6 0.4 1.7LRSN                1
 GAP=139        0.85       5.9     5.5  8.2 -0.8439E-02  0.6981E+01  0.1054E+01E
 Epicentro: LOS SANTOS - SANTANDER                                             3
 ACTION:UPD 12-09-10 11:58 OP:ep   STATUS:               ID:20120823124548 L   I
 2012-08-23-1240-00M.COL___217                                                 6
 STAT SP IPHASW D HRMM SECON CODA AMPLIT PERI AZIMU VELO AIN AR TRES W  DIS CAZ7
 BAR2 SZ EP   1   1246  8.25                             172    0.00 7 19.0 193 
 BAR2 SZ I        1246  8.35        14.1 0.13                          19.0 193 
 BAR2 SZ ES   1   1246 23.47                             172   -0.28 7 19.0 193 
 BRR  HZ EP   1   1246 10.49                             152    0.53 7 73.7 301 
 BRR  HZ I        1246 16.37        18.0 0.52                          73.7 301 
 BRR  HN ES   1   1246 27.44                             152    0.65 7 73.7 301 
 PAM  SZ EP   1   1246 11.10                             150    0.02 7 80.7  37 
 PAM  SN ES   1   1246 28.29                             150   -0.49 7 80.7  37 
 PAM  SZ I        1246 30.04        10.3 0.68                          80.7  37 
 RUS  HZ EP   1   1246 12.24                             146    0.16 7 96.1 176 
 RUS  HN ES   1   1246 30.93                             146    0.37 7 96.1 176 
 RUS  HZ I        1246 31.55         3.0 0.24                          96.1 176 
 PTB  HZ EP   1   1246 14.93                             133   -0.59 7  147 261 
 PTB  HN ES   1   1246 36.06                             133   -0.64 7  147 261 
 PTB  HZ I        1246 43.49         5.0 0.36                           147 261 
 ZAR  HN ES   2   1246 47.21                             123    0.39 4  206 293 
 ZAR  HZ I        1246 52.53         8.2 0.34                           206 293 
                                                                                
