 2015  923 1614  9.2 L   6.818 -73.170148.0  RSN 13 0.5 2.4LRSN                1
 GAP=133        1.06       3.1     4.4  6.1 -0.2625E+01  0.6242E+01 -0.1517E+01E
 Epicentro: LOS SANTOS - SANTANDER                                             3
 ACTION:UPD 15-10-28 16:28 OP:cam  STATUS:               ID:20150923161409 L   I
 OLDACT:REG 15-09-23 22:22 OP:ar   STATUS:               ID:20150923160747     3
 2015-09-23-1607-47M.COL___343                                                 6
 STAT SP IPHASW D HRMM SECON CODA AMPLIT PERI AZIMU VELO AIN AR TRES W  DIS CAZ7
 BAR2 EZ ES   2   1614 45.04                             170    0.39 5 25.0 183 
 BAR2 EZ I        1614 45.32        58.2 0.16            168           25.0 183 
 BRR  HZ EP       1614 30.95                             154    0.5710 67.9 298 
 BRR  HN ES       1614 47.76                             154    0.8310 67.9 298 
 BRR  HZ I        1614 48.88        20.1 0.48            152           67.9 298 
 PAM  EZ EP       1614 31.78                             151    0.1410 77.6  42 
 PAM  EN ES       1614 49.03                             151   -0.1410 77.6  42 
 PAM  EZ I        1614 51.23        30.8 0.60            153           77.6  42 
 RUS  HZ EP       1614 33.19                             144   -0.1110  103 175 
 RUS  HN ES       1614 51.88                             144   -0.2410  103 175 
 RUS  HZ I        1614 52.60        25.9 0.28            142            103 175 
 PTB  HZ EP       1614 35.65                             133   -0.47 9  146 258 
 PTB  HN ES       1614 56.91                             133   -0.23 9  146 258 
 PTB  HZ I        1614 58.79        22.5 0.16            131            146 258 
 OCA  HZ EP       1614 37.30                             131   -0.15 9  158 354 
 OCA  HN ES       1614 59.16                             131   -0.34 9  158 354 
 OCA  HZ I        1615  2.70        50.5 0.22            131            158 354 
 SPBC HZ EP       1614 37.87                             130    0.04 9  163 218 
 SPBC HN ES       1615  0.04                             130   -0.14 9  163 218 
 SPBC HZ I        1615  2.49        47.7 0.30            128            163 218 
 ZAR  HZ EP       1614 40.73                             123   -0.70 9  201 292 
 ZAR  HN ES       1615  6.53                             123   -0.07 9  201 292 
 ZAR  HZ I        1615 12.11        19.7 0.40            122            201 292 
 SML  HZ EP       1614 45.44                             118   -0.17 8  241 336 
 SML  HN ES       1615 14.25                             118    0.22 8  241 336 
 SML  HZ I        1615 17.87        31.4 0.10            118            241 336 
 CHI  HZ EP   9   1614 45.53                             117   -1.60 0  250 194 
 CHI  HN ES       1615 15.54                                    0.41 8  250 194 
 CHI  HZ I        1615 24.62         7.4 0.58            116            250 194 
 ROSC BZ EP   4   1614 49.24                             117    1.79 0  253 210 
 ROSC BN ES   4   1615 20.32                             117    3.02 0  253 210 
 ROSC BZ I        1615 23.54        22.3 0.50            116            253 210 
 GUY2CHZ EP       1614 54.07                             113    1.30 7  300 234 
 GUY2CHN ES       1615 26.25                             113   -0.52 7  300 234 
 GUY2CHZ I        1615 35.77         9.4 0.30                           300 234 
 ANIL HZ EP   2   1614 59.98                             109    0.97 3  357 224 
 ANIL HE ES   4   1615 39.94                             109    2.06 0  357 224 
 ANIL HZ I        1615 48.63        18.9 0.42            108            357 224 
                                                                                
