 2014  423 1635 28.1 L   6.857 -73.378127.8  RSN  6 0.5 2.3LRSN                1
 GAP=108        1.19       4.4     5.0  9.1 -0.6367E+01  0.3877E+01  0.3050E+01E
 Epicentro: SAN VICENTE DE CHUCURI - SANTANDER                                 3
 ACTION:UPD 14-05-13 23:10 OP:nd   STATUS:               ID:20140423163528 L   I
 OLDACT:DUP 14-04-23 23:30 OP:nd   STATUS:               ID:20140423163048d    3
 2014-04-23-1630-47M.COL___235                                                 6
 STAT SP IPHASW D HRMM SECON CODA AMPLIT PERI AZIMU VELO AIN AR TRES W  DIS CAZ7
 BRR  HZ IP     C 1635 46.67                             159    0.6810 46.1 307 
 BRR  HN ES       1636  0.69                             159    0.7510 46.1 307 
 BRR  HZ I        1636  1.71        53.0 0.12            158           46.1 307 
 PAM  SZ EP       1635 49.67                             142    0.2010 92.0  54 
 PAM  SN ES       1636  5.67                             142   -0.4610 92.0  54 
 PAM  SZ I        1636  8.09        59.2 0.22            144           92.0  54 
 RUS  HZ EP       1635 51.26                             137    0.2410  111 163 
 RUS  HN ES       1636  8.67                             137   -0.2210  111 163 
 RUS  HZ I        1636  9.93        17.7 0.24            140            111 163 
 PTB  HZ EP       1635 51.59                             133    0.1110  124 254 
 PTB  HN ES       1636  9.11                             133   -0.6010  124 254 
 PTB  HZ I        1636 13.56        47.4 0.28            134            124 254 
 OCA  HZ EP       1635 54.40                             127    0.04 9  153   2 
 OCA  HN ES       1636 14.22                             127   -0.62 9  153   2 
 OCA  HZ I        1636 20.05        52.1 0.16            128            153   2 
 GUY2CHZ EP   4   1636 11.01                             110    1.98 0  285 231 
 GUY2CHN ES       1636 40.49                             110   -0.45 7  285 231 
 GUY2CHZ I        1636 50.06         8.9 0.42                           285 231 
                                                                                
