 2013  123 1643 17.2 L   6.786 -73.142147.6  RSN  8 0.3 2.1LRSN                1
 GAP=138        0.59       3.0     3.2  4.7  0.9412E-01  0.4046E+01  0.2746E+01E
 Epicentro: LOS SANTOS - SANTANDER                                             3
 ACTION:UPD 13-02-15 09:16 OP:ep   STATUS:               ID:20130123164317 L   I
 2013-01-23-1640-00M.COL___241                                                 6
 STAT SP IPHASW D HRMM SECON CODA AMPLIT PERI AZIMU VELO AIN AR TRES W  DIS CAZ7
 BAR2 SZ EP       1643 36.95                             171   -0.0510 21.8 192 
 BAR2 SZ ES   1   1643 52.33                             171   -0.13 7 21.8 192 
 BRR  HZ EP   1   1643 38.91                             152    0.33 7 72.3 299 
 BRR  HN ES   1   1643 55.93                             152    0.65 7 72.3 299 
 BRR  HZ I        1643 59.08        16.3 0.24            150           72.3 299 
 PAM  SZ EP   1   1643 39.85                             151    0.21 7 78.4  39 
 PAM  SN ES   1   1643 56.92                             151   -0.25 7 78.4  39 
 PAM  SZ I        1643 59.04        19.6 0.20            157           78.4  39 
 RUS  HZ EP   1   1643 40.84                             145   -0.15 7 99.0 176 
 RUS  HN ES   1   1643 59.46                             145   -0.11 7 99.0 176 
 RUS  HZ I        1644  0.72        11.9 0.48            146           99.0 176 
 PTB  HZ EP   1   1643 43.83                             132   -0.46 7  148 259 
 PTB  HN ES   1   1644  4.97                             132   -0.48 7  148 259 
 PTB  HZ I        1644 10.79        24.4 0.24            131            148 259 
 ZAR  HZ EP   1   1643 49.75                             123   -0.08 6  205 293 
 ZAR  HE ES   1   1644 15.22                             123   -0.09 6  205 293 
 ZAR  HZ I        1644 21.48        18.6 0.52            123            205 293 
 NOR  HZ EP   1   1643 53.01                             119    0.07 6  234 235 
 NOR  HN ES   1   1644 21.00                             119    0.16 6  234 235 
 NOR  HZ I        1644 28.11        14.8 0.26            119            234 235 
 CHI  HZ EP   1   1643 54.97                             118    0.15 6  247 195 
 CHI  HN ES   1   1644 24.58                             118    0.40 6  247 195 
 CHI  HZ I        1644 30.29         6.3 0.56            119            247 195 
                                                                                
