 2011 1023 1324 56.6 L   6.822 -73.056146.0  RSN  4 0.1 1.6LRSN                1
 GAP=210        0.32       8.4    16.1  9.7  0.1272E+03 -0.1327E+03 -0.6560E+02E
 Epicentro: LOS SANTOS - SANTANDER                                             3
 ACTION:UPD 12-07-13 16:05 OP:ep   STATUS:               ID:20111023132456 L   I
 2011-10-23-1323-03S.COL___171                                                 6
 STAT SP IPHASW D HRMM SECON CODA AMPLIT PERI AZIMU VELO AIN AR TRES W  DIS CAZ7
 BAR2 SZ EP   1   1325 16.24                             167   -0.11 7 29.0 209 
 BAR2 SZ I        1325 32.95         4.8 0.03                          29.0 209 
 GIR2 SZ EP   3   1325 16.57                             167    0.27 2 32.3 332 
 BRR  HZ EP   1   1325 18.25                             149    0.04 7 79.1 294 
 BRR  HN ES   1   1325 35.07                             149   -0.02 7 79.1 294 
 BRR  HZ I        1325 37.18        14.6 0.32                          79.1 294 
 RUS  HZ EP   1   1325 20.57                             142    0.07 7  103 182 
 RUS  HN ES   1   1325 39.16                             142   -0.01 7  103 182 
                                                                                
