 2012 1023 1142  5.3 L   6.792 -73.124149.0  RSN  7 0.4 1.9LRSN                1
 GAP=140        0.81       4.2     5.0  5.4  0.1934E+01  0.4564E+01  0.2084E+01E
 Epicentro: LOS SANTOS - SANTANDER                                             3
 ACTION:UPD 12-11-22 17:05 OP:ep   STATUS:               ID:20121023114205 L   I
 2012-10-23-1140-00M.COL___231                                                 6
 STAT SP IPHASW D HRMM SECON CODA AMPLIT PERI AZIMU VELO AIN AR TRES W  DIS CAZ7
 BAR2 SZ EP       1142 25.11                             171   -0.2410 23.0 196 
 BAR2 SZ ES       1142 41.08                             171    0.1110 23.0 196 
 BAR2 SZ I        1142 42.14        21.4 0.30                          23.0 196 
 BRR  HZ EP       1142 27.22                             152    0.2410 73.7 298 
 BRR  HZ I        1142 27.53        35.9 0.18                          73.7 298 
 BRR  HN ES       1142 44.37                             152    0.5110 73.7 298 
 PAM  SZ EP       1142 28.21                             152    0.3610 76.6  38 
 PAM  SZ I        1142 28.60         8.4 0.24                          76.6  38 
 PAM  SN ES       1142 45.08                             152   -0.3410 76.6  38 
 RUS  HZ EP   1   1142 29.31                             145   -0.03 7 99.6 177 
 RUS  HN ES   1   1142 47.65                             145   -0.41 7 99.6 177 
 RUS  HN I        1142 49.89        13.3 0.20                          99.6 177 
 OCA  HZ EP   1   1142 33.79                             130   -0.22 7  161 352 
 OCA  HZ I        1143  1.33        10.6 0.15                           161 352 
 ZAR  HZ EP   1   1142 37.91                             123   -0.34 6  207 292 
 ZAR  HN ES   1   1143  3.18                             123   -0.75 6  207 292 
 ZAR  HZ I        1143 10.79         7.2 0.42                           207 292 
 CHI  HZ EP       1142 43.42                             118    0.23 8  248 196 
 CHI  HZ I        1143 20.96         3.1 0.35                           248 196 
                                                                                
