 2010  323 1017 57.8 L   6.867 -72.930149.2  RSN  5 0.4 1.4LRSN                1
 GAP=262        0.60       6.6    13.6  7.6  0.3855E+02 -0.5656E+01  0.1151E+02E
 Epicentro: GUACA - SANTANDER                                                  3
 ACTION:UP  10-08-24 09:55 OP:vdl  STATUS:               ID:20100323101757 L   I
 2010-03-23-1012-47S.COL___098                                                 6
 STAT SP IPHASW D HRMM SECON CODA AMPLIT PERI AZIMU VELO SNR AR TRES W  DIS CAZ7
 BAR2 SZ EP   1   1018 18.63                             164     0.3 7   41 223 
 BAR2 SZ ES   2   1018 34.15                             164    -0.2 5   41 223 
 BRR  HZ EP   1   1018 20.70                             147     0.2 7   90 287 
 BRR  HZ I        1018 25.56         5.5 0.48                            90 287 
 BRR  HN ES   2   1018 38.07                             147    -0.1 5   90 287 
 RUS  HZ EP   1   1018 22.55                             142     0.0 7  109 189 
 RUS  HE ES   2   1018 41.49                             142    -0.3 5  109 189 
 RUS  HZ I        1018 45.38         2.8 0.56                           109 189 
 CHI  HZ EP   1   1018 36.86                             116    -0.4 6  263 200 
 CHI  HN ES   2   1019  8.85                             116     0.8 4  263 200 
 CHI  HZ I        1019 11.89         2.0 0.77                           263 200 
 PRA  HZ EP   1   1018 53.11                             106    -0.5 4  411 212 
                                                                                
