 2013 1023 1900 58.7 L   6.791 -73.102145.3  RSN 12 0.3 2.9LRSN 3.2WRSN        1
 SPEC AVERAGE  MO 13.9 ST 60.7 OM  2.5 f0 7.60 R0.2593 AL 0.00 WI 19.1 MW  3.2 3
 SPEC SD       MO  0.1 ST 47.7 OM  0.3 f0 3.01 R0.1434 AL      WI      MW  0.1 3
 GAP=143        0.69       2.5     3.2  4.0 -0.5122E+00  0.3818E+01  0.1682E+01E
 Epicentro: LOS SANTOS - SANTANDER                                             3
 SPEC CHI HH N MO 14.0 ST  2.8 OM  2.1 f0 2.99 R0.5197 AL 0.00 WI 16.7 MW  3.2 3
 SPEC CHI HH N T19 2 6 K 0.000 GD  288 VS 4.20 DE 3.20 Q0300.0 QA 0.60 VS 4.20 3
 SPEC ZAR HH N MO 14.0 ST117.4 OM  2.2 f0 10.0 R0.1554 AL 0.00 WI 25.4 MW  3.3 3
 SPEC ZAR HH N T19 155 K 0.000 GD  254 VS 4.20 DE 3.20 Q0300.0 QA 0.60 VS 4.20 3
 SPEC SPBCHH N MO 13.9 ST101.4 OM  2.2 f0 10.0 R0.1554 AL 0.00 WI 18.9 MW  3.2 3
 SPEC SPBCHH N T19 148 K 0.000 GD  219 VS 4.20 DE 3.20 Q0300.0 QA 0.60 VS 4.20 3
 SPEC RUS HH N MO 13.6 ST  6.4 OM  2.0 f0 5.00 R0.3108 AL 0.00 WI 27.3 MW  3.0 3
 SPEC RUS HH N T19 139 K 0.000 GD  175 VS 4.20 DE 3.20 Q0300.0 QA 0.60 VS 4.20 3
 SPEC BRR HH N MO 13.8 ST 75.6 OM  2.2 f0 10.0 R0.1554 AL 0.00 WI  7.3 MW  3.2 3
 SPEC BRR HH N T19 137 K 0.000 GD  163 VS 4.20 DE 3.20 Q0300.0 QA 0.60 VS 4.20 3
 ACTION:UPD 13-11-25 09:23 OP:ep   STATUS:               ID:20131023190058 L   I
 OLDACT:UP  13-10-23 16:39 OP:cam  STATUS:               ID:20131023185839     3
 OLDACT:UP  13-10-23 16:38 OP:cam  STATUS:               ID:20131023185839     3
 OLDACT:REG 13-10-23 15:27 OP:cam  STATUS:               ID:20131023185839     3
 2013-10-23-1858-39M.COL___224                                                 6
 STAT SP IPHASW D HRMM SECON CODA AMPLIT PERI AZIMU VELO AIN AR TRES W  DIS CAZ7
 BAR2 SZ IP     D 19 1 18.32                             170    0.0210 23.7 202 
 BAR2 SZ ES       19 1 33.01                             170   -0.5610 23.7 202 
 BAR2 SZ I        19 1 34.34       386.6 0.18            167           23.7 202 
 PAM  SZ EP       19 1 21.17                             151    0.4210 75.2  36 
 PAM  SE ES       19 1 37.93                             151   -0.0110 75.2  36 
 PAM  SZ I        19 1 39.10        95.5 0.16            156           75.2  36 
 BRR  HZ EP       19 1 20.19                             151    0.1010 76.0 297 
 BRR  HN ES       19 1 36.94                             151    0.1810 76.0 297 
 BRR  HZ I        19 1 38.16       132.1 0.42            149           76.0 297 
 RUS  HZ EP       19 1 22.21                             144   -0.1210 99.3 179 
 RUS  HN ES       19 1 40.98                             144    0.2310 99.3 179 
 RUS  HZ I        19 1 42.48        65.7 0.40            144           99.3 179 
 PTB  HZ EP   4   19 1 24.84                             131   -1.22 0  152 260 
 PTB  HN ES   4   19 1 45.64                             131   -1.75 0  152 260 
 PTB  HZ I        19 1 49.97       103.5 0.12            130            152 260 
 SPBC HZ EP       19 1 27.26                             128   -0.14 9  165 221 
 SPBC HN ES   1   19 1 50.21                             128    0.44 7  165 221 
 SPBC HZ I        19 1 54.13        85.4 0.32            128            165 221 
 ZAR  HZ EP   1   19 1 31.82                             122    0.18 6  209 292 
 ZAR  HN ES       19 1 57.36                             122    0.05 8  209 292 
 ZAR  HZ I        19 2  2.87        98.0 0.34            122            209 292 
 NOR  HZ EP       19 1 34.32                             118   -0.46 8  238 235 
 NOR  HN ES       19 2  2.83                             118   -0.08 8  238 235 
 NOR  HZ I        19 2  7.91        77.3 0.18            118            238 235 
 SML  HZ EP   1   19 1 34.85                             117   -0.79 6  247 334 
 CHI  HZ EP       19 1 36.59                             117    0.17 8  249 196 
 CHI  HN ES   1   19 2  5.69                             117   -0.14 6  249 196 
 CHI  HZ I        19 2 11.74        22.0 0.22            117            249 196 
 ROSC BZ EP   4   19 1 38.60                             116    1.61 0  254 212 
 HEL  HZ EP   4   19 1 40.53                             114    1.13 0  277 256 
 HEL  HE ES   4   19 2  9.44                             114   -1.69 0  277 256 
 GUY2CHZ EP   1   19 1 43.12                             112    0.43 5  305 235 
 RREF HZ EP   4   19 1 46.48                             110    1.30 0  325 230 
 PRA  HZ EP   2   19 1 52.32                             106   -0.08 3  394 210 
                                                                                
