 2012 1123 1135 58.6 L   6.777 -73.164141.9  RSN  8 0.3 2.1LRSN                1
 GAP=135        0.57       2.7     2.8  4.1 -0.1095E+01  0.3239E+01  0.1062E+01E
 Epicentro: LOS SANTOS - SANTANDER                                             3
 ACTION:UPD 12-12-05 15:35 OP:}ep  STATUS:               ID:20121123113558 L   I
 2012-11-23-1130-00M.COL___233                                                 6
 STAT SP IPHASW D HRMM SECON CODA AMPLIT PERI AZIMU VELO AIN AR TRES W  DIS CAZ7
 BAR2 SZ EP       1136 17.85                             171    0.1210 20.5 186 
 BAR2 SZ I        1136 18.24        51.5 0.07                          20.5 186 
 BAR2 SZ ES       1136 32.72                             171    0.0910 20.5 186 
 GIR2 SZ EP       1136 17.94                             166    0.0410 33.6 354 
 PAM  SZ EP       1136 20.78                             149    0.1510 80.7  39 
 PAM  SZ I        1136 21.16        18.1 0.24                          80.7  39 
 PAM  SN ES       1136 37.65                             149   -0.1410 80.7  39 
 RUS  HZ EP       1136 21.75                             144   -0.0610 98.2 175 
 RUS  HN ES       1136 39.90                             144   -0.0110 98.2 175 
 RUS  HN I        1136 41.10        14.4 0.28                          98.2 175 
 PTB  HZ EP       1136 24.59                             132   -0.46 9  145 260 
 PTB  HN ES       1136 45.50                             132   -0.16 9  145 260 
 PTB  HZ I        1136 49.62        12.8 0.19                           145 260 
 ZAR  HE ES   1   1136 56.31                             122    0.54 6  203 293 
 ZAR  HZ I        1137  1.86        16.1 0.31                           203 293 
 CHI  HZ EP   1   1136 35.62                             117   -0.15 6  246 195 
 PRA  HZ EP   1   1136 51.93                             106    0.30 4  389 209 
 PRA  HN ES   1   1137 33.63                             106    0.66 4  389 209 
 PRA  HZ I        1137 40.99         4.0 0.30                           389 209 
                                                                                
