 2017  323 1943 21.4 L   6.577 -73.592104.8  RSN  8 0.4 2.0LRSN                1
 GAP=117        0.87       4.5     3.9  7.3 -0.8417E+01  0.8539E+01 -0.8995E+01E
 Epicentro: EL CARMEN - SANTANDER                                              3
 ACTION:UPD 17-05-25 18:44 OP:jn   STATUS:               ID:20170323194321 L   I
 OLDACT:UP  17-03-24 00:05 OP:dani STATUS:               ID:20170323193745     3
 OLDACT:UP  17-03-24 00:05 OP:dani STATUS:               ID:20170323193745     3
 OLDACT:UP  17-03-24 00:03 OP:dani STATUS:               ID:20170323193745     3
 OLDACT:REG 17-03-23 20:59 OP:dani STATUS:               ID:20170323193745     3
 2017-03-23-1938-00M.COL___405                                                 6
 STAT SP IPHASW D HRMM SECON CODA AMPLIT PERI AZIMU VELO AIN AR TRES W  DIS CAZ7
 BAR2 EZ IP     D 1943 37.04                             155   -0.0110 45.4  88 
 BAR2 EZ ES       1943 49.38                             155    0.1510 45.4  88 
 BAR2 EZ I        1943 50.66        61.3 0.52            158           45.4  88 
 BRR  HN EP       1943 38.00                             147    0.4310 60.1 347 
 PTB  HZ IP     C 1943 39.82                             134   -0.5210 95.6 268 
 PTB  HE ES       1943 54.76                             134   -0.3310 95.6 268 
 PTB  HZ I        1943 55.91        22.8 0.28            135           95.6 268 
 SPBC HZ EP       1943 41.95                             128   -0.2910  115 207 
 SPBC HE ES       1943 58.63                             128    0.1610  115 207 
 SPBC HZ I        1943 59.59        21.4 0.10            132            115 207 
 PAM  EZ EP       1943 44.09                             125   -0.1110  130  49 
 PAM  EE ES   3   1944  0.39                             125   -1.57 2  130  49 
 PAM  EZ I        1944  3.18         9.0 0.28            127            130  49 
 ZAR  HZ EP       1943 48.73                             116    0.64 9  173 306 
 ZAR  HE ES   4   1944 11.52                             116    2.64 0  173 306 
 ZAR  HZ I        1944 13.67        12.2 0.40            117            173 306 
 NOR  HZ EP   4   1943 46.31                             115   -2.68 0  180 232 
 NOR  HE ES       1944 10.58                             115    0.09 9  180 232 
 NOR  HZ I        1944 11.42         7.2 0.20            117            180 232 
 PRA  HN EP   3   1944  9.48                             100    0.97 2  348 204 
                                                                                
