 2017  723 1310  8.3 L   5.959 -73.650118.9  RSN 14 0.5 2.3LRSN                1
 GAP= 97        1.36       3.9     2.9  6.8 -0.1936E+00  0.3603E+01 -0.2113E+01E
 Epicentro: BARBOSA - SANTANDER                                                3
 ACTION:UPD 17-08-30 15:35 OP:rebc STATUS:               ID:20170723131008 L   I
 OLDACT:UP  17-07-23 23:10 OP:AR   STATUS:               ID:20170723130739     3
 OLDACT:UP  17-07-23 23:07 OP:AR   STATUS:               ID:20170723130739     3
 OLDACT:UP  17-07-23 23:02 OP:AR   STATUS:               ID:20170723130739     3
 OLDACT:REG 17-07-23 20:34 OP:ar   STATUS:               ID:20170723130739     3
 2017-07-23-1308-00M.COL___380                                                 6
 STAT SP IPHASW D HRMM SECON CODA AMPLIT PERI AZIMU VELO AIN AR TRES W  DIS CAZ7
 SPBC HZ EP       1310 25.44                             152   -0.4710 57.8 234 
 SPBC HE ES       1310 39.49                             152   -0.1610 57.8 234 
 SPBC HZ I        1310 40.91        91.9 0.18            153           57.8 234 
 RUS  HZ IP       1310 26.32                             150   -0.4810 63.2  97 
 RUS  HE ES       1310 41.17                             150   -0.0710 63.2  97 
 RUS  HZ I        1310 41.79        35.2 0.26            153           63.2  97 
 BAR2 EZ EP     C 1310 28.11                             141    0.0410 87.0  36 
 BAR2 EZ ES       1310 43.88                             141    0.3710 87.0  36 
 PTB  HZ EP     C 1310 28.56                             134   -1.0810  110 306 
 PTB  HN ES       1310 45.60                             134   -0.7010  110 306 
 PTB  HZ I        1310 47.86        13.6 0.14            134            110 306 
 TABC EZ EP       1310 31.59                             131    0.3010  122 210 
 TABC EZ ES       1310 50.27                             131    1.0410  122 210 
 TABC EZ I        1310 52.31        57.6 0.64            133            122 210 
 BRR  HZ EP     C 1310 31.25                             130    0.0710  127 357 
 BRR  HE ES       1310 50.04                             130    1.0010  127 357 
 BRR  HZ I        1310 51.56        30.7 0.14            130            127 357 
 NOR  HZ EP       1310 32.89                             126    0.21 9  142 252 
 NOR  HE ES       1310 51.23                             126   -0.49 9  142 252 
 NOR  HZ I        1310 52.92        35.2 0.16            127            142 252 
 YPLC HZ EP     D 1310 33.37                             124   -0.52 9  154 114 
 YPLC HE ES       1310 53.99                             124    0.12 9  154 114 
 YPLC HZ I        1310 55.89        55.9 0.28            126            154 114 
 GUY2CHZ EP       1310 40.97                             116    0.95 8  207 247 
 GUY2CHE ES   4   1311  7.17                             116    2.39 0  207 247 
 GUY2CHZ I        1311 11.54        15.2 0.44                           207 247 
 HEL  HZ EP       1310 40.64                             115    0.44 8  210 277 
 HEL  HN ES       1311  4.40                             115   -0.70 8  210 277 
 HEL  HZ I        1311 10.27        16.4 0.36            116            210 277 
 TAM  HZ EP       1310 39.58                             115   -0.51 8  212  76 
 TAM  HN ES       1311  4.99                             115    0.09 8  212  76 
 ZAR  HZ EP       1310 40.63                             114    0.20 8  216 322 
 ZAR  HN ES       1311  5.84                             114    0.33 8  216 322 
 ZAR  HZ I        1311 11.44        26.6 0.34            115            216 322 
 PTGC HZ EP   4   1310 49.97                             110    4.87 0  257 139 
 PTGC HN ES   4   1311 11.11                             110   -2.71 0  257 139 
 CBOC HZ EP       1310 46.20                             110    0.35 8  262 268 
 DBB  EZ EP       1310 50.55                             106   -0.36 7  306 293 
 DBB  EN ES       1311 24.64                             106    0.48 7  306 293 
 DBB  EZ I        1311 26.84         8.6 0.60            107            306 293 
                                                                                
