 2013  923 1049 14.1 L   7.467 -73.208135.8  RSN  6 0.5 1.7LRSN                1
 GAP=112        1.39       5.0     6.1 10.5 -0.6053E+01  0.9056E+01 -0.2778E+01E
 Epicentro: EL PLAYON - SANTANDER                                              3
 ACTION:UPD 13-10-22 09:24 OP:ep   STATUS:               ID:20130923104914 L   I
 OLDACT:REG 13-09-23 15:29 OP:stll STATUS:               ID:20130923104838     3
 2013-09-23-1048-38M.COL___241                                                 6
 STAT SP IPHASW D HRMM SECON CODA AMPLIT PERI AZIMU VELO AIN AR TRES W  DIS CAZ7
 BRR  HZ EP       1049 34.52                             152    0.4610 68.4 234 
 BRR  HN ES       1049 50.01                             152    0.4210 68.4 234 
 BRR  HN I        1049 51.77        13.8 0.18            152           68.4 234 
 OCA  HN ES       1049 52.79                             146    0.7810 86.2 352 
 OCA  HZ I        1049 55.76         9.0 0.34            147           86.2 352 
 BAR2 SZ EP       1049 36.18                             143   -0.1110 96.8 178 
 BAR2 SZ ES       1049 52.81                             143   -0.7510 96.8 178 
 BAR2 SZ I        1049 54.40         6.2 0.18            145           96.8 178 
 CAPV BZ EP       1049 37.67                             139    0.5310  108  66 
 CAPV BZ ES       1049 54.63                             139   -0.4410  108  66 
 PTB  HZ EP       1049 42.75                             125    0.09 9  172 233 
 PTB  HN ES       1050  4.95                             125    0.05 9  172 233 
 PTB  HZ I        1050  8.21         5.5 0.16            127            172 233 
 SML  HZ EP       1049 42.83                             124   -0.17 9  176 327 
 SML  HN ES       1050  4.43                             124   -1.08 9  176 327 
                                                                                
