 2014  523 1021 30.2 L   6.783 -73.113147.2  RSN  9 0.5 2.0LRSN                1
 GAP=159        1.04       5.8     5.6  7.3 -0.1221E+02  0.1548E+01  0.2248E+02E
 Epicentro: LOS SANTOS - SANTANDER                                             3
 ACTION:UPD 15-03-16 17:00 OP:nd   STATUS:               ID:20140523102130 L   I
 OLDACT:UP  14-05-23 23:08 OP:cam  STATUS:               ID:20140523102000     3
 OLDACT:REG 14-05-23 22:13 OP:cam  STATUS:               ID:20140523102000     3
 2014-05-23-1020-00M.COL___252                                                 6
 STAT SP IPHASW D HRMM SECON CODA AMPLIT PERI AZIMU VELO AIN AR TRES W  DIS CAZ7
 BAR2 SZ EP       1021 49.81                             171   -0.2010 22.5 200 
 BAR2 SZ ES       1022  5.41                             171   -0.0310 22.5 200 
 BAR2 SZ I        1022  7.55        29.8 0.28            167           22.5 200 
 BRR  HN ES       1022  8.82                             151    0.2710 75.2 298 
 BRR  HN I        1022  9.08        34.1 0.28            156           75.2 298 
 PAM  SZ EP       1021 52.74                             151    0.1910 76.6  37 
 PAM  SN ES       1022 10.10                             151    0.1510 76.6  37 
 PAM  SZ I        1022 12.18        11.1 0.62            155           76.6  37 
 PTB  HZ EP       1021 57.06                             132   -0.54 9  151 260 
 PTB  HN ES       1022 18.26                             132   -0.69 9  151 260 
 PTB  HZ I        1022 20.23         7.9 0.10            134            151 260 
 NOR  HZ EP       1022  6.14                             118   -0.10 8  237 235 
 CHI  HZ EP       1022  7.90                             117   -0.02 8  248 196 
 CHI  HN ES       1022 37.09                             117   -0.22 8  248 196 
 CHI  HZ I        1022 43.38         3.6 0.30            118            248 196 
 GUY2CHZ EP   1   1022 14.88                             112    0.77 5  303 235 
 GUY2CHN ES       1022 49.77                             112    1.42 7  303 235 
 GUY2CHZ I        1022 55.98         4.3 0.30                           303 235 
 RREF HZ EP   4   1022 18.79                             111    2.18 0  323 230 
 RREF HN ES   4   1022 55.11                             111    2.33 0  323 230 
 RREF HZ I        1022 56.96         3.5 0.24            112            323 230 
 PRA  HZ EP       1022 23.64                             107   -0.18 6  392 210 
 PRA  HE ES       1023  5.65                             107    0.03 6  392 210 
 PRA  HZ I        1023 12.07         3.5 0.40            108            392 210 
                                                                                
