 2017 1023 1426  9.4 L   6.656 -74.093  1.0  RSN  6 0.4 1.1LRSN                1
 GAP=136        1.00       3.3     2.5  7.3  0.2253E+01  0.8622E+01  0.6603E+01E
 Epicentro: PUERTO PARRA - SANTANDER                                           3
 ACTION:UPD 17-11-07 19:35 OP:rebc STATUS:               ID:20171023142609 L   I
 OLDACT:REG 17-10-23 20:59 OP:dani STATUS:               ID:20171023141737     3
 2017-10-23-1418-00M.COL___452                                                 6
 STAT SP IPHASW D HRMM SECON CODA AMPLIT PERI AZIMU VELO AIN AR TRES W  DIS CAZ7
 PTB  HZ IP     D 1426 17.16                              47    0.3710 42.1 252 
 PTB  HE ES       1426 23.06                              47    0.4810 42.1 252 
 PTB  HZ I        1426 23.28        11.9 0.24            123           42.1 252 
 BAR2 EZ EP     D 1426 25.60                              47   -0.3310  101  94 
 BAR2 EZ I        1426 41.24         5.5 0.40             56            101  94 
 ZAR  HE ES       1426 44.83                              47   -0.1610  125 318 
 RUS  HZ EP       1426 31.99                              47   -0.13 9  140 127 
 RUS  HN ES       1426 50.39                              47    0.53 9  140 127 
 NOR  HN ES       1426 50.64                              47   -0.61 9  148 215 
 GUY2CHN ES     D 1427  7.50                              37   -0.27 8  212 222 
                                                                                
