 2013  823 1807 29.0 L   6.809 -73.168153.0  RSN  5 0.3 1.3LRSN                1
 GAP=236        0.89       8.1     7.2  9.2  0.4034E+02 -0.2260E+01 -0.7561E+00E
 Epicentro: LOS SANTOS - SANTANDER                                             3
 ACTION:UPD 14-01-14 09:06 OP:ep   STATUS:               ID:20130823180729 L   I
 OLDACT:DUP 13-08-23 20:41 OP:stll STATUS:               ID:20130823175849d    3
 2013-08-23-1758-48M.COL___217                                                 6
 STAT SP IPHASW D HRMM SECON CODA AMPLIT PERI AZIMU VELO AIN AR TRES W  DIS CAZ7
 BAR2 SZ EP       18 7 49.18                             171   -0.3110 24.0 184 
 BRR  HN ES       18 8  8.04                             155    0.2710 68.6 299 
 RUS  HZ EP       18 7 54.09                             145    0.5710  102 175 
 RUS  HZ I        18 7 54.55         1.3 0.14            143            102 175 
 RUS  HN ES       18 8 12.31                             145   -0.3710  102 175 
 PTB  HZ EP       18 7 56.19                             134   -0.15 9  146 258 
 PTB  HN ES       18 8 17.96                             134    0.26 9  146 258 
 PTB  HZ I        18 8 19.64         5.6 0.24            132            146 258 
 ZAR  HN ES       18 8 26.76                             124   -0.35 9  201 292 
                                                                                
