 2014  423 1142 22.8 L   6.789 -73.203140.1  RSN  7 0.5 1.9LRSN                1
 GAP=130        1.13       3.9     5.2  9.0 -0.2388E+01  0.2065E+02  0.6078E+00E
 Epicentro: ZAPATOCA - SANTANDER                                               3
 ACTION:UPD 14-05-13 23:10 OP:nd   STATUS:               ID:20140423114222 L   I
 OLDACT:REG 14-04-23 20:41 OP:nd   STATUS:               ID:20140423114049     3
 2014-04-23-1140-49M.COL___242                                                 6
 STAT SP IPHASW D HRMM SECON CODA AMPLIT PERI AZIMU VELO AIN AR TRES W  DIS CAZ7
 PAM  SZ EP       1142 44.88                             148    0.1010 82.4  42 
 PAM  SN ES       1143  2.34                             148    0.4510 82.4  42 
 PAM  SZ I        1143  4.54        15.8 0.62            152           82.4  42 
 RUS  HZ EP       1142 46.10                             143    0.1010  100 172 
 RUS  HN ES       1143  3.69                             143   -0.3810  100 172 
 RUS  HZ I        1143  5.01        13.3 0.30            147            100 172 
 PTB  HZ EP       1142 48.48                             132   -0.29 9  141 259 
 PTB  HN ES       1143  8.79                             132   -0.20 9  141 259 
 PTB  HZ I        1143 13.51         7.9 0.22            133            141 259 
 ZAR  HZ EP       1142 53.78                             122   -0.59 9  199 293 
 ZAR  HN ES   1   1143 20.04                             122    1.08 6  199 293 
 ZAR  HZ I        1143 25.02         9.1 0.24            123            199 293 
 SML  HZ EP   1   1142 58.95                             116   -0.04 6  242 337 
 SML  HN ES       1143 26.56                             116   -0.63 8  242 337 
 SML  HZ I        1143 31.29         9.3 0.10            118            242 337 
 GUY2CHZ EP       1143  6.88                             112    1.35 7  295 234 
 GUY2CHN ES       1143 38.77                             112   -0.06 7  295 234 
 GUY2CHZ I        1143 47.85         3.6 0.28                           295 234 
 PRA  HZ EP       1143 15.49                             106   -0.20 6  388 209 
 PRA  HN ES       1143 56.79                             106   -0.12 6  388 209 
 PRA  HZ I        1144  2.07         2.3 0.26            108            388 209 
                                                                                
