 2017 1023 1628 35.9 L   6.833 -73.221147.4  RSN  5 0.5 1.2LRSN                1
 GAP=149        1.02       6.3     5.8  8.6 -0.1267E+02  0.1480E+02 -0.4715E+01E
 Epicentro: ZAPATOCA - SANTANDER                                               3
 ACTION:UPD 17-11-07 19:35 OP:rebc STATUS:               ID:20171023162835 L   I
 OLDACT:UP  17-10-24 00:42 OP:osc  STATUS:               ID:20171023162748d    3
 OLDACT:DUP 17-10-24 00:29 OP:osc  STATUS:               ID:20171023162748d    3
 OLDACT:REG 17-10-23 21:13 OP:dani STATUS:               ID:20171023162747     3
 2017-10-23-1628-00M.COL___452                                                 6
 STAT SP IPHASW D HRMM SECON CODA AMPLIT PERI AZIMU VELO AIN AR TRES W  DIS CAZ7
 BAR2 EZ EP       1628 56.03                             169    0.2410 26.9 171 
 BAR2 EZ ES       1629 11.68                             169    0.3710 26.9 171 
 BAR2 EZ I        1629 12.37         5.8 0.20            169           26.9 171 
 PAM  EZ EP       1628 58.73                             150    0.2810 80.4  46 
 PAM  EN ES       1629 15.55                             150   -0.5110 80.4  46 
 RUS  HZ EP       1629  0.38                             143    0.2610  105 172 
 RUS  HN ES       1629 18.58                             143   -0.4510  105 172 
 RUS  HZ I        1629 20.01         1.4 0.26            143            105 172 
 PTB  HZ EP       1629  1.97                             134   -0.36 9  140 257 
 PTB  HN ES       1629 23.31                             134    0.36 9  140 257 
 GUY2CHE ES   2   1629 51.21                             113   -1.50 4  297 233 
                                                                                
