 2012 1223 1101  7.1 L   7.394 -73.198129.9  RSN  9 0.2 1.8LRSN                1
 GAP=104        0.48       2.2     2.1  3.4  0.6869E+00  0.6715E+00  0.5000E+00E
 Epicentro: EL PLAYON - SANTANDER                                              3
 ACTION:UPD 13-01-04 14:29 OP:ep   STATUS:               ID:20121223110107 L   I
 2012-12-23-1100-00M.COL___243                                                 6
 STAT SP IPHASW D HRMM SECON CODA AMPLIT PERI AZIMU VELO AIN AR TRES W  DIS CAZ7
 GIR2 SZ EP       11 1 25.00                             164   -0.0210 34.9 179 
 GIR2 SZ ES   1   11 1 39.05                             164    0.06 7 34.9 179 
 GIR2 SZ I        11 1 39.89        10.9 0.15                          34.9 179 
 PAM  SZ EP   1   11 1 26.47                             156    0.08 7 55.3  96 
 PAM  SN ES   1   11 1 41.40                             156   -0.02 7 55.3  96 
 PAM  SZ I        11 1 42.57        16.3 0.54                          55.3  96 
 BRR  HZ EP   1   11 1 26.25                             152    0.05 7 65.1 241 
 BRR  HE ES   1   11 1 41.29                             152    0.20 7 65.1 241 
 BRR  HZ I        11 1 42.27        10.0 0.15                          65.1 241 
 BAR2 SZ EP   1   11 1 28.16                             144    0.07 7 88.7 179 
 BAR2 SZ ES   1   11 1 44.30                             144   -0.15 7 88.7 179 
 BAR2 SZ I        11 1 45.69        37.0 0.22                          88.7 179 
 OCA  HZ EP   1   11 1 27.94                             142   -0.45 7 94.3 352 
 OCA  HE ES   1   11 1 44.88                             142   -0.11 7 94.3 352 
 OCA  HZ I        11 1 46.82        12.1 0.22                          94.3 352 
 RUS  HZ EP   1   11 1 35.09                             125   -0.22 7  167 176 
 RUS  HN ES   1   11 1 56.89                             125   -0.42 7  167 176 
 RUS  HZ I        11 1 59.42         3.2 0.36                           167 176 
 PTB  HZ EP   1   11 1 34.73                             124   -0.12 7  168 236 
 PTB  HN ES   1   11 1 56.39                             124   -0.09 7  168 236 
 PTB  HZ I        11 1 59.82         6.0 0.22                           168 236 
 ZAR  HZ EP   1   11 1 36.62                             122    0.20 7  184 273 
 ZAR  HE ES   1   11 1 59.67                             122    0.39 7  184 273 
 ZAR  HZ I        11 2  2.65         8.4 0.28                           184 273 
 TAM  HZ EP   1   11 1 37.14                             121    0.21 7  188 124 
 TAM  HN ES   1   11 2  0.69                             121    0.49 7  188 124 
 TAM  HZ I        11 2  1.89        11.2 0.28                           188 124 
 MON  HZ EP   4   11 1 48.34                             108   -2.35 0  312 300 
                                                                                
