 2014  323 1948 35.0 L   6.765 -73.177147.2  RSN  5 0.4 1.6LRSN                1
 GAP=240        0.84       9.4     7.3 13.2  0.4275E+02 -0.3150E+02 -0.5558E+02E
 Epicentro: LOS SANTOS - SANTANDER                                             3
 OLDACT:REG 14-03-23 15:50 OP:fm   STATUS:               ID:20140323193813     3
 ACTION:UPD 14-04-09 23:20 OP:nd   STATUS:               ID:20140323194835 L   I
 OLDACT:UP  14-03-23 20:19 OP:fm   STATUS:               ID:20140323193813     3
 2014-03-23-1938-13M.COL___246                                                 6
 STAT SP IPHASW D HRMM SECON CODA AMPLIT PERI AZIMU VELO AIN AR TRES W  DIS CAZ7
 RUS  HZ EP       1948 58.91                             145    0.2210 97.1 174 
 RUS  HN ES   1   1949 16.69                             145   -0.44 7 97.1 174 
 RUS  HZ I        1949 32.66         4.9 1.72            147           97.1 174 
 PTB  HZ EP       1949  1.40                             133   -0.36 9  144 260 
 PTB  HZ I        1949 21.68         8.9 1.74            142            144 260 
 PTB  HN ES       1949 22.49                             133   -0.11 9  144 260 
 SPBC HZ EP   1   1949  3.34                             130    0.17 7  158 219 
 SPBC HN ES   1   1949 25.87                             130    0.76 7  158 219 
 SPBC HZ I        1949 31.51         4.8 1.04            137            158 219 
 ZAR  HN ES   1   1949 33.02                             123    0.37 6  202 294 
 NOR  HE ES   2   1949 36.88                             119   -0.95 4  230 235 
                                                                                
