 2014  923 1210 35.1 L   6.816 -73.136145.5  RSN 17 0.4 2.2LRSN                1
 GAP= 71        0.91       2.7     3.6  5.1  0.2880E+00  0.4117E+01  0.2643E+01E
 Epicentro: LOS SANTOS - SANTANDER                                             3
 ACTION:UPD 14-10-03 23:07 OP:nd   STATUS:               ID:20140923121035 L   I
 OLDACT:REG 14-09-23 21:03 OP:spq  STATUS:               ID:20140923120819     3
 2014-09-23-1208-19M.COL___284                                                 6
 STAT SP IPHASW D HRMM SECON CODA AMPLIT PERI AZIMU VELO AIN AR TRES W  DIS CAZ7
 BAR2 SZ IP     D 1210 54.73                             170   -0.0110 25.3 192 
 BAR2 SZ ES   1   1211  9.26                             170   -0.80 7 25.3 192 
 BAR2 SZ I        1211 11.10        21.7 0.32            167           25.3 192 
 BRR  HZ IP     C 1210 56.56                             152    0.3310 71.3 297 
 BRR  HE ES       1211 13.55                             152    0.8410 71.3 297 
 BRR  HZ I        1211 15.81        21.2 0.11            151           71.3 297 
 PAM  SZ EP       1210 57.41                             152    0.2410 75.3  40 
 PAM  SN ES   1   1211 14.58                             152    0.20 7 75.3  40 
 PAM  SZ I        1211 15.26        20.7 0.20            155           75.3  40 
 RUS  HZ EP     C 1210 58.75                             143   -0.2010  102 177 
 RUS  HN ES   1   1211 17.62                             143    0.07 7  102 177 
 RUS  HZ I        1211 19.23         9.8 0.24            142            102 177 
 PTB  HZ EP       1211  1.56                             132   -0.62 9  149 258 
 PTB  HE ES   1   1211 23.24                             132   -0.06 7  149 258 
 PTB  HZ I        1211 24.98        21.2 0.16            131            149 258 
 TAM  HE ES   1   1211 24.58                             131    0.35 7  155 106 
 TAM  HZ I        1211 26.65        16.4 0.45            132            155 106 
 OCA  HN ES       1211 24.51                             130   -0.68 9  159 353 
 OCA  HZ I        1211 28.57        15.6 0.14            131            159 353 
 SPBC HZ EP       1211  3.75                             129   -0.03 9  165 219 
 SPBC HN ES       1211 25.73                             129   -0.41 9  165 219 
 SPBC HZ I        1211 30.78        18.6 0.22            128            165 219 
 ZAR  HZ EP       1211  7.62                             122    0.05 9  204 292 
 ZAR  HE ES       1211 33.22                             122    0.33 9  204 292 
 ZAR  HZ I        1211 38.62        26.3 0.56            122            204 292 
 SML  HZ EP       1211 11.14                             118   -0.45 8  243 335 
 SML  HN ES   1   1211 39.87                             118   -0.18 6  243 335 
 SML  HZ I        1211 45.48        17.6 0.26            118            243 335 
 CHI  HZ EP       1211 13.16                             117    0.16 8  251 195 
 CHI  HE ES   1   1211 42.36                             117   -0.21 6  251 195 
 CHI  HZ I        1211 49.42         5.8 0.50            117            251 195 
 ROSC BN ES   4   1211 45.24                             116    1.91 0  255 211 
 ROSC BZ I        1211 48.74        18.8 0.45            116            255 211 
 GUY2CHZ EP       1211 19.06                             112    0.14 7  303 235 
 GUY2CHE ES   4   1211 54.72                             112    1.63 0  303 235 
 GUY2CHZ I        1212  1.38         8.3 0.56                           303 235 
 TOL  SZ EP   1   1211 24.41                             109    0.83 5  346 225 
 TOL  SN ES   4   1212  4.70                             109    3.30 0  346 225 
 TOL  SZ I        1212  9.10        18.6 0.44            109            346 225 
 MON  HN ES   4   1211 59.98                             109   -2.28 0  353 308 
 MON  HZ I        1212  1.01         2.9 0.32            109            353 308 
 PRA  HZ EP   1   1211 29.18                             106    0.32 4  394 210 
 PRA  HN ES   1   1212 11.26                             106    0.47 4  394 210 
 PRA  HZ I        1212 19.72         7.1 0.36            106            394 210 
 ORTC HZ EP       1211 29.45                             106    0.19 6  398 216 
 ORTC HN ES   4   1212 13.37                             106    1.87 0  398 216 
 ORTC HZ I        1212 19.16         4.5 0.54            106            398 216 
                                                                                
