 2017 1123 1440  4.4 L   6.796 -73.137138.0  RSN  5 0.4 1.5LRSN                1
 GAP=244        0.80       5.5     4.7  6.8  0.9496E+01  0.9372E+01 -0.7008E+01E
 Epicentro: LOS SANTOS - SANTANDER                                             3
 ACTION:UPD 17-12-12 19:59 OP:rebc STATUS:               ID:20171123144004 L   I
 OLDACT:REG 17-11-23 20:12 OP:dhb  STATUS:               ID:20171123143740     3
 2017-11-23-1438-00M.COL___470                                                 6
 STAT SP IPHASW D HRMM SECON CODA AMPLIT PERI AZIMU VELO AIN AR TRES W  DIS CAZ7
 BAR2 EZ IP     C 1440 22.89                             170   -0.1810 23.1 193 
 BAR2 EZ ES       1440 37.65                             170   -0.0010 23.1 193 
 BAR2 EZ I        1440 39.32         8.3 0.32            169           23.1 193 
 RUS  HZ EP       1440 27.14                             142   -0.2010  100 177 
 RUS  HN ES       1440 45.63                             142    0.3810  100 177 
 RUS  HZ I        1440 46.28         3.5 0.24            143            100 177 
 PTB  HZ EP       1440 30.53                             130   -0.28 9  149 259 
 PTB  HE ES       1440 51.01                             130   -0.41 9  149 259 
 PTB  HZ I        1440 52.58         2.4 0.10            130            149 259 
 ZAR  HZ EP       1440 36.49                             121    0.05 9  205 292 
 ZAR  HE ES       1441  1.97                             121    0.52 9  205 292 
 ZAR  HZ I        1441  4.97         3.8 0.48            121            205 292 
 NOR  HZ EP   2   1440 40.94                             117    1.21 4  235 235 
 NOR  HE ES       1441  7.28                             117   -0.02 8  235 235 
 NOR  HZ I        1441 10.89         2.7 0.44            117            235 235 
                                                                                
