 2014  923 1324 22.4 L   6.834 -73.135144.9  RSN  6 0.3 1.3LRSN                1
 GAP=136        0.83       3.9     4.7  7.1 -0.5135E+01  0.8415E+01 -0.5248E+01E
 Epicentro: LOS SANTOS - SANTANDER                                             3
 ACTION:UPD 14-10-03 23:07 OP:nd   STATUS:               ID:20140923132422 L   I
 OLDACT:DUP 14-09-24 00:24 OP:spq  STATUS:               ID:20140923131821d    3
 OLDACT:REG 14-09-23 21:10 OP:spq  STATUS:               ID:20140923131819     3
 2014-09-23-1318-19M.COL___284                                                 6
 STAT SP IPHASW D HRMM SECON CODA AMPLIT PERI AZIMU VELO AIN AR TRES W  DIS CAZ7
 BAR2 SZ EP     C 1324 42.14                             169    0.1310 27.2 191 
 BAR2 SZ ES   1   1324 57.24                             169   -0.06 7 27.2 191 
 BAR2 SZ I        1324 58.66         5.9 0.32            172           27.2 191 
 PAM  SZ EP       1324 45.03                             152    0.7210 73.8  41 
 PAM  SN ES   1   1325  0.88                             152   -0.51 7 73.8  41 
 PAM  SZ I        1325  7.55         3.5 0.24            153           73.8  41 
 RUS  HZ EP       1324 46.25                             143   -0.0810  104 177 
 RUS  HE ES   1   1325  4.80                             143   -0.20 7  104 177 
 RUS  HZ I        1325  6.60         1.7 0.34            147            104 177 
 PTB  HZ EP       1324 48.94                             131   -0.53 9  150 258 
 PTB  HN ES       1325 10.95                             131    0.37 9  150 258 
 PTB  HZ I        1325 11.95         2.3 0.34            136            150 258 
 SPBC HZ EP       1324 51.15                             128   -0.03 9  167 218 
 SPBC HN ES       1325 13.60                             128   -0.03 9  167 218 
 SPBC HZ I        1325 15.76         3.1 0.29            133            167 218 
 SML  HZ EP   1   1324 58.41                             117   -0.25 6  241 335 
 SML  HE ES   1   1325 26.78                             117   -0.17 6  241 335 
 SML  HZ I        1325 29.03         2.3 0.24            120            241 335 
                                                                                
