 2014 1123 1306 37.0 L   6.809 -73.168140.4  RSN 24 0.5 2.7LRSN                1
 GAP=124        1.04       2.5     3.1  4.5 -0.1571E+01  0.3540E+01  0.2155E+01E
 Epicentro: LOS SANTOS - SANTANDER                                             3
 ACTION:UPD 14-12-19 15:46 OP:nd   STATUS:               ID:20141123130637 L   I
 OLDACT:DUP 14-11-23 23:22 OP:fm   STATUS:               ID:20141123125746d    3
 OLDACT:REG 14-11-23 20:50 OP:fm   STATUS:               ID:20141123125743     3
 2014-11-23-1257-43M.COL___297                                                 6
 STAT SP IPHASW D HRMM SECON CODA AMPLIT PERI AZIMU VELO AIN AR TRES W  DIS CAZ7
 BAR2 SZ EP       13 6 56.15                             170    0.1410 24.0 184 
 BAR2 SZ ES       13 7 10.38                             170   -0.4510 24.0 184 
 BAR2 SZ I        13 7 12.01       119.8 0.30            168           24.0 184 
 BRR  HZ IP     D 13 6 57.86                             152    0.4310 68.5 299 
 BRR  HN ES       13 7 14.38                             152    1.0310 68.5 299 
 BRR  HZ I        13 7 18.26        89.8 0.10            150           68.5 299 
 PAM  SZ EP       13 6 58.98                             149    0.2710 78.2  41 
 PAM  SN ES       13 7 15.86                             149    0.2310 78.2  41 
 PAM  SZ I        13 7 17.78        27.7 0.30            154           78.2  41 
 RUS  HZ EP       13 7  0.52                             142    0.2010  102 175 
 RUS  HN ES       13 7 17.77                             142   -0.7410  102 175 
 RUS  HZ I        13 7 21.16        58.5 0.30            143            102 175 
 PTB  HZ EP       13 7  2.45                             131   -0.89 9  146 258 
 PTB  HN ES       13 7 23.60                             131   -0.27 9  146 258 
 PTB  HZ I        13 7 26.23        76.9 0.46            130            146 258 
 OCA  HZ EP       13 7  4.34                             129   -0.44 9  159 354 
 OCA  HN ES       13 7 26.44                             129   -0.01 9  159 354 
 OCA  HZ I        13 7 29.63        65.8 0.14            130            159 354 
 SPBC HZ EP       13 7  5.05                             128    0.02 9  162 218 
 SPBC HN ES       13 7 26.62                             128   -0.26 9  162 218 
 SPBC HZ I        13 7 32.11        85.9 0.28            128            162 218 
 ZAR  HZ EP       13 7  8.85                             121    0.02 9  201 292 
 ZAR  HN ES       13 7 33.72                             121    0.07 9  201 292 
 ZAR  HZ I        13 7 42.34        58.6 0.12            122            201 292 
 NOR  HZ EP       13 7 12.42                             117    0.14 8  233 234 
 NOR  HN ES       13 7 38.99                             117   -0.79 8  233 234 
 NOR  HZ I        13 7 44.94        29.2 0.16            118            233 234 
 CHI  HZ EP       13 7 14.40                             116   -0.05 8  249 195 
 CHI  HN ES       13 7 43.87                             116    0.22 8  249 195 
 CHI  HZ I        13 7 51.58        25.4 0.40            117            249 195 
 ROSC BZ EP       13 7 14.87                             116    0.08 8  252 210 
 ROSC BN ES       13 7 44.93                             116    0.66 8  252 210 
 ROSC BZ I        13 7 52.71        41.6 0.60            116            252 210 
 HEL  HZ EP       13 7 16.85                             114    0.14 8  270 255 
 HEL  HN ES       13 7 47.05                             114   -0.63 8  270 255 
 HEL  HZ I        13 7 55.89        20.0 0.26            114            270 255 
 URE  HN ES   4   13 7 46.32                             113   -2.80 0  281 292 
 URE  HZ I        13 7 50.18        43.3 0.14            113            281 292 
 GUY2CHZ EP       13 7 20.44                             111    0.23 7  300 234 
 GUY2CHN ES       13 7 54.13                             111    0.23 7  300 234 
 GUY2CHZ I        13 8  4.20        21.3 0.64                           300 234 
 VIL  SZ EP       13 7 20.25                             111    0.01 7  304 191 
 VIL  SN ES       13 7 54.33                             111    0.37 7  304 191 
 VIL  SZ I        13 8  0.09        27.2 0.40            112            304 191 
 RREF HZ EP       13 7 22.99                             110    0.21 7  321 229 
 RREF HN ES       13 7 58.78                             110    0.30 7  321 229 
 RREF HZ I        13 8  6.29        33.9 0.30            111            321 229 
 DBB  SZ EP       13 7 23.75                             109   -0.23 7  337 274 
 DBB  SZ ES       13 8  0.33                             109   -0.28 7  337 274 
 DBB  SZ I        13 8  1.83        64.0 0.30            109            337 274 
 TOL  SZ EP       13 7 26.01                             108    1.08 7  342 224 
 TOL  SE ES   4   13 8  3.87                             108    1.55 0  342 224 
 TOL  SZ I        13 8  7.01        45.6 0.44            109            342 224 
 MON  HZ EP   4   13 7 22.23                             108   -3.28 0  351 308 
 MON  HN ES   4   13 8  1.34                             108   -2.00 0  351 308 
 MON  HZ I        13 8 16.74        20.3 0.38            109            351 308 
 ANIL HN ES   4   13 8  8.09                             107    3.00 0  356 224 
 ANIL HZ I        13 8 10.26         5.7 0.36            108            356 224 
 SDV  BZ EP       13 7 26.09                             107   -0.90 6  362  51 
 SDV  BE ES   4   13 8  2.00                             107   -3.99 0  362  51 
 SDV  BZ I        13 8  5.89         8.4 0.40            109            362  51 
 ORTC HZ EP       13 7 30.40                             105   -0.27 6  395 216 
 ORTC HN ES       13 8 13.08                             105    0.55 6  395 216 
 ORTC HZ I        13 8 20.65        14.1 0.36            106            395 216 
 PAL  HZ EP       13 7 31.97                             105    0.17 6  404 239 
 PAL  HN ES       13 8 14.10                             105   -0.44 6  404 239 
 PAL  HZ I        13 8 21.06         5.7 0.38            106            404 239 
 SJC  HZ EP   4   13 7 29.82                             105   -2.32 0  407 327 
 SJC  HN ES   4   13 8 10.60                             105   -4.54 0  407 327 
 SJC  HZ I        13 8 15.51         7.9 0.38            106            407 327 
                                                                                
