 2015  923 1959 16.2 L   6.531 -73.521112.0  RSN 19 0.5 2.8LRSN                1
 GAP= 52        1.21       2.5     2.8  5.8 -0.1579E+01  0.5665E+01  0.3331E+00E
 Epicentro: EL CARMEN - SANTANDER                                              3
 ACTION:UPD 15-10-28 16:28 OP:cam  STATUS:               ID:20150923195916 L   I
 OLDACT:REG 15-09-23 22:37 OP:ar   STATUS:               ID:20150923194749     3
 2015-09-23-1947-49M.COL___328                                                 6
 STAT SP IPHASW D HRMM SECON CODA AMPLIT PERI AZIMU VELO AIN AR TRES W  DIS CAZ7
 BAR2 EZ IP     D 1959 32.56                             160    0.2410 38.1  80 
 BAR2 EZ ES       1959 44.90                             160    0.0310 38.1  80 
 BAR2 EZ I        1959 46.11       519.6 0.52            164           38.1  80 
 BRR  HZ EP       1959 33.50                             147   -0.0710 67.1 342 
 BRR  HN ES       1959 47.73                             147    0.6310 67.1 342 
 BRR  HZ I        1959 56.26        94.2 0.32            149           67.1 342 
 RUS  HZ EP       1959 35.47                             140   -0.1410 85.6 145 
 RUS  HN ES       1959 51.21                             140    0.4810 85.6 145 
 RUS  HZ I        1959 52.46        68.9 0.44            144           85.6 145 
 PTB  HZ IP     C 1959 35.35                             134   -1.0810  103 271 
 PTB  HN ES   4   1959 50.14                             134   -2.05 0  103 271 
 PTB  HZ I        1959 51.40       183.8 0.28            135            103 271 
 SPBC HZ EP       1959 37.34                             131   -0.2110  115 212 
 SPBC HN ES       1959 53.57                             131   -0.6110  115 212 
 SPBC HZ I        20 0  0.97       134.0 0.22            133            115 212 
 PAM  EZ EP       1959 39.23                             128   -0.0610  127  45 
 PAM  EN ES       1959 57.21                             128   -0.0710  127  45 
 PAM  EZ I        1959 58.59       111.6 0.18            132            127  45 
 ZAR  HZ EP       1959 44.45                             117    0.15 9  182 306 
 ZAR  HN ES       20 0  6.77                             117    0.58 9  182 306 
 ZAR  HZ I        20 0  9.33       114.7 0.28            119            182 306 
 NOR  HZ EP       1959 43.96                             117   -0.57 9  184 234 
 NOR  HN ES       20 0  6.24                             117   -0.36 9  184 234 
 NOR  HZ I        20 0  6.93        52.7 0.18            119            184 234 
 OCA  HZ EP       1959 44.83                             116   -0.55 9  190   7 
 OCA  HN ES       20 0  7.38                             116   -0.74 9  190   7 
 OCA  HZ I        20 0 13.11       212.3 0.20            119            190   7 
 TAM  HZ EP       1959 45.45                             115    0.05 9  192  93 
 TAM  HN ES       20 0  7.90                             115   -0.25 9  192  93 
 TAM  HZ I        20 0 10.08        43.7 0.22            119            192  93 
 ROSC BZ EP       1959 48.48                             114    0.95 8  207 205 
 ROSC BN ES   4   20 0 14.01                             114    2.07 0  207 205 
 ROSC BZ I        20 0 18.76        55.3 0.60            116            207 205 
 CHI  HZ EP       1959 47.87                             113   -0.21 8  212 186 
 CHI  HN ES       20 0 13.18                             113    0.26 8  212 186 
 CHI  HZ I        20 0 19.65        31.3 0.36            116            212 186 
 HEL  HZ EP       1959 50.02                             111    0.45 8  225 261 
 HEL  HN ES       20 0 15.77                             111    0.19 8  225 261 
 HEL  HZ I        20 0 18.66        40.3 0.28            114            225 261 
 GUY2CHZ EP       1959 53.32                             109    0.77 8  250 235 
 GUY2CHN ES       20 0 20.41                             109   -0.47 8  250 235 
 GUY2CHZ I        20 0 25.94        33.3 0.40                           250 235 
 SML  HZ EP       1959 52.71                             108   -0.19 8  258 346 
 SML  HN ES       20 0 22.23                             108    0.74 8  258 346 
 SML  HZ I        20 0 28.65        68.1 0.10            111            258 346 
 URE  HN ES   4   20 0 20.23                             108   -1.65 0  260 301 
 ELA  HZ EP   2   1959 56.80                             107    0.91 4  278 229 
 ELA  HN ES   4   20 0 24.90                             107   -1.92 0  278 229 
 ELA  HZ I        20 0 37.93        19.5 0.50            109            278 229 
 CBOC HZ EP       1959 56.85                             106    0.58 7  285 255 
 CBOC HN ES       20 0 26.63                             106   -0.88 7  285 255 
 CBOC HZ I        20 0 31.46        19.7 0.36            108            285 255 
 ANIL HZ EP       1959 59.24                             104    0.25 7  307 223 
 ANIL HN ES       20 0 33.02                             104    0.68 7  307 223 
 ANIL HZ I        20 0 37.75        65.3 0.30            107            307 223 
 SDV  BN ES   4   20 0 52.90                              99   -1.40 0  411  51 
 SDV  BZ I        20 0 55.45        27.5 0.35            102            411  51 
                                                                                
