 2017 1023 1121 24.3 L   6.821 -73.155145.1  RSN 19 0.5 2.6LRSN                1
 GAP=104        0.96       2.9     2.4  4.3 -0.1558E+00  0.1776E+01  0.2096E+01E
 Epicentro: LOS SANTOS - SANTANDER                                             3
 ACTION:UPD 17-11-07 19:35 OP:rebc STATUS:               ID:20171023112124 L   I
 OLDACT:UP  17-10-23 23:17 OP:dani STATUS:               ID:20171023111743     3
 OLDACT:UP  17-10-23 23:17 OP:dani STATUS:               ID:20171023111743     3
 OLDACT:UP  17-10-23 23:17 OP:dani STATUS:               ID:20171023111743     3
 OLDACT:UP  17-10-23 23:16 OP:dani STATUS:               ID:20171023111743     3
 OLDACT:REG 17-10-23 20:29 OP:dani STATUS:               ID:20171023111743     3
 2017-10-23-1118-00M.COL___392                                                 6
 STAT SP IPHASW D HRMM SECON CODA AMPLIT PERI AZIMU VELO AIN AR TRES W  DIS CAZ7
 BAR2 EZ EP     C 1121 43.80                             170   -0.1110 25.4 187 
 BAR2 EZ ES       1121 58.54                             170   -0.6510 25.4 187 
 BAR2 EZ I        1122  1.65       135.3 0.30            169           25.4 187 
 BRR  HZ EP       1121 45.63                             153    0.3510 69.2 297 
 BRR  HE ES       1122  2.40                             153    0.7710 69.2 297 
 BRR  HZ I        1122  6.59        79.5 0.28            152           69.2 297 
 PAM  EZ EP       1121 46.75                             150    0.3510 76.3  41 
 PAM  EN ES       1122  3.99                             150    0.3710 76.3  41 
 PAM  EZ I        1122  5.95        69.5 0.44            154           76.3  41 
 RUS  HZ EP       1121 47.85                             143   -0.3310  103 176 
 RUS  HN ES       1122  6.59                             143   -0.1910  103 176 
 RUS  HZ I        1122  7.75        67.7 0.34            144            103 176 
 PTB  HZ EP       1121 50.59                             132   -0.59 9  147 258 
 PTB  HN ES       1122 11.66                             132   -0.47 9  147 258 
 PTB  HZ I        1122 13.63        26.3 0.16            132            147 258 
 TAM  HZ EP     D 1121 52.22                             130    0.12 9  157 106 
 TAM  HN ES       1122 13.95                             130    0.19 9  157 106 
 TAM  HZ I        1122 21.72        23.8 0.48            133            157 106 
 SPBC HZ EP       1121 52.80                             129   -0.07 9  164 218 
 SPBC HN ES       1122 14.79                             129   -0.35 9  164 218 
 SPBC HZ I        1122 21.07        78.2 0.30            129            164 218 
 YPLC HZ EP       1121 54.31                             126   -0.00 9  179 151 
 YPLC HN ES       1122 18.07                             126    0.36 9  179 151 
 YPLC HZ I        1122 19.24        75.9 0.26            128            179 151 
 ZAR  HZ EP       1121 56.42                             122   -0.11 9  202 292 
 ZAR  HN ES       1122 21.92                             122    0.27 9  202 292 
 ZAR  HZ I        1122 31.95        30.3 0.32            123            202 292 
 TABC EZ EP   3   1122  1.37                             119    1.19 2  231 210 
 NOR  HZ EP       1121 59.79                             118   -0.27 8  235 234 
 NOR  HN ES       1122 27.28                             118   -0.65 8  235 234 
 NOR  HZ I        1122 35.70        34.8 0.20            119            235 234 
 CHI  HZ EP       1122  2.13                             117   -0.06 8  251 195 
 CHI  HE ES       1122 31.68                             117   -0.05 8  251 195 
 CHI  HZ I        1122 37.30        21.6 0.66            118            251 195 
 ROSC BZ EP   3   1122  3.72                             116    1.16 2  254 211 
 ROSC BN ES   4   1122 36.42                             116    4.04 0  254 211 
 ROSC BZ I        1122 41.92        33.1 0.33            117            254 211 
 URE  HZ EP   9   1122  3.90                             113   -1.25 0  282 292 
 URE  HN ES       1122 35.19                             114   -0.56 7  282 292 
 URE  HZ I        1122 46.50        56.4 0.88            114            282 292 
 GUY2CHZ EP       1122  8.84                             112    0.89 7  302 234 
 GUY2CHN ES       1122 42.26                             112    0.28 7  302 234 
 GUY2CHZ I        1122 54.10        24.1 0.44                           302 234 
 DBB  EZ EP       1122 11.98                             109    0.35 7  338 274 
 DBB  EN ES   3   1122 47.00                             109   -1.52 2  338 274 
 DBB  EZ I        1122 51.38         9.2 0.10            110            338 274 
 SDV  BZ EP       1122 13.43                             108   -0.83 6  360  51 
 SDV  B1 ES   3   1122 50.82                             108   -2.40 2  360  51 
 SDV  BZ I        1122 54.61         7.2 0.75            110            360  51 
 ORTC HZ EP       1122 18.06                             106   -0.30 6  397 216 
 ORTC HN ES   3   1123  1.85                             106    1.34 1  397 216 
 ORTC HZ I        1123  7.84        12.6 0.27            107            397 216 
 PAL  HZ EP       1122 20.12                             106    0.63 6  406 239 
 PAL  HN ES       1123  3.11                             106    0.59 6  406 239 
                                                                                
