 2016 1223 1559 34.0 L   6.813 -73.131150.2  RSN 13 0.5 2.1LRSN                1
 GAP=138        1.05       3.6     4.5  5.5 -0.3402E+00  0.6319E+01  0.3448E+01E
 Epicentro: LOS SANTOS - SANTANDER                                             3
 ACTION:UPD 17-01-11 20:18 OP:rebc STATUS:               ID:20161223155934 L   I
 OLDACT:UP  16-12-24 00:11 OP:edw  STATUS:               ID:20161223155746     3
 OLDACT:REG 16-12-23 21:18 OP:edw  STATUS:               ID:20161223155746     3
 2016-12-23-1558-00M.COL___393                                                 6
 STAT SP IPHASW D HRMM SECON CODA AMPLIT PERI AZIMU VELO AIN AR TRES W  DIS CAZ7
 BAR2 EZ IP     D 1559 54.14                             170   -0.0210 25.0 193 
 BAR2 EZ ES       16 0  8.98                             170   -0.9310 25.0 193 
 BAR2 EZ I        16 0 10.81        34.1 0.16            168           25.0 193 
 BRR  HZ EP       1559 56.04                             153    0.4110 71.9 297 
 BRR  HN ES       16 0 13.08                             153    0.5510 71.9 297 
 BRR  HZ I        16 0 16.41        27.4 0.32            148           71.9 297 
 PAM  EZ EP     D 1559 57.11                             152    0.5810 75.3  39 
 PAM  EN ES       16 0 14.16                             152    0.0310 75.3  39 
 PAM  EZ I        16 0 16.33        37.8 0.52            154           75.3  39 
 RUS  HZ EP       1559 58.18                             144   -0.0710  102 177 
 RUS  HN ES       16 0 17.00                             144   -0.1810  102 177 
 RUS  HZ I        16 0 18.06        19.8 0.28            146            102 177 
 PTB  HZ EP   9   16 0  1.01                             133   -0.45 0  150 258 
 PTB  HN ES       16 0 21.92                             132   -0.53 9  150 258 
 PTB  HZ I        16 0 24.87         8.4 0.14            130            150 258 
 ZAR  HZ EP       16 0  6.55                             123   -0.25 9  205 292 
 ZAR  HE ES       16 0 32.43                             123    0.02 9  205 292 
 ZAR  HZ I        16 0 39.14         8.9 0.12            121            205 292 
 NOR  HZ EP       16 0  9.94                             119   -0.24 8  237 234 
 NOR  HE ES       16 0 38.54                             119    0.12 8  237 234 
 NOR  HZ I        16 0 45.72         8.5 0.20            118            237 234 
 CHI  HZ EP       16 0 12.36                             118    0.26 8  250 195 
 CHI  HE ES       16 0 41.78                             118   -0.07 8  250 195 
 CHI  HZ I        16 0 45.40         7.9 0.52            118            250 195 
 URE  HZ EP   4   16 0 19.25                             114    3.89 0  285 292 
 URE  HN ES   2   16 0 46.71                             114   -0.93 4  285 292 
 URE  HZ I        16 0 57.25         7.7 0.20            113            285 292 
 GUY2CHZ EP   4   16 0 19.52                             113    1.50 0  303 235 
 GUY2CHN ES   4   16 0 56.48                             113    4.10 0  303 235 
 GUY2CHZ I        16 1  0.45         6.0 0.32                           303 235 
 ORTC HZ EP       16 0 28.83                             107    0.55 6  397 216 
 ORTC HN ES       16 1 11.08                             107    0.44 6  397 216 
 ORTC HZ I        16 1 15.37         4.4 0.46            107            397 216 
 SJC  HZ EP       16 0 28.28                             106   -1.36 6  409 327 
 SJC  HN ES   4   16 1  8.44                             106   -4.62 0  409 327 
 SJC  HZ I        16 1 17.51         2.8 0.48            106            409 327 
 CRJC HZ EP   9   16 0 34.56                             104   -1.86 0  466   3 
 CRJC HE ES       16 1 23.38                                    0.11 5  466   3 
                                                                                
