 2010  523 1358 35.3 L   6.840 -73.109160.0  RSN 13 0.6 3.0LRSN                1
 GAP=146        1.09       5.3     7.0 13.8 -0.2146E+02  0.1045E+02  0.1637E+02E
 Epicentro: LOS SANTOS - SANTANDER                                             3
 ACTION:UP  10-08-24 10:06 OP:vdl  STATUS:               ID:20100523135835 L   I
 2010-05-23-1357-24S.COL___111                                                 6
 STAT SP IPHASW D HRMM SECON CODA AMPLIT PERI AZIMU VELO SNR AR TRES W  DIS CAZ7
 BAR2 SZ IP       1358 56.21                             169    -0.610   29 197 
 BRI  SZ EP       1359  0.64                             146     0.410  103  20 
 GUE  SZ EP       1359  1.16                             144     0.110  111  10 
 GRA  SZ EP       1359  1.67                             142     0.210  120  16 
 GRA  SZ EPg      1359  1.67                             142     0.210  120  16 
 OCA  SZ EP       1359  4.59                             134     0.1 9  156 351 
 OCA  SZ ES   2   1359 26.51                             134    -0.6 5  156 351 
 OCA  SZ I        1359 33.35        67.9 0.23                           156 351 
 CHI  HZ EP       1359 14.23                             119    -0.2 8  254 196 
 CHI  HN ES   1   1359 44.67                             119    -0.3 6  254 196 
 CHI  HZ I        1359 53.36        45.6 0.33                           254 196 
 HEL  HZ EP       1359 17.11                             117     0.2 7  277 255 
 HEL  HN ES   2   1359 48.75                             117    -0.5 4  277 255 
 HEL  HZ I        1359 56.64        49.4 0.24                           277 255 
 CVER SZ EP       1359 17.41                             117     0.3 7  278 203 
 RREF BZ EP       1359 23.44                             113     0.6 7  328 229 
 RREF BN ES   2   14 0  1.68                             113     1.9 3  328 229 
 RREF BZ I        14 0  5.40        53.0 0.36                           328 229 
 DBB  SZ EP       1359 22.96                             112    -0.9 7  343 273 
 MON  HZ EP   2   1359 23.25                             111    -1.7 3  353 307 
 MON  HZ I        14 0 17.11        28.7 0.56                           353 307 
 SDV  BZ EP       1359 25.57                             111     0.3 6  354  50 
 SDV  BE ES       14 0  3.49                             111    -0.7 6  354  50 
 PRA  HZ EP       1359 29.72                             109    -0.3 6  398 210 
 PRA  HN ES   2   14 0 12.26                             109    -0.5 3  398 210 
 PRA  HZ I        14 0 18.03        42.6 0.55                           398 210 
                                                                                
