 2011 1023 1753 24.7 L   7.059 -73.323121.8  RSN  5 0.2 1.3LRSN                1
 GAP=149        0.35       4.7     6.1  5.6  0.1745E+02 -0.1763E+02 -0.1079E+02E
 Epicentro: LEBRIJA - SANTANDER                                                3
 ACTION:UPD 12-07-13 16:05 OP:ep   STATUS:               ID:20111023175324 L   I
 2011-10-23-1751-07S.COL___171                                                 6
 STAT SP IPHASW D HRMM SECON CODA AMPLIT PERI AZIMU VELO AIN AR TRES W  DIS CAZ7
 GIR2 SZ EP   2   1753 41.05                             173   -0.09 5 14.5  81 
 BRR  HZ EP   1   1753 41.83                             159    0.04 7 43.2 277 
 BRR  HZ I        1753 42.70         8.5 0.31                          43.2 277 
 BRR  HE ES   1   1753 55.03                             159   -0.08 7 43.2 277 
 BAR2 SZ EP   1   1753 42.76                             155    0.11 7 53.9 163 
 BAR2 SZ ES   1   1753 56.78                             155    0.14 7 53.9 163 
 BAR2 SZ I        1753 57.86         7.8 0.15                          53.9 163 
 PAM  SZ EP   2   1753 44.18                             146   -0.13 5 75.6  66 
 RUS  HZ EP   3   1753 49.24                             130    0.32 2  132 168 
 RUS  HN ES   2   1754  7.44                             130   -0.37 5  132 168 
 RUS  HZ I        1754 11.51         1.7 0.35                           132 168 
                                                                                
