 2011  223 1002  5.6 L   6.757 -73.487113.0  RSN  5 0.2 1.4LRSN                1
 GAP=212        0.59       3.0    15.1  7.6  0.9480E+01  0.5086E+02 -0.5786E+01E
 Epicentro: EL CARMEN DE CHUCURI - SANTANDER                                   3
 ACTION:UP  11-03-28 15:10 OP:jfem STATUS:               ID:20110223100205 L   I
 2011-02-23-1000-25S.COL___136                                                 6
 STAT SP IPHASW D HRMM SECON CODA AMPLIT PERI AZIMU VELO SNR AR TRES W  DIS CAZ7
 BTL  SZ EP       10 2 21.65                             164     0.210   30  54 
 BTL  SZ ES   2   10 2 33.92                             164     0.1 5   30  54 
 BAR2 SZ EP       10 2 21.83                             160     0.110   38 119 
 BAR2 SZ I        10 2 22.06        10.1 0.18                            38 119 
 BAR2 SZ ES   2   10 2 34.64                             160     0.2 5   38 119 
 RUS  HZ EP   1   10 2 26.40                             134    -0.3 7  106 155 
 RUS  HE ES   1   10 2 42.93                             134    -0.2 7  106 155 
 RUS  HZ I        10 2 44.74         2.0 0.22                           106 155 
 GRA  SZ EP   1   10 2 30.41                             124     0.4 7  146  31 
 GRA  SZ ES   2   10 2 49.00                             124    -0.2 5  146  31 
 GRA  SZ I        10 2 51.66         3.5 0.48                           146  31 
 OCA  SZ EP       10 2 32.09                             120     0.1 9  165   6 
 OCA  SZ ES   1   10 2 52.19                             120    -0.5 7  165   6 
 OCA  SZ I        10 2 53.78         5.1 0.35                           165   6 
                                                                                
