 2013 1023 1643 31.8 L   6.764 -73.133153.8  RSN  7 0.4 1.9LRSN                1
 GAP=140        1.05       5.7     5.5  7.9  0.2768E+01  0.2427E+01 -0.9932E+01E
 Epicentro: LOS SANTOS - SANTANDER                                             3
 ACTION:UPD 13-11-25 09:23 OP:ep   STATUS:               ID:20131023164331 L   I
 OLDACT:UP  13-10-23 16:13 OP:cam  STATUS:               ID:20131023163846     3
 OLDACT:UP  13-10-23 16:13 OP:cam  STATUS:               ID:20131023163846     3
 OLDACT:REG 13-10-23 15:21 OP:cam  STATUS:               ID:20131023163846     3
 2013-10-23-1638-46M.COL___224                                                 6
 STAT SP IPHASW D HRMM SECON CODA AMPLIT PERI AZIMU VELO AIN AR TRES W  DIS CAZ7
 BAR2 SZ EP       1643 52.36                             173   -0.0110 19.8 196 
 BAR2 SZ ES       1644  7.77                             173   -0.6210 19.8 196 
 BAR2 SZ I        1644  9.19        21.5 0.38            172           19.8 196 
 BRR  HZ EP       1643 54.18                             153    0.1410 74.4 301 
 BRR  HZ I        1643 54.47        25.2 0.26            149           74.4 301 
 BRR  HN ES       1644 12.33                             153    0.9710 74.4 301 
 PAM  SZ EP       1643 55.19                             151    0.1410 79.6  37 
 PAM  SN ES   1   1644 12.93                             151   -0.22 7 79.6  37 
 PAM  SZ I        1644 14.61         6.4 0.48            152           79.6  37 
 RUS  HZ EP   1   1643 56.52                             147    0.41 7 96.5 177 
 RUS  HN ES   1   1644 15.17                             147    0.13 7 96.5 177 
 RUS  HZ I        1644 16.12         4.4 0.24            149           96.5 177 
 PTB  HZ EP   1   1643 59.42                             134   -0.11 7  148 260 
 PTB  HN ES       1644 20.59                             134   -0.55 9  148 260 
 PTB  HZ I        1644 25.32         5.3 0.16            133            148 260 
 ZAR  HN ES   1   1644 31.18                             124    0.12 6  207 293 
 ZAR  HZ I        1644 37.36         9.7 0.30            123            207 293 
 SML  HZ EP   1   1644  8.84                             119   -0.54 6  248 335 
 SML  HE ES   1   1644 38.27                             119   -0.39 6  248 335 
 SML  HZ I        1644 43.85         9.4 0.10            118            248 335 
                                                                                
