 2015  323 1054 23.4 L   6.727 -73.239150.9  RSN  6 0.5 1.3LRSN                1
 GAP=179        1.30       6.7     7.9  9.5  0.2481E+02 -0.3376E+00 -0.1904E+02E
 Epicentro: VILLANUEVA - SANTANDER                                             3
 ACTION:UPD 15-04-30 16:28 OP:nd   STATUS:               ID:20150323105423 L   I
 OLDACT:REG 15-03-23 20:37 OP:fm   STATUS:               ID:20150323104746     3
 2015-03-23-1047-46M.COL___272                                                 6
 STAT SP IPHASW D HRMM SECON CODA AMPLIT PERI AZIMU VELO AIN AR TRES W  DIS CAZ7
 BAR2 EZ EP       1054 43.80                             174    0.2510 16.1 157 
 BAR2 EZ ES       1054 58.96                             174   -0.2910 16.1 157 
 BAR2 EZ I        1055  1.57         3.7 0.30            173           16.1 157 
 BRR  HZ EP       1054 45.78                             155    0.8710 67.1 309 
 BRR  HN ES       1055  2.29                             155    0.6310 67.1 309 
 BRR  HZ I        1055  7.17         4.4 0.48            151           67.1 309 
 RUS  HZ EP       1054 47.65                             147    0.4310 93.8 169 
 RUS  HN ES       1055  5.00                             147   -0.7810 93.8 169 
 RUS  HZ I        1055  7.39         1.7 0.20            151           93.8 169 
 PTB  HZ EP       1054 49.66                             135   -0.14 9  136 261 
 PTB  HN ES       1055 10.35                             135   -0.03 9  136 261 
 PTB  HZ I        1055 19.07         3.7 0.44            135            136 261 
 ZAR  HN ES       1055 20.36                             124   -0.30 9  198 295 
 ZAR  HZ I        1055 26.70         1.2 0.14            125            198 295 
 SML  HZ EP       1055  0.18                             118   -0.52 8  247 338 
 SML  HE ES       1055 29.12                             118   -0.66 8  247 338 
 SML  HZ I        1055 35.21         2.0 0.30            120            247 338 
                                                                                
