 2017 1023 1211 37.4 L   6.792 -73.131142.4  RSN 16 0.6 2.3LRSN                1
 GAP=100        1.09       3.4     3.2  5.3 -0.9708E+00  0.2594E+01  0.4385E+01E
 Epicentro: LOS SANTOS - SANTANDER                                             3
 ACTION:UPD 17-11-07 19:35 OP:rebc STATUS:               ID:20171023121137 L   I
 OLDACT:UP  17-10-24 00:08 OP:dani STATUS:               ID:20171023120242     3
 OLDACT:UP  17-10-24 00:04 OP:dani STATUS:               ID:20171023120242     3
 OLDACT:UP  17-10-24 00:04 OP:dani STATUS:               ID:20171023120242     3
 OLDACT:REG 17-10-23 20:37 OP:dani STATUS:               ID:20171023120242     3
 2017-10-23-1208-00M.COL___395                                                 6
 STAT SP IPHASW D HRMM SECON CODA AMPLIT PERI AZIMU VELO AIN AR TRES W  DIS CAZ7
 BAR2 EZ IP     C 1211 56.56                             171   -0.0910 22.8 194 
 BAR2 EZ ES       1212 11.21                             171   -0.4310 22.8 194 
 BAR2 EZ I        1212 12.56        53.0 0.16            169           22.8 194 
 BRR  HZ EP     C 1211 58.49                             151    0.1610 73.1 299 
 BRR  HN ES       1212 15.20                             151    0.5710 73.1 299 
 BRR  HZ I        1212 18.51        37.1 0.18            151           73.1 299 
 PAM  EZ EP       1211 59.65                             150    0.3810 77.0  38 
 PAM  EN ES       1212 16.39                             150    0.0910 77.0  38 
 PAM  EZ I        1212 19.38        31.9 0.21            153           77.0  38 
 RUS  HZ EP       1212  0.53                             143   -0.2610 99.6 177 
 RUS  HN ES       1212 18.91                             143   -0.0910 99.6 177 
 RUS  HZ I        1212 20.09        14.1 0.28            143           99.6 177 
 PTB  HZ EP       1212  3.47                             131   -0.80 9  149 259 
 PTB  HN ES       1212 24.83                             131   -0.36 9  149 259 
 PTB  HZ I        1212 26.63        28.0 0.16            131            149 259 
 TAM  HE ES       1212 26.27                             130    0.34 9  153 105 
 SPBC HZ EP       1212  5.67                             128   -0.05 9  164 220 
 SPBC HN ES       1212 27.10                             128   -0.67 9  164 220 
 SPBC HZ I        1212 31.02        28.5 0.14            128            164 220 
 YPLC HZ EP       1212  7.06                             126    0.22 9  175 152 
 YPLC HN ES   3   1212 31.02                             126    1.26 2  175 152 
 YPLC HZ I        1212 33.72        27.8 0.28            127            175 152 
 ZAR  HZ EP       1212  9.98                             121    0.12 8  206 292 
 ZAR  HN ES       1212 35.63                             121    0.48 8  206 292 
 ZAR  HZ I        1212 43.59        22.7 0.28            122            206 292 
 NOR  HZ EP       1212 12.64                             118   -0.43 8  236 235 
 NOR  HN ES       1212 40.70                             118   -0.15 8  236 235 
 NOR  HZ I        1212 46.00        11.9 0.30            118            236 235 
 CHI  HZ EP       1212 14.87                             116   -0.04 8  248 196 
 CHI  HN ES       1212 44.31                             116    0.18 8  248 196 
 CHI  HZ I        1212 49.99         5.4 0.22            117            248 196 
 URE  HE ES   3   1212 48.82                             113   -1.81 2  286 292 
 GUY2CHZ EP   3   1212 22.23                             111    1.24 2  302 235 
 GUY2CHN ES   4   1212 58.87                             111    3.91 0  302 235 
 GUY2CHZ I        1213  3.73         9.7 0.52                           302 235 
 SDV  BZ EP       1212 26.48                             107   -0.79 6  360  50 
 PRA  HZ EP       1212 31.28                             106    0.43 6  392 210 
 PRA  HN ES       1213 12.18                             106   -0.33 6  392 210 
 PRA  HZ I        1213 20.15         8.1 0.40            106            392 210 
 ORTC HZ EP       1212 31.91                             106    0.63 6  396 216 
 ORTC HN ES       1213 15.31                             106    2.04 6  396 216 
 ORTC HZ I        1213 21.40         5.1 0.26            106            396 216 
                                                                                
