 2010  623 1539 58.8 L   6.784 -73.092146.1  RSN  5 0.4 1.5LRSN                1
 GAP=165        0.83       6.3    14.0 15.1 -0.7506E+01 -0.7790E+02 -0.1116E+02E
 Epicentro: LOS SANTOS - SANTANDER                                             3
 ACTION:UP  10-08-24 10:12 OP:vdl  STATUS:               ID:20100623153958 L   I
 2010-06-23-1535-58S.COL___118                                                 6
 STAT SP IPHASW D HRMM SECON CODA AMPLIT PERI AZIMU VELO SNR AR TRES W  DIS CAZ7
 BAR2 SZ EP   1   1540 18.26                             171    -0.2 7   24 205 
 BRR  HZ EP   1   1540 20.17                             151    -0.2 7   77 298 
 BRR  HE ES   2   1540 37.38                             151     0.3 5   77 298 
 BRR  HZ I        1540 39.67        14.4 0.47                            77 298 
 RUS  HZ EP   1   1540 22.35                             144    -0.1 7   99 179 
 RUS  HN ES   2   1540 41.15                             144     0.3 5   99 179 
 RUS  HZ I        1540 44.36         2.1 0.45                            99 179 
 GUE  SZ EP   1   1540 23.14                             139    -0.4 7  117   9 
 GRA  SZ EP   1   1540 24.93                             137     0.9 7  126  15 
 GRA  SZ ES   2   1540 43.40                             137    -0.4 5  126  15 
                                                                                
