 2014  923 1508 13.4 L   5.896 -73.752114.7  RSN  4 0.3 1.2LRSN                1
 GAP=194        0.72       4.6     4.1  6.1 -0.9549E+01  0.1041E+01  0.7930E+00E
 Epicentro: JESUS MARIA - SANTANDER                                            3
 ACTION:UPD 14-10-03 23:07 OP:nd   STATUS:               ID:20140923150813 L   I
 OLDACT:REG 14-09-23 21:18 OP:spq  STATUS:               ID:20140923145819     3
 2014-09-23-1458-19M.COL___284                                                 6
 STAT SP IPHASW D HRMM SECON CODA AMPLIT PERI AZIMU VELO AIN AR TRES W  DIS CAZ7
 SPBC HZ EP       15 8 29.57                             157   -0.2710 44.5 233 
 SPBC HE ES       15 8 42.55                             157   -0.1310 44.5 233 
 SPBC HZ I        15 8 43.60         6.4 0.28            158           44.5 233 
 BAR2 SZ EP     C 15 8 33.95                             136    0.1710 99.5  39 
 BAR2 SZ ES   1   15 8 50.06                             136    0.37 7 99.5  39 
 BAR2 SZ I        15 8 51.38         8.5 0.28            137           99.5  39 
 PTB  HZ EP       15 8 33.60                             134   -0.3910  106 312 
 PTB  HE ES       15 8 50.09                             134    0.0210  106 312 
 PTB  HZ I        15 8 56.27         1.6 0.22            132            106 312 
 GUY2CHZ EP       15 8 43.43                             116   -0.01 9  193 248 
 GUY2CHE ES       15 9  7.42                             116    0.53 9  193 248 
 GUY2CHZ I        15 9 10.91         1.1 0.44                           193 248 
                                                                                
