 2017 1223 1245  5.8 L   6.811 -73.161141.6  RSN  6 0.4 1.7LRSN                1
 GAP=145        0.76       4.2     3.8  6.1 -0.4421E+01  0.5568E+01  0.2896E+01E
 Epicentro: LOS SANTOS - SANTANDER                                             3
 ACTION:UPD 18-01-04 13:23 OP:rebc STATUS:               ID:20171223124505 L   I
 OLDACT:UP  17-12-23 22:50 OP:dani STATUS:               ID:20171223123603     3
 OLDACT:REG 17-12-23 20:28 OP:dani STATUS:               ID:20171223123603     3
 2017-12-23-1238-00M.COL___457                                                 6
 STAT SP IPHASW D HRMM SECON CODA AMPLIT PERI AZIMU VELO AIN AR TRES W  DIS CAZ7
 BAR2 EZ EP     C 1245 24.76                             170   -0.1610 24.3 186 
 BAR2 EZ ES       1245 40.05                             170    0.2010 24.3 186 
 BAR2 EZ I        1245 45.48         8.7 0.58            167           24.3 186 
 PAM  EZ EP       1245 27.66                             150    0.1110 77.5  41 
 PAM  EN ES   1   1245 44.33                             150   -0.21 7 77.5  41 
 PAM  EZ I        1245 46.74         8.7 0.50            155           77.5  41 
 PTB  HZ EP       1245 31.92                             131   -0.35 9  146 258 
 PTB  HN ES       1245 52.50                             131   -0.44 9  146 258 
 PTB  HZ I        1245 54.97         4.7 0.20            135            146 258 
 SPBC HZ EP       1245 33.81                             128   -0.13 9  163 218 
 SPBC HN ES       1245 56.25                             128    0.34 9  163 218 
 SPBC HZ I        1245 58.25         6.8 0.16            131            163 218 
 ZAR  HE ES       1246  3.16                             122    0.49 9  202 292 
 PRA  HZ EP   1   1246  0.08                             106    0.90 4  392 209 
 PRA  HN ES   1   1246 40.51                             106   -0.32 4  392 209 
 PRA  HZ I        1246 47.00         1.8 0.41            108            392 209 
                                                                                
