 2012  823 1119 15.3 L   6.778 -73.143149.0  RSN 11 0.4 2.3LRSN                1
 GAP= 72        0.78       3.6     3.6  5.7 -0.6418E+00  0.2461E+01  0.4017E+01E
 Epicentro: LOS SANTOS - SANTANDER                                             3
 ACTION:UPD 12-09-10 11:58 OP:ep   STATUS:               ID:20120823111915 L   I
 2012-08-23-1117-59S.COL___216                                                 6
 STAT SP IPHASW D HRMM SECON CODA AMPLIT PERI AZIMU VELO AIN AR TRES W  DIS CAZ7
 BAR2 SZ EP       1119 35.22                             172   -0.0510 21.0 192 
 BAR2 SZ ES   1   1119 50.95                             172    0.10 7 21.0 192 
 BAR2 SZ I        1119 53.17        96.6 0.31                          21.0 192 
 BRR  HZ EP       1119 37.05                             153    0.1710 72.7 300 
 BRR  HZ I        1119 37.34        49.2 0.15                          72.7 300 
 BRR  HN ES   1   1119 54.61                             153    0.89 7 72.7 300 
 PAM  SZ EP       1119 37.95                             151   -0.0110 79.1  38 
 PAM  SZ I        1119 38.23        53.3 0.19                          79.1  38 
 PAM  SN ES   1   1119 55.39                             151   -0.24 7 79.1  38 
 RUS  HZ EP       1119 39.03                             145   -0.1610 98.1 176 
 RUS  HN ES   1   1119 57.70                             145   -0.13 7 98.1 176 
 RUS  HZ I        1119 59.06        24.4 0.30                          98.1 176 
 PTB  HZ EP   1   1119 41.89                             133   -0.63 7  148 260 
 PTB  HN ES   1   1120  3.15                             133   -0.60 7  148 260 
 PTB  HZ I        1120 10.48        17.0 0.35                           148 260 
 TAM  HZ EP   1   1119 43.31                             131    0.17 7  154 104 
 TAM  HZ I        1119 43.59        16.2 0.21                           154 104 
 OCA  HN ES   1   1120  6.41                             130   -0.14 7  163 353 
 ZAR  HZ EP   2   1119 47.78                             123   -0.30 4  205 293 
 ZAR  HE ES   1   1120 13.25                             123   -0.41 6  205 293 
 ZAR  HZ I        1120 21.43        13.9 0.24                           205 293 
 NOR  SZ EP   1   1119 51.26                             119    0.17 6  234 235 
 NOR  SN ES   1   1120 19.16                             119    0.15 6  234 235 
 NOR  SZ I        1120 23.30        18.9 0.18                           234 235 
 CHI  HZ EP   1   1119 53.09                             118    0.16 6  246 195 
 CHI  HZ I        1119 54.06         9.1 0.18                           246 195 
 HEL  HZ EP   1   1119 56.71                             115    1.07 6  272 256 
 HEL  HZ I        1120 33.53        10.2 0.29                           272 256 
                                                                                
