 2013  123 1442 20.6 L   6.791 -73.179138.7  RSN  5 0.1 1.4LRSN                1
 GAP=142        0.28       1.8     2.1  2.8 -0.1083E+01  0.1372E+01  0.8040E+00E
 Epicentro: LOS SANTOS - SANTANDER                                             3
 ACTION:UPD 13-02-15 09:16 OP:ep   STATUS:               ID:20130123144220 L   I
 2013-01-23-1440-00M.COL___241                                                 6
 STAT SP IPHASW D HRMM SECON CODA AMPLIT PERI AZIMU VELO AIN AR TRES W  DIS CAZ7
 BAR2 SZ EP   1   1442 39.45                             171    0.07 7 22.0 181 
 BAR2 SZ ES   1   1442 54.11                             171    0.10 7 22.0 181 
 BRR  HN ES   4   1442 57.88                             152    1.24 0 68.5 301 
 PAM  SZ EP   1   1442 42.36                             148    0.07 7 80.5  41 
 PAM  SN ES   1   1442 59.13                             148   -0.06 7 80.5  41 
 PAM  SZ I        1443  1.52         6.2 0.44            154           80.5  41 
 RUS  HZ EP   1   1442 43.57                             142   -0.06 7 99.9 174 
 RUS  HN ES   1   1443  1.46                             142   -0.12 7 99.9 174 
 RUS  HZ I        1443  3.10         3.5 0.26            143           99.9 174 
 PTB  HZ EP   1   1442 46.54                             131   -0.13 7  144 259 
 PTB  HN ES   1   1443  7.01                             131    0.02 7  144 259 
 PTB  HZ I        1443 12.70         3.5 0.18            130            144 259 
 CHI  HZ EP   1   1442 57.81                             116    0.08 6  247 194 
 CHI  HN ES   1   1443 26.75                             116    0.08 6  247 194 
 CHI  HZ I        1443 34.21         2.0 0.50            117            247 194 
                                                                                
