 2011 1023 1414 10.2 L   6.751 -73.089139.1  RSN  5 0.1 1.5LRSN                1
 GAP=146        0.38       2.5     3.8  3.9 -0.7392E+00 -0.2034E+01 -0.1979E+00E
 Epicentro: LOS SANTOS - SANTANDER                                             3
 ACTION:UPD 12-07-13 16:05 OP:ep   STATUS:               ID:20111023141410 L   I
 2011-10-23-1411-07S.COL___171                                                 6
 STAT SP IPHASW D HRMM SECON CODA AMPLIT PERI AZIMU VELO AIN AR TRES W  DIS CAZ7
 BAR2 SZ EP       1414 28.90                             171   -0.0310 20.4 210 
 BAR2 SZ ES   1   1414 43.44                             171   -0.14 7 20.4 210 
 BAR2 SZ I        1414 44.97        12.3 0.27                          20.4 210 
 GIR2 SZ EP   3   1414 29.02                             164   -0.23 2 38.0 342 
 PAM  SZ EP       1414 31.89                             149    0.1810 78.0  33 
 PAM  SN ES   1   1414 48.39                             149   -0.12 7 78.0  33 
 BRR  HZ EP   1   1414 30.85                             149   -0.24 7 79.3 300 
 BRR  HE ES   1   1414 47.59                             149    0.18 7 79.3 300 
 BRR  HZ I        1414 52.43        10.1 0.05                          79.3 300 
 RUS  HZ EP   1   1414 32.82                             144   -0.03 7 95.0 180 
 RUS  HN ES   1   1414 50.65                             144    0.10 7 95.0 180 
 RUS  HZ I        1414 52.11         2.8 0.30                          95.0 180 
                                                                                
