 2010  323 1927 35.4 L   6.784 -73.054139.7  RSN  8 0.4 2.3LRSN                1
 GAP=192        0.64       3.6     6.7  6.5 -0.1150E+01  0.1140E+02  0.4092E+01E
 Epicentro: LOS SANTOS - SANTANDER                                             3
 ACTION:UP  10-08-24 09:55 OP:vdl  STATUS:               ID:20100323192735 L   I
 2010-03-23-1924-00S.COL___098                                                 6
 STAT SP IPHASW D HRMM SECON CODA AMPLIT PERI AZIMU VELO SNR AR TRES W  DIS CAZ7
 BAR2 SZ EP   1   1927 54.12                             169    -0.3 7   26 214 
 BAR2 SZ ES   2   1928  9.03                             169    -0.1 5   26 214 
 BRR  HZ EP   1   1927 56.42                             148    -0.1 7   81 296 
 BRR  HZ I        1927 56.90        53.6 0.12                            81 296 
 BRR  HN ES   2   1928 13.41                             148     0.4 5   81 296 
 RUS  HZ EP   1   1927 58.84                             143     0.4 7   99 182 
 RUS  HN ES   2   1928 16.55                             143     0.1 5   99 182 
 RUS  HZ I        1928 19.08        26.4 0.37                            99 182 
 OCA  SZ EP   1   1928  3.52                             128    -0.1 7  164 350 
 OCA  SZ ES   2   1928 25.43                             128    -0.1 5  164 350 
 OCA  SZ I        1928 32.54        50.9 0.53                           164 350 
 CHI  HZ EP   1   1928 12.80                             116    -0.1 6  250 198 
 CHI  HE ES   2   1928 41.51                             116    -0.7 4  250 198 
 CHI  HZ I        1928 45.37         6.8 0.55                           250 198 
 HEL  HZ EP   1   1928 16.67                             113     0.3 6  281 257 
 HEL  HN ES   2   1928 47.57                             113    -0.8 4  281 257 
 HEL  HZ I        1928 53.70        10.5 0.30                           281 257 
 RREF BZ EP   1   1928 22.63                             109     0.5 5  328 231 
 RREF BE ES   2   1928 59.29                             109     0.8 3  328 231 
 RREF BZ I        1929  7.93        10.2 0.78                           328 231 
 PRA  HZ EP   1   1928 29.04                             105    -0.1 4  396 211 
 PRA  HE ES   2   1929 10.29                             105    -0.8 3  396 211 
 PRA  HZ I        1929 16.14         7.0 0.45                           396 211 
                                                                                
