 2015  623 1417 48.7 L   6.421 -73.649105.0  RSN  6 0.2 2.1LRSN                1
 GAP=245        0.48       2.2     4.9 10.1 -0.6380E+01 -0.3109E+02  0.6583E+01E
 Epicentro: SANTA HELENA DEL OPON - SANTANDER                                  3
 ACTION:UPD 15-09-10 22:14 OP:cam  STATUS:               ID:20150623141747 L   I
 OLDACT:UP  15-07-02 19:42 OP:cam  STATUS:               ID:20150623141747 L   3
 OLDACT:UP  15-07-01 05:40 OP:DRIO STATUS:               ID:20150623141747 L   3
 OLDACT:UP  15-06-23 23:28 OP:drio STATUS:               ID:20150623140745     3
 OLDACT:REG 15-06-23 20:35 OP:drio STATUS:               ID:20150623140745     3
 2015-06-23-1407-45M.COL___316                                                 6
 STAT SP IPHASW D HRMM SECON CODA AMPLIT PERI AZIMU VELO AIN AR TRES W  DIS CAZ7
 NOR  HZ EP       1418 14.42                             117   -0.2010  165 235 
 NOR  HN ES       1418 34.80                             117   -0.0210  165 235 
 NOR  HZ I        1418 36.52        26.5 0.44            125            165 235 
 ZAR  HZ EP       1418 16.17                             115    0.1310  179 312 
 ZAR  HN ES       1418 37.52                             115    0.1810  179 312 
 ZAR  HZ I        1418 44.09        20.1 0.30            120            179 312 
 HEL  HZ EP       1418 19.67                             111   -0.30 9  210 263 
 HEL  HN ES       1418 44.29                             111   -0.06 9  210 263 
 HEL  HZ I        1418 46.82        12.8 0.28            117            210 263 
 GUY2CHZ EP       1418 23.11                             109    0.48 9  232 235 
 GUY2CHN ES       1418 49.05                             109   -0.03 9  232 235 
 GUY2CHZ I        1418 55.58         9.5 0.28                           232 235 
 SML  HZ EP       1418 26.20                             105    0.01 8  267 350 
 SML  HN ES       1418 55.22                             105   -0.20 8  267 350 
 SML  HZ I        1419  5.48        16.4 0.10            110            267 350 
 CBOC HZ EP       1418 26.66                             105    0.08 8  269 257 
 CBOC HN ES       1418 56.03                             105   -0.08 8  269 257 
 CBOC HZ I        1418 59.71         3.8 0.32            111            269 257 
                                                                                
