 2013  223 1457 48.5 L   6.742 -73.218147.3  RSN  4 0.3 1.7LRSN                1
 GAP=220        0.77       6.1     5.7  6.2  0.1679E+02  0.4036E+01  0.1745E+01E
 Epicentro: VILLANUEVA - SANTANDER                                             3
 ACTION:UPD 13-03-12 09:35 OP:ep   STATUS:               ID:20130223145748 L   I
 2013-02-23-1450-00M.COL___225                                                 6
 STAT SP IPHASW D HRMM SECON CODA AMPLIT PERI AZIMU VELO AIN AR TRES W  DIS CAZ7
 BAR2 SZ EP       1458  7.93                             173   -0.3110 17.0 167 
 BAR2 SZ ES       1458 23.17                             173   -0.4410 17.0 167 
 BAR2 SZ I        1458 24.20         8.4 0.24            168           17.0 167 
 BRR  HZ EP       1458  9.78                             154    0.1110 67.9 307 
 BRR  HN ES       1458 26.57                             154    0.4210 67.9 307 
 BRR  HN I        1458 27.14        16.6 0.22            152           67.9 307 
 RUS  HZ EP       1458 12.25                             146    0.1910 95.1 171 
 RUS  HN ES       1458 30.69                             146    0.2910 95.1 171 
 RUS  HN I        1458 32.18         3.7 0.42            144           95.1 171 
 PTB  HZ EP       1458 14.71                             134   -0.12 9  139 261 
 PTB  HN ES       1458 35.16                             134   -0.17 9  139 261 
 PTB  HN I        1458 40.78         9.4 0.40            132            139 261 
                                                                                
