 2017  123 1344 54.4 L   5.919 -73.919103.2  RSN  5 0.3 1.4LRSN                1
 GAP=147        0.79       3.2     3.6  9.3  0.2240E+01  0.3863E+01  0.5576E+01E
 Epicentro: LA BELLEZA - SANTANDER                                             3
 ACTION:UPD 17-05-22 16:02 OP:jn   STATUS:               ID:20170123134454 L   I
 OLDACT:UP  17-03-30 18:36 OP:nlst STATUS:               ID:20170123134454 L   3
 OLDACT:DUP 17-01-23 21:48 OP:dnl  STATUS:               ID:20170123133746d    3
 2017-01-23-1338-00M.COL___343                                                 6
 STAT SP IPHASW D HRMM SECON CODA AMPLIT PERI AZIMU VELO AIN AR TRES W  DIS CAZ7
 PTB  HZ EP       1345 12.34                             135   -0.3710 90.7 319 
 PTB  HN ES       1345 27.10                             135    0.0810 90.7 319 
 PTB  HZ I        1345 30.21         4.1 0.16             47           90.7 319 
 RUS  HZ IP       1345 13.32                             135   -0.2110 92.6  92 
 RUS  HZ EP       1345 13.36                             135           92.6  92 
 RUS  HE ES       1345 28.01                             135   -0.4610 92.6  92 
 RUS  HZ I        1345 29.28         2.8 0.40             47           92.6  92 
 BAR2 EZ EP       1345 15.01                             129    0.2210  110  48 
 BAR2 EZ ES       1345 31.14                             129    0.4210  110  48 
 BRR  HZ EP   2   1345 16.96                             123    0.22 5  133  10 
 BRR  HZ I        1345 40.45        16.4 0.36             47            133  10 
 CHI  HZ EP   2   1345 18.27                             121   -0.13 5  144 172 
 CHI  HN ES       1345 37.51                             121    0.37 9  144 172 
 CHI  HZ I        1345 42.05         2.8 0.42             47            144 172 
                                                                                
