 2017 1223 1132 50.8 L   6.819 -73.145152.1  RSN 13 0.8 2.1LRSN                1
 GAP=111        1.49       3.7     5.1  8.1 -0.2187E+01  0.9096E+01 -0.3406E+01E
 Epicentro: LOS SANTOS - SANTANDER                                             3
 ACTION:UPD 18-01-04 13:23 OP:rebc STATUS:               ID:20171223113250 L   I
 OLDACT:UP  17-12-23 22:38 OP:dani STATUS:               ID:20171223112717     3
 OLDACT:UP  17-12-23 22:37 OP:dani STATUS:               ID:20171223112717     3
 OLDACT:UP  17-12-23 22:37 OP:dani STATUS:               ID:20171223112717     3
 OLDACT:REG 17-12-23 20:24 OP:dani STATUS:               ID:20171223112717     3
 2017-12-23-1128-00M.COL___457                                                 6
 STAT SP IPHASW D HRMM SECON CODA AMPLIT PERI AZIMU VELO AIN AR TRES W  DIS CAZ7
 BAR2 EZ EP       1133 10.97                             170   -0.2410 25.4 189 
 BAR2 EZ ES       1133 26.96                             170   -0.1910 25.4 189 
 BAR2 EZ I        1133 27.66        19.2 0.52            169           25.4 189 
 PAM  EZ EP       1133 13.87                             152    0.2910 75.7  41 
 PAM  EN ES       1133 31.19                             152   -0.1710 75.7  41 
 PAM  EZ I        1133 33.24        18.1 0.58            156           75.7  41 
 PTB  HZ EP       1133 17.89                             133   -0.42 9  148 258 
 PTB  HN ES       1133 39.31                             133   -0.47 9  148 258 
 PTB  HZ I        1133 46.45        13.9 0.42            133            148 258 
 OCA  HZ EP       1133 19.37                             131   -0.02 9  158 353 
 OCA  HN ES       1133 42.32                             131    0.60 9  158 353 
 OCA  HZ I        1133 46.87        32.1 0.26            133            158 353 
 SPBC HZ EP       1133 19.95                             130    0.03 9  165 219 
 SPBC HN ES       1133 42.72                             130    0.06 9  165 219 
 SPBC HZ I        1133 45.40        19.0 0.12            130            165 219 
 YPLC HZ EP       1133 21.15                             128   -0.06 9  179 152 
 YPLC HN ES       1133 44.63                             128   -0.33 9  179 152 
 YPLC HZ I        1133 49.21         6.1 0.30            130            179 152 
 ZAR  HN ES       1133 49.98                             124    0.84 9  203 292 
 ZAR  HZ I        1133 55.86         9.2 0.46            124            203 292 
 URE  HZ EP       1133 30.85                             115   -1.23 7  283 292 
 URE  HN ES       1134  3.11                             115   -1.18 7  283 292 
 URE  HZ I        1134 15.41         6.8 0.16            115            283 292 
 DRL03HZ EP       1133 33.70                             114    1.24 7  287 353 
 DRL03HN ES       1134  5.86                             114    0.88 7  287 353 
 GUY2CHZ EP   3   1133 37.35                             113    2.53 2  302 234 
 GUY2CHN ES       1134 11.19                             113    2.01 7  302 234 
 GUY2CHZ I        1134 18.02         5.1 0.30                           302 234 
 DRL02HZ EP       1133 35.99                             112   -0.52 7  323 358 
 DRL02HN ES       1134 11.71                             112   -0.48 7  323 358 
 PRA  HZ EP       1133 45.32                             107    0.59 6  394 209 
 PRA  HN ES       1134 26.77                             107   -0.05 6  394 209 
 PRA  HZ I        1134 35.37         2.7 0.28            108            394 209 
 SJC  HZ EP       1133 45.22                             107   -1.13 6  407 327 
 SJC  HN ES   3   1134 26.77                             107   -2.92 1  407 327 
 SJC  HZ I        1134 31.34         1.9 0.10            108            407 327 
                                                                                
