 2011 1123 1716 23.2 L   6.771 -73.119148.1  RSN  6 0.3 1.9LRSN                1
 GAP=141        0.58       3.9     4.4  6.2  0.2337E+00  0.4832E+01  0.1520E+01E
 Epicentro: LOS SANTOS - SANTANDER                                             3
 ACTION:UPD 12-07-13 16:11 OP:ep   STATUS:               ID:20111123171623 L   I
 2011-11-23-1714-02S.COL___178                                                 6
 STAT SP IPHASW D HRMM SECON CODA AMPLIT PERI AZIMU VELO AIN AR TRES W  DIS CAZ7
 BAR2 SZ EP       1716 42.90                             171   -0.1210 21.0 200 
 BAR2 SZ ES   2   1716 58.50                             171   -0.01 5 21.0 200 
 BAR2 SZ I        1716 59.56        14.0 0.35                          21.0 200 
 BRR  HZ EP   1   1716 44.67                             152   -0.12 7 75.4 300 
 BRR  HZ I        1716 44.97        20.6 0.13                          75.4 300 
 BRR  HE ES   1   1717  2.23                             152    0.57 7 75.4 300 
 PAM  SZ EP   1   1716 45.69                             151    0.04 7 78.1  36 
 PAM  SN ES   1   1717  2.89                             151   -0.31 7 78.1  36 
 RUS  HZ EP   1   1716 47.13                             145    0.24 7 97.2 178 
 RUS  HN ES   1   1717  5.43                             145    0.02 7 97.2 178 
 RUS  HZ I        1717  6.67         6.1 0.44                          97.2 178 
 ZAR  HZ EP   2   1716 56.57                             122    0.41 4  208 293 
 ZAR  HE ES   2   1717 21.13                             122   -0.77 4  208 293 
 ZAR  HZ I        1717 27.89         8.7 0.26                           208 293 
 NOR  SN ES   2   1717 26.76                             119   -0.35 4  235 236 
                                                                                
