 2013  823 1314  2.3 L   6.727 -73.238131.7  RSN  4 0.3 1.5LRSN                1
 GAP=256        0.70      10.2     5.5  7.9  0.2450E+02  0.1145E+02  0.1994E+02E
 Epicentro: VILLANUEVA - SANTANDER                                             3
 ACTION:UPD 14-01-14 09:05 OP:ep   STATUS:               ID:20130823131402 L   I
 OLDACT:UP  13-08-23 19:39 OP:stll STATUS:               ID:20130823130849d    3
 OLDACT:DUP 13-08-23 19:25 OP:stll STATUS:               ID:20130823130849d    3
 2013-08-23-1308-48M.COL___220                                                 6
 STAT SP IPHASW D HRMM SECON CODA AMPLIT PERI AZIMU VELO AIN AR TRES W  DIS CAZ7
 BAR2 SZ EP   1   1314 19.74                             173   -0.37 8 16.2 158 
 BAR2 SZ ES   1   1314 34.44                             173    0.44 8 16.2 158 
 BAR2 SZ I        1314 36.11        10.0 0.18            169           16.2 158 
 RUS  HZ EP   1   1314 24.11                             143   -0.08 8 93.9 169 
 RUS  HN ES   1   1314 41.01                             143   -0.26 8 93.9 169 
 RUS  HN I        1314 43.84         2.2 0.26            144           93.9 169 
 PTB  HN ES       1314 46.23                             131   -0.1910  136 261 
 PTB  HN I        1314 52.94        10.7 0.50            131            136 261 
 SPBC HZ EP       1314 28.91                             128    0.3810  151 218 
                                                                                
