 2012  123 1024 40.7 L   6.760 -73.147146.1  RSN  8 0.4 1.8LRSN                1
 GAP=138        1.01       5.5     7.7  8.5 -0.2473E+01  0.1137E+02  0.3753E+00E
 Epicentro: LOS SANTOS - SANTANDER                                             3
 ACTION:UP  12-02-03 08:19 OP:REBC STATUS:               ID:20120123102440 L   I
 2012-01-23-1020-00M.COL___186                                                 6
 STAT SP IPHASW D HRMM SECON CODA AMPLIT PERI AZIMU VELO SNR AR TRES W  DIS CAZ7
 BAR2 SZ EP       1025  0.20                             172     0.010   19 192 
 BAR2 SZ ES   2   1025 15.26                             172    -0.3 5   19 192 
 BAR2 SZ I        1025 16.58        25.5 0.22                            19 192 
 BRR  HZ IP       1025  2.03                             152     0.110   73 302 
 BRR  HZ I        1025  2.22        19.2 0.14                            73 302 
 BRR  HN ES   1   1025 19.36                             152     0.8 7   73 302 
 PAM  SZ EP       1025  2.95                             150    -0.210   81  38 
 PAM  SN ES   1   1025 20.08                             150    -0.6 7   81  38 
 RUS  HZ EP       1025  4.20                             145     0.110   96 176 
 RUS  HN ES   1   1025 22.64                             145     0.2 7   96 176 
 RUS  HZ I        1025 24.53         9.1 0.46                            96 176 
 PTB  HZ EP       1025  6.96                             132    -0.6 9  147 261 
 PTB  HN ES   3   1025 28.12                             132    -0.4 2  147 261 
 PTB  HZ I        1025 31.94         6.1 0.26                           147 261 
 OCA  SZ EP       1025  9.81                             129     0.4 9  165 353 
 OCA  SZ I        1025 38.30         5.6 0.40                           165 353 
 ZAR  HE ES   3   1025 37.80                             122    -0.9 2  206 293 
 ZAR  HZ I        1025 44.26         9.2 0.22                           206 293 
 CHI  HZ EP   1   1025 18.34                             118     0.4 6  244 195 
 CHI  HZ I        1025 56.04         3.3 0.70                           244 195 
                                                                                
