 2012  123 1952 21.8 L   6.991 -73.456 18.1  RSN  5 0.4 1.4LRSN                1
 GAP=211        0.54       6.2     5.9  8.6  0.2589E+02  0.1031E+02  0.2704E+02E
 Epicentro: SAN VICENTE DE CHUCURI - SANTANDER                                 3
 ACTION:UP  12-02-03 08:20 OP:REBC STATUS:               ID:20120123195221 L   I
 2012-01-23-1950-00M.COL___186                                                 6
 STAT SP IPHASW D HRMM SECON CODA AMPLIT PERI AZIMU VELO SNR AR TRES W  DIS CAZ7
 BRR  HZ IP     D 1952 27.56                             115    -0.110   31 294 
 BRR  HZ I        1952 27.72        95.5 0.12                            31 294 
 BRR  HN ES   1   1952 31.95                             115    -0.2 7   31 294 
 BAR2 SZ EP   3   1952 31.27                             105     0.2 2   54 146 
 BAR2 SZ ES   3   1952 37.49                             105    -0.8 2   54 146 
 PTB  HZ EP       1952 41.21                              96     0.310  121 246 
 PTB  HN ES   3   1952 55.28                              96    -0.6 2  121 246 
 PTB  HZ I        1952 57.70         7.5 0.16                           121 246 
 RUS  HZ EP   3   1952 43.14                              96     0.7 2  128 161 
 RUS  HE ES   3   1952 58.03                              96    -0.6 2  128 161 
 RUS  HZ I        1953  4.70         2.2 0.52                           128 161 
 ZAR  HN ES   3   1953  4.89                              56    -0.7 2  164 290 
                                                                                
