 2017 1123 1645 35.5 L   6.834 -73.187140.7  RSN 21 0.6 2.4LRSN                1
 GAP= 62        1.23       3.1     3.3  5.8 -0.7222E+00  0.6171E+01  0.1118E+01E
 Epicentro: ZAPATOCA - SANTANDER                                               3
 ACTION:UPD 17-12-12 19:59 OP:rebc STATUS:               ID:20171123164535 L   I
 OLDACT:UP  17-11-23 22:24 OP:dhb  STATUS:               ID:20171123163739     3
 OLDACT:REG 17-11-23 20:25 OP:dhb  STATUS:               ID:20171123163739     3
 2017-11-23-1638-00M.COL___485                                                 6
 STAT SP IPHASW D HRMM SECON CODA AMPLIT PERI AZIMU VELO AIN AR TRES W  DIS CAZ7
 BAR2 EZ IP     C 1645 54.54                             169   -0.0710 26.7 179 
 BAR2 EZ ES       1646  9.17                             169   -0.3410 26.7 179 
 BAR2 EZ I        1646 10.73       100.0 0.24            167           26.7 179 
 PAM  EZ EP       1645 57.51                             150    0.3010 77.6  44 
 PAM  EE ES       1646 14.62                             150    0.4910 77.6  44 
 RUS  HZ EP       1645 58.61                             142   -0.4710  105 174 
 RUS  HE ES       1646 17.56                             142    0.1010  105 174 
 RUS  HZ I        1646 18.26        44.6 0.24            142            105 174 
 PTB  HZ EP       1646  1.03                             131   -0.71 9  144 257 
 PTB  HN ES       1646 22.16                             131   -0.03 9  144 257 
 PTB  HZ I        1646 27.02        23.9 0.50            130            144 257 
 OCA  HZ EP       1646  3.53                             129    0.49 9  156 355 
 TAM  HZ IP     D 1646  2.93                             128   -0.38 9  160 106 
 SPBC HZ EP       1646  3.35                             128   -0.30 9  163 217 
 SPBC HN ES       1646 25.43                             128   -0.16 9  163 217 
 SPBC HZ I        1646 28.05        55.8 0.42            127            163 217 
 YPLC HZ IP     D 1646  4.97                             125   -0.53 9  182 151 
 YPLC HN ES       1646 28.93                             125    0.05 9  182 151 
 YPLC HZ I        1646 31.75        39.6 0.28            127            182 151 
 ZAR  HZ EP       1646  7.00                             122   -0.05 9  198 292 
 ZAR  HE ES       1646 32.20                             122    0.55 9  198 292 
 ZAR  HZ I        1646 37.68        20.9 0.42            122            198 292 
 TABC EZ EP       1646 12.05                             118    0.98 8  231 209 
 TABC EZ ES       1646 39.20                             118    0.39 8  231 209 
 TABC EZ I        1646 46.22        20.3 0.32            118            231 209 
 NOR  HZ EP       1646 10.22                             117   -0.58 8  233 233 
 NOR  HE ES       1646 38.23                             117   -0.09 8  233 233 
 NOR  HZ I        1646 43.20        20.0 0.26            117            233 233 
 CHI  HZ IP     C 1646 12.69                             116   -0.52 8  251 194 
 CHI  HE ES       1646 42.59                             116   -0.02 8  251 194 
 CHI  HZ I        1646 45.27        16.3 0.44            117            251 194 
 ROSC BZ EP       1646 14.17                             115    0.70 8  254 210 
 ROSC BE ES       1646 42.70                             115   -0.37 8  254 210 
 ROSC BZ I        1646 52.72        23.8 0.30            116            254 210 
 HEL  HZ EP       1646 16.57                             114    1.48 8  269 255 
 HEL  HE ES       1646 45.40                             114   -0.56 8  269 255 
 HEL  HZ I        1646 52.59        11.9 0.26            114            269 255 
 URE  HZ EP   4   1646 19.21                             113    3.50 0  278 292 
 URE  HE ES   2   1646 45.78                             113   -1.28 4  278 292 
 URE  HZ I        1646 56.25        12.9 0.34            113            278 292 
 GUY2CHZ EP       1646 19.52                             111    0.80 7  300 234 
 GUY2CHE ES   2   1646 54.00                             111    1.57 4  300 234 
 GUY2CHZ I        1647  0.50        12.8 0.28                           300 234 
 CBOC HZ EP       1646 22.77                             109    0.91 7  330 251 
 CBOC HE ES       1646 57.28                             109   -0.73 7  330 251 
 CBOC HZ I        1647  9.63         5.8 0.44            109            330 251 
 PRA  HZ EP       1646 28.13                             106   -0.86 6  393 209 
 PRA  HE ES       1647 10.12                             106   -0.58 6  393 209 
 PRA  HZ I        1647 16.45         9.5 0.32            106            393 209 
 ORTC HZ EP       1646 28.83                             105   -0.48 6  396 215 
 ORTC HE ES       1647 12.06                             105    0.79 6  396 215 
 ORTC HZ I        1647 15.87         8.9 0.26            106            396 215 
 PAL  HZ EP       1646 30.54                             105    0.26 6  404 238 
 PAL  HN ES       1647 13.73                             105    0.73 6  404 238 
 SJC  HZ IP   2 C 1646 28.73                             105   -1.52 3  404 327 
 SJC  HN ES       1647 12.05                             105   -0.90 6  404 327 
 SJC  HZ I        1647 14.19         4.7 0.68            106            404 327 
 PAL  HZ I        1647 18.48         4.8 0.34            106            404 238 
                                                                                
