 2013  223 1520 58.5 L   6.777 -73.156145.1  RSN  7 0.4 2.1LRSN                1
 GAP=136        0.96       4.1     4.2  6.1  0.2015E+01  0.5742E+01  0.4298E+01E
 Epicentro: LOS SANTOS - SANTANDER                                             3
 ACTION:UPD 13-03-12 09:35 OP:ep   STATUS:               ID:20130223152058 L   I
 2013-02-23-1520-00M.COL___225                                                 6
 STAT SP IPHASW D HRMM SECON CODA AMPLIT PERI AZIMU VELO AIN AR TRES W  DIS CAZ7
 BAR2 SZ EP       1521 17.85                             172   -0.1910 20.6 188 
 BAR2 SZ ES       1521 32.96                             172   -0.2910 20.6 188 
 BRR  HZ IP     C 1521 19.91                             152    0.2710 71.5 301 
 BRR  HN ES       1521 36.82                             152    0.7310 71.5 301 
 BRR  HN I        1521 37.16        44.0 0.28            149           71.5 301 
 PAM  SZ EP       1521 20.88                             150    0.0310 80.1  39 
 PAM  SN ES       1521 38.07                             150   -0.1810 80.1  39 
 PAM  SN I        1521 39.12        27.0 0.48            151           80.1  39 
 RUS  HZ EP       1521 22.00                             144   -0.0510 98.1 175 
 RUS  HN ES       1521 40.50                             144    0.1110 98.1 175 
 RUS  HN I        1521 41.03        14.9 0.24            144           98.1 175 
 PTB  HZ EP       1521 24.81                             132   -0.51 9  146 260 
 PTB  HN ES       1521 45.51                             132   -0.69 9  146 260 
 PTB  HN I        1521 46.74        16.0 0.18            130            146 260 
 ZAR  HZ EP   1   1521 31.08                             122    0.14 6  204 293 
 ZAR  HN ES       1521 56.41                             122    0.20 9  204 293 
 ZAR  HN I        1522  6.76        12.2 0.32            120            204 293 
 CHI  HZ EP       1521 36.10                             117    0.19 8  246 195 
 CHI  HN ES   1   1522  5.91                             117    0.87 6  246 195 
 CHI  HN I        1522 10.90         8.5 0.78            116            246 195 
                                                                                
