 2016  223 1206 31.9 L   6.775 -73.156144.0  RSN  6 0.5 1.6LRSN                1
 GAP=136        1.18       5.0     6.0  7.9 -0.3076E+01  0.5020E+01  0.1042E+02E
 Epicentro: LOS SANTOS - SANTANDER                                             3
 ACTION:UPD 16-03-04 21:28 OP:rebc STATUS:               ID:20160223120631 L   I
 OLDACT:DUP 16-02-23 23:13 OP:drio STATUS:               ID:20160223115749d    3
 2016-02-23-1157-48M.COL___318                                                 6
 STAT SP IPHASW D HRMM SECON CODA AMPLIT PERI AZIMU VELO AIN AR TRES W  DIS CAZ7
 BAR2 EZ EP       12 6 51.17                             172   -0.0710 20.4 188 
 BAR2 EZ ES       12 7  6.03                             172   -0.3010 20.4 188 
 BAR2 EZ I        12 7  7.01         7.7 0.14            170           20.4 188 
 BRR  HZ EP       12 6 53.37                             152    0.5110 71.6 301 
 BRR  HE ES       12 7 10.02                             152    0.8010 71.6 301 
 PAM  EZ EP       12 6 54.16                             150    0.0810 80.2  39 
 PAM  EE ES       12 7 11.06                             150   -0.3310 80.2  39 
 PAM  EZ I        12 7 13.37        17.1 0.62            151           80.2  39 
 RUS  HZ EP       12 6 54.94                             144   -0.3210 97.9 175 
 RUS  HE ES       12 7 13.69                             144    0.1910 97.9 175 
 RUS  HZ I        12 7 14.71         4.7 0.36            144           97.9 175 
 PTB  HZ EP       12 6 57.82                             132   -0.74 9  146 260 
 PTB  HN ES       12 7 18.84                             132   -0.52 9  146 260 
 PTB  HZ I        12 7 21.03         7.3 0.30            132            146 260 
 CHI  HZ EP       12 7  9.86                             117    0.70 8  246 195 
 CHI  HE ES       12 7 38.38                             117    0.15 8  246 195 
 CHI  HZ I        12 7 42.86         1.4 0.34            117            246 195 
                                                                                
