 2013 1123 1033 30.9 L   6.810 -73.143143.8  RSN  6 0.4 1.6LRSN                1
 GAP=150        0.94       5.1     5.0  6.6  0.1204E+01  0.9213E+01 -0.8931E+01E
 Epicentro: LOS SANTOS - SANTANDER                                             3
 ACTION:UPD 14-01-09 16:30 OP:ep   STATUS:               ID:20131123103330 L   I
 OLDACT:REG 13-11-23 14:06 OP:nd   STATUS:               ID:20131123103000     3
 2013-11-23-1030-00M.COL___282                                                 6
 STAT SP IPHASW D HRMM SECON CODA AMPLIT PERI AZIMU VELO AIN AR TRES W  DIS CAZ7
 BAR2 SZ EP       1033 50.24                             170   -0.1210 24.4 190 
 BAR2 SZ ES       1034  5.28                             170   -0.2310 24.4 190 
 BAR2 SZ I        1034  6.16        14.5 0.24            172           24.4 190 
 BRR  HZ EP       1033 52.16                             152    0.2910 71.0 298 
 BRR  HN ES       1034  8.05                             152   -0.1410 71.0 298 
 BRR  HZ I        1034 15.84         6.3 0.34            149           71.0 298 
 PAM  SZ EP       1033 53.08                             151    0.1910 76.4  40 
 PAM  SN ES       1034 10.04                             151    0.0310 76.4  40 
 PAM  SZ I        1034 12.60         5.8 0.62            153           76.4  40 
 OCA  HZ EP   2   1034  0.17                             129    1.16 5  159 353 
 OCA  HN ES       1034 21.26                             129    0.36 9  159 353 
 OCA  HZ I        1034 24.38         4.5 0.56            130            159 353 
 ZAR  HZ EP       1034  3.08                             122   -0.17 9  204 292 
 ZAR  HN ES       1034 29.01                             122    0.56 9  204 292 
 ZAR  HZ I        1034 34.30         3.0 0.34            123            204 292 
 SML  HZ EP       1034  6.76                             117   -0.61 8  243 335 
 SML  HN ES       1034 35.05                             117   -0.73 8  243 335 
 SML  HZ I        1034 42.36         5.8 0.28            119            243 335 
                                                                                
