 2011  223 1558 49.3 L   6.747 -73.073147.0  RSN  6 0.2 1.7LRSN                1
 GAP=167        0.43       2.7    10.2  3.5 -0.1860E+02 -0.5932E+01  0.1830E+01E
 Epicentro: LOS SANTOS - SANTANDER                                             3
 ACTION:UP  11-03-28 15:10 OP:jfem STATUS:               ID:20110223155849 L   I
 2011-02-23-1555-57S.COL___136                                                 6
 STAT SP IPHASW D HRMM SECON CODA AMPLIT PERI AZIMU VELO SNR AR TRES W  DIS CAZ7
 BAR2 SZ EP       1559  9.06                             171     0.010   21 215 
 BAR2 SZ ES   1   1559 24.38                             171    -0.1 7   21 215 
 BAR2 SZ I        1559 25.96        21.9 0.22                            21 215 
 BTL  SZ EP       1559  9.34                             168     0.110   29 311 
 BTL  SZ ES   1   1559 24.87                             168     0.1 7   29 311 
 GIR2 SZ EP       1559  9.29                             164    -0.110   39 340 
 GIR2 SZ ES   3   1559 24.65                             164    -0.3 2   39 340 
 RUS  HZ EP   1   1559 12.65                             146    -0.1 7   94 181 
 RUS  HN ES   1   1559 31.20                             146     0.2 7   94 181 
 RUS  HZ I        1559 33.10         9.5 0.28                            94 181 
 GRA  SZ EP       1559 15.04                             136     0.110  129  13 
 GRA  SZ ES   1   1559 34.69                             136    -0.3 7  129  13 
 GRA  SZ I        1559 36.14         6.9 0.42                           129  13 
 CHI  HZ EP       1559 26.82                             118     0.1 8  245 197 
 CHI  HN ES   1   1559 55.46                             118    -0.4 6  245 197 
 CHI  HZ I        1559 59.04         2.3 0.45                           245 197 
                                                                                
