 2010 1023 1739 50.2 L   6.740 -73.176151.1  RSN  5 0.2 1.5LRSN                1
 GAP=161        0.45       5.1    10.4  7.4  0.2481E+02 -0.3322E+02 -0.1598E+02E
 Epicentro: VILLANUEVA - SANTANDER                                             3
 ACTION:UP  11-02-18 11:11 OP:tino STATUS:               ID:20101023173950 L   I
 2010-10-23-1736-26S.COL___128                                                 6
 STAT SP IPHASW D HRMM SECON CODA AMPLIT PERI AZIMU VELO SNR AR TRES W  DIS CAZ7
 BAR2 SZ EP   1   1740 10.05                             174    -0.3 7   16 183 
 BAR2 SZ ES   2   1740 25.78                             174    -0.3 5   16 183 
 BAR2 SZ I        1740 26.61         7.4 0.50                            16 183 
 BTL  SZ EP   1   1740 10.47                             171     0.0 7   22 333 
 BRR  HZ EP   1   1740 11.94                             153     0.0 7   72 304 
 BRR  HE ES   2   1740 29.04                             153     0.1 5   72 304 
 RUS  HZ EP   1   1740 14.00                             147     0.0 7   94 174 
 RUS  HN ES   2   1740 33.05                             147     0.4 5   94 174 
 RUS  HZ I        1740 34.74         4.1 0.30                            94 174 
 GUE  SZ EP   1   1740 16.15                             139     0.2 7  124  13 
                                                                                
