 2017 1123 1318 56.0 L   6.774 -73.131137.7  RSN  6 0.3 1.4LRSN                1
 GAP=140        0.84       3.8     3.9  6.2 -0.7895E+00  0.8667E+01  0.3164E+01E
 Epicentro: LOS SANTOS - SANTANDER                                             3
 ACTION:UPD 17-12-12 19:59 OP:rebc STATUS:               ID:20171123131856 L   I
 OLDACT:UP  17-11-23 23:44 OP:edw  STATUS:               ID:20171123131745     3
 OLDACT:REG 17-11-23 20:02 OP:dhb  STATUS:               ID:20171123131745     3
 2017-11-23-1318-00M.COL___467                                                 6
 STAT SP IPHASW D HRMM SECON CODA AMPLIT PERI AZIMU VELO AIN AR TRES W  DIS CAZ7
 BAR2 EZ EP       1319 14.27                             171   -0.3910 20.9 196 
 BAR2 EZ ES       1319 28.75                             171   -0.4210 20.9 196 
 BAR2 EZ I        1319 30.31         6.5 0.34            170           20.9 196 
 PAM  EZ EP       1319 17.28                             149   -0.2010 78.6  37 
 PAM  EN ES       1319 34.45                             149    0.2510 78.6  37 
 PAM  EZ I        1319 36.41         8.1 0.52            152           78.6  37 
 RUS  HZ EP       1319 18.89                             143    0.1010 97.6 177 
 RUS  HN ES       1319 37.02                             143    0.4910 97.6 177 
 RUS  HZ I        1319 38.42         2.3 0.22            145           97.6 177 
 PTB  HZ EP       1319 22.98                             130    0.51 9  149 260 
 PTB  HN ES       1319 42.83                             130   -0.25 9  149 260 
 PTB  HZ I        1319 49.31         1.8 0.36            130            149 260 
 ZAR  HE ES       1319 53.59                             120    0.21 8  207 293 
 PRA  HZ EP       1319 48.74                             105   -0.36 6  390 210 
 PRA  HE ES       1320 30.28                             105   -0.21 6  390 210 
 PRA  HZ I        1320 33.14         1.2 0.32            107            390 210 
                                                                                
