 2012  923 1027  8.6 L   6.753 -73.197144.6  RSN  4 0.1 1.5LRSN                1
 GAP=228        0.39       3.6     4.0  5.2  0.7114E+01  0.3553E+00 -0.5272E+01E
 Epicentro: VILLANUEVA - SANTANDER                                             3
 ACTION:UPD 12-10-22 14:20 OP:ep   STATUS:               ID:20120923102708 L   I
 2012-09-23-1020-00M.COL___221                                                 6
 STAT SP IPHASW D HRMM SECON CODA AMPLIT PERI AZIMU VELO AIN AR TRES W  DIS CAZ7
 BAR2 SZ EP   1   1027 27.76                             173   -0.23 7 17.8 175 
 BAR2 SZ ES   1   1027 43.00                             173   -0.11 7 17.8 175 
 BAR2 SZ I        1027 45.34         8.2 0.20                          17.8 175 
 BRR  HZ EP       1027 29.62                             153    0.1210 69.0 305 
 BRR  HE ES   1   1027 45.86                             153    0.06 7 69.0 305 
 BRR  HZ I        1027 50.57         6.6 0.36                          69.0 305 
 RUS  HE ES       1027 50.16                             145    0.0810 96.0 172 
 RUS  HZ I        1027 51.69         3.8 0.29                          96.0 172 
 PTB  HN ES   1   1027 55.29                             133   -0.09 7  141 260 
                                                                                
