 2010  523 1817 53.2 L   7.382 -73.103130.7  RSN  7 0.3 1.9LRSN                1
 GAP=127        0.70       4.8     6.6  6.7 -0.1210E+02  0.7118E+00  0.4297E+01E
 Epicentro: MATANZA - SANTANDER                                                3
 ACTION:UP  10-08-24 10:06 OP:vdl  STATUS:               ID:20100523181753 L   I
 2010-05-23-1815-26S.COL___111                                                 6
 STAT SP IPHASW D HRMM SECON CODA AMPLIT PERI AZIMU VELO SNR AR TRES W  DIS CAZ7
 BRI  SZ EP       1818 12.32                             158     0.510   50  42 
 BRI  SZ ES   2   1818 27.01                             158     0.6 5   50  42 
 GUE  SZ EP       1818 12.11                             157    -0.110   53  22 
 GUE  SZ ES   2   1818 27.10                             157     0.0 5   53  22 
 GRA  SZ EP       1818 12.73                             152     0.110   65  31 
 GRA  SZ ES   2   1818 27.66                             152     0.0 5   65  31 
 BAR2 SZ EP       1818 13.97                             144    -0.210   88 186 
 BAR2 SZ ES   2   1818 30.16                             144    -0.4 5   88 186 
 OCA  SZ EP       1818 14.77                             141     0.010   98 346 
 OCA  SZ ES   2   1818 30.82                             141    -0.8 5   98 346 
 OCA  SZ I        1818 34.95        11.0 0.45                            98 346 
 HEL  HZ EP   2   1818 35.64                             109    -0.1 4  299 244 
 HEL  HN ES   2   1819  9.55                             109     0.6 4  299 244 
 HEL  HZ I        1819 17.18         4.2 0.25                           299 244 
 SDV  BZ EP       1818 37.67                             108    -0.2 7  319  59 
 SDV  BZ I        1818 38.05         4.8 0.25                           319  59 
                                                                                
