 2016  523 2127 50.1 L   6.768 -73.135143.8  RSN  9 0.6 2.0LRSN                1
 GAP=139        1.41       4.9     5.7  8.1 -0.1835E+01  0.1172E+02  0.7109E+01E
 Epicentro: LOS SANTOS - SANTANDER                                             3
 ACTION:UPD 16-08-18 17:48 OP:cam  STATUS:               ID:20160523212750 L   I
 OLDACT:UP  16-05-24 05:07 OP:dani STATUS:               ID:20160523211746     3
 OLDACT:UP  16-05-24 04:41 OP:dani STATUS:               ID:20160523211746     3
 OLDACT:UP  16-05-24 04:40 OP:dani STATUS:               ID:20160523211746     3
 OLDACT:REG 16-05-24 03:24 OP:dani STATUS:               ID:20160523211746     3
 2016-05-23-2117-46M.COL___304                                                 6
 STAT SP IPHASW D HRMM SECON CODA AMPLIT PERI AZIMU VELO AIN AR TRES W  DIS CAZ7
 BAR2 EZ EP       2128  9.13                             172   -0.2610 20.1 195 
 BAR2 EZ ES       2128 24.49                             172    0.0210 20.1 195 
 BAR2 EZ I        2128 26.48        18.5 0.20            171           20.1 195 
 BRR  HZ EP       2128 11.21                             151    0.0610 74.0 301 
 BRR  HE ES       2128 28.25                             151    0.6410 74.0 301 
 BRR  HZ I        2128 32.18        21.4 0.20            151           74.0 301 
 PAM  EZ EP     D 2128 12.16                             150   -0.0310 79.4  37 
 PAM  EN ES       2128 29.17                             150   -0.2810 79.4  37 
 PAM  EZ I        2128 31.18        24.7 0.52            153           79.4  37 
 RUS  HZ EP     C 2128 13.13                             144   -0.2210 97.0 177 
 RUS  HE ES       2128 32.19                             144    0.6610 97.0 177 
 RUS  HZ I        2128 32.77        11.2 0.26            147           97.0 177 
 PTB  HZ EP     C 2128 16.28                             132   -0.63 9  148 260 
 PTB  HN ES       2128 36.76                             132   -1.10 9  148 260 
 PTB  HZ I        2128 39.04         8.3 0.11            132            148 260 
 SPBC HZ EP       2128 17.40                             129   -0.81 9  161 220 
 SPBC HE ES       2128 40.43                             129    0.25 9  161 220 
 SPBC HZ I        2128 42.27        24.3 0.08            130            161 220 
 ZAR  HZ EP       2128 23.45                             122    0.82 8  207 293 
 ZAR  HE ES       2128 48.11                             122    0.08 8  207 293 
 ZAR  HZ I        2128 53.26         8.4 0.18            123            207 293 
 NOR  HZ EP       2128 25.78                             118    0.23 8  234 235 
 NOR  HE ES       2128 53.84                             118    0.60 8  234 235 
 NOR  HZ I        2128 57.11         8.5 0.18            120            234 235 
 CHI  HZ EP       2128 28.38                             117    1.07 8  246 196 
 CHI  HN ES       2128 55.61                             117   -0.75 8  246 196 
 CHI  HZ I        2128 59.79         4.4 0.26            119            246 196 
 URE  HZ EP   4   2128 27.61                             113   -3.69 0  286 292 
                                                                                
