 2012 1223 2007 41.7 L   6.731 -73.213142.4  RSN  5 0.4 1.6LRSN                1
 GAP=164        1.13       7.7     7.7  9.0  0.2281E+02  0.6570E+01 -0.2079E+01E
 Epicentro: VILLANUEVA - SANTANDER                                             3
 ACTION:UPD 13-01-04 14:30 OP:ep   STATUS:               ID:20121223200741 L   I
 2012-12-23-2000-00M.COL___243                                                 6
 STAT SP IPHASW D HRMM SECON CODA AMPLIT PERI AZIMU VELO AIN AR TRES W  DIS CAZ7
 BAR2 SZ ES       20 8 15.04                             173   -0.6810 15.7 167 
 BAR2 SZ I        20 8 16.75        12.3 0.36                          15.7 167 
 GIR2 SZ EP       20 8  0.87                             164   -0.3610 38.5   3 
 BRR  HZ EP       20 8  2.69                             153    0.2810 69.1 307 
 BRR  HN ES       20 8 19.16                             153    0.6410 69.1 307 
 BRR  HN I        20 8 20.02        21.4 0.20                          69.1 307 
 RUS  HZ EP       20 8  4.71                             145    0.0310 93.8 171 
 RUS  HN ES       20 8 23.05                             145    0.4910 93.8 171 
 RUS  HN I        20 8 24.46         3.4 0.44                          93.8 171 
 PTB  HZ EP       20 8  7.59                             133   -0.06 9  139 261 
 PTB  HN ES       20 8 27.48                             133   -0.38 9  139 261 
 PTB  HZ I        20 8 29.81         3.6 0.32                           139 261 
                                                                                
