 2011 1123 2035 54.8 L   6.780 -73.077142.4  RSN  4 0.4 1.4LRSN                1
 GAP=146        0.72       5.1     7.5  7.9 -0.1118E+01 -0.4186E+01  0.1589E+01E
 Epicentro: LOS SANTOS - SANTANDER                                             3
 ACTION:UPD 12-07-13 16:11 OP:ep   STATUS:               ID:20111123203554 L   I
 2011-11-23-2032-08S.COL___178                                                 6
 STAT SP IPHASW D HRMM SECON CODA AMPLIT PERI AZIMU VELO AIN AR TRES W  DIS CAZ7
 BAR2 SZ EP   1   2036 13.60                             170   -0.39 7 23.8 209 
 BAR2 SZ ES   1   2036 28.41                             170   -0.58 7 23.8 209 
 BAR2 SZ I        2036 30.15        10.2 0.23                          23.8 209 
 PAM  SZ EP   1   2036 16.72                             151    0.28 7 74.6  34 
 PAM  SN ES   1   2036 33.42                             151    0.06 7 74.6  34 
 PAM  SZ I        2036 35.90         3.4 0.31                          74.6  34 
 BRR  HZ EP   1   2036 15.75                             149   -0.25 7 78.9 297 
 BRR  HN ES   1   2036 32.98                             149    0.41 7 78.9 297 
 RUS  HZ EP   1   2036 18.03                             144    0.04 7 98.1 180 
 RUS  HN ES   1   2036 36.56                             144    0.43 7 98.1 180 
 RUS  HZ I        2036 37.89         3.1 0.28                          98.1 180 
                                                                                
