 2011  523 2053 22.9 L   6.779 -73.118141.6  RSN  4 0.2 1.9LRSN                1
 GAP=141        0.57       3.6     5.4  5.5 -0.3634E+00 -0.1996E+01  0.7016E+00E
 Epicentro: LOS SANTOS - SANTANDER                                             3
 ACTION:UP  11-06-29 08:55 OP:tino STATUS:               ID:20110523205322 L   I
 2011-05-23-2051-51S.COL___139                                                 6
 STAT SP IPHASW D HRMM SECON CODA AMPLIT PERI AZIMU VELO SNR AR TRES W  DIS CAZ7
 BAR2 SZ EP       2053 41.83                             171    -0.110   22 199 
 BAR2 SZ ES   1   2053 56.60                             171    -0.2 7   22 199 
 BAR2 SZ I        2053 57.91        18.7 0.33                            22 199 
 BRR  HZ EP       2053 43.67                             151    -0.110   75 299 
 BRR  HZ I        2053 43.90        36.2 0.11                            75 299 
 BRR  HN ES   1   2054  0.31                             151     0.2 7   75 299 
 PAM  SZ EP       2053 44.86                             150     0.210   77  37 
 PAM  SN ES   1   2054  1.49                             150    -0.1 7   77  37 
 RUS  HZ EP       2053 45.91                             144    -0.110   98 178 
 RUS  HN ES   1   2054  4.42                             144     0.3 7   98 178 
 RUS  HZ I        2054  5.68         6.2 0.25                            98 178 
                                                                                
