 2014 1223 2105 27.3 L   6.790 -73.158144.9  RSN 20 0.5 2.5LRSN                1
 GAP= 54        1.15       2.8     2.9  5.0 -0.7952E+00  0.2708E+01  0.1144E+01E
 Epicentro: LOS SANTOS - SANTANDER                                             3
 ACTION:UPD 15-02-10 17:06 OP:nd   STATUS:               ID:20141223210527 L   I
 OLDACT:DUP 14-12-24 03:14 OP:fm   STATUS:               ID:20141223205745d    3
 2014-12-23-2057-44M.COL___295                                                 6
 STAT SP IPHASW D HRMM SECON CODA AMPLIT PERI AZIMU VELO AIN AR TRES W  DIS CAZ7
 BAR2 EZ EP       21 5 47.06                             171    0.3110 22.0 187 
 BAR2 EZ ES       21 6  2.17                             171    0.2110 22.0 187 
 BAR2 EZ I        21 6  3.51        62.5 0.26            171           22.0 187 
 BRR  HZ EP     D 21 5 48.85                             153    0.5810 70.5 300 
 BRR  HE ES       21 6  5.35                             153    0.6910 70.5 300 
 BRR  HZ I        21 6  9.89        45.2 0.18            145           70.5 300 
 PAM  SZ EP       21 5 49.91                             150    0.4310 79.1  40 
 PAM  SN ES       21 6  6.30                             150   -0.5210 79.1  40 
 PAM  SZ I        21 6  9.22        63.5 0.42            141           79.1  40 
 RUS  HZ EP       21 5 51.04                             144    0.1910 99.6 175 
 RUS  HN ES       21 6  9.03                             144   -0.2210 99.6 175 
 RUS  HZ I        21 6 10.92        45.1 0.36            138           99.6 175 
 PTB  HZ EP       21 5 54.17                             132    0.16 9  146 259 
 PTB  HN ES       21 6 14.19                             132   -0.69 9  146 259 
 PTB  HZ I        21 6 17.37        29.6 0.10            124            146 259 
 TAM  HZ EP     D 21 5 55.46                             130    0.50 9  156 104 
 TAM  HN ES       21 6 16.21                             130   -0.36 9  156 104 
 SPBC HZ EP       21 5 56.00                             129    0.47 9  161 219 
 SPBC HE ES       21 6 17.73                             129    0.16 9  161 219 
 SPBC HZ I        21 6 24.24        60.3 0.28            122            161 219 
 OCA  HZ EP       21 5 55.43                             129   -0.16 9  161 354 
 OCA  HE ES       21 6 17.38                             129   -0.30 9  161 354 
 OCA  HZ I        21 6 21.12        30.9 0.18            120            161 354 
 ZAR  HZ EP   1   21 5 59.61                             122    0.05 6  203 293 
 ZAR  HN ES       21 6 23.91                             122   -0.84 9  203 293 
 ZAR  HZ I        21 6 30.69        23.0 0.36            114            203 293 
 NOR  HZ EP       21 6  3.63                             118    0.88 8  233 234 
 NOR  HN ES       21 6 30.39                             118   -0.04 8  233 234 
 NOR  HZ I        21 6 38.92        25.8 0.20            111            233 234 
 SML  HZ EP       21 6  4.07                             117    0.19 8  244 336 
 SML  HE ES       21 6 32.37                             117   -0.08 8  244 336 
 SML  HZ I        21 6 35.41        47.5 0.10            109            244 336 
 CHI  HZ EP       21 6  5.32                             117    0.57 8  247 195 
 CHI  HN ES       21 6 32.91                             117   -1.09 8  247 195 
 CHI  HZ I        21 6 40.81        16.6 0.34            110            247 195 
 HEL  HZ EP       21 6  6.45                             115   -0.80 8  270 256 
 HEL  HN ES       21 6 38.19                             115   -0.25 8  270 256 
 HEL  HZ I        21 6 47.35        16.2 0.40            108            270 256 
 URE  HZ EP   4   21 6  6.53                             113   -1.66 0  283 292 
 URE  HE ES   4   21 6 37.43                             113   -2.68 0  283 292 
 URE  HZ I        21 6 51.51        22.3 0.20            106            283 292 
 PTGC HZ EP       21 6 10.24                             111   -0.78 7  308 158 
 PTGC HN ES   4   21 6 43.63                             111   -1.51 0  308 158 
 PTGC HZ I        21 6 48.54        27.5 0.26            105            308 158 
 CBOC HZ EP       21 6 13.74                             110   -0.21 7  332 252 
 CBOC HN ES       21 6 50.38                             110    0.02 7  332 252 
 DBB  SZ EP       21 6 15.06                             109    0.51 7  338 274 
 DBB  SZ ES   4   21 6 48.60                             109   -2.84 0  338 274 
 DBB  SZ I        21 6 54.70        29.5 0.70            103            338 274 
 TOL  SZ EP   4   21 6 16.84                             109    1.56 0  342 225 
 TOL  SE ES   4   21 6 55.34                             109    2.61 0  342 225 
 TOL  SZ I        21 7  1.58        29.3 0.46            103            342 225 
 SDV  BZ EP       21 6 16.64                             108   -0.83 6  362  50 
 SDV  BZ I        21 6 57.70         5.7 0.55            101            362  50 
 ORTC HZ EP       21 6 20.52                             106   -0.43 6  394 216 
 ORTC HN ES       21 7  3.26                             106    0.43 6  394 216 
 ORTC HZ I        21 7 11.00         7.8 0.32            100            394 216 
                                                                                
