 2015 1223 2317 21.3 L   6.805 -73.130148.8  RSN  7 0.4 1.7LRSN                1
 GAP=202        0.94       3.5     5.5  8.5  0.5988E+01 -0.6368E+01 -0.9637E+01E
 Epicentro: LOS SANTOS - SANTANDER                                             3
 ACTION:UPD 16-02-04 15:07 OP:cam  STATUS:               ID:20151223231721 L   I
 OLDACT:REG 15-12-24 04:02 OP:ar   STATUS:               ID:20151223230749     3
 2015-12-23-2307-49M.COL___337                                                 6
 STAT SP IPHASW D HRMM SECON CODA AMPLIT PERI AZIMU VELO AIN AR TRES W  DIS CAZ7
 RUS  HZ EP       2317 45.15                             144   -0.1910  101 177 
 RUS  HN ES       2318  4.27                             144    0.1510  101 177 
 RUS  HZ I        2318  6.74         2.4 0.42            135            101 177 
 PTB  HZ EP       2317 48.21                             132   -0.43 9  150 259 
 PTB  HN ES       2318  9.14                             132   -0.85 9  150 259 
 PTB  HZ I        2318 15.00         6.7 0.28            124            150 259 
 SPBC HZ EP       2317 50.21                             129    0.08 9  165 219 
 SPBC HE ES       2318 12.88                             129    0.22 9  165 219 
 SPBC HZ I        2318 19.27        11.0 0.36            121            165 219 
 ZAR  HZ EP       2317 54.12                             123    0.08 9  205 292 
 ZAR  HN ES       2318 20.18                             123    0.56 9  205 292 
 ZAR  HZ I        2318 25.82         5.2 0.52            116            205 292 
 NOR  HZ EP       2317 56.77                             119   -0.58 8  236 235 
 NOR  HE ES       2318 26.13                             119    0.63 8  236 235 
 NOR  HZ I        2318 30.81         4.0 0.18            112            236 235 
 SML  HZ EP       2317 58.32                             118    0.24 8  244 335 
 SML  HN ES       2318 26.88                             118    0.08 8  244 335 
 SML  HZ I        2318 30.97         9.2 0.10            112            244 335 
 CHI  HZ EP       2317 59.47                             118    0.24 8  250 196 
 CHI  HZ I        2318 26.33         1.3 0.70            110            250 196 
 CHI  HN ES       2318 28.94                             118    0.09 8  250 196 
                                                                                
