 2013  423 2151 57.6 L   6.721 -73.172143.8  RSN  6 0.4 1.7LRSN                1
 GAP=137        0.98       4.9     5.0  6.5 -0.2980E+01  0.4437E+01  0.2790E+01E
 Epicentro: VILLANUEVA - SANTANDER                                             3
 ACTION:UPD 13-05-22 14:40 OP:EP   STATUS:               ID:20130423215157 L   I
 2013-04-23-2148-48M.COL___217                                                 6
 STAT SP IPHASW D HRMM SECON CODA AMPLIT PERI AZIMU VELO AIN AR TRES W  DIS CAZ7
 BAR2 SZ ES       2152 31.83                             174   -0.0210 14.3 184 
 BAR2 SZ I        2152 32.87        12.3 0.20            175           14.3 184 
 GIR2 SZ EP       2152 17.29                             164   -0.0110 39.7 357 
 GIR2 SZ ES       2152 32.58                             164   -0.0810 39.7 357 
 GIR2 SZ I        2152 34.34         6.2 0.38            163           39.7 357 
 BRR  HZ EP       2152 19.01                             151    0.3510 73.4 306 
 BRR  HN ES       2152 35.84                             151    0.7510 73.4 306 
 BRR  HN I        2152 40.54        15.2 0.42            151           73.4 306 
 PAM  SZ EP       2152 20.13                             148   -0.0210 86.1  37 
 PAM  SZ I        2152 20.33         7.3 0.16            150           86.1  37 
 PAM  SN ES       2152 37.25                             148   -0.4910 86.1  37 
 RUS  HZ EP       2152 20.80                             146    0.2410 92.1 174 
 RUS  HN ES       2152 38.52                             146    0.0510 92.1 174 
 RUS  HN I        2152 39.60        11.5 0.28            149           92.1 174 
 PTB  HZ EP       2152 23.81                             132   -0.20 9  143 262 
 PTB  HN ES       2152 43.94                             132   -0.67 9  143 262 
 PTB  HN I        2152 45.48         9.6 0.22            133            143 262 
                                                                                
