 2016  823 2350 21.0 L   6.733 -73.194135.5  RSN  4 0.3 1.1LRSN                1
 GAP=133        0.84       4.3     4.1  7.5 -0.1814E+01  0.2676E+01  0.3892E+01E
 Epicentro: VILLANUEVA - SANTANDER                                             3
 ACTION:UPD 16-10-29 15:38 OP:rebc STATUS:               ID:20160823235021 L   I
 OLDACT:REG 16-08-24 03:52 OP:lv   STATUS:               ID:20160823234733     3
 2016-08-23-2348-00M.COL___374                                                 6
 STAT SP IPHASW D HRMM SECON CODA AMPLIT PERI AZIMU VELO AIN AR TRES W  DIS CAZ7
 BRR  HZ EP       2350 41.47                             151    0.4610 70.7 306 
 BRR  HN ES       2350 56.49                             151   -0.1310 70.7 306 
 PAM  EZ EP       2350 42.22                             146   -0.5110 86.5  39 
 PAM  EE ES       2350 59.89                             146    0.2110 86.5  39 
 PAM  EZ I        2351  1.64         2.3 0.24                          86.5  39 
 RUS  HZ EP       2350 43.06                             144   -0.1810 93.7 172 
 RUS  HN ES       2351  0.72                             144    0.1310 93.7 172 
 RUS  HZ I        2351  2.51         1.4 0.33                          93.7 172 
 PTB  HZ EP       2350 46.88                             131    0.34 9  141 261 
 PTB  HN ES       2351  6.16                             131   -0.30 9  141 261 
 PTB  HZ I        2351  9.21         2.2 0.08                           141 261 
                                                                                
