 2015  123 2221  7.0 L   6.373 -73.551112.0  RSN 11 0.4 1.9LRSN                1
 GAP= 80        0.85       2.4     2.5  4.9 -0.1351E+01  0.4687E+01 -0.1697E+01E
 Epicentro: SANTA HELENA DEL OPON - SANTANDER                                  3
 ACTION:UPD 15-03-02 15:41 OP:nd   STATUS:               ID:20150123222107 L   I
 OLDACT:UP  15-01-24 05:03 OP:mh   STATUS:               ID:20150123221747     3
 OLDACT:UP  15-01-24 05:02 OP:mh   STATUS:               ID:20150123221747     3
 OLDACT:REG 15-01-24 02:45 OP:mh   STATUS:               ID:20150123221747     3
 2015-01-23-2217-47M.COL___268                                                 6
 STAT SP IPHASW D HRMM SECON CODA AMPLIT PERI AZIMU VELO AIN AR TRES W  DIS CAZ7
 BAR2 EZ EP       2221 23.71                             156    0.1810 47.4  59 
 BAR2 EZ ES       2221 36.59                             156    0.1710 47.4  59 
 RUS  HZ EP       2221 25.41                             145   -0.1210 74.1 136 
 RUS  HN ES       2221 40.15                             145    0.1710 74.1 136 
 RUS  HZ I        2221 43.58        13.1 0.46            155           74.1 136 
 BRR  HZ EP       2221 25.56                             141    0.0510 83.1 348 
 BRR  HN ES       2221 40.32                             141    0.3810 83.1 348 
 BRR  HZ I        2221 46.41        14.0 0.42            144           83.1 348 
 SPBC HZ EP       2221 27.16                             136    0.2810 98.4 216 
 SPBC HN ES       2221 42.35                             136   -0.0310 98.4 216 
 SPBC HZ I        2221 48.12        23.2 0.10            142           98.4 216 
 PTB  HZ EP       2221 26.48                             134   -0.5910  102 280 
 PTB  HN ES       2221 42.35                             134   -0.3810  102 280 
 PTB  HZ I        2221 50.26         9.8 0.24            138            102 280 
 PAM  SZ EP       2221 31.18                             125   -0.36 9  142  41 
 PAM  SN ES   1   2221 49.98                             125   -0.69 7  142  41 
 PAM  SZ I        2221 54.68         5.8 0.16            131            142  41 
 NOR  HZ EP       2221 33.90                             119   -0.07 9  171 239 
 NOR  HN ES   1   2221 54.59                             119   -0.41 7  171 239 
 NOR  HZ I        2221 57.73        10.1 0.20            125            171 239 
 ZAR  HZ EP       2221 35.56                             116   -0.42 9  190 311 
 ZAR  HN ES       2221 58.72                             116    0.15 9  190 311 
 ZAR  HZ I        2222  5.82        19.8 0.26            121            190 311 
 HEL  HZ EP       2221 40.54                             112    0.81 8  220 265 
 HEL  HN ES       2222  5.53                             112    0.27 8  220 265 
 HEL  HZ I        2222  8.27         6.8 0.32            117            220 265 
 GUY2CHZ EP   1   2221 42.08                             110    0.18 6  238 238 
 GUY2CHN ES       2222  8.98                             110   -0.14 8  238 238 
 GUY2CHZ I        2222 16.59         5.9 0.74                           238 238 
 SML  HZ EP   1   2221 46.20                             107    0.63 6  275 348 
 SML  HN ES       2222 15.77                             107    0.12 8  275 348 
 SML  HZ I        2222 21.87        19.6 0.10            112            275 348 
                                                                                
