 2017  423 2206 29.4 L   6.838 -73.390106.6  RSN  9 0.4 1.8LRSN                1
 GAP=104        1.09       3.5     3.2  6.6  0.3882E+00  0.2914E+01  0.7750E+01E
 Epicentro: SAN VICENTE DE CHUCURI - SANTANDER                                 3
 ACTION:UPD 17-05-30 21:15 OP:jn   STATUS:               ID:20170423220629 L   I
 OLDACT:REG 17-04-24 03:05 OP:edw  STATUS:               ID:20170423215737     3
 2017-04-23-2158-00M.COL___371                                                 6
 STAT SP IPHASW D HRMM SECON CODA AMPLIT PERI AZIMU VELO AIN AR TRES W  DIS CAZ7
 BAR2 EZ IP       22 6 44.95                             160    0.1810 35.6 140 
 BAR2 EZ ES       22 6 57.38                             160    0.6210 35.6 140 
 BAR2 EZ I        22 6 58.44        47.5 0.44            160           35.6 140 
 BRR  HZ EP       22 6 45.01                             155    0.0910 46.4 310 
 BRR  HN ES       22 6 56.87                             155   -0.1610 46.4 310 
 BRR  HZ I        22 6 59.06        14.7 0.12            157           46.4 310 
 PAM  EZ EP       22 6 48.95                             136   -0.0510 94.3  54 
 PAM  EN ES       22 7  4.19                             136   -0.0910 94.3  54 
 PAM  EZ I        22 7  8.36         8.4 0.34            140           94.3  54 
 PTB  HZ EP       22 6 51.12                             127    0.1810  122 254 
 PTB  HN ES       22 7  7.15                             127   -0.6010  122 254 
 PTB  HZ I        22 7 11.16         7.8 0.42            128            122 254 
 SPBC HZ EP   4   22 6 55.46                             121    1.48 0  151 210 
 SPBC HN ES       22 7 12.32                             121   -0.83 9  151 210 
 SPBC HZ I        22 7 20.62        10.0 0.12            122            151 210 
 ZAR  HZ EP       22 6 56.36                             116   -0.33 9  178 294 
 ZAR  HN ES       22 7 18.42                             116    0.45 9  178 294 
 ZAR  HZ I        22 7 22.24         7.3 0.40            118            178 294 
 YPLC HZ EP       22 6 58.19                             114   -0.49 9  195 145 
 YPLC HN ES       22 7 21.14                             114   -0.37 9  195 145 
 YPLC HZ I        22 7 24.01         6.1 0.32            115            195 145 
 NOR  HN ES       22 7 26.10                             111    0.35 8  216 229 
 NOR  HZ I        22 7 28.98         6.5 0.26            112            216 229 
 CHI  HZ EP       22 7  5.67                             108    0.57 8  247 189 
 CHI  HN ES       22 7 33.68                             108    0.74 8  247 189 
 CHI  HZ I        22 7 38.81         3.4 0.36            109            247 189 
                                                                                
