 2016  223 2337 26.9 L   6.507 -73.207144.7  RSN 13 0.4 2.1LRSN                1
 GAP=137        0.95       2.7     3.2  5.1 -0.1692E+01  0.5470E+01  0.7072E+00E
 Epicentro: PINCHOTE - SANTANDER                                               3
 ACTION:UPD 16-03-04 21:28 OP:rebc STATUS:               ID:20160223233726 L   I
 OLDACT:REG 16-02-24 04:03 OP:ak   STATUS:               ID:20160223232749     3
 2016-02-23-2327-49M.COL___334                                                 6
 STAT SP IPHASW D HRMM SECON CODA AMPLIT PERI AZIMU VELO AIN AR TRES W  DIS CAZ7
 BAR2 EZ EP       2337 46.09                             176   -0.1710 9.80  16 
 BAR2 EZ ES       2338  1.54                             176    0.2210 9.80  16 
 BAR2 EZ I        2338  2.44        29.2 0.32            173           9.80  16 
 RUS  HZ EP       2337 48.44                             153   -0.1610 69.3 169 
 RUS  HN ES       2338  5.22                             153   -0.2610 69.3 169 
 RUS  HZ I        2338  7.22        14.6 0.28            152           69.3 169 
 BRR  HZ IP     D 2337 49.31                             147    0.3710 86.7 320 
 BRR  HN ES       2338  6.97                             147    0.8810 86.7 320 
 BRR  HZ I        2338  9.05        17.2 0.16            142           86.7 320 
 PAM  EZ EP       2337 51.02                             142   -0.1110  108  31 
 PAM  EN ES       2338 10.05                             142    0.0610  108  31 
 PAM  EZ I        2338 13.10         9.7 0.60            137            108  31 
 SPBC HZ EP   2   2337 53.09                             135    0.33 5  135 225 
 SPBC HN ES       2338 12.96                             135    0.0610  135 225 
 PTB  HZ EP       2337 52.80                             134   -0.18 9  138 272 
 PTB  HN ES       2338 12.61                             134   -0.67 9  138 272 
 PTB  HZ I        2338 15.77        12.7 0.18            129            138 272 
 OCA  HZ EP   2   2337 58.03                             124   -0.25 4  192 356 
 OCA  HN ES       2338 22.39                             124   -0.32 9  192 356 
 OCA  HZ I        2338 23.84        33.5 0.24            119            192 356 
 ZAR  HZ EP       2338  0.40                             121    0.20 8  212 301 
 ZAR  HN ES       2338 25.21                             121   -0.93 8  212 301 
 ZAR  HZ I        2338 32.50        22.4 0.32            116            212 301 
 NOR  HZ EP       2338  0.87                             121    0.71 8  212 241 
 NOR  HN ES       2338 25.90                             121   -0.17 8  212 241 
 NOR  HZ I        2338 30.80        11.6 0.38            117            212 241 
 CHI  HZ EP       2338  0.67                             121   -0.39 8  216 196 
 CHI  HN ES       2338 27.49                             121   -0.17 8  216 196 
 CHI  HZ I        2338 32.06         4.9 0.28            117            216 196 
 HEL  HZ EP   2   2338  6.17                             116    0.48 4  259 262 
 HEL  HN ES       2338 36.18                             116    0.27 8  259 262 
 GUY2CHZ EP       2338  8.45                             114    0.56 7  278 239 
 GUY2CHN ES       2338 40.09                             114    0.26 7  278 239 
 GUY2CHZ I        2338 50.90         7.3 0.42                           278 239 
 SOCV BZ EP   4   2338  9.98                             110   -2.73 0  326  53 
 SOCV BN ES   4   2338 44.08                             110   -4.32 0  326  53 
 DBB  SZ EP   2   2338 13.70                             109   -0.36 3  337 280 
 DBB  SZ ES       2338 50.75                             109   -0.06 7  337 280 
 SJC  HZ EP   4   2338 22.68                             104   -2.63 0  433 330 
 SJC  HN ES   4   2339  6.44                             104   -4.40 0  433 330 
                                                                                
