 2017  723 2214 40.6 L   6.745 -73.194143.7  RSN  5 0.3 1.3LRSN                1
 GAP=228        0.75       6.0     5.9  6.2  0.2027E+02  0.8153E+01  0.3775E+01E
 Epicentro: VILLANUEVA - SANTANDER                                             3
 ACTION:UPD 17-08-30 15:36 OP:rebc STATUS:               ID:20170723221440 L   I
 OLDACT:DUP 17-07-24 04:47 OP:edw  STATUS:               ID:20170723220739d    3
 2017-07-23-2208-00M.COL___395                                                 6
 STAT SP IPHASW D HRMM SECON CODA AMPLIT PERI AZIMU VELO AIN AR TRES W  DIS CAZ7
 BAR2 EZ ES       2215 14.48                             173   -0.4210 16.9 176 
 BAR2 EZ I        2215 15.52         6.6 0.30            172           16.9 176 
 BRR  HZ EP       2215  1.56                             153    0.1110 69.9 305 
 BRR  HN ES       2215 17.89                             153    0.1710 69.9 305 
 RUS  HZ EP       2215  3.71                             145   -0.0510 95.1 173 
 RUS  HN ES       2215 22.22                             145    0.4110 95.1 173 
 RUS  HZ I        2215 23.09         2.7 0.28            145           95.1 173 
 PTB  HZ EP       2215  6.61                             133   -0.22 9  141 261 
 PTB  HN ES       2215 27.09                             133   -0.20 9  141 261 
 ZAR  HN ES   2   2215 38.51                             122    0.85 4  202 294 
                                                                                
