 2012  223 2253  2.9 L   6.887 -73.164148.7  RSN  5 0.5 1.4LRSN                1
 GAP=130        0.94       7.2     6.6 10.8 -0.7310E+01  0.4218E+01  0.1158E+02E
 ACTION:UP  12-03-07 16:33 OP:epov STATUS:               ID:20120223225302 L   I
 2012-02-23-2250-00M.COL___192                                                 6
 STAT SP IPHASW D HRMM SECON CODA AMPLIT PERI AZIMU VELO AIN AR TRES W  DIS CAZ7
 GIR2 SZ EP   1   2253 22.75                             171    0.06 7 21.5 351 
 BRR  HZ EP   1   2253 24.32                             155    0.28 7 65.2 292 
 BRR  HN ES   1   2253 41.38                             155    0.85 7 65.2 292 
 BRR  HZ I        2253 44.39        14.9 0.30                          65.2 292 
 PAM  SZ EP   1   2253 24.98                             153   -0.11 7 71.7  46 
 PAM  SE ES   1   2253 41.87                             153   -0.54 7 71.7  46 
 RUS  HZ EP   1   2253 28.17                             142    0.52 7  110 175 
 RUS  HZ I        2253 42.96         1.2 0.28                           110 175 
 RUS  HN ES   1   2253 46.86                             142   -0.09 7  110 175 
 PTB  HZ EP   1   2253 29.75                             133   -0.37 7  148 255 
 PTB  HN ES   1   2253 50.63                             133   -0.72 7  148 255 
                                                                                
