 2013  723 2342  0.3 L   6.777 -73.130146.4  RSN  8 0.5 1.9LRSN                1
 GAP=189        1.18       5.7     6.5  6.9 -0.7683E+00  0.1096E+02  0.1194E+01E
 Epicentro: LOS SANTOS - SANTANDER                                             3
 ACTION:UPD 13-08-12 10:39 OP:ep   STATUS:               ID:20130723234200 L   I
 OLDACT:UPD 13-08-08 11:48 OP:ep   STATUS:               ID:20130723234200 L   3
 OLDACT:REG 13-07-24 00:49 OP:nd   STATUS:               ID:20130723233959     3
 2013-07-23-2339-59M.COL___266                                                 6
 STAT SP IPHASW D HRMM SECON CODA AMPLIT PERI AZIMU VELO AIN AR TRES W  DIS CAZ7
 BAR2 SZ EP       2342 19.44                             171   -0.5110 21.2 196 
 BAR2 SZ ES       2342 35.42                             171    0.1310 21.2 196 
 BAR2 SZ I        2342 37.81        13.5 0.28            166           21.2 196 
 GIR2 SZ EP       2342 20.04                             166   -0.0710 34.1 348 
 GIR2 SZ ES       2342 34.95                             166   -0.6210 34.1 348 
 GIR2 SZ I        2342 37.36         8.6 0.26            164           34.1 348 
 BRR  HZ EP       2342 22.19                             152    0.5410 73.9 300 
 BRR  HN ES       2342 39.17                             152    0.8510 73.9 300 
 BRR  HZ I        2342 43.69        16.5 0.28            147           73.9 300 
 RUS  HZ EP       2342 24.30                             145    0.4010 97.9 177 
 RUS  HN ES       2342 42.37                             145    0.0410 97.9 177 
 RUS  HZ I        2342 45.58         6.1 0.34            145           97.9 177 
 PTB  HZ EP       2342 26.81                             132   -0.59 9  149 260 
 PTB  HN ES       2342 47.99                             132   -0.58 9  149 260 
 PTB  HZ I        2342 55.49        12.6 0.48            129            149 260 
 NOR  HZ EP       2342 36.17                             119    0.14 8  235 235 
 NOR  HN ES       2343  4.15                             119    0.22 8  235 235 
 NOR  HZ I        2343 13.39        23.6 0.10            118            235 235 
 SML  HZ EP       2342 37.30                             117    0.04 8  247 335 
 SML  HN ES   4   2343  4.82                             117   -1.30 0  247 335 
 SML  HZ I        2343  8.64        16.1 0.10            113            247 335 
 SJC  HZ EP   4   2342 54.14                             106   -2.08 0  412 327 
 SJC  HZ I        2343 10.89         1.4 0.40            103            412 327 
 SJC  HN ES   4   2343 34.97                             106   -4.88 0  412 327 
                                                                                
