 2014 1023 2218 27.2 L   6.791 -73.164147.4  RSN  6 0.4 1.6LRSN                1
 GAP=135        1.07       4.6     5.4  7.7  0.8548E+00  0.6798E+01 -0.3300E+01E
 Epicentro: LOS SANTOS - SANTANDER                                             3
 ACTION:UPD 14-11-29 23:55 OP:nd   STATUS:               ID:20141023221827 L   I
 OLDACT:UP  14-10-27 13:09 OP:cam  STATUS:               ID:20141023220746     3
 OLDACT:UP  14-10-27 13:09 OP:cam  STATUS:               ID:20141023220746     3
 OLDACT:REG 14-10-27 10:40 OP:fm   STATUS:               ID:20141023220746     3
 2014-10-23-2207-46M.COL___286                                                 6
 STAT SP IPHASW D HRMM SECON CODA AMPLIT PERI AZIMU VELO AIN AR TRES W  DIS CAZ7
 BAR2 SZ EP       2218 47.25                             171    0.2110 22.0 185 
 BAR2 SZ ES       2219  2.17                             171   -0.3210 22.0 185 
 BAR2 SZ I        2219  3.64         6.4 0.16            171           22.0 185 
 BRR  HZ EP       2218 48.88                             153    0.3810 70.0 300 
 BRR  HN ES       2219  5.77                             153    0.6910 70.0 300 
 BRR  HN I        2219  6.61        16.7 0.28            154           70.0 300 
 PAM  SZ EP     D 2218 50.19                             150    0.4310 79.5  40 
 PAM  SN ES       2219  7.17                             150   -0.1410 79.5  40 
 PAM  SZ I        2219  9.12        10.0 0.48            152           79.5  40 
 RUS  HZ EP       2218 50.92                             144   -0.1710 99.7 175 
 RUS  HN ES       2219  9.39                             144   -0.3010 99.7 175 
 RUS  HZ I        2219 11.64         5.6 0.30            146           99.7 175 
 PTB  HZ EP       2218 54.14                             133   -0.01 9  146 259 
 PTB  HN ES       2219 14.97                             133   -0.16 9  146 259 
 PTB  HZ I        2219 17.60         4.2 0.54            134            146 259 
 SML  HN ES       2219 31.63                             118   -0.99 8  244 336 
                                                                                
