 2012 1123 2333 44.6 L   6.789 -73.161136.0  RSN  4 0.1 1.4LRSN                1
 GAP=135        0.34       2.0     2.0  3.8 -0.1191E+01  0.2387E+01 -0.1416E+00E
 Epicentro: LOS SANTOS - SANTANDER                                             3
 ACTION:UPD 12-12-05 15:35 OP:}ep  STATUS:               ID:20121123233344 L   I
 2012-11-23-2330-00M.COL___233                                                 6
 STAT SP IPHASW D HRMM SECON CODA AMPLIT PERI AZIMU VELO AIN AR TRES W  DIS CAZ7
 GIR2 SZ ES   3   2334 17.29                             166   -0.27 2 32.3 354 
 GIR2 SZ I        2334 18.70         4.8 0.40                          32.3 354 
 PAM  SZ EP       2334  5.73                             148   -0.1410 79.4  40 
 PAM  SN ES       2334 22.59                             148    0.0910 79.4  40 
 PAM  SN I        2334 23.70         7.0 0.28                          79.4  40 
 RUS  HZ EP       2334  7.30                             142    0.0310 99.5 175 
 RUS  HN ES       2334 24.98                             142   -0.0210 99.5 175 
 RUS  HN I        2334 26.33         3.0 0.20                          99.5 175 
 PTB  HZ EP       2334 10.68                             130    0.12 9  146 259 
 PTB  HE ES       2334 30.79                             130   -0.06 9  146 259 
 PTB  HN I        2334 33.48         4.0 0.22                           146 259 
                                                                                
