 2017  523 2336 39.4 L   6.759 -73.195147.2  RSN  4 0.1 0.9LRSN                1
 GAP=229        0.45       3.7     3.7  4.6  0.9278E+01 -0.2538E+00 -0.9893E+00E
 Epicentro: VILLANUEVA - SANTANDER                                             3
 ACTION:UPD 17-06-16 13:38 OP:jn   STATUS:               ID:20170523233639 L   I
 OLDACT:UP  17-05-24 05:58 OP:edw  STATUS:               ID:20170523231548     3
 OLDACT:REG 17-05-24 03:36 OP:edw  STATUS:               ID:20170523231548     3
 2017-05-23-2328-00M.COL___340                                                 6
 STAT SP IPHASW D HRMM SECON CODA AMPLIT PERI AZIMU VELO AIN AR TRES W  DIS CAZ7
 BRR  HZ EP       2337  0.49                             153   -0.0610 68.9 304 
 BRR  HN ES       2337 17.09                             153    0.0310 68.9 304 
 RUS  HZ EP       2337  3.24                             145    0.2610 96.6 173 
 RUS  HN ES       2337 21.26                             145   -0.1410 96.6 173 
 RUS  HZ I        2337 22.50         1.1 0.42            144           96.6 173 
 PTB  HZ EP       2337  5.69                             134   -0.22 9  142 260 
 PTB  HN ES       2337 26.72                             134    0.11 9  142 260 
 PTB  HZ I        2337 28.58         1.3 0.70            133            142 260 
 ZAR  HE ES       2337 36.72                             123    0.02 9  201 294 
                                                                                
