 2017  723 2055 39.7 L   6.802 -73.145142.9  RSN 15 0.5 2.0LRSN                1
 GAP=112        0.99       3.2     3.0  5.1  0.8037E+00  0.4960E+01  0.3922E+01E
 Epicentro: LOS SANTOS - SANTANDER                                             3
 ACTION:UPD 17-08-30 15:35 OP:rebc STATUS:               ID:20170723205539 L   I
 OLDACT:UP  17-07-24 04:16 OP:dhb  STATUS:               ID:20170723204743     3
 OLDACT:REG 17-07-24 03:30 OP:edw  STATUS:               ID:20170723204743     3
 2017-07-23-2048-00M.COL___395                                                 6
 STAT SP IPHASW D HRMM SECON CODA AMPLIT PERI AZIMU VELO AIN AR TRES W  DIS CAZ7
 BAR2 EZ IP     D 2055 58.85                             170   -0.1810 23.6 190 
 BAR2 EZ ES       2056 13.45                             170   -0.6210 23.6 190 
 BAR2 EZ I        2056 16.79        27.2 0.32            169           23.6 190 
 BRR  HZ IP     C 2056  0.93                             152    0.3510 71.1 298 
 BRR  HN ES       2056 17.41                             152    0.5810 71.1 298 
 BRR  HZ I        2056 22.51        13.8 0.14            146           71.1 298 
 PAM  EZ IP     D 2056  1.73                             150    0.0910 77.2  40 
 PAM  EE ES       2056 19.11                             150    0.3910 77.2  40 
 PAM  EZ I        2056 21.00        12.2 0.20            150           77.2  40 
 RUS  HZ EP       2056  2.90                             143   -0.3310  101 176 
 RUS  HN ES       2056 21.44                             143   -0.1010  101 176 
 RUS  HZ I        2056 22.88        15.5 0.38            143            101 176 
 PTB  HZ IP     C 2056  5.79                             131   -0.70 9  148 259 
 PTB  HN ES       2056 27.00                             131   -0.35 9  148 259 
 PTB  HZ I        2056 32.70        10.8 0.18            128            148 259 
 SPBC HZ EP       2056  7.79                             128   -0.25 9  163 219 
 SPBC HN ES       2056 30.40                             128    0.28 9  163 219 
 SPBC HZ I        2056 35.70        24.6 0.12            126            163 219 
 YPLC HZ IP     D 2056  9.07                             126   -0.28 9  177 151 
 YPLC HN ES       2056 32.67                             126    0.23 9  177 151 
 YPLC HZ I        2056 33.83         8.1 0.30            126            177 151 
 ZAR  HZ EP       2056 11.49                             122   -0.51 9  204 292 
 ZAR  HE ES       2056 37.03                             122   -0.13 9  204 292 
 ZAR  HZ I        2056 43.21        12.7 0.28            118            204 292 
 TABC EZ EP       2056 16.09                             119    0.74 8  230 211 
 TABC EZ ES       2056 43.36                             119    0.24 8  230 211 
 TABC EZ I        2056 48.04         9.0 0.36            117            230 211 
 NOR  HZ IP     C 2056 14.98                             118   -0.35 8  235 234 
 NOR  HN ES       2056 43.11                             118    0.03 8  235 234 
 NOR  HZ I        2056 46.53        12.1 0.30            116            235 234 
 HEL  HZ EP   3   2056 20.80                             114    0.97 2  272 256 
 HEL  HN ES       2056 51.45                             114    0.36 8  272 256 
 HEL  HZ I        2056 57.53         5.9 0.32            112            272 256 
 GUY2CHZ EP       2056 23.86                             112    0.62 7  301 235 
 GUY2CHE ES   4   2056 59.58                             112    2.41 0  301 235 
 GUY2CHZ I        2057  5.72         8.8 0.25                           301 235 
 CBOC HZ EP   3   2056 27.16                             109    0.60 2  334 252 
 CBOC HN ES       2057  2.20                             109   -0.87 7  334 252 
 CBOC HZ I        2057 11.30         2.0 0.40            107            334 252 
 DBB  EZ EP   3   2056 25.36                             109   -1.75 2  340 274 
 DBB  EZ I        2057  4.65         3.3 0.14            107            340 274 
 DBB  EN ES       2057  4.67                             109    0.61 7  340 274 
 ORTC HZ IP     C 2056 34.01                             106    0.42 6  396 216 
 ORTC HN ES       2057 16.24                             106    0.65 6  396 216 
 ORTC HZ I        2057 23.61         3.8 0.17            104            396 216 
                                                                                
