 2013  423 2103 15.5 L   6.853 -73.168140.8  RSN 21 0.5 3.4LRSN 3.9WRSN        1
 SPEC AVERAGE  MO 14.9 ST211.2 OM  3.2 f0 5.47 R0.4147 AL 2.49 WI 33.7 MW  3.9 3
 SPEC SD       MO  0.2 ST323.9 OM  0.4 f0 2.19 R0.2461 AL      WI      MW  0.1 3
 GAP= 56        1.19       2.5     3.0  5.5 -0.1344E+01  0.5564E+01  0.3454E+00E
 Epicentro: LOS SANTOS - SANTANDER                                             3
 SPEC GUY HH N MO 14.7 ST  2.2 OM  2.5 f0 1.82 R1.0000 AL 2.04 WI 46.1 MW  3.7 3
 SPEC GUY HH N T21 432 K 0.050 GD  335 VS 5.20 DE 3.20 Q0750.0 QA 1.50 VS 5.20 3
 SPEC SML HH E MO 15.2 ST999.9 OM  3.1 f0 9.86 R0.1846 AL 3.48 WI 30.9 MW  4.1 3
 SPEC SML HH E T21 418 K 0.050 GD  275 VS 5.20 DE 3.20 Q0750.0 QA 1.50 VS 5.20 3
 SPEC NOR HH N MO 14.8 ST 94.8 OM  2.7 f0 5.85 R0.3111 AL 2.64 WI 52.9 MW  3.8 3
 SPEC NOR HH N T21 417 K 0.050 GD  274 VS 5.20 DE 3.20 Q0750.0 QA 1.50 VS 5.20 3
 SPEC ZAR HH N MO 14.9 ST103.6 OM  2.8 f0 5.80 R0.3138 AL 2.03 WI 28.5 MW  3.9 3
 SPEC ZAR HH N T21 410 K 0.050 GD  244 VS 5.20 DE 3.20 Q0750.0 QA 1.50 VS 5.20 3
 SPEC OCA HH N MO 15.1 ST113.6 OM  3.1 f0 5.01 R0.3633 AL 2.00 WI 33.0 MW  4.0 3
 SPEC OCA HH N T21 4 4 K 0.050 GD  208 VS 5.20 DE 3.20 Q0750.0 QA 1.50 VS 5.20 3
 SPEC PAM SH Z MO 15.0 ST100.4 OM  2.5 f0 5.04 R0.3611 AL 2.10 WI 16.5 MW  4.0 3
 SPEC PAM SH Z T21 337 K 0.050 GD  159 VP 8.60 DE 3.20 Q0750.0 QA 1.50 VS 5.20 3
 SPEC BRR HH N MO 14.9 ST 64.1 OM  3.0 f0 4.93 R0.3692 AL 3.17 WI 27.7 MW  3.9 3
 SPEC BRR HH N T21 353 K 0.050 GD  155 VS 5.20 DE 3.20 Q0750.0 QA 1.50 VS 5.20 3
 ACTION:UPD 13-05-22 14:40 OP:EP   STATUS:               ID:20130423210315 L   I
 2013-04-23-2058-48M.COL___218                                                 6
 STAT SP IPHASW D HRMM SECON CODA AMPLIT PERI AZIMU VELO AIN AR TRES W  DIS CAZ7
 GIR2 SZ IP       21 3 34.78                             169    0.4110 25.1 354 
 GIR2 SZ ES       21 3 48.73                             169   -0.4010 25.1 354 
 BAR2 SZ EP       21 3 34.67                             168    0.0610 28.9 183 
 BAR2 SZ I        21 3 51.08       237.9 0.20            164           28.9 183 
 BRR  HZ IP     C 21 3 36.52                             153    0.7410 66.3 295 
 BRR  HN ES   4   21 3 53.20                             153    1.56 0 66.3 295 
 BRR  HN I        21 3 53.86       990.8 0.28            144           66.3 295 
 PAM  SZ IP     C 21 3 37.44                             151    0.4710 74.6  44 
 PAM  SZ I        21 3 37.84       700.2 0.18            151           74.6  44 
 PAM  SN ES       21 3 54.37                             151    0.6210 74.6  44 
 RUS  HZ EP       21 3 38.89                             141   -0.2810  107 175 
 RUS  HE ES       21 3 56.69                             141   -0.9810  107 175 
 RUS  HE I        21 3 58.69       213.4 0.54            138            107 175 
 CAPV BZ IP     C 21 3 42.63                             131    0.47 9  146  40 
 CAPV BZ ES       21 4  2.99                             131   -0.01 9  146  40 
 PTB  HZ EP       21 3 41.50                             131   -0.40 9  147 256 
 PTB  HN ES       21 4  2.36                             131   -0.18 9  147 256 
 PTB  HE I        21 4  7.92       339.3 0.28            124            147 256 
 OCA  HZ EP       21 3 42.61                             130   -0.18 9  154 354 
 OCA  HN ES       21 4  4.15                             130    0.03 9  154 354 
 TAM  HZ EP       21 3 43.03                             129   -0.09 9  159 107 
 TAM  HN ES       21 4  4.76                             129    0.06 9  159 107 
 YOP  SZ EP       21 3 45.69                             124   -0.09 9  185 153 
 YOP  SN ES       21 4  9.20                             124   -0.24 9  185 153 
 ZAR  HZ EP       21 3 47.18                             122    0.07 9  200 291 
 ZAR  HN I        21 4 21.31       564.1 0.14            116            200 291 
 NOR  HZ EP       21 3 51.15                             117    0.10 8  236 233 
 NOR  HN ES       21 4 18.35                             117   -0.47 8  236 233 
 NOR  HN I        21 4 27.01       407.0 0.16            112            236 233 
 SML  HZ EP       21 3 50.66                             117   -0.44 8  237 335 
 SML  HN ES       21 4 18.55                             117   -0.36 8  237 335 
 SML  HE I        21 4 23.18       490.2 0.10            112            237 335 
 ROSC BZ EP       21 3 54.95                             115    1.23 8  257 210 
 ROSC BE ES       21 4 24.06                             115    0.49 8  257 210 
 ROSC BZ I        21 4 30.80       128.7 0.40            111            257 210 
 HEL  HZ EP       21 3 55.68                             114    0.37 8  271 254 
 HEL  HN ES       21 4 26.88                             114    0.48 8  271 254 
 HEL  HN I        21 4 33.96        66.1 0.54            109            271 254 
 URE  HZ EP       21 3 54.71                             113   -1.07 7  279 291 
 GUY  HZ EP       21 3 59.89                             111    0.64 7  305 234 
 GUY  HE ES       21 4 34.22                             111    0.80 7  305 234 
 GUY  HN I        21 4 41.25        94.9 0.40            107            305 234 
 DBB  SZ IP     D 21 4  2.41                             109    0.02 7  337 273 
 DBB  SZ I        21 4 42.36        47.6 0.50            104            337 273 
 COD  HZ IP     C 21 4  1.96                             108   -0.96 7  342 355 
 COD  HN ES       21 4 40.09                             108    0.14 7  342 355 
 COD  HN I        21 4 45.57        34.9 0.54            105            342 355 
 SDV  BZ IP     C 21 4  4.25                             107   -0.84 6  359  51 
 PRA  HZ EP       21 4  8.77                             105   -0.49 6  396 209 
 PRA  HN ES       21 4 50.52                             105   -0.72 6  396 209 
 PRA  HE I        21 4 57.00        91.3 0.40            102            396 209 
                                                                                
