 2017 1123 2010 48.6 L   7.047 -73.681 89.2  RSN  9 0.4 1.6LRSN                1
 GAP=143        0.89       3.0     2.6  7.0 -0.6701E+00  0.6624E+01  0.5015E+00E
 Epicentro: BARRANCABERMEJA - SANTANDER                                        3
 ACTION:UPD 17-12-12 19:59 OP:rebc STATUS:               ID:20171123201048 L   I
 OLDACT:UP  17-11-24 03:59 OP:lv   STATUS:               ID:20171123200741     3
 OLDACT:REG 17-11-24 03:10 OP:lv   STATUS:               ID:20171123200741     3
 2017-11-23-2008-00M.COL___494                                                 6
 STAT SP IPHASW D HRMM SECON CODA AMPLIT PERI AZIMU VELO AIN AR TRES W  DIS CAZ7
 BAR2 EZ EP       2011  4.65                             137    0.0410 74.6 132 
 BAR2 EZ ES       2011 17.68                             137    0.5710 74.6 132 
 BAR2 EZ I        2011 19.09        18.2 0.28            140           74.6 132 
 PTB  HZ EP   9   2011  5.65                             127   -1.21 0  102 237 
 PTB  HN ES       2011 19.82                             130   -0.0910  102 237 
 PTB  HZ I        2011 22.84         5.8 0.24            131            102 237 
 PAM  EZ EP       2011  7.97                             125   -0.5910  113  73 
 PAM  EN ES       2011 24.12                             125   -0.0310  113  73 
 PAM  EZ I        2011 28.21        12.4 0.28            128            113  73 
 ZAR  HZ EP       2011 10.81                             118    0.15 9  139 291 
 ZAR  HE ES       2011 27.84                             118   -0.05 9  139 291 
 RUS  HZ EP       2011 11.61                             118   -0.20 9  144 153 
 RUS  HN ES       2011 29.89                             118   -0.04 9  144 153 
 RUS  HZ I        2011 31.09         3.1 0.24            121            144 153 
 SPBC HE ES       2011 31.61                             114   -0.66 9  160 196 
 NOR  HZ EP       2011 18.97                             108    0.14 8  210 219 
 NOR  HN ES       2011 42.29                             108   -0.15 8  210 219 
 NOR  HZ I        2011 46.43         6.3 0.20            111            210 219 
 CHI  HZ EP       2011 26.60                             104    0.53 8  267 181 
 GUY2CHZ EP       2011 27.72                             104    0.72 8  274 223 
 GUY2CHN ES       2011 56.89                             104   -0.08 8  274 223 
 GUY2CHZ I        2012  3.47         3.0 0.28                           274 223 
                                                                                
