 2017  723 2317 19.2 L   6.705 -73.218141.7  RSN  5 0.4 1.3LRSN                1
 GAP=213        1.07       8.0     7.9  7.9  0.4010E+02  0.1576E+02  0.5545E+00E
 Epicentro: VILLANUEVA - SANTANDER                                             3
 ACTION:UPD 17-08-30 15:36 OP:rebc STATUS:               ID:20170723231719 L   I
 OLDACT:UP  17-07-24 05:06 OP:edw  STATUS:               ID:20170723230747     3
 OLDACT:REG 17-07-24 03:42 OP:edw  STATUS:               ID:20170723230747     3
 2017-07-23-2308-00M.COL___389                                                 6
 STAT SP IPHASW D HRMM SECON CODA AMPLIT PERI AZIMU VELO AIN AR TRES W  DIS CAZ7
 BAR2 EZ ES       2317 52.57                             174   -0.4410 13.1 162 
 BAR2 EZ I        2317 53.79         7.7 0.24            174           13.1 162 
 BRR  HZ EP       2317 39.30                             152   -0.6010 70.4 309 
 BRR  HN ES       2317 56.53                             152    0.5110 70.4 309 
 RUS  HZ EP       2317 42.11                             146    0.1910 91.1 171 
 RUS  HN ES       2317 59.97                             146    0.3610 91.1 171 
 RUS  HZ I        2318  1.92         2.4 0.22            146           91.1 171 
 PTB  HZ EP       2317 44.62                             133   -0.39 9  138 262 
 PTB  HN ES       2318  4.85                             133   -0.25 9  138 262 
 PTB  HZ I        2318  6.45         1.2 0.40            132            138 262 
 ZAR  HZ EP       2317 51.67                             122    0.57 9  201 296 
 ZAR  HE ES       2318 16.12                             122    0.17 9  201 296 
 ZAR  HZ I        2318 21.89         2.8 0.26            122            201 296 
                                                                                
