 2013  823 2338 24.3 L   6.767 -73.162147.7  RSN  7 0.5 1.7LRSN                1
 GAP=136        1.36       6.7     6.1  9.5  0.3437E+01  0.1188E+02  0.5129E+01E
 Epicentro: LOS SANTOS - SANTANDER                                             3
 ACTION:UPD 14-01-14 09:06 OP:ep   STATUS:               ID:20130823233824 L   I
 OLDACT:REG 13-08-23 21:47 OP:jn   STATUS:               ID:20130823232959     3
 2013-08-23-2329-59M.COL___270                                                 6
 STAT SP IPHASW D HRMM SECON CODA AMPLIT PERI AZIMU VELO AIN AR TRES W  DIS CAZ7
 BAR2 SZ EP       2338 44.24                             172    0.1810 19.5 187 
 BAR2 SZ ES       2338 59.55                             172    0.0610 19.5 187 
 BAR2 SZ I        2339  0.98         9.6 0.28            172           19.5 187 
 BRR  HZ IP     C 2338 46.08                             153    0.4510 71.4 302 
 BRR  HN ES       2339  3.41                             153    1.1110 71.4 302 
 BRR  HZ I        2339  5.82        10.2 0.62            152           71.4 302 
 PAM  SZ EP       2338 47.03                             150    0.1110 81.4  39 
 PAM  SN ES       2339  3.72                             150   -0.8810 81.4  39 
 PAM  SZ I        2339  6.39         6.2 0.48            153           81.4  39 
 RUS  HZ EP       2338 48.24                             145    0.2810 97.1 175 
 RUS  HN ES       2339  6.31                             145   -0.1310 97.1 175 
 RUS  HZ I        2339  9.67         6.7 0.42            148           97.1 175 
 PTB  HZ EP       2338 50.73                             133   -0.44 9  145 260 
 PTB  HN ES       2339 11.37                             133   -0.78 9  145 260 
 PTB  HZ I        2339 14.25         9.6 0.16            134            145 260 
 SPBC HZ EP   1   2338 52.72                             130    0.18 7  159 219 
 ZAR  HN ES       2339 21.93                             123   -0.26 9  204 293 
 ZAR  HZ I        2339 28.72         8.2 0.52            124            204 293 
                                                                                
