 2013  523 2350  3.8 L   6.787 -73.143144.0  RSN 10 0.5 1.7LRSN                1
 GAP=137        1.07       3.8     4.6  7.5 -0.1090E+00  0.8938E+01  0.2932E+01E
 Epicentro: LOS SANTOS - SANTANDER                                             3
 ACTION:UPD 13-06-20 09:53 OP:ep   STATUS:               ID:20130523235003 L   I
 2013-05-23-2350-00M.COL___259                                                 6
 STAT SP IPHASW D HRMM SECON CODA AMPLIT PERI AZIMU VELO AIN AR TRES W  DIS CAZ7
 BAR2 SZ EP       2350 23.11                             171   -0.0810 22.0 191 
 BAR2 SZ ES   1   2350 38.00                             171   -0.32 7 22.0 191 
 BAR2 SZ I        2350 39.30        18.7 0.16            168           22.0 191 
 GIR2 SZ EP   1   2350 23.32                             167    0.02 7 32.7 350 
 GIR2 SZ ES   1   2350 38.63                             167    0.11 7 32.7 350 
 GIR2 SZ I        2350 40.00        14.6 0.48            168           32.7 350 
 BRR  HZ EP   1   2350 25.30                             152    0.49 7 72.1 299 
 BRR  HN ES   1   2350 42.02                             152    0.82 7 72.1 299 
 BRR  HZ I        2350 44.83        11.0 0.26            151           72.1 299 
 PAM  SZ IP     C 2350 26.32                             150    0.4410 78.3  39 
 PAM  SN ES   1   2350 42.61                             150   -0.50 7 78.3  39 
 PAM  SZ I        2350 45.14        10.3 0.56            157           78.3  39 
 RUS  HZ EP       2350 27.31                             144    0.0310 99.2 176 
 RUS  HN ES   1   2350 45.84                             144    0.25 7 99.2 176 
 RUS  HZ I        2350 51.87         2.7 0.30            145           99.2 176 
 PTB  HZ EP   1   2350 30.03                             132   -0.59 7  148 259 
 PTB  HN ES       2350 50.71                             132   -0.84 9  148 259 
 PTB  HZ I        2350 57.90         5.1 0.20            132            148 259 
 ZAR  HZ EP   1   2350 36.00                             122   -0.21 6  205 292 
 ZAR  HE ES       2351  2.22                             122    0.73 9  205 292 
 ZAR  HZ I        2351  8.03         7.5 0.26            124            205 292 
 NOR  HZ EP   1   2350 39.83                             118    0.47 6  234 235 
 NOR  HN ES       2351  7.46                             118    0.36 8  234 235 
 NOR  HZ I        2351 13.86         4.5 0.18            120            234 235 
 SML  HE ES       2351  8.33                             117   -0.76 8  245 335 
 CHI  HN ES       2351 10.10                             117   -0.38 8  247 195 
                                                                                
