 2016 1123 2358 52.5 L   6.817 -73.125146.0  RSN  7 0.3 1.5LRSN                1
 GAP=155        0.66       3.2     3.0  4.8 -0.1604E+01  0.2029E+01  0.6119E+01E
 Epicentro: LOS SANTOS - SANTANDER                                             3
 ACTION:UPD 17-10-26 21:11 OP:lp   STATUS:               ID:20161123235852 L   I
 OLDACT:UP  16-11-24 05:01 OP:and  STATUS:               ID:20161123234746     3
 OLDACT:REG 16-11-24 03:12 OP:and  STATUS:               ID:20161123234746     3
 2016-11-23-2348-00M.COL___349                                                 6
 STAT SP IPHASW D HRMM SECON CODA AMPLIT PERI AZIMU VELO AIN AR TRES W  DIS CAZ7
 BAR2 EZ EP       2359 11.89                             170   -0.2810 25.6 194 
 BAR2 EZ ES       2359 27.43                             170   -0.1110 25.6 194 
 BAR2 EZ I        2359 29.64         8.1 0.27            168           25.6 194 
 BRR  HZ EP       2359 13.69                             152   -0.0110 72.4 296 
 BRR  HN ES       2359 30.56                             152    0.2910 72.4 296 
 PAM  EZ IP     C 2359 14.78                             152    0.2510 74.5  39 
 PAM  EN ES       2359 31.68                             152   -0.0610 74.5  39 
 PAM  EZ I        2359 34.49         4.4 0.30            154           74.5  39 
 PTB  HZ EP   2   2359 18.61                             131   -1.07 5  150 258 
 PTB  HE ES       2359 40.89                             131   -0.03 9  150 258 
 PTB  HZ I        2359 41.40         4.0 0.11            131            150 258 
 ZAR  HE ES       2359 50.26                             122   -0.24 8  206 291 
 ZAR  HZ I        2359 55.96         3.8 0.27            123            206 291 
 NOR  HZ EP       2359 29.06                             118    0.54 8  238 234 
 NOR  HE ES       2359 56.71                             118    0.07 8  238 234 
 NOR  HZ I        24 0  2.19         2.8 0.16            118            238 234 
 CHI  HZ EP       2359 30.34                             117   -0.09 8  251 196 
 CHI  HN ES       24 0  0.06                             117    0.01 8  251 196 
 CHI  HZ I        24 0  5.81         1.9 0.26            117            251 196 
                                                                                
