 2011 1223 2342 30.4 L   6.752 -73.162153.0  RSN  5 0.2 1.4LRSN                1
 GAP=232        0.50       4.8     4.6  6.0  0.6903E+01  0.1019E+01  0.1835E+01E
 Epicentro: LOS SANTOS - SANTANDER                                             3
 ACTION:UPD 12-07-13 16:18 OP:ep   STATUS:               ID:20111223234230 L   I
 2011-12-23-2340-00M.COL___189                                                 6
 STAT SP IPHASW D HRMM SECON CODA AMPLIT PERI AZIMU VELO AIN AR TRES W  DIS CAZ7
 BAR2 SZ EP   1   2342 50.50                             173   -0.27 7 17.8 187 
 BAR2 SZ I        2342 50.92         6.5 0.11                          17.8 187 
 BAR2 SZ ES   1   2343  6.52                             173   -0.16 7 17.8 187 
 BRR  HZ EP   1   2342 52.44                             153    0.08 7 72.3 303 
 BRR  HN ES   1   2343  9.84                             153    0.33 7 72.3 303 
 BRR  HZ I        2343 16.82         5.8 0.42                          72.3 303 
 RUS  HZ EP   1   2342 54.59                             147    0.11 7 95.5 175 
 RUS  HN ES   1   2343 13.43                             147    0.14 7 95.5 175 
 RUS  HZ I        2343 14.27         1.8 0.26                          95.5 175 
 PTB  HN ES   1   2343 18.61                             134   -0.38 7  145 261 
 NOR  SE ES   2   2343 34.19                             121    0.32 4  230 235 
                                                                                
