 2012  223 2316 14.8 L   6.745 -73.211144.7  RSN  4 0.2 1.4LRSN                1
 GAP=168        0.39       3.9     4.1  5.3  0.7459E+01 -0.1914E+01 -0.1145E+01E
 ACTION:UP  12-03-07 16:33 OP:epov STATUS:               ID:20120223231614 L   I
 2012-02-23-2310-00M.COL___192                                                 6
 STAT SP IPHASW D HRMM SECON CODA AMPLIT PERI AZIMU VELO AIN AR TRES W  DIS CAZ7
 GIR2 SZ EP   2   2316 34.14                             165   -0.42 5 37.0   3 
 BRR  HZ EP   1   2316 35.95                             153    0.23 7 68.3 306 
 BRR  HZ I        2316 46.70         8.0 0.53                          68.3 306 
 BRR  HN ES   1   2316 52.04                             153    0.04 7 68.3 306 
 RUS  HZ EP   1   2316 38.11                             145    0.00 7 95.3 171 
 RUS  HN ES   1   2316 56.30                             145    0.03 7 95.3 171 
 RUS  HZ I        2316 57.36         3.0 0.31                          95.3 171 
 PTB  HZ EP   1   2316 41.00                             134    0.01 7  140 261 
 PTB  HN ES   1   2317  1.24                             134   -0.14 7  140 261 
                                                                                
