 2014 1023 2118 12.3 L   6.562 -73.551115.7  RSN  7 0.3 1.8LRSN                1
 GAP= 75        0.89       3.3     3.2  5.8 -0.3318E+01  0.3643E+01  0.2408E+01E
 Epicentro: EL CARMEN - SANTANDER                                              3
 ACTION:UPD 14-11-29 23:55 OP:nd   STATUS:               ID:20141023211812 L   I
 OLDACT:UP  14-10-27 12:24 OP:cam  STATUS:               ID:20141023210745d    3
 OLDACT:DUP 14-10-27 12:20 OP:cam  STATUS:               ID:20141023210745d    3
 OLDACT:UP  14-10-27 12:19 OP:cam  STATUS:               ID:20141023210744     3
 OLDACT:REG 14-10-27 10:34 OP:fm   STATUS:               ID:20141023210744     3
 2014-10-23-2107-44M.COL___280                                                 6
 STAT SP IPHASW D HRMM SECON CODA AMPLIT PERI AZIMU VELO AIN AR TRES W  DIS CAZ7
 BAR2 SZ EP     D 2118 29.34                             159    0.3510 40.9  85 
 BAR2 SZ ES       2118 41.96                             159   -0.0010 40.9  85 
 BAR2 SZ I        2118 43.17        76.0 0.36            164           40.9  85 
 BRR  HZ EP       2118 30.05                             149    0.2510 62.8 344 
 BRR  HE ES       2118 44.04                             149    0.6310 62.8 344 
 BRR  HE I        2118 49.78        34.3 0.16            152           62.8 344 
 RUS  HZ EP       2118 32.42                             140   -0.0310 90.4 145 
 RUS  HE ES       2118 48.13                             140    0.0010 90.4 145 
 RUS  HZ I        2118 51.29         4.6 0.36            146           90.4 145 
 PTB  HZ EP     D 2118 32.21                             136   -0.3810  100 269 
 PTB  HN ES       2118 47.79                             136   -0.5910  100 269 
 PTB  HZ I        2118 52.39        12.5 0.12            139            100 269 
 SPBC HZ EP       2118 33.88                             132   -0.2110  116 210 
 SPBC HE ES       2118 51.08                             132    0.0410  116 210 
 SPBC HZ I        2118 53.86        15.0 0.24            136            116 210 
 PAM  SZ EP       2118 35.73                             129    0.0410  127  48 
 PAM  SN ES       2118 53.37                             129   -0.5310  127  48 
 PAM  SZ I        2118 56.06         5.9 0.40            134            127  48 
 GUY2CHZ EP       2118 49.06                             110    0.31 8  249 234 
 GUY2CHN ES       2119 17.43                             110    0.29 8  249 234 
 GUY2CHZ I        2119 25.43         3.8 0.38                           249 234 
                                                                                
