 2014  823 2007 29.0 L   6.784 -73.105148.5  RSN 18 0.4 2.2LRSN                1
 GAP=143        0.92       2.7     3.7  4.8 -0.1253E+01  0.4362E+01  0.3103E+01E
 Epicentro: LOS SANTOS - SANTANDER                                             3
 ACTION:UPD 14-09-15 21:52 OP:nd   STATUS:               ID:20140823200729 L   I
 OLDACT:REG 14-08-24 05:25 OP:spq  STATUS:               ID:20140823195820     3
 2014-08-23-1958-20M.COL___250                                                 6
 STAT SP IPHASW D HRMM SECON CODA AMPLIT PERI AZIMU VELO AIN AR TRES W  DIS CAZ7
 BAR2 SZ EP       20 7 48.72                             171   -0.2610 22.8 202 
 BAR2 SZ ES   1   20 8  4.66                             171    0.13 7 22.8 202 
 BAR2 SZ I        20 8  6.37        49.5 0.46            167           22.8 202 
 BRR  HZ EP       20 7 50.81                             151    0.0610 76.0 298 
 BRR  HE ES       20 8  8.14                             151    0.4610 76.0 298 
 BRR  HZ I        20 8 11.33        19.9 0.12            149           76.0 298 
 PAM  SZ EP     D 20 7 51.43                             152   -0.0310 76.1  36 
 PAM  SE ES       20 8  8.87                             152   -0.0810 76.1  36 
 PAM  SZ I        20 8 10.77        12.0 0.50            156           76.1  36 
 RUS  HZ EP     C 20 7 52.66                             145   -0.2510 98.6 179 
 RUS  HE ES   1   20 8 11.58                             145    0.05 7 98.6 179 
 RUS  HZ I        20 8 12.48        11.3 0.34            146           98.6 179 
 PTB  HZ EP       20 7 55.92                             132   -0.67 9  152 260 
 PTB  HE ES       20 8 17.39                             132   -0.69 9  152 260 
 PTB  HZ I        20 8 19.65        15.5 0.20            131            152 260 
 OCA  HN ES       20 8 20.79                             130    0.59 9  163 352 
 OCA  HZ I        20 8 24.47        13.1 0.24            131            163 352 
 SPBC HZ EP     C 20 7 57.67                             129   -0.21 9  165 221 
 SPBC HE ES       20 8 20.01                             129   -0.37 9  165 221 
 SPBC HZ I        20 8 26.09        17.4 0.22            129            165 221 
 ZAR  HZ EP       20 8  2.52                             122    0.37 8  209 292 
 ZAR  HE ES       20 8 27.65                             122   -0.33 8  209 292 
 ZAR  HZ I        20 8 35.24        12.2 0.44            122            209 292 
 NOR  HZ EP       20 8  5.16                             119   -0.04 8  237 235 
 NOR  HE ES       20 8 33.96                             119    0.55 8  237 235 
 NOR  HZ I        20 8 37.94        13.5 0.36            119            237 235 
 SML  HZ EP   1   20 8  5.29                             118   -0.90 6  247 335 
 SML  HN ES   1   20 8 34.88                             118   -0.30 6  247 335 
 SML  HZ I        20 8 40.41        15.5 0.10            119            247 335 
 CHI  HZ EP       20 8  6.96                             118    0.14 8  248 196 
 CHI  HN ES   1   20 8 37.11                             118    0.81 6  248 196 
 CHI  HZ I        20 8 41.90         5.3 0.26            119            248 196 
 HEL  HZ EP       20 8 10.62                             115    0.81 7  276 256 
 HEL  HN ES   4   20 8 46.27                             115    4.64 0  276 256 
 HEL  HZ I        20 8 49.63         6.2 0.24            115            276 256 
 GUY2CHZ EP       20 8 13.24                             113    0.18 7  304 236 
 GUY2CHE ES   4   20 8 51.08                             113    3.67 0  304 236 
 GUY2CHZ I        20 8 55.32        13.0 0.36                           304 236 
 CBOC HZ EP       20 8 16.80                             110    0.31 7  337 253 
 CBOC HN ES   2   20 8 53.95                             110    0.45 3  337 253 
 TOL  SZ EP   1   20 8 17.80                             110    0.19 5  345 225 
 TOL  SN ES   4   20 8 58.04                             110    2.53 0  345 225 
 TOL  SZ I        20 9  5.32        17.5 0.44            110            345 225 
 MON  HZ EP   4   20 8 13.78                             109   -4.89 0  358 308 
 MON  HN ES   4   20 8 54.81                             109   -2.58 0  358 308 
 MON  HZ I        20 8 57.85         2.2 0.31            110            358 308 
 PRA  HZ EP       20 8 22.41                             107   -0.31 6  393 210 
 PRA  HN ES   4   20 9  6.40                             107    1.80 0  393 210 
 PRA  HZ I        20 9 11.29         7.0 0.28            108            393 210 
 ORTC HZ EP       20 8 23.69                             107    0.50 6  397 217 
 ORTC HE ES   4   20 9  8.83                             107    3.41 0  397 217 
 ORTC HZ I        20 9 11.88         3.8 0.48            108            397 217 
                                                                                
