 2015  723 2106 54.7 L   6.841 -73.095140.0  RSN  6 0.3 1.8LRSN                1
 GAP=206        0.54       3.0     4.2  6.0  0.1157E+01  0.9120E+01 -0.4580E+01E
 Epicentro: LOS SANTOS - SANTANDER                                             3
 ACTION:UPD 15-09-08 21:50 OP:cam  STATUS:               ID:20150723210654 L   I
 OLDACT:REG 15-07-24 03:07 OP:spq  STATUS:               ID:20150723205748     3
 2015-07-23-2057-48M.COL___340                                                 6
 STAT SP IPHASW D HRMM SECON CODA AMPLIT PERI AZIMU VELO AIN AR TRES W  DIS CAZ7
 BAR2 EZ EP       21 7 13.74                             168   -0.0010 29.1 199 
 BAR2 EZ ES   1   21 7 28.99                             168    0.37 7 29.1 199 
 BAR2 EZ I        21 7 30.35        14.8 0.20            167           29.1 199 
 RUS  HZ EP   1   21 7 17.88                             141   -0.30 7  105 179 
 RUS  HE ES   1   21 7 36.32                             141   -0.20 7  105 179 
 RUS  HZ I        21 7 37.51         3.5 0.40            145            105 179 
 ZAR  HN ES   1   21 7 52.21                             121   -0.23 6  208 290 
 ZAR  HZ I        21 7 57.20         4.3 0.44            121            208 290 
 NOR  HN ES       21 7 59.04                             116   -0.04 8  242 234 
 NOR  HZ I        21 8  3.09         5.6 0.34            118            242 234 
 SML  HZ EP   1   21 7 30.89                             116    0.09 6  242 334 
 SML  HE ES   1   21 7 58.88                             116   -0.10 6  242 334 
 SML  HZ I        21 8  2.94         9.1 0.22            117            242 334 
 GUY2CHZ EP   1   21 7 39.52                             111    0.68 5  308 235 
 GUY2CHN ES   4   21 8 15.15                             111    1.86 0  308 235 
 GUY2CHZ I        21 8 20.20         3.2 0.36                           308 235 
                                                                                
