 2014  723 2148 51.9 L   6.624 -73.358136.9  RSN  6 0.4 1.7LRSN                1
 GAP=133        1.15       5.9     5.3  7.8  0.2486E+01 -0.2394E+01  0.3635E+01E
 Epicentro: GALAN - SANTANDER                                                  3
 ACTION:UPD 15-03-16 20:46 OP:nd   STATUS:               ID:20140723214851 L   I
 OLDACT:REG 14-07-24 02:52 OP:stll STATUS:               ID:20140723214820     3
 2014-07-23-2148-20M.COL___269                                                 6
 STAT SP IPHASW D HRMM SECON CODA AMPLIT PERI AZIMU VELO AIN AR TRES W  DIS CAZ7
 BAR2 SZ EP       2149 10.58                             171    0.2110 19.8 100 
 BAR2 SZ ES       2149 24.67                             171   -0.1210 19.8 100 
 BAR2 SZ I        2149 26.71         9.8 0.42            171           19.8 100 
 BRR  HZ EP       2149 12.24                             153    0.4610 66.2 324 
 BRR  HZ I        2149 12.29        18.8 0.12            153           66.2 324 
 BRR  HN ES       2149 27.65                             153    0.3410 66.2 324 
 RUS  HZ EP       2149 13.71                             146   -0.0410 86.5 159 
 RUS  HN ES       2149 30.39                             146   -0.4310 86.5 159 
 PTB  HZ EP       2149 15.18                             136   -0.6310  122 266 
 PTB  HN ES       2149 33.80                             136   -0.6810  122 266 
 PTB  HZ I        2149 34.71         6.8 0.70            137            122 266 
 SPBC HZ EP       2149 17.11                             133    0.1810  133 216 
 SPBC HN ES       2149 37.29                             133    0.8310  133 216 
 TAM  HZ EP       2149 20.65                             125   -0.12 9  175  97 
                                                                                
