 2017  923 2348 14.3 L   6.863 -73.132151.1  RSN 28 0.6 2.8LRSN                1
 GAP= 65        1.25       3.4     3.4  5.8  0.1940E+01  0.7363E+01  0.5585E+01E
 Epicentro: LOS SANTOS - SANTANDER                                             3
 ACTION:UPD 17-10-05 19:15 OP:rebc STATUS:               ID:20170923234815dL   I
 OLDACT:UP  17-09-24 05:58 OP:dnl  STATUS:               ID:20170923233738     3
 OLDACT:UP  17-09-24 05:57 OP:dnl  STATUS:               ID:20170923233738     3
 OLDACT:REG 17-09-24 03:37 OP:dnl  STATUS:               ID:20170923233738     3
 2017-09-23-2338-00M.COL___420                                                 6
 STAT SP IPHASW D HRMM SECON CODA AMPLIT PERI AZIMU VELO AIN AR TRES W  DIS CAZ7
 BAR2 EZ IP     C 2348 34.51                             168   -0.2210 30.5 191 
 BAR2 EZ ES       2348 49.98                             168   -0.6810 30.5 191 
 BAR2 EZ I        2348 50.88       192.1 0.22            167           30.5 191 
 BRR  HZ IP     C 2348 36.30                             154    0.3610 69.5 293 
 BRR  HE ES       2348 53.20                             154    0.3910 69.5 293 
 BRR  HZ I        2348 56.89       131.0 0.40            151           69.5 293 
 PAM  EZ EP       2348 37.40                             154    0.6710 71.1  42 
 PAM  EN ES       2348 54.31                             154    0.0810 71.1  42 
 PAM  EZ I        2348 54.99        91.9 0.20            153           71.1  42 
 RUS  HZ IP     C 2348 38.55                             143   -0.5210  107 177 
 RUS  HN ES   4   2348 56.91                             143   -1.48 0  107 177 
 RUS  HZ I        2348 59.32        41.4 0.12            141            107 177 
 TAM  HZ EP       2348 42.86                             131    0.41 9  156 108 
 TAM  HZ I        2349  3.63        51.4 0.28            130            156 108 
 TAM  HE ES       2349  4.51                             131    0.11 9  156 108 
 YPLC HZ IP     C 2348 45.05                             127    0.03 9  182 153 
 YPLC HN ES       2349  8.78                             127   -0.19 9  182 153 
 YPLC HZ I        2349 12.53        67.6 0.38            125            182 153 
 ZAR  HZ EP       2348 47.40                             124    0.41 9  203 290 
 ZAR  HN ES       2349 12.39                             124   -0.09 9  203 290 
 ZAR  HZ I        2349 18.40       137.8 0.50            121            203 290 
 TABC EZ EP   4   2348 52.27                             119    1.18 0  237 210 
 TABC EZ ES       2349 20.59                             119    0.81 8  237 210 
 TABC EZ I        2349 24.99        68.5 0.42            118            237 210 
 NOR  HZ EP       2348 50.74                             119   -0.17 8  240 233 
 NOR  HN ES       2349 19.64                             119    0.17 8  240 233 
 NOR  HZ I        2349 20.53        65.6 0.20            117            240 233 
 CHI  HZ EP       2348 52.96                             117   -0.11 8  256 195 
 CHI  HN ES       2349 22.63                             117   -0.68 8  256 195 
 CHI  HZ I        2349 27.42        30.8 0.32            116            256 195 
 ROSC BZ EP   4   2348 54.83                             117    1.38 0  260 211 
 ROSC BN ES       2349 24.71                             117    0.72 8  260 211 
 ROSC BZ I        2349 30.57        51.9 0.35            115            260 211 
 HEL  HZ EP       2348 55.49                             115    0.34 7  275 254 
 HEL  HE ES   4   2349 29.08                             115    2.07 0  275 254 
 HEL  HZ I        2349 32.82        51.5 0.34            113            275 254 
 URE  HZ EP       2348 54.63                             115   -0.88 7  283 290 
 URE  HN ES   4   2349 25.42                             115   -2.23 0  283 290 
 URE  HZ I        2349 39.55        51.6 0.28            113            283 290 
 GUY2CHZ EP       2348 59.09                             113    0.33 7  307 234 
 GUY2CHE ES   4   2349 35.54                             113    2.11 0  307 234 
 GUY2CHZ I        2349 40.37        31.8 0.26                           307 234 
 VIL  EZ EP       2348 58.31                             112   -0.46 7  311 192 
 VIL  EN ES       2349 32.84                             112   -0.61 7  311 192 
 VIL  EZ I        2349 43.17        31.4 0.28            111            311 192 
 PTGC HZ EP       2348 57.81                             112   -1.26 7  315 159 
 PTGC HN ES   4   2349 31.26                             112   -2.74 0  315 159 
 PTGC HZ I        2349 34.69        22.9 0.34            111            315 159 
 LL6C HZ EP   9   2349  0.82                             112    1.37 0  318 357 
 LL6C HN ES       2349 35.31                             112   -0.72 7  318 357 
 LL6C HZ I        2349 38.49        11.3 0.62            110            318 357 
 ELA  HZ EP   4   2349  3.92                             111    1.89 0  335 229 
 ELA  HN ES   4   2349 42.11                             111    2.85 0  335 229 
 ELA  HZ I        2349 48.37        34.9 0.38            109            335 229 
 CBOC HZ EP       2349  2.63                             110    0.77 7  337 251 
 CBOC HE ES   4   2349 40.52                             110    1.57 0  337 251 
 CBOC HZ I        2349 48.02        14.1 0.30            109            337 251 
 DBB  EZ EP       2349  2.96                             110    0.84 7  341 273 
 DBB  EN ES       2349 37.48                             110   -1.94 7  341 273 
 DBB  EZ I        2349 47.84        13.8 0.22            109            341 273 
 ANIL HZ EP       2349  5.94                             109    0.93 6  363 224 
 ANIL HE ES   4   2349 47.02                             109    2.45 0  363 224 
 ANIL HZ I        2349 52.14        66.9 0.36            107            363 224 
 APAC HZ EP       2349  8.56                             107   -0.04 6  398 287 
 APAC HE ES       2349 50.31                             107   -0.64 6  398 287 
 APAC HZ I        2349 55.66         8.8 0.44            105            398 287 
 PRA  HZ EP       2349  8.65                             107   -0.16 6  399 209 
 PRA  HN ES       2349 51.91                             107    0.59 6  399 209 
 PRA  HZ I        2349 57.19        38.6 0.60            105            399 209 
 ORTC HZ EP   2   2349  8.36                             107   -0.81 3  402 216 
 ORTC HN ES       2349 52.29                             107    0.32 6  402 216 
 ORTC HZ I        2349 58.89        22.6 0.60            105            402 216 
 SJC  HZ EP       2349  8.92                             107   -0.54 6  404 326 
 SJC  HN ES   4   2349 50.02                             107   -2.46 0  404 326 
 SJC  HZ I        2349 53.90        11.5 0.56            105            404 326 
 PAL  HZ EP       2349 10.64                             106    0.42 6  411 238 
 PAL  HE ES   4   2349 50.98                             106   -2.85 0  411 238 
 PAL  HZ I        2349 55.75         7.7 0.22            105            411 238 
 CRJC HZ EP   4   2349 14.82                             104   -1.30 0  461   3 
 CRJC HE ES   4   2349 59.30                             104   -5.03 0  461   3 
 CRJC HZ I        2350 10.67         8.5 0.34            103            461   3 
 YOT  HZ EP   4   2349 16.91                             104   -1.27 0  478 228 
 MACC HZ EP   4   2349 21.85                             102   -2.15 0  528 189 
 MACC HE ES   4   2350 13.53                             102   -4.83 0  528 189 
 MACC HZ I        2350 21.09         6.0 0.56            101            528 189 
                                                                                
