 2012  923 2004 32.3 L   6.834 -73.160142.3  RSN 13 0.4 3.2LRSN 3.4WRSN        1
 SPEC AVERAGE  MO 14.2 ST 15.5 OM  2.9 f0 3.89 R0.3903 AL 2.94 WI 12.0 MW  3.4 3
 SPEC SD       MO  0.1 ST 11.0 OM  0.5 f00.761 R0.0653 AL      WI      MW  0.1 3
 GAP= 64        0.70       3.3     2.6  4.5  0.6609E+00  0.1646E+01  0.5309E+01E
 Epicentro: LOS SANTOS - SANTANDER                                             3
 SPEC TAM HH E MO 14.0 ST  5.8 OM  2.3 f0 3.49 R0.4212 AL 2.63 WI  5.6 MW  3.3 3
 SPEC TAM HH E T20 521 K 0.000 GD  212 VS 4.20 DE 3.00 Q0230.0 QA 0.60 VS 4.20 3
 SPEC PRA HH N MO 14.4 ST 31.7 OM  2.4 f0 4.54 R0.3238 AL 3.88 WI 13.5 MW  3.5 3
 SPEC PRA HH N T20 6 7 K 0.000 GD  418 VS 4.20 DE 3.00 Q0230.0 QA 0.60 VS 4.20 3
 SPEC PTB HH N MO 14.3 ST  9.4 OM  2.6 f0 3.29 R0.4468 AL 2.26 WI 13.8 MW  3.5 3
 SPEC PTB HH N T20 518 K 0.000 GD  204 VS 4.20 DE 3.00 Q0230.0 QA 0.60 VS 4.20 3
 SPEC PAM SH E MO 14.1 ST  6.5 OM  2.5 f0 3.41 R0.4311 AL 2.38 WI  7.4 MW  3.3 3
 SPEC PAM SH E T20 510 K 0.000 GD  161 VS 4.20 DE 3.00 Q0230.0 QA 0.60 VS 4.20 3
 SPEC HEL HH N MO 14.3 ST  9.2 OM  2.4 f0 3.33 R0.4414 AL 2.20 WI 17.7 MW  3.4 3
 SPEC HEL HH N T20 542 K 0.000 GD  306 VS 4.20 DE 3.00 Q0230.0 QA 0.60 VS 4.20 3
 SPEC BRR HH N MO 14.2 ST 30.1 OM  2.6 f0 5.30 R0.2774 AL 4.29 WI 14.0 MW  3.4 3
 SPEC BRR HH N T20 5 9 K 0.000 GD  157 VS 4.20 DE 3.00 Q0230.0 QA 0.60 VS 4.20 3
 ACTION:UPD 12-10-22 14:20 OP:ep   STATUS:               ID:20120923200432 L   I
 2012-09-23-2000-00M.COL___221                                                 6
 STAT SP IPHASW D HRMM SECON CODA AMPLIT PERI AZIMU VELO AIN AR TRES W  DIS CAZ7
 BAR2 SZ EP       20 4 51.50                             169   -0.1110 26.8 185 
 BAR2 SZ I        20 4 51.88       306.4 0.34                          26.8 185 
 BAR2 SZ ES   1   20 5  6.51                             169   -0.14 7 26.8 185 
 GIR2 SZ EP   1   20 4 51.32                             169   -0.15 7 27.3 352 
 GIR2 SZ ES   1   20 5  6.36                             169   -0.06 7 27.3 352 
 BRR  HZ EP       20 4 53.11                             153    0.2010 68.1 296 
 BRR  HN ES   1   20 5  9.75                             153    0.77 7 68.1 296 
 BRR  HZ I        20 5 12.07       262.9 0.10                          68.1 296 
 PAM  SZ EP   1   20 4 53.99                             151   -0.06 7 75.6  42 
 PAM  SE ES   1   20 5 10.72                             151   -0.29 7 75.6  42 
 PAM  SE I        20 5 12.18       291.7 0.29                          75.6  42 
 RUS  HZ EP   1   20 4 55.57                             142   -0.44 7  104 175 
 RUS  HZ I        20 4 56.93        71.3 0.22                           104 175 
 RUS  HN ES   1   20 5 14.77                             142    0.27 7  104 175 
 PTB  HN ES   1   20 5 19.28                             131   -0.41 7  147 257 
 PTB  HN I        20 5 24.61       300.8 0.36                           147 257 
 TAM  HZ EP       20 4 59.96                             129    0.00 9  158 106 
 TAM  HZ I        20 5  0.30       186.9 0.22                           158 106 
 TAM  HE ES   1   20 5 21.61                             129    0.09 7  158 106 
 YOP  SZ EP   1   20 5  2.54                             125    0.03 7  183 153 
 YOP  SZ I        20 5  2.78        81.8 0.20                           183 153 
 ZAR  HZ EP   1   20 5  4.22                             122   -0.02 6  201 291 
 ZAR  HN ES   1   20 5 29.10                             122   -0.04 6  201 291 
 ZAR  HZ I        20 5 34.80       189.0 0.32                           201 291 
 CHI  HZ EP   1   20 5 10.09                             116   -0.08 6  252 195 
 CHI  HN ES   1   20 5 39.51                             116   -0.19 6  252 195 
 CHI  HN I        20 5 42.54       184.3 0.34                           252 195 
 ROSC BZ EP   1   20 5 11.83                             116    1.32 6  255 210 
 ROSC BZ I        20 5 47.54        98.4 0.35                           255 210 
 HEL  HZ EP   1   20 5 12.40                             114    0.11 6  271 255 
 HEL  HN ES   1   20 5 42.85                             114   -0.62 6  271 255 
 HEL  HZ I        20 5 50.38       106.4 0.28                           271 255 
 PRA  HZ EP   1   20 5 25.65                             106   -0.36 4  394 209 
 PRA  HN ES   1   20 6  7.94                             106    0.05 4  394 209 
 PRA  HZ I        20 6 14.91        73.0 0.32                           394 209 
                                                                                
