 2016  523 2220  2.8 L   6.789 -73.140148.1  RSN  8 0.4 1.6LRSN                1
 GAP=138        1.09       4.4     4.5  6.6 -0.2445E+01  0.8591E+01  0.1732E+01E
 Epicentro: LOS SANTOS - SANTANDER                                             3
 ACTION:UPD 16-08-18 17:48 OP:cam  STATUS:               ID:20160523222002 L   I
 OLDACT:UP  16-05-24 06:17 OP:dani STATUS:               ID:20160523221747     3
 OLDACT:REG 16-05-24 06:07 OP:dani STATUS:               ID:20160523221747     3
 2016-05-23-2217-47M.COL___304                                                 6
 STAT SP IPHASW D HRMM SECON CODA AMPLIT PERI AZIMU VELO AIN AR TRES W  DIS CAZ7
 BAR2 EZ EP       2220 22.56                             171   -0.1310 22.2 192 
 BAR2 EZ ES       2220 37.85                             171   -0.3510 22.2 192 
 BAR2 EZ I        2220 38.89        12.3 0.12            171           22.2 192 
 BRR  HZ EP     C 2220 24.74                             153    0.4810 72.3 299 
 BRR  HN ES       2220 41.74                             153    0.7410 72.3 299 
 BRR  HZ I        2220 45.12         8.1 0.33            153           72.3 299 
 PAM  EZ EP       2220 25.51                             151    0.2210 77.9  39 
 PAM  EN ES       2220 42.68                             151   -0.1610 77.9  39 
 PAM  EZ I        2220 45.65         2.8 0.13            155           77.9  39 
 RUS  HZ EP       2220 26.64                             145   -0.0510 99.3 176 
 RUS  HN ES       2220 45.33                             145    0.0110 99.3 176 
 RUS  HZ I        2220 46.02         3.9 0.32            147           99.3 176 
 PTB  HZ EP       2220 29.77                             132   -0.22 9  148 259 
 PTB  HN ES       2220 50.26                             132   -0.94 9  148 259 
 PTB  HZ I        2220 54.81         4.2 0.14            134            148 259 
 SPBC HZ EP       2220 31.22                             130   -0.20 9  163 219 
 SPBC HE ES       2220 53.93                             130    0.18 9  163 219 
 SPBC HZ I        2220 59.65         7.6 0.16            131            163 219 
 ZAR  HZ EP       2220 34.83                             123   -0.67 9  205 292 
 ZAR  HE ES       2221  1.07                             123    0.06 9  205 292 
 NOR  HZ EP       2220 39.14                             119    0.50 8  234 235 
 NOR  HE ES       2221  7.17                             119    0.57 8  234 235 
 NOR  HZ I        2221  8.60         5.3 0.20            121            234 235 
 CHI  HN ES   4   2221 11.61                             118    1.68 0  248 195 
                                                                                
