 2011  623 2134  3.8 L   6.853 -73.286122.2  RSN 12 0.2 2.3LRSN                1
 GAP=129        0.52       2.4     3.1  3.9 -0.2095E+01  0.3515E+01  0.7513E-01E
 Epicentro: ZAPATOCA - SANTANDER                                               3
 ACTION:UP  11-07-14 19:07 OP:ep   STATUS:               ID:20110623213403 L   I
 2011-06-23-2131-31S.COL___140                                                 6
 STAT SP IPHASW D HRMM SECON CODA AMPLIT PERI AZIMU VELO SNR AR TRES W  DIS CAZ7
 GIR2 SZ EP       2134 20.44                             167    -0.110   27  22 
 BAR2 SZ EP       2134 20.84                             165     0.010   31 158 
 BAR2 SZ ES   1   2134 34.37                             165     0.2 7   31 158 
 BAR2 SZ I        2134 35.01       139.8 0.31                            31 158 
 BRR  HZ EP       2134 21.38                             154    -0.110   55 301 
 BRR  HE ES   1   2134 35.25                             154     0.0 7   55 301 
 BRR  HZ I        2134 36.58        71.8 0.14                            55 301 
 RUS  HZ EP   1   2134 25.60                             136    -0.4 7  109 168 
 RUS  HN ES   1   2134 43.34                             136     0.0 7  109 168 
 RUS  HZ I        2134 44.83        13.2 0.23                           109 168 
 BRI  SZ EP       2134 25.84                             135     0.210  110  29 
 BRI  SZ I        2134 44.39        31.1 0.34                           110  29 
 GRA  SZ EP   1   2134 27.09                             131     0.0 7  126  25 
 GRA  SZ ES   1   2134 45.25                             131     0.0 7  126  25 
 GRA  SZ I        2134 48.09        37.6 0.26                           126  25 
 NOR  SZ EP   1   2134 37.33                             114     0.0 6  226 231 
 CHI  HZ EP   2   2134 40.29                             112    -0.3 4  251 191 
 CHI  HZ I        2134 41.32        10.3 0.13                           251 191 
 HEL  HZ EP   2   2134 41.13                             111    -0.3 4  259 254 
 HEL  HN ES   1   2135 10.77                             111     0.0 6  259 254 
 HEL  HZ I        2135 15.37        15.2 0.33                           259 254 
 RREF HZ EP   1   2134 48.91                             107     0.7 5  314 227 
 RREF HZ I        2135 29.09         8.6 0.31                           314 227 
 DBB  SZ EP   1   2134 48.49                             106    -0.1 5  324 273 
 PRA  HZ EP   1   2134 56.62                             102     0.3 4  390 207 
                                                                                
