 2010  223 2133 41.5 L   6.768 -73.105145.3  RSN  7 0.4 2.0LRSN                1
 GAP=239        0.72       5.8     8.0  8.1  0.8690E+01  0.2393E+02  0.1620E+02E
 Epicentro: LOS SANTOS - SANTANDER                                             3
 ACTION:UP  10-08-24 09:50 OP:vdl  STATUS:               ID:20100223213341 L   I
 2010-02-23-2130-03S.COL___094                                                 6
 STAT SP IPHASW D HRMM SECON CODA AMPLIT PERI AZIMU VELO SNR AR TRES W  DIS CAZ7
 BAR2 SZ EP   1   2134  0.72                             170    -0.3 7   21 204 
 BAR2 SZ ES   2   2134 16.57                             170     0.3 5   21 204 
 BRR  HZ IP       2134  2.63                             150    -0.310   77 299 
 BRR  HZ I        2134  2.91        45.3 0.12                            77 299 
 BRR  HE ES   2   2134 20.19                             150     0.5 5   77 299 
 RUS  BZ EP   1   2134  4.74                             145    -0.2 7   97 179 
 RUS  BE ES   2   2134 23.51                             145     0.3 5   97 179 
 RUS  BZ I        2134 24.60         9.8 0.41                            97 179 
 CHI  HZ EP   1   2134 19.00                             117     0.0 6  246 196 
 CHI  HN ES   2   2134 48.33                             117     0.2 4  246 196 
 CHI  HZ I        2134 58.02         3.5 0.62                           246 196 
 HEL  HZ EP   1   2134 22.99                             114     0.9 6  276 257 
 HEL  HN ES   2   2134 53.40                             114    -0.3 4  276 257 
 HEL  HZ I        2134 59.79         5.5 0.45                           276 257 
 RREF BZ EP   1   2134 28.16                             111     0.4 5  323 230 
 RREF BN ES   2   2135  3.26                             111    -0.6 3  323 230 
 RREF BZ I        2135 11.94         6.3 0.51                           323 230 
 PRA  HZ EP   1   2134 35.13                             107     0.2 4  391 210 
 PRA  HN ES   2   2135 16.59                             107     0.0 3  391 210 
 PRA  HZ I        2135 20.46         3.0 0.38                           391 210 
                                                                                
