 2016 1123 2306 47.8 L   6.775 -73.144147.5  RSN 13 0.5 2.2LRSN                1
 GAP= 98        1.02       4.3     2.9  5.9  0.7830E+00  0.3085E+01  0.1240E+02E
 Epicentro: LOS SANTOS - SANTANDER                                             3
 ACTION:UPD 17-10-26 21:11 OP:lp   STATUS:               ID:20161123230647 L   I
 OLDACT:UP  16-11-24 04:35 OP:and  STATUS:               ID:20161123225749     3
 OLDACT:UP  16-11-24 04:32 OP:and  STATUS:               ID:20161123225749     3
 OLDACT:REG 16-11-24 03:07 OP:and  STATUS:               ID:20161123225749     3
 2016-11-23-2258-00M.COL___349                                                 6
 STAT SP IPHASW D HRMM SECON CODA AMPLIT PERI AZIMU VELO AIN AR TRES W  DIS CAZ7
 BAR2 EZ EP       23 7  7.56                             172    0.0110 20.7 192 
 BAR2 EZ ES       23 7 22.86                             172   -0.1210 20.7 192 
 BAR2 EZ I        23 7 24.18        53.5 0.22            167           20.7 192 
 BRR  HZ IP     D 23 7  9.44                             152    0.2610 72.7 300 
 BRR  HN ES       23 7 26.51                             152    0.6210 72.7 300 
 BRR  HZ I        23 7 27.20        23.7 0.08            151           72.7 300 
 PAM  EZ IP     C 23 7 10.35                             150    0.0810 79.4  38 
 PAM  EN ES       23 7 27.45                             150   -0.3910 79.4  38 
 PAM  EZ I        23 7 30.15        14.5 0.26            156           79.4  38 
 PTB  HZ EP       23 7 14.33                             132   -0.51 9  147 260 
 PTB  HN ES       23 7 35.47                             132   -0.50 9  147 260 
 PTB  HZ I        23 7 42.05        15.1 0.14            131            147 260 
 TAM  HZ EP       23 7 15.92                             131    0.43 9  154 104 
 TAM  HN ES       23 7 37.57                             131    0.45 9  154 104 
 ZAR  HZ EP       23 7 20.04                             123   -0.40 8  205 293 
 ZAR  HN ES       23 7 45.59                             123   -0.35 8  205 293 
 ZAR  HZ I        23 7 50.76        22.7 0.38            122            205 293 
 NOR  HZ EP       23 7 23.72                             119    0.28 8  233 235 
 NOR  HE ES       23 7 51.50                             119    0.23 8  233 235 
 NOR  HZ I        23 7 58.45         9.2 0.14            118            233 235 
 ROSC BZ EP   4   23 7 27.66                             117    1.93 0  251 211 
 ROSC BN ES   4   23 7 58.56                             117    3.21 0  251 211 
 ROSC BZ I        23 8  2.23        28.7 0.40            117            251 211 
 PTGC HZ EP       23 7 30.67                             112   -0.73 7  306 159 
 PTGC HN ES       23 8  4.43                             112   -1.00 7  306 159 
 PRA  HZ EP       23 7 41.42                             107    0.34 6  390 210 
 PRA  HN ES       23 8 23.13                             107    0.47 6  390 210 
 PRA  HZ I        23 8 29.97        12.3 0.30            107            390 210 
 ORTC HZ EP       23 7 41.76                             107    0.26 6  393 216 
 ORTC HE ES   4   23 8 25.78                             107    2.37 0  393 216 
 ORTC HZ I        23 8 28.95         5.7 0.24            107            393 216 
 PAL  HZ EP       23 7 43.10                             106    0.27 6  404 239 
 PAL  HN ES       23 8 26.70                             106    0.90 6  404 239 
 PAL  HZ I        23 8 38.23         2.2 0.27            106            404 239 
 SJC  HZ EP   4   23 7 41.85                             106   -1.81 0  412 327 
 SJC  HN ES   4   23 8 24.40                             106   -2.86 0  412 327 
 SJC  HZ I        23 8 32.62         3.3 0.33            107            412 327 
                                                                                
