 2012 1023 2150 25.3 L   6.842 -73.294117.9  RSN  6 0.4 2.0LRSN                1
 GAP=125        0.80       4.7     5.0  7.4  0.5292E+01  0.6115E+01  0.3757E+01E
 Epicentro: ZAPATOCA - SANTANDER                                               3
 ACTION:UPD 12-11-22 17:05 OP:ep   STATUS:               ID:20121023215025 L   I
 2012-10-23-2150-00M.COL___234                                                 6
 STAT SP IPHASW D HRMM SECON CODA AMPLIT PERI AZIMU VELO AIN AR TRES W  DIS CAZ7
 GIR2 SZ EP   1   2150 41.48                             166   -0.08 7 28.5  23 
 GIR2 SZ ES   1   2150 53.30                             166   -0.97 7 28.5  23 
 BAR2 SZ EP   1   2150 41.87                             165    0.11 7 30.2 156 
 BAR2 SZ ES   1   2150 54.70                             165    0.08 7 30.2 156 
 BRR  HZ EP   1   2150 42.25                             153   -0.23 7 54.7 302 
 BRR  HE ES   1   2150 56.53                             153    0.63 7 54.7 302 
 PAM  SZ EP   1   2150 45.21                             142    0.00 7 85.7  50 
 PAM  SE ES   1   2151  1.25                             142    0.48 7 85.7  50 
 PAM  SZ I        2151  3.59        15.2 0.28                          85.7  50 
 RUS  HZ EP   1   2150 46.92                             135   -0.06 7  108 167 
 RUS  HE ES   1   2151  4.00                             135    0.08 7  108 167 
 RUS  HE I        2151  5.56        18.8 0.24                           108 167 
 ZAR  HN ES   1   2151 16.74                             118   -0.06 7  187 293 
 ZAR  HN I        2151 20.21        18.3 0.17                           187 293 
                                                                                
