 2011  523 2236 27.3 L   6.747 -73.112141.3  RSN 10 0.4 2.1LRSN                1
 GAP=143        1.03       4.3     7.0  7.1 -0.1372E+02  0.1087E+02 -0.1188E+01E
 Epicentro: LOS SANTOS - SANTANDER                                             3
 ACTION:UP  11-06-29 08:55 OP:tino STATUS:               ID:20110523223627 L   I
 2011-05-23-2234-19S.COL___139                                                 6
 STAT SP IPHASW D HRMM SECON CODA AMPLIT PERI AZIMU VELO SNR AR TRES W  DIS CAZ7
 BAR2 SZ IP       2236 46.28                             172     0.010   19 205 
 BAR2 SZ I        2236 46.44        25.4 0.14                            19 205 
 BAR2 SZ ES   1   2237  0.89                             172    -0.2 7   19 205 
 BRR  HN ES   1   2237  5.61                             150     0.9 7   77 301 
 PAM  SZ IP       2236 49.44                             149     0.310   80  35 
 PAM  SN ES   1   2237  6.74                             149     0.5 7   80  35 
 RUS  HZ EP       2236 50.05                             145    -0.110   95 178 
 RUS  HN ES   1   2237  7.84                             145    -0.2 7   95 178 
 RUS  HZ I        2237 10.11        14.1 0.40                            95 178 
 BRI  SZ EP       2236 51.21                             139     0.110  113  18 
 BRI  SZ ES   1   2237  9.09                             139    -0.6 7  113  18 
 GRA  SZ EP       2236 52.60                             135     0.110  130  15 
 GRA  SZ I        2236 54.05        16.6 0.28                           130  15 
 GRA  SZ ES   1   2237 12.19                             135     0.0 7  130  15 
 OCA  SZ EP       2236 55.82                             127     0.0 9  167 352 
 OCA  SZ ES   1   2237 17.19                             127    -1.0 7  167 352 
 OCA  SZ I        2237 20.81        18.4 0.53                           167 352 
 NOR  SZ EP       2237  2.86                             117     0.1 8  234 236 
 NOR  SN ES   1   2237 29.74                             117    -0.7 6  234 236 
 HEL  HZ EP   1   2237  7.96                             114     0.4 6  274 257 
 HEL  HZ I        2237 46.18         6.9 0.32                           274 257 
 MON  HZ EP   4   2237 14.34                             107    -2.6 0  360 309 
 SJC  HZ EP   4   2237 21.42                             105    -2.1 0  416 327 
 SJC  HZ I        2238  7.28         3.6 0.29                           416 327 
                                                                                
