 2011 1123 2216 53.1 L   6.829 -73.107150.0  RSN  6 0.4 2.2LRSN                1
 GAP=140        0.90       4.9     6.2  9.5  0.3864E+01  0.6170E+01 -0.1739E+01E
 Epicentro: LOS SANTOS - SANTANDER                                             3
 ACTION:UPD 12-07-13 16:11 OP:ep   STATUS:               ID:20111123221653 L   I
 2011-11-23-2215-21S.COL___177                                                 6
 STAT SP IPHASW D HRMM SECON CODA AMPLIT PERI AZIMU VELO AIN AR TRES W  DIS CAZ7
 BAR2 SZ EP   1   2217 13.21                             169   -0.16 7 27.4 198 
 BAR2 SZ I        2217 29.55        40.4 0.28                          27.4 198 
 PAM  SZ EP       2217 16.20                             153    0.6910 72.2  38 
 PAM  SZ I        2217 16.60        16.7 0.20                          72.2  38 
 PAM  SN ES   1   2217 32.78                             153   -0.19 7 72.2  38 
 BRR  HZ EP       2217 15.21                             152    0.3310 73.6 295 
 BRR  HZ I        2217 15.43        47.5 0.16                          73.6 295 
 BRR  HN ES   1   2217 32.04                             152    0.20 7 73.6 295 
 RUS  HZ EP   1   2217 17.48                             143   -0.04 7  104 179 
 RUS  HE ES   1   2217 36.02                             143   -0.52 7  104 179 
 RUS  HZ I        2217 37.55        17.3 0.31                           104 179 
 OCA  SZ EP   1   2217 20.94                             131   -0.61 7  158 351 
 OCA  SZ ES   1   2217 43.07                             131   -0.63 7  158 351 
 OCA  SZ I        2217 46.88        23.2 0.19                           158 351 
 ZAR  HZ EP   2   2217 25.63                             122   -0.53 4  207 291 
 ZAR  HN ES   1   2217 52.06                             122    0.15 6  207 291 
 ZAR  HZ I        2217 57.29        11.5 0.12                           207 291 
                                                                                
