 2013 1023 2325 35.7 L   6.842 -73.124142.0  RSN  7 0.4 1.7LRSN                1
 GAP=203        0.86       3.9     5.8 10.6  0.5086E+01  0.5222E+01 -0.1515E+02E
 Epicentro: LOS SANTOS - SANTANDER                                             3
 ACTION:UPD 13-11-25 09:23 OP:ep   STATUS:               ID:20131023232535 L   I
 OLDACT:UP  13-10-24 01:55 OP:mh   STATUS:               ID:20131023231842     3
 OLDACT:UP  13-10-24 01:55 OP:mh   STATUS:               ID:20131023231842     3
 OLDACT:REG 13-10-23 22:18 OP:mh   STATUS:               ID:20131023231842     3
 2013-10-23-2318-42M.COL___224                                                 6
 STAT SP IPHASW D HRMM SECON CODA AMPLIT PERI AZIMU VELO AIN AR TRES W  DIS CAZ7
 RUS  HZ EP   1   2325 58.63                             142   -0.83 7  105 178 
 RUS  HN ES       2326 18.42                             142    0.4610  105 178 
 RUS  HZ I        2326 21.07         4.0 0.35            146            105 178 
 PTB  HZ EP   1   2326  2.40                             131   -0.31 7  151 257 
 PTB  HN ES   1   2326 23.13                             131   -0.61 7  151 257 
 PTB  HZ I        2326 25.84         5.1 0.15            134            151 257 
 SPBC HZ EP   1   2326  4.68                             128    0.23 7  168 219 
 SPBC HN ES   1   2326 26.72                             128   -0.12 7  168 219 
 SPBC HZ I        2326 30.67         9.2 0.19            131            168 219 
 ZAR  HN ES       2326 33.66                             122    0.51 9  205 291 
 NOR  HN ES       2326 39.79                             118   -0.06 8  239 234 
 NOR  HZ I        2326 43.36         3.2 0.17            121            239 234 
 SML  HZ EP   1   2326 12.02                             117    0.22 6  240 334 
 SML  HN ES       2326 39.78                             117   -0.15 8  240 334 
 SML  HZ I        2326 44.90         8.1 0.11            120            240 334 
 GUY2CHZ EP   1   2326 20.06                             112    0.35 5  306 234 
 GUY2CHE ES   4   2326 56.32                             112    2.32 0  306 234 
                                                                                
