 2014 1023 2144  0.4 L   6.799 -73.122145.4  RSN 18 0.5 2.7LRSN                1
 GAP=128        1.16       3.3     4.3  5.2 -0.3628E+01  0.4334E+01  0.2959E+01E
 Epicentro: LOS SANTOS - SANTANDER                                             3
 ACTION:UPD 14-11-29 23:55 OP:nd   STATUS:               ID:20141023214400 L   I
 OLDACT:UP  14-10-27 12:46 OP:cam  STATUS:               ID:20141023213747d    3
 OLDACT:UP  14-10-27 12:45 OP:cam  STATUS:               ID:20141023213747d    3
 OLDACT:DUP 14-10-27 12:36 OP:cam  STATUS:               ID:20141023213747d    3
 2014-10-23-2137-46M.COL___280                                                 6
 STAT SP IPHASW D HRMM SECON CODA AMPLIT PERI AZIMU VELO AIN AR TRES W  DIS CAZ7
 BAR2 SZ IP     C 2144 20.13                             170    0.1210 23.8 196 
 BAR2 SZ ES       2144 34.76                             170   -0.5310 23.8 196 
 BAR2 SZ I        2144 37.75        83.9 0.30            167           23.8 196 
 BRR  HZ EP       2144 22.08                             152    0.4210 73.6 298 
 BRR  HE ES       2144 38.83                             152    0.6110 73.6 298 
 BRR  HZ I        2144 42.12        39.6 0.14            151           73.6 298 
 PAM  SZ IP     C 2144 22.89                             151    0.3910 75.8  38 
 PAM  SN ES       2144 40.27                             151    0.5510 75.8  38 
 PAM  SZ I        2144 42.28        62.5 0.20            157           75.8  38 
 RUS  HZ EP     D 2144 23.95                             144   -0.1610  100 178 
 RUS  HE ES       2144 42.41                             144   -0.1810  100 178 
 RUS  HZ I        2144 43.96        29.8 0.42            144            100 178 
 PTB  HZ EP       2144 26.61                             131   -0.97 9  150 259 
 PTB  HN ES       2144 47.82                             131   -0.95 9  150 259 
 PTB  HZ I        2144 54.00        63.3 0.16            131            150 259 
 SPBC HZ EP       2144 28.95                             129   -0.08 9  165 220 
 SPBC HN ES       2144 51.45                             129    0.10 9  165 220 
 SPBC HZ I        2144 55.91        76.2 0.40            129            165 220 
 SML  HZ EP       2144 36.83                             117   -0.32 8  245 335 
 SML  HN ES       2145  5.72                             117   -0.08 8  245 335 
 SML  HZ I        2145  8.56        76.8 0.24            119            245 335 
 CHI  HZ EP       2144 38.07                             117   -0.08 8  249 196 
 CHI  HN ES       2145  7.22                             117   -0.37 8  249 196 
 CHI  HZ I        2145 16.18        15.2 0.62            118            249 196 
 ROSC BZ EP       2144 39.51                             116    0.86 8  254 212 
 ROSC BN ES   4   2145 11.08                             116    2.61 0  254 212 
 ROSC BZ I        2145 17.89        51.6 0.45            117            254 212 
 HEL  HZ EP       2144 41.26                             114    0.37 8  275 256 
 HEL  HE ES       2145 11.81                             114   -0.64 8  275 256 
 HEL  HZ I        2145 18.79        21.4 0.36            115            275 256 
 URE  HZ EP   4   2144 40.06                             113   -1.68 0  286 292 
 GUY2CHZ EP       2144 44.26                             112    0.02 7  303 235 
 GUY2CHN ES       2145 18.99                             112    0.57 7  303 235 
 GUY2CHZ I        2145 26.95        40.3 0.76                           303 235 
 VIL  SZ EP       2144 43.33                             112   -0.53 7  304 192 
 VIL  SN ES   4   2145 19.61                             112    1.86 0  304 192 
 TOL  SZ EP       2144 49.38                             109    0.52 7  345 225 
 TOL  SN ES       2145 27.40                             109    0.76 7  345 225 
 TOL  SZ I        2145 32.54        40.4 0.24            110            345 225 
 MON  HN ES   4   2145 24.90                             108   -3.15 0  356 308 
 MON  HN I        2145 28.42        23.6 0.32            110            356 308 
 SDV  BZ EP       2144 49.59                             108   -0.63 6  358  50 
 ANIL HZ EP   4   2144 51.81                             108    1.40 0  359 225 
 ANIL HN ES   4   2145 31.48                             108    2.08 0  359 225 
 ANIL HZ I        2145 34.24         6.1 0.38            109            359 225 
 PRA  HZ EP       2144 53.67                             106   -0.39 6  393 210 
 PRA  HN ES       2145 36.46                             106    0.55 6  393 210 
 PRA  HZ I        2145 41.61        22.2 0.62            107            393 210 
 ORTC HZ EP       2144 54.18                             106   -0.31 6  397 216 
 ORTC HN ES       2145 37.55                             106    0.88 6  397 216 
 ORTC HZ I        2145 44.50        15.3 0.24            107            397 216 
 SJC  HZ EP   4   2144 54.37                             106   -1.77 0  411 327 
                                                                                
