 2010  223 2159 34.4 L   6.815 -73.046150.7  RSN  4 0.2 1.3LRSN                1
 GAP=331        0.39       6.4    16.9  5.7 -0.4686E+02  0.3478E+02  0.2533E+01E
 Epicentro: LOS SANTOS - SANTANDER                                             3
 ACTION:UP  10-08-24 09:50 OP:vdl  STATUS:               ID:20100223215934 L   I
 2010-02-23-2158-03S.COL___094                                                 6
 STAT SP IPHASW D HRMM SECON CODA AMPLIT PERI AZIMU VELO SNR AR TRES W  DIS CAZ7
 BAR2 SZ EP   1   2159 54.57                             169    -0.1 7   29 212 
 BAR2 SZ ES   2   22 0 10.80                             169     0.2 5   29 212 
 RUS  BZ EP   1   2159 58.74                             144     0.0 7  102 182 
 RUS  BZ I        2159 59.86         2.4 0.43                           102 182 
 RUS  BE ES   2   22 0 17.59                             144    -0.1 5  102 182 
 CHI  HZ EP   1   22 0 13.15                             118     0.3 6  253 197 
 CHI  HN ES   2   22 0 42.69                             118    -0.2 4  253 197 
 CHI  HZ I        22 0 47.21         1.8 0.29                           253 197 
 PRA  HZ EP   1   22 0 28.73                             107    -0.2 4  399 211 
                                                                                
