 2011  823 2259 38.5 L   6.732 -73.137148.1  RSN  5 0.2 2.0LRSN                1
 GAP=183        0.40       2.6     5.5  3.6  0.2521E+01  0.2651E+01 -0.1702E+00E
 Epicentro: JORDAN - SANTANDER                                                 3
 ACTION:UPD 12-07-13 15:53 OP:ep   STATUS:               ID:20110823225938 L   I
 2011-08-23-2257-40S.COL___159                                                 6
 STAT SP IPHASW D HRMM SECON CODA AMPLIT PERI AZIMU VELO AIN AR TRES W  DIS CAZ7
 BAR2 SZ EP       2259 58.30                             173    0.0410 16.2 198 
 BAR2 SZ ES   1   23 0 13.66                             173   -0.04 7 16.2 198 
 BAR2 SZ I        23 0 14.33        18.7 0.17                          16.2 198 
 BRR  HZ EP       23 0  0.18                             151    0.0410 75.9 303 
 BRR  HN ES   1   23 0 17.16                             151    0.12 7 75.9 303 
 BRR  HZ I        23 0 18.23        25.1 0.11                          75.9 303 
 RUS  HZ EP   2   23 0  2.29                             146    0.36 5 93.0 176 
 RUS  HE ES   1   23 0 20.10                             146   -0.13 7 93.0 176 
 RUS  HZ I        23 0 22.19         9.8 0.37                          93.0 176 
 OCA  SZ EP   1   23 0  7.37                             129   -0.30 7  168 353 
 OCA  SZ I        23 0 32.78        14.5 0.63                           168 353 
 PRA  HZ EP   1   23 0 31.65                             107    0.29 4  386 210 
 PRA  HN ES   1   23 1 12.32                             107   -0.30 4  386 210 
                                                                                
