 2017  523 2049 41.5 L   6.770 -73.151141.3  RSN 10 0.4 2.0LRSN                1
 GAP=210        0.87       3.7     4.0  6.1  0.5032E+01  0.6819E+00  0.1058E+01E
 Epicentro: LOS SANTOS - SANTANDER                                             3
 ACTION:UPD 17-06-16 13:38 OP:jn   STATUS:               ID:20170523204941 L   I
 OLDACT:UP  17-05-24 05:11 OP:edw  STATUS:               ID:20170523204147     3
 OLDACT:UP  17-05-24 05:11 OP:edw  STATUS:               ID:20170523204147     3
 OLDACT:REG 17-05-24 03:17 OP:edw  STATUS:               ID:20170523204147     3
 2017-05-23-2048-00M.COL___353                                                 6
 STAT SP IPHASW D HRMM SECON CODA AMPLIT PERI AZIMU VELO AIN AR TRES W  DIS CAZ7
 BRR  HZ EP       2050  2.34                             152    0.1210 72.3 301 
 BRR  HN ES       2050 18.78                             152    0.3910 72.3 301 
 RUS  HZ EP       2050  4.33                             144   -0.2310 97.3 176 
 RUS  HN ES       2050 22.78                             144    0.2210 97.3 176 
 RUS  HZ I        2050 23.85        15.2 0.24            139           97.3 176 
 PTB  HZ EP       2050  7.38                             131   -0.60 9  147 260 
 PTB  HN ES       2050 28.19                             131   -0.46 9  147 260 
 PTB  HZ I        2050 30.67         8.9 0.24            127            147 260 
 SPBC HZ EP       2050  9.50                             129    0.14 9  160 220 
 SPBC HN ES       2050 31.20                             129    0.09 9  160 220 
 SPBC HZ I        2050 33.65        17.1 0.30            124            160 220 
 YPLC HZ EP       2050 10.67                             126   -0.03 9  174 151 
 YPLC HN ES   4   2050 31.53                             126   -1.95 0  174 151 
 YPLC HZ I        2050 37.57         8.3 0.34            124            174 151 
 ZAR  HZ EP       2050 14.08                             121    0.36 9  205 293 
 ZAR  HN ES       2050 38.35                             121   -0.51 9  205 293 
 ZAR  HZ I        2050 44.02        14.6 0.52            119            205 293 
 NOR  HN ES       2050 44.68                             118    0.51 8  232 235 
 NOR  HZ I        2050 49.82        10.9 0.58            115            232 235 
 CHI  HE ES       2050 47.05                             117   -0.45 8  245 195 
 CBOC HZ EP       2050 28.46                             109    0.42 7  332 253 
 CBOC HE ES       2051  4.63                             109    0.28 7  332 253 
 CBOC HZ I        2051 23.16         1.9 0.44            107            332 253 
 SJC  HZ EP   4   2050 34.84                             105   -2.36 0  412 327 
 SJC  HN ES   4   2051 17.49                             105   -3.16 0  412 327 
 SJC  HZ I        2051 19.02         2.6 0.56            104            412 327 
                                                                                
