 2011  423 2330 26.7 L   6.685 -73.410119.4  RSN  4 0.4 1.5LRSN                1
 GAP=167        0.90       8.2    18.0 10.7  0.7758E+02 -0.3597E+02 -0.2704E+02E
 Epicentro: EL CARMEN DE CHUCURI - SANTANDER                                   3
 ACTION:UP  11-06-22 15:32 OP:REBC STATUS:               ID:20110423233026 L   I
 2011-04-23-2325-08S.COL___139                                                 6
 STAT SP IPHASW D HRMM SECON CODA AMPLIT PERI AZIMU VELO SNR AR TRES W  DIS CAZ7
 BAR2 SZ EP   1   2330 44.10                             166     0.8 7   27 112 
 BAR2 SZ ES   1   2330 56.17                             166     0.0 7   27 112 
 BAR2 SZ I        2330 57.74        14.2 0.39                            27 112 
 BRR  HZ EP   2   2330 43.78                             152    -0.5 5   57 324 
 BRR  HZ I        2330 44.89        10.2 0.08                            57 324 
 BRR  HN ES   2   2330 57.88                             152     0.0 5   57 324 
 RUS  HZ EP   1   2330 47.47                             139     0.0 7   95 158 
 RUS  HN ES   1   2331  3.41                             139    -0.3 7   95 158 
 RUS  HZ I        2331  4.36         2.3 0.29                            95 158 
 GRA  SZ EP   1   2330 51.68                             125    -0.3 7  149  27 
 GRA  SZ I        2330 53.00         5.1 0.12                           149  27 
                                                                                
