 2014  823 2011  1.6 L   6.795 -73.108144.5  RSN 19 0.4 2.1LRSN                1
 GAP=142        0.89       2.5     3.4  4.7 -0.1442E+01  0.3911E+01  0.1282E+01E
 Epicentro: LOS SANTOS - SANTANDER                                             3
 ACTION:UPD 14-09-15 21:52 OP:nd   STATUS:               ID:20140823201101 L   I
 OLDACT:UP  14-08-24 06:22 OP:spq  STATUS:               ID:20140823200820     3
 OLDACT:REG 14-08-24 05:26 OP:spq  STATUS:               ID:20140823200820     3
 2014-08-23-2008-20M.COL___227                                                 6
 STAT SP IPHASW D HRMM SECON CODA AMPLIT PERI AZIMU VELO AIN AR TRES W  DIS CAZ7
 BAR2 SZ EP     D 2011 21.16                             170    0.0210 23.9 200 
 BAR2 SZ ES   1   2011 36.08                             170   -0.26 7 23.9 200 
 BAR2 SZ I        2011 36.91        39.6 0.19            167           23.9 200 
 BRR  HZ IP     C 2011 23.07                             151    0.1810 75.2 297 
 BRR  HE ES       2011 39.87                             151    0.4110 75.2 297 
 BRR  HZ I        2011 43.97        26.0 0.12            149           75.2 297 
 PAM  SZ IP     C 2011 24.21                             151    0.6110 75.2  37 
 PAM  SN ES       2011 40.85                             151    0.1310 75.2  37 
 PAM  SZ I        2011 43.86        13.6 0.26            155           75.2  37 
 RUS  HZ EP       2011 25.06                             144   -0.1610 99.8 178 
 RUS  HE ES       2011 43.41                             144   -0.1910 99.8 178 
 RUS  HZ I        2011 44.36        12.1 0.24            143           99.8 178 
 PTB  HZ EP       2011 28.03                             131   -0.85 9  152 259 
 PTB  HE ES       2011 50.19                             131    0.07 9  152 259 
 PTB  HZ I        2011 51.68        18.1 0.12            130            152 259 
 OCA  HZ EP       2011 29.98                             129    0.01 9  161 352 
 OCA  HE ES       2011 51.66                             129   -0.39 9  161 352 
 OCA  HZ I        2011 52.48        12.4 0.38            130            161 352 
 SPBC HZ EP       2011 29.94                             128   -0.32 9  165 220 
 SPBC HE ES       2011 52.08                             128   -0.50 9  165 220 
 SPBC HZ I        2011 55.92        13.2 0.22            127            165 220 
 ZAR  HZ EP   1   2011 34.29                             121   -0.15 6  208 292 
 ZAR  HE ES       2012  0.41                             121    0.40 8  208 292 
 ZAR  HZ I        2012  2.69         9.9 0.13            121            208 292 
 NOR  HZ EP       2011 37.62                             118   -0.02 8  238 235 
 NOR  HE ES       2012  5.89                             118    0.18 8  238 235 
 NOR  HZ I        2012  7.05         8.4 0.16            117            238 235 
 SML  HZ EP   1   2011 37.71                             117   -0.74 6  246 334 
 SML  HN ES   1   2012  6.79                             117   -0.37 6  246 334 
 SML  HZ I        2012 10.38        14.9 0.09            117            246 334 
 CHI  HZ EP   1   2011 39.32                             117   -0.02 6  249 196 
 CHI  HE ES   1   2012  9.36                             117    0.62 6  249 196 
 CHI  HZ I        2012 12.80         4.2 0.28            117            249 196 
 ROSC BN ES   4   2012 11.21                             116    1.50 0  254 212 
 ROSC BZ I        2012 17.43        12.1 0.50            116            254 212 
 HEL  HZ EP   4   2011 43.25                             114    1.02 0  276 256 
 HEL  HN ES   4   2012 16.19                             114    2.30 0  276 256 
 HEL  HZ I        2012 20.14         6.5 0.26            114            276 256 
 GUY2CHZ EP       2011 46.20                             112    0.65 7  304 235 
 GUY2CHE ES   4   2012 22.45                             112    2.65 0  304 235 
 GUY2CHZ I        2012 26.54         6.2 0.26                           304 235 
 CBOC HN ES       2012 25.87                             109    0.02 7  337 252 
 CBOC HZ I        2012 26.94         4.2 0.10            109            337 252 
 TOL  SZ EP       2011 50.81                             109    0.66 6  346 225 
 TOL  SN ES   4   2012 29.53                             109    1.55 0  346 225 
 TOL  SZ I        2012 37.14         8.0 0.52            109            346 225 
 MON  HE ES   4   2012 28.13                             108   -1.41 0  357 308 
 MON  HZ I        2012 36.39         3.8 0.10            108            357 308 
 PRA  HZ EP       2011 55.49                             106    0.18 6  394 210 
 PRA  HE ES   4   2012 38.51                             106    1.34 0  394 210 
 PRA  HZ I        2012 44.41         4.4 0.52            106            394 210 
 ORTC HN ES   4   2012 39.43                             106    1.46 0  397 217 
 ORTC HZ I        2012 43.04         2.9 0.36            106            397 217 
                                                                                
