 2016  623 2250 53.1 L   6.801 -73.125146.7  RSN 16 0.3 2.1LRSN                1
 GAP=139        0.84       3.1     3.9  4.4 -0.6096E+00  0.4679E+01  0.3436E+01E
 Epicentro: LOS SANTOS - SANTANDER                                             3
 ACTION:UPD 16-07-21 22:22 OP:rebc STATUS:               ID:20160623225053 L   I
 OLDACT:UP  16-06-24 04:52 OP:dani STATUS:               ID:20160623224745     3
 OLDACT:UP  16-06-24 04:49 OP:dani STATUS:               ID:20160623224745     3
 OLDACT:UP  16-06-24 04:48 OP:dani STATUS:               ID:20160623224745     3
 OLDACT:REG 16-06-24 02:45 OP:dani STATUS:               ID:20160623224745     3
 2016-06-23-2247-45M.COL___334                                                 6
 STAT SP IPHASW D HRMM SECON CODA AMPLIT PERI AZIMU VELO AIN AR TRES W  DIS CAZ7
 BAR2 EZ EP       2251 12.76                             170   -0.1210 24.0 195 
 BAR2 EZ ES       2251 28.00                             170   -0.2910 24.0 195 
 BAR2 EZ I        2251 29.33        28.9 0.24                          24.0 195 
 BRR  HZ EP       2251 14.62                             152    0.1310 73.2 298 
 BRR  HN ES       2251 31.64                             152    0.4910 73.2 298 
 BRR  HZ I        2251 34.78        24.0 0.32                          73.2 298 
 PAM  EZ EP       2251 15.60                             152    0.2510 75.8  38 
 PAM  EN ES       2251 32.83                             152    0.1510 75.8  38 
 PAM  EZ I        2251 35.97        11.3 0.44                          75.8  38 
 RUS  HZ EP       2251 16.73                             144   -0.2410  101 177 
 RUS  HE ES       2251 35.49                             144   -0.0810  101 177 
 RUS  HZ I        2251 36.67         9.2 0.38                           101 177 
 PTB  HZ EP       2251 20.01                             132   -0.37 9  150 259 
 PTB  HN ES   4   2251 40.69                             132   -0.94 0  150 259 
 PTB  HZ I        2251 43.09        12.2 0.14                           150 259 
 SPBC HZ EP       2251 21.72                             129   -0.12 9  165 220 
 SPBC HN ES       2251 44.12                             129   -0.13 9  165 220 
 SPBC HZ I        2251 49.96        16.7 0.22                           165 220 
 ZAR  HZ EP       2251 25.43                             122   -0.41 8  206 292 
 ZAR  HN ES       2251 51.11                             122   -0.26 8  206 292 
 ZAR  HZ I        2251 55.93        10.7 0.26                           206 292 
 NOR  HZ EP   9   2251 27.76                             118   -1.36 0  237 235 
 NOR  HN ES       2251 56.54                             118    0.70 8  237 235 
 NOR  HZ I        2251 59.58         8.1 0.24                           237 235 
 CHI  HZ EP       2251 31.14                             117    0.18 8  249 196 
 CHI  HN ES   4   2251 59.80                             117   -0.67 0  249 196 
 CHI  HZ I        2252  3.92         5.0 0.36                           249 196 
 ROSC BZ EP       2251 31.33                             117   -0.11 8  254 211 
 ROSC BN ES   4   2252  3.65                             117    2.33 0  254 211 
 ROSC BZ I        2252  7.46        13.4 0.45                           254 211 
 HEL  HN ES   4   2252  8.06                             115    2.82 0  274 256 
 HEL  HZ I        2252 13.02         6.3 0.36                           274 256 
 GUY2CHZ EP       2251 37.83                             112    0.83 7  303 235 
 GUY2CHE ES   4   2252 15.10                             112    3.88 0  303 235 
 GUY2CHZ I        2252 19.13         6.0 0.62                           303 235 
 PTGC HZ EP   4   2251 35.50                             112   -1.44 0  308 159 
 ANIL HN ES   4   2252 24.06                             109    1.86 0  359 225 
 PRA  HZ EP       2251 46.46                             107   -0.36 6  393 210 
 PRA  HN ES       2252 29.49                             107    0.78 6  393 210 
 PRA  HZ I        2252 35.02         6.4 0.40                           393 210 
 ORTC HZ EP       2251 47.53                             106    0.28 6  397 216 
 ORTC HE ES   4   2252 31.96                             106    2.49 0  397 216 
 ORTC HZ I        2252 34.15         2.9 0.26                           397 216 
 SJC  HZ EP   4   2251 46.90                             106   -1.95 0  410 327 
 SJC  HZ I        2252 31.97         2.1 0.62                           410 327 
 CRJC HZ EP   9   2251 53.18                             104   -2.43 0  467   3 
 CRJC HN ES       2252 41.07                             104   -0.85 5  467   3 
 CRJC HZ I        2252 47.48         4.7 0.50                           467   3 
                                                                                
