 2012  923 2325 33.0 L   6.769 -73.141145.6  RSN  7 0.4 1.9LRSN                1
 GAP=139        0.79       4.7     4.7  7.3  0.6534E+00  0.6274E+01  0.7557E+01E
 Epicentro: LOS SANTOS - SANTANDER                                             3
 ACTION:UPD 12-10-22 14:20 OP:ep   STATUS:               ID:20120923232533 L   I
 2012-09-23-2320-00M.COL___221                                                 6
 STAT SP IPHASW D HRMM SECON CODA AMPLIT PERI AZIMU VELO AIN AR TRES W  DIS CAZ7
 BAR2 SZ EP   1   2325 52.42                             172   -0.08 7 20.0 193 
 BAR2 SZ ES   1   2326  7.71                             172   -0.04 7 20.0 193 
 BAR2 SZ I        2326 10.45        18.8 0.30                          20.0 193 
 BRR  HZ EP   1   2325 54.34                             152    0.13 7 73.4 301 
 BRR  HZ I        2325 55.88        13.7 0.10                          73.4 301 
 BRR  HN ES   1   2326 11.71                             152    0.92 7 73.4 301 
 PAM  SZ EP   1   2325 55.29                             150    0.00 7 79.8  38 
 PAM  SN ES   1   2326 12.54                             150   -0.18 7 79.8  38 
 PAM  SN I        2326 13.62        15.8 0.44                          79.8  38 
 RUS  HZ EP   1   2325 56.30                             145   -0.14 7 97.1 176 
 RUS  HN ES   1   2326 14.60                             145   -0.16 7 97.1 176 
 RUS  HZ I        2326 16.27         4.8 0.42                          97.1 176 
 PTB  HN ES   1   2326 20.22                             132   -0.69 7  148 260 
 PTB  HN I        2326 25.76        16.0 0.24                           148 260 
 ZAR  HE ES   1   2326 30.65                             122   -0.37 6  206 293 
 PRA  HZ EP   1   2326 26.52                             107    0.38 4  389 210 
 PRA  HN ES   1   2327  8.46                             107    0.83 4  389 210 
 PRA  HZ I        2327 13.87         4.8 0.62                           389 210 
                                                                                
