 2013  923 2358 35.6 L   6.791 -73.144143.8  RSN 10 0.5 2.1LRSN                1
 GAP=137        1.23       3.8     5.3  7.3 -0.1406E+00  0.4226E+01 -0.4107E+00E
 Epicentro: LOS SANTOS - SANTANDER                                             3
 ACTION:UPD 13-10-22 09:24 OP:ep   STATUS:               ID:20130923235835 L   I
 OLDACT:REG 13-09-23 22:08 OP:carl STATUS:               ID:20130923235649     3
 2013-09-23-2356-49M.COL___244                                                 6
 STAT SP IPHASW D HRMM SECON CODA AMPLIT PERI AZIMU VELO AIN AR TRES W  DIS CAZ7
 BAR2 SZ EP       2358 55.06                             171    0.0810 22.4 191 
 BAR2 SZ ES       2359  9.98                             171   -0.1110 22.4 191 
 BAR2 SZ I        2359 10.86        34.1 0.34            169           22.4 191 
 BRR  HZ EP       2358 57.18                             152    0.6010 71.9 299 
 BRR  HN ES       2359 13.84                             152    0.9010 71.9 299 
 BRR  HZ I        2359 18.25        28.9 0.46            150           71.9 299 
 PAM  SZ EP       2358 58.01                             150    0.3610 78.0  39 
 PAM  SN ES   1   2359 14.72                             150   -0.12 7 78.0  39 
 PAM  SZ I        2359 16.90        31.0 0.60            155           78.0  39 
 RUS  HZ EP       2358 59.04                             144   -0.0510 99.6 176 
 RUS  HN ES   1   2359 17.06                             144   -0.34 7 99.6 176 
 RUS  HZ I        2359 19.23        11.8 0.34            146           99.6 176 
 PTB  HZ EP       2359  1.77                             132   -0.65 9  148 259 
 PTB  HN ES       2359 22.39                             132   -0.93 9  148 259 
 PTB  HZ I        2359 29.44        12.9 0.50            131            148 259 
 OCA  HZ EP       2359  3.25                             129   -0.61 9  161 353 
 OCA  HN ES   1   2359 25.00                             129   -0.90 7  161 353 
 OCA  HZ I        2359 30.43        18.0 0.28            131            161 353 
 SPBC HZ EP   1   2359  4.28                             129    0.39 7  163 219 
 SPBC HN ES       2359 26.01                             129    0.06 9  163 219 
 SPBC HZ I        2359 31.74        13.8 0.22            130            163 219 
 ZAR  HZ EP       2359  8.67                             122    0.68 9  205 292 
 ZAR  HN ES       2359 33.57                             122    0.33 9  205 292 
 ZAR  HZ I        2359 41.00        15.2 0.14            123            205 292 
 SML  HE ES       2359 40.45                             117   -0.35 8  245 335 
 CHI  HZ EP       2359 13.35                             117    0.25 8  248 195 
 CHI  HN ES   1   2359 42.00                             117   -0.34 6  248 195 
 CHI  HZ I        2359 45.81         5.4 0.26            119            248 195 
                                                                                
