 2013  823 2243 25.0 L   6.767 -73.144146.0  RSN 11 0.5 2.0LRSN                1
 GAP=138        1.22       4.5     5.0  7.6 -0.2827E+01  0.1011E+02  0.6293E+01E
 Epicentro: LOS SANTOS - SANTANDER                                             3
 ACTION:UPD 14-01-14 09:06 OP:ep   STATUS:               ID:20130823224325 L   I
 OLDACT:REG 13-08-23 21:45 OP:jn   STATUS:               ID:20130823223959     3
 2013-08-23-2239-59M.COL___270                                                 6
 STAT SP IPHASW D HRMM SECON CODA AMPLIT PERI AZIMU VELO AIN AR TRES W  DIS CAZ7
 BAR2 SZ EP       2243 44.49                             172   -0.1010 19.8 192 
 BAR2 SZ ES   1   2243 59.92                             172    0.05 7 19.8 192 
 BAR2 SZ I        2244  2.72        13.6 0.36            170           19.8 192 
 BRR  HZ EP       2243 46.46                             152    0.1710 73.1 301 
 BRR  HN ES       2244  3.90                             152    1.0110 73.1 301 
 BRR  HZ I        2244  8.30        13.8 0.18            151           73.1 301 
 PAM  SZ EP       2243 47.55                             150    0.1410 80.1  38 
 PAM  SN ES       2244  4.68                             150   -0.2010 80.1  38 
 PAM  SZ I        2244  6.82        13.5 0.48            156           80.1  38 
 RUS  HZ EP       2243 48.46                             145   -0.0610 96.9 176 
 RUS  HN ES       2244  6.60                             145   -0.2610 96.9 176 
 RUS  HZ I        2244  8.67         5.0 0.18            148           96.9 176 
 PTB  HZ EP       2243 51.52                             132   -0.42 9  147 260 
 PTB  HN ES       2244 12.86                             132   -0.09 9  147 260 
 PTB  HZ I        2244 18.61        17.6 0.40            133            147 260 
 SPBC HZ EP       2243 53.52                             130    0.26 9  160 220 
 SPBC HN ES       2244 15.17                             130   -0.13 9  160 220 
 SPBC HZ I        2244 22.64        25.3 0.24            132            160 220 
 ZAR  HZ EP   1   2243 57.08                             122   -0.54 6  206 293 
 ZAR  HN ES       2244 21.89                             122   -1.17 8  206 293 
 ZAR  HZ I        2244 29.15        15.7 0.64            125            206 293 
 NOR  HZ EP       2244  0.52                             119   -0.01 8  233 235 
 NOR  HN ES       2244 28.83                             119    0.58 8  233 235 
 NOR  HZ I        2244 32.34        10.4 0.20            121            233 235 
 CHI  HN ES   1   2244 30.50                             118   -0.96 6  245 195 
 CHI  HZ I        2244 35.87         4.3 0.38            121            245 195 
 GUY2CHZ EP       2244  9.59                             113    1.19 7  299 235 
 GUY2CHZ I        2244 51.47         9.2 0.78                           299 235 
 PRA  HN ES   1   2244 59.76                             107    0.12 4  389 210 
                                                                                
