 2016 1223 2009 17.5 L   6.787 -73.140134.0  RSN  5 0.2 1.5LRSN                1
 GAP=138        0.61       2.8     2.8  5.8 -0.1081E+01  0.7089E+01 -0.2655E+00E
 Epicentro: LOS SANTOS - SANTANDER                                             3
 ACTION:UPD 17-01-11 20:18 OP:rebc STATUS:               ID:20161223200917 L   I
 OLDACT:UP  16-12-24 03:21 OP:and  STATUS:               ID:20161223200745     3
 OLDACT:UP  16-12-24 03:21 OP:and  STATUS:               ID:20161223200745     3
 OLDACT:REG 16-12-24 02:52 OP:and  STATUS:               ID:20161223200745     3
 2016-12-23-2008-00M.COL___390                                                 6
 STAT SP IPHASW D HRMM SECON CODA AMPLIT PERI AZIMU VELO AIN AR TRES W  DIS CAZ7
 PAM  EZ EP       20 9 38.52                             148   -0.0010 78.1  39 
 PAM  EN ES       20 9 54.84                             148   -0.0910 78.1  39 
 PAM  EZ I        20 9 57.68        11.6 0.46            151           78.1  39 
 RUS  HZ EP       20 9 39.92                             142   -0.0810 99.1 176 
 RUS  HN ES       20 9 57.78                             142    0.2310 99.1 176 
 RUS  HZ I        20 9 58.92         3.2 0.28            144           99.1 176 
 PTB  HN ES     D 2010  3.51                             129   -0.39 9  148 259 
 PTB  HZ I        2010  5.49         6.0 0.14            130            148 259 
 ZAR  HZ EP       20 9 49.64                             119    0.32 9  205 292 
 ZAR  HN ES       2010 14.37                             119    0.22 9  205 292 
 ZAR  HZ I        2010 17.89         3.6 0.12            121            205 292 
 NOR  HZ EP       20 9 52.17                             116   -0.36 8  234 235 
 NOR  HN ES       2010 20.05                             116    0.19 8  234 235 
 NOR  HZ I        2010 25.35         2.3 0.24            118            234 235 
                                                                                
