 2016  223 2242 33.8 L   6.818 -73.137147.8  RSN 20 0.5 2.4LRSN                1
 GAP=120        1.02       3.1     3.2  4.6 -0.1870E+01  0.3675E+01  0.2339E+01E
 Epicentro: LOS SANTOS - SANTANDER                                             3
 ACTION:UPD 16-03-04 21:28 OP:rebc STATUS:               ID:20160223224233 L   I
 OLDACT:REG 16-02-24 03:58 OP:ak   STATUS:               ID:20160223223751     3
 2016-02-23-2237-51M.COL___322                                                 6
 STAT SP IPHASW D HRMM SECON CODA AMPLIT PERI AZIMU VELO AIN AR TRES W  DIS CAZ7
 BAR2 EZ IP     D 2242 53.83                             170    0.1010 25.4 191 
 BAR2 EZ ES       2243  9.13                             170   -0.1410 25.4 191 
 BAR2 EZ I        2243 10.05        46.5 0.24            167           25.4 191 
 BRR  HZ EP       2242 55.61                             153    0.4310 71.2 297 
 BRR  HN ES       2243 12.38                             153    0.5310 71.2 297 
 BRR  HZ I        2243 15.96        42.8 0.38            152           71.2 297 
 PAM  EZ EP       2242 56.80                             152    0.6810 75.3  40 
 PAM  EN ES       2243 13.95                             152    0.4310 75.3  40 
 PAM  EZ I        2243 17.04        29.0 0.38            157           75.3  40 
 RUS  HZ EP       2242 57.78                             144   -0.1210  102 177 
 RUS  HN ES       2243 16.10                             144   -0.5910  102 177 
 RUS  HZ I        2243 17.92        16.4 0.34            144            102 177 
 PTB  HZ EP       2243  0.47                             132   -0.60 9  149 258 
 PTB  HN ES       2243 21.59                             132   -0.74 9  149 258 
 PTB  HZ I        2243 26.74        30.1 0.24            132            149 258 
 SPBC HZ EP       2243  2.81                             129    0.14 9  165 219 
 SPBC HN ES       2243 24.77                             129   -0.41 9  165 219 
 SPBC HZ I        2243 31.02        38.8 0.26            129            165 219 
 ZAR  HZ EP       2243  6.26                             123   -0.15 9  204 292 
 ZAR  HN ES       2243 31.13                             123   -0.70 9  204 292 
 ZAR  HZ I        2243 36.70        28.2 0.24            124            204 292 
 NOR  HZ EP       2243  9.86                             119   -0.01 8  237 234 
 NOR  HN ES       2243 37.91                             119   -0.08 8  237 234 
 NOR  HZ I        2243 43.27        19.5 0.13            119            237 234 
 CHI  HZ EP       2243 12.16                             117    0.31 8  251 195 
 CHI  HN ES       2243 41.40                             117   -0.13 8  251 195 
 CHI  HZ I        2243 46.49        13.7 0.37            118            251 195 
 ROSC BZ EP   2   2243 11.47                             117   -0.81 4  255 211 
 ROSC BN ES       2243 42.93                             117    0.65 8  255 211 
 ROSC BZ I        2243 48.55        42.7 0.40            118            255 211 
 HEL  HZ EP       2243 14.54                             115    0.25 8  273 255 
 HEL  HN ES       2243 46.60                             115    0.74 8  273 255 
 HEL  HZ I        2243 52.45        16.7 0.26            116            273 255 
 SOCV BZ EP       2243 15.64                             113   -1.10 7  299  57 
 SOCV BN ES   4   2243 46.44                             113   -3.79 0  299  57 
 GUY2CHZ EP       2243 18.25                             113    0.52 7  303 235 
 GUY2CHE ES       2243 52.21                             113    0.22 7  303 235 
 GUY2CHZ I        2244  0.19        15.8 0.70                           303 235 
 ELA  HZ EP       2243 21.43                             110    0.45 7  331 229 
 ELA  HN ES       2243 57.68                             110   -0.09 7  331 229 
 ELA  HZ I        2244 13.06        12.4 0.42            112            331 229 
 CBOC HZ EP   2   2243 20.98                             110   -0.00 3  335 252 
 CBOC HN ES   4   2243 56.18                             110   -1.60 0  335 252 
 CBOC HZ I        2244  0.14         3.2 0.10            111            335 252 
 DBB  SZ EP       2243 21.43                             110   -0.04 7  340 274 
 DBB  SZ ES       2243 58.19                             110   -0.45 7  340 274 
 DBB  SZ I        2243 59.87        29.1 0.68            111            340 274 
 MON  HZ EP   9   2243 21.14                             109   -1.70 0  353 308 
 MON  HN ES       2243 59.51                                    0.13 6  353 308 
 MON  HZ I        2244  1.59         7.6 0.34            110            353 308 
 ANIL HZ EP   2   2243 23.88                             109   -0.05 3  359 224 
 ANIL HN ES       2244  3.60                             109    0.57 6  359 224 
 ORTC HZ EP       2243 28.08                             107    0.03 6  398 216 
 ORTC HN ES       2244 10.41                             107    0.05 6  398 216 
 ORTC HZ I        2244 17.88         7.3 0.44            108            398 216 
 PAL  HZ EP       2243 28.46                             106   -0.79 6  408 239 
 PAL  HN ES   4   2244 10.30                             106   -2.20 0  408 239 
 PAL  HZ I        2244 19.22         3.9 0.22            107            408 239 
                                                                                
