 2017  723 2308 16.6 L   6.724 -73.181140.9  RSN  4 0.4 1.0LRSN                1
 GAP=227        0.93       8.9     8.2  8.7  0.4705E+02  0.2679E+02  0.2731E+02E
 Epicentro: VILLANUEVA - SANTANDER                                             3
 ACTION:UPD 17-08-30 15:36 OP:rebc STATUS:               ID:20170723230816 L   I
 OLDACT:DUP 17-07-24 05:07 OP:edw  STATUS:               ID:20170723230748d    3
 OLDACT:UP  17-07-24 05:06 OP:edw  STATUS:               ID:20170723230747     3
 OLDACT:REG 17-07-24 03:42 OP:edw  STATUS:               ID:20170723230747     3
 2017-07-23-2308-00M.COL___389                                                 6
 STAT SP IPHASW D HRMM SECON CODA AMPLIT PERI AZIMU VELO AIN AR TRES W  DIS CAZ7
 BAR2 EZ ES       23 8 49.89                             174   -0.3910 14.6 181 
 BRR  HN ES       23 8 53.78                             151    0.3010 72.4 306 
 RUS  HZ EP       23 8 39.78                             145    0.4410 92.6 173 
 RUS  HN ES       23 8 57.04                             145   -0.0110 92.6 173 
 RUS  HZ I        23 8 59.18         1.8 0.20            141           92.6 173 
 PTB  HZ EP       23 8 42.17                             132   -0.57 9  143 262 
 PTB  HN ES       23 9  3.26                             132    0.17 9  143 262 
 PTB  HZ I        23 9  7.88         1.2 0.24            129            143 262 
                                                                                
