 2012  223 2110  8.8 L   6.769 -73.213154.7  RSN  4 0.2 1.5LRSN                1
 GAP=226        0.38       4.2     4.2  5.0  0.9413E+01 -0.2378E+01 -0.1185E+01E
 ACTION:UP  12-03-07 16:33 OP:epov STATUS:               ID:20120223211008 L   I
 2012-02-23-2110-00M.COL___193                                                 6
 STAT SP IPHASW D HRMM SECON CODA AMPLIT PERI AZIMU VELO AIN AR TRES W  DIS CAZ7
 BAR2 SZ EP   2   2110 29.11                             172   -0.35 5 19.8 170 
 BAR2 SZ I        2110 46.91         5.9 0.21                          19.8 170 
 BRR  HZ EP   1   2110 30.61                             155   -0.09 7 66.6 304 
 BRR  HN ES   1   2110 47.91                             155    0.14 7 66.6 304 
 BRR  HZ I        2110 49.71         7.4 0.12                          66.6 304 
 RUS  HZ EP   1   2110 33.47                             146    0.19 7 97.9 172 
 RUS  HN ES   1   2110 52.31                             146   -0.05 7 97.9 172 
 RUS  HZ I        2110 54.11         3.1 0.35                          97.9 172 
 PTB  HZ EP   1   2110 35.90                             136    0.06 7  140 260 
 PTB  HN ES   1   2110 56.82                             136   -0.10 7  140 260 
                                                                                
