 2017  723 2145 12.2 L   6.788 -73.141141.0  RSN 19 0.5 2.3LRSN                1
 GAP= 72        1.16       3.5     2.8  5.3 -0.1555E+00  0.4459E+01  0.3094E+01E
 Epicentro: LOS SANTOS - SANTANDER                                             3
 ACTION:UPD 17-08-30 15:36 OP:rebc STATUS:               ID:20170723214512 L   I
 OLDACT:REG 17-07-24 03:35 OP:edw  STATUS:               ID:20170723213744     3
 2017-07-23-2138-00M.COL___395                                                 6
 STAT SP IPHASW D HRMM SECON CODA AMPLIT PERI AZIMU VELO AIN AR TRES W  DIS CAZ7
 BAR2 EZ IP     C 2145 31.02                             171   -0.2510 22.1 192 
 BAR2 EZ ES       2145 45.86                             171   -0.2510 22.1 192 
 BAR2 EZ I        2145 47.36        67.1 0.22            168           22.1 192 
 BRR  HZ IP     C 2145 32.91                             151   -0.0310 72.3 299 
 BRR  HE ES       2145 50.08                             151    1.0010 72.3 299 
 BRR  HZ I        2145 51.07        36.0 0.14            150           72.3 299 
 PAM  EZ IP     D 2145 34.02                             150    0.0310 78.1  39 
 PAM  EN ES       2145 50.93                             150   -0.0310 78.1  39 
 PAM  EZ I        2145 53.33        41.6 0.48            153           78.1  39 
 RUS  HZ EP       2145 34.98                             143   -0.4410 99.2 176 
 RUS  HN ES       2145 53.54                             143    0.0310 99.2 176 
 RUS  HZ I        2145 54.35        46.0 0.22            143           99.2 176 
 PTB  HZ EP       2145 37.66                             131   -1.19 9  148 259 
 PTB  HN ES       2145 58.51                             131   -1.09 9  148 259 
 PTB  HZ I        2146  0.61        19.8 0.26            130            148 259 
 TAM  HZ IP     D 2145 39.35                             130   -0.11 9  154 105 
 TAM  HE ES       2146  1.09                             130    0.40 9  154 105 
 TAM  HZ I        2146  1.54        21.2 0.35            132            154 105 
 SPBC HZ EP       2145 39.90                             128   -0.41 9  162 219 
 SPBC HN ES       2146  1.87                             128   -0.33 9  162 219 
 SPBC HZ I        2146  4.61        40.2 0.17            127            162 219 
 YPLC HZ IP     D 2145 41.08                             126   -0.47 9  175 151 
 YPLC HN ES       2146  4.91                             126    0.50 9  175 151 
 YPLC HZ I        2146  6.01        19.0 0.26            127            175 151 
 ZAR  HZ EP       2145 44.25                             121   -0.23 9  205 292 
 ZAR  HE ES       2146 10.30                             121    0.67 9  205 292 
 ZAR  HZ I        2146 15.81        34.0 0.36            121            205 292 
 TABC EZ EP   9   2145 48.84                             118    1.23 0  229 211 
 TABC EZ ES       2146 16.33                                   -0.10 8  229 211 
 TABC EZ I        2146 21.50        14.2 0.36            118            229 211 
 NOR  HZ EP       2145 47.63                             117   -0.03 8  234 235 
 NOR  HN ES       2146 15.23                             117   -0.06 8  234 235 
 NOR  HZ I        2146 19.17        15.4 0.32            117            234 235 
 ROSC BZ EP   2   2145 50.59                             116    0.58 4  252 211 
 ROSC BN ES       2146 20.11                             116    0.64 8  252 211 
 ROSC BZ I        2146 28.70        22.4 0.40            116            252 211 
 HEL  HZ EP       2145 52.65                             114    0.42 8  272 256 
 HEL  HN ES       2146 24.20                             114    0.77 8  272 256 
 HEL  HZ I        2146 27.89         9.8 0.21            114            272 256 
 GUY2CHZ IP       2145 56.33                             111    0.74 7  301 235 
 GUY2CHN ES       2146 29.90                             111    0.49 7  301 235 
 GUY2CHZ I        2146 37.60        14.7 0.40                           301 235 
 CBOC HZ IP     C 2145 59.43                             109    0.46 7  334 252 
 CBOC HN ES       2146 35.03                             109   -0.39 7  334 252 
 CBOC HZ I        2146 47.73         5.0 0.56            109            334 252 
 DBB  EZ EP       2145 59.79                             109    0.19 7  340 274 
 DBB  EN ES   2   2146 35.40                             109   -1.14 3  340 274 
 DBB  EZ I        2146 42.70         5.3 0.22            109            340 274 
 ORTC HZ EP       2146  6.21                             106    0.30 6  395 216 
 ORTC HN ES       2146 48.02                             106    0.25 6  395 216 
 ORTC HZ I        2146 53.49         4.7 0.16            106            395 216 
 PAL  HZ EP       2146  7.16                             105   -0.06 6  405 239 
 PAL  HE ES       2146 50.28                             105    0.18 6  405 239 
 PAL  HZ I        2146 53.98         5.1 0.26            105            405 239 
 SJC  HZ EP   9   2146  5.74                             105   -2.07 0  411 327 
 SJC  HE ES       2146 48.37                                   -0.72 6  411 327 
 SJC  HZ I        2146 51.41         3.6 0.28            105            411 327 
                                                                                
