 2011  523 2307 25.6 L   6.739 -73.052137.9  RSN 10 0.4 2.3LRSN                1
 GAP=152        1.02       4.5     7.7  7.4 -0.1341E+02  0.1349E+02  0.9562E+00E
 Epicentro: ARATOCA - SANTANDER                                                3
 ACTION:UP  11-06-29 08:55 OP:tino STATUS:               ID:20110523230725 L   I
 2011-05-23-2305-29S.COL___139                                                 6
 STAT SP IPHASW D HRMM SECON CODA AMPLIT PERI AZIMU VELO SNR AR TRES W  DIS CAZ7
 BAR2 SZ IP       23 7 44.19                             171     0.010   22 222 
 BAR2 SZ ES   2   23 7 58.67                             171    -0.1 5   22 222 
 BAR2 SZ I        23 8  1.17        29.2 0.29                            22 222 
 PAM  SZ EP       23 7 47.07                             149     0.110   77  30 
 PAM  SN ES   1   23 8  4.05                             149     0.5 7   77  30 
 BRR  HZ EP       23 7 46.16                             147    -0.510   84 299 
 BRR  HN ES   1   23 8  3.03                             147     0.0 7   84 299 
 BRR  HZ I        23 8  4.11        48.3 0.15                            84 299 
 RUS  HZ EP       23 7 48.14                             144     0.110   94 182 
 RUS  HN ES   1   23 8  5.16                             144    -0.4 7   94 182 
 RUS  HZ I        23 8  7.81        16.6 0.37                            94 182 
 BRI  SZ EP       23 7 49.01                             139     0.010  112  15 
 BRI  SZ ES   1   23 8  7.63                             139     0.4 7  112  15 
 GRA  SZ IP       23 7 50.30                             134    -0.210  130  12 
 GRA  SZ ES   1   23 8 10.02                             134     0.2 7  130  12 
 GRA  SZ I        23 8 10.69        31.7 0.30                           130  12 
 OCA  SZ EP       23 7 53.41                             126    -0.7 9  168 350 
 OCA  SZ I        23 8 18.18        36.0 0.36                           168 350 
 NOR  SZ EP   2   23 8  1.22                             116    -0.1 4  239 237 
 HEL  HZ EP       23 8  7.44                             112     1.1 7  281 258 
 PRA  HZ EP       23 8 18.87                             105     0.1 6  391 211 
 PRA  HZ I        23 9  3.03        14.3 0.30                           391 211 
                                                                                
