 2015 1023 2350 14.6 L   7.462 -73.209129.5  RSN  7 0.6 1.7LRSN                1
 GAP=136        1.20       4.4     5.4  8.7  0.3793E+01  0.1747E+02  0.4807E+01E
 Epicentro: EL PLAYON - SANTANDER                                              3
 ACTION:UPD 15-12-22 20:42 OP:cam  STATUS:               ID:20151023235014 L   I
 OLDACT:UP  15-10-24 06:32 OP:ak   STATUS:               ID:20151023234749     3
 OLDACT:REG 15-10-24 05:23 OP:ak   STATUS:               ID:20151023234749     3
 2015-10-23-2347-49M.COL___313                                                 6
 STAT SP IPHASW D HRMM SECON CODA AMPLIT PERI AZIMU VELO AIN AR TRES W  DIS CAZ7
 PAM  EZ EP   1   2350 33.91                             155   -0.03 7 57.8 104 
 PAM  EE ES       2350 49.57                             155    0.5310 57.8 104 
 PAM  EZ I        2350 50.53        10.3 0.18            159           57.8 104 
 BRR  HZ EP       2350 34.22                             151    0.4210 68.0 235 
 BRR  HN ES       2350 48.52                             151   -0.2710 68.0 235 
 BRR  HZ I        2350 50.54        12.5 0.21            149           68.0 235 
 RUS  HZ EP       2350 43.63                             123    0.11 9  174 175 
 RUS  HN ES       2351  5.39                             123   -0.69 9  174 175 
 RUS  HZ I        2351 10.84         1.4 0.21            125            174 175 
 SML  HZ EP       2350 42.53                             123   -0.53 9  176 327 
 SML  HN ES       2351  4.76                             123   -0.51 9  176 327 
 SML  HZ I        2351 14.99         9.7 0.09            123            176 327 
 ZAR  HZ EP   1   2350 44.34                             122    0.64 7  182 271 
 ZAR  HN ES       2351  6.93                             122    0.51 9  182 271 
 ZAR  HZ I        2351 11.91        11.7 0.22            122            182 271 
 NOR  HZ EP   1   2350 54.02                             111   -0.38 6  279 221 
 NOR  HE ES       2351 24.54                             111   -0.92 7  279 221 
 NOR  HZ I        2351 33.14         2.9 0.18            111            279 221 
 GUY2CHZ EP   1   2351  3.39                             106    0.96 5  344 224 
 GUY2CHN ES       2351 40.56                             106    0.80 7  344 224 
 GUY2CHZ I        2351 52.77         2.1 0.42                           344 224 
                                                                                
