 2014  223 2205 39.5 L   6.815 -73.128139.9  RSN  7 0.4 1.8LRSN                1
 GAP=185        0.76       2.7     4.8  7.8  0.2061E+01 -0.5889E+01 -0.4267E+01E
 Epicentro: LOS SANTOS - SANTANDER                                             3
 ACTION:UPD 14-03-10 08:12 OP:ep   STATUS:               ID:20140223220539 L   I
 OLDACT:DUP 14-02-24 01:50 OP:mh   STATUS:               ID:20140223220001d    3
 OLDACT:UP  14-02-24 01:07 OP:mh   STATUS:               ID:20140223220000     3
 OLDACT:REG 14-02-23 23:38 OP:mh   STATUS:               ID:20140223220000     3
 2014-02-23-2200-00M.COL___212                                                 6
 STAT SP IPHASW D HRMM SECON CODA AMPLIT PERI AZIMU VELO AIN AR TRES W  DIS CAZ7
 RUS  HZ EP       22 6  2.96                             142    0.1510  102 177 
 RUS  HN ES   1   22 6 20.88                             142   -0.10 7  102 177 
 RUS  HZ I        22 6 23.01         5.6 0.20            148            102 177 
 PTB  HZ EP       22 6  6.14                             130   -0.08 9  150 258 
 PTB  HN ES       22 6 26.87                             130   -0.17 9  150 258 
 PTB  HZ I        22 6 34.42         9.1 0.25            133            150 258 
 OCA  HZ EP   1   22 6  6.92                             128   -0.32 7  159 352 
 OCA  HN ES   1   22 6 29.32                             128    0.46 7  159 352 
 OCA  HZ I        22 6 34.31         6.9 0.12            133            159 352 
 SPBC HZ EP       22 6  8.02                             127    0.21 9  166 219 
 SPBC HN ES   1   22 6 29.59                             127   -0.30 7  166 219 
 SPBC HZ I        22 6 34.31        10.0 0.13            131            166 219 
 ZAR  HZ EP       22 6 12.42                             121    0.72 9  205 292 
 ZAR  HN ES   1   22 6 36.86                             121    0.05 6  205 292 
 ZAR  HZ I        22 6 44.47         6.5 0.10            124            205 292 
 SML  HZ EP       22 6 15.49                             116   -0.25 8  243 335 
 SML  HN ES   1   22 6 43.49                             116   -0.50 6  243 335 
 SML  HZ I        22 6 48.69        15.7 0.09            120            243 335 
 CHI  HZ EP       22 6 16.57                             116   -0.56 8  251 195 
 CHI  HN ES   1   22 6 46.95                             116    0.48 6  251 195 
 CHI  HZ I        22 6 52.10         1.6 0.23            121            251 195 
                                                                                
