 2013  623 2010 29.7 L   6.768 -73.164131.8  RSN  5 0.1 2.0LRSN                1
 GAP=136        0.34       1.9     2.1  4.9 -0.8906E+00  0.3825E+01 -0.1551E+01E
 Epicentro: LOS SANTOS - SANTANDER                                             3
 ACTION:UPD 14-01-08 09:56 OP:ep   STATUS:               ID:20130623201029 L   I
 OLDACT:UP  13-06-24 01:34 OP:mh   STATUS:               ID:20130623200851     3
 OLDACT:UP  13-06-24 01:32 OP:mh   STATUS:               ID:20130623200851     3
 OLDACT:REG 13-06-24 00:08 OP:mh   STATUS:               ID:20130623200851     3
 2013-06-23-2008-51M.COL___227                                                 6
 STAT SP IPHASW D HRMM SECON CODA AMPLIT PERI AZIMU VELO AIN AR TRES W  DIS CAZ7
 BRR  HZ EP       2010 49.38                             150   -0.0110 71.2 302 
 BRR  HN I        2011  8.11        27.6 0.22                          71.2 302 
 PAM  SZ EP   1   2010 50.59                             147   -0.16 7 81.5  39 
 PAM  SN ES       2011  7.12                             147   -0.0210 81.5  39 
 PAM  SN I        2011  8.75         8.7 0.22             99           81.5  39 
 RUS  HZ EP   1   2010 51.95                             142    0.08 7 97.2 175 
 RUS  HN ES   1   2011  9.26                             142    0.12 7 97.2 175 
 RUS  HN I        2011 10.96         8.9 0.34                          97.2 175 
 PTB  HN ES       2011 15.23                             129   -0.09 9  145 260 
 PTB  HN I        2011 20.86        21.0 0.28             90            145 260 
 SML  HE ES   1   2011 34.30                             114    0.22 6  246 336 
 SML  HE I        2011 42.18        12.6 0.10             90            246 336 
                                                                                
