 2014  323 2343 35.0 L   6.797 -73.179145.3  RSN  8 0.4 1.7LRSN                1
 GAP=133        0.85       2.7     4.2  5.3 -0.1850E+01  0.6310E+01 -0.9233E+00E
 Epicentro: LOS SANTOS - SANTANDER                                             3
 ACTION:UPD 14-04-09 23:20 OP:nd   STATUS:               ID:20140323234335 L   I
 OLDACT:REG 14-03-23 21:34 OP:nd   STATUS:               ID:20140323234042     3
 2014-03-23-2340-42M.COL___246                                                 6
 STAT SP IPHASW D HRMM SECON CODA AMPLIT PERI AZIMU VELO AIN AR TRES W  DIS CAZ7
 BAR2 SZ EP   2   2343 54.40                             171   -0.18 5 22.7 181 
 BAR2 SZ ES       2344  9.95                             171    0.1110 22.7 181 
 BAR2 SZ I        2344 10.93        18.4 0.26            169           22.7 181 
 BRR  HZ EP       2343 56.47                             153    0.5210 68.2 300 
 BRR  HZ I        2344 11.80        12.0 0.46            148           68.2 300 
 BRR  HN ES   2   2344 12.72                             153    0.45 5 68.2 300 
 PAM  SZ EP       2343 57.54                             150    0.2010 80.0  41 
 PAM  SN ES       2344 14.49                             150   -0.2610 80.0  41 
 PAM  SZ I        2344 16.85         7.1 0.56            152           80.0  41 
 RUS  HZ EP       2343 58.91                             144    0.1910  101 174 
 RUS  HN ES       2344 17.15                             144   -0.0610  101 174 
 RUS  HZ I        2344 18.65         3.5 0.24            144            101 174 
 PTB  HZ EP       2344  1.67                             133    0.06 9  144 259 
 PTB  HN ES       2344 22.54                             133    0.18 9  144 259 
 PTB  HZ I        2344 29.99         9.6 0.54            129            144 259 
 SPBC HZ EP       2344  3.37                             129    0.13 9  161 218 
 SPBC HN ES       2344 24.96                             129   -0.29 9  161 218 
 SPBC HZ I        2344 29.88         7.3 0.22            127            161 218 
 SML  HZ EP       2344 11.15                             117   -0.33 8  242 336 
 SML  HN ES       2344 39.36                             117   -0.57 8  242 336 
 SML  HZ I        2344 44.31         9.0 0.22            116            242 336 
 CHI  HZ EP       2344 13.01                             117    0.46 8  247 194 
 CHI  HN ES       2344 40.94                             117   -0.89 8  247 194 
 CHI  HZ I        2344 51.93         2.2 0.40            116            247 194 
                                                                                
