 2010  423 2304 18.1 L   7.149 -73.783 83.8  RSN  6 0.3 1.8LRSN                1
 GAP=214        0.69       6.4    10.5  5.1 -0.5652E+02 -0.2131E+02  0.1296E+02E
 Epicentro: BARRANCABERMEJA - SANTANDER                                        3
 ACTION:UPD 10-08-24 10:00 OP:vdl  STATUS:               ID:20100423230413 L   I
 2010-04-23-2302-09S.COL___104                                                 6
 STAT SP IPHASW D HRMM SECON CODA AMPLIT PERI AZIMU VELO AIN AR TRES W  DIS CAZ7
 BRR  HZ EP       23 4 29.71                             175     0.110    9 121 
 BRR  HE ES       23 4 38.60                             175     0.010    9 121 
 BRR  HZ I        23 4 39.83        25.4 0.17                             9 121 
 BAR2 SZ EP   2   23 4 36.05                             130     0.9 5   90 133 
 GUE  SZ IP       23 4 38.35                             120     0.010  121  51 
 GUE  SZ ES   1   23 4 53.86                             120    -0.3 7  121  51 
 GRA  SZ EP       23 4 39.81                             117     0.1 9  135  53 
 GRA  SZ ES   2   23 4 56.67                             117     0.1 5  135  53 
 CHI  HZ EP   1   23 4 56.11                             102    -0.7 6  279 179 
 CHI  HN ES   1   23 5 26.86                             102    -0.2 6  279 179 
 CHI  HZ I        23 5 33.53         3.0 0.35                           279 179 
 PRA  HZ EP       23 5 11.37                              98     0.3 6  399 198 
 PRA  HZ I        23 5 59.00         3.0 0.36                           399 198 
                                                                                
