 2014 1123 2004 14.8 L   6.776 -73.180147.2  RSN  9 0.3 1.8LRSN                1
 GAP=133        0.77       2.7     3.1  4.4 -0.5422E+00  0.3362E+01  0.2101E+01E
 Epicentro: LOS SANTOS - SANTANDER                                             3
 ACTION:UPD 14-12-19 15:46 OP:nd   STATUS:               ID:20141123200414 L   I
 OLDACT:REG 14-11-24 03:01 OP:cam  STATUS:               ID:20141123195743     3
 2014-11-23-1957-43M.COL___297                                                 6
 STAT SP IPHASW D HRMM SECON CODA AMPLIT PERI AZIMU VELO AIN AR TRES W  DIS CAZ7
 BAR2 SZ EP       20 4 34.22                             172   -0.2910 20.3 181 
 BAR2 SZ ES       20 4 49.92                             172    0.0010 20.3 181 
 BAR2 SZ I        20 4 50.85        17.5 0.26            168           20.3 181 
 BRR  HZ EP       20 4 36.07                             153    0.1110 69.3 302 
 BRR  HN ES       20 4 52.92                             153    0.4210 69.3 302 
 BRR  HZ I        20 4 57.15        13.1 0.16            152           69.3 302 
 PAM  SZ EP     D 20 4 37.28                             150   -0.1210 81.9  40 
 PAM  SN ES       20 4 54.90                             150   -0.1610 81.9  40 
 RUS  HZ EP       20 4 38.28                             145   -0.2110 98.3 174 
 RUS  HN ES       20 4 57.22                             145    0.2210 98.3 174 
 RUS  HZ I        20 4 58.17         9.3 0.34            144           98.3 174 
 PTB  HZ EP       20 4 40.99                             133   -0.48 9  144 260 
 PTB  HN ES       20 5  1.92                             133   -0.38 9  144 260 
 PTB  HZ I        20 5  4.48         6.8 0.16            132            144 260 
 SPBC HZ EP       20 4 43.44                             130    0.49 9  159 219 
 SPBC HN ES       20 5  5.06                             130    0.11 9  159 219 
 SPBC HZ I        20 5 10.16        10.6 0.18            129            159 219 
 ZAR  HZ EP       20 4 47.07                             123    0.02 9  202 293 
 ZAR  HN ES       20 5 12.50                             123    0.27 9  202 293 
 ZAR  HZ I        20 5 17.49         6.1 0.16            124            202 293 
 NOR  HZ EP       20 4 50.39                             119    0.31 8  230 234 
 NOR  HN ES       20 5 17.12                             119   -0.51 8  230 234 
 NOR  HZ I        20 5 23.94         5.8 0.18            119            230 234 
 CHI  HZ EP       20 4 52.65                             118    0.49 8  245 194 
 CHI  HN ES       20 5 21.18                             118   -0.15 8  245 194 
 CHI  HZ I        20 5 31.70         3.3 0.42            118            245 194 
                                                                                
