 2017  423 2314 13.3 L   7.375 -73.170139.8  RSN  5 0.3 1.6LRSN                1
 GAP=180        0.68       5.5     3.1  5.4 -0.1716E+01  0.6163E+01 -0.7290E+01E
 Epicentro: EL PLAYON - SANTANDER                                              3
 ACTION:UPD 17-05-30 21:15 OP:jn   STATUS:               ID:20170423231413 L   I
 OLDACT:REG 17-04-24 03:09 OP:edw  STATUS:               ID:20170423230741     3
 2017-04-23-2308-00M.COL___362                                                 6
 STAT SP IPHASW D HRMM SECON CODA AMPLIT PERI AZIMU VELO AIN AR TRES W  DIS CAZ7
 PAM  EZ EP       2314 33.44                             159   -0.0710 52.1  94 
 PAM  EN ES       2314 49.44                             159    0.1510 52.1  94 
 BRR  HZ EP       2314 33.64                             153    0.1110 66.8 244 
 BRR  HN ES       2314 49.54                             153    0.2110 66.8 244 
 BAR2 EZ EP       2314 35.28                             147    0.1910 86.6 181 
 BAR2 EZ ES       2314 51.59                             147   -0.5210 86.6 181 
 PTB  HZ EP       2314 41.98                             126    0.14 9  170 237 
 PTB  HN ES       2315  4.43                             126    0.30 9  170 237 
 PTB  HZ I        2315  7.48         3.8 0.40            126            170 237 
 ZAR  HZ EP       2314 43.31                             124   -0.25 9  187 274 
 ZAR  HN ES       2315  6.88                             124   -0.30 9  187 274 
 ZAR  HZ I        2315 10.80         4.1 0.24            123            187 274 
                                                                                
