 2010 1023 2049 46.1 L   6.775 -73.045145.2  RSN  5 0.2 1.7LRSN                1
 GAP=170        0.42       4.6     8.9  5.9  0.2648E+02 -0.2638E+02 -0.1047E+02E
 Epicentro: LOS SANTOS - SANTANDER                                             3
 ACTION:UP  11-02-18 11:11 OP:tino STATUS:               ID:20101023204946 L   I
 2010-10-23-2046-57S.COL___128                                                 6
 STAT SP IPHASW D HRMM SECON CODA AMPLIT PERI AZIMU VELO SNR AR TRES W  DIS CAZ7
 BAR2 SZ EP   2   2050  5.83                             170     0.2 5   25 217 
 BAR2 SZ ES   2   2050 20.61                             170    -0.3 5   25 217 
 BAR2 SZ I        2050 21.96        12.0 0.29                            25 217 
 BTL  SZ ES   2   2050 21.30                             168     0.2 5   29 303 
 BRR  HZ EP   1   2050  7.59                             149    -0.2 7   82 297 
 BRR  HN ES   1   2050 24.90                             149     0.1 7   82 297 
 BRR  HZ I        2050 29.57        23.6 0.36                            82 297 
 RUS  HZ EP   1   2050  9.67                             144     0.1 7   98 183 
 RUS  HN ES   1   2050 27.82                             144     0.0 7   98 183 
 RUS  HZ I        2050 29.55         4.1 0.45                            98 183 
 GRA  SZ EP   2   2050 11.23                             137     0.0 5  126  12 
 GRA  SZ I        2050 35.50         4.9 0.24                           126  12 
                                                                                
