 2016  623 2345 21.5 L   6.801 -73.145145.0  RSN 12 0.4 1.7LRSN                1
 GAP=136        1.01       4.0     4.1  6.1 -0.3681E+01  0.4632E+01  0.7589E+01E
 Epicentro: LOS SANTOS - SANTANDER                                             3
 ACTION:UPD 16-07-21 22:22 OP:rebc STATUS:               ID:20160623234521 L   I
 OLDACT:UP  16-06-24 05:11 OP:dani STATUS:               ID:20160623233746     3
 OLDACT:UP  16-06-24 05:10 OP:dani STATUS:               ID:20160623233746     3
 OLDACT:REG 16-06-24 02:54 OP:dani STATUS:               ID:20160623233746     3
 2016-06-23-2337-46M.COL___331                                                 6
 STAT SP IPHASW D HRMM SECON CODA AMPLIT PERI AZIMU VELO AIN AR TRES W  DIS CAZ7
 BAR2 EZ EP       2345 40.81                             170   -0.2410 23.5 190 
 BAR2 EZ ES       2345 55.89                             170   -0.4110 23.5 190 
 BAR2 EZ I        2345 57.40        11.2 0.24                          23.5 190 
 BRR  HZ EP       2345 42.63                             152    0.0610 71.1 298 
 BRR  HN ES       2345 59.70                             152    0.7010 71.1 298 
 BRR  HZ I        2346  2.26        15.2 0.26                          71.1 298 
 PAM  EZ EP       2345 43.82                             151    0.1810 77.2  40 
 PAM  EN ES       2346  0.83                             151   -0.0610 77.2  40 
 PAM  EZ I        2346  3.25         5.8 0.24                          77.2  40 
 RUS  HZ EP       2345 45.12                             144   -0.0810  101 176 
 RUS  HN ES   2   2346  4.16                             144    0.48 5  101 176 
 RUS  HZ I        2346  4.68         3.0 0.40                           101 176 
 PTB  HZ EP   4   2345 46.60                             132   -1.82 0  148 259 
 PTB  HN ES       2346  8.45                             132   -0.96 9  148 259 
 PTB  HZ I        2346 15.80         7.5 0.28                           148 259 
 SPBC HZ EP       2345 49.64                             129   -0.32 9  163 219 
 SPBC HE ES       2346 12.74                             129    0.58 9  163 219 
 SPBC HZ I        2346 16.26         6.3 0.07                           163 219 
 ZAR  HZ EP       2345 53.87                             122   -0.03 9  204 292 
 ZAR  HN ES       2346 19.49                             122    0.32 9  204 292 
 ZAR  HZ I        2346 24.83         4.4 0.50                           204 292 
 NOR  HN ES       2346 24.70                             118   -0.35 8  235 234 
 NOR  HZ I        2346 34.40         3.8 0.42                           235 234 
 CHI  HN ES   2   2346 28.79                             117    0.22 4  249 195 
 CHI  HZ I        2346 30.85         3.5 0.42                           249 195 
 GUY2CHE ES       2346 39.04                             112   -0.05 7  301 235 
 PRA  HZ EP       2346 14.77                             106   -0.25 6  392 210 
 PRA  HE ES       2346 57.79                             106    1.03 6  392 210 
 PRA  HZ I        2347  3.11         2.9 0.36                           392 210 
 ORTC HZ EP       2346 15.71                             106    0.29 6  396 216 
 ORTC HN ES   4   2346 59.37                             106    1.90 0  396 216 
 ORTC HZ I        2347  4.24         1.7 0.46                           396 216 
                                                                                
