 2011  523 2315 24.4 L   6.794 -73.130144.3  RSN  4 0.1 1.6LRSN                1
 GAP=139        0.32       4.0     4.5  6.9 -0.3178E+01 -0.1332E+02 -0.2158E+01E
 Epicentro: LOS SANTOS - SANTANDER                                             3
 ACTION:UP  11-06-29 08:55 OP:tino STATUS:               ID:20110523231524 L   I
 2011-05-23-2312-10S.COL___139                                                 6
 STAT SP IPHASW D HRMM SECON CODA AMPLIT PERI AZIMU VELO SNR AR TRES W  DIS CAZ7
 BRR  HZ EP       2315 45.49                             152     0.010   73 298 
 BRR  HN ES   2   2316  2.00                             152     0.0 5   73 298 
 BRR  HZ I        2316  4.21         6.8 0.40                            73 298 
 PAM  SZ EP       2315 46.58                             151     0.110   77  38 
 PAM  SN ES   3   2316  3.50                             151    -0.1 2   77  38 
 RUS  HZ EP   2   2315 47.95                             144     0.0 5  100 177 
 RUS  HN ES   3   2316  6.20                             144    -0.1 2  100 177 
 GRA  SZ EP       2315 49.46                             137    -0.110  126  17 
                                                                                
