 2016  523 2110 50.4 L   6.824 -73.155146.3  RSN  6 0.3 1.6LRSN                1
 GAP=144        0.69       4.0     3.8  5.3 -0.7674E+01  0.7389E+01 -0.1918E+01E
 Epicentro: LOS SANTOS - SANTANDER                                             3
 ACTION:UPD 16-08-18 17:48 OP:cam  STATUS:               ID:20160523211050 L   I
 OLDACT:UP  16-05-24 04:21 OP:dani STATUS:               ID:20160523210742     3
 OLDACT:REG 16-05-24 03:25 OP:dani STATUS:               ID:20160523210742     3
 2016-05-23-2107-42M.COL___304                                                 6
 STAT SP IPHASW D HRMM SECON CODA AMPLIT PERI AZIMU VELO AIN AR TRES W  DIS CAZ7
 BAR2 EZ EP       2111  9.87                             169   -0.2510 25.8 187 
 BAR2 EZ ES       2111 25.52                             169    0.0010 25.8 187 
 BAR2 EZ I        2111 28.32         7.6 0.22            170           25.8 187 
 PAM  EZ EP       2111 12.71                             151    0.1510 76.0  41 
 PAM  EN ES       2111 30.03                             151    0.1710 76.0  41 
 PAM  EZ I        2111 31.69         8.5 0.58            155           76.0  41 
 RUS  HZ EP       2111 14.45                             143    0.0810  103 176 
 RUS  HN ES       2111 33.00                             143   -0.0910  103 176 
 RUS  HZ I        2111 35.36         4.1 0.38            147            103 176 
 PTB  HZ EP       2111 17.04                             132   -0.30 9  147 258 
 PTB  HE ES       2111 38.17                             132   -0.20 9  147 258 
 PTB  HZ I        2111 43.98         4.9 0.32            133            147 258 
 SPBC HZ EP   4   2111 15.39                             129   -3.66 0  165 218 
 SPBC HN ES       2111 41.26                             129   -0.16 9  165 218 
 SPBC HZ I        2111 42.69         8.5 0.21            131            165 218 
 NOR  HZ EP       2111 26.20                             118   -0.01 8  235 234 
 NOR  HE ES       2111 54.97                             118    0.80 8  235 234 
 NOR  HZ I        2111 59.20         3.9 0.22            121            235 234 
                                                                                
