 2013 1223 2234  1.0 L   6.791 -73.127143.0  RSN 11 0.4 2.2LRSN                1
 GAP=139        0.92       3.4     3.6  5.3 -0.1525E+01  0.6285E+01  0.6458E+00E
 Epicentro: LOS SANTOS - SANTANDER                                             3
 ACTION:UPD 14-01-13 10:20 OP:ep   STATUS:               ID:20131223223401 L   I
 OLDACT:REG 13-12-23 23:47 OP:cam  STATUS:               ID:20131223223000     3
 2013-12-23-2230-00M.COL___285                                                 6
 STAT SP IPHASW D HRMM SECON CODA AMPLIT PERI AZIMU VELO AIN AR TRES W  DIS CAZ7
 BAR2 SZ EP       2234 20.27                             171   -0.0510 22.8 196 
 BAR2 SZ ES       2234 35.08                             171   -0.2810 22.8 196 
 BAR2 SZ I        2234 37.53        32.8 0.26            171           22.8 196 
 BRR  HZ IP       2234 22.15                             151    0.1310 73.5 298 
 BRR  HN ES       2234 39.14                             151    0.7610 73.5 298 
 BRR  HZ I        2234 39.58        23.4 0.30            150           73.5 298 
 PAM  SZ EP       2234 23.07                             150    0.1510 76.8  38 
 PAM  SN ES       2234 40.17                             150    0.1810 76.8  38 
 PAM  SZ I        2234 40.75        21.4 0.32            152           76.8  38 
 RUS  HZ IP     C 2234 24.26                             144   -0.1710 99.5 177 
 RUS  HN ES       2234 42.68                             144   -0.0010 99.5 177 
 RUS  HZ I        2234 44.62        10.0 0.30            146           99.5 177 
 PTB  HZ EP       2234 27.35                             131   -0.60 9  150 259 
 PTB  HN ES       2234 48.05                             131   -0.89 9  150 259 
 PTB  HZ I        2234 50.14        20.6 0.10            131            150 259 
 SPBC HZ EP       2234 29.31                             128   -0.06 9  164 220 
 SPBC HN ES       2234 51.48                             128   -0.00 9  164 220 
 SPBC HZ I        2234 53.79        30.4 0.14            129            164 220 
 ZAR  HZ EP       2234 33.50                             121   -0.04 8  206 292 
 ZAR  HE ES       2234 59.20                             121    0.30 8  206 292 
 ZAR  HZ I        2235  4.75        20.7 0.30            122            206 292 
 NOR  HZ EP       2234 36.84                             118    0.11 8  236 235 
 NOR  HE ES       2235  4.41                             118   -0.16 8  236 235 
 NOR  HZ I        2235  8.08        15.6 0.60            119            236 235 
 SML  HZ EP   2   2234 37.26                             117   -0.44 4  245 335 
 SML  HE ES   2   2235  5.55                             117   -0.75 4  245 335 
 SML  HZ I        2235 10.74        17.8 0.10            117            245 335 
 CHI  HZ EP   2   2234 39.16                             117    0.63 4  248 196 
 HEL  HZ EP   1   2234 41.90                             114    0.59 6  274 256 
 HEL  HE ES       2235 13.36                             114    0.64 8  274 256 
                                                                                
