 2017  523 2317 24.6 L   6.780 -73.154144.9  RSN  8 0.3 1.6LRSN                1
 GAP=112        0.68       3.0     3.0  5.7  0.3522E+01 -0.3136E+01 -0.1102E+01E
 Epicentro: LOS SANTOS - SANTANDER                                             3
 ACTION:UPD 17-06-16 13:38 OP:jn   STATUS:               ID:20170523231724 L   I
 OLDACT:UP  17-05-24 05:52 OP:edw  STATUS:               ID:20170523230731     3
 OLDACT:REG 17-05-24 03:36 OP:edw  STATUS:               ID:20170523230731     3
 2017-05-23-2308-00M.COL___337                                                 6
 STAT SP IPHASW D HRMM SECON CODA AMPLIT PERI AZIMU VELO AIN AR TRES W  DIS CAZ7
 BRR  HZ EP     C 2317 45.80                             152    0.1310 71.5 300 
 BRR  HN ES       2318  2.15                             152    0.0410 71.5 300 
 PAM  EZ EP       2317 46.94                             150    0.0810 79.7  39 
 RUS  HZ EP       2317 47.98                             144   -0.1310 98.4 175 
 RUS  HN ES       2318  6.62                             144    0.1810 98.4 175 
 RUS  HZ I        2318  7.62         8.5 0.54            143           98.4 175 
 PTB  HZ EP       2317 50.93                             132   -0.45 9  146 260 
 PTB  HN ES       2318 11.92                             132   -0.34 9  146 260 
 PTB  HZ I        2318 14.92         2.5 0.32            132            146 260 
 SPBC HZ EP       2317 52.92                             129    0.11 9  161 219 
 SPBC HN ES       2318 14.88                             129    0.06 9  161 219 
 SPBC HZ I        2318 19.66         6.1 0.34            128            161 219 
 YPLC HZ EP       2317 54.60                             127    0.42 9  175 151 
 YPLC HN ES       2318 16.84                             127   -0.41 9  175 151 
 YPLC HZ I        2318 20.03         5.8 0.30            127            175 151 
 ZAR  HN ES       2318 22.38                             122    0.13 9  204 293 
 NOR  HE ES   2   2318 28.55                             119    0.83 4  233 235 
                                                                                
