 2010  923 2129 23.0 L   6.760 -73.087132.3  RSN  7 0.4 2.0LRSN                1
 GAP=166        0.74       4.2     8.4  7.7 -0.1505E+02  0.7130E+00  0.2247E+01E
 Epicentro: LOS SANTOS - SANTANDER                                             3
 ACTION:UP  11-02-18 11:05 OP:tino STATUS:               ID:20100923212923 L   I
 2010-09-23-2126-49S.COL___119                                                 6
 STAT SP IPHASW D HRMM SECON CODA AMPLIT PERI AZIMU VELO SNR AR TRES W  DIS CAZ7
 BAR2 SZ EP   1   2129 40.73                             170    -0.3 8   21 210 
 BAR2 SZ ES   2   2129 54.77                             170    -0.3 5   21 210 
 BAR2 SZ I        2129 56.76        28.8 0.29                            21 210 
 BRR  HZ EP   1   2129 42.67                             147    -0.6 8   79 299 
 BRR  HE ES   2   2129 59.38                             147     0.4 5   79 299 
 BRR  HZ I        2130  3.14        37.1 0.37                            79 299 
 RUS  HZ EP   1   2129 44.73                             142    -0.4 8   96 180 
 RUS  HN ES   2   2130  3.07                             142     0.7 5   96 180 
 GUE  SZ EP   1   2129 46.74                             135    -0.1 8  120   9 
 GRA  SZ IP     D 2129 47.68                             133     0.310  128  14 
 GRA  SZ I        2129 48.98        21.7 0.31                           128  14 
 GRA  SZ ES   2   2130  6.36                             133     0.1 5  128  14 
 CHI  HZ EP   1   2129 59.93                             114     0.2 6  246 197 
 CHI  HE ES   2   2130 28.40                             114     0.0 4  246 197 
 CHI  HZ I        2130 41.25         3.7 0.62                           246 197 
 RREF HZ EP   1   2130  9.21                             108     0.3 5  324 231 
 RREF HN ES   2   2130 44.99                             108     0.4 4  324 231 
 RREF HZ I        2130 54.20         4.1 0.69                           324 231 
                                                                                
