 2017  323 2354 44.1 L   5.851 -73.708119.9  RSN 17 0.4 2.2LRSN                1
 GAP=101        1.03       2.2     2.8  5.4 -0.1034E+01  0.1451E-01  0.2034E+01E
 Epicentro: PUENTE NACIONAL - SANTANDER                                        3
 ACTION:UPD 17-05-25 18:44 OP:jn   STATUS:               ID:20170323235444 L   I
 OLDACT:UP  17-03-24 03:13 OP:edw  STATUS:               ID:20170323234739     3
 OLDACT:UP  17-03-24 03:12 OP:edw  STATUS:               ID:20170323234739     3
 OLDACT:REG 17-03-24 03:05 OP:edw  STATUS:               ID:20170323234739     3
 2017-03-23-2348-00M.COL___397                                                 6
 STAT SP IPHASW D HRMM SECON CODA AMPLIT PERI AZIMU VELO AIN AR TRES W  DIS CAZ7
 SPBC HZ EP       2355  1.14                             158   -0.0410 46.0 241 
 SPBC HN ES       2355 14.02                             158   -0.5110 46.0 241 
 SPBC HZ I        2355 15.37        69.2 0.22            156           46.0 241 
 BAR2 EZ EP     D 2355  5.58                             137    0.5810  100  35 
 BAR2 EZ ES       2355 21.95                             137    0.6210  100  35 
 PTB  HZ EP       2355  5.36                             134   -0.3610  113 313 
 PTB  HN ES       2355 22.56                             134   -0.0610  113 313 
 PTB  HZ I        2355 26.16        18.3 0.46            133            113 313 
 ROSC BZ EP       2355  8.85                             129    0.9410  131 211 
 ROSC BN ES   4   2355 24.07                             129   -2.44 0  131 211 
 ROSC BZ I        2355 30.74        18.9 0.45            129            131 211 
 NOR  HZ EP       2355  7.73                             129    0.1110  133 256 
 NOR  HN ES       2355 26.14                             129    0.1510  133 256 
 NOR  HZ I        2355 28.64        57.4 0.12            128            133 256 
 CHI  HZ EP       2355  8.30                             128   -0.0410  135 181 
 CHI  HN ES       2355 26.86                             128   -0.4310  135 181 
 BRR  HZ EP       2355  8.33                             127    0.18 9  139 360 
 BRR  HN ES       2355 27.29                             127    0.34 9  139 360 
 BRR  HZ I        2355 30.62        19.9 0.14            128            139 360 
 PAM  EZ EP       2355 15.18                             117    0.18 9  199  34 
 PAM  EN ES       2355 38.64                             117   -0.49 9  199  34 
 PAM  EZ I        2355 43.16        14.0 0.28            118            199  34 
 ELA  HZ EP   4   2355 18.66                             115    1.58 0  217 240 
 ELA  HN ES   4   2355 43.94                             115    1.10 0  217 240 
 ELA  HZ I        2355 48.69         7.8 0.52            115            217 240 
 ZAR  HZ EP       2355 16.36                             114   -0.54 8  222 325 
 ZAR  HN ES       2355 41.68                             114   -0.84 8  222 325 
 ZAR  HZ I        2355 43.96        14.2 0.38            114            222 325 
 ANIL HZ EP       2355 19.06                             112   -0.35 8  241 231 
 ANIL HN ES       2355 46.81                             112   -0.18 8  241 231 
 ANIL HZ I        2355 54.31        26.8 0.24            112            241 231 
 PTGC HZ EP       2355 20.16                             111   -0.24 8  253 136 
 PTGC HN ES       2355 48.22                             111   -0.53 8  253 136 
 CBOC HZ EP   2   2355 20.78                             110   -0.13 4  255 270 
 CBOC HN ES   2   2355 49.80                             110    0.15 4  255 270 
 PRA  HZ EP       2355 21.90                             109   -0.55 8  270 209 
 PRA  HN ES       2355 53.00                             109    0.60 8  270 209 
 PRA  HZ I        2355 58.22        12.4 0.20            109            270 209 
 ORTC HZ EP       2355 22.79                             109   -0.14 8  274 219 
 ORTC HN ES       2355 53.96                             109    0.70 8  274 219 
 ORTC HZ I        2355 57.46         6.2 0.66            109            274 219 
 URE  HN ES   4   2355 53.22                             107   -3.49 0  291 316 
 DBB  EZ EP       2355 26.64                             106    0.04 7  305 295 
 DBB  EN ES       2356  0.16                             106    0.38 7  305 295 
 DBB  EZ I        2356  2.93         9.2 0.34            107            305 295 
 CRJC HZ EP   2   2356  0.29                              96    0.90 2  579   9 
 CRJC HN ES   4   2356 56.26                              96   -1.89 0  579   9 
 CRJC HZ I        2357  6.83         4.6 0.20             97            579   9 
                                                                                
