 2011 1023 2046 59.4 L   6.791 -73.114145.4  RSN  5 0.3 1.7LRSN                1
 GAP=141        0.58       3.9     5.6  5.1 -0.6593E+00 -0.1875E+01  0.5650E+00E
 Epicentro: LOS SANTOS - SANTANDER                                             3
 ACTION:UPD 12-07-13 16:05 OP:ep   STATUS:               ID:20111023204659 L   I
 2011-10-23-2040-00M.COL___175                                                 6
 STAT SP IPHASW D HRMM SECON CODA AMPLIT PERI AZIMU VELO AIN AR TRES W  DIS CAZ7
 BAR2 SZ EP   1   2047 18.41                             170   -0.60 7 23.2 199 
 BAR2 SZ ES   1   2047 34.13                             170   -0.15 7 23.2 199 
 BAR2 SZ I        2047 35.16        10.7 0.19                          23.2 199 
 GIR2 SZ EP   1   2047 18.92                             167   -0.18 7 33.0 345 
 GIR2 SZ ES   1   2047 34.47                             167    0.02 7 33.0 345 
 BRR  HZ EP       2047 20.65                             151   -0.0910 74.7 298 
 BRR  HE ES   1   2047 37.61                             151    0.25 7 74.7 298 
 BRR  HZ I        2047 38.37        10.4 0.10                          74.7 298 
 PAM  SZ EP       2047 21.71                             151    0.1910 76.0  37 
 PAM  SN ES   1   2047 38.75                             151    0.00 7 76.0  37 
 PAM  SZ I        2047 40.64         8.5 0.58                          76.0  37 
 RUS  HZ EP   1   2047 23.47                             144    0.41 7 99.4 178 
 RUS  HN ES   1   2047 41.56                             144    0.07 7 99.4 178 
 RUS  HZ I        2047 42.55         6.8 0.22                          99.4 178 
                                                                                
