 2016 1223 2053 59.0 L   5.892 -73.661119.4  RSN 11 0.3 1.5LRSN                1
 GAP= 93        0.75       2.0     2.4  4.9 -0.1105E+01  0.2748E+01  0.7070E+00E
 Epicentro: PUENTE NACIONAL - SANTANDER                                        3
 ACTION:UPD 17-01-11 20:18 OP:rebc STATUS:               ID:20161223205359 L   I
 OLDACT:UP  16-12-24 03:52 OP:and  STATUS:               ID:20161223204745     3
 OLDACT:UP  16-12-24 03:51 OP:and  STATUS:               ID:20161223204745     3
 OLDACT:UP  16-12-24 03:50 OP:and  STATUS:               ID:20161223204745     3
 OLDACT:UP  16-12-24 03:48 OP:and  STATUS:               ID:20161223204745     3
 OLDACT:REG 16-12-24 02:56 OP:and  STATUS:               ID:20161223204745     3
 2016-12-23-2048-00M.COL___390                                                 6
 STAT SP IPHASW D HRMM SECON CODA AMPLIT PERI AZIMU VELO AIN AR TRES W  DIS CAZ7
 RUS  HZ IP     D 2054 17.31                             150   -0.2910 64.0  90 
 RUS  HN ES       2054 32.11                             150   -0.0010 64.0  90 
 RUS  HZ I        2054 32.94         8.3 0.32            152           64.0  90 
 BAR2 EZ EP       2054 19.66                             139    0.3210 93.8  34 
 BAR2 EZ ES       2054 35.45                             139    0.2310 93.8  34 
 BAR2 EZ I        2054 36.82        17.6 0.28            142           93.8  34 
 PTB  HN ES       2054 37.13                             133   -0.5010  113 309 
 PTB  HZ I        2054 39.56         4.4 0.11            135            113 309 
 BRR  HZ EP       2054 22.49                             128   -0.1310  135 358 
 BRR  HN ES       2054 41.28                             128    0.2210  135 358 
 ROSC BZ EP       2054 23.52                             128    0.10 9  137 212 
 ROSC BN ES   4   2054 48.28                             128    5.81 0  137 212 
 NOR  HN ES       2054 41.99                             127    0.09 9  139 255 
 NOR  HZ I        2054 43.10         4.9 0.07            128            139 255 
 CHI  HZ EP       2054 23.12                             127   -0.56 9  140 183 
 CHI  HN ES       2054 43.32                             127    0.37 9  140 183 
 CHI  HZ I        2054 51.13         1.9 0.40            128            140 183 
 PAM  EZ EP       2054 28.94                             118   -0.24 9  192  34 
 PAM  EN ES       2054 52.53                             118   -0.21 9  192  34 
 PAM  EZ I        2054 55.63         3.5 0.22            120            192  34 
 GUY2CHZ EP       2054 30.65                             116    0.34 9  203 249 
 GUY2CHN ES       2054 54.55                             116   -0.19 9  203 249 
 GUY2CHZ I        2055  5.42         2.5 0.52                           203 249 
 ZAR  HZ EP       2054 32.25                             114    0.52 8  221 323 
 ZAR  HE ES       2054 57.33                             114    0.05 8  221 323 
 ZAR  HZ I        2055  1.83         3.6 0.20            116            221 323 
 ORTC HZ EP       2054 38.58                             108   -0.04 7  281 219 
 ORTC HN ES   4   2055 11.57                             108    2.04 0  281 219 
 ORTC HZ I        2055 13.23         1.9 0.24            109            281 219 
                                                                                
