 2014  723 2239  4.6 L   6.790 -73.146148.4  RSN  5 0.5 1.8LRSN                1
 GAP=137        1.39       7.5     9.8 10.4 -0.2503E+01  0.1950E+02  0.3043E+01E
 Epicentro: LOS SANTOS - SANTANDER                                             3
 ACTION:UPD 15-03-16 20:46 OP:nd   STATUS:               ID:20140723223904 L   I
 OLDACT:UP  14-07-24 04:26 OP:stll STATUS:               ID:20140723223816     3
 OLDACT:REG 14-07-24 02:53 OP:stll STATUS:               ID:20140723223816     3
 2014-07-23-2238-16M.COL___269                                                 6
 STAT SP IPHASW D HRMM SECON CODA AMPLIT PERI AZIMU VELO AIN AR TRES W  DIS CAZ7
 BAR2 SZ ES       2239 39.48                             171   -0.6110 22.2 190 
 BAR2 SZ I        2239 41.20        13.3 0.32            156           22.2 190 
 BRR  HZ EP       2239 26.56                             153    0.4710 71.7 299 
 BRR  HZ I        2239 31.68        10.0 0.30            134           71.7 299 
 BRR  HN ES       2239 43.37                             153    0.5410 71.7 299 
 PAM  SZ EP       2239 27.60                             151    0.4210 78.3  39 
 PAM  SZ I        2239 27.86        29.8 0.20            150           78.3  39 
 PAM  SN ES       2239 44.32                             151   -0.4510 78.3  39 
 RUS  HZ EP       2239 28.53                             145   -0.0310 99.5 176 
 RUS  HN ES       2239 47.70                             145    0.4810 99.5 176 
 RUS  HZ I        2239 48.73         5.1 0.28            133           99.5 176 
 PTB  HZ EP       2239 30.86                             133   -0.93 9  147 259 
 PTB  HZ I        2239 55.07         4.9 0.10            117            147 259 
                                                                                
