 2016 1023 2106  2.4 L   6.805 -73.147146.2  RSN 18 0.5 2.4LRSN                1
 GAP= 65        1.08       3.2     3.2  5.6 -0.2377E+01  0.2802E+01  0.3259E+01E
 Epicentro: LOS SANTOS - SANTANDER                                             3
 ACTION:UPD 16-11-09 19:22 OP:rebc STATUS:               ID:20161023210602 L   I
 OLDACT:UP  16-10-24 03:14 OP:dnl  STATUS:               ID:20161023205743     3
 OLDACT:REG 16-10-24 02:34 OP:y    STATUS:               ID:20161023205743     3
 2016-10-23-2058-00M.COL___359                                                 6
 STAT SP IPHASW D HRMM SECON CODA AMPLIT PERI AZIMU VELO AIN AR TRES W  DIS CAZ7
 BAR2 EZ EP       21 6 22.08                             170    0.0210 23.9 189 
 BAR2 EZ ES       21 6 37.20                             170   -0.2210 23.9 189 
 BAR2 EZ I        21 6 39.21        70.7 0.24            167           23.9 189 
 BRR  HZ EP       21 6 24.00                             153    0.4610 70.8 298 
 BRR  HN ES       21 6 40.79                             153    0.7410 70.8 298 
 BRR  HZ I        21 6 42.19        41.5 0.16            146           70.8 298 
 PAM  EZ EP       21 6 24.92                             151    0.3110 77.0  40 
 PAM  EN ES       21 6 41.96                             151    0.0010 77.0  40 
 PAM  EZ I        21 6 44.40        52.5 0.64            144           77.0  40 
 RUS  HZ EP       21 6 25.99                             144   -0.2110  101 176 
 RUS  HE ES       21 6 44.68                             144   -0.1210  101 176 
 RUS  HZ I        21 6 45.50        30.1 0.22            135            101 176 
 PTB  HZ EP       21 6 28.72                             132   -0.64 9  148 259 
 PTB  HN ES       21 6 49.55                             132   -0.88 9  148 259 
 PTB  HE ES       21 6 50.33                             132            148 259 
 PTB  HZ I        21 6 51.80        34.3 0.24            123            148 259 
 TAM  HZ IP     C 21 6 30.30                             131    0.19 9  155 105 
 TAM  HZ I        21 6 49.78        18.4 0.18            122            155 105 
 TAM  HN ES       21 6 51.86                             131    0.11 9  155 105 
 OCA  HZ EP       21 6 30.48                             130   -0.17 9  160 353 
 OCA  HN ES       21 6 52.22                             130   -0.50 9  160 353 
 OCA  HZ I        21 6 55.65        41.8 0.30            121            160 353 
 SPBC HZ EP       21 6 31.01                             129    0.08 9  164 219 
 SPBC HE ES       21 6 53.86                             129    0.65 9  164 219 
 SPBC HZ I        21 6 59.73        37.3 0.10            120            164 219 
 NOR  HZ EP       21 6 38.65                             119    0.51 8  235 234 
 NOR  HE ES       21 7  6.11                             119    0.06 8  235 234 
 NOR  HZ I        21 7 10.46        26.9 0.22            111            235 234 
 CHI  HZ EP       21 6 40.19                             117    0.05 8  249 195 
 CHI  HN ES       21 7  8.68                             117   -0.93 8  249 195 
 CHI  HZ I        21 7 12.66         7.3 0.26            109            249 195 
 ROSC BZ EP   4   21 6 42.09                             117    1.54 0  253 211 
 ROSC BN ES   4   21 7 12.40                             117    2.06 0  253 211 
 ROSC BZ I        21 7 17.98        18.5 0.30            109            253 211 
 HEL  HZ EP   2   21 6 42.75                             115    0.15 4  272 256 
 HEL  HN ES   4   21 7 12.95                             115   -1.03 0  272 256 
 HEL  HZ I        21 7 21.05        12.6 0.44            107            272 256 
 GUY2CHZ EP   4   21 6 47.39                             112    1.37 0  301 235 
 GUY2CHN ES       21 7 20.96                             112    0.89 7  301 235 
 GUY2CHZ I        21 7 28.82        19.6 0.34                           301 235 
 PTGC HZ EP   2   21 6 45.49                             112   -0.82 4  309 159 
 PTGC HN ES   4   21 7 17.60                             112   -2.99 0  309 159 
 PTGC HZ I        21 7 18.11        11.6 0.32            104            309 159 
 ELA  HZ EP   4   21 6 50.92                             110    1.66 0  329 229 
 ELA  HZ I        21 7 35.38        11.2 0.36            103            329 229 
 CBOC HZ EP   2   21 6 49.99                             110    0.69 3  334 252 
 CBOC HE ES       21 7 25.36                             110   -0.55 7  334 252 
 CBOC HZ I        21 7 35.12         4.1 0.20            103            334 252 
 PRA  HZ EP   2   21 6 56.16                             107    0.21 3  392 210 
 PRA  HE ES   4   21 7 39.40                             107    1.65 0  392 210 
 PRA  HZ I        21 7 44.85         8.4 0.30            100            392 210 
 SJC  HZ EP   4   21 6 56.72                             106   -1.15 0  409 327 
 SJC  HN ES   4   21 7 35.43                             106   -5.74 0  409 327 
 SJC  HZ I        21 7 42.49         4.3 0.56            100            409 327 
                                                                                
