 2013  123 2148 26.6 L   6.809 -73.138148.1  RSN 15 0.5 2.9LRSN 3.1WRSN        1
 SPEC AVERAGE  MO 13.8 ST 11.7 OM  2.2 f0 4.84 R0.3424 AL 1.97 WI 22.3 MW  3.1 3
 SPEC SD       MO  0.1 ST 10.2 OM  0.3 f0 1.68 R0.1175 AL      WI      MW  0.1 3
 GAP= 71        0.94       3.3     3.2  5.7 -0.1093E+01  0.4653E+01  0.3941E+01E
 Epicentro: LOS SANTOS - SANTANDER                                             3
 SPEC ZAR HH Z MO 13.8 ST 22.3 OM  2.0 f0 6.36 R0.2311 AL 0.92 WI 31.1 MW  3.1 3
 SPEC ZAR HH Z T214920 K 0.000 GD  252 VS 4.20 DE 3.20 Q0300.0 QA 0.60 VS 4.20 3
 SPEC ROSCBH Z MO 13.9 ST  2.2 OM  2.0 f0 2.81 R0.5231 AL 1.83 WI 17.5 MW  3.2 3
 SPEC ROSCBH Z T214933 K 0.000 GD  294 VS 4.20 DE 3.20 Q0300.0 QA 0.60 VS 4.20 3
 SPEC OCA HH Z MO 13.8 ST  9.2 OM  2.1 f0 4.60 R0.3196 AL 1.15 WI 25.2 MW  3.2 3
 SPEC OCA HH Z T214914 K 0.000 GD  217 VS 4.20 DE 3.20 Q0300.0 QA 0.60 VS 4.20 3
 SPEC PTB HH Z MO 13.7 ST 36.6 OM  2.0 f0 7.97 R0.1844 AL 2.74 WI 16.5 MW  3.1 3
 SPEC PTB HH Z T214913 K 0.000 GD  210 VS 4.20 DE 3.20 Q0300.0 QA 0.60 VS 4.20 3
 SPEC RUS HH Z MO 13.6 ST  2.7 OM  2.0 f0 3.54 R0.4153 AL 2.03 WI 20.9 MW  3.0 3
 SPEC RUS HH Z T2149 3 K 0.000 GD  179 VS 4.20 DE 3.20 Q0300.0 QA 0.60 VS 4.20 3
 SPEC PAM SH Z MO 13.6 ST  7.4 OM  2.0 f0 5.06 R0.2905 AL 3.85 WI 20.0 MW  3.0 3
 SPEC PAM SH Z T2149 1 K 0.000 GD  166 VS 4.20 DE 3.20 Q0300.0 QA 0.60 VS 4.20 3
 SPEC ANILHH Z MO 13.9 ST  8.3 OM  1.9 f0 4.28 R0.3435 AL 1.52 WI 27.3 MW  3.2 3
 SPEC ANILHH Z T214953 K 0.000 GD  388 VS 4.20 DE 3.20 Q0300.0 QA 0.60 VS 4.20 3
 SPEC HEL HH Z MO 13.7 ST  6.8 OM  1.8 f0 4.66 R0.3155 AL 1.88 WI 30.5 MW  3.1 3
 SPEC HEL HH Z T214935 K 0.000 GD  310 VS 4.20 DE 3.20 Q0300.0 QA 0.60 VS 4.20 3
 SPEC CHI HH Z MO 13.8 ST  2.3 OM  1.9 f0 3.06 R0.4804 AL 2.05 WI 24.1 MW  3.1 3
 SPEC CHI HH Z T214932 K 0.000 GD  290 VS 4.20 DE 3.20 Q0300.0 QA 0.60 VS 4.20 3
 SPEC NOR HH Z MO 13.9 ST 19.5 OM  2.1 f0 5.45 R0.2697 AL 0.99 WI 21.1 MW  3.2 3
 SPEC NOR HH Z T214929 K 0.000 GD  278 VS 4.20 DE 3.20 Q0300.0 QA 0.60 VS 4.20 3
 SPEC BRR HH Z MO 13.5 ST 19.6 OM  1.9 f0 7.59 R0.1937 AL 2.94 WI 19.6 MW  3.0 3
 SPEC BRR HH Z T2149 3 K 0.000 GD  164 VS 4.20 DE 3.20 Q0300.0 QA 0.60 VS 4.20 3
 SPEC BAR2SH Z MO 14.1 ST  3.2 OM  2.5 f0 2.71 R0.5424 AL 1.72 WI 13.7 MW  3.3 3
 SPEC BAR2SH Z T2149 0 K 0.000 GD  150 VS 4.20 DE 3.20 Q0300.0 QA 0.60 VS 4.20 3
 ACTION:UPD 13-02-15 09:16 OP:ep   STATUS:               ID:20130123214826 L   I
 2013-01-23-2146-50M.COL___190                                                 6
 STAT SP IPHASW D HRMM SECON CODA AMPLIT PERI AZIMU VELO AIN AR TRES W  DIS CAZ7
 BAR2 SZ EP       2148 46.41                             170   -0.0710 24.5 192 
 BAR2 SZ ES   1   2149  1.98                             170   -0.05 7 24.5 192 
 BAR2 SZ I        2149  2.76       197.5 0.40            169           24.5 192 
 BRR  HZ IP     C 2148 48.28                             153    0.3110 71.5 298 
 BRR  HN ES   1   2149  5.72                             153    1.05 7 71.5 298 
 BRR  HZ I        2149 11.42        87.6 0.22            152           71.5 298 
 PAM  SZ EP       2148 49.16                             152    0.2210 76.1  40 
 PAM  SN ES   1   2149  6.46                             152    0.06 7 76.1  40 
 PAM  SZ I        2149  8.64       183.5 0.56            157           76.1  40 
 RUS  HZ IP     C 2148 50.20                             144   -0.4010  102 177 
 RUS  HN ES   1   2149  9.08                             144   -0.27 7  102 177 
 RUS  HZ I        2149 11.91        91.2 0.38            146            102 177 
 PTB  HZ EP       2148 52.93                             132   -0.87 9  149 259 
 PTB  HN ES   1   2149 14.08                             132   -0.98 7  149 259 
 PTB  HZ I        2149 16.52       102.0 0.34            133            149 259 
 TAM  HZ IP     C 2148 54.57                             131    0.21 9  155 105 
 TAM  HN ES   1   2149 16.18                             131    0.13 7  155 105 
 OCA  HZ EP   1   2148 54.97                             130    0.01 7  159 353 
 OCA  HN ES   1   2149 16.48                             130   -0.64 7  159 353 
 OCA  HZ I        2149 22.18       116.9 0.34            133            159 353 
 ZAR  HZ EP   1   2148 59.03                             123   -0.16 6  204 292 
 ZAR  HE ES   1   2149 24.83                             123    0.18 6  204 292 
 ZAR  HZ I        2149 31.42        86.4 0.36            124            204 292 
 NOR  HZ EP     C 2149  2.53                             119   -0.02 8  236 234 
 NOR  HN ES   1   2149 30.34                             119   -0.29 6  236 234 
 NOR  HZ I        2149 32.62        70.5 0.30            121            236 234 
 CHI  HZ EP     C 2149  4.33                             117   -0.18 8  250 195 
 CHI  HN ES   1   2149 33.61                             117   -0.50 6  250 195 
 CHI  HZ I        2149 42.32        30.9 0.62            120            250 195 
 ROSC BZ EP   1   2149  5.36                             117    0.42 6  254 211 
 ROSC BN ES   1   2149 35.57                             117    0.69 6  254 211 
 ROSC BZ I        2149 41.07        52.1 0.35            119            254 211 
 HEL  HZ EP       2149  7.44                             115    0.44 8  273 256 
 HEL  HN ES   1   2149 39.09                             115    0.54 6  273 256 
 HEL  HZ I        2149 44.75        47.1 0.32            117            273 256 
 URE  HZ EP   4   2149  5.52                             114   -2.26 0  284 292 
 URE  HE ES   4   2149 37.37                             114   -2.57 0  284 292 
 RREF HN ES   1   2149 49.39                             111    0.26 5  323 229 
 DBB  SZ EP       2149 13.97                             110   -0.24 7  340 274 
 DBB  SZ ES   4   2149 50.07                             110   -1.32 0  340 274 
 DBB  SZ I        2149 54.52        33.7 0.50            112            340 274 
 ANIL HZ EP       2149 17.36                             109    0.76 6  359 225 
 ANIL HN ES   1   2149 56.16                             109    0.53 5  359 225 
 ANIL HZ I        2150  2.72        24.5 0.46            111            359 225 
                                                                                
