 2010  123 2205  8.4 L   6.805 -73.104142.8  RSN  6 0.4 2.1LRSN                1
 GAP=187        0.59       3.6    16.6  6.7 -0.1483E+02  0.3990E+02  0.2008E+01E
 Epicentro: LOS SANTOS - SANTANDER                                             3
 ACTION:UP  10-08-24 09:45 OP:vdl  STATUS:               ID:20100123220508 L   I
 2010-01-23-2203-43S.COL___095                                                 6
 STAT SP IPHASW D HRMM SECON CODA AMPLIT PERI AZIMU VELO SNR AR TRES W  DIS CAZ7
 BAR2 SZ EP   1   22 5 27.72                             169     0.0 7   25 201 
 BAR2 SZ ES   2   22 5 42.44                             169    -0.3 5   25 201 
 GIR2 SZ EP   1   22 5 27.95                             167     0.2 7   32 342 
 GIR2 SZ ES   2   22 5 43.14                             167     0.3 5   32 342 
 RUS  BZ EP   1   22 5 31.72                             143    -0.2 7  101 179 
 RUS  BE ES   2   22 5 50.66                             143     0.5 5  101 179 
 RUS  BZ I        22 5 51.54         9.2 0.27                           101 179 
 OCA  SZ EP   1   22 5 36.16                             129    -0.3 7  160 351 
 OCA  SZ ES   2   22 5 58.51                             129     0.1 5  160 351 
 CHI  HZ EP   1   22 5 45.96                             116    -0.2 6  250 196 
 CHI  HE ES   2   22 6 15.02                             116    -0.5 4  250 196 
 CHI  HZ I        22 6 18.92         8.5 0.35                           250 196 
 PRA  HZ EP   1   22 6  3.05                             106     0.9 4  395 210 
 PRA  HN ES   2   22 6 43.78                             106    -0.3 3  395 210 
 PRA  HZ I        22 6 48.66         6.1 0.44                           395 210 
                                                                                
