 2015  123 2348 26.5 L   6.821 -73.174148.0  RSN  8 0.4 1.7LRSN                1
 GAP=132        1.04       3.5     4.6  7.0  0.1895E+01  0.5282E+01  0.1571E+01E
 Epicentro: ZAPATOCA - SANTANDER                                               3
 ACTION:UPD 15-03-02 15:41 OP:nd   STATUS:               ID:20150123234826 L   I
 OLDACT:UP  15-01-24 05:29 OP:mh   STATUS:               ID:20150123234748     3
 OLDACT:UP  15-01-24 05:29 OP:mh   STATUS:               ID:20150123234748     3
 OLDACT:UP  15-01-24 05:29 OP:mh   STATUS:               ID:20150123234748     3
 OLDACT:REG 15-01-24 02:56 OP:mh   STATUS:               ID:20150123234748     3
 2015-01-23-2347-48M.COL___265                                                 6
 STAT SP IPHASW D HRMM SECON CODA AMPLIT PERI AZIMU VELO AIN AR TRES W  DIS CAZ7
 BAR2 EZ I        2349  2.71         7.6 0.70            171           25.3 182 
 BRR  HZ EP       2348 48.41                             154    0.7410 67.4 298 
 BRR  HN ES       2349  4.73                             154    0.5410 67.4 298 
 BRR  HZ I        2349  8.91         9.7 0.20            152           67.4 298 
 PAM  SZ EP       2348 49.21                             151    0.2510 77.7  42 
 PAM  SN ES       2349  6.09                             151   -0.4010 77.7  42 
 PAM  SZ I        2349  8.31        12.6 0.52            154           77.7  42 
 RUS  HZ EP       2348 50.62                             144   -0.0310  103 174 
 RUS  HN ES       2349  9.43                             144   -0.0510  103 174 
 RUS  HZ I        2349 10.82         4.4 0.32            146            103 174 
 PTB  HZ EP       2348 53.33                             133   -0.08 9  145 258 
 PTB  HN ES       2349 13.63                             133   -0.78 9  145 258 
 PTB  HZ I        2349 16.85         4.6 0.48            133            145 258 
 ZAR  HZ EP   1   2348 59.23                             123    0.53 6  200 292 
 ZAR  HN ES       2349 24.03                             123    0.21 9  200 292 
 ZAR  HZ I        2349 30.51         5.4 0.26            124            200 292 
 SML  HZ EP       2349  2.40                             118   -0.48 8  240 336 
 SML  HN ES       2349 30.84                             118   -0.42 8  240 336 
 SML  HZ I        2349 36.01         7.4 0.10            119            240 336 
 CHI  HZ EP       2349  4.23                             117   -0.24 8  250 194 
 CHI  HN ES       2349 34.18                             117    0.09 8  250 194 
 CHI  HZ I        2349 37.49         2.2 0.32            119            250 194 
                                                                                
