 2017  923 2002 22.3 L   6.827 -73.125148.1  RSN 14 0.7 2.2LRSN                1
 GAP=113        1.32       3.8     4.6  7.1  0.3335E-01  0.9199E+01  0.6359E+01E
 Epicentro: LOS SANTOS - SANTANDER                                             3
 ACTION:UPD 17-10-05 19:15 OP:rebc STATUS:               ID:20170923200222 L   I
 OLDACT:REG 17-09-24 03:31 OP:dnl  STATUS:               ID:20170923195744     3
 2017-09-23-1958-00M.COL___420                                                 6
 STAT SP IPHASW D HRMM SECON CODA AMPLIT PERI AZIMU VELO AIN AR TRES W  DIS CAZ7
 BAR2 EZ EP       20 2 42.03                             169   -0.2610 26.8 194 
 BAR2 EZ ES       20 2 57.41                             169   -0.4710 26.8 194 
 BAR2 EZ I        20 2 58.14        38.5 0.34            168           26.8 194 
 BRR  HZ EP       20 2 44.12                             153    0.3810 71.9 296 
 BRR  HN ES       20 3  0.94                             153    0.4810 71.9 296 
 BRR  HZ I        20 3  1.69        20.9 0.12            151           71.9 296 
 PAM  EZ EP       20 2 45.01                             152    0.4610 73.6  40 
 PAM  EE ES       20 3  2.33                             152    0.4310 73.6  40 
 PAM  EZ I        20 3  4.24        33.7 0.54            154           73.6  40 
 RUS  HZ EP       20 2 46.03                             144   -0.4610  103 177 
 RUS  HN ES       20 3  4.94                             144   -0.4210  103 177 
 RUS  HZ I        20 3  6.32        11.7 0.44            143            103 177 
 YPLC HZ EP       20 2 52.48                             127    0.06 9  178 152 
 YPLC HN ES       20 3 16.61                             127    0.69 9  178 152 
 YPLC HZ I        20 3 19.16        10.4 0.30            127            178 152 
 ZAR  HZ EP   2   20 2 55.76                             123    0.76 4  205 291 
 ZAR  HN ES       20 3 20.12                             123   -0.39 9  205 291 
 ZAR  HZ I        20 3 25.43        18.3 0.34            122            205 291 
 NOR  HZ EP       20 2 58.28                             119   -0.27 8  238 234 
 NOR  HE ES       20 3 26.89                             119    0.06 8  238 234 
 NOR  HZ I        20 3 33.18         7.8 0.14            118            238 234 
 CHI  HZ EP       20 3  0.69                             117    0.18 8  252 195 
 CHI  HN ES       20 3 29.56                             117   -0.75 8  252 195 
 CHI  HZ I        20 3 33.02        10.4 0.66            117            252 195 
 HEL  HZ EP   2   20 3  4.07                             115    1.11 4  275 255 
 HEL  HE ES       20 3 33.82                             115   -0.85 8  275 255 
 HEL  HZ I        20 3 40.25         7.0 0.40            114            275 255 
 GUY2CHZ EP   2   20 3  7.54                             112    1.12 4  305 235 
 GUY2CHN ES       20 3 42.82                             112    1.98 7  305 235 
 GUY2CHZ I        20 3 48.28         7.4 0.34                           305 235 
 LL6C HZ EP   2   20 3  6.50                             111   -1.27 3  322 357 
 LL6C HN ES       20 3 42.44                             111   -0.79 7  322 357 
 LL6C HZ I        20 3 44.84        14.7 0.72            111            322 357 
 PRA  HZ EP       20 3 16.55                             107    0.21 6  396 210 
 PRA  HN ES       20 3 57.59                             107   -0.90 6  396 210 
 PRA  HZ I        20 4  4.31         6.2 0.32            106            396 210 
 ORTC HZ EP   2   20 3 16.40                             107   -0.34 3  399 216 
 ORTC HN ES       20 3 58.78                             107   -0.43 6  399 216 
 ORTC HZ I        20 4  3.41         5.3 0.24            106            399 216 
 SJC  HZ EP   4   20 3 16.22                             106   -1.57 0  408 326 
 SJC  HE ES   4   20 4  0.04                             106   -1.03 0  408 326 
 SJC  HZ I        20 4  6.06         2.8 0.40            106            408 326 
                                                                                
