 2011  323 2121 12.8 L   6.746 -73.125146.0  RSN  7 0.3 2.4LRSN                1
 GAP=211        0.68       5.7     5.4  6.2  0.1157E+01  0.7322E+01  0.1555E+02E
 Epicentro: JORDAN - SANTANDER                                                 3
 ACTION:UP  11-06-16 14:35 OP:jfem STATUS:               ID:20110323212112 L   I
 2011-03-23-2120-11S.COL___135                                                 6
 STAT SP IPHASW D HRMM SECON CODA AMPLIT PERI AZIMU VELO SNR AR TRES W  DIS CAZ7
 BAR2 SZ EP   1   2121 32.14                             172    -0.2 7   18 201 
 BAR2 SZ ES   1   2121 47.56                             172    -0.1 7   18 201 
 BAR2 SZ I        2121 48.91       120.4 0.23                            18 201 
 BRR  HZ IP       2121 34.00                             151    -0.310   76 302 
 BRR  HZ I        2121 34.28       156.2 0.15                            76 302 
 BRR  HN ES   1   2121 51.57                             151     0.6 7   76 302 
 YOP  SZ EP   1   2121 42.42                             128     0.2 7  173 153 
 YOP  SZ I        2121 43.36        13.4 0.53                           173 153 
 NOR  SZ EP   1   2121 48.09                             119    -0.3 6  233 236 
 NOR  SN ES   1   2122 16.00                             119    -0.1 6  233 236 
 HEL  HZ EP   1   2121 53.57                             115     0.5 6  273 257 
 HEL  HN ES   2   2122 23.98                             115    -0.6 4  273 257 
 HEL  HZ I        2122 30.73        18.0 0.32                           273 257 
 DBB  SZ EP   1   2122  0.48                             109    -0.1 5  342 275 
 DBB  SZ I        2122 42.49         2.6 0.19                           342 275 
 PRA  HZ EP   1   2122  6.27                             107     0.4 4  388 210 
 PRA  HE ES   1   2122 47.47                             107     0.2 4  388 210 
                                                                                
