 2017  123 2039 45.5 L   6.798 -73.181141.6  RSN 13 0.3 2.4LRSN                1
 GAP=101        0.65       2.3     2.1  3.3 -0.1918E+00  0.1679E+01  0.2204E+01E
 Epicentro: LOS SANTOS - SANTANDER                                             3
 ACTION:UPD 17-05-22 16:02 OP:jn   STATUS:               ID:20170123203945 L   I
 OLDACT:REG 17-01-24 02:43 OP:edw  STATUS:               ID:20170123203745     3
 2017-01-23-2038-00M.COL___354                                                 6
 STAT SP IPHASW D HRMM SECON CODA AMPLIT PERI AZIMU VELO AIN AR TRES W  DIS CAZ7
 BAR2 EZ IP     D 2040  4.58                             170   -0.0210 22.7 180 
 BAR2 EZ ES       2040 19.27                             170   -0.2410 22.7 180 
 BAR2 EZ I        2040 20.57        85.3 0.36            169           22.7 180 
 BRR  HZ EP       2040  6.49                             153    0.4910 67.9 300 
 BRR  HN ES       2040 21.95                             153   -0.0510 67.9 300 
 BRR  HZ I        2040 27.71        44.8 0.11            152           67.9 300 
 PAM  EZ EP       2040  7.41                             149   -0.0210 80.1  42 
 PAM  EN ES       2040 24.54                             149   -0.0010 80.1  42 
 PAM  EZ I        2040 26.78        71.0 0.54            154           80.1  42 
 RUS  HZ EP       2040  8.57                             143   -0.2610  101 174 
 RUS  HN ES       2040 27.50                             143    0.4510  101 174 
 RUS  HZ I        2040 28.51        32.6 0.25            144            101 174 
 PTB  HZ EP       2040 11.38                             132   -0.38 9  144 259 
 PTB  HN ES       2040 32.28                             132    0.03 9  144 259 
 PTB  HZ I        2040 33.72        26.5 0.20            132            144 259 
 TAM  HZ IP     D 2040 13.02                             129   -0.17 9  159 105 
 TAM  HE ES   4   2040 33.85                             129   -0.95 0  159 105 
 TAM  HZ I        2040 36.36        17.6 0.34            132            159 105 
 ZAR  HZ EP       2040 17.81                             122    0.52 9  201 293 
 ZAR  HN ES       2040 41.90                             122   -0.20 9  201 293 
 ZAR  HZ I        2040 47.65        21.8 0.22            123            201 293 
 NOR  HZ EP       2040 20.65                             118    0.04 8  231 234 
 NOR  HE ES       2040 48.13                             118    0.12 8  231 234 
 NOR  HZ I        2040 55.68        17.3 0.29            119            231 234 
 CHI  HZ EP       2040 22.79                             116   -0.03 8  247 194 
 CHI  HN ES       2040 51.71                             116   -0.23 8  247 194 
 CHI  HZ I        2040 55.59        24.2 0.60            118            247 194 
 ROSC BZ EP       2040 23.03                             116   -0.11 8  251 210 
 ROSC BN ES   4   2040 51.12                             116   -1.38 0  251 210 
 ROSC BZ I        2040 59.04        51.7 0.40            117            251 210 
 PTGC HZ EP   4   2040 27.73                             111   -1.57 0  310 158 
 PTGC HN ES   4   2041  0.04                             111   -3.43 0  310 158 
 PTGC HZ I        2041  3.84        20.0 0.36            112            310 158 
 LL6C HZ EP   4   2040 10.48                             110   -20.5 0  325 358 
 CBOC HZ EP       2040 31.76                             109   -0.03 7  330 252 
 CBOC HN ES       2041  7.47                             109   -0.44 7  330 252 
 CBOC HZ I        2041 14.15         5.2 0.62            110            330 252 
 ORTC HZ EP       2040 39.10                             106    0.13 6  393 216 
 ORTC HN ES       2041 21.15                             106    0.46 6  393 216 
 ORTC HZ I        2041 25.98        12.5 0.22            107            393 216 
                                                                                
