 2012  323 2207 58.6 L   6.561 -73.551100.0  RSN  6 0.4 1.8LRSN                1
 GAP=124        1.04       5.6     4.9 11.4  0.7642E+01  0.1166E+02  0.1007E+02E
 ACTION:UP  12-03-31 23:22 OP:EP   STATUS:               ID:20120323220758 L   I
 2012-03-23-2200-00M.COL___184                                                 6
 STAT SP IPHASW D HRMM SECON CODA AMPLIT PERI AZIMU VELO SNR AR TRES W  DIS CAZ7
 BAR2 SZ EP   1   22 8 13.40                             156     0.0 7   41  85 
 BAR2 SZ I        22 8 27.48        94.9 0.36                            41  85 
 BRR  HZ EP   1   22 8 14.42                             145     0.0 7   63 344 
 BRR  HZ I        22 8 14.68        31.6 0.11                            63 344 
 BRR  HE ES       22 8 27.14                             145     0.410   63 344 
 RUS  HZ EP   1   22 8 17.37                             135     0.1 7   90 145 
 RUS  HN ES   1   22 8 32.22                             135     0.4 7   90 145 
 RUS  HZ I        22 8 34.13         7.4 0.20                            90 145 
 PTB  HZ EP   1   22 8 16.95                             131    -0.6 7  100 269 
 PTB  HN ES   1   22 8 31.68                             131    -0.6 7  100 269 
 PTB  HZ I        22 8 33.14         5.4 0.12                           100 269 
 PAM  SN ES   1   22 8 37.43                             124    -0.7 7  128  47 
 ZAR  HZ EP   1   22 8 26.02                             114     0.5 7  177 306 
 ZAR  HN ES   1   22 8 46.87                             114     0.3 7  177 306 
 ZAR  HZ I        22 8 50.57         6.6 0.19                           177 306 
                                                                                
