 2014  323 2213 11.9 L   6.800 -73.142149.1  RSN 10 0.4 2.0LRSN                1
 GAP=137        0.92       2.5     3.8  5.0 -0.6444E+00  0.4641E+01 -0.3940E-01E
 Epicentro: LOS SANTOS - SANTANDER                                             3
 ACTION:UPD 14-04-09 23:20 OP:nd   STATUS:               ID:20140323221311 L   I
 OLDACT:REG 14-03-23 21:29 OP:nd   STATUS:               ID:20140323221049     3
 2014-03-23-2210-49M.COL___234                                                 6
 STAT SP IPHASW D HRMM SECON CODA AMPLIT PERI AZIMU VELO AIN AR TRES W  DIS CAZ7
 BAR2 SZ EP   2   2213 31.72                             171   -0.22 5 23.4 191 
 BAR2 SZ ES       2213 47.57                             171    0.0010 23.4 191 
 BAR2 SZ I        2213 50.69        32.5 0.72            171           23.4 191 
 BRR  HZ EP       2213 33.90                             153    0.4610 71.5 298 
 BRR  HN ES       2213 50.88                             153    0.6510 71.5 298 
 BRR  HZ I        2213 54.18        11.7 0.44            151           71.5 298 
 PAM  SZ EP       2213 34.82                             151    0.3510 77.1  39 
 PAM  SN ES       2213 51.77                             151   -0.2910 77.1  39 
 PAM  SZ I        2213 54.18        11.3 0.20            155           77.1  39 
 RUS  HZ EP       2213 36.21                             144    0.2210  101 176 
 RUS  HN ES       2213 54.52                             144   -0.2510  101 176 
 RUS  HZ I        2213 55.87         7.5 0.38            148            101 176 
 PTB  HZ EP       2213 38.96                             133   -0.22 9  148 259 
 PTB  HN ES       2213 59.61                             133   -0.84 9  148 259 
 PTB  HZ I        2214  7.41        15.2 0.52            133            148 259 
 OCA  HZ EP       2213 40.14                             130   -0.34 9  160 353 
 OCA  HN ES       2214  2.86                             130    0.09 9  160 353 
 OCA  HZ I        2214 10.46        11.9 0.30            132            160 353 
 ZAR  HZ EP       2213 44.56                             123   -0.05 9  204 292 
 ZAR  HN ES       2214 10.52                             123    0.41 9  204 292 
 ZAR  HZ I        2214 16.35        10.0 0.32            124            204 292 
 NOR  HZ EP       2213 48.05                             119    0.18 8  235 235 
 NOR  HN ES       2214 16.15                             119    0.24 8  235 235 
 NOR  HZ I        2214 19.82         9.7 0.24            121            235 235 
 SML  HZ EP       2213 48.41                             118   -0.33 8  244 335 
 SML  HN ES       2214 16.98                             118   -0.48 8  244 335 
 SML  HZ I        2214 24.21        16.3 0.30            120            244 335 
 CHI  HZ EP       2213 50.12                             118    0.31 8  249 195 
 CHI  HN ES       2214 19.08                             118   -0.29 8  249 195 
 CHI  HZ I        2214 23.30         3.9 0.34            120            249 195 
                                                                                
