 2017  723 2126 38.4 L   6.773 -73.069151.1  RSN  9 0.2 1.8LRSN                1
 GAP=148        0.64       2.6     2.8  3.6 -0.1787E+01  0.2697E+01  0.7246E+00E
 Epicentro: LOS SANTOS - SANTANDER                                             3
 ACTION:UPD 17-08-30 15:36 OP:rebc STATUS:               ID:20170723212638 L   I
 OLDACT:REG 17-07-24 03:34 OP:edw  STATUS:               ID:20170723211745     3
 2017-07-23-2118-00M.COL___395                                                 6
 STAT SP IPHASW D HRMM SECON CODA AMPLIT PERI AZIMU VELO AIN AR TRES W  DIS CAZ7
 BAR2 EZ IP     C 2126 58.47                             171   -0.1710 23.5 212 
 BAR2 EZ ES       2127 14.48                             171    0.0310 23.5 212 
 BAR2 EZ I        2127 16.03        10.7 0.33            168           23.5 212 
 PAM  EZ IP       2127  1.22                             152    0.2110 74.8  33 
 PAM  HE ES       2127 18.60                             152   -0.0610 74.8  33 
 BRR  HZ IP     C 2127  0.48                             151   -0.1210 80.1 298 
 BRR  HN ES       2127 18.09                             151    0.1510 80.1 298 
 BRR  HZ I        2127 27.42        17.4 0.36            149           80.1 298 
 RUS  HZ EP   1   2127  2.40                             146   -0.02 7 97.3 181 
 RUS  HE ES       2127 21.42                             146    0.2410 97.3 181 
 RUS  HZ I        2127 23.82         8.7 0.34            149           97.3 181 
 PTB  HZ EP   9   2127  5.61                             132   -0.86 0  156 261 
 PTB  HN ES       2127 27.07                                   -0.46 9  156 261 
 PTB  HZ I        2127 33.66         6.9 0.52            132            156 261 
 SPBC HZ EP       2127  7.29                             130   -0.29 9  166 222 
 SPBC HE ES       2127 29.97                             130   -0.39 9  166 222 
 SPBC HZ I        2127 34.89        10.2 0.22            131            166 222 
 ZAR  HZ EP       2127 11.66                             122   -0.42 8  213 292 
 ZAR  HN ES       2127 38.64                             122    0.26 8  213 292 
 ZAR  HZ I        2127 42.73         4.6 0.13            124            213 292 
 NOR  HZ EP       2127 14.88                             119   -0.09 8  240 236 
 NOR  HN ES       2127 43.61                             119    0.10 8  240 236 
 NOR  HZ I        2127 47.86         5.0 0.30            121            240 236 
 GUY2CHZ EP       2127 23.31                             113    0.49 7  306 236 
 GUY2CHN ES       2127 57.78                             113    0.30 7  306 236 
 GUY2CHZ I        2128  4.93         4.3 0.50                           306 236 
                                                                                
