 2014  923 2250 22.9 L   6.815 -73.147142.6  RSN 16 0.5 2.6LRSN                1
 GAP= 71        1.18       2.8     3.5  5.5 -0.7037E+00  0.4405E+01  0.2398E+01E
 Epicentro: LOS SANTOS - SANTANDER                                             3
 ACTION:UPD 14-10-03 23:08 OP:nd   STATUS:               ID:20140923225022 L   I
 OLDACT:REG 14-09-24 07:35 OP:carl STATUS:               ID:20140923224819     3
 2014-09-23-2248-19M.COL___275                                                 6
 STAT SP IPHASW D HRMM SECON CODA AMPLIT PERI AZIMU VELO AIN AR TRES W  DIS CAZ7
 BAR2 SZ EP       2250 42.25                             170    0.0310 24.9 189 
 BAR2 SZ ES       2250 56.87                             170   -0.4010 24.9 189 
 BAR2 SZ I        2250 58.39       170.3 0.16            169           24.9 189 
 BRR  HZ IP     D 2250 44.10                             152    0.4010 70.3 297 
 BRR  HN ES       2251  0.90                             152    1.0110 70.3 297 
 BRR  HZ I        2251  4.87        58.5 0.32            151           70.3 297 
 PAM  SZ IP     D 2250 45.05                             151    0.3010 76.2  40 
 PAM  SN ES       2251  2.04                             151    0.2810 76.2  40 
 PAM  SZ I        2251  4.07        61.1 0.50            153           76.2  40 
 RUS  HZ EP       2250 46.16                             143   -0.3410  102 176 
 RUS  HN ES       2251  4.95                             143    0.0710  102 176 
 RUS  HZ I        2251  5.81        65.6 0.30            144            102 176 
 PTB  HZ EP       2250 48.95                             131   -0.72 9  148 258 
 PTB  HN ES       2251  9.74                             131   -0.78 9  148 258 
 PTB  HZ I        2251 12.72        43.4 0.16            131            148 258 
 TAM  HZ IP     D 2250 50.55                             130    0.13 9  156 106 
 TAM  HN ES       2251 11.81                             130   -0.04 9  156 106 
 TAM  HZ I        2251 13.15        19.6 0.46            133            156 106 
 OCA  HZ EP       2250 50.64                             129   -0.21 9  159 353 
 OCA  HN ES       2251 12.47                             129   -0.16 9  159 353 
 OCA  HZ I        2251 17.15        49.2 0.18            130            159 353 
 SPBC HZ EP       2250 51.08                             128   -0.23 9  164 219 
 SPBC HN ES       2251 12.75                             128   -0.69 9  164 219 
 SPBC HZ I        2251 15.55        73.6 0.24            129            164 219 
 ZAR  HZ EP       2250 55.84                             122    0.74 9  203 292 
 ZAR  HN ES       2251 20.68                             122    0.48 9  203 292 
 ZAR  HZ I        2251 28.78        32.0 0.34            122            203 292 
 SML  HZ EP       2250 58.96                             117   -0.26 8  242 335 
 SML  HE ES       2251 26.44                             117   -1.09 8  242 335 
 SML  HZ I        2251 30.84        45.7 0.32            118            242 335 
 CHI  HZ EP       2251  0.34                             116   -0.29 8  250 195 
 CHI  HN ES       2251 30.02                             116   -0.01 8  250 195 
 CHI  HZ I        2251 36.32        13.4 0.30            117            250 195 
 GUY2CHZ EP       2251  7.04                             112    0.55 7  302 235 
 GUY2CHN ES   1   2251 41.16                             112    0.69 5  302 235 
 GUY2CHZ I        2251 47.15        18.9 0.30                           302 235 
 TOL  SZ EP       2251 12.15                             109    0.96 7  345 224 
 TOL  SN ES       2251 48.77                             109   -0.06 7  345 224 
 TOL  SZ I        2251 59.04        25.1 0.28            109            345 224 
 PRA  HZ EP       2251 16.00                             106   -0.51 6  393 209 
 PRA  HN ES       2251 59.00                             106    0.71 6  393 209 
 PRA  HZ I        2252  3.59        17.5 0.32            107            393 209 
 ORTC HZ EP       2251 16.91                             106    0.02 6  397 216 
 ORTC HE ES       2251 59.47                             106    0.49 6  397 216 
 ORTC HZ I        2252  4.45        12.0 0.40            106            397 216 
 SJC  HZ EP   4   2251 16.85                             105   -1.38 0  408 327 
 SJC  HN ES   4   2251 58.17                             105   -3.19 0  408 327 
 SJC  HZ I        2252  2.01         6.8 0.44            106            408 327 
                                                                                
