 2010  423 2101  2.7 L   6.743 -72.861143.5  RSN  4 0.2 1.9LRSN                1
 GAP=206        0.40       5.8    11.4  6.7 -0.4335E+02 -0.2203E+02  0.1736E+02E
 Epicentro: MOLAGAVITA - SANTANDER                                             3
 ACTION:UPD 10-08-24 10:00 OP:vdl  STATUS:               ID:20100423210112 L   I
 2010-04-23-2058-00S.COL___104                                                 6
 STAT SP IPHASW D HRMM SECON CODA AMPLIT PERI AZIMU VELO AIN AR TRES W  DIS CAZ7
 BAR2 SZ EP   2   21 1 22.30                             164    -0.2 6   39 245 
 BAR2 SZ ES   2   21 1 37.92                             164     0.0 6   39 245 
 GUE  SZ EP   2   21 1 27.79                             138     0.2 6  120 357 
 CHI  HZ EP       21 1 40.67                             116    -0.110  253 202 
 CHI  HE ES   2   21 2 10.81                             116     0.4 5  253 202 
 CHI  HZ I        21 2 18.03         3.8 0.45                           253 202 
 RREF BN ES   2   21 2 28.91                             109     0.0 4  342 234 
 RREF BZ I        21 2 34.63         3.8 0.48                           342 234 
                                                                                
