 2011  123 2038 45.6 L   6.757 -72.873141.5  RSN  4 0.5 1.7LRSN                1
 GAP=190        1.01       9.2    39.4 19.4 -0.1778E+03 -0.5250E+03  0.4675E+02E
 Epicentro: SAN ANDRES - SANTANDER                                             3
 ACTION:UP  11-02-08 08:42 OP:pat  STATUS:               ID:20110123203845 L   I
 2011-01-23-2035-22S.COL___138                                                 6
 STAT SP IPHASW D HRMM SECON CODA AMPLIT PERI AZIMU VELO SNR AR TRES W  DIS CAZ7
 BAR2 SZ EP   1   2039  4.56                             163    -0.6 7   39 242 
 BAR2 SZ ES   2   2039 19.38                             163    -1.0 5   39 242 
 BAR2 SZ I        2039 20.68        17.8 0.28                            39 242 
 BTL  SZ EP   1   2039  6.06                             160     0.6 7   47 292 
 BTL  SZ ES   2   2039 21.25                             160     0.3 5   47 292 
 RUS  HZ EP   1   2039  8.66                             143    -0.1 7   98 194 
 RUS  HN ES   2   2039 27.63                             143     0.8 5   98 194 
 RUS  HZ I        2039 29.10         8.5 0.34                            98 194 
 GRA  SZ EP   1   2039 10.30                             136    -0.1 7  125   4 
 GRA  SZ ES   2   2039 29.84                             136     0.1 5  125   4 
 GRA  SZ I        2039 31.09         6.6 0.30                           125   4 
                                                                                
