 2014 1023 2039 51.4 L   5.881 -73.929107.9  RSN  4 0.4 1.4LRSN                1
 GAP=156        0.87       6.6     3.5 11.7 -0.1855E+01  0.2204E+01  0.3623E+02E
 Epicentro: LA BELLEZA - SANTANDER                                             3
 ACTION:UPD 14-11-29 23:55 OP:nd   STATUS:               ID:20141023203951 L   I
 OLDACT:REG 14-10-27 10:30 OP:fm   STATUS:               ID:20141023203748     3
 2014-10-23-2037-48M.COL___283                                                 6
 STAT SP IPHASW D HRMM SECON CODA AMPLIT PERI AZIMU VELO AIN AR TRES W  DIS CAZ7
 PTB  HZ EP       2040 10.05                             136   -0.3710 93.3 321 
 PTB  HN ES       2040 25.15                             136   -0.0710 93.3 321 
 PTB  HZ I        2040 28.51         3.1 0.14            137           93.3 321 
 RUS  HZ EP       2040 11.17                             136    0.0710 93.7  89 
 RUS  HE ES   1   2040 25.91                             136   -0.53 7 93.7  89 
 BAR2 SZ EP       2040 12.76                             130    0.1810  114  46 
 BAR2 SZ ES   1   2040 29.70                             130    0.63 7  114  46 
 BAR2 SZ I        2040 30.26        10.8 0.18            133            114  46 
 GUY2CHZ EP   1   2040 18.75                             117   -0.36 7  175 246 
 GUY2CHE ES   1   2040 41.39                             117    0.70 7  175 246 
 GUY2CHZ I        2040 46.89         2.1 0.40                           175 246 
                                                                                
