 2012  423 2350 53.2 L   6.790 -73.403124.5  RSN  5 0.2 1.6LRSN                1
 GAP=176        0.45       3.7     3.3  4.8  0.6398E+01  0.8447E+00  0.5221E+01E
 Epicentro: SAN VICENTE DE CHUCURI - SANTANDER                                 3
 ACTION:UPD 12-07-05 11:55 OP:tino STATUS:               ID:20120423235053 L   I
 2012-04-23-2350-00M.COL___186                                                 6
 STAT SP IPHASW D HRMM SECON CODA AMPLIT PERI AZIMU VELO AIN AR TRES W  DIS CAZ7
 BAR2 SZ EP       2351 10.31                             164    -0.210   33 132 
 BRR  HZ EP       2351 10.82                             157     0.010   49 316 
 BRR  HN ES       2351 24.60                             157     0.010   49 316 
 BRR  HZ I        2351 26.01         9.1 0.22                            49 316 
 RUS  HZ EP       2351 15.41                             137     0.110  105 160 
 RUS  HN ES   1   2351 32.64                             137     0.1 7  105 160 
 PTB  HZ EP       2351 15.79                             133    -0.110  120 257 
 PTB  HN ES   1   2351 33.39                             133    -0.2 7  120 257 
 ZAR  HE ES   2   2351 44.26                             121     0.5 4  179 296 
 ZAR  HZ I        2351 48.87         5.7 0.24                           179 296 
                                                                                
