 2016 1023 2048 45.0 L   6.771 -73.129144.9  RSN 35 0.5 3.4LRSN                1
 GAP= 67        0.99       2.2     2.7  4.1 -0.8026E+00  0.2976E+01  0.1108E+01E
 Epicentro: LOS SANTOS - SANTANDER                                             3
 ACTION:UPD 16-11-09 19:22 OP:rebc STATUS:               ID:20161023204845 L   I
 OLDACT:UP  16-10-24 03:06 OP:dnl  STATUS:               ID:20161023204744     3
 OLDACT:UP  16-10-24 03:05 OP:dnl  STATUS:               ID:20161023204744     3
 OLDACT:REG 16-10-24 02:34 OP:y    STATUS:               ID:20161023204744     3
 2016-10-23-2048-00M.COL___359                                                 6
 STAT SP IPHASW D HRMM SECON CODA AMPLIT PERI AZIMU VELO AIN AR TRES W  DIS CAZ7
 BAR2 EZ IP     D 2049  4.60                             171    0.1110 20.6 197 
 BAR2 EZ ES       2049 19.40                             171   -0.2710 20.6 197 
 BAR2 EZ I        2049 21.00       885.4 0.44            168           20.6 197 
 BRR  HZ IP     D 2049  6.53                             151    0.2810 74.4 300 
 BRR  HN ES       2049 23.65                             151    0.8310 74.4 300 
 BRR  HZ I        2049 28.80       344.5 0.24            151           74.4 300 
 PAM  EZ IP     D 2049  7.42                             150    0.2010 78.7  37 
 PAM  EN ES       2049 24.44                             150   -0.0910 78.7  37 
 PAM  EZ I        2049 26.63       324.2 0.54            155           78.7  37 
 RUS  HZ EP       2049  8.47                             144    0.0310 97.3 177 
 RUS  HN ES       2049 26.61                             144   -0.1010 97.3 177 
 RUS  HZ I        2049 27.68       363.1 0.44            144           97.3 177 
 PTB  HZ EP       2049 11.17                             131   -0.85 9  149 260 
 PTB  HE ES       2049 32.95                             131   -0.14 9  149 260 
 PTB  HZ I        2049 34.97       268.2 0.16            131            149 260 
 TAM  HZ IP     C 2049 12.76                             131    0.38 9  152 104 
 TAM  HN ES       2049 34.16                             131    0.44 9  152 104 
 TAM  HZ I        2049 35.29       190.5 0.34            134            152 104 
 SPBC HZ EP       2049 13.43                             129    0.11 9  162 220 
 SPBC HE ES       2049 35.05                             129   -0.35 9  162 220 
 SPBC HZ I        2049 37.99       364.0 0.20            128            162 220 
 OCA  HZ EP       2049 12.75                             129   -0.83 9  164 353 
 OCA  HN ES       2049 34.86                             129   -1.00 9  164 353 
 NOR  HZ EP       2049 20.64                             118   -0.02 8  234 235 
 NOR  HN ES       2049 48.08                             118   -0.38 8  234 235 
 NOR  HZ I        2049 50.96       229.3 0.42            118            234 235 
 CHI  HZ EP       2049 22.41                             117    0.03 8  246 196 
 CHI  HN ES       2049 51.45                             117   -0.08 8  246 196 
 CHI  HZ I        2049 57.97       133.0 0.24            118            246 196 
 ROSC BZ EP   4   2049 24.23                             117    1.34 0  251 212 
 ROSC BN ES   4   2049 55.06                             117    2.62 0  251 212 
 ROSC BZ I        2050  2.46       179.3 0.40            117            251 212 
 HEL  HZ EP       2049 25.47                             114    0.17 8  273 257 
 HEL  HN ES       2049 56.75                             114    0.03 8  273 257 
 HEL  HZ I        2050  3.37       206.5 0.38            115            273 257 
 GUY2CHZ EP       2049 28.94                             112    0.39 7  301 235 
 GUY2CHN ES   4   2050  5.57                             112    3.07 0  301 235 
 GUY2CHZ I        2050 11.14       138.1 0.34                           301 235 
 VIL  HZ EP   2   2049 27.05                             112   -1.03 4  301 192 
 VIL  HN ES       2050  1.80                             112    0.13 7  301 192 
 PTGC HZ IP     C 2049 27.53                             112   -0.88 7  305 159 
 PTGC HN ES   4   2050  0.70                             112   -1.56 0  305 159 
 PTGC HZ I        2050  2.50        83.0 0.62            113            305 159 
 LL1C HZ EP   4   2049 31.06                             111    2.10 0  310 351 
 LL1C HN ES       2050  3.72                             111    0.48 7  310 351 
 LL6C HZ EP   4   2049  9.98                             110   -21.1 0  328 357 
 LL6C HE ES   4   2049 45.27                             110   -21.7 0  328 357 
 LL6C HZ I        2049 51.49        54.1 0.58            112            328 357 
 ELA  HZ EP       2049 32.60                             110    0.85 7  328 230 
 ELA  HN ES   4   2050 11.12                             110    2.91 0  328 230 
 ELA  HZ I        2050 18.09       115.3 0.74            111            328 230 
 CBOC HZ EP   4   2049 33.31                             110    1.33 0  334 253 
 CBOC HE ES       2050  9.32                             110    0.70 7  334 253 
 CBOC HZ I        2050 11.82        55.4 0.50            110            334 253 
 DBB  HZ EP   2   2049 32.99                             109    0.29 3  342 275 
 DBB  HE ES   4   2050  7.93                             109   -1.96 0  342 275 
 ANIL HZ EP   4   2049 36.04                             108    1.37 0  356 225 
 ANIL HN ES   4   2050 16.45                             108    3.04 0  356 225 
 ANIL HZ I        2050 20.94       239.0 0.28            109            356 225 
 ARGC HZ EP       2049 35.50                             108    0.44 6  363 340 
 ARGC HN ES       2050 14.77                             108    0.68 6  363 340 
 ARGC HZ I        2050 28.38        48.2 0.38            109            363 340 
 PRA  HZ EP       2049 37.97                             106   -0.32 6  390 210 
 PRA  HN ES       2050 20.75                             106    0.91 6  390 210 
 PRA  HZ I        2050 27.11       123.8 0.36            107            390 210 
 ORTC HZ EP       2049 38.74                             106    0.01 6  394 217 
 ORTC HN ES   4   2050 22.48                             106    1.85 0  394 217 
 ORTC HZ I        2050 28.78        92.6 0.30            107            394 217 
 PAL  HZ EP       2049 40.43                             106    0.29 6  406 240 
 PAL  HE ES       2050 23.05                             106   -0.09 6  406 240 
 PAL  HZ I        2050 28.30        49.4 0.32            106            406 240 
 SJC  HZ EP   4   2049 38.60                             105   -2.38 0  413 327 
 SJC  HN ES   4   2050 20.51                             105   -4.13 0  413 327 
 SJC  HZ I        2050 24.74       134.1 0.50            106            413 327 
 LCBC HZ EP   4   2049 40.82                             105   -1.52 0  425 303 
 LCBC HE ES       2050 26.50                             105   -0.56 5  425 303 
 LCBC HZ I        2050 30.16        58.0 0.32            106            425 303 
 YOT  HZ EP       2049 47.41                             103   -0.54 5  471 229 
 YOT  HN ES       2050 37.00                             103   -0.04 5  471 229 
 GUA  EZ EP   9   2049 46.04                             103   -1.70 0  471 173 
 GUA  EN ES       2050 35.27                             103    0.31 5  471 173 
 GUA  EZ I        2050 41.04        43.9 0.22            104            471 173 
 CRJC HZ EP   4   2049 44.61                             103   -3.25 0  471   3 
 CRJC HN ES   4   2050 32.15                             103   -4.72 0  471   3 
 CRJC HZ I        2050 38.42        61.6 0.46            104            471   3 
 MARO HZ EP       2049 55.33                             101   -0.50 4  536 216 
 MARO HN ES   4   2050 49.84                             101   -1.23 0  536 216 
 MARO HZ I        2050 57.90        10.6 0.16            102            536 216 
 URI  HZ EP   4   2049 55.07                             100   -3.25 0  559  13 
 URI  HE ES   4   2050 49.02                             100   -6.48 0  559  13 
 URI  HZ I        2050 51.43        10.7 0.44            102            559  13 
 GARC HZ EP   4   2049 58.68                             100   -1.33 0  571 207 
 GARC HN ES   4   2050 56.69                             100   -1.81 0  571 207 
 GARC HZ I        2051  2.64        28.5 0.30            101            571 207 
 SOTO HZ EP       2050  9.75                              99    0.90 2  642 217 
 SOTO HN ES   4   2051 18.32                              99    4.08 0  642 217 
 BBAC HZ EP   2   2050 15.39                              98    0.32 1  696 221 
 BBAC HN ES   4   2051 22.42                              98   -2.89 0  696 221 
 BBAC HZ I        2051 30.47         7.8 0.36             98            696 221 
                                                                                
