 2013 1223 2036 47.0 L   6.797 -73.152144.7  RSN 10 0.4 2.8LRSN                1
 GAP= 71        1.08       3.6     3.8  5.9  0.1644E+01  0.3279E+01 -0.1917E+01E
 Epicentro: LOS SANTOS - SANTANDER                                             3
 ACTION:UPD 14-01-13 10:20 OP:ep   STATUS:               ID:20131223203647 L   I
 OLDACT:UP  13-12-24 01:05 OP:CAM  STATUS:               ID:20131223203647 L   3
 OLDACT:REG 13-12-23 23:44 OP:cam  STATUS:               ID:20131223203000     3
 2013-12-23-2030-00M.COL___285                                                 6
 STAT SP IPHASW D HRMM SECON CODA AMPLIT PERI AZIMU VELO AIN AR TRES W  DIS CAZ7
 BAR2 SZ EP       2037  6.45                             171   -0.0010 22.9 188 
 BAR2 SZ ES       2037 21.25                             171   -0.4110 22.9 188 
 BAR2 SZ I        2037 22.47       188.5 0.18            169           22.9 188 
 BRR  HZ EP       2037  8.41                             152    0.4410 70.7 299 
 BRR  HN ES       2037 25.40                             152    1.0510 70.7 299 
 BRR  HZ I        2037 26.72       100.2 0.16            145           70.7 299 
 PAM  SZ EP       2037  9.38                             150    0.2810 78.1  40 
 PAM  SN ES       2037 26.34                             150   -0.0410 78.1  40 
 PAM  SZ I        2037 28.80        94.5 0.68            147           78.1  40 
 RUS  HZ EP       2037 10.43                             144   -0.1610  100 176 
 RUS  HN ES       2037 28.64                             144   -0.3810  100 176 
 RUS  HZ I        2037 29.92        38.9 0.32            141            100 176 
 PTB  HZ EP       2037 13.17                             132   -0.60 9  147 259 
 PTB  HN ES       2037 34.39                             132   -0.29 9  147 259 
 PTB  HZ I        2037 36.32        97.3 0.14            125            147 259 
 TAM  HZ IP     D 2037 14.83                             130    0.22 9  156 105 
 TAM  HN ES       2037 36.40                             130    0.22 9  156 105 
 OCA  HZ EP   1   2037 14.62                             129   -0.59 7  160 353 
 OCA  HN ES       2037 36.79                             129   -0.45 9  160 353 
 OCA  HZ I        2037 39.98        50.0 0.40            123            160 353 
 SPBC HZ EP   4   2037 14.01                             129   -1.30 0  162 219 
 SPBC HE ES   4   2037 37.54                             129    0.12 0  162 219 
 ZAR  HZ EP       2037 19.67                             122    0.39 9  203 292 
 ZAR  HZ I        2037 51.00        65.7 0.50            116            203 292 
 NOR  HZ EP       2037 22.97                             118    0.42 8  234 234 
 SML  HZ EP       2037 23.33                             117   -0.19 8  244 335 
 SML  HE ES       2037 51.78                             117   -0.26 8  244 335 
 SML  HZ I        2037 55.93        68.8 0.10            112            244 335 
 CHI  HZ EP   4   2037 24.71                             117    0.16 0  248 195 
 HEL  HZ EP   4   2037 27.61                             115    0.58 0  271 256 
 URE  HZ EP   4   2037 26.97                             113   -0.95 0  283 292 
 GUY2CHZ EP   4   2037 32.15                             112    1.72 0  300 235 
 PTGC HZ EP   4   2037 29.72                             111   -1.05 0  309 159 
 CBOC HZ EP   4   2037 34.36                             110    0.62 0  333 252 
 DBB  SZ EP   4   2037 34.70                             109    0.39 0  339 274 
 COD  HZ EP   4   2037 35.18                             109   -0.14 0  349 355 
 SJC  HZ EP   4   2037 40.71                             105   -1.76 0  409 327 
                                                                                
