 2011  723 2249 42.4 L   6.778 -73.095140.9  RSN  7 0.3 1.8LRSN                1
 GAP=144        0.67       3.4     6.2  5.8 -0.5105E+01 -0.3491E+01 -0.1407E+01E
 Epicentro: LOS SANTOS - SANTANDER                                             3
 ACTION:UPD 12-07-25 14:02 OP:epov STATUS:               ID:20110723224942 L   I
 2011-07-23-2248-10S.COL___143                                                 6
 STAT SP IPHASW D HRMM SECON CODA AMPLIT PERI AZIMU VELO AIN AR TRES W  DIS CAZ7
 BAR2 SZ EP   1   2250  1.08                             170   -0.32 7 22.7 205 
 BAR2 SZ ES   1   2250 15.82                             170   -0.43 7 22.7 205 
 BAR2 SZ I        2250 17.93        26.5 0.17                          22.7 205 
 BTL  SZ EP   1   2250  1.72                             170    0.28 7 24.6 309 
 PAM  SZ EP   1   2250  4.37                             150    0.39 7 75.9  35 
 PAM  SN ES   1   2250 21.33                             150    0.49 7 75.9  35 
 PAM  SZ I        2250 23.24         6.2 0.57                          75.9  35 
 BRR  HZ EP       2250  3.28                             150   -0.0810 77.3 298 
 BRR  HZ I        2250  3.62        21.6 0.11                          77.3 298 
 BRR  HN ES   1   2250 20.06                             150    0.33 7 77.3 298 
 RUS  HZ EP       2250  5.50                             144    0.0510 97.9 179 
 RUS  HZ I        2250  6.77         6.4 0.15                          97.9 179 
 RUS  HN ES   1   2250 23.47                             144    0.01 7 97.9 179 
 BRI  SZ EP   1   2250  5.93                             140    0.10 7  109  18 
 BRI  SZ I        2250 29.38         7.3 0.39                           109  18 
 GRA  SZ EP       2250  7.07                             136   -0.1810  127  15 
 GRA  SZ I        2250  8.36         8.1 0.33                           127  15 
 GRA  SZ ES   1   2250 26.09                             136   -0.56 7  127  15 
                                                                                
