 2014  923 2232  7.3 L   6.808 -73.139143.0  RSN 17 0.6 2.9LRSN                1
 GAP= 71        1.38       3.3     4.2  6.5 -0.2783E+00  0.5504E+01  0.2714E+01E
 Epicentro: LOS SANTOS - SANTANDER                                             3
 ACTION:UPD 14-10-03 23:07 OP:nd   STATUS:               ID:20140923223207 L   I
 OLDACT:REG 14-09-24 07:34 OP:carl STATUS:               ID:20140923222817     3
 2014-09-23-2228-17M.COL___278                                                 6
 STAT SP IPHASW D HRMM SECON CODA AMPLIT PERI AZIMU VELO AIN AR TRES W  DIS CAZ7
 BAR2 SZ IP     D 2232 26.64                             170    0.0410 24.3 191 
 BAR2 SZ ES       2232 41.18                             170   -0.4910 24.3 191 
 BAR2 SZ I        2232 42.41       219.6 0.20            169           24.3 191 
 BRR  HZ IP     C 2232 28.56                             152    0.4110 71.5 298 
 BRR  HN ES       2232 45.27                             152    0.8410 71.5 298 
 BRR  HZ I        2232 49.46       152.8 0.10            150           71.5 298 
 PAM  SZ EP       2232 29.61                             151    0.4710 76.2  39 
 PAM  SN ES       2232 46.38                             151    0.2010 76.2  39 
 PAM  SZ I        2232 49.07       163.1 0.54            153           76.2  39 
 RUS  HZ EP       2232 30.69                             143   -0.1310  101 177 
 RUS  HN ES       2232 48.95                             143   -0.2310  101 177 
 RUS  HZ I        2232 49.86        83.4 0.22            144            101 177 
 PTB  HZ EP       2232 33.20                             131   -0.91 9  149 259 
 PTB  HN ES       2232 54.69                             131   -0.35 9  149 259 
 PTB  HZ I        2232 56.59       158.3 0.16            130            149 259 
 TAM  HZ IP     D 2232 35.06                             130    0.37 9  155 105 
 TAM  HE ES       2232 56.27                             130    0.20 9  155 105 
 TAM  HZ I        2232 57.07        67.4 0.20            133            155 105 
 OCA  HZ EP       2232 35.12                             129   -0.19 9  160 353 
 OCA  HN ES       2232 56.75                             129   -0.42 9  160 353 
 OCA  HZ I        2232 58.83        85.4 0.18            130            160 353 
 SPBC HZ IP     C 2232 35.60                             128   -0.08 9  164 219 
 SPBC HN ES       2232 57.77                             128   -0.06 9  164 219 
 SPBC HZ I        2233  2.38        66.8 0.22            128            164 219 
 ZAR  HZ EP       2232 39.79                             122    0.20 9  204 292 
 ZAR  HN ES       2233  6.09                             122    1.30 9  204 292 
 ZAR  HZ I        2233 13.63        82.5 0.54            121            204 292 
 SML  HZ EP       2232 43.24                             117   -0.47 8  243 335 
 SML  HN ES       2233 10.67                             117   -1.45 8  243 335 
 SML  HZ I        2233 20.50        70.7 0.10            117            243 335 
 CHI  HZ EP       2232 45.01                             116    0.07 8  250 195 
 CHI  HN ES       2233 13.55                             116   -0.77 8  250 195 
 CHI  HZ I        2233 21.47        21.1 0.54            117            250 195 
 URE  HZ EP   4   2232 47.43                             113   -0.84 0  284 292 
 URE  HN ES   4   2233 19.48                             113   -0.75 0  284 292 
 URE  HZ I        2233 20.56        66.2 0.36            113            284 292 
 GUY2CHZ EP       2232 51.72                             112    0.83 7  302 235 
 GUY2CHN ES   4   2233 27.98                             112    3.07 0  302 235 
 GUY2CHZ I        2233 31.99        36.7 0.28                           302 235 
 CBOC HZ EP   4   2232 55.55                             109    1.35 0  335 252 
 CBOC HE ES   4   2233 30.41                             109   -0.39 0  335 252 
 TOL  SZ EP   4   2232 56.70                             109    1.14 0  345 225 
 TOL  SN ES   4   2233 34.67                             109    1.45 0  345 225 
 TOL  SZ I        2233 41.45        44.9 0.46            109            345 225 
 MON  HZ EP   4   2232 54.59                             108   -1.60 0  354 308 
 MON  HN ES   4   2233 32.88                             108   -1.45 0  354 308 
 PRA  HZ EP       2233  0.68                             106   -0.16 6  393 210 
 PRA  HN ES       2233 41.82                             106   -0.80 6  393 210 
 PRA  HZ I        2233 50.18        19.2 0.30            106            393 210 
 ORTC HZ EP       2233  2.14                             106    0.90 6  397 216 
 ORTC HN ES       2233 44.25                             106    0.92 6  397 216 
 ORTC HZ I        2233 48.21        17.1 0.58            106            397 216 
 SJC  HZ EP   4   2233  1.18                             105   -1.54 0  409 327 
 SJC  HN ES   4   2233 42.44                             105   -3.52 0  409 327 
 SJC  HZ I        2233 47.02        10.9 0.56            106            409 327 
                                                                                
