 2011  623 2212 20.0 L   6.759 -73.122149.5  RSN  5 0.2 1.9LRSN                1
 GAP=185        0.58       4.4     6.1  6.6 -0.1435E+01  0.6623E+01 -0.9824E+01E
 Epicentro: LOS SANTOS - SANTANDER                                             3
 ACTION:UP  11-07-14 19:07 OP:ep   STATUS:               ID:20110623221220 L   I
 2011-06-23-2209-35S.COL___140                                                 6
 STAT SP IPHASW D HRMM SECON CODA AMPLIT PERI AZIMU VELO SNR AR TRES W  DIS CAZ7
 BAR2 SZ EP       2212 40.03                             172     0.010   20 200 
 BAR2 SZ ES   1   2212 55.51                             172    -0.1 7   20 200 
 BAR2 SZ I        2212 57.82        19.6 0.23                            20 200 
 BRR  HZ EP       2212 41.86                             152     0.010   76 301 
 BRR  HN ES   2   2212 59.24                             152     0.4 5   76 301 
 BRR  HZ I        2213  1.64        25.9 0.12                            76 301 
 RUS  HZ EP   1   2212 44.24                             146     0.4 7   96 177 
 RUS  HN ES   1   2213  2.17                             146    -0.2 7   96 177 
 RUS  HZ I        2213  3.80         9.2 0.26                            96 177 
 OCA  SZ EP   1   2212 48.82                             129    -0.3 7  165 352 
 OCA  SZ I        2213 13.87         8.9 0.21                           165 352 
 NOR  SN ES   1   2213 23.75                             119    -0.2 6  234 236 
                                                                                
