 2016  723 2016 49.9 L   6.786 -73.097142.7  RSN 12 0.4 2.2LRSN                1
 GAP=143        0.96       3.5     4.0  6.4 -0.2105E+01  0.9430E+01  0.4779E+01E
 Epicentro: LOS SANTOS - SANTANDER                                             3
 ACTION:UPD 17-03-29 16:54 OP:lp   STATUS:               ID:20160723201649 L   I
 OLDACT:UP  16-07-24 06:04 OP:dani STATUS:               ID:20160723200759     3
 OLDACT:REG 16-07-24 05:57 OP:dani STATUS:               ID:20160723200759     3
 2016-07-23-2007-59S.COL___331                                                 6
 STAT SP IPHASW D HRMM SECON CODA AMPLIT PERI AZIMU VELO AIN AR TRES W  DIS CAZ7
 BAR2 EZ EP     C 2017  8.90                             170   -0.2210 23.4 204 
 PAM  EZ EP       2017 11.78                             151    0.1610 75.3  36 
 PAM  EE ES       2017 28.86                             151    0.2610 75.3  36 
 PAM  EZ I        2017 29.42        18.9 0.34            154           75.3  36 
 BRR  HZ EP       2017 10.84                             150   -0.1510 76.6 298 
 BRR  HE ES       2017 27.83                             150    0.3510 76.6 298 
 BRR  HZ I        2017 31.88        31.8 0.38            148           76.6 298 
 RUS  HZ EP       2017 12.92                             144   -0.2610 98.9 179 
 RUS  HN ES       2017 31.37                             144   -0.0110 98.9 179 
 RUS  HZ I        2017 32.72        12.9 0.32            146           98.9 179 
 SPBC HZ EP   2   2017 18.37                             128    0.03 5  165 221 
 SPBC HN ES       2017 39.80                             128   -0.76 9  165 221 
 SPBC HZ I        2017 42.58        36.6 0.10            129            165 221 
 ZAR  HZ EP       2017 22.05                             121   -0.63 8  210 292 
 ZAR  HE ES       2017 48.11                             121   -0.17 8  210 292 
 ZAR  HZ I        2017 53.00        21.8 0.20            121            210 292 
 NOR  HZ EP       2017 25.27                             117   -0.52 8  238 236 
 NOR  HE ES       2017 53.57                             117   -0.24 8  238 236 
 NOR  HZ I        2017 59.71        12.7 0.14            118            238 236 
 CHI  HE ES   2   2017 57.60                             116    0.94 4  249 196 
 HEL  HZ EP       2017 31.12                             114    0.67 7  277 256 
 HEL  HN ES       2018  2.15                             114    0.04 7  277 256 
 HEL  HZ I        2018  8.14         9.1 0.46            114            277 256 
 GUY2CHZ EP       2017 34.30                             111    0.58 7  305 236 
 GUY2CHE ES       2018  8.85                             111    0.91 7  305 236 
 GUY2CHZ I        2018 15.77         7.4 0.70                           305 236 
 PRA  HZ EP       2017 43.59                             106    0.16 6  393 210 
 PRA  HE ES       2018 25.85                             106    0.63 6  393 210 
 PRA  HZ I        2018 30.81         5.2 0.42            107            393 210 
 SJC  HZ EP   4   2017 43.68                             105   -2.13 0  413 326 
 SJC  HE ES   4   2018 26.13                             105   -3.32 0  413 326 
 SJC  HZ I        2018 34.24         2.2 0.52            106            413 326 
                                                                                
