 2011 1023 2108  8.2 L   6.306 -73.605114.8  RSN  5 0.1 1.7LRSN                1
 GAP=185        0.32       3.1     4.2  5.1  0.8795E+01  0.1500E+02  0.7475E+01E
 Epicentro: SANTA HELENA DEL OPON - SANTANDER                                  3
 ACTION:UPD 12-07-13 16:05 OP:ep   STATUS:               ID:20111023210808 L   I
 2011-10-23-2100-00M.COL___175                                                 6
 STAT SP IPHASW D HRMM SECON CODA AMPLIT PERI AZIMU VELO AIN AR TRES W  DIS CAZ7
 BAR2 SZ EP   1   21 8 25.63                             152    0.13 7 56.4  56 
 BAR2 SZ I        21 8 25.91        16.1 0.23                          56.4  56 
 BAR2 SZ ES   1   21 8 38.86                             152   -0.14 7 56.4  56 
 RUS  HZ EP       21 8 26.93                             145   -0.0210 73.6 128 
 RUS  HZ I        21 8 27.30         5.2 0.20                          73.6 128 
 RUS  HN ES   2   21 8 41.66                             145    0.08 5 73.6 128 
 BRR  HZ EP   1   21 8 27.41                             139   -0.03 7 89.4 352 
 BRR  HZ I        21 8 36.10         8.8 0.13                          89.4 352 
 BRR  HN ES   2   21 8 42.50                             139    0.05 5 89.4 352 
 GIR2 SZ EP   1   21 8 28.36                             137    0.12 7 96.8  28 
 GIR2 SZ ES   2   21 8 43.80                             137   -0.08 5 96.8  28 
 ZAR  HZ EP   1   21 8 37.13                             116   -0.23 7  191 314 
 ZAR  HN ES   2   21 9  0.40                             116    0.28 4  191 314 
 ZAR  HZ I        21 9  4.26        10.3 0.41                           191 314 
                                                                                
