 2016  723 2128 37.8 L   6.803 -73.114146.5  RSN 13 0.4 2.3LRSN                1
 GAP=140        0.99       3.4     4.5  5.2 -0.2881E+01  0.6101E+01  0.3356E+01E
 Epicentro: LOS SANTOS - SANTANDER                                             3
 ACTION:UPD 17-03-29 16:54 OP:lp   STATUS:               ID:20160723212837 L   I
 OLDACT:UP  16-07-24 06:27 OP:dani STATUS:               ID:20160723212759     3
 OLDACT:REG 16-07-24 04:39 OP:dani STATUS:               ID:20160723212759     3
 2016-07-23-2127-59S.COL___331                                                 6
 STAT SP IPHASW D HRMM SECON CODA AMPLIT PERI AZIMU VELO AIN AR TRES W  DIS CAZ7
 BAR2 EZ EP       2128 57.46                             170   -0.1010 24.5 198 
 BAR2 EZ ES       2129 12.26                             170   -0.7010 24.5 198 
 BRR  HE ES       2129 16.38                             152    0.4810 74.1 297 
 PAM  EZ EP       2129  0.23                             152    0.2610 75.0  38 
 PAM  EE ES       2129 17.53                             152    0.2810 75.0  38 
 PAM  EZ I        2129 19.63        23.3 0.48            155           75.0  38 
 RUS  HZ EP       2129  1.44                             144   -0.2110  101 178 
 RUS  HE ES       2129 20.18                             144   -0.0610  101 178 
 RUS  HZ I        2129 21.37        19.7 0.30            143            101 178 
 SPBC HZ EP       2129  6.47                             129   -0.14 9  166 220 
 SPBC HE ES       2129 29.84                             129    0.78 9  166 220 
 SPBC HZ I        2129 37.92        52.5 0.10            128            166 220 
 ZAR  HN ES       2129 35.89                             122   -0.34 8  207 292 
 NOR  HZ EP       2129 13.77                             118   -0.15 8  238 235 
 NOR  HE ES       2129 41.40                             118   -0.67 8  238 235 
 NOR  HZ I        2129 47.18        12.2 0.18            118            238 235 
 CHI  HZ EP       2129 15.78                             117    0.09 8  250 196 
 CHI  HE ES       2129 45.39                             117    0.16 8  250 196 
 CHI  HZ I        2129 54.89         6.6 0.38            117            250 196 
 GUY2CHZ EP       2129 22.58                             112    0.78 7  304 235 
 GUY2CHN ES   4   2129 59.81                             112    3.70 0  304 235 
 GUY2CHZ I        2130  3.46         7.4 0.34                           304 235 
 LL6C HZ EP       2129 22.95                             110   -0.59 7  325 357 
 CBOC HZ EP       2129 25.68                             110    0.52 7  337 252 
 CBOC HE ES   4   2130  0.14                             110   -1.94 0  337 252 
 PRA  HZ EP       2129 31.47                             106   -0.13 6  394 210 
 PRA  HN ES       2130 13.10                             106   -0.45 6  394 210 
 PRA  HZ I        2130 19.65         7.1 0.50            106            394 210 
 CRJC HZ EP   9   2129 38.03                             103   -2.25 0  467   3 
 CRJC HN ES       2130 26.02                             104   -0.73 5  467   3 
 CRJC HZ I        2130 35.75        11.5 0.82            104            467   3 
                                                                                
