 2011  823 2101 43.1 L   6.803 -73.014148.8  RSN  4 0.2 1.9LRSN                1
 GAP=251        0.43       4.2    10.0  5.2  0.2476E+02 -0.1321E+01 -0.2986E+00E
 Epicentro: CEPITA - SANTANDER                                                 3
 ACTION:UPD 12-07-13 15:53 OP:ep   STATUS:               ID:20110823210143 L   I
 2011-08-23-2100-16S.COL___158                                                 6
 STAT SP IPHASW D HRMM SECON CODA AMPLIT PERI AZIMU VELO AIN AR TRES W  DIS CAZ7
 BAR2 SZ EP   1   21 2  2.87                             168   -0.33 7 29.9 219 
 BAR2 SZ ES   2   21 2 18.80                             168   -0.12 5 29.9 219 
 BAR2 SZ I        21 2 20.27        16.2 0.31                          29.9 219 
 BRR  HZ EP       21 2  5.34                             149    0.0310 84.1 294 
 BRR  HE ES   2   21 2 22.79                             149    0.13 5 84.1 294 
 BRR  HZ I        21 2 25.72        16.8 0.27                          84.1 294 
 RUS  HZ EP   1   21 2  7.47                             144    0.33 7  101 184 
 RUS  HE ES   1   21 2 25.96                             144    0.03 7  101 184 
 RUS  HZ I        21 2 27.88         8.1 0.21                           101 184 
 CHI  HZ EP   1   21 2 21.34                             117   -0.08 6  253 198 
 CHI  HE ES   2   21 2 51.15                             117   -0.19 4  253 198 
 CHI  HZ I        21 2 56.22         4.3 0.32                           253 198 
                                                                                
