 2013  623 2000 33.2 L   6.803 -73.106154.8  RSN  7 0.4 2.0LRSN                1
 GAP=141        0.75       3.7     5.4  8.3 -0.1201E+01  0.9431E+01  0.3786E+01E
 Epicentro: LOS SANTOS - SANTANDER                                             3
 ACTION:UPD 14-01-08 09:56 OP:ep   STATUS:               ID:20130623200033 L   I
 OLDACT:UP  13-06-24 00:16 OP:mh   STATUS:               ID:20130623195950     3
 OLDACT:REG 13-06-24 00:08 OP:mh   STATUS:               ID:20130623195950     3
 2013-06-23-1959-50M.COL___228                                                 6
 STAT SP IPHASW D HRMM SECON CODA AMPLIT PERI AZIMU VELO AIN AR TRES W  DIS CAZ7
 PAM  SN ES   1   20 1 14.21                             153    0.00 7 74.4  37 
 PAM  SN I        20 1 16.64         7.9 0.28            156           74.4  37 
 BRR  HZ EP   1   20 0 56.06                             153    0.48 7 75.0 297 
 BRR  HN ES       20 1 13.39                             153    0.3910 75.0 297 
 BRR  HN I        20 1 16.64        20.6 0.16            152           75.0 297 
 RUS  HZ EP   1   20 0 58.25                             146    0.35 7  101 179 
 RUS  HN ES   1   20 1 16.64                             146   -0.49 7  101 179 
 RUS  HN I        20 1 18.34         6.7 0.42            149            101 179 
 PTB  HZ EP   1   20 1  1.10                             133   -0.25 7  152 259 
 PTB  HN ES   1   20 1 22.88                             133   -0.39 7  152 259 
 PTB  HN I        20 1 27.45        16.8 0.60            134            152 259 
 OCA  HN ES       20 1 24.73                             132   -0.22 9  161 352 
 SML  HN ES   2   20 1 38.87                             119   -0.79 4  245 334 
 SML  HN I        20 1 43.93        22.8 0.10            121            245 334 
 HEL  HN ES   2   20 1 46.76                             116    0.24 4  276 256 
                                                                                
