 2014  423 2209 35.7 L   6.811 -73.169145.9  RSN 12 0.5 2.1LRSN                1
 GAP=133        1.07       2.7     4.2  6.1 -0.1585E+01  0.5554E+01  0.3258E+01E
 Epicentro: LOS SANTOS - SANTANDER                                             3
 ACTION:UPD 14-05-13 23:11 OP:nd   STATUS:               ID:20140423220935 L   I
 OLDACT:REG 14-04-24 05:05 OP:stll STATUS:               ID:20140423220813     3
 2014-04-23-2208-13M.COL___248                                                 6
 STAT SP IPHASW D HRMM SECON CODA AMPLIT PERI AZIMU VELO AIN AR TRES W  DIS CAZ7
 BRR  HZ EP       22 9 57.29                             153    0.5810 68.4 299 
 BRR  HN ES       2210 14.02                             153    0.9310 68.4 299 
 BRR  HZ I        2210 17.71        27.2 0.42            152           68.4 299 
 PAM  SZ EP       22 9 57.98                             151    0.0110 78.1  42 
 PAM  SN ES       2210 15.15                             151   -0.1910 78.1  42 
 PAM  SZ I        2210 17.38        23.8 0.54            155           78.1  42 
 RUS  HZ EP       22 9 59.57                             143    0.0110  102 175 
 RUS  HN ES       2210 17.93                             143   -0.2410  102 175 
 RUS  HZ I        2210 20.44        11.5 0.46            146            102 175 
 PTB  HZ EP       2210  2.08                             132   -0.39 9  146 258 
 PTB  HN ES       2210 23.11                             132   -0.25 9  146 258 
 PTB  HZ I        2210 25.49        14.8 0.40            133            146 258 
 OCA  HN ES       2210 26.19                             130    0.33 9  159 354 
 OCA  HZ I        2210 30.94        12.4 0.34            133            159 354 
 SPBC HZ EP       2210  3.85                             129   -0.29 9  163 218 
 SPBC HN ES       2210 25.70                             129   -0.63 9  163 218 
 SPBC HZ I        2210 31.24        19.8 0.22            131            163 218 
 ZAR  HZ EP       2210  7.91                             123    0.05 9  201 292 
 ZAR  HN ES       2210 32.77                             123   -0.18 9  201 292 
 ZAR  HZ I        2210 40.26         9.8 0.54            124            201 292 
 NOR  HZ EP       2210 11.49                             119    0.20 8  233 234 
 NOR  HE ES       2210 38.87                             119   -0.18 8  233 234 
 NOR  HZ I        2210 43.51         9.9 0.20            120            233 234 
 SML  HZ EP       2210 11.80                             118   -0.30 8  242 336 
 SML  HN ES       2210 39.58                             118   -0.91 8  242 336 
 SML  HZ I        2210 43.13        17.2 0.10            120            242 336 
 CHI  HZ EP       2210 13.55                             117    0.10 8  249 195 
 CHI  HN ES       2210 42.67                             117   -0.24 8  249 195 
 CHI  HZ I        2210 48.08         4.7 0.30            119            249 195 
 RREF HZ EP       2210 22.76                             111    1.05 7  321 229 
 RREF HN ES       2210 58.31                             111    0.70 7  321 229 
 RREF HZ I        2211  6.10         7.4 0.24            113            321 229 
 PRA  HZ EP       2210 29.62                             107    0.42 6  392 209 
 PRA  HN ES       2211 10.71                             107   -0.21 6  392 209 
 PRA  HZ I        2211 16.49         4.1 0.26            108            392 209 
                                                                                
