 2015  223 2102 37.0 L   6.895 -73.499 96.2  RSN  9 0.4 1.6LRSN                1
 GAP= 77        1.00       2.7     3.5  7.1 -0.2926E+01  0.1233E+02 -0.3932E+01E
 Epicentro: SAN VICENTE DE CHUCURI - SANTANDER                                 3
 ACTION:UPD 15-04-30 21:28 OP:nd   STATUS:               ID:20150223210237 L   I
 OLDACT:REG 15-02-24 03:24 OP:fm   STATUS:               ID:20150223205746     3
 2015-02-23-2057-46M.COL___293                                                 6
 STAT SP IPHASW D HRMM SECON CODA AMPLIT PERI AZIMU VELO AIN AR TRES W  DIS CAZ7
 BAR2 EZ EP       21 2 51.97                             152    0.1210 48.4 134 
 BAR2 EZ ES       21 3  4.07                             152    0.6410 48.4 134 
 BAR2 EZ I        21 3  5.54        15.1 0.48            159           48.4 134 
 PAM  SZ EP       21 2 55.98                             131   -0.3610  101  61 
 PAM  SN ES       21 3 11.06                             131   -0.3710  101  61 
 PAM  SZ I        21 3 15.45         8.1 0.32            137            101  61 
 PTB  HZ EP       21 2 56.43                             127   -0.4110  113 250 
 PTB  HN ES       21 3 12.00                             127   -0.3210  113 250 
 PTB  HZ I        21 3 18.03         8.9 0.24            129            113 250 
 SPBC HZ EP       21 3  1.29                             118    0.34 9  151 205 
 SPBC HN ES       21 3 19.33                             118   -0.30 9  151 205 
 SPBC HZ I        21 3 27.72         7.0 0.16            122            151 205 
 NOR  HE ES       21 3 31.56                             110   -0.04 8  211 226 
 NOR  HZ I        21 3 36.58         5.3 0.26            112            211 226 
 SML  HZ EP       21 3  9.41                             109    0.79 8  220 343 
 SML  HN ES       21 3 33.50                             109    0.22 8  220 343 
 SML  HZ I        21 3 40.35        10.0 0.10            111            220 343 
 CHI  HZ EP       21 3 12.63                             107   -0.24 8  252 186 
 CHI  HN ES       21 3 40.42                             107   -0.42 8  252 186 
 CHI  HZ I        21 3 45.10         2.5 0.66            109            252 186 
 GUY2CHZ EP       21 3 16.46                             105    0.52 7  277 228 
 GUY2CHE ES       21 3 47.02                             105    0.70 7  277 228 
 GUY2CHZ I        21 3 57.02         2.0 0.38                           277 228 
 MON  HZ EP       21 3 19.97                             103   -0.16 7  317 311 
 MON  HN ES       21 3 53.28                             103   -0.49 7  317 311 
 MON  HZ I        21 3 59.33         2.0 0.76            103            317 311 
                                                                                
