 2012  423 2304  6.9 L   6.708 -73.183148.2  RSN  5 0.2 2.0LRSN                1
 GAP=226        0.58       4.8     4.3  4.8  0.1237E+02  0.2292E+01  0.3695E+00E
 Epicentro: VILLANUEVA - SANTANDER                                             3
 ACTION:UPD 12-07-05 11:55 OP:tino STATUS:               ID:20120423230406 L   I
 2012-04-23-2300-00M.COL___186                                                 6
 STAT SP IPHASW D HRMM SECON CODA AMPLIT PERI AZIMU VELO AIN AR TRES W  DIS CAZ7
 BAR2 SZ EP   1   23 4 26.52                             175    -0.1 7   13 180 
 BAR2 SZ ES   1   23 4 41.59                             175    -0.4 7   13 180 
 BAR2 SZ I        23 4 43.29        18.0 0.17                            13 180 
 BRR  HZ EP       23 4 28.62                             152     0.210   73 307 
 BRR  HZ I        23 4 30.78        23.0 0.17                            73 307 
 BRR  HN ES       23 4 45.39                             152     0.210   73 307 
 RUS  HZ EP       23 4 30.07                             147    -0.110   91 173 
 RUS  HN ES   1   23 4 48.65                             147     0.3 7   91 173 
 PTB  HZ EP       23 4 33.62                             134     0.1 9  142 263 
 PTB  HN ES       23 4 54.25                             134    -0.1 9  142 263 
 ZAR  HZ EP   1   23 4 39.33                             123    -0.2 6  204 295 
 ZAR  HE ES       23 5  4.78                             123    -0.2 9  204 295 
 ZAR  HZ I        23 5 11.69         6.0 0.34                           204 295 
                                                                                
