 2011 1123 2052  9.0 L   6.783 -73.132144.7  RSN 13 0.5 2.5LRSN                1
 GAP=139        0.85       3.2     5.1  5.8 -0.2043E+01  0.1043E+02  0.2371E+01E
 Epicentro: LOS SANTOS - SANTANDER                                             3
 ACTION:UPD 12-07-13 16:11 OP:ep   STATUS:               ID:20111123205209 L   I
 2011-11-23-2049-49S.COL___178                                                 6
 STAT SP IPHASW D HRMM SECON CODA AMPLIT PERI AZIMU VELO AIN AR TRES W  DIS CAZ7
 BAR2 SZ EP   1   2052 28.70                             171    0.22 7 21.8 195 
 BAR2 SZ ES   1   2052 43.26                             171   -0.41 7 21.8 195 
 BAR2 SZ I        2052 45.44        67.8 0.33                          21.8 195 
 BRR  HZ IP     D 2052 30.71                             152    0.5410 73.4 299 
 BRR  HZ I        2052 30.89        78.2 0.18                          73.4 299 
 BRR  HN ES   1   2052 47.50                             152    0.83 7 73.4 299 
 PAM  SZ EP   1   2052 31.56                             150    0.42 7 77.9  38 
 PAM  SZ I        2052 31.95        58.6 0.19                          77.9  38 
 PAM  SN ES   1   2052 48.19                             150   -0.21 7 77.9  38 
 RUS  HZ EP   1   2052 32.63                             144    0.12 7 98.6 177 
 RUS  HN ES   1   2052 50.33                             144   -0.52 7 98.6 177 
 RUS  HZ I        2052 52.54        27.0 0.32                          98.6 177 
 OCA  SZ EP   1   2052 36.86                             129   -0.56 7  162 353 
 OCA  SZ ES   1   2052 59.25                             129   -0.34 7  162 353 
 ZAR  HZ EP   1   2052 41.42                             122   -0.18 6  206 292 
 ZAR  HN ES   1   2053  6.98                             122   -0.04 6  206 292 
 ZAR  HZ I        2053 13.82        33.1 0.25                           206 292 
 NOR  SZ EP   1   2052 44.01                             118   -0.68 6  235 235 
 NOR  SN ES   1   2053 11.70                             118   -0.82 6  235 235 
 CHI  HZ EP   1   2052 46.57                             117    0.08 6  247 196 
 CHI  HZ I        2052 49.31         8.4 0.34                           247 196 
 CHI  HN ES   1   2053 16.33                             117    0.60 6  247 196 
 HEL  HZ EP   1   2052 49.59                             114    0.32 6  273 256 
 HEL  HZ I        2053 27.36        14.1 0.34                           273 256 
 GUY  SZ EP   1   2052 52.17                             112   -0.67 5  304 236 
 RREF HZ EP   1   2052 55.30                             111    0.21 5  322 230 
 COD  HZ EP   1   2052 57.20                             109   -0.37 5  350 354 
 COD  HZ I        2053 43.17        15.7 0.64                           350 354 
 PRA  HZ EP   1   2053  2.73                             106    0.35 4  391 210 
 PRA  HN ES   1   2053 44.39                             106    0.37 4  391 210 
 PRA  HZ I        2053 49.81        33.9 0.17                           391 210 
                                                                                
