 2013  423 2256 40.1 L   6.694 -72.919132.6  RSN  4 0.3 1.5LRSN                1
 GAP=173        0.74       3.8     6.3  7.7 -0.3377E+01 -0.1427E+02  0.3175E+01E
 Epicentro: CEPITA - SANTANDER                                                 3
 ACTION:UPD 13-05-22 14:40 OP:EP   STATUS:               ID:20130423225640 L   I
 2013-04-23-2248-40M.COL___218                                                 6
 STAT SP IPHASW D HRMM SECON CODA AMPLIT PERI AZIMU VELO AIN AR TRES W  DIS CAZ7
 BAR2 SZ ES       2257 12.06                             166   -0.4910 31.2 249 
 PAM  SZ IP     C 2257  0.60                             149   -0.1710 75.3  19 
 PAM  SZ I        2257  0.77         6.8 0.24            149           75.3  19 
 PAM  SN ES       2257 17.14                             149    0.2310 75.3  19 
 RUS  HZ EP       2257  1.74                             144   -0.0610 90.5 192 
 RUS  HN ES       2257 19.05                             144    0.3110 90.5 192 
 BRR  HN ES       2257 18.78                             141    0.1810 98.8 298 
                                                                                
