 2017 1223 2331 58.3 L   6.795 -73.162140.5  RSN 11 0.6 2.1LRSN                1
 GAP= 64        1.21       3.8     4.2  7.0 -0.3789E+01  0.4098E+01 -0.1536E+00E
 Epicentro: LOS SANTOS - SANTANDER                                             3
 ACTION:UPD 18-01-04 13:23 OP:rebc STATUS:               ID:20171223233158 L   I
 OLDACT:REG 17-12-24 02:48 OP:leo  STATUS:               ID:20171223232739     3
 2017-12-23-2328-00M.COL___446                                                 6
 STAT SP IPHASW D HRMM SECON CODA AMPLIT PERI AZIMU VELO AIN AR TRES W  DIS CAZ7
 BAR2 EZ ES       2332 31.84                             170   -0.2210 22.6 186 
 PAM  EZ EP       2332 20.34                             149    0.3110 78.9  40 
 PAM  EN ES       2332 37.26                             149    0.2610 78.9  40 
 PAM  EZ I        2332 39.48        21.6 0.50            150           78.9  40 
 PTB  HZ EP       2332 23.93                             131   -0.72 9  146 259 
 PTB  HN ES       2332 45.22                             131    0.00 9  146 259 
 PTB  HZ I        2332 47.36         7.4 0.32            132            146 259 
 TAM  HZ EP       2332 25.81                             129    0.12 9  157 105 
 OCA  HZ EP       2332 26.11                             128   -0.10 9  161 354 
 OCA  HE ES       2332 48.02                             128    0.01 9  161 354 
 OCA  HZ I        2332 55.98        31.8 0.58            128            161 354 
 SPBC HZ EP       2332 25.47                             128   -0.76 9  162 219 
 SPBC HN ES       2332 47.92                             128   -0.11 9  162 219 
 YPLC HZ EP       2332 27.24                             125   -0.49 9  177 151 
 ZAR  HZ EP       2332 30.66                             121    0.43 9  203 292 
 ZAR  HE ES       2332 55.46                             121    0.30 9  203 292 
 ZAR  HZ I        2333  2.57        11.5 0.30            122            203 292 
 URE  HZ EP   2   2332 40.18                             113    1.25 4  282 292 
 URE  HN ES   2   2333  8.53                             113   -2.11 4  282 292 
 DRL03HZ EP       2332 39.29                             112   -0.39 7  289 353 
 DRL03HN ES       2333 12.00                             112    0.03 7  289 353 
 GUY2CHZ EP       2332 42.55                             111    1.10 7  299 235 
 GUY2CHN ES       2333 16.25                             111    1.13 7  299 235 
 GUY2CHZ I        2333 25.95         5.9 0.36                           299 235 
                                                                                
