 2017  923 2324 55.5 L   6.755 -73.148146.5  RSN  7 0.5 1.6LRSN                1
 GAP=138        1.04       4.6     4.9  7.8 -0.2811E+01  0.1343E+02  0.4811E+01E
 Epicentro: LOS SANTOS - SANTANDER                                             3
 ACTION:UPD 17-10-05 19:15 OP:rebc STATUS:               ID:20170923232455 L   I
 OLDACT:REG 17-09-24 03:36 OP:dnl  STATUS:               ID:20170923231748     3
 2017-09-23-2318-00M.COL___420                                                 6
 STAT SP IPHASW D HRMM SECON CODA AMPLIT PERI AZIMU VELO AIN AR TRES W  DIS CAZ7
 BAR2 EZ ES       2325 30.04                             172   -0.4410 18.4 192 
 BAR2 EZ I        2325 30.97        10.2 0.18            171           18.4 192 
 BRR  HZ EP       2325 17.29                             152    0.4010 73.4 302 
 BRR  HE ES       2325 34.21                             152    0.6610 73.4 302 
 BRR  HZ I        2325 35.12         7.4 0.22            150           73.4 302 
 PAM  EZ EP       2325 18.13                             150    0.0510 81.4  37 
 PAM  EE ES       2325 35.44                             150   -0.2210 81.4  37 
 PAM  EZ I        2325 35.93         3.1 0.18            152           81.4  37 
 RUS  HZ EP       2325 18.90                             145   -0.1210 95.7 176 
 RUS  HE ES       2325 37.51                             145    0.1810 95.7 176 
 RUS  HZ I        2325 38.84         4.9 0.26            146           95.7 176 
 ZAR  HE ES       2325 53.07                             122   -0.61 8  206 293 
 ZAR  HZ I        2325 58.26         3.8 0.30            122            206 293 
 NOR  HZ EP   2   2325 30.00                             119   -0.98 4  232 235 
 NOR  HE ES       2325 58.11                             119   -0.52 8  232 235 
 NOR  HZ I        2326  3.79         3.5 0.30            119            232 235 
 GUY2CHZ EP   2   2325 39.56                             113    0.72 4  298 236 
 GUY2CHE ES       2326 13.27                             113    0.66 7  298 236 
 GUY2CHZ I        2326 21.05         2.0 0.56                           298 236 
                                                                                
