 2010  723 2235 41.7 L   6.816 -73.079148.0  RSN  9 0.4 2.4LRSN                1
 GAP=172        0.97       6.5    12.8 10.1  0.3662E+02 -0.4377E+02 -0.1220E+02E
 Epicentro: LOS SANTOS - SANTANDER                                             3
 ACTION:UPD 10-12-01 15:19 OP:pat  STATUS:               ID:20100723223541 L   I
 2010-07-23-2232-32S.COL___123                                                 6
 STAT SP IPHASW D HRMM SECON CODA AMPLIT PERI AZIMU VELO AIN AR TRES W  DIS CAZ7
 BAR2 SZ EP   2   2236  1.79                             169     0.1 5   27 205 
 BAR2 SZ I        2236 17.66        38.1 0.61                            27 205 
 GIR2 SZ EP   1   2236  0.63                             167    -1.1 7   32 337 
 BRR  HZ EP       2236  3.55                             151     0.110   77 295 
 BRR  HN ES       2236 20.46                             151     0.110   77 295 
 RUS  HZ EP   1   2236  5.79                             144     0.0 7  102 180 
 RUS  HN ES       2236 24.73                             144     0.110  102 180 
 RUS  HZ I        2236 25.55        18.4 0.14                           102 180 
 GUE  SZ EP   1   2236  7.02                             141     0.6 7  113   9 
 GUE  SZ I        2236 30.03         5.4 0.85                           113   9 
 CHI  HZ EP   2   2236 20.03                             117     0.1 4  252 197 
 CHI  HZ I        2236 42.68        16.9 0.38                           252 197 
 HEL  HZ EP   3   2236 23.02                             115     0.1 2  280 256 
 HEL  HZ I        2236 59.02        12.1 0.68                           280 256 
 RREF HZ EP   3   2236 29.14                             111     0.4 2  329 230 
 RREF HZ I        2237 13.90        12.6 0.06                           329 230 
 PRA  HZ EP   1   2236 35.79                             107    -0.2 4  397 210 
 PRA  HZ I        2237 20.74        77.0 1.12                           397 210 
                                                                                
