 2017  223 2126 27.3 L   6.739 -73.163142.3  RSN  7 0.3 1.6LRSN                1
 GAP=137        0.75       2.9     3.3  4.7  0.6533E+00  0.4591E+01  0.1665E+01E
 Epicentro: LOS SANTOS - SANTANDER                                             3
 ACTION:UPD 17-05-24 15:39 OP:jn   STATUS:               ID:20170223212627 L   I
 OLDACT:REG 17-02-24 03:08 OP:cara STATUS:               ID:20170223211744     3
 2017-02-23-2118-00M.COL___394                                                 6
 STAT SP IPHASW D HRMM SECON CODA AMPLIT PERI AZIMU VELO AIN AR TRES W  DIS CAZ7
 BAR2 EZ EP       2126 46.70                             173    0.2710 16.4 188 
 BAR2 EZ ES       2127  1.20                             173   -0.1210 16.4 188 
 BAR2 EZ I        2127  2.63        12.4 0.24            172           16.4 188 
 BRR  HZ EP       2126 48.78                             151    0.5610 73.1 304 
 BRR  HN ES       2127  4.62                             151    0.1110 73.1 304 
 PAM  EZ EP     D 2126 49.57                             148   -0.0210 83.8  38 
 PAM  EN ES       2127  6.67                             148   -0.2710 83.8  38 
 PAM  EZ I        2127  9.15         8.8 0.76            150           83.8  38 
 RUS  HN ES       2127  8.17                             145   -0.0010 94.0 175 
 RUS  HZ I        2127 10.18         3.7 0.40            145           94.0 175 
 PTB  HZ EP       2126 53.87                             132    0.12 9  145 261 
 PTB  HN ES       2127 14.60                             132    0.25 9  145 261 
 PTB  HZ I        2127 15.99         7.6 0.16            131            145 261 
 ZAR  HZ EP       2126 59.57                             121   -0.08 9  205 294 
 ZAR  HN ES       2127 24.22                             121   -0.64 9  205 294 
 ZAR  HZ I        2127 31.58         9.3 0.32            121            205 294 
 CHI  HZ EP       2127  3.79                             117   -0.30 8  242 195 
 CHI  HN ES       2127 32.52                             117   -0.23 8  242 195 
 CHI  HZ I        2127 39.00         1.5 0.34            117            242 195 
                                                                                
