 2013  123 2013 10.5 L   6.781 -73.149140.2  RSN  8 0.4 1.9LRSN                1
 GAP=137        0.73       3.5     3.8  5.6 -0.7368E+00  0.5413E+01  0.2908E+01E
 Epicentro: LOS SANTOS - SANTANDER                                             3
 ACTION:UPD 13-02-15 09:16 OP:ep   STATUS:               ID:20130123201310 L   I
 2013-01-23-2010-00M.COL___241                                                 6
 STAT SP IPHASW D HRMM SECON CODA AMPLIT PERI AZIMU VELO AIN AR TRES W  DIS CAZ7
 BAR2 SZ ES   1   2013 43.83                             171   -0.29 7 21.2 190 
 BAR2 SZ I        2013 45.32        26.8 0.42            169           21.2 190 
 BRR  HZ EP     C 2013 31.30                             151    0.2610 71.9 300 
 BRR  HE ES   1   2013 47.99                             151    0.89 7 71.9 300 
 BRR  HZ I        2013 52.10        15.7 0.30            150           71.9 300 
 PAM  SZ EP       2013 32.28                             149    0.0910 79.2  39 
 PAM  SN ES   1   2013 48.90                             149   -0.25 7 79.2  39 
 PAM  SZ I        2013 51.17        30.3 0.48            154           79.2  39 
 RUS  HZ EP   1   2013 33.39                             143   -0.11 7 98.5 176 
 RUS  HN ES   1   2013 51.23                             143   -0.25 7 98.5 176 
 RUS  HZ I        2013 52.79         9.5 0.36            145           98.5 176 
 PTB  HZ EP   1   2013 36.51                             131   -0.39 7  147 260 
 PTB  HN ES   1   2013 57.24                             131   -0.29 7  147 260 
 PTB  HZ I        2013 59.27        11.8 0.12            131            147 260 
 ZAR  HZ EP   1   2013 42.52                             121   -0.07 6  205 293 
 ZAR  HN ES   1   2014  7.13                             121   -0.52 6  205 293 
 ZAR  HZ I        2014 13.37        12.3 0.30            122            205 293 
 NOR  HZ EP   1   2013 45.86                             117    0.16 6  233 235 
 NOR  HN ES   1   2014 13.12                             117   -0.07 6  233 235 
 NOR  HZ I        2014 19.12         5.0 0.16            118            233 235 
 CHI  HZ EP   1   2013 47.52                             116   -0.09 6  246 195 
 CHI  HN ES   1   2014 17.24                             116    0.64 6  246 195 
 CHI  HZ I        2014 20.98         2.3 0.28            118            246 195 
                                                                                
