 2016  423 2247 49.8 L   6.772 -73.178144.0  RSN  4 0.3 1.2LRSN                1
 GAP=134        0.68       3.6     3.2  7.2 -0.2272E+00  0.7881E+01 -0.1547E+01E
 Epicentro: LOS SANTOS - SANTANDER                                             3
 ACTION:UPD 16-05-05 14:23 OP:rebc STATUS:               ID:20160423224749 L   I
 OLDACT:REG 16-04-24 03:09 OP:ak   STATUS:               ID:20160423223748     3
 2016-04-23-2237-48M.COL___313                                                 6
 STAT SP IPHASW D HRMM SECON CODA AMPLIT PERI AZIMU VELO AIN AR TRES W  DIS CAZ7
 PAM  EZ EP       2248 12.01                             149   -0.1410 82.0  40 
 PAM  EN ES       2248 29.52                             149   -0.0310 82.0  40 
 PAM  EZ I        2248 29.71         2.3 0.16            154           82.0  40 
 RUS  HZ EP       2248 13.50                             144    0.2910 97.8 174 
 RUS  HE ES       2248 31.51                             144    0.0710 97.8 174 
 RUS  HZ I        2248 32.79         1.6 0.30            148           97.8 174 
 PTB  HZ EP       2248 15.87                             132   -0.42 9  144 260 
 PTB  HE ES       2248 36.69                             132   -0.24 9  144 260 
 PTB  HZ I        2248 44.00         3.2 0.30            132            144 260 
 ZAR  HZ EP   2   2248 22.37                             122    0.42 4  202 293 
 ZAR  HE ES       2248 47.44                             122    0.44 9  202 293 
 ZAR  HZ I        2248 52.93         1.9 0.10            123            202 293 
                                                                                
