 2012  623 2302 19.9 L   6.578 -73.592107.7  RSN  4 0.4 1.3LRSN                1
 GAP=181        0.88       8.1     4.5 10.5  0.2333E+01  0.1991E+02  0.1415E+02E
 Epicentro: EL CARMEN DE CHUCURI - SANTANDER                                   3
 ACTION:UPD 12-08-06 17:51 OP:ep   STATUS:               ID:20120623230220 L   I
 2012-06-23-2300-00M.COL___198                                                 6
 STAT SP IPHASW D HRMM SECON CODA AMPLIT PERI AZIMU VELO AIN AR TRES W  DIS CAZ7
 BAR2 SZ EP       23 2 36.00                             155    0.1710 45.4  88 
 BAR2 SZ ES   1   23 2 48.85                             155    0.59 7 45.4  88 
 BAR2 SZ I        23 2 49.89        17.1 0.32                          45.4  88 
 RUS  HZ EP   1   23 2 39.32                             136   -0.28 7 94.5 143 
 RUS  HN ES   1   23 2 54.46                             136   -0.51 7 94.5 143 
 RUS  HZ I        23 2 56.39         2.7 0.32                          94.5 143 
 PTB  HZ EP       23 2 38.83                             135   -0.2110 95.6 267 
 PTB  HN ES   1   23 2 53.48                             135   -0.51 7 95.6 267 
 PTB  HZ I        23 2 58.54         3.3 0.09                          95.6 267 
 NOR  SZ EP   1   23 2 47.92                             116    0.31 7  180 232 
 NOR  SE ES   1   23 3  9.91                             116    0.68 7  180 232 
                                                                                
