 2013  523 2256 42.2 L   6.835 -73.101150.2  RSN  7 0.5 1.8LRSN                1
 GAP=245        0.97       6.3     6.4  7.9  0.1149E+02  0.2025E+02  0.7942E+01E
 Epicentro: LOS SANTOS - SANTANDER                                             3
 ACTION:UPD 13-06-20 09:53 OP:ep   STATUS:               ID:20130523225642 L   I
 2013-05-23-2250-00M.COL___259                                                 6
 STAT SP IPHASW D HRMM SECON CODA AMPLIT PERI AZIMU VELO AIN AR TRES W  DIS CAZ7
 BAR2 SZ EP   1   2257  2.66                             169    0.24 7 28.3 199 
 BAR2 SZ ES       2257 18.41                             169    0.1910 28.3 199 
 BAR2 SZ I        2257 26.51         6.2 0.48            165           28.3 199 
 BRR  HZ EP   1   2257  4.53                             152    0.60 7 73.9 294 
 BRR  HN ES   1   2257 21.47                             152    0.56 7 73.9 294 
 BRR  HN I        2257 25.25        23.1 0.14            153           73.9 294 
 RUS  HZ EP   1   2257  6.15                             144   -0.44 7  104 179 
 RUS  HN ES   1   2257 25.06                             144   -0.60 7  104 179 
 RUS  HZ I        2257 26.49         4.1 0.44            146            104 179 
 PTB  HZ EP   4   2257  9.28                             132   -0.70 0  153 258 
 PTB  HN ES   1   2257 30.81                             132   -0.88 7  153 258 
 PTB  HZ I        2257 36.31         6.6 0.34            134            153 258 
 ZAR  HZ EP   1   2257 14.81                             123   -0.40 6  207 291 
 ZAR  HE ES       2257 40.56                             123   -0.44 8  207 291 
 NOR  HZ EP   1   2257 18.58                             119   -0.22 6  241 234 
 NOR  HE ES   1   2257 47.87                             119    0.48 6  241 234 
 NOR  HZ I        2257 56.63        10.3 0.12            122            241 234 
 GUY2CHZ EP   1   2257 27.13                             113    0.46 5  307 235 
 GUY2CHE ES       2258  1.96                             113    0.57 7  307 235 
 GUY2CHZ I        2258 11.49         2.7 0.48                           307 235 
                                                                                
