 2015 1023 2054 48.3 L   6.802 -73.129144.3  RSN 21 0.4 2.7LRSN                1
 GAP=120        0.89       2.1     2.9  4.1 -0.6774E+00  0.4339E+01  0.1051E+01E
 Epicentro: LOS SANTOS - SANTANDER                                             3
 ACTION:UPD 15-12-22 20:42 OP:cam  STATUS:               ID:20151023205448 L   I
 OLDACT:REG 15-10-24 05:12 OP:ak   STATUS:               ID:20151023204750     3
 2015-10-23-2047-50M.COL___313                                                 6
 STAT SP IPHASW D HRMM SECON CODA AMPLIT PERI AZIMU VELO AIN AR TRES W  DIS CAZ7
 BAR2 EZ EP       2055  7.91                             170    0.1810 24.0 194 
 BAR2 EZ ES       2055 22.63                             170   -0.2910 24.0 194 
 BAR2 EZ I        2055 24.00       155.5 0.17            168           24.0 194 
 BRR  HZ IP     C 2055  9.79                             152    0.4510 72.7 298 
 BRR  HN ES       2055 26.00                             152    0.2210 72.7 298 
 BRR  HZ I        2055 29.89       101.1 0.16            151           72.7 298 
 PAM  EZ IP     D 2055 10.69                             151    0.4510 76.0  39 
 PAM  EE ES       2055 27.56                             151    0.1710 76.0  39 
 PAM  EZ I        2055 29.55        89.6 0.74            156           76.0  39 
 RUS  HZ EP       2055 12.03                             143    0.1510  101 177 
 RUS  HE ES       2055 30.20                             143   -0.1110  101 177 
 RUS  HZ I        2055 31.45        39.9 0.20            144            101 177 
 OCA  HZ EP       2055 16.85                             129    0.39 9  160 352 
 OCA  HN ES       2055 37.72                             129   -0.73 9  160 352 
 OCA  HZ I        2055 41.34       138.1 0.24            132            160 352 
 SPBC HZ EP       2055 16.83                             128    0.05 9  165 219 
 SPBC HN ES       2055 39.09                             128    0.07 9  165 219 
 SPBC HZ I        2055 45.20        75.9 0.28            129            165 219 
 ZAR  HZ EP       2055 21.07                             122    0.29 8  206 292 
 ZAR  HN ES       2055 46.35                             122    0.21 8  206 292 
 ZAR  HZ I        2055 51.47        55.0 0.14            123            206 292 
 NOR  HZ EP       2055 23.75                             118   -0.33 8  236 235 
 NOR  HN ES       2055 51.34                             118   -0.68 8  236 235 
 NOR  HZ I        2055 56.04        54.9 0.14            119            236 235 
 SML  HZ EP       2055 24.49                             117   -0.37 8  244 335 
 SML  HN ES       2055 52.91                             117   -0.50 8  244 335 
 CHI  HZ EP       2055 26.09                             117    0.13 8  249 196 
 CHI  HN ES       2055 54.88                             117   -0.49 8  249 196 
 CHI  HZ I        2056  2.56        14.8 0.46            118            249 196 
 HEL  HZ EP   1   2055 29.71                             114    1.10 6  274 256 
 HEL  HE ES       2056  0.36                             114    0.29 8  274 256 
 HEL  HZ I        2056  7.12        31.9 0.46            115            274 256 
 URE  HZ EP   1   2055 28.93                             113   -0.51 6  285 292 
 URE  HN ES       2056  0.97                             113   -0.59 7  285 292 
 URE  HZ I        2056  4.23        41.5 0.06            114            285 292 
 GUY2CHZ EP       2055 32.01                             112    0.02 7  303 235 
 GUY2CHN ES       2056  6.40                             112    0.30 7  303 235 
 GUY2CHZ I        2056 14.51        35.4 0.54                           303 235 
 PTGC HZ EP       2055 31.07                             111   -0.94 7  308 159 
 PTGC HE ES   4   2056  3.47                             111   -2.66 0  308 159 
 CBOC HZ EP   1   2055 35.17                             109   -0.16 5  335 252 
 CBOC HN ES       2056 12.59                             109    0.56 7  335 252 
 CBOC HZ I        2056 13.79         9.1 0.18            111            335 252 
 DBB  SZ EP       2055 36.07                             109    0.18 7  341 274 
 DBB  SZ ES   4   2056 11.56                             109   -1.47 0  341 274 
 MON  HZ EP   4   2055 35.19                             108   -2.16 0  355 308 
 MON  HN ES   4   2056 12.97                             108   -2.68 0  355 308 
 MON  HZ I        2056 14.89        13.1 0.20            110            355 308 
 ANIL HZ EP   1   2055 38.48                             108    0.30 5  359 225 
 ANIL HN ES       2056 17.36                             108    0.24 6  359 225 
 ANIL HZ I        2056 25.16        56.8 0.28            109            359 225 
 ORTC HZ EP       2055 42.73                             106    0.45 6  397 216 
 ORTC HN ES       2056 24.40                             106   -0.02 6  397 216 
 ORTC HZ I        2056 31.03        14.7 0.48            107            397 216 
 PAL  HZ EP       2055 43.36                             105   -0.21 6  407 239 
 PAL  HE ES       2056 25.98                             105   -0.74 6  407 239 
 PAL  HZ I        2056 33.62         9.3 0.31            107            407 239 
 SJC  HZ EP   4   2055 42.20                             105   -1.67 0  410 327 
 SJC  HE ES   4   2056 23.01                             105   -4.23 0  410 327 
 SJC  HZ I        2056 27.13         9.8 0.42            107            410 327 
                                                                                
