 2012 1223 2019  1.5 L   6.800 -73.142149.2  RSN  7 0.5 2.3LRSN                1
 GAP=137        1.19       4.8     6.7  7.6 -0.2556E+01  0.1043E+02 -0.5051E+00E
 Epicentro: LOS SANTOS - SANTANDER                                             3
 ACTION:UPD 13-01-04 14:30 OP:ep   STATUS:               ID:20121223201901 L   I
 2012-12-23-2018-17M.COL___230                                                 6
 STAT SP IPHASW D HRMM SECON CODA AMPLIT PERI AZIMU VELO AIN AR TRES W  DIS CAZ7
 BAR2 SZ EP       2019 21.76                             171    0.1910 23.4 191 
 BAR2 SZ ES       2019 36.82                             171   -0.3810 23.4 191 
 GIR2 SZ ES       2019 36.84                             168   -0.4310 31.3 350 
 BRR  HZ EP       2019 23.58                             153    0.5210 71.5 298 
 BRR  HZ I        2019 23.88        39.0 0.22                          71.5 298 
 BRR  HN ES       2019 40.90                             153    1.0410 71.5 298 
 PAM  SN ES       2019 41.89                             151    0.2010 77.1  39 
 PAM  SN I        2019 42.97        46.9 0.52                          77.1  39 
 RUS  HZ EP       2019 25.75                             144    0.1410  101 176 
 RUS  HN ES       2019 44.34                             144   -0.0610  101 176 
 PTB  HZ EP       2019 28.35                             133   -0.46 9  148 259 
 PTB  HN ES       2019 49.71                             133   -0.37 9  148 259 
 PTB  HN I        2019 53.59        33.4 0.26                           148 259 
 OCA  HZ EP       2019 30.08                             130   -0.03 9  160 353 
 OCA  HN ES       2019 51.82                             130   -0.58 9  160 353 
 OCA  HZ I        2019 55.92        10.6 0.16                           160 353 
                                                                                
