 2017 1223 2230 54.2 L   6.750 -73.145135.0  RSN  5 0.4 1.7LRSN                1
 GAP=156        1.10       6.3     5.5  9.2 -0.1349E+02  0.1719E+02  0.2360E+00E
 Epicentro: LOS SANTOS - SANTANDER                                             3
 ACTION:UPD 18-01-04 13:23 OP:rebc STATUS:               ID:20171223223054 L   I
 OLDACT:REG 17-12-24 02:44 OP:leo  STATUS:               ID:20171223222535     3
 2017-12-23-2228-00M.COL___448                                                 6
 STAT SP IPHASW D HRMM SECON CODA AMPLIT PERI AZIMU VELO AIN AR TRES W  DIS CAZ7
 BAR2 EZ EP       2231 12.54                             172    0.0610 17.9 193 
 BAR2 EZ ES       2231 25.95                             172   -0.7410 17.9 193 
 BAR2 EZ I        2231 30.34        19.6 0.26            171           17.9 193 
 PAM  EZ EP       2231 15.44                             147   -0.1610 81.7  37 
 PAM  EN ES       2231 32.88                             147    0.6210 81.7  37 
 PAM  EZ I        2231 35.04         5.1 0.50            152           81.7  37 
 PTB  HZ EP       2231 19.77                             130   -0.50 9  147 261 
 PTB  HN ES       2231 40.73                             130    0.16 9  147 261 
 PTB  HZ I        2231 42.27         4.1 0.14            133            147 261 
 SPBC HZ EP       2231 21.53                             127    0.00 9  159 220 
 SPBC HN ES       2231 43.43                             127    0.62 9  159 220 
 SPBC HZ I        2231 46.34        10.7 0.24            130            159 220 
 ZAR  HN ES       2231 51.19                             120   -0.01 8  206 294 
                                                                                
