 2012  623 2340 36.2 L   6.725 -73.236162.8  RSN  4 0.2 1.5LRSN                1
 GAP=209        0.56       6.0     5.8  7.2  0.1614E+02 -0.8540E+01 -0.7109E+01E
 Epicentro: VILLANUEVA - SANTANDER                                             3
 ACTION:UPD 12-08-06 17:51 OP:ep   STATUS:               ID:20120623234036 L   I
 2012-06-23-2340-00M.COL___198                                                 6
 STAT SP IPHASW D HRMM SECON CODA AMPLIT PERI AZIMU VELO AIN AR TRES W  DIS CAZ7
 BAR2 SZ EP       2340 57.45                             174   -0.3610 15.8 158 
 BRR  HZ EP       2340 59.36                             156    0.2910 67.5 309 
 BRR  HE ES   1   2341 16.87                             156   -0.01 7 67.5 309 
 BRR  HZ I        2341 19.04         9.4 0.14                          67.5 309 
 RUS  HZ EP   1   2341  1.27                             149    0.02 7 93.6 170 
 RUS  HZ I        2341 20.82         2.4 0.53                          93.6 170 
 RUS  HE ES   1   2341 20.97                             149    0.21 7 93.6 170 
 PTB  HZ EP   1   2341  3.80                             138    0.09 7  136 261 
 PTB  HN ES   1   2341 24.95                             138   -0.18 7  136 261 
 PTB  HZ I        2341 30.71         4.1 0.29                           136 261 
                                                                                
