 2012  523 2048 13.8 L   6.786 -73.183131.3  RSN  4 0.4 1.1LRSN                1
 GAP=142        0.75       6.5     6.5 13.5 -0.1282E+02  0.3039E+02 -0.3966E+01E
 Epicentro: LOS SANTOS - SANTANDER                                             3
 ACTION:UP  12-07-05 12:07 OP:pat  STATUS:               ID:20120523204813 L   I
 2012-05-23-2040-00M.COL___201                                                 6
 STAT SP IPHASW D HRMM SECON CODA AMPLIT PERI AZIMU VELO SNR AR TRES W  DIS CAZ7
 BAR2 SZ EP   3   2048 31.52                             170    -0.1 2   21 180 
 PAM  SZ EP       2048 35.03                             147     0.310   81  41 
 PAM  SE ES   2   2048 50.47                             147    -0.6 5   81  41 
 RUS  HZ EP       2048 35.74                             141    -0.310   99 174 
 RUS  HN ES   2   2048 54.13                             141     0.7 5   99 174 
 RUS  HZ I        2048 54.84         1.8 0.54                            99 174 
 PTB  HZ EP       2048 39.30                             129     0.1 9  143 259 
 PTB  HN ES   2   2048 59.10                             129     0.0 5  143 259 
 PTB  HZ I        2049  3.14         1.9 0.18                           143 259 
                                                                                
