 2013 1023 2105 10.6 L   6.650 -73.227159.6  RSN  4 0.3 1.5LRSN                1
 GAP=216        0.66       8.0     7.7  8.8  0.3179E+02 -0.1243E+00 -0.6461E+01E
 Epicentro: BARICHARA - SANTANDER                                              3
 ACTION:UPD 13-11-25 09:23 OP:ep   STATUS:               ID:20131023210510 L   I
 OLDACT:UP  13-10-23 22:37 OP:mh   STATUS:               ID:20131023205842     3
 OLDACT:UP  13-10-23 22:36 OP:mh   STATUS:               ID:20131023205842     3
 OLDACT:REG 13-10-23 22:13 OP:mh   STATUS:               ID:20131023205842     3
 2013-10-23-2058-42M.COL___218                                                 6
 STAT SP IPHASW D HRMM SECON CODA AMPLIT PERI AZIMU VELO AIN AR TRES W  DIS CAZ7
 BRR  HZ EP   1   21 5 33.40                             154   -0.02 7 73.6 313 
 BRR  HN ES   2   21 5 50.87                             154   -0.32 5 73.6 313 
 RUS  HZ EP   1   21 5 34.73                             151   -0.06 7 85.3 169 
 RUS  HN ES   1   21 5 53.82                             151    0.18 7 85.3 169 
 RUS  HZ I        21 5 56.73         2.0 0.27            148           85.3 169 
 PTB  HZ EP   1   21 5 38.43                             137    0.63 7  136 265 
 PTB  HN ES   1   21 5 58.94                             137   -0.06 7  136 265 
 PTB  HZ I        21 6  5.06         6.0 0.18            135            136 265 
 SPBC HZ EP   1   21 5 38.05                             136   -0.55 7  145 220 
 SPBC HN ES   4   21 6  1.78                             136    1.37 0  145 220 
 SPBC HZ I        21 6  5.25         4.8 0.35            133            145 220 
                                                                                
