 2015  223 2250 52.3 L   5.915 -73.782106.8  RSN 11 0.5 1.8LRSN                1
 GAP= 86        1.28       3.8     3.6  7.2 -0.6374E+01  0.3631E+01  0.2525E+01E
 Epicentro: SUCRE - SANTANDER                                                  3
 ACTION:UPD 15-04-30 21:28 OP:nd   STATUS:               ID:20150223225052 L   I
 OLDACT:REG 15-02-24 03:29 OP:fm   STATUS:               ID:20150223224747     3
 2015-02-23-2247-47M.COL___287                                                 6
 STAT SP IPHASW D HRMM SECON CODA AMPLIT PERI AZIMU VELO AIN AR TRES W  DIS CAZ7
 SPBC HZ EP       2251  8.31                             156    0.5010 43.3 228 
 SPBC HN ES       2251 20.69                             156    0.7710 43.3 228 
 SPBC HZ I        2251 23.28        30.2 0.22            157           43.3 228 
 RUS  HZ EP       2251 10.81                             142    0.2710 77.5  92 
 RUS  HE ES       2251 24.30                             142   -0.4910 77.5  92 
 RUS  HZ I        2251 26.54         5.3 0.12            145           77.5  92 
 BAR2 EZ EP       2251 12.85                             134    0.8010  100  42 
 BAR2 EZ ES       2251 27.79                             134    0.3110  100  42 
 BAR2 EZ I        2251 30.97        38.1 0.40            136            100  42 
 PTB  HZ EP       2251 11.41                             133   -0.4810  102 313 
 PTB  HN ES       2251 26.39                             133   -0.8010  102 313 
 PTB  HZ I        2251 30.01         9.0 0.38            134            102 313 
 NOR  HZ EP       2251 14.18                             126   -0.1110  126 252 
 NOR  HN ES       2251 31.35                             126   -0.1010  126 252 
 NOR  HZ I        2251 33.95        32.4 0.14            128            126 252 
 CHI  HZ EP       2251 16.08                             123   -0.27 9  142 178 
 CHI  HN ES       2251 34.35                             123   -0.77 9  142 178 
 GUY2CHZ EP       2251 22.37                             114    0.68 9  191 247 
 GUY2CHN ES       2251 44.87                             114    0.24 9  191 247 
 GUY2CHZ I        2251 50.29         5.8 0.32                           191 247 
 PAM  SZ EP       2251 21.92                             113   -0.52 9  198  37 
 PAM  SN ES       2251 45.89                             113   -0.08 9  198  37 
 PAM  SZ I        2251 49.77         4.6 0.20            116            198  37 
 RREF HZ EP       2251 24.26                             112    0.66 8  207 237 
 RREF HN ES       2251 48.05                             112    0.01 8  207 237 
 RREF HZ I        2251 53.23         8.2 0.18            114            207 237 
 TOL  SZ EP       2251 24.86                             110   -0.48 8  225 229 
 TOL  SE ES       2251 50.69                             110   -0.44 8  225 229 
 TOL  SZ I        2251 57.35         2.7 0.42            112            225 229 
 PRA  HN ES       2252  0.47                             106    0.20 8  272 207 
 PRA  HZ I        2252  5.30         3.5 0.30            107            272 207 
                                                                                
