 2010  823 2037 50.2 L   6.022 -73.739108.2  RSN  8 0.4 1.9LRSN                1
 GAP= 86        0.90       4.5     6.7 11.7 -0.1776E+01  0.4969E+02  0.6926E+00E
 Epicentro: BOLIVAR - SANTANDER                                                3
 ACTION:UP  10-09-07 10:57 OP:vdl  STATUS:               ID:20100823203750 L   I
 2010-08-23-2035-18S.COL___120                                                 6
 STAT SP IPHASW D HRMM SECON CODA AMPLIT PERI AZIMU VELO SNR AR TRES W  DIS CAZ7
 RUS  HZ IP     D 2038  8.25                             143    -0.110   74 101 
 RUS  HZ I        2038  8.76        13.5 0.27                            74 101 
 RUS  HN ES   1   2038 22.22                             143    -0.3 7   74 101 
 BAR2 SZ EP   1   2038  8.74                             138    -0.3 7   88  44 
 BAR2 SZ ES   1   2038 23.97                             138     0.2 7   88  44 
 BAR2 SZ I        2038 25.07        53.8 0.45                            88  44 
 BRR  HZ EP       2038 11.23                             128    -0.410  120   1 
 BRR  HN ES   2   2038 28.97                             128     0.7 5  120   1 
 BRR  HZ I        2038 31.56        20.6 0.12                           120   1 
 GIR2 SZ EP   2   2038 13.79                             125     0.9 5  132  27 
 CHI  HZ EP   1   2038 15.70                             121     0.1 7  154 180 
 CHI  HE ES   2   2038 35.77                             121     0.4 5  154 180 
 CHI  HZ I        2038 39.02         7.1 0.39                           154 180 
 HEL  HZ EP   1   2038 21.17                             113     0.8 6  199 275 
 HEL  HZ I        2038 22.96         6.6 0.58                           199 275 
 HEL  HN ES   2   2038 43.12                             113    -0.8 4  199 275 
 GUE  SZ EP   1   2038 22.64                             111     0.0 6  219  24 
 PRA  HZ EP   2   2038 29.63                             105    -0.3 4  285 207 
 PRA  HZ I        2039  8.66         7.8 0.51                           285 207 
                                                                                
