 2017  823 2323 17.4 L   6.776 -73.107142.8  RSN  7 0.4 1.8LRSN                1
 GAP=143        0.98       4.1     4.7  6.6 -0.2442E+01  0.9245E+01  0.4362E+01E
 Epicentro: LOS SANTOS - SANTANDER                                             3
 ACTION:UPD 17-09-04 20:23 OP:rebc STATUS:               ID:20170823232317 L   I
 OLDACT:UP  17-08-24 04:05 OP:lv   STATUS:               ID:20170823231740     3
 OLDACT:REG 17-08-24 02:31 OP:lv   STATUS:               ID:20170823231740     3
 2017-08-23-2318-00M.COL___419                                                 6
 STAT SP IPHASW D HRMM SECON CODA AMPLIT PERI AZIMU VELO AIN AR TRES W  DIS CAZ7
 BAR2 EZ EP       2323 36.41                             171   -0.2010 22.0 202 
 BAR2 EZ ES       2323 51.09                             171   -0.5410 22.0 202 
 BAR2 EZ I        2323 52.67        19.6 0.12            171           22.0 202 
 BRR  HZ EP       2323 38.37                             150   -0.1210 76.2 299 
 BRR  HN ES       2323 55.46                             150    0.4910 76.2 299 
 BRR  HZ I        2323 56.31        14.9 0.16            152           76.2 299 
 PAM  EZ EP       2323 39.32                             151    0.0910 76.8  36 
 PAM  EN ES       2323 56.62                             151    0.3310 76.8  36 
 PAM  EZ I        2323 57.11         6.9 0.24            152           76.8  36 
 RUS  HZ EP       2323 40.30                             144   -0.3210 97.7 178 
 RUS  HN ES       2323 58.98                             144    0.2210 97.7 178 
 RUS  HZ I        2324  0.99         5.1 0.28            145           97.7 178 
 SPBC HZ EP       2323 45.35                             128   -0.36 9  164 221 
 SPBC HN ES       2324  8.07                             128    0.26 9  164 221 
 ZAR  HN ES       2324 15.11                             121   -0.58 8  209 292 
 GUY2CHZ EP       2324  1.99                             112    0.92 7  303 236 
 GUY2CHE ES       2324 35.32                             112    0.17 7  303 236 
 GUY2CHZ I        2324 43.00         4.8 0.44                           303 236 
                                                                                
