 2017  623 2050 42.0 L   6.725 -73.069147.9  RSN  8 0.5 2.1LRSN                1
 GAP=162        0.96       6.5     5.6  6.7 -0.1926E-01  0.6451E+01  0.1575E+02E
 Epicentro: JORDAN - SANTANDER                                                 3
 ACTION:UPD 17-09-14 16:54 OP:jn   STATUS:               ID:20170623205042 L   I
 OLDACT:UP  17-06-24 05:07 OP:dani STATUS:               ID:20170623204729     3
 OLDACT:UP  17-06-24 05:06 OP:dani STATUS:               ID:20170623204729     3
 OLDACT:UP  17-06-24 05:05 OP:dani STATUS:               ID:20170623204729     3
 OLDACT:UP  17-06-24 05:05 OP:dani STATUS:               ID:20170623204729     3
 OLDACT:UP  17-06-24 05:04 OP:dani STATUS:               ID:20170623204729     3
 OLDACT:UP  17-06-24 05:04 OP:dani STATUS:               ID:20170623204729     3
 OLDACT:UP  17-06-24 05:04 OP:dani STATUS:               ID:20170623204729     3
 OLDACT:UP  17-06-24 05:04 OP:dani STATUS:               ID:20170623204729     3
 OLDACT:UP  17-06-24 05:03 OP:dani STATUS:               ID:20170623204729     3
 OLDACT:REG 17-06-24 03:10 OP:dani STATUS:               ID:20170623204729     3
 2017-06-23-2048-00M.COL___380                                                 6
 STAT SP IPHASW D HRMM SECON CODA AMPLIT PERI AZIMU VELO AIN AR TRES W  DIS CAZ7
 BAR2 EZ EP       2051  2.18                             172    0.3210 19.3 221 
 BAR2 EZ ES       2051 17.19                             172   -0.1210 19.3 221 
 BAR2 EZ I        2051 18.24        34.2 0.24            171           19.3 221 
 BRR  HZ EP       2051  4.26                             149    0.1510 82.7 301 
 BRR  HE ES       2051 21.60                             149    0.2910 82.7 301 
 BRR  HZ I        2051 24.79        26.7 0.41            150           82.7 301 
 TAM  HZ EP   3   2051 10.33                             133    1.37 2  145 103 
 PTB  HZ EP       2051  9.01                             131   -0.82 9  155 262 
 PTB  HN ES   4   2051 29.10                             131   -2.40 0  155 262 
 PTB  HZ I        2051 31.10         8.9 0.14            132            155 262 
 YPLC HZ EP       2051 10.57                             129   -0.34 9  165 153 
 YPLC HN ES   4   2051 31.71                             129   -1.71 0  165 153 
 YPLC HZ I        2051 36.45        12.3 0.18            131            165 153 
 ZAR  HZ EP       2051 15.54                             121   -0.23 8  215 293 
 ZAR  HN ES   3   2051 40.57                             121   -1.51 2  215 293 
 ZAR  HZ I        2051 46.85        15.5 0.34            122            215 293 
 NOR  HZ EP       2051 18.33                             119    0.18 8  237 237 
 NOR  HN ES       2051 46.04                             119   -0.28 8  237 237 
 NOR  HZ I        2051 49.82         6.8 0.14            120            237 237 
 GUY2CHZ EP       2051 26.90                             113    0.88 7  304 237 
 GUY2CHN ES       2052  0.54                             113    0.22 7  304 237 
 GUY2CHZ I        2052  7.09         3.9 0.36                           304 237 
                                                                                
