 2014  423 2108 14.0 L   6.768 -73.097149.6  RSN  8 0.6 1.8LRSN                1
 GAP=123        1.32       5.6     6.6  8.4 -0.1796E+02  0.1322E+01  0.1060E+02E
 Epicentro: LOS SANTOS - SANTANDER                                             3
 ACTION:UPD 14-05-13 23:11 OP:nd   STATUS:               ID:20140423210814 L   I
 OLDACT:REG 14-04-24 05:00 OP:stll STATUS:               ID:20140423205813     3
 2014-04-23-2058-13M.COL___251                                                 6
 STAT SP IPHASW D HRMM SECON CODA AMPLIT PERI AZIMU VELO AIN AR TRES W  DIS CAZ7
 PAM  SZ EP       21 8 36.86                             152    0.2510 76.9  35 
 PAM  SE ES       21 8 54.20                             152   -0.0410 76.9  35 
 PAM  SZ I        21 8 56.15        12.5 0.20            156           76.9  35 
 BRR  HZ EP       21 8 35.92                             151   -0.0310 77.6 299 
 BRR  HZ I        21 8 38.31        12.0 0.28            154           77.6 299 
 BRR  HN ES       21 8 53.68                             151    0.6210 77.6 299 
 RUS  HZ EP       21 8 37.90                             146    0.0110 96.9 179 
 RUS  HZ I        21 8 38.78         5.5 0.40            145           96.9 179 
 RUS  HE ES       21 8 55.87                             146   -0.6410 96.9 179 
 SPBC HZ EP       21 8 42.96                             130    0.07 9  164 221 
 SPBC HN ES       21 9  4.98                             130   -0.43 9  164 221 
 SPBC HZ I        21 9 12.10        13.9 0.40            130            164 221 
 NOR  HZ EP       21 8 49.95                             119   -0.28 8  237 236 
 NOR  HN ES       21 9 17.94                             119   -0.54 8  237 236 
 NOR  HZ I        21 9 21.78         5.0 0.22            120            237 236 
 CHI  HZ EP       21 8 51.96                             118    0.23 8  247 197 
 CHI  HE ES       21 9 22.58                             118    1.44 8  247 197 
 CHI  HZ I        21 9 30.23         3.1 0.50            119            247 197 
 SOCV BZ EP       21 8 56.18                             113   -0.77 7  299  56 
 GUY2CHZ EP       21 8 58.92                             113    0.84 7  304 236 
 GUY2CHE ES       21 9 31.64                             113   -0.81 7  304 236 
 GUY2CHZ I        21 9 40.81         5.6 0.76                           304 236 
                                                                                
