 2016  223 2301 47.0 L   6.776 -73.129143.7  RSN 10 0.4 1.9LRSN                1
 GAP=140        1.06       3.8     4.1  6.1 -0.1843E+01  0.6582E+01  0.5661E+01E
 Epicentro: LOS SANTOS - SANTANDER                                             3
 ACTION:UPD 16-03-04 21:28 OP:rebc STATUS:               ID:20160223230147 L   I
 OLDACT:REG 16-02-24 04:00 OP:ak   STATUS:               ID:20160223225749     3
 2016-02-23-2257-49M.COL___334                                                 6
 STAT SP IPHASW D HRMM SECON CODA AMPLIT PERI AZIMU VELO AIN AR TRES W  DIS CAZ7
 BAR2 EZ EP       23 2  6.26                             171   -0.1110 21.2 196 
 BAR2 EZ ES       23 2 21.18                             171   -0.2710 21.2 196 
 BAR2 EZ I        23 2 22.12        20.8 0.16            170           21.2 196 
 BRR  HZ EP       23 2  8.19                             151    0.0710 74.1 300 
 BRR  HN ES       23 2 24.83                             151    0.2610 74.1 300 
 BRR  HZ I        23 2 30.25        17.5 0.35            151           74.1 300 
 PAM  EZ IP     C 23 2  9.27                             150    0.1910 78.3  37 
 PAM  EN ES       23 2 26.48                             150    0.2010 78.3  37 
 PAM  EZ I        23 2 28.70        12.4 0.48            154           78.3  37 
 RUS  HZ EP       23 2 10.25                             144   -0.1310 97.8 177 
 RUS  HN ES       23 2 28.44                             144   -0.1510 97.8 177 
 RUS  HZ I        23 2 29.61         4.7 0.30            146           97.8 177 
 PTB  HZ EP       23 2 13.24                             131   -0.71 9  149 260 
 PTB  HN ES       23 2 34.12                             131   -0.82 9  149 260 
 PTB  HZ I        23 2 36.55        12.3 0.26            132            149 260 
 SPBC HZ EP       23 2 15.34                             129    0.05 9  162 220 
 SPBC HN ES       23 2 38.25                             129    0.92 9  162 220 
 SPBC HZ I        23 2 42.03        16.2 0.20            130            162 220 
 ZAR  HZ EP   2   23 2 19.40                             121   -0.22 4  207 293 
 ZAR  HE ES       23 2 45.47                             121    0.43 8  207 293 
 ZAR  HZ I        23 2 51.24        10.6 0.27            123            207 293 
 NOR  HZ EP       23 2 22.49                             118   -0.15 8  235 235 
 NOR  HN ES       23 2 49.73                             118   -0.68 8  235 235 
 NOR  HZ I        23 2 52.45         9.8 0.14            119            235 235 
 CHI  HZ EP       23 2 24.32                             117   -0.07 8  247 196 
 CHI  HN ES       23 2 53.69                             117    0.16 8  247 196 
 CHI  HZ I        23 3  3.25         2.9 0.58            118            247 196 
 SOCV BZ EP   4   23 2 27.84                             112   -2.14 0  301  56 
 SOCV BN ES   4   23 2 59.73                             112   -3.75 0  301  56 
 GUY2CHZ EP       23 2 30.96                             112    0.42 7  301 235 
 GUY2CHE ES       23 3  5.39                             112    0.91 7  301 235 
 GUY2CHZ I        23 3 11.50         5.0 0.32                           301 235 
                                                                                
