 2014  223 2015 28.0 L   6.801 -73.148146.5  RSN 12 0.4 2.0LRSN                1
 GAP= 71        0.75       2.4     2.9  5.3 -0.1385E+01  0.2556E+01  0.8685E+00E
 Epicentro: LOS SANTOS - SANTANDER                                             3
 ACTION:UPD 14-03-10 08:12 OP:ep   STATUS:               ID:20140223201528 L   I
 OLDACT:REG 14-02-23 23:33 OP:mh   STATUS:               ID:20140223201000     3
 2014-02-23-2010-00M.COL___215                                                 6
 STAT SP IPHASW D HRMM SECON CODA AMPLIT PERI AZIMU VELO AIN AR TRES W  DIS CAZ7
 PAM  SZ EP       2015 50.67                             151    0.4010 77.5  40 
 PAM  SN ES       2016  7.87                             151    0.2110 77.5  40 
 PAM  SZ I        2016 10.09        18.6 0.55            133           77.5  40 
 RUS  HZ EP       2015 51.89                             144    0.0810  101 176 
 RUS  HN ES       2016 10.16                             144   -0.2310  101 176 
 RUS  HZ I        2016 11.68         8.1 0.19            129            101 176 
 PTB  HZ EP       2015 54.66                             132   -0.32 9  147 259 
 PTB  HN ES       2016 15.90                             132   -0.14 9  147 259 
 PTB  HZ I        2016 18.18        12.8 0.15            114            147 259 
 TAM  HZ EP       2015 55.69                             130   -0.05 9  155 105 
 OCA  HZ EP   1   2015 56.56                             130    0.23 7  160 353 
 OCA  HN ES       2016 17.89                             130   -0.55 9  160 353 
 OCA  HZ I        2016 22.64        12.9 0.16            111            160 353 
 SPBC HZ EP   1   2015 56.82                             129    0.30 7  163 219 
 SPBC HN ES       2016 19.00                             129    0.22 9  163 219 
 SPBC HZ I        2016 22.99        20.7 0.24            113            163 219 
 ZAR  HZ EP   1   2016  0.29                             123   -0.15 6  204 292 
 ZAR  HN ES   1   2016 26.17                             123    0.42 6  204 292 
 ZAR  HZ I        2016 34.67         8.6 0.24            106            204 292 
 NOR  HZ EP   1   2016  2.81                             119   -0.92 6  235 234 
 NOR  HZ I        2016 35.69        10.1 0.15            105            235 234 
 SML  HZ EP   1   2016  4.58                             118   -0.04 6  243 335 
 SML  HZ I        2016 40.38        14.8 0.09            103            243 335 
 CHI  HZ EP   1   2016  6.04                             117    0.32 6  249 195 
 CHI  HN ES   1   2016 34.86                             117   -0.30 6  249 195 
 CHI  HZ I        2016 40.95         4.0 0.20            104            249 195 
 HEL  HN ES   1   2016 40.27                             115    0.70 6  272 256 
 HEL  HZ I        2016 48.12         3.8 0.35            102            272 256 
 PRA  HZ EP   1   2016 22.14                             107    0.62 4  392 210 
 PRA  HN ES   1   2017  2.77                             107   -0.51 4  392 210 
 PRA  HZ I        2017  9.15         3.2 0.40             98            392 210 
                                                                                
