 2016 1223 2115 43.2 L   6.849 -73.125150.3  RSN 31 0.8 3.1LRSN                1
 GAP= 70        1.17       4.0     3.5  5.4 -0.7414E+00  0.3946E+01  0.5062E+01E
 Epicentro: LOS SANTOS - SANTANDER                                             3
 ACTION:UPD 17-01-11 20:18 OP:rebc STATUS:               ID:20161223211543 L   I
 OLDACT:UP  16-12-24 04:12 OP:and  STATUS:               ID:20161223210744     3
 OLDACT:UP  16-12-24 04:11 OP:and  STATUS:               ID:20161223210744     3
 OLDACT:UP  16-12-24 04:07 OP:and  STATUS:               ID:20161223210744     3
 OLDACT:UP  16-12-24 04:06 OP:and  STATUS:               ID:20161223210744     3
 OLDACT:UP  16-12-24 04:05 OP:and  STATUS:               ID:20161223210744     3
 OLDACT:UP  16-12-24 04:04 OP:and  STATUS:               ID:20161223210744     3
 OLDACT:UP  16-12-24 03:59 OP:and  STATUS:               ID:20161223210744     3
 OLDACT:REG 16-12-24 02:59 OP:and  STATUS:               ID:20161223210744     3
 2016-12-23-2108-00M.COL___390                                                 6
 STAT SP IPHASW D HRMM SECON CODA AMPLIT PERI AZIMU VELO AIN AR TRES W  DIS CAZ7
 BAR2 EZ IP     C 2116  3.35                             169   -0.1710 29.1 193 
 BAR2 EZ ES       2116 18.39                             169   -0.9610 29.1 193 
 BAR2 EZ I        2116 19.45       308.1 0.28            168           29.1 193 
 BRR  HZ IP     C 2116  5.17                             153    0.3310 70.9 294 
 BRR  HN ES       2116 22.11                             153    0.4010 70.9 294 
 BRR  HZ I        2116 25.21       202.2 0.30            151           70.9 294 
 PAM  EZ EP       2116  6.16                             153    0.5610 71.7  41 
 PAM  EN ES   3   2116 23.00                             153   -0.06 2 71.7  41 
 PAM  EZ I        2116 25.47       350.9 0.48            156           71.7  41 
 RUS  HZ IP     C 2116  7.31                             143   -0.4810  106 178 
 RUS  HN ES   3   2116 25.81                             143   -1.15 2  106 178 
 RUS  HZ I        2116 27.22       183.1 0.22            144            106 178 
 PTB  HZ EP   9   2116  9.75                             132   -1.11 0  151 257 
 PTB  HN ES       2116 30.81                             132   -0.51 9  151 257 
 PTB  HZ I        2116 37.45       142.2 0.17            131            151 257 
 TAM  HZ IP     C 2116 11.80                             132    0.61 9  154 107 
 TAM  HN ES       2116 33.21                             132    0.20 9  154 107 
 TAM  HZ I        2116 34.95        59.1 0.48            135            154 107 
 ZAR  HZ EP       2116 15.57                             123   -0.41 9  204 290 
 ZAR  HN ES       2116 41.53                             123   -0.01 9  204 290 
 ZAR  HZ I        2116 43.52        96.7 0.07            123            204 290 
 NOR  HZ EP       2116 19.17                             119   -0.58 8  240 234 
 NOR  HN ES       2116 47.78                             119   -0.47 8  240 234 
 NOR  HZ I        2116 52.34        74.9 0.34            119            240 234 
 CHI  HZ EP       2116 21.54                             117   -0.26 8  254 195 
 CHI  HN ES   4   2116 50.49                             117   -1.40 0  254 195 
 CHI  HZ I        2116 54.56       120.1 0.66            118            254 195 
 ROSC BZ EP       2116 23.30                             117    1.08 8  259 211 
 ROSC BN ES       2116 53.34                             117    0.70 8  259 211 
 ROSC BZ I        2116 58.01       228.7 0.45            117            259 211 
 URE  HZ EP       2116 24.04                             114   -0.49 7  284 291 
 URE  HN ES   4   2116 54.27                             114   -2.49 0  284 291 
 URE  HZ I        2117  3.62        92.0 0.16            114            284 291 
 LL1C HZ EP   9   2116 28.56                             113    2.10 0  302 351 
 LL1C HN ES       2117  2.76                             113    0.47 7  302 351 
 GUY2CHZ EP       2116 27.33                             113   -0.27 7  306 234 
 GUY2CHN ES   3   2117  3.60                             113    1.37 2  306 234 
 GUY2CHZ I        2117  9.96        58.2 0.36                           306 234 
 PTGC HZ IP   4 C 2116 26.62                             112   -1.13 0  313 159 
 PTGC HE ES   4   2116 59.74                             112   -2.75 0  313 159 
 PTGC HZ I        2117  2.72        75.6 0.48            113            313 159 
 LL6C HZ EP   9   2116  8.39                             112   -20.1 0  320 357 
 ELA  HZ EP       2116 31.54                             111    0.68 7  334 229 
 ELA  HN ES       2117  8.41                             111    0.38 7  334 229 
 ELA  HZ I        2117 15.28        53.1 0.58            111            334 229 
 CBOC HZ EP       2116 31.70                             110    0.93 7  338 251 
 CBOC HN ES       2117  8.29                             110    0.43 7  338 251 
 CBOC HZ I        2117 24.17        22.1 0.50            111            338 251 
 DBB  EZ EP       2116 30.89                             110   -0.21 7  341 273 
 DBB  EN ES   3   2117  6.62                             110   -1.84 2  341 273 
 DBB  EZ I        2117  8.96        41.3 0.24            110            341 273 
 ANIL HZ EP       2116 34.19                             109    0.36 6  363 224 
 ANIL HN ES   3   2117 14.50                             109    1.19 2  363 224 
 ORTC HZ EP       2116 37.26                             107   -0.70 6  401 216 
 ORTC HN ES       2117 21.00                             107    0.33 6  401 216 
 ORTC HZ I        2117 24.39        35.8 0.30            107            401 216 
 SJC  HZ IP     D 2116 37.57                             107   -0.98 6  406 326 
 SJC  HN ES   4   2117 18.25                             107   -3.46 0  406 326 
 SJC  HZ I        2117 27.26        18.5 0.30            107            406 326 
 PAL  HZ EP       2116 38.93                             106   -0.16 6  410 239 
 PAL  HN ES   4   2117 20.64                             106   -2.03 0  410 239 
 PAL  HZ I        2117 27.13        16.1 0.24            107            410 239 
 CRJC HZ EP   4   2116 43.52                             104   -1.67 0  462   3 
 CRJC HN ES   4   2117 30.60                             104   -2.93 0  462   3 
 CRJC HZ I        2117 38.64        39.1 0.26            105            462   3 
 YOT  HZ EP   3   2116 45.93                             104   -1.09 1  477 229 
 YOT  HN ES   3   2117 38.29                             104    1.51 1  477 229 
 SMAR HZ EP       2116 48.88                             103    0.23 4  492 346 
 SMAR HN ES   4   2117 37.17                             103   -2.52 0  492 346 
 SMAR HZ I        2117 39.76        19.7 0.22            104            492 346 
 MACC HZ EP       2116 50.43                             102   -2.29 4  526 189 
 MARO HZ EP       2116 55.93                             102    0.90 4  543 215 
 MARO HE ES       2117 51.29                             102    0.24 4  543 215 
 MARO HZ I        2117 55.19        11.4 0.40            102            543 215 
 URI  HZ EP   4   2116 48.47                             101   -7.16 0  551  13 
 URI  HN ES   4   2117 49.68                             101   -2.43 0  551  13 
 MAL  EZ EP       2116 58.12                             101    1.15 3  562 236 
 GARC HZ EP       2116 57.54                             101   -1.73 3  579 207 
 GARC HE ES       2117 55.40                             101   -3.20 3  579 207 
 CONO HZ EP       2117  4.55                             100    0.18 3  618 216 
 FLO2 HZ EP       2117  7.02                              99   -0.11 2  646 206 
 SOTO HZ EP       2117  8.42                              99    0.41 2  649 217 
 SOTO HN ES   4   2118 18.03                              99    3.87 0  649 217 
                                                                                
