 2016  223 2100  7.2 L   6.650 -73.535107.7  RSN 20 0.5 2.2LRSN                1
 GAP= 72        1.06       2.5     2.8  5.5 -0.6806E+00  0.6915E+01  0.2070E+01E
 Epicentro: EL CARMEN - SANTANDER                                              3
 ACTION:UPD 16-03-04 21:28 OP:rebc STATUS:               ID:20160223210007 L   I
 OLDACT:REG 16-02-24 03:53 OP:ak   STATUS:               ID:20160223205747     3
 2016-02-23-2057-47M.COL___322                                                 6
 STAT SP IPHASW D HRMM SECON CODA AMPLIT PERI AZIMU VELO AIN AR TRES W  DIS CAZ7
 BAR2 EZ IP     D 21 0 23.30                             158    0.4410 39.5  99 
 BAR2 EZ ES       21 0 34.95                             158   -0.1310 39.5  99 
 BRR  HZ EP       21 0 23.55                             151    0.2810 54.2 339 
 BRR  HN ES       21 0 36.02                             151    0.2110 54.2 339 
 BRR  HZ I        21 0 37.34        80.9 0.12            152           54.2 339 
 RUS  HZ IP     D 21 0 27.13                             135   -0.0410 97.6 149 
 RUS  HN ES       21 0 42.79                             135    0.0310 97.6 149 
 RUS  HZ I        21 0 44.97        28.2 0.30            135           97.6 149 
 PTB  HZ IP     D 21 0 26.01                             133   -0.9610  103 263 
 PTB  HN ES   4   21 0 40.51                             133   -1.88 0  103 263 
 PTB  HZ I        21 0 42.31        33.0 0.32            131            103 263 
 PAM  EZ EP       21 0 29.37                             128    0.1810  120  50 
 PAM  EN ES       21 0 46.52                             128    0.1710  120  50 
 PAM  EZ I        21 0 47.94        43.2 0.16            131            120  50 
 SPBC HZ IP     D 21 0 28.90                             126   -0.3010  125 208 
 SPBC HN ES       21 0 45.48                             126   -0.8910  125 208 
 SPBC HZ I        21 0 51.78        36.0 0.33            125            125 208 
 ZAR  HZ EP   2   21 0 34.19                             117    0.11 4  173 303 
 ZAR  HN ES       21 0 55.32                             117    0.27 9  173 303 
 ZAR  HZ I        21 0 59.18        39.6 0.46            117            173 303 
 NOR  HZ EP       21 0 35.59                             114   -0.43 9  190 231 
 NOR  HE ES       21 0 58.20                             114   -0.29 9  190 231 
 NOR  HZ I        21 1  0.46        18.7 0.16            114            190 231 
 CHI  HZ EP       21 0 40.10                             110   -0.22 8  224 186 
 CHI  HN ES       21 1  6.65                             110    0.49 8  224 186 
 CHI  HZ I        21 1 11.70         6.8 0.26            110            224 186 
 HEL  HZ EP   2   21 0 39.68                             110   -0.79 4  226 257 
 HEL  HN ES       21 1  6.99                             110    0.56 8  226 257 
 HEL  HZ I        21 1 14.52        10.3 0.22            110            226 257 
 URE  HZ EP   2   21 0 42.24                             107   -0.76 4  252 299 
 URE  HN ES   4   21 1  9.23                             107   -1.69 0  252 299 
 URE  HZ I        21 1 11.37        12.7 0.08            107            252 299 
 GUY2CHZ EP       21 0 45.04                             107    0.92 8  257 232 
 GUY2CHN ES       21 1 13.20                             107    0.28 8  257 232 
 GUY2CHZ I        21 1 22.32        13.0 0.68                           257 232 
 ELA  HZ EP   2   21 0 47.88                             105    0.25 4  286 226 
 ELA  HE ES       21 1 18.88                             105   -0.28 7  286 226 
 ELA  HZ I        21 1 29.28         8.1 0.40            105            286 226 
 CBOC HN ES   2   21 1 18.67                             104   -0.02 4  288 253 
 CBOC HZ I        21 1 25.51         4.6 0.40            104            288 253 
 DBB  SZ EP   1   21 0 48.98                             104    0.45 5  298 278 
 DBB  SZ ES       21 1 20.07                             104   -0.70 7  298 278 
 DBB  SZ I        21 1 25.58        28.1 0.38            104            298 278 
 ANIL HZ EP   4   21 0 49.51                             103   -1.36 0  316 221 
 ANIL HN ES   4   21 1 26.84                             103    1.90 0  316 221 
 ANIL HZ I        21 1 30.52        24.0 0.28            103            316 221 
 MON  HZ EP   2   21 0 51.67                             101   -0.82 3  333 315 
 MON  HE ES       21 1 27.98                             101    0.17 7  333 315 
 MON  HZ I        21 1 30.78         3.6 0.28            102            333 315 
 SOCV BZ EP       21 0 53.32                             101   -0.88 6  347  58 
 SOCV BN ES   4   21 1 29.01                             101   -1.85 0  347  58 
 ORTC HZ EP       21 0 56.31                             100    0.78 6  358 212 
 ORTC HN ES       21 1 34.11                             100    0.88 6  358 212 
 ORTC HZ I        21 1 42.18         5.2 0.36            100            358 212 
 PAL  HZ EP       21 0 56.25                             100    0.35 6  360 238 
 PAL  HE ES       21 1 34.28                             100    0.38 6  360 238 
 PAL  HZ I        21 1 41.82         3.8 0.25            100            360 238 
                                                                                
