 2010  523 2054 25.8 L   6.773 -72.970144.1  RSN  9 0.4 2.3LRSN                1
 GAP=191        0.70       4.6    10.5  8.1 -0.3301E+02  0.2208E+02  0.1947E+01E
 Epicentro: CEPITA - SANTANDER                                                 3
 ACTION:UP  10-08-24 10:06 OP:vdl  STATUS:               ID:20100523205425 L   I
 2010-05-23-2052-36S.COL___111                                                 6
 STAT SP IPHASW D HRMM SECON CODA AMPLIT PERI AZIMU VELO SNR AR TRES W  DIS CAZ7
 BAR2 SZ IP     D 2054 45.35                             167    -0.110   31 230 
 BAR2 SZ ES   2   2055  0.32                             167    -0.4 5   31 230 
 GUE  SZ EP   1   2054 50.28                             139    -0.1 7  117   2 
 GRA  SZ IP     D 2054 51.08                             137     0.310  124   8 
 GRA  SZ ES   2   2055 10.57                             137     0.3 5  124   8 
 OCA  SZ EP   1   2054 53.67                             128    -0.9 7  167 347 
 OCA  SZ ES   2   2055 17.58                             128     0.5 5  167 347 
 OCA  SZ I        2055 19.61        40.0 0.18                           167 347 
 CHI  HZ EP   1   2055  3.79                             116     0.1 6  252 200 
 CHI  HE ES   2   2055 33.12                             116    -0.2 4  252 200 
 CHI  HZ I        2055 40.72         6.1 0.43                           252 200 
 ROSC BZ EP   1   2055  5.03                             115     0.3 6  261 215 
 ROSC BN ES   2   2055 35.65                             115     0.6 4  261 215 
 ROSC BZ I        2055 41.92        12.6 0.50                           261 215 
 HEL  HZ EP   1   2055  7.93                             113     0.0 5  290 257 
 HEL  HZ I        2055 43.74         5.5 0.29                           290 257 
 RREF BZ EP   1   2055 13.61                             110     0.2 5  335 232 
 RREF BE ES   2   2055 50.20                             110    -0.3 3  335 232 
 RREF BZ I        2055 56.84         9.3 0.22                           335 232 
 PRA  HZ EP   1   2055 19.96                             106    -0.2 4  399 212 
 PRA  HE ES   2   2056  2.55                             106     0.0 3  399 212 
 PRA  HZ I        2056  6.97         8.2 0.26                           399 212 
                                                                                
