 2017  223 2109 38.2 L   6.773 -73.112140.9  RSN  6 0.2 1.5LRSN                1
 GAP=142        0.61       2.4     3.3  4.3  0.1002E+01  0.2851E+01  0.2771E+01E
 Epicentro: LOS SANTOS - SANTANDER                                             3
 ACTION:UPD 17-05-24 15:39 OP:jn   STATUS:               ID:20170223210938 L   I
 OLDACT:REG 17-02-24 03:07 OP:cara STATUS:               ID:20170223210743     3
 2017-02-23-2108-00M.COL___394                                                 6
 STAT SP IPHASW D HRMM SECON CODA AMPLIT PERI AZIMU VELO AIN AR TRES W  DIS CAZ7
 BAR2 EZ ES       2110 12.04                             171   -0.0110 21.4 201 
 BAR2 EZ I        2110 14.01        13.9 0.48            171           21.4 201 
 BRR  HZ EP       21 9 59.16                             150    0.0310 76.0 299 
 BRR  HN ES       2110 15.33                             150   -0.1110 76.0 299 
 PAM  EZ EP     D 2110  0.29                             150    0.3710 77.5  36 
 PAM  EN ES       2110 16.77                             150   -0.0910 77.5  36 
 PAM  EZ I        2110 21.47         4.5 0.44            150           77.5  36 
 RUS  HZ EP       2110  0.91                             144   -0.3510 97.4 178 
 RUS  HN ES       2110 19.30                             144    0.0710 97.4 178 
 RUS  HZ I        2110 21.16         3.9 0.36            144           97.4 178 
 ZAR  HE ES       2110 36.33                             121    0.05 8  209 293 
 CHI  HZ EP       2110 15.10                             116   -0.34 8  247 196 
 CHI  HN ES       2110 44.89                             116    0.41 8  247 196 
 CHI  HZ I        2110 48.50         2.2 0.26            117            247 196 
                                                                                
