 2014  223 2348 45.7 L   6.771 -73.127147.1  RSN  6 0.4 1.4LRSN                1
 GAP=140        0.76       3.4     4.7  7.1  0.1613E+01  0.4962E+01  0.6429E+01E
 Epicentro: LOS SANTOS - SANTANDER                                             3
 ACTION:UPD 14-03-10 08:12 OP:ep   STATUS:               ID:20140223234845 L   I
 OLDACT:UP  14-02-24 02:45 OP:mh   STATUS:               ID:20140223232846     3
 OLDACT:REG 14-02-23 23:46 OP:mh   STATUS:               ID:20140223232846     3
 2014-02-23-2328-46M.COL___236                                                 6
 STAT SP IPHASW D HRMM SECON CODA AMPLIT PERI AZIMU VELO AIN AR TRES W  DIS CAZ7
 BRR  HZ EP   1   2349  7.11                             152   -0.09 7 74.6 300 
 BRR  HN ES       2349 24.48                             152    0.5210 74.6 300 
 BRR  HZ I        2349 34.70         7.1 0.48            149           74.6 300 
 PAM  SZ EP       2349  8.38                             151    0.2410 78.7  37 
 PAM  SN ES       2349 25.43                             151   -0.2110 78.7  37 
 PAM  SZ I        2349 27.85         4.0 0.34            159           78.7  37 
 RUS  HZ EP   1   2349  9.38                             145    0.03 7 97.2 177 
 RUS  HN ES   1   2349 27.32                             145   -0.48 7 97.2 177 
 RUS  HZ I        2349 29.14         2.4 0.10            148           97.2 177 
 ZAR  HN ES   1   2349 43.49                             122   -0.70 6  207 293 
 ZAR  HZ I        2349 49.79                             124            207 293 
 CHI  HZ EP   1   2349 23.45                             118    0.25 6  246 196 
 CHI  HN ES   1   2349 52.54                             118    0.10 6  246 196 
 CHI  HZ I        2349 58.24                             121            246 196 
 SML  HN ES   1   2349 51.53                             117   -0.24 6  248 335 
                                                                                
