 2014  423 2216 32.8 L   6.894 -73.194144.2  RSN  4 0.3 1.4LRSN                1
 GAP=126        0.80       3.5     4.6  8.3 -0.8117E+00  0.1046E+02 -0.8297E+01E
 Epicentro: BETULIA - SANTANDER                                                3
 ACTION:UPD 14-05-13 23:11 OP:nd   STATUS:               ID:20140423221632 L   I
 OLDACT:DUP 14-04-24 07:37 OP:stll STATUS:               ID:20140423220815d    3
 2014-04-23-2208-13M.COL___248                                                 6
 STAT SP IPHASW D HRMM SECON CODA AMPLIT PERI AZIMU VELO AIN AR TRES W  DIS CAZ7
 PAM  SZ EP       2216 54.51                             152   -0.1510 73.6  48 
 PAM  SN ES       2217 11.45                             152   -0.2310 73.6  48 
 PAM  SZ I        2217 13.72         4.9 0.36            153           73.6  48 
 RUS  HZ EP       2216 57.17                             140   -0.0810  111 174 
 RUS  HN ES       2217 16.76                             140    0.4710  111 174 
 RUS  HZ I        2217 18.12         1.4 0.38            143            111 174 
 PTB  HN ES       2217 19.81                             132   -0.35 9  145 254 
 SML  HZ EP       2217  8.03                             118   -0.09 8  232 335 
 SML  HN ES       2217 36.19                             118    0.56 8  232 335 
 SML  HZ I        2217 38.22         4.0 0.10            120            232 335 
                                                                                
