 2017  823 2118  1.7 L   6.821 -73.137147.8  RSN 28 0.5 2.8LRSN                1
 GAP= 66        1.15       2.7     3.3  4.9 -0.7995E+00  0.3456E+01  0.2523E+00E
 Epicentro: LOS SANTOS - SANTANDER                                             3
 ACTION:UPD 17-09-04 20:23 OP:rebc STATUS:               ID:20170823211801 L   I
 OLDACT:REG 17-08-24 02:24 OP:lv   STATUS:               ID:20170823211738     3
 2017-08-23-2118-00M.COL___419                                                 6
 STAT SP IPHASW D HRMM SECON CODA AMPLIT PERI AZIMU VELO AIN AR TRES W  DIS CAZ7
 BAR2 EZ IP     D 2118 21.40                             170   -0.2010 25.8 191 
 BAR2 EZ ES       2118 35.92                             170   -1.2210 25.8 191 
 BAR2 EZ I        2118 38.03       162.1 0.16            168           25.8 191 
 BRR  HZ IP     D 2118 23.19                             153    0.1610 70.9 297 
 BRR  HE ES       2118 40.47                             153    0.7910 70.9 297 
 BRR  HZ I        2118 42.81       135.6 0.28            145           70.9 297 
 PAM  EZ EP       2118 24.39                             152    0.4210 75.0  40 
 PAM  EN ES       2118 41.47                             152    0.1110 75.0  40 
 PAM  EZ I        2118 43.90       103.7 0.62            148           75.0  40 
 RUS  HZ EP       2118 25.61                             144   -0.1810  103 177 
 RUS  HN ES       2118 44.63                             144    0.0410  103 177 
 RUS  HZ I        2118 45.21        91.4 0.24            139            103 177 
 TAM  HZ EP       2118 29.78                             131    0.29 9  155 106 
 TAM  HN ES       2118 51.62                             131    0.44 9  155 106 
 SPBC HZ EP       2118 30.26                             129   -0.30 9  166 219 
 SPBC HN ES       2118 53.07                             129   -0.01 9  166 219 
 SPBC HZ I        2118 58.48       145.6 0.24            122            166 219 
 YPLC HZ EP       2118 31.84                             127    0.07 9  178 152 
 YPLC HN ES       2118 54.93                             127   -0.32 9  178 152 
 YPLC HZ I        2118 56.80       127.7 0.26            122            178 152 
 ZAR  HZ EP       2118 33.85                             123   -0.41 9  204 291 
 ZAR  HN ES       2118 59.03                             123   -0.63 9  204 291 
 ZAR  HZ I        2119  6.02        68.8 0.18            116            204 291 
 TABC EZ EP       2118 38.82                             119    1.01 8  232 211 
 TABC EZ ES       2119  7.22                             119    1.23 8  232 211 
 TABC EZ I        2119 13.11        75.2 0.38            114            232 211 
 NOR  HZ EP       2118 37.29                             119   -0.46 8  237 234 
 NOR  HN ES       2119  5.68                             119   -0.20 8  237 234 
 NOR  HZ I        2119 10.12        65.0 0.24            113            237 234 
 CHI  HZ EP       2118 39.62                             117   -0.14 8  251 195 
 CHI  HN ES       2119  9.39                             117   -0.06 8  251 195 
 CHI  HZ I        2119 12.22        39.0 0.42            112            251 195 
 ROSC BZ EP   9   2118 41.61                             117    1.44 0  255 211 
 ROSC BN ES       2119 12.22                                    0.59 8  255 211 
 ROSC BZ I        2119 17.70        62.6 0.50            111            255 211 
 HEL  HZ EP   4   2118 43.75                             115    1.59 0  274 255 
 HEL  HN ES   4   2119 11.76                             115   -1.97 0  274 255 
 HEL  HZ I        2119 21.03        37.0 0.36            109            274 255 
 URE  HZ EP   4   2118 41.65                             114   -1.20 0  284 291 
 URE  HN ES   4   2119 13.53                             114   -1.43 0  284 291 
 URE  HZ I        2119 22.74        43.0 0.34            108            284 291 
 GUY2CHZ EP   4   2118 46.79                             112    1.17 0  303 235 
 GUY2CHN ES   4   2119 18.73                             112   -1.15 0  303 235 
 GUY2CHZ I        2119 26.63        36.5 0.56                           303 235 
 LL1C HZ EP   4   2118 47.28                             112    2.16 0  304 351 
 LL1C HE ES   4   2119 20.66                             112    1.65 0  304 351 
 VIL  EZ EP       2118 44.42                             112   -1.04 7  306 192 
 VIL  EN ES       2119 19.17                             112   -0.44 7  306 192 
 VIL  EZ I        2119 24.85        44.1 0.38            107            306 192 
 PTGC HZ EP   4   2118 44.66                             112   -1.17 0  310 159 
 PTGC HN ES   4   2119 17.82                             112   -2.45 0  310 159 
 LL6C HZ EP       2118 47.33                             111    0.12 7  323 357 
 LL6C HN ES   4   2119 20.12                             111   -2.60 0  323 357 
 LL6C HZ I        2119 31.54        16.0 0.44            106            323 357 
 ELA  HZ EP   4   2118 51.26                             110    2.39 0  331 229 
 ELA  HN ES       2119 26.45                             110    0.78 7  331 229 
 ELA  HZ I        2119 32.91        26.4 0.36            105            331 229 
 DBB  EZ EP   1   2118 49.03                             110   -0.29 5  340 274 
 DBB  EN ES   4   2119 23.57                             110   -2.92 0  340 274 
 DBB  EZ I        2119 27.35        23.0 0.16            104            340 274 
 ARGC HZ EP       2118 51.51                             109    0.31 6  357 340 
 ARGC HN ES       2119 30.18                             109    0.36 6  357 340 
 ANIL HZ EP   9   2118 53.19                             109    1.36 0  360 224 
 ANIL HN ES       2119 32.45                                    0.15 6  360 224 
 PRA  HZ EP       2118 55.13                             107   -0.43 6  394 210 
 PRA  HN ES   4   2119 36.28                             107   -1.30 0  394 210 
 PRA  HZ I        2119 43.06        29.8 0.26            102            394 210 
 ORTC HZ EP       2118 55.60                             106   -0.35 6  398 216 
 ORTC HN ES       2119 38.91                             106    0.63 6  398 216 
 ORTC HZ I        2119 45.34        17.1 0.34            102            398 216 
 SJC  HZ EP   4   2118 55.54                             106   -1.60 0  408 327 
 SJC  HN ES   4   2119 36.25                             106   -4.15 0  408 327 
 SJC  HZ I        2119 44.23        10.5 0.42            101            408 327 
 PAL  HZ EP       2118 56.99                             106   -0.15 6  408 239 
 PAL  HN ES   4   2119 37.99                             106   -2.40 0  408 239 
 PAL  HZ I        2119 43.36        16.9 0.44            101            408 239 
 YOT  HZ EP       2119  5.55                             103    0.51 5  474 229 
 SMAR HZ EP       2119  6.98                             103   -0.39 4  495 346 
 SMAR HN ES   4   2119 55.14                             103   -3.46 0  495 346 
 URI  HZ EP   4   2119 11.50                             101   -2.94 0  554  13 
 URI  HZ I        2120 10.46         2.9 0.22             97            554  13 
 URI  HN ES       2120 10.74                             101   -0.44 4  554  13 
                                                                                
