 2010  223 2251 24.6 L   6.835 -72.985143.5  RSN  6 0.4 1.6LRSN                1
 GAP=226        0.67       5.7     9.7  7.4  0.5354E+01  0.1066E+02  0.1654E+02E
 Epicentro: CEPITA - SANTANDER                                                 3
 ACTION:UP  10-08-24 09:50 OP:vdl  STATUS:               ID:20100223225124 L   I
 2010-02-23-2248-10S.COL___094                                                 6
 STAT SP IPHASW D HRMM SECON CODA AMPLIT PERI AZIMU VELO SNR AR TRES W  DIS CAZ7
 BAR2 SZ EP   1   2251 44.30                             166     0.0 7   35 219 
 BAR2 SZ ES   2   2251 59.08                             166    -0.5 5   35 219 
 GIR2 SZ EP   1   2251 44.30                             166     0.1 7   35 319 
 GIR2 SZ ES   2   2252  0.01                             166     0.6 5   35 319 
 BRR  HZ EP   1   2251 46.21                             148    -0.2 7   86 291 
 BRR  HE ES   2   2252  3.01                             148    -0.4 5   86 291 
 BRR  HZ I        2252  3.86        14.1 0.11                            86 291 
 RUS  BZ EP   1   2251 48.40                             142    -0.1 7  105 186 
 RUS  BZ I        2251 49.05         3.5 0.30                           105 186 
 RUS  BN ES   2   2252  7.68                             142     0.6 5  105 186 
 CHI  HZ EP   1   2252  2.97                             116    -0.2 6  258 199 
 CHI  HN ES   2   2252 32.62                             116    -0.6 4  258 199 
 CHI  HZ I        2252 41.14         2.3 0.50                           258 199 
 RREF BZ EP   1   2252 13.00                             109     0.5 5  338 231 
 RREF BN ES   2   2252 50.44                             109     0.6 3  338 231 
 RREF BZ I        2252 56.04         2.0 0.41                           338 231 
                                                                                
