 2017  223 2135 52.8 L   6.791 -73.155138.3  RSN  5 0.2 1.5LRSN                1
 GAP=136        0.51       2.5     2.7  4.0  0.1492E+01  0.1407E+01 -0.8038E-01E
 Epicentro: LOS SANTOS - SANTANDER                                             3
 ACTION:UPD 17-05-24 15:39 OP:jn   STATUS:               ID:20170223213552 L   I
 OLDACT:REG 17-02-24 03:08 OP:cara STATUS:               ID:20170223212741     3
 2017-02-23-2128-00M.COL___394                                                 6
 STAT SP IPHASW D HRMM SECON CODA AMPLIT PERI AZIMU VELO AIN AR TRES W  DIS CAZ7
 BAR2 EZ EP       2136 11.51                             170   -0.0410 22.2 188 
 BAR2 EZ ES       2136 26.23                             170    0.0910 22.2 188 
 BAR2 EZ I        2136 27.43         9.7 0.46            172           22.2 188 
 BRR  HZ EP       2136 12.90                             151   -0.2610 70.8 300 
 BRR  HN ES       2136 29.10                             151    0.0910 70.8 300 
 BRR  HZ I        2136 33.11         9.6 0.44            153           70.8 300 
 PAM  EZ EP       2136 14.71                             149    0.3610 78.8  40 
 PAM  EN ES       2136 30.92                             149   -0.2110 78.8  40 
 PAM  EZ I        2136 33.44         3.7 0.68            152           78.8  40 
 RUS  HZ EP       2136 15.74                             142   -0.0510 99.7 175 
 RUS  HN ES       2136 33.69                             142   -0.0110 99.7 175 
 RUS  HZ I        2136 35.99         3.1 0.32            146           99.7 175 
 ZAR  HN ES       2136 49.67                             121    0.03 9  204 293 
                                                                                
