 2011  423 2153 16.3 L   6.747 -73.131142.3  RSN  5 0.4 1.6LRSN                1
 GAP=162        0.70      11.5     8.3  8.7 -0.1539E+02 -0.2374E+02  0.1081E+02E
 Epicentro: LOS SANTOS - SANTANDER                                             3
 ACTION:UP  11-06-22 15:32 OP:REBC STATUS:               ID:20110423215315 L   I
 2011-04-23-2148-58S.COL___139                                                 6
 STAT SP IPHASW D HRMM SECON CODA AMPLIT PERI AZIMU VELO SNR AR TRES W  DIS CAZ7
 BAR2 SZ EP   1   2153 35.15                             171    -0.3 7   18 198 
 BAR2 SZ I        2153 44.97         9.4 0.52                            18 198 
 BAR2 SZ ES   2   2153 50.30                             171    -0.1 5   18 198 
 BTL  SZ EP   1   2153 35.69                             161     0.1 7   24 321 
 BTL  SZ ES   2   2153 51.09                                     0.5 5   24 321 
 GIR2 SZ EP   2   2153 36.93                             154     1.2 5   37 349 
 GIR2 SZ ES   3   2153 51.13                                     0.2 2   37 349 
 BRR  HZ EP   1   2153 37.16                             150    -0.2 7   76 302 
 BRR  HE ES   1   2153 53.59                             150    -0.2 7   76 302 
 BRR  HZ I        2154  3.75         8.2 0.45                            76 302 
 PAM  SZ EP       2153 38.41                                     0.010   81  36 
 PAM  SN ES   2   2153 55.26                                    -0.4 5   81  36 
                                                                                
