 2010  823 2319  2.1 L   6.832 -73.333120.6  RSN  5 0.1 1.8LRSN                1
 GAP=141        0.30       2.4     4.2  2.6  0.5696E+01 -0.1088E+01 -0.9507E+00E
 Epicentro: ZAPATOCA - SANTANDER                                               3
 ACTION:UP  10-09-07 10:57 OP:vdl  STATUS:               ID:20100823231902 L   I
 2010-08-23-2316-45S.COL___120                                                 6
 STAT SP IPHASW D HRMM SECON CODA AMPLIT PERI AZIMU VELO SNR AR TRES W  DIS CAZ7
 BTL  SZ ES   1   2319 31.20                             173    -0.1 7   12  37 
 BAR2 SZ EP   1   2319 18.90                             165     0.0 7   31 148 
 BAR2 SZ ES       2319 32.11                             165     0.010   31 148 
 BAR2 SZ I        2319 33.15        45.1 0.32                            31 148 
 BRR  HZ EP       2319 19.38                             155    -0.110   52 306 
 BRR  HN ES   1   2319 33.08                             155     0.1 7   52 306 
 BRR  HZ I        2319 34.21        23.0 0.11                            52 306 
 RUS  HZ EP   1   2319 24.09                             136     0.1 7  107 165 
 RUS  HN ES   1   2319 41.13                             136     0.0 7  107 165 
 RUS  HZ I        2319 42.69         4.6 0.25                           107 165 
 GUE  SZ EP   1   2319 24.89                             132     0.1 7  119  22 
 GUE  SZ I        2319 25.30         9.2 0.14                           119  22 
                                                                                
