 2012 1223 2354  2.2 L   6.792 -73.139144.3  RSN  7 0.5 2.0LRSN                1
 GAP=184        1.18       5.5     6.4  7.0 -0.3221E+01  0.8733E+01  0.1232E+01E
 Epicentro: LOS SANTOS - SANTANDER                                             3
 ACTION:UPD 13-01-04 14:30 OP:ep   STATUS:               ID:20121223235402 L   I
 2012-12-23-2350-00M.COL___243                                                 6
 STAT SP IPHASW D HRMM SECON CODA AMPLIT PERI AZIMU VELO AIN AR TRES W  DIS CAZ7
 BAR2 SZ EP       2354 21.78                             171    0.1010 22.6 192 
 BAR2 SZ ES       2354 36.15                             171   -0.6910 22.6 192 
 BAR2 SZ I        2354 37.84        22.9 0.18                          22.6 192 
 GIR2 SZ EP       2354 21.94                             167    0.1810 32.3 349 
 GIR2 SZ ES       2354 37.03                             167    0.0310 32.3 349 
 BRR  HZ EP       2354 23.73                             152    0.4410 72.3 299 
 BRR  HE ES       2354 40.55                             152    0.8310 72.3 299 
 BRR  HN I        2354 43.03        23.2 0.18                          72.3 299 
 RUS  HZ EP     D 2354 25.73                             144   -0.0510 99.6 176 
 RUS  HN ES       2354 44.35                             144    0.2110 99.6 176 
 RUS  HN I        2354 45.43        14.0 0.22                          99.6 176 
 PTB  HZ EP       2354 28.77                             132   -0.37 9  148 259 
 PTB  HE ES       2354 49.34                             132   -0.79 9  148 259 
 OCA  HZ EP       2354 29.98                             129   -0.55 9  161 353 
 NOR  HZ EP       2354 38.27                             118    0.38 8  235 235 
 NOR  HN ES       2355  5.95                             118    0.24 8  235 235 
                                                                                
