 2017  723 2205 20.3 L   6.749 -73.213144.2  RSN  6 0.3 1.5LRSN                1
 GAP=223        0.85       4.7     4.8  6.8  0.8861E+01  0.5512E+01 -0.4628E-01E
 Epicentro: VILLANUEVA - SANTANDER                                             3
 ACTION:UPD 17-08-30 15:36 OP:rebc STATUS:               ID:20170723220520 L   I
 OLDACT:UP  17-07-24 04:45 OP:edw  STATUS:               ID:20170723215746     3
 OLDACT:REG 17-07-24 03:36 OP:edw  STATUS:               ID:20170723215746     3
 2017-07-23-2158-00M.COL___395                                                 6
 STAT SP IPHASW D HRMM SECON CODA AMPLIT PERI AZIMU VELO AIN AR TRES W  DIS CAZ7
 BAR2 EZ EP       22 5 39.52                             173   -0.1410 17.6 169 
 BAR2 EZ ES       22 5 54.24                             173   -0.5110 17.6 169 
 BAR2 EZ I        22 5 55.44        12.2 0.26            169           17.6 169 
 BRR  HZ IP     D 22 5 41.27                             153    0.1510 67.9 306 
 BRR  HE ES       22 5 57.80                             153    0.4610 67.9 306 
 RUS  HZ EP       22 5 43.84                             145    0.2610 95.8 171 
 RUS  HN ES       22 6  1.87                             145    0.1610 95.8 171 
 RUS  HZ I        22 6  3.08         5.2 0.34            144           95.8 171 
 PTB  HZ EP       22 5 45.94                             133   -0.48 9  139 261 
 PTB  HN ES       22 6  6.46                             133   -0.31 9  139 261 
 PTB  HZ I        22 6 14.29         2.7 0.54            132            139 261 
 SPBC HN ES       22 6  9.59                             130    0.27 9  154 218 
 ZAR  HN ES       22 6 17.20                             123    0.14 9  200 294 
                                                                                
