 2016  723 2158 41.3 L   6.807 -73.124149.4  RSN 16 0.5 2.4LRSN                1
 GAP=121        1.04       2.9     4.0  5.1 -0.1402E+01  0.4759E+01  0.3613E+00E
 Epicentro: LOS SANTOS - SANTANDER                                             3
 ACTION:UPD 17-03-29 16:54 OP:lp   STATUS:               ID:20160723215841 L   I
 OLDACT:UP  16-07-24 06:42 OP:dani STATUS:               ID:20160723215759     3
 OLDACT:UP  16-07-24 06:42 OP:dani STATUS:               ID:20160723215759     3
 OLDACT:UP  16-07-24 06:42 OP:dani STATUS:               ID:20160723215759     3
 OLDACT:REG 16-07-24 04:41 OP:dani STATUS:               ID:20160723215759     3
 2016-07-23-2157-59S.COL___331                                                 6
 STAT SP IPHASW D HRMM SECON CODA AMPLIT PERI AZIMU VELO AIN AR TRES W  DIS CAZ7
 BAR2 EZ EP       2159  1.53                             170    0.0910 24.6 195 
 BAR2 EZ ES       2159 16.53                             170   -0.5910 24.6 195 
 BRR  HZ EP       2159  3.29                             152    0.3010 73.0 297 
 BRR  HN ES       2159 20.33                             152    0.4510 73.0 297 
 BRR  HZ I        2159 21.49        25.7 0.12            147           73.0 297 
 PAM  EZ EP       2159  4.52                             152    0.6910 75.3  38 
 PAM  EE ES       2159 21.57                             152    0.2010 75.3  38 
 PAM  EZ I        2159 23.74        58.1 0.48            149           75.3  38 
 RUS  HZ EP       2159  5.52                             144    0.0210  101 177 
 RUS  HE ES       2159 24.28                             144   -0.0610  101 177 
 RUS  HZ I        2159 25.30        20.5 0.24            139            101 177 
 SPBC HZ EP       2159 10.59                             129    0.26 9  165 219 
 SPBC HN ES       2159 32.16                             129   -0.77 9  165 219 
 SPBC HZ I        2159 35.10        41.6 0.38            124            165 219 
 ZAR  HZ EP       2159 14.25                             123    0.01 8  206 292 
 ZAR  HE ES       2159 39.58                             123   -0.31 8  206 292 
 ZAR  HZ I        2159 46.50        15.2 0.36            117            206 292 
 CHI  HZ EP       2159 19.90                             118    0.50 8  250 196 
 CHI  HN ES       2159 49.15                             118    0.07 8  250 196 
 CHI  HZ I        2159 52.56        17.4 0.56            113            250 196 
 ROSC BZ EP   4   2159 22.17                             117    2.29 0  255 211 
 ROSC BN ES       2159 49.56                             117   -0.37 8  255 211 
 ROSC BZ I        2159 55.37        24.4 0.45            112            255 211 
 HEL  HN ES       2159 53.67                             115   -0.09 8  275 256 
 HEL  HZ I        2159 59.60        11.2 0.28            110            275 256 
 GUY2CHZ EP   4   2159 26.92                             113    1.52 0  304 235 
 GUY2CHE ES   4   22 0  2.87                             113    3.11 0  304 235 
 GUY2CHZ I        22 0  5.73         8.8 0.32                           304 235 
 PTGC HZ EP       2159 24.78                             112   -0.57 7  309 159 
 PTGC HE ES   4   2159 58.50                             112   -1.17 0  309 159 
 PTGC HZ I        22 0  0.95        21.8 0.37            108            309 159 
 LL6C HZ EP       2159 26.19                             111   -0.94 7  324 357 
 LL6C HN ES       22 0  2.31                             111   -0.54 7  324 357 
 LL6C HZ I        22 0  8.47         8.0 0.48            107            324 357 
 CBOC HZ EP       2159 29.31                             110    0.60 7  336 252 
 CBOC HE ES       22 0  6.42                             110    0.77 7  336 252 
 PRA  HZ EP       2159 35.50                             107    0.29 6  394 210 
 PRA  HZ I        22 0 22.76         9.4 0.32            103            394 210 
 SJC  HZ EP       2159 36.27                             106   -0.85 6  410 327 
 SJC  HN ES   4   22 0 16.94                             106   -3.67 0  410 327 
 SJC  HZ I        22 0 23.34         4.2 0.58            102            410 327 
 CRJC HZ EP   9   2159 41.92                             104   -1.93 0  467   3 
 CRJC HE ES       22 0 30.26                             104   -0.41 5  467   3 
 CRJC HZ I        22 0 41.95         5.2 0.36            100            467   3 
                                                                                
