 2010  723 2058  9.7 L   6.521 -73.505109.1  RSN  4 0.6 1.6LRSN                1
 GAP=195        1.40      12.4    26.4 17.6  0.1920E+03  0.1794E+03 -0.1698E+01E
 Epicentro: EL CARMEN DE CHUCURI - SANTANDER                                   3
 ACTION:UPD 10-12-01 15:19 OP:pat  STATUS:               ID:20100723205809 L   I
 2010-07-23-2053-52S.COL___122                                                 6
 STAT SP IPHASW D HRMM SECON CODA AMPLIT PERI AZIMU VELO AIN AR TRES W  DIS CAZ7
 BAR2 SZ EP   1   2058 25.88                             160     0.5 7   36  78 
 BAR2 SZ ES   1   2058 38.07                             160     0.5 7   36  78 
 BAR2 SZ I        2058 39.96        46.5 0.10                            36  78 
 BRR  HZ EP       2058 26.73                             145    -0.110   69 341 
 BRR  HN ES   3   2058 39.35                             145    -0.8 2   69 341 
 BRR  HZ I        2058 45.35        13.3 0.58                            69 341 
 RUS  HZ EP       2058 29.04                             140     0.410   84 146 
 RUS  HN ES   1   2058 42.38                             140    -1.0 7   84 146 
 RUS  HZ I        2058 45.99         5.3 0.72                            84 146 
 GUE  SZ EP   1   2058 34.80                             120    -0.6 7  158  24 
 GUE  SZ I        2058 42.17         3.7 0.45                           158  24 
                                                                                
