 2010  523 2224 41.9 L   6.855 -73.210120.0  RSN  7 0.5 1.8LRSN                1
 GAP=153        0.87       5.4    14.6 11.4 -0.4338E+02  0.8358E+02 -0.4680E+01E
 Epicentro: ZAPATOCA - SANTANDER                                               3
 ACTION:UP  10-08-24 10:06 OP:vdl  STATUS:               ID:20100523222441 L   I
 2010-05-23-2222-57S.COL___111                                                 6
 STAT SP IPHASW D HRMM SECON CODA AMPLIT PERI AZIMU VELO SNR AR TRES W  DIS CAZ7
 BAR2 SZ EP   1   2224 58.56                             166     0.0 7   29 174 
 BAR2 SZ ES   2   2225 11.33                             166    -0.3 5   29 174 
 GUE  SZ EP   1   2225  4.46                             134     0.5 7  112  16 
 GUE  SZ ES   2   2225 22.03                             134     0.9 5  112  16 
 GRA  SZ EP   1   2225  4.54                             132    -0.1 7  122  21 
 GRA  SZ ES   2   2225 22.76                             132     0.4 5  122  21 
 OCA  SZ EP   1   2225  6.86                             124    -0.8 7  153 355 
 OCA  SZ ES   2   2225 26.96                             124    -0.8 5  153 355 
 OCA  SZ I        2225 30.47        10.9 0.57                           153 355 
 CHI  HZ EP   1   2225 18.28                             111    -0.5 6  253 193 
 CHI  HN ES   2   2225 47.74                             111     0.2 4  253 193 
 CHI  HZ I        2225 50.41         3.4 0.52                           253 193 
 HEL  HZ EP   1   2225 20.98                             110     0.7 6  267 254 
 PRA  HZ EP   1   2225 35.16                             102     0.3 4  394 208 
                                                                                
