 2016  223 2232  9.6 L   5.866 -73.783  4.0  RSN  9 0.6 1.5LRSN                1
 GAP= 90        1.34       2.5     2.4  6.1 -0.1503E+01 -0.6248E-01 -0.2045E+01E
 Epicentro: JESUS MARIA - SANTANDER                                            3
 ACTION:UPD 16-03-04 21:28 OP:rebc STATUS:               ID:20160223223209 L   I
 OLDACT:UP  16-02-24 04:57 OP:ak   STATUS:               ID:20160223222751     3
 OLDACT:UP  16-02-24 04:57 OP:ak   STATUS:               ID:20160223222751     3
 OLDACT:REG 16-02-24 03:57 OP:ak   STATUS:               ID:20160223222751     3
 2016-02-23-2227-51M.COL___334                                                 6
 STAT SP IPHASW D HRMM SECON CODA AMPLIT PERI AZIMU VELO AIN AR TRES W  DIS CAZ7
 SPBC HZ EP   1   2232 15.27                              47   -1.07 7 39.8 234 
 SPBC HN ES   2   2232 20.53                              47   -1.06 5 39.8 234 
 SPBC HZ I        2232 21.67        66.3 0.10             47           39.8 234 
 RUS  HZ EP       2232 22.31                              47   -0.1610 77.5  88 
 RUS  HE ES       2232 31.67                              47   -0.8310 77.5  88 
 RUS  HZ I        2232 32.57        18.9 0.18             47           77.5  88 
 BAR2 EZ EP   2   2232 26.27                              47    0.02 5  104  40 
 BAR2 EZ ES       2232 38.61                              47   -0.6110  104  40 
 BAR2 EZ I        2232 40.51         5.9 0.28             47            104  40 
 PTB  HZ EP       2232 26.18                              47   -0.0110  105 315 
 PTB  HN ES       2232 38.87                              47   -0.2410  105 315 
 PTB  HZ I        2232 41.00        29.9 0.13             47            105 315 
 NOR  HZ EP       2232 29.09                              47   -0.1010  125 255 
 NOR  HN ES       2232 43.97                              47   -0.4910  125 255 
 NOR  HZ I        2232 44.27         7.7 0.30             47            125 255 
 BRR  HZ EP       2232 31.69                              47    0.65 9  137   3 
 BRR  HN ES       2232 48.09                              47    0.35 9  137   3 
 BRR  HZ I        2232 51.98        16.0 0.16             47            137   3 
 CHI  HZ EP       2232 32.10                              47    0.72 9  137 178 
 CHI  HN ES       2232 48.81                              47    0.46 9  137 178 
 CHI  HZ I        2232 55.38         2.9 0.47             47            137 178 
 GUY2CHZ EP       2232 39.84                              37    0.75 9  189 248 
 GUY2CHN ES       2233  2.12                              37    0.05 9  189 248 
 GUY2CHZ I        2233  3.64         4.9 0.26                           189 248 
 PAM  EZ EP   2   2232 41.46                              37    0.72 4  202  36 
 PAM  EN ES       2233  5.79                              37    0.77 9  202  36 
 PAM  EZ I        2233 10.83         5.2 0.22             37            202  36 
                                                                                
