 2011  623 2338 43.6 L   6.773 -73.100142.0  RSN  4 0.2 1.6LRSN                1
 GAP=161        0.51       5.7    10.8 11.7  0.3938E+02 -0.8965E+02 -0.4222E+02E
 Epicentro: LOS SANTOS - SANTANDER                                             3
 ACTION:UP  11-07-14 19:07 OP:ep   STATUS:               ID:20110623233843 L   I
 2011-06-23-2335-23S.COL___137                                                 6
 STAT SP IPHASW D HRMM SECON CODA AMPLIT PERI AZIMU VELO SNR AR TRES W  DIS CAZ7
 BAR2 SZ EP   1   2339  2.71                             171     0.0 7   22 204 
 BAR2 SZ I        2339 18.90         6.2 0.14                            22 204 
 BRR  HZ EP   1   2339  4.45                             150    -0.2 7   77 299 
 BRR  HN ES   1   2339 21.27                             150     0.1 7   77 299 
 BRR  HZ I        2339 25.41        15.2 0.08                            77 299 
 RUS  HZ EP   2   2339  7.22                             144     0.5 5   97 179 
 RUS  HN ES   1   2339 24.70                             144    -0.1 7   97 179 
 RUS  HZ I        2339 27.11         4.0 0.31                            97 179 
 BRI  SZ EP   1   2339  7.23                             140     0.0 7  110  18 
 BRI  SZ I        2339 30.66         7.0 0.56                           110  18 
                                                                                
