 2014  223 2200 37.7 L   6.812 -73.131142.4  RSN 14 0.5 2.2LRSN                1
 GAP= 71        0.98       3.2     3.1  5.5 -0.9891E+00  0.3117E+01  0.2084E+01E
 Epicentro: LOS SANTOS - SANTANDER                                             3
 ACTION:UPD 14-03-10 08:12 OP:ep   STATUS:               ID:20140223220037 L   I
 OLDACT:UP  14-02-24 01:07 OP:mh   STATUS:               ID:20140223220000     3
 OLDACT:REG 14-02-23 23:38 OP:mh   STATUS:               ID:20140223220000     3
 2014-02-23-2200-00M.COL___212                                                 6
 STAT SP IPHASW D HRMM SECON CODA AMPLIT PERI AZIMU VELO AIN AR TRES W  DIS CAZ7
 BAR2 SZ EP       22 0 56.86                             170   -0.1010 25.0 193 
 BAR2 SZ ES   1   22 1 11.99                             170    0.01 7 25.0 193 
 BAR2 SZ I        22 1 13.31        81.4 0.16            173           25.0 193 
 BRR  HZ EP     C 22 0 58.91                             152    0.3810 72.0 297 
 BRR  HN ES       22 1 15.47                             152    0.6910 72.0 297 
 BRR  HZ I        22 1 16.99        41.4 0.11            144           72.0 297 
 PAM  SZ EP   1   22 0 59.81                             151    0.38 7 75.3  39 
 PAM  SN ES       22 1 16.46                             151    0.0710 75.3  39 
 PAM  SZ I        22 1 19.36        11.7 0.63            143           75.3  39 
 RUS  HZ EP       22 1  1.01                             143   -0.2010  102 177 
 RUS  HN ES       22 1 19.13                             143   -0.4210  102 177 
 RUS  HZ I        22 1 20.95        12.0 0.27            142            102 177 
 PTB  HZ EP       22 1  3.79                             131   -0.77 9  150 258 
 PTB  HN ES       22 1 24.80                             131   -0.71 9  150 258 
 PTB  HZ I        22 1 27.21        21.9 0.09            125            150 258 
 TAM  HZ EP       22 1  5.35                             130    0.35 9  154 106 
 TAM  HN ES       22 1 26.08                             130   -0.22 9  154 106 
 TAM  HZ I        22 1 28.01         9.3 0.15            125            154 106 
 OCA  HZ EP   1   22 1  5.40                             129   -0.24 7  159 353 
 OCA  HZ I        22 1 31.83        22.9 0.20            121            159 353 
 SPBC HZ EP       22 1  5.89                             128   -0.25 9  165 219 
 SPBC HN ES       22 1 28.68                             128    0.36 9  165 219 
 SPBC HZ I        22 1 34.00        22.0 0.13            124            165 219 
 NOR  HE E      D 22 3  6.05                                            237 234 
 SML  HZ EP   1   22 1 14.37                             117    0.29 6  243 335 
 SML  HN ES   1   22 1 41.89                             117   -0.56 6  243 335 
 SML  HZ I        22 1 51.10        31.3 0.05            111            243 335 
 CHI  HZ EP   1   22 1 14.82                             116   -0.58 6  250 195 
 CHI  HN ES   1   22 1 45.07                             116    0.26 6  250 195 
 CHI  HZ I        22 1 50.43         4.9 0.20            112            250 195 
 ROSC BN ES   4   22 1 47.04                             116    1.43 0  255 211 
 HEL  HZ EP       22 1 18.56                             114    0.61 8  274 256 
 HEL  HN ES       22 1 49.41                             114    0.06 8  274 256 
 HEL  HZ I        22 1 56.11         8.7 0.31            109            274 256 
 PRA  HZ EP   1   22 1 32.29                             106    0.96 4  394 210 
 PRA  HN ES       22 2 13.85                             106    0.68 6  394 210 
 PRA  HZ I        22 2 19.08         8.4 0.18            102            394 210 
 ORTC HN ES   2   22 2 13.42                             106   -0.48 3  397 216 
 SJC  HZ EP   4   22 1 31.51                             105   -1.61 0  409 327 
 SJC  HN ES   4   22 2 12.70                             105   -3.65 0  409 327 
                                                                                
