 2017  823 2128 49.0 L   6.908 -72.959143.3  RSN  6 0.4 1.6LRSN                1
 GAP=260        1.09       7.9     8.7 12.5  0.3342E+02 -0.2273E+02 -0.3604E+02E
 Epicentro: SANTA BARBARA - SANTANDER                                          3
 ACTION:UPD 17-09-04 20:23 OP:rebc STATUS:               ID:20170823212849 L   I
 OLDACT:DUP 17-08-24 03:23 OP:lv   STATUS:               ID:20170823211739d    3
 2017-08-23-2118-00M.COL___419                                                 6
 STAT SP IPHASW D HRMM SECON CODA AMPLIT PERI AZIMU VELO AIN AR TRES W  DIS CAZ7
 RUS  HZ EP       2129 13.86                             140    0.3810  113 187 
 RUS  HN ES       2129 32.54                             140   -0.0210  113 187 
 RUS  HZ I        2129 33.60         3.1 0.21            140            113 187 
 SPBC HZ EP       2129 18.83                             125   -0.70 9  186 222 
 SPBC HN ES       2129 43.68                             125    0.35 9  186 222 
 ZAR  HE ES       2129 49.04                             120   -0.32 8  219 287 
 NOR  HZ EP   9   2129 25.34                             116   -1.85 0  258 235 
 NOR  HN ES       2129 54.17                                   -0.94 8  258 235 
 NOR  HZ I        2129 57.66         4.4 0.24            116            258 235 
 CHI  HZ EP       2129 28.37                             115   -0.13 8  266 199 
 CHI  HN ES       2129 59.18                             115   -0.11 8  266 199 
 HEL  HZ EP   1   2129 32.66                             112    0.98 6  295 255 
                                                                                
