 2011  823 2230  0.6 L   6.765 -73.117143.4  RSN 17 0.4 3.3LRSN                1
 GAP=128        0.63       2.1     3.1  3.2 -0.1263E+01  0.1798E+01  0.9827E+00E
 Epicentro: LOS SANTOS - SANTANDER                                             3
 ACTION:UPD 12-07-13 15:53 OP:ep   STATUS:               ID:20110823223000 L   I
 2011-08-23-2226-12S.COL___158                                                 6
 STAT SP IPHASW D HRMM SECON CODA AMPLIT PERI AZIMU VELO AIN AR TRES W  DIS CAZ7
 BAR2 SZ EP       2230 20.10                             172    0.2410 20.4 201 
 BAR2 SZ ES       2230 34.71                             172   -0.1910 20.4 201 
 BAR2 SZ I        2230 36.39       747.4 0.26                          20.4 201 
 BRR  HZ IP     D 2230 22.08                             151    0.3410 75.9 300 
 BRR  HN ES       2230 38.33                             151    0.0910 75.9 300 
 BRR  HZ I        2230 43.30       411.2 0.17                          75.9 300 
 RUS  HZ EP       2230 24.08                             144    0.2810 96.5 178 
 RUS  HE ES       2230 41.85                             144   -0.0610 96.5 178 
 RUS  HZ I        2230 43.97       221.7 0.41                          96.5 178 
 OCA  SZ EP       2230 29.10                             128   -0.01 9  165 352 
 OCA  SZ ES   1   2230 51.07                             128   -0.29 7  165 352 
 OCA  SZ I        2230 55.42       359.4 0.28                           165 352 
 NOR  SZ EP       2230 36.02                             118   -0.18 8  235 236 
 NOR  SE ES   1   2231  3.54                             118   -0.45 6  235 236 
 CHI  HZ EP       2230 37.89                             117    0.07 8  246 196 
 CHI  HN ES   1   2231  7.34                             117    0.47 6  246 196 
 CHI  HZ I        2231 14.19        89.7 0.28                           246 196 
 HEL  HZ EP   1   2230 40.70                             114   -0.20 6  274 257 
 HEL  HN ES   1   2231 12.13                             114   -0.23 6  274 257 
 HEL  HZ I        2231 18.56       100.7 0.42                           274 257 
 VIL  SZ EP   1   2230 43.47                             112   -0.05 5  300 192 
 VIL  SE ES   1   2231 16.39                             112   -0.63 5  300 192 
 VIL  SZ I        2231 23.54        85.4 0.34                           300 192 
 GUY  SZ EP   1   2230 44.89                             112    0.51 5  304 236 
 GUY  SN ES   1   2231 18.08                             112   -0.47 5  304 236 
 GUY  SZ I        2231 27.49       170.6 0.34                           304 236 
 RREF HZ EP   1   2230 46.67                             110    0.07 5  322 230 
 RREF HE ES   1   2231 21.97                             110   -0.53 5  322 230 
 RREF HZ I        2231 30.46        89.6 0.29                           322 230 
 TOL  SZ EP   1   2230 49.66                             109    0.99 5  343 225 
 DBB  SZ EP   1   2230 48.78                             109    0.43 5  343 275 
 ANIL HZ EP   1   2230 50.23                             108    0.01 5  357 225 
 ANIL HE ES   1   2231 29.29                             108    0.34 5  357 225 
 SDV  BZ EP       2230 49.77                             108   -0.77 6  361  49 
 SDV  BZ I        2230 50.64        54.7 0.34                           361  49 
 PRA  HZ EP       2230 53.44                             106   -0.36 6  390 210 
 PRA  HN ES   1   2231 35.30                             106   -0.01 4  390 210 
 SJA  SZ EP   2   2230 54.25                             106   -0.44 3  397 194 
 SOTA HZ EP   2   2231 24.05                              98   -0.36 1  642 217 
                                                                                
