 2014  723 2057 43.9 L   6.800 -73.205135.2  RSN 16 0.6 2.4LRSN                1
 GAP= 68        1.27       3.6     3.7  6.0 -0.2671E+01  0.7012E+01  0.2008E+01E
 Epicentro: ZAPATOCA - SANTANDER                                               3
 ACTION:UPD 15-03-16 20:46 OP:nd   STATUS:               ID:20140723205743 L   I
 OLDACT:REG 14-07-24 02:44 OP:stll STATUS:               ID:20140723204817     3
 2014-07-23-2048-17M.COL___272                                                 6
 STAT SP IPHASW D HRMM SECON CODA AMPLIT PERI AZIMU VELO AIN AR TRES W  DIS CAZ7
 BAR2 SZ IP     D 2058  2.45                             170    0.2410 23.1 174 
 BAR2 SZ ES       2058 16.47                             170   -0.0610 23.1 174 
 BAR2 SZ I        2058 18.33        71.7 0.32            168           23.1 174 
 BRR  HZ IP     D 2058  4.25                             153    0.7110 65.5 301 
 BRR  HN ES       2058 19.80                             153    0.9010 65.5 301 
 BRR  HZ I        2058 21.92        53.7 0.28            151           65.5 301 
 PAM  SZ IP     C 2058  5.16                             147   -0.0710 81.7  43 
 PAM  SZ I        2058  5.53       139.7 0.18            153           81.7  43 
 PAM  SN ES       2058 21.77                             147   -0.1410 81.7  43 
 RUS  HZ EP       2058  6.46                             141   -0.1810  101 172 
 RUS  HE ES       2058 24.06                             141   -0.3510  101 172 
 RUS  HZ I        2058 26.81        43.1 0.34            143            101 172 
 PTB  HZ EP     D 2058  8.83                             131   -0.56 9  141 258 
 PTB  HN ES       2058 28.76                             131   -0.54 9  141 258 
 PTB  HZ I        2058 35.44        28.2 0.26            130            141 258 
 SPBC HZ IP     D 2058 11.38                             127    0.20 9  159 217 
 SPBC HN ES       2058 32.79                             127    0.30 9  159 217 
 SPBC HZ I        2058 39.36        37.7 0.20            128            159 217 
 OCA  HZ EP       2058 10.66                             127   -0.64 9  160 355 
 OCA  HE ES       2058 32.62                             127   -0.09 9  160 355 
 OCA  HZ I        2058 34.96        20.7 0.22            130            160 355 
 TAM  HZ IP     C 2058 10.83                             127   -0.50 9  161 104 
 TAM  HZ I        2058 11.05        75.0 0.38            131            161 104 
 ZAR  HZ EP       2058 14.92                             121   -0.08 9  198 293 
 ZAR  HN ES       2058 39.40                             121    0.11 9  198 293 
 ZAR  HZ I        2058 46.08        39.5 0.28            122            198 293 
 NOR  HZ EP       2058 18.49                             117    0.07 8  229 234 
 NOR  HE ES       2058 45.28                             117   -0.10 8  229 234 
 NOR  HZ I        2058 49.14        12.7 0.18            118            229 234 
 CHI  HZ EP   2   2058 20.41                             115   -0.41 4  247 194 
 CHI  HE ES   2   2058 49.39                             115   -0.25 4  247 194 
 CHI  HZ I        2058 53.85        10.6 0.34            116            247 194 
 HEL  HZ EP       2058 24.12                             113    1.28 8  266 255 
 HEL  HN ES       2058 53.41                             113    0.16 8  266 255 
 HEL  HZ I        2059  0.48        13.9 0.54            114            266 255 
 GUY2CHZ EP       2058 26.95                             111    0.56 7  296 234 
 GUY2CHN ES       2058 59.53                             111   -0.04 7  296 234 
 GUY2CHZ I        2059  8.58        12.3 0.44                           296 234 
 CBOC HZ EP       2058 29.42                             108   -0.22 7  327 252 
 CBOC HN ES       2059  3.76                             108   -1.59 7  327 252 
 CBOC HZ I        2059 16.64         5.3 0.76            109            327 252 
 DBB  SZ EP       2058 30.29                             108    0.12 7  333 274 
 DBB  SZ ES       2059  5.35                             108   -0.94 7  333 274 
 TOL  SZ EP       2058 32.74                             108    1.56 7  339 224 
 TOL  SN ES       2059  8.23                             108    0.13 7  339 224 
 TOL  SZ I        2059 15.36        16.6 0.20            109            339 224 
                                                                                
