 2010 1123 2141 43.4 L   7.502 -73.321123.1  RSN  6 0.4 2.3LRSN                1
 GAP=135        0.85       7.9    10.1 11.1 -0.4717E+02 -0.2717E+01  0.3393E+02E
 Epicentro: EL PLAYON - SANTANDER                                              3
 ACTION:UP  10-12-17 16:54 OP:REBC STATUS:               ID:20101123214143 L   I
 2010-11-23-2138-22S.COL___129                                                 6
 STAT SP IPHASW D HRMM SECON CODA AMPLIT PERI AZIMU VELO SNR AR TRES W  DIS CAZ7
 GUE  SZ EP   1   2142  1.70                             153     0.0 7   57  50 
 BRR  HZ IP     D 2142  1.00                             152    -0.510   61 225 
 BRR  HN ES   2   2142 15.97                             152     0.3 5   61 225 
 BRR  HZ I        2142 17.22        84.4 0.19                            61 225 
 GRA  SZ IP     C 2142  2.52                             148     0.210   71  53 
 GRA  SZ ES   2   2142 17.60                             148     0.5 5   71  53 
 OCA  SZ EP   1   2142  2.98                             144    -0.1 7   81   0 
 OCA  SZ ES   2   2142 18.20                             144    -0.2 5   81   0 
 OCA  SZ I        2142 21.57        59.4 0.24                            81   0 
 HEL  HZ EP   1   2142 24.85                             109     1.0 6  284 239 
 HEL  HZ I        2143  4.81        10.3 0.55                           284 239 
 CHI  HZ EP   1   2142 27.93                             106    -0.3 5  321 188 
 CHI  HE ES   2   2143  3.41                             106     0.1 3  321 188 
 CHI  HZ I        2143  5.52         4.2 0.37                           321 188 
                                                                                
