 2015 1123 2110  7.1 L   7.469 -73.304105.0  RSN  6 0.4 1.8LRSN                1
 GAP=132        1.01       4.3     5.1  9.5  0.7662E+00  0.1963E+02 -0.4272E+01E
 Epicentro: EL PLAYON - SANTANDER                                              3
 ACTION:UPD 15-12-28 16:13 OP:cam  STATUS:               ID:20151123211007 L   I
 OLDACT:UP  15-11-24 04:38 OP:dnl  STATUS:               ID:20151123210750     3
 OLDACT:REG 15-11-24 02:37 OP:dnl  STATUS:               ID:20151123210750     3
 2015-11-23-2107-50M.COL___218                                                 6
 STAT SP IPHASW D HRMM SECON CODA AMPLIT PERI AZIMU VELO AIN AR TRES W  DIS CAZ7
 BRR  HZ EP       2110 23.53                             148    0.2610 60.3 228 
 BRR  HN ES       2110 35.50                             148   -0.3810 60.3 228 
 PAM  EZ EP       2110 23.80                             145   -0.7010 68.2 102 
 PAM  EN ES       2110 38.71                             145    0.6310 68.2 102 
 PAM  EZ I        2110 41.62        12.7 0.32            150           68.2 102 
 BAR2 EZ EP   2   2110 26.26                             134   -0.27 5 97.9 172 
 BAR2 EZ ES   2   2110 41.20                             134   -0.48 5 97.9 172 
 BAR2 EZ I        2110 42.97        31.8 0.22            138           97.9 172 
 SML  HE ES       2110 53.99                             117   -0.00 9  170 330 
 ZAR  HZ EP       2110 33.87                             116    0.23 9  172 271 
 ZAR  HE ES   4   2110 56.80                             116    2.45 0  172 271 
 ZAR  HZ I        2110 59.13         6.0 0.07            120            172 271 
 SPBC HE ES       2111  4.14                             110    0.30 8  218 203 
                                                                                
