 2011  423 2016 55.1 L   6.820 -73.102148.2  RSN  6 0.4 1.7LRSN                1
 GAP=141        0.76       4.6     8.2  8.3 -0.4760E+01 -0.1179E+02 -0.2104E+01E
 Epicentro: LOS SANTOS - SANTANDER                                             3
 ACTION:UP  11-06-22 15:32 OP:REBC STATUS:               ID:20110423201655 L   I
 2011-04-23-2012-38S.COL___137                                                 6
 STAT SP IPHASW D HRMM SECON CODA AMPLIT PERI AZIMU VELO SNR AR TRES W  DIS CAZ7
 BAR2 SZ EP   1   2017 15.17                             169     0.0 7   27 199 
 BAR2 SZ ES   2   2017 30.37                             169    -0.4 5   27 199 
 BAR2 SZ I        2017 38.87        12.7 0.41                            27 199 
 PAM  SZ EP   1   2017 17.45                             153     0.1 7   73  38 
 PAM  SE ES   2   2017 34.98                             153     0.3 5   73  38 
 BRR  HZ EP   1   2017 16.99                             152     0.3 7   75 295 
 BRR  HZ I        2017 17.44        12.8 0.13                            75 295 
 BRR  HN ES   1   2017 33.78                             152     0.2 7   75 295 
 RUS  HZ EP   2   2017 19.28                             144     0.0 5  103 179 
 RUS  HE ES   2   2017 37.68                             144    -0.4 5  103 179 
 RUS  HZ I        2017 39.14         5.2 0.42                           103 179 
 GRA  SZ EP   1   2017 19.95                             138    -0.4 7  122  16 
 GRA  SZ I        2017 22.27         5.9 0.32                           122  16 
 GRA  SZ ES   1   2017 40.33                             138     0.4 7  122  16 
 OCA  SZ EP   1   2017 23.74                             130     0.2 7  159 351 
 OCA  SZ ES   1   2017 44.81                             130    -0.8 7  159 351 
 OCA  SZ I        2017 52.33         9.2 0.49                           159 351 
                                                                                
