 2017  423 2057 16.6 L   6.774 -73.184157.9  RSN  6 0.3 1.8LRSN                1
 GAP=252        0.72       4.3     7.4  6.4  0.6190E+01 -0.2061E+02  0.2805E+01E
 Epicentro: LOS SANTOS - SANTANDER                                             3
 ACTION:UPD 17-05-30 21:15 OP:jn   STATUS:               ID:20170423205716 L   I
 OLDACT:UP  17-04-24 03:55 OP:edw  STATUS:               ID:20170423204607d    3
 OLDACT:UP  17-04-24 03:53 OP:edw  STATUS:               ID:20170423204607d    3
 OLDACT:UP  17-04-24 03:53 OP:edw  STATUS:               ID:20170423204607d    3
 OLDACT:DUP 17-04-24 03:44 OP:edw  STATUS:               ID:20170423204607d    3
 OLDACT:UP  17-04-24 03:43 OP:edw  STATUS:               ID:20170423204606d    3
 OLDACT:DUP 17-04-24 03:34 OP:edw  STATUS:               ID:20170423204606d    3
 OLDACT:REG 17-04-24 03:00 OP:edw  STATUS:               ID:20170423204605     3
 2017-04-23-2048-00M.COL___371                                                 6
 STAT SP IPHASW D HRMM SECON CODA AMPLIT PERI AZIMU VELO AIN AR TRES W  DIS CAZ7
 BRR  HZ EP     D 2057 38.75                             155   -0.2510 69.0 302 
 BRR  HE ES       2057 56.63                             155    0.1910 69.0 302 
 BRR  HZ I        2058  0.47         5.2 0.24            148           69.0 302 
 PTB  HZ EP   9   2057 43.57                             136   -0.65 0  143 260 
 PTB  HN ES       2058  4.67                             133   -0.41 9  143 260 
 PTB  HZ I        2058 12.19         7.8 0.42            130            143 260 
 SPBC HZ EP       2057 45.74                             133    0.08 9  158 218 
 SPBC HE ES       2058  8.05                             133   -0.24 9  158 218 
 SPBC HZ I        2058 13.44         9.2 0.42            129            158 218 
 ZAR  HZ EP       2057 49.20                             125   -0.43 9  201 293 
 ZAR  HN ES       2058 15.66                             125    0.30 9  201 293 
 ZAR  HZ I        2058 20.96         6.2 0.72            122            201 293 
 NOR  HE ES   4   2058 24.32                             122    3.72 0  230 234 
 CHI  HZ EP       2057 55.03                             120    0.39 8  245 194 
 CHI  HN ES   4   2058 25.77                             120    1.50 0  245 194 
 HEL  HZ EP   2   2057 57.32                             118    0.34 4  267 256 
 HEL  HE ES   4   2058 32.30                             118    3.85 0  267 256 
 HEL  HZ I        2058 35.76         4.2 0.38            115            267 256 
                                                                                
