 2017  723 2112  4.2 L   7.468 -73.207132.3  RSN 19 0.5 2.3LRSN                1
 GAP=106        1.00       2.6     2.6  5.1  0.4335E+00  0.3106E+01 -0.1812E+01E
 Epicentro: EL PLAYON - SANTANDER                                              3
 ACTION:UPD 17-08-30 15:36 OP:rebc STATUS:               ID:20170723211204 L   I
 OLDACT:UP  17-07-24 04:38 OP:dhb  STATUS:               ID:20170723210740     3
 OLDACT:REG 17-07-24 03:33 OP:edw  STATUS:               ID:20170723210740     3
 2017-07-23-2108-00M.COL___395                                                 6
 STAT SP IPHASW D HRMM SECON CODA AMPLIT PERI AZIMU VELO AIN AR TRES W  DIS CAZ7
 PAM  EZ IP     C 2112 24.17                             155    0.2910 57.8 104 
 PAM  EN ES       2112 38.99                             155   -0.2310 57.8 104 
 PAM  EZ I        2112 40.25        45.9 0.18            157           57.8 104 
 BRR  HZ IP     D 2112 23.86                             151    0.1010 68.5 234 
 BRR  HN ES       2112 39.15                             151    0.1410 68.5 234 
 BRR  HZ I        2112 39.83        49.1 0.13            147           68.5 234 
 BAR2 EZ IP     C 2112 25.82                             142   -0.2110 96.9 178 
 BAR2 EZ ES       2112 42.36                             142   -0.6810 96.9 178 
 BAR2 EZ I        2112 43.39        57.2 0.11            139           96.9 178 
 PTB  HZ EP       2112 32.20                             124   -0.30 9  172 233 
 PTB  HN ES       2112 54.62                             124    0.06 9  172 233 
 PTB  HZ I        2112 55.97        18.4 0.18            121            172 233 
 RUS  HZ EP       2112 32.92                             124   -0.48 9  175 175 
 RUS  HN ES       2112 56.31                             124    0.14 9  175 175 
 ZAR  HZ IP     C 2112 33.95                             122    0.41 9  182 271 
 ZAR  HN ES       2112 57.28                             122    0.88 9  182 271 
 ZAR  HZ I        2112 59.37        38.3 0.08            120            182 271 
 TAM  HZ IP       2112 34.88                             121    0.11 9  194 126 
 TAM  HN ES       2112 58.30                             121   -0.30 9  194 126 
 TAM  HZ I        2112 59.29        18.6 0.24            120            194 126 
 SPBC HZ EP       2112 38.13                             117    0.23 8  222 206 
 SPBC HE ES       2113  4.68                             117    0.50 8  222 206 
 SPBC HZ I        2113  7.40        19.5 0.15            115            222 206 
 YPLC HZ EP       2112 40.98                             114    0.43 8  247 158 
 YPLC HN ES       2113  8.86                             114   -0.03 8  247 158 
 YPLC HZ I        2113 11.69         8.0 0.44            113            247 158 
 LL6C HZ EP       2112 40.90                             114   -0.03 8  251 358 
 LL6C HN ES       2113 10.36                             114    0.80 8  251 358 
 LL6C HZ I        2113 10.59         8.8 0.26            113            251 358 
 URE  HZ EP       2112 40.97                             113   -0.83 8  259 277 
 URE  HE ES   2   2113  9.62                             113   -1.50 4  259 277 
 URE  HZ I        2113 18.50        21.8 0.18            111            259 277 
 NOR  HZ IP     D 2112 44.35                             111    0.12 7  280 221 
 NOR  HE ES       2113 15.38                             111   -0.05 7  280 221 
 NOR  HZ I        2113 21.12        14.8 0.28            109            280 221 
 HEL  HZ EP       2112 46.37                             110    0.22 7  293 241 
 HEL  HN ES   2   2113 17.38                             110   -1.48 4  293 241 
 HEL  HZ I        2113 26.68        11.2 0.32            109            293 241 
 ROSC BZ EP   9   2112 50.89                             108    2.10 0  316 203 
 ROSC BN ES       2113 25.51                                   -0.15 7  316 203 
 ROSC BZ I        2113 33.74        11.3 0.35            107            316 203 
 DBB  EZ IP     C 2112 51.00                             107    0.31 7  335 262 
 DBB  EE ES   2   2113 25.53                             107   -1.42 3  335 262 
 DBB  EZ I        2113 26.61        12.6 0.14            106            335 262 
 GUY2CHZ EP   3   2112 53.94                             107    1.71 2  344 224 
 GUY2CHE ES       2113 30.19                             107    0.51 7  344 224 
 GUY2CHZ I        2113 37.15         6.2 0.50                           344 224 
 SJC  HN ES       2113 28.08                             106   -0.90 7  345 321 
 CBOC HZ EP   3   2112 51.54                             106   -1.83 2  357 240 
 CBOC HN ES       2113 31.49                             106   -0.22 6  357 240 
 CBOC HZ I        2113 36.43         2.9 0.16            105            357 240 
 ORTC HZ EP   4   2113  7.22                             102    2.58 0  454 210 
 ORTC HE ES   4   2113 54.65                             102    2.89 0  454 210 
 ORTC HZ I        2114  3.88         3.8 0.38            101            454 210 
                                                                                
