 2012 1123 2259 25.6 L   6.825 -73.188143.6  RSN  7 0.5 1.6LRSN                1
 GAP=175        1.09       4.1     6.3  6.9  0.8976E+01  0.1212E+02  0.1524E+01E
 Epicentro: ZAPATOCA - SANTANDER                                               3
 ACTION:UPD 12-12-05 15:35 OP:}ep  STATUS:               ID:20121123225925 L   I
 2012-11-23-2258-12M.COL___213                                                 6
 STAT SP IPHASW D HRMM SECON CODA AMPLIT PERI AZIMU VELO AIN AR TRES W  DIS CAZ7
 BAR2 SZ EP       2259 44.86                             169   -0.1910 25.8 178 
 BAR2 SZ ES       23 0  0.21                             169    0.0110 25.8 178 
 BAR2 SZ I        23 0  1.51         7.7 0.16                          25.8 178 
 GIR2 SZ ES       2259 59.79                             168   -0.2410 28.0 359 
 GIR2 SZ I        23 0  2.13         4.8 0.10                          28.0 359 
 RUS  HZ EP       2259 49.15                             142   -0.2510  104 174 
 RUS  HN ES       23 0  8.18                             142    0.2410  104 174 
 RUS  HN I        23 0  8.73         6.2 0.26                           104 174 
 PTB  HZ EP       2259 51.83                             132   -0.22 9  144 257 
 PTB  HN ES       23 0 13.24                             132    0.58 9  144 257 
 PTB  HN I        23 0 18.38         9.6 0.30                           144 257 
 ZAR  HE ES       23 0 21.22                             123   -0.91 9  199 292 
 SML  HZ EP       23 0  1.46                             117   -0.18 8  239 336 
 SML  HN ES       23 0 30.79                             117    1.05 8  239 336 
 CHI  HZ EP       23 0  3.68                             116    0.31 8  250 194 
 CHI  HE ES       23 0 32.87                             116    0.06 8  250 194 
 CHI  HN I        23 0 35.10         4.0 0.34                           250 194 
                                                                                
