 2017  323 2113  6.9 L   6.695 -73.121139.7  RSN  5 0.3 1.9LRSN                1
 GAP=178        0.83       6.8     4.0  6.6 -0.6504E+01  0.5918E+01  0.1239E+01E
 Epicentro: JORDAN - SANTANDER                                                 3
 ACTION:UPD 17-05-25 18:44 OP:jn   STATUS:               ID:20170323211306 L   I
 OLDACT:REG 17-03-24 02:56 OP:edw  STATUS:               ID:20170323210748     3
 2017-03-23-2108-00M.COL___403                                                 6
 STAT SP IPHASW D HRMM SECON CODA AMPLIT PERI AZIMU VELO AIN AR TRES W  DIS CAZ7
 BAR2 EZ IP     C 2113 25.95                             174    0.3710 13.3 211 
 BAR2 EZ ES       2113 40.01                             174   -0.1810 13.3 211 
 BAR2 EZ I        2113 41.64        18.1 0.26            171           13.3 211 
 BRR  HZ EP       2113 27.93                             149    0.0710 79.6 305 
 BRR  HN ES       2113 44.82                             149    0.5810 79.6 305 
 BRR  HZ I        2113 48.91        15.3 0.12            144           79.6 305 
 PAM  EZ IP     D 2113 29.05                             147    0.1410 85.1  33 
 PAM  EN ES       2113 45.70                             147   -0.4210 85.1  33 
 PAM  EZ I        2113 46.34        11.1 0.34            147           85.1  33 
 PTB  HZ EP       2113 33.17                             130   -0.24 9  149 263 
 PTB  HN ES       2113 53.91                             130   -0.22 9  149 263 
 PTB  HZ I        2113 57.38         9.6 0.10            129            149 263 
 ZAR  HZ EP   4   2113 40.82                             120    1.17 0  211 295 
 ZAR  HE ES       2114  5.02                             120   -0.22 8  211 295 
 ZAR  HZ I        2114 12.83         7.7 0.26            119            211 295 
                                                                                
