 2013  724 0638 54.4 L   6.825 -73.134148.2  RSN  9 0.5 2.0LRSN                1
 GAP=137        1.08       5.3     5.9  6.8  0.2410E+01  0.1054E+02 -0.9172E+01E
 Epicentro: LOS SANTOS - SANTANDER                                             3
 ACTION:UPD 13-08-12 10:39 OP:ep   STATUS:               ID:20130724063854 L   I
 OLDACT:UP  13-07-24 11:25 OP:cam  STATUS:               ID:20130724063852     3
 OLDACT:REG 13-07-24 11:11 OP:cam  STATUS:               ID:20130724063852     3
 2013-07-24-0638-52M.COL___237                                                 6
 STAT SP IPHASW D HRMM SECON CODA AMPLIT PERI AZIMU VELO AIN AR TRES W  DIS CAZ7
 BAR2 SZ EP   1    639 14.30                             170   -0.08 7 26.2 192 
 BAR2 SZ ES        639 29.54                             170   -0.4210 26.2 192 
 BAR2 SZ I         639 32.17        11.1 0.26            169           26.2 192 
 GIR2 SZ EP        639 14.35                             168    0.0610 28.8 347 
 GIR2 SZ ES   1    639 29.78                             168   -0.03 7 28.8 347 
 GIR2 SZ I         639 31.46        17.0 0.41            165           28.8 347 
 BRR  HZ EP        639 16.06                             153    0.2610 71.0 296 
 BRR  HN ES        639 33.09                             153    0.6010 71.0 296 
 BRR  HZ I         639 33.57        15.3 0.11            150           71.0 296 
 PAM  SZ EP     D  639 17.23                             152    0.5310 74.5  40 
 PAM  SN ES   1    639 34.16                             152    0.06 7 74.5  40 
 PAM  SZ I         639 36.21        14.6 0.38            155           74.5  40 
 RUS  HN ES   1    639 37.16                             144   -0.27 7  103 177 
 PTB  HZ EP        639 20.97                             132   -0.75 9  150 258 
 PTB  HN ES   4    639 41.95                             132   -1.08 0  150 258 
 PTB  HZ I         639 50.35         8.6 0.14            132            150 258 
 OCA  HZ EP   1    639 23.28                             131    0.62 7  158 353 
 OCA  HN ES   1    639 43.86                             131   -0.84 7  158 353 
 OCA  HZ I         639 49.07        15.1 0.30            131            158 353 
 ZAR  HZ EP        639 27.20                             123    0.18 9  204 291 
 ZAR  HE ES        639 52.92                             123    0.46 9  204 291 
 ZAR  HZ I         639 58.05        11.8 0.22            123            204 291 
 SML  HZ EP        639 30.57                             118   -0.38 8  242 335 
 SML  HN ES   1    639 58.58                             118   -0.88 6  242 335 
 SML  HZ I         640  3.91        19.5 0.10            119            242 335 
                                                                                
