 2010  124 0848  1.3 L   6.818 -73.163136.4  RSN 11 0.3 1.9LRSN                1
 GAP=181        0.65       2.6     6.5  6.4 -0.2362E+01  0.2048E+02 -0.1110E+00E
 Epicentro: LOS SANTOS - SANTANDER                                             3
 ACTION:UP  10-08-24 09:45 OP:vdl  STATUS:               ID:20100124084801 L   I
 2010-01-24-0846-03S.COL___095                                                 6
 STAT SP IPHASW D HRMM SECON CODA AMPLIT PERI AZIMU VELO SNR AR TRES W  DIS CAZ7
 BAR2 SZ EP        848 19.92                             169     0.110   25 185 
 BAR2 SZ ES   2    848 34.68                             169     0.4 5   25 185 
 GIR2 SZ EP        848 20.07                             167     0.310   29 353 
 GIR2 SZ ES   2    848 34.28                             167     0.1 5   29 353 
 RUS  BZ EP        848 23.91                             141    -0.410  103 175 
 RUS  BN ES   1    848 41.84                             141    -0.4 7  103 175 
 RUS  BZ I         848 43.18        13.0 0.24                           103 175 
 OCA  SZ EP        848 28.62                             128    -0.1 9  158 354 
 OCA  SZ ES   2    848 50.00                             128     0.0 5  158 354 
 CHI  HZ EP   1    848 38.39                             115    -0.3 6  250 195 
 CHI  HN ES        849  7.88                             115     0.1 8  250 195 
 CHI  HZ I         849 10.67         4.3 0.41                           250 195 
 ROSC BZ EP   1    848 39.75                             115     0.7 6  254 210 
 ROSC BE ES   2    849  9.06                             115     0.6 4  254 210 
 ROSC BZ I         849 18.53         8.5 0.33                           254 210 
 HEL  HN ES   2    849 11.62                             113    -0.2 4  271 255 
 DBB  SZ EP   1    848 48.40                             108     0.2 5  337 274 
 TOL  SZ EP   2    848 48.85                             108    -0.4 3  344 224 
 MON  HE ES   2    849 26.46                             107    -0.8 3  350 308 
 MON  HZ I         849 29.61         2.7 0.28                           350 308 
 PRA  HN ES   1    849 36.36                             105     0.2 4  393 209 
                                                                                
