 2010 1224 0125 10.1 L   6.388 -73.642108.5  RSN 12 0.5 2.2LRSN                1
 GAP= 64        1.10       3.4     4.5  9.0 -0.3649E+01  0.1738E+02 -0.3039E+01E
 Epicentro: SANTA HELENA DEL OPON - SANTANDER                                  3
 ACTION:UP  11-01-14 15:26 OP:pat  STATUS:               ID:20101224012510 L   I
 2010-12-24-0123-33S.COL___133                                                 6
 STAT SP IPHASW D HRMM SECON CODA AMPLIT PERI AZIMU VELO SNR AR TRES W  DIS CAZ7
 BAR2 SZ EP        125 26.52                             151    -0.110   55  66 
 BAR2 SZ ES   1    125 39.71                             151     0.1 7   55  66 
 BAR2 SZ I         125 40.89       185.4 0.10                            55  66 
 RUS  HZ EP        125 28.75                             140    -0.110   83 132 
 RUS  HZ I         125 29.28        28.8 0.35                            83 132 
 RUS  HN ES   1    125 43.12                             140    -0.5 7   83 132 
 NOR  SZ EP   1    125 36.08                             119     0.0 7  164 236 
 NOR  SN ES   1    125 56.05                             119    -0.2 7  164 236 
 YOP  SZ EP        125 38.21                             116     0.7 9  177 130 
 YOP  SZ I         126  0.75        15.9 0.31                           177 130 
 GRA  SZ EP   1    125 38.30                             114    -0.7 7  190  29 
 GRA  SZ ES   1    126  1.45                             114    -0.1 7  190  29 
 GRA  SZ I         126  8.75        17.6 0.49                           190  29 
 CHI  HZ EP   1    125 39.90                             114     0.0 6  195 183 
 CHI  HE ES   1    126  2.57                             114    -0.6 6  195 183 
 CHI  HZ I         126  6.61        12.0 0.39                           195 183 
 OCA  SZ EP        125 41.35                             112     0.3 8  208  10 
 OCA  SZ ES   1    126  6.17                             112     1.0 6  208  10 
 OCA  SZ I         126 12.79        33.2 0.42                           208  10 
 HEL  HZ EP   1    125 41.14                             112    -0.4 6  210 264 
 HEL  HN ES   1    126  6.78                             112     0.7 6  210 264 
 HEL  HZ I         126  9.56         9.0 0.22                           210 264 
 RREF HN ES   2    126 15.98                             108     1.1 4  250 229 
 RREF HZ I         126 21.75         6.3 0.22                           250 229 
 PRA  HZ EP   1    125 54.81                             102     0.1 5  326 205 
 PRA  HN ES   1    126 29.87                             102     0.4 5  326 205 
 MON  HZ EP   1    125 55.90                             101    -1.1 5  345 320 
 MON  HE ES   1    126 32.47                             101    -1.0 5  345 320 
 MON  HZ I         126 35.17         2.8 0.62                           345 320 
 SJA  SZ EP   1    125 56.82                             101    -0.3 5  346 186 
 SJA  SZ ES   2    126 34.69                             101     0.8 3  346 186 
                                                                                
