 2011  324 0508 55.1 L   6.829 -73.148145.3  RSN 13 0.5 2.3LRSN                1
 GAP=113        1.20       4.2     6.1  7.6 -0.6970E+01  0.5214E+01  0.8452E+01E
 Epicentro: LOS SANTOS - SANTANDER                                             3
 ACTION:UP  11-06-16 14:35 OP:jfem STATUS:               ID:20110324050855 L   I
 2011-03-24-0505-06S.COL___139                                                 6
 STAT SP IPHASW D HRMM SECON CODA AMPLIT PERI AZIMU VELO SNR AR TRES W  DIS CAZ7
 BTL  SZ EP        5 9 15.36                             173     0.810   17 307 
 BTL  SZ ES   1    5 9 30.61                             173     0.9 7   17 307 
 BAR2 SZ EP        5 9 14.51                             169    -0.210   27 189 
 BAR2 SZ ES   1    5 9 29.31                             169    -0.7 7   27 189 
 BAR2 SZ I         5 9 30.94        64.5 0.54                            27 189 
 GIR2 SZ EP        5 9 14.37                             169    -0.210   28 350 
 BRR  HZ IP     C  5 9 16.17                             153     0.110   70 296 
 BRR  HE ES   1    5 9 32.48                             153     0.0 7   70 296 
 BRR  HZ I         5 9 38.05        48.1 0.19                            70 296 
 PAM  SZ EP        5 9 17.23                             151     0.110   75  41 
 PAM  SN ES   1    5 9 33.64                             151    -0.6 7   75  41 
 PAM  SZ I         5 9 36.08        22.3 0.36                            75  41 
 GRA  SZ IP        5 9 20.06                             138     0.010  123  18 
 GRA  SZ ES   1    5 9 38.65                             138    -0.8 7  123  18 
 GRA  SZ I         5 9 45.16        20.4 0.22                           123  18 
 OCA  SZ EP        5 9 22.70                             130    -0.3 9  157 353 
 OCA  SZ ES   1    5 9 45.73                             130     0.9 7  157 353 
 OCA  SZ I         5 9 49.02        33.0 0.23                           157 353 
 YOP  SZ EP   1    5 9 25.07                             126    -0.3 7  182 154 
 YOP  SZ I         5 9 26.03        12.3 0.12                           182 154 
 YOP  SN ES   1    5 9 49.77                             126     0.8 7  182 154 
 NOR  SN ES   1    5 9 58.25                             118    -0.7 6  237 234 
 CHI  HZ EP   1    5 9 33.29                             117     0.2 6  252 195 
 CHI  HE ES   1    510  2.38                             117    -0.3 6  252 195 
 HEL  HZ EP   1    5 9 35.61                             115     0.3 6  273 255 
 HEL  HN ES   1    510  6.40                             115    -0.3 6  273 255 
 HEL  HZ I         510 13.58         8.1 0.30                           273 255 
 PRA  HZ EP   1    5 9 48.84                             106     0.0 4  395 209 
 PRA  HE ES        510 31.28                             106     0.4 6  395 209 
 SJA  SZ EP   1    5 9 49.27                             106    -0.7 4  403 193 
                                                                                
