 2010 1224 0222 51.0 L   6.806 -73.087149.7  RSN  9 0.3 2.0LRSN                1
 GAP=130        0.71       4.1     5.1  6.0 -0.1040E+02  0.7619E+01 -0.7161E+01E
 Epicentro: LOS SANTOS - SANTANDER                                             3
 ACTION:UP  11-01-14 15:26 OP:pat  STATUS:               ID:20101224022251 L   I
 2010-12-24-0219-33S.COL___133                                                 6
 STAT SP IPHASW D HRMM SECON CODA AMPLIT PERI AZIMU VELO SNR AR TRES W  DIS CAZ7
 BAR2 SZ EP        223 11.26                             170     0.110   26 204 
 BAR2 SZ ES   1    223 27.08                             170     0.2 7   26 204 
 BAR2 SZ I         223 27.98        54.4 0.21                            26 204 
 RUS  HZ EP   1    223 15.15                             144     0.0 7  101 180 
 RUS  HE ES   1    223 34.05                             144     0.0 7  101 180 
 RUS  HZ I         223 35.49        14.3 0.23                           101 180 
 GRA  SZ EP   1    223 15.92                             138    -0.5 7  123  15 
 GRA  SZ I         223 37.87         9.6 0.45                           123  15 
 OCA  SZ EP   1    223 19.66                             131     0.0 7  161 351 
 OCA  SZ I         223 46.52        14.6 0.48                           161 351 
 NOR  SZ EP   1    223 27.26                             119    -0.3 6  240 235 
 NOR  SE ES   1    223 55.29                             119    -0.8 6  240 235 
 CHI  HZ EP   1    223 29.31                             118     0.1 6  251 197 
 CHI  HE ES   1    223 59.08                             118     0.1 6  251 197 
 CHI  HZ I         224  6.92         6.7 0.51                           251 197 
 HEL  HZ EP   1    223 32.84                             115     0.7 6  278 256 
 HEL  HE ES   1    224  4.58                             115     0.4 6  278 256 
 HEL  HZ I         224 10.79         7.7 0.16                           278 256 
 SDV  BZ EP        223 40.69                             109     0.1 6  355  50 
 SDV  BZ I         224 20.46         2.3 0.08                           355  50 
 PRA  HZ EP   1    223 45.30                             107     0.2 4  396 210 
 PRA  HN ES   1    224 27.07                             107    -0.2 4  396 210 
                                                                                
