 2016 1124 0603 12.4 L   6.733 -73.141142.2  RSN  9 0.5 1.7LRSN                1
 GAP=122        1.02       4.8     4.2  6.8  0.2938E+01  0.4381E+01  0.1824E+02E
 Epicentro: JORDAN - SANTANDER                                                 3
 ACTION:UPD 17-10-26 21:11 OP:lp   STATUS:               ID:20161124060312 L   I
 OLDACT:UP  16-11-24 15:45 OP:dani STATUS:               ID:20161124055747     3
 OLDACT:UP  16-11-24 15:44 OP:dani STATUS:               ID:20161124055747     3
 OLDACT:REG 16-11-24 12:49 OP:dani STATUS:               ID:20161124055747     3
 2016-11-24-0558-00M.COL___349                                                 6
 STAT SP IPHASW D HRMM SECON CODA AMPLIT PERI AZIMU VELO AIN AR TRES W  DIS CAZ7
 BAR2 EZ EP        6 3 31.64                             173    0.1310 16.2 197 
 BAR2 EZ ES        6 3 46.39                             173   -0.0010 16.2 197 
 BAR2 EZ I         6 3 49.38        15.9 0.32            168           16.2 197 
 BRR  HZ EP        6 3 33.48                             150    0.0310 75.5 303 
 BRR  HN ES        6 3 50.46                             150    0.6110 75.5 303 
 BRR  HZ I         6 3 54.65         7.8 0.22            155           75.5 303 
 PAM  EZ EP        6 3 34.55                             148   -0.0710 82.9  36 
 PAM  EE ES        6 3 51.88                             148   -0.0410 82.9  36 
 PAM  EZ I         6 3 53.78         9.1 0.46            156           82.9  36 
 PTB  HZ EP        6 3 38.49                             131   -0.55 9  147 262 
 PTB  HN ES        6 3 59.23                             131   -0.57 9  147 262 
 PTB  HZ I         6 4  2.71         4.2 0.17            134            147 262 
 ZAR  HN ES        6 4 10.02                             121   -0.39 8  207 294 
 CHI  HZ EP        6 3 49.94                             117    0.78 8  242 196 
 CHI  HN ES   3    6 4 19.40                             117    1.58 2  242 196 
 CHI  HZ I         6 4 25.50         2.4 0.30            119            242 196 
 PTGC HZ EP        6 3 54.83                             111   -0.49 7  302 158 
 PTGC HN ES        6 4 28.15                             111   -0.62 7  302 158 
 PTGC HZ I         6 4 32.47         3.1 0.32            114            302 158 
 LL6C HZ EP   4    6 3 37.46                             109   -21.4 0  332 358 
 CBOC HZ EP        6 3 59.85                             109    0.85 7  332 253 
 PRA  HZ EP        6 4  5.45                             106    0.35 6  386 210 
 PRA  HE ES        6 4 46.47                             106    0.28 6  386 210 
 PRA  HZ I         6 4 54.08         2.7 0.49            108            386 210 
                                                                                
