 2014  124 0151  8.0 L   6.831 -73.137140.6  RSN 15 0.5 2.2LRSN                1
 GAP= 84        1.08       3.0     3.2  6.4 -0.9929E+00  0.7840E+01  0.3395E+01E
 Epicentro: LOS SANTOS - SANTANDER                                             3
 ACTION:UPD 14-03-13 09:58 OP:ep   STATUS:               ID:20140124015108 L   I
 OLDACT:REG 14-01-24 07:22 OP:nd   STATUS:               ID:20140124015000     3
 2014-01-24-0150-00M.COL___285                                                 6
 STAT SP IPHASW D HRMM SECON CODA AMPLIT PERI AZIMU VELO AIN AR TRES W  DIS CAZ7
 BAR2 SZ EP        151 27.14                             169    0.0210 26.8 191 
 BAR2 SZ ES        151 41.43                             169   -0.5810 26.8 191 
 PAM  SZ EP        151 29.97                             151    0.4610 74.2  41 
 PAM  SN ES        151 46.50                             151    0.2410 74.2  41 
 PAM  SZ I         151 48.93        39.7 0.52            155           74.2  41 
 PTB  HZ EP   4    151 33.73                             130   -1.00 0  149 258 
 PTB  HN ES   2    151 54.80                             130   -0.76 5  149 258 
 PTB  HZ I         151 57.39        24.2 0.14            131            149 258 
 TAM  HZ IP     D  151 35.60                             129    0.30 9  155 106 
 TAM  HN ES        151 57.18                             129    0.60 9  155 106 
 TAM  HZ I         152  0.23         5.0 0.36            133            155 106 
 OCA  HZ EP        151 35.03                             129   -0.61 9  157 353 
 OCA  HN ES        151 56.76                             129   -0.41 9  157 353 
 OCA  HZ I         152  1.21        22.0 0.24            132            157 353 
 ZAR  HZ EP        151 39.82                             121   -0.29 9  204 291 
 ZAR  HN ES        152  5.26                             121    0.13 9  204 291 
 ZAR  HZ I         152 10.94        10.8 0.16            122            204 291 
 NOR  HZ EP        151 43.53                             117   -0.23 8  237 234 
 NOR  HN ES        152 11.68                             117    0.04 8  237 234 
 NOR  HZ I         152 17.64        10.0 0.14            118            237 234 
 SML  HZ EP        151 43.19                             117   -0.89 8  241 335 
 SML  HN ES        152 13.01                             117    0.81 8  241 335 
 SML  HZ I         152 13.91        30.6 0.26            119            241 335 
 CHI  HZ EP        151 45.69                             116   -0.14 8  252 195 
 CHI  HN ES        152 14.89                             116   -0.43 8  252 195 
 CHI  HZ I         152 20.27         5.6 0.36            117            252 195 
 ROSC BZ EP   4    151 48.12                             115    1.87 0  256 211 
 ROSC BN ES   4    152 18.22                             115    2.16 0  256 211 
 HEL  HZ EP   4    151 49.81                             113    1.63 0  274 255 
 HEL  HN ES        152 19.99                             113    0.49 8  274 255 
 HEL  HZ I         152 26.77         8.7 0.34            115            274 255 
 URE  HZ EP   4    151 47.84                             112   -0.97 0  283 291 
 URE  HN ES   4    152 17.67                             112   -2.95 0  283 291 
 URE  HZ I         152 29.01         8.4 0.16            114            283 291 
 GUY2CHZ EP        151 51.49                             111   -0.22 7  304 234 
 GUY2CHN ES        152 26.49                             111    0.70 7  304 234 
 GUY2CHZ I         152 35.24         6.9 0.32                           304 234 
 PTGC HZ EP   4    151 50.50                             110   -1.48 0  311 159 
 PTGC HN ES   4    152 22.68                             110   -3.58 0  311 159 
 CBOC HZ EP        151 55.47                             109    0.51 7  336 252 
 CBOC HN ES        152 32.39                             109    0.82 7  336 252 
 CBOC HZ I         152 42.41         2.7 0.34            110            336 252 
 PRA  HZ EP        152  1.38                             105   -0.40 6  395 209 
 PRA  HN ES        152 43.08                             105   -0.62 6  395 209 
 PRA  HZ I         152 49.85         7.8 0.24            107            395 209 
 SJC  HZ EP   4    152  1.32                             105   -1.83 0  407 327 
 SJC  HN ES   4    152 42.31                             105   -3.84 0  407 327 
 SJC  HZ I         152 46.57         6.2 0.52            106            407 327 
                                                                                
