 2016  824 0955 48.7 L   6.354 -73.685105.6  RSN  5 0.2 1.4LRSN                1
 GAP=144        0.52       5.3     2.7  5.1 -0.2856E+01  0.4605E+01 -0.4042E+01E
 Epicentro: SANTA HELENA DEL OPON - SANTANDER                                  3
 ACTION:UPD 16-10-29 15:38 OP:rebc STATUS:               ID:20160824095602dL   I
 OLDACT:DUP 16-08-30 04:00 OP:ak   STATUS:               ID:20160824095602dL   3
 OLDACT:UP  16-08-24 21:08 OP:nlst STATUS:               ID:20160824095601 L   3
 OLDACT:UP  16-08-24 20:21 OP:ak   STATUS:               ID:20160824094358     3
 OLDACT:UP  16-08-24 20:21 OP:ak   STATUS:               ID:20160824094358     3
 OLDACT:UP  16-08-24 20:14 OP:ak   STATUS:               ID:20160824094358     3
 OLDACT:REG 16-08-24 12:42 OP:ak   STATUS:               ID:20160824094358     3
 2016-08-24-0948-00M.COL___365                                                 6
 STAT SP IPHASW D HRMM SECON CODA AMPLIT PERI AZIMU VELO AIN AR TRES W  DIS CAZ7
 BAR2 EZ EP        956  5.22                             148   -0.0910 61.5  65 
 BAR2 EZ ES        956 18.36                             148    0.0610 61.5  65 
 BAR2 EZ I         956 19.86        20.8 0.30                          61.5  65 
 PTB  HZ EP        956  6.63                             137   -0.3410 87.7 284 
 PTB  HN ES        956 21.34                             137    0.1010 87.7 284 
 PTB  HZ I         956 24.37         2.7 0.12                          87.7 284 
 SPBC HN ES   2    956 21.65                             137    0.09 5 88.7 209 
 ZAR  HZ EP        956 16.46                             115    0.22 9  181 314 
 GUY2CHZ EP   2    956 22.22                             110    0.49 4  224 236 
                                                                                
