 2015 1124 0650 50.4 L   6.792 -73.119154.6  RSN  6 0.3 1.4LRSN                1
 GAP=203        0.74       3.1     4.9  5.9  0.5452E+01 -0.4355E+01 -0.5725E+01E
 Epicentro: LOS SANTOS - SANTANDER                                             3
 ACTION:UPD 15-12-28 16:13 OP:cam  STATUS:               ID:20151124065050 L   I
 OLDACT:REG 15-11-24 12:53 OP:ak   STATUS:               ID:20151124064746     3
 2015-11-24-0647-46M.COL___215                                                 6
 STAT SP IPHASW D HRMM SECON CODA AMPLIT PERI AZIMU VELO AIN AR TRES W  DIS CAZ7
 BRR  HZ EP        651 13.07                             153    0.4010 74.2 298 
 BRR  HN ES        651 30.31                             153    0.2610 74.2 298 
 BRR  HZ I         651 34.60         2.1 0.18            154           74.2 298 
 RUS  HZ EP        651 15.09                             146    0.1310 99.6 178 
 RUS  HE ES        651 33.82                             146   -0.3010 99.6 178 
 RUS  HZ I         651 36.38         1.5 0.49            151           99.6 178 
 PTB  HZ EP        651 18.28                             133   -0.06 9  151 259 
 PTB  HE ES        651 39.63                             133   -0.51 9  151 259 
 PTB  HZ I         651 41.19         3.0 0.26            136            151 259 
 SPBC HZ EP        651 19.95                             131    0.25 9  164 220 
 SPBC HN ES        651 42.63                             131    0.07 9  164 220 
 SPBC HZ I         651 45.34         4.0 0.14            135            164 220 
 ZAR  HZ EP        651 23.55                             124   -0.19 8  207 292 
 ZAR  HN ES        651 50.12                             124    0.36 8  207 292 
 ZAR  HZ I         651 54.82         2.0 0.28            126            207 292 
 SML  HZ EP        651 27.43                             119   -0.32 8  246 335 
 SML  HN ES        651 56.61                             119   -0.27 8  246 335 
 SML  HZ I         652  2.59         3.5 0.12            121            246 335 
                                                                                
