 2014  724 0439 43.8 L   6.780 -73.385117.8  RSN  8 0.5 1.6LRSN                1
 GAP=130        1.11       4.2     5.8  7.8  0.4837E+01  0.1164E+02 -0.4517E+01E
 Epicentro: SAN VICENTE DE CHUCURI - SANTANDER                                 3
 ACTION:UPD 15-03-16 20:46 OP:nd   STATUS:               ID:20140724043943 L   I
 OLDACT:UP  14-07-24 18:42 OP:mh   STATUS:               ID:20140724043842     3
 OLDACT:UP  14-07-24 18:41 OP:mh   STATUS:               ID:20140724043842     3
 OLDACT:UP  14-07-24 18:41 OP:mh   STATUS:               ID:20140724043842     3
 OLDACT:UP  14-07-24 18:40 OP:mh   STATUS:               ID:20140724043842     3
 OLDACT:REG 14-07-24 18:39 OP:mh   STATUS:               ID:20140724043842     3
 2014-07-24-0438-42M.COL___272                                                 6
 STAT SP IPHASW D HRMM SECON CODA AMPLIT PERI AZIMU VELO AIN AR TRES W  DIS CAZ7
 BAR2 SZ EP        440  0.74                             165    0.4210 30.5 133 
 BAR2 SZ ES        440 13.60                             165    0.4310 30.5 133 
 BAR2 SZ I         440 14.95        15.7 0.05            171           30.5 133 
 BRR  HZ EP        440  1.47                             155    0.6310 51.1 315 
 BRR  HN ES   1    440 14.17                             155    0.07 7 51.1 315 
 BRR  HZ I         440 16.50         5.8 0.17            152           51.1 315 
 RUS  HZ EP        440  4.93                             136   -0.2810  104 161 
 RUS  HN ES        440 21.33                             136   -0.5410  104 161 
 RUS  HZ I         440 24.09         2.4 0.08            141            104 161 
 PTB  HZ EP        440  5.65                             131   -0.4810  121 257 
 PTB  HE ES        440 23.36                             131   -0.1610  121 257 
 PTB  HZ I         440 28.48         9.8 0.08            131            121 257 
 SPBC HZ EP        440  8.63                             125    0.03 9  146 211 
 SPBC HN ES   4    440 29.93                             125    2.01 0  146 211 
 SPBC HZ I         440 33.79         6.2 0.22            127            146 211 
 OCA  HZ EP   1    440 10.46                             122    0.20 7  162   3 
 OCA  HN ES   1    440 29.75                             122   -1.13 7  162   3 
 OCA  HZ I         440 35.99         7.8 0.11            124            162   3 
 ZAR  HZ EP        440 12.59                             119    0.50 9  181 296 
 ZAR  HN ES   4    440 36.12                             119    1.98 0  181 296 
 ZAR  HZ I         440 39.90         4.6 0.09            119            181 296 
 SML  HZ EP   4    440 16.52                             112   -1.66 0  236 341 
 SML  HN ES   1    440 44.71                             112   -0.26 6  236 341 
 SML  HZ I         440 51.14         6.8 0.07            113            236 341 
 HEL  HN ES   4    440 46.66                             111   -1.15 0  246 255 
                                                                                
