 2014  624 0215 27.3 L   7.188 -73.939 78.8  RSN  9 0.5 1.3LRSN                1
 GAP=117        1.14       3.1     4.3  8.1 -0.2873E+01  0.1006E+02 -0.4787E+01E
 Epicentro: BARRANCABERMEJA - SANTANDER                                        3
 ACTION:UPD 14-07-01 22:56 OP:nd   STATUS:               ID:20140624021527 L   I
 OLDACT:REG 14-06-24 12:37 OP:spq  STATUS:               ID:20140624020817     3
 2014-06-24-0208-17M.COL___262                                                 6
 STAT SP IPHASW D HRMM SECON CODA AMPLIT PERI AZIMU VELO AIN AR TRES W  DIS CAZ7
 BRR  HZ EP     C  215 39.07                             160    0.3810 26.6 110 
 BRR  HN ES        215 48.00                             160    0.4010 26.6 110 
 BRR  HZ I         215 49.16        17.0 0.12            166           26.6 110 
 PTB  HZ IP     D  215 43.94                             126    0.2110 91.7 219 
 PTB  HN ES        215 56.34                             126   -0.2410 91.7 219 
 PTB  HZ I         215 57.39        10.4 0.16            126           91.7 219 
 BAR2 SZ ES        215 59.06                             122   -0.7210  106 128 
 BAR2 SZ E         215 59.06                                            106 128 
 BAR2 SZ I         216  1.48         3.4 0.15            125            106 128 
 ZAR  HE ES   4    216  1.74                             121    2.39 0  107 288 
 ZAR  HZ I         216  5.00         4.2 0.15            120            107 288 
 OCA  HN ES        216  4.61                             115   -0.4910  135  30 
 OCA  HZ I         216  6.63         4.3 0.34            116            135  30 
 RUS  HZ EP        215 53.80                             109    0.64 9  172 146 
 RUS  HN ES   1    216 13.36                             109    0.01 7  172 146 
 RUS  HZ I         216 14.71         1.0 0.28            111            172 146 
 SML  HZ EP        215 54.10                             108    0.70 9  179 355 
 SML  HN ES        216 13.35                             108   -0.44 9  179 355 
 SML  HZ I         216 17.53         7.4 0.26            108            179 355 
 HEL  HN ES   1    216 20.34                             105   -0.27 6  208 238 
 HEL  HZ I         216 26.02         2.2 0.26            106            208 238 
 GUY2CHN ES   1    216 33.19                             101   -0.68 6  268 216 
 GUY2CHZ I         216 42.43         1.2 0.30                           268 216 
                                                                                
