 2012  924 0509 20.9 L   6.773 -73.134152.3  RSN  7 0.3 1.6LRSN                1
 GAP=139        0.65       4.3     4.0  5.8  0.1515E+01  0.2282E+01  0.9959E+00E
 Epicentro: LOS SANTOS - SANTANDER                                             3
 ACTION:UPD 12-10-22 14:20 OP:ep   STATUS:               ID:20120924050920 L   I
 2012-09-24-0506-38M.COL___204                                                 6
 STAT SP IPHASW D HRMM SECON CODA AMPLIT PERI AZIMU VELO AIN AR TRES W  DIS CAZ7
 BAR2 SZ EP        5 9 41.17                             172   -0.0610 20.6 195 
 BAR2 SZ ES   1    5 9 57.17                             172    0.05 7 20.6 195 
 BAR2 SZ I         5 9 57.79         8.9 0.22                          20.6 195 
 GIR2 SZ EP   1    5 9 41.22                             167   -0.18 7 34.5 349 
 GIR2 SZ ES   1    5 9 57.60                             167    0.18 7 34.5 349 
 BRR  HZ EP        5 9 43.03                             153    0.1610 73.8 300 
 BRR  HN ES   1    510  0.60                             153    0.58 7 73.8 300 
 BRR  HZ I         510  2.70         7.5 0.16                          73.8 300 
 PAM  SZ EP   1    5 9 44.00                             151    0.13 7 79.0  37 
 PAM  SZ I         5 9 44.30         9.4 0.44                          79.0  37 
 PAM  SN ES   1    510  1.26                             151   -0.55 7 79.0  37 
 RUS  HZ EP   1    5 9 45.32                             146    0.27 7 97.5 177 
 RUS  HN ES   1    510  3.84                             146   -0.07 7 97.5 177 
 RUS  HZ I         510  4.83         3.6 0.34                          97.5 177 
 PTB  HN ES   1    510  9.37                             133   -0.57 7  148 260 
 ZAR  HE ES   1    510 19.69                             123   -0.12 6  206 293 
                                                                                
