 2016  424 0418 25.6 L   6.809 -73.209145.3  RSN  5 0.2 1.3LRSN                1
 GAP=146        0.64       3.6     3.6  5.0 -0.5834E+01  0.5147E+01 -0.1164E+01E
 Epicentro: ZAPATOCA - SANTANDER                                               3
 ACTION:UPD 16-05-05 14:23 OP:rebc STATUS:               ID:20160424041825 L   I
 OLDACT:ARG 16-04-24 12:22 OP:cara STATUS:               ID:20160424040749     3
 2016-04-24-0407-49M.COL___315                                                 6
 STAT SP IPHASW D HRMM SECON CODA AMPLIT PERI AZIMU VELO AIN AR TRES W  DIS CAZ7
 BAR2 EZ EP        418 45.47                             170    0.3010 24.1 173 
 BAR2 EZ ES        419  0.30                             170   -0.1510 24.1 173 
 BAR2 EZ I         419  1.54         4.1 0.26            172           24.1 173 
 PAM  EZ EP        418 48.31                             149    0.3210 81.3  44 
 PAM  EN ES        419  5.31                             149   -0.1610 81.3  44 
 PAM  EZ I         419  7.57         6.1 0.42            153           81.3  44 
 RUS  HZ EP        418 49.40                             143   -0.0110  102 172 
 RUS  HE ES        419  7.93                             143   -0.0610  102 172 
 RUS  HZ I         419  9.08         2.1 0.24            148            102 172 
 PTB  HZ EP        418 51.53                             133   -0.38 9  141 258 
 PTB  HN ES        419 12.60                             133    0.16 9  141 258 
 PTB  HZ I         419 20.31         1.8 0.42            133            141 258 
 SPBC HZ EP        418 53.40                             130   -0.31 9  160 217 
 SPBC HE ES        419 15.90                             130    0.26 9  160 217 
 SPBC HZ I         419 18.78         3.4 0.30            131            160 217 
                                                                                
