 2012  324 0324 39.2 L   7.345 -72.926154.9  RSN  4 0.2 1.4LRSN                1
 GAP=177        0.41      12.4     5.0  6.6 -0.2445E+02  0.7689E+01  0.1290E+02E
 ACTION:UP  12-03-31 23:22 OP:EP   STATUS:               ID:20120324032439 L   I
 2012-03-24-0320-00M.COL___196                                                 6
 STAT SP IPHASW D HRMM SECON CODA AMPLIT PERI AZIMU VELO SNR AR TRES W  DIS CAZ7
 PAM  SZ EP   2    325  0.69                             170     0.3 5   25  91 
 PAM  SN ES   2    325 16.90                             170     0.0 5   25  91 
 BRR  HZ EP   1    325  2.31                             148    -0.2 7   91 253 
 BRR  HN ES   2    325 20.57                             148    -0.1 5   91 253 
 BRR  HZ I         325 22.75         6.4 0.18                            91 253 
 PTB  HZ EP   1    325 11.05                             126     0.0 7  191 242 
 PTB  HN ES   2    325 36.07                             126     0.3 4  191 242 
 PTB  HZ I         325 38.69         1.5 0.35                           191 242 
 ZAR  HN ES   2    325 40.04                             123     0.2 4  214 274 
                                                                                
