 2011  424 0022 47.9 L   6.810 -73.186137.6  RSN 12 0.3 1.7LRSN                1
 GAP=110        0.51       2.7     3.7  3.7 -0.5356E+01  0.1187E+01  0.3982E+00E
 Epicentro: ZAPATOCA - SANTANDER                                               3
 ACTION:UP  11-06-22 15:32 OP:REBC STATUS:               ID:20110424002247 L   I
 2011-04-24-0020-00M.COL___140                                                 6
 STAT SP IPHASW D HRMM SECON CODA AMPLIT PERI AZIMU VELO SNR AR TRES W  DIS CAZ7
 BTL  SZ EP        023  6.74                             174     0.310   15 323 
 BTL  SZ ES   3    023 20.27                             174    -0.6 2   15 323 
 BAR2 SZ EP        023  6.58                             169     0.010   24 179 
 BAR2 SZ ES   1    023 21.20                             169     0.0 7   24 179 
 BAR2 SZ I         023 22.34        11.6 0.30                            24 179 
 GIR2 SZ EP        023  6.51                             168    -0.110   30 358 
 GIR2 SZ ES   3    023 21.21                             168     0.1 2   30 358 
 BRR  HZ EP   3    023  7.32                             153    -0.6 2   67 300 
 BRR  HN ES   1    023 23.67                             153     0.1 7   67 300 
 PAM  SZ IP        023  9.43                             149     0.010   80  42 
 PAM  SZ I         023  9.54         7.4 0.08                            80  42 
 PAM  SN ES   1    023 26.65                             149     0.5 7   80  42 
 RUS  HZ EP        023 11.10                             142     0.110  102 174 
 RUS  HN ES   3    023 28.13                             142    -0.9 2  102 174 
 RUS  HZ I         023 30.21         4.6 0.12                           102 174 
 BRI  SZ EP        023 11.03                             140    -0.110  109  23 
 GRA  SZ IP        023 12.20                             135    -0.310  126  20 
 GRA  SZ I         023 13.32         8.5 0.29                           126  20 
 GRA  SZ ES   1    023 31.42                             135    -0.2 7  126  20 
 OCA  SZ EP        023 15.38                             128    -0.1 9  159 355 
 OCA  SZ ES   3    023 37.11                             128     0.1 2  159 355 
 OCA  SZ I         023 40.69         9.9 0.38                           159 355 
 YOP  SZ EP   3    023 17.36                             124    -0.3 2  182 152 
 NOR  SZ EP        023 23.03                             117     0.1 8  232 234 
 NOR  SN ES   1    023 50.02                             117    -0.1 6  232 234 
 HEL  HZ EP   3    023 28.20                             114     0.9 2  268 255 
 HEL  HZ I         024  4.36         4.0 0.60                           268 255 
                                                                                
