 2010  724 0537 40.6 L   6.666 -72.909146.0  RSN  5 0.8 1.2LRSN                1
 GAP=188        2.29      22.1    34.5 31.2  0.1326E+03 -0.6208E+03 -0.2259E+03E
 Epicentro: MOLAGAVITA - SANTANDER                                             3
 ACTION:UPD 10-12-01 15:19 OP:pat  STATUS:               ID:20100724053740 L   I
 2010-07-24-0533-37S.COL___123                                                 6
 STAT SP IPHASW D HRMM SECON CODA AMPLIT PERI AZIMU VELO AIN AR TRES W  DIS CAZ7
 BAR2 SZ IP        538  0.65                             169     0.210   31 255 
 BAR2 SZ ES   1    538 15.15                             169    -0.8 7   31 255 
 RUS  HZ EP   1    538  4.26                             148     0.8 7   88 193 
 RUS  HZ I         538  5.74         1.6 0.25                            88 193 
 BRR  HZ EP        538  2.63                             144    -1.110  101 299 
 BRR  HE ES   1    538 22.94                             144     1.1 7  101 299 
 BRR  HZ I         538 23.40         4.8 0.07                           101 299 
 GUE  SZ EP   1    538  5.61                             137    -0.8 7  129 359 
 GUE  SZ I         538  6.41         2.0 0.07                           129 359 
 GRA  SZ EP        538  7.49                             135     0.8 9  135   5 
 GRA  SZ I         538 28.88         2.7 0.17                           135   5 
                                                                                
