 2011  224 0923 56.9 L   6.837 -72.919141.1  RSN  4 0.3 1.1LRSN                1
 GAP=184        0.75       5.3    23.8  7.0 -0.1031E+03 -0.6770E+02  0.1244E+02E
 Epicentro: SAN ANDRES - SANTANDER                                             3
 ACTION:UP  11-03-28 15:10 OP:jfem STATUS:               ID:20110224092356 L   I
 2011-02-24-0920-23S.COL___137                                                 6
 STAT SP IPHASW D HRMM SECON CODA AMPLIT PERI AZIMU VELO SNR AR TRES W  DIS CAZ7
 BAR2 SZ EP        924 16.68                             163     0.310   40 227 
 BAR2 SZ ES        924 31.64                             163     0.010   40 227 
 BAR2 SZ I         924 34.36         4.0 0.27                            40 227 
 RUS  HZ EP        924 20.88                             141     0.310  106 190 
 RUS  HN ES        924 38.83                             141    -0.210  106 190 
 RUS  HZ I         924 41.26         1.3 0.10                           106 190 
 GRA  SZ EP        924 20.96                             138     0.010  117   6 
 GRA  SZ ES        924 39.52                             138    -0.210  117   6 
 GRA  SZ I         924 42.62         2.1 0.36                           117   6 
 CHI  HZ EP   1    924 34.94                             115    -0.6 6  260 200 
 CHI  HZ I         924 39.80         0.7 0.32                           260 200 
 CHI  HN ES   2    925  5.67                             115    -0.1 4  260 200 
                                                                                
