 2017  424 0449 25.3 L   6.784 -73.160151.2  RSN  6 0.5 1.6LRSN                1
 GAP=147        1.32       7.4     6.3  9.7 -0.1317E+02  0.9591E+01  0.1076E+02E
 Epicentro: LOS SANTOS - SANTANDER                                             3
 ACTION:UPD 17-05-30 21:15 OP:jn   STATUS:               ID:20170424044925 L   I
 OLDACT:REG 17-04-24 12:48 OP:dani STATUS:               ID:20170424044742     3
 2017-04-24-0448-00M.COL___365                                                 6
 STAT SP IPHASW D HRMM SECON CODA AMPLIT PERI AZIMU VELO AIN AR TRES W  DIS CAZ7
 BAR2 EZ EP        449 45.58                             172    0.0410 21.4 187 
 BAR2 EZ ES        450  0.88                             172   -0.4510 21.4 187 
 BAR2 EZ I         450  4.74         7.1 0.25            170           21.4 187 
 BRR  HZ EP        449 47.63                             154    0.6310 70.7 300 
 BRR  HN ES        450  4.57                             154    0.6410 70.7 300 
 BRR  HZ I         450 12.94         6.3 0.12            156           70.7 300 
 PAM  EZ EP        449 48.42                             151    0.1910 79.8  40 
 PAM  EN ES        450  5.81                             151   -0.3010 79.8  40 
 PAM  EZ I         450  6.48         4.4 0.36            157           79.8  40 
 PTB  HZ EP        449 51.33                             134   -1.21 9  146 259 
 PTB  HN ES        450 13.60                             134   -0.19 9  146 259 
 PTB  HZ I         450 14.31         5.0 0.24            137            146 259 
 SPBC HZ EP        449 54.40                             131    0.41 9  161 219 
 SPBC HN ES        450 16.69                             131    0.31 9  161 219 
 SPBC HZ I         450 22.96        10.7 0.38            134            161 219 
 ZAR  HN ES        450 23.34                             124   -0.20 9  203 293 
                                                                                
