 2010 1124 0658  8.5 L   6.538 -73.536105.1  RSN  8 0.5 1.7LRSN                1
 GAP= 83        1.24       5.1     6.9 12.6 -0.1194E+01  0.2910E+02  0.8515E+01E
 Epicentro: EL CARMEN DE CHUCURI - SANTANDER                                   3
 ACTION:UP  10-12-17 16:54 OP:REBC STATUS:               ID:20101124065808 L   I
 2010-11-24-0656-09S.COL___129                                                 6
 STAT SP IPHASW D HRMM SECON CODA AMPLIT PERI AZIMU VELO SNR AR TRES W  DIS CAZ7
 BAR2 SZ IP        658 23.95                             158     0.110   39  81 
 BAR2 SZ I         658 37.79        35.0 0.32                            39  81 
 BRR  HZ EP        658 24.78                             145    -0.210   66 343 
 BRR  HN ES   1    658 38.76                             145     0.8 7   66 343 
 BRR  HZ I         658 44.56        14.5 0.11                            66 343 
 RUS  HZ EP   1    658 27.14                             138    -0.2 7   87 145 
 RUS  HN ES   1    658 41.31                             138    -0.7 7   87 145 
 RUS  HZ I         658 43.99         4.4 0.27                            87 145 
 GRA  SZ EP   1    658 35.12                             117     0.1 7  169  28 
 GRA  SZ I         658 59.31         8.5 0.29                           169  28 
 OCA  SZ EP   1    658 36.83                             114    -0.4 7  190   7 
 OCA  SZ I         659  6.20        11.3 0.19                           190   7 
 CHI  HZ EP   1    658 40.98                             111     0.9 6  212 186 
 CHI  HE ES   1    659  5.06                             111     0.4 6  212 186 
 CHI  HZ I         659 11.31         1.6 0.16                           212 186 
 HEL  HZ EP   1    658 41.28                             110    -0.1 6  224 260 
 HEL  HN ES   1    659  6.05                             110    -0.9 6  224 260 
 RREF HN ES   1    659 17.59                             105     0.4 6  270 228 
 RREF HZ I         659 23.14         3.8 0.27                           270 228 
                                                                                
