 2014  524 0546  2.6 L   6.782 -73.198152.0  RSN  3 0.3 1.8LRSN                1
 GAP=199        0.70       5.0     5.7  7.3 -0.2078E+01  0.9922E+01 -0.1903E+02E
 Epicentro: ZAPATOCA - SANTANDER                                               3
 ACTION:UPD 15-03-16 17:00 OP:nd   STATUS:               ID:20140524054602 L   I
 OLDACT:DUP 14-05-24 13:40 OP:cam  STATUS:               ID:20140524054001d    3
 OLDACT:UP  14-05-24 13:39 OP:cam  STATUS:               ID:20140524054000     3
 OLDACT:REG 14-05-24 12:52 OP:ca   STATUS:               ID:20140524054000     3
 2014-05-24-0540-00M.COL___276                                                 6
 STAT SP IPHASW D HRMM SECON CODA AMPLIT PERI AZIMU VELO AIN AR TRES W  DIS CAZ7
 BAR2 SZ EP     D  546 23.04                             172    0.0910 21.1 175 
 BAR2 SZ ES        546 38.76                             172   -0.0610 21.1 175 
 BAR2 SZ I         546 39.72        15.0 0.28            179           21.1 175 
 PTB  HZ EP        546 29.91                             135    0.35 9  142 259 
 PTB  HN ES        546 50.39                             135   -0.20 9  142 259 
 ZAR  HE ES   4    547  2.47                             124    2.19 0  199 293 
 SML  HZ EP        546 39.00                             119   -0.53 8  243 337 
 SML  HN ES        547  8.62                             119    0.29 8  243 337 
 SML  HZ I         547 17.08         4.3 0.10            119            243 337 
                                                                                
