 2016 1124 0845  7.6 L   6.790 -73.169147.1  RSN 10 0.5 2.3LRSN                1
 GAP=164        0.99       4.6     3.5  6.5  0.1856E+01  0.2166E+01  0.1207E+02E
 Epicentro: LOS SANTOS - SANTANDER                                             3
 ACTION:UPD 17-10-26 21:11 OP:lp   STATUS:               ID:20161124084507 L   I
 OLDACT:UP  16-11-24 17:06 OP:dani STATUS:               ID:20161124083748     3
 OLDACT:UP  16-11-24 17:06 OP:dani STATUS:               ID:20161124083748     3
 OLDACT:UP  16-11-24 17:05 OP:dani STATUS:               ID:20161124083748     3
 OLDACT:UP  16-11-24 17:05 OP:dani STATUS:               ID:20161124083748     3
 OLDACT:UP  16-11-24 17:03 OP:dani STATUS:               ID:20161124083748     3
 OLDACT:UP  16-11-24 17:03 OP:dani STATUS:               ID:20161124083748     3
 OLDACT:UP  16-11-24 17:02 OP:dani STATUS:               ID:20161124083748     3
 OLDACT:UP  16-11-24 17:02 OP:dani STATUS:               ID:20161124083748     3
 OLDACT:UP  16-11-24 17:02 OP:dani STATUS:               ID:20161124083748     3
 OLDACT:REG 16-11-24 13:09 OP:dani STATUS:               ID:20161124083748     3
 2016-11-24-0838-00M.COL___349                                                 6
 STAT SP IPHASW D HRMM SECON CODA AMPLIT PERI AZIMU VELO AIN AR TRES W  DIS CAZ7
 BAR2 EZ EP        845 27.09                             171   -0.2410 22.0 184 
 BAR2 HE ES        845 42.59                             171   -0.1510 22.0 184 
 BAR2 EZ I         845 44.91        57.7 0.32            167           22.0 184 
 BRR  HZ EP        845 28.89                             153    0.1310 69.5 300 
 BRR  HN ES        845 45.98                             153    0.6810 69.5 300 
 BRR  HZ I         845 50.10        38.8 0.42            155           69.5 300 
 PTB  HZ EP        845 33.61                             133   -0.79 9  145 259 
 PTB  HN ES        845 54.54                             133   -0.79 9  145 259 
 PTB  HZ I         846  2.11        16.2 0.16            134            145 259 
 TAM  HZ EP        845 35.53                             130   -0.02 9  157 104 
 TAM  HN ES        845 57.35                             130   -0.03 9  157 104 
 TAM  HZ I         845 59.04        11.4 0.39            135            157 104 
 ZAR  HE ES        846  5.37                             123    0.25 9  202 293 
 CHI  HZ EP        845 45.34                             118    0.19 8  247 195 
 CHI  HN ES        846 14.79                             118    0.32 8  247 195 
 CHI  HZ I         846 18.47        12.5 0.63            119            247 195 
 ROSC BZ EP   3    845 47.16                             117    1.64 2  251 211 
 ROSC BN ES        846 15.62                             117    0.50 8  251 211 
 ROSC BZ I         846 21.82        22.5 0.52            119            251 211 
 URE  HE ES   4    846 17.64                             114   -2.76 0  282 292 
 PTGC HZ EP   3    845 50.28                             112   -1.19 2  309 158 
 CBOC HZ EP        845 54.73                             110    0.51 7  331 252 
 PRA  HZ EP        846  0.91                             107    0.03 6  390 209 
 PRA  HE ES        846 42.24                             107   -0.22 6  390 209 
 PRA  HZ I         846 49.44        10.0 0.29            109            390 209 
                                                                                
