 2012 1124 0316 47.7 L   6.811 -73.169141.5  RSN  5 0.3 1.2LRSN                1
 GAP=133        0.56       4.6     4.5  5.5 -0.1686E+01  0.2956E+01 -0.1474E+01E
 Epicentro: LOS SANTOS - SANTANDER                                             3
 ACTION:UPD 12-12-05 15:35 OP:}ep  STATUS:               ID:20121124031647 L   I
 2012-11-24-0310-00M.COL___233                                                 6
 STAT SP IPHASW D HRMM SECON CODA AMPLIT PERI AZIMU VELO AIN AR TRES W  DIS CAZ7
 BAR2 SZ EP   1    317  6.87                             170    0.03 7 24.3 184 
 BAR2 SZ ES   1    317 21.96                             170    0.19 7 24.3 184 
 BAR2 SZ I         317 22.97         5.9 0.15                          24.3 184 
 GIR2 SZ EP   1    317  6.93                             168    0.10 7 29.7 355 
 GIR2 SZ ES   1    317 21.38                             168   -0.36 7 29.7 355 
 PAM  SZ EP   1    317  9.76                             150    0.25 7 78.1  42 
 RUS  HZ EP   1    317 11.18                             142    0.04 7  102 175 
 RUS  HN ES   1    317 29.31                             142   -0.12 7  102 175 
 RUS  HZ I         317 30.65         1.8 0.30                           102 175 
 PTB  HZ EP   1    317 13.61                             131   -0.51 7  146 258 
 PTB  HN ES   1    317 35.08                             131    0.35 7  146 258 
 PTB  HZ I         317 39.78         1.8 0.30                           146 258 
                                                                                
