 2015  624 0212 11.4 L   6.769 -73.153149.6  RSN  5 0.4 1.8LRSN                1
 GAP=151        1.00       8.7     6.0  8.9  0.6248E+01  0.1161E+02 -0.1363E+02E
 Epicentro: LOS SANTOS - SANTANDER                                             3
 ACTION:UPD 15-09-10 22:14 OP:cam  STATUS:               ID:20150624021211 L   I
 OLDACT:UP  15-07-01 05:41 OP:DRIO STATUS:               ID:20150624021211 L   3
 OLDACT:UP  15-06-24 15:04 OP:mh   STATUS:               ID:20150624020750     3
 OLDACT:REG 15-06-24 12:52 OP:mh   STATUS:               ID:20150624020750     3
 2015-06-24-0207-50M.COL___328                                                 6
 STAT SP IPHASW D HRMM SECON CODA AMPLIT PERI AZIMU VELO AIN AR TRES W  DIS CAZ7
 BAR2 EZ EP        212 30.96                             172   -0.5010 19.8 189 
 BAR2 EZ ES        212 46.87                             172   -0.2010 19.8 189 
 BAR2 EZ I         212 47.94        12.3 0.36            173           19.8 189 
 BRR  HZ EP        212 33.62                             153    0.5710 72.2 301 
 BRR  HN ES        212 50.43                             153    0.5210 72.2 301 
 BRR  HZ I         212 54.86         6.9 0.29            150           72.2 301 
 PAM  SZ EP   1    212 34.64                             150    0.40 7 80.5  38 
 PAM  SN ES        212 51.85                             150   -0.1810 80.5  38 
 PAM  SZ I         212 53.63         9.0 0.42            152           80.5  38 
 ZAR  HN ES        213  9.23                             123   -0.51 9  205 293 
 ZAR  HZ I         213 15.02         4.6 0.24            124            205 293 
 SML  HZ EP   2    212 48.73                             118    0.16 4  246 336 
 SML  HN ES   2    213 16.93                             118   -0.61 4  246 336 
 SML  HZ I         213 19.06         6.7 0.10            119            246 336 
                                                                                
