 2010  124 0430 20.7 L   6.410 -73.682 16.2  RSN  6 0.7 1.6LRSN                1
 GAP=108        1.49       7.0    17.2 35.3  0.3065E+02  0.5918E+03  0.6159E+02E
 Epicentro: SANTA HELENA DEL OPON - SANTANDER                                  3
 ACTION:UP  10-08-24 09:45 OP:vdl  STATUS:               ID:20100124043020 L   I
 2010-01-24-0426-03S.COL___095                                                 6
 STAT SP IPHASW D HRMM SECON CODA AMPLIT PERI AZIMU VELO SNR AR TRES W  DIS CAZ7
 BAR2 SZ EP        430 31.11                             102     0.410   59  70 
 BAR2 SZ ES   2    430 38.03                             102    -0.4 5   59  70 
 RUS  BZ IP        430 35.51                              98     0.310   88 131 
 RUS  BZ I         430 35.70        10.6 0.14                            88 131 
 RUS  BN ES        430 46.13                              98    -0.410   88 131 
 GIR2 SZ EP   2    430 36.11                              98     0.6 5   92  36 
 HEL  HN ES        431 13.78                              56    -1.1 8  206 263 
 OCA  SZ ES   3    431 15.01                              56     0.5 2  206  11 
 HEL  HZ EP        430 50.64                              56    -0.5 8  206 263 
 HEL  HZ I         431 14.75        10.6 0.34                           206 263 
 RREF BZ EP   1    430 57.83                              56     1.0 6  249 228 
 RREF BE ES   1    431 26.19                              56     1.2 6  249 228 
 RREF BZ I         431 27.32         2.2 0.67                           249 228 
                                                                                
