 2016  824 0519 26.7 L   6.760 -73.123140.0  RSN  7 0.5 1.5LRSN                1
 GAP=141        1.12       4.9     4.9  9.3 -0.3089E+01  0.1139E+02 -0.4591E+01E
 Epicentro: LOS SANTOS - SANTANDER                                             3
 ACTION:UPD 16-10-29 15:38 OP:rebc STATUS:               ID:20160824051926 L   I
 OLDACT:DUP 16-08-24 20:29 OP:ak   STATUS:               ID:20160824051734d    3
 OLDACT:REG 16-08-24 12:29 OP:ak   STATUS:               ID:20160824051733     3
 2016-08-24-0518-00M.COL___371                                                 6
 STAT SP IPHASW D HRMM SECON CODA AMPLIT PERI AZIMU VELO AIN AR TRES W  DIS CAZ7
 BAR2 EZ EP        519 45.48                             171   -0.0910 19.7 199 
 BAR2 EZ ES        519 59.54                             171   -0.7410 19.7 199 
 BAR2 EZ I         520  2.63         9.4 0.25                          19.7 199 
 BRR  HZ IP     D  519 47.58                             150    0.0910 75.5 301 
 BRR  HN ES        520  4.30                             150    0.6010 75.5 301 
 BRR  HZ I         520  8.98         5.3 0.16                          75.5 301 
 PAM  EZ EP        519 48.72                             149    0.2910 79.4  36 
 PAM  EN ES        520  5.18                             149   -0.2010 79.4  36 
 PAM  EZ I         520  7.73         7.7 0.66                          79.4  36 
 RUS  HZ EP   2    519 48.93                             143   -0.63 5 96.0 177 
 RUS  HN ES        520  7.87                             143    0.4910 96.0 177 
 RUS  HZ I         520  8.85         3.0 0.20                          96.0 177 
 PTB  HZ EP   2    519 52.81                             130   -0.55 5  149 261 
 PTB  HN ES        520 13.41                             130   -0.74 9  149 261 
 PTB  HZ I         520 16.04         4.4 0.14                           149 261 
 SPBC HN ES        520 16.69                             128    0.35 9  161 221 
 SPBC HZ I         520 20.20         3.5 0.08                           161 221 
 OCA  HN ES   4    520 15.40                             127   -1.71 0  165 352 
 ZAR  HN ES        520 24.79                             120    0.25 8  208 293 
 HEL  HN ES   4    520 36.20                             113   -1.84 0  273 257 
 GUY2CHN ES   4    520 48.77                             111    5.01 0  301 236 
                                                                                
