 2011  124 0329  4.7 L   6.819 -73.140147.1  RSN 17 0.5 3.4LRSN                1
 GAP=103        1.01       4.0     5.8  7.4 -0.6994E+01  0.1382E+02 -0.1081E+01E
 Epicentro: LOS SANTOS - SANTANDER                                             3
 ACTION:UP  11-02-08 08:42 OP:pat  STATUS:               ID:20110124032904 L   I
 2011-01-24-0320-00M.COL___140                                                 6
 STAT SP IPHASW D HRMM SECON CODA AMPLIT PERI AZIMU VELO SNR AR TRES W  DIS CAZ7
 BTL  SZ IP     C  329 24.42                             172     0.010   18 308 
 BAR2 SZ IP     D  329 24.61                             170     0.110   26 191 
 BAR2 SZ I         329 25.18       619.4 0.37                            26 191 
 BAR2 SZ ES   1    329 39.61                             170    -0.4 7   26 191 
 GIR2 SZ IP     D  329 24.64                             168     0.210   29 348 
 RUS  HZ IP     C  329 28.43                             143    -0.310  103 176 
 RUS  HN ES   1    329 47.41                             143     0.0 7  103 176 
 RUS  HZ I         329 48.50       224.4 0.37                           103 176 
 GRA  SZ IP     C  329 30.35                             138     0.510  124  17 
 GRA  SZ ES   1    329 49.86                             138     0.4 7  124  17 
 GRA  SZ I         329 51.18       394.6 0.29                           124  17 
 OCA  SZ EP   1    329 32.02                             130    -0.9 7  158 353 
 OCA  SZ I         330  1.13       289.6 0.18                           158 353 
 YOP  SZ EP   1    329 35.10                             126     0.1 7  181 154 
 YOP  SE ES   2    329 58.69                             126     0.1 4  181 154 
 YOP  SZ I         330  1.52       148.4 0.52                           181 154 
 NOR  SZ EP   2    329 40.39                             118    -0.3 4  237 234 
 NOR  SN ES   1    330  9.35                             118     0.6 6  237 234 
 CHI  HZ EP   1    329 42.65                             117     0.0 6  251 195 
 CHI  HE ES   1    330 11.75                             117    -0.6 6  251 195 
 CHI  HZ I         330 22.03       121.5 0.39                           251 195 
 ROSC BZ EP   1    329 44.23                             117     1.1 6  255 211 
 HEL  HZ EP   1    329 45.23                                     0.1 6  273 255 
 HEL  HN ES   1    330 16.06                                    -0.5 6  273 255 
 HEL  HZ I         330 23.77       183.1 0.37                           273 255 
 VIL  SN ES   3    330 22.01                             112    -0.2 2  304 190 
 VIL  SZ I         330 33.62        82.0 0.70                           304 190 
 RREF HZ EP   2    329 51.74                             111     0.6 3  324 229 
 RREF HZ I         330 37.03       166.3 0.78                           324 229 
 DBB  SZ IP     C  329 51.75                             109    -0.5 7  340 274 
 TOL  SZ EP   1    329 54.15                             109     0.9 5  345 224 
 SDV  BZ EP   1    329 53.89                             108    -0.7 5  359  50 
 SJA  SZ EP   1    329 58.48                                    -1.1 4  402 193 
                                                                                
