 2010  824 0220 41.8 L   6.786 -73.073151.3  RSN 16 0.4 3.4LRSN                1
 GAP=131        0.91       3.3     4.8  5.2 -0.6949E+01  0.7524E+00  0.1640E+01E
 Epicentro: LOS SANTOS - SANTANDER                                             3
 ACTION:UP  10-09-07 10:57 OP:vdl  STATUS:               ID:20100824022041 L   I
 2010-08-24-0217-36S.COL___120                                                 6
 STAT SP IPHASW D HRMM SECON CODA AMPLIT PERI AZIMU VELO SNR AR TRES W  DIS CAZ7
 BAR2 SZ IP        221  2.08                             171    -0.110   25 210 
 BAR2 SZ I         221  2.48       363.9 0.32                            25 210 
 BAR2 SZ ES   1    221 17.80                             171    -0.2 7   25 210 
 BRR  HZ IP     D  221  3.98                             151     0.010   79 297 
 BRR  HZ I         221  4.18       489.3 0.16                            79 297 
 BRR  HE ES        221 21.46                             151     0.110   79 297 
 RUS  HZ IP     D  221  5.93                             146    -0.110   99 181 
 RUS  HN ES   1    221 24.76                             146    -0.1 7   99 181 
 RUS  HZ I         221 26.03       161.6 0.28                            99 181 
 BRI  SZ IP        221  6.70                             143     0.610  107  17 
 GUE  SZ EP        221  6.94                             140    -0.110  117   8 
 GUE  SZ I         221  7.66        68.3 0.10                           117   8 
 GRA  SZ IP        221  7.88                             138     0.410  125  14 
 GRA  SZ I         221 28.66       310.5 0.38                           125  14 
 OCA  SZ IP        221 10.40                             130    -0.4 9  163 350 
 OCA  SZ ES   2    221 32.86                             130    -0.6 5  163 350 
 OCA  SZ I         221 38.42       254.5 0.26                           163 350 
 CHI  HZ EP        221 19.99                             118     0.1 8  249 197 
 CHI  HE ES   1    221 48.92                             118    -0.7 6  249 197 
 CHI  HZ I         221 55.41       131.2 0.31                           249 197 
 CVER SZ EP   1    221 23.15                             116     0.5 6  274 204 
 CVER SZ I         222  3.33       173.5 0.56                           274 204 
 HEL  HZ EP        221 22.61                             115    -0.5 7  279 257 
 HEL  HE ES   2    221 55.51                             115     0.2 4  279 257 
 HEL  HZ I         222  0.56       177.1 0.27                           279 257 
 GUY  SZ EP   2    221 26.69                             113     0.4 4  307 236 
 GUY  SN ES   1    222  1.82                             113     0.7 5  307 236 
 GUY  SZ I         222  7.24       426.4 0.54                           307 236 
 RREF HZ EP        221 29.04                             112     0.3 7  327 231 
 RREF HN ES   1    222  5.49                             112     0.1 5  327 231 
 RREF HZ I         222 13.65       191.7 0.43                           327 231 
 DBB  SZ IP        221 29.85                             110    -0.6 6  348 274 
 DBB  SZ I         222  9.00        30.7 0.43                           348 274 
 SDV  BZ IP     C  221 31.40                             109    -0.1 6  355  49 
 SDV  BZ I         221 32.59        62.9 0.36                           355  49 
 ANIL HZ EP   1    221 32.50                                     0.1 5  362 226 
 ANIL HN ES   1    222 12.73                                     0.9 5  362 226 
 PRA  HZ EP        221 35.48                             107    -0.4 6  395 211 
 PRA  HE ES   1    222 17.19                             107    -0.8 4  395 211 
 PRA  HZ I         222 23.89       152.6 0.48                           395 211 
                                                                                
