 2017  524 0416 29.2 Lo  5.933 -73.794108.8  RSN  8 0.6 1.7LRSN                1
 GAP=114        1.53       5.7     4.1  9.9  0.4179E+01  0.9885E+00 -0.8357E+01E
 Epicentro: SUCRE - SANTANDER                                                  3
 ACTION:UPD 17-06-16 13:38 OP:jn   STATUS:               ID:20170524041629 L   I
 OLDACT:UP  17-06-02 13:53 OP:nlst STATUS:               ID:20170524041629 L   3
 OLDACT:UP  17-05-24 16:19 OP:ar   STATUS:               ID:20170524040738     3
 OLDACT:UP  17-05-24 16:18 OP:ar   STATUS:               ID:20170524040738     3
 OLDACT:REG 17-05-24 13:06 OP:ar   STATUS:               ID:20170524040738     3
 2017-05-24-0408-00M.COL___335                                                 6
 STAT SP IPHASW D HRMM SECON CODA AMPLIT PERI AZIMU VELO AIN AR TRES W  DIS CAZ7
 SPBC HZ EP        416 44.58                             157   -0.3610 43.8 225 
 SPBC HN ES        416 57.38                             157    0.1410 43.8 225 
 SPBC HZ I         416 59.11        20.3 0.20            159           43.8 225 
 RUS  HZ EP        416 47.45                             142   -0.2810 78.8  93 
 RUS  HN ES        417  2.13                             142   -0.0710 78.8  93 
 PTB  HZ EP        416 47.70                             134   -1.0510 99.3 312 
 PTB  HN ES        417  3.41                             134   -0.6110 99.3 312 
 PTB  HZ I         417  6.44         6.1 0.20            135           99.3 312 
 NOR  HZ EP        416 51.28                             127    0.0110  126 251 
 NOR  HN ES        417  9.41                             127    0.9110  126 251 
 NOR  HZ I         417  9.70        16.3 0.14            129            126 251 
 BRR  HZ EP        416 51.62                             126    0.0110  130   4 
 BRR  HN ES        417  9.93                             126    0.8210  130   4 
 BRR  HZ I         417 13.38        11.1 0.12            127            130   4 
 YPLC HZ EP        416 54.93                             118   -0.65 9  167 111 
 YPLC HN ES        417 16.76                             118    0.59 9  167 111 
 YPLC HZ I         417 17.43        10.9 0.28            121            167 111 
 HEL  HZ EP        416 59.76                             114    0.89 9  194 279 
 HEL  HE ES        417 21.39                             114   -0.65 9  194 279 
 HEL  HZ I         417 26.30         3.6 0.46            116            194 279 
 ZAR  HZ EP   1    417  1.12                             112    1.07 6  209 326 
 ZAR  HN ES   1    417 24.31                             112    0.18 6  209 326 
 ZAR  HZ I         417 25.37         6.1 0.44            114            209 326 
                                                                                
