 2013 1024 0430 18.1 L   6.783 -73.133146.5  RSN 10 0.4 1.8LRSN                1
 GAP=139        1.05       3.1     4.2  6.0 -0.8275E+00  0.5215E+01  0.7513E+00E
 Epicentro: LOS SANTOS - SANTANDER                                             3
 ACTION:UPD 13-11-25 09:23 OP:ep   STATUS:               ID:20131024043018 L   I
 OLDACT:REG 13-10-24 08:28 OP:carl STATUS:               ID:20131024042839     3
 2013-10-24-0428-39M.COL___223                                                 6
 STAT SP IPHASW D HRMM SECON CODA AMPLIT PERI AZIMU VELO AIN AR TRES W  DIS CAZ7
 BAR2 SZ EP        430 37.91                             171    0.1310 21.8 195 
 BAR2 SZ ES        430 52.89                             171   -0.2410 21.8 195 
 BAR2 SZ I         430 53.72        17.7 0.22            168           21.8 195 
 BRR  HZ EP        430 39.84                             152    0.4010 73.3 299 
 BRR  HN ES        430 56.85                             152    0.7610 73.3 299 
 BRR  HZ I         430 59.65         7.7 0.16            150           73.3 299 
 PAM  SZ EP        430 40.83                             151    0.4110 78.0  38 
 PAM  SN ES        430 57.51                             151   -0.3310 78.0  38 
 PAM  SZ I         430 59.86         9.0 0.54            155           78.0  38 
 RUS  HZ EP        430 41.91                             144    0.1410 98.6 177 
 RUS  HN ES        431  0.10                             144   -0.1410 98.6 177 
 RUS  HZ I         431  1.21         3.7 0.24            145           98.6 177 
 PTB  HZ EP        430 44.96                             132   -0.25 9  149 260 
 PTB  HN ES        431  5.61                             132   -0.75 9  149 260 
 PTB  HN I         431 11.13        11.3 0.36            131            149 260 
 SPBC HZ EP        430 46.98                             129    0.39 9  163 220 
 SPBC HN ES        431  8.52                             129   -0.30 9  163 220 
 SPBC HZ I         431 15.65         6.4 0.40            129            163 220 
 ZAR  HN ES        431 16.90                             122    0.60 8  206 292 
 ZAR  HN I         431 19.19         8.5 0.26            122            206 292 
 NOR  HE ES        431 21.90                             119    0.13 8  235 235 
 NOR  HE I         431 28.66         9.2 0.46            119            235 235 
 SML  HZ EP        430 54.44                             117   -0.57 8  246 335 
 SML  HN ES        431 23.16                             117   -0.65 8  246 335 
 SML  HZ I         431 25.64         6.5 0.24            119            246 335 
 CHI  HZ EP        430 55.40                             117   -0.27 8  247 196 
 CHI  HN ES        431 25.14                             117    0.16 8  247 196 
 CHI  HZ I         431 31.24         2.3 0.26            118            247 196 
                                                                                
