 2010  724 0559 27.2 L   6.756 -73.088142.9  RSN  7 0.4 1.6LRSN                1
 GAP=166        1.08       6.0    12.1 12.6 -0.9317E+01 -0.3549E+02 -0.6721E+01E
 Epicentro: LOS SANTOS - SANTANDER                                             3
 ACTION:UPD 10-12-01 15:19 OP:pat  STATUS:               ID:20100724055927 L   I
 2010-07-24-0557-26S.COL___123                                                 6
 STAT SP IPHASW D HRMM SECON CODA AMPLIT PERI AZIMU VELO AIN AR TRES W  DIS CAZ7
 BAR2 SZ EP        559 46.16                             172    -0.210   21 210 
 BRR  HZ EP        559 48.05                             150    -0.410   79 299 
 BRR  HZ I         559 49.77         8.7 0.11                            79 299 
 BRR  HN ES   1    6 0  5.52                             150     0.4 7   79 299 
 RUS  HZ EP   1    559 50.54                             145     0.3 7   95 180 
 RUS  HN ES   1    6 0  8.39                             145     0.1 7   95 180 
 RUS  HZ I         6 0  9.73         4.7 0.44                            95 180 
 GUE  SZ EP   1    559 51.15                             138    -0.8 7  120   9 
 GUE  SZ I         559 54.31         2.1 0.11                           120   9 
 GRA  SZ IP        559 52.92                             136     0.510  129  14 
 GRA  SZ ES   1    6 0 12.36                             136     0.3 7  129  14 
 GRA  SZ I         6 0 14.75         8.1 0.48                           129  14 
 HEL  HZ EP   3    6 0  7.99                             114     0.2 2  277 257 
 HEL  HZ I         6 0 43.99         3.4 0.53                           277 257 
 PRA  HZ EP   2    6 0 21.04                             107     0.6 3  391 211 
 PRA  HZ I         6 0 21.74         3.1 0.21                           391 211 
                                                                                
