 2014  524 0956 30.0 L   6.790 -73.115148.0  RSN  4 0.3 1.4LRSN                1
 GAP=224        0.78       5.8     5.5  8.6  0.2797E+01  0.6333E+01 -0.2811E+02E
 Epicentro: LOS SANTOS - SANTANDER                                             3
 ACTION:UPD 15-03-16 17:00 OP:nd   STATUS:               ID:20140524095630 L   I
 OLDACT:UP  14-05-24 14:34 OP:cam  STATUS:               ID:20140524095000     3
 OLDACT:REG 14-05-24 13:02 OP:ca   STATUS:               ID:20140524095000     3
 2014-05-24-0950-00M.COL___276                                                 6
 STAT SP IPHASW D HRMM SECON CODA AMPLIT PERI AZIMU VELO AIN AR TRES W  DIS CAZ7
 BAR2 SZ EP        956 49.46                             171   -0.3910 23.1 199 
 BAR2 SZ ES        957  5.67                             171    0.3010 23.1 199 
 BAR2 SZ I         957  8.48         5.1 0.26            169           23.1 199 
 PTB  HZ EP   1    956 57.66                             132    0.27 7  151 259 
 PTB  HN ES        957 18.49                             132   -0.30 9  151 259 
 PTB  HZ I         957 25.58         2.6 0.38            133            151 259 
 ZAR  HN ES        957 28.92                             122    0.30 8  208 292 
 SML  HZ EP        957  7.33                             118    0.36 8  246 335 
 SML  HE ES        957 35.48                             118   -0.36 8  246 335 
 SML  HZ I         957 39.02         2.7 0.26            120            246 335 
                                                                                
