 2017  124 0255 14.7 L   6.647 -73.324128.1  RSN 24 0.5 2.9LRSN                1
 GAP= 56        1.18       3.3     3.5  5.8  0.1197E+01  0.9103E+01  0.2223E+01E
 Epicentro: GALAN - SANTANDER                                                  3
 ACTION:UPD 17-05-22 16:02 OP:jn   STATUS:               ID:20170124025514 L   I
 OLDACT:REG 17-01-24 13:03 OP:lv   STATUS:               ID:20170124024741     3
 2017-01-24-0248-00M.COL___349                                                 6
 STAT SP IPHASW D HRMM SECON CODA AMPLIT PERI AZIMU VELO AIN AR TRES W  DIS CAZ7
 BAR2 EZ EP        255 31.92                             172   -0.1310 16.8 111 
 BAR2 EZ ES        255 45.54                             172   -0.0710 16.8 111 
 BAR2 EZ I         255 49.04       483.3 0.63            177           16.8 111 
 BRR  HZ IP     C  255 33.93                             151    0.2810 66.5 320 
 BRR  HE ES        255 48.49                             151    0.0310 66.5 320 
 BRR  HZ I         255 58.73       122.5 0.28            150           66.5 320 
 RUS  HZ IP     D  255 35.32                             144   -0.4210 87.6 162 
 RUS  HN ES        255 51.73                             144   -0.4510 87.6 162 
 RUS  HZ I         255 53.42        93.9 0.24            147           87.6 162 
 PAM  EZ EP        255 37.13                             139    0.2110  103  42 
 PAM  EN ES        255 54.75                             139    0.4710  103  42 
 PAM  EZ I         255 57.25       139.7 0.20            144            103  42 
 PTB  HZ IP     C  255 36.99                             133   -1.2110  126 265 
 PTB  HN ES   4    255 54.88                             133   -1.68 0  126 265 
 PTB  HZ I         255 57.01       133.3 0.16            133            126 265 
 TAM  HZ EP        255 42.68                             123    0.07 9  171  98 
 TAM  HE ES        256  4.44                             123    0.03 9  171  98 
 TAM  HZ I         256  5.34        59.8 0.32            128            171  98 
 ZAR  HZ EP        255 44.91                             120    0.01 9  194 299 
 ZAR  HN ES        256  8.91                             120    0.42 9  194 299 
 ZAR  HZ I         256 16.57       204.9 0.34            121            194 299 
 CHI  HZ IP     D  255 49.02                             115   -0.09 8  228 191 
 CHI  HN ES        256 16.62                             115    0.64 8  228 191 
 CHI  HZ I         256 24.12        29.9 0.50            118            228 191 
 ROSC BZ EP   4    255 50.82                             115    1.67 0  228 209 
 ROSC BE ES   4    256 17.79                             115    1.74 0  228 209 
 ROSC BZ I         256 24.72        60.9 0.40            117            228 209 
 URE  HZ EP        255 52.57                             111   -1.11 8  273 297 
 URE  HN ES   4    256 22.28                             111   -1.83 0  273 297 
 URE  HZ I         256 26.30        74.8 0.20            112            273 297 
 PTGC HZ EP   4    255 55.40                             108   -1.51 0  301 154 
 PTGC HN ES   4    256 27.63                             108   -2.24 0  301 154 
 PTGC HZ I         256 30.54        43.8 0.28            111            301 154 
 ELA  HZ EP   4    255 59.39                             109    1.58 0  303 229 
 ELA  HE ES   4    256 35.83                             109    4.37 0  303 229 
 ELA  HZ I         256 41.34        37.7 0.39            110            303 229 
 CBOC HZ EP        255 58.68                             108    0.55 7  310 254 
 CBOC HN ES   4    256 28.05                             108   -3.99 0  310 254 
 CBOC HZ I         256 37.51        14.7 0.51            109            310 254 
 LL1C HZ EP   4    256  1.15                             107    1.93 0  321 355 
 LL1C HE ES   4    256 39.38                             107    5.41 0  321 355 
 DBB  EZ EP        255 59.13                             107   -0.26 7  322 277 
 DBB  EN ES        256 33.94                             107   -0.34 7  322 277 
 DBB  EZ I         256 36.98        24.2 0.42            109            322 277 
 LL6C HZ EP   4    255 43.16                             106   -18.5 0  342   1 
 LL6C HE ES   4    256 20.87                             106   -17.4 0  342   1 
 ARGC HZ EP   4    256  6.57                             104    1.67 0  369 344 
 ARGC HE ES        256 45.18                             104    1.10 6  369 344 
 ARGC HZ I         256 54.18        19.5 0.28            106            369 344 
 ORTC HZ EP        256  5.96                             104    0.92 6  370 215 
 ORTC HN ES        256 45.23                             104    0.89 6  370 215 
 ORTC HZ I         256 51.48        37.2 0.52            106            370 215 
 PAL  HZ EP        256  6.04                             104   -0.21 6  380 240 
 PAL  HE ES        256 47.43                             104    0.94 6  380 240 
 PAL  HZ I         256 50.70        18.4 0.22            105            380 240 
 APAC HZ IP     D  256  6.32                             104   -0.46 6  385 291 
 APAC HN ES   4    256 46.71                             104   -0.72 0  385 291 
 APAC HZ I         256 50.85        23.1 0.34            105            385 291 
 SJC  HZ EP   4    256  8.25                             102   -1.95 0  413 330 
 SJC  HN ES   4    256 49.56                             102   -3.96 0  413 330 
 SJC  HZ I         257  2.94        18.4 0.44            104            413 330 
 LCBC HZ EP        256  9.97                             102   -0.36 6  415 306 
 LCBC HE ES   4    256 50.67                             102   -3.08 0  415 306 
 LCBC HZ I         256 58.40        15.0 0.15            104            415 306 
 CRJC HZ EP   4    256 17.46                             100   -1.47 0  486   6 
 CRJC HN ES   4    257  5.57                             100   -3.50 0  486   6 
 CRJC HZ I         257 11.81        28.1 0.24            102            486   6 
 MACC HZ EP   4    256 19.15                              99   -1.50 0  501 187 
 MACC HE ES   4    257  7.83                              99   -4.29 0  501 187 
 MACC HZ I         257 13.39         7.9 0.42            101            501 187 
 SMAR HZ EP        256 21.51                              99   -0.09 4  509 349 
 SMAR HN ES   4    257  9.06                              99   -4.76 0  509 349 
 SMAR HZ I         257 16.51        11.7 0.51            101            509 349 
 GARC HZ EP   4    256 22.54                              98   -4.14 0  549 206 
 GARC HN ES   4    257 16.01                              98   -6.85 0  549 206 
 GARC HZ I         257 24.26        15.4 0.22            100            549 206 
                                                                                
