 2013  324 0911 45.7 L   6.755 -73.160152.3  RSN  5 0.3 1.4LRSN                1
 GAP=232        0.76       6.0     5.4  6.0  0.2023E+02  0.3724E+01 -0.5870E+00E
 Epicentro: LOS SANTOS - SANTANDER                                             3
 ACTION:UPD 13-04-09 14:04 OP:ep   STATUS:               ID:20130324091145 L   I
 2013-03-24-0910-00M.COL___245                                                 6
 STAT SP IPHASW D HRMM SECON CODA AMPLIT PERI AZIMU VELO AIN AR TRES W  DIS CAZ7
 BAR2 SZ EP        912  5.75                             173   -0.3210 18.2 188 
 BAR2 SZ ES        912 21.80                             173   -0.1310 18.2 188 
 BAR2 SZ I         912 23.39         6.5 0.28            168           18.2 188 
 BRR  HZ EP        912  7.68                             153    0.0110 72.3 303 
 BRR  HN ES        912 24.89                             153    0.1310 72.3 303 
 BRR  HN I         912 25.47         5.9 0.26            152           72.3 303 
 RUS  HZ EP        912 10.37                             146    0.5610 95.8 175 
 RUS  HN ES        912 28.58                             146   -0.0110 95.8 175 
 RUS  HN I         912 30.05         2.2 0.22            145           95.8 175 
 PTB  HZ EP        912 12.58                             134   -0.46 9  145 261 
 PTB  HE ES        912 34.28                             134   -0.04 9  145 261 
 PTB  HE I         912 38.98         3.4 0.18            132            145 261 
 ZAR  HN ES        912 44.62                             124    0.27 9  204 294 
 ZAR  HN I         912 45.94         2.7 0.12            124            204 294 
                                                                                
