 2011  324 0229  7.7 L   6.805 -73.164141.3  RSN 11 0.5 2.2LRSN                1
 GAP=112        1.12       6.4     7.2  8.0 -0.2726E+02  0.9601E+01  0.8262E+01E
 Epicentro: LOS SANTOS - SANTANDER                                             3
 ACTION:UP  11-06-16 14:35 OP:jfem STATUS:               ID:20110324022907 L   I
 2011-03-24-0226-02S.COL___139                                                 6
 STAT SP IPHASW D HRMM SECON CODA AMPLIT PERI AZIMU VELO SNR AR TRES W  DIS CAZ7
 BTL  SZ EP   1    229 27.58                             173     0.9 7   17 317 
 BAR2 SZ EP        229 26.44                             170    -0.310   24 185 
 BAR2 SZ ES   1    229 41.39                             170    -0.3 7   24 185 
 BAR2 SZ I         229 42.78        32.2 0.13                            24 185 
 BRR  HZ EP        229 28.32                             152     0.110   69 299 
 BRR  HN ES   1    229 45.03                             152     0.8 7   69 299 
 BRR  HZ I         229 48.54        27.4 0.10                            69 299 
 PAM  SZ EP        229 29.43                             150     0.010   78  41 
 PAM  SN ES   1    229 46.47                             150     0.0 7   78  41 
 PAM  SZ I         229 48.76        11.8 0.37                            78  41 
 GRA  SZ EP        229 32.29                             136    -0.210  126  18 
 GRA  SZ ES   1    229 51.69                             136    -0.2 7  126  18 
 GRA  SZ I         229 53.25        23.3 0.42                           126  18 
 OCA  SZ EP        229 35.19                             129    -0.4 9  159 354 
 OCA  SZ I         230  1.21        15.9 0.20                           159 354 
 YOP  SZ EP   2    229 37.75                             125     0.2 4  180 153 
 NOR  SZ EP        229 43.03                             118     0.0 8  234 234 
 NOR  SN ES   1    230  9.99                             118    -0.6 6  234 234 
 HEL  HZ EP   1    229 48.46                             114     1.0 6  270 256 
 HEL  HN ES   1    230 17.64                             114    -0.9 6  270 256 
 HEL  HZ I         230 25.39         3.6 0.57                           270 256 
 RREF HZ EP   1    229 54.36                             110     0.9 5  321 229 
 RREF HZ I         230 38.47         7.7 0.37                           321 229 
 PRA  HZ EP   1    230  0.84                             106    -0.1 4  392 209 
 PRA  HE ES   1    230 42.59                             106     0.0 4  392 209 
 PRA  HZ I         230 47.51        18.0 0.23                           392 209 
                                                                                
