 2016  724 0750 59.6 L   6.760 -73.157152.7  RSN  5 0.3 1.2LRSN                1
 GAP=137        0.67       4.2     6.6  5.7  0.7286E+01 -0.1038E+02 -0.4283E+01E
 Epicentro: LOS SANTOS - SANTANDER                                             3
 ACTION:UPD 17-03-29 16:54 OP:lp   STATUS:               ID:20160724075059 L   I
 OLDACT:DUP 16-07-24 18:23 OP:ar   STATUS:               ID:20160724074760d    3
 OLDACT:REG 16-07-24 14:08 OP:ar   STATUS:               ID:20160724074759     3
 2016-07-24-0747-59S.COL___331                                                 6
 STAT SP IPHASW D HRMM SECON CODA AMPLIT PERI AZIMU VELO AIN AR TRES W  DIS CAZ7
 BAR2 EZ EP        751 19.70                             173   -0.2310 18.7 189 
 BAR2 EZ ES        751 35.86                             173    0.0310 18.7 189 
 BRR  HZ EP        751 21.30                             153   -0.2110 72.4 302 
 BRR  HN ES        751 38.85                             153    0.2110 72.4 302 
 BRR  HZ I         751 42.40         2.3 0.30            144           72.4 302 
 PAM  EZ EP        751 22.69                             151   -0.0610 81.6  38 
 RUS  HZ EP        751 24.24                             146    0.5510 96.2 175 
 RUS  HN ES        751 42.28                             146   -0.2310 96.2 175 
 SPBC HZ EP   2    751 28.06                             131   -0.14 5  159 220 
 SPBC HN ES   2    751 50.41                             131   -0.13 5  159 220 
 SPBC HZ I         751 58.14         2.6 0.28            125            159 220 
                                                                                
