 2016 1024 0218 56.4 L   6.781 -73.159145.0  RSN  8 0.4 1.4LRSN                1
 GAP=136        0.93       2.9     4.7  5.6 -0.3530E+01  0.5921E+00  0.2148E+01E
 Epicentro: LOS SANTOS - SANTANDER                                             3
 ACTION:UPD 16-11-09 19:22 OP:rebc STATUS:               ID:20161024021856 L   I
 OLDACT:REG 16-10-24 13:33 OP:cara STATUS:               ID:20161024021749     3
 2016-10-24-0218-00M.COL___356                                                 6
 STAT SP IPHASW D HRMM SECON CODA AMPLIT PERI AZIMU VELO AIN AR TRES W  DIS CAZ7
 BAR2 EZ EP        219 15.84                             171   -0.0410 21.0 187 
 BAR2 EZ ES        219 31.38                             171    0.2910 21.0 187 
 BAR2 EZ I         219 33.37         4.4 0.34            171           21.0 187 
 BRR  HZ IP        219 17.61                             152    0.1710 70.9 301 
 BRR  HN ES        219 34.59                             152    0.7310 70.9 301 
 BRR  HZ I         219 38.59         7.4 0.48            154           70.9 301 
 PAM  EZ IP     C  219 18.85                             150    0.1710 80.0  39 
 PAM  EE ES        219 36.02                             150   -0.0510 80.0  39 
 PAM  EZ I         219 37.96         6.8 0.52            153           80.0  39 
 RUS  HZ EP        219 20.02                             144    0.1010 98.6 175 
 RUS  HE ES        219 37.74                             144   -0.5410 98.6 175 
 RUS  HZ I         219 39.66         2.9 0.34            146           98.6 175 
 PTB  HN ES        219 43.58                             132   -0.40 9  146 260 
 PTB  HZ I         219 44.45         2.7 0.18            134            146 260 
 SPBC HZ EP        219 24.81                             129    0.23 9  161 219 
 SPBC HN ES        219 46.29                             129   -0.29 9  161 219 
 SPBC HZ I         219 50.01         5.5 0.10            131            161 219 
 OCA  HZ EP        219 24.86                             129    0.04 9  162 354 
 OCA  HN ES        219 46.25                             129   -0.75 9  162 354 
 CHI  HZ EP        219 33.86                             117    0.08 8  246 195 
 CHI  HN ES        220  3.10                             117    0.16 8  246 195 
 CHI  HZ I         220  5.84         1.8 0.30            119            246 195 
                                                                                
