 2017  524 0251  5.4 L   6.810 -73.152150.0  RSN 10 0.6 1.9LRSN                1
 GAP=111        1.32       4.6     5.0  8.5  0.4502E+01  0.5118E+01  0.9180E+01E
 Epicentro: LOS SANTOS - SANTANDER                                             3
 ACTION:UPD 17-06-16 13:38 OP:jn   STATUS:               ID:20170524025105 L   I
 OLDACT:UP  17-05-24 16:02 OP:ar   STATUS:               ID:20170524023653d    3
 OLDACT:REG 17-05-24 13:03 OP:ar   STATUS:               ID:20170524023653d    3
 2017-05-24-0248-00M.COL___347                                                 6
 STAT SP IPHASW D HRMM SECON CODA AMPLIT PERI AZIMU VELO AIN AR TRES W  DIS CAZ7
 BRR  HZ IP     D  251 27.17                             154    0.1810 70.1 298 
 BRR  HE ES        251 44.64                             154    0.8510 70.1 298 
 BRR  HZ I         251 51.99        11.4 0.32            152           70.1 298 
 PAM  EZ EP        251 28.19                             152    0.1110 76.9  40 
 PAM  EN ES        251 45.63                             152   -0.1110 76.9  40 
 PAM  EZ I         251 47.47        10.7 0.22            158           76.9  40 
 RUS  HZ EP        251 29.63                             144   -0.0610  102 176 
 RUS  HN ES        251 47.80                             144   -0.8110  102 176 
 RUS  HZ I         251 49.07         7.9 0.38            147            102 176 
 PTB  HZ EP        251 32.26                             133   -0.46 9  147 258 
 PTB  HN ES        251 53.15                             133   -0.84 9  147 258 
 PTB  HZ I         251 58.71         8.7 0.42            133            147 258 
 SPBC HZ EP        251 34.41                             130    0.10 9  164 219 
 SPBC HE ES        251 57.11                             130    0.28 9  164 219 
 SPBC HZ I         252  0.96        14.4 0.24            131            164 219 
 YPLC HZ EP        251 35.43                             127   -0.24 9  178 151 
 YPLC HE ES        251 59.63                             127    0.38 9  178 151 
 YPLC HZ I         252  1.64         5.4 0.24            132            178 151 
 ZAR  HZ EP        251 37.71                             124   -0.35 9  203 292 
 ZAR  HN ES        252  3.73                             124    0.23 9  203 292 
 ZAR  HZ I         252 10.36        13.4 0.26            125            203 292 
 CHI  HZ EP        251 42.98                             118   -0.49 8  250 195 
 CHI  HN ES        252 14.14                             118    1.00 8  250 195 
 ROSC BZ EP   2    251 45.89                             118    2.03 4  253 211 
 ROSC BN ES   4    252 18.69                             118    4.86 0  253 211 
 ROSC BZ I         252 19.67         6.7 0.40            119            253 211 
 CBOC HZ EP   4    251 54.17                             111    1.67 0  333 252 
 CBOC HN ES   4    252 27.07                             111   -2.14 0  333 252 
 CBOC HZ I         252 38.35         1.3 0.42            112            333 252 
                                                                                
