 2017  124 0626 53.4 L   6.693 -73.210148.6  RSN  7 0.4 1.4LRSN                1
 GAP=126        1.00       5.4     5.5  7.2  0.2136E+01  0.8926E+01  0.1200E+02E
 Epicentro: VILLANUEVA - SANTANDER                                             3
 ACTION:UPD 17-05-22 16:02 OP:jn   STATUS:               ID:20170124062653 L   I
 OLDACT:UP  17-01-24 16:31 OP:lv   STATUS:               ID:20170124061740     3
 OLDACT:REG 17-01-24 13:14 OP:lv   STATUS:               ID:20170124061740     3
 2017-01-24-0618-00M.COL___342                                                 6
 STAT SP IPHASW D HRMM SECON CODA AMPLIT PERI AZIMU VELO AIN AR TRES W  DIS CAZ7
 BAR2 EZ EP        627 12.63                             175   -0.5910 11.5 165 
 BAR2 EZ ES        627 28.25                             175   -0.4010 11.5 165 
 BAR2 EZ I         627 30.55         8.1 0.30            171           11.5 165 
 BRR  HZ EP        627 14.55                             153   -0.3710 72.0 310 
 BRR  HN ES        627 32.04                             153    0.3510 72.0 310 
 BRR  HZ I         627 36.14         3.6 0.11            150           72.0 310 
 RUS  HZ EP        627 16.85                             148    0.1510 89.6 171 
 RUS  HE ES        627 34.90                             148    0.0510 89.6 171 
 RUS  HZ I         627 36.23         1.9 0.22            139           89.6 171 
 PAM  EZ EP   4    627 12.49                             147   -4.31 0 91.1  38 
 PAM  EN ES        627 35.45                             147    0.4210 91.1  38 
 PTB  HZ EP        627 19.59                             135   -0.25 9  139 263 
 PTB  HN ES        627 40.63                             135    0.19 9  139 263 
 PTB  HZ I         627 46.26         2.5 0.22            128            139 263 
 TAM  HZ EP   4    627 20.31                             130   -1.42 0  159 100 
 TAM  HN ES   4    627 47.07                             130    3.27 0  159 100 
 TAM  HZ I         627 49.93         9.1 0.15            123            159 100 
 CHI  HZ EP        627 30.54                             119    0.69 8  235 194 
 CHI  HZ I         627 50.99         2.3 0.22            112            235 194 
                                                                                
