 2013  624 0911 20.6 L   6.741 -73.166149.1  RSN  5 0.3 1.3LRSN                1
 GAP=191        0.64       6.6     5.0  5.0 -0.3173E+01  0.5220E+01 -0.1685E+01E
 Epicentro: VILLANUEVA - SANTANDER                                             3
 ACTION:UPD 14-01-08 09:56 OP:ep   STATUS:               ID:20130624091120 L   I
 OLDACT:REG 13-06-24 07:24 OP:jn   STATUS:               ID:20130624090959     3
 2013-06-24-0909-59M.COL___267                                                 6
 STAT SP IPHASW D HRMM SECON CODA AMPLIT PERI AZIMU VELO AIN AR TRES W  DIS CAZ7
 BAR2 SZ EP        911 40.78                             174    0.2810 16.5 186 
 BAR2 SZ ES        911 55.81                             174   -0.2110 16.5 186 
 BAR2 SZ I         911 56.86         5.0 0.20            175           16.5 186 
 GIR2 SZ ES   1    911 56.38                             165   -0.24 7 37.5 355 
 BRR  HZ EP        911 42.41                             153    0.2410 72.7 304 
 BRR  HN ES        911 59.29                             153    0.2810 72.7 304 
 BRR  HZ I         912  2.04         3.9 0.28            151           72.7 304 
 PTB  HZ EP        911 47.29                             133   -0.23 9  144 261 
 PTB  HN ES        912  8.42                             133   -0.11 9  144 261 
 PTB  HZ I         912 10.18         2.1 0.14            134            144 261 
 SML  HZ EP   1    911 57.50                             117   -0.44 6  249 336 
                                                                                
