 2015 1224 0357 37.2 L   6.806 -73.157139.4  RSN  9 0.5 1.6LRSN                1
 GAP=237        0.93       4.4     4.8  6.4  0.4712E+01  0.8743E+01 -0.4709E+00E
 Epicentro: LOS SANTOS - SANTANDER                                             3
 ACTION:UPD 16-02-04 15:07 OP:cam  STATUS:               ID:20151224035737 L   I
 OLDACT:REG 15-12-24 12:41 OP:dnl  STATUS:               ID:20151224034749     3
 2015-12-24-0347-49M.COL___334                                                 6
 STAT SP IPHASW D HRMM SECON CODA AMPLIT PERI AZIMU VELO AIN AR TRES W  DIS CAZ7
 BAR2 EZ EP        357 55.86                             170   -0.2010 23.8 187 
 BAR2 EZ ES        358 10.60                             170   -0.1810 23.8 187 
 BAR2 EZ I         358 12.32        11.3 0.15            165           23.8 187 
 BRR  HZ EP        357 57.75                             152    0.1810 69.8 299 
 BRR  HN ES   2    358 13.73                             152    0.27 5 69.8 299 
 BRR  HZ I         358 15.67         7.3 0.24            150           69.8 299 
 RUS  HZ EP        358  0.52                             142    0.1410  101 175 
 RUS  HE ES        358 18.72                             142    0.2610  101 175 
 RUS  HZ I         358 19.80         5.5 0.18            141            101 175 
 PTB  HZ EP   2    358  2.70                             131   -0.84 5  147 258 
 PTB  HE ES        358 23.22                             131   -0.87 9  147 258 
 PTB  HZ I         358 25.50         5.0 0.21            129            147 258 
 SPBC HZ EP        358  5.00                             127   -0.18 9  163 218 
 SPBC HN ES        358 27.50                             127    0.49 9  163 218 
 SPBC HZ I         358 34.11         6.0 0.07            126            163 218 
 ZAR  HZ EP        358  8.73                             121   -0.35 9  203 292 
 ZAR  HE ES        358 34.72                             121    0.77 9  203 292 
 ZAR  HZ I         358 39.89         5.5 0.21            121            203 292 
 NOR  HZ EP        358 12.61                             117    0.12 8  234 234 
 NOR  HE ES        358 40.00                             117   -0.02 8  234 234 
 NOR  HZ I         358 45.20         4.2 0.20            117            234 234 
 CHI  HZ EP   2    358 14.17                             116   -0.41 4  249 195 
 CHI  HN ES   2    358 43.81                             116    0.07 4  249 195 
 CHI  HZ I         358 50.23         1.4 0.29            116            249 195 
 GUY2CHZ EP   2    358 21.78                             111    1.34 4  301 235 
 GUY2CHN ES   2    358 53.61                             111   -0.56 4  301 235 
 GUY2CHZ I         359  1.00         2.8 0.27                           301 235 
                                                                                
