 2016  824 0341 11.5 L   6.831 -73.111146.5  RSN 18 0.6 2.0LRSN                1
 GAP=121        1.33       3.7     3.9  6.2 -0.4900E+01  0.3399E+01  0.3376E+01E
 Epicentro: LOS SANTOS - SANTANDER                                             3
 ACTION:UPD 16-10-29 15:38 OP:rebc STATUS:               ID:20160824034111 L   I
 OLDACT:REG 16-08-24 12:25 OP:ak   STATUS:               ID:20160824033727     3
 2016-08-24-0338-00M.COL___377                                                 6
 STAT SP IPHASW D HRMM SECON CODA AMPLIT PERI AZIMU VELO AIN AR TRES W  DIS CAZ7
 BAR2 EZ IP     C  341 31.54                             169    0.2210 27.5 197 
 BAR2 EZ ES        341 46.35                             169   -0.4310 27.5 197 
 BAR2 EZ I         341 52.44        14.3 0.35                          27.5 197 
 PAM  EZ EP        341 34.49                             152    0.9710 72.3  39 
 PAM  EN ES        341 51.53                             152    0.8510 72.3  39 
 PAM  EZ I         341 52.05        15.4 0.18                          72.3  39 
 BRR  HZ IP     C  341 33.31                             152    0.4610 73.1 295 
 BRR  HN ES        341 50.08                             152    0.5810 73.1 295 
 BRR  HZ I         341 55.16        16.3 0.14                          73.1 295 
 RUS  HZ EP        341 35.58                             143    0.0110  104 178 
 RUS  HN ES        341 53.67                             143   -0.6610  104 178 
 RUS  HZ I         341 55.59         9.3 0.26                           104 178 
 PTB  HZ EP        341 38.21                             131   -0.74 9  152 258 
 PTB  HN ES        341 59.62                             131   -0.73 9  152 258 
 PTB  HZ I         342  2.05         8.6 0.24                           152 258 
 OCA  HZ EP   2    341 38.92                             130   -0.70 5  157 352 
 OCA  HN ES        342  1.22                             130   -0.32 9  157 352 
 OCA  HZ I         342  5.61        19.0 0.16                           157 352 
 SPBC HZ EP        341 40.57                             128    0.02 9  168 219 
 SPBC HN ES        342  2.56                             128   -0.64 9  168 219 
 SPBC HZ I         342  9.60         9.3 0.23                           168 219 
 ZAR  HN ES        342  8.91                             122   -0.87 8  206 291 
 ZAR  HZ I         342 15.38        16.4 0.33                           206 291 
 NOR  HZ EP        341 48.00                             118    0.17 8  240 234 
 NOR  HN ES        342 16.06                             118   -0.10 8  240 234 
 NOR  HZ I         342 21.88         8.9 0.28                           240 234 
 CHI  HZ EP        341 48.95                             117   -0.77 8  253 196 
 CHI  HN ES        342 20.25                             117    0.73 8  253 196 
 CHI  HZ I         342 23.22         2.9 0.29                           253 196 
 HEL  HZ EP   2    341 52.66                             114    0.39 4  277 255 
 HEL  HN ES        342 24.88                             114    0.82 7  277 255 
 HEL  HZ I         342 29.92         5.2 0.36                           277 255 
 URE  HZ EP        341 52.53                             113   -0.35 7  286 291 
 URE  HN ES   4    342 28.95                             113    3.80 0  286 291 
 URE  HZ I         342 36.50         7.5 0.40                           286 291 
 SOCV BZ EP        341 54.06                             113    0.04 7  296  57 
 SOCV BN ES        342 26.24                             113   -0.94 7  296  57 
 GUY2CHZ EP        341 55.89                             112    0.16 7  306 235 
 GUY2CHN ES        342 31.15                             112    0.93 7  306 235 
 GUY2CHZ I         342 41.99         6.1 0.80                           306 235 
 ELA  HE ES        342 36.86                             110    0.85 7  334 229 
 CBOC HZ EP        341 59.32                             110    0.32 7  338 252 
 CBOC HN ES        342 35.98                             110   -0.06 7  338 252 
 CBOC HZ I         342 46.78         1.6 0.52                           338 252 
 PRA  HZ EP   2    342  5.70                             106    0.07 3  397 210 
 PRA  HN ES        342 47.48                             106   -0.35 6  397 210 
 PRA  HZ I         342 52.77         3.4 0.42                           397 210 
 SJC  HZ EP   9    342  5.93                             106   -1.09 0  409 326 
 SJC  HN ES        342 48.73                                   -0.49 6  409 326 
 SJC  HZ I         342 57.74         1.6 0.46                           409 326 
                                                                                
