 2011  924 0347  8.7 L   6.825 -73.070139.7  RSN  4 0.2 1.3LRSN                1
 GAP=245        0.53       8.5    13.9  7.2  0.1019E+03 -0.5824E+02 -0.3161E+02E
 Epicentro: LOS SANTOS - SANTANDER                                             3
 ACTION:UPD 12-07-13 15:59 OP:ep   STATUS:               ID:20110924034708 L   I
 2011-09-24-0346-31S.COL___165                                                 6
 STAT SP IPHASW D HRMM SECON CODA AMPLIT PERI AZIMU VELO AIN AR TRES W  DIS CAZ7
 BTL  SZ EP   1    347 28.00                             170    0.42 7 24.1 295 
 BAR2 SZ EP   1    347 27.26                             168   -0.42 7 28.6 206 
 BAR2 SZ ES   1    347 42.45                             168   -0.07 7 28.6 206 
 BAR2 SZ I         347 43.91         7.8 0.25                          28.6 206 
 BRR  HZ EP        347 29.58                             149    0.0510 77.5 294 
 BRR  HE ES        347 45.77                             149   -0.0410 77.5 294 
 BRR  HZ I         347 47.59         4.3 0.27                          77.5 294 
 RUS  HZ EP   1    347 31.91                             142   -0.10 7  103 181 
 RUS  HZ I         347 33.06         2.1 0.13                           103 181 
 RUS  HE ES   1    347 50.39                             142    0.17 7  103 181 
                                                                                
