 2013  524 0513  3.7 L   6.947 -73.095159.2  RSN  6 0.5 1.4LRSN                1
 GAP=134        1.22       8.0     7.9 10.0 -0.4481E+00 -0.4798E+01  0.2453E+01E
 Epicentro: PIEDECUESTA - SANTANDER                                            3
 ACTION:UPD 13-06-20 09:53 OP:ep   STATUS:               ID:20130524051303 L   I
 OLDACT:UP  13-05-27 02:14 OP:CF   STATUS:               ID:20130524051303 L   3
 2013-05-24-0508-51M.COL___202                                                 6
 STAT SP IPHASW D HRMM SECON CODA AMPLIT PERI AZIMU VELO AIN AR TRES W  DIS CAZ7
 GIR2 SZ EP        513 24.63                             173   -0.0810 18.2 323 
 GIR2 SZ ES        513 40.80                             173   -0.3010 18.2 323 
 BAR2 SZ EP   1    513 25.36                             165   -0.01 7 40.4 194 
 PAM  SZ EP        513 26.04                             158   -0.5110 61.6  45 
 PAM  SE ES   4    513 42.48                             158   -1.90 0 61.6  45 
 BRR  HZ EP        513 26.69                             155    0.4210 70.5 285 
 BRR  HN ES   1    513 45.02                             155    1.14 7 70.5 285 
 BRR  HZ I         513 45.51         2.2 0.17            154           70.5 285 
 BRR  HN I         513 47.11        10.8 0.20                          70.5 285 
 RUS  HZ EP        513 30.14                             142    0.2110  117 179 
 RUS  HN ES        513 50.52                             142    0.1310  117 179 
 RUS  HN I         513 51.33         5.9 0.24            142            117 179 
 PTB  HZ EP        513 32.93                             133    0.32 9  157 253 
 PTB  HN ES        513 54.26                             133   -0.90 9  157 253 
 PTB  HN I         513 57.70         1.8 0.12            132            157 253 
                                                                                
