 2017  224 0936 29.8 L   6.776 -73.146135.7  RSN  4 0.2 0.9LRSN                1
 GAP=138        0.53       3.1     3.1  4.5 -0.2993E+01  0.4245E+01 -0.1390E+01E
 Epicentro: LOS SANTOS - SANTANDER                                             3
 ACTION:UPD 17-05-24 15:40 OP:jn   STATUS:               ID:20170224093629 L   I
 OLDACT:REG 17-02-24 12:59 OP:edw  STATUS:               ID:20170224092739     3
 2017-02-24-0928-00M.COL___379                                                 6
 STAT SP IPHASW D HRMM SECON CODA AMPLIT PERI AZIMU VELO AIN AR TRES W  DIS CAZ7
 BAR2 EZ ES        937  2.20                             171   -0.2810 20.7 191 
 PAM  HZ EP     D  936 50.98                             148   -0.1010 79.5  38 
 PAM  EN ES        937  7.87                             148    0.1910 79.5  38 
 RUS  HZ EP        936 52.50                             142    0.1310 97.9 176 
 RUS  HN ES        937 10.04                             142    0.0710 97.9 176 
 RUS  HZ I         937 11.28         1.4 0.24            142           97.9 176 
 PTB  HZ EP        936 55.69                             130   -0.22 9  147 260 
 PTB  HN ES        937 16.48                             130    0.21 9  147 260 
                                                                                
