 2016  324 0057 58.3 L   6.835 -73.164143.8  RSN  6 0.4 1.3LRSN                1
 GAP=133        0.91       4.3     4.2  7.8 -0.2788E+01  0.1108E+02 -0.2948E+01E
 Epicentro: LOS SANTOS - SANTANDER                                             3
 ACTION:UPD 16-05-13 21:26 OP:cam  STATUS:               ID:20160324005758 L   I
 OLDACT:DUP 16-03-24 13:25 OP:ak   STATUS:               ID:20160324004747d    3
 OLDACT:DUP 16-03-24 13:21 OP:ak   STATUS:               ID:20160324004746d    3
 OLDACT:UP  16-03-24 13:20 OP:ak   STATUS:               ID:20160324004745     3
 OLDACT:REG 16-03-24 12:17 OP:ak   STATUS:               ID:20160324004745     3
 2016-03-24-0047-45M.COL___308                                                 6
 STAT SP IPHASW D HRMM SECON CODA AMPLIT PERI AZIMU VELO AIN AR TRES W  DIS CAZ7
 BAR2 EZ EP   2    058 16.81                             169   -0.97 5 26.9 184 
 BAR2 EZ ES        058 32.76                             169   -0.2110 26.9 184 
 BAR2 EZ I         058 34.92         4.5 0.10            170           26.9 184 
 PAM  EZ EP        058 19.96                             151   -0.2710 75.8  43 
 PAM  EN ES        058 37.35                             151    0.0310 75.8  43 
 PAM  EZ I         058 39.88         7.5 0.52            153           75.8  43 
 RUS  HZ EP        058 22.48                             142    0.3210  105 175 
 RUS  HE ES        058 41.32                             142    0.5610  105 175 
 RUS  HZ I         058 42.02         2.6 0.28            145            105 175 
 PTB  HZ EP        058 25.06                             132    0.05 9  147 257 
 PTB  HN ES        058 45.82                             132   -0.01 9  147 257 
 PTB  HZ I         058 48.70         2.4 0.48            134            147 257 
 SPBC HN ES        058 48.48                             128   -0.58 9  165 218 
 ZAR  HN ES        058 55.59                             122    0.36 9  201 291 
                                                                                
