 2016  824 0708 57.3 L   7.434 -73.197126.0  RSN  7 0.3 1.4LRSN                1
 GAP=109        0.87       3.3     3.9  6.3 -0.2075E+01  0.8976E+01  0.4328E+00E
 Epicentro: EL PLAYON - SANTANDER                                              3
 ACTION:UPD 16-10-29 15:38 OP:rebc STATUS:               ID:20160824070857 L   I
 OLDACT:UP  16-08-24 13:21 OP:drio STATUS:               ID:20160824065733     3
 OLDACT:REG 16-08-24 12:33 OP:ak   STATUS:               ID:20160824065733     3
 2016-08-24-0658-00M.COL___365                                                 6
 STAT SP IPHASW D HRMM SECON CODA AMPLIT PERI AZIMU VELO AIN AR TRES W  DIS CAZ7
 PAM  EZ EP        7 9 16.20                             155    0.0710 55.8 101 
 PAM  EN ES        7 9 31.12                             155    0.2710 55.8 101 
 PAM  EZ I         7 9 31.44         4.1 0.22                          55.8 101 
 BRR  HZ EP        7 9 15.87                             150   -0.2010 67.4 238 
 BRR  HN ES        7 9 30.95                             150    0.2110 67.4 238 
 BRR  HZ I         7 9 31.63         7.5 0.12                          67.4 238 
 OCA  HZ EP        7 9 17.49                             142   -0.3510 90.1 351 
 OCA  HN ES        7 9 33.93                             142    0.0410 90.1 351 
 OCA  HZ I         7 9 37.08         7.7 0.28                          90.1 351 
 BAR2 EZ ES        7 9 34.08                             141   -0.4210 93.0 179 
 PTB  HZ EP   4    7 9 23.54                             123   -1.46 0  171 235 
 PTB  HE ES        7 9 46.24                             123   -0.39 9  171 235 
 PTB  HZ I         7 9 48.91         2.3 0.60                           171 235 
 ZAR  HZ EP        7 9 26.03                             121   -0.28 9  184 272 
 ZAR  HN ES        7 9 49.41                             121    0.44 9  184 272 
 ZAR  HZ I         7 9 53.52         3.5 0.36                           184 272 
 SPBC HZ EP        7 9 31.07                             116    0.78 8  220 206 
 SPBC HN ES        7 9 56.10                             116    0.05 8  220 206 
 SPBC HZ I         710  3.04         2.4 0.20                           220 206 
                                                                                
