 2017  824 0206 15.4 L   6.378 -73.604108.7  RSN 10 0.5 1.4LRSN                1
 GAP= 71        0.73       2.8     3.3  6.1  0.1437E+01  0.1013E+02  0.1139E+01E
 Epicentro: SANTA HELENA DEL OPON - SANTANDER                                  3
 ACTION:UPD 17-09-04 20:23 OP:rebc STATUS:               ID:20170824020615 L   I
 OLDACT:UP  17-08-24 14:21 OP:and  STATUS:               ID:20170824015739     3
 OLDACT:UP  17-08-24 14:21 OP:and  STATUS:               ID:20170824015739     3
 OLDACT:UP  17-08-24 14:20 OP:and  STATUS:               ID:20170824015739     3
 OLDACT:UP  17-08-24 14:19 OP:and  STATUS:               ID:20170824015739     3
 OLDACT:UP  17-08-24 14:18 OP:and  STATUS:               ID:20170824015739     3
 OLDACT:REG 17-08-24 12:28 OP:and  STATUS:               ID:20170824015739     3
 2017-08-24-0158-00M.COL___419                                                 6
 STAT SP IPHASW D HRMM SECON CODA AMPLIT PERI AZIMU VELO AIN AR TRES W  DIS CAZ7
 BAR2 EZ ES        2 6 44.99                             152    0.3410 52.3  63 
 BAR2 EZ I         2 6 46.53        25.3 0.56            134           52.3  63 
 RUS  HZ EP        2 6 34.05                             141    0.0910 78.8 133 
 RUS  HN ES        2 6 48.29                             141   -0.1310 78.8 133 
 RUS  HZ I         2 6 49.16         3.4 0.22            121           78.8 133 
 BRR  HZ EP        2 6 33.27                             140   -0.2110 81.5 352 
 BRR  HN ES   3    2 6 49.82                             140    2.25 2 81.5 352 
 SPBC HZ EP        2 6 34.36                             135   -0.4010 95.6 213 
 SPBC HE ES        2 6 49.73                             135   -0.1110 95.6 213 
 SPBC HZ I         2 6 50.74         8.3 0.20            119           95.6 213 
 NOR  HZ EP   3    2 6 43.16                             118    1.48 2  167 237 
 NOR  HN ES   2    2 7  2.24                             118    0.07 5  167 237 
 YPLC HZ EP   3    2 6 43.26                             117    0.79 2  174 129 
 YPLC HN ES   3    2 7  2.11                             117   -1.47 2  174 129 
 YPLC HZ I         2 7  6.91         5.3 0.26            103            174 129 
 ZAR  HZ EP   2    2 6 43.96                             115    0.28 4  185 312 
 ZAR  HN ES        2 7  5.44                             115   -0.29 9  185 312 
 CHI  HZ IP     C  2 6 45.53                             114    0.40 9  194 184 
 CHI  HZ I         2 7  7.30         1.1 0.12            102            194 184 
 CHI  HN ES   2    2 7  8.14                             114   -0.17 4  194 184 
 HEL  HZ EP   2    2 6 47.26                             112   -0.07 4  214 265 
 HEL  HE ES   2    2 7 12.22                             112   -0.01 4  214 265 
 HEL  HZ I         2 7 12.50         3.3 0.42            102            214 265 
 GUY2CHZ EP   2    2 6 50.42                             110    0.78 4  233 237 
 GUY2CHN ES   4    2 7 19.08                             110    2.74 0  233 237 
 GUY2CHZ I         2 7 24.22         1.7 0.48                           233 237 
                                                                                
