 2012 1124 0340 31.1 L   6.782 -73.160145.5  RSN 12 0.3 2.0LRSN                1
 GAP= 71        0.54       1.8     2.2  3.5 -0.8593E-01  0.1199E+01  0.8761E+00E
 Epicentro: LOS SANTOS - SANTANDER                                             3
 ACTION:UPD 12-12-05 15:35 OP:}ep  STATUS:               ID:20121124034031 L   I
 2012-11-24-0340-00M.COL___233                                                 6
 STAT SP IPHASW D HRMM SECON CODA AMPLIT PERI AZIMU VELO AIN AR TRES W  DIS CAZ7
 BAR2 SZ EP   1    340 50.60                             171   -0.03 8 21.1 187 
 BAR2 SZ ES   1    341  6.15                             171    0.27 8 21.1 187 
 GIR2 SZ EP   1    340 50.64                             167   -0.12 8 33.0 354 
 GIR2 SZ ES   1    341  6.40                             167    0.28 8 33.0 354 
 GIR2 SZ I         341  7.77         9.7 0.12                          33.0 354 
 PAM  SZ EP   1    340 53.47                             150    0.06 8 79.9  39 
 PAM  SN ES   1    341 10.68                             150   -0.16 8 79.9  39 
 PAM  SZ I         341 12.77        12.8 0.54                          79.9  39 
 RUS  HZ EP   1    340 54.50                             144   -0.16 8 98.7 175 
 RUS  HN ES   1    341 12.68                             144   -0.39 8 98.7 175 
 RUS  HZ I         341 14.46        18.4 0.26                          98.7 175 
 PTB  HZ EP   1    340 57.35                             132   -0.49 8  146 259 
 PTB  HN ES   1    341 18.39                             132   -0.34 8  146 259 
 PTB  HZ I         341 21.27        12.7 0.11                           146 259 
 TAM  HZ IP     D  340 58.83                             130    0.0110  156 104 
 TAM  HZ I         341 19.72         6.8 0.36                           156 104 
 TAM  HN ES   1    341 20.50                             130    0.03 7  156 104 
 OCA  HZ EP   1    341  0.14                             129    0.61 7  162 354 
 OCA  HN ES   1    341 21.70                             129   -0.03 7  162 354 
 OCA  HZ I         341 23.92        10.8 0.26                           162 354 
 ZAR  HN ES   1    341 28.85                             122    0.18 7  203 293 
 ZAR  HZ I         341 33.91        10.1 0.40                           203 293 
 NOR  HN ES   1    341 34.52                             119    0.34 7  232 235 
 NOR  HZ I         341 39.21        10.6 0.20                           232 235 
 SML  HZ EP   1    341  7.26                             117   -0.54 6  245 336 
 SML  HN ES   1    341 36.45                             117   -0.01 6  245 336 
 CHI  HZ EP     C  341  8.71                             117    0.21 9  246 195 
 CHI  HN ES   1    341 37.77                             117    0.07 6  246 195 
 CHI  HZ I         341 43.76         4.9 0.34                           246 195 
 PRA  HZ EP   1    341 24.36                             107    0.07 5  390 210 
 PRA  HN ES   1    342  6.18                             107    0.38 5  390 210 
 PRA  HZ I         342 12.75         6.7 0.42                           390 210 
                                                                                
