 2013  824 0947  3.8 L   6.811 -73.143144.6  RSN 15 0.4 2.1LRSN                1
 GAP=136        1.01       2.7     3.9  5.0 -0.1062E+01  0.4888E+01  0.2298E+00E
 Epicentro: LOS SANTOS - SANTANDER                                             3
 ACTION:UPD 14-01-14 09:06 OP:ep   STATUS:               ID:20130824094703 L   I
 OLDACT:REG 13-08-24 07:46 OP:nd   STATUS:               ID:20130824093959     3
 2013-08-24-0939-59M.COL___270                                                 6
 STAT SP IPHASW D HRMM SECON CODA AMPLIT PERI AZIMU VELO AIN AR TRES W  DIS CAZ7
 BAR2 SZ IP     D  947 23.50                             170    0.1610 24.6 190 
 BAR2 SZ ES        947 38.07                             170   -0.4910 24.6 190 
 BAR2 SZ I         947 39.94        38.5 0.16            170           24.6 190 
 BRR  HZ EP     C  947 25.28                             152    0.4510 70.9 298 
 BRR  HN ES        947 41.67                             152    0.4510 70.9 298 
 BRR  HZ I         947 45.33        20.6 0.39            148           70.9 298 
 PAM  SZ IP     C  947 26.43                             151    0.5810 76.3  40 
 PAM  SN ES        947 43.05                             151    0.0210 76.3  40 
 PAM  SZ I         947 45.45        23.4 0.46            152           76.3  40 
 RUS  HZ IP     C  947 27.50                             143   -0.0510  102 176 
 RUS  HN ES        947 45.89                             143   -0.1610  102 176 
 RUS  HZ I         947 47.66         9.3 0.54            145            102 176 
 PTB  HZ EP        947 30.20                             132   -0.55 9  148 258 
 PTB  HN ES        947 51.23                             132   -0.52 9  148 258 
 PTB  HZ I         947 58.49        17.5 0.44            130            148 258 
 SPBC HZ IP     C  947 32.49                             129    0.14 9  164 219 
 SPBC HN ES        947 54.88                             129    0.29 9  164 219 
 SPBC HZ I         948  0.73        18.8 0.26            128            164 219 
 ZAR  HZ EP        947 35.02                             122   -1.16 9  204 292 
 ZAR  HN ES        948  1.86                             122    0.44 9  204 292 
 ZAR  HZ I         948  7.64        15.1 0.38            121            204 292 
 NOR  HZ IP     C  947 39.91                             118    0.32 8  236 234 
 NOR  HN ES        948  7.68                             118    0.19 8  236 234 
 NOR  HZ I         948 13.18         8.6 0.22            118            236 234 
 SML  HZ EP        947 39.69                             117   -0.60 8  243 335 
 SML  HN ES        948  8.68                             117   -0.04 8  243 335 
 SML  HZ I         948 14.66        16.8 0.10            116            243 335 
 CHI  HZ EP        947 41.88                             117    0.28 8  250 195 
 CHI  HN ES        948 10.48                             117   -0.58 8  250 195 
 CHI  HZ I         948 16.28         5.5 0.34            117            250 195 
 ROSC BZ EP   4    947 43.97                             116    1.95 0  254 211 
 ROSC BN ES   4    948 13.58                             116    1.78 0  254 211 
 HEL  HZ EP   2    947 44.21                             114    0.16 4  273 256 
 HEL  HN ES   2    948 15.87                             114    0.45 4  273 256 
 HEL  HZ I         948 22.66         7.1 0.50            114            273 256 
 GUY2CHZ EP   4    947 48.04                             112    0.55 0  302 235 
 GUY2CHN ES   4    948 23.48                             112    1.93 0  302 235 
 GUY2CHZ I         948 32.49         5.2 0.48                           302 235 
 COD  HZ EP   1    947 51.80                             109   -0.23 5  347 355 
 COD  HN ES   1    948 29.94                             109    0.32 5  347 355 
 COD  HZ I         948 50.82         2.4 0.48            109            347 355 
 PRA  HZ EP        947 57.76                             106    0.31 6  393 210 
 PRA  HN ES        948 39.78                             106    0.51 6  393 210 
 PRA  HZ I         948 45.83         8.3 0.30            106            393 210 
 SJC  HZ EP   4    947 57.82                             105   -1.44 0  408 327 
 SJC  HN ES   4    948 40.56                             105   -1.93 0  408 327 
 SJC  HZ I         948 43.19         3.0 0.32            105            408 327 
                                                                                
