 2017 1024 0741 55.4 L   6.846 -73.343126.0  RSN  6 0.5 1.0LRSN                1
 GAP=107        0.80       6.8     4.8  6.5 -0.9888E+01  0.6030E+01  0.6674E+00E
 Epicentro: SAN VICENTE DE CHUCURI - SANTANDER                                 3
 ACTION:UPD 17-11-07 19:36 OP:rebc STATUS:               ID:20171024074155 L   I
 OLDACT:UP  17-10-24 16:12 OP:dani STATUS:               ID:20171024073740     3
 OLDACT:REG 17-10-24 13:10 OP:dani STATUS:               ID:20171024073740     3
 2017-10-24-0738-00M.COL___431                                                 6
 STAT SP IPHASW D HRMM SECON CODA AMPLIT PERI AZIMU VELO AIN AR TRES W  DIS CAZ7
 BAR2 EZ EP        742 13.14                             164    0.1610 33.3 148 
 BAR2 EZ ES        742 26.68                             164    0.0210 33.3 148 
 BAR2 EZ I         742 27.45         3.6 0.07            174           33.3 148 
 BRR  HZ EP        742 13.40                             157    0.1010 49.9 305 
 BRR  HE ES        742 27.46                             157    0.2310 49.9 305 
 BRR  HZ I         742 32.96         6.6 0.26            152           49.9 305 
 PAM  EZ EP        742 16.72                             143    0.2610 89.6  52 
 PAM  EE ES        742 32.49                             143   -0.3610 89.6  52 
 PAM  EZ I         742 35.20         1.6 0.42            147           89.6  52 
 PTB  HZ EP        742 18.47                             132   -0.5010  128 255 
 PTB  HN ES   3    742 35.69                             132   -1.64 2  128 255 
 PTB  HZ I         742 42.15         0.7 0.21            133            128 255 
 SPBC HE ES   3    742 43.55                             126    1.44 2  155 211 
 ZAR  HN ES   3    742 48.06                             121    1.21 2  182 293 
                                                                                
