 2012  424 0147 28.2 L   6.754 -73.160141.8  RSN  7 0.3 1.5LRSN                1
 GAP=137        0.78       4.2     4.2  7.1 -0.1524E+00  0.8634E+01  0.1175E+01E
 Epicentro: LOS SANTOS - SANTANDER                                             3
 ACTION:UPD 12-07-05 11:55 OP:tino STATUS:               ID:20120424014728 L   I
 2012-04-24-0140-00M.COL___186                                                 6
 STAT SP IPHASW D HRMM SECON CODA AMPLIT PERI AZIMU VELO AIN AR TRES W  DIS CAZ7
 BAR2 SZ EP   1    147 47.58                             172     0.4 7   18 188 
 BAR2 SZ ES   1    148  1.90                             172    -0.2 7   18 188 
 BAR2 SZ I         148  4.29        10.0 0.20                            18 188 
 BRR  HZ EP   1    147 49.15                             151     0.2 7   72 303 
 BRR  HZ I         147 59.23         8.4 0.34                            72 303 
 BRR  HN ES   1    148  5.89                             151     0.7 7   72 303 
 PAM  SZ EP   1    147 49.89                             148    -0.4 7   82  38 
 PAM  SN ES   1    148  7.31                             148    -0.2 7   82  38 
 RUS  HZ EP   1    147 51.47                             144     0.3 7   96 175 
 RUS  HN ES        148  8.96                             144    -0.210   96 175 
 RUS  HZ I         148 11.54         3.1 0.30                            96 175 
 PTB  HN ES   1    148 14.70                             132    -0.5 7  145 261 
 ZAR  HN ES   1    148 25.19                             121    -0.4 6  205 294 
 NOR  SZ EP   1    148  3.16                             118     0.0 6  230 235 
 NOR  SN ES   1    148 30.73                             118     0.2 6  230 235 
                                                                                
