 2014 1124 0146 48.0 L   7.220 -74.012 79.3  RSN  5 0.3 1.2LRSN                1
 GAP=106        0.70       2.5     2.4  5.5  0.2550E+00  0.4427E-01  0.9708E+00E
 Epicentro: PUERTO WILCHES - SANTANDER                                         3
 ACTION:UPD 14-12-19 15:46 OP:nd   STATUS:               ID:20141124014648 L   I
 OLDACT:UP  14-11-24 18:18 OP:mh   STATUS:               ID:20141124013752d    3
 OLDACT:DUP 14-11-24 18:18 OP:mh   STATUS:               ID:20141124013752d    3
 OLDACT:UP  14-11-24 17:45 OP:mh   STATUS:               ID:20141124013750     3
 OLDACT:REG 14-11-24 11:10 OP:mh   STATUS:               ID:20141124013750     3
 2014-11-24-0137-50M.COL___297                                                 6
 STAT SP IPHASW D HRMM SECON CODA AMPLIT PERI AZIMU VELO AIN AR TRES W  DIS CAZ7
 BRR  HZ EP        146 59.78                             154   -0.1210 35.4 111 
 BRR  HN ES        147  9.23                             154    0.0410 35.4 111 
 PTB  HZ EP        147  4.02                             127   -0.2810 89.8 213 
 PTB  HN ES        147 16.73                             127   -0.3010 89.8 213 
 PTB  HZ I         147 17.91         4.1 0.20            128           89.8 213 
 ZAR  HZ EP        147  5.08                             124   -0.0510 98.1 288 
 ZAR  HN ES        147 18.94                             124    0.4510 98.1 288 
 ZAR  HZ I         147 21.59         4.6 0.60            124           98.1 288 
 OCA  HN ES        147 25.97                             115   -0.16 9  136  34 
 RUS  HZ EP        147 14.85                             109    0.07 9  179 145 
 RUS  HN ES        147 36.12                             109    0.45 9  179 145 
                                                                                
