 2013  624 0125 20.5 L   6.827 -73.161140.1  RSN 14 0.5 2.6LRSN                1
 GAP=133        1.10       3.1     4.2  6.4 -0.3187E+01  0.1202E+02  0.1137E+00E
 Epicentro: LOS SANTOS - SANTANDER                                             3
 ACTION:UPD 14-01-08 09:56 OP:ep   STATUS:               ID:20130624012520 L   I
 OLDACT:REG 13-06-24 06:52 OP:jn   STATUS:               ID:20130624011959     3
 2013-06-24-0119-59M.COL___267                                                 6
 STAT SP IPHASW D HRMM SECON CODA AMPLIT PERI AZIMU VELO AIN AR TRES W  DIS CAZ7
 BAR2 SZ EP        125 39.44                             169   -0.0810 26.1 185 
 BAR2 SZ ES        125 54.24                             169   -0.1110 26.1 185 
 BAR2 SZ I         125 55.84        50.3 0.18            170           26.1 185 
 GIR2 SZ EP        125 39.56                             168    0.1310 28.0 353 
 BRR  HZ IP     C  125 41.31                             153    0.4210 68.3 297 
 BRR  HN ES   4    125 58.07                             153    1.29 0 68.3 297 
 BRR  HZ I         126  2.12        57.9 0.20            151           68.3 297 
 PAM  SZ EP        125 42.41                             150    0.3510 76.2  42 
 PAM  SN ES        125 59.16                             150    0.2910 76.2  42 
 PAM  SZ I         126  1.52        39.8 0.38            154           76.2  42 
 RUS  HZ EP        125 43.87                             142   -0.0810  104 175 
 RUS  HN ES        126  2.22                             142   -0.0010  104 175 
 RUS  HZ I         126  3.64        16.2 0.28            146            104 175 
 PTB  HZ EP        125 46.43                             131   -0.50 9  147 258 
 PTB  HN ES        126  7.26                             131   -0.27 9  147 258 
 PTB  HZ I         126  9.82        40.8 0.20            132            147 258 
 OCA  HZ EP   1    125 47.26                             129   -0.83 7  157 354 
 OCA  HN ES        126  8.94                             129   -0.65 9  157 354 
 OCA  HZ I         126 15.05        41.3 0.50            131            157 354 
 ZAR  HZ EP        125 52.39                             121    0.08 9  201 292 
 ZAR  HE ES        126 17.91                             121    0.80 9  201 292 
 ZAR  HZ I         126 26.75        37.4 0.34            123            201 292 
 NOR  HZ EP     D  125 55.81                             117   -0.15 8  235 234 
 NOR  HN ES        126 22.87                             117   -0.74 8  235 234 
 NOR  HZ I         126 25.60        27.3 0.16            119            235 234 
 SML  HZ EP        125 55.82                             117   -0.63 8  240 335 
 SML  HN ES   1    126 25.46                             117    0.98 6  240 335 
 ROSC BN ES   4    126 27.67                             115   -0.49 0  254 210 
 HEL  HE ES        126 31.01                             114   -0.40 8  271 255 
 GUY2CHZ EP        126  4.90                             111    1.00 7  302 234 
 GUY2CHN ES        126 38.11                             111    0.36 7  302 234 
 GUY2CHZ I         126 43.93        16.8 0.52                           302 234 
 PRA  HZ EP   1    126 14.20                             105    0.15 4  394 209 
 PRA  HE ES        126 55.33                             105   -0.48 6  394 209 
 PRA  HZ I         127  2.23        12.9 0.22            108            394 209 
 ORTC HZ EP        126 14.31                             105   -0.10 6  397 216 
 ORTC HN ES        126 57.59                             105    1.14 6  397 216 
 ORTC HZ I         127  4.40       130.5 0.14            107            397 216 
                                                                                
