 2017 1224 0135 19.3 L   6.829 -73.134139.2  RSN 11 0.6 2.1LRSN                1
 GAP= 66        1.15       3.6     3.2  6.7 -0.3172E-02  0.5719E+01  0.4126E+01E
 Epicentro: LOS SANTOS - SANTANDER                                             3
 ACTION:UPD 18-01-04 13:23 OP:rebc STATUS:               ID:20171224013519 L   I
 OLDACT:UP  17-12-24 13:31 OP:dani STATUS:               ID:20171224012747d    3
 OLDACT:UP  17-12-24 13:30 OP:dani STATUS:               ID:20171224012747d    3
 OLDACT:DUP 17-12-24 13:28 OP:dani STATUS:               ID:20171224012747d    3
 2017-12-24-0128-00M.COL___469                                                 6
 STAT SP IPHASW D HRMM SECON CODA AMPLIT PERI AZIMU VELO AIN AR TRES W  DIS CAZ7
 BAR2 EZ EP        135 37.98                             169   -0.2610 26.7 191 
 BAR2 EZ ES        135 52.89                             169   -0.1110 26.7 191 
 BAR2 EZ I         135 54.39        29.8 0.22            168           26.7 191 
 PAM  EZ EP     D  135 40.87                             151    0.2210 74.1  40 
 PAM  EN ES        135 57.83                             151    0.5510 74.1  40 
 PAM  EZ I         136  0.19        18.0 0.44            153           74.1  40 
 PTB  HZ EP        135 45.31                             130   -0.63 9  150 258 
 PTB  HN ES        136  6.38                             130   -0.32 9  150 258 
 PTB  HZ I         136  8.24        11.6 0.16            130            150 258 
 TAM  HZ EP     D  135 46.40                             129   -0.06 9  155 106 
 TAM  HN ES        136  7.57                             129   -0.05 9  155 106 
 OCA  HZ EP        135 46.24                             129   -0.60 9  157 353 
 OCA  HN ES        136  8.50                             129    0.19 9  157 353 
 OCA  HZ I         136 12.44        49.3 0.16            130            157 353 
 SPBC HZ EP        135 47.01                             127   -0.64 9  166 219 
 SPBC HN ES        136  9.26                             127   -0.48 9  166 219 
 SPBC HZ I         136 11.24        18.6 0.72            127            166 219 
 YPLC HZ EP     C  135 48.54                             125   -0.33 9  179 152 
 YPLC HN ES        136 12.29                             125    0.37 9  179 152 
 YPLC HZ I         136 15.19        15.0 0.26            126            179 152 
 ZAR  HZ EP        135 51.41                             121    0.06 9  204 291 
 ZAR  HN ES        136 16.49                             121    0.16 9  204 291 
 ZAR  HZ I         136 21.59        13.4 0.34            121            204 291 
 ROSC BZ EP        135 58.55                             115    1.08 8  256 211 
 ROSC BN ES   3    136 30.46                             115    3.24 2  256 211 
 ROSC BZ I         136 34.94        13.9 0.27            116            256 211 
 GUY2CHZ EP        136  3.70                             111    0.73 7  304 234 
 GUY2CHN ES        136 37.15                             111    0.14 7  304 234 
 GUY2CHZ I         136 47.17         4.5 0.54                           304 234 
 CBOC HZ EP   1    136  6.28                             108    0.05 5  336 252 
 CBOC HN ES   1    136 44.26                             108    1.45 5  336 252 
 CBOC HZ I         136 51.64         2.3 0.30            109            336 252 
                                                                                
