 2011 1024 0510 45.2 L   6.711 -73.114142.0  RSN  7 0.4 2.3LRSN                1
 GAP=176        0.79       5.5     5.8  6.4 -0.2872E+00  0.7165E+01  0.2889E+01E
 Epicentro: JORDAN - SANTANDER                                                 3
 ACTION:UPD 12-07-13 16:05 OP:ep   STATUS:               ID:20111024051044 L   I
 2011-10-24-0500-00M.COL___175                                                 6
 STAT SP IPHASW D HRMM SECON CODA AMPLIT PERI AZIMU VELO AIN AR TRES W  DIS CAZ7
 BAR2 SZ EP        511  4.27                             174    0.0810 15.2 210 
 BAR2 SZ ES   1    511 19.25                             174    0.21 7 15.2 210 
 BAR2 SZ I         511 21.99        30.7 0.27                          15.2 210 
 GIR2 SZ EP   1    511  4.39                             163   -0.32 7 41.6 348 
 GIR2 SZ ES   1    511 20.35                             163    0.39 7 41.6 348 
 BRR  HZ IP     C  511  6.17                             149   -0.2110 79.2 304 
 BRR  HZ I         511  6.46        27.5 0.18                          79.2 304 
 BRR  HN ES   1    511 23.22                             149    0.28 7 79.2 304 
 PAM  SZ EP   1    511  6.94                             148   -0.39 7 83.2  33 
 PAM  SN ES   1    511 24.12                             148   -0.51 7 83.2  33 
 OCA  SZ EP   1    511 14.90                             127    0.75 7  170 352 
 OCA  SZ ES   1    511 37.10                             127    0.33 7  170 352 
 OCA  SZ I         511 41.44        17.9 0.49                           170 352 
 ZAR  HZ EP   2    511 18.48                             121    0.39 4  211 294 
 ZAR  HN ES   1    511 43.03                             121   -0.76 6  211 294 
 ZAR  HZ I         511 48.99        11.5 0.26                           211 294 
 PRA  HZ EP   1    511 38.06                             106    0.30 4  385 211 
 PRA  HZ I         512 25.99        14.1 0.18                           385 211 
                                                                                
