 2016  724 0335 45.9 L   6.717 -73.106142.7  RSN  4 0.3 1.0LRSN                1
 GAP=171        0.70       5.2     8.0  5.8 -0.3128E+02  0.1191E+02 -0.3398E+01E
 Epicentro: JORDAN - SANTANDER                                                 3
 ACTION:UPD 17-03-29 16:54 OP:lp   STATUS:               ID:20160724033545 L   I
 OLDACT:UP  16-07-24 16:27 OP:ar   STATUS:               ID:20160724032759     3
 OLDACT:REG 16-07-24 13:52 OP:ar   STATUS:               ID:20160724032759     3
 2016-07-24-0327-59S.COL___337                                                 6
 STAT SP IPHASW D HRMM SECON CODA AMPLIT PERI AZIMU VELO AIN AR TRES W  DIS CAZ7
 BAR2 EZ EP        336  5.05                             173   -0.0010 16.2 211 
 BAR2 EZ ES        336 20.28                             173    0.3010 16.2 211 
 PAM  EZ EP        336  8.34                             149    0.2410 82.2  33 
 PAM  EN ES        336 25.08                             149   -0.3210 82.2  33 
 RUS  HZ EP        336  8.42                             146   -0.2810 91.2 178 
 RUS  HN ES        336 26.58                             146    0.1010 91.2 178 
 RUS  HZ I         336 29.78         1.0 0.28            144           91.2 178 
 SPBC HZ EP        336 14.08                             129    0.29 9  159 222 
 SPBC HN ES        336 35.20                             129   -0.33 9  159 222 
 SPBC HZ I         336 38.30         1.9 0.12            129            159 222 
                                                                                
