 2014  524 0245 36.7 L   6.837 -73.128147.3  RSN  4 0.1 1.6LRSN                1
 GAP=203        0.39       2.6     3.0  6.1  0.3827E+01 -0.3887E+01 -0.9684E+01E
 Epicentro: LOS SANTOS - SANTANDER                                             3
 ACTION:UPD 15-03-16 17:00 OP:nd   STATUS:               ID:20140524024536 L   I
 OLDACT:UP  14-05-24 13:22 OP:cam  STATUS:               ID:20140524024000     3
 OLDACT:REG 14-05-24 12:45 OP:ca   STATUS:               ID:20140524024000     3
 2014-05-24-0240-00M.COL___276                                                 6
 STAT SP IPHASW D HRMM SECON CODA AMPLIT PERI AZIMU VELO AIN AR TRES W  DIS CAZ7
 RUS  HZ EP   1    246  1.06                             143    0.16 7  105 177 
 RUS  HN ES        246 19.72                             143   -0.0510  105 177 
 RUS  HZ I         246 21.48         2.9 0.24            148            105 177 
 PTB  HZ EP        246  3.85                             132   -0.20 9  151 257 
 PTB  HN ES        246 25.49                             132    0.11 9  151 257 
 PTB  HZ I         246 27.08         5.2 0.14            135            151 257 
 ZAR  HN ES        246 34.71                             123    0.01 9  204 291 
 ZAR  HZ I         246 40.37         4.2 0.28            125            204 291 
 SML  HZ EP   1    246 13.34                             118    0.23 6  241 334 
 SML  HE ES        246 41.43                             118   -0.08 8  241 334 
 SML  HZ I         246 44.63         3.5 0.10            121            241 334 
                                                                                
