 2017 1124 0437 52.5 L   6.618 -74.084 12.5  RSN  7 0.6 1.1LRSN                1
 GAP=164        1.49       5.1     2.9  6.4 -0.2777E+01  0.1945E+01 -0.1050E+02E
 Epicentro: PUERTO PARRA - SANTANDER                                           3
 ACTION:UPD 17-12-12 19:59 OP:rebc STATUS:               ID:20171124043752 L   I
 OLDACT:REG 17-11-24 12:55 OP:osc  STATUS:               ID:20171124043737     3
 2017-11-24-0438-00M.COL___483                                                 6
 STAT SP IPHASW D HRMM SECON CODA AMPLIT PERI AZIMU VELO AIN AR TRES W  DIS CAZ7
 PTB  HZ EP     D  437 59.43                             103   -0.2210 42.1 258 
 PTB  HE ES        438  5.26                             103    0.0410 42.1 258 
 PTB  HZ I         438  5.45         7.6 0.14            102           42.1 258 
 BAR2 EZ EP        438  7.93                              95   -0.5910 99.7  92 
 SPBC HN ES        438 23.48                              95    0.8310  107 179 
 RUS  HZ EP        438 14.80                              94    0.42 9  137 126 
 RUS  HN ES        438 30.48                              94   -0.95 9  137 126 
 RUS  HZ I         438 35.32         3.4 0.16             93            137 126 
 HEL  HZ EP        438 18.27                              56   -0.06 9  167 254 
 HEL  HE ES        438 38.05                              56   -0.41 9  167 254 
 HEL  HZ I         438 39.50         3.0 0.32             56            167 254 
 PAM  EZ EP        438 19.66                              56    0.47 9  172  62 
 PAM  EE ES        438 40.37                              56    0.37 9  172  62 
 PAM  EZ I         438 41.95         5.2 0.22             56            172  62 
 GUY2CHZ EP        438 24.85                              56    1.04 8  210 223 
 GUY2CHN ES        438 47.38                              56   -0.83 8  210 223 
 GUY2CHZ I         438 50.99         1.3 0.26                           210 223 
                                                                                
