 2014  524 0758 49.4 L   6.342 -73.473128.0  RSN  4 0.4 1.2LRSN                1
 GAP=142        0.83       7.2     5.0  8.6  0.1041E+02  0.1281E+02  0.2232E+02E
 Epicentro: CONTRATACION - SANTANDER                                           3
 ACTION:UPD 15-03-16 17:00 OP:nd   STATUS:               ID:20140524075849 L   I
 OLDACT:UP  14-05-24 14:53 OP:cam  STATUS:               ID:20140524075643     3
 OLDACT:REG 14-05-24 14:39 OP:cam  STATUS:               ID:20140524075643     3
 2014-05-24-0756-43M.COL___243                                                 6
 STAT SP IPHASW D HRMM SECON CODA AMPLIT PERI AZIMU VELO AIN AR TRES W  DIS CAZ7
 BAR2 SZ EP        759  7.08                             161   -0.4610 42.4  49 
 BAR2 SZ ES        759 21.56                             161   -0.1010 42.4  49 
 BAR2 SZ I         759 22.52        11.9 0.42            166           42.4  49 
 RUS  HZ EP   1    759  9.91                             152    0.84 7 65.8 139 
 RUS  HN ES   2    759 24.28                             152   -0.11 5 65.8 139 
 RUS  HZ I         759 25.44         1.5 0.20            153           65.8 139 
 BRR  HZ EP   1    759  9.85                             143   -0.03 7 88.6 343 
 BRR  HE ES        759 26.14                             143    0.3210 88.6 343 
 PTB  HZ EP        759 11.47                             137   -0.2010  111 281 
 PTB  HN ES        759 29.01                             137    0.0010  111 281 
 PTB  HZ I         759 32.05         2.6 0.12            137            111 281 
                                                                                
