 2016  224 0545 26.9 L   6.778 -73.147148.2  RSN 10 0.4 1.6LRSN                1
 GAP=137        1.08       4.2     4.6  6.7 -0.1722E+01  0.6473E+01  0.6139E+01E
 Epicentro: LOS SANTOS - SANTANDER                                             3
 ACTION:UPD 16-03-04 21:29 OP:rebc STATUS:               ID:20160224054526 L   I
 OLDACT:UP  16-02-24 18:56 OP:mh   STATUS:               ID:20160224053749d    3
 OLDACT:UP  16-02-24 18:55 OP:mh   STATUS:               ID:20160224053749d    3
 OLDACT:UP  16-02-24 18:51 OP:mh   STATUS:               ID:20160224053749d    3
 OLDACT:DUP 16-02-24 18:47 OP:mh   STATUS:               ID:20160224053749d    3
 OLDACT:REG 16-02-24 13:03 OP:mh   STATUS:               ID:20160224053748     3
 2016-02-24-0537-48M.COL___333                                                 6
 STAT SP IPHASW D HRMM SECON CODA AMPLIT PERI AZIMU VELO AIN AR TRES W  DIS CAZ7
 BAR2 EZ EP   1    545 46.85                             172    0.06 7 20.9 191 
 BAR2 EZ ES        546  1.71                             172   -0.5810 20.9 191 
 BAR2 EZ I         546  4.73         8.2 0.25            170           20.9 191 
 BRR  HZ EP        545 48.69                             153    0.3010 72.3 300 
 BRR  HN ES        546  6.13                             153    1.0010 72.3 300 
 BRR  HZ I         546  9.44         4.1 0.12            152           72.3 300 
 PAM  EZ EP        545 49.55                             151    0.0410 79.4  38 
 PAM  EE ES        546  6.57                             151   -0.5610 79.4  38 
 PAM  EZ I         546  9.12         7.8 0.62            155           79.4  38 
 RUS  HZ EP   1    545 51.09                             145    0.36 7 98.1 176 
 RUS  HN ES        546  9.62                             145    0.3110 98.1 176 
 RUS  HZ I         546 10.87         4.1 0.44            146           98.1 176 
 PTB  HZ EP   1    545 53.69                             133   -0.33 7  147 260 
 PTB  HN ES        546 14.71                             133   -0.46 9  147 260 
 PTB  HZ I         546 16.54         4.7 0.46            133            147 260 
 SPBC HZ EP   1    545 55.49                             130    0.08 7  161 220 
 SPBC HN ES        546 17.73                             130    0.09 9  161 220 
 SPBC HZ I         546 20.25        11.8 0.36            130            161 220 
 OCA  HN ES   4    546 10.96                             130   -7.09 0  163 353 
 ZAR  HN ES        546 25.13                             123    0.03 9  205 293 
 ZAR  HZ I         546 32.94         4.4 0.40            124            205 293 
 NOR  HZ EP        546  1.97                             119   -0.65 8  233 235 
 NOR  HN ES   1    546 29.92                             119   -0.55 6  233 235 
 NOR  HZ I         546 36.15         4.4 0.44            120            233 235 
 CHI  HZ EP        546  4.83                             118    0.35 8  246 195 
 CHI  HN ES   1    546 34.02                             118    0.23 6  246 195 
 CHI  HZ I         546 39.97         1.7 0.38            119            246 195 
 SJC  HZ EP   4    546 20.80                             106   -1.99 0  411 327 
 SJC  HN ES   4    547  3.83                             106   -2.54 0  411 327 
 SJC  HZ I         547  4.85         1.3 0.58            107            411 327 
                                                                                
