 2010 1024 0737 48.8 L   6.441 -73.494131.8  RSN 11 0.3 1.7LRSN                1
 GAP= 79        0.71       3.1     4.2  5.6 -0.2011E+01  0.6592E+01  0.1481E+01E
 Epicentro: CHIMA - SANTANDER                                                  3
 ACTION:UP  11-02-18 11:11 OP:tino STATUS:               ID:20101024073748 L   I
 2010-10-24-0735-11S.COL___125                                                 6
 STAT SP IPHASW D HRMM SECON CODA AMPLIT PERI AZIMU VELO SNR AR TRES W  DIS CAZ7
 BAR2 SZ EP        738  7.33                             163     0.110   38  64 
 BAR2 SZ ES   1    738 21.47                             163    -0.1 7   38  64 
 BAR2 SZ I         738 23.28        56.7 0.48                            38  64 
 RUS  HZ EP   1    738  9.38                             149    -0.1 7   76 143 
 RUS  HN ES   1    738 25.46                             149    -0.1 7   76 143 
 RUS  HZ I         738 27.25        11.4 0.25                            76 143 
 BRR  HZ EP        738  8.76                             148    -0.110   78 342 
 BRR  HN ES   1    738 24.90                             148     0.4 7   78 342 
 BRR  HZ I         738 29.80        15.1 0.13                            78 342 
 YOP  SZ EP   1    738 17.16                             125     0.3 7  169 135 
 GRA  SZ EP   1    738 17.82                             123     0.1 7  177  25 
 GRA  SZ I         738 44.65         4.4 0.99                           177  25 
 NOR  SZ EP   1    738 17.58                             123    -0.4 7  181 238 
 NOR  SN ES   1    738 40.34                             123    -0.4 7  181 238 
 NOR  SZ I         738 43.74         1.6 0.48                           181 238 
 OCA  SZ EP   1    738 19.73                             120    -0.4 6  200   6 
 OCA  SZ I         738 47.17         5.7 0.59                           200   6 
 CHI  HZ EP   1    738 21.14                             120     0.4 6  202 188 
 CHI  HZ I         738 22.35         3.1 0.28                           202 188 
 CHI  HN ES   1    738 45.28                             120    -0.3 6  202 188 
 HEL  HZ EP   1    738 23.37                             116     0.1 6  227 263 
 HEL  HZ I         738 55.94         2.1 0.26                           227 263 
 RREF HN ES   2    738 59.71                             112     1.0 4  267 230 
 RREF HZ I         739  5.99         3.1 0.04                           267 230 
 PRA  HZ EP   2    738 35.68                             107     0.1 3  339 207 
 PRA  HZ I         739 18.81         6.8 0.19                           339 207 
                                                                                
