 2017 1024 0014 23.2 L   6.784 -73.156143.6  RSN  6 0.3 1.4LRSN                1
 GAP=136        0.75       3.9     3.9  6.1  0.3312E+01  0.8841E+01  0.2661E+01E
 Epicentro: LOS SANTOS - SANTANDER                                             3
 ACTION:UPD 17-11-07 19:35 OP:rebc STATUS:               ID:20171024001423 L   I
 OLDACT:REG 17-10-24 12:25 OP:dani STATUS:               ID:20171024000742     3
 2017-10-24-0008-00M.COL___437                                                 6
 STAT SP IPHASW D HRMM SECON CODA AMPLIT PERI AZIMU VELO AIN AR TRES W  DIS CAZ7
 BAR2 EZ ES   2    014 57.25                             171   -0.40 5 21.4 188 
 BRR  HZ EP        014 44.19                             152    0.0510 71.0 300 
 BRR  HE ES        015  0.69                             152    0.2410 71.0 300 
 BRR  HZ I         015  5.95         9.3 0.39            150           71.0 300 
 PAM  EN ES        015  2.37                             150   -0.2310 79.5  39 
 RUS  HZ EP        014 46.79                             144    0.1410 98.9 175 
 RUS  HN ES        015  5.18                             144    0.2610 98.9 175 
 RUS  HZ I         015  5.85         4.4 0.39            147           98.9 175 
 PTB  HZ EP        014 49.48                             132   -0.41 9  146 259 
 PTB  HN ES        015 10.20                             132   -0.48 9  146 259 
 PTB  HZ I         015 17.26         2.0 0.36            132            146 259 
 ZAR  HZ EP        014 55.62                             122    0.12 9  204 293 
 ZAR  HN ES        015 21.11                             122    0.45 9  204 293 
 ZAR  HZ I         015 26.18         2.6 0.30            123            204 293 
                                                                                
