 2017  824 0351 15.6 L   6.804 -73.117140.0  RSN  8 0.3 1.5LRSN                1
 GAP=140        0.82       3.1     4.1  5.5 -0.2755E+00  0.4403E+01  0.4647E+01E
 Epicentro: LOS SANTOS - SANTANDER                                             3
 ACTION:UPD 17-09-04 20:23 OP:rebc STATUS:               ID:20170824035115 L   I
 OLDACT:UP  17-08-24 14:52 OP:and  STATUS:               ID:20170824034742d    3
 OLDACT:UP  17-08-24 14:50 OP:and  STATUS:               ID:20170824034742d    3
 OLDACT:DUP 17-08-24 14:47 OP:and  STATUS:               ID:20170824034742d    3
 OLDACT:UP  17-08-24 14:47 OP:and  STATUS:               ID:20170824034741     3
 OLDACT:REG 17-08-24 12:46 OP:and  STATUS:               ID:20170824034741     3
 2017-08-24-0348-00M.COL___419                                                 6
 STAT SP IPHASW D HRMM SECON CODA AMPLIT PERI AZIMU VELO AIN AR TRES W  DIS CAZ7
 BAR2 EZ ES        351 48.99                             170   -0.3710 24.5 197 
 BAR2 EZ I         351 50.61         9.7 0.20            169           24.5 197 
 BRR  HZ EP        351 36.30                             151    0.0110 73.8 297 
 BRR  HN ES        351 52.92                             151    0.5010 73.8 297 
 BRR  HZ I         351 53.93         5.6 0.27            149           73.8 297 
 PAM  EZ IP     C  351 37.08                             151    0.0110 75.1  38 
 PAM  EN ES        351 53.91                             151    0.0910 75.1  38 
 PAM  EZ I         351 56.47         3.4 0.52            153           75.1  38 
 RUS  HZ EP        351 38.63                             142   -0.1810  101 178 
 RUS  HN ES        351 56.91                             142   -0.0110  101 178 
 RUS  HZ I         351 58.19         2.8 0.22            144            101 178 
 SPBC HZ EP        351 43.34                             127   -0.55 9  165 220 
 SPBC HN ES        352  5.82                             127   -0.13 9  165 220 
 SPBC HZ I         352 10.19         5.5 0.20            128            165 220 
 ZAR  HN ES        352 13.00                             121   -0.21 8  207 292 
 ZAR  HZ I         352 18.31         3.1 0.28            121            207 292 
 NOR  HZ I         352 20.13         3.4 0.20            118            237 235 
 CHI  HZ EP        351 53.59                             116    0.46 8  250 196 
 CHI  HN IS        352 22.99                             116    0.60 8  250 196 
                                                                                
