 2015  824 0758 17.5 L   6.823 -73.151147.7  RSN 13 0.4 2.1LRSN                1
 GAP=183        1.11       3.5     4.8  6.4 -0.2151E+01  0.7216E+01 -0.1863E+01E
 Epicentro: LOS SANTOS - SANTANDER                                             3
 ACTION:UPD 15-09-15 23:04 OP:cam  STATUS:               ID:20150824075818dL   I
 OLDACT:UP  15-09-01 11:26 OP:ar   STATUS:               ID:20150824075818dL   3
 OLDACT:DUP 15-08-24 19:07 OP:stll STATUS:               ID:20150824074744d    3
 2015-08-24-0747-42M.COL___337                                                 6
 STAT SP IPHASW D HRMM SECON CODA AMPLIT PERI AZIMU VELO AIN AR TRES W  DIS CAZ7
 BAR2 EZ IP     D  758 37.51                             170    0.0610 25.7 188 
 BAR2 EZ I         758 37.60        26.4 0.40            167           25.7 188 
 BAR2 EZ ES        758 52.95                             170   -0.0310 25.7 188 
 BRR  HZ IP     D  758 39.21                             153    0.4010 69.5 297 
 BRR  HN ES        758 56.48                             153    1.0910 69.5 297 
 BRR  HZ I         759  0.02        26.5 0.12            150           69.5 297 
 RUS  HZ EP        758 41.52                             144   -0.1510  103 176 
 RUS  HE ES        759  0.13                             144   -0.3510  103 176 
 RUS  HZ I         759  1.43         8.8 0.30            145            103 176 
 CPBEREZ EP        758 44.45                             132   -0.22 9  148 258 
 CPBEREN ES        759  5.01                             132   -0.81 9  148 258 
 OCA  HZ EP        758 45.44                             131   -0.33 9  158 353 
 OCA  HE ES        759  7.21                             131   -0.57 9  158 353 
 OCA  HZ I         759  8.70        21.4 0.22            132            158 353 
 SPBC HZ EP        758 46.47                             129    0.13 9  165 218 
 SPBC HN ES        759  8.83                             129    0.03 9  165 218 
 SPBC HZ I         759 13.85        15.7 0.18            129            165 218 
 ZAR  HZ EP        758 50.35                             123    0.39 9  203 292 
 ZAR  HE ES        759 15.29                             123    0.04 9  203 292 
 ZAR  HZ I         759 21.19        19.2 0.28            123            203 292 
 NOR  HZ EP        758 54.22                             119    0.73 8  236 234 
 NOR  HE ES   4    759 20.36                             119   -1.17 0  236 234 
 NOR  HZ I         759 25.09         8.4 0.44            119            236 234 
 SML  HZ EP        758 53.91                             118   -0.10 8  241 335 
 HEL  HZ EP   4    758 59.03                             115    1.17 0  272 255 
 HEL  HN ES        759 28.77                             115   -0.54 8  272 255 
 HEL  HZ I         759 37.22         5.5 0.80            115            272 255 
 GUY2CHZ EP   4    759  3.01                             113    1.66 0  302 234 
 GUY2CHN ES        759 35.59                             113    0.07 7  302 234 
 GUY2CHZ I         759 46.70         6.2 0.38                           302 234 
 TOL  SZ EP   4    759  7.93                             110    1.89 0  345 224 
 TOL  SN ES        759 43.92                             110    0.06 7  345 224 
 TOL  SZ I         759 50.16         6.0 0.42            110            345 224 
 SJC  HZ EP   4    759 10.89                             106   -2.00 0  407 327 
 SJC  HZ I         759 11.69         2.7 0.22            107            407 327 
                                                                                
