 2016  524 0057 15.4 L   6.793 -73.156143.1  RSN  7 0.3 1.9LRSN                1
 GAP=148        0.78       3.7     3.6  5.1 -0.4889E+01  0.5092E+01  0.4509E+00E
 Epicentro: LOS SANTOS - SANTANDER                                             3
 ACTION:UPD 16-08-18 17:49 OP:cam  STATUS:               ID:20160524005715 L   I
 OLDACT:UP  16-05-24 13:00 OP:mh   STATUS:               ID:20160524004745     3
 OLDACT:REG 16-05-24 12:20 OP:mhre STATUS:               ID:20160524004745     3
 2016-05-24-0047-45M.COL___302                                                 6
 STAT SP IPHASW D HRMM SECON CODA AMPLIT PERI AZIMU VELO AIN AR TRES W  DIS CAZ7
 BAR2 EZ EP        057 34.19                             171   -0.5410 22.4 188 
 BAR2 EZ ES        057 50.03                             171    0.2510 22.4 188 
 BAR2 EZ I         057 52.71        16.0 0.36            168           22.4 188 
 BRR  HZ EP        057 36.62                             152    0.3610 70.6 300 
 BRR  HN ES        057 52.64                             152    0.1310 70.6 300 
 BRR  HZ I         057 59.04        17.2 0.32            151           70.6 300 
 PAM  EZ EP        057 37.53                             150    0.0810 78.7  40 
 PAM  EN ES        057 54.57                             150   -0.0510 78.7  40 
 PAM  EZ I         057 56.70         9.1 0.22            157           78.7  40 
 PTB  HZ EP        057 41.68                             132   -0.39 9  146 259 
 PTB  HN ES        058  2.41                             132   -0.44 9  146 259 
 PTB  HZ I         058  9.94         8.6 0.50            133            146 259 
 OCA  HZ EP   1    057 43.87                             129    0.27 7  161 354 
 OCA  HN ES        058  5.41                             129   -0.17 9  161 354 
 ZAR  HZ EP        057 48.03                             122    0.40 9  203 292 
 ZAR  HN ES        058 12.67                             122   -0.08 9  203 292 
 ZAR  HZ I         058 18.25         8.1 0.58            124            203 292 
 NOR  HZ EP        057 50.82                             118   -0.04 8  233 234 
 NOR  HN ES        058 18.97                             118    0.47 8  233 234 
 NOR  HZ I         058 26.26         7.5 0.42            120            233 234 
                                                                                
