 2017  624 0237 18.0 L   6.726 -73.100135.7  RSN 10 0.5 2.0LRSN                1
 GAP=210        1.23       5.2     4.5  7.0  0.9323E+01  0.3202E+01  0.9037E+01E
 Epicentro: JORDAN - SANTANDER                                                 3
 ACTION:UPD 17-09-14 16:54 OP:jn   STATUS:               ID:20170624023718 L   I
 OLDACT:REG 17-06-24 13:21 OP:lv   STATUS:               ID:20170624022738     3
 2017-06-24-0228-00M.COL___374                                                 6
 STAT SP IPHASW D HRMM SECON CODA AMPLIT PERI AZIMU VELO AIN AR TRES W  DIS CAZ7
 BAR2 EZ EP        237 36.49                             172    0.1710 17.4 212 
 BAR2 EZ ES        237 50.42                             172   -0.1710 17.4 212 
 BAR2 EZ I         237 52.52        23.8 0.11            172           17.4 212 
 BRR  HZ IP     C  237 38.30                             148   -0.3110 79.7 302 
 BRR  HN ES        237 55.27                             148    0.6010 79.7 302 
 PTB  HZ EP   9    237 43.44                             129   -1.08 0  151 262 
 PTB  HN ES        238  4.29                                    0.18 9  151 262 
 SPBC HZ EP        237 45.45                             127   -0.02 9  160 222 
 SPBC HN ES        238  7.28                             127    0.39 9  160 222 
 YPLC HZ EP        237 47.03                             126    0.89 9  167 151 
 YPLC HN ES        238  7.29                             126   -0.78 9  167 151 
 ZAR  HZ EP        237 50.92                             119    0.27 8  212 294 
 ZAR  HN ES        238 15.08                             119   -1.03 8  212 294 
 ZAR  HZ I         238 21.08         6.4 0.10            119            212 294 
 NOR  HZ EP        237 52.95                             116   -0.17 8  234 237 
 NOR  HN ES        238 20.83                             116    0.32 8  234 237 
 HEL  HZ EP        237 58.84                             112    0.77 8  275 258 
 HEL  HN ES        238 28.43                             112   -0.88 8  275 258 
 HEL  HZ I         238 35.06         6.2 0.26            112            275 258 
 PTGC HZ EP        237 59.80                             110   -0.55 7  299 159 
 PTGC HN ES        238 33.38                             110    0.00 7  299 159 
 GUY2CHZ EP   4    238  2.38                             110    1.26 0  301 237 
 GUY2CHN ES        238 34.92                             110    0.18 7  301 237 
 SJC  HZ EP   4    238 10.81                             104   -3.59 0  419 327 
 SJC  HN ES   4    238 52.13                             104   -6.24 0  419 327 
                                                                                
