 2016 1224 0654 46.2 L   6.803 -73.169144.0  RSN 17 0.6 2.8LRSN                1
 GAP=102        1.27       4.2     3.5  6.3 -0.8868E+00  0.5646E+01  0.8402E+01E
 Epicentro: LOS SANTOS - SANTANDER                                             3
 ACTION:UPD 17-01-11 20:18 OP:rebc STATUS:               ID:20161224065446 L   I
 OLDACT:UP  16-12-24 15:57 OP:cog  STATUS:               ID:20161224064746d    3
 OLDACT:DUP 16-12-24 15:51 OP:cog  STATUS:               ID:20161224064746d    3
 2016-12-24-0648-00M.COL___387                                                 6
 STAT SP IPHASW D HRMM SECON CODA AMPLIT PERI AZIMU VELO AIN AR TRES W  DIS CAZ7
 BAR2 EZ EP        655  5.55                             170   -0.0610 23.4 184 
 BAR2 EZ ES        655 20.24                             170   -0.5110 23.4 184 
 BAR2 EZ I         655 23.32       234.3 0.34            169           23.4 184 
 BRR  HZ IP     C  655  7.30                             153    0.2910 68.8 299 
 BRR  HN ES        655 24.36                             153    1.1110 68.8 299 
 BRR  HZ I         655 28.49       106.7 0.20            152           68.8 299 
 PAM  EZ EP        655  8.33                             150    0.0310 78.8  41 
 PAM  EN ES        655 25.68                             150    0.1310 78.8  41 
 PAM  EZ I         655 27.71       115.8 0.48            149           78.8  41 
 RUS  HZ EP        655  9.48                             143   -0.3310  101 175 
 RUS  HN ES        655 28.12                             143   -0.1110  101 175 
 RUS  HZ I         655 29.40        95.5 0.40            141            101 175 
 PTB  HZ EP        655 12.11                             132   -0.68 9  145 259 
 PTB  HN ES        655 33.28                             132   -0.26 9  145 259 
 PTB  HZ I         655 38.38        58.7 0.12            130            145 259 
 TAM  HZ IP     C  655 13.93                             130   -0.04 9  158 105 
 TAM  HZ I         655 34.84        38.7 0.40            128            158 105 
 TAM  HN ES        655 35.58                             130   -0.06 9  158 105 
 ZAR  HZ EP        655 18.03                             122   -0.23 9  202 292 
 ZAR  HE ES        655 42.50                             122   -0.78 9  202 292 
 ZAR  HZ I         655 48.85       104.2 0.76            121            202 292 
 NOR  HZ EP        655 21.60                             118   -0.01 8  233 234 
 NOR  HE ES        655 49.42                             118    0.18 8  233 234 
 NOR  HZ I         655 55.17        50.7 0.24            117            233 234 
 CHI  HZ IP     C  655 23.83                             117    0.08 8  248 195 
 CHI  HN ES        655 52.27                             117   -0.79 8  248 195 
 CHI  HZ I         655 58.15        38.1 0.40            115            248 195 
 ROSC BZ EP        655 25.39                             116    1.29 8  252 210 
 ROSC BE ES        655 55.27                             116    1.60 8  252 210 
 ROSC BZ I         656  0.20       131.8 0.40            115            252 210 
 GUY2CHZ EP        655 29.70                             112    0.20 7  299 234 
 GUY2CHN ES        656  2.87                             112   -0.42 7  299 234 
 GUY2CHZ I         656 11.71        46.9 0.36                           299 234 
 VIL  EZ EP        655 29.25                             112   -0.26 7  303 191 
 VIL  HN ES   4    656  1.92                             112   -1.38 0  303 191 
 VIL  EZ I         656  9.09        43.9 0.34            110            303 191 
 PTGC HZ IP   4 D  655 28.61                             111   -1.50 0  310 158 
 PTGC HE ES   4    656  1.90                             111   -2.47 0  310 158 
 PTGC HZ I         656  4.74        31.0 0.28            110            310 158 
 ELA  HZ EP   4    655 34.51                             110    1.74 0  327 229 
 ELA  HE ES   4    656  9.15                             110    0.05 0  327 229 
 ELA  HZ I         656 20.53        23.4 0.36            109            327 229 
 CBOC HZ EP        655 33.02                             110    0.26 7  331 252 
 CBOC HE ES        656  8.96                             110   -0.13 7  331 252 
 CBOC HZ I         656 20.48        11.2 0.54            108            331 252 
 ANIL HZ EP   3    655 37.19                             108    1.44 2  356 224 
 ANIL HE ES   4    656 16.78                             108    2.38 0  356 224 
 ORTC HZ EP        655 39.75                             106   -0.15 6  394 216 
 ORTC HN ES        656 21.37                             106   -0.43 6  394 216 
 ORTC HZ I         656 29.38        26.3 0.34            105            394 216 
                                                                                
