 2010  124 0615 12.8 L   6.807 -73.064140.5  RSN  8 0.5 1.7LRSN                1
 GAP=191        1.00       4.2     9.0  7.8 -0.9539E+01  0.3297E+02 -0.4333E+01E
 Epicentro: LOS SANTOS - SANTANDER                                             3
 ACTION:UP  10-08-24 09:45 OP:vdl  STATUS:               ID:20100124061512 L   I
 2010-01-24-0612-24S.COL___095                                                 6
 STAT SP IPHASW D HRMM SECON CODA AMPLIT PERI AZIMU VELO SNR AR TRES W  DIS CAZ7
 BAR2 SZ EP        615 31.85                             168    -0.110   27 209 
 BAR2 SZ ES        615 46.29                             168    -0.510   27 209 
 RUS  BZ EP        615 35.91                             142    -0.210  101 181 
 RUS  BN ES        615 54.95                             142     0.710  101 181 
 RUS  BZ I         615 55.66         5.6 0.55                           101 181 
 OCA  SZ EP        615 41.08                             128     0.3 9  161 350 
 OCA  SZ ES   1    616  2.71                             128     0.1 7  161 350 
 CHI  HZ EP   1    615 49.95                             116    -0.7 6  252 197 
 CHI  HZ I         615 51.04         2.5 0.21                           252 197 
 CHI  HN ES   1    616 19.38                             116    -0.7 6  252 197 
 ROSC BZ EP   1    615 51.46                             115     0.2 6  258 213 
 ROSC BE ES   2    616 21.86                             115     0.6 4  258 213 
 ROSC BZ I         616 26.13         5.0 0.21                           258 213 
 HEL  HZ EP   1    615 53.81                             113     0.0 6  281 256 
 HEL  HN ES   2    616 24.80                             113    -0.9 4  281 256 
 HEL  HZ I         616 31.35         3.2 0.39                           281 256 
 RREF BZ EP   1    615 59.38                             109    -0.2 5  329 230 
 RREF BN ES        616 36.69                             109     0.6 7  329 230 
 RREF BZ I         616 44.08         3.7 0.82                           329 230 
 TOL  SZ EP   3    616  1.61                             108    -0.1 2  350 226 
                                                                                
