 2010  424 0357 26.1 L   6.943 -73.158152.7  RSN  8 0.2 2.2LRSN                1
 GAP=200        0.45       6.5     4.6  4.3 -0.2402E+02 -0.8043E+01  0.1497E+02E
 Epicentro: BETULIA - SANTANDER                                                3
 ACTION:UPD 10-08-24 10:00 OP:vdl  STATUS:               ID:20100424035726 L   I
 2010-04-24-0353-23S.COL___104                                                 6
 STAT SP IPHASW D HRMM SECON CODA AMPLIT PERI AZIMU VELO AIN AR TRES W  DIS CAZ7
 BRR  HZ IP     C  357 47.58                             157    -0.110   64 287 
 BRR  HZ I         357 47.85        37.4 0.17                            64 287 
 BRR  HN ES   1    358  4.39                             157     0.0 7   64 287 
 BRI  SZ IP        357 49.81                             148     0.110   94  25 
 BRI  SZ ES   2    358  8.31                             148     0.2 5   94  25 
 GUE  SZ IP        357 50.17                             146    -0.210  101  15 
 GUE  SZ ES   1    358  9.38                             146     0.1 7  101  15 
 GRA  SZ IP        357 51.11                             143     0.210  111  21 
 GRA  SZ ES   1    358  9.95                             143    -0.2 7  111  21 
 OCA  SZ IP        357 53.69                             135     0.1 9  144 353 
 OCA  SZ ES   2    358 14.80                             135    -0.2 5  144 353 
 OCA  SZ I         358 18.59        37.8 0.27                           144 353 
 HEL  HZ EP   2    358  7.13                             116     0.1 4  275 253 
 HEL  HE ES   2    358 38.63                             116    -0.3 4  275 253 
 HEL  HZ I         358 43.63         6.2 0.60                           275 253 
 DBB  SZ IP        358 13.78                             111     0.1 7  337 272 
 SDV  BZ IP     C  358 15.09                             110    -0.3 6  352  52 
 SDV  BZ I         358 54.17         3.6 0.40                           352  52 
                                                                                
