 2010  624 0959 49.6 L   7.167 -73.395160.0  RSN  4 0.5 1.5LRSN                1
 GAP=212        0.98     102.6    87.3 25.3 -0.8790E+04 -0.1629E+04  0.1824E+04E
 Epicentro: LEBRIJA - SANTANDER                                                3
 ACTION:UP  10-08-24 10:12 OP:vdl  STATUS:               ID:20100624095949 L   I
 2010-06-24-0957-41S.COL___118                                                 6
 STAT SP IPHASW D HRMM SECON CODA AMPLIT PERI AZIMU VELO SNR AR TRES W  DIS CAZ7
 BRR  HZ EP   1   10 0 10.52                             167    -0.3 7   36 259 
 BRR  HZ I        10 0 12.27         5.3 0.56                            36 259 
 BRR  HE ES   2   10 0 27.84                             167     0.4 5   36 259 
 BRI  SZ EP   1   10 0 13.44                             149    -0.1 7   90  47 
 GUE  SZ EP   1   10 0 13.31                             149    -0.5 7   90  35 
 GRA  SZ EP   1   10 0 15.31                             146     0.9 7  103  39 
 GRA  SZ ES   2   10 0 33.46                             146    -0.3 5  103  39 
                                                                                
