 2011 1224 0308 28.9 L   6.759 -73.181144.4  RSN  4 0.2 1.1LRSN                1
 GAP=230        0.46       5.7     4.4  6.3  0.7284E+01 -0.2300E+00 -0.6436E+01E
 Epicentro: VILLANUEVA - SANTANDER                                             3
 ACTION:UPD 12-07-13 16:18 OP:ep   STATUS:               ID:20111224030828 L   I
 2011-12-24-0300-00M.COL___189                                                 6
 STAT SP IPHASW D HRMM SECON CODA AMPLIT PERI AZIMU VELO AIN AR TRES W  DIS CAZ7
 BAR2 SZ EP        3 8 48.11                             172   -0.1310 18.5 181 
 BAR2 SZ ES   2    3 9  3.14                             172   -0.21 5 18.5 181 
 BAR2 SZ I         3 9  4.09         3.9 0.24                          18.5 181 
 BRR  HZ EP        3 8 49.91                             153    0.1110 70.2 303 
 BRR  HN ES   2    3 9  6.26                             153    0.12 5 70.2 303 
 BRR  HZ I         3 9 10.03         4.9 0.43                          70.2 303 
 RUS  HZ EP   2    3 8 51.86                             145   -0.32 5 96.4 174 
 RUS  HZ I         3 9 10.12         1.0 0.37                          96.4 174 
 RUS  HN ES   2    3 9 10.85                             145    0.48 5 96.4 174 
 PTB  HZ EP   1    3 8 55.52                             133    0.22 7  143 260 
 PTB  HE ES   1    3 9 15.70                             133   -0.22 7  143 260 
                                                                                
