 2011  824 0831 45.1 L   6.883 -73.198118.3  RSN  4 0.3 1.2LRSN                1
 GAP=178        0.62       3.8    10.0  7.4  0.2096E+02 -0.3153E+02 -0.1167E+02E
 Epicentro: BETULIA - SANTANDER                                                3
 ACTION:UPD 12-07-13 15:53 OP:ep   STATUS:               ID:20110824083145 L   I
 2011-08-24-0820-00M.COL___160                                                 6
 STAT SP IPHASW D HRMM SECON CODA AMPLIT PERI AZIMU VELO AIN AR TRES W  DIS CAZ7
 BAR2 SZ EP   1    832  2.04                             164    0.31 7 32.1 177 
 BAR2 SZ I         832  2.20        10.6 0.11                          32.1 177 
 BAR2 SZ ES   1    832 14.64                             164   -0.04 7 32.1 177 
 BRR  HZ EP   1    832  2.62                             150   -0.18 7 62.0 294 
 BRR  HN ES   1    832 16.68                             150    0.09 7 62.0 294 
 BRR  HZ I         832 17.09         3.2 0.20                          62.0 294 
 RUS  HZ EP   1    832  6.67                             134   -0.45 7  110 173 
 RUS  HE ES   1    832 24.39                             134    0.13 7  110 173 
 RUS  HZ I         832 26.04         1.6 0.95                           110 173 
 OCA  SZ EP   1    832 11.00                             124    0.52 7  151 355 
 OCA  SZ ES   1    832 29.90                             124   -0.36 7  151 355 
 OCA  SZ I         832 31.97         3.2 0.25                           151 355 
                                                                                
