 2017  924 0912 14.9 L   6.762 -73.160146.4  RSN  4 0.2 1.5LRSN                1
 GAP=233        0.45       5.3     5.7  4.7  0.2397E+02  0.4532E+00 -0.5296E+01E
 Epicentro: LOS SANTOS - SANTANDER                                             3
 ACTION:UPD 17-10-05 19:15 OP:rebc STATUS:               ID:20170924091214 L   I
 OLDACT:UP  17-09-24 18:31 OP:leo  STATUS:               ID:20170924090737     3
 OLDACT:REG 17-09-24 14:17 OP:leo  STATUS:               ID:20170924090737     3
 2017-09-24-0908-00M.COL___414                                                 6
 STAT SP IPHASW D HRMM SECON CODA AMPLIT PERI AZIMU VELO AIN AR TRES W  DIS CAZ7
 BAR2 EZ EP        912 34.35                             172   -0.2110 18.9 188 
 BAR2 EZ ES        912 49.83                             172   -0.0410 18.9 188 
 BAR2 EZ I         912 51.18         7.8 0.18            163           18.9 188 
 BRR  HZ EP        912 36.30                             152    0.1010 71.9 302 
 BRR  HN ES   3    912 53.63                             152    0.86 2 71.9 302 
 BRR  HZ I         912 55.92         6.3 0.12            145           71.9 302 
 RUS  HZ EP        912 38.65                             145    0.1910 96.5 175 
 RUS  HN ES        912 56.76                             145   -0.0510 96.5 175 
 RUS  HZ I         912 57.74         2.9 0.52            143           96.5 175 
 ZAR  HZ EP   4    912 45.65                             122   -1.79 0  204 293 
 ZAR  HN ES        913 12.72                             122   -0.07 9  204 293 
 ZAR  HZ I         913 21.74         3.0 0.40            120            204 293 
                                                                                
