 2017  924 0952 26.1 L   6.782 -73.117142.9  RSN  4 0.2 1.3LRSN                1
 GAP=239        0.54       5.9     6.8  4.3  0.3383E+02  0.1162E+01 -0.2650E+01E
 Epicentro: LOS SANTOS - SANTANDER                                             3
 ACTION:UPD 17-10-05 19:15 OP:rebc STATUS:               ID:20170924095226 L   I
 OLDACT:REG 17-09-24 14:20 OP:leo  STATUS:               ID:20170924094739     3
 2017-09-24-0948-00M.COL___408                                                 6
 STAT SP IPHASW D HRMM SECON CODA AMPLIT PERI AZIMU VELO AIN AR TRES W  DIS CAZ7
 BAR2 EZ EP        952 45.16                             171   -0.2510 22.2 199 
 BAR2 EZ ES        953  0.31                             171   -0.1310 22.2 199 
 BAR2 EZ I         953  1.43         6.1 0.26            166           22.2 199 
 BRR  HZ EP        952 47.19                             151   -0.0210 74.9 299 
 BRR  HN ES        953  3.92                             151    0.2910 74.9 299 
 BRR  HZ I         953  8.59         3.9 0.20            147           74.9 299 
 RUS  HZ EP        952 49.62                             144    0.1610 98.4 178 
 RUS  HN ES        953  7.67                             144    0.0210 98.4 178 
 RUS  HZ I         953  8.94         2.3 0.40            144           98.4 178 
 ZAR  HZ EP        952 58.98                             121    0.19 8  208 292 
 ZAR  HN ES        953 23.96                             121   -0.29 8  208 292 
 ZAR  HZ I         953 29.10         1.5 0.46            121            208 292 
                                                                                
