 2011  724 0033 15.4 L   6.774 -73.097134.9  RSN  5 0.3 1.5LRSN                1
 GAP=144        0.68       3.3     6.4  6.7 -0.3922E+01 -0.6004E+01 -0.3579E+01E
 Epicentro: LOS SANTOS - SANTANDER                                             3
 ACTION:UPD 12-07-25 14:02 OP:epov STATUS:               ID:20110724003315 L   I
 2011-07-24-0030-58S.COL___143                                                 6
 STAT SP IPHASW D HRMM SECON CODA AMPLIT PERI AZIMU VELO AIN AR TRES W  DIS CAZ7
 BAR2 SZ ES   1    033 47.50                             170   -0.48 7 22.3 205 
 PAM  SZ EP        033 36.64                             149    0.2310 76.3  35 
 PAM  SN ES   1    033 53.17                             149    0.38 7 76.3  35 
 BRR  HZ EP   1    033 35.50                             148   -0.27 7 77.3 298 
 BRR  HN ES   1    033 52.04                             148    0.39 7 77.3 298 
 BRR  HZ I         033 53.21         9.7 0.13                          77.3 298 
 RUS  HZ EP   1    033 38.13                             142    0.26 7 97.5 179 
 RUS  HN ES        033 55.35                             142   -0.0510 97.5 179 
 RUS  HZ I         033 57.47         2.6 0.19                          97.5 179 
 GRA  SZ EP   1    033 39.46                             134   -0.34 7  127  15 
 GRA  SZ ES   1    033 58.54                             134   -0.30 7  127  15 
 GRA  SZ I         034  0.04         5.1 0.32                           127  15 
                                                                                
