 2013  324 0452 25.8 L   6.295 -73.726100.2  RSN  7 0.6 2.1LRSN                1
 GAP= 87        1.41       5.9     5.8 13.2  0.1103E+02  0.4075E+02  0.1404E+02E
 Epicentro: LANDAZURI - SANTANDER                                              3
 ACTION:UPD 13-04-09 14:04 OP:ep   STATUS:               ID:20130324045232 L   I
 2013-03-24-0450-00M.COL___245                                                 6
 STAT SP IPHASW D HRMM SECON CODA AMPLIT PERI AZIMU VELO AIN AR TRES W  DIS CAZ7
 BAR2 SZ EP        452 42.43                             143    0.0110 68.5  61 
 BAR2 SZ ES        452 55.75                             143    0.3910 68.5  61 
 BAR2 SZ I         452 57.13        40.9 0.28            146           68.5  61 
 RUS  HZ EP        452 43.35                             138   -0.6310 83.9 122 
 RUS  HN ES        452 58.12                             138   -0.0210 83.9 122 
 RUS  HN I         452 58.53        29.2 0.34            140           83.9 122 
 PTB  HZ IP     D  452 42.48                             137   -0.9510 85.2 289 
 PTB  HN ES   1    452 56.16                             137   -1.02 7 85.2 289 
 PTB  HZ I         452 57.19        21.9 0.13            135           85.2 289 
 PTB  HN I         452 57.27        68.5 0.20                          85.2 289 
 BRR  HZ EP        452 43.80                             135   -0.0110 89.8   1 
 BRR  HN ES   1    452 58.41                             135    0.57 7 89.8   1 
 BRR  HN I         452 59.50        57.3 0.18            135           89.8   1 
 ZAR  HZ EP        452 53.30                             115    0.00 9  182 317 
 ZAR  HN ES   1    453 15.66                             115    0.93 7  182 317 
 ZAR  HN I         453 19.41        28.8 0.24            113            182 317 
 CHI  HN ES   1    453 17.20                             115    1.16 7  184 180 
 CHI  HN I         453 17.83         6.2 0.18            114            184 180 
 HEL  HZ EP   1    452 56.19                             113    0.44 6  200 267 
 HEL  HN ES   1    453 19.97                             113    0.87 6  200 267 
 HEL  HN I         453 24.53         7.2 0.42            111            200 267 
                                                                                
