 2017  324 0553 46.9 L   7.165 -73.359115.0  RSN  4 0.1 1.4LRSN                1
 GAP=153        0.36       2.7     1.8  4.7 -0.3569E+00  0.5408E+01 -0.1047E+01E
 Epicentro: LEBRIJA - SANTANDER                                                3
 ACTION:UPD 17-05-25 18:44 OP:jn   STATUS:               ID:20170324055346 L   I
 OLDACT:UP  17-03-24 14:46 OP:cog  STATUS:               ID:20170324054744     3
 OLDACT:REG 17-03-24 13:13 OP:cog  STATUS:               ID:20170324054744     3
 2017-03-24-0548-00M.COL___387                                                 6
 STAT SP IPHASW D HRMM SECON CODA AMPLIT PERI AZIMU VELO AIN AR TRES W  DIS CAZ7
 BAR2 EZ EP        554  4.94                             148    0.1410 66.3 163 
 BAR2 EZ ES        554 18.74                             148   -0.0510 66.3 163 
 BAR2 EZ I         554 20.00        17.9 0.20            148           66.3 163 
 PAM  EN ES        554 20.50                             145   -0.0210 75.4  75 
 PTB  HZ EP        554 10.56                             126   -0.14 9  140 240 
 PTB  HN ES        554 29.34                             126    0.04 9  140 240 
 PTB  HZ I         554 31.81         1.8 0.10            127            140 240 
 ZAR  HN ES        554 34.75                             120    0.02 9  169 282 
                                                                                
