 2013 1124 0808 15.1 L   6.775 -73.148147.9  RSN  8 0.4 1.5LRSN                1
 GAP=137        0.99       3.6     5.1  7.7 -0.1607E+01  0.1495E+01  0.3176E+00E
 Epicentro: LOS SANTOS - SANTANDER                                             3
 ACTION:UPD 14-01-09 16:30 OP:ep   STATUS:               ID:20131124080815 L   I
 OLDACT:UP  13-11-24 13:20 OP:mh   STATUS:               ID:20131124080739     3
 OLDACT:UP  13-11-24 13:19 OP:mh   STATUS:               ID:20131124080739     3
 OLDACT:REG 13-11-24 12:51 OP:mh   STATUS:               ID:20131124080739     3
 2013-11-24-0807-39M.COL___237                                                 6
 STAT SP IPHASW D HRMM SECON CODA AMPLIT PERI AZIMU VELO AIN AR TRES W  DIS CAZ7
 BAR2 SZ EP        8 8 34.98                             172    0.0310 20.6 191 
 BAR2 SZ I         8 8 51.03         9.2 0.20            171           20.6 191 
 BRR  HZ EP        8 8 36.68                             152    0.1210 72.3 301 
 BRR  HN ES        8 8 53.94                             152    0.6510 72.3 301 
 BRR  HZ I         8 8 57.63         4.3 0.10            154           72.3 301 
 PAM  SZ EP        8 8 37.35                             150   -0.3510 79.7  38 
 PAM  SN ES   1    8 8 55.11                             150   -0.20 7 79.7  38 
 PAM  SZ I         8 8 56.97         4.3 0.26            152           79.7  38 
 RUS  HZ EP        8 8 38.83                             145   -0.0510 97.8 176 
 RUS  HE ES        8 8 57.26                             145   -0.1610 97.8 176 
 PTB  HZ EP        8 8 41.92                             133   -0.27 9  147 260 
 PTB  HN ES   1    8 9  2.21                             133   -1.09 7  147 260 
 PTB  HZ I         8 9  8.70         3.5 0.15            134            147 260 
 SPBC HZ EP        8 8 43.85                             130    0.29 9  161 220 
 SPBC HN ES   1    8 9  6.32                             130    0.57 7  161 220 
 SPBC HZ I         8 9  9.37         5.3 0.20            131            161 220 
 OCA  HZ EP        8 8 44.42                             130    0.58 9  163 353 
 OCA  HN ES        8 9  6.00                             130   -0.26 9  163 353 
 OCA  HZ I         8 9 10.75         4.5 0.18            131            163 353 
 ZAR  HN ES   1    8 9 12.92                             123   -0.34 6  205 293 
                                                                                
