 2015  224 0500 12.8 L   6.770 -73.147150.0  RSN  8 0.5 1.7LRSN                1
 GAP=138        1.19       3.9     5.9  7.0 -0.3671E+01  0.6352E+01  0.1333E+01E
 Epicentro: LOS SANTOS - SANTANDER                                             3
 ACTION:UPD 15-04-30 21:29 OP:nd   STATUS:               ID:20150224050012 L   I
 OLDACT:REG 15-02-24 13:27 OP:mh   STATUS:               ID:20150224045743     3
 2015-02-24-0457-43M.COL___278                                                 6
 STAT SP IPHASW D HRMM SECON CODA AMPLIT PERI AZIMU VELO AIN AR TRES W  DIS CAZ7
 BAR2 EZ EP        5 0 33.36                             172    0.5010 20.0 191 
 BAR2 EZ ES        5 0 48.28                             172   -0.2510 20.0 191 
 BAR2 EZ I         5 0 57.61         6.7 0.40            172           20.0 191 
 BRR  HZ EP        5 0 35.24                             153    0.7610 72.7 301 
 BRR  HN ES        5 0 51.91                             153    0.5110 72.7 301 
 BRR  HZ I         5 0 56.16        11.0 0.12            152           72.7 301 
 PAM  SZ EP        5 0 35.91                             151    0.3010 80.1  38 
 PAM  SN ES        5 0 53.11                             151   -0.3110 80.1  38 
 PAM  SZ I         5 0 55.34         4.9 0.18            155           80.1  38 
 RUS  HZ EP   1    5 0 36.72                             145   -0.00 7 97.3 176 
 RUS  HN ES   1    5 0 54.83                             145   -0.56 7 97.3 176 
 RUS  HZ I         5 0 58.82         4.7 0.32            150           97.3 176 
 PTB  HZ EP        5 0 40.01                             133   -0.02 9  147 260 
 PTB  HN ES        5 1  1.02                             133   -0.26 9  147 260 
 PTB  HZ I         5 1  7.00         6.5 0.38            135            147 260 
 SPBC HZ EP        5 0 42.13                             130    0.77 9  160 220 
 SPBC HN ES        5 1  3.36                             130   -0.29 9  160 220 
 SPBC HZ I         5 1  7.55        14.4 0.10            133            160 220 
 CHI  HZ EP        5 0 49.83                             118   -0.54 8  245 195 
 CHI  HN ES        5 1 19.54                             118   -0.15 8  245 195 
 CHI  HZ I         5 1 25.49         2.5 0.53            122            245 195 
 SML  HZ EP        5 0 49.07                             118   -0.90 8  247 336 
 SML  HN ES        5 1 18.40                             118   -0.57 8  247 336 
 SML  HZ I         5 1 31.42         7.7 0.10            121            247 336 
                                                                                
