 2017 1024 0922 28.3 L   6.807 -73.146142.3  RSN  7 0.5 1.3LRSN                1
 GAP=111        1.08       7.1     4.6  7.5  0.3539E+01  0.3408E+01  0.9264E+01E
 Epicentro: LOS SANTOS - SANTANDER                                             3
 ACTION:UPD 17-11-07 19:36 OP:rebc STATUS:               ID:20171024092228 L   I
 OLDACT:UP  17-10-24 17:10 OP:dani STATUS:               ID:20171024091740     3
 OLDACT:UP  17-10-24 17:10 OP:dani STATUS:               ID:20171024091740     3
 OLDACT:REG 17-10-24 13:17 OP:dani STATUS:               ID:20171024091740     3
 2017-10-24-0918-00M.COL___425                                                 6
 STAT SP IPHASW D HRMM SECON CODA AMPLIT PERI AZIMU VELO AIN AR TRES W  DIS CAZ7
 BAR2 EZ EP        922 47.87                             170    0.3810 24.1 190 
 BAR2 EZ ES        923  2.51                             170    0.0210 24.1 190 
 BAR2 EZ I         923  2.88         6.6 0.28            168           24.1 190 
 BRR  HZ EP        922 48.71                             152   -0.3010 70.8 298 
 BRR  HN ES        923  5.83                             152    0.6410 70.8 298 
 BRR  HZ I         923  9.06         3.4 0.22            149           70.8 298 
 PAM  EZ EP        922 49.86                             150   -0.2110 76.8  40 
 PAM  EN ES        923  6.84                             150   -0.2410 76.8  40 
 PAM  EZ I         923  9.26         3.1 0.42            154           76.8  40 
 RUS  HZ EP   3    922 53.04                             143    1.31 2  101 176 
 PTB  HZ EP   3    922 53.90                             131   -1.06 2  148 259 
 PTB  HE ES        923 15.38                             131   -0.40 9  148 259 
 PTB  HZ I         923 24.83         1.1 0.48            130            148 259 
 YPLC HZ EP        922 57.64                             126   -0.24 9  178 151 
 ZAR  HZ EP        923  1.34                             122    0.90 9  204 292 
 ZAR  HN ES        923 24.95                             122   -0.60 9  204 292 
 ZAR  HZ I         923 31.20         2.3 0.46            121            204 292 
                                                                                
