 2017  724 0704 48.5 L   6.628 -73.155141.6  RSN  4 0.1 1.1LRSN                1
 GAP=266        0.34       4.9     3.3  4.5 -0.2140E+01 -0.3494E+00  0.4247E+01E
 Epicentro: VILLANUEVA - SANTANDER                                             3
 ACTION:UPD 17-08-30 15:36 OP:rebc STATUS:               ID:20170724070448 L   I
 OLDACT:DUP 17-07-24 18:22 OP:and  STATUS:               ID:20170724065737d    3
 2017-07-24-0658-00M.COL___380                                                 6
 STAT SP IPHASW D HRMM SECON CODA AMPLIT PERI AZIMU VELO AIN AR TRES W  DIS CAZ7
 BAR2 EZ EP   2    7 5  7.68                             178    0.28 5 4.93 217 
 BAR2 EZ ES   2    7 5 22.18                             178    0.04 5 4.93 217 
 BRR  HZ EP        7 5  9.71                             149   -0.1110 81.2 311 
 BRR  HN ES        7 5 26.43                             149   -0.0110 81.2 311 
 BRR  HZ I         7 5 31.92         2.2 0.14            137           81.2 311 
 PTB  HZ EP   2    7 5 14.85                             132    0.04 5  144 266 
 PTB  HN ES        7 5 35.31                             132   -0.02 9  144 266 
 PTB  HZ I         7 5 38.49         1.0 0.10            127            144 266 
 ZAR  HN ES   2    7 5 47.35                             121    0.27 4  211 297 
 ZAR  HZ I         7 5 54.49         1.9 0.36            116            211 297 
                                                                                
