 2013  524 0158  6.6 L   6.825 -73.211139.8  RSN  6 0.5 1.7LRSN                1
 GAP=127        1.36       7.4     7.5  9.9 -0.1229E+02  0.2064E+02  0.2198E+01E
 Epicentro: ZAPATOCA - SANTANDER                                               3
 ACTION:UPD 13-06-20 09:53 OP:ep   STATUS:               ID:20130524015806 L   I
 2013-05-24-0148-47M.COL___203                                                 6
 STAT SP IPHASW D HRMM SECON CODA AMPLIT PERI AZIMU VELO AIN AR TRES W  DIS CAZ7
 BAR2 SZ EP        158 25.85                             169    0.2610 26.0 173 
 BAR2 SZ ES        158 39.40                             169   -0.9910 26.0 173 
 BAR2 SZ I         158 41.61         7.6 0.34            169           26.0 173 
 GIR2 SZ ES        158 40.75                             168    0.5310 28.1   4 
 BRR  HZ EP        158 25.75                             154   -0.9410 63.5 299 
 BRR  HE I         158 44.93        31.2 0.34            144           63.5 299 
 PAM  SZ IP     D  158 28.65                             149    0.2810 80.2  45 
 PAM  SZ I         158 28.80        10.0 0.18            147           80.2  45 
 PAM  SE ES        158 45.49                             149    0.1410 80.2  45 
 RUS  HZ EP        158 29.92                             141   -0.1310  104 172 
 RUS  HN ES        158 48.71                             141    0.3810  104 172 
 RUS  HN I         158 50.18         5.2 0.58            141            104 172 
 PTB  HZ EP        158 32.61                             132    0.11 9  141 257 
 PTB  HN ES        158 53.13                             132    0.43 9  141 257 
 PTB  HN I         158 58.28         9.5 0.24            125            141 257 
                                                                                
