 2014  124 0855 35.0 L   6.859 -73.147144.7  RSN 16 0.4 2.4LRSN                1
 GAP= 80        0.96       3.3     3.0  5.5 -0.1435E+01  0.4290E+01  0.2186E+01E
 Epicentro: LOS SANTOS - SANTANDER                                             3
 ACTION:UPD 14-03-13 09:58 OP:ep   STATUS:               ID:20140124085535 L   I
 OLDACT:REG 14-01-24 07:53 OP:nd   STATUS:               ID:20140124085000     3
 2014-01-24-0850-00M.COL___285                                                 6
 STAT SP IPHASW D HRMM SECON CODA AMPLIT PERI AZIMU VELO AIN AR TRES W  DIS CAZ7
 BAR2 SZ IP     C  855 54.63                             168   -0.0010 29.7 188 
 BAR2 SZ ES        856  9.42                             168   -0.5410 29.7 188 
 BAR2 SZ I         856 14.24        40.0 0.52            166           29.7 188 
 PAM  SZ EP        855 56.96                             152    0.1610 72.6  43 
 PAM  SN ES        856 14.06                             152    0.2410 72.6  43 
 PAM  SZ I         856 14.76        54.8 0.24            150           72.6  43 
 PTB  HZ EP   2    856  1.18                             131   -0.80 5  149 256 
 PTB  HN ES        856 22.75                             131   -0.29 9  149 256 
 PTB  HZ I         856 29.87        36.1 0.56            128            149 256 
 TAM  HZ IP     D  856  3.07                             130    0.32 9  157 107 
 TAM  HZ I         856 23.74        16.5 0.30            126            157 107 
 TAM  HN ES        856 24.44                             130    0.03 9  157 107 
 SPBC HZ EP        856  3.81                             128   -0.07 9  168 218 
 SPBC HN ES        856 27.32                             128    0.90 9  168 218 
 SPBC HZ I         856 32.64        28.1 0.52            124            168 218 
 ZAR  HZ EP        856  7.05                             122   -0.06 9  202 290 
 ZAR  HN ES        856 32.70                             122    0.54 9  202 290 
 ZAR  HZ I         856 38.03        49.8 0.46            119            202 290 
 SML  HZ EP        856 10.04                             118   -0.87 8  238 335 
 SML  HN ES   2    856 38.84                             118   -0.09 4  238 335 
 SML  HZ I         856 44.96        32.3 0.10            115            238 335 
 NOR  HZ EP        856 10.75                             118   -0.30 8  238 233 
 NOR  HN ES        856 39.02                             118   -0.17 8  238 233 
 NOR  HZ I         856 45.59        26.3 0.18            114            238 233 
 CHI  HZ EP        856 13.39                             116    0.09 8  255 195 
 CHI  HN ES        856 42.60                             116   -0.59 8  255 195 
 CHI  HZ I         856 46.27         8.6 0.32            113            255 195 
 ROSC BZ EP   4    856 15.25                             116    1.60 0  258 210 
 ROSC BN ES   4    856 44.68                             116    0.87 0  258 210 
 HEL  HZ EP        856 16.01                             114    0.70 8  274 254 
 HEL  HN ES   2    856 47.09                             114    0.32 4  274 254 
 HEL  HZ I         856 53.67        23.0 0.22            111            274 254 
 URE  HZ EP   4    856 14.40                             113   -1.33 0  281 291 
 URE  HN ES   4    856 45.29                             113   -2.22 0  281 291 
 URE  HZ I         856 57.94        22.6 0.16            111            281 291 
 GUY2CHZ EP   4    856 19.23                             112    0.27 0  305 234 
 GUY2CHN ES   4    856 57.08                             112    3.82 0  305 234 
 GUY2CHZ I         857  2.76        18.7 0.64                           305 234 
 PTGC HZ EP   4    856 17.93                             111   -1.55 0  315 159 
 PTGC HN ES   4    856 51.52                             111   -2.67 0  315 159 
 PTGC HZ I         857  7.70        15.3 0.38            108            315 159 
 CBOC HZ EP   4    856 22.58                             109    0.50 0  336 251 
 CBOC HN ES   4    856 59.97                             109    1.16 0  336 251 
 CBOC HZ I         857  9.12         4.9 0.62            107            336 251 
 PRA  HZ EP        856 29.37                             106    0.25 6  398 209 
 PRA  HN ES        857 11.05                             106   -0.30 6  398 209 
 PRA  HZ I         857 15.50        13.3 0.28            103            398 209 
 SJC  HZ EP   4    856 28.07                             106   -1.80 0  404 326 
 SJC  HN ES   4    857  9.57                             106   -3.11 0  404 326 
 SJC  HZ I         857 16.98         3.3 0.50            103            404 326 
                                                                                
