 2010  924 0501 36.3 L   6.850 -73.012151.1  RSN  4 0.2 1.4LRSN                1
 GAP=254        0.37       4.3     8.2  5.3  0.1996E+02 -0.1348E+02  0.1419E+01E
 Epicentro: CEPITA - SANTANDER                                                 3
 ACTION:UP  11-02-18 11:05 OP:tino STATUS:               ID:20100924050136 L   I
 2010-09-24-0458-00S.COL___119                                                 6
 STAT SP IPHASW D HRMM SECON CODA AMPLIT PERI AZIMU VELO SNR AR TRES W  DIS CAZ7
 BAR2 SZ EP   1    5 1 56.99                             167     0.2 7   34 214 
 BAR2 SZ ES   2    5 2 12.80                             167     0.0 5   34 214 
 BAR2 SZ I         5 2 13.71         8.8 0.27                            34 214 
 BRR  HZ EP   1    5 1 58.65                             150     0.0 7   82 290 
 BRR  HZ I         5 2  0.35         5.3 0.21                            82 290 
 BRR  HE ES   1    5 2 16.04                             150    -0.1 7   82 290 
 RUS  HZ EP   1    5 2  0.85                             143    -0.1 7  106 184 
 RUS  HE ES   2    5 2 20.04                             143    -0.1 5  106 184 
 RUS  HZ I         5 2 20.87         2.3 0.33                           106 184 
 CHI  HZ EP   2    5 2 14.97                             117    -0.3 4  258 198 
 CHI  HN ES   2    5 2 46.00                             117     0.3 4  258 198 
 CHI  HZ I         5 2 52.59         1.2 0.49                           258 198 
                                                                                
