 2014  524 0806  5.9 L   6.806 -73.174150.2  RSN  5 0.3 1.5LRSN                1
 GAP=198        0.87       4.5     6.3  6.5  0.1183E+02 -0.2123E+01 -0.9446E+01E
 Epicentro: LOS SANTOS - SANTANDER                                             3
 ACTION:UPD 15-03-16 17:00 OP:nd   STATUS:               ID:20140524080605 L   I
 OLDACT:DUP 14-05-24 14:26 OP:cam  STATUS:               ID:20140524080001d    3
 OLDACT:UP  14-05-24 14:25 OP:cam  STATUS:               ID:20140524080000     3
 OLDACT:REG 14-05-24 12:57 OP:ca   STATUS:               ID:20140524080000     3
 2014-05-24-0800-00M.COL___276                                                 6
 STAT SP IPHASW D HRMM SECON CODA AMPLIT PERI AZIMU VELO AIN AR TRES W  DIS CAZ7
 BAR2 SZ EP        8 6 25.89                             171   -0.1410 23.7 182 
 BAR2 SZ ES        8 6 41.24                             171   -0.5310 23.7 182 
 BAR2 SZ I         8 6 43.51        11.1 0.26            173           23.7 182 
 BRR  HZ EP        8 6 27.66                             154    0.3310 68.2 299 
 BRR  HN ES        8 6 44.63                             154    0.5610 68.2 299 
 BRR  HZ I         8 6 47.10         4.2 0.36            155           68.2 299 
 RUS  HZ EP        8 6 30.53                             144    0.4110  102 174 
 RUS  HN ES        8 6 49.05                             144    0.0110  102 174 
 RUS  HZ I         8 6 50.52         3.3 0.36            148            102 174 
 PTB  HZ EP        8 6 32.62                             134   -0.32 9  145 258 
 PTB  HN ES        8 6 53.92                             134   -0.14 9  145 258 
 PTB  HZ I         8 6 55.57         4.2 0.22            136            145 258 
 SML  HZ EP        8 6 42.36                             119   -0.17 8  242 336 
 SML  HE ES        8 7 10.95                             119   -0.19 8  242 336 
 SML  HZ I         8 7 14.10         3.6 0.10            120            242 336 
                                                                                
