 2017  824 0704  4.2 L   6.827 -73.105147.1  RSN  7 0.3 1.5LRSN                1
 GAP=229        0.54       3.9     3.7  5.7  0.6522E+01 -0.2623E+01 -0.3510E+01E
 Epicentro: LOS SANTOS - SANTANDER                                             3
 ACTION:UPD 17-09-04 20:23 OP:rebc STATUS:               ID:20170824070404 L   I
 OLDACT:UP  17-08-24 16:33 OP:and  STATUS:               ID:20170824065745d    3
 OLDACT:UP  17-08-24 16:32 OP:and  STATUS:               ID:20170824065745d    3
 OLDACT:DUP 17-08-24 16:30 OP:and  STATUS:               ID:20170824065745d    3
 2017-08-24-0658-00M.COL___420                                                 6
 STAT SP IPHASW D HRMM SECON CODA AMPLIT PERI AZIMU VELO AIN AR TRES W  DIS CAZ7
 BAR2 EZ EP        7 4 24.20                             169    0.1610 27.3 198 
 BAR2 EZ ES   2    7 4 39.52                             169   -0.03 5 27.3 198 
 BAR2 EZ I         7 4 40.23         8.0 0.30            161           27.3 198 
 RUS  HZ EP        7 4 28.56                             143    0.3210  103 179 
 RUS  HN ES        7 4 46.82                             143   -0.2110  103 179 
 RUS  HZ I         7 4 47.82         3.0 0.26            139            103 179 
 SPBC HE ES        7 4 56.08                             128    0.14 9  168 220 
 SPBC HZ I         7 5  0.02         4.7 0.18            124            168 220 
 ZAR  HN ES        7 5  2.39                             122   -0.24 8  207 291 
 ZAR  HZ I         7 5  7.53         3.2 0.36            119            207 291 
 NOR  HZ EP   3    7 4 41.28                             118    0.74 2  240 235 
 NOR  HE ES   2    7 5  9.13                             118    0.21 4  240 235 
 NOR  HZ I         7 5 15.03         1.5 0.16            115            240 235 
 CHI  HZ EP   2    7 4 42.33                             117   -0.04 4  253 196 
 CHI  HN ES   3    7 5 11.30                             117   -0.88 2  253 196 
 CHI  HZ I         7 5 16.72         1.6 0.40            114            253 196 
 PTGC HZ IP     C  7 4 47.77                             112   -0.44 7  310 160 
                                                                                
