 2012 1124 0512 37.6 L   6.763 -73.136147.0  RSN  6 0.4 1.3LRSN                1
 GAP=139        0.82       5.5     5.2  7.8 -0.8318E+00  0.1116E+02  0.1313E+01E
 Epicentro: LOS SANTOS - SANTANDER                                             3
 ACTION:UPD 12-12-05 15:35 OP:}ep  STATUS:               ID:20121124051237 L   I
 2012-11-24-0510-00M.COL___233                                                 6
 STAT SP IPHASW D HRMM SECON CODA AMPLIT PERI AZIMU VELO AIN AR TRES W  DIS CAZ7
 BAR2 SZ EP   1    512 57.30                             172   -0.04 7 19.5 195 
 BAR2 SZ ES   1    513 12.79                             172    0.08 7 19.5 195 
 GIR2 SZ EP   1    512 57.77                             166    0.20 7 35.5 350 
 GIR2 SZ ES   1    513 12.74                             166   -0.38 7 35.5 350 
 GIR2 SZ I         513 14.80         4.4 0.25                          35.5 350 
 PAM  SZ EP   1    513  0.20                             150    0.07 7 79.9  37 
 PAM  SN ES   1    513 17.59                             150   -0.09 7 79.9  37 
 PAM  SZ I         513 19.54         4.6 0.54                          79.9  37 
 RUS  HZ EP   1    513  1.30                             145    0.10 7 96.4 177 
 RUS  HZ I         513 19.99         2.7 0.64                          96.4 177 
 RUS  HN ES   1    513 20.00                             145    0.40 7 96.4 177 
 PTB  HZ EP   1    513  4.03                             132   -0.69 7  148 260 
 PTB  HN ES   1    513 25.33                             132   -0.53 7  148 260 
 PTB  HZ I         513 27.43         3.1 0.14                           148 260 
 ZAR  HN ES   1    513 36.99                             122    0.99 6  207 293 
                                                                                
