 2010  524 0126 55.9 L   6.948 -73.254133.7  RSN  4 0.1 1.4LRSN                1
 GAP=188        0.34       5.5    16.7  7.8 -0.6507E+02  0.8584E+02 -0.3409E+02E
 Epicentro: BETULIA - SANTANDER                                                3
 ACTION:UP  10-08-24 10:06 OP:vdl  STATUS:               ID:20100524012655 L   I
 2010-05-24-0123-49S.COL___111                                                 6
 STAT SP IPHASW D HRMM SECON CODA AMPLIT PERI AZIMU VELO SNR AR TRES W  DIS CAZ7
 BAR2 SZ EP   1    127 14.50                             162    -0.1 7   40 169 
 BAR2 SZ ES   1    127 29.25                             162     0.1 7   40 169 
 GUE  SZ EP   1    127 18.68                             140     0.1 7  104  20 
 GRA  SZ EP   3    127 19.43                             137     0.2 2  115  26 
 GRA  SZ ES   2    127 37.19                             137    -0.2 5  115  26 
 OCA  SZ EP   1    127 21.66                             130     0.0 7  143 357 
 OCA  SZ I         127 48.34         3.7 0.18                           143 357 
                                                                                
