 2017  124 0134 42.0 L   6.767 -73.154144.6  RSN 25 0.4 2.8LRSN                1
 GAP= 65        0.94       2.4     2.5  4.2  0.1498E+00  0.2747E+01  0.3330E+00E
 Epicentro: LOS SANTOS - SANTANDER                                             3
 ACTION:UPD 17-05-22 16:02 OP:jn   STATUS:               ID:20170124013442 L   I
 OLDACT:REG 17-01-24 12:41 OP:lv   STATUS:               ID:20170124012747     3
 2017-01-24-0128-00M.COL___345                                                 6
 STAT SP IPHASW D HRMM SECON CODA AMPLIT PERI AZIMU VELO AIN AR TRES W  DIS CAZ7
 BAR2 EZ IP     D  135  1.35                             172   -0.0310 19.6 189 
 BAR2 EZ ES        135 16.32                             172   -0.2110 19.6 189 
 BAR2 EZ I         135 17.47       330.9 0.19            167           19.6 189 
 BRR  HZ IP     C  135  3.17                             152    0.1310 72.2 301 
 BRR  HN ES        135 20.15                             152    0.6710 72.2 301 
 BRR  HZ I         135 23.39       168.5 0.30            151           72.2 301 
 PAM  EZ IP     D  135  4.14                             149   -0.1210 80.8  38 
 PAM  EN ES        135 21.17                             149   -0.4810 80.8  38 
 PAM  EZ I         135 23.59       165.1 0.62            156           80.8  38 
 RUS  HZ EP        135  5.31                             145   -0.0310 97.1 175 
 RUS  HE ES        135 23.90                             145    0.3110 97.1 175 
 RUS  HZ I         135 25.06        66.6 0.28            144           97.1 175 
 PTB  HZ EP        135  7.92                             132   -0.76 9  146 260 
 PTB  HN ES        135 28.84                             132   -0.69 9  146 260 
 PTB  HZ I         135 31.43        95.5 0.14            131            146 260 
 TAM  HZ IP     D  135  9.65                             130    0.10 9  155 104 
 TAM  HN ES        135 31.20                             130    0.13 9  155 104 
 TAM  HZ I         135 32.38        26.2 0.30            134            155 104 
 ZAR  HZ EP        135 14.13                             122   -0.25 9  205 293 
 ZAR  HN ES        135 39.77                             122    0.10 9  205 293 
 ZAR  HZ I         135 45.99       146.4 0.32            123            205 293 
 NOR  HZ EP        135 17.57                             119    0.26 8  232 235 
 NOR  HN ES        135 45.02                             119    0.13 8  232 235 
 NOR  HZ I         135 47.24        53.4 0.20            119            232 235 
 CHI  HZ EP        135 19.67                             117    0.48 8  245 195 
 CHI  HE ES        135 48.86                             117    0.63 8  245 195 
 CHI  HZ I         135 55.98        20.8 0.46            118            245 195 
 ROSC BZ EP        135 19.30                             117   -0.32 8  249 211 
 ROSC BN ES        135 48.85                             117   -0.15 8  249 211 
 ROSC BZ I         135 56.94        46.2 0.35            117            249 211 
 URE  HZ EP   9    135 21.49                             113   -1.53 0  284 293 
 URE  HN ES        135 53.01                                   -0.51 7  284 293 
 URE  HZ I         136  1.94        42.1 0.14            114            284 293 
 PTGC HZ IP     C  135 24.55                             112   -0.87 7  306 158 
 PTGC HE ES   4    135 57.53                             112   -1.79 0  306 158 
 PTGC HZ I         136  0.21        31.8 0.44            113            306 158 
 LL1C HZ EP   4    135 27.86                             111    1.97 0  310 352 
 LL1C HE ES        136  1.08                             111    0.93 7  310 352 
 LL6C HZ EP   4    135  7.55                             110   -20.5 0  328 358 
 LL6C HE ES   4    135 40.73                             110   -23.2 0  328 358 
 LL6C HZ I         135 48.77        11.7 0.40            112            328 358 
 CBOC HZ EP   4    135 29.80                             110    1.21 0  332 253 
 CBOC HE ES        136  5.21                             110    0.24 7  332 253 
 CBOC HZ I         136 17.01        14.1 0.54            110            332 253 
 DBB  EZ EP        135 29.83                             109    0.52 7  339 275 
 DBB  EN ES   4    136  4.92                             109   -1.32 0  339 275 
 DBB  EZ I         136  8.22        27.9 0.54            110            339 275 
 ARGC HZ EP        135 31.95                             108    0.03 6  362 341 
 ARGC HN ES        136 10.87                             108   -0.03 6  362 341 
 ARGC HZ I         136 12.43        11.1 0.20            110            362 341 
 ORTC HZ EP   9    135 36.35                             106    0.92 0  392 216 
 ORTC HN ES        136 18.32                                    0.26 6  392 216 
 ORTC HZ I         136 22.75        16.4 0.42            107            392 216 
 APAC HZ EP        135 35.45                             106   -0.68 6  398 289 
 APAC HN ES        136 18.34                             106   -0.05 6  398 289 
 APAC HZ I         136 21.90        16.1 0.52            107            398 289 
 PAL  HZ EP        135 37.40                             106    0.64 6  403 239 
 PAL  HE ES        136 19.18                             106   -0.33 6  403 239 
 PAL  HZ I         136 26.97        11.3 0.36            106            403 239 
 SJC  HZ EP   4    135 35.36                             105   -2.41 0  412 327 
 SJC  HN ES   4    136 17.08                             105   -4.23 0  412 327 
 SJC  HZ I         136 21.19        14.8 0.25            107            412 327 
 LCBC HN ES        136 23.75                             105    0.22 5  423 303 
 CRJC HZ EP   4    135 41.28                             103   -3.58 0  471   4 
 CRJC HE ES   4    136 28.24                             103   -5.68 0  471   4 
 CRJC HZ I         136 32.59        10.6 0.21            105            471   4 
 SMAR HZ EP   4    135 47.21                             102   -0.98 0  500 346 
 SMAR HN ES   4    136 35.62                             102   -4.23 0  500 346 
 SMAR HZ I         136 37.26         8.0 0.40            103            500 346 
 MACC HZ EP   4    135 48.55                             102   -1.64 0  517 189 
 MACC HE ES   4    136 40.84                             102   -2.58 0  517 189 
 MACC HZ I         136 44.47         5.4 0.31            102            517 189 
                                                                                
