 2013  324 0027 39.6 L   6.725 -73.132146.1  RSN  6 0.3 2.0LRSN                1
 GAP=166        0.76       5.6     4.5  5.6 -0.1003E+02  0.1443E+01  0.2332E+01E
 Epicentro: JORDAN - SANTANDER                                                 3
 ACTION:UPD 13-04-09 14:04 OP:ep   STATUS:               ID:20130324002739 L   I
 2013-03-24-0020-00M.COL___245                                                 6
 STAT SP IPHASW D HRMM SECON CODA AMPLIT PERI AZIMU VELO AIN AR TRES W  DIS CAZ7
 BAR2 SZ EP        027 59.48                             173    0.3310 15.7 201 
 BAR2 SZ ES        028 14.49                             173    0.1010 15.7 201 
 BAR2 SZ I         028 15.44        26.4 0.22            171           15.7 201 
 GIR2 SZ EP        027 59.57                             164    0.0010 39.7 350 
 GIR2 SZ ES        028 15.08                             164   -0.0610 39.7 350 
 GIR2 SZ I         028 16.70         8.7 0.38            160           39.7 350 
 BRR  HZ IP     C  028  1.35                             151    0.2310 76.8 303 
 BRR  HN ES        028 18.33                             151    0.4410 76.8 303 
 BRR  HN I         028 25.96        17.6 0.20            147           76.8 303 
 PAM  SZ EP        028  1.99                             149   -0.2110 83.0  35 
 PAM  SN ES        028 19.47                             149   -0.3510 83.0  35 
 PAM  SN I         028 20.30        27.8 0.48            151           83.0  35 
 PTB  HZ EP   1    028  6.64                             132    0.02 7  148 262 
 PTB  HN ES        028 27.09                             132   -0.59 9  148 262 
 PTB  HN I         028 31.01        11.5 0.24            131            148 262 
 OCA  HN ES   1    028 31.53                             128    0.06 7  169 353 
                                                                                
