 2010  124 0055 39.9 L   6.851 -72.962144.7  RSN  6 0.5 2.0LRSN                1
 GAP=291        0.88      10.3     7.3 10.6  0.7304E+01  0.2924E+02 -0.3100E+02E
 Epicentro: SAN ANDRES - SANTANDER                                             3
 ACTION:UP  10-08-24 09:45 OP:vdl  STATUS:               ID:20100124005539 L   I
 2010-01-24-0052-14S.COL___095                                                 6
 STAT SP IPHASW D HRMM SECON CODA AMPLIT PERI AZIMU VELO SNR AR TRES W  DIS CAZ7
 RUS  BZ EP        056  3.99                             142     0.010  107 187 
 RUS  BN ES        056 22.78                             142     0.010  107 187 
 RUS  BZ I         056 23.80         9.5 0.19                           107 187 
 CHI  HZ EP        056 18.12                             116    -0.6 8  260 199 
 CHI  HN ES        056 49.17                             116     0.1 8  260 199 
 CHI  HZ I         056 53.19         4.3 1.02                           260 199 
 HEL  HN ES        056 55.16                             113    -0.4 7  293 256 
 HEL  HZ I         056 58.17         4.9 0.04                           293 256 
 RREF BZ EP        056 28.81                             109     0.7 7  341 231 
 RREF BN ES   1    057  6.00                             109     0.2 5  341 231 
 RREF BZ I         057  8.66         6.1 0.07                           341 231 
 TOL  SZ EP   1    056 30.70                             108     0.5 5  362 226 
 TOL  SZ ES   2    057 10.22                             108     0.8 3  362 226 
 PRA  HN ES   2    057 16.91                             105    -1.3 3  407 212 
                                                                                
