 2012 1224 0013 38.1 L   6.856 -73.165152.9  RSN  6 0.5 1.5LRSN                1
 GAP=200        0.97       5.8     7.6 11.5  0.1065E+02 -0.5433E+01 -0.3852E+01E
 Epicentro: LOS SANTOS - SANTANDER                                             3
 ACTION:UPD 13-01-04 14:30 OP:ep   STATUS:               ID:20121224001338 L   I
 2012-12-24-0010-00M.COL___243                                                 6
 STAT SP IPHASW D HRMM SECON CODA AMPLIT PERI AZIMU VELO AIN AR TRES W  DIS CAZ7
 BAR2 SZ EP   1    013 58.50                             169   -0.21 7 29.3 184 
 BAR2 SZ I         014 19.50         7.7 0.54                          29.3 184 
 BRR  HZ EP     C  014  0.45                             155    0.6810 66.5 295 
 BRR  HE ES   1    014 17.13                             155    0.44 7 66.5 295 
 BRR  HZ I         014 20.25         7.6 0.48                          66.5 295 
 RUS  HZ EP        014  2.97                             143   -0.0410  107 175 
 RUS  HN ES   1    014 22.08                             143   -0.36 7  107 175 
 RUS  HZ I         014 23.30         2.5 0.32                           107 175 
 PTB  HZ EP        014  5.52                             134   -0.07 9  147 256 
 PTB  HN ES   1    014 26.36                             134   -0.68 7  147 256 
 PTB  HZ I         014 32.61         4.4 0.48                           147 256 
 SML  HE ES   1    014 41.97                             120   -0.81 6  237 335 
 NOR  HN ES   1    014 43.14                             120    0.32 6  237 233 
 NOR  HZ I         014 46.30         3.6 0.20                           237 233 
                                                                                
