 2011  424 0410 30.2 L   6.740 -73.112140.0  RSN  5 0.4 1.1LRSN                1
 GAP=144        0.73      13.3    10.1 11.9  0.1305E+02 -0.6214E+02 -0.5099E+01E
 Epicentro: JORDAN - SANTANDER                                                 3
 ACTION:UP  11-06-22 15:32 OP:REBC STATUS:               ID:20110424041030 L   I
 2011-04-24-0409-04S.COL___139                                                 6
 STAT SP IPHASW D HRMM SECON CODA AMPLIT PERI AZIMU VELO SNR AR TRES W  DIS CAZ7
 BAR2 SZ EP   2    410 48.94                             172    -0.1 5   18 205 
 BTL  SZ EP        410 49.19                             169     0.010   26 319 
 BTL  SZ ES   2    411  3.30                             169    -0.7 5   26 319 
 BRR  HZ EP        410 50.82                             150    -0.310   78 302 
 BRR  HZ I         410 50.98         5.7 0.16                            78 302 
 BRR  HN ES   1    411  7.82                             150     0.4 7   78 302 
 PAM  SZ EP        410 52.07                             149     0.110   80  35 
 PAM  SZ I         410 52.19         1.7 0.14                            80  35 
 RUS  HN ES   3    411 11.44                             145     0.9 2   94 178 
 RUS  HZ I         411 13.10         1.8 0.26                            94 178 
                                                                                
