 2013  324 0636 21.7 L   6.724 -73.192148.0  RSN  6 0.4 1.9LRSN                1
 GAP=177        1.00       4.9     6.7  7.3  0.8003E+01 -0.1424E+01 -0.2108E+01E
 Epicentro: VILLANUEVA - SANTANDER                                             3
 ACTION:UPD 13-04-09 14:04 OP:ep   STATUS:               ID:20130324063622 L   I
 2013-03-24-0630-00M.COL___245                                                 6
 STAT SP IPHASW D HRMM SECON CODA AMPLIT PERI AZIMU VELO AIN AR TRES W  DIS CAZ7
 BAR2 SZ EP        636 41.14                             174   -0.3210 14.6 176 
 BAR2 SZ ES        636 56.39                             174   -0.4810 14.6 176 
 BAR2 SZ I         636 57.06        21.7 0.26            169           14.6 176 
 BRR  HZ IP     C  636 42.89                             153   -0.2110 71.4 306 
 BRR  HN ES        637  0.29                             153    0.4910 71.4 306 
 BRR  HN I         637  1.25        14.5 0.52            150           71.4 306 
 RUS  HZ EP        636 44.95                             147   -0.1810 92.7 173 
 RUS  HN ES        637  3.88                             147    0.4810 92.7 173 
 RUS  HN I         637  5.13         6.7 0.42            145           92.7 173 
 PTB  HZ EP   1    636 48.06                             134   -0.22 7  141 262 
 PTB  HN ES        637  8.81                             134   -0.20 9  141 262 
 PTB  HN I         637 14.57        19.1 0.42            131            141 262 
 OCA  HZ EP   1    636 50.62                             129   -0.31 7  168 355 
 OCA  HN ES   1    637 14.39                             129    0.67 7  168 355 
 CHI  HZ EP   1    636 59.45                             119    0.94 6  239 195 
 CHI  HN ES   4    637 29.22                             119    2.00 0  239 195 
 CHI  HN I         637 30.96         4.6 0.26            117            239 195 
                                                                                
