 2016  724 0922 25.9 L   6.822 -73.151145.0  RSN 11 0.4 1.8LRSN                1
 GAP=135        0.89       3.3     3.7  5.4 -0.7076E+00  0.3155E+01  0.4724E+01E
 Epicentro: LOS SANTOS - SANTANDER                                             3
 ACTION:UPD 17-03-29 16:54 OP:lp   STATUS:               ID:20160724092225 L   I
 OLDACT:UP  16-07-24 18:52 OP:ak   STATUS:               ID:20160724091759     3
 OLDACT:REG 16-07-24 14:14 OP:ar   STATUS:               ID:20160724091759     3
 2016-07-24-0917-59S.COL___331                                                 6
 STAT SP IPHASW D HRMM SECON CODA AMPLIT PERI AZIMU VELO AIN AR TRES W  DIS CAZ7
 BAR2 EZ EP        922 45.28                             169   -0.2310 25.7 188 
 BAR2 EZ ES        923  1.04                             169    0.2510 25.7 188 
 BRR  HZ EP        922 46.96                             153    0.0610 69.5 297 
 BRR  HN ES        923  3.91                             153    0.6610 69.5 297 
 BRR  HZ I         923  6.96         8.3 0.24            151           69.5 297 
 PAM  EZ EP        922 48.10                             151    0.1310 75.9  41 
 PAM  EN ES        923  4.87                             151   -0.2910 75.9  41 
 PAM  EZ I         923  7.11        19.8 0.54            155           75.9  41 
 RUS  HZ EP        922 49.78                             143   -0.0010  103 176 
 RUS  HN ES        923  8.08                             143   -0.3110  103 176 
 RUS  HZ I         923  9.51         7.2 0.24            143            103 176 
 PTB  HZ EP   2    922 51.94                             132   -0.88 5  148 258 
 PTB  HN ES        923 13.12                             132   -0.68 9  148 258 
 SPBC HZ EP        922 54.47                             129   -0.04 9  165 218 
 SPBC HN ES   1    923 16.85                             129    0.04 7  165 218 
 SPBC HZ I         923 21.00         7.9 0.18            128            165 218 
 ZAR  HZ EP   2    922 58.59                             123    0.42 4  203 292 
 ZAR  HN ES        923 23.19                             123   -0.13 9  203 292 
 ZAR  HZ I         923 28.71         5.6 0.32            123            203 292 
 CHI  HZ EP   2    923  3.74                             117   -0.08 4  251 195 
 CHI  HN ES        923 33.89                             117    0.51 8  251 195 
 CHI  HZ I         923 36.88         3.0 0.34            117            251 195 
 GUY2CHZ EP   9    923 11.64                             112    2.04 0  302 234 
 GUY2CHN ES        923 46.49                                    0.78 7  302 234 
 GUY2CHZ I         923 53.33         1.9 0.30                           302 234 
 PRA  HZ EP        923 20.24                             106    0.60 6  394 209 
 PRA  HE ES        924  1.59                             106    0.06 6  394 209 
 PRA  HZ I         924 10.25         2.1 0.34            107            394 209 
 SJC  HZ EP   4    923 19.34                             106   -1.84 0  407 327 
 SJC  HN ES   4    924  0.32                             106   -3.96 0  407 327 
 SJC  HZ I         924  4.05         1.8 0.39            106            407 327 
                                                                                
