 2011  924 0718 23.4 L   7.508 -73.144154.2  RSN  5 0.2 1.4LRSN                1
 GAP=191        0.53       3.5     9.2  6.5 -0.6825E+00 -0.3398E+02  0.2373E+01E
 Epicentro: EL PLAYON - SANTANDER                                              3
 ACTION:UPD 12-07-13 15:59 OP:ep   STATUS:               ID:20110924071823 L   I
 2011-09-24-0700-00M.COL___167                                                 6
 STAT SP IPHASW D HRMM SECON CODA AMPLIT PERI AZIMU VELO AIN AR TRES W  DIS CAZ7
 BTL  SZ EP        718 45.64                             156    0.0910 66.5 192 
 BRR  HZ EP        718 45.81                             152    0.0610 76.8 235 
 BRR  HN ES        719  3.15                             152   -0.0510 76.8 235 
 BRR  HZ I         719  5.72         3.7 0.09                          76.8 235 
 OCA  SZ EP   1    718 46.65                             150    0.30 7 83.1 347 
 OCA  SZ ES   1    719  4.07                             150   -0.20 7 83.1 347 
 OCA  SZ I         719 11.93         3.0 0.47                          83.1 347 
 BAR2 SZ EP   1    718 47.16                             145   -0.49 7  101 182 
 BAR2 SZ ES   1    719  6.82                             145    0.23 7  101 182 
 BAR2 SZ I         719 13.41         4.9 0.43                           101 182 
 RUS  HZ EP   1    718 54.48                             128   -0.05 7  179 178 
                                                                                
