 2013  124 0439  3.8 L   6.849 -73.156143.6  RSN  5 0.4 1.5LRSN                1
 GAP=133        1.09       6.6     6.3 11.0 -0.1504E-01  0.1938E+02  0.1688E+02E
 Epicentro: LOS SANTOS - SANTANDER                                             3
 ACTION:UPD 13-02-15 09:16 OP:ep   STATUS:               ID:20130124043903 L   I
 2013-01-24-0428-36M.COL___180                                                 6
 STAT SP IPHASW D HRMM SECON CODA AMPLIT PERI AZIMU VELO AIN AR TRES W  DIS CAZ7
 BAR2 SZ EP        439 23.31                             168    0.0510 28.6 186 
 BAR2 SZ I         439 23.46         3.6 0.10            167           28.6 186 
 BRR  HZ EP        439 25.33                             153    0.8410 67.7 295 
 BRR  HN ES   1    439 41.00                             153    0.35 7 67.7 295 
 PAM  SN ES        439 42.12                             151   -0.4310 74.0  43 
 RUS  HZ EP        439 27.48                             142   -0.2410  106 176 
 RUS  HN ES        439 46.67                             142    0.2710  106 176 
 PTB  HZ EP        439 30.21                             131   -0.36 9  148 257 
 PTB  HN ES        439 51.03                             131   -0.43 9  148 257 
 PTB  HN I         439 56.47         6.5 0.48            131            148 257 
                                                                                
