 2017  224 0632 37.1 L   6.803 -73.287117.4  RSN  7 0.4 1.4LRSN                1
 GAP=106        0.93       4.1     5.0  6.0 -0.1423E+01  0.7281E+00  0.2714E+01E
 Epicentro: ZAPATOCA - SANTANDER                                               3
 ACTION:UPD 17-05-24 15:40 OP:jn   STATUS:               ID:20170224063237 L   I
 OLDACT:UP  17-02-24 16:05 OP:edw  STATUS:               ID:20170224062746     3
 OLDACT:REG 17-02-24 12:42 OP:edw  STATUS:               ID:20170224062746     3
 2017-02-24-0628-00M.COL___388                                                 6
 STAT SP IPHASW D HRMM SECON CODA AMPLIT PERI AZIMU VELO AIN AR TRES W  DIS CAZ7
 BAR2 EZ IP     D  632 53.54                             167    0.1310 26.0 154 
 BAR2 EZ ES        633  6.15                             167    0.0310 26.0 154 
 BAR2 EZ I         633  7.89        21.4 0.18            167           26.0 154 
 BRR  HZ IP     C  632 54.01                             152   -0.4210 57.8 306 
 BRR  HN ES        633  8.16                             152    0.2110 57.8 306 
 BRR  HZ I         633  9.57         5.7 0.12            151           57.8 306 
 PAM  EZ EP        632 56.74                             141   -0.4310 88.0  48 
 PAM  EN ES        633 13.15                             141    0.3210 88.0  48 
 PAM  EZ I         633 14.19         5.3 0.44            143           88.0  48 
 RUS  HZ EP        632 58.40                             136   -0.0110  103 167 
 RUS  HN ES        633 14.72                             136   -0.3010  103 167 
 RUS  HZ I         633 16.87         5.0 0.16            137            103 167 
 PTB  HZ IP   9 C  632 58.82                             128   -1.61 0  133 257 
 PTB  HN ES        633 16.43                             125   -0.5810  133 257 
 PTB  HZ I         633 20.38         5.2 0.14            127            133 257 
 CHI  HZ EP   4    633 11.80                             111   -1.23 0  245 192 
 CHI  HN ES   2    633 42.16                             111    1.12 4  245 192 
 HEL  HZ EP   4    633 22.80                             109    8.49 0  257 255 
 CBOC HZ EP        633 21.87                             105    0.60 7  319 251 
 CBOC HN ES   4    633 54.47                             105   -1.24 0  319 251 
 CBOC HZ I         634  0.83         0.7 0.40            105            319 251 
                                                                                
