 2012  424 0236 53.0 L   6.773 -73.148145.3  RSN  6 0.4 1.7LRSN                1
 GAP=137        0.91       6.1     5.9  8.3  0.5567E+01  0.1404E+02 -0.1160E+01E
 Epicentro: LOS SANTOS - SANTANDER                                             3
 ACTION:UPD 12-07-05 11:55 OP:tino STATUS:               ID:20120424023653 L   I
 2012-04-24-0230-00M.COL___186                                                 6
 STAT SP IPHASW D HRMM SECON CODA AMPLIT PERI AZIMU VELO AIN AR TRES W  DIS CAZ7
 BAR2 SZ EP   1    237 12.48                             172     0.0 7   20 191 
 BAR2 SZ ES   1    237 27.18                             172    -0.6 7   20 191 
 BAR2 SZ I         237 31.77         9.2 0.10                            20 191 
 BRR  HZ EP   1    237 14.67                             152     0.5 7   72 301 
 BRR  HN ES   1    237 31.10                             152     0.4 7   72 301 
 BRR  HZ I         237 35.02        17.0 0.15                            72 301 
 PAM  SZ EP   1    237 15.26                             150     0.0 7   80  38 
 PAM  SN ES   1    237 32.52                             150    -0.2 7   80  38 
 PAM  SZ I         237 34.51         3.9 0.20                            80  38 
 RUS  HZ EP   1    237 16.91                             144     0.4 7   98 176 
 RUS  HN ES   1    237 35.05                             144     0.2 7   98 176 
 RUS  HZ I         237 36.59         5.1 0.28                            98 176 
 PTB  HZ EP   1    237 19.11                             132    -0.7 7  147 260 
 PTB  HN ES   2    237 40.45                             132    -0.3 5  147 260 
 ZAR  HZ EP   1    237 25.18                             122    -0.3 6  205 293 
 ZAR  HN ES   1    237 51.17                             122     0.3 6  205 293 
 ZAR  HZ I         237 56.41        11.4 0.36                           205 293 
                                                                                
