 2012 1124 0609 11.7 L   6.792 -73.165142.4  RSN  6 0.2 1.5LRSN                1
 GAP=134        0.48       3.4     3.0  5.0 -0.1340E+01  0.5559E+01 -0.2144E+01E
 Epicentro: LOS SANTOS - SANTANDER                                             3
 ACTION:UPD 12-12-05 15:35 OP:}ep  STATUS:               ID:20121124060911 L   I
 2012-11-24-0607-41M.COL___204                                                 6
 STAT SP IPHASW D HRMM SECON CODA AMPLIT PERI AZIMU VELO AIN AR TRES W  DIS CAZ7
 BAR2 SZ EP   1    6 9 30.62                             171   -0.24 7 22.2 185 
 BAR2 SZ ES   1    6 9 45.68                             171   -0.16 7 22.2 185 
 GIR2 SZ EP   1    6 9 30.79                             167   -0.15 7 31.8 354 
 GIR2 SZ ES   1    6 9 46.21                             167    0.22 7 31.8 354 
 GIR2 SZ I         6 9 48.05         3.7 0.40                          31.8 354 
 PAM  SZ EP   1    6 9 33.58                             150   -0.06 7 79.4  40 
 PAM  SN ES   1    6 9 50.80                             150    0.02 7 79.4  40 
 PAM  SZ I         6 9 52.68         7.7 0.58                          79.4  40 
 RUS  HN ES   1    6 9 53.50                             143    0.24 7 99.9 175 
 RUS  HZ I         6 9 54.75         3.9 0.42                          99.9 175 
 PTB  HZ EP   1    6 9 38.46                             132    0.32 7  145 259 
 PTB  HN ES   1    6 9 58.45                             132   -0.35 7  145 259 
 PTB  HZ I         6 9 58.89         5.7 0.52                           145 259 
 ZAR  HN ES   1    610  8.92                             122    0.21 6  202 293 
                                                                                
