 2015  824 0739 12.1 L   6.842 -73.051142.3  RSN  8 0.3 1.4LRSN                1
 GAP=193        0.71       2.8     4.2  5.2  0.8090E+00  0.4643E+01 -0.5992E+00E
 Epicentro: LOS SANTOS - SANTANDER                                             3
 ACTION:UPD 15-09-15 23:04 OP:cam  STATUS:               ID:20150824073912 L   I
 OLDACT:REG 15-08-24 12:46 OP:spq  STATUS:               ID:20150824073735     3
 2015-08-24-0737-35M.COL___334                                                 6
 STAT SP IPHASW D HRMM SECON CODA AMPLIT PERI AZIMU VELO AIN AR TRES W  DIS CAZ7
 BAR2 EZ EP        739 31.47                             167   -0.0410 31.2 208 
 BAR2 EZ ES   1    739 46.42                             167   -0.22 7 31.2 208 
 BAR2 EZ I         739 47.88         5.7 0.22            165           31.2 208 
 BRR  HZ EP     D  739 33.28                             149   -0.0410 78.7 292 
 BRR  HN ES        739 50.42                             149    0.5410 78.7 292 
 BRR  HZ I         739 52.76         3.7 0.14            147           78.7 292 
 RUS  HZ EP   1    739 35.47                             142   -0.37 7  105 182 
 RUS  HN ES   1    739 54.36                             142   -0.01 7  105 182 
 RUS  HZ I         739 55.04         1.8 0.26            144            105 182 
 OCA  HZ EP        739 40.18                             129    0.32 9  157 349 
 OCA  HN ES        740  1.33                             129   -0.19 9  157 349 
 OCA  HZ I         740  4.58         4.0 0.36            130            157 349 
 ZAR  HZ EP        739 45.30                             121    0.13 8  212 290 
 ZAR  HN ES        740 10.48                             121   -0.48 8  212 290 
 ZAR  HZ I         740 15.37         3.5 0.48            121            212 290 
 SML  HE ES   1    740 16.67                             117   -0.37 6  244 333 
 SML  HZ I         740 18.79         3.9 0.10            117            244 333 
 HEL  HE ES   1    740 25.99                             113    0.38 6  283 255 
 HEL  HZ I         740 31.18         1.6 0.28            114            283 255 
 GUY2CHZ EP        739 57.17                             111    0.35 7  312 235 
 GUY2CHE ES   1    740 31.18                             111   -0.53 5  312 235 
 GUY2CHZ I         740 38.15         1.1 0.54                           312 235 
                                                                                
