 2010 1124 0311 39.8 L   6.771 -73.035142.6  RSN  8 0.4 2.0LRSN                1
 GAP=171        0.89       4.1     8.8  7.1 -0.8685E+01  0.2554E+01  0.2660E+01E
 Epicentro: CEPITA - SANTANDER                                                 3
 ACTION:UP  10-12-17 16:54 OP:REBC STATUS:               ID:20101124031139 L   I
 2010-11-24-0309-16S.COL___129                                                 6
 STAT SP IPHASW D HRMM SECON CODA AMPLIT PERI AZIMU VELO SNR AR TRES W  DIS CAZ7
 BAR2 SZ EP   1    311 59.24                             169     0.1 7   26 220 
 BAR2 SZ ES   1    312 14.27                             169     0.1 7   26 220 
 BAR2 SZ I         312 15.93        30.1 0.17                            26 220 
 BRR  HZ EP        312  1.22                             148    -0.110   84 296 
 BRR  HZ I         312  1.34        48.6 0.14                            84 296 
 BRR  HN ES   1    312 18.28                             148     0.1 7   84 296 
 RUS  HZ EP   1    312  3.11                             144     0.1 7   97 183 
 RUS  HN ES   1    312 21.41                             144     0.3 7   97 183 
 RUS  HZ I         312 23.05        11.6 0.28                            97 183 
 GUE  SZ EP   1    312  4.92                             138     0.6 7  118   6 
 GRA  SZ EP   1    312  5.08                             136     0.3 7  126  12 
 GRA  SZ ES   1    312 23.33                             136    -0.9 7  126  12 
 GRA  SZ I         312 30.83         8.7 0.48                           126  12 
 CHI  HZ EP   1    312 17.01                             116    -0.4 6  249 198 
 CHI  HE ES   1    312 46.01                             116    -0.7 6  249 198 
 CHI  HZ I         312 50.72         3.3 0.45                           249 198 
 HEL  HZ EP   1    312 21.34                             113     0.2 6  283 257 
 PRA  HZ EP   1    312 33.59                             106     0.0 4  395 211 
                                                                                
