 2016  824 0421 53.1 L   6.738 -73.732 94.7  RSN  4 0.3 1.0LRSN                1
 GAP=112        0.93       5.6     4.0  8.6  0.6785E+01  0.4391E+01  0.2029E+02E
 Epicentro: EL CARMEN - SANTANDER                                              3
 ACTION:UPD 16-10-29 15:38 OP:rebc STATUS:               ID:20160824042153 L   I
 OLDACT:REG 16-08-24 12:27 OP:ak   STATUS:               ID:20160824041732     3
 2016-08-24-0418-00M.COL___377                                                 6
 STAT SP IPHASW D HRMM SECON CODA AMPLIT PERI AZIMU VELO AIN AR TRES W  DIS CAZ7
 BRR  HZ EP        422  6.61                             155   -0.3810 40.9   3 
 BRR  HN ES        422 18.09                             155    0.2410 40.9   3 
 BRR  HZ I         422 20.70         3.8 0.50                          40.9   3 
 BAR2 EZ EP        422  9.41                             144    0.6910 62.9 105 
 BAR2 EZ ES        422 20.49                             144   -0.4310 62.9 105 
 BAR2 EZ I         422 21.45         7.6 0.38                          62.9 105 
 PTB  HZ IP     C  422  9.95                             136   -0.0610 83.0 255 
 PTB  HN ES        422 23.25                             136    0.0210 83.0 255 
 PTB  HZ I         422 24.93         3.3 0.14                          83.0 255 
 RUS  HZ EP        422 13.67                             125   -0.2610  118 142 
 RUS  HE ES        422 30.38                             125    0.1810  118 142 
 RUS  HZ I         422 31.54         0.9 0.45                           118 142 
                                                                                
