 2017 1224 0306 34.8 L   6.848 -73.168136.0  RSN  4 0.2 1.0LRSN                1
 GAP=140        0.65       5.9     3.5  7.5 -0.5562E+01  0.1026E+02 -0.1366E+02E
 Epicentro: ZAPATOCA - SANTANDER                                               3
 ACTION:UPD 18-01-04 13:23 OP:rebc STATUS:               ID:20171224030634 L   I
 OLDACT:REG 17-12-24 12:38 OP:dani STATUS:               ID:20171224025526     3
 2017-12-24-0258-00M.COL___463                                                 6
 STAT SP IPHASW D HRMM SECON CODA AMPLIT PERI AZIMU VELO AIN AR TRES W  DIS CAZ7
 BAR2 EZ EP        3 6 53.00                             168   -0.3310 28.3 183 
 BAR2 EZ ES        3 7  8.04                             168    0.2210 28.3 183 
 BAR2 EZ I         3 7 10.39         2.7 0.36            168           28.3 183 
 PAM  EZ EP        3 6 56.14                             150    0.3410 75.1  44 
 PAM  EN ES        3 7 12.00                             150   -0.2110 75.1  44 
 PAM  EZ I         3 7 14.62         3.0 0.58            154           75.1  44 
 PTB  HN ES   1    3 7 21.08                             130   -0.08 7  146 257 
 PTB  HZ I         3 7 24.72         0.8 0.11            132            146 257 
 ZAR  HE ES        3 7 30.65                             121    0.03 9  200 291 
                                                                                
