 2017 1024 0818 20.8 L   6.762 -73.111144.1  RSN  5 0.2 1.0LRSN                1
 GAP=167        0.60       5.1     3.6  4.6 -0.8403E+01  0.4604E+00  0.7241E+01E
 Epicentro: LOS SANTOS - SANTANDER                                             3
 ACTION:UPD 17-11-07 19:36 OP:rebc STATUS:               ID:20171024081820 L   I
 OLDACT:REG 17-10-24 13:12 OP:dani STATUS:               ID:20171024081741     3
 2017-10-24-0818-00M.COL___422                                                 6
 STAT SP IPHASW D HRMM SECON CODA AMPLIT PERI AZIMU VELO AIN AR TRES W  DIS CAZ7
 BAR2 EZ EP        818 40.06                             172   -0.1410 20.3 203 
 BAR2 EZ ES        818 55.31                             172    0.0010 20.3 203 
 BAR2 EZ I         818 58.40         3.1 0.56            173           20.3 203 
 BRR  HZ EP        818 42.15                             150    0.0410 76.6 300 
 BRR  HN ES        818 58.89                             150    0.1810 76.6 300 
 BRR  HZ I         819  4.06         1.7 0.43            151           76.6 300 
 PAM  EZ EP        818 43.23                             150    0.3110 78.4  35 
 PAM  EN ES        818 59.94                             150   -0.2210 78.4  35 
 PAM  EZ I         819  2.90         1.4 0.32            152           78.4  35 
 PTB  HZ EP        818 47.50                             131   -0.43 9  151 261 
 PTB  HE ES        819  9.09                             131    0.02 9  151 261 
 PTB  HZ I         819 10.60         1.1 0.21            134            151 261 
 SPBC HZ EP        818 49.34                             129    0.22 9  162 221 
                                                                                
