 2013  424 0658  9.0 L   6.763 -73.151148.5  RSN  5 0.4 1.8LRSN                1
 GAP=137        0.71       4.8     5.4  8.0  0.9971E+00  0.6982E+00  0.6349E+01E
 Epicentro: LOS SANTOS - SANTANDER                                             3
 ACTION:UPD 13-05-22 14:40 OP:EP   STATUS:               ID:20130424065809 L   I
 2013-04-24-0648-39M.COL___210                                                 6
 STAT SP IPHASW D HRMM SECON CODA AMPLIT PERI AZIMU VELO AIN AR TRES W  DIS CAZ7
 BRR  HN ES        658 47.67                             152    0.4010 72.7 302 
 BRR  HN I         658 48.52        14.4 0.30            147           72.7 302 
 PAM  SZ EP   1    658 31.81                             150    0.14 7 81.0  38 
 PAM  SN ES   1    658 49.11                             150   -0.28 7 81.0  38 
 PAM  SN I         658 49.99         5.3 0.28            151           81.0  38 
 RUS  HZ EP   1    658 32.98                             146    0.29 7 96.5 176 
 RUS  HN ES   2    658 50.45                             146   -0.75 5 96.5 176 
 RUS  HN I         658 53.06         5.0 0.42            145           96.5 176 
 PTB  HZ EP   1    658 35.94                             133   -0.08 7  146 260 
 PTB  HN ES   2    658 56.53                             133   -0.60 5  146 260 
 PTB  HN I         659  2.42        10.9 0.28            129            146 260 
 SML  HN ES   1    659 14.71                             118   -0.37 6  247 336 
 SML  HN I         659 21.88         8.8 0.10            115            247 336 
                                                                                
