 2015 1224 0201 30.6 L   6.830 -73.171 96.0  RSN  6 0.5 1.3LRSN                1
 GAP=237        1.01       8.0    12.0 10.5  0.7642E+02  0.7235E+02  0.3011E+02E
 Epicentro: ZAPATOCA - SANTANDER                                               3
 ACTION:UPD 16-02-04 15:07 OP:cam  STATUS:               ID:20151224020131dL   I
 OLDACT:REG 15-12-24 12:27 OP:dnl  STATUS:               ID:20151224015749     3
 2015-12-24-0157-49M.COL___337                                                 6
 STAT SP IPHASW D HRMM SECON CODA AMPLIT PERI AZIMU VELO AIN AR TRES W  DIS CAZ7
 BAR2 EZ ES        2 1 54.74                             164   -0.4210 26.3 183 
 BAR2 EZ I         2 2  3.17         4.6 0.31            158           26.3 183 
 BRR  HZ EP        2 1 47.05                             142    0.6710 67.1 297 
 BRR  HN ES        2 1 58.86                             142    0.2010 67.1 297 
 BRR  HZ I         2 2 11.71        13.7 0.35            132           67.1 297 
 RUS  HE ES        2 2  5.52                             129   -0.0210  104 175 
 RUS  HZ I         2 2  8.16         2.2 0.18            126            104 175 
 PTB  HZ EP   4    2 1 51.64                             119   -2.22 0  146 257 
 PTB  HZ I         2 2 19.24         2.5 0.13            113            146 257 
 SPBC HZ EP   2    2 1 55.10                             116   -0.87 5  164 217 
 SPBC HE ES   2    2 2 16.54                             116    0.81 5  164 217 
 SPBC HZ I         2 2 22.40         5.4 0.14            111            164 217 
 ZAR  HZ EP   2    2 1 59.84                             111   -0.12 4  200 292 
 ZAR  HE ES        2 2 22.30                             111   -0.53 9  200 292 
 ZAR  HZ I         2 2 28.82         3.8 0.35            107            200 292 
                                                                                
