 2014  124 0428  7.2 L   6.834 -73.215141.1  RSN  7 0.2 1.5LRSN                1
 GAP=127        0.46       1.6     2.4  3.2 -0.1294E+01  0.2438E+01 -0.2473E+00E
 Epicentro: ZAPATOCA - SANTANDER                                               3
 ACTION:UPD 14-03-13 09:58 OP:ep   STATUS:               ID:20140124042807 L   I
 OLDACT:REG 14-01-24 07:30 OP:nd   STATUS:               ID:20140124042000     3
 2014-01-24-0420-00M.COL___285                                                 6
 STAT SP IPHASW D HRMM SECON CODA AMPLIT PERI AZIMU VELO AIN AR TRES W  DIS CAZ7
 BAR2 SZ EP        428 26.54                             169    0.1510 27.0 172 
 BAR2 SZ ES        428 41.38                             169    0.0510 27.0 172 
 BAR2 SZ I         428 42.42        16.0 0.32            170           27.0 172 
 PAM  SZ IP     C  428 29.38                             149    0.2710 79.7  46 
 PAM  SN ES        428 46.08                             149   -0.0910 79.7  46 
 PAM  SZ I         428 46.93         3.6 0.42            153           79.7  46 
 PTB  HZ EP        428 33.11                             132   -0.11 9  141 257 
 PTB  HN ES        428 53.51                             132    0.02 9  141 257 
 PTB  HZ I         429  0.48         5.1 0.38            131            141 257 
 SPBC HZ EP        428 35.34                             128    0.11 9  162 216 
 SPBC HN ES        428 56.98                             128   -0.08 9  162 216 
 SPBC HZ I         429  0.09         4.2 0.34            129            162 216 
 SML  HZ EP        428 42.73                             117   -0.16 8  237 337 
 SML  HN ES        429 10.53                             117   -0.16 8  237 337 
 SML  HZ I         429 18.17         4.5 0.20            117            237 337 
 CHI  HZ EP        428 44.84                             116   -0.04 8  250 193 
 CHI  HN ES        429 13.93                             116   -0.31 8  250 193 
 CHI  HZ I         429 18.86         1.1 0.54            117            250 193 
 GUY2CHZ EP   4    428 51.54                             112    1.35 0  297 233 
 GUY2CHN ES   2    429 24.46                             112    0.77 4  297 233 
 GUY2CHZ I         429 34.85         1.3 0.46                           297 233 
                                                                                
