 2013  424 0712  6.0 L   6.825 -73.148144.6  RSN 14 0.4 2.3LRSN                1
 GAP= 70        0.93       3.2     3.3  5.0 -0.1555E+01  0.1960E+01  0.6907E+00E
 Epicentro: LOS SANTOS - SANTANDER                                             3
 ACTION:UPD 13-05-22 14:40 OP:EP   STATUS:               ID:20130424071206 L   I
 2013-04-24-0708-39M.COL___209                                                 6
 STAT SP IPHASW D HRMM SECON CODA AMPLIT PERI AZIMU VELO AIN AR TRES W  DIS CAZ7
 BAR2 SZ IP     C  712 25.65                             169    0.0810 26.1 188 
 BAR2 SZ ES   1    712 40.54                             169   -0.28 7 26.1 188 
 BAR2 SZ I         712 41.81        74.5 0.16            171           26.1 188 
 GIR2 SZ IP     C  712 25.65                             168    0.1710 28.5 350 
 GIR2 SZ ES   1    712 40.60                             168   -0.06 7 28.5 350 
 GIR2 SZ I         712 42.19        49.6 0.40            163           28.5 350 
 BRR  HZ IP     C  712 27.46                             153    0.5010 69.6 297 
 BRR  HN ES   1    712 44.21                             153    0.92 7 69.6 297 
 BRR  HZ I         712 47.86        45.2 0.14            147           69.6 297 
 PAM  SZ IP     C  712 28.41                             151    0.4110 75.4  41 
 PAM  SN ES   1    712 45.25                             151    0.11 7 75.4  41 
 PAM  SZ I         712 47.41        72.7 0.44            145           75.4  41 
 RUS  HZ IP     D  712 29.63                             143   -0.2410  103 176 
 RUS  HN ES   1    712 47.77                             143   -0.69 7  103 176 
 RUS  HZ I         712 49.83        14.9 0.26            140            103 176 
 PTB  HZ EP        712 32.06                             132   -0.86 9  148 258 
 PTB  HN ES   1    712 53.52                             132   -0.38 7  148 258 
 PTB  HZ I         712 59.24        18.1 0.52            127            148 258 
 TAM  HZ IP     D  712 34.06                             130    0.36 9  156 106 
 TAM  HE ES   1    712 55.44                             130    0.15 7  156 106 
 TAM  HZ I         712 56.64        10.6 0.32            125            156 106 
 OCA  HZ EP        712 33.86                             130   -0.12 9  157 353 
 OCA  HN ES   1    712 55.37                             130   -0.41 7  157 353 
 OCA  HZ I         712 59.45        22.4 0.36            124            157 353 
 NOR  HZ EP   1    712 42.20                             118    0.36 6  236 234 
 NOR  HN ES   1    713  9.66                             118   -0.11 6  236 234 
 NOR  HZ I         713 13.57        16.0 0.52            114            236 234 
 SML  HZ EP        712 41.60                             118   -0.69 8  241 335 
 SML  HN ES   1    713 10.59                             118    0.01 6  241 335 
 SML  HZ I         713 20.14        25.6 0.10            112            241 335 
 ROSC BZ EP   2    712 44.88                             116    0.55 4  255 211 
 ROSC BE ES   2    713 14.46                             116    0.26 4  255 211 
 ROSC BZ I         713 22.47        18.4 0.40            112            255 211 
 HEL  HZ EP   1    712 46.97                             115    0.75 6  273 255 
 HEL  HN ES   1    713 17.81                             115    0.23 6  273 255 
 HEL  HZ I         713 24.18         7.7 0.34            110            273 255 
 URE  HE ES   4    713 17.74                             114   -1.03 0  283 291 
 SDV  BZ EP     C  712 55.31                             108   -0.52 6  359  51 
 SDV  BZ I         713 36.54         2.6 0.50            104            359  51 
 PRA  HZ EP        713  0.19                             106    0.42 6  394 209 
 PRA  HN ES   1    713 41.16                             106   -0.54 4  394 209 
 PRA  HZ I         713 46.55         9.4 0.34            103            394 209 
 SJC  HZ EP   4    713  0.32                             106   -0.93 0  407 327 
 SJC  HN ES   4    713 41.17                             106   -3.16 0  407 327 
                                                                                
