 2015  724 0031 45.9 L   6.812 -73.116147.5  RSN  8 0.3 2.1LRSN                1
 GAP=186        0.61       1.9     3.1  4.2 -0.8125E+00  0.5918E+01 -0.1541E+01E
 Epicentro: LOS SANTOS - SANTANDER                                             3
 ACTION:UPD 15-09-08 21:50 OP:cam  STATUS:               ID:20150724003145 L   I
 OLDACT:REG 15-07-24 12:36 OP:stll STATUS:               ID:20150724002748     3
 2015-07-24-0027-48M.COL___340                                                 6
 STAT SP IPHASW D HRMM SECON CODA AMPLIT PERI AZIMU VELO AIN AR TRES W  DIS CAZ7
 BAR2 EZ EP        032  5.81                             170   -0.0010 25.4 197 
 BAR2 EZ ES        032 21.39                             170    0.0710 25.4 197 
 BAR2 EZ I         032 23.52        13.8 0.28            170           25.4 197 
 RUS  HZ EP        032  9.84                             144   -0.1010  102 178 
 RUS  HN ES        032 28.51                             144   -0.1510  102 178 
 RUS  HZ I         032 29.60         7.2 0.42            149            102 178 
 OCA  HZ EP        032 14.60                             130    0.31 9  159 352 
 OCA  HN ES        032 36.68                             130    0.27 9  159 352 
 OCA  HZ I         032 41.81        25.9 0.22            132            159 352 
 ZAR  HZ EP        032 18.62                             122   -0.14 8  207 291 
 ZAR  HE ES        032 44.50                             122    0.14 8  207 291 
 ZAR  HZ I         032 51.39        13.9 0.30            123            207 291 
 NOR  HZ EP        032 22.10                             118   -0.04 8  238 235 
 NOR  HE ES        032 50.09                             118   -0.28 8  238 235 
 NOR  HZ I         032 53.51        10.2 0.18            121            238 235 
 SML  HZ EP        032 22.61                             118   -0.07 8  244 334 
 SML  HE ES        032 50.76                             118   -0.58 8  244 334 
 SML  HZ I         032 55.55        16.8 0.10            120            244 334 
 HEL  HZ EP        032 26.66                             115    0.03 7  276 256 
 HEL  HE ES        032 58.18                             115   -0.19 7  276 256 
 HEL  HZ I         033  4.52         4.7 0.34            117            276 256 
 GUY2CHZ EP        032 30.11                             112    0.09 7  305 235 
 GUY2CHN ES        033  5.11                             112    0.71 7  305 235 
 GUY2CHZ I         033 12.57         9.3 0.80                           305 235 
                                                                                
