 2013  824 0333 21.2 L   6.791 -73.107151.4  RSN 18 0.4 2.1LRSN                1
 GAP=142        0.95       2.4     3.8  4.8 -0.1308E+01  0.5140E+01  0.4684E+00E
 Epicentro: LOS SANTOS - SANTANDER                                             3
 ACTION:UPD 14-01-14 09:06 OP:ep   STATUS:               ID:20130824033321 L   I
 OLDACT:REG 13-08-24 07:30 OP:nd   STATUS:               ID:20130824032959     3
 2013-08-24-0329-59M.COL___270                                                 6
 STAT SP IPHASW D HRMM SECON CODA AMPLIT PERI AZIMU VELO AIN AR TRES W  DIS CAZ7
 BAR2 SZ EP     D  333 41.53                             171    0.0410 23.5 201 
 BAR2 SZ ES        333 56.79                             171   -0.5410 23.5 201 
 BAR2 SZ I         333 58.36        20.4 0.22            167           23.5 201 
 BRR  HZ IP     C  333 43.42                             152    0.2510 75.4 298 
 BRR  HN ES        334  0.91                             152    0.5810 75.4 298 
 BRR  HZ I         334  3.80        22.0 0.14            148           75.4 298 
 PAM  SZ EP        333 44.23                             152    0.3410 75.5  37 
 PAM  SN ES        334  1.65                             152    0.0510 75.5  37 
 PAM  SZ I         334  4.04         9.2 0.16            157           75.5  37 
 RUS  HZ EP        333 45.69                             145    0.2910 99.4 178 
 RUS  HN ES        334  3.94                             145   -0.3610 99.4 178 
 RUS  HZ I         334  5.89         8.2 0.22            146           99.4 178 
 PTB  HZ EP        333 48.12                             132   -0.85 9  152 260 
 PTB  HN ES   2    334  9.71                             132   -0.94 5  152 260 
 PTB  HZ I         334 16.76        23.2 0.50            130            152 260 
 OCA  HZ EP   2    333 49.44                             131   -0.63 5  162 352 
 OCA  HN ES        334 13.14                             131    0.53 9  162 352 
 OCA  HZ I         334 16.48        14.0 0.30            131            162 352 
 SPBC HZ EP        333 50.49                             130    0.19 9  165 220 
 SPBC HN ES        334 13.23                             130    0.22 9  165 220 
 SPBC HZ I         334 19.52        16.2 0.30            129            165 220 
 ZAR  HZ EP        333 54.41                             123   -0.02 8  208 292 
 ZAR  HN ES        334 20.23                             123   -0.15 8  208 292 
 ZAR  HZ I         334 26.03        20.5 0.56            122            208 292 
 NOR  HZ EP        333 57.54                             119   -0.01 8  238 235 
 NOR  HN ES        334 25.63                             119   -0.29 8  238 235 
 NOR  HZ I         334 34.06         8.2 0.16            119            238 235 
 SML  HZ EP        333 57.86                             118   -0.55 8  246 334 
 SML  HE ES        334 27.24                             118   -0.22 8  246 334 
 SML  HZ I         334 33.79        23.2 0.26            119            246 334 
 CHI  HZ EP        333 59.30                             118    0.08 8  249 196 
 CHI  HN ES        334 28.72                             118   -0.17 8  249 196 
 CHI  HZ I         334 38.54         8.7 0.24            119            249 196 
 HEL  HZ EP   2    334  2.63                             115    0.52 4  276 256 
 HEL  HN ES        334 34.52                             115    0.48 7  276 256 
 HEL  HZ I         334 39.98         7.7 0.34            115            276 256 
 URE  HZ EP   4    334  1.03                             114   -1.97 0  288 292 
 URE  HN ES   4    334 33.29                             114   -2.34 0  288 292 
 URE  HZ I         334 42.46         9.9 0.22            114            288 292 
 GUY2CHZ EP   4    334  6.78                             113    1.40 0  304 235 
 GUY2CHN ES   4    334 43.14                             113    3.28 0  304 235 
 GUY2CHZ I         334 48.79         4.0 0.48                           304 235 
 RREF HZ EP   4    334 10.39                             112    2.53 0  324 230 
 RREF HN ES   4    334 48.37                             112    4.09 0  324 230 
 RREF HZ I         334 52.96         7.0 0.34            112            324 230 
 COD  HZ EP        334  9.24                             110   -0.70 6  350 354 
 COD  HN ES   4    334 46.47                             110   -1.50 0  350 354 
 COD  HZ I         334 53.61         2.2 0.38            111            350 354 
 PRA  HZ EP        334 15.90                             107    0.86 6  393 210 
 PRA  HN ES        334 57.51                             107    0.45 6  393 210 
 PRA  HZ I         335  1.56         6.5 0.28            108            393 210 
 SJC  HZ EP   4    334 14.44                             106   -2.85 0  412 327 
 SJC  HN ES   4    334 58.06                             106   -3.01 0  412 327 
 SJC  HZ I         335  2.10         2.7 0.38            107            412 327 
                                                                                
