 2017 1024 0933 24.9 L   6.805 -73.141145.6  RSN 13 0.5 1.8LRSN                1
 GAP=112        1.24       4.2     4.3  6.6  0.2506E+01  0.6259E+01  0.8100E+01E
 Epicentro: LOS SANTOS - SANTANDER                                             3
 ACTION:UPD 17-11-07 19:36 OP:rebc STATUS:               ID:20171024093324 L   I
 OLDACT:UP  17-10-24 17:16 OP:dani STATUS:               ID:20171024092700     3
 OLDACT:REG 17-10-24 13:17 OP:dani STATUS:               ID:20171024092700     3
 2017-10-24-0928-00M.COL___425                                                 6
 STAT SP IPHASW D HRMM SECON CODA AMPLIT PERI AZIMU VELO AIN AR TRES W  DIS CAZ7
 BAR2 EZ EP     C  933 44.37                             170   -0.1910 24.0 191 
 BAR2 EZ ES        933 59.48                             170   -0.3910 24.0 191 
 BAR2 EZ I         934  1.00        21.0 0.44            167           24.0 191 
 BRR  HZ EP     C  933 46.22                             152    0.1310 71.4 298 
 BRR  HN ES        934  3.79                             152    1.2210 71.4 298 
 BRR  HZ I         934  7.75        12.0 0.46            150           71.4 298 
 PAM  EZ EP        933 47.12                             151    0.0310 76.6  39 
 PAM  EN ES        934  4.30                             151   -0.0710 76.6  39 
 PAM  EZ I         934  5.06         6.2 0.18            156           76.6  39 
 RUS  HZ EP        933 48.63                             144   -0.0810  101 176 
 RUS  HN ES        934  6.88                             144   -0.3710  101 176 
 RUS  HZ I         934  8.21         9.6 0.36            144            101 176 
 PTB  HZ EP        933 51.01                             132   -0.95 9  148 259 
 PTB  HN ES        934 12.36                             132   -0.66 9  148 259 
 PTB  HZ I         934 18.70         5.5 0.46            130            148 259 
 YPLC HZ EP        933 54.65                             127   -0.10 9  177 152 
 YPLC HN ES        934 18.42                             127    0.43 9  177 152 
 YPLC HZ I         934 22.18         5.2 0.35            128            177 152 
 ZAR  HZ EP        933 57.41                             122   -0.00 9  204 292 
 ZAR  HN ES        934 22.60                             122   -0.13 9  204 292 
 ZAR  HZ I         934 28.42        10.6 0.18            122            204 292 
 NOR  HZ EP        934  1.86                             118    1.11 8  235 234 
 NOR  HN ES        934 28.42                             118   -0.25 8  235 234 
 NOR  HZ I         934 32.98         8.4 0.35            118            235 234 
 CHI  HZ EP        934  2.47                             117   -0.24 8  249 195 
 CHI  HN ES        934 32.76                             117    0.60 8  249 195 
 CHI  HZ I         934 40.31         2.4 0.33            117            249 195 
 URE  HZ EP   4    934  8.98                             114    2.94 0  284 292 
 URE  HE ES   4    934 35.43                             114   -2.67 0  284 292 
 URE  HZ I         934 48.15         4.4 0.22            114            284 292 
 GUY2CHZ EP   9    934 11.41                             112    2.78 0  302 235 
 GUY2CHN ES        934 45.92                             111    0.43 7  302 235 
 GUY2CHZ I         934 52.41         3.6 0.35                           302 235 
 PRA  HZ EP        934 18.16                             106   -0.39 6  393 210 
 PRA  HN ES        935  0.67                             106    0.31 6  393 210 
 PRA  HZ I         935  6.85         3.5 0.50            107            393 210 
 ORTC HZ EP        934 19.51                             106    0.56 6  396 216 
                                                                                
