 2015  624 0448 37.8 L   6.820 -73.030151.5  RSN 12 0.4 2.3LRSN                1
 GAP=195        0.91       2.7     4.7  5.1 -0.2206E+01  0.6374E+01  0.1154E+01E
 Epicentro: CEPITA - SANTANDER                                                 3
 ACTION:UPD 15-09-10 22:14 OP:cam  STATUS:               ID:20150624044837 L   I
 OLDACT:REG 15-06-24 12:59 OP:mh   STATUS:               ID:20150624044748     3
 2015-06-24-0447-48M.COL___316                                                 6
 STAT SP IPHASW D HRMM SECON CODA AMPLIT PERI AZIMU VELO AIN AR TRES W  DIS CAZ7
 BAR2 EZ EP        448 58.52                             168    0.2910 30.3 214 
 BAR2 EZ ES        449 13.73                             168   -0.4710 30.3 214 
 BAR2 EZ I         449 15.18        37.7 0.16            174           30.3 214 
 BRR  HZ EP        449  0.49                             150    0.3510 81.7 293 
 BRR  HN ES        449 17.85                             150    0.2610 81.7 293 
 BRR  HZ I         449 21.47        24.1 0.16            153           81.7 293 
 RUS  HZ EP        449  2.25                             144    0.0210  103 183 
 RUS  HN ES   1    449 21.07                             144   -0.25 7  103 183 
 RUS  HZ I         449 22.17        16.2 0.32            150            103 183 
 OCA  HZ EP        449  6.22                             131   -0.28 9  160 349 
 OCA  HN ES        449 29.65                             131    0.73 9  160 349 
 OCA  HZ I         449 35.53        24.2 0.30            132            160 349 
 ZAR  HZ EP        449 11.19                             122   -0.53 8  215 290 
 ZAR  HE ES   1    449 37.16                             122   -1.04 6  215 290 
 NOR  HZ EP        449 14.81                             118   -0.27 8  246 236 
 NOR  HN ES        449 44.11                             118   -0.08 8  246 236 
 NOR  HZ I         449 46.55        10.8 0.18            123            246 236 
 SML  HZ EP        449 14.63                             118   -0.47 8  247 332 
 SML  HN ES        449 43.92                             118   -0.30 8  247 332 
 SML  HZ I         449 46.39        19.0 0.10            120            247 332 
 ROSC BZ EP   1    449 17.68                             117    0.54 6  261 213 
 ROSC BN ES   4    449 49.78                             117    1.93 0  261 213 
 ROSC BZ I         449 55.87        16.9 0.45            121            261 213 
 HEL  HZ EP        449 19.91                             115    0.22 7  285 256 
 HEL  HN ES        449 53.05                             115    0.65 7  285 256 
 HEL  HZ I         449 56.57         5.1 0.30            118            285 256 
 GUY2CHZ EP   1    449 23.11                             112    0.15 5  313 236 
 GUY2CHE ES        449 58.22                             112    0.01 7  313 236 
 GUY2CHZ I         450  3.11         5.6 0.36                           313 236 
 TOL  SZ EP        449 27.92                             110    0.45 6  354 226 
 TOL  SN ES        450  6.57                             110    0.33 6  354 226 
 TOL  SZ I         450 12.17        17.8 0.94            113            354 226 
 PRA  HZ EP   1    449 31.99                             107   -0.47 4  400 211 
 PRA  HN ES        450 14.70                             107   -0.42 6  400 211 
 PRA  HZ I         450 19.81         6.3 0.32            110            400 211 
                                                                                
