 2011  324 0917 52.1 L   6.772 -73.135148.1  RSN  5 0.4 1.9LRSN                1
 GAP=202        0.87       6.2     8.4  8.3 -0.2735E+02  0.1418E+02 -0.5136E+01E
 Epicentro: LOS SANTOS - SANTANDER                                             3
 ACTION:UP  11-06-16 14:35 OP:jfem STATUS:               ID:20110324091752 L   I
 2011-03-24-0917-47S.COL___132                                                 6
 STAT SP IPHASW D HRMM SECON CODA AMPLIT PERI AZIMU VELO SNR AR TRES W  DIS CAZ7
 BAR2 SZ EP   1    918 11.91                             172     0.0 7   21 195 
 BAR2 SZ ES   1    918 27.05                             172    -0.4 7   21 195 
 BAR2 SZ I         918 28.03        21.5 0.26                            21 195 
 BRR  HZ IP        918 13.93                             152     0.310   74 300 
 BRR  HZ I         918 14.27        43.4 0.10                            74 300 
 BRR  HN ES   1    918 31.01                             152     0.6 7   74 300 
 OCA  SZ EP        918 20.93                             129     0.1 9  163 353 
 OCA  SZ ES   1    918 42.69                             129    -0.6 7  163 353 
 OCA  SZ I         918 52.95         7.5 0.16                           163 353 
 NOR  SZ EP   1    918 27.96                             119     0.1 6  234 235 
 NOR  SN ES   1    918 55.61                             119    -0.2 6  234 235 
 NOR  SZ I         919  1.23         1.2 0.28                           234 235 
 HEL  HN ES   1    919  3.49                             115    -0.4 6  272 256 
                                                                                
