 2010 1024 0844 56.6 L   6.805 -73.053142.1  RSN  7 0.4 1.6LRSN                1
 GAP=169        0.90       4.9     8.0  9.3 -0.1184E+02  0.4560E+01 -0.2930E+01E
 Epicentro: LOS SANTOS - SANTANDER                                             3
 ACTION:UP  11-02-18 11:11 OP:tino STATUS:               ID:20101024084456 L   I
 2010-10-24-0844-42S.COL___125                                                 6
 STAT SP IPHASW D HRMM SECON CODA AMPLIT PERI AZIMU VELO SNR AR TRES W  DIS CAZ7
 BAR2 SZ EP   1    845 15.74                             168    -0.2 8   28 212 
 BAR2 SZ I         845 33.36         7.6 0.44                            28 212 
 BRR  HZ EP   1    845 17.62                             149    -0.3 8   80 295 
 BRR  HE ES   1    845 34.98                             149     0.5 8   80 295 
 BRR  HZ I         845 38.74        10.7 0.28                            80 295 
 RUS  HZ EP   1    845 20.16                             143     0.1 8  101 182 
 RUS  HN ES   1    845 38.39                             143     0.1 8  101 182 
 RUS  HZ I         845 39.64         4.1 0.34                           101 182 
 GRA  SZ IP        845 21.55                             137     0.310  123  13 
 GRA  SZ ES   1    845 39.87                             137    -0.6 7  123  13 
 GRA  SZ I         845 43.97         4.8 0.46                           123  13 
 OCA  SZ EP   1    845 24.91                             129     0.2 7  161 350 
 OCA  SZ I         845 50.44         4.9 0.21                           161 350 
 NOR  SZ EP   2    845 32.36                             117    -0.7 4  244 236 
 NOR  SN ES   2    846  0.55                             117    -1.0 4  244 236 
 HEL  HZ EP   1    845 38.14                             113     0.4 6  282 256 
 HEL  HZ I         846 15.38         3.0 0.38                           282 256 
                                                                                
