 2016 1024 0906 40.7 L   6.777 -73.138145.0  RSN  5 0.2 1.4LRSN                1
 GAP=139        0.64       2.6     3.6  6.2 -0.3274E+01  0.6223E+01  0.2534E+00E
 Epicentro: LOS SANTOS - SANTANDER                                             3
 ACTION:UPD 16-11-09 19:22 OP:rebc STATUS:               ID:20161024090640 L   I
 OLDACT:REG 16-10-24 14:04 OP:cara STATUS:               ID:20161024085745     3
 2016-10-24-0858-00M.COL___353                                                 6
 STAT SP IPHASW D HRMM SECON CODA AMPLIT PERI AZIMU VELO AIN AR TRES W  DIS CAZ7
 PAM  EZ EP        9 7  2.65                             150   -0.2710 78.9  38 
 PAM  EE ES        9 7 20.06                             150   -0.2010 78.9  38 
 PAM  EZ I         9 7 22.17         5.8 0.56            151           78.9  38 
 RUS  HZ EP        9 7  4.28                             144    0.0910 97.9 176 
 RUS  HN ES        9 7 22.62                             144    0.1210 97.9 176 
 RUS  HZ I         9 7 23.66         2.1 0.24            147           97.9 176 
 PTB  HZ EP        9 7  7.54                             132   -0.10 9  148 260 
 PTB  HN ES        9 7 28.33                             132   -0.32 9  148 260 
 PTB  HZ I         9 7 29.02         1.7 0.16            133            148 260 
 SPBC HZ EP        9 7  9.05                             129    0.05 9  162 220 
 SPBC HN ES        9 7 31.30                             129    0.22 9  162 220 
 SPBC HZ I         9 7 32.69         2.0 0.14            131            162 220 
 OCA  HN ES        9 7 31.92                             129    0.48 9  163 353 
 OCA  HZ I         9 7 35.20         7.6 0.62            130            163 353 
                                                                                
