 2013  224 0115  3.5 L   6.826 -73.143142.0  RSN  5 0.5 1.6LRSN                1
 GAP=136        1.24       6.8     7.2 10.9 -0.6203E+01  0.1061E+01  0.1261E+02E
 Epicentro: LOS SANTOS - SANTANDER                                             3
 ACTION:UPD 13-03-12 09:35 OP:ep   STATUS:               ID:20130224011503 L   I
 2013-02-24-0110-00M.COL___225                                                 6
 STAT SP IPHASW D HRMM SECON CODA AMPLIT PERI AZIMU VELO AIN AR TRES W  DIS CAZ7
 BAR2 SZ ES   1    115 38.24                             169    0.49 7 26.2 190 
 BRR  HN ES        115 40.61                             152    0.2910 70.2 296 
 PAM  SZ EP        115 25.82                             150    0.6510 75.0  41 
 PAM  SN ES        115 41.34                             150   -0.7410 75.0  41 
 RUS  HZ EP        115 27.46                             142    0.3710  103 176 
 RUS  HN ES        115 45.17                             142   -0.3310  103 176 
 RUS  HN I         115 46.84         3.9 0.34            141            103 176 
 PTB  HZ EP   1    115 29.44                             130   -0.81 7  149 258 
 PTB  HN ES   1    115 50.86                             130   -0.25 7  149 258 
 PTB  HN I         115 53.92         7.6 0.24            130            149 258 
                                                                                
