 2011  824 0350 15.9 L   6.928 -72.871139.9  RSN  4 0.2 1.4LRSN                1
 GAP=210        0.50       4.8    10.9  7.8  0.3511E+02 -0.4599E+02 -0.1547E+02E
 Epicentro: GUACA - SANTANDER                                                  3
 ACTION:UPD 12-07-13 15:53 OP:ep   STATUS:               ID:20110824035015 L   I
 2011-08-24-0349-05S.COL___159                                                 6
 STAT SP IPHASW D HRMM SECON CODA AMPLIT PERI AZIMU VELO AIN AR TRES W  DIS CAZ7
 BAR2 SZ EP   1    350 36.07                             160    0.37 7 50.6 223 
 BAR2 SZ ES   1    350 51.32                             160    0.16 7 50.6 223 
 BAR2 SZ I         350 53.81         6.2 0.18                          50.6 223 
 BRR  HZ EP   1    350 37.82                             144   -0.14 7 95.0 282 
 BRR  HZ I         350 55.10         3.7 0.46                          95.0 282 
 BRR  HN ES   1    350 55.19                             144    0.02 7 95.0 282 
 RUS  HZ EP   1    350 40.36                             138    0.03 7  117 192 
 RUS  HZ I         350 58.46         3.9 0.61                           117 192 
 RUS  HN ES   1    350 59.05                             138   -0.36 7  117 192 
 OCA  SZ ES   2    351  4.00                             130   -0.27 5  153 341 
 OCA  SZ I         351 15.15         3.6 0.44                           153 341 
                                                                                
