 2013 1024 0900 34.7 L   6.879 -73.352123.7  RSN 12 0.5 2.1LRSN                1
 GAP= 95        1.22       2.7     4.1  6.2 -0.1550E+01  0.5678E+01 -0.1197E+01E
 Epicentro: BETULIA - SANTANDER                                                3
 ACTION:UPD 13-11-25 09:23 OP:ep   STATUS:               ID:20131024090034 L   I
 OLDACT:DUP 13-10-24 13:02 OP:carl STATUS:               ID:20131024085840d    3
 2013-10-24-0858-39M.COL___223                                                 6
 STAT SP IPHASW D HRMM SECON CODA AMPLIT PERI AZIMU VELO AIN AR TRES W  DIS CAZ7
 BAR2 SZ EP        9 0 52.03                             162   -0.1110 36.8 149 
 BAR2 SZ ES        9 1  5.79                             162    0.0910 36.8 149 
 BAR2 SZ I         9 1  6.47       137.3 0.26            164           36.8 149 
 BRR  HZ IP     C  9 0 52.40                             158    0.1910 47.1 302 
 BRR  HN ES        9 1  6.83                             158    0.9910 47.1 302 
 BRR  HZ I         9 1  7.31        20.6 0.12            155           47.1 302 
 PAM  SZ EP        9 0 55.60                             143    0.1710 88.2  55 
 PAM  SN ES        9 1 11.86                             143    0.2910 88.2  55 
 RUS  HZ EP        9 0 57.24                             135   -0.1910  113 165 
 RUS  HN ES        9 1 14.48                             135   -0.6610  113 165 
 RUS  HZ I         9 1 15.67        12.2 0.28            136            113 165 
 PTB  HZ EP        9 0 57.34                             131   -0.7610  128 253 
 PTB  HE ES        9 1 15.42                             131   -0.9010  128 253 
 PTB  HZ I         9 1 20.77        14.0 0.30            130            128 253 
 OCA  HZ EP        9 0 59.81                             126   -0.64 9  150   1 
 OCA  HN ES        9 1 20.03                             126   -0.48 9  150   1 
 OCA  HZ I         9 1 21.23        19.8 0.28            127            150   1 
 SPBC HZ EP        9 1  1.45                             125    0.39 9  157 210 
 SPBC HN ES        9 1 21.38                             125   -0.21 9  157 210 
 SPBC HZ I         9 1 23.88        12.2 0.10            124            157 210 
 ZAR  HZ EP   1    9 1  3.24                             121   -0.00 7  180 292 
 ZAR  HN ES        9 1 25.89                             121    0.41 9  180 292 
 ZAR  HZ I         9 1 30.36        17.0 0.28            120            180 292 
 NOR  HZ EP        9 1  8.33                             115    0.43 8  222 229 
 NOR  HE ES        9 1 34.17                             115    0.41 8  222 229 
 SML  HZ EP        9 1  8.59                             114    0.24 8  227 340 
 SML  HN ES        9 1 33.94                             114   -0.62 8  227 340 
 SML  HZ I         9 1 40.44        23.8 0.26            114            227 340 
 CHI  HZ EP        9 1 12.26                             112    0.53 8  252 190 
 CHI  HN ES        9 1 40.90                             112    0.32 8  252 190 
 CHI  HZ I         9 1 47.86         3.4 0.36            112            252 190 
 COD  HZ EP   1    9 1 21.78                             105    0.64 5  338 358 
 COD  HE ES        9 1 57.85                             105    0.51 7  338 358 
                                                                                
