 2010  624 0610  8.5 L   6.747 -73.043142.0  RSN  4 0.3 1.2LRSN                1
 GAP=171        0.56       4.5     9.3  9.0  0.2333E+02 -0.5940E+02 -0.2026E+02E
 Epicentro: ARATOCA - SANTANDER                                                3
 ACTION:UP  10-08-24 10:12 OP:vdl  STATUS:               ID:20100624061008 L   I
 2010-06-24-0608-48S.COL___118                                                 6
 STAT SP IPHASW D HRMM SECON CODA AMPLIT PERI AZIMU VELO SNR AR TRES W  DIS CAZ7
 BAR2 SZ EP   3    610 27.54                             172    -0.1 2   23 222 
 BAR2 SZ ES   3    610 41.67                             172    -1.0 2   23 222 
 BRR  HZ EP        610 29.80                             149    -0.210   84 298 
 BRR  HN ES        610 46.99                             149     0.210   84 298 
 BRR  HZ I         610 47.99         5.2 0.18                            84 298 
 RUS  HZ EP        610 31.34                             146    -0.110   95 183 
 RUS  HN ES   1    610 49.62                             146     0.3 7   95 183 
 RUS  HZ I         610 51.41         1.8 0.41                            95 183 
 GRA  SZ EP        610 33.76                             136     0.110  129  12 
                                                                                
