 2015  324 0003  8.8 L   6.514 -73.506118.0  RSN  7 0.4 1.7LRSN                1
 GAP=126        1.11       4.3     4.8  7.7  0.3451E+01  0.1212E+02 -0.5047E+01E
 Epicentro: SIMACOTA - SANTANDER                                               3
 ACTION:UPD 15-04-30 16:28 OP:nd   STATUS:               ID:20150324000308 L   I
 OLDACT:REG 15-03-24 12:34 OP:fm   STATUS:               ID:20150324000005     3
 2015-03-24-0000-05M.COL___275                                                 6
 STAT SP IPHASW D HRMM SECON CODA AMPLIT PERI AZIMU VELO AIN AR TRES W  DIS CAZ7
 BAR2 EZ EP        0 3 25.81                             162    0.2510 36.8  76 
 BAR2 EZ ES        0 3 38.67                             162    0.0610 36.8  76 
 BAR2 EZ I         0 3 39.47        37.2 0.32            164           36.8  76 
 BRR  HZ EP        0 3 26.59                             147   -0.3510 69.4 341 
 BRR  HN ES        0 3 41.24                             147    0.1810 69.4 341 
 BRR  HZ I         0 3 46.22         8.9 0.12            148           69.4 341 
 RUS  HZ EP        0 3 29.14                             143    0.5510 83.1 146 
 RUS  HE ES        0 3 43.95                             143   -0.0610 83.1 146 
 RUS  HZ I         0 3 47.83         3.5 0.30            148           83.1 146 
 PTB  HZ EP        0 3 28.65                             135   -1.0510  105 272 
 PAM  SZ EP        0 3 32.55                             130    0.2010  128  44 
 PAM  SN ES        0 3 50.30                             130   -0.4110  128  44 
 PAM  SZ I         0 3 51.40         3.1 0.42            133            128  44 
 ZAR  HZ EP        0 3 38.10                             118    0.60 9  184 306 
 ZAR  HN ES        0 4  0.15                             118    0.28 9  184 306 
 ZAR  HZ I         0 4  2.61         9.4 0.20            121            184 306 
 OCA  HZ EP        0 3 38.26                             117   -0.22 9  192   6 
 OCA  HN ES        0 4  1.72                             117    0.10 9  192   6 
 OCA  HZ I         0 4  7.97        15.2 0.16            120            192   6 
                                                                                
