 2014  224 0639 50.6 L   6.768 -73.198146.0  RSN  4 0.5 1.1LRSN                1
 GAP=132        0.99       5.8     5.5 11.2  0.4174E+00  0.2516E+02  0.2088E+01E
 Epicentro: VILLANUEVA - SANTANDER                                             3
 ACTION:UPD 14-03-10 08:12 OP:ep   STATUS:               ID:20140224063950 L   I
 OLDACT:REG 14-02-24 08:25 OP:y    STATUS:               ID:20140224063819     3
 2014-02-24-0638-19M.COL___224                                                 6
 STAT SP IPHASW D HRMM SECON CODA AMPLIT PERI AZIMU VELO AIN AR TRES W  DIS CAZ7
 PAM  SZ EP   2    640 13.43                             149    0.19 5 83.8  41 
 PAM  SN ES        640 30.84                             149   -0.0610 83.8  41 
 PAM  SZ I         640 32.23         1.4 0.46            151           83.8  41 
 RUS  HZ EP        640 14.51                             145    0.3310 97.7 173 
 RUS  HN ES        640 32.56                             145   -0.0010 97.7 173 
 RUS  HZ I         640 33.72         1.9 0.22            149           97.7 173 
 PTB  HZ EP     D  640 16.10                             134   -0.94 9  141 260 
 PTB  HN ES        640 37.88                             134    0.23 9  141 260 
 PTB  HZ I         640 38.96         2.0 0.14            134            141 260 
 ZAR  HZ EP   2    640 23.41                             123    0.74 4  200 294 
 ZAR  HN ES   1    640 48.09                             123    0.41 6  200 294 
 ZAR  HZ I         640 54.94         2.2 0.34            123            200 294 
                                                                                
