 2012 1224 0637 11.6 L   6.825 -73.129148.1  RSN 19 0.5 2.7LRSN 3.1WRSN        1
 SPEC AVERAGE  MO 13.7 ST  6.3 OM  2.2 f0 4.15 R0.3817 AL 1.77 WI 24.1 MW  3.1 3
 SPEC SD       MO  0.2 ST  5.4 OM  0.3 f0 1.23 R0.0984 AL      WI      MW  0.1 3
 GAP= 71        1.02       2.8     3.5  5.3 -0.7027E+00  0.1611E+01  0.1659E+01E
 Epicentro: LOS SANTOS - SANTANDER                                             3
 SPEC VIL SH Z MO 13.9 ST  3.9 OM  2.0 f0 3.21 R0.4579 AL 1.78 WI 35.4 MW  3.2 3
 SPEC VIL SH Z T 63824 K 0.000 GD  339 VS 4.20 DE 3.20 Q0300.0 QA 0.60 VS 4.20 3
 SPEC ROSCBH Z MO 14.0 ST  2.3 OM  2.1 f0 2.61 R0.5632 AL 1.83 WI 29.3 MW  3.3 3
 SPEC ROSCBH Z T 63815 K 0.000 GD  295 VS 4.20 DE 3.20 Q0300.0 QA 0.60 VS 4.20 3
 SPEC TAM HH Z MO 13.3 ST  1.4 OM  1.6 f0 3.66 R0.4016 AL 1.23 WI 20.1 MW  2.8 3
 SPEC TAM HH Z T 63751 K 0.000 GD  213 VS 4.20 DE 3.20 Q0300.0 QA 0.60 VS 4.20 3
 SPEC PTB HH Z MO 13.8 ST 17.0 OM  2.1 f0 5.71 R0.2574 AL 1.83 WI 23.0 MW  3.2 3
 SPEC PTB HH Z T 63756 K 0.000 GD  210 VS 4.20 DE 3.20 Q0300.0 QA 0.60 VS 4.20 3
 SPEC RUS HH Z MO 13.5 ST  1.0 OM  1.8 f0 2.95 R0.4983 AL 1.35 WI 16.3 MW  2.9 3
 SPEC RUS HH Z T 63752 K 0.000 GD  180 VS 4.20 DE 3.20 Q0300.0 QA 0.60 VS 4.20 3
 SPEC HEL HH Z MO 13.8 ST  9.6 OM  1.9 f0 4.83 R0.3043 AL 2.97 WI 23.0 MW  3.1 3
 SPEC HEL HH Z T 63826 K 0.000 GD  312 VS 4.20 DE 3.20 Q0300.0 QA 0.60 VS 4.20 3
 SPEC OCA HH Z MO 13.8 ST  7.9 OM  2.1 f0 4.38 R0.3356 AL 1.32 WI 15.5 MW  3.2 3
 SPEC OCA HH Z T 638 1 K 0.000 GD  216 VS 4.20 DE 3.20 Q0300.0 QA 0.60 VS 4.20 3
 SPEC ANILHH Z MO 13.9 ST  5.8 OM  1.9 f0 3.80 R0.3868 AL 1.28 WI 28.7 MW  3.2 3
 SPEC ANILHH Z T 63835 K 0.000 GD  390 VS 4.20 DE 3.20 Q0300.0 QA 0.60 VS 4.20 3
 SPEC CHI HH Z MO 13.6 ST  3.0 OM  1.7 f0 3.89 R0.3779 AL 2.65 WI 25.6 MW  3.0 3
 SPEC CHI HH Z T 63814 K 0.000 GD  292 VS 4.20 DE 3.20 Q0300.0 QA 0.60 VS 4.20 3
 SPEC BRR HH Z MO 13.5 ST 15.5 OM  1.9 f0 7.01 R0.2097 AL 2.53 WI 28.0 MW  3.0 3
 SPEC BRR HH Z T 63744 K 0.000 GD  164 VS 4.20 DE 3.20 Q0300.0 QA 0.60 VS 4.20 3
 SPEC GIR2SH Z MO 13.5 ST  2.0 OM  1.9 f0 3.62 R0.4061 AL 0.73 WI 19.8 MW  2.9 3
 SPEC GIR2SH Z T 63744 K 0.000 GD  150 VS 4.20 DE 3.20 Q0300.0 QA 0.60 VS 4.20 3
 ACTION:UPD 13-01-04 14:30 OP:ep   STATUS:               ID:20121224063711 L   I
 2012-12-24-0630-00M.COL___243                                                 6
 STAT SP IPHASW D HRMM SECON CODA AMPLIT PERI AZIMU VELO AIN AR TRES W  DIS CAZ7
 BAR2 SZ IP     D  637 31.55                             169   -0.0310 26.4 193 
 BAR2 SZ ES   1    637 46.83                             169   -0.33 7 26.4 193 
 BAR2 SZ I         637 50.63       172.7 0.44                          26.4 193 
 GIR2 SZ EP     C  637 31.61                             168    0.1210 28.9 346 
 GIR2 SZ ES   1    637 46.89                             168   -0.11 7 28.9 346 
 GIR2 SZ I         637 50.81        51.4 0.46                          28.9 346 
 BRR  HZ IP     C  637 33.41                             153    0.3910 71.6 296 
 BRR  HN ES   1    637 50.88                             153    1.15 7 71.6 296 
 BRR  HZ I         637 56.56        61.8 0.22                          71.6 296 
 RUS  HZ IP     D  637 35.44                             143   -0.3310  103 177 
 RUS  HN ES   1    637 53.74                             143   -0.89 7  103 177 
 RUS  HZ I         637 56.75        62.0 0.58                           103 177 
 PTB  HZ EP        637 38.15                             132   -0.82 9  150 258 
 PTB  HN ES   1    637 59.59                             132   -0.74 7  150 258 
 PTB  HZ I         638  1.76        64.1 0.18                           150 258 
 TAM  HZ IP     C  637 39.70                             131    0.33 9  154 106 
 TAM  HZ I         638  0.53        32.2 0.40                           154 106 
 TAM  HE ES   1    638  1.48                             131    0.46 7  154 106 
 OCA  HZ EP   1    637 40.04                             130    0.19 7  158 352 
 OCA  HN ES   1    638  2.50                             130    0.61 7  158 352 
 OCA  HZ I         638  7.33        91.9 0.42                           158 352 
 ZAR  HZ EP        637 44.09                             123   -0.18 9  205 291 
 ZAR  HE ES   1    638  9.48                             123   -0.27 6  205 291 
 ZAR  HZ I         638 16.74        69.4 0.28                           205 291 
 CTAB SZ EP        637 48.78                             119    0.94 8  233 211 
 SML  HZ EP   1    637 47.89                             118   -0.28 6  242 335 
 SML  HN ES   1    638 16.39                             118   -0.30 6  242 335 
 SML  HZ I         638 20.17       120.9 0.10                           242 335 
 CHI  HZ EP        637 49.44                             117   -0.33 8  252 195 
 CHI  HN ES   1    638 18.81                             117   -0.74 6  252 195 
 CHI  HZ I         638 27.46        24.6 0.62                           252 195 
 ROSC BZ EP        637 50.96                             117    0.75 8  256 211 
 ROSC BN ES   1    638 20.51                             117    0.18 6  256 211 
 ROSC BZ I         638 26.51        52.3 0.60                           256 211 
 HEL  HZ EP   1    637 52.88                             115    0.67 6  275 255 
 HEL  HN ES   1    638 23.97                             115    0.09 6  275 255 
 HEL  HZ I         638 29.87        28.9 0.32                           275 255 
 URE  HZ EP   4    637 51.24                             114   -1.62 0  285 291 
 URE  HE ES   4    638 22.42                             114   -2.63 0  285 291 
 VIL  SZ EP   1    637 55.19                             112   -0.29 5  306 192 
 VIL  SE ES   1    638 29.87                             112    0.17 5  306 192 
 VIL  SZ I         638 38.69        36.6 0.48                           306 192 
 RREF HZ EP        637 58.78                             111    0.57 7  325 229 
 RREF HN ES   1    638 34.57                             111    0.00 5  325 229 
 RREF HZ I         638 42.50        39.0 0.24                           325 229 
 COD  HZ EP   1    637 59.41                             109   -0.36 5  346 354 
 COD  HN ES   1    638 36.56                             109   -0.78 5  346 354 
 COD  HZ I         638 42.92         7.8 0.54                           346 354 
 MON  HZ EP   4    637 58.93                             109   -1.73 0  353 308 
 MON  HN ES   4    638 37.59                             109   -1.34 0  353 308 
 MON  HZ I         638 52.29        19.5 0.68                           353 308 
 SDV  BZ EP        638  0.73                             109   -0.62 6  357  50 
 SDV  BN ES   2    638 39.33                             109   -0.83 3  357  50 
 ANIL HZ EP   1    638  2.18                             109    0.30 5  361 224 
 ANIL HN ES   1    638 40.98                             109   -0.11 5  361 224 
 ANIL HZ I         638 45.50        24.0 0.30                           361 224 
 YOT  HZ EP   4    638 13.59                             103   -1.50 0  475 229 
 YOT  HN ES   4    639  1.90                             103   -2.72 0  475 229 
                                                                                
