 2016  824 0824  2.5 L   6.802 -73.170149.3  RSN 13 0.4 2.0LRSN                1
 GAP=133        0.98       3.1     4.3  5.5 -0.3954E+01  0.6050E+01  0.7837E+00E
 Epicentro: LOS SANTOS - SANTANDER                                             3
 ACTION:UPD 16-10-29 15:38 OP:rebc STATUS:               ID:20160824082402 L   I
 OLDACT:UP  16-08-24 18:57 OP:ak   STATUS:               ID:20160824081738     3
 OLDACT:REG 16-08-24 12:37 OP:ak   STATUS:               ID:20160824081738     3
 2016-08-24-0818-00M.COL___365                                                 6
 STAT SP IPHASW D HRMM SECON CODA AMPLIT PERI AZIMU VELO AIN AR TRES W  DIS CAZ7
 BAR2 EZ EP        824 22.54                             171    0.0110 23.3 183 
 BAR2 HN ES        824 37.88                             171   -0.2910 23.3 183 
 BAR2 EZ I         824 40.26        23.5 0.30                          23.3 183 
 BRR  HZ EP        824 24.31                             154    0.4410 68.7 299 
 BRR  HN ES        824 41.45                             154    0.8910 68.7 299 
 BRR  HZ I         824 45.37        11.4 0.16                          68.7 299 
 PAM  EZ EP        824 25.39                             151    0.2310 78.9  41 
 PAM  HN ES        824 42.64                             151   -0.2110 78.9  41 
 PAM  EZ I         824 44.56        22.1 0.50                          78.9  41 
 RUS  HZ EP        824 26.60                             144   -0.0110  101 175 
 RUS  HN ES        824 45.18                             144   -0.2510  101 175 
 RUS  HZ I         824 46.32        15.4 0.32                           101 175 
 PTB  HZ EP        824 29.18                             133   -0.32 9  145 259 
 PTB  HE ES        824 50.86                             133    0.28 9  145 259 
 PTB  HZ I         824 55.86         8.2 0.36                           145 259 
 OCA  HZ EP        824 31.30                             131    0.29 9  160 354 
 OCA  HE ES        824 52.66                             131   -0.60 9  160 354 
 OCA  HZ I         824 56.09        16.5 0.46                           160 354 
 SPBC HZ EP        824 31.26                             130    0.16 9  162 218 
 SPBC HE ES        824 53.21                             130   -0.23 9  162 218 
 SPBC HZ I         824 58.21        18.0 0.10                           162 218 
 ZAR  HZ EP        824 34.40                             124   -0.48 9  201 292 
 ZAR  HN ES   4    824 55.36                             124   -4.80 0  201 292 
 ZAR  HZ I         825 11.41         4.5 0.16                           201 292 
 ROSC BZ EP   4    824 42.30                             118    1.64 0  252 210 
 ROSC BN ES        825 10.69                             118    0.24 8  252 210 
 ROSC BZ I         825 19.83         6.8 0.35                           252 210 
 HEL  HZ EP   4    824 44.29                             116    1.71 0  269 256 
 HEL  HE ES        825 13.12                             116   -0.75 8  269 256 
 HEL  HZ I         825 21.17         3.4 0.38                           269 256 
 GUY2CHZ EP   4    824 48.65                             113    2.64 0  299 234 
 GUY2CHE ES   4    825 22.87                             113    2.90 0  299 234 
 GUY2CHZ I         825 32.63         4.7 0.42                           299 234 
 PTGC HZ EP   4    824 45.94                             112   -0.69 0  310 158 
 PTGC HE ES   4    825 18.94                             112   -2.13 0  310 158 
 PTGC HZ I         825 21.60         6.4 0.30                           310 158 
 PRA  HZ EP        824 56.08                             107    0.10 6  391 209 
 PRA  HE ES        825 38.10                             107    0.37 6  391 209 
 PRA  HZ I         825 44.57         4.1 0.54                           391 209 
 SJC  HZ EP   4    824 56.55                             106   -1.40 0  408 327 
                                                                                
