 2013  624 0611  6.2 L   6.810 -73.163152.3  RSN  5 0.5 1.3LRSN                1
 GAP=199        0.99       6.9    10.0 11.8  0.3496E+02 -0.1648E+02 -0.2551E+02E
 Epicentro: LOS SANTOS - SANTANDER                                             3
 ACTION:UPD 14-01-08 09:56 OP:ep   STATUS:               ID:20130624061106 L   I
 OLDACT:UP  13-06-24 09:27 OP:jn   STATUS:               ID:20130624060959     3
 OLDACT:REG 13-06-24 07:13 OP:jn   STATUS:               ID:20130624060959     3
 2013-06-24-0609-59M.COL___267                                                 6
 STAT SP IPHASW D HRMM SECON CODA AMPLIT PERI AZIMU VELO AIN AR TRES W  DIS CAZ7
 BAR2 SZ EP        611 26.45                             171   -0.1510 24.2 185 
 BAR2 SZ I         611 42.80         4.3 0.18            165           24.2 185 
 BRR  HZ EP     C  611 28.35                             154    0.4510 68.9 298 
 BRR  HN ES        611 45.22                             154    0.3610 68.9 298 
 BRR  HZ I         611 46.09         4.1 0.12            158           68.9 298 
 RUS  HE ES        611 49.51                             145   -0.2410  102 175 
 PTB  HZ EP   1    611 33.92                             134    0.40 7  146 258 
 PTB  HN ES   1    611 54.32                             134   -0.54 7  146 258 
 PTB  HZ I         611 57.33         1.7 0.12            133            146 258 
 SML  HN ES   1    612 10.69                             119   -0.99 6  242 336 
                                                                                
