 2011 1024 0628 10.7 L   6.578 -73.223154.9  RSN  6 0.3 1.6LRSN                1
 GAP=131        0.57       6.4     5.6  6.6  0.1692E+02 -0.4403E+01 -0.2327E+02E
 Epicentro: CABRERA - SANTANDER                                                3
 ACTION:UPD 12-07-13 16:05 OP:ep   STATUS:               ID:20111024062811 L   I
 2011-10-24-0625-28S.COL___171                                                 6
 STAT SP IPHASW D HRMM SECON CODA AMPLIT PERI AZIMU VELO AIN AR TRES W  DIS CAZ7
 BAR2 SZ ES   1    628 46.97                             178   -0.27 7 4.72  71 
 BAR2 SZ I         628 48.54         7.4 0.23                          4.72  71 
 RUS  HN ES   1    628 52.01                             152   -0.01 7 77.4 168 
 BRR  HZ I         628 35.16        10.2 0.11                          79.7 317 
 BRR  HN ES   1    628 51.35                             151    0.37 7 79.7 317 
 PAM  SZ EP   1    628 35.71                             145    0.23 7  102  34 
 PAM  SZ I         628 55.01         3.8 0.44                           102  34 
 OCA  SZ EP   1    628 41.61                             127   -0.38 7  184 357 
 ZAR  HZ EP   1    628 44.35                             124    0.27 6  207 299 
 ZAR  HN ES   1    629  9.79                             124   -0.31 6  207 299 
                                                                                
