 2012  324 0540 37.9 L   6.783 -73.110150.9  RSN 16 0.4 2.9LRSN                1
 GAP=118        0.73       2.8     3.7  4.8 -0.1909E+01  0.4471E+01  0.1562E+01E
 ACTION:UP  12-03-31 23:22 OP:EP   STATUS:               ID:20120324054037 L   I
 2012-03-24-0540-00M.COL___196                                                 6
 STAT SP IPHASW D HRMM SECON CODA AMPLIT PERI AZIMU VELO SNR AR TRES W  DIS CAZ7
 BAR2 SZ IP        540 58.06                             171    -0.110   23 201 
 BAR2 SZ ES   1    541 13.59                             171    -0.4 7   23 201 
 BAR2 SZ I         541 15.25       181.5 0.36                            23 201 
 BRR  HZ IP     C  540 59.98                             152     0.110   76 298 
 BRR  HZ I         541  0.33       240.7 0.12                            76 298 
 PAM  SZ EP        541  0.95                             152     0.310   76  36 
 PAM  SN ES   1    541 18.39                             152     0.0 7   76  36 
 BRR  HE ES   1    541 17.48                             152     0.5 7   76 298 
 RUS  HZ EP   1    541  1.94                             145    -0.1 7   98 178 
 RUS  HE ES   2    541 21.02                             145     0.2 5   98 178 
 RUS  HZ I         541 22.51        91.0 0.46                            98 178 
 PTB  HZ EP   1    541  4.72                             132    -0.9 7  151 260 
 PTB  HE ES   2    541 26.62                             132    -0.6 5  151 260 
 PTB  HZ I         541 33.19        59.5 0.41                           151 260 
 OCA  SZ EP        541  7.02                             130     0.1 9  163 352 
 OCA  SZ ES   2    541 29.59                             130     0.1 5  163 352 
 YOP  SZ EP   2    541  7.57                             128    -0.5 4  175 154 
 YOP  SN ES   2    541 31.74                             128     0.3 4  175 154 
 YOP  SZ I         541 34.01        35.3 0.28                           175 154 
 ZAR  HZ EP   2    541 10.86                             123    -0.3 4  208 292 
 ZAR  HN ES   2    541 36.91                             123    -0.2 4  208 292 
 ZAR  HZ I         541 42.56       101.5 0.43                           208 292 
 NOR  SZ EP   1    541 14.05                             119    -0.1 6  237 235 
 NOR  SE ES   2    541 42.65                             119     0.2 4  237 235 
 CHI  HZ EP   1    541 16.06                             118     0.2 6  248 196 
 CHI  HN ES   1    541 45.36                             118     0.0 6  248 196 
 CHI  HZ I         541 54.95        27.3 0.35                           248 196 
 HEL  HZ EP   1    541 19.69                             115     0.9 6  275 256 
 HEL  HE ES   1    541 50.65                             115     0.0 6  275 256 
 HEL  HZ I         541 57.19        51.8 0.53                           275 256 
 GUY  SZ EP   1    541 22.86                             113     0.6 5  306 236 
 GUY  SN ES   2    541 56.13                             113    -0.8 4  306 236 
 GUY  SZ I         542  3.71        54.8 0.42                           306 236 
 RREF HZ EP   2    541 24.81                             112     0.3 3  324 230 
 RREF HN ES   2    542  1.42                             112     0.6 3  324 230 
 RREF HZ I         542  9.37        43.0 0.52                           324 230 
 DBB  SZ EP   2    541 26.27                             110     0.2 3  344 275 
 COD  HZ EP   1    541 26.02                             110    -0.8 5  351 354 
 COD  HN ES   2    542  4.50                             110    -0.4 3  351 354 
 COD  HZ I         542 16.02        21.3 0.37                           351 354 
 PRA  HZ EP        541 31.52                             107    -0.2 6  392 210 
 PRA  HN ES   2    542 13.77                             107     0.2 3  392 210 
                                                                                
