 2015 1124 0417 37.0 L   6.544 -73.510121.0  RSN  5 0.2 1.5LRSN                1
 GAP=123        0.64       3.0     4.0  4.7  0.5039E+01  0.4215E+01 -0.2079E+01E
 Epicentro: EL CARMEN - SANTANDER                                              3
 ACTION:UPD 15-12-28 16:13 OP:cam  STATUS:               ID:20151124041736 L   I
 OLDACT:UP  15-12-10 14:57 OP:cam  STATUS:               ID:20151124041736 L   3
 OLDACT:UP  15-12-01 10:58 OP:ak   STATUS:               ID:20151124041736 L   3
 OLDACT:UP  15-11-24 15:58 OP:ak   STATUS:               ID:20151124040748d    3
 OLDACT:DUP 15-11-24 15:51 OP:ak   STATUS:               ID:20151124040748d    3
 OLDACT:REG 15-11-24 12:29 OP:ak   STATUS:               ID:20151124040747     3
 2015-11-24-0407-47M.COL___215                                                 6
 STAT SP IPHASW D HRMM SECON CODA AMPLIT PERI AZIMU VELO AIN AR TRES W  DIS CAZ7
 BAR2 EZ EP        417 54.20                             162    0.1110 36.6  82 
 BAR2 EZ ES        418  6.98                             162   -0.4310 36.6  82 
 BAR2 EZ I         418  8.73        10.9 0.18            165           36.6  82 
 BRR  HZ EP        417 55.56                             149    0.3310 66.2 340 
 BRR  HN ES        418  9.65                             149    0.2110 66.2 340 
 BRR  HZ I         418 10.60         5.1 0.16            149           66.2 340 
 RUS  HZ EP        417 57.23                             142   -0.0710 86.1 147 
 RUS  HE ES        418 13.33                             142    0.2210 86.1 147 
 RUS  HZ I         418 14.56         5.1 0.30            145           86.1 147 
 PTB  HZ EP        417 57.80                             136   -0.3110  105 270 
 PTB  HN ES   1    418 14.60                             136    0.03 7  105 270 
 PTB  HZ I         418 17.78         7.7 0.12            136            105 270 
 SML  HZ EP        418 13.94                             110    0.02 8  257 346 
 SML  HN ES        418 42.55                             110   -0.15 8  257 346 
 SML  HZ I         418 48.26         3.4 0.22            111            257 346 
                                                                                
