 2015  624 0655 35.8 L   6.811 -73.145140.6  RSN  7 0.4 1.8LRSN                1
 GAP=197        0.98       3.8     6.1  6.6 -0.8289E+00  0.1272E+02  0.2590E+00E
 Epicentro: LOS SANTOS - SANTANDER                                             3
 ACTION:UPD 15-09-10 22:14 OP:cam  STATUS:               ID:20150624065535 L   I
 OLDACT:UP  15-06-24 16:02 OP:mh   STATUS:               ID:20150624064749     3
 OLDACT:UP  15-06-24 16:02 OP:mh   STATUS:               ID:20150624064749     3
 OLDACT:REG 15-06-24 13:09 OP:mh   STATUS:               ID:20150624064749     3
 2015-06-24-0647-49M.COL___313                                                 6
 STAT SP IPHASW D HRMM SECON CODA AMPLIT PERI AZIMU VELO AIN AR TRES W  DIS CAZ7
 BAR2 EZ EP        655 55.12                             170    0.2410 24.6 190 
 BAR2 EZ ES        656  9.43                             170   -0.3010 24.6 190 
 BAR2 EZ I         656 11.85         7.3 0.24            167           24.6 190 
 BRR  HZ EP        655 56.00                             152   -0.4110 70.7 298 
 BRR  HN ES        656 13.06                             152    0.6110 70.7 298 
 BRR  HZ I         656 16.60         8.8 0.18            147           70.7 298 
 OCA  HN ES        656 25.22                             129   -0.10 9  159 353 
 OCA  HZ I         656 29.02        14.0 0.20            129            159 353 
 ZAR  HZ EP        656  7.95                             121    0.03 9  204 292 
 ZAR  HN ES        656 32.71                             121   -0.23 9  204 292 
 ZAR  HZ I         656 38.89         5.1 0.68            120            204 292 
 SML  HZ EP        656 12.97                             116    0.90 8  243 335 
 SML  HE ES        656 39.67                             116   -0.65 8  243 335 
 SML  HZ I         656 45.24         8.0 0.10            117            243 335 
 HEL  HN ES        656 47.17                             114    0.13 8  272 256 
 HEL  HZ I         656 54.33         3.9 0.28            113            272 256 
 PRA  HZ EP        656 29.09                             106   -0.23 6  393 209 
 PRA  HN ES        657 10.86                             106   -0.18 6  393 209 
 PRA  HZ I         657 18.39         2.3 0.42            106            393 209 
                                                                                
