 2013  924 0835 34.3 L   6.796 -73.074150.4  RSN 14 0.5 2.4LRSN                1
 GAP=146        1.01       2.8     4.7  6.1 -0.1532E+01  0.9795E+01  0.1123E+01E
 Epicentro: LOS SANTOS - SANTANDER                                             3
 ACTION:UPD 13-10-22 09:24 OP:ep   STATUS:               ID:20130924083534 L   I
 OLDACT:UP  13-09-24 12:45 OP:mh   STATUS:               ID:20130924082959     3
 OLDACT:UP  13-09-24 12:44 OP:mh   STATUS:               ID:20130924082959     3
 OLDACT:REG 13-09-24 09:42 OP:mh   STATUS:               ID:20130924082959     3
 2013-09-24-0829-59M.COL___269                                                 6
 STAT SP IPHASW D HRMM SECON CODA AMPLIT PERI AZIMU VELO AIN AR TRES W  DIS CAZ7
 BAR2 SZ EP   1    835 54.84                             170    0.35 7 25.5 208 
 BAR2 SZ ES   1    836  9.90                             170   -0.38 7 25.5 208 
 BAR2 SZ I         836 12.38        51.3 0.34            167           25.5 208 
 PAM  SZ EP   1    835 57.62                             153    0.90 7 73.0  35 
 PAM  SN ES        836 14.24                             153   -0.0010 73.0  35 
 PAM  SZ I         836 17.05        33.9 0.56            157           73.0  35 
 BRR  HZ EP     C  835 56.73                             151    0.4110 78.4 296 
 BRR  HN ES        836 13.87                             151    0.3410 78.4 296 
 BRR  HZ I         836 17.65        51.0 0.18            149           78.4 296 
 RUS  HZ EP   1    835 58.66                             145    0.24 7 99.9 181 
 RUS  HN ES        836 17.20                             145   -0.0710 99.9 181 
 RUS  HZ I         836 18.32        15.3 0.26            147           99.9 181 
 PTB  HZ EP   1    836  1.47                             131   -0.83 7  155 260 
 PTB  HN ES   4    836 22.64                             131   -1.53 0  155 260 
 PTB  HZ I         836 28.43        47.0 0.30            132            155 260 
 OCA  HZ EP   1    836  3.03                             130   -0.04 7  162 350 
 OCA  HN ES        836 25.15                             130   -0.41 9  162 350 
 OCA  HZ I         836 31.01        22.7 0.42            133            162 350 
 SPBC HZ EP   1    836  3.68                             129    0.12 7  168 221 
 SPBC HN ES        836 25.85                             129   -0.57 9  168 221 
 SPBC HZ I         836 32.82        37.4 0.36            130            168 221 
 ZAR  HZ EP   1    836  7.48                             122   -0.29 6  212 291 
 ZAR  HN ES        836 34.92                             122    1.00 8  212 291 
 ZAR  HZ I         836 39.98        24.3 0.30            123            212 291 
 NOR  HZ EP   1    836 10.75                             119   -0.17 6  241 236 
 NOR  HN ES        836 39.68                             119    0.16 8  241 236 
 NOR  HZ I         836 42.80        22.3 0.20            120            241 236 
 SML  HZ EP   1    836 10.72                             118   -0.83 6  247 334 
 SML  HN ES        836 39.87                             118   -0.77 8  247 334 
 SML  HZ I         836 42.46        29.4 0.10            120            247 334 
 CHI  HZ EP   1    836 12.77                             118    0.37 6  250 197 
 CHI  HN ES        836 41.78                             118   -0.38 8  250 197 
 CHI  HZ I         836 49.70        11.7 0.48            120            250 197 
 ROSC BZ EP   4    836 14.29                             117    1.25 0  257 213 
 ROSC BN ES   4    836 44.91                             117    1.61 0  257 213 
 HEL  HZ EP   1    836 16.10                             115    0.56 6  280 256 
 HEL  HN ES   1    836 47.33                             115   -0.41 6  280 256 
 HEL  HZ I         836 53.10        12.8 0.32            116            280 256 
 GUY2CHZ EP   4    836 19.83                             113    1.05 0  307 236 
 GUY2CHN ES   4    836 54.97                             113    1.46 0  307 236 
 GUY2CHZ I         837  1.71        13.5 0.30                           307 236 
 RREF HZ EP   4    836 22.83                             111    1.58 0  328 230 
 RREF HE ES   4    836 59.88                             111    1.97 0  328 230 
 PRA  HZ EP   1    836 28.37                             107    0.02 4  396 211 
 PRA  HN ES   1    837 10.88                             107    0.33 4  396 211 
 PRA  HZ I         837 12.63         9.8 0.24            109            396 211 
                                                                                
