 2016  724 0719 47.4 L   6.767 -73.078145.8  RSN  4 0.2 1.1LRSN                1
 GAP=172        0.60       4.6     7.1  4.9 -0.2430E+02  0.8808E+01 -0.2138E+01E
 Epicentro: LOS SANTOS - SANTANDER                                             3
 ACTION:UPD 17-03-29 16:54 OP:lp   STATUS:               ID:20160724071947 L   I
 OLDACT:REG 16-07-24 14:07 OP:ar   STATUS:               ID:20160724071759     3
 2016-07-24-0717-59S.COL___331                                                 6
 STAT SP IPHASW D HRMM SECON CODA AMPLIT PERI AZIMU VELO AIN AR TRES W  DIS CAZ7
 BAR2 EZ EP        720  6.79                             171   -0.2010 22.5 211 
 BAR2 EZ ES        720 21.93                             171   -0.3610 22.5 211 
 PAM  EZ EP        720  9.48                             151   -0.0210 75.8  33 
 PAM  EN ES        720 27.05                             151    0.3010 75.8  33 
 PAM  EZ I         720 28.88         1.6 0.22            152           75.8  33 
 RUS  HZ EP        720 10.87                             145    0.0210 96.7 180 
 RUS  HN ES        720 29.24                             145    0.0810 96.7 180 
 RUS  HZ I         720 29.81         1.5 0.34            147           96.7 180 
 SPBC HZ EP        720 15.98                             129   -0.09 9  165 222 
 SPBC HN ES        720 38.77                             129    0.31 9  165 222 
 SPBC HZ I         720 40.30         3.3 0.38            130            165 222 
                                                                                
