 2017 1124 0645 29.9 L   6.875 -73.165139.2  RSN  7 0.3 1.3LRSN                1
 GAP=130        0.83       3.0     3.7  7.4 -0.1852E+01  0.1033E+02  0.3890E+01E
 Epicentro: ZAPATOCA - SANTANDER                                               3
 ACTION:UPD 17-12-12 19:59 OP:rebc STATUS:               ID:20171124064529 L   I
 OLDACT:DUP 17-11-24 16:26 OP:osc  STATUS:               ID:20171124063739d    3
 OLDACT:REG 17-11-24 13:08 OP:osc  STATUS:               ID:20171124063738     3
 2017-11-24-0638-00M.COL___483                                                 6
 STAT SP IPHASW D HRMM SECON CODA AMPLIT PERI AZIMU VELO AIN AR TRES W  DIS CAZ7
 PAM  EZ EP        645 51.08                             151   -0.0410 72.7  45 
 PAM  EE ES        646  7.69                             151    0.0110 72.7  45 
 PAM  EZ I         646  9.00         6.1 0.20            155           72.7  45 
 RUS  HZ EP        645 53.47                             140   -0.1610  109 175 
 RUS  HN ES        646 12.31                             140    0.1510  109 175 
 RUS  HZ I         646 13.63         1.2 0.16            142            109 175 
 PTB  HZ EP        645 55.68                             130   -0.62 9  148 256 
 PTB  HE ES        646 16.26                             130   -0.64 9  148 256 
 PTB  HZ I         646 19.81         2.1 0.22            132            148 256 
 OCA  HE ES        646 18.08                             130    0.14 9  152 354 
 SPBC HZ EP        645 58.51                             127    0.12 9  168 217 
 SPBC HE ES        646 20.90                             127    0.27 9  168 217 
 SPBC HZ I         646 23.16         3.9 0.22            129            168 217 
 ZAR  HN ES        646 26.46                             122    0.50 9  199 290 
 GUY2CHZ EP        646 13.84                             111    0.29 7  304 233 
 GUY2CHE ES        646 47.97                             111    0.36 7  304 233 
 GUY2CHZ I         646 55.81         1.4 0.50                           304 233 
                                                                                
