 2012  924 0130 38.6 L   6.758 -73.135146.8  RSN  7 0.3 1.4LRSN                1
 GAP=140        0.67       3.7     4.1  7.5  0.8581E+00  0.2126E+01  0.8848E+01E
 Epicentro: LOS SANTOS - SANTANDER                                             3
 ACTION:UPD 12-10-22 14:20 OP:ep   STATUS:               ID:20120924013038 L   I
 2012-09-24-0130-00M.COL___221                                                 6
 STAT SP IPHASW D HRMM SECON CODA AMPLIT PERI AZIMU VELO AIN AR TRES W  DIS CAZ7
 BAR2 SZ EP   1    130 58.28                             172   -0.05 7 19.1 196 
 BAR2 SZ I         131 15.94        10.2 0.20                          19.1 196 
 BRR  HZ EP   1    131  0.29                             152    0.19 7 74.5 301 
 BRR  HN ES   1    131 17.58                             152    0.75 7 74.5 301 
 BRR  HZ I         131 21.94         4.9 0.14                          74.5 301 
 PAM  SZ EP   1    131  1.12                             150   -0.03 7 80.3  37 
 PAM  SN ES   1    131 18.39                             150   -0.32 7 80.3  37 
 PAM  SZ I         131 20.53         4.1 0.18                          80.3  37 
 RUS  HZ EP   1    131  2.13                             145   -0.05 7 95.9 177 
 RUS  HN ES   1    131 20.44                             145   -0.09 7 95.9 177 
 RUS  HZ I         131 21.92         2.2 0.40                          95.9 177 
 PTB  HN ES   1    131 26.52                             132   -0.33 7  148 261 
 ZAR  HN ES   1    131 36.59                             122   -0.45 6  207 293 
 CHI  HZ EP   1    131 16.46                             118    0.50 6  244 196 
 CHI  HN ES   1    131 44.89                             118   -0.17 6  244 196 
 CHI  HZ I         131 49.78         1.5 0.34                           244 196 
                                                                                
