 2015  224 0112 44.4 L   6.819 -73.155146.9  RSN 14 0.4 2.4LRSN                1
 GAP= 70        0.88       2.6     2.8  4.5  0.4289E+00  0.2483E+01 -0.5360E+00E
 Epicentro: LOS SANTOS - SANTANDER                                             3
 ACTION:UPD 15-04-30 21:28 OP:nd   STATUS:               ID:20150224011244 L   I
 OLDACT:REG 15-02-24 13:04 OP:mh   STATUS:               ID:20150224010743     3
 2015-02-24-0107-43M.COL___281                                                 6
 STAT SP IPHASW D HRMM SECON CODA AMPLIT PERI AZIMU VELO AIN AR TRES W  DIS CAZ7
 BAR2 EZ EP        113  4.33                             170    0.1110 25.3 187 
 BAR2 EZ ES        113 19.33                             170   -0.3310 25.3 187 
 BAR2 EZ I         113 20.74        73.3 0.16            167           25.3 187 
 BRR  HZ EP        113  6.07                             153    0.4910 69.3 297 
 BRR  HN ES        113 22.49                             153    0.4110 69.3 297 
 BRR  HZ I         113 26.15        35.7 0.37            152           69.3 297 
 PAM  SZ EP        113  7.13                             151    0.4410 76.4  41 
 PAM  SN ES        113 24.43                             151    0.3710 76.4  41 
 PAM  SZ I         113 26.37        36.0 0.46            150           76.4  41 
 RUS  HZ EP     C  113  8.22                             143   -0.2110  103 176 
 RUS  HN ES        113 27.13                             143   -0.0310  103 176 
 PTB  HZ EP        113 11.03                             132   -0.39 9  147 258 
 PTB  HN ES   1    113 32.23                             132   -0.26 7  147 258 
 PTB  HZ I         113 38.37        19.9 0.12            130            147 258 
 TAM  HZ EP        113 12.42                             130    0.10 9  157 106 
 TAM  HZ I         113 33.44        15.9 0.44            127            157 106 
 TAM  HN ES        113 33.85                             130   -0.23 9  157 106 
 OCA  HZ EP        113 11.91                             130   -0.69 9  158 353 
 OCA  HN ES   1    113 33.85                             130   -0.74 7  158 353 
 OCA  HZ I         113 39.67        35.1 0.42            128            158 353 
 SPBC HZ EP        113 13.40                             129    0.30 9  164 218 
 SPBC HN ES        113 35.10                             129   -0.37 9  164 218 
 ZAR  HZ EP        113 16.76                             123    0.00 9  202 292 
 ZAR  HN ES        113 42.10                             123    0.12 9  202 292 
 ZAR  HZ I         113 48.47        32.6 0.34            121            202 292 
 SML  HZ EP        113 20.52                             118   -0.33 8  241 335 
 SML  HN ES        113 49.34                             118    0.07 8  241 335 
 ROSC BZ EP   4    113 22.08                             117   -0.66 0  254 211 
 ROSC BE ES   4    113 53.33                             117    0.70 0  254 211 
 ROSC BZ I         113 58.79        30.6 0.08            114            254 211 
 GUY2CHZ EP        113 28.66                             112    0.54 7  302 234 
 GUY2CHN ES   4    114  3.88                             112    1.67 0  302 234 
 GUY2CHZ I         114 10.72        16.6 0.28                           302 234 
 RREF HZ EP   4    113 32.37                             111    1.69 0  322 229 
 RREF HN ES   4    114  9.16                             111    2.40 0  322 229 
 RREF HZ I         114 14.87        13.3 0.26            109            322 229 
 TOL  SZ EP        113 33.05                             109    0.24 7  344 224 
 TOL  SN ES   4    114 11.25                             109    0.69 0  344 224 
 TOL  SZ I         114 16.88        11.4 0.28            107            344 224 
                                                                                
