 2017  724 0322 56.1 L   7.427 -73.369126.0  RSN  6 0.4 1.5LRSN                1
 GAP=241        0.84       7.1     5.3  6.6  0.2701E+02 -0.1052E+02 -0.9341E+01E
 Epicentro: SABANA DE TORRES - SANTANDER                                       3
 ACTION:UPD 17-08-30 15:36 OP:rebc STATUS:               ID:20170724032256 L   I
 OLDACT:UP  17-07-24 15:38 OP:and  STATUS:               ID:20170724031737d    3
 OLDACT:UP  17-07-24 15:38 OP:and  STATUS:               ID:20170724031737d    3
 OLDACT:DUP 17-07-24 15:35 OP:and  STATUS:               ID:20170724031737d    3
 2017-07-24-0318-00M.COL___380                                                 6
 STAT SP IPHASW D HRMM SECON CODA AMPLIT PERI AZIMU VELO AIN AR TRES W  DIS CAZ7
 BRR  HZ EP        323 13.68                             156   -0.4110 51.8 227 
 BRR  HN ES        323 28.01                             156   -0.0810 51.8 227 
 BRR  HZ I         323 28.85         8.4 0.12            150           51.8 227 
 BAR2 EZ IP     D  323 17.15                             141   -0.0210 94.5 167 
 BAR2 EZ ES        323 33.90                             141    0.3210 94.5 167 
 BAR2 EZ I         323 34.71         7.7 0.10            138           94.5 167 
 PTB  HZ EP        323 21.96                             126   -0.34 9  155 231 
 PTB  HN ES        323 42.52                             126   -0.18 9  155 231 
 PTB  HZ I         323 46.11         2.6 0.14            123            155 231 
 ZAR  HZ EP   2    323 23.58                             124    0.35 5  165 273 
 ZAR  HE ES        323 44.82                             124    0.45 9  165 273 
 ZAR  HZ I         323 47.86         3.2 0.13            122            165 273 
 RUS  HZ EP        323 24.42                             123   -0.26 9  173 169 
 RUS  HN ES        323 47.25                             123    0.31 9  173 169 
 RUS  HZ I         323 49.48         1.9 0.24            121            173 169 
 YPLC HZ EP        323 33.19                             113    0.68 8  250 154 
 YPLC HN ES        324  0.45                             113   -0.43 8  250 154 
 YPLC HZ I         324  1.37         3.6 0.42            112            250 154 
                                                                                
