 2014  724 0106 25.6 L   6.807 -73.179149.5  RSN 14 0.5 1.9LRSN                1
 GAP=132        0.96       3.4     4.5  6.1 -0.3035E+01  0.6787E+01  0.7020E+00E
 Epicentro: ZAPATOCA - SANTANDER                                               3
 ACTION:UPD 15-03-16 20:46 OP:nd   STATUS:               ID:20140724010625 L   I
 OLDACT:UP  14-07-24 15:08 OP:mh   STATUS:               ID:20140724005812     3
 OLDACT:UP  14-07-24 15:07 OP:mh   STATUS:               ID:20140724005812     3
 OLDACT:REG 14-07-24 13:27 OP:mh   STATUS:               ID:20140724005812     3
 2014-07-24-0058-12M.COL___269                                                 6
 STAT SP IPHASW D HRMM SECON CODA AMPLIT PERI AZIMU VELO AIN AR TRES W  DIS CAZ7
 BAR2 SZ EP        1 6 45.50                             171   -0.1610 23.7 181 
 BAR2 SZ ES   1    1 7  1.15                             171   -0.18 7 23.7 181 
 BRR  HZ EP   1    1 6 47.90                             154    0.97 7 67.6 299 
 BRR  HN ES        1 7  4.08                             154    0.4910 67.6 299 
 PAM  SZ EP   1    1 6 48.62                             151    0.32 7 79.2  42 
 PAM  SE ES        1 7  6.00                             151   -0.0210 79.2  42 
 RUS  HZ EP   1    1 6 49.92                             144    0.15 7  102 174 
 RUS  HN ES   1    1 7  8.08                             144   -0.56 7  102 174 
 PTB  HZ EP   1    1 6 51.66                             134   -0.88 7  144 258 
 PTB  HN ES        1 7 13.30                             134   -0.27 9  144 258 
 PTB  HZ I         1 7 16.36         8.1 0.17            127            144 258 
 OCA  HN ES   1    1 7 16.05                             131   -0.25 7  159 354 
 SPBC HZ EP   1    1 6 54.81                             130    0.61 7  161 218 
 SPBC HN ES        1 7 16.54                             130    0.01 9  161 218 
 SPBC HZ I         1 7 22.71        13.3 0.21            125            161 218 
 ZAR  HZ EP   1    1 6 58.03                             124    0.15 6  200 292 
 ZAR  HN ES   1    1 7 23.35                             124    0.26 6  200 292 
 ZAR  HZ I         1 7 30.35         5.6 0.11            118            200 292 
 NOR  HZ EP   1    1 7  0.86                             120   -0.39 6  232 234 
 NOR  HN ES   1    1 7 29.47                             120    0.40 6  232 234 
 NOR  HZ I         1 7 33.86         5.3 0.16            115            232 234 
 SML  HZ EP   1    1 7  2.57                             118    0.40 6  241 336 
 SML  HN ES   1    1 7 29.67                             118   -1.05 6  241 336 
 SML  HZ I         1 7 35.64        10.2 0.12            114            241 336 
 CHI  HN ES   4    1 7 31.40                             118   -1.61 0  248 194 
 GUY2CHZ EP   4    1 7 10.27                             113    1.21 0  299 234 
 GUY2CHN ES   4    1 7 45.48                             113    2.49 0  299 234 
 GUY2CHZ I         1 7 52.78         3.7 0.63                           299 234 
 RREF HZ EP   4    1 7 12.86                             112    1.24 0  319 229 
 RREF HN ES   4    1 7 50.46                             112    2.93 0  319 229 
 RREF HZ I         1 7 56.99         3.7 0.25            108            319 229 
 TOL  SN ES   4    1 7 53.46                             110    2.14 0  341 224 
 PRA  HZ EP   1    1 7 19.93                             107    0.84 4  391 209 
 PRA  HN ES   1    1 8  0.07                             107   -0.76 4  391 209 
 PRA  HZ I         1 8  6.43         3.0 0.36            105            391 209 
 SJC  HZ EP   1    1 7 20.05                             106   -0.90 4  407 327 
 SJC  HN ES   4    1 8  1.42                             106   -2.72 0  407 327 
 SJC  HZ I         1 8 21.39         1.8 0.63            104            407 327 
                                                                                
