 2015  124 0947 50.4 L   6.839 -73.149143.2  RSN 12 0.5 2.2LRSN                1
 GAP= 70        1.24       3.2     3.6  6.2  0.1624E+00  0.4429E+01  0.3400E+00E
 Epicentro: LOS SANTOS - SANTANDER                                             3
 ACTION:UPD 15-03-02 15:41 OP:nd   STATUS:               ID:20150124094750 L   I
 OLDACT:REG 15-01-24 13:38 OP:carl STATUS:               ID:20150124093746     3
 2015-01-24-0937-46M.COL___268                                                 6
 STAT SP IPHASW D HRMM SECON CODA AMPLIT PERI AZIMU VELO AIN AR TRES W  DIS CAZ7
 BAR2 EZ IP     D  948  9.77                             169   -0.0210 27.5 188 
 BAR2 EZ ES        948 23.99                             169   -0.9410 27.5 188 
 BAR2 EZ I         948 25.63        25.3 0.24            168           27.5 188 
 BRR  HZ IP     C  948 11.49                             153    0.3710 68.9 296 
 BRR  HN ES        948 28.27                             153    0.9710 68.9 296 
 BRR  HZ I         948 32.61        29.2 0.12            151           68.9 296 
 PAM  SZ EP        948 12.51                             151    0.3710 74.4  42 
 PAM  SN ES        948 29.52                             151    0.4010 74.4  42 
 PAM  SZ I         948 31.51        60.5 0.52            155           74.4  42 
 RUS  HZ EP        948 13.87                             142   -0.3210  105 176 
 RUS  HN ES        948 32.85                             142    0.0810  105 176 
 RUS  HZ I         948 34.21        13.0 0.30            144            105 176 
 PTB  HZ EP        948 16.44                             131   -0.74 9  148 257 
 PTB  HN ES        948 37.32                             131   -0.77 9  148 257 
 PTB  HZ I         948 40.01        25.4 0.14            131            148 257 
 OCA  HZ EP        948 17.84                             130   -0.25 9  156 353 
 OCA  HN ES        948 39.23                             130   -0.47 9  156 353 
 OCA  HZ I         948 43.88        34.4 0.16            132            156 353 
 TAM  HZ IP     D  948 18.17                             130    0.17 9  157 106 
 TAM  HN ES        948 39.78                             130    0.24 9  157 106 
 SPBC HZ EP        948 19.10                             128    0.13 9  166 218 
 SPBC HN ES        948 41.09                             128   -0.19 9  166 218 
 SPBC HZ I         948 47.97        26.0 0.38            128            166 218 
 ZAR  HZ EP        948 22.70                             122    0.25 9  202 291 
 ZAR  HN ES        948 47.98                             122    0.51 9  202 291 
 ZAR  HZ I         948 53.60        19.8 0.44            122            202 291 
 SML  HZ EP        948 25.66                             117   -0.76 8  240 335 
 SML  HN ES        948 54.35                             117   -0.19 8  240 335 
 SML  HZ I         948 56.44        33.9 0.24            119            240 335 
 CHI  HZ EP        948 28.36                             116   -0.01 8  253 195 
 CHI  HN ES        948 58.13                             116    0.12 8  253 195 
 CHI  HZ I         949  2.89         7.5 0.30            117            253 195 
 CBOC HZ EP        948 38.07                             109    0.78 7  335 251 
 CBOC HE ES        949 14.66                             109    0.77 7  335 251 
 CBOC HZ I         949 25.14         2.8 0.32            110            335 251 
                                                                                
