 2012  924 0704 22.8 L   5.917 -73.792105.9  RSN  5 0.4 1.4LRSN                1
 GAP=221        0.85       8.2     6.5 11.0  0.2684E+02  0.4876E+01 -0.1403E+01E
 Epicentro: JESUS MARIA - SANTANDER                                            3
 ACTION:UPD 12-10-22 14:20 OP:ep   STATUS:               ID:20120924070422 L   I
 2012-09-24-0700-00M.COL___221                                                 6
 STAT SP IPHASW D HRMM SECON CODA AMPLIT PERI AZIMU VELO AIN AR TRES W  DIS CAZ7
 RUS  HZ EP   1    7 4 41.37                             141    0.34 7 78.5  92 
 RUS  HN ES   1    7 4 54.68                             141   -0.59 7 78.5  92 
 PTB  HE ES   1    7 4 57.59                             133    0.20 7  101 313 
 BAR2 SZ EP   1    7 4 42.56                             133    0.04 7  101  42 
 BAR2 SZ ES   1    7 4 58.65                             133    0.73 7  101  42 
 BAR2 SZ I         7 5  0.58         8.3 0.58                           101  42 
 BRR  HZ EP   1    7 4 44.80                             124   -0.38 7  132   4 
 BRR  HN ES   1    7 5  2.14                             124   -0.51 7  132   4 
 BRR  HZ I         7 5  5.95         2.7 0.13                           132   4 
 GIR2 SZ EP   1    7 4 46.75                             122    0.09 7  145  27 
                                                                                
