 2011  924 0720 26.9 L   6.844 -73.011138.3  RSN  4 0.2 1.2LRSN                1
 GAP=254        0.48       9.7    13.9  7.1  0.1179E+03 -0.6348E+02 -0.3729E+02E
 Epicentro: CEPITA - SANTANDER                                                 3
 ACTION:UPD 12-07-13 15:59 OP:ep   STATUS:               ID:20110924072026 L   I
 2011-09-24-0720-00M.COL___167                                                 6
 STAT SP IPHASW D HRMM SECON CODA AMPLIT PERI AZIMU VELO AIN AR TRES W  DIS CAZ7
 BTL  SZ EP   2    720 46.36                             167    0.53 5 29.5 286 
 BAR2 SZ EP        720 46.02                             166    0.0810 33.7 214 
 BAR2 SZ ES   1    721  0.51                             166   -0.25 7 33.7 214 
 BAR2 SZ I         721 13.19         5.9 0.74                          33.7 214 
 BRR  HZ EP        720 47.85                             147   -0.1610 82.8 291 
 BRR  HZ I         720 48.21         4.8 0.15                          82.8 291 
 BRR  HN ES        721  4.53                             147    0.0810 82.8 291 
 RUS  HZ EP   1    720 50.23                             141   -0.11 7  105 184 
 RUS  HE ES   2    721  8.88                             141    0.29 5  105 184 
 RUS  HZ I         721 11.11         1.0 0.19                           105 184 
                                                                                
