 2010 1124 0427  4.1 L   6.778 -73.102146.0  RSN  5 0.1 1.6LRSN                1
 GAP=164        0.44       3.5     9.3 10.1 -0.1418E+02 -0.6964E+02  0.2055E+02E
 Epicentro: LOS SANTOS - SANTANDER                                             3
 ACTION:UP  10-12-17 16:54 OP:REBC STATUS:               ID:20101124042704 L   I
 2010-11-24-0425-53S.COL___129                                                 6
 STAT SP IPHASW D HRMM SECON CODA AMPLIT PERI AZIMU VELO SNR AR TRES W  DIS CAZ7
 BAR2 SZ EP   1    427 23.57                             171    -0.1 7   22 204 
 BAR2 SZ I         427 41.22        10.4 0.21                            22 204 
 BRR  HZ EP   1    427 25.42                             151    -0.1 7   77 298 
 BRR  HE ES   1    427 42.42                             151     0.1 7   77 298 
 BRR  HZ I         427 47.92         6.4 0.24                            77 298 
 RUS  HZ EP   1    427 27.81                             145     0.2 7   98 179 
 RUS  HZ I         427 47.35         6.1 0.30                            98 179 
 GRA  SZ EP   1    427 29.37                             137     0.0 7  127  15 
 GRA  SZ I         427 50.28         5.8 0.14                           127  15 
 CHI  HZ EP   1    427 41.87                             117     0.2 6  248 196 
 CHI  HZ I         427 44.31         2.3 0.40                           248 196 
 CHI  HE ES   1    428 10.77                             117    -0.2 6  248 196 
                                                                                
