 2017  624 0514 58.7 L   6.773 -73.161144.0  RSN  6 0.4 1.4LRSN                1
 GAP=245        1.08       6.5     7.1  7.4  0.7408E+01  0.1289E+02  0.3555E+01E
 Epicentro: LOS SANTOS - SANTANDER                                             3
 ACTION:UPD 17-09-14 16:54 OP:jn   STATUS:               ID:20170624051458 L   I
 OLDACT:DUP 17-06-24 15:22 OP:lv   STATUS:               ID:20170624050736d    3
 OLDACT:DUP 17-06-24 14:59 OP:lv   STATUS:               ID:20170624050735d    3
 2017-06-24-0508-00M.COL___368                                                 6
 STAT SP IPHASW D HRMM SECON CODA AMPLIT PERI AZIMU VELO AIN AR TRES W  DIS CAZ7
 BAR2 HZ EP        515 17.75                             172   -0.3110 20.1 187 
 BAR2 HZ ES        515 33.03                             172   -0.1310 20.1 187 
 BAR2 HZ I         515 34.13         6.8 0.23            170           20.1 187 
 BRR  HZ EP        515 19.61                             152   -0.0610 71.2 301 
 BRR  HN ES        515 36.75                             152    0.7410 71.2 301 
 BRR  HZ I         515 39.90         4.7 0.21            149           71.2 301 
 PTB  HZ EP        515 25.24                             132   -0.09 9  146 260 
 PTB  HN ES        515 45.51                             132   -0.58 9  146 260 
 PTB  HZ I         515 50.67         2.2 0.36            131            146 260 
 SPBC HZ EP        515 27.21                             129    0.47 9  160 219 
 SPBC HN ES        515 48.65                             129    0.04 9  160 219 
 SPBC HZ I         515 51.20         3.8 0.11            130            160 219 
 ZAR  HZ EP        515 30.33                             122   -0.66 9  204 293 
 ZAR  HE ES        515 56.23                             122    0.05 9  204 293 
 ZAR  HZ I         516  1.95         3.3 0.08            122            204 293 
 GUY2CHN EP   4    515 43.49                             112    1.61 0  298 235 
 CBOC HN EP        515 46.07                             110    0.82 7  331 252 
                                                                                
