 2015  924 0938 36.8 L   6.789 -73.107146.1  RSN 11 0.5 1.8LRSN                1
 GAP=187        0.99       3.3     5.7  6.9  0.9513E-01  0.6089E+01  0.4609E+01E
 Epicentro: LOS SANTOS - SANTANDER                                             3
 ACTION:UPD 15-10-28 16:28 OP:cam  STATUS:               ID:20150924093836 L   I
 OLDACT:REG 15-09-24 14:26 OP:ar   STATUS:               ID:20150924092740     3
 2015-09-24-0927-40M.COL___355                                                 6
 STAT SP IPHASW D HRMM SECON CODA AMPLIT PERI AZIMU VELO AIN AR TRES W  DIS CAZ7
 BAR2 EZ EP        938 56.82                             171    0.3310 23.2 201 
 BAR2 EZ ES        939 11.52                             171   -0.3210 23.2 201 
 BAR2 EZ I         939 12.89        18.5 0.16            170           23.2 201 
 BRR  HZ EP        938 58.71                             151    0.4510 75.6 298 
 BRR  HN ES        939 15.66                             151    0.6810 75.6 298 
 BRR  HZ I         939 20.14         5.8 0.16            150           75.6 298 
 RUS  HZ EP   2    939  0.26                             144   -0.24 5 99.1 178 
 RUS  HN ES   2    939 19.24                             144    0.27 5 99.1 178 
 RUS  HZ I         939 20.24         8.9 0.32            146           99.1 178 
 PTB  HZ EP        939  3.81                             131   -0.37 9  152 260 
 PTB  HE ES   2    939 25.33                             131   -0.19 5  152 260 
 PTB  HZ I         939 27.16         5.2 0.12            131            152 260 
 OCA  HE ES        939 26.84                             129   -0.73 9  162 352 
 OCA  HZ I         939 31.75        12.7 0.16            130            162 352 
 SPBC HZ EP        939  5.86                             129    0.35 9  165 220 
 SPBC HN ES        939 27.57                             129   -0.32 9  165 220 
 SPBC HZ I         939 32.29         7.9 0.32            129            165 220 
 ZAR  HE ES        939 35.72                             122    0.29 8  208 292 
 NOR  HN ES        939 40.50                             118   -0.48 8  237 235 
 NOR  HZ I         939 46.01         3.4 0.20            119            237 235 
 SML  HZ EP   2    939 13.15                             117   -0.64 4  247 335 
 SML  HE ES   2    939 42.13                             117   -0.49 4  247 335 
 SML  HZ I         939 48.26         5.6 0.32            118            247 335 
 CHI  HZ EP        939 15.13                             117    0.60 8  249 196 
 CHI  HN ES        939 43.47                             117   -0.48 8  249 196 
 CHI  HZ I         939 49.76         2.1 0.24            118            249 196 
 HEL  HN ES   2    939 49.29                             114    0.10 4  276 256 
                                                                                
