 2011 1224 0819 30.5 L   6.527 -73.579105.4  RSN  7 0.4 1.8LRSN                1
 GAP= 91        0.83       3.6     3.3  6.4 -0.2072E+01  0.6753E+01  0.7715E+00E
 Epicentro: EL CARMEN DE CHUCURI - SANTANDER                                   3
 ACTION:UPD 12-07-13 16:18 OP:ep   STATUS:               ID:20111224081930 L   I
 2011-12-24-0814-36S.COL___155                                                 6
 STAT SP IPHASW D HRMM SECON CODA AMPLIT PERI AZIMU VELO AIN AR TRES W  DIS CAZ7
 BAR2 SZ IP        819 46.22                             155    0.0510 44.4  81 
 BAR2 SZ ES   1    819 58.41                             155    0.03 7 44.4  81 
 BAR2 SZ I         820  0.30        59.8 0.36                          44.4  81 
 BRR  HZ EP        819 46.97                             145   -0.1510 65.8 347 
 BRR  HN ES   1    820  0.88                             145    0.82 7 65.8 347 
 BRR  HZ I         820  9.24        13.9 0.20                          65.8 347 
 RUS  HZ EP   1    819 49.55                             137   -0.04 7 89.0 142 
 RUS  HE ES   1    820  4.51                             137    0.06 7 89.0 142 
 RUS  HZ I         820  6.32         9.5 0.23                          89.0 142 
 PTB  HZ IP     C  819 49.05                             134   -0.5710 97.1 271 
 PTB  HN ES        820  4.03                             134   -0.4810 97.1 271 
 NOR  SZ EP        819 58.11                             115    0.22 9  178 233 
 NOR  SN ES   1    820 19.28                             115    0.06 7  178 233 
 OCA  SZ EP   1    819 59.33                             113   -0.16 7  191   9 
 OCA  SZ ES   1    820 22.03                             113   -0.05 7  191   9 
 OCA  SZ I         820 28.87        11.7 0.20                           191   9 
 HEL  HZ EP        820  3.37                             110    0.50 8  219 260 
 HEL  HN ES   1    820 28.59                             110    0.50 6  219 260 
 HEL  HZ I         820 33.31         4.5 0.22                           219 260 
                                                                                
