 2014  824 0606 56.6 L   6.719 -73.146140.0  RSN  4 0.5 0.9LRSN                1
 GAP=231        1.31      10.2    10.3 13.5  0.5480E+02 -0.1265E+02 -0.1095E+02E
 Epicentro: JORDAN - SANTANDER                                                 3
 ACTION:UPD 14-09-15 21:52 OP:nd   STATUS:               ID:20140824060656 L   I
 OLDACT:REG 14-08-24 14:09 OP:stll STATUS:               ID:20140824055817     3
 2014-08-24-0558-17M.COL___257                                                 6
 STAT SP IPHASW D HRMM SECON CODA AMPLIT PERI AZIMU VELO AIN AR TRES W  DIS CAZ7
 BAR2 SZ EP        6 7 14.33                             174   -1.0210 14.6 196 
 BRR  HZ EP        6 7 17.63                             150    0.2610 75.9 304 
 BRR  HN ES        6 7 33.92                             150    0.3210 75.9 304 
 BRR  HZ I         6 7 35.41         1.9 0.62            151           75.9 304 
 RUS  HZ EP        6 7 19.28                             145    0.1710 91.6 176 
 RUS  HN ES        6 7 36.97                             145    0.2810 91.6 176 
 RUS  HZ I         6 7 39.72         1.1 0.38            145           91.6 176 
 PTB  HZ EP        6 7 23.43                             131    0.50 9  146 262 
 PTB  HN ES        6 7 42.96                             131   -0.53 9  146 262 
 PTB  HZ I         6 7 47.32         1.4 0.10            131            146 262 
                                                                                
