 2013  324 0955 27.7 L   6.750 -73.175149.0  RSN  5 0.4 1.8LRSN                1
 GAP=230        1.03       8.5     7.7  7.7  0.4344E+02  0.1088E+02  0.2990E-01E
 Epicentro: VILLANUEVA - SANTANDER                                             3
 ACTION:UPD 13-04-09 14:04 OP:ep   STATUS:               ID:20130324095527 L   I
 2013-03-24-0950-00M.COL___245                                                 6
 STAT SP IPHASW D HRMM SECON CODA AMPLIT PERI AZIMU VELO AIN AR TRES W  DIS CAZ7
 BAR2 SZ EP        955 47.34                             173   -0.2910 17.4 183 
 BAR2 SZ ES        956  2.50                             173   -0.6710 17.4 183 
 BAR2 SZ I         956  3.38        12.6 0.16            175           17.4 183 
 BRR  HN ES        956  6.60                             153    0.6110 71.3 304 
 BRR  HN I         956  9.43        12.9 0.16            152           71.3 304 
 RUS  HZ EP        955 51.81                             146    0.3910 95.3 174 
 RUS  HN ES        956 10.26                             146    0.3510 95.3 174 
 RUS  HN I         956 11.33        10.3 0.28            149           95.3 174 
 PTB  HZ EP        955 54.21                             134   -0.37 9  144 261 
 PTB  HN ES        956 15.34                             134   -0.19 9  144 261 
 PTB  HN I         956 16.41         6.8 0.26            134            144 261 
 ZAR  HZ EP        956  0.33                             123    0.04 9  203 294 
 ZAR  HN ES        956 25.79                             123    0.09 9  203 294 
 ZAR  HN I         956 31.31         5.3 0.16            123            203 294 
                                                                                
