 2014 1124 0742 29.6 L   6.840 -73.108117.5  RSN  4 0.3 1.5LRSN                1
 GAP=266        0.81       6.8     7.5 17.8  0.1478E+02 -0.3117E+02 -0.6677E+02E
 Epicentro: LOS SANTOS - SANTANDER                                             3
 ACTION:UPD 14-12-19 15:46 OP:nd   STATUS:               ID:20141124074229 L   I
 OLDACT:UP  14-11-25 09:24 OP:stll STATUS:               ID:20141124074229 L   3
 OLDACT:REG 14-11-24 11:24 OP:mh   STATUS:               ID:20141124073738     3
 2014-11-24-0737-38M.COL___297                                                 6
 STAT SP IPHASW D HRMM SECON CODA AMPLIT PERI AZIMU VELO AIN AR TRES W  DIS CAZ7
 BAR2 SZ EP   1    742 46.04                             165    0.02 8 28.6 197 
 BAR2 SZ I         743  4.15        10.3 0.32            155           28.6 197 
 PTB  HZ EP        742 54.73                             123   -0.2310  153 258 
 PTB  HN ES        743 14.20                             123   -0.5210  153 258 
 PTB  HZ I         743 22.32         3.2 0.44            168            153 258 
 SPBC HN ES        743 18.30                             121    0.3810  169 219 
 SPBC HZ I         743 23.10         6.4 0.18            162            169 219 
 ZAR  HZ EP        743  0.63                             115   -0.03 9  206 291 
 ZAR  HN ES        743 25.34                             115    0.47 9  206 291 
 ZAR  HZ I         743 31.45         2.5 0.34            145            206 291 
                                                                                
