 2014  124 0306 22.1 L   6.814 -73.146143.1  RSN 14 0.5 2.0LRSN                1
 GAP=136        1.18       3.1     4.6  6.4 -0.4501E+01  0.1235E+02 -0.6608E+00E
 Epicentro: LOS SANTOS - SANTANDER                                             3
 ACTION:UPD 14-03-13 09:58 OP:ep   STATUS:               ID:20140124030622 L   I
 OLDACT:REG 14-01-24 07:25 OP:nd   STATUS:               ID:20140124030000     3
 2014-01-24-0300-00M.COL___285                                                 6
 STAT SP IPHASW D HRMM SECON CODA AMPLIT PERI AZIMU VELO AIN AR TRES W  DIS CAZ7
 BAR2 SZ EP        3 6 40.90                             170   -0.5810 24.8 189 
 BAR2 SZ ES        3 6 56.11                             170   -0.4610 24.8 189 
 BAR2 SZ I         3 6 58.07        27.9 0.24            169           24.8 189 
 PAM  SZ EP        3 6 44.25                             151    0.2410 76.3  40 
 PAM  SN ES        3 7  1.65                             151    0.5910 76.3  40 
 PAM  SZ I         3 7  3.85        17.1 0.56            154           76.3  40 
 RUS  HZ EP        3 6 45.58                             143   -0.1610  102 176 
 RUS  HN ES        3 7  4.30                             143    0.1510  102 176 
 RUS  HZ I         3 7  5.35         9.5 0.32            145            102 176 
 PTB  HZ EP        3 6 48.30                             131   -0.61 9  148 258 
 PTB  HN ES        3 7  9.66                             131   -0.14 9  148 258 
 PTB  HZ I         3 7 12.57        13.0 0.16            131            148 258 
 OCA  HZ EP        3 6 49.87                             129   -0.23 9  159 353 
 OCA  HN ES        3 7 12.43                             129    0.52 9  159 353 
 OCA  HZ I         3 7 15.67        19.1 0.24            131            159 353 
 SPBC HZ EP        3 6 50.59                             128    0.05 9  164 219 
 SPBC HN ES        3 7 12.79                             128    0.09 9  164 219 
 SPBC HZ I         3 7 18.29        22.8 0.42            129            164 219 
 NOR  HZ EP        3 6 57.30                             118   -0.51 8  236 234 
 NOR  HN ES        3 7 25.99                             118    0.37 8  236 234 
 NOR  HZ I         3 7 29.33        10.2 0.24            119            236 234 
 SML  HZ EP        3 6 58.06                             117   -0.41 8  242 335 
 SML  HN ES        3 7 26.38                             117   -0.42 8  242 335 
 SML  HZ I         3 7 30.44        20.2 0.10            118            242 335 
 CHI  HZ EP        3 6 59.73                             116   -0.12 8  250 195 
 CHI  HN ES        3 7 29.09                             116   -0.17 8  250 195 
 CHI  HZ I         3 7 34.63         3.4 0.30            118            250 195 
 HEL  HZ EP        3 7  3.05                             114    0.80 8  272 255 
 HEL  HN ES        3 7 33.43                             114   -0.11 8  272 255 
 HEL  HZ I         3 7 42.24         6.8 0.32            115            272 255 
 GUY2CHZ EP        3 7  6.80                             112    1.08 7  302 235 
 GUY2CHN ES        3 7 41.18                             112    1.47 7  302 235 
 GUY2CHZ I         3 7 48.24         5.3 0.52                           302 235 
 CBOC HZ EP        3 7  9.55                             109    0.56 7  334 252 
 CBOC HN ES        3 7 44.61                             109   -0.93 7  334 252 
 CBOC HZ I         3 7 50.19         1.8 0.28            110            334 252 
 PRA  HZ EP        3 7 15.50                             106   -0.22 6  393 209 
 PRA  HN ES        3 7 57.12                             106   -0.39 6  393 209 
 PRA  HZ I         3 8  4.10         3.6 0.30            107            393 209 
 SJC  HZ EP   4    3 7 16.34                             105   -1.12 0  408 327 
 SJC  HN ES   4    3 7 56.59                             105   -4.03 0  408 327 
 SJC  HZ I         3 8  3.24         2.2 0.24            107            408 327 
                                                                                
