 2015  624 0359 16.7 L   7.490 -73.154132.9  RSN  6 0.4 1.9LRSN                1
 GAP=194        0.96       4.6     7.7  9.8 -0.5281E+00  0.1231E+02  0.9732E+01E
 Epicentro: EL PLAYON - SANTANDER                                              3
 ACTION:UPD 15-09-10 22:14 OP:cam  STATUS:               ID:20150624035916 L   I
 OLDACT:UP  15-07-01 05:41 OP:DRIO STATUS:               ID:20150624035916 L   3
 OLDACT:UP  15-06-24 15:13 OP:mh   STATUS:               ID:20150624035750     3
 OLDACT:UP  15-06-24 15:13 OP:mh   STATUS:               ID:20150624035750     3
 OLDACT:UP  15-06-24 15:13 OP:mh   STATUS:               ID:20150624035750     3
 OLDACT:REG 15-06-24 12:56 OP:mh   STATUS:               ID:20150624035750     3
 2015-06-24-0357-50M.COL___316                                                 6
 STAT SP IPHASW D HRMM SECON CODA AMPLIT PERI AZIMU VELO AIN AR TRES W  DIS CAZ7
 BRR  HZ EP        359 36.73                             149    0.0110 74.8 236 
 BRR  HN ES        359 52.00                             149   -0.3110 74.8 236 
 BRR  HZ I         359 53.82        12.3 0.16            147           74.8 236 
 OCA  HN ES   1    359 54.79                             145    0.90 7 84.8 348 
 BAR2 EZ EP   1    359 38.30                             141   -0.48 7 99.3 182 
 BAR2 EZ I         359 55.99        16.2 0.14            128           99.3 182 
 SML  HE ES        4 0  7.54                             123   -0.42 9  177 325 
 SML  HZ I         4 0  9.33        12.8 0.10            119            177 325 
 ZAR  HZ EP        359 46.83                             122    0.14 9  188 270 
 ZAR  HN ES        4 0 10.00                             122   -0.06 9  188 270 
 ZAR  HZ I         4 0 13.02         9.4 0.28            118            188 270 
 NOR  HE ES        4 0 29.75                             111    0.60 7  285 222 
                                                                                
