 2012  624 0214 22.4 L   6.771 -73.154145.2  RSN  5 0.3 1.5LRSN                1
 GAP=234        0.38      11.8    10.5 13.2  0.5260E+02 -0.1973E+02 -0.8698E+02E
 Epicentro: LOS SANTOS - SANTANDER                                             3
 ACTION:UPD 12-08-06 17:51 OP:ep   STATUS:               ID:20120624021422 L   I
 2012-06-24-0210-00M.COL___199                                                 6
 STAT SP IPHASW D HRMM SECON CODA AMPLIT PERI AZIMU VELO AIN AR TRES W  DIS CAZ7
 BAR2 SZ ES   3    214 56.46                             172   -0.66 2 20.0 189 
 BRR  HZ EP        214 43.54                             152    0.0010 72.0 301 
 BRR  HZ I         214 43.82         5.7 0.14                          72.0 301 
 BRR  HN ES   3    215  0.63                             152    0.60 2 72.0 301 
 RUS  HN ES   3    215  4.57                             145    0.38 2 97.4 175 
 PTB  HN ES   3    215  9.89                             132   -0.19 2  146 260 
 ZAR  HN ES   3    215 20.04                             122   -0.12 2  204 293 
                                                                                
