 2010  824 0030  5.4 L   6.749 -73.662 93.0  RSN 10 0.4 2.0LRSN                1
 GAP= 99        0.72       3.6     4.2  6.4 -0.2493E+01  0.9259E+01  0.6464E+01E
 Epicentro: EL CARMEN DE CHUCURI - SANTANDER                                   3
 ACTION:UP  10-09-07 10:57 OP:vdl  STATUS:               ID:20100824003005 L   I
 2010-08-24-0027-14S.COL___120                                                 6
 STAT SP IPHASW D HRMM SECON CODA AMPLIT PERI AZIMU VELO SNR AR TRES W  DIS CAZ7
 BRR  HZ IP     D  030 18.85                             155    -0.310   40 352 
 BRR  HZ I         030 19.21        67.5 0.11                            40 352 
 BRR  HE ES   1    030 29.92                             155     0.1 7   40 352 
 BAR2 SZ EP   1    030 20.23                             147    -0.2 7   56 108 
 BAR2 SZ ES   1    030 32.29                             147     0.2 7   56 108 
 BAR2 SZ I         030 33.76        40.4 0.35                            56 108 
 RUS  HZ EP   1    030 25.31                             126    -0.5 7  114 146 
 RUS  HE ES   2    030 41.65                             126    -0.1 5  114 146 
 RUS  HZ I         030 42.64         9.1 0.19                           114 146 
 GUE  SZ EP   2    030 28.58                             119    -0.2 5  145  34 
 GRA  SZ EP   2    030 30.44                             116     0.5 5  157  37 
 GRA  SZ ES   2    030 50.00                             116     0.9 5  157  37 
 GRA  SZ I         030 52.82        20.9 0.30                           157  37 
 OCA  SZ EP   2    030 30.97                             115    -0.3 5  169  13 
 OCA  SZ I         030 53.18        13.3 0.61                           169  13 
 HEL  HZ EP   2    030 36.34                             109    -0.5 4  216 253 
 HEL  HN ES   2    031  1.42                                     0.0 4  216 253 
 HEL  HZ I         031  4.47        10.5 0.39                           216 253 
 CHI  HZ EP   2    030 39.32                             107     0.2 4  235 182 
 CHI  HZ I         031 16.96         3.2 0.84                           235 182 
 RREF HZ EP   1    030 44.51                             104     0.1 6  277 222 
 RREF HE ES   1    031 15.23                             104     0.4 6  277 222 
 RREF HZ I         031 21.01         6.2 0.33                           277 222 
 PRA  HZ EP   1    030 54.46                             101     0.5 5  362 202 
 PRA  HE ES   2    031 32.77                             101     0.9 3  362 202 
 PRA  HZ I         031 37.91         4.0 0.26                           362 202 
                                                                                
