 2013 1124 0708 21.4 L   6.803 -73.170148.0  RSN  7 0.4 1.4LRSN                1
 GAP=133        1.05       4.8     4.7  8.9  0.7096E+00  0.3435E+01  0.1765E+02E
 Epicentro: LOS SANTOS - SANTANDER                                             3
 ACTION:UPD 14-01-09 16:30 OP:ep   STATUS:               ID:20131124070821 L   I
 OLDACT:UP  13-11-24 13:17 OP:mh   STATUS:               ID:20131124070741     3
 OLDACT:REG 13-11-24 12:51 OP:mh   STATUS:               ID:20131124070741     3
 2013-11-24-0707-41M.COL___246                                                 6
 STAT SP IPHASW D HRMM SECON CODA AMPLIT PERI AZIMU VELO AIN AR TRES W  DIS CAZ7
 BAR2 SZ EP        7 8 41.43                             171    0.1010 23.3 183 
 BAR2 SZ I         7 8 57.72         8.7 0.26            169           23.3 183 
 BRR  HZ EP        7 8 43.19                             154    0.5110 68.7 299 
 BRR  HN ES        7 8 59.87                             154    0.6210 68.7 299 
 PAM  SZ EP        7 8 44.31                             151    0.3410 78.9  41 
 PAM  SN ES        7 9  0.87                             151   -0.6810 78.9  41 
 PAM  SZ I         7 9  3.53         3.6 0.43            149           78.9  41 
 RUS  HZ EP        7 8 45.41                             144   -0.0310  101 175 
 RUS  HN ES   1    7 9  4.23                             144    0.06 7  101 175 
 RUS  HZ I         7 9  5.14         2.5 0.22            142            101 175 
 PTB  HZ EP        7 8 47.76                             133   -0.58 9  145 258 
 PTB  HN ES        7 9  8.83                             133   -0.51 9  145 258 
 PTB  HZ I         7 9 11.28         2.9 0.13            133            145 258 
 ZAR  HZ EP   4    7 8 53.63                             123   -0.12 0  201 292 
 ZAR  HN ES        7 9 18.96                             123    0.00 9  201 292 
 CHI  HZ EP        7 8 59.04                             118   -0.17 8  248 195 
 CHI  HN ES        7 9 28.94                             118    0.26 8  248 195 
 CHI  HZ I         7 9 32.36         1.6 0.28            116            248 195 
                                                                                
