 2011  624 0815 46.1 L   6.937 -73.330119.9  RSN  4 0.1 1.1LRSN                1
 GAP=137        0.30       7.6     7.6  4.5  0.4196E+02 -0.9583E+01 -0.1529E+02E
 Epicentro: BETULIA - SANTANDER                                                3
 ACTION:UP  11-07-14 19:07 OP:ep   STATUS:               ID:20110624081546 L   I
 2011-06-24-0814-42S.COL___140                                                 6
 STAT SP IPHASW D HRMM SECON CODA AMPLIT PERI AZIMU VELO SNR AR TRES W  DIS CAZ7
 BTL  SZ EP   1    816  2.27                             176    -0.1 7    7 106 
 BTL  SZ ES   2    816 15.12                             176     0.0 5    7 106 
 GIR2 SZ EP   1    816  2.51                             169     0.0 7   22  44 
 BAR2 SZ EP   1    816  3.27                             160     0.0 7   41 157 
 BAR2 SZ ES   1    816 16.65                             160     0.0 7   41 157 
 BAR2 SZ I         816 18.44         3.3 0.60                            41 157 
 BRR  HZ EP   1    816  3.20                             157     0.1 7   46 294 
 BRR  HE ES   2    816 16.31                             157    -0.1 5   46 294 
 BRR  HZ I         817 11.94         3.0 0.63                            46 294 
                                                                                
