 2013  924 0928 57.1 L   6.377 -73.634110.0  RSN  6 0.4 1.7LRSN                1
 GAP=147        0.98       4.1     5.0  8.4 -0.4353E+01  0.1179E+02  0.1738E+01E
 Epicentro: SANTA HELENA DEL OPON - SANTANDER                                  3
 ACTION:UPD 13-10-22 09:24 OP:ep   STATUS:               ID:20130924092857 L   I
 OLDACT:REG 13-09-24 10:27 OP:mh   STATUS:               ID:20130924092741     3
 2013-09-24-0927-41M.COL___241                                                 6
 STAT SP IPHASW D HRMM SECON CODA AMPLIT PERI AZIMU VELO AIN AR TRES W  DIS CAZ7
 BAR2 SZ EP   1    929 13.95                             151    0.11 7 55.3  65 
 BAR2 SZ ES   1    929 26.88                             151   -0.01 7 55.3  65 
 BAR2 SZ I         929 27.97        23.8 0.24            157           55.3  65 
 BRR  HZ EP   1    929 15.06                             141   -0.21 7 81.2 354 
 BRR  HE ES        929 29.90                             141    0.4710 81.2 354 
 BRR  HZ I         929 37.62         7.3 0.40            142           81.2 354 
 PTB  HZ EP        929 15.57                             137   -0.6510 92.7 281 
 PTB  HN ES        929 30.60                             137   -0.5310 92.7 281 
 PTB  HZ I         929 33.26         9.7 0.10            139           92.7 281 
 SPBC HZ EP   1    929 16.18                             136   -0.23 7 93.7 211 
 SPBC HN ES   1    929 31.31                             136   -0.15 7 93.7 211 
 SPBC HZ I         929 34.06        11.8 0.20            142           93.7 211 
 NOR  HZ EP   1    929 23.36                             119    0.21 7  164 237 
 NOR  HN ES        929 44.26                             119    0.80 9  164 237 
 NOR  HZ I         929 46.30         7.0 0.18            124            164 237 
 ZAR  HZ EP        929 25.34                             116    0.16 9  183 312 
 ZAR  HN ES        929 47.23                             116    0.15 9  183 312 
 ZAR  HZ I         929 53.15         5.9 0.40            120            183 312 
                                                                                
