 2014  824 0437 42.4 L   6.810 -73.171142.0  RSN 18 0.5 2.0LRSN                1
 GAP= 69        1.06       2.4     3.3  4.7 -0.1415E+01  0.3324E+01  0.1326E+01E
 Epicentro: LOS SANTOS - SANTANDER                                             3
 ACTION:UPD 14-09-15 21:52 OP:nd   STATUS:               ID:20140824043742 L   I
 OLDACT:REG 14-08-24 14:05 OP:stll STATUS:               ID:20140824042820     3
 2014-08-24-0428-20M.COL___257                                                 6
 STAT SP IPHASW D HRMM SECON CODA AMPLIT PERI AZIMU VELO AIN AR TRES W  DIS CAZ7
 BAR2 SZ EP        438  1.67                             170    0.1210 24.1 183 
 BAR2 SZ ES        438 16.47                             170   -0.0510 24.1 183 
 BAR2 SZ I         438 17.98        38.0 0.16            165           24.1 183 
 BRR  HZ IP     C  438  3.58                             153    0.6510 68.2 299 
 BRR  HN ES        438 19.42                             153    0.4410 68.2 299 
 BRR  HZ I         438 21.35        13.1 0.46            146           68.2 299 
 PAM  SZ I         438  4.54        38.0 0.22            153           78.4  42 
 PAM  SZ EP        438  4.56                             150    0.3210 78.4  42 
 PAM  SN ES        438 21.46                             150    0.1610 78.4  42 
 RUS  HZ EP        438  5.61                             142   -0.2310  102 175 
 RUS  HN ES        438 23.48                             142   -0.6710  102 175 
 RUS  HZ I         438 25.26         8.9 0.34            140            102 175 
 PTB  HZ EP        438  8.57                             131   -0.22 9  145 258 
 PTB  HN ES        438 29.08                             131   -0.33 9  145 258 
 PTB  HZ I         438 31.20         9.2 0.20            126            145 258 
 TAM  HZ EP        438 10.07                             129    0.05 9  158 105 
 TAM  HZ I         438 10.49        11.2 0.38            130            158 105 
 OCA  HZ EP        438 10.28                             129    0.03 9  159 354 
 OCA  HN ES        438 31.15                             129   -0.85 9  159 354 
 OCA  HZ I         438 35.96        12.9 0.18            127            159 354 
 SPBC HZ IP     D  438 10.72                             128    0.23 9  162 218 
 SPBC HN ES        438 32.35                             128   -0.07 9  162 218 
 SPBC HZ I         438 38.87         9.8 0.24            124            162 218 
 ZAR  HZ EP        438 14.64                             122    0.39 9  201 292 
 ZAR  HE ES        438 39.39                             122    0.26 9  201 292 
 ZAR  HZ I         438 46.40        11.9 0.26            118            201 292 
 NOR  HZ EP        438 18.05                             118    0.35 8  233 234 
 NOR  HE ES        438 44.41                             118   -0.85 8  233 234 
 NOR  HZ I         438 48.70         6.1 0.16            114            233 234 
 SML  HZ EP        438 18.73                             117    0.19 8  242 336 
 SML  HE ES        438 46.46                             117   -0.31 8  242 336 
 SML  HZ I         438 52.73        11.8 0.30            114            242 336 
 CHI  HZ EP        438 20.12                             116    0.23 8  249 194 
 CHI  HZ I         438 22.49         3.6 0.48            113            249 194 
 CHI  HN ES        438 49.21                             116    0.05 8  249 194 
 ROSC BZ EP        438 20.21                             116   -0.01 8  252 210 
 ROSC BN ES        438 50.38                             116    0.63 8  252 210 
 ROSC BZ I         438 57.93         8.0 0.30            113            252 210 
 HEL  HZ EP        438 21.84                             114   -0.27 8  270 255 
 HEL  HE ES        438 53.72                             114    0.60 8  270 255 
 HEL  HZ I         439  0.79         3.6 0.28            111            270 255 
 GUY2CHZ EP        438 26.54                             112    0.93 7  300 234 
 GUY2CHN ES        438 58.95                             112   -0.39 7  300 234 
 GUY2CHZ I         439  8.31         5.2 0.36                           300 234 
 PRA  HZ EP        438 35.82                             106    0.12 6  392 209 
 PRA  HN ES        439 17.00                             106   -0.31 6  392 209 
 PRA  HZ I         439 24.48         5.6 0.24            104            392 209 
 ORTC HZ EP        438 35.97                             106   -0.09 6  395 216 
 ORTC HN ES        439 17.36                             106   -0.59 6  395 216 
 ORTC HZ I         439 24.24         2.6 0.44            104            395 216 
 SJC  HZ EP        438 35.81                             105   -1.71 6  407 327 
 SJC  HN ES   4    439 14.95                             105   -5.59 0  407 327 
 SJC  HZ I         439 21.63         1.8 0.56            103            407 327 
                                                                                
