 2013  724 0714 14.1 L   6.382 -73.644 14.3  RSN  6 0.3 0.9LRSN                1
 GAP=133        0.52       2.1     2.5  5.5  0.2835E+01  0.1072E+02  0.5895E+01E
 Epicentro: SANTA HELENA DEL OPON - SANTANDER                                  3
 ACTION:UPD 13-08-12 10:39 OP:ep   STATUS:               ID:20130724071414 L   I
 OLDACT:REG 13-07-24 09:17 OP:cam  STATUS:               ID:20130724070959     3
 2013-07-24-0709-59M.COL___267                                                 6
 STAT SP IPHASW D HRMM SECON CODA AMPLIT PERI AZIMU VELO AIN AR TRES W  DIS CAZ7
 BAR2 SZ EP   1    714 23.74                             102    0.18 7 56.1  66 
 BAR2 SZ I         714 33.11         7.0 0.24             90           56.1  66 
 BRR  HZ EP   1    714 26.88                              98   -0.09 7 80.5 355 
 BRR  HE ES   1    714 36.90                              98   -0.13 7 80.5 355 
 BRR  HZ I         714 38.17         2.9 0.24             90           80.5 355 
 RUS  HZ I         714 27.87         2.6 0.36             90           82.4 131 
 RUS  HZ EP        714 27.95                              98    0.1910 82.4 131 
 RUS  HN ES   1    714 38.11                              98   -0.33 7 82.4 131 
 PTB  HZ EP   2    714 27.98                              97   -0.66 5 91.5 281 
 PTB  HN ES   2    714 40.48                              97    0.47 5 91.5 281 
 GIR2 SZ EP   1    714 28.87                              97    0.07 7 91.7  33 
 HEL  HZ EP   1    714 45.31                              56    0.21 6  210 264 
 HEL  HN ES        715  9.22                              56   -0.08 8  210 264 
 HEL  HZ I         715  9.47         2.6 0.18             56            210 264 
                                                                                
