 2017  224 0701 39.9 L   6.270 -73.731107.6  RSN  5 0.2 1.1LRSN                1
 GAP=170        0.61       4.4     6.4  4.8  0.1892E+02  0.2259E+01  0.1663E+01E
 Epicentro: LANDAZURI - SANTANDER                                              3
 ACTION:UPD 17-05-24 15:40 OP:jn   STATUS:               ID:20170224070139 L   I
 OLDACT:DUP 17-02-24 16:18 OP:edw  STATUS:               ID:20170224065743d    3
 OLDACT:UP  17-02-24 16:18 OP:edw  STATUS:               ID:20170224065742     3
 OLDACT:REG 17-02-24 12:45 OP:edw  STATUS:               ID:20170224065742     3
 2017-02-24-0658-00M.COL___388                                                 6
 STAT SP IPHASW D HRMM SECON CODA AMPLIT PERI AZIMU VELO AIN AR TRES W  DIS CAZ7
 BAR2 EZ EP        7 1 57.41                             143    0.0210 70.4  60 
 BAR2 EZ ES        7 2 11.18                             143    0.1710 70.4  60 
 BAR2 EZ I         7 2 11.97         7.8 0.28            143           70.4  60 
 RUS  HZ EP        7 1 58.95                             139    0.2610 83.0 120 
 RUS  HN ES        7 2 13.08                             139   -0.2510 83.0 120 
 RUS  HZ I         7 2 13.75         2.9 0.24            139           83.0 120 
 PTB  HZ EP   9    7 1 57.39                             138   -0.84 0 85.5 290 
 PTB  HN ES        7 2 11.23                             131   -0.4410 85.5 290 
 PTB  HZ I         7 2 12.03         1.5 0.18            140           85.5 290 
 BRR  HZ EP        7 1 58.73                             135   -0.0610 92.6   1 
 BRR  HN ES        7 2 13.46                             135   -0.0410 92.6   1 
 BRR  HZ I         7 2 14.48         3.4 0.46            135           92.6   1 
 PAM  EZ EP        7 2  6.31                             118   -0.14 9  164  44 
                                                                                
