 2012  924 0742  9.6 L   6.802 -73.133148.0  RSN  5 0.4 1.2LRSN                1
 GAP=138        0.84       6.4     6.3 11.3 -0.5974E+01 -0.9684E+01  0.1592E+02E
 Epicentro: LOS SANTOS - SANTANDER                                             3
 ACTION:UPD 12-10-22 14:20 OP:ep   STATUS:               ID:20120924074209 L   I
 2012-09-24-0740-00M.COL___221                                                 6
 STAT SP IPHASW D HRMM SECON CODA AMPLIT PERI AZIMU VELO AIN AR TRES W  DIS CAZ7
 BAR2 SZ EP        742 29.02                             170   -0.4410 23.9 193 
 BAR2 SZ I         742 46.27         8.4 0.44                          23.9 193 
 BRR  HZ EP   2    742 31.48                             153    0.48 5 72.3 298 
 BRR  HN ES   1    742 48.31                             153    0.57 7 72.3 298 
 BRR  HZ I         742 49.38         2.0 0.12                          72.3 298 
 PAM  SZ EP   1    742 32.31                             152    0.37 7 76.3  39 
 PAM  SN ES   1    742 49.00                             152   -0.40 7 76.3  39 
 RUS  HZ EP   1    742 33.76                             144    0.23 7  101 177 
 RUS  HN ES   1    742 52.47                             144    0.23 7  101 177 
 RUS  HZ I         742 53.20         1.1 0.16                           101 177 
 PTB  HN ES   1    742 57.61                             132   -0.50 7  149 259 
                                                                                
