 2016  624 0040 55.7 L   6.782 -73.200144.8  RSN  7 0.4 1.4LRSN                1
 GAP=230        0.88       4.6     6.1  6.9  0.1262E+02  0.1596E+02  0.3244E+01E
 Epicentro: ZAPATOCA - SANTANDER                                               3
 ACTION:UPD 16-07-21 22:22 OP:rebc STATUS:               ID:20160624004055 L   I
 OLDACT:REG 16-06-24 12:43 OP:ak   STATUS:               ID:20160624003740     3
 2016-06-24-0037-40M.COL___331                                                 6
 STAT SP IPHASW D HRMM SECON CODA AMPLIT PERI AZIMU VELO AIN AR TRES W  DIS CAZ7
 BAR2 EZ EP   2    041 15.15                             171    0.03 5 21.1 175 
 BAR2 EZ ES        041 30.02                             171   -0.2810 21.1 175 
 BAR2 EZ I         041 31.66         5.7 0.11                          21.1 175 
 BRR  HZ EP   2    041 16.48                             154    0.02 5 67.0 303 
 BRR  HN ES        041 33.09                             154    0.4010 67.0 303 
 RUS  HZ EP   2    041 19.05                             144   -0.16 5 99.2 172 
 RUS  HE ES        041 37.65                             144    0.0710 99.2 172 
 RUS  HZ I         041 39.65         2.3 0.46                          99.2 172 
 PTB  HZ EP        041 21.94                             133   -0.03 9  141 259 
 PTB  HN ES        041 41.79                             133   -0.70 9  141 259 
 PTB  HZ I         041 45.21         2.5 0.13                           141 259 
 SPBC HZ EP   2    041 24.13                             130    0.56 5  158 218 
 SPBC HN ES        041 45.51                             130    0.16 9  158 218 
 SPBC HZ I         041 50.66         5.2 0.22                           158 218 
 ZAR  HZ EP        041 27.02                             123   -0.52 9  199 293 
 ZAR  HN ES        041 53.07                             123    0.66 9  199 293 
 ZAR  HZ I         041 58.55         4.3 0.38                           199 293 
 CHI  HN ES   1    042  2.35                             117    0.36 6  245 194 
                                                                                
