 2010 1224 0007 38.4 L   6.839 -73.105140.0  RSN  9 0.3 1.8LRSN                1
 GAP=163        0.63       3.6     6.7  8.5 -0.1486E+02  0.3238E+02 -0.7504E+01E
 Epicentro: LOS SANTOS - SANTANDER                                             3
 ACTION:UP  11-01-14 15:26 OP:pat  STATUS:               ID:20101224000738 L   I
 2010-12-24-0000-00M.COL___133                                                 6
 STAT SP IPHASW D HRMM SECON CODA AMPLIT PERI AZIMU VELO SNR AR TRES W  DIS CAZ7
 BAR2 SZ EP        0 7 57.65                             168     0.210   29 198 
 BAR2 SZ I         0 8 13.80        17.2 0.15                            29 198 
 RUS  HZ EP   1    0 8  1.70                             141    -0.2 7  105 179 
 RUS  HZ I         0 8  2.92         8.4 0.10                           105 179 
 RUS  HN ES   1    0 8 20.45                             141     0.2 7  105 179 
 GRA  SZ EP        0 8  2.55                             137    -0.110  120  16 
 GRA  SZ ES   1    0 8 21.50                             137    -0.1 7  120  16 
 GRA  SZ I         0 8 24.09         9.1 0.29                           120  16 
 OCA  SZ EP   2    0 8  6.06                             129     0.1 5  157 351 
 OCA  SZ I         0 8 31.88         8.2 0.41                           157 351 
 NOR  SZ EP   1    0 8 14.46                             117     0.0 6  241 234 
 NOR  SN ES   1    0 8 42.03                             117    -0.6 6  241 234 
 CHI  HZ EP   2    0 8 16.21                             115    -0.2 4  254 196 
 CHI  HN ES   2    0 8 45.71                             115    -0.3 4  254 196 
 CHI  HZ I         0 8 53.12         3.1 0.36                           254 196 
 HEL  HZ EP   1    0 8 19.73                             113     0.8 6  278 255 
 HEL  HZ I         0 8 56.07         4.9 0.40                           278 255 
 RREF HN ES   1    0 9  1.54                             109     0.2 5  328 229 
 RREF HZ I         0 9  9.29         4.8 0.38                           328 229 
 PRA  HZ EP   1    0 8 32.24                             105    -0.2 4  398 210 
 PRA  HE ES   2    0 9 14.51                             105    -0.1 3  398 210 
                                                                                
