 2016  324 0948 35.8 L   7.146 -73.164135.5  RSN  4 0.1 1.4LRSN                1
 GAP=232        0.36       6.9     2.7  4.2 -0.8211E+01  0.5047E+01 -0.1268E+02E
 Epicentro: BUCARAMANGA - SANTANDER                                            3
 ACTION:UPD 16-05-13 21:27 OP:cam  STATUS:               ID:20160324094835 L   I
 OLDACT:UP  16-03-24 17:49 OP:ak   STATUS:               ID:20160324094748     3
 OLDACT:REG 16-03-24 12:56 OP:ak   STATUS:               ID:20160324094748     3
 2016-03-24-0947-48M.COL___291                                                 6
 STAT SP IPHASW D HRMM SECON CODA AMPLIT PERI AZIMU VELO AIN AR TRES W  DIS CAZ7
 BAR2 EZ EP        948 55.80                             154    0.1910 61.2 182 
 BAR2 EZ ES        949 11.00                             154   -0.0710 61.2 182 
 BAR2 EZ I         949 12.38         6.9 0.40            160           61.2 182 
 PTB  HZ EP        949  2.80                             127   -0.08 9  158 245 
 PTB  HN ES        949 23.98                             127   -0.04 9  158 245 
 PTB  HZ I         949 28.41         2.3 0.08            129            158 245 
 TAM  HZ EP   2    949  4.01                             125   -0.20 4  171 117 
 GUY2CHZ EP   2    949 21.40                             109   -0.06 3  323 229 
 GUY2CHN ES        949 57.17                             109    0.08 7  323 229 
 GUY2CHZ I         950  2.16         1.6 0.54                           323 229 
                                                                                
