 2012  524 0321  9.6 L   6.782 -73.204131.6  RSN  5 0.3 1.4LRSN                1
 GAP=177        0.61       5.3     5.7 11.4  0.3857E+01  0.1684E+02 -0.2394E+02E
 Epicentro: ZAPATOCA - SANTANDER                                               3
 ACTION:UP  12-07-05 12:07 OP:pat  STATUS:               ID:20120524032109 L   I
 2012-05-24-0320-00M.COL___200                                                 6
 STAT SP IPHASW D HRMM SECON CODA AMPLIT PERI AZIMU VELO SNR AR TRES W  DIS CAZ7
 BAR2 SZ EP   1    321 27.81                             171     0.3 8   21 173 
 BAR2 SZ I         321 28.15         7.9 0.09                            21 173 
 RUS  HZ EP   2    321 32.20                             141     0.3 5   99 172 
 RUS  HN ES   1    321 48.97                             141    -0.3 8   99 172 
 RUS  HZ I         321 51.35         2.9 0.33                            99 172 
 PTB  HZ EP        321 34.60                             130    -0.210  141 259 
 PTB  HE ES   1    321 54.70                             130     0.2 7  141 259 
 PTB  HZ I         321 57.83         3.3 0.13                           141 259 
 OCA  HE ES   2    321 58.15                             126    -0.2 5  162 356 
 ZAR  HZ EP   2    321 40.55                             120     0.0 5  199 293 
 ZAR  HZ I         322 14.90         4.5 0.35                           199 293 
                                                                                
