 2012  524 0430 53.3 L   6.812 -73.214141.1  RSN 13 0.4 3.3LRSN                1
 GAP=128        0.81       2.4     3.4  4.9 -0.9574E+00  0.8107E+01  0.3907E+00E
 Epicentro: ZAPATOCA - SANTANDER                                               3
 ACTION:UP  12-07-05 12:07 OP:pat  STATUS:               ID:20120524043053 L   I
 2012-05-24-0430-00M.COL___200                                                 6
 STAT SP IPHASW D HRMM SECON CODA AMPLIT PERI AZIMU VELO SNR AR TRES W  DIS CAZ7
 BAR2 SZ IP        431 12.68                             170     0.310   25 172 
 BAR2 SZ ES        431 27.56                             170     0.310   25 172 
 BAR2 SZ I         431 30.23       501.1 0.31                            25 172 
 PAM  SZ EP        431 15.45                             149     0.210   81  44 
 PAM  SN ES        431 32.44                             149     0.010   81  44 
 RUS  HZ EP        431 16.62                             142    -0.110  103 172 
 RUS  HE ES        431 34.89                             142    -0.110  103 172 
 RUS  HZ I         431 36.37       192.9 0.20                           103 172 
 PTB  HZ EP        431 19.21                             132     0.0 9  141 258 
 PTB  HN ES   1    431 39.23                             132    -0.2 7  141 258 
 OCA  HZ EP        431 20.85                             129    -0.2 9  158 356 
 OCA  HN ES        431 42.05                             129    -0.6 9  158 356 
 OCA  HZ I         431 47.28       492.1 0.26                           158 356 
 ZAR  HZ EP        431 25.15                             122     0.5 9  197 293 
 ZAR  HN ES   1    431 49.67                             122     0.5 6  197 293 
 ZAR  HZ I         431 56.76       268.2 0.29                           197 293 
 NOR  SZ EP   1    431 28.48                             118     0.3 6  229 233 
 NOR  SN ES   1    431 55.61                             118     0.2 6  229 233 
 CHI  HZ EP        431 30.52                             116    -0.2 8  248 193 
 CHI  HN ES   1    431 59.45                             116    -0.4 6  248 193 
 CHI  HZ I         432  7.49        90.0 0.53                           248 193 
 HEL  HZ EP   1    431 32.94                             114     0.4 6  265 255 
 HEL  HE ES   1    432  2.79                             114    -0.3 6  265 255 
 HEL  HZ I         432 10.92       127.8 0.41                           265 255 
 URE  HZ EP   1    431 32.87                             113    -0.4 6  276 292 
 URE  HN ES   1    432  3.98                             113    -0.5 6  276 292 
 RREF HZ EP   1    431 39.05                             110     0.4 5  317 228 
 RREF HN ES   1    432 13.60                             110    -0.5 5  317 228 
 RREF HZ I         432 21.76        73.8 0.25                           317 228 
 DBB  SZ EP        431 40.29                             109     0.6 7  332 274 
 PRA  HZ EP        431 46.07                             106    -0.3 6  390 208 
 PRA  HE ES   1    432 27.08                             106    -0.7 4  390 208 
                                                                                
