 2015  324 0304 44.7 L   6.808 -73.204126.3  RSN  4 0.2 1.2LRSN                1
 GAP=240        0.53       4.8     4.3  7.9  0.1343E+02 -0.5484E+01 -0.1592E+02E
 Epicentro: ZAPATOCA - SANTANDER                                               3
 ACTION:UPD 15-04-30 16:28 OP:nd   STATUS:               ID:20150324030444 L   I
 OLDACT:REG 15-03-24 12:41 OP:fm   STATUS:               ID:20150324025748     3
 2015-03-24-0257-48M.COL___269                                                 6
 STAT SP IPHASW D HRMM SECON CODA AMPLIT PERI AZIMU VELO AIN AR TRES W  DIS CAZ7
 RUS  HZ EP        3 5  6.68                             139   -0.0310  102 172 
 RUS  HN ES        3 5 23.90                             139    0.0210  102 172 
 RUS  HZ I         3 5 26.25         1.4 0.16            146            102 172 
 PTB  HZ EP   1    3 5  9.21                             128   -0.35 7  142 258 
 PTB  HN ES   1    3 5 28.54                             128   -0.42 7  142 258 
 PTB  HZ I         3 5 37.33         1.7 0.56            130            142 258 
 SPBC HZ EP        3 5 11.55                             125    0.10 9  160 217 
 SPBC HE ES        3 5 32.47                             125    0.15 9  160 217 
 SPBC HZ I         3 5 39.50         3.9 0.26            129            160 217 
 ZAR  HN ES        3 5 39.38                             119    0.25 9  198 293 
 ZAR  HZ I         3 5 48.80         1.7 0.22            122            198 293 
                                                                                
