 2017  724 0107 24.4 L   6.805 -73.143145.9  RSN 14 0.5 1.9LRSN                1
 GAP=102        1.13       3.9     3.6  6.1 -0.7217E+00  0.4141E+01  0.5426E+01E
 Epicentro: LOS SANTOS - SANTANDER                                             3
 ACTION:UPD 17-08-30 15:36 OP:rebc STATUS:               ID:20170724010724 L   I
 OLDACT:UP  17-07-24 14:23 OP:and  STATUS:               ID:20170724005735     3
 OLDACT:UP  17-07-24 14:22 OP:and  STATUS:               ID:20170724005735     3
 OLDACT:UP  17-07-24 14:21 OP:and  STATUS:               ID:20170724005735     3
 OLDACT:UP  17-07-24 14:20 OP:and  STATUS:               ID:20170724005735     3
 OLDACT:REG 17-07-24 12:41 OP:and  STATUS:               ID:20170724005735     3
 2017-07-24-0058-00M.COL___389                                                 6
 STAT SP IPHASW D HRMM SECON CODA AMPLIT PERI AZIMU VELO AIN AR TRES W  DIS CAZ7
 BAR2 EZ IP     C  1 7 43.81                             170   -0.2610 24.0 190 
 BAR2 EZ ES        1 7 58.78                             170   -0.6210 24.0 190 
 BAR2 EZ I         1 8  0.38        34.8 0.20            168           24.0 190 
 BRR  HZ EP        1 7 45.60                             153    0.0310 71.2 298 
 BRR  HN ES        1 8  2.98                             153    0.9110 71.2 298 
 BRR  HZ I         1 8  5.36        10.7 0.30            149           71.2 298 
 PAM  EZ IP     C  1 7 46.72                             151    0.1210 76.8  40 
 PAM  EN ES        1 8  3.92                             151    0.0110 76.8  40 
 PAM  EZ I         1 8  6.07         8.7 0.48            148           76.8  40 
 RUS  HZ EP        1 7 47.70                             144   -0.5210  101 176 
 RUS  HE ES        1 8  6.88                             144    0.1010  101 176 
 RUS  HZ I         1 8  8.12        17.1 0.28            140            101 176 
 PTB  HZ EP        1 7 50.67                             132   -0.75 9  148 259 
 PTB  HN ES        1 8 11.87                             132   -0.62 9  148 259 
 PTB  HZ I         1 8 14.19         6.9 0.20            127            148 259 
 TAM  HZ EP        1 7 52.07                             131   -0.02 9  155 105 
 SPBC HZ IP     D  1 7 52.89                             129   -0.09 9  164 219 
 SPBC HE ES        1 8 15.40                             129    0.14 9  164 219 
 SPBC HZ I         1 8 21.53        11.2 0.22            125            164 219 
 YPLC HN ES        1 8 18.26                             127    0.73 9  177 151 
 YPLC HZ I         1 8 18.94         8.5 0.28            123            177 151 
 ZAR  HZ EP   2    1 7 55.99                             122   -0.88 4  204 292 
 ZAR  HN ES        1 8 22.54                             122    0.36 9  204 292 
 ZAR  HZ I         1 8 32.44         7.3 0.30            118            204 292 
 NOR  HZ IP     C  1 8  0.43                             118    0.22 8  235 234 
 NOR  HN ES        1 8 27.98                             118   -0.15 8  235 234 
 NOR  HZ I         1 8 31.34         7.4 0.30            114            235 234 
 ROSC BZ EP        1 8  2.43                             117   -0.18 8  253 211 
 ROSC BE ES        1 8 32.48                             117    0.08 8  253 211 
 ROSC BZ I         1 8 38.84         8.4 0.45            113            253 211 
 HEL  HZ EP   3    1 8  6.33                             115    1.65 2  272 256 
 HEL  HN ES   4    1 8 38.95                             115    2.87 0  272 256 
 HEL  HZ I         1 8 42.85         4.9 0.28            111            272 256 
 GUY2CHZ EP        1 8  9.31                             112    1.22 7  302 235 
 GUY2CHN ES        1 8 42.35                             112    0.19 7  302 235 
 GUY2CHZ I         1 8 50.50         3.7 0.74                           302 235 
 PTGC HZ IP   3 D  1 8  6.82                             112   -1.51 2  309 159 
 PTGC HZ I         1 8 36.05         5.8 0.38            108            309 159 
 PTGC HN ES   4    1 8 38.33                             112   -4.25 0  309 159 
                                                                                
