 2010  224 0210 27.5 L   7.235 -73.524 98.5  RSN  4 0.3 1.3LRSN                1
 GAP=206        0.79      12.7    15.5  6.7  0.1858E+03 -0.3052E+02 -0.2430E+02E
 Epicentro: SABANA DE TORRES - SANTANDER                                       3
 ACTION:UP  10-08-24 09:50 OP:vdl  STATUS:               ID:20100224021027 L   I
 2010-02-24-0209-02S.COL___094                                                 6
 STAT SP IPHASW D HRMM SECON CODA AMPLIT PERI AZIMU VELO SNR AR TRES W  DIS CAZ7
 BRR  HZ EP        210 40.99                             164    -0.210   25 236 
 BRR  HN ES        210 51.68                             164    -0.110   25 236 
 BRR  HZ I         210 52.58        17.0 0.16                            25 236 
 BAR2 SZ EP        210 45.04                             138     0.210   80 152 
 BAR2 SZ ES   2    210 58.90                             138     0.5 5   80 152 
 RUS  BZ EP        210 52.14                             118    -0.5 9  156 162 
 RUS  BZ I         211 10.77         2.0 0.69                           156 162 
 RUS  BN ES        211 12.43                             118     0.2 9  156 162 
 MON  HZ I         211 23.76         0.7 0.53                           290 306 
 MON  HN ES        211 39.10                             105     0.3 7  290 306 
                                                                                
