 2014  424 0836 11.3 L   6.798 -73.119148.0  RSN 12 0.5 1.9LRSN                1
 GAP=140        0.88       3.3     4.3  7.3 -0.5276E+01  0.1105E+02 -0.2861E+01E
 Epicentro: LOS SANTOS - SANTANDER                                             3
 OLDACT:REG 14-04-24 13:06 OP:fm   STATUS:               ID:20140424082805     3
 ACTION:UPD 14-05-13 23:11 OP:nd   STATUS:               ID:20140424083611 L   I
 OLDACT:UP  14-04-24 17:06 OP:fm   STATUS:               ID:20140424082805     3
 2014-04-24-0828-05M.COL___241                                                 6
 STAT SP IPHASW D HRMM SECON CODA AMPLIT PERI AZIMU VELO AIN AR TRES W  DIS CAZ7
 PAM  SZ EP        836 34.03                             152    0.4010 75.7  38 
 PAM  SN ES        836 51.29                             152    0.2210 75.7  38 
 PAM  SZ I         836 52.89        16.7 0.62            154           75.7  38 
 RUS  HN ES   1    836 53.17                             144   -0.72 7  100 178 
 PTB  HZ EP   1    836 37.82                             132   -0.86 7  151 259 
 PTB  HE ES        837  0.03                             132   -0.02 9  151 259 
 PTB  SZ I         837  3.92         6.7 0.12            131            151 259 
 OCA  HZ EP   1    836 39.69                             130   -0.12 7  161 352 
 OCA  HN ES   1    837  1.41                             130   -0.66 7  161 352 
 OCA  SZ I         837  5.67         9.9 0.38            130            161 352 
 SPBC HZ EP   1    836 40.18                             129    0.08 7  165 220 
 SPBC HN ES        837  3.00                             129    0.41 9  165 220 
 SPBC SZ I         837  6.55         6.9 0.10            131            165 220 
 ZAR  HZ EP   1    836 44.05                             122   -0.10 6  207 292 
 ZAR  HN ES        837 10.06                             122    0.27 8  207 292 
 ZAR  SZ I         837 15.12         8.9 0.20            122            207 292 
 NOR  HZ IP   1    836 47.52                             119    0.15 6  237 235 
 NOR  HE ES   1    837 14.92                             119   -0.61 6  237 235 
 NOR  SZ I         837 16.87         5.0 0.40            120            237 235 
 SML  HZ EP   1    836 47.63                             118   -0.55 6  245 335 
 SML  HE ES   1    837 17.46                             118    0.50 6  245 335 
 SML  SZ I         837 22.71         8.8 0.08            118            245 335 
 HEL  HZ EP   4    836 53.46                             115    1.56 0  275 256 
 HEL  HE ES   4    837 21.63                             115   -1.97 0  275 256 
 HEL  SZ I         837 30.12         2.8 0.48            116            275 256 
 URE  HZ EP   2    836 52.21                             114   -0.55 4  287 292 
 URE  HE ES   4    837 21.39                             114   -3.73 0  287 292 
 URE  SZ I         837 35.44         5.3 0.16            114            287 292 
 GUY2CHZ EP   4    836 58.13                             113    2.89 0  303 235 
 GUY2CHN ES   1    837 30.20                             113    0.67 5  303 235 
 GUY2CSZ I         837 36.21         4.8 0.38                           303 235 
 PRA  HZ EP   1    837  5.63                             107    0.61 4  393 210 
 PRA  HN ES   4    837 50.00                             107    3.06 0  393 210 
                                                                                
