 2013  224 0208 41.8 L   6.805 -73.108144.3  RSN 13 0.5 2.9LRSN                1
 GAP=129        1.20       3.5     5.5  5.9 -0.5066E+01  0.8815E+01  0.1064E+00E
 Epicentro: LOS SANTOS - SANTANDER                                             3
 ACTION:UPD 13-03-12 09:35 OP:ep   STATUS:               ID:20130224020841 L   I
 2013-02-24-0207-50M.COL___197                                                 6
 STAT SP IPHASW D HRMM SECON CODA AMPLIT PERI AZIMU VELO AIN AR TRES W  DIS CAZ7
 BAR2 SZ IP     D  2 9  1.30                             170    0.0410 24.9 199 
 BAR2 SZ ES        2 9 16.20                             170   -0.2510 24.9 199 
 BAR2 SZ I         2 9 17.61       186.4 0.18            166           24.9 199 
 PAM  SZ IP     D  2 9  4.25                             151    0.6010 74.3  37 
 PAM  SN IS        2 9 21.00                             151    0.2910 74.3  37 
 PAM  SN ES        2 9 21.00                             151           74.3  37 
 PAM  SN I         2 9 22.91       121.0 0.64            155           74.3  37 
 BRR  HZ IP        2 9  3.13                             151    0.1710 74.7 297 
 BRR  HN ES        2 9 20.09                             151    0.6010 74.7 297 
 BRR  HN I         2 9 20.36       151.5 0.20            147           74.7 297 
 RUS  HZ IP     C  2 9  5.35                             143   -0.0510  101 178 
 RUS  HN ES        2 9 23.71                             143   -0.1210  101 178 
 PTB  HZ EP        2 9  7.91                             131   -1.10 9  152 259 
 PTB  HN ES   4    2 9 29.06                             131   -1.19 0  152 259 
 PTB  HN I         2 9 34.27       114.2 0.54            128            152 259 
 OCA  HZ EP        2 9 10.31                             129    0.34 9  160 352 
 OCA  HN ES        2 9 31.07                             129   -0.89 9  160 352 
 OCA  HN I         2 9 36.21       250.2 0.24            129            160 352 
 CHI  HZ EP        2 9 19.56                             117   -0.01 8  250 196 
 CHI  HN ES        2 9 48.40                             117   -0.65 8  250 196 
 CHI  HN I         2 9 54.96        53.0 0.34            117            250 196 
 ROSC BZ EP        2 9 20.86                             116    0.75 8  255 212 
 ROSC BN ES   4    2 9 51.65                             116    1.65 0  255 212 
 ROSC BZ I         2 9 55.36        33.5 0.50            116            255 212 
 HEL  HZ EP        2 9 22.31                             114   -0.07 7  276 256 
 HEL  HN ES        2 9 54.04                             114   -0.01 7  276 256 
 HEL  HN I         210  0.99        25.0 0.26            113            276 256 
 DBB  SZ EP        2 9 29.24                             109   -0.43 7  344 274 
 DBB  SZ ES   4    210  5.07                             109   -1.96 0  344 274 
 DBB  SZ I         210 17.80        15.7 0.40            108            344 274 
 COD  HZ EP        2 9 29.55                             109   -0.53 6  348 354 
 COD  HN ES   1    210  8.67                             109    0.92 5  348 354 
 SDV  BZ EP        2 9 30.95                             108   -0.40 6  357  50 
 SDV  BN ES   4    210  7.67                             108   -2.34 0  357  50 
 ANIL HZ EP   1    2 9 33.03                             108    1.12 5  361 225 
 ANIL HN ES        210 11.63                             108    0.61 6  361 225 
 ANIL HN I         210 17.89        50.2 0.26            108            361 225 
                                                                                
