 2012  624 0548 44.7 L   6.793 -73.116141.1  RSN  5 0.5 1.9LRSN                1
 GAP=141        0.90       6.5     8.6  9.3 -0.3824E+01 -0.8592E+01  0.1488E+02E
 Epicentro: LOS SANTOS - SANTANDER                                             3
 ACTION:UPD 12-08-06 17:51 OP:ep   STATUS:               ID:20120624054844 L   I
 2012-06-24-0540-00M.COL___199                                                 6
 STAT SP IPHASW D HRMM SECON CODA AMPLIT PERI AZIMU VELO AIN AR TRES W  DIS CAZ7
 BAR2 SZ IP        549  3.77                             171   -0.0210 23.4 198 
 BAR2 SZ ES   1    549 18.16                             171   -0.50 7 23.4 198 
 BAR2 SZ I         549 19.91        25.9 0.18                          23.4 198 
 BRR  HZ EP        549  5.59                             150    0.0310 74.4 298 
 BRR  HN ES   1    549 22.34                             150    0.53 7 74.4 298 
 BRR  HZ I         549 24.88        14.1 0.16                          74.4 298 
 PAM  SZ EP        549  6.69                             150    0.3410 75.9  37 
 PAM  SZ I         549  6.91        16.1 0.24                          75.9  37 
 PAM  SE ES   1    549 23.49                             150    0.27 7 75.9  37 
 RUS  HZ EP        549  7.72                             143   -0.2310 99.7 178 
 RUS  HZ I         549 27.51         9.3 0.26                          99.7 178 
 OCA  HN ES   2    549 33.30                             128   -1.37 5  161 352 
 OCA  HZ I         549 38.17        11.2 0.28                           161 352 
                                                                                
