 2017 1024 0505 37.7 L   6.751 -73.112144.8  RSN  5 0.2 1.2LRSN                1
 GAP=169        0.52       3.7     3.2  4.2 -0.6486E+01  0.1355E+01  0.1038E+01E
 Epicentro: LOS SANTOS - SANTANDER                                             3
 ACTION:UPD 17-11-07 19:36 OP:rebc STATUS:               ID:20171024050537 L   I
 OLDACT:UP  17-10-24 15:01 OP:dani STATUS:               ID:20171024045444     3
 OLDACT:REG 17-10-24 12:55 OP:dani STATUS:               ID:20171024045444     3
 2017-10-24-0457-00M.COL___435                                                 6
 STAT SP IPHASW D HRMM SECON CODA AMPLIT PERI AZIMU VELO AIN AR TRES W  DIS CAZ7
 BAR2 EZ EP        5 5 57.22                             172    0.0510 19.2 204 
 BAR2 HN ES        5 6 12.25                             172   -0.0810 19.2 204 
 BAR2 EZ I         5 6 14.08         2.7 0.34            173           19.2 204 
 BRR  HZ EP        5 5 59.16                             150    0.0410 77.1 301 
 BRR  HN ES        5 6 16.05                             150    0.2410 77.1 301 
 BRR  HZ I         5 6 22.74         5.2 0.45            148           77.1 301 
 PAM  EZ EP        5 6  0.20                             150    0.2310 79.5  35 
 PAM  EN ES        5 6 17.09                             150   -0.2310 79.5  35 
 PAM  EZ I         5 6 19.67         2.5 0.55            150           79.5  35 
 PTB  HZ EP        5 6  4.56                             131   -0.31 9  150 261 
 PTB  HN ES        5 6 25.92                             131   -0.11 9  150 261 
 PTB  HZ I         5 6 27.60         2.1 0.08            133            150 261 
 SPBC HN ES        5 6 28.15                             129    0.12 9  161 221 
                                                                                
