 2013  824 0713 47.7 L   6.790 -73.135147.0  RSN  4 0.2 1.4LRSN                1
 GAP=238        0.59       3.6     5.3  4.7  0.3909E+01  0.1539E+01  0.2214E+01E
 Epicentro: LOS SANTOS - SANTANDER                                             3
 ACTION:UPD 14-01-14 09:06 OP:ep   STATUS:               ID:20130824071347 L   I
 OLDACT:REG 13-08-24 07:40 OP:nd   STATUS:               ID:20130824070959     3
 2013-08-24-0709-59M.COL___270                                                 6
 STAT SP IPHASW D HRMM SECON CODA AMPLIT PERI AZIMU VELO AIN AR TRES W  DIS CAZ7
 BAR2 SZ EP        714  7.00                             171   -0.4310 22.5 193 
 BAR2 SZ ES        714 22.91                             171    0.0710 22.5 193 
 BAR2 SZ I         714 24.55         3.6 0.20            163           22.5 193 
 BRR  HZ EP        714  9.05                             152    0.0210 72.8 299 
 BRR  HN ES        714 25.79                             152    0.0910 72.8 299 
 BRR  HZ I         714 31.18         3.9 0.32            147           72.8 299 
 RUS  HZ EP        714 11.82                             144    0.3710 99.4 177 
 RUS  HN ES        714 29.95                             144   -0.0610 99.4 177 
 RUS  HZ I         714 31.74         3.5 0.30            144           99.4 177 
 SPBC HZ EP        714 16.26                             129    0.01 9  163 220 
 SPBC HN ES        714 38.47                             129   -0.08 9  163 220 
 SPBC HZ I         714 45.63         4.7 0.24            128            163 220 
                                                                                
