 2012  124 0513 27.4 L   6.717 -73.111151.4  RSN  8 0.3 1.8LRSN                1
 GAP=145        0.73       3.9     4.7  6.2 -0.3706E+01  0.2440E+01 -0.2939E+01E
 Epicentro: JORDAN - SANTANDER                                                 3
 ACTION:UP  12-02-03 08:20 OP:REBC STATUS:               ID:20120124051327 L   I
 2012-01-24-0510-00M.COL___187                                                 6
 STAT SP IPHASW D HRMM SECON CODA AMPLIT PERI AZIMU VELO SNR AR TRES W  DIS CAZ7
 BAR2 SZ EP        513 47.57                             174     0.010   16 210 
 BAR2 SZ ES   1    514  3.28                             174    -0.1 7   16 210 
 BAR2 SZ I         514  4.61        12.5 0.31                            16 210 
 GIR2 SZ EP   1    513 47.86                             164    -0.2 7   41 347 
 BRR  HZ EP        513 49.70                             151     0.110   79 303 
 BRR  HZ I         513 49.98        21.2 0.19                            79 303 
 BRR  HN ES   1    514  7.47                             151     0.5 7   79 303 
 PAM  SZ EP        513 50.63                             150     0.110   83  33 
 PAM  SN ES   1    514  8.00                             150    -0.6 7   83  33 
 RUS  HZ EP   1    513 51.14                             148     0.0 7   91 178 
 RUS  HE ES   1    514  9.94                             148     0.4 7   91 178 
 RUS  HZ I         514 11.72         4.9 0.42                            91 178 
 PTB  HZ EP   1    513 54.76                             133    -0.3 7  150 263 
 PTB  HE ES   1    514 16.05                             133    -0.6 7  150 263 
 OCA  SZ EP   1    513 57.29                             129     0.2 7  170 352 
 OCA  SZ ES   1    514 20.56                             129     0.4 7  170 352 
 OCA  SZ I         514 25.21         5.4 0.33                           170 352 
 NOR  SN ES   2    514 31.54                             120     0.3 4  233 237 
                                                                                
