 2014  824 0318 34.6 L   6.786 -73.121143.9  RSN  8 0.5 1.5LRSN                1
 GAP=140        1.39       5.2     6.7  9.9  0.1832E+01  0.3443E+01 -0.1946E+01E
 Epicentro: LOS SANTOS - SANTANDER                                             3
 ACTION:UPD 14-09-15 21:52 OP:nd   STATUS:               ID:20140824031834 L   I
 OLDACT:REG 14-08-24 14:02 OP:stll STATUS:               ID:20140824031819     3
 2014-08-24-0318-19M.COL___257                                                 6
 STAT SP IPHASW D HRMM SECON CODA AMPLIT PERI AZIMU VELO AIN AR TRES W  DIS CAZ7
 BAR2 SZ EP        318 54.30                             171    0.3410 22.5 198 
 BAR2 SZ ES        319  9.38                             171    0.3010 22.5 198 
 BAR2 SZ I         319 11.95         8.9 0.30            169           22.5 198 
 BRR  HZ EP        318 56.32                             151    0.6210 74.3 299 
 BRR  HE ES        319 12.96                             151    0.7810 74.3 299 
 BRR  HZ I         319 15.83         4.4 0.42            147           74.3 299 
 PAM  SZ EP        318 56.37                             151   -0.1810 76.8  37 
 RUS  HZ EP        318 58.17                             144    0.1510 98.9 178 
 RUS  HZ I         318 59.15         2.4 0.28            147           98.9 178 
 RUS  HN ES        319 15.26                             144   -1.0510 98.9 178 
 PTB  HZ EP        319  1.34                             131   -0.26 9  150 260 
 PTB  HN ES        319 22.01                             131   -0.68 9  150 260 
 PTB  HZ I         319 28.04         5.4 0.14            129            150 260 
 OCA  HN ES        319 24.43                             129   -0.58 9  162 352 
 OCA  HZ I         319 30.54         4.6 0.38            129            162 352 
 SPBC HZ EP        319  3.29                             128    0.31 9  164 220 
 SPBC HN ES        319 25.61                             128    0.47 9  164 220 
 SPBC HZ I         319 30.25         6.7 0.28            129            164 220 
 ZAR  HE ES        319 32.25                             121   -0.43 8  207 292 
 ZAR  HZ I         319 43.15         4.1 0.34            120            207 292 
                                                                                
