 2014  224 0424 58.6 L   6.647 -73.521110.4  RSN 25 0.5 2.6LRSN                1
 GAP= 51        1.09       2.6     2.6  6.0 -0.2122E+01  0.4706E+01 -0.1281E+01E
 Epicentro: EL CARMEN DE CHUCURI - SANTANDER                                   3
 ACTION:UPD 14-03-10 08:12 OP:ep   STATUS:               ID:20140224042458 L   I
 OLDACT:UP  14-02-24 11:56 OP:fm   STATUS:               ID:20140224041817     3
 OLDACT:REG 14-02-24 08:15 OP:y    STATUS:               ID:20140224041817     3
 2014-02-24-0418-17M.COL___230                                                 6
 STAT SP IPHASW D HRMM SECON CODA AMPLIT PERI AZIMU VELO AIN AR TRES W  DIS CAZ7
 BAR2 SZ EP     C  425 15.05                             160    0.5010 38.0  99 
 BAR2 SZ ES   1    425 27.43                             160    0.47 7 38.0  99 
 BAR2 SZ I         425 28.33       607.1 0.22            155           38.0  99 
 RUS  HZ IP     D  425 18.89                             136    0.1310 96.4 150 
 RUS  HN ES        425 34.25                             136   -0.2110 96.4 150 
 RUS  HZ I         425 35.88        91.7 0.22            128           96.4 150 
 PTB  HZ IP   4 C  425 17.56                             133   -1.21 0  104 264 
 PTB  HE ES   1    425 34.53                             133    0.06 7  104 264 
 PTB  HZ I         425 37.89       111.5 0.14            122            104 264 
 PAM  SZ EP        425 21.13                             130    0.3710  119  50 
 PAM  SN ES        425 37.41                             130   -0.6010  119  50 
 PAM  SZ I         425 39.81        75.0 0.18            119            119  50 
 SPBC HZ IP     C  425 20.44                             127   -0.4510  126 209 
 SPBC HN ES        425 38.21                             127   -0.0310  126 209 
 SPBC HZ I         425 42.94        74.1 0.18            119            126 209 
 ZAR  HZ EP        425 26.02                             117    0.18 9  175 302 
 ZAR  HN ES   4    425 48.71                             117    1.65 0  175 302 
 ZAR  HZ I         425 50.50        70.7 0.26            109            175 302 
 OCA  HZ EP        425 26.16                             117   -0.16 9  177   7 
 OCA  HE ES        425 48.52                             117    0.61 9  177   7 
 OCA  HZ I         425 54.77        83.1 0.46            108            177   7 
 NOR  HZ EP     D  425 27.13                             115   -0.58 9  191 231 
 NOR  HZ EP        425 27.14                             115   -0.57 9  191 231 
 NOR  HN ES        425 50.62                             115    0.24 9  191 231 
 NOR  HE ES        425 50.65                             115            191 231 
 NOR  HZ I         425 52.39        40.2 0.54            108            191 231 
 NOR  HZ I         425 52.39        40.2 0.54                           191 231 
 TAM  HZ EP     D  425 28.45                             115    0.60 9  193  97 
 TAM  HN ES        425 49.96                             115   -0.67 9  193  97 
 TAM  HZ I         425 55.84        23.9 0.26            108            193  97 
 ROSC BZ EP   4    425 32.44                             112    1.26 0  218 204 
 ROSC BN ES   4    425 59.15                             112    2.60 0  218 204 
 ROSC BZ I         426  6.01        20.0 0.40            106            218 204 
 CHI  HZ EP        425 32.32                             111    0.46 8  224 186 
 CHI  HN ES   1    425 58.12                             111    0.35 6  224 186 
 CHI  HZ I         426  3.07        18.1 0.26            105            224 186 
 HEL  HZ EP        425 32.04                             111   -0.16 8  228 257 
 HEL  HN ES        425 57.49                             111   -0.88 8  228 257 
 HEL  HZ I         426  5.28        26.2 0.38            104            228 257 
 SML  HZ EP        425 33.42                             109   -0.39 8  246 346 
 SML  HN ES   4    426  3.56                             109    2.32 0  246 346 
 SML  HZ I         426  6.88        82.0 0.30            103            246 346 
 URE  HZ EP   4    425 33.46                             108   -1.26 0  254 299 
 URE  HN ES   4    426  0.85                             108   -2.01 0  254 299 
 URE  HZ I         426  8.53        30.0 0.16            102            254 299 
 GUY2CHZ EP        425 36.52                             108    0.74 8  258 232 
 GUY2CHN ES        426  5.48                             108    0.73 8  258 232 
 GUY2CHZ I         426 12.96        23.8 0.40                           258 232 
 CBOC HZ EP        425 39.24                             105    0.19 7  289 253 
 CBOC HN ES        426 10.00                             105   -0.57 7  289 253 
 CBOC HZ I         426 15.60        10.7 0.22            101            289 253 
 PTGC HZ EP   4 C  425 40.92                             104   -0.56 0  311 150 
 PTGC HE ES        426 14.19                             104   -0.71 7  311 150 
 PTGC HZ I         426 18.04        24.5 0.22            100            311 150 
 ANIL HZ EP   4    425 44.27                             103    1.79 0  317 221 
 ORTC HZ EP   4    425 47.81                             101    0.71 0  358 212 
 ORTC HN ES   4    426 27.35                             101    2.46 0  358 212 
 ORTC HZ I         426 30.80        14.2 0.44             98            358 212 
 PRA  HZ EP        425 47.37                             101    0.29 6  358 205 
 PRA  HN ES        426 25.43                             101    0.57 6  358 205 
 PRA  HZ I         426 31.49        23.1 0.64             99            358 205 
 COD  HZ EP   4    425 48.51                             101    0.78 0  364   1 
 COD  HZ I         426 37.58        13.0 0.34             98            364   1 
 ARGC HZ EP   4    425 49.26                             101    1.49 0  364 347 
 ARGC HN ES   4    426 30.16                             101    4.07 0  364 347 
 ARGC HZ I         426 36.92        12.1 0.54             98            364 347 
 COD  HN ES   4    426 27.91                             101    1.89 0  364   1 
 SDV  BZ EP        425 52.82                              99    0.07 6  403  52 
 SDV  BN ES   4    426 34.13                              99   -0.82 0  403  52 
 SDV  BZ I         426 36.15         8.2 0.45             97            403  52 
 SJC  HZ EP   4    425 51.26                              99   -1.29 0  403 333 
 SJC  HN ES   4    426 31.45                              99   -3.15 0  403 333 
 SJC  HZ I         426 46.00         6.6 0.38             97            403 333 
 GUA  SN ES   4    426 46.53                              97   -1.08 0  464 168 
 GUA  SZ I         426 54.00        23.2 0.20             96            464 168 
 MACC HZ EP   4    426  2.77                              96   -1.32 0  499 184 
 MACC HN ES   4    426 53.34                              96   -1.80 0  499 184 
 MACC HZ I         427  6.22         4.1 0.24             96            499 184 
                                                                                
