 2010  724 0641 10.0 L   6.751 -73.161154.3  RSN  5 0.4 1.3LRSN                1
 GAP=157        0.96       5.8    11.8 12.0 -0.3655E+01 -0.4433E+02 -0.1194E+02E
 Epicentro: LOS SANTOS - SANTANDER                                             3
 ACTION:UPD 10-12-01 15:19 OP:pat  STATUS:               ID:20100724064110 L   I
 2010-07-24-0637-41S.COL___123                                                 6
 STAT SP IPHASW D HRMM SECON CODA AMPLIT PERI AZIMU VELO AIN AR TRES W  DIS CAZ7
 BAR2 SZ EP   1    641 30.30                             173    -0.3 7   18 188 
 BAR2 SZ I         641 47.00         7.7 0.48                            18 188 
 BRR  HZ EP        641 32.12                             153    -0.110   73 303 
 BRR  HZ I         641 32.42         5.5 0.26                            73 303 
 BRR  HN ES   1    641 49.57                             153     0.1 7   73 303 
 RUS  HZ EP   1    641 34.51                             147     0.2 7   95 175 
 RUS  HN ES   1    641 53.13                             147     0.0 7   95 175 
 RUS  HZ I         641 53.83         2.5 0.36                            95 175 
 GUE  SZ EP   1    641 35.25                             140    -0.7 7  122  12 
 GUE  SZ I         642  3.03         1.5 0.08                           122  12 
 GRA  SZ IP        641 37.04                             137     0.510  131  17 
 GRA  SZ ES   1    641 57.11                             137    -0.1 7  131  17 
 GRA  SZ I         641 58.97         2.9 0.17                           131  17 
                                                                                
