 2017  824 0400 39.5 L   6.758 -73.135137.6  RSN 21 0.6 2.1LRSN                1
 GAP= 67        0.87       2.7     2.7  4.5 -0.2540E+00  0.2142E+01  0.1801E+01E
 Epicentro: LOS SANTOS - SANTANDER                                             3
 ACTION:UPD 17-09-04 20:23 OP:rebc STATUS:               ID:20170824040039 L   I
 OLDACT:UP  17-08-24 15:04 OP:and  STATUS:               ID:20170824035743     3
 OLDACT:UP  17-08-24 15:01 OP:and  STATUS:               ID:20170824035743     3
 OLDACT:UP  17-08-24 15:01 OP:and  STATUS:               ID:20170824035743     3
 OLDACT:UP  17-08-24 15:01 OP:and  STATUS:               ID:20170824035743     3
 OLDACT:UP  17-08-24 15:00 OP:and  STATUS:               ID:20170824035743     3
 OLDACT:UP  17-08-24 14:59 OP:and  STATUS:               ID:20170824035743     3
 OLDACT:UP  17-08-24 14:59 OP:and  STATUS:               ID:20170824035743     3
 OLDACT:UP  17-08-24 14:58 OP:and  STATUS:               ID:20170824035743     3
 OLDACT:UP  17-08-24 14:56 OP:and  STATUS:               ID:20170824035743     3
 OLDACT:REG 17-08-24 12:47 OP:and  STATUS:               ID:20170824035743     3
 2017-08-24-0358-00M.COL___419                                                 6
 STAT SP IPHASW D HRMM SECON CODA AMPLIT PERI AZIMU VELO AIN AR TRES W  DIS CAZ7
 BAR2 EZ IP     C  4 0 57.85                             172   -0.1810 19.0 196 
 BAR2 EZ ES        4 1 12.52                             172    0.0010 19.0 196 
 BAR2 EZ I         4 1 13.42        44.2 0.34            167           19.0 196 
 BRR  HZ IP     C  4 0 59.76                             150   -0.1810 74.5 301 
 BRR  HN ES        4 1 16.49                             150    0.5810 74.5 301 
 BRR  HZ I         4 1 21.57        23.1 0.12            149           74.5 301 
 PAM  EZ IP     C  4 1  0.72                             148   -0.2910 80.3  37 
 PAM  EN ES        4 1 17.47                             148   -0.3410 80.3  37 
 PAM  EZ I         4 1 19.19        20.9 0.24            152           80.3  37 
 RUS  HZ IP     C  4 1  1.86                             143   -0.2210 95.8 177 
 RUS  HN ES        4 1 19.90                             143    0.1910 95.8 177 
 RUS  HZ I         4 1 20.84        29.3 0.46            141           95.8 177 
 TAM  HZ IP     D  4 1  6.27                             129   -0.02 9  153 103 
 TAM  HN ES   2    4 1 27.96                             129    0.74 5  153 103 
 TAM  HZ I         4 1 28.29        10.8 0.40            130            153 103 
 SPBC HZ EP        4 1  6.80                             128   -0.28 9  160 220 
 SPBC HN ES        4 1 28.07                             128   -0.54 9  160 220 
 SPBC HZ I         4 1 29.80        25.5 0.21            126            160 220 
 YPLC HZ IP     D  4 1  8.38                             126    0.16 9  172 151 
 YPLC HN ES   2    4 1 32.20                             126    1.56 4  172 151 
 YPLC HZ I         4 1 34.47        11.3 0.32            125            172 151 
 ZAR  HZ EP        4 1 12.49                             120    0.79 8  207 293 
 ZAR  HN ES        4 1 37.04                             120    0.20 8  207 293 
 ZAR  HZ I         4 1 43.60        13.5 0.30            120            207 293 
 NOR  HZ EP        4 1 14.55                             117   -0.00 8  233 236 
 NOR  HE ES        4 1 41.57                             117   -0.34 8  233 236 
 NOR  HZ I         4 1 43.76        12.6 0.16            116            233 236 
 CHI  HZ EP   3    4 1 17.68                             116    1.41 2  244 196 
 CHI  HN ES        4 1 44.93                             116   -0.04 8  244 196 
 CHI  HZ I         4 1 49.67         3.4 0.40            115            244 196 
 ROSC BZ EP   9    4 1 18.88                             115    2.10 0  249 212 
 ROSC BN ES        4 1 48.71                             115    0.72 8  249 212 
 ROSC BZ I         4 1 55.51        13.2 0.35            114            249 212 
 HEL  HZ EP   3    4 1 20.37                             113    1.09 2  272 257 
 HEL  HN ES        4 1 50.16                             113   -0.18 8  272 257 
 HEL  HZ I         4 1 56.82         7.3 0.26            113            272 257 
 URE  HZ EP   3    4 1 22.20                             112    1.72 2  287 293 
 URE  HN ES   4    4 1 50.16                             112   -2.30 0  287 293 
 URE  HZ I         4 1 51.94        10.2 0.18            112            287 293 
 GUY2CHZ EP   3    4 1 23.83                             111    1.31 2  299 236 
 GUY2CHN ES   4    4 1 58.32                             111    2.22 0  299 236 
 GUY2CHZ I         4 2  3.26         7.8 0.26                           299 236 
 PTGC HZ EP   9    4 1 21.23                             110   -1.19 0  304 159 
 PTGC HN ES        4 1 54.66                             111   -0.08 7  304 159 
 PTGC HZ I         4 2  3.61        10.0 0.36            110            304 159 
 ELA  HN ES   4    4 2  4.30                             109    2.46 0  327 230 
 ELA  HZ I         4 2  8.92         7.1 0.52            108            327 230 
 LL6C HZ EP   3    4 1 22.97                             109   -2.41 2  330 357 
 LL6C HN ES   4    4 2  3.56                             109    2.37 0  330 357 
 DBB  EZ EP   4    4 1 29.57                             108    2.77 0  341 275 
 DBB  EN ES   2    4 2  3.24                             108   -0.49 3  341 275 
 DBB  EZ I         4 2  6.51         5.1 0.30            108            341 275 
 PRA  HZ EP        4 1 32.65                             105    0.34 6  389 210 
 PRA  HN ES   2    4 2 13.62                             105    0.09 3  389 210 
 PRA  HZ I         4 2 24.24         3.1 0.30            105            389 210 
 ORTC HZ EP   2    4 1 33.11                             105    0.35 3  392 217 
 ORTC HN ES   4    4 2 17.65                             105    3.32 0  392 217 
 ORTC HZ I         4 2 18.56         3.2 0.60            105            392 217 
 SJC  HZ EP   3    4 1 32.86                             104   -2.45 1  414 327 
 SJC  HN ES   4    4 2 13.85                             104   -5.02 0  414 327 
 SJC  HZ I         4 2 17.14         2.8 0.50            105            414 327 
                                                                                
