 2013  624 0039 23.0 L   6.496 -73.600111.5  RSN  7 0.3 1.4LRSN                1
 GAP=134        0.72       3.2     3.4  6.2  0.2601E+01  0.4232E+00 -0.6342E+01E
 Epicentro: SANTA HELENA DEL OPON - SANTANDER                                  3
 ACTION:UPD 14-01-08 09:56 OP:ep   STATUS:               ID:20130624003923 L   I
 OLDACT:REG 13-06-24 07:54 OP:jn   STATUS:               ID:20130624003650     3
 2013-06-24-0036-50M.COL___228                                                 6
 STAT SP IPHASW D HRMM SECON CODA AMPLIT PERI AZIMU VELO AIN AR TRES W  DIS CAZ7
 BAR2 SZ EP   1    039 39.19                             155   -0.24 7 47.4  77 
 BAR2 SZ ES   1    039 51.83                             155   -0.44 7 47.4  77 
 BRR  HZ EP        039 40.59                             146    0.2310 68.7 350 
 BRR  HN ES   1    039 54.27                             146    0.34 7 68.7 350 
 BRR  HZ I         039 56.37         4.2 0.11            145           68.7 350 
 GIR2 SZ EP        039 41.26                             142   -0.0110 78.6  35 
 RUS  HZ EP        039 42.59                             139    0.1210 87.9 139 
 RUS  HN ES        039 57.66                             139   -0.0310 87.9 139 
 RUS  HZ I         039 59.62         3.8 0.40            143           87.9 139 
 PTB  HZ EP        039 42.49                             136    0.1010 94.8 273 
 PTB  HN ES        039 57.41                             136   -0.1210 94.8 273 
 PTB  HZ I         039 58.67         7.3 0.18            140           94.8 273 
 OCA  HN ES   1    040 16.50                             115    0.71 6  195   9 
 OCA  HZ I         040 22.03         5.3 0.16            116            195   9 
 SML  HZ EP   1    039 59.55                             108   -0.28 6  260 348 
 SML  HE ES   1    040 27.68                             108   -0.91 6  260 348 
                                                                                
