 2014  924 0911 36.6 L   6.838 -73.128144.8  RSN  7 0.4 1.5LRSN                1
 GAP=203        1.00       3.9     5.3  7.1  0.2738E+01  0.9496E+01 -0.7199E+01E
 Epicentro: LOS SANTOS - SANTANDER                                             3
 ACTION:UPD 14-10-03 23:08 OP:nd   STATUS:               ID:20140924091136 L   I
 OLDACT:UP  14-09-24 17:23 OP:cam  STATUS:               ID:20140924091000     3
 OLDACT:UP  14-09-24 17:22 OP:cam  STATUS:               ID:20140924091000     3
 OLDACT:REG 14-09-24 13:24 OP:cam  STATUS:               ID:20140924091000     3
 2014-09-24-0910-00M.COL___252                                                 6
 STAT SP IPHASW D HRMM SECON CODA AMPLIT PERI AZIMU VELO AIN AR TRES W  DIS CAZ7
 BAR2 SZ EP        911 56.26                             169    0.0710 27.8 193 
 BAR2 SZ ES        912 11.70                             169    0.2110 27.8 193 
 BAR2 SZ I         912 13.10         5.3 0.46            167           27.8 193 
 RUS  HZ EP        912  0.52                             143   -0.0010  105 177 
 RUS  HN ES        912 19.37                             143    0.1610  105 177 
 RUS  HZ I         912 21.53         2.7 0.42            145            105 177 
 PTB  HZ EP        912  2.92                             131   -0.80 9  151 257 
 PTB  HN ES        912 24.69                             131   -0.20 9  151 257 
 PTB  HZ I         912 29.92         3.1 0.26            131            151 257 
 SPBC HZ EP        912  5.20                             128   -0.23 9  168 219 
 SPBC HN ES        912 27.28                             128   -0.65 9  168 219 
 SPBC HZ I         912 35.46         5.0 0.28            129            168 219 
 ZAR  HZ EP        912  9.09                             122    0.10 9  204 291 
 ZAR  HN ES        912 34.56                             122    0.28 9  204 291 
 ZAR  HZ I         912 40.48         3.5 0.34            123            204 291 
 SML  HZ EP        912 12.72                             118   -0.11 8  241 334 
 SML  HN ES        912 41.23                             118    0.12 8  241 334 
 SML  HZ I         912 43.97         5.3 0.32            120            241 334 
 GUY2CHZ EP        912 21.57                             112    0.98 7  305 234 
 GUY2CHE ES        912 55.66                             112    0.73 7  305 234 
                                                                                
