 2010  924 0900 19.2 L   6.805 -73.127144.9  RSN 15 0.5 3.7LRSN                1
 GAP=127        1.22       4.3     6.7  7.6 -0.9884E+01  0.4615E+01  0.6833E+00E
 Epicentro: LOS SANTOS - SANTANDER                                             3
 ACTION:UP  11-02-18 11:05 OP:tino STATUS:               ID:20100924090019 L   I
 2010-09-24-0858-45S.COL___119                                                 6
 STAT SP IPHASW D HRMM SECON CODA AMPLIT PERI AZIMU VELO SNR AR TRES W  DIS CAZ7
 BAR2 SZ IP        9 0 38.92                             170     0.210   24 195 
 BAR2 SZ ES   1    9 0 53.42                             170    -0.6 7   24 195 
 BAR2 SZ I         9 0 56.76       991.5 0.29                            24 195 
 BRR  HZ EP        9 0 40.70                             152     0.310   73 297 
 BRR  HN ES   1    9 0 57.32                             152     0.5 7   73 297 
 BRR  HZ I         9 0 59.72       714.4 0.26                            73 297 
 RUS  HZ IP     D  9 0 42.82                             143    -0.110  101 177 
 RUS  HE ES   1    9 1  1.23                             143    -0.2 7  101 177 
 RUS  HZ I         9 1  3.22       497.2 0.26                           101 177 
 GUE  SZ EP   1    9 0 42.82                             139    -0.9 7  116  11 
 GRA  SZ IP        9 0 44.73                             137     0.510  125  17 
 GRA  SZ I         9 1  5.72       534.8 0.36                           125  17 
 OCA  SZ EP        9 0 47.23                             129    -0.2 9  160 352 
 OCA  SZ ES   1    9 1  9.77                             129     0.3 7  160 352 
 OCA  SZ I         9 1 17.57       756.8 0.36                           160 352 
 NOR  SZ EP   1    9 0 54.64                             118    -0.5 6  237 235 
 NOR  SN ES   1    9 1 22.10                             118    -1.0 6  237 235 
 CHI  HZ EP   1    9 0 56.75                             117    -0.2 6  250 196 
 CHI  HN ES   1    9 1 26.32                             117    -0.1 6  250 196 
 CHI  HZ I         9 1 31.90       380.9 0.27                           250 196 
 ROSC BZ EP   1    9 0 58.54                             116     1.1 6  254 211 
 ROSC BN ES   1    9 1 27.89                             116     0.6 6  254 211 
 ROSC BZ I         9 1 33.60       732.4 0.37                           254 211 
 CVER SZ EP        9 1  0.51                             114     0.8 8  273 203 
 CVER SZ I         9 1 42.37       453.6 0.41                           273 203 
 HEL  HZ EP   1    9 0 58.85                             114    -0.8 6  274 256 
 HEL  HN ES   1    9 1 31.26                             114     0.1 6  274 256 
 HEL  HZ I         9 1 37.56       264.6 0.05                           274 256 
 RREF HZ EP   1    9 1  4.96                             110    -0.6 5  324 230 
 RREF HZ I         9 1 50.66       333.9 0.53                           324 230 
 DBB  SZ EP        9 1  6.63                             109    -0.3 7  342 274 
 TOL  SZ EP   1    9 1  8.05                             109     0.4 5  345 225 
 SDV  BZ EP        9 1  8.55                             108    -0.4 6  358  50 
 SDV  BZ I         9 1  9.46       120.1 0.38                           358  50 
                                                                                
