 2011  324 0713 19.9 L   6.749 -73.070141.1  RSN  6 0.4 2.2LRSN                1
 GAP=221        0.80       6.5     7.1  7.4 -0.1942E+02  0.1371E+02  0.4521E+01E
 Epicentro: LOS SANTOS - SANTANDER                                             3
 ACTION:UP  11-06-16 14:35 OP:jfem STATUS:               ID:20110324071319 L   I
 2011-03-24-0700-00M.COL___132                                                 6
 STAT SP IPHASW D HRMM SECON CODA AMPLIT PERI AZIMU VELO SNR AR TRES W  DIS CAZ7
 BAR2 SZ EP   1    713 39.28                             171     0.310   21 216 
 BAR2 SZ ES   1    713 53.89                             171     0.110   21 216 
 BAR2 SZ I         713 55.55        32.2 0.28                            21 216 
 BRR  HZ EP   1    713 41.08                             148    -0.110   81 299 
 BRR  HN ES   1    713 57.70                             148    -0.110   81 299 
 BRR  HZ I         714  2.55        16.2 0.13                            81 299 
 OCA  SZ EP   1    713 48.35                             127    -0.2 9  167 351 
 OCA  SZ I         714 14.86        13.8 0.15                           167 351 
 NOR  SZ EP   1    713 55.75                             117    -0.1 8  239 237 
 NOR  SN ES   1    714 22.90                             117    -0.9 8  239 237 
 HEL  HZ EP   1    714  0.72                             113     0.0 7  279 257 
 HEL  HE ES        714 33.02                             113     0.610  279 257 
 HEL  HZ I         714 37.58         6.5 0.45                           279 257 
 PRA  HN ES   1    714 54.95                             106     0.2 6  391 211 
 PRA  HZ I         714 57.92        24.5 0.24                           391 211 
                                                                                
