 2015  824 0830 43.5 L   6.803 -73.091146.8  RSN 19 0.4 2.3LRSN                1
 GAP=169        0.78       2.1     3.3  4.2 -0.4115E+00  0.1869E+01  0.1112E+01E
 Epicentro: LOS SANTOS - SANTANDER                                             3
 ACTION:UPD 15-09-15 23:04 OP:cam  STATUS:               ID:20150824083043 L   I
 OLDACT:REG 15-08-24 12:47 OP:spq  STATUS:               ID:20150824082745     3
 2015-08-24-0827-45M.COL___337                                                 6
 STAT SP IPHASW D HRMM SECON CODA AMPLIT PERI AZIMU VELO AIN AR TRES W  DIS CAZ7
 BAR2 EZ EP        831  3.40                             170    0.1210 25.4 203 
 BAR2 EZ ES   1    831 18.37                             170   -0.36 7 25.4 203 
 BAR2 EZ I         831 19.37        57.1 0.20            166           25.4 203 
 BRR  HZ IP     C  831  5.30                             151    0.2510 76.4 296 
 BRR  HE ES        831 22.43                             151    0.5610 76.4 296 
 BRR  HZ I         831 25.34        49.1 0.28            148           76.4 296 
 RUS  HZ EP        831  7.33                             144   -0.0110  101 180 
 RUS  HE ES   1    831 25.92                             144   -0.04 7  101 180 
 RUS  HZ I         831 26.98        19.0 0.34            144            101 180 
 OCA  HZ EP     C  831 11.61                             130   -0.31 9  161 351 
 OCA  HE ES        831 33.87                             130   -0.23 9  161 351 
 OCA  HZ I         831 36.93        51.3 0.26            132            161 351 
 SPBC HZ EP        831 12.42                             129   -0.04 9  167 221 
 SPBC HE ES        831 34.98                             129   -0.08 9  167 221 
 SPBC HZ I         831 41.44        31.8 0.42            128            167 221 
 ZAR  HZ EP        831 16.56                             122   -0.00 8  210 291 
 ZAR  HE ES        831 42.52                             122    0.15 8  210 291 
 ZAR  HZ I         831 48.09        36.2 0.56            122            210 291 
 NOR  HZ EP        831 20.05                             118    0.22 8  240 235 
 NOR  HE ES        831 47.40                             118   -0.78 8  240 235 
 NOR  HZ I         831 52.72        13.4 0.22            118            240 235 
 SML  HZ EP        831 20.02                             118   -0.39 8  246 334 
 SML  HN ES   1    831 49.81                             118    0.59 6  246 334 
 SML  HZ I         831 53.08        28.1 0.24            119            246 334 
 CHI  HZ EP        831 21.85                             117    0.40 8  251 196 
 CHI  HE ES   1    831 51.32                             117    0.25 6  251 196 
 CHI  HZ I         831 54.59         6.8 0.32            118            251 196 
 HEL  HZ EP   1    831 24.62                             114    0.21 6  278 256 
 HEL  HN ES   1    831 55.57                             114   -0.76 6  278 256 
 HEL  HZ I         832  4.35         9.2 0.19            115            278 256 
 URE  HZ EP        831 24.47                             113   -0.75 7  289 291 
 URE  HN ES   4    831 53.96                             113   -3.81 0  289 291 
 URE  HZ I         831 58.92        13.3 0.16            114            289 291 
 GUY2CHZ EP        831 28.09                             112    0.37 7  306 235 
 GUY2CHN ES        832  2.35                             112    0.12 7  306 235 
 GUY2CHZ I         832  8.44        11.5 0.34                           306 235 
 PTGC HZ EP        831 26.62                             112   -0.56 7  307 160 
 PTGC HE ES   4    831 59.73                             112   -1.53 0  307 160 
 PTGC HZ I         832  2.34        11.5 0.28            114            307 160 
 ELA  HE ES   4    832 10.57                             110    2.63 0  334 230 
 ELA  HZ I         832 16.80         5.9 0.56            111            334 230 
 CBOC HZ EP   1    831 31.61                             110    0.49 5  340 252 
 CBOC HE ES        832  7.93                             110   -0.34 7  340 252 
 CBOC HZ I         832 10.47         3.3 0.20            110            340 252 
 DBB  SZ EP   1    831 32.02                             109    0.33 5  346 274 
 DBB  SZ ES   4    832  7.55                             109   -1.75 0  346 274 
 TOL  SZ EP   1    831 32.70                             109    0.40 5  348 225 
 TOL  SN ES   4    832 12.27                             109    1.89 0  348 225 
 TOL  SZ I         832 16.43         7.9 0.62            110            348 225 
 ORTC HZ EP        831 38.25                             106    0.36 6  399 217 
 ORTC HE ES        832 20.80                             106    0.47 6  399 217 
 ORTC HZ I         832 24.89         4.4 0.38            107            399 217 
 SJC  HZ EP   4    831 37.53                             106   -1.91 0  412 326 
 SJC  HE ES   4    832 19.72                             106   -3.36 0  412 326 
 SJC  HZ I         832 23.39         5.5 0.74            107            412 326 
                                                                                
