 2011  324 0734 24.7 L   6.793 -73.129139.2  RSN  6 0.5 1.9LRSN                1
 GAP=203        0.90       5.8    10.3  9.5 -0.1847E+02  0.2320E+02 -0.1785E+01E
 Epicentro: LOS SANTOS - SANTANDER                                             3
 ACTION:UP  11-06-16 14:35 OP:jfem STATUS:               ID:20110324073424 L   I
 2011-03-24-0720-00M.COL___132                                                 6
 STAT SP IPHASW D HRMM SECON CODA AMPLIT PERI AZIMU VELO SNR AR TRES W  DIS CAZ7
 BAR2 SZ EP        734 43.60                             170     0.010   23 195 
 BAR2 SZ ES   1    734 57.88                             170    -0.4 7   23 195 
 BAR2 SZ I         735  0.06        15.0 0.08                            23 195 
 BRR  HZ EP        734 45.53                             150     0.210   73 298 
 BRR  HZ I         734 45.93        27.6 0.12                            73 298 
 BRR  HN ES   2    735  2.39                             150     1.1 5   73 298 
 OCA  SZ EP   1    734 52.84                             128     0.2 7  161 353 
 OCA  SZ ES   1    735 13.74                             128    -0.6 7  161 353 
 OCA  SZ I         735 17.60         9.2 0.29                           161 353 
 NOR  SN ES   2    735 27.02                             117    -0.9 4  236 235 
 HEL  HE ES   2    735 35.80                             113    -0.2 4  274 256 
 HEL  HZ I         735 43.46         2.8 0.26                           274 256 
 PRA  HZ EP   1    735 18.02                             105     0.0 4  392 210 
 PRA  HE ES   2    736  0.08                             105     0.4 3  392 210 
                                                                                
