 2011  724 0030 22.9 L   6.754 -73.126143.6  RSN  7 0.3 1.6LRSN                1
 GAP=141        0.62       3.1     4.8  5.6 -0.4766E+01  0.4697E+01 -0.1050E+01E
 Epicentro: LOS SANTOS - SANTANDER                                             3
 ACTION:UPD 12-07-25 14:02 OP:epov STATUS:               ID:20110724003022 L   I
 2011-07-24-0029-12S.COL___143                                                 6
 STAT SP IPHASW D HRMM SECON CODA AMPLIT PERI AZIMU VELO AIN AR TRES W  DIS CAZ7
 BAR2 SZ ES   2    030 56.99                             172   -0.19 5 19.0 199 
 BAR2 SZ I         030 59.69        10.0 0.35                          19.0 199 
 BRR  HZ EP   1    030 44.12                             151    0.09 7 75.6 301 
 BRR  HN ES   1    031  0.89                             151    0.35 7 75.6 301 
 BRR  HZ I         031  1.83         6.5 0.09                          75.6 301 
 PAM  SZ EP   1    030 45.37                             150    0.37 7 80.0  36 
 PAM  SE ES   1    031  2.03                             150   -0.24 7 80.0  36 
 RUS  HZ EP   1    030 45.58                             145   -0.44 7 95.4 177 
 RUS  HE ES   1    031  4.33                             145    0.24 7 95.4 177 
 RUS  HZ I         031  6.17         6.9 0.26                          95.4 177 
 GRA  SZ EP   1    030 48.33                             135    0.07 7  130  16 
 GRA  SZ I         031  9.12         5.0 0.34                           130  16 
 OCA  SZ EP   1    030 51.92                             128    0.42 7  166 353 
 OCA  SZ ES   1    031 13.29                             128   -0.55 7  166 353 
 OCA  SZ I         031 17.63         5.6 0.14                           166 353 
 NOR  SZ EP   1    030 58.13                             118   -0.21 6  234 236 
 NOR  SE ES   1    031 25.87                             118   -0.15 6  234 236 
                                                                                
