 2010  324 0629 54.5 L   6.755 -73.097147.8  RSN  6 0.3 1.7LRSN                1
 GAP=188        0.62       4.5     9.2  6.2  0.1437E+02 -0.1139E+02 -0.8032E+01E
 Epicentro: LOS SANTOS - SANTANDER                                             3
 ACTION:UP  10-08-24 09:55 OP:vdl  STATUS:               ID:20100324062954 L   I
 2010-03-24-0625-53S.COL___098                                                 6
 STAT SP IPHASW D HRMM SECON CODA AMPLIT PERI AZIMU VELO SNR AR TRES W  DIS CAZ7
 BAR2 SZ EP        630 14.16                             172    -0.110   20 208 
 BAR2 SZ ES   1    630 29.55                             172    -0.2 7   20 208 
 BRR  HZ IP        630 16.10                             150    -0.210   78 300 
 BRR  HE ES   1    630 33.28                             150     0.0 7   78 300 
 BRR  HZ I         630 36.59         7.4 0.12                            78 300 
 RUS  HZ EP   1    630 18.30                             146     0.2 7   95 179 
 RUS  HE ES   2    630 36.91                             146     0.4 5   95 179 
 RUS  HZ I         630 38.00         3.8 0.45                            95 179 
 OCA  SZ EP        630 23.39                             129    -0.1 9  166 352 
 OCA  SZ ES   2    630 46.92                             129     0.8 5  166 352 
 OCA  SZ I         630 50.31        16.0 0.26                           166 352 
 HEL  HZ EP   2    630 35.68                             115     0.4 4  276 257 
 HEL  HZ I         631 13.78         1.9 0.30                           276 257 
 PRA  HE ES   3    631 29.39                             107    -0.1 1  390 211 
 PRA  HZ I         631 34.32         1.5 0.56                           390 211 
                                                                                
