 2011 1224 0310 29.2 L   6.782 -73.104148.9  RSN  6 0.2 1.9LRSN                1
 GAP=143        0.52       2.9     4.8  4.4 -0.9664E+00  0.4328E+01  0.3495E+01E
 Epicentro: LOS SANTOS - SANTANDER                                             3
 ACTION:UPD 12-07-13 16:18 OP:ep   STATUS:               ID:20111224031029 L   I
 2011-12-24-0310-00M.COL___189                                                 6
 STAT SP IPHASW D HRMM SECON CODA AMPLIT PERI AZIMU VELO AIN AR TRES W  DIS CAZ7
 BAR2 SZ EP        310 49.17                             171   -0.0410 22.6 202 
 BAR2 SZ ES   1    311  4.73                             171   -0.07 7 22.6 202 
 BAR2 SZ I         311  5.96        16.8 0.22                          22.6 202 
 PAM  SZ EP   1    310 51.94                             152    0.24 7 76.2  36 
 PAM  SN ES   1    311  8.99                             152   -0.24 7 76.2  36 
 BRR  HZ EP        310 51.06                             151    0.0710 76.2 298 
 BRR  HE ES   1    311  8.30                             151    0.33 7 76.2 298 
 BRR  HZ I         311 12.44        15.8 0.08                          76.2 298 
 RUS  HZ EP   1    310 53.08                             145   -0.04 7 98.3 179 
 RUS  HE ES   1    311 11.74                             145   -0.02 7 98.3 179 
 RUS  HZ I         311 13.55         9.9 0.43                          98.3 179 
 PTB  HZ EP   1    310 56.22                             132   -0.60 7  152 260 
 CHI  HZ EP        311  7.27                             118    0.25 8  248 196 
 CHI  HN ES   1    311 36.48                             118   -0.01 6  248 196 
 CHI  HZ I         311 45.28         4.5 0.75                           248 196 
                                                                                
