 2015 1124 0746 41.1 L   6.807 -73.158147.6  RSN 13 0.4 1.8LRSN                1
 GAP=135        0.96       2.8     3.6  5.2 -0.1504E+01  0.3505E+01  0.4201E+00E
 Epicentro: LOS SANTOS - SANTANDER                                             3
 ACTION:UPD 15-12-28 16:13 OP:cam  STATUS:               ID:20151124074641 L   I
 OLDACT:UP  15-12-10 14:59 OP:cam  STATUS:               ID:20151124074641 L   3
 OLDACT:UP  15-12-01 10:58 OP:ak   STATUS:               ID:20151124074641 L   3
 OLDACT:REG 15-11-24 12:56 OP:ak   STATUS:               ID:20151124073736     3
 2015-11-24-0737-36M.COL___215                                                 6
 STAT SP IPHASW D HRMM SECON CODA AMPLIT PERI AZIMU VELO AIN AR TRES W  DIS CAZ7
 BAR2 EZ EP        747  0.96                             170    0.0210 23.9 186 
 BAR2 EZ ES        747 16.06                             170   -0.3810 23.9 186 
 BAR2 EZ I         747 17.44        12.3 0.18            169           23.9 186 
 BRR  HZ IP     C  747  2.68                             153    0.3410 69.6 298 
 BRR  HN ES        747 19.46                             153    0.5410 69.6 298 
 BRR  HZ I         747 22.99        10.6 0.30            150           69.6 298 
 PAM  EZ EP     D  747  3.90                             151    0.4010 77.6  41 
 PAM  EN ES        747 21.07                             151    0.0710 77.6  41 
 PAM  EZ I         747 21.50         4.7 0.28            154           77.6  41 
 RUS  HZ EP        747  4.95                             144   -0.1310  102 175 
 RUS  HN ES        747 23.70                             144   -0.0910  102 175 
 RUS  HZ I         747 24.99         5.2 0.26            145            102 175 
 PTB  HZ EP        747  7.60                             133   -0.49 9  147 258 
 PTB  HN ES        747 28.44                             133   -0.72 9  147 258 
 PTB  HZ I         747 30.80         5.8 0.14            131            147 258 
 OCA  HZ EP   1    747  9.53                             130    0.09 7  159 354 
 OCA  HE ES        747 31.44                             130   -0.12 9  159 354 
 OCA  HZ I         747 36.21        14.2 0.34            131            159 354 
 SPBC HZ EP        747  9.74                             129    0.04 9  163 218 
 SPBC HN ES        747 32.15                             129    0.13 9  163 218 
 SPBC HZ I         747 38.90        12.4 0.30            129            163 218 
 ZAR  HZ EP        747 13.67                             123    0.19 9  202 292 
 ZAR  HN ES        747 39.32                             123    0.56 9  202 292 
 ZAR  HZ I         747 44.39         4.5 0.12            122            202 292 
 NOR  HE ES        747 44.39                             119   -0.36 8  234 234 
 SML  HZ EP   1    747 16.78                             118   -0.89 6  242 336 
 SML  HN ES   1    747 45.53                             118   -0.67 6  242 336 
 SML  HZ I         747 50.00                             118            242 336 
 HEL  HZ EP   9    747 22.64                             115    1.38 0  271 256 
 HEL  HN ES        747 54.58                             115    0.60 8  271 256 
 HEL  HZ I         748  0.59         3.5 0.32            115            271 256 
 MON  HZ EP   9    747 28.15                             109   -1.82 0  352 308 
 MON  HN ES        748  6.37                             109    0.09 6  352 308 
 MON  HZ I         748  9.07         1.2 0.14            109            352 308 
 PRA  HZ EP        747 34.97                             107    0.30 6  392 209 
 PRA  HN ES        748 17.46                             107    0.99 6  392 209 
 PRA  HZ I         748 23.57         3.1 0.62            107            392 209 
                                                                                
