 2017 1124 0650 43.5 L   6.815 -73.161148.1  RSN  4 0.3 1.1LRSN                1
 GAP=277        0.79       7.8     5.7  6.8  0.1154E+02  0.9664E+01 -0.2665E+01E
 Epicentro: LOS SANTOS - SANTANDER                                             3
 ACTION:UPD 17-12-12 19:59 OP:rebc STATUS:               ID:20171124065043 L   I
 OLDACT:DUP 17-11-24 16:37 OP:osc  STATUS:               ID:20171124064743d    3
 OLDACT:REG 17-11-24 13:09 OP:osc  STATUS:               ID:20171124064742     3
 2017-11-24-0648-00M.COL___483                                                 6
 STAT SP IPHASW D HRMM SECON CODA AMPLIT PERI AZIMU VELO AIN AR TRES W  DIS CAZ7
 BAR2 EZ ES        651 19.24                             170    0.2810 24.7 186 
 BAR2 EZ I         651 20.49         3.9 0.16            171           24.7 186 
 RUS  HZ EP        651  7.52                             144   -0.0510  102 175 
 RUS  HE ES        651 26.00                             144   -0.3710  102 175 
 RUS  HZ I         651 26.89         1.1 0.18            145            102 175 
 PTB  HZ EP        651 10.70                             133    0.19 9  146 258 
 PTB  HN ES        651 31.18                             133   -0.42 9  146 258 
 PTB  HZ I         651 33.34         1.1 0.40            133            146 258 
 SPBC HZ EP        651 12.12                             130   -0.05 9  163 218 
 SPBC HE ES        651 35.02                             130    0.47 9  163 218 
 SPBC HZ I         651 35.73         2.0 0.24            131            163 218 
                                                                                
