 2010 1024 0216 26.8 L   6.795 -73.156142.0  RSN  6 0.4 1.4LRSN                1
 GAP=158        0.79       5.4     8.6 10.6 -0.1514E+02 -0.4453E+01  0.7940E+01E
 Epicentro: CEPITA - SANTANDER                                                 3
 ACTION:UP  11-02-18 11:11 OP:tino STATUS:               ID:20101024021625 L   I
 2010-10-24-0212-36S.COL___124                                                 6
 STAT SP IPHASW D HRMM SECON CODA AMPLIT PERI AZIMU VELO SNR AR TRES W  DIS CAZ7
 BAR2 SZ EP   2    216 45.08                             166    -0.9 5   23 188 
 BAR2 SZ I         217  2.91         6.8 0.38                            23 188 
 BRR  HZ EP   1    216 47.28                             147    -0.2 7   71 299 
 BRR  HZ I         217  3.39         6.0 1.01                            71 299 
 BRR  HN ES   2    217  4.24                             147     0.6 5   71 299 
 RUS  HZ EP        216 50.58                             142     0.410  100 175 
 RUS  HN ES   2    217  7.98                                    -0.4 5  100 175 
 RUS  HZ I         217  8.85         3.4 0.27                           100 175 
 GRA  SZ EP        216 51.78                                     0.010  127  18 
 NOR  SZ EP   2    217  2.59                                     0.4 4  234 235 
 NOR  SN ES   2    217 29.17                                    -0.7 4  234 235 
 PRA  HZ EP        217 19.93                                    -0.2 6  391 209 
 PRA  HN ES   2    218  2.02                                     0.4 3  391 209 
                                                                                
