 2011 1224 0055 14.6 L   6.653 -73.464124.2  RSN  4 0.2 1.6LRSN                1
 GAP=131        0.46       3.7     3.9  5.5  0.6565E+01  0.5774E+01  0.4160E+01E
 Epicentro: EL CARMEN DE CHUCURI - SANTANDER                                   3
 ACTION:UPD 12-07-13 16:18 OP:ep   STATUS:               ID:20111224005514 L   I
 2011-12-24-0050-00M.COL___189                                                 6
 STAT SP IPHASW D HRMM SECON CODA AMPLIT PERI AZIMU VELO AIN AR TRES W  DIS CAZ7
 BAR2 SZ ES   1    055 44.97                             165   -0.37 7 31.8 102 
 BAR2 SZ I         055 46.02         9.3 0.26                          31.8 102 
 BRR  HZ EP        055 32.61                             154    0.0010 57.2 331 
 BRR  HZ I         055 32.89        14.3 0.18                          57.2 331 
 BRR  HN ES        055 46.84                             154    0.1610 57.2 331 
 RUS  HZ EP   2    055 35.81                             141    0.05 5 94.0 153 
 RUS  HN ES   1    055 52.51                             141    0.23 7 94.0 153 
 PTB  HZ EP   2    055 36.22                             135   -0.23 5  111 264 
 PTB  HE ES   1    055 53.43                             135   -0.07 7  111 264 
                                                                                
