 2013 1224 0559 43.1 L   6.684 -73.182155.3  RSN  4 0.2 1.3LRSN                1
 GAP=224        0.48       4.2     4.8  5.1  0.1201E+02 -0.4199E+01 -0.2834E+01E
 Epicentro: VILLANUEVA - SANTANDER                                             3
 ACTION:UPD 14-01-13 10:20 OP:ep   STATUS:               ID:20131224055943 L   I
 OLDACT:REG 13-12-24 10:57 OP:mh   STATUS:               ID:20131224055735     3
 2013-12-24-0557-35M.COL___238                                                 6
 STAT SP IPHASW D HRMM SECON CODA AMPLIT PERI AZIMU VELO AIN AR TRES W  DIS CAZ7
 BAR2 SZ EP        6 0  3.78                             176    0.1210 10.1 181 
 BAR2 SZ I         6 0 21.59         8.2 0.22            173           10.1 181 
 BRR  HZ EP        6 0  5.67                             153    0.2210 75.0 309 
 BRR  HN ES        6 0 22.74                             153   -0.1810 75.0 309 
 BRR  HZ I         6 0 26.76         2.9 0.20            151           75.0 309 
 RUS  HZ EP        6 0  6.75                             149   -0.1910 88.2 173 
 RUS  HN ES        6 0 25.63                             149    0.0610 88.2 173 
 RUS  HZ I         6 0 27.90         1.4 0.31            150           88.2 173 
 PTB  HZ EP   1    6 0 10.11                             135   -0.20 7  142 264 
 PTB  HN ES   1    6 0 31.71                             135    0.15 7  142 264 
 PTB  HZ I         6 0 35.78         3.1 0.12            137            142 264 
                                                                                
