 2016  224 0816 17.9 L   6.804 -73.130142.3  RSN 27 0.5 2.6LRSN                1
 GAP= 72        0.92       2.8     2.7  4.4 -0.1516E+01  0.2420E+01  0.1669E+01E
 Epicentro: LOS SANTOS - SANTANDER                                             3
 ACTION:UPD 16-03-04 21:29 OP:rebc STATUS:               ID:20160224081617 L   I
 OLDACT:UP  16-02-24 19:31 OP:mh   STATUS:               ID:20160224080747     3
 OLDACT:UP  16-02-24 19:31 OP:mh   STATUS:               ID:20160224080747     3
 OLDACT:UP  16-02-24 19:29 OP:mh   STATUS:               ID:20160224080747     3
 OLDACT:UP  16-02-24 18:28 OP:dnl  STATUS:               ID:20160224080747     3
 OLDACT:REG 16-02-24 13:23 OP:mh   STATUS:               ID:20160224080747     3
 2016-02-24-0807-47M.COL___327                                                 6
 STAT SP IPHASW D HRMM SECON CODA AMPLIT PERI AZIMU VELO AIN AR TRES W  DIS CAZ7
 BAR2 EZ IP     C  816 37.35                             170    0.2010 24.2 194 
 BAR2 EZ ES        816 52.10                             170   -0.0510 24.2 194 
 BAR2 EZ I         816 53.34       142.7 0.22            166           24.2 194 
 BRR  HZ IP     D  816 39.24                             151    0.4710 72.5 298 
 BRR  HN ES        816 55.68                             151    0.6510 72.5 298 
 BRR  HZ I         817  0.60        84.7 0.14            145           72.5 298 
 PAM  EZ IP     D  816 40.19                             150    0.5110 75.9  39 
 PAM  EN ES        816 56.58                             150   -0.0710 75.9  39 
 PAM  EZ I         816 59.33        57.8 0.48            150           75.9  39 
 RUS  HZ IP     C  816 41.31                             143   -0.0510  101 177 
 RUS  HN ES        816 59.43                             143   -0.2110  101 177 
 RUS  HZ I         817  0.81        49.6 0.22            139            101 177 
 PTB  HZ EP        816 44.01                             131   -0.76 9  150 259 
 PTB  HN ES        817  4.84                             131   -0.87 9  150 259 
 PTB  HZ I         817 12.29        43.6 0.32            125            150 259 
 TAM  HZ IP     C  816 45.68                             130    0.50 9  154 105 
 TAM  HE ES   2    817  5.70                             130   -0.74 5  154 105 
 TAM  HZ I         817  6.41        28.1 0.36            128            154 105 
 OCA  HZ EP        816 45.59                             129   -0.34 9  160 353 
 OCA  HN ES   2    817  7.18                             129   -0.61 5  160 353 
 OCA  HZ I         817 12.09       137.4 0.22            125            160 353 
 SPBC HZ EP        816 46.33                             128    0.04 9  165 219 
 SPBC HE ES        817  8.31                             128   -0.12 9  165 219 
 SPBC HZ I         817 10.56        75.9 0.10            123            165 219 
 ZAR  HZ EP        816 50.22                             121   -0.06 8  205 292 
 ZAR  HN ES        817 15.45                             121   -0.08 8  205 292 
 ZAR  HZ I         817 22.15        51.3 0.14            116            205 292 
 NOR  HZ EP        816 53.85                             117    0.22 8  236 235 
 NOR  HN ES        817 21.35                             117   -0.14 8  236 235 
 NOR  HZ I         817 27.65        35.9 0.18            113            236 235 
 CHI  HZ EP        816 55.54                             116    0.01 8  250 196 
 CHI  HN ES        817 24.77                             116   -0.09 8  250 196 
 CHI  HZ I         817 31.96        21.3 0.46            112            250 196 
 ROSC BZ EP   4    816 57.38                             116    1.39 0  254 211 
 ROSC BN ES   4    817 28.22                             116    2.53 0  254 211 
 ROSC BZ I         817 33.68        32.2 0.35            112            254 211 
 HEL  HZ EP   2    816 58.73                             114    0.58 4  274 256 
 HEL  HE ES        817 29.61                             114    0.07 8  274 256 
 HEL  HZ I         817 37.53        20.3 0.26            110            274 256 
 URE  HZ EP   4    816 57.52                             113   -1.46 0  285 292 
 URE  HE ES   4    817 28.42                             113   -2.59 0  285 292 
 URE  HZ I         817 31.64        37.2 0.12            109            285 292 
 SOCV BZ EP   2    816 59.08                             111   -1.53 4  300  57 
 SOCV BN ES   4    817 31.91                             111   -2.01 0  300  57 
 GUY2CHZ EP        817  1.74                             111    0.18 7  303 235 
 GUY2CHN ES        817 36.36                             111    0.76 7  303 235 
 GUY2CHZ I         817 43.96        24.9 0.38                           303 235 
 PTGC HZ EP   4    817  0.48                             111   -1.12 0  309 159 
 PTGC HN ES   4    817 31.68                             111   -3.99 0  309 159 
 PTGC HZ I         817 45.19        10.0 0.32            108            309 159 
 LL6C HZ EP   3    817  2.19                             110   -1.23 2  324 357 
 LL6C HE ES   4    817 36.21                             110   -2.71 0  324 357 
 LL6C HZ I         817 40.85         8.9 0.40            107            324 357 
 ELA  HZ EP   4    817  5.96                             109    1.15 0  331 230 
 ELA  HN ES        817 40.80                             109   -0.59 7  331 230 
 ELA  HZ I         817 51.36        15.0 0.44            106            331 230 
 CBOC HZ EP        817  5.30                             109    0.41 7  335 252 
 CBOC HN ES   3    817 41.17                             109   -0.37 2  335 252 
 CBOC HZ I         817 54.34         6.8 0.66            105            335 252 
 MON  HZ EP   4    817  4.78                             108   -2.13 0  355 308 
 MON  HN ES   4    817 42.98                             108   -2.14 0  355 308 
 MON  HZ I         817 58.79        12.7 0.44            104            355 308 
 ANIL HZ EP   4    817  8.24                             108    0.47 0  359 225 
 ANIL HE ES   4    817 48.84                             108    2.18 0  359 225 
 ANIL HZ I         817 57.52        38.1 0.34            104            359 225 
 ORTC HZ EP        817 11.77                             106   -0.11 6  397 216 
 ORTC HE ES   2    817 54.81                             106    0.83 3  397 216 
 ORTC HZ I         818  1.82        16.8 0.26            102            397 216 
 PAL  HZ EP   4    817 13.32                             105    0.15 0  407 239 
 PAL  HZ I         818  0.37         7.7 0.28            102            407 239 
 SJC  HZ EP   4    817 11.42                             105   -2.01 0  410 327 
 SJC  HN ES   4    817 52.49                             105   -4.24 0  410 327 
 SJC  HZ I         817 57.31        13.5 0.48            102            410 327 
 CRJC HZ EP   4    817 17.93                             103   -2.32 0  467   3 
 CRJC HN ES   4    818  4.27                             103   -4.60 0  467   3 
 CRJC HZ I         818 14.60         6.9 0.14            100            467   3 
 YOT  HZ EP   2    817 20.36                             103   -0.70 2  474 229 
 YOT  HN ES   4    818 15.01                             103    4.70 0  474 229 
                                                                                
