 2016 1224 0110 19.0 L   6.799 -73.185144.0  RSN 10 0.7 1.9LRSN                1
 GAP=116        1.42       5.3     5.5  8.3  0.2079E+01  0.8020E+01  0.1084E+02E
 Epicentro: ZAPATOCA - SANTANDER                                               3
 ACTION:UPD 17-01-11 20:18 OP:rebc STATUS:               ID:20161224011019 L   I
 OLDACT:UP  16-12-24 14:30 OP:cog  STATUS:               ID:20161224010745     3
 OLDACT:UP  16-12-24 14:30 OP:cog  STATUS:               ID:20161224010745     3
 OLDACT:REG 16-12-24 12:41 OP:cog  STATUS:               ID:20161224010745     3
 2016-12-24-0108-00M.COL___390                                                 6
 STAT SP IPHASW D HRMM SECON CODA AMPLIT PERI AZIMU VELO AIN AR TRES W  DIS CAZ7
 BAR2 EZ EP        110 38.72                             171    0.3010 22.8 179 
 BAR2 EZ ES        110 53.79                             171    0.2310 22.8 179 
 BAR2 EZ I         110 55.47        23.4 0.36            169           22.8 179 
 BRR  HZ EP        110 40.41                             153    0.6410 67.5 300 
 BRR  HE ES        110 54.78                             153   -1.1710 67.5 300 
 BRR  HZ I         111  6.21         9.6 0.18            153           67.5 300 
 PAM  EZ EP        110 41.42                             150    0.2010 80.3  42 
 PAM  EE ES        110 58.31                             150   -0.2310 80.3  42 
 PAM  EZ I         111  1.23        12.0 0.64            156           80.3  42 
 RUS  HZ EP        110 42.65                             143    0.0410  101 174 
 RUS  HN ES        111  1.01                             143   -0.0010  101 174 
 RUS  HZ I         111  2.60        15.7 0.28            146            101 174 
 PTB  HZ EP        110 45.40                             132   -0.05 9  144 259 
 PTB  HN ES        111  6.64                             132    0.57 9  144 259 
 PTB  HZ I         111 14.01        14.9 0.36            133            144 259 
 ZAR  HZ EP        110 51.85                             122    0.91 9  200 293 
 ZAR  HN ES        111 15.09                             122   -0.75 9  200 293 
 NOR  HZ EP   3    110 52.59                             118   -1.67 2  231 234 
 NOR  HN ES        111 21.44                             118   -0.31 8  231 234 
 NOR  HZ I         111 27.81         5.4 0.46            121            231 234 
 CHI  HZ EP        110 56.97                             117    0.49 8  247 194 
 CHI  HN ES        111 25.97                             117    0.27 8  247 194 
 CHI  HZ I         111 30.10         2.6 0.42            120            247 194 
 GUY2CHZ EP   4    111  5.62                             112    3.49 0  298 234 
 GUY2CHE ES   4    111 39.62                             112    3.85 0  298 234 
 GUY2CHZ I         111 46.16         3.8 0.32                           298 234 
 PTGC HZ EP        111  1.48                             111   -1.48 7  310 158 
 PTGC HN ES   3    111 34.87                             111   -2.36 2  310 158 
 PTGC HZ I         111 37.80         4.9 0.34            115            310 158 
 ELA  HE ES   4    111 45.44                             110    3.85 0  326 229 
                                                                                
