 2014  924 0338 56.0 L   6.757 -73.183149.8  RSN  5 0.4 1.4LRSN                1
 GAP=230        1.10       6.5     7.0  8.1  0.9318E+01  0.6928E+01  0.4761E+01E
 Epicentro: LOS SANTOS - SANTANDER                                             3
 ACTION:UPD 14-10-03 23:08 OP:nd   STATUS:               ID:20140924033856 L   I
 OLDACT:REG 14-09-24 17:41 OP:cam  STATUS:               ID:20140924033748     3
 2014-09-24-0337-48M.COL___281                                                 6
 STAT SP IPHASW D HRMM SECON CODA AMPLIT PERI AZIMU VELO AIN AR TRES W  DIS CAZ7
 BAR2 SZ EP        339 15.68                             173   -0.3310 18.2 180 
 BAR2 SZ ES        339 31.65                             173    0.0210 18.2 180 
 BAR2 SZ I         339 32.27         6.4 0.14            166           18.2 180 
 BRR  HZ EP        339 17.54                             154    0.0310 70.1 304 
 BRR  HN ES        339 34.83                             154    0.5310 70.1 304 
 BRR  HN I         339 35.68         8.1 0.16            150           70.1 304 
 RUS  HZ EP        339 19.64                             146   -0.1910 96.2 173 
 RUS  HE ES        339 38.26                             146   -0.1710 96.2 173 
 RUS  HZ I         339 39.87         1.9 0.22            144           96.2 173 
 PTB  HZ EP        339 23.02                             134    0.17 9  143 260 
 PTB  HN ES        339 42.85                             134   -0.95 9  143 260 
 PTB  HZ I         339 50.88         3.1 0.46            131            143 260 
 SPBC HZ EP        339 24.63                             131    0.42 9  157 219 
 SPBC HN ES        339 46.77                             131    0.55 9  157 219 
 SPBC HZ I         339 52.67         3.9 0.24            128            157 219 
                                                                                
