 2010  124 0257 57.1 L   6.458 -73.196151.4  RSN  6 0.4 1.6LRSN                1
 GAP=164        0.84       5.0    14.0  8.6 -0.1847E+02  0.4316E+02 -0.6411E+01E
 Epicentro: PARAMO - SANTANDER                                                 3
 ACTION:UP  10-08-24 09:45 OP:vdl  STATUS:               ID:20100124025757 L   I
 2010-01-24-0253-08S.COL___095                                                 6
 STAT SP IPHASW D HRMM SECON CODA AMPLIT PERI AZIMU VELO SNR AR TRES W  DIS CAZ7
 BAR2 SZ EP        258 17.36                             174     0.110   15   5 
 BAR2 SZ ES   1    258 32.45                             174    -0.5 7   15   5 
 RUS  BZ EP        258 19.45                             156     0.310   64 169 
 RUS  BN ES   1    258 36.31                             156    -0.1 7   64 169 
 RUS  BZ I         258 37.95        16.6 0.57                            64 169 
 GIR2 SZ EP   1    258 19.37                             154     0.5 7   69   0 
 GIR2 SZ ES   2    258 35.87                             154    -0.1 5   69   0 
 OCA  SZ EP   1    258 28.68                             124    -0.7 6  197 356 
 OCA  SZ ES   2    258 55.22                             124     0.6 4  197 356 
 CHI  HZ EP   2    258 30.22                             123    -0.9 4  211 196 
 CHI  HN ES   2    258 57.80                             123     0.1 4  211 196 
 CHI  HZ I         259  3.18         1.9 0.52                           211 196 
 RREF BN ES   2    259 14.22                             114     0.1 4  294 234 
 RREF BZ I         259 22.93         1.7 0.36                           294 234 
                                                                                
