 2016  824 0243 35.2 L   6.798 -73.130143.3  RSN 10 0.5 1.8LRSN                1
 GAP=139        1.23       4.4     5.2  7.1 -0.9032E+00  0.7935E+01  0.9886E+01E
 Epicentro: LOS SANTOS - SANTANDER                                             3
 ACTION:UPD 16-10-29 15:38 OP:rebc STATUS:               ID:20160824024335 L   I
 OLDACT:UP  16-08-24 16:26 OP:ak   STATUS:               ID:20160824023736     3
 OLDACT:UP  16-08-24 16:26 OP:ak   STATUS:               ID:20160824023736     3
 OLDACT:REG 16-08-24 12:23 OP:ak   STATUS:               ID:20160824023736     3
 2016-08-24-0238-00M.COL___365                                                 6
 STAT SP IPHASW D HRMM SECON CODA AMPLIT PERI AZIMU VELO AIN AR TRES W  DIS CAZ7
 BAR2 EZ EP        243 54.60                             170    0.0410 23.5 194 
 BAR2 EZ ES        244  8.87                             170   -0.7610 23.5 194 
 BAR2 EZ I         244 11.16        19.9 0.16                          23.5 194 
 BRR  HZ EP        243 56.45                             151    0.2510 72.9 298 
 BRR  HN ES        244 13.51                             151    0.9510 72.9 298 
 BRR  HZ I         244 14.54        13.3 0.34                          72.9 298 
 PAM  EZ EP        243 57.34                             151    0.2210 76.4  38 
 PAM  EE ES        244 13.89                             151   -0.3010 76.4  38 
 PAM  EZ I         244 16.69        11.1 0.46                          76.4  38 
 RUS  HZ EP        243 58.65                             143   -0.0510  100 177 
 RUS  HE ES        244 17.43                             143    0.4110  100 177 
 RUS  HZ I         244 18.15         4.0 0.26                           100 177 
 PTB  HZ EP        244  1.74                             131   -0.41 9  149 259 
 PTB  HE ES        244 22.50                             131   -0.64 9  149 259 
 PTB  HZ I         244 28.43         4.7 0.30                           149 259 
 SPBC HZ EP        244  3.51                             128   -0.11 9  164 220 
 SPBC HE ES        244 26.26                             128    0.49 9  164 220 
 SPBC HZ I         244 30.37        11.9 0.24                           164 220 
 ZAR  HZ EP   4    244  9.17                             122    1.48 0  206 292 
 ZAR  HN ES        244 32.64                             122   -0.37 8  206 292 
 ZAR  HZ I         244 37.86         6.5 0.46                           206 292 
 CHI  HZ EP        244 12.47                             117   -0.34 8  249 196 
 CHI  HN ES        244 42.20                             117    0.07 8  249 196 
 CHI  HZ I         244 45.79         3.8 0.46                           249 196 
 GUY2CHZ EP        244 20.07                             112    1.20 7  303 235 
 GUY2CHE ES   4    244 55.89                             112    2.98 0  303 235 
 GUY2CHZ I         245  0.75         3.0 0.34                           303 235 
 PRA  HZ EP        244 28.13                             106   -0.61 6  393 210 
 PRA  HN ES        245 10.11                             106   -0.37 6  393 210 
 PRA  HZ I         245 14.82         3.1 0.24                           393 210 
                                                                                
