 2014  124 0821 55.6 L   6.867 -73.199142.9  RSN  8 0.4 1.7LRSN                1
 GAP=130        0.84       3.8     4.4  6.4 -0.7746E+01  0.1386E+02 -0.8602E+01E
 Epicentro: ZAPATOCA - SANTANDER                                               3
 ACTION:UPD 14-03-13 09:58 OP:ep   STATUS:               ID:20140124082155 L   I
 OLDACT:REG 14-01-24 07:53 OP:nd   STATUS:               ID:20140124082000     3
 2014-01-24-0820-00M.COL___285                                                 6
 STAT SP IPHASW D HRMM SECON CODA AMPLIT PERI AZIMU VELO AIN AR TRES W  DIS CAZ7
 BAR2 SZ EP        822 15.10                             167    0.0810 30.5 177 
 BAR2 SZ ES        822 29.80                             167   -0.4010 30.5 177 
 BAR2 SZ I         822 31.01        14.8 0.26            169           30.5 177 
 PAM  SZ EP        822 17.94                             151    0.5410 76.0  47 
 PAM  SN ES        822 34.61                             151    0.1910 76.0  47 
 PAM  SZ I         822 36.53         7.3 0.18            154           76.0  47 
 PTB  HZ EP        822 21.69                             132   -0.24 9  144 255 
 PTB  HN ES        822 42.76                             132    0.27 9  144 255 
 PTB  HZ I         822 44.82         6.3 0.26            132            144 255 
 SPBC HZ EP        822 24.16                             128    0.09 9  165 216 
 SPBC HN ES        822 45.85                             128   -0.45 9  165 216 
 SPBC HZ I         822 53.57         4.4 0.26            129            165 216 
 SML  HZ EP        822 30.78                             118   -0.26 8  235 336 
 SML  HN ES        822 58.46                             118   -0.24 8  235 336 
 SML  HZ I         823  6.51         5.7 0.26            119            235 336 
 HEL  HZ EP   2    822 35.49                             114    0.27 4  268 254 
 HEL  HN ES        823  6.76                             114    0.62 8  268 254 
 HEL  HZ I         823 13.60         2.6 0.26            115            268 254 
 GUY2CHZ EP   4    822 40.97                             112    1.97 0  301 233 
 GUY2CHN ES   4    823 14.04                             112    1.16 0  301 233 
 GUY2CHZ I         823 23.37         2.6 0.62                           301 233 
 SJC  HZ EP        822 49.32                             106   -0.61 6  400 327 
 SJC  HN ES   4    823 30.17                             106   -2.16 0  400 327 
 SJC  HZ I         823 34.05         1.9 0.78            107            400 327 
                                                                                
