 2017  224 0024 22.3 L   6.613 -73.226165.6  RSN  6 0.3 1.2LRSN                1
 GAP=160        0.71       6.0     5.5  6.2  0.2118E+02 -0.2532E+01 -0.7235E+01E
 Epicentro: BARICHARA - SANTANDER                                              3
 ACTION:UPD 17-05-24 15:39 OP:jn   STATUS:               ID:20170224002422 L   I
 OLDACT:UP  17-02-24 13:23 OP:edw  STATUS:               ID:20170224001742d    3
 OLDACT:UP  17-02-24 13:21 OP:edw  STATUS:               ID:20170224001742d    3
 OLDACT:DUP 17-02-24 13:17 OP:edw  STATUS:               ID:20170224001742d    3
 2017-02-24-0018-00M.COL___394                                                 6
 STAT SP IPHASW D HRMM SECON CODA AMPLIT PERI AZIMU VELO AIN AR TRES W  DIS CAZ7
 BAR2 EZ EP        024 43.93                             178   -0.2210 5.31 115 
 BRR  HZ EP        024 45.76                             154   -0.1810 76.7 316 
 BRR  HN ES        025  4.62                             154    0.2710 76.7 316 
 RUS  HZ EP        024 46.80                             153   -0.1010 81.2 169 
 RUS  HN ES        025  6.12                             153    0.0610 81.2 169 
 RUS  HZ I         025  6.74         2.6 0.52            149           81.2 169 
 PAM  EZ IP   4 D  024 46.79                             148   -1.19 0 99.2  36 
 PAM  EN ES   4    025  3.73                             148   -4.26 0 99.2  36 
 PAM  EZ I         025  4.13         2.0 0.40            153           99.2  36 
 PTB  HZ EP        024 50.65                             139    0.62 9  136 267 
 PTB  HN ES        025 11.36                             139   -0.28 9  136 267 
 PTB  HZ I         025 13.82         2.3 0.16            135            136 267 
 ZAR  HZ EP        024 56.20                             126   -0.02 9  205 298 
 ZAR  HE ES        025 22.49                             126   -0.17 9  205 298 
                                                                                
