 2011  224 0417 33.9 L   6.793 -73.077141.7  RSN  7 0.3 1.9LRSN                1
 GAP=166        0.71       4.1    15.5  9.0 -0.3516E+02  0.6796E+02 -0.1531E+02E
 Epicentro: LOS SANTOS - SANTANDER                                             3
 ACTION:UP  11-03-28 15:10 OP:jfem STATUS:               ID:20110224041734 L   I
 2011-02-24-0414-17S.COL___137                                                 6
 STAT SP IPHASW D HRMM SECON CODA AMPLIT PERI AZIMU VELO SNR AR TRES W  DIS CAZ7
 BAR2 SZ EP   1    417 53.14                             170     0.1 8   25 208 
 BAR2 SZ ES   2    418  7.36                             170    -0.7 5   25 208 
 BAR2 SZ I         418  9.92        22.6 0.26                            25 208 
 BTL  SZ EP   1    417 53.32                             170     0.2 8   25 303 
 RUS  HZ EP   1    417 57.18                             143     0.0 8  100 180 
 RUS  HN ES   1    418 15.71                             143     0.4 8  100 180 
 RUS  HZ I         418 16.67        10.0 0.39                           100 180 
 GRA  SZ EP   1    417 58.90                             136     0.2 8  124  14 
 GRA  SZ ES   2    418 17.87                             136    -0.1 5  124  14 
 GRA  SZ I         418 20.89         9.7 0.26                           124  14 
 OCA  SZ EP        418  1.87                             128    -0.210  162 351 
 OCA  SZ I         418 29.30        16.8 0.93                           162 351 
 CHI  HZ EP   1    418 11.15                             116    -0.4 6  250 197 
 CHI  HE ES   1    418 40.58                             116    -0.3 6  250 197 
 CHI  HZ I         418 46.57         4.3 0.24                           250 197 
 HEL  HZ EP   2    418 15.54                             113     0.8 4  279 256 
 HEL  HZ I         418 53.76         3.9 0.25                           279 256 
                                                                                
