 2010  324 0708  0.1 L   6.818 -73.044147.5  RSN  9 0.3 1.9LRSN                1
 GAP=193        0.66       3.5     8.0  5.3  0.3344E+01  0.3365E+01  0.2618E+01E
 Epicentro: LOS SANTOS - SANTANDER                                             3
 ACTION:UP  10-08-24 09:55 OP:vdl  STATUS:               ID:20100324070800 L   I
 2010-03-24-0706-28S.COL___098                                                 6
 STAT SP IPHASW D HRMM SECON CODA AMPLIT PERI AZIMU VELO SNR AR TRES W  DIS CAZ7
 BAR2 SZ IP        7 8 19.97                             168    -0.110   29 212 
 BAR2 SZ ES   1    7 8 35.86                             168     0.2 7   29 212 
 BRR  HZ IP        7 8 21.87                             150    -0.210   81 293 
 BRR  HN ES   1    7 8 39.02                             150    -0.1 7   81 293 
 BRR  HZ I         7 8 42.50        12.2 0.20                            81 293 
 RUS  HZ EP   1    7 8 23.96                             144    -0.2 7  102 182 
 RUS  HE ES   1    7 8 43.20                             144     0.2 7  102 182 
 RUS  HZ I         7 8 43.93         6.8 0.29                           102 182 
 OCA  SZ EP   1    7 8 29.05                             130     0.5 7  160 349 
 OCA  SZ ES   2    7 8 50.47                             130    -0.3 5  160 349 
 OCA  SZ I         7 8 58.59        14.9 0.09                           160 349 
 CHI  HZ EP   1    7 8 38.26                             117    -0.2 6  254 198 
 CHI  HN ES   2    7 9  7.95                             117    -0.5 4  254 198 
 CHI  HZ I         7 9 12.57         3.6 0.46                           254 198 
 ROSC BZ EP   1    7 8 39.92                             116     0.7 6  260 213 
 ROSC BZ I         7 9 14.65         4.6 0.42                           260 213 
 RREF BE ES   2    7 9 24.58                             110     0.2 3  332 230 
 RREF BZ I         7 9 27.21         3.5 0.23                           332 230 
 TOL  SZ EP   2    7 8 50.06                             109     0.5 3  353 226 
 PRA  HZ EP   1    7 8 54.05                             106    -0.5 4  399 211 
 PRA  HN ES   3    7 9 37.13                             106     0.1 1  399 211 
 PRA  HZ I         7 9 40.21         3.5 0.26                           399 211 
                                                                                
