 2014  824 0007 19.7 L   6.306 -73.751 19.0  RSN  4 0.6 1.1LRSN                1
 GAP=193        1.41      19.1     9.7 14.6  0.1722E+03  0.1252E+03  0.2391E+03E
 Epicentro: LANDAZURI - SANTANDER                                              3
 ACTION:UPD 14-09-15 21:52 OP:nd   STATUS:               ID:20140824000719 L   I
 OLDACT:REG 14-08-24 13:52 OP:stll STATUS:               ID:20140824000003     3
 2014-08-24-0000-03M.COL___262                                                 6
 STAT SP IPHASW D HRMM SECON CODA AMPLIT PERI AZIMU VELO AIN AR TRES W  DIS CAZ7
 PTB  HZ IP     D  0 7 32.67                             101   -0.3010 82.2 288 
 PTB  HN ES        0 7 43.38                             101    0.0510 82.2 288 
 PTB  HZ I         0 7 45.58         8.5 0.16             61           82.2 288 
 RUS  HZ IP     D  0 7 34.48                             101    0.3110 86.9 122 
 RUS  HZ I         0 7 34.55         2.6 0.10             61           86.9 122 
 RUS  HN ES        0 7 44.98                             101   -0.4910 86.9 122 
 HEL  HZ EP        0 7 49.37                              56    0.62 9  197 266 
 HEL  HN ES        0 8 10.46                              56   -0.96 9  197 266 
 HEL  HZ I         0 8 11.99         5.1 0.38             61            197 266 
 GUY2CHZ EP        0 7 52.26                              56    1.14 8  215 236 
 GUY2CHN ES        0 8 15.45                              56   -0.19 8  215 236 
 GUY2CHZ I         0 8 18.68         0.9 0.32                           215 236 
                                                                                
