 2013  724 0332 35.8 L   6.050 -73.748108.7  RSN  4 0.4 1.4LRSN                1
 GAP=201        0.67       6.6     4.0  7.9  0.9661E+01  0.6149E+01 -0.9457E+01E
 Epicentro: BOLIVAR - SANTANDER                                                3
 ACTION:UPD 13-08-12 10:39 OP:ep   STATUS:               ID:20130724033235 L   I
 OLDACT:REG 13-07-24 08:56 OP:cam  STATUS:               ID:20130724032959     3
 2013-07-24-0329-59M.COL___267                                                 6
 STAT SP IPHASW D HRMM SECON CODA AMPLIT PERI AZIMU VELO AIN AR TRES W  DIS CAZ7
 RUS  HZ EP   1    332 54.47                             142    0.39 7 75.6 103 
 RUS  HN ES   1    333  8.31                             142   -0.04 7 75.6 103 
 RUS  HZ I         333  9.37         3.7 0.24            146           75.6 103 
 BAR2 SZ EP        332 54.64                             138    0.0710 86.7  46 
 BAR2 SZ ES   1    333  9.01                             138   -0.23 7 86.7  46 
 BAR2 SZ I         333 10.74        10.6 0.39            138           86.7  46 
 PTB  HZ EP        332 54.95                             135   -0.0310 95.3 305 
 PTB  HN ES   1    333  9.89                             135   -0.08 7 95.3 305 
 PTB  HZ I         333 12.67         3.8 0.10            135           95.3 305 
 SML  HZ EP   1    333 17.23                             103   -0.74 5  306 353 
 SML  HN ES   2    333 52.08                             103    1.20 4  306 353 
 SML  HZ I         333 55.41         2.1 0.10            105            306 353 
                                                                                
