 2017  124 0517 52.9 L   6.734 -73.145150.8  RSN  5 0.4 1.0LRSN                1
 GAP=139        0.94       4.9     4.4  8.2  0.1431E+01  0.5777E+01  0.2952E+01E
 Epicentro: LOS SANTOS - SANTANDER                                             3
 ACTION:UPD 17-05-22 16:02 OP:jn   STATUS:               ID:20170124051752 L   I
 OLDACT:DUP 17-01-24 16:13 OP:lv   STATUS:               ID:20170124050744d    3
 2017-01-24-0508-00M.COL___342                                                 6
 STAT SP IPHASW D HRMM SECON CODA AMPLIT PERI AZIMU VELO AIN AR TRES W  DIS CAZ7
 BRR  HZ EP        518 15.01                             152    0.2210 75.0 303 
 BRR  HE ES        518 32.50                             152    0.6210 75.0 303 
 BRR  HZ I         518 33.95         2.9 0.17            153           75.0 303 
 PAM  EZ EP        518 16.12                             150    0.1410 83.1  36 
 PAM  EN ES        518 33.47                             150   -0.5210 83.1  36 
 PAM  EZ I         518 35.65         2.6 0.64            153           83.1  36 
 RUS  HZ EP        518 16.90                             147    0.2610 93.3 176 
 RUS  HN ES        518 35.16                             147   -0.0010 93.3 176 
 RUS  HZ I         518 36.89         0.9 0.20            149           93.3 176 
 PTB  HZ EP        518 19.79                             133   -0.37 9  147 262 
 PTB  HN ES        518 40.97                             133   -0.47 9  147 262 
 PTB  HZ I         518 44.29         1.1 0.13            135            147 262 
 ZAR  HE ES        518 51.77                             123    0.02 8  207 294 
                                                                                
