 2017  624 0702 20.8 L   6.707 -73.159145.0  RSN  4 0.3 1.5LRSN                1
 GAP=245        0.77       8.7     5.9  7.1  0.1768E+02  0.1318E+02  0.2744E+01E
 Epicentro: VILLANUEVA - SANTANDER                                             3
 ACTION:UPD 17-09-14 16:54 OP:jn   STATUS:               ID:20170624070220 L   I
 OLDACT:UP  17-07-06 20:30 OP:nlst STATUS:               ID:20170624070220 L   3
 OLDACT:REG 17-06-24 13:45 OP:lv   STATUS:               ID:20170624065738     3
 2017-06-24-0658-00M.COL___374                                                 6
 STAT SP IPHASW D HRMM SECON CODA AMPLIT PERI AZIMU VELO AIN AR TRES W  DIS CAZ7
 BAR2 EZ EP   1    7 2 40.24                             175    0.08 7 12.9 191 
 BAR2 EZ ES        7 2 54.95                             175   -0.3210 12.9 191 
 BAR2 EZ I         7 2 56.70         5.7 0.10            171           12.9 191 
 BRR  HZ EP        7 2 42.00                             151   -0.0910 75.4 306 
 BRR  HN ES        7 2 59.19                             151    0.4810 75.4 306 
 PTB  HZ EP        7 2 47.63                             132    0.23 9  145 263 
 PTB  HN ES        7 3  8.21                             132    0.04 9  145 263 
 PTB  HZ I         7 3  9.96         4.6 0.04            133            145 263 
 ZAR  HE ES        7 3 18.46                             122   -0.49 8  207 295 
                                                                                
