 2016  724 0912 52.6 L   6.812 -73.137152.2  RSN 12 0.4 1.7LRSN                1
 GAP=137        0.98       2.9     4.1  5.0 -0.1884E+01  0.3437E+01 -0.1124E+01E
 Epicentro: LOS SANTOS - SANTANDER                                             3
 ACTION:UPD 17-03-29 16:54 OP:lp   STATUS:               ID:20160724091252 L   I
 OLDACT:REG 16-07-24 14:14 OP:ar   STATUS:               ID:20160724090759     3
 2016-07-24-0907-59S.COL___331                                                 6
 STAT SP IPHASW D HRMM SECON CODA AMPLIT PERI AZIMU VELO AIN AR TRES W  DIS CAZ7
 BAR2 EZ IP     C  913 13.04                             171    0.0510 24.8 192 
 BAR2 EZ ES        913 28.64                             171   -0.2910 24.8 192 
 BRR  HZ IP     C  913 14.90                             153    0.4810 71.4 297 
 BRR  HN ES        913 31.95                             153    0.4810 71.4 297 
 BRR  HZ I         913 35.62         6.2 0.14            152           71.4 297 
 PAM  EZ EP        913 15.81                             152    0.4410 75.7  40 
 PAM  EN ES        913 33.25                             152    0.1010 75.7  40 
 PAM  EZ I         913 35.59         9.8 0.60            156           75.7  40 
 RUS  HZ EP        913 16.99                             145   -0.0510  102 177 
 RUS  HN ES        913 35.67                             145   -0.4510  102 177 
 RUS  HZ I         913 36.87         4.7 0.30            146            102 177 
 PTB  HZ EP        913 20.04                             133   -0.13 9  149 258 
 PTB  HE ES        913 41.25                             133   -0.45 9  149 258 
 SPBC HZ EP        913 21.91                             130    0.20 9  165 219 
 SPBC HN ES        913 43.97                             130   -0.48 9  165 219 
 SPBC HZ I         913 49.15         8.9 0.20            131            165 219 
 ZAR  HZ EP        913 24.73                             124   -0.74 9  204 292 
 ZAR  HN ES        913 51.69                             124    0.55 9  204 292 
 ZAR  HZ I         913 58.11         6.5 0.28            124            204 292 
 CHI  HZ EP   2    913 30.51                             118   -0.28 4  250 195 
 CHI  HN ES        914  0.71                             118    0.11 8  250 195 
 CHI  HZ I         914  4.18         2.0 0.13            119            250 195 
 GUY2CHZ EP   9    913 38.22                             113    1.57 0  303 235 
 GUY2CHN ES        914 13.10                                    0.49 7  303 235 
 GUY2CHZ I         914 20.87         2.4 0.46                           303 235 
 LL6C HZ EP        913 38.17                             112   -0.22 7  324 357 
 LL6C HN ES        914 14.23                             112    0.09 7  324 357 
 PRA  HZ EP        913 47.17                             107    0.67 6  394 210 
 PRA  HN ES        914 29.26                             107    0.69 6  394 210 
 PRA  HZ I         914 34.51         2.1 0.72            108            394 210 
 SJC  HZ EP        913 47.24                             107   -1.03 6  409 327 
 SJC  HN ES   4    914 28.79                             107   -2.93 0  409 327 
                                                                                
