 2010 1124 0929 49.1 L   6.755 -73.074141.3  RSN  9 0.3 2.1LRSN                1
 GAP=167        0.73       3.2     7.1  6.7 -0.6933E+01 -0.1742E+00  0.1474E+01E
 Epicentro: LOS SANTOS - SANTANDER                                             3
 ACTION:UP  10-12-17 16:54 OP:REBC STATUS:               ID:20101124092949 L   I
 2010-11-24-0926-25S.COL___129                                                 6
 STAT SP IPHASW D HRMM SECON CODA AMPLIT PERI AZIMU VELO SNR AR TRES W  DIS CAZ7
 BAR2 SZ EP        930  8.14                             171     0.010   22 214 
 BAR2 SZ I         930 24.21        24.2 0.32                            22 214 
 BRR  HZ EP   1    930 10.18                             149    -0.1 7   81 299 
 BRR  HE ES   1    930 26.82                             149    -0.1 7   81 299 
 BRR  HZ I         930 31.82        35.6 0.17                            81 299 
 RUS  HZ EP   1    930 12.05                             144     0.0 7   95 181 
 RUS  HN ES   1    930 30.14                             144     0.2 7   95 181 
 RUS  HZ I         930 31.45        11.5 0.21                            95 181 
 GUE  SZ EP   1    930 13.63                             137     0.0 7  120   8 
 GRA  SZ EP        930 14.28                             135     0.110  128  13 
 GRA  SZ ES   1    930 33.79                             135     0.1 7  128  13 
 GRA  SZ I         930 34.96        18.5 0.33                           128  13 
 OCA  SZ EP   1    930 17.06                             127    -0.6 7  166 351 
 OCA  SZ I         930 43.20        18.0 0.38                           166 351 
 CHI  HZ EP   1    930 26.49                             116     0.2 6  246 197 
 CHI  HE ES   1    930 54.53                             116    -0.7 6  246 197 
 CHI  HZ I         931  1.25         3.0 0.20                           246 197 
 HEL  HZ EP   1    930 30.47                             113     0.7 6  279 257 
 HEL  HZ I         931  7.11         3.6 0.35                           279 257 
 PRA  HZ EP   1    930 42.46                             106     0.1 4  392 211 
 PRA  HZ I         930 45.23        11.7 0.08                           392 211 
                                                                                
