 2011  824 0623 48.7 L   6.777 -73.099146.7  RSN 10 0.4 2.4LRSN                1
 GAP=187        0.61       2.7     5.4  4.6 -0.1127E+01  0.6760E+01  0.2240E+01E
 Epicentro: LOS SANTOS - SANTANDER                                             3
 ACTION:UPD 12-07-13 15:53 OP:ep   STATUS:               ID:20110824062348 L   I
 2011-08-24-0621-46S.COL___159                                                 6
 STAT SP IPHASW D HRMM SECON CODA AMPLIT PERI AZIMU VELO AIN AR TRES W  DIS CAZ7
 BAR2 SZ IP        624  8.40                             171   -0.0210 22.4 204 
 BAR2 SZ ES   1    624 23.48                             171   -0.32 7 22.4 204 
 BAR2 SZ I         624 25.08        58.2 0.31                          22.4 204 
 BRR  HZ EP   2    624 10.23                             151   -0.04 5 76.9 298 
 BRR  HZ I         624 16.41        88.2 0.06                          76.9 298 
 BRR  HE ES   1    624 27.66                             151    0.56 7 76.9 298 
 RUS  HZ EP   1    624 12.28                             145   -0.06 7 97.8 179 
 RUS  HE ES   1    624 30.74                             145   -0.04 7 97.8 179 
 RUS  HZ I         624 32.13        28.1 0.38                          97.8 179 
 OCA  SZ EP   1    624 16.84                             129   -0.54 7  163 351 
 OCA  SZ ES   1    624 39.92                             129    0.17 7  163 351 
 OCA  SZ I         624 45.25        44.6 0.33                           163 351 
 NOR  SZ EP   1    624 24.59                             118   -0.18 6  237 236 
 NOR  SE ES   1    624 52.28                             118   -0.63 6  237 236 
 CHI  HZ EP   1    624 26.62                             117    0.29 6  248 196 
 CHI  HE ES   1    624 56.23                             117    0.55 6  248 196 
 CHI  HZ I         625  1.58        10.9 0.29                           248 196 
 ROSC BZ EP   1    624 27.23                             117    0.31 6  253 212 
 ROSC BZ I         625  6.40        31.4 0.49                           253 212 
 HEL  HZ EP   1    624 29.49                             115    0.06 6  276 257 
 HEL  HZ I         625  6.99         9.8 0.31                           276 257 
 RREF HZ EP   1    624 35.45                             111    0.32 5  324 230 
 PRA  HZ EP   2    624 41.97                             107   -0.32 3  392 210 
 PRA  HE ES   2    625 23.41                             107   -0.68 3  392 210 
                                                                                
