 2014  824 0159  0.6 L   6.751 -73.104140.7  RSN  8 0.6 1.5LRSN                1
 GAP=144        1.24       5.1     5.8  8.7 -0.4676E+01  0.1652E+02 -0.4291E+01E
 Epicentro: LOS SANTOS - SANTANDER                                             3
 ACTION:UPD 14-09-15 21:52 OP:nd   STATUS:               ID:20140824015900 L   I
 OLDACT:REG 14-08-24 13:59 OP:stll STATUS:               ID:20140824015815     3
 2014-08-24-0158-15M.COL___257                                                 6
 STAT SP IPHASW D HRMM SECON CODA AMPLIT PERI AZIMU VELO AIN AR TRES W  DIS CAZ7
 BAR2 SZ ES        159 34.37                             172    0.0710 19.6 206 
 BAR2 SZ I         159 36.88         6.1 0.62            170           19.6 206 
 BRR  HZ EP        159 21.91                             149    0.3310 77.9 300 
 BRR  HN ES        159 38.53                             149    0.5710 77.9 300 
 BRR  HZ I         159 42.95         5.2 0.12            151           77.9 300 
 PAM  SZ IP     C  159 22.84                             149    0.5010 78.9  34 
 PAM  SN ES        159 39.38                             149    0.0510 78.9  34 
 PAM  SZ I         159 41.58         8.8 0.48            154           78.9  34 
 RUS  HN ES        159 40.15                             145   -1.0910 94.9 179 
 RUS  HZ I         159 43.99         3.8 0.24            146           94.9 179 
 PTB  HZ EP        159 27.53                             130    0.06 9  151 261 
 PTB  HN ES        159 48.19                             130   -0.26 9  151 261 
 PTB  HZ I         159 50.60         4.0 0.22            132            151 261 
 SPBC HZ EP        159 28.95                             128    0.38 9  162 221 
 SPBC HN ES        159 50.44                             128    0.02 9  162 221 
 SPBC HZ I         159 57.67         3.3 0.26            130            162 221 
 ZAR  HN ES        159 58.73                             120   -0.20 8  210 293 
 SML  HZ EP   2    159 36.51                             115   -1.16 4  251 335 
 SML  HE ES   2    2 0  4.84                             115   -1.77 4  251 335 
                                                                                
