 2016  424 0455 23.2 L   6.815 -73.180141.7  RSN  6 0.2 1.6LRSN                1
 GAP=242        0.56       3.5     3.0  4.3  0.3115E+01  0.4400E+01  0.5752E+00E
 Epicentro: ZAPATOCA - SANTANDER                                               3
 ACTION:UPD 16-05-05 14:23 OP:rebc STATUS:               ID:20160424045523 L   I
 OLDACT:ARG 16-04-24 12:22 OP:cara STATUS:               ID:20160424044743     3
 2016-04-24-0447-43M.COL___312                                                 6
 STAT SP IPHASW D HRMM SECON CODA AMPLIT PERI AZIMU VELO AIN AR TRES W  DIS CAZ7
 BAR2 EZ IP        455 42.57                             170    0.1710 24.6 181 
 BAR2 EZ ES        455 57.27                             170   -0.0810 24.6 181 
 BAR2 EZ I         455 58.52         9.4 0.24            169           24.6 181 
 RUS  HZ EP        455 46.57                             142   -0.1610  103 174 
 RUS  HN ES        456  5.29                             142    0.2310  103 174 
 RUS  HZ I         456  6.04         5.5 0.28            145            103 174 
 PTB  HZ EP        455 49.14                             132   -0.42 9  144 258 
 PTB  HN ES        456 10.01                             132   -0.09 9  144 258 
 PTB  HZ I         456 16.83         3.9 0.42            132            144 258 
 SPBC HZ EP        455 51.42                             128    0.10 9  162 218 
 SPBC HN ES        456 13.00                             128   -0.22 9  162 218 
 SPBC HZ I         456 15.75         8.1 0.28            129            162 218 
 ZAR  HN ES        456 20.01                             122    0.26 9  200 292 
 ZAR  HZ I         456 22.70         3.2 0.26            123            200 292 
 GUY2CHZ EP        456  6.54                             112    0.13 7  299 234 
 GUY2CHE ES        456 40.33                             112    0.24 7  299 234 
 GUY2CHZ I         456 48.47         1.9 0.28                           299 234 
                                                                                
