 2017  724 0849 57.9 L   6.788 -73.150144.6  RSN 11 0.5 1.8LRSN                1
 GAP=112        1.21       4.5     4.2  6.9  0.3446E+01  0.9390E+01  0.7994E+01E
 Epicentro: LOS SANTOS - SANTANDER                                             3
 ACTION:UPD 17-08-30 15:36 OP:rebc STATUS:               ID:20170724084957 L   I
 OLDACT:REG 17-07-24 13:12 OP:and  STATUS:               ID:20170724084737     3
 2017-07-24-0848-00M.COL___377                                                 6
 STAT SP IPHASW D HRMM SECON CODA AMPLIT PERI AZIMU VELO AIN AR TRES W  DIS CAZ7
 BAR2 EZ EP        850 17.31                             171   -0.0810 22.0 189 
 BAR2 EZ ES        850 31.64                             171   -0.9310 22.0 189 
 BAR2 EZ I         850 33.47        24.2 0.23            170           22.0 189 
 BRR  HZ IP     D  850 19.15                             152    0.1910 71.4 300 
 BRR  HE ES        850 36.31                             152    0.9410 71.4 300 
 BRR  HZ I         850 40.06         9.6 0.12            151           71.4 300 
 PAM  EN ES        850 37.33                             150   -0.0510 78.6  39 
 RUS  HZ EP        850 21.50                             144    0.0310 99.3 176 
 RUS  HN ES        850 39.61                             144   -0.2310 99.3 176 
 RUS  HZ I         850 40.78         8.2 0.22            146           99.3 176 
 PTB  HZ EP        850 23.96                             132   -0.77 9  147 259 
 PTB  HE ES        850 45.40                             132   -0.25 9  147 259 
 PTB  HZ I         850 47.33         5.6 0.12            132            147 259 
 SPBC HZ EP        850 26.14                             129   -0.07 9  162 219 
 SPBC HE ES        850 49.15                             129    0.87 9  162 219 
 SPBC HZ I         850 53.35         6.8 0.08            130            162 219 
 YPLC HZ EP        850 27.70                             126    0.16 9  176 151 
 YPLC HE ES        850 50.97                             126    0.32 9  176 151 
 ZAR  HZ EP        850 30.26                             122   -0.04 9  204 293 
 ZAR  HE ES        850 55.69                             122    0.13 9  204 293 
 ZAR  HZ I         851  1.61        10.7 0.18            123            204 293 
 NOR  HZ EP        850 33.61                             118    0.14 8  234 235 
 NOR  HE ES        851  1.34                             118    0.15 8  234 235 
 NOR  HZ I         851  6.41         4.0 0.24            119            234 235 
 HEL  HE ES   2    851  7.08                             115   -2.17 4  271 256 
 GUY2CHZ EP        850 41.60                             112    0.25 7  300 235 
 GUY2CHE ES        851 15.00                             112   -0.23 7  300 235 
 GUY2CHZ I         851 26.26         2.7 0.48                           300 235 
                                                                                
