 2013  424 0833  2.0 L   6.719 -73.159149.3  RSN  4 0.4 1.6LRSN                1
 GAP=198        0.87       6.3     8.0 11.7  0.2005E+02 -0.1488E+02 -0.1939E+02E
 Epicentro: VILLANUEVA - SANTANDER                                             3
 ACTION:UPD 13-05-22 14:40 OP:EP   STATUS:               ID:20130424083302 L   I
 2013-04-24-0828-42M.COL___205                                                 6
 STAT SP IPHASW D HRMM SECON CODA AMPLIT PERI AZIMU VELO AIN AR TRES W  DIS CAZ7
 BRR  HZ EP   1    833 24.12                             152    0.41 8 74.7 305 
 BRR  HE ES   1    833 41.20                             152    0.54 8 74.7 305 
 RUS  HZ EP   1    833 25.86                             147    0.38 8 91.7 175 
 RUS  HE ES   1    833 43.21                             147   -0.59 8 91.7 175 
 RUS  HE I         833 45.33         3.2 0.44            148           91.7 175 
 PTB  HZ EP   1    833 28.93                             133   -0.05 7  145 262 
 PTB  HN ES        833 49.87                             133   -0.1710  145 262 
 PTB  HN I         833 55.08         4.4 0.40            132            145 262 
 SML  HN ES   1    834  8.28                             117   -0.72 6  251 336 
 SML  HN I         834 11.82         6.2 0.10            118            251 336 
                                                                                
