 2014  424 0447 33.4 L   6.816 -73.163142.0  RSN  9 0.4 1.9LRSN                1
 GAP=134        1.04       3.1     4.1  7.8 -0.3571E+01  0.1239E+02 -0.4424E+01E
 Epicentro: LOS SANTOS - SANTANDER                                             3
 ACTION:UPD 14-05-13 23:11 OP:nd   STATUS:               ID:20140424044733 L   I
 OLDACT:REG 14-04-24 13:46 OP:spq  STATUS:               ID:20140424043806     3
 2014-04-24-0438-06M.COL___242                                                 6
 STAT SP IPHASW D HRMM SECON CODA AMPLIT PERI AZIMU VELO AIN AR TRES W  DIS CAZ7
 PAM  SZ EP        447 55.47                             150    0.2410 77.3  41 
 PAM  SN ES        448 12.26                             150    0.0210 77.3  41 
 PAM  SZ I         448 14.45        20.5 0.52            153           77.3  41 
 RUS  HZ EP        447 56.67                             142   -0.2710  102 175 
 RUS  HN ES        448 15.18                             142   -0.1110  102 175 
 PTB  HZ EP        447 59.66                             131   -0.28 9  146 258 
 PTB  HE ES        448 19.98                             131   -0.65 9  146 258 
 PTB  HZ I         448 25.76         7.9 0.34            132            146 258 
 OCA  HZ EP        448  1.02                             129   -0.23 9  158 354 
 OCA  HE ES        448 23.01                             129    0.05 9  158 354 
 OCA  HZ I         448 26.70        11.2 0.18            130            158 354 
 SPBC HZ EP        448  2.23                             128    0.58 9  163 218 
 SPBC HE ES        448 24.35                             128    0.68 9  163 218 
 ZAR  HZ EP        448  5.55                             122    0.18 9  202 292 
 ZAR  HE ES        448 31.04                             122    0.75 9  202 292 
 ZAR  HZ I         448 38.57         7.1 0.24            123            202 292 
 NOR  HE ES        448 35.98                             118   -0.55 8  234 234 
 SML  HZ EP        448  8.87                             117   -0.70 8  241 336 
 SML  HE ES        448 37.89                             117    0.11 8  241 336 
 SML  HZ I         448 47.42        10.7 0.30            118            241 336 
 HEL  HZ EP        448 13.80                             114    0.51 8  271 255 
 HEL  HE ES        448 44.07                             114   -0.31 8  271 255 
 HEL  HZ I         448 53.24         2.8 0.24            116            271 255 
 SJC  HZ EP   4    448 27.24                             105   -1.32 0  407 327 
 SJC  HN ES   4    449  9.03                             105   -2.54 0  407 327 
                                                                                
