 2015 1124 0639 37.8 L   6.819 -73.166141.6  RSN 10 0.5 1.6LRSN                1
 GAP=133        1.11       3.3     4.5  6.2 -0.1188E+01  0.6808E+01 -0.4191E+01E
 Epicentro: LOS SANTOS - SANTANDER                                             3
 ACTION:UPD 15-12-28 16:13 OP:cam  STATUS:               ID:20151124063937 L   I
 OLDACT:DUP 15-11-24 16:30 OP:ak   STATUS:               ID:20151124062749d    3
 OLDACT:REG 15-11-24 12:52 OP:ak   STATUS:               ID:20151124062748     3
 2015-11-24-0627-48M.COL___215                                                 6
 STAT SP IPHASW D HRMM SECON CODA AMPLIT PERI AZIMU VELO AIN AR TRES W  DIS CAZ7
 BAR2 EZ EP        639 57.01                             169    0.0410 25.1 184 
 BAR2 EZ ES        640 11.64                             169   -0.2810 25.1 184 
 BAR2 EZ I         640 12.41         5.4 0.39            170           25.1 184 
 BRR  HZ EP     C  639 58.76                             153    0.4310 68.2 298 
 BRR  HN ES        640 14.96                             153    0.6110 68.2 298 
 BRR  HZ I         640 19.87         7.2 0.19            151           68.2 298 
 PAM  EZ EP        639 59.84                             150    0.2710 77.3  42 
 PAM  EN ES        640 16.60                             150    0.0510 77.3  42 
 PAM  EZ I         640 18.20         5.4 0.22            154           77.3  42 
 RUS  HZ EP        640  1.03                             142   -0.2810  103 175 
 RUS  HN ES        640 19.34                             142   -0.3110  103 175 
 PTB  HZ EP        640  4.19                             131   -0.08 9  146 258 
 PTB  HN ES        640 24.24                             131   -0.68 9  146 258 
 PTB  HZ I         640 27.67         7.3 0.13            132            146 258 
 OCA  HZ EP        640  6.32                             129    0.75 9  158 354 
 OCA  HN ES        640 26.79                             129   -0.44 9  158 354 
 OCA  HZ I         640 28.15        13.6 0.40            131            158 354 
 SPBC HZ EP        640  6.08                             128    0.07 9  163 218 
 SPBC HE ES        640 28.14                             128    0.13 9  163 218 
 SPBC HZ I         640 31.39         4.8 0.20            130            163 218 
 ZAR  HZ EP        640 10.30                             122    0.62 9  201 292 
 ZAR  HN ES        640 34.98                             122    0.43 9  201 292 
 ZAR  HZ I         640 39.43         4.1 0.12            123            201 292 
 SML  HZ EP        640 13.51                             117   -0.38 8  241 336 
 SML  HN ES        640 41.28                             117   -0.76 8  241 336 
 SJC  HZ EP        640 31.85                             105   -1.03 6  406 327 
 SJC  HN ES   4    641 13.41                             105   -2.43 0  406 327 
                                                                                
