 2013  724 0351 40.9 L   6.821 -73.147143.9  RSN 11 0.5 2.6LRSN                1
 GAP= 70        1.15       4.3     4.5  6.6  0.1270E+01  0.1688E+01 -0.7056E+00E
 Epicentro: LOS SANTOS - SANTANDER                                             3
 ACTION:UPD 13-08-12 10:39 OP:ep   STATUS:               ID:20130724035140 L   I
 OLDACT:REG 13-07-24 08:57 OP:cam  STATUS:               ID:20130724034959     3
 2013-07-24-0349-59M.COL___265                                                 6
 STAT SP IPHASW D HRMM SECON CODA AMPLIT PERI AZIMU VELO AIN AR TRES W  DIS CAZ7
 BAR2 SZ IP     D  352  0.33                             170   -0.0710 25.6 189 
 BAR2 SZ ES        352 14.95                             170   -0.6310 25.6 189 
 BAR2 SZ I         352 16.39        82.3 0.33            164           25.6 189 
 BRR  HZ IP     D  352  2.10                             153    0.2710 70.0 297 
 BRR  HE ES        352 19.10                             153    0.9910 70.0 297 
 BRR  HZ I         352 22.52        64.4 0.16            142           70.0 297 
 PAM  SZ EP        352  3.26                             151    0.4010 75.7  41 
 PAM  SN ES        352 20.11                             151    0.1510 75.7  41 
 PAM  SZ I         352 22.15       104.0 0.52            149           75.7  41 
 RUS  HZ EP        352  4.43                             143   -0.2610  103 176 
 RUS  HN ES   1    352 23.27                             143    0.07 7  103 176 
 RUS  HZ I         352 24.74        26.0 0.32            137            103 176 
 PTB  HZ EP   1    352  7.17                             132   -0.62 7  148 258 
 PTB  HN ES        352 28.08                             132   -0.65 9  148 258 
 PTB  HZ I         352 33.20        34.4 0.26            122            148 258 
 TAM  HZ IP     C  352  8.78                             130    0.23 9  156 106 
 OCA  HZ EP   1    352  8.31                             130   -0.58 7  158 353 
 OCA  HN ES   1    352 30.11                             130   -0.58 7  158 353 
 OCA  HZ I         352 34.98        45.7 0.26            123            158 353 
 ZAR  HZ EP   1    352 13.62                             122    0.45 6  203 292 
 ZAR  HE ES        352 38.89                             122    0.59 9  203 292 
 ZAR  HZ I         352 44.08        55.2 0.76            114            203 292 
 SML  HZ EP        352 16.69                             117   -0.54 8  242 335 
 SML  HN ES   1    352 45.12                             117   -0.42 6  242 335 
 SML  HZ I         352 53.51        30.3 0.22            111            242 335 
 HEL  HZ EP   4    352 22.28                             114    1.17 0  273 255 
 HEL  HZ I         352 58.51        20.5 0.40            108            273 255 
 PRA  HZ EP   1    352 35.62                             106    0.99 4  394 209 
 PRA  HN ES   1    353 16.62                             106    0.12 4  394 209 
 PRA  HZ I         353 21.94        16.4 0.32            101            394 209 
                                                                                
