 2010  624 0105 28.8 L   6.789 -73.101140.5  RSN  6 0.3 1.9LRSN                1
 GAP=185        0.57       4.0     6.1  4.9 -0.1031E+02 -0.5090E+01 -0.1512E+01E
 Epicentro: LOS SANTOS - SANTANDER                                             3
 ACTION:UP  10-08-24 10:12 OP:vdl  STATUS:               ID:20100624010528 L   I
 2010-06-24-0102-33S.COL___118                                                 6
 STAT SP IPHASW D HRMM SECON CODA AMPLIT PERI AZIMU VELO SNR AR TRES W  DIS CAZ7
 BAR2 SZ EP        1 5 47.57                             170    -0.210   24 203 
 BAR2 SZ ES   1    1 6  2.48                             170    -0.1 7   24 203 
 BRR  HZ EP        1 5 49.52                             149    -0.110   76 298 
 BRR  HE ES   1    1 6  6.23                             149     0.3 7   76 298 
 BRR  HZ I         1 6 11.00        16.9 0.14                            76 298 
 BRI  SZ EP        1 5 52.31                             140     0.210  108  18 
 BRI  SZ ES   1    1 6 10.37                             140     0.1 7  108  18 
 GUE  SZ EP        1 5 52.81                             138    -0.210  117  10 
 GUE  SZ ES   1    1 6 11.86                             138    -0.1 7  117  10 
 GRA  SZ EP        1 5 53.58                             136     0.110  126  15 
 GRA  SZ ES   2    1 6 13.02                             136     0.2 5  126  15 
 OCA  SZ EP        1 5 57.11                             128     0.3 9  162 351 
 OCA  SZ ES   2    1 6 17.91                             128    -0.8 5  162 351 
 OCA  SZ I         1 6 21.55         8.3 0.41                           162 351 
                                                                                
