 2012 1024 0411 56.6 L   6.750 -73.063144.9  RSN  4 0.2 1.5LRSN                1
 GAP=150        0.58       3.1     4.8  5.7 -0.8727E+00 -0.3552E+01  0.2159E+01E
 Epicentro: LOS SANTOS - SANTANDER                                             3
 ACTION:UPD 12-11-22 17:05 OP:ep   STATUS:               ID:20121024041156 L   I
 2012-10-24-0410-00M.COL___234                                                 6
 STAT SP IPHASW D HRMM SECON CODA AMPLIT PERI AZIMU VELO AIN AR TRES W  DIS CAZ7
 BAR2 SZ EP   2    412 15.89                             171   -0.23 5 21.9 217 
 BAR2 SZ ES   2    412 31.29                             171   -0.04 5 21.9 217 
 BAR2 SZ I         412 34.98        10.1 0.55                          21.9 217 
 PAM  SZ EP        412 18.69                             151   -0.0110 76.6  32 
 PAM  SZ I         412 18.98         5.5 0.23                          76.6  32 
 PAM  SN ES        412 35.94                             151    0.0210 76.6  32 
 BRR  HZ EP   1    412 18.88                             149    0.56 7 81.9 299 
 BRR  HN ES        412 35.07                             149   -0.1810 81.9 299 
 RUS  HZ EP        412 19.62                             145   -0.2610 94.8 181 
 RUS  HN ES        412 38.20                             145    0.1810 94.8 181 
 RUS  HN I         412 40.20         5.2 0.36                          94.8 181 
                                                                                
