 2011  924 0321 22.7 L   6.745 -73.168144.0  RSN  9 0.2 1.8LRSN                1
 GAP=179        0.45       2.5     3.8  3.3  0.3476E+01  0.1186E+01  0.1056E+01E
 Epicentro: VILLANUEVA - SANTANDER                                             3
 ACTION:UPD 12-07-13 15:59 OP:ep   STATUS:               ID:20110924032122 L   I
 2011-09-24-0320-00M.COL___167                                                 6
 STAT SP IPHASW D HRMM SECON CODA AMPLIT PERI AZIMU VELO AIN AR TRES W  DIS CAZ7
 BAR2 SZ EP        321 41.75                             173   -0.2310 16.9 185 
 BAR2 SZ ES        321 57.01                             173   -0.0310 16.9 185 
 BAR2 SZ I         321 58.48        20.5 0.09                          16.9 185 
 BTL  SZ EP        321 42.32                             171    0.2510 22.1 330 
 BRR  HZ EP        321 43.74                             152    0.0510 72.3 304 
 BRR  HE ES        322  0.18                             152    0.0910 72.3 304 
 BRR  HZ I         322  4.65        13.4 0.25                          72.3 304 
 RUS  HZ EP        321 45.87                             145    0.0410 94.7 174 
 RUS  HN ES   1    322  3.63                             145   -0.27 7 94.7 174 
 RUS  HZ I         322  6.32         8.2 0.40                          94.7 174 
 OCA  SZ EP   2    321 51.53                             128    0.13 5  166 354 
 OCA  SZ I         322 17.04         7.7 0.33                           166 354 
 ZAR  HN ES   2    322 20.07                             122   -0.18 4  204 294 
 ZAR  HZ I         322 25.90         7.1 0.39                           204 294 
 CHI  HZ EP   1    321 59.85                             117    0.29 6  242 195 
 CHI  HN ES   1    322 28.51                             117    0.17 6  242 195 
 CHI  HZ I         322 32.88         3.5 0.26                           242 195 
 HEL  HZ EP   2    322  2.20                             115   -0.17 4  268 257 
 HEL  HE ES   2    322 32.90                             115   -0.44 4  268 257 
 HEL  HZ I         322 42.45         4.7 0.52                           268 257 
 COD  HZ EP   2    322 10.81                             108   -0.85 3  354 355 
                                                                                
