 2012  224 0824 59.0 L   6.788 -73.160150.9  RSN  6 0.4 1.3LRSN                1
 GAP=182        0.72       5.0     6.2  6.6  0.6101E+01  0.6321E+01  0.1369E+02E
 ACTION:UP  12-03-07 16:33 OP:epov STATUS:               ID:20120224082459 L   I
 2012-02-24-0820-00M.COL___192                                                 6
 STAT SP IPHASW D HRMM SECON CODA AMPLIT PERI AZIMU VELO AIN AR TRES W  DIS CAZ7
 BAR2 SZ EP   1    825 19.11                             171   -0.10 7 21.7 186 
 BAR2 SZ ES   1    825 34.59                             171   -0.39 7 21.7 186 
 BAR2 SZ I         825 37.01         5.5 0.33                          21.7 186 
 GIR2 SZ EP   1    825 19.17                             167   -0.13 7 32.4 353 
 GIR2 SZ ES   1    825 35.00                             167   -0.15 7 32.4 353 
 BRR  HE ES   1    825 38.41                             154    0.85 7 70.5 300 
 RUS  HZ EP   1    825 23.27                             145    0.11 7 99.3 175 
 RUS  HN ES   1    825 42.11                             145    0.10 7 99.3 175 
 RUS  HZ I         825 42.63         2.0 0.30                          99.3 175 
 PTB  HZ EP   1    825 25.88                             133   -0.34 7  146 259 
 PTB  HN ES   1    825 47.08                             133   -0.38 7  146 259 
 CHI  HZ EP   1    825 37.24                             118    0.45 6  247 195 
 CHI  HN ES   1    826  6.37                             118    0.09 6  247 195 
 CHI  HZ I         826 14.29         1.3 0.47                           247 195 
                                                                                
