 2012  724 0329 52.7 L   6.714 -73.188148.0  RSN  4 0.4 1.5LRSN                1
 GAP=226        0.79       8.1     7.6  9.1  0.2170E+02  0.7758E+01 -0.1120E+02E
 Epicentro: VILLANUEVA - SANTANDER                                             3
 ACTION:UPD 12-08-14 11:45 OP:ep   STATUS:               ID:20120724032952 L   I
 2012-07-24-0330-00M.COL___215                                                 6
 STAT SP IPHASW D HRMM SECON CODA AMPLIT PERI AZIMU VELO AIN AR TRES W  DIS CAZ7
 BAR2 SZ EP        330 12.28                             175    -0.110   13 177 
 BAR2 SZ ES   2    330 26.91                             175    -0.9 5   13 177 
 BAR2 SZ I         330 30.93         4.9 0.56            176             13 177 
 BRR  HZ EP        330 14.09                             153     0.010   72 307 
 BRR  HZ I         330 14.49         7.4 0.30            155             72 307 
 BRR  HN ES   1    330 31.35                             153     0.5 7   72 307 
 RUS  HN ES   1    330 34.58                             147     0.4 7   92 173 
 PTB  HZ EP        330 19.32                             134     0.1 9  142 262 
 PTB  HN ES   1    330 39.73                             134    -0.3 7  142 262 
