 2012 1124 0805  7.7 L   6.779 -73.151138.6  RSN  6 0.4 1.4LRSN                1
 GAP=137        0.78       4.2     5.6  6.8 -0.2157E+01  0.1213E+02 -0.5632E+01E
 Epicentro: LOS SANTOS - SANTANDER                                             3
 ACTION:UPD 12-12-05 15:35 OP:}ep  STATUS:               ID:20121124080507 L   I
 2012-11-24-0800-00M.COL___233                                                 6
 STAT SP IPHASW D HRMM SECON CODA AMPLIT PERI AZIMU VELO AIN AR TRES W  DIS CAZ7
 BAR2 SZ EP   1    8 5 26.71                             171    0.26 7 20.9 189 
 BAR2 SZ ES   1    8 5 40.78                             171   -0.27 7 20.9 189 
 BAR2 SZ I         8 5 42.77         9.9 0.18                          20.9 189 
 GIR2 SZ EP   1    8 5 26.69                             166    0.07 7 33.5 352 
 GIR2 SZ ES   1    8 5 41.14                             166   -0.21 7 33.5 352 
 GIR2 SZ I         8 5 42.15         3.7 0.38                          33.5 352 
 PAM  SZ EP   1    8 5 29.55                             149    0.22 7 79.6  39 
 PAM  SE ES   1    8 5 46.29                             149    0.12 7 79.6  39 
 PAM  SZ I         8 5 48.34         4.6 0.50                          79.6  39 
 RUS  HZ EP   1    8 5 31.13                             143    0.52 7 98.3 176 
 RUS  HN ES   1    8 5 48.11                             143   -0.35 7 98.3 176 
 PTB  HZ EP   1    8 5 33.68                             130   -0.34 7  147 260 
 PTB  HN ES   1    8 5 54.91                             130    0.37 7  147 260 
 PTB  HZ I         8 5 57.08         3.8 0.10                           147 260 
 SML  HZ EP   1    8 5 43.12                             116   -1.05 6  246 336 
 SML  HN ES   1    8 6 13.04                             116    0.44 6  246 336 
                                                                                
