 2016  724 0313  9.5 L   6.774 -73.103139.9  RSN 17 0.5 2.4LRSN                1
 GAP=124        0.99       3.1     3.7  4.8 -0.8873E+00  0.4918E+01  0.3385E+01E
 Epicentro: LOS SANTOS - SANTANDER                                             3
 ACTION:UPD 17-03-29 16:54 OP:lp   STATUS:               ID:20160724031309 L   I
 OLDACT:UP  16-07-24 16:08 OP:ar   STATUS:               ID:20160724030759     3
 OLDACT:REG 16-07-24 13:50 OP:ar   STATUS:               ID:20160724030759     3
 2016-07-24-0307-59S.COL___337                                                 6
 STAT SP IPHASW D HRMM SECON CODA AMPLIT PERI AZIMU VELO AIN AR TRES W  DIS CAZ7
 BAR2 EZ EP        313 28.23                             171   -0.1210 21.9 203 
 BAR2 EZ ES        313 42.91                             171   -0.1810 21.9 203 
 BRR  HZ EP        313 30.15                             150   -0.1510 76.7 299 
 BRR  HN ES        313 47.07                             150    0.5110 76.7 299 
 BRR  HZ I         313 52.07        57.3 0.12            150           76.7 299 
 PAM  EZ IP     C  313 31.10                             150    0.0810 76.8  35 
 PAM  EE ES        313 47.92                             150    0.0910 76.8  35 
 PAM  EZ I         313 50.39        36.7 0.58            156           76.8  35 
 RUS  HZ EP        313 32.48                             143    0.0710 97.5 179 
 RUS  HN ES        313 50.39                             143    0.0810 97.5 179 
 RUS  HZ I         313 51.40        27.6 0.26            144           97.5 179 
 SPBC HZ EP        313 37.32                             127   -0.27 9  164 221 
 SPBC HN ES        313 59.49                             127   -0.04 9  164 221 
 SPBC HZ I         314  5.33        37.9 0.22            128            164 221 
 ZAR  HZ EP        313 41.59                             120   -0.51 8  209 292 
 ZAR  HN ES        314  6.96                             120   -0.59 8  209 292 
 ZAR  HZ I         314 12.95        50.5 0.30            122            209 292 
 NOR  HZ EP        313 46.03                             117    0.94 8  237 236 
 NOR  HE ES        314 12.90                             117    0.01 8  237 236 
 NOR  HZ I         314 14.03        20.7 0.16            118            237 236 
 CHI  HZ EP        313 47.25                             116    0.57 8  247 196 
 CHI  HN ES        314 15.22                             116   -0.49 8  247 196 
 CHI  HZ I         314 18.95         9.2 0.30            118            247 196 
 ROSC BZ EP   9    313 49.49                             115    2.22 0  253 212 
 ROSC BN ES        314 19.00                             116    0.02 8  253 212 
 ROSC BZ I         314 22.96        16.5 0.30            117            253 212 
 URE  HZ EP        313 51.07                             112    0.21 7  289 292 
 URE  HN ES   4    314 19.76                             112   -3.39 0  289 292 
 URE  HZ I         314 23.95        22.0 0.32            114            289 292 
 VIL  EZ EP        313 52.36                             111   -0.05 7  302 193 
 VIL  HN ES   4    314 27.83                             111    1.92 0  302 193 
 VIL  EZ I         314 29.99        16.0 0.34            113            302 193 
 GUY2CHZ EP        313 54.05                             111    0.99 7  303 236 
 GUY2CHE ES        314 27.35                             111    0.29 7  303 236 
 GUY2CHZ I         314 33.66        11.1 0.28                           303 236 
 PTGC HZ EP        313 51.52                             111   -1.04 7  304 159 
 PTGC HN ES   4    314 24.49                             111   -1.69 0  304 159 
 ELA  HZ EP   4    313 57.45                             109    1.18 0  331 230 
 ELA  HN ES   4    314 34.88                             109    2.10 0  331 230 
 ELA  HZ I         314 41.86         8.8 0.38            111            331 230 
 CBOC HZ EP        313 56.77                             109    0.22 7  337 253 
 CBOC HN ES        314 32.31                             109   -0.98 7  337 253 
 CBOC HZ I         314 35.89         6.3 0.64            110            337 253 
 PRA  HZ EP        314  2.80                             105    0.03 6  392 210 
 PRA  HN ES        314 44.70                             105    0.35 6  392 210 
 PRA  HZ I         314 50.05        15.8 0.36            107            392 210 
 SJC  HZ EP   4    314  3.19                             104   -2.23 0  414 327 
 SJC  HN ES   4    314 44.18                             104   -4.89 0  414 327 
 SJC  HZ I         314 45.27         5.6 0.44            107            414 327 
 MACC HZ EP   4    314 15.59                             101   -2.19 0  518 189 
 MACC HN ES   4    315  8.05                             101   -3.02 0  518 189 
                                                                                
