 2015  124 0345  1.8 L   6.802 -73.139149.3  RSN 21 0.5 2.6LRSN                1
 GAP= 71        1.08       2.6     2.9  5.4 -0.1270E+01  0.2689E+01  0.1814E+01E
 Epicentro: LOS SANTOS - SANTANDER                                             3
 ACTION:UPD 15-03-02 15:41 OP:nd   STATUS:               ID:20150124034501 L   I
 OLDACT:DUP 15-01-24 16:30 OP:carl STATUS:               ID:20150124033749d    3
 2015-01-24-0337-48M.COL___265                                                 6
 STAT SP IPHASW D HRMM SECON CODA AMPLIT PERI AZIMU VELO AIN AR TRES W  DIS CAZ7
 BAR2 EZ EP        345 21.83                             171    0.0110 23.7 192 
 BAR2 EZ I         345 39.43       106.6 0.18            169           23.7 192 
 BRR  HZ EP        345 23.68                             153    0.3610 71.7 298 
 BRR  HN ES        345 41.02                             153    0.8910 71.7 298 
 BRR  HZ I         345 42.66        37.7 0.10            153           71.7 298 
 PAM  SZ EP        345 24.47                             152    0.1610 76.7  39 
 PAM  SN ES        345 41.91                             152    0.0210 76.7  39 
 PAM  SZ I         345 44.14        57.3 0.62            151           76.7  39 
 RUS  HZ EP        345 25.52                             144   -0.3510  101 177 
 RUS  HN ES        345 44.66                             144   -0.0210  101 177 
 RUS  HZ I         345 45.90        49.4 0.24            142            101 177 
 PTB  HZ EP        345 28.53                             133   -0.55 9  149 259 
 PTB  HN ES        345 49.50                             133   -0.90 9  149 259 
 PTB  HZ I         345 52.92        30.2 0.36            131            149 259 
 TAM  HZ IP     D  345 29.90                             131    0.25 9  154 105 
 TAM  HZ I         345 50.72        21.6 0.36            129            154 105 
 TAM  HN ES        345 51.68                             131    0.27 9  154 105 
 OCA  HZ EP        345 30.60                             130    0.27 9  160 353 
 OCA  HN ES        345 52.30                             130   -0.31 9  160 353 
 OCA  HZ I         345 56.44        45.8 0.40            129            160 353 
 SPBC HZ IP     C  345 30.60                             130    0.01 9  164 219 
 SPBC HN ES        345 52.27                             130   -0.81 9  164 219 
 SPBC HZ I         345 55.40        97.8 0.24            128            164 219 
 ZAR  HZ EP        345 34.26                             123   -0.24 9  205 292 
 ZAR  HN ES        346  0.26                             123    0.23 9  205 292 
 ZAR  HZ I         346  5.85        35.7 0.30            122            205 292 
 NOR  HZ EP        345 37.88                             119    0.10 8  235 235 
 NOR  HN ES        346  6.26                             119    0.39 8  235 235 
 NOR  HZ I         346 12.16        35.6 0.14            118            235 235 
 SML  HZ EP        345 38.54                             118   -0.05 8  244 335 
 SML  HN ES        346  6.55                             118   -0.77 8  244 335 
 SML  HZ I         346 11.83        45.9 0.30            117            244 335 
 CHI  HZ EP        345 39.66                             118   -0.04 8  249 195 
 CHI  HN ES        346  8.88                             118   -0.42 8  249 195 
 CHI  HZ I         346 17.47        15.8 0.54            116            249 195 
 ROSC BZ EP   4    345 41.55                             117    1.41 0  253 211 
 ROSC BN ES   4    346 14.23                             117    4.15 0  253 211 
 ROSC BZ I         346 16.54        37.9 0.50            116            253 211 
 HEL  HZ EP        345 42.45                             115    0.21 8  273 256 
 HEL  HN ES        346 14.48                             115    0.66 8  273 256 
 HEL  HZ I         346 20.73        22.4 0.22            114            273 256 
 URE  HZ EP   4    345 41.79                             114   -1.28 0  284 292 
 URE  HN ES   4    346 12.46                             114   -2.83 0  284 292 
 URE  HZ I         346 28.27        15.3 0.14            113            284 292 
 GUY2CHZ EP        345 46.27                             113    0.65 7  302 235 
 GUY2CHE ES        346 20.09                             113    0.26 7  302 235 
 GUY2CHZ I         346 28.37        24.2 0.74                           302 235 
 RREF HZ EP   4    345 49.68                             111    1.54 0  323 229 
 RREF HN ES   4    346 26.86                             111    2.54 0  323 229 
 RREF HZ I         346 32.47        21.2 0.26            110            323 229 
 TOL  SZ EP        345 51.11                             110    0.87 7  344 225 
 TOL  SN ES        346 28.30                             110    0.24 7  344 225 
 TOL  SZ I         346 33.85        14.3 0.28            109            344 225 
 ANIL HZ EP   4    345 53.36                             109    1.58 0  358 225 
 ANIL HN ES   4    346 32.46                             109    1.66 0  358 225 
 ANIL HZ I         346 35.49         4.6 0.34            108            358 225 
 SDV  BZ EP        345 51.15                             109   -0.70 6  360  50 
 SDV  BN ES   4    346 28.60                             109   -2.31 0  360  50 
 SDV  BZ I         346 30.42         5.8 0.45            108            360  50 
 ORTC HZ EP        345 56.07                             107    0.19 6  396 216 
 ORTC HN ES        346 37.17                             107   -0.92 6  396 216 
 ORTC HZ I         346 44.92        15.2 0.70            106            396 216 
 PAL  HZ EP   4    345 57.32                             106    0.19 0  406 239 
 PAL  HN ES   4    346 36.94                             106   -3.38 0  406 239 
                                                                                
