 2015  524 0727 37.9 L   6.768 -73.148154.0  RSN  7 0.4 1.5LRSN                1
 GAP=182        0.84       3.5     6.1  6.9  0.5202E+01  0.9189E+00 -0.3894E+01E
 Epicentro: LOS SANTOS - SANTANDER                                             3
 ACTION:UPD 15-09-10 22:06 OP:cam  STATUS:               ID:20150524072737 L   I
 OLDACT:DUP 15-05-24 17:41 OP:spq  STATUS:               ID:20150524071736d    3
 OLDACT:REG 15-05-24 12:35 OP:spq  STATUS:               ID:20150524071735     3
 2015-05-24-0717-35M.COL___291                                                 6
 STAT SP IPHASW D HRMM SECON CODA AMPLIT PERI AZIMU VELO AIN AR TRES W  DIS CAZ7
 BAR2 EZ EP        727 58.19                             172   -0.2710 19.8 191 
 BAR2 EZ ES   1    728 13.97                             172   -0.52 7 19.8 191 
 BAR2 EZ I         728 16.53         4.3 0.26            172           19.8 191 
 BRR  HZ EP        728  0.16                             153    0.1310 72.8 301 
 BRR  HE ES        728 17.88                             153    0.5910 72.8 301 
 BRR  HZ I         728 20.07         3.0 0.46            151           72.8 301 
 RUS  HZ EP   1    728  2.54                             146    0.32 7 97.0 176 
 RUS  HE ES   1    728 20.96                             146   -0.24 7 97.0 176 
 RUS  HZ I         728 21.71         2.4 0.22            149           97.0 176 
 SPBC HZ EP   1    728  7.41                             131    0.64 7  160 220 
 SPBC HE ES   1    728 29.24                             131   -0.06 7  160 220 
 SPBC HZ I         728 31.61         4.3 0.14            132            160 220 
 OCA  HN ES        728 30.16                             131    0.13 9  164 353 
 OCA  HZ I         728 32.46         5.9 0.18            132            164 353 
 ZAR  HN ES        728 36.35                             124   -0.49 8  205 293 
 ZAR  HZ I         728 41.73         3.6 0.34            124            205 293 
 SML  HZ EP        728 15.00                             119   -0.34 8  247 336 
 SML  HE ES   1    728 44.46                             119   -0.08 6  247 336 
 SML  HZ I         728 48.16         2.9 0.10            120            247 336 
                                                                                
