 2017 1124 0638 31.5 L   6.798 -73.103146.2  RSN  8 0.4 1.4LRSN                1
 GAP=142        0.99       3.4     4.2  8.0 -0.4139E+01  0.1186E+02  0.1459E-01E
 Epicentro: LOS SANTOS - SANTANDER                                             3
 ACTION:UPD 17-12-12 19:59 OP:rebc STATUS:               ID:20171124063831 L   I
 OLDACT:REG 17-11-24 13:08 OP:osc  STATUS:               ID:20171124063738     3
 2017-11-24-0638-00M.COL___483                                                 6
 STAT SP IPHASW D HRMM SECON CODA AMPLIT PERI AZIMU VELO AIN AR TRES W  DIS CAZ7
 PAM  EZ EP        638 54.13                             152    0.5810 74.6  37 
 PAM  EE ES        639 11.14                             152    0.3610 74.6  37 
 PAM  EZ I         639 12.99         6.0 0.56            154           74.6  37 
 RUS  HZ EP        638 55.21                             144   -0.0010  100 179 
 RUS  HN ES        639 13.62                             144   -0.1210  100 179 
 RUS  HZ I         639 15.06         1.7 0.24            145            100 179 
 PTB  HZ EP        638 58.20                             131   -0.67 9  152 259 
 PTB  HE ES        639 20.26                             131    0.00 9  152 259 
 PTB  HZ I         639 21.27         2.8 0.34            133            152 259 
 OCA  HZ EP        638 59.51                             129   -0.36 9  161 351 
 OCA  HE ES        639 21.68                             129   -0.36 9  161 351 
 SPBC HZ EP        639  0.29                             129    0.04 9  166 220 
 SPBC HN ES        639 22.11                             129   -0.61 9  166 220 
 SPBC HZ I         639 24.84         3.7 0.10            130            166 220 
 ZAR  HN ES        639 30.12                             122    0.05 8  209 292 
 HEL  HN ES        639 44.59                             114    0.63 7  277 256 
 GUY2CHZ EP        639 15.71                             112    0.21 7  305 235 
 GUY2CHE ES        639 50.54                             112    0.68 7  305 235 
 GUY2CHZ I         639 58.47         1.3 0.36                           305 235 
 PTGC HN ES   4    639 47.66                             112   -1.51 0  307 159 
                                                                                
