 2016  924 0418 24.2 L   6.740 -73.201146.0  RSN  7 0.4 1.2LRSN                1
 GAP=226        0.89       7.1     5.9  5.9  0.2944E+01  0.9990E+01  0.2371E+01E
 Epicentro: VILLANUEVA - SANTANDER                                             3
 ACTION:UPD 17-08-17 21:15 OP:lp   STATUS:               ID:20160924041824 L   I
 OLDACT:UP  16-09-24 20:36 OP:edw  STATUS:               ID:20160924041743     3
 OLDACT:UP  16-09-24 20:33 OP:edw  STATUS:               ID:20160924041743     3
 OLDACT:REG 16-09-24 12:35 OP:y    STATUS:               ID:20160924041743     3
 2016-09-24-0418-00M.COL___330                                                 6
 STAT SP IPHASW D HRMM SECON CODA AMPLIT PERI AZIMU VELO AIN AR TRES W  DIS CAZ7
 BAR2 EZ ES        418 58.84                             173   -0.1310 16.4 173 
 BAR2 EZ I         419  2.00         7.8 0.22            176           16.4 173 
 BRR  HZ EP   9    418 45.26                             153   -0.01 0 69.6 306 
 BRR  HN ES        419  2.19                             153    0.4810 69.6 306 
 BRR  HZ I         419  5.35         2.6 0.29            145           69.6 306 
 RUS  HZ EP        418 47.75                             146    0.2110 94.6 172 
 RUS  HE ES        419  5.60                             146   -0.1510 94.6 172 
 RUS  HZ I         419  7.07         1.0 0.17            149           94.6 172 
 PTB  HZ EP   2    418 50.81                             134    0.28 5  141 261 
 PTB  HZ I         419  6.45         5.4 0.24            129            141 261 
 SPBC HZ EP        418 52.48                             131    0.62 9  154 219 
 SPBC HN ES        419 13.70                             131    0.26 9  154 219 
 SPBC HZ I         419 19.65         1.6 0.11            130            154 219 
 ZAR  HZ EP   2    418 56.06                             123   -0.29 4  201 295 
 ZAR  HN ES   2    419 21.42                             123   -0.01 4  201 295 
 ZAR  HZ I         419 27.35         1.3 0.23            118            201 295 
 NOR  HZ EP        418 58.22                             120   -0.77 8  226 235 
 NOR  HE ES        419 25.88                             120   -0.25 8  226 235 
                                                                                
