 2015  824 0021 48.2 L   6.779 -73.126150.8  RSN  6 0.4 1.6LRSN                1
 GAP=202        0.89       4.8     7.6  9.5  0.1393E+02  0.9775E+01 -0.5857E+01E
 Epicentro: LOS SANTOS - SANTANDER                                             3
 ACTION:UPD 15-09-15 23:04 OP:cam  STATUS:               ID:20150824002148 L   I
 OLDACT:REG 15-08-24 12:22 OP:spq  STATUS:               ID:20150824001749     3
 2015-08-24-0017-49M.COL___340                                                 6
 STAT SP IPHASW D HRMM SECON CODA AMPLIT PERI AZIMU VELO AIN AR TRES W  DIS CAZ7
 BAR2 EZ ES   1    022 23.77                             172   -0.38 7 21.5 197 
 BAR2 EZ I         022 25.07         4.9 0.46            166           21.5 197 
 BRR  HZ EP        022 10.19                             153    0.1310 74.2 299 
 BRR  HN ES        022 27.71                             153    0.6010 74.2 299 
 BRR  HZ I         022 29.95         6.5 0.30            148           74.2 299 
 RUS  HZ EP   1    022 12.63                             146    0.36 7 98.1 177 
 RUS  HN ES   1    022 30.56                             146   -0.49 7 98.1 177 
 RUS  HZ I         022 34.32         2.4 0.34            143           98.1 177 
 SPBC HE ES        022 39.58                             130    0.04 9  163 220 
 SPBC HZ I         022 46.41         7.0 0.22            127            163 220 
 ZAR  HE ES        022 46.63                             123   -0.44 8  207 293 
 ZAR  HZ I         022 52.36         3.7 0.46            121            207 293 
 SML  HN ES   1    022 54.04                             118   -0.44 6  247 335 
 SML  HZ I         022 57.98         7.1 0.07            118            247 335 
                                                                                
