 2016  624 0208 39.9 L   6.795 -73.173140.0  RSN  8 0.5 1.6LRSN                1
 GAP=234        1.15       5.4     6.0  7.7  0.1897E+01  0.1289E+02  0.1037E+02E
 Epicentro: LOS SANTOS - SANTANDER                                             3
 ACTION:UPD 16-07-21 22:22 OP:rebc STATUS:               ID:20160624020839 L   I
 OLDACT:REG 16-06-24 12:49 OP:ak   STATUS:               ID:20160624015746     3
 2016-06-24-0157-46M.COL___331                                                 6
 STAT SP IPHASW D HRMM SECON CODA AMPLIT PERI AZIMU VELO AIN AR TRES W  DIS CAZ7
 BAR2 EZ EP        2 8 58.87                             170    0.0310 22.4 183 
 BAR2 EZ ES        2 9 13.68                             170    0.0810 22.4 183 
 BAR2 EZ I         2 9 16.22         8.1 0.25                          22.4 183 
 BRR  HZ IP     C  2 9  0.60                             152    0.2910 68.8 300 
 BRR  HN ES        2 9 16.66                             152    0.4410 68.8 300 
 BRR  HZ I         2 9 18.46         8.8 0.28                          68.8 300 
 RUS  HZ EP        2 9  3.00                             143   -0.0910  100 174 
 RUS  HN ES        2 9 20.77                             143   -0.3910  100 174 
 RUS  HZ I         2 9 22.76         2.9 0.24                           100 174 
 PTB  HZ EP        2 9  5.29                             131   -0.85 9  145 259 
 PTB  HN ES        2 9 26.07                             131   -0.52 9  145 259 
 PTB  HZ I         2 9 29.23         4.1 0.15                           145 259 
 SPBC HZ EP        2 9  7.71                             128   -0.05 9  161 218 
 SPBC HN ES        2 9 29.33                             128   -0.15 9  161 218 
 SPBC HZ I         2 9 36.22         6.5 0.23                           161 218 
 NOR  HZ EP        2 9 15.22                             118    0.20 8  232 234 
 NOR  HE ES        2 9 43.50                             118    1.10 8  232 234 
 NOR  HZ I         2 9 49.35         3.7 0.13                           232 234 
 CHI  HN ES        2 9 46.85                             116    0.64 8  247 195 
 GUY2CHZ EP   2    2 9 23.68                             111    0.73 4  298 235 
 GUY2CHN ES        2 9 55.86                             111   -0.66 7  298 235 
 GUY2CHZ I         210  6.95         1.7 0.38                           298 235 
                                                                                
