 2010  424 0526 22.7 L   6.787 -73.051151.7  RSN 14 0.4 2.2LRSN                1
 GAP=149        0.72       3.6     5.6  5.3 -0.1220E+02 -0.7246E+01  0.5400E+01E
 Epicentro: LOS SANTOS - SANTANDER                                             3
 ACTION:UPD 10-08-24 10:00 OP:vdl  STATUS:               ID:20100424052630 L   I
 2010-04-24-0522-04S.COL___104                                                 6
 STAT SP IPHASW D HRMM SECON CODA AMPLIT PERI AZIMU VELO AIN AR TRES W  DIS CAZ7
 BAR2 SZ IP        526 42.84                             170    -0.310   26 214 
 BAR2 SZ ES   1    526 58.74                             170    -0.3 7   26 214 
 BRR  HZ IP     D  526 45.29                             150     0.210   81 296 
 BRR  HE ES   1    527  2.70                             150     0.1 7   81 296 
 BRR  HZ I         527  4.95        18.4 0.27                            81 296 
 BRI  SZ IP        526 47.42                             143     0.410  107  15 
 GUE  SZ EP   1    526 47.85                             140    -0.1 7  116   7 
 GUE  SZ ES   2    527  7.90                             140     0.2 5  116   7 
 GRA  SZ IP        526 48.66                             138     0.210  124  13 
 GRA  SZ ES   1    527  8.16                             138    -0.3 7  124  13 
 OCA  SZ IP        526 51.37                             130    -0.4 9  163 350 
 OCA  SZ ES   1    527 14.67                             130     0.2 7  163 350 
 OCA  SZ I         527 18.38        33.2 0.24                           163 350 
 CHI  HZ EP   2    527  0.78                             118    -0.2 4  250 198 
 CHI  HE ES   2    527 30.56                             118    -0.2 4  250 198 
 CHI  HZ I         527 38.97         5.0 0.55                           250 198 
 ROSC BZ EP   2    527  3.04                             117     1.4 4  257 213 
 ROSC BE ES   2    527 33.02                             117     1.0 4  257 213 
 ROSC BZ I         527 40.58         9.8 0.48                           257 213 
 HEL  HZ EP   2    527  3.79                             115    -0.6 4  282 257 
 HEL  HN ES   3    527 37.74                             115     1.0 2  282 257 
 HEL  HZ I         527 41.69         4.3 0.38                           282 257 
 RREF BZ EP   2    527  9.60                             111    -0.4 3  329 231 
 RREF BN ES   2    527 46.40                             111    -0.4 3  329 231 
 RREF BZ I         527 51.32         8.3 0.26                           329 231 
 TOL  SZ EP   2    527 12.16                             110     0.2 3  350 226 
 DBB  SZ EP   2    527 10.99                             109    -0.7 3  350 274 
 SDV  BZ IP     D  527 12.22                             109     0.0 6  353  49 
 SDV  BZ I         527 13.01         4.2 0.29                           353  49 
 SDV  BE ES   2    527 50.78                             109     0.0 3  353  49 
 PRA  HZ EP   1    527 16.46                             107    -0.5 4  396 211 
 PRA  HE ES   2    527 59.34                             107     0.1 3  396 211 
 PRA  HZ I         528  4.63         7.3 0.67                           396 211 
                                                                                
