 2010  924 0438 40.5 L   6.822 -73.005142.3  RSN  4 0.1 1.3LRSN                1
 GAP=180        0.39       5.4     8.9  5.9  0.2694E+02 -0.1952E+02 -0.1653E+02E
 Epicentro: CEPITA - SANTANDER                                                 3
 ACTION:UP  11-02-18 11:05 OP:tino STATUS:               ID:20100924043840 L   I
 2010-09-24-0434-27S.COL___119                                                 6
 STAT SP IPHASW D HRMM SECON CODA AMPLIT PERI AZIMU VELO SNR AR TRES W  DIS CAZ7
 BAR2 SZ EP   1    439  0.13                             167     0.2 7   32 218 
 BAR2 SZ ES   1    439 14.95                             167    -0.1 7   32 218 
 BAR2 SZ I         439 15.82         5.5 0.30                            32 218 
 BRR  HZ IP        439  1.93                             148    -0.110   84 292 
 BRR  HZ I         439  2.27         7.2 0.18                            84 292 
 BRR  HE ES   2    439 19.07                             148     0.2 5   84 292 
 RUS  HZ EP   2    439  4.03                             142     0.0 5  103 185 
 RUS  HN ES   2    439 22.39                             142    -0.1 5  103 185 
 RUS  HZ I         439 23.43         1.1 0.13                           103 185 
 GUE  SZ EP   2    439  4.45                             140     0.0 5  112   5 
                                                                                
