 2013  924 0535 41.3 L   6.736 -73.074138.2  RSN  7 0.2 1.5LRSN                1
 GAP=277        0.51       3.3     4.8  5.1 -0.1109E+01  0.7517E+01  0.3228E+00E
 Epicentro: JORDAN - SANTANDER                                                 3
 ACTION:UPD 13-10-22 09:24 OP:ep   STATUS:               ID:20130924053541 L   I
 OLDACT:UP  13-09-24 11:38 OP:mh   STATUS:               ID:20130924052959     3
 OLDACT:REG 13-09-24 09:31 OP:mh   STATUS:               ID:20130924052959     3
 2013-09-24-0529-59M.COL___269                                                 6
 STAT SP IPHASW D HRMM SECON CODA AMPLIT PERI AZIMU VELO AIN AR TRES W  DIS CAZ7
 BAR2 SZ EP   1    536  0.23                             171    0.28 8 19.9 217 
 BAR2 SZ ES   1    536 14.70                             171    0.21 8 19.9 217 
 BAR2 SZ I         536 16.18        10.1 0.16            168           19.9 217 
 BRR  HZ EP   1    536  1.96                             148   -0.32 8 81.6 300 
 BRR  HN ES   1    536 18.34                             148   -0.30 8 81.6 300 
 BRR  HZ I         536 21.56         4.9 0.24            144           81.6 300 
 PTB  HZ EP   1    536  8.40                             129    0.12 8  154 262 
 PTB  HN ES   4    536 26.27                             129   -3.06 0  154 262 
 PTB  HZ I         536 30.94         4.1 0.16            127            154 262 
 SPBC HZ EP   1    536  9.24                             127    0.03 7  163 223 
 SPBC HN ES        536 30.82                             127   -0.1610  163 223 
 SPBC HZ I         536 40.60         2.0 0.54            127            163 223 
 ZAR  HZ EP   1    536 14.13                             119   -0.19 7  214 293 
 ZAR  HN ES   1    536 40.54                             119    0.46 7  214 293 
 ZAR  HZ I         536 44.36         4.6 0.30            118            214 293 
 NOR  HN ES   1    536 44.69                             117    0.06 7  237 237 
 SML  HZ EP   4    536 16.55                             115   -2.04 0  253 334 
 SML  HE ES   4    536 45.37                             115   -2.30 0  253 334 
 SML  HZ I         536 55.58         3.0 0.07            115            253 334 
                                                                                
