 2016  324 0050  5.9 L   6.842 -73.207132.0  RSN  6 0.3 1.9LRSN                1
 GAP=241        0.58       4.6     6.2 10.2  0.1843E+02  0.5248E+02  0.2424E+02E
 Epicentro: ZAPATOCA - SANTANDER                                               3
 ACTION:UPD 16-05-13 21:26 OP:cam  STATUS:               ID:20160324005005 L   I
 OLDACT:DUP 16-03-24 13:21 OP:ak   STATUS:               ID:20160324004746d    3
 OLDACT:UP  16-03-24 13:20 OP:ak   STATUS:               ID:20160324004745     3
 OLDACT:REG 16-03-24 12:17 OP:ak   STATUS:               ID:20160324004745     3
 2016-03-24-0047-45M.COL___308                                                 6
 STAT SP IPHASW D HRMM SECON CODA AMPLIT PERI AZIMU VELO AIN AR TRES W  DIS CAZ7
 BAR2 EZ ES        050 38.16                             167    0.0510 27.7 174 
 RUS  HN ES        050 46.65                             139    0.0810  106 173 
 PTB  HN ES        050 50.82                             130   -0.22 9  142 256 
 SPBC HZ EP   2    050 32.85                             125   -0.50 5  163 216 
 SPBC HN ES        050 54.54                             125   -0.21 9  163 216 
 SPBC HZ I         050 56.94         9.3 0.20            125            163 216 
 ZAR  HN ES        051  0.74                             120    0.10 9  196 292 
 GUY2CHN ES        051 22.43                             109    0.52 7  298 233 
                                                                                
