 2017  424 0244 24.5 L   6.778 -73.166151.5  RSN  5 0.3 1.6LRSN                1
 GAP=179        0.90       5.8     4.7  7.8 -0.1147E+02  0.5497E+01  0.2694E+01E
 Epicentro: LOS SANTOS - SANTANDER                                             3
 ACTION:UPD 17-05-30 21:15 OP:jn   STATUS:               ID:20170424024424 L   I
 OLDACT:DUP 17-04-24 13:44 OP:dani STATUS:               ID:20170424023741d    3
 OLDACT:REG 17-04-24 12:17 OP:dani STATUS:               ID:20170424023740     3
 2017-04-24-0238-00M.COL___365                                                 6
 STAT SP IPHASW D HRMM SECON CODA AMPLIT PERI AZIMU VELO AIN AR TRES W  DIS CAZ7
 BRR  HZ IP     D  244 46.64                             154    0.3910 70.5 301 
 BRR  HN ES        245  3.78                             154    0.5910 70.5 301 
 BRR  HZ I         245  6.63        11.4 0.12            150           70.5 301 
 PAM  EZ EP        244 47.53                             151   -0.0010 80.6  40 
 PAM  EN ES        245  5.09                             151   -0.3910 80.6  40 
 PAM  EZ I         245  7.48         4.0 0.64            152           80.6  40 
 PTB  HZ EP        244 51.57                             134   -0.15 9  145 260 
 PTB  HN ES        245 12.40                             134   -0.54 9  145 260 
 PTB  HZ I         245 17.35         3.6 0.34            134            145 260 
 SPBC HE ES        245 15.63                             131    0.14 9  160 219 
 ZAR  HZ EP        244 57.33                             124    0.10 9  203 293 
 ZAR  HN ES        245 22.52                             124   -0.22 9  203 293 
 ZAR  HZ I         245 29.02         6.9 0.48            124            203 293 
                                                                                
