 2012  624 0437 17.3 L   6.705 -73.169149.9  RSN  4 0.3 1.2LRSN                1
 GAP=138        0.40       6.6     9.9  7.5  0.4062E+02 -0.2470E+02 -0.1630E+02E
 Epicentro: VILLANUEVA - SANTANDER                                             3
 ACTION:UPD 12-08-06 17:51 OP:ep   STATUS:               ID:20120624043717 L   I
 2012-06-24-0430-00M.COL___199                                                 6
 STAT SP IPHASW D HRMM SECON CODA AMPLIT PERI AZIMU VELO AIN AR TRES W  DIS CAZ7
 BRR  HZ EP        437 39.25                             152    0.1510 74.7 307 
 BRR  HZ I         437 40.57         2.8 0.12                          74.7 307 
 BRR  HN ES   1    437 55.96                             152   -0.13 7 74.7 307 
 PAM  SZ EP   3    437 40.03                             148   -0.53 2 87.3  36 
 RUS  HN ES   2    437 59.04                             147   -0.02 5 90.3 174 
 PTB  HZ EP   3    437 43.68                             133   -0.55 2  144 263 
 PTB  HN ES   3    438  5.04                             133   -0.20 2  144 263 
 PTB  HZ I         438 11.02         2.0 0.44                           144 263 
                                                                                
