 2017  124 0637  9.2 L   6.769 -73.163141.5  RSN  8 0.4 1.4LRSN                1
 GAP=136        0.96       3.8     4.2  6.4  0.1449E+01  0.7272E+01  0.1757E+01E
 Epicentro: LOS SANTOS - SANTANDER                                             3
 ACTION:UPD 17-05-22 16:02 OP:jn   STATUS:               ID:20170124063709 L   I
 OLDACT:DUP 17-01-24 16:33 OP:lv   STATUS:               ID:20170124062741d    3
 2017-01-24-0628-00M.COL___342                                                 6
 STAT SP IPHASW D HRMM SECON CODA AMPLIT PERI AZIMU VELO AIN AR TRES W  DIS CAZ7
 BAR2 EZ EP        637 28.04                             172   -0.2210 19.6 186 
 BAR2 EZ ES        637 43.19                             172    0.0710 19.6 186 
 BAR2 EZ I         637 44.34         9.9 0.27            170           19.6 186 
 BRR  HZ IP     C  637 30.12                             152    0.2110 71.2 302 
 BRR  HN ES        637 46.44                             152    0.3910 71.2 302 
 BRR  HZ I         637 48.19         5.7 0.14            151           71.2 302 
 PAM  EZ EP        637 31.30                             149    0.0710 81.3  39 
 PAM  EN ES        637 48.26                             149   -0.1310 81.3  39 
 PAM  EZ I         637 49.79         5.8 0.17            151           81.3  39 
 RUS  HZ EP        637 32.24                             144   -0.0710 97.3 175 
 RUS  HN ES        637 50.17                             144   -0.1510 97.3 175 
 RUS  HZ I         637 51.59         3.3 0.24            144           97.3 175 
 PTB  HZ EP        637 35.07                             131   -0.54 9  145 260 
 PTB  HN ES        637 55.44                             131   -0.75 9  145 260 
 PTB  HZ I         637 57.79         3.7 0.23            131            145 260 
 ZAR  HZ EP        637 41.51                             121    0.17 9  204 293 
 ZAR  HN ES        638  6.83                             121    0.44 9  204 293 
 ZAR  HZ I         638 13.07         3.7 0.21            121            204 293 
 CHI  HN ES        638 15.96                             117    0.81 8  245 195 
 CHI  HZ I         638 21.56         0.8 0.13            117            245 195 
 URE  HZ EP   4    637 53.94                             113    3.91 0  283 293 
 URE  HN ES   4    638 19.82                             113   -2.04 0  283 293 
 URE  HZ I         638 22.36         2.2 0.14            113            283 293 
                                                                                
