 2013 1024 0859 23.4 L   6.794 -73.160143.7  RSN  9 0.4 1.7LRSN                1
 GAP=135        0.99       3.0     4.2  5.9 -0.3729E+00  0.5456E+01  0.2780E+01E
 Epicentro: LOS SANTOS - SANTANDER                                             3
 ACTION:UPD 13-11-25 09:23 OP:ep   STATUS:               ID:20131024085923 L   I
 OLDACT:REG 13-10-24 08:34 OP:carl STATUS:               ID:20131024085839     3
 2013-10-24-0858-39M.COL___223                                                 6
 STAT SP IPHASW D HRMM SECON CODA AMPLIT PERI AZIMU VELO AIN AR TRES W  DIS CAZ7
 BAR2 SZ EP        859 42.80                             171    0.0210 22.4 186 
 BAR2 SZ ES        859 57.62                             171   -0.2710 22.4 186 
 BAR2 SZ I         859 59.22        18.0 0.28            170           22.4 186 
 BRR  HZ EP        859 44.66                             152    0.3810 70.2 300 
 BRR  HN ES        9 0  1.51                             152    0.9510 70.2 300 
 BRR  HZ I         9 0  5.64         8.7 0.30            152           70.2 300 
 PAM  SZ EP        859 45.82                             150    0.3110 78.9  40 
 PAM  SN ES        9 0  2.40                             150   -0.3410 78.9  40 
 RUS  HZ EP        859 46.78                             144   -0.1410100.0 175 
 RUS  HN ES        9 0  5.26                             144    0.0010100.0 175 
 RUS  HZ I         9 0  6.74         4.2 0.28            145          100.0 175 
 PTB  HZ EP        859 49.58                             132   -0.48 9  146 259 
 PTB  HN ES        9 0 10.16                             132   -0.69 9  146 259 
 PTB  HZ I         9 0 14.68         5.3 0.18            132            146 259 
 OCA  HN ES        9 0 13.30                             129   -0.31 9  161 354 
 OCA  HN I         9 0 19.46        19.6 0.28            131            161 354 
 SPBC HZ EP        859 51.78                             129    0.17 9  162 219 
 SPBC HN ES        9 0 13.52                             129   -0.08 9  162 219 
 SPBC HZ I         9 0 19.89         6.7 0.24            130            162 219 
 ZAR  HZ EP        859 55.34                             122   -0.26 9  203 292 
 ZAR  HN ES        9 0 20.96                             122    0.25 9  203 292 
 CHI  HZ EP        9 0  1.12                             117    0.24 8  248 195 
 CHI  HN ES        9 0 30.37                             117    0.27 8  248 195 
 CHI  HZ I         9 0 36.46         2.4 0.38            118            248 195 
                                                                                
