 2011  724 0425 19.9 L   6.773 -73.132146.7  RSN  5 0.4 1.7LRSN                1
 GAP=157        0.72       4.0     8.6  9.9  0.3546E+01 -0.2822E+02 -0.9489E+01E
 Epicentro: LOS SANTOS - SANTANDER                                             3
 ACTION:UPD 12-07-25 14:02 OP:epov STATUS:               ID:20110724042519 L   I
 2011-07-24-0421-02S.COL___143                                                 6
 STAT SP IPHASW D HRMM SECON CODA AMPLIT PERI AZIMU VELO AIN AR TRES W  DIS CAZ7
 BRR  HZ EP   1    425 41.35                             152    0.10 7 74.0 300 
 BRR  HN ES   1    425 57.47                             152   -0.48 7 74.0 300 
 BRR  HZ I         426  1.43        13.2 0.13                          74.0 300 
 RUS  HZ EP   1    425 43.58                             145    0.11 7 97.5 177 
 RUS  HN ES   1    426  1.98                             145    0.08 7 97.5 177 
 RUS  HZ I         426  3.85         4.2 0.11                          97.5 177 
 BRI  SZ EP   1    425 43.83                             141   -0.17 7  111  20 
 BRI  SZ I         426  6.27         5.4 0.34                           111  20 
 OCA  SZ EP   1    425 48.07                             129   -0.45 7  163 353 
 OCA  SZ ES   1    426 11.66                             129    0.77 7  163 353 
 OCA  SZ I         426 14.29        11.1 0.12                           163 353 
 NOR  SE ES   2    426 23.79                             119    0.33 4  234 235 
                                                                                
