 2011 1224 0846 25.4 L   6.729 -73.163145.1  RSN  5 0.1 1.4LRSN                1
 GAP=179        0.40       3.6     3.6  4.0  0.4477E+01  0.3458E-01 -0.1900E+01E
 Epicentro: VILLANUEVA - SANTANDER                                             3
 ACTION:UPD 12-07-13 16:18 OP:ep   STATUS:               ID:20111224084625 L   I
 2011-12-24-0840-00M.COL___189                                                 6
 STAT SP IPHASW D HRMM SECON CODA AMPLIT PERI AZIMU VELO AIN AR TRES W  DIS CAZ7
 BAR2 SZ EP        846 44.76                             174   -0.0310 15.3 188 
 BAR2 SZ ES   1    846 59.70                             174   -0.23 7 15.3 188 
 BAR2 SZ I         847  1.11         7.3 0.39                          15.3 188 
 GIR2 SZ EP   1    846 45.06                             164   -0.14 7 38.8 355 
 BRR  HZ EP        846 46.77                             152    0.1810 73.7 305 
 BRR  HN ES        847  3.22                             152    0.0710 73.7 305 
 BRR  HZ I         847  7.11         4.1 0.20                          73.7 305 
 RUS  HE ES   1    847  6.76                             146    0.18 7 92.9 175 
 RUS  HZ I         847  9.18         3.7 0.41                          92.9 175 
 PTB  HZ EP   1    846 51.84                             132   -0.16 7  145 262 
 PTB  HN ES   1    847 12.69                             132   -0.07 7  145 262 
                                                                                
