 2015  224 0724 59.8 L   6.810 -73.143146.2  RSN 20 0.5 2.4LRSN                1
 GAP= 71        0.97       2.9     2.9  4.9 -0.1638E+01  0.3641E+01  0.3787E+01E
 Epicentro: LOS SANTOS - SANTANDER                                             3
 ACTION:UPD 15-04-30 21:29 OP:nd   STATUS:               ID:20150224072459 L   I
 OLDACT:UP  15-02-24 18:57 OP:mher STATUS:               ID:20150224071747     3
 OLDACT:UP  15-02-24 18:57 OP:mher STATUS:               ID:20150224071747     3
 OLDACT:UP  15-02-24 18:56 OP:mher STATUS:               ID:20150224071747     3
 OLDACT:UP  15-02-24 18:56 OP:mher STATUS:               ID:20150224071747     3
 OLDACT:REG 15-02-24 13:33 OP:mh   STATUS:               ID:20150224071747     3
 2015-02-24-0717-47M.COL___278                                                 6
 STAT SP IPHASW D HRMM SECON CODA AMPLIT PERI AZIMU VELO AIN AR TRES W  DIS CAZ7
 BAR2 EZ IP     D  725 19.67                             170    0.1610 24.4 190 
 BAR2 EZ ES   1    725 34.18                             170   -0.70 7 24.4 190 
 BAR2 EZ I         725 37.43        46.8 0.06            168           24.4 190 
 BRR  HZ EP        725 21.53                             153    0.5410 71.0 298 
 BRR  HN ES        725 38.28                             153    0.7710 71.0 298 
 PAM  SZ EP        725 22.38                             151    0.3710 76.4  40 
 PAM  SN ES        725 39.45                             151    0.1310 76.4  40 
 PAM  SZ I         725 41.71        42.9 0.52            156           76.4  40 
 RUS  HZ EP     D  725 23.52                             144   -0.1610  102 176 
 RUS  HN ES   1    725 42.23                             144   -0.06 7  102 176 
 RUS  HZ I         725 44.98        18.3 0.46            146            102 176 
 PTB  HZ EP        725 26.22                             132   -0.64 9  148 258 
 PTB  HN ES        725 47.59                             132   -0.36 9  148 258 
 PTB  HZ I         725 54.90        61.1 0.30            131            148 258 
 TAM  HZ EP        725 27.87                             131    0.35 9  155 105 
 TAM  HN ES        725 48.55                             131   -0.58 9  155 105 
 SPBC HZ EP   1    725 28.61                             129    0.17 7  164 219 
 SPBC HE ES   1    725 50.57                             129   -0.20 7  164 219 
 SPBC HZ I         725 58.26        45.6 0.15            129            164 219 
 NOR  HZ EP        725 35.23                             118   -0.43 8  236 234 
 NOR  HN ES        726  3.55                             118   -0.07 8  236 234 
 NOR  HZ I         726  9.00        32.2 0.32            119            236 234 
 SML  HZ EP        725 35.98                             118   -0.39 8  243 335 
 SML  HN ES        726  4.31                             118   -0.57 8  243 335 
 SML  HZ I         726 11.85        38.6 0.26            119            243 335 
 CHI  HZ EP        725 37.49                             117   -0.16 8  250 195 
 CHI  HN ES        726  7.24                             117    0.07 8  250 195 
 CHI  HZ I         726 17.14        11.0 0.32            119            250 195 
 ROSC BZ EP   4    725 38.25                             117    0.18 0  254 211 
 ROSC BN ES   4    726 10.17                             117    2.26 0  254 211 
 URE  HZ EP   4    725 39.22                             114   -1.67 0  284 292 
 URE  HN ES   4    726 10.40                             114   -2.53 0  284 292 
 URE  HZ I         726 23.29        21.9 0.30            114            284 292 
 GUY2CHZ EP        725 44.50                             112    0.96 7  302 235 
 GUY2CHN ES   4    726 20.36                             112    2.72 0  302 235 
 PTGC HZ EP   4    725 42.50                             112   -1.29 0  310 159 
 PTGC HN ES   4    726 15.98                             112   -2.11 0  310 159 
 PTGC HZ I         726 16.71        17.5 0.62            114            310 159 
 CBOC HZ EP   1    725 46.86                             110    0.05 5  334 252 
 CBOC HN ES        726 23.37                             110   -0.10 7  334 252 
 CBOC HZ I         726 31.79         6.2 0.64            111            334 252 
 TOL  SZ EP        725 49.15                             109    0.95 7  344 225 
 TOL  SN ES        726 26.32                             109    0.39 7  344 225 
 TOL  SZ I         726 31.07        13.3 0.25            110            344 225 
 MON  HZ EP   4    725 46.77                             109   -2.01 0  353 308 
 MON  HN ES   4    726 25.54                             109   -1.43 0  353 308 
 MON  HZ I         726 42.07         6.2 0.32            109            353 308 
 ANIL HZ EP        725 49.42                             108   -0.32 6  358 224 
 ANIL HN ES        726 28.50                             108   -0.19 6  358 224 
 ANIL HZ I         726 35.45         3.2 0.44            110            358 224 
 PRA  HZ EP        725 53.27                             106   -0.20 6  393 210 
 PRA  HN ES        726 35.16                             106   -0.17 6  393 210 
 PRA  HZ I         726 39.79        12.2 0.30            108            393 210 
 ORTC HZ EP        725 53.67                             106   -0.20 6  396 216 
 ORTC HN ES        726 36.87                             106    0.84 6  396 216 
 ORTC HZ I         726 42.74         7.4 0.30            108            396 216 
 PAL  HZ EP        725 55.01                             106   -0.07 6  406 239 
 PAL  HN ES        726 37.56                             106   -0.63 6  406 239 
 PAL  HZ I         726 42.82         5.2 0.36            107            406 239 
                                                                                
