 2013  824 0122 29.9 L   6.233 -73.702108.4  RSN  4 0.1 1.2LRSN                1
 GAP=173        0.30       1.8     1.4  3.0  0.1041E+01  0.1052E+01  0.8406E+00E
 Epicentro: LANDAZURI - SANTANDER                                              3
 ACTION:UPD 14-01-14 09:06 OP:ep   STATUS:               ID:20130824012229 L   I
 OLDACT:REG 13-08-24 07:24 OP:nd   STATUS:               ID:20130824011959     3
 2013-08-24-0119-59M.COL___269                                                 6
 STAT SP IPHASW D HRMM SECON CODA AMPLIT PERI AZIMU VELO AIN AR TRES W  DIS CAZ7
 BAR2 SZ EP        122 47.50                             145    0.0810 69.8  55 
 BAR2 SZ ES        123  1.14                             145    0.0710 69.8  55 
 BAR2 SZ I         123  2.41        12.7 0.30            145           69.8  55 
 RUS  HZ EP        122 48.30                             142   -0.0810 78.2 119 
 RUS  HN ES        123  2.77                             142   -0.0210 78.2 119 
 RUS  HZ I         123  3.68         1.1 0.32            145           78.2 119 
 PTB  HZ EP     D  122 48.69                             137    0.0310 90.0 292 
 PTB  HN ES        123  3.30                             137    0.0210 90.0 292 
 PTB  HZ I         123  4.13         3.3 0.30            139           90.0 292 
 BRR  HZ EP        122 49.20                             135    0.0010 96.6 359 
 BRR  HN ES        123  4.14                             135   -0.0910 96.6 359 
 BRR  HZ I         123  8.00         4.9 0.22            135           96.6 359 
                                                                                
