 2016  824 0426 54.8 L   6.780 -73.182146.3  RSN  6 0.4 1.3LRSN                1
 GAP=232        0.93       4.7     5.9  7.0  0.4896E+01  0.3229E+01  0.8435E+01E
 Epicentro: LOS SANTOS - SANTANDER                                             3
 ACTION:UPD 16-10-29 15:38 OP:rebc STATUS:               ID:20160824042654 L   I
 OLDACT:UP  16-08-24 20:04 OP:ak   STATUS:               ID:20160824041734d    3
 OLDACT:DUP 16-08-24 20:02 OP:ak   STATUS:               ID:20160824041734d    3
 OLDACT:UP  16-08-24 20:00 OP:ak   STATUS:               ID:20160824041732     3
 OLDACT:REG 16-08-24 12:27 OP:ak   STATUS:               ID:20160824041732     3
 2016-08-24-0418-00M.COL___377                                                 6
 STAT SP IPHASW D HRMM SECON CODA AMPLIT PERI AZIMU VELO AIN AR TRES W  DIS CAZ7
 BAR2 EZ EP        427 14.49                             171    0.0710 20.7 180 
 BAR2 EZ ES        427 29.15                             171   -0.5910 20.7 180 
 BRR  HZ EP        427 15.74                             153   -0.1110 68.9 302 
 BRR  HN ES        427 32.96                             153    0.6710 68.9 302 
 RUS  HZ EP        427 18.40                             144   -0.0410 98.7 174 
 RUS  HN ES        427 37.01                             144    0.1010 98.7 174 
 RUS  HZ I         427 37.87         2.4 0.24                          98.7 174 
 PTB  HZ EP   2    427 21.00                             133   -0.39 5  143 259 
 PTB  HN ES        427 41.55                             133   -0.61 9  143 259 
 PTB  HZ I         427 43.88         2.2 0.19                           143 259 
 SPBC HZ EP        427 23.14                             130    0.23 9  159 218 
 SPBC HN ES        427 45.27                             130    0.41 9  159 218 
 SPBC HZ I         427 49.79         4.0 0.09                           159 218 
 CHI  HZ EP   2    427 31.65                             117   -0.50 4  245 194 
 CHI  HN ES        428  1.43                             117    0.12 8  245 194 
 CHI  HZ I         428  4.96         1.6 0.47                           245 194 
                                                                                
