 2016 1024 0131 49.2 L   6.797 -73.121142.8  RSN 11 0.3 1.9LRSN                1
 GAP=140        0.79       2.4     3.4  4.3 -0.2748E+01  0.3092E+01  0.1476E+01E
 Epicentro: LOS SANTOS - SANTANDER                                             3
 ACTION:UPD 16-11-09 19:22 OP:rebc STATUS:               ID:20161024013149 L   I
 OLDACT:REG 16-10-24 13:29 OP:cara STATUS:               ID:20161024012746     3
 2016-10-24-0128-00M.COL___359                                                 6
 STAT SP IPHASW D HRMM SECON CODA AMPLIT PERI AZIMU VELO AIN AR TRES W  DIS CAZ7
 BAR2 EZ IP     C  132  8.46                             170   -0.0410 23.7 197 
 BAR2 EZ ES        132 23.66                             170    0.1210 23.7 197 
 BAR2 EZ I         132 26.01        24.6 0.42            169           23.7 197 
 BRR  HZ EP        132 10.47                             151    0.2710 73.7 298 
 BRR  HN ES        132 26.57                             151    0.0110 73.7 298 
 BRR  HZ I         132 29.69        12.5 0.42            152           73.7 298 
 PAM  EZ EP        132 11.26                             151    0.2310 75.9  38 
 PAM  EN ES        132 28.14                             151    0.0910 75.9  38 
 PAM  EZ I         132 30.74         8.6 0.56            154           75.9  38 
 RUS  HZ EP        132 12.36                             143   -0.2910  100 178 
 RUS  HE ES        132 30.61                             143   -0.3110  100 178 
 RUS  HZ I         132 32.21         5.4 0.28            144            100 178 
 PTB  HZ EP        132 15.60                             131   -0.59 9  150 259 
 PTB  HE ES        132 37.36                             131    0.14 9  150 259 
 PTB  HZ I         132 40.42         8.7 0.14            132            150 259 
 OCA  HZ EP        132 17.28                             129   -0.08 9  161 352 
 OCA  HN ES        132 39.24                             129   -0.07 9  161 352 
 OCA  HZ I         132 42.41        19.2 0.52            131            161 352 
 SPBC HZ EP        132 17.48                             128   -0.16 9  165 220 
 SPBC HN ES        132 39.86                             128    0.06 9  165 220 
 SPBC HZ I         132 44.21        11.6 0.36            129            165 220 
 NOR  HZ EP        132 25.13                             118    0.13 8  237 235 
 NOR  HN ES        132 52.24                             118   -0.67 8  237 235 
 NOR  HZ I         132 56.13         7.3 0.14            119            237 235 
 CHI  HZ EP        132 26.64                             116   -0.17 8  249 196 
 CHI  HN ES        132 56.83                             116    0.71 8  249 196 
 CHI  HZ I         133  1.77         2.8 0.32            118            249 196 
 ROSC BZ EP   4    132 28.90                             116    1.59 0  254 212 
 ROSC BN ES   4    132 59.42                             116    2.40 0  254 212 
 ROSC BZ I         133  4.38         6.0 0.25            117            254 212 
 GUY2CHZ EP        132 33.50                             112    0.57 7  303 235 
 GUY2CHE ES        133  7.54                             112    0.52 7  303 235 
 GUY2CHZ I         133 15.10         5.3 0.38                           303 235 
                                                                                
