 2012  924 0040 13.7 L   6.762 -73.151144.6  RSN  7 0.4 1.6LRSN                1
 GAP=138        0.74       4.9     4.8  7.2  0.3958E+01  0.8912E+01  0.4251E+01E
 Epicentro: LOS SANTOS - SANTANDER                                             3
 ACTION:UPD 12-10-22 14:20 OP:ep   STATUS:               ID:20120924004013 L   I
 2012-09-24-0040-00M.COL___221                                                 6
 STAT SP IPHASW D HRMM SECON CODA AMPLIT PERI AZIMU VELO AIN AR TRES W  DIS CAZ7
 BAR2 SZ EP   1    040 33.06                             172   -0.06 7 19.1 191 
 BAR2 SZ ES   1    040 48.14                             172   -0.12 7 19.1 191 
 BAR2 SZ I         040 49.15        16.8 0.24                          19.1 191 
 GIR2 SZ EP   1    040 33.31                             166   -0.05 7 35.3 352 
 GIR2 SZ ES   1    040 48.25                             166   -0.44 7 35.3 352 
 BRR  HZ EP        040 35.06                             152    0.2410 72.8 302 
 BRR  HN ES   1    040 52.00                             152    0.71 7 72.8 302 
 BRR  HZ I         040 54.29         8.8 0.42                          72.8 302 
 PAM  SN ES   1    040 53.26                             149   -0.16 7 81.0  38 
 PAM  SZ I         040 55.48        10.5 0.64                          81.0  38 
 RUS  HZ EP   1    040 36.86                             145   -0.19 7 96.4 176 
 RUS  HN ES   1    040 55.66                             145    0.40 7 96.4 176 
 RUS  HZ I         040 56.63         2.2 0.34                          96.4 176 
 PTB  HN ES   1    041  0.67                             132   -0.66 7  146 260 
 ZAR  HN ES   1    041 11.60                             122    0.08 6  205 293 
                                                                                
