 2013 1124 0148  5.5 L   6.829 -73.155138.9  RSN  6 0.3 1.5LRSN                1
 GAP=134        0.81       4.4     3.6  6.4  0.6796E+00  0.6305E+01  0.2617E+00E
 Epicentro: LOS SANTOS - SANTANDER                                             3
 ACTION:UPD 14-01-09 16:30 OP:ep   STATUS:               ID:20131124014805 L   I
 OLDACT:REG 13-11-24 07:46 OP:mh   STATUS:               ID:20131124014000     3
 2013-11-24-0140-00M.COL___282                                                 6
 STAT SP IPHASW D HRMM SECON CODA AMPLIT PERI AZIMU VELO AIN AR TRES W  DIS CAZ7
 BAR2 SZ EP        148 24.24                             169   -0.0910 26.4 187 
 BAR2 SZ ES   1    148 39.04                             169   -0.02 7 26.4 187 
 BAR2 SZ I         148 42.57         5.4 0.12            170           26.4 187 
 BRR  HZ EP        148 25.66                             152   -0.0710 68.8 297 
 BRR  HN ES   1    148 41.42                             152   -0.12 7 68.8 297 
 PAM  SZ EP        148 26.84                             150   -0.0010 75.6  42 
 PAM  SN ES        148 43.48                             150   -0.0410 75.6  42 
 PAM  SZ I         148 45.48         6.2 0.30            153           75.6  42 
 RUS  HZ EP        148 29.19                             141    0.4010  104 176 
 RUS  HN ES   1    148 47.13                             141    0.14 7  104 176 
 PTB  HZ EP   1    148 31.62                             130   -0.22 7  147 258 
 PTB  HN ES        148 52.00                             130   -0.42 9  147 258 
 PTB  HZ I         148 55.50         3.3 0.15            132            147 258 
 ZAR  HZ EP        148 36.78                             121   -0.46 9  202 291 
 ZAR  HN ES        149  2.88                             121    0.85 9  202 291 
 ZAR  HZ I         149  8.92         5.1 0.23            123            202 291 
                                                                                
