 2017 1224 0117 34.0 L   6.802 -73.129142.1  RSN  6 0.5 1.8LRSN                1
 GAP=113        1.30       6.2     5.8 10.0 -0.3835E+01  0.2107E+02  0.4814E+00E
 Epicentro: LOS SANTOS - SANTANDER                                             3
 ACTION:UPD 18-01-04 13:23 OP:rebc STATUS:               ID:20171224011734 L   I
 OLDACT:REG 17-12-24 12:30 OP:dani STATUS:               ID:20171224010743     3
 2017-12-24-0108-00M.COL___469                                                 6
 STAT SP IPHASW D HRMM SECON CODA AMPLIT PERI AZIMU VELO AIN AR TRES W  DIS CAZ7
 BAR2 EZ EP        117 52.97                             170   -0.2810 23.9 194 
 BAR2 EZ ES        118  8.65                             170    0.4210 23.9 194 
 BAR2 EZ I         118 10.09        11.2 0.18            169           23.9 194 
 PAM  EZ EP        117 55.83                             151    0.0410 76.0  39 
 PAM  EN ES        118 12.40                             151   -0.3610 76.0  39 
 PAM  EZ I         118 15.12         9.0 0.48            154           76.0  39 
 PTB  HZ EP        118  0.01                             131   -0.88 9  150 259 
 PTB  HN ES        118 21.44                             131   -0.38 9  150 259 
 PTB  HZ I         118 24.94         4.0 0.16            132            150 259 
 SPBC HZ EP        118  2.01                             128   -0.38 9  165 219 
 SPBC HN ES        118 24.69                             128    0.18 9  165 219 
 SPBC HZ I         118 29.64        10.4 0.22            130            165 219 
 YPLC HN ES   1    118 27.14                             126    0.65 7  176 152 
 ZAR  HZ EP        118  7.57                             121    1.15 8  206 292 
 ZAR  HE ES        118 32.12                             121    0.44 8  206 292 
 ZAR  HZ I         118 37.60         8.6 0.46            123            206 292 
                                                                                
