 2012  124 0014 45.3 L   7.366 -73.209132.7  RSN  6 0.1 1.7LRSN                1
 GAP=261        0.36       4.0     3.0  3.8  0.6002E+01  0.6775E+00 -0.2300E+01E
 Epicentro: RIONEGRO - SANTANDER                                               3
 ACTION:UP  12-02-03 08:20 OP:REBC STATUS:               ID:20120124001445 L   I
 2012-01-24-0010-00M.COL___187                                                 6
 STAT SP IPHASW D HRMM SECON CODA AMPLIT PERI AZIMU VELO SNR AR TRES W  DIS CAZ7
 GIR2 SZ EP   1    015  3.42                             166     0.0 7   32 177 
 GIR2 SZ ES   2    015 17.69                                     0.1 5   32 177 
 BRR  HZ EP   1    015  4.70                             153     0.2 7   62 243 
 BRR  HE ES   1    015 19.42                             153    -0.1 7   62 243 
 BRR  HZ I         015 24.23        10.8 0.86                            62 243 
 BAR2 SZ ES        015 22.66                             145     0.010   86 178 
 BAR2 SZ I         015 23.99        11.2 0.14                            86 178 
 RUS  HZ EP   1    015 13.13                             126    -0.2 7  163 175 
 RUS  HE ES   2    015 35.34                             126     0.1 5  163 175 
 PTB  HZ EP   1    015 13.04                             125     0.1 7  165 237 
 PTB  HE ES   1    015 34.62                             125     0.1 7  165 237 
 ZAR  HE ES   1    015 37.39                             122    -0.2 7  183 275 
 ZAR  HZ I         015 39.26         5.1 0.12                           183 275 
                                                                                
