 2017  924 0756 23.1 L   6.843 -73.127150.3  RSN 27 0.5 2.8LRSN                1
 GAP= 66        1.14       3.0     3.1  5.0  0.2065E+00  0.3930E+01  0.2126E+01E
 Epicentro: LOS SANTOS - SANTANDER                                             3
 ACTION:UPD 17-10-05 19:15 OP:rebc STATUS:               ID:20170924075623 L   I
 OLDACT:UP  17-09-24 17:34 OP:leo  STATUS:               ID:20170924074742     3
 OLDACT:REG 17-09-24 14:11 OP:leo  STATUS:               ID:20170924074742     3
 2017-09-24-0748-00M.COL___414                                                 6
 STAT SP IPHASW D HRMM SECON CODA AMPLIT PERI AZIMU VELO AIN AR TRES W  DIS CAZ7
 BAR2 EZ IP        756 43.31                             169   -0.1110 28.4 192 
 BAR2 EZ ES        756 58.31                             169   -0.9310 28.4 192 
 BAR2 EZ I         756 59.41       198.9 0.34            167           28.4 192 
 BRR  HZ IP     C  756 45.11                             153    0.3510 70.9 294 
 BRR  HN ES        757  2.20                             153    0.5710 70.9 294 
 BRR  HZ I         757  6.18        96.8 0.40            146           70.9 294 
 PAM  EZ EP        756 46.17                             153    0.6210 72.4  41 
 PAM  EN ES        757  3.16                             153    0.1210 72.4  41 
 PAM  EZ I         757  5.53       153.0 0.54            152           72.4  41 
 RUS  HZ EP        756 47.22                             143   -0.4410  105 177 
 RUS  HN ES        757  6.25                             143   -0.5510  105 177 
 RUS  HZ I         757  6.98        46.5 0.22            142            105 177 
 TAM  HZ IP     D  756 51.62                             132    0.51 9  154 107 
 TAM  HN ES        757 13.42                             132    0.49 9  154 107 
 YPLC HZ EP        756 53.72                             127    0.15 9  180 153 
 YPLC HN ES        757 17.73                             127    0.41 9  180 153 
 YPLC HZ I         757 20.42        38.4 0.32            126            180 153 
 ZAR  HZ EP        756 55.85                             123   -0.04 9  204 291 
 ZAR  HN ES        757 21.13                             123   -0.32 9  204 291 
 ZAR  HZ I         757 26.63        66.3 0.34            119            204 291 
 NOR  HZ EP        756 59.57                             119   -0.03 8  239 234 
 NOR  HN ES        757 28.08                             119    0.02 8  239 234 
 NOR  HZ I         757 34.99        35.2 0.28            115            239 234 
 CHI  HZ EP        757  1.46                             117   -0.18 8  254 195 
 CHI  HN ES   4    757 30.75                             117   -0.93 0  254 195 
 CHI  HZ I         757 34.30        45.3 0.56            115            254 195 
 ROSC BZ EP   4    757  3.55                             117    1.49 0  258 211 
 ROSC BN ES   4    757 34.06                             117    1.63 0  258 211 
 ROSC BZ I         757 37.76        81.0 0.45            114            258 211 
 HEL  HZ EP   4    757  5.32                             115    1.39 0  275 255 
 HEL  HN ES        757 35.60                             115   -0.16 8  275 255 
 HEL  HZ I         757 41.39        26.2 0.28            112            275 255 
 URE  HZ EP   4    757  3.19                             114   -1.26 0  284 291 
 URE  HZ I         757 44.99        38.3 0.20            111            284 291 
 GUY2CHZ EP        757  8.25                             113    0.80 7  306 234 
 GUY2CHN ES   4    757 46.07                             113    4.04 0  306 234 
 GUY2CHZ I         757 49.57        31.5 0.34                           306 234 
 VIL  EZ EP        757  7.21                             112   -0.12 7  308 192 
 VIL  EN ES        757 41.23                             112   -0.58 7  308 192 
 VIL  EZ I         757 51.00        75.1 0.38            110            308 192 
 PTGC HZ EP        757  6.44                             112   -1.17 7  312 159 
 PTGC HN ES   4    757 40.11                             112   -2.19 0  312 159 
 PTGC HZ I         757 41.64        30.6 0.26            110            312 159 
 LL6C HZ EP        757  7.88                             111   -0.61 7  320 357 
 LL6C HE ES        757 43.51                             111   -0.37 7  320 357 
 LL6C HZ I         757 49.21        20.7 0.40            109            320 357 
 ELA  HZ EP   4    757 12.94                             111    2.23 0  334 229 
 ELA  HE ES   4    757 50.00                             111    2.18 0  334 229 
 ELA  HZ I         757 56.04        26.1 0.46            108            334 229 
 CBOC HZ EP        757 11.58                             110    0.95 7  337 251 
 CBOC HN ES        757 47.95                             110    0.26 7  337 251 
 CBOC HZ I         757 53.48         8.9 0.40            108            337 251 
 ARGC HZ EP   4    757 13.32                             109    0.79 0  355 340 
 ARGC HE ES   4    757 52.22                             109    1.16 0  355 340 
 ARGC HZ I         757 59.24         8.7 0.48            107            355 340 
 ANIL HZ EP   4    757 15.05                             109    1.38 0  362 224 
 ANIL HE ES   4    757 55.36                             109    2.26 0  362 224 
 PRA  HZ EP        757 17.71                             107    0.30 6  397 209 
 PRA  HE ES        757 59.94                             107    0.19 6  397 209 
 PRA  HZ I         758  5.37        40.9 0.72            105            397 209 
 ORTC HZ EP        757 17.50                             107   -0.30 6  401 216 
 ORTC HE ES        758  1.33                             107    0.89 6  401 216 
 ORTC HZ I         758  4.68        22.3 0.24            105            401 216 
 SJC  HZ EP   4    757 16.96                             106   -1.55 0  406 326 
 SJC  HN ES   4    757 59.02                             106   -2.69 0  406 326 
 SJC  HZ I         758  6.45        13.7 0.48            104            406 326 
 PAL  HZ EP        757 18.94                             106    0.00 6  410 239 
 PAL  HE ES   4    757 59.37                             106   -3.10 0  410 239 
 PAL  HZ I         758  6.92         7.1 0.20            104            410 239 
 CRJC HZ EP        757 23.63                             104   -1.55 5  463   3 
 CRJC HE ES   4    758 11.65                             104   -1.93 0  463   3 
 CRJC HZ I         758 18.45        21.1 0.38            102            463   3 
 SMAR HZ EP        757 28.54                             103   -0.09 4  493 346 
 SMAR HE ES   4    758 16.54                             103   -3.18 0  493 346 
 SMAR HZ I         758 19.75        13.5 0.18            101            493 346 
 MACC HZ EP   4    757 30.51                             102   -2.04 0  526 189 
 MACC HN ES   4    758 22.49                             102   -4.21 0  526 189 
 MACC HZ I         758 27.52        14.3 0.88            100            526 189 
 URI  HZ EP   4    757 33.90                             101   -1.72 0  552  13 
 URI  HE ES   4    758 29.51                             101   -2.66 0  552  13 
 URI  HZ I         758 35.81        19.1 1.02            100            552  13 
                                                                                
