 2016 1224 0241 46.5 L   6.793 -73.190140.0  RSN  7 0.5 1.9LRSN                1
 GAP=143        1.02       5.6     5.2  7.1 -0.1056E+02  0.1115E+02  0.3763E+01E
 Epicentro: ZAPATOCA - SANTANDER                                               3
 ACTION:UPD 17-01-11 20:18 OP:rebc STATUS:               ID:20161224024146 L   I
 OLDACT:UP  16-12-24 14:35 OP:cog  STATUS:               ID:20161224023747     3
 OLDACT:REG 16-12-24 12:59 OP:cog  STATUS:               ID:20161224023747     3
 2016-12-24-0238-00M.COL___390                                                 6
 STAT SP IPHASW D HRMM SECON CODA AMPLIT PERI AZIMU VELO AIN AR TRES W  DIS CAZ7
 BAR2 EZ EP        242  5.55                             171    0.1410 22.2 178 
 BAR2 EZ ES        242 20.15                             171   -0.0110 22.2 178 
 BAR2 EZ I         242 21.58        22.6 0.38            168           22.2 178 
 PAM  EZ EP        242  8.45                             148    0.1210 81.2  42 
 PAM  EN ES        242 25.63                             148    0.2610 81.2  42 
 PAM  EZ I         242 27.36         9.2 0.18            152           81.2  42 
 RUS  HZ EP        242  9.47                             143   -0.1910  100 173 
 RUS  HN ES        242 27.53                             143   -0.2010  100 173 
 RUS  HZ I         242 29.74         8.4 0.52            142            100 173 
 PTB  HZ EP        242 12.22                             132   -0.32 9  143 259 
 PTB  HN ES        242 32.09                             132   -0.77 9  143 259 
 PTB  HZ I         242 35.36        11.4 0.05            132            143 259 
 NOR  HZ EP        242 21.56                             118    0.14 8  230 234 
 NOR  HN ES        242 49.85                             118    1.20 8  230 234 
 NOR  HZ I         242 55.01         5.7 0.24            118            230 234 
 CHI  HZ EP        242 23.69                             116    0.03 8  247 194 
 CHI  HE ES   3    242 51.86                             116   -0.79 2  247 194 
 CHI  HZ I         242 58.13         6.2 0.38            116            247 194 
 ROSC BN ES   4    242 56.78                             116    3.60 0  250 210 
 PTGC HZ EP   3    242 28.72                             110   -1.51 2  310 158 
 PTGC HE ES   4    242 59.30                             110   -5.04 0  310 158 
                                                                                
