 2014  824 0900 23.2 L   6.767 -73.159140.6  RSN  7 0.4 1.6LRSN                1
 GAP= 97        0.94       4.3     4.0  6.0 -0.4010E+01 -0.9327E+00  0.3752E+01E
 Epicentro: LOS SANTOS - SANTANDER                                             3
 ACTION:UPD 14-09-15 21:52 OP:nd   STATUS:               ID:20140824090023 L   I
 OLDACT:REG 14-08-24 14:16 OP:stll STATUS:               ID:20140824085816     3
 2014-08-24-0858-16M.COL___257                                                 6
 STAT SP IPHASW D HRMM SECON CODA AMPLIT PERI AZIMU VELO AIN AR TRES W  DIS CAZ7
 BAR2 SZ EP        9 0 42.03                             172   -0.1010 19.5 188 
 BAR2 SZ ES        9 0 56.77                             172   -0.1210 19.5 188 
 BAR2 SZ I         9 0 57.87        11.2 0.16            172           19.5 188 
 BRR  HZ IP     C  9 0 44.05                             151    0.2310 71.7 302 
 BRR  HN ES        9 1  0.58                             151    0.6810 71.7 302 
 BRR  HZ I         9 1  1.89         6.7 0.24            152           71.7 302 
 PAM  SZ EP        9 0 45.12                             149    0.0210 81.2  39 
 PAM  SN ES        9 1  1.92                             149   -0.2610 81.2  39 
 PAM  SZ I         9 1  4.23         6.9 0.56            150           81.2  39 
 RUS  HZ EP        9 0 46.26                             144    0.0810 97.0 175 
 RUS  HN ES        9 1  3.94                             144   -0.1710 97.0 175 
 RUS  HZ I         9 1  5.96         3.6 0.50            145           97.0 175 
 PTB  HZ EP        9 0 49.17                             131   -0.38 9  146 260 
 PTB  HN ES        9 1  9.32                             131   -0.78 9  146 260 
 PTB  HZ I         9 1 13.13         5.6 0.18            132            146 260 
 TAM  HZ EP        9 0 50.57                             129    0.05 9  156 104 
 SPBC HZ EP        9 0 51.16                             128    0.22 9  159 219 
 SPBC HZ I         9 0 51.52         5.3 0.22            130            159 219 
 SPBC HN ES        9 1 13.05                             128    0.48 9  159 219 
                                                                                
