 2014  724 0435 31.2 L   7.016 -73.466111.7  RSN  5 0.5 1.2LRSN                1
 GAP=139        1.09       6.3     6.5 15.1 -0.7982E+01  0.4395E+02 -0.4597E+02E
 Epicentro: SAN VICENTE DE CHUCURI - SANTANDER                                 3
 ACTION:UPD 15-03-16 20:46 OP:nd   STATUS:               ID:20140724043531 L   I
 OLDACT:UP  14-07-24 17:09 OP:mh   STATUS:               ID:20140724042816d    3
 OLDACT:DUP 14-07-24 17:02 OP:mh   STATUS:               ID:20140724042816d    3
 OLDACT:UP  14-07-24 17:02 OP:mh   STATUS:               ID:20140724042815     3
 OLDACT:UP  14-07-24 17:01 OP:mh   STATUS:               ID:20140724042815     3
 OLDACT:REG 14-07-24 13:51 OP:mh   STATUS:               ID:20140724042815     3
 2014-07-24-0428-15M.COL___269                                                 6
 STAT SP IPHASW D HRMM SECON CODA AMPLIT PERI AZIMU VELO AIN AR TRES W  DIS CAZ7
 BRR  HZ EP        435 47.08                             164    0.4810 28.9 290 
 BRR  HN ES        435 58.72                             164    0.1410 28.9 290 
 BRR  HZ I         436  4.24         3.2 0.16            166           28.9 290 
 BAR2 SZ ES        436  1.45                             151   -0.0110 56.4 146 
 BAR2 SZ I         436  3.26         9.8 0.07            159           56.4 146 
 PTB  HN ES   1    436  9.08                             129   -1.02 7  121 244 
 PTB  HZ I         436 10.28         2.0 0.18            137            121 244 
 OCA  HN ES        436 12.56                             125   -0.42 9  136   7 
 ZAR  HN ES        436 17.80                             120    0.36 9  162 289 
                                                                                
