 2012  324 0036 14.0 L   6.764 -73.108146.1  RSN  7 0.3 1.6LRSN                1
 GAP=143        0.50       3.7     3.6  6.1 -0.1427E+01  0.6482E+01  0.7606E+01E
 ACTION:UP  12-03-31 23:22 OP:EP   STATUS:               ID:20120324003614 L   I
 2012-03-24-0030-00M.COL___196                                                 6
 STAT SP IPHASW D HRMM SECON CODA AMPLIT PERI AZIMU VELO SNR AR TRES W  DIS CAZ7
 BAR2 SZ EP   2    036 33.60                             171     0.0 5   21 203 
 BAR2 SZ I         036 33.94         7.1 0.14                            21 203 
 BAR2 SZ ES   2    036 48.35                             171    -0.6 5   21 203 
 BRR  HZ EP   2    036 35.45                             151    -0.1 5   77 300 
 BRR  HZ I         036 45.83        12.6 0.58                            77 300 
 BRR  HN ES   2    036 52.94                             151     0.6 5   77 300 
 PAM  SZ EP   2    036 36.32                             151     0.0 5   78  35 
 PAM  SN ES        036 53.65                             151     0.010   78  35 
 RUS  HZ EP        036 37.51                             145     0.010   96 178 
 RUS  HN ES   2    036 56.24                             145     0.4 5   96 178 
 RUS  HZ I         036 57.26         2.9 0.42                            96 178 
 PTB  HE ES   2    037  2.32                             131    -0.3 5  151 261 
 ZAR  HZ EP   2    036 47.04                             122     0.0 4  209 293 
 ZAR  HE ES   2    037 12.73                             122    -0.1 4  209 293 
 ZAR  HZ I         037 17.48         6.8 0.37                           209 293 
 NOR  SN ES   2    037 17.84                             118     0.0 4  236 236 
                                                                                
