 2013  824 0601 42.8 L   6.762 -73.068145.6  RSN  4 0.2 1.1LRSN                1
 GAP=243        0.62       3.8     5.7  5.0  0.4593E+01  0.1155E+01  0.2068E+01E
 Epicentro: LOS SANTOS - SANTANDER                                             3
 ACTION:UPD 14-01-14 09:06 OP:ep   STATUS:               ID:20130824060142 L   I
 OLDACT:REG 13-08-24 07:37 OP:nd   STATUS:               ID:20130824055959     3
 2013-08-24-0559-59M.COL___270                                                 6
 STAT SP IPHASW D HRMM SECON CODA AMPLIT PERI AZIMU VELO AIN AR TRES W  DIS CAZ7
 BAR2 SZ EP        6 2  2.37                             171   -0.0410 22.6 214 
 BAR2 SZ ES        6 2 17.53                             171   -0.1610 22.6 214 
 BAR2 SZ I         6 2 18.92         2.8 0.50            166           22.6 214 
 BRR  HZ IP     D  6 2  4.35                             149   -0.1610 80.8 298 
 BRR  HN ES        6 2 21.63                             149    0.1910 80.8 298 
 BRR  HZ I         6 2 24.26         2.1 0.42            148           80.8 298 
 RUS  HZ EP        6 2  6.67                             145    0.4410 96.1 181 
 RUS  HN ES        6 2 24.40                             145   -0.1010 96.1 181 
 RUS  HZ I         6 2 27.60         1.5 0.48            144           96.1 181 
 SPBC HZ EP        6 2 11.20                             129   -0.32 9  166 222 
 SPBC HN ES        6 2 34.03                             129    0.11 9  166 222 
 SPBC HZ I         6 2 38.32         2.1 0.30            128            166 222 
                                                                                
