 2017 1124 0717 10.3 L   6.833 -73.145145.8  RSN 27 0.7 2.4LRSN                1
 GAP= 56        1.48       3.0     3.4  6.3 -0.9470E+00  0.5449E+01 -0.1037E+01E
 Epicentro: LOS SANTOS - SANTANDER                                             3
 ACTION:UPD 17-12-12 19:59 OP:rebc STATUS:               ID:20171124071710 L   I
 OLDACT:UP  17-11-24 17:02 OP:osc  STATUS:               ID:20171124070640d    3
 OLDACT:DUP 17-11-24 16:50 OP:osc  STATUS:               ID:20171124070640d    3
 2017-11-24-0707-00M.COL___483                                                 6
 STAT SP IPHASW D HRMM SECON CODA AMPLIT PERI AZIMU VELO AIN AR TRES W  DIS CAZ7
 BAR2 EZ EP        717 29.97                             169   -0.0510 26.9 189 
 BAR2 EZ ES        717 44.70                             169   -0.7010 26.9 189 
 BAR2 EZ I         717 46.31        93.3 0.22            170           26.9 189 
 PAM  EZ EP        717 32.78                             152    0.4110 74.6  41 
 PAM  EE ES        717 50.11                             152    0.5410 74.6  41 
 PAM  EZ I         717 52.17        37.7 0.52            152           74.6  41 
 RUS  HZ EP        717 33.92                             143   -0.4110  104 176 
 RUS  HE ES        717 52.94                             143   -0.1210  104 176 
 RUS  HZ I         717 54.22        22.8 0.46            145            104 176 
 PTB  HZ EP        717 36.70                             132   -0.65 9  149 257 
 PTB  HN ES        717 57.79                             132   -0.65 9  149 257 
 PTB  HZ I         718  4.04        18.7 0.20            130            149 257 
 TAM  HZ IP     D  717 38.39                             130    0.31 9  156 106 
 TAM  HE ES        717 59.19                             130   -0.55 9  156 106 
 TAM  HZ I         717 59.27        14.9 0.44            132            156 106 
 OCA  HZ EP        717 38.13                             130   -0.16 9  157 353 
 OCA  HZ I         718  6.46        63.1 0.26            129            157 353 
 SPBC HZ EP        717 39.07                             128   -0.01 9  166 218 
 SPBC HN ES        718  1.70                             128    0.18 9  166 218 
 SPBC HZ I         718  5.21        43.4 0.03            128            166 218 
 YPLC HZ EP        717 40.41                             126   -0.01 9  180 152 
 YPLC HE ES        718  4.93                             126    1.03 9  180 152 
 YPLC HZ I         718  7.08        13.2 0.32            128            180 152 
 ZAR  HZ EP        717 42.76                             123    0.14 9  203 291 
 ZAR  HN ES        718  8.05                             123    0.22 9  203 291 
 ZAR  HZ I         718 13.14        31.5 0.40            121            203 291 
 TABC EZ EP   9    717 47.62                             119    1.23 0  233 210 
 TABC EZ ES        718 16.60                             119    0.84 8  233 210 
 TABC EZ I         718 21.26        21.5 0.38            119            233 210 
 NOR  HZ EP        717 46.12                             118   -0.15 8  237 234 
 NOR  HN ES        718 14.52                             118    0.20 8  237 234 
 NOR  HZ I         718 23.29        14.8 0.38            118            237 234 
 CHI  HZ EP        717 48.58                             117    0.19 8  252 195 
 CHI  HN ES        718 17.44                             117   -0.65 8  252 195 
 CHI  HZ I         718 20.98        17.8 0.58            117            252 195 
 ROSC BZ EP        717 50.16                             116    1.39 8  256 211 
 ROSC BN ES        718 19.65                             116    0.88 8  256 211 
 ROSC BZ I         718 24.64        35.3 0.45            116            256 211 
 HEL  HZ EP        717 51.85                             115    1.22 8  273 255 
 HEL  HN ES        718 22.43                             115    0.36 8  273 255 
 HEL  HZ I         718 28.05        14.6 0.28            114            273 255 
 URE  HZ EP        717 50.74                             114   -0.50 7  283 291 
 URE  HE ES        718 21.64                             114   -1.52 7  283 291 
 URE  HZ I         718 32.68        13.8 0.26            113            283 291 
 DRL03HZ EP        717 51.26                             113   -0.26 7  285 353 
 DRL03HN ES        718 24.23                             113    0.56 7  285 353 
 GUY2CHZ EP        717 54.21                             112    0.05 7  303 234 
 GUY2CHN ES        718 30.42                             112    2.06 7  303 234 
 GUY2CHZ I         718 36.20        13.6 0.34                           303 234 
 VIL  EZ EP        717 53.80                             112   -0.33 7  307 191 
 VIL  EE ES        718 28.26                             112   -0.05 7  307 191 
 VIL  EZ I         718 37.67        24.4 0.42            112            307 191 
 PTGC HZ EP        717 53.10                             111   -1.45 7  312 159 
 PTGC HN ES   4    718 26.78                             111   -2.27 0  312 159 
 PTGC HZ I         718 28.32        10.2 0.24            112            312 159 
 CBOC HZ EP        717 57.47                             110    0.11 7  335 252 
 CBOC HE ES        718 33.60                             110   -0.45 7  335 252 
 CBOC HZ I         718 39.52         3.6 0.38            109            335 252 
 ARGC HZ EP        717 59.89                             108    0.31 6  356 340 
 ARGC HN ES        718 39.20                             108    1.20 6  356 340 
 ARGC HZ I         718 45.92         2.8 0.16            108            356 340 
 SDV  BZ EP        717 59.64                             108   -0.45 6  358  51 
 SDV  B2 ES   4    718 35.32                             108   -3.59 0  358  51 
 PRA  HZ EP        718  3.79                             106   -0.41 6  395 209 
 PRA  HE ES        718 45.19                             106   -1.04 6  395 209 
 PRA  HZ I         718 52.04        13.5 0.72            106            395 209 
 ORTC HZ EP        718  4.28                             106   -0.29 6  398 216 
 ORTC HN ES        718 47.63                             106    0.73 6  398 216 
 ORTC HZ I         718 51.36         9.2 0.24            106            398 216 
 SJC  HZ EP   4    718  3.76                             106   -1.76 0  406 327 
 SJC  HE ES   4    718 45.40                             106   -3.19 0  406 327 
 SJC  HZ I         718 53.96         4.1 0.40            105            406 327 
 PAL  HZ EP        718  5.11                             106   -0.58 6  408 239 
 PAL  HE ES        718 47.58                             106   -1.31 6  408 239 
 CRJC HZ EP   9    718 10.31                             103   -2.08 0  464   4 
 CRJC HN ES        718 58.22                             104   -0.51 5  464   4 
                                                                                
