 2010  124 0537 29.9 L   6.199 -73.755 99.6  RSN  6 0.4 1.4LRSN                1
 GAP= 92        1.10       4.8     4.9 15.6 -0.1679E+00  0.4427E+02  0.1360E+02E
 Epicentro: LANDAZURI - SANTANDER                                              3
 ACTION:UP  10-08-24 09:45 OP:vdl  STATUS:               ID:20100124053729 L   I
 2010-01-24-0533-50S.COL___095                                                 6
 STAT SP IPHASW D HRMM SECON CODA AMPLIT PERI AZIMU VELO SNR AR TRES W  DIS CAZ7
 BAR2 SZ EP        537 47.35                             140     0.310   77  56 
 BAR2 SZ ES   1    538  0.93                             140     0.5 7   77  56 
 RUS  BZ IP        537 47.36                             138    -0.510   82 114 
 RUS  BZ I         537 47.72         7.9 0.23                            82 114 
 RUS  BN ES   1    538  1.36                             138    -0.5 7   82 114 
 CHI  HZ EP        537 56.70                             116    -0.2 9  174 179 
 CHI  HZ I         537 57.48         2.9 0.65                           174 179 
 CHI  HN ES        538 18.51                             116     0.5 9  174 179 
 HEL  HN ES        538 21.98                             113    -0.4 9  196 270 
 HEL  HZ I         538 26.66         2.2 0.76                           196 270 
 RREF BE ES        538 29.65                             110     0.3 8  227 231 
 RREF BZ I         538 36.22         2.8 0.40                           227 231 
 MON  HE ES   1    538 55.44                             102     0.6 5  354 324 
                                                                                
