 2013  924 0930 10.6 L   6.816 -73.134149.5  RSN  5 0.4 1.5LRSN                1
 GAP=261        0.90       7.6     8.9 19.0  0.1827E+02 -0.7416E+02 -0.7125E+01E
 Epicentro: LOS SANTOS - SANTANDER                                             3
 ACTION:UPD 13-10-22 09:24 OP:ep   STATUS:               ID:20130924093010 L   I
 OLDACT:UP  13-09-24 12:55 OP:mh   STATUS:               ID:20130924092742d    3
 OLDACT:UP  13-09-24 12:55 OP:mh   STATUS:               ID:20130924092742d    3
 OLDACT:DUP 13-09-24 12:53 OP:mh   STATUS:               ID:20130924092742d    3
 2013-09-24-0927-41M.COL___241                                                 6
 STAT SP IPHASW D HRMM SECON CODA AMPLIT PERI AZIMU VELO AIN AR TRES W  DIS CAZ7
 BAR2 SZ EP   1    930 31.01                             170    0.26 8 25.3 192 
 BAR2 SZ I         930 47.65         3.8 0.24            163           25.3 192 
 PTB  HZ EP   1    930 37.37                             132   -0.68 7  149 258 
 PTB  HN ES        930 58.86                             132   -0.5710  149 258 
 PTB  HZ I         931  4.87         3.5 0.40            162            149 258 
 SPBC HZ EP        930 39.73                             129    0.1110  165 219 
 SPBC HN ES   1    931  2.43                             129    0.19 7  165 219 
 SPBC HZ I         931  8.91         4.2 0.24            154            165 219 
 ZAR  HN ES        931  9.34                             123    0.43 9  205 292 
 ZAR  HZ I         931 15.44         3.2 0.58            144            205 292 
 NOR  HN ES   1    931 15.54                             119    0.53 6  237 234 
                                                                                
