 2013 1224 0827  6.5 L   6.815 -73.157147.1  RSN 10 0.5 1.8LRSN                1
 GAP=134        1.12       3.1     4.8  6.5 -0.2670E-01  0.7147E+01 -0.2939E+00E
 Epicentro: LOS SANTOS - SANTANDER                                             3
 ACTION:UPD 14-01-13 10:20 OP:ep   STATUS:               ID:20131224082706 L   I
 OLDACT:REG 13-12-24 08:19 OP:mh   STATUS:               ID:20131224082000     3
 2013-12-24-0820-00M.COL___285                                                 6
 STAT SP IPHASW D HRMM SECON CODA AMPLIT PERI AZIMU VELO AIN AR TRES W  DIS CAZ7
 BAR2 SZ EP   1    827 26.48                             170    0.18 7 24.7 186 
 BAR2 SZ ES        827 40.79                             170   -0.9710 24.7 186 
 BAR2 SZ I         827 43.16        33.7 0.14            170           24.7 186 
 BRR  HZ EP        827 28.07                             153    0.4010 69.3 298 
 BRR  HN ES        827 45.16                             153    0.9610 69.3 298 
 BRR  HZ I         827 46.01        16.6 0.11            152           69.3 298 
 PAM  SZ EP   1    827 29.42                             151    0.61 7 77.0  41 
 PAM  SE ES        827 46.46                             151    0.2310 77.0  41 
 PAM  SZ I         827 48.66        15.8 0.50            154           77.0  41 
 RUS  HZ EP        827 30.46                             144   -0.0210  102 175 
 RUS  HN ES        827 49.38                             144    0.1710  102 175 
 RUS  HZ I         827 50.29         5.4 0.21            146            102 175 
 PTB  HZ EP        827 33.39                             132   -0.08 9  147 258 
 PTB  HN ES        827 54.07                             132   -0.46 9  147 258 
 PTB  HZ I         828  1.39         5.3 0.22            132            147 258 
 OCA  HZ EP   1    827 34.20                             130   -0.53 7  159 354 
 OCA  HN ES        827 56.19                             130   -0.57 9  159 354 
 OCA  HZ I         827 59.92         5.2 0.15            131            159 354 
 SPBC HN ES        827 57.38                             129   -0.09 9  164 218 
 ZAR  HZ EP        827 38.71                             123   -0.12 9  202 292 
 ZAR  HN ES        828  4.40                             123    0.34 9  202 292 
 ZAR  HZ I         828  8.36         4.8 0.11            123            202 292 
 SML  HZ EP   1    827 42.43                             118   -0.53 6  242 335 
 SML  HN ES        828 11.37                             118   -0.05 8  242 335 
 SML  HZ I         828 14.89        11.5 0.10            119            242 335 
 CHI  HZ EP        827 44.60                             117    0.22 8  250 195 
 CHI  HN ES        828 13.95                             117   -0.00 8  250 195 
 CHI  HZ I         828 17.58         3.6 0.41            119            250 195 
                                                                                
