 2015  224 0529 10.1 L   6.795 -73.203138.2  RSN  9 0.5 2.2LRSN                1
 GAP=130        1.12       3.6     5.7  7.3 -0.3702E+01  0.5598E+01  0.2232E+01E
 Epicentro: ZAPATOCA - SANTANDER                                               3
 ACTION:UPD 15-04-30 21:29 OP:nd   STATUS:               ID:20150224052910 L   I
 OLDACT:UP  15-02-24 16:07 OP:mh   STATUS:               ID:20150224052745     3
 OLDACT:REG 15-02-24 13:28 OP:mh   STATUS:               ID:20150224052745     3
 2015-02-24-0527-45M.COL___275                                                 6
 STAT SP IPHASW D HRMM SECON CODA AMPLIT PERI AZIMU VELO AIN AR TRES W  DIS CAZ7
 BAR2 EZ EP        529 29.12                             170    0.2810 22.5 174 
 BAR2 EZ ES        529 43.02                             170   -0.4110 22.5 174 
 BRR  HZ EP        529 31.04                             153    0.8710 66.0 302 
 BRR  HN ES   1    529 46.65                             153    0.84 7 66.0 302 
 BRR  HZ I         529 52.00        25.4 0.12            139           66.0 302 
 PAM  SZ EP   1    529 32.10                             148    0.26 7 81.9  43 
 PAM  SN ES   1    529 48.74                             148   -0.03 7 81.9  43 
 PAM  SZ I         529 51.72        24.3 0.77            137           81.9  43 
 RUS  HZ EP        529 33.17                             142    0.0210  101 172 
 RUS  HN ES        529 50.93                             142   -0.1810  101 172 
 PTB  HZ EP        529 35.21                             132   -0.70 9  141 259 
 PTB  HN ES        529 55.52                             132   -0.51 9  141 259 
 SPBC HZ EP   1    529 37.83                             128    0.19 7  159 217 
 SPBC HN ES        529 59.70                             128    0.60 9  159 217 
 SPBC HZ I         530  3.37        22.2 0.30            121            159 217 
 OCA  HZ EP   1    529 37.52                             128   -0.34 7  160 355 
 OCA  HN ES        529 59.07                             128   -0.42 9  160 355 
 OCA  HZ I         530  4.53        15.9 0.20            116            160 355 
 SML  HZ EP   4    529 45.46                             116   -0.66 0  242 337 
 SML  HZ I         530 16.69        17.4 0.25            107            242 337 
 SML  HN ES   4    530 17.43                             116    3.24 0  242 337 
 CHI  HZ EP        529 47.17                             116   -0.02 8  247 194 
 CHI  HN ES        530 15.81                             116   -0.28 8  247 194 
                                                                                
