 2016  924 0413 41.5 L   6.809 -73.107140.9  RSN 19 0.5 2.4LRSN                1
 GAP= 68        1.04       3.0     3.0  4.9 -0.1186E+01  0.3634E+01  0.1711E+01E
 Epicentro: LOS SANTOS - SANTANDER                                             3
 ACTION:UPD 17-08-17 21:15 OP:lp   STATUS:               ID:20160924041341 L   I
 OLDACT:UP  16-09-24 19:52 OP:and  STATUS:               ID:20160924040742     3
 OLDACT:UP  16-09-24 19:46 OP:and  STATUS:               ID:20160924040742     3
 OLDACT:UP  16-09-24 19:42 OP:and  STATUS:               ID:20160924040742     3
 OLDACT:UP  16-09-24 19:42 OP:and  STATUS:               ID:20160924040742     3
 OLDACT:UP  16-09-24 19:41 OP:and  STATUS:               ID:20160924040742     3
 OLDACT:UP  16-09-24 19:40 OP:and  STATUS:               ID:20160924040742     3
 OLDACT:UP  16-09-24 19:39 OP:and  STATUS:               ID:20160924040742     3
 OLDACT:REG 16-09-24 12:33 OP:and  STATUS:               ID:20160924040742     3
 2016-09-24-0408-00M.COL___330                                                 6
 STAT SP IPHASW D HRMM SECON CODA AMPLIT PERI AZIMU VELO AIN AR TRES W  DIS CAZ7
 BAR2 EZ IP     C  414  0.39                             169   -0.2410 25.4 199 
 BAR2 EZ ES        414 15.21                             169   -0.3010 25.4 199 
 BAR2 EZ I         414 17.40        88.9 0.20            167           25.4 199 
 PAM  EZ IP     D  414  3.25                             151    0.2210 73.9  38 
 PAM  EN ES        414 20.18                             151    0.3910 73.9  38 
 PAM  EZ I         414 22.56        53.5 0.52            154           73.9  38 
 BRR  HZ IP     C  414  2.32                             150   -0.0410 74.5 296 
 BRR  HN ES        414 19.18                             150    0.5910 74.5 296 
 BRR  HZ I         414 20.26        41.8 0.22            150           74.5 296 
 RUS  HZ EP        414  4.36                             142   -0.5110  101 178 
 RUS  HN ES        414 22.78                             142   -0.2910  101 178 
 RUS  HZ I         414 23.63        28.6 0.20            142            101 178 
 TAM  HZ IP     D  414  8.68                             130    0.20 9  151 106 
 TAM  HN ES        414 30.07                             130    0.59 9  151 106 
 TAM  HZ I         414 34.80        13.7 0.48            131            151 106 
 PTB  HZ EP   9    414  7.32                             130   -1.20 0  152 259 
 PTB  HN ES        414 28.20                             130   -0.16 9  152 259 
 PTB  HZ I         414 30.96        57.1 0.14            129            152 259 
 OCA  HZ EP        414  9.24                             128   -0.19 9  160 352 
 OCA  HN ES        414 30.43                             128   -0.75 9  160 352 
 OCA  HZ I         414 33.82        88.1 0.26            130            160 352 
 SPBC HZ EP        414  9.35                             127   -0.66 9  167 220 
 SPBC HN ES        414 32.11                             127   -0.10 9  167 220 
 SPBC HZ I         414 34.59        25.3 0.17            126            167 220 
 ZAR  HZ EP        414 13.48                             121   -0.56 8  208 291 
 ZAR  HN ES        414 39.82                             121    0.42 8  208 291 
 ZAR  HZ I         414 47.39        26.0 0.30            121            208 291 
 NOR  HZ EP        414 17.05                             117   -0.38 8  239 235 
 NOR  HE ES        414 45.34                             117   -0.09 8  239 235 
 NOR  HZ I         414 51.17        21.5 0.16            117            239 235 
 CHI  HZ EP   2    414 19.04                             116   -0.17 4  251 196 
 CHI  HN ES   2    414 48.06                             116   -0.53 4  251 196 
 CHI  HZ I         414 58.26         6.6 0.38            116            251 196 
 ROSC BZ EP        414 20.28                             115    0.54 8  256 212 
 ROSC BE ES   4    414 51.25                             115    1.72 0  256 212 
 ROSC BZ I         414 56.94        21.5 0.55            115            256 212 
 HEL  HZ EP   4 C  414 22.97                             113    0.97 0  276 256 
 HEL  HN ES   3    414 52.27                             113   -1.28 2  276 256 
 HEL  HZ I         414 59.48        18.0 0.28            113            276 256 
 GUY2CHZ EP        414 26.09                             111    0.70 7  305 235 
 GUY2CHE ES        415  0.21                             111    0.62 7  305 235 
 GUY2CHZ I         415  5.84        11.8 0.32                           305 235 
 PTGC HZ EP   9    414 23.64                             111   -1.48 0  308 159 
 PTGC HN ES        414 57.04                                   -0.59 7  308 159 
 PTGC HZ I         414 59.27         8.0 0.30            111            308 159 
 ELA  HZ EP   4    414 32.06                             109    3.42 0  333 230 
 ELA  HN ES   2    415  7.40                             109    2.03 3  333 230 
 ELA  HZ I         415 11.48         9.5 0.52            109            333 230 
 CBOC HZ EP        414 29.38                             109    0.62 7  338 252 
 CBOC HN ES        415  5.62                             109    0.03 7  338 252 
 CBOC HZ I         415  8.25         8.0 0.26            109            338 252 
 ANIL HZ EP   4    414 33.84                             107    2.25 0  361 225 
 ANIL HE ES   4    415 10.54                             107   -0.09 0  361 225 
 ANIL HZ I         415 17.76        27.1 0.30            107            361 225 
 PAL  HZ EP        414 36.94                             105   -0.09 6  410 239 
 PAL  HN ES   4    415 18.14                             105   -2.18 0  410 239 
 PAL  HZ I         415 23.89         5.8 0.52            105            410 239 
                                                                                
