 2012  124 0700 58.3 L   6.776 -73.113143.0  RSN  6 0.2 1.5LRSN                1
 GAP=142        0.62       3.3     7.4  5.8  0.5142E+01 -0.1128E+02 -0.3313E+01E
 Epicentro: LOS SANTOS - SANTANDER                                             3
 ACTION:UP  12-02-03 08:20 OP:REBC STATUS:               ID:20120124070058 L   I
 2012-01-24-0700-00M.COL___187                                                 6
 STAT SP IPHASW D HRMM SECON CODA AMPLIT PERI AZIMU VELO SNR AR TRES W  DIS CAZ7
 BAR2 SZ EP   1    7 1 17.45                             171    -0.1 7   22 201 
 BAR2 SZ ES   1    7 1 32.58                             171     0.0 7   22 201 
 BAR2 SZ I         7 1 36.56         9.4 0.52                            22 201 
 BRR  HZ EP        7 1 19.40                             151     0.010   76 299 
 BRR  HZ I         7 1 19.84         4.6 0.07                            76 299 
 BRR  HN ES   1    7 1 36.18                             151     0.3 7   76 299 
 PAM  SZ EP        7 1 20.53                             150     0.310   77  36 
 RUS  HZ EP   1    7 1 21.81                             144     0.2 7   98 178 
 RUS  HE ES   1    7 1 39.46                             144    -0.3 7   98 178 
 RUS  HZ I         7 1 41.81         3.9 0.22                            98 178 
 OCA  SZ EP   1    7 1 26.56                             128    -0.1 7  163 352 
 OCA  SZ ES   1    7 1 48.43                             128    -0.4 7  163 352 
 OCA  SZ I         7 1 51.80         4.4 0.23                           163 352 
 CHI  HZ EP   1    7 1 35.54                             117    -0.1 6  247 196 
 CHI  HZ I         7 2 11.62         1.7 0.34                           247 196 
                                                                                
