 2012  124 0737 29.2 L   6.289 -73.613111.8  RSN  7 0.2 1.5LRSN                1
 GAP=160        0.54       4.1     3.6  5.4  0.7336E+01  0.4671E+01 -0.1519E+01E
 Epicentro: SANTA HELENA DEL OPON - SANTANDER                                  3
 ACTION:UP  12-02-03 08:20 OP:REBC STATUS:               ID:20120124073729 L   I
 2012-01-24-0730-00M.COL___187                                                 6
 STAT SP IPHASW D HRMM SECON CODA AMPLIT PERI AZIMU VELO SNR AR TRES W  DIS CAZ7
 BAR2 SZ EP        737 46.53                             151     0.210   58  55 
 BAR2 SZ I         737 47.02        11.9 0.39                            58  55 
 BAR2 SZ ES   1    737 59.54                             151    -0.1 7   58  55 
 RUS  HZ EP   1    737 47.92                             145     0.3 7   73 127 
 RUS  HN ES   1    738  1.90                             145    -0.1 7   73 127 
 BRR  HZ EP        737 48.19                             138    -0.110   91 353 
 BRR  HZ I         738  0.28         5.5 0.09                            91 353 
 BRR  HE ES   1    738  3.22                             138     0.0 7   91 353 
 PTB  HZ EP   2    737 48.09                             136    -0.8 5   97 287 
 PTB  HN ES   2    738  4.33                             136     0.1 5   97 287 
 GIR2 SZ EP   1    737 49.21                             135     0.0 7   99  28 
 PAM  SZ EP   1    737 54.66                             122    -0.2 7  154  41 
 ZAR  HZ EP   1    737 58.26                             115     0.0 7  191 314 
 ZAR  HE ES   1    738 21.25                             115     0.3 7  191 314 
 ZAR  HZ I         738 25.64         4.2 0.31                           191 314 
                                                                                
