 2014  624 0123  5.5 L   6.777 -73.135137.7  RSN 15 0.4 1.8LRSN                1
 GAP=184        0.93       3.1     4.2  5.6 -0.1893E+00  0.7727E+01  0.4197E+01E
 Epicentro: LOS SANTOS - SANTANDER                                             3
 ACTION:UPD 14-07-01 22:56 OP:nd   STATUS:               ID:20140624012305 L   I
 OLDACT:DUP 14-06-24 17:28 OP:spq  STATUS:               ID:20140624011814d    3
 2014-06-24-0118-13M.COL___262                                                 6
 STAT SP IPHASW D HRMM SECON CODA AMPLIT PERI AZIMU VELO AIN AR TRES W  DIS CAZ7
 BAR2 SZ IP     D  123 24.52                             171    0.4310 21.2 194 
 BAR2 SZ ES        123 38.72                             171    0.1110 21.2 194 
 BAR2 SZ I         123 40.96        17.7 0.16            167           21.2 194 
 BRR  HZ EP        123 26.29                             150    0.3910 73.5 300 
 BRR  HN ES        123 42.53                             150    0.7110 73.5 300 
 BRR  HZ I         123 46.05         5.5 0.20            145           73.5 300 
 RUS  HZ EP        123 28.40                             143    0.1510 98.0 177 
 RUS  HN ES        123 45.37                             143   -0.6510 98.0 177 
 RUS  HZ I         123 48.29         4.7 0.34            144           98.0 177 
 PTB  HZ EP        123 31.36                             130   -0.51 9  149 260 
 PTB  HN ES        123 52.20                             130   -0.25 9  149 260 
 PTB  HZ I         123 56.89         5.9 0.26            127            149 260 
 SPBC HZ EP        123 33.35                             127    0.09 9  162 220 
 SPBC HN ES        123 54.65                             127   -0.28 9  162 220 
 SPBC HZ I         124  1.85         7.1 0.20            126            162 220 
 OCA  HN ES        123 54.60                             127   -0.63 9  163 353 
 OCA  HZ I         124  2.01         5.7 0.38            127            163 353 
 ZAR  HE ES        124  2.38                             120   -0.33 8  206 293 
 ZAR  HZ I         124 11.00         4.9 0.26            118            206 293 
 NOR  HZ EP        123 41.14                             117    0.43 8  234 235 
 NOR  HE ES        124  8.76                             117    0.58 8  234 235 
 NOR  HZ I         124 13.92         5.8 0.42            116            234 235 
 SML  HE ES   4    124  8.89                             115   -1.54 0  246 335 
 SML  HZ I         124 16.98         7.4 0.10            115            246 335 
 HEL  HN ES   1    124 16.34                             113   -0.13 6  273 256 
 HEL  HZ I         124 25.01         3.4 0.44            112            273 256 
 GUY2CHZ EP   1    123 48.35                             111   -0.33 5  301 235 
 GUY2CHN ES   1    124 21.98                             111   -0.39 5  301 235 
 GUY2CHZ I         124 31.07         5.4 0.38                           301 235 
 RREF HZ EP   1    123 51.40                             109    0.19 5  321 230 
 RREF HE ES   1    124 27.17                             109    0.30 5  321 230 
 RREF HZ I         124 35.87         2.7 0.28            109            321 230 
 TOL  SN ES        124 30.26                             108   -0.37 7  343 225 
 TOL  SZ I         124 41.09         8.5 0.46            107            343 225 
 PRA  HZ EP   1    123 58.50                             105   -0.05 4  390 210 
 PRA  HN ES   1    124 39.82                             105   -0.12 4  390 210 
 PRA  HZ I         124 47.04         3.0 0.24            105            390 210 
 ORTC HN ES   1    124 41.16                             105    0.44 4  394 217 
 ORTC HZ I         124 48.44         2.4 0.62            105            394 217 
                                                                                
