 2011  824 0826 20.0 L   6.834 -72.980144.7  RSN  5 0.2 1.6LRSN                1
 GAP=200        0.38       2.2     5.8  3.8  0.4126E+01 -0.3977E+01 -0.1565E+01E
 Epicentro: CEPITA - SANTANDER                                                 3
 ACTION:UPD 12-07-13 15:53 OP:ep   STATUS:               ID:20110824082620 L   I
 2011-08-24-0823-57S.COL___159                                                 6
 STAT SP IPHASW D HRMM SECON CODA AMPLIT PERI AZIMU VELO AIN AR TRES W  DIS CAZ7
 BAR2 SZ EP   1    826 39.79                             166    0.00 7 34.8 220 
 BAR2 SZ I         826 40.06         8.5 0.19                          34.8 220 
 BAR2 SZ ES   1    826 55.25                             166    0.03 7 34.8 220 
 BRR  HZ EP   1    826 41.83                             147   -0.13 7 86.3 291 
 BRR  HZ I         826 46.35        14.5 0.08                          86.3 291 
 BRR  HE ES   1    826 59.16                             147    0.08 7 86.3 291 
 RUS  HZ EP   1    826 43.80                             142   -0.15 7  105 186 
 RUS  HN ES   1    827  2.68                             142    0.06 7  105 186 
 RUS  HZ I         827  4.58         2.4 0.44                           105 186 
 OCA  SZ EP   1    826 48.54                             129    0.36 7  160 346 
 OCA  SZ ES   1    827  9.94                             129   -0.22 7  160 346 
 OCA  SZ I         827 15.15         7.5 0.33                           160 346 
 RREF HZ EP   1    827  7.96                             109   -0.01 5  338 231 
                                                                                
