 2011  624 0733 50.9 L   6.765 -73.074144.8  RSN 16 0.3 2.5LRSN                1
 GAP=147        0.65       2.6     4.5  4.2 -0.5420E+01  0.1644E+01  0.2307E+01E
 Epicentro: LOS SANTOS - SANTANDER                                             3
 ACTION:UP  11-07-14 19:07 OP:ep   STATUS:               ID:20110624073350 L   I
 2011-06-24-0720-00M.COL___124                                                 6
 STAT SP IPHASW D HRMM SECON CODA AMPLIT PERI AZIMU VELO SNR AR TRES W  DIS CAZ7
 BAR2 SZ IP        734 10.41                             171     0.010   23 212 
 BAR2 SZ ES   1    734 25.65                             171     0.1 7   23 212 
 BAR2 SZ I         734 27.23       164.6 0.95                            23 212 
 BTL  SZ EP        734 10.53                             169     0.010   27 308 
 GIR2 SZ IP        734 10.44                             165    -0.210   37 339 
 GIR2 SZ ES   2    734 25.84                             165    -0.2 5   37 339 
 PAM  SZ EP        734 13.39                             151     0.510   76  33 
 PAM  SN ES   2    734 29.97                             151    -0.1 5   76  33 
 BRR  HZ EP        734 12.25                             150    -0.210   80 298 
 BRR  HZ I         734 12.49       129.0 0.05                            80 298 
 BRR  HE ES   1    734 29.32                             150     0.0 7   80 298 
 RUS  HZ IP     D  734 14.22                             145     0.010   96 181 
 RUS  HN ES   2    734 32.31                             145    -0.2 5   96 181 
 RUS  HZ I         734 34.30        32.2 0.47                            96 181 
 BRI  SZ IP        734 14.90                             141     0.110  110  16 
 BRI  SZ ES   2    734 33.96                             141     0.5 5  110  16 
 GRA  SZ IP        734 16.14                             136     0.010  127  14 
 GRA  SZ I         734 17.33        47.7 0.34                           127  14 
 GRA  SZ ES   2    734 35.08                             136    -0.8 5  127  14 
 OCA  SZ EP        734 19.35                             128    -0.2 9  165 351 
 OCA  SZ ES   2    734 42.24                             128     0.3 5  165 351 
 OCA  SZ I         734 48.08        31.4 0.35                           165 351 
 NOR  SZ EP   1    734 26.50                             118    -0.5 6  239 236 
 NOR  SN ES   2    734 54.99                             118    -0.2 4  239 236 
 CHI  HZ EP   1    734 27.98                             117    -0.4 6  247 197 
 CHI  HN ES   2    734 57.83                             117     0.2 4  247 197 
 CHI  HZ I         735  7.24        14.9 0.67                           247 197 
 ROSC BZ EP   1    734 29.83                             116     0.8 6  254 213 
 ROSC BN ES   2    734 58.81                             116     0.0 4  254 213 
 HEL  HZ EP   1    734 32.19                             114     0.4 6  279 257 
 HEL  HZ I         735  8.97         8.0 0.33                           279 257 
 VIL  SZ EP   1    734 33.49                             112    -0.5 5  301 193 
 VIL  SE ES   2    735  7.55                             112    -0.1 4  301 193 
 GUY  SZ EP   1    734 35.86                             112     0.7 5  308 237 
 GUY  SN ES   2    735  9.80                             112     0.0 4  308 237 
 PRA  HZ EP   1    734 44.17                             106    -0.3 4  393 211 
 PRA  HN ES   2    735 26.73                             106     0.5 3  393 211 
                                                                                
