 2016 1224 0615 54.8 L   6.785 -73.157139.6  RSN  6 0.5 1.2LRSN                1
 GAP=235        1.22       6.7     7.8  8.7  0.2921E+02  0.1610E+02  0.1565E+02E
 Epicentro: LOS SANTOS - SANTANDER                                             3
 ACTION:UPD 17-01-11 20:18 OP:rebc STATUS:               ID:20161224061554 L   I
 OLDACT:REG 16-12-24 13:23 OP:cog  STATUS:               ID:20161224060746     3
 2016-12-24-0608-00M.COL___387                                                 6
 STAT SP IPHASW D HRMM SECON CODA AMPLIT PERI AZIMU VELO AIN AR TRES W  DIS CAZ7
 BAR2 EZ EP        616 13.41                             171   -0.2310 21.5 187 
 BAR2 EZ ES        616 27.47                             171   -0.8810 21.5 187 
 BAR2 EZ I         616 31.57         4.4 0.29            169           21.5 187 
 BRR  HZ EP        616 15.58                             151    0.3210 70.9 300 
 BRR  HE ES        616 31.98                             151    0.7510 70.9 300 
 BRR  HZ I         616 35.07         4.5 0.32            153           70.9 300 
 RUS  HZ EP        616 17.91                             143    0.0810 99.0 175 
 RUS  HN ES        616 36.30                             143    0.5010 99.0 175 
 RUS  HZ I         616 37.46         3.0 0.34            144           99.0 175 
 PTB  HZ EP        616 20.68                             131   -0.44 9  146 259 
 PTB  HN ES        616 41.18                             131   -0.47 9  146 259 
 PTB  HZ I         616 43.13         1.2 0.14            133            146 259 
 ZAR  HN ES        616 51.89                             121    0.15 9  203 293 
 CHI  HZ EP        616 31.75                             116   -0.19 8  247 195 
 CHI  HN ES        617  1.32                             116    0.40 8  247 195 
 CHI  HZ I         617  4.78         1.0 0.52            118            247 195 
                                                                                
