 2010  324 0310 51.9 L   6.815 -73.045143.8  RSN  5 0.2 1.7LRSN                1
 GAP=193        0.46       2.9     7.0  4.5  0.7533E+01 -0.1220E+02 -0.7985E+00E
 Epicentro: LOS SANTOS - SANTANDER                                             3
 ACTION:UP  10-08-24 09:55 OP:vdl  STATUS:               ID:20100324031052 L   I
 2010-03-24-0309-26S.COL___098                                                 6
 STAT SP IPHASW D HRMM SECON CODA AMPLIT PERI AZIMU VELO SNR AR TRES W  DIS CAZ7
 BAR2 SZ EP   1    311 11.50                             168     0.1 7   29 212 
 BAR2 SZ ES   1    311 26.42                             168    -0.3 7   29 212 
 BRR  HZ IP        311 13.28                             149    -0.110   81 294 
 BRR  HN ES        311 30.27                             149     0.110   81 294 
 BRR  HZ I         311 31.27        10.5 0.20                            81 294 
 RUS  HZ EP   1    311 15.80                             143     0.2 7  102 182 
 RUS  HE ES   2    311 34.20                             143     0.2 5  102 182 
 RUS  HZ I         311 35.25         4.6 0.21                           102 182 
 OCA  SZ EP   1    311 19.90                             129    -0.2 7  160 349 
 OCA  SZ ES   2    311 42.55                             129     0.5 5  160 349 
 OCA  SZ I         311 46.38        11.5 0.08                           160 349 
 CHI  HZ EP   1    311 29.98                             116     0.0 6  253 198 
 CHI  HE ES   2    311 59.83                             116     0.1 4  253 198 
 CHI  HZ I         312  3.35         2.4 0.43                           253 198 
                                                                                
