 2016  724 0748 51.6 L   6.796 -73.104143.5  RSN  5 0.4 1.4LRSN                1
 GAP=142        1.03       5.0     6.9  7.6 -0.1090E+02  0.3223E+01  0.5654E+01E
 Epicentro: LOS SANTOS - SANTANDER                                             3
 ACTION:UPD 17-03-29 16:54 OP:lp   STATUS:               ID:20160724074851 L   I
 OLDACT:REG 16-07-24 14:08 OP:ar   STATUS:               ID:20160724074759     3
 2016-07-24-0747-59S.COL___331                                                 6
 STAT SP IPHASW D HRMM SECON CODA AMPLIT PERI AZIMU VELO AIN AR TRES W  DIS CAZ7
 BAR2 EZ EP        749 10.81                             170   -0.1510 24.1 201 
 BAR2 EZ ES        749 26.30                             170    0.2310 24.1 201 
 PAM  EZ EP        749 13.72                             151    0.3110 74.9  37 
 PAM  EN ES        749 29.77                             151   -0.6610 74.9  37 
 PAM  EZ I         749 32.93         4.1 0.54            153           74.9  37 
 BRR  HZ IP     C  749 12.61                             151   -0.1310 75.5 297 
 BRR  HN ES        749 29.70                             151    0.4610 75.5 297 
 BRR  HZ I         749 33.89         3.5 0.18            150           75.5 297 
 RUS  HZ EP        749 15.33                             144    0.2710 99.9 179 
 RUS  HN ES        749 33.62                             144    0.2510 99.9 179 
 RUS  HZ I         749 34.60         3.5 0.34            147           99.9 179 
 SPBC HZ EP        749 20.25                             128    0.09 9  166 220 
 SPBC HN ES        749 41.66                             128   -0.78 9  166 220 
 SPBC HZ I         749 44.06         4.6 0.28            130            166 220 
                                                                                
