 2014  724 0338 24.6 L   6.863 -73.114134.0  RSN  4 0.4 1.5LRSN                1
 GAP=187        0.93       4.4     7.3 13.5 -0.9641E+00  0.4304E+02 -0.1810E+02E
 Epicentro: LOS SANTOS - SANTANDER                                             3
 ACTION:UP  15-03-16 20:46 OP:nd   STATUS:               ID:20140724033824 L   I
 OLDACT:UPD 14-08-05 14:34 OP:nd   STATUS:               ID:20140724033824 L   3
 OLDACT:UP  14-07-24 16:02 OP:mh   STATUS:               ID:20140724032820d    3
 OLDACT:DUP 14-07-24 15:57 OP:mh   STATUS:               ID:20140724032820d    3
 2014-07-24-0328-19M.COL___269                                                 6
 STAT SP IPHASW D HRMM SECON CODA AMPLIT PERI AZIMU VELO AIN AR TRES W  DIS CAZ7
 RUS  HN ES        339  5.99                             139    0.2410  107 178 
 RUS  HZ I         339  8.15         3.4 0.23            120            107 178 
 PTB  HZ EP        338 50.68                             128   -0.38 9  153 257 
 PTB  HN ES        339 11.32                             128   -0.41 9  153 257 
 PTB  HZ I         339 14.54         4.7 0.06            118            153 257 
 OCA  HN ES        339 12.07                             128   -0.20 9  154 352 
 ZAR  HZ EP        338 56.72                             119    0.37 9  205 290 
 ZAR  HN ES   1    339 21.99                             119    0.85 6  205 290 
 ZAR  HZ I         339 26.45         3.1 0.26            108            205 290 
                                                                                
