 2013  724 0457 20.3 L   6.802 -73.129152.0  RSN 12 0.5 2.3LRSN                1
 GAP=183        0.95       3.2     5.9  6.1 -0.1952E+01  0.1887E+01 -0.1248E+01E
 Epicentro: LOS SANTOS - SANTANDER                                             3
 ACTION:UPD 13-08-12 10:39 OP:ep   STATUS:               ID:20130724045720 L   I
 OLDACT:UP  13-07-24 10:48 OP:cam  STATUS:               ID:20130724044959     3
 OLDACT:REG 13-07-24 09:09 OP:cam  STATUS:               ID:20130724044959     3
 2013-07-24-0449-59M.COL___267                                                 6
 STAT SP IPHASW D HRMM SECON CODA AMPLIT PERI AZIMU VELO AIN AR TRES W  DIS CAZ7
 BAR2 SZ EP        457 40.66                             171   -0.0310 24.0 194 
 BAR2 SZ ES   1    457 55.97                             171   -0.63 7 24.0 194 
 BAR2 SZ I         457 58.45        40.8 0.32            153           24.0 194 
 BRR  HZ IP     C  457 42.56                             153    0.3610 72.7 298 
 BRR  HZ I         457 42.61        43.5 0.24            130           72.7 298 
 BRR  HN ES        458  0.16                             153    0.8710 72.7 298 
 RUS  HZ EP        457 44.75                             145    0.0710  101 177 
 RUS  HN ES   1    458  3.58                             145   -0.11 7  101 177 
 RUS  HZ I         458  5.85        14.7 0.54            132            101 177 
 PTB  HZ EP        457 47.53                             133   -0.41 9  150 259 
 PTB  HN ES   1    458  8.76                             133   -0.75 7  150 259 
 PTB  HZ I         458 14.46        32.3 0.32            114            150 259 
 OCA  HZ EP        457 49.06                             131   -0.04 9  160 352 
 OCA  HN ES   1    458 11.68                             131    0.12 7  160 352 
 OCA  HZ I         458 16.71        18.0 0.42            117            160 352 
 ZAR  HZ EP   1    457 54.02                             124    0.70 6  206 292 
 ZAR  HZ I         458 25.96        22.4 0.44            108            206 292 
 NOR  HZ EP   1    457 56.27                             120   -0.30 6  236 235 
 NOR  HN ES        458 24.66                             120   -0.20 8  236 235 
 NOR  HZ I         458 28.70        16.4 0.20            106            236 235 
 SML  HZ EP        457 57.05                             119   -0.29 8  244 335 
 SML  HE ES   1    458 25.59                             119   -0.64 6  244 335 
 SML  HZ I         458 32.71        22.5 0.26            106            244 335 
 CHI  HZ EP   2    457 58.87                             118    0.44 4  249 196 
 CHI  HN ES   1    458 28.13                             118   -0.04 6  249 196 
 CHI  HZ I         458 35.58        10.7 0.46            106            249 196 
 ROSC BZ EP   4    458  0.62                             118    1.73 0  254 211 
 HEL  HZ EP   4    458  2.81                             116    1.77 0  274 256 
 HEL  HZ I         458 39.06        11.5 0.34            103            274 256 
 COD  HZ EP   1    458  8.46                             110   -0.46 5  348 354 
 PRA  HZ EP   1    458 14.20                             108    0.03 4  393 210 
 PRA  HN ES   1    458 57.51                             108    1.32 4  393 210 
 PRA  HZ I         459  3.08         7.1 0.26             97            393 210 
                                                                                
