 2014  824 0459 15.6 L   6.177 -73.498121.8  RSN 15 0.5 1.7LRSN                1
 GAP= 64        1.77       4.4     4.4  9.6 -0.3435E+01  0.8851E+01  0.7428E+01E
 Epicentro: AGUADA - SANTANDER                                                 3
 ACTION:UPD 14-09-15 21:52 OP:nd   STATUS:               ID:20140824045915 L   I
 OLDACT:REG 14-08-24 14:06 OP:stll STATUS:               ID:20140824045808     3
 2014-08-24-0458-08M.COL___257                                                 6
 STAT SP IPHASW D HRMM SECON CODA AMPLIT PERI AZIMU VELO AIN AR TRES W  DIS CAZ7
 RUS  HZ EP        459 34.07                             153    0.1210 55.6 124 
 RUS  HN ES        459 48.51                             153    0.2110 55.6 124 
 RUS  HZ I         459 50.16         6.8 0.16            158           55.6 124 
 BAR2 SZ EP        459 33.50                             153   -0.1910 57.7  37 
 BAR2 SZ ES        459 47.80                             153   -0.0410 57.7  37 
 BAR2 SZ I         459 51.25        14.0 0.28            155           57.7  37 
 BRR  HZ EP        459 36.73                             136   -0.0310  106 347 
 BRR  HN ES        459 54.50                             136    1.1910  106 347 
 BRR  HZ I         5 0  3.69         5.4 0.12            139            106 347 
 PTB  HZ EP        459 36.68                             134   -0.7810  113 291 
 PTB  HN ES        459 53.64                             134   -0.9110  113 291 
 PTB  HZ I         459 56.42         5.5 0.20            137            113 291 
 PAM  SZ EP        459 42.08                             124   -0.04 9  156  34 
 PAM  SN ES        5 0  2.45                             124   -0.40 9  156  34 
 PAM  SZ I         5 0  9.92         2.5 0.20            128            156  34 
 NOR  HZ EP        459 42.24                             122   -0.36 9  166 246 
 NOR  HN ES        5 0  4.17                             122    0.47 9  166 246 
 NOR  HZ I         5 0  8.29        15.7 0.44            126            166 246 
 CHI  HZ EP        459 44.10                             121    0.33 9  173 189 
 CHI  HZ I         459 44.48         5.8 0.22            126            173 189 
 CHI  HN ES        5 0  5.77                             121   -0.01 9  173 189 
 TAM  HZ IP     D  459 45.29                             118    0.10 9  191  81 
 TAM  HZ I         459 45.70        10.1 0.28            122            191  81 
 TAM  HN ES   1    5 0  7.27                             118   -1.03 7  191  81 
 ZAR  HZ EP        459 46.58                             116   -0.54 8  209 314 
 ZAR  HE ES        5 0 11.22                             116   -0.53 8  209 314 
 ZAR  HZ I         5 0 12.73        10.2 0.32            119            209 314 
 HEL  HZ EP   1    459 48.84                             114   -0.47 6  225 271 
 HEL  HN ES        5 0 16.11                             114    0.48 8  225 271 
 HEL  HZ I         5 0 24.02         4.4 0.48            117            225 271 
 OCA  HN ES        5 0 16.95                             113    0.99 8  229   5 
 GUY2CHZ EP        459 51.11                             113    0.85 8  232 243 
 GUY2CHN ES        5 0 17.39                             113    0.06 8  232 243 
 GUY2CHZ I         5 0 24.07         4.5 0.34                           232 243 
 URE  HZ EP   9    459 54.35                             108   -1.29 0  284 308 
 URE  HE ES        5 0 23.46                                   -2.16 7  284 308 
 URE  HZ I         5 0 26.43         7.5 0.14            111            284 308 
 ORTC HZ EP        459 59.82                             106    0.36 7  317 218 
 ORTC HZ I         5 0  0.38         1.6 0.20            109            317 218 
 ORTC HN ES        5 0 33.64                             106   -0.07 7  317 218 
 MON  HZ EP   9    5 0  4.10                             103   -2.07 0  374 320 
 MON  HN ES        5 0 40.72                                   -2.86 6  374 320 
 MON  HZ I         5 0 45.26         1.1 0.24            105            374 320 
                                                                                
