 2012  524 0220 40.0 L   6.767 -73.276139.8  RSN  5 0.4 1.4LRSN                1
 GAP=153        0.59       5.3     7.4  9.5  0.7270E+01  0.1142E+02 -0.7601E+01E
 Epicentro: ZAPATOCA - SANTANDER                                               3
 ACTION:UP  12-07-05 12:07 OP:pat  STATUS:               ID:20120524022040 L   I
 2012-05-24-0220-00M.COL___200                                                 6
 STAT SP IPHASW D HRMM SECON CODA AMPLIT PERI AZIMU VELO SNR AR TRES W  DIS CAZ7
 BAR2 SZ ES   2    221 12.98                             170    -0.6 5   22 152 
 BAR2 SZ I         221 15.43         9.7 0.29                            22 152 
 RUS  HZ EP   1    221  3.22                             143     0.2 7   99 168 
 RUS  HN ES   2    221 21.15                             143     0.1 5   99 168 
 RUS  HZ I         221 23.62         2.6 0.30                            99 168 
 PTB  HZ EP   2    221  4.83                             133    -0.3 5  133 259 
 PTB  HE ES   2    221 24.99                             133     0.3 5  133 259 
 PTB  HZ I         221 33.85         3.5 0.44                           133 259 
 OCA  HN ES   2    221 30.38                             127     0.4 5  163 358 
 SJC  HZ EP   2    221 34.21                             105    -0.6 3  405 329 
                                                                                
