 2012  124 0947 36.2 L   6.542 -73.747 91.8  RSN  8 0.3 1.6LRSN                1
 GAP=125        0.80       4.2     3.2  8.3  0.2852E+01  0.8311E+01  0.3743E+01E
 Epicentro: SANTA HELENA DEL OPON - SANTANDER                                  3
 ACTION:UP  12-02-03 08:20 OP:REBC STATUS:               ID:20120124094736 L   I
 2012-01-24-0940-00M.COL___187                                                 6
 STAT SP IPHASW D HRMM SECON CODA AMPLIT PERI AZIMU VELO SNR AR TRES W  DIS CAZ7
 BRR  HZ EP        947 50.94                             143    -0.310   63   4 
 BAR2 SZ EP        947 51.64                             143     0.110   63  85 
 BAR2 SZ I         947 51.80        11.6 0.29                            63  85 
 BAR2 SZ ES   2    948  3.62                             143     0.1 5   63  85 
 BRR  HZ I         947 54.84        10.1 0.06                            63   4 
 BRR  HN ES   1    948  3.18                             143     0.2 7   63   4 
 PTB  HZ EP        947 52.13                             136    -0.410   78 270 
 PTB  HN ES   2    948  5.02                             136    -0.2 5   78 270 
 GIR2 SZ EP   1    947 52.82                             134    -0.5 7   85  46 
 RUS  HZ EP   1    947 55.54                             129     0.2 7  103 134 
 RUS  HE ES   1    948 10.59                             129     0.3 7  103 134 
 RUS  HZ I         948 12.99         4.5 0.38                           103 134 
 ZAR  HZ EP   2    948  0.90                             115    -0.1 5  162 311 
 ZAR  HE ES   1    948 20.89                             115     0.6 7  162 311 
 ZAR  HZ I         948 25.00        14.8 0.31                           162 311 
 OCA  SZ EP   1    948  4.97                             111     0.2 7  193  14 
 HEL  HZ EP   1    948  6.58                             110     0.7 6  201 259 
 HEL  HN ES   1    948 28.87                             110    -0.2 6  201 259 
 HEL  HZ I         948 34.94         5.0 0.21                           201 259 
                                                                                
