 2011  424 0620 21.7 L   6.802 -73.100143.8  RSN 19 0.5 2.9LRSN                1
 GAP=118        1.10       3.6     5.8  6.6 -0.6429E+01  0.1045E+02  0.7001E+01E
 Epicentro: LOS SANTOS - SANTANDER                                             3
 ACTION:UP  11-06-22 15:33 OP:REBC STATUS:               ID:20110424062021 L   I
 2011-04-24-0619-27S.COL___138                                                 6
 STAT SP IPHASW D HRMM SECON CODA AMPLIT PERI AZIMU VELO SNR AR TRES W  DIS CAZ7
 BAR2 SZ IP        620 40.93                             169    -0.210   25 202 
 BAR2 SZ I         620 56.83       148.4 0.37                            25 202 
 GIR2 SZ EP        620 42.03                             167     0.810   32 341 
 GIR2 SZ ES   1    620 56.90                             167     0.5 7   32 341 
 PAM  SZ EP        620 43.81                             152     0.310   74  37 
 PAM  SN ES   1    621  0.49                             152    -0.1 7   74  37 
 BRR  HZ EP        620 42.81                             151    -0.110   76 297 
 BRR  HN ES   1    620 59.90                             151     0.5 7   76 297 
 BRR  HZ I         621  4.25       212.6 0.12                            76 297 
 RUS  HZ EP        620 44.87                             143    -0.410  101 179 
 RUS  HN ES   1    621  3.08                             143    -0.6 7  101 179 
 RUS  HZ I         621  5.15        61.1 0.33                           101 179 
 BRI  SZ EP        620 45.62                             142     0.310  107  18 
 BRI  SZ ES   1    621  3.57                             142    -0.1 7  107  18 
 GUE  SZ EP        620 46.46                             139     0.310  115  10 
 GRA  SZ IP        620 46.91                             137     0.310  124  15 
 GRA  SZ I         620 48.21        95.4 0.25                           124  15 
 GRA  SZ ES   1    621  5.27                             137    -0.8 7  124  15 
 OCA  SZ EP        620 49.31                             129    -0.6 9  161 351 
 OCA  SZ ES   1    621 10.85                             129    -1.1 7  161 351 
 OCA  SZ I         621 16.26        98.7 0.42                           161 351 
 YOP  SZ IP        620 51.69                             126     0.3 9  177 155 
 YOP  SN ES   3    621 14.20                             126    -0.4 2  177 155 
 NOR  SZ EP        620 57.38                             117    -0.4 8  239 235 
 ROSC BZ EP   3    621  0.69                             116     0.6 2  256 212 
 ROSC BN ES   2    621 29.87                             116    -0.1 4  256 212 
 ROSC BZ I         621 37.86        61.3 0.35                           256 212 
 HEL  HZ EP        621  2.85                             114     0.5 7  277 256 
 HEL  HZ I         621 39.94        20.1 0.44                           277 256 
 VIL  SZ EP   1    621  5.28                             112     0.1 5  305 193 
 VIL  SN ES   2    621 38.23                             112    -0.9 4  305 193 
 VIL  SZ I         621 47.33        26.2 0.47                           305 193 
 GUY  SZ EP        621  6.36                             111     0.4 7  308 236 
 GUY  SN ES   1    621 40.75                             111     0.2 5  308 236 
 GUY  SZ I         621 45.08        34.5 0.49                           308 236 
 DBB  SZ EP        621  9.23                             109    -0.5 7  345 274 
 TOL  SZ EP   1    621 10.39                             109     0.1 5  347 225 
 MON  HZ IP   4 D  621  8.78                             108    -2.3 0  358 308 
 PRA  HZ EP        621 15.36                             106    -0.1 6  395 210 
 PRA  HN ES   1    621 57.49                             106     0.1 4  395 210 
 PRA  HZ I         622  4.07        60.9 0.28                           395 210 
 SJA  SZ EP   3    621 15.15                             106    -1.2 1  401 194 
 SJA  SZ I         621 59.88        31.6 0.41                           401 194 
                                                                                
