 2011 1024 0520 29.8 L   6.791 -73.112141.9  RSN 10 0.4 2.1LRSN                1
 GAP=141        0.73       3.1     4.1  5.5 -0.2321E+01  0.8904E+01  0.1973E+01E
 Epicentro: LOS SANTOS - SANTANDER                                             3
 ACTION:UPD 12-07-13 16:05 OP:ep   STATUS:               ID:20111024052029 L   I
 2011-10-24-0517-35S.COL___159                                                 6
 STAT SP IPHASW D HRMM SECON CODA AMPLIT PERI AZIMU VELO AIN AR TRES W  DIS CAZ7
 BAR2 SZ EP   1    520 49.21                             170    0.28 7 23.3 199 
 BAR2 SZ ES   1    521  3.21                             170   -0.67 7 23.3 199 
 BAR2 SZ I         521  5.41        25.2 0.28                          23.3 199 
 BRR  HZ EP   1    520 51.08                             151    0.36 7 74.9 298 
 BRR  HZ I         520 51.28        23.8 0.17                          74.9 298 
 BRR  HN ES   1    521  7.76                             151    0.70 7 74.9 298 
 PAM  SZ EP   1    520 51.97                             150    0.49 7 75.9  37 
 PAM  SN ES   1    521  8.23                             150   -0.19 7 75.9  37 
 RUS  HZ EP   1    520 53.28                             143    0.23 7 99.4 178 
 RUS  HN ES   1    521 11.09                             143   -0.12 7 99.4 178 
 RUS  HZ I         521 12.90        12.3 0.23                          99.4 178 
 OCA  SZ EP   1    520 57.87                             128   -0.05 7  162 352 
 OCA  SZ ES   1    521 19.64                             128   -0.24 7  162 352 
 OCA  SZ I         521 22.98        14.6 0.17                           162 352 
 ZAR  HZ EP   1    521  2.12                             121   -0.24 6  208 292 
 ZAR  HN ES   1    521 27.45                             121   -0.33 6  208 292 
 ZAR  HZ I         521 33.03         9.1 0.15                           208 292 
 NOR  SZ EP   1    521  4.57                             117   -0.97 6  237 235 
 NOR  SN ES   1    521 33.40                             117   -0.03 6  237 235 
 HEL  HZ EP   1    521  9.94                             114   -0.22 6  275 256 
 HEL  HN ES   1    521 41.83                             114    0.17 6  275 256 
 HEL  HZ I         521 48.77         3.7 0.19                           275 256 
 RREF HZ EP   1    521 15.73                             110   -0.26 5  324 230 
 RREF HN ES   1    521 52.49                             110    0.45 5  324 230 
 PRA  HZ EP   1    521 23.40                             106    0.13 4  393 210 
 PRA  HN ES   1    522  5.35                             106    0.36 4  393 210 
 PRA  HZ I         522  9.39        13.9 0.23                           393 210 
                                                                                
