 2010  924 0930 33.4 L   6.799 -73.054146.5  RSN 11 0.4 2.6LRSN                1
 GAP=169        0.97       3.4     6.4  6.3 -0.7817E+01  0.7437E+01 -0.9727E-01E
 Epicentro: LOS SANTOS - SANTANDER                                             3
 ACTION:UP  11-02-18 11:05 OP:tino STATUS:               ID:20100924093033 L   I
 2010-09-24-0928-14S.COL___119                                                 6
 STAT SP IPHASW D HRMM SECON CODA AMPLIT PERI AZIMU VELO SNR AR TRES W  DIS CAZ7
 BAR2 SZ IP        930 53.29                             169     0.110   27 212 
 BAR2 SZ I         930 53.83       101.2 0.12                            27 212 
 BAR2 SZ ES        931  8.51                             169    -0.110   27 212 
 BRR  HZ EP        930 55.19                             150     0.010   80 295 
 BRR  HZ I         930 55.78        97.4 0.15                            80 295 
 BRR  HN ES   1    931 12.13                             150     0.0 7   80 295 
 RUS  HZ EP        930 57.26                             144     0.010  100 182 
 RUS  HE ES   1    931 15.82                             144     0.0 7  100 182 
 RUS  HZ I         931 16.96        37.3 0.34                           100 182 
 GUE  SZ EP        930 57.30                             140    -0.810  115   7 
 GRA  SZ IP        930 59.21                             138     0.710  123  13 
 GRA  SZ ES   1    931 18.78                             138     0.7 7  123  13 
 GRA  SZ I         931 19.86        68.2 0.55                           123  13 
 OCA  SZ EP        931  1.88                             129    -0.1 9  162 350 
 OCA  SZ ES   1    931 23.52                             129    -0.7 7  162 350 
 OCA  SZ I         931 26.91        52.5 0.37                           162 350 
 NOR  SZ EP   1    931  9.93                             118    -0.2 6  243 236 
 CHI  HZ EP   1    931 11.46                             117     0.0 6  251 197 
 CHI  HN ES        931 40.94                             117    -0.2 8  251 197 
 CHI  HZ I         931 44.10        20.1 0.45                           251 197 
 HEL  HZ EP   1    931 14.74                             114     0.0 6  282 256 
 HEL  HN ES   1    931 47.43                             114     0.4 6  282 256 
 HEL  HZ I         931 51.74        28.8 0.37                           282 256 
 RREF HZ EP   1    931 20.23                             110    -0.2 5  329 231 
 RREF HN ES   1    931 57.36                             110     0.2 5  329 231 
 RREF HZ I         932  2.09        24.8 0.35                           329 231 
 TOL  SZ EP   2    931 23.27                             109     0.7 3  351 226 
                                                                                
