 2017  224 0148 35.0 L   6.788 -73.146142.4  RSN 13 0.4 1.9LRSN                1
 GAP= 72        1.04       3.8     3.3  5.3  0.1897E+01  0.4014E+01  0.1250E+01E
 Epicentro: LOS SANTOS - SANTANDER                                             3
 ACTION:UPD 17-05-24 15:40 OP:jn   STATUS:               ID:20170224014835 L   I
 OLDACT:UP  17-02-24 14:32 OP:edw  STATUS:               ID:20170224014718     3
 OLDACT:REG 17-02-24 12:16 OP:edw  STATUS:               ID:20170224014718     3
 2017-02-24-0148-00M.COL___394                                                 6
 STAT SP IPHASW D HRMM SECON CODA AMPLIT PERI AZIMU VELO AIN AR TRES W  DIS CAZ7
 BAR2 EZ IP     C  148 54.20                             171   -0.0010 22.0 191 
 BAR2 EZ ES        149  8.95                             171   -0.2310 22.0 191 
 BAR2 EZ I         149 10.25        26.4 0.24            169           22.0 191 
 BRR  HZ IP     C  148 56.09                             151    0.2610 71.9 299 
 BRR  HN ES        149 12.87                             151    0.8010 71.9 299 
 BRR  HZ I         149 17.43        21.3 0.14            150           71.9 299 
 PAM  EZ IP     C  148 57.02                             150    0.1010 78.4  39 
 PAM  EN ES        149 13.98                             150   -0.0510 78.4  39 
 PAM  EZ I         149 16.03        13.7 0.66            154           78.4  39 
 RUS  HZ EP        148 58.15                             144   -0.1810 99.2 176 
 RUS  HN ES        149 16.32                             144   -0.2010 99.2 176 
 RUS  HZ I         149 17.44        13.8 0.24            144           99.2 176 
 PTB  HZ EP        149  1.37                             131   -0.30 9  148 259 
 PTB  HN ES        149 21.78                             131   -0.70 9  148 259 
 PTB  HZ I         149 24.18        11.0 0.26            130            148 259 
 TAM  HZ IP     D  149  2.58                             130    0.20 9  155 105 
 TAM  HN ES        149 23.52                             130   -0.22 9  155 105 
 TAM  HZ I         149 24.52         7.0 0.22            133            155 105 
 ZAR  HZ EP        149  7.21                             121   -0.07 9  205 292 
 ZAR  HN ES        149 32.88                             121    0.42 9  205 292 
 ZAR  HZ I         149 40.99        12.4 0.50            122            205 292 
 CHI  HZ EP        149 12.69                             117    0.32 8  247 195 
 CHI  HN ES        149 41.80                             117    0.28 8  247 195 
 CHI  HZ I         149 48.46         2.1 0.76            117            247 195 
 HEL  HZ EP        149 15.22                             114    0.21 8  272 256 
 HEL  HN ES   4    149 44.45                             114   -1.77 0  272 256 
 HEL  HZ I         149 54.94         3.7 0.28            114            272 256 
 PTGC HZ IP   9 C  149 17.48                             111   -1.08 0  307 159 
 PTGC HN ES        149 50.43                             112   -1.03 7  307 159 
 DBB  EZ EP        149 22.57                             109    0.21 7  340 274 
 DBB  EN ES   4    149 57.29                             109   -2.00 0  340 274 
 DBB  EZ I         150  1.87         2.0 0.12            109            340 274 
 PRA  HZ EP   4    149 29.03                             106    0.76 0  391 210 
 PRA  HN ES   4    150  7.93                             106   -1.89 0  391 210 
 PRA  HZ I         150 13.83         2.8 0.74            107            391 210 
 SJC  HZ EP        149 29.18                             105   -1.41 6  410 327 
 SJC  HN ES   4    150  9.42                             105   -4.52 0  410 327 
 SJC  HZ I         150 14.27         3.8 0.48            106            410 327 
                                                                                
