 2016  824 0633  6.2 L   6.825 -73.148146.3  RSN 13 0.5 2.0LRSN                1
 GAP=135        1.17       3.3     4.4  6.1 -0.3951E+01  0.6750E+01 -0.1605E+01E
 Epicentro: LOS SANTOS - SANTANDER                                             3
 ACTION:UPD 16-10-29 15:38 OP:rebc STATUS:               ID:20160824063306 L   I
 OLDACT:UP  16-08-24 13:12 OP:drio STATUS:               ID:20160824062734     3
 OLDACT:REG 16-08-24 12:32 OP:ak   STATUS:               ID:20160824062734     3
 2016-08-24-0628-00M.COL___371                                                 6
 STAT SP IPHASW D HRMM SECON CODA AMPLIT PERI AZIMU VELO AIN AR TRES W  DIS CAZ7
 BAR2 EZ EP        633 25.98                             170    0.0710 26.1 188 
 BAR2 HN ES        633 41.17                             170   -0.1510 26.1 188 
 BAR2 EZ I         633 41.86        22.6 0.24                          26.1 188 
 BRR  HZ EP     C  633 27.66                             153    0.3810 69.7 297 
 BRR  HE ES        633 44.70                             153    0.9410 69.7 297 
 BRR  HZ I         633 45.31        26.7 0.14                          69.7 297 
 PAM  EZ EP        633 28.74                             151    0.4310 75.4  41 
 PAM  EE ES        633 45.85                             151    0.2610 75.4  41 
 PAM  EZ I         633 47.69        22.4 0.54                          75.4  41 
 RUS  HZ EP        633 30.00                             143   -0.1710  103 176 
 RUS  HN ES        633 48.42                             143   -0.4710  103 176 
 PTB  HZ EP        633 32.67                             132   -0.53 9  148 258 
 PTB  HE ES        633 53.46                             132   -0.83 9  148 258 
 PTB  HZ I         633 54.95        10.0 0.42                           148 258 
 OCA  HZ EP        633 34.34                             130    0.09 9  157 353 
 OCA  HE ES        633 55.74                             130   -0.42 9  157 353 
 OCA  HZ I         633 58.58        30.1 0.20                           157 353 
 SPBC HZ EP        633 35.17                             129    0.28 9  165 218 
 SPBC HN ES        633 56.69                             129   -0.61 9  165 218 
 SPBC HZ I         634  1.18         8.2 0.36                           165 218 
 ZAR  HZ EP        633 39.13                             123    0.62 9  203 291 
 ZAR  HN ES        634  3.69                             123   -0.05 9  203 291 
 ZAR  HZ I         634  6.84        10.7 0.28                           203 291 
 HEL  HZ EP   4    633 47.42                             115    0.97 0  273 255 
 HEL  HN ES        634 18.37                             115    0.49 8  273 255 
 HEL  HZ I         634 24.15         5.5 0.30                           273 255 
 GUY2CHZ EP   4    633 52.46                             112    2.50 0  303 234 
 GUY2CHN ES        634 23.96                             112   -0.16 7  303 234 
 GUY2CHZ I         634 34.44         2.5 0.64                           303 234 
 LL6C HZ EP        633 51.07                             111   -0.49 7  322 358 
 LL6C HE ES        634 26.22                             111   -0.75 7  322 358 
 PRA  HZ EP        634  0.46                             106    0.49 6  394 209 
 PRA  HE ES        634 42.67                             106    0.73 6  394 209 
 PRA  HZ I         634 49.46         2.7 0.38                           394 209 
 SJC  HZ EP   4    633 58.32                             106   -3.13 0  407 327 
 SJC  HE ES   4    634 40.37                             106   -4.20 0  407 327 
 SJC  HZ I         634 45.16         2.7 0.44                           407 327 
                                                                                
