 2015 1224 0431 53.2 L   6.833 -73.161149.2  RSN 26 0.5 2.5LRSN                1
 GAP= 69        0.94       2.2     2.5  5.1 -0.5687E+00  0.3847E+01  0.2104E+01E
 Epicentro: LOS SANTOS - SANTANDER                                             3
 ACTION:UPD 16-02-04 15:07 OP:cam  STATUS:               ID:20151224043153 L   I
 OLDACT:REG 15-12-24 12:44 OP:dnl  STATUS:               ID:20151224042747     3
 2015-12-24-0427-47M.COL___334                                                 6
 STAT SP IPHASW D HRMM SECON CODA AMPLIT PERI AZIMU VELO AIN AR TRES W  DIS CAZ7
 BAR2 EZ IP     D  432 13.18                             169   -0.1310 26.7 185 
 BAR2 EZ ES   4    432 28.15                             169   -0.84 0 26.7 185 
 BAR2 EZ I         432 29.40        64.2 0.19            170           26.7 185 
 BRR  HZ EP        432 14.98                             154    0.4410 68.0 297 
 BRR  HE ES   2    432 32.17                             154    0.98 5 68.0 297 
 BRR  HZ I         432 33.20        31.2 0.14            152           68.0 297 
 PAM  EZ EP     D  432 16.20                             152    0.5210 75.7  42 
 PAM  EN ES        432 33.21                             152   -0.0010 75.7  42 
 PAM  EZ I         432 34.06        37.0 0.16            150           75.7  42 
 RUS  HZ EP        432 17.37                             143   -0.1810  104 175 
 RUS  HN ES   2    432 36.26                             143   -0.29 5  104 175 
 RUS  HZ I         432 36.95        25.1 0.16            143            104 175 
 PTB  HZ EP        432 19.77                             133   -0.59 9  147 257 
 PTB  HN ES        432 41.05                             133   -0.50 9  147 257 
 PTB  HZ I         432 42.91        25.6 0.11            131            147 257 
 OCA  HZ EP        432 21.38                             131   -0.04 9  156 354 
 OCA  HN ES        432 43.16                             131   -0.28 9  156 354 
 OCA  HZ I         432 51.81        59.1 0.27            129            156 354 
 TAM  HZ IP     D  432 21.62                             131    0.24 9  158 106 
 TAM  HZ I         432 42.56        16.6 0.30            129            158 106 
 TAM  HE ES        432 43.38                             131    0.01 9  158 106 
 SPBC HZ EP        432 22.02                             129   -0.11 9  165 218 
 SPBC HE ES        432 44.13                             129   -0.56 9  165 218 
 SPBC HZ I         432 48.67        41.2 0.17            128            165 218 
 ZAR  HZ EP   2    432 26.42                             123    0.85 4  201 291 
 ZAR  HN ES        432 51.28                             123    0.46 9  201 291 
 ZAR  HZ I         432 56.38        32.0 0.23            122            201 291 
 NOR  HZ EP        432 29.21                             119    0.00 8  235 234 
 NOR  HE ES        432 57.18                             119   -0.11 8  235 234 
 NOR  HZ I         433  3.11        21.6 0.20            118            235 234 
 SML  HZ EP        432 29.39                             118   -0.20 8  240 335 
 SML  HN ES        432 58.28                             118    0.31 8  240 335 
 SML  HZ I         433  2.63        34.3 0.08            117            240 335 
 CHI  HZ EP        432 31.31                             117   -0.11 8  252 195 
 CHI  HN ES        433  0.68                             117   -0.55 8  252 195 
 CHI  HZ I         433  4.18        21.1 0.63            116            252 195 
 ROSC BZ EP   4    432 33.10                             117    1.35 0  255 210 
 ROSC BE ES   2    433  2.04                             117    0.22 4  255 210 
 ROSC BZ I         433  7.62        47.3 0.46            116            255 210 
 HEL  HZ EP   2    432 34.30                             115    0.80 4  271 255 
 HEL  HN ES        433  5.58                             115    0.64 8  271 255 
 HEL  HZ I         433 11.27        16.6 0.22            114            271 255 
 URE  HZ EP        432 33.09                             114   -1.02 7  281 291 
 URE  HZ EPg       432 33.88                             114   -0.23 7  281 291 
 URE  HN ES   4    433  3.61                             114   -2.41 0  281 291 
 URE  HZ I         433 14.84        15.4 0.18            113            281 291 
 GUY2CHZ EP        432 37.51                             113    0.46 7  302 234 
 GUY2CHN ES   4    433 13.36                             113    2.11 0  302 234 
 GUY2CHZ I         433 19.84        14.9 0.52                           302 234 
 VIL  SZ EP   2    432 37.40                             112    0.27 4  307 191 
 VIL  SN ES        433 11.24                             112   -0.16 7  307 191 
 ELA  HZ EP   4    432 41.98                             111    1.66 0  330 229 
 ELA  HE ES   2    433 17.91                             111    0.84 3  330 229 
 ELA  HZ I         433 26.17        12.9 0.64            109            330 229 
 CBOC HZ EP        432 40.87                             110    0.67 7  333 251 
 CBOC HE ES        433 16.91                             110    0.05 7  333 251 
 CBOC HZ I         433 23.22         4.1 0.35            109            333 251 
 DBB  SZ EP   2    432 40.09                             110   -0.50 3  338 274 
 DBB  SZ ES        433 16.83                             110   -0.73 7  338 274 
 DBB  SZ I         433 18.85        40.1 0.20            109            338 274 
 ANIL HZ EP        432 44.03                             109    0.73 6  359 224 
 ANIL HN ES        433 23.30                             109    0.93 6  359 224 
 PRA  HZ EP        432 47.01                             107   -0.10 6  394 209 
 PRA  HN ES        433 28.73                             107   -0.43 6  394 209 
 PRA  HZ I         433 33.68        15.1 0.55            106            394 209 
 ORTC HZ EP        432 47.55                             107    0.09 6  397 216 
 ORTC HN ES        433 30.89                             107    1.10 6  397 216 
 ORTC HZ I         433 34.57        10.3 0.28            106            397 216 
 SJC  HZ EP        432 47.49                             106   -0.92 6  405 327 
 SJC  HN ES   4    433 28.53                             106   -2.94 0  405 327 
 SJC  HZ I         433 40.73         4.9 0.17            105            405 327 
 PAL  HZ EP        432 48.70                             106    0.18 6  406 239 
 PAL  HN ES   2    433 30.92                             106   -0.75 3  406 239 
 PAL  HZ I         433 36.82         3.2 0.17            105            406 239 
 MACC HZ EP   4    433  0.52                             102   -1.87 0  524 188 
 MACC HN ES   4    433 52.17                             102   -4.19 0  524 188 
 MACC HZ I         433 57.56         2.8 0.17            101            524 188 
                                                                                
