 2012  524 0842 26.2 L   6.782 -73.198136.0  RSN  5 0.1 1.5LRSN                1
 GAP=177        0.43       2.8     3.1  7.8  0.1738E+01  0.3401E+01 -0.1329E+00E
 Epicentro: ZAPATOCA - SANTANDER                                               3
 ACTION:UP  12-07-05 12:07 OP:pat  STATUS:               ID:20120524084226 L   I
 2012-05-24-0840-00M.COL___200                                                 6
 STAT SP IPHASW D HRMM SECON CODA AMPLIT PERI AZIMU VELO SNR AR TRES W  DIS CAZ7
 BAR2 SZ EP        842 44.75                             171     0.210   21 175 
 BAR2 SZ I         843  1.64         6.8 0.24                            21 175 
 RUS  HZ EP   1    842 48.83                             142     0.0 7   99 173 
 RUS  HE ES   2    843  6.38                             142    -0.2 5   99 173 
 RUS  HZ I         843  8.77         3.0 0.41                            99 173 
 PTB  HZ EP        842 51.61                             131    -0.2 9  142 259 
 PTB  HN ES   1    843 11.80                             131     0.0 7  142 259 
 PTB  HZ I         843 14.85         2.2 0.17                           142 259 
 OCA  HE ES   1    843 15.35                             127    -0.1 7  162 355 
 OCA  HZ I         843 20.87         9.1 0.31                           162 355 
 ZAR  HZ EP   2    842 57.68                             121     0.2 4  199 293 
 ZAR  HE ES   1    843 22.07                             121     0.1 6  199 293 
 ZAR  HZ I         843 29.97         4.4 0.25                           199 293 
                                                                                
