 2017  724 0424 27.0 L   6.760 -73.111149.4  RSN  6 0.3 1.4LRSN                1
 GAP=238        0.77       5.0     5.0  7.5  0.6546E+01  0.9157E+01 -0.9581E+01E
 Epicentro: LOS SANTOS - SANTANDER                                             3
 ACTION:UPD 17-08-30 15:36 OP:rebc STATUS:               ID:20170724042427 L   I
 OLDACT:UP  17-07-24 16:28 OP:and  STATUS:               ID:20170724041744     3
 OLDACT:REG 17-07-24 12:55 OP:and  STATUS:               ID:20170724041744     3
 2017-07-24-0418-00M.COL___380                                                 6
 STAT SP IPHASW D HRMM SECON CODA AMPLIT PERI AZIMU VELO AIN AR TRES W  DIS CAZ7
 BAR2 EZ EP        424 46.86                             172   -0.1110 20.1 203 
 BAR2 EZ ES        425  2.33                             172   -0.2410 20.1 203 
 BAR2 EZ I         425  3.58         4.7 0.26            166           20.1 203 
 BRR  HZ EP        424 48.95                             151    0.1410 76.7 300 
 BRR  HN ES   2    425  6.27                             151    0.40 5 76.7 300 
 RUS  HZ EP   2    424 51.50                             146    0.76 5 95.9 178 
 RUS  HN ES        425  9.41                             146    0.1110 95.9 178 
 RUS  HZ I         425 10.11         3.0 0.26            145           95.9 178 
 PTB  HZ EP        424 53.97                             132   -0.52 9  151 261 
 PTB  HN ES        425 15.67                             132   -0.30 9  151 261 
 PTB  HZ I         425 19.26         2.4 0.28            130            151 261 
 SPBC HN ES        425 18.27                             130    0.24 9  162 221 
 SPBC HZ I         425 23.86         2.8 0.14            128            162 221 
 ZAR  HZ EP   4    425  2.75                             122    2.57 0  209 293 
 ZAR  HN ES        425 26.55                             122    0.45 8  209 293 
 ZAR  HZ I         425 31.74         3.4 0.21            121            209 293 
                                                                                
