 2013  124 0437 43.0 L   6.781 -73.148145.4  RSN  5 0.5 1.4LRSN                1
 GAP=137        1.19       6.3     6.1  8.7 -0.3634E+01  0.6552E+01  0.2366E+01E
 Epicentro: LOS SANTOS - SANTANDER                                             3
 ACTION:UPD 13-02-15 09:16 OP:ep   STATUS:               ID:20130124043743 L   I
 2013-01-24-0428-36M.COL___180                                                 6
 STAT SP IPHASW D HRMM SECON CODA AMPLIT PERI AZIMU VELO AIN AR TRES W  DIS CAZ7
 BAR2 SZ EP        438  2.64                             171    0.0910 21.2 190 
 BAR2 SZ I         438  3.10         5.6 0.14            170           21.2 190 
 BAR2 SZ ES        438 17.55                             171   -0.2410 21.2 190 
 BRR  HZ EP        438  4.39                             152    0.2310 72.0 300 
 BRR  HZ I         438  4.66         4.3 0.26            150           72.0 300 
 BRR  HN ES        438 21.46                             152    0.8110 72.0 300 
 PAM  SZ EP        438  5.53                             150    0.2510 79.1  39 
 PAM  SZ I         438  5.73         4.8 0.22            152           79.1  39 
 PAM  SN ES        438 22.04                             150   -0.6210 79.1  39 
 RUS  HZ EP        438  6.98                             144    0.4110 98.5 176 
 RUS  HN ES        438 24.97                             144    0.0210 98.5 176 
 PTB  HZ EP        438  9.14                             132   -0.74 9  147 260 
 PTB  HN ES        438 30.49                             132   -0.36 9  147 260 
 PTB  HN I         438 35.65         4.0 0.22            130            147 260 
                                                                                
