 2013  724 0356 55.2 L   6.572 -73.513113.4  RSN 16 0.4 2.8LRSN                1
 GAP= 45        0.83       2.5     2.6  4.5 -0.5500E+00  0.3218E+01  0.1600E+01E
 Epicentro: EL CARMEN DE CHUCURI - SANTANDER                                   3
 ACTION:UPD 13-08-12 10:39 OP:ep   STATUS:               ID:20130724035655 L   I
 OLDACT:UP  13-07-24 10:30 OP:cam  STATUS:               ID:20130724034960d    3
 OLDACT:DUP 13-07-24 10:22 OP:cam  STATUS:               ID:20130724034960d    3
 OLDACT:REG 13-07-24 08:57 OP:cam  STATUS:               ID:20130724034959     3
 2013-07-24-0349-59M.COL___265                                                 6
 STAT SP IPHASW D HRMM SECON CODA AMPLIT PERI AZIMU VELO AIN AR TRES W  DIS CAZ7
 BAR2 SZ IP     D  357 11.53                             161    0.1610 36.6  86 
 BAR2 SZ ES        357 23.49                             161   -0.5110 36.6  86 
 BAR2 SZ I         357 25.53       616.7 0.33            153           36.6  86 
 BRR  HZ EP        357 12.27                             149   -0.1410 63.2 340 
 BRR  HE ES        357 26.26                             149    0.4210 63.2 340 
 BRR  HZ I         357 26.91        95.5 0.10            137           63.2 340 
 GIR2 SZ IP     C  357 12.80                             147   -0.0110 66.3  32 
 GIR2 SZ I         357 13.03       237.6 0.13            136           66.3  32 
 RUS  HZ EP        357 14.72                             139   -0.2210 88.9 148 
 RUS  HN ES   1    357 30.36                             139   -0.00 7 88.9 148 
 RUS  HZ I         357 31.26        46.0 0.50            133           88.9 148 
 PTB  HZ EP   4 D  357 14.37                             134   -1.21 0  104 268 
 PTB  HN ES   4    357 29.36                             134   -2.14 0  104 268 
 PTB  HZ I         357 30.27       155.2 0.40            126            104 268 
 PAM  SZ EP        357 17.85                             129   -0.1310  124  47 
 PAM  SN ES   1    357 35.95                             129    0.18 7  124  47 
 PAM  SZ I         357 40.15        69.2 0.36            119            124  47 
 ZAR  HZ EP        357 23.31                             118    0.19 9  180 304 
 ZAR  HE ES   4    357 46.43                             118    1.51 0  180 304 
 ZAR  HZ I         357 47.37       120.0 0.52            110            180 304 
 YOP  SZ EP        357 23.66                             117    0.32 9  181 138 
 YOP  SN ES   4    357 46.58                             117    1.27 0  181 138 
 YOP  SZ I         357 47.03       133.1 0.30            111            181 138 
 OCA  HZ EP        357 23.68                             117   -0.22 9  186   7 
 OCA  HN ES   1    357 46.72                             117    0.41 7  186   7 
 OCA  HZ I         357 54.24        55.7 0.14            109            186   7 
 NOR  HZ EP        357 23.21                             117   -0.71 9  187 233 
 NOR  HN ES   1    357 45.82                             117   -0.52 7  187 233 
 NOR  HZ I         357 48.47        98.0 0.18            111            187 233 
 TAM  HZ EP   1    357 24.37                             116    0.02 7  191  94 
 TAM  HN ES        357 47.48                             116    0.38 9  191  94 
 TAM  HZ I         357 49.85        51.5 0.26            109            191  94 
 CHI  HZ EP   1    357 28.03                             113    0.42 6  216 186 
 CHI  HE ES   4    357 54.53                             113    1.63 0  216 186 
 CHI  HZ I         357 58.35        15.4 0.22            108            216 186 
 HEL  HZ EP        357 28.77                             112   -0.01 8  227 259 
 HEL  HN ES   1    357 56.00                             112    1.02 6  227 259 
 HEL  HZ I         357 58.06        41.5 0.20            106            227 259 
 SML  HZ EP        357 30.84                             109   -0.57 8  254 346 
 SML  HN ES   4    358  2.11                             109    2.43 0  254 346 
 SML  HZ I         358  5.36       174.7 0.10            103            254 346 
 PRA  HZ EP        357 42.76                             102   -0.08 6  351 206 
 PRA  HN ES        358 20.45                             102    0.43 6  351 206 
 PRA  HZ I         358 24.74        17.8 0.24            100            351 206 
 COD  HZ EP   1    357 45.63                             101    0.31 5  372   1 
 COD  HZ I         358 34.68         9.7 0.42             99            372   1 
 SJC  HZ EP   4    357 48.44                              99   -1.64 0  411 334 
                                                                                
