 2016 1124 0211 34.8 L   6.747 -73.135148.0  RSN  7 0.6 1.9LRSN                1
 GAP=161        1.06       9.0     5.2  8.3 -0.1143E+02  0.9519E+01  0.4675E+01E
 Epicentro: LOS SANTOS - SANTANDER                                             3
 ACTION:UPD 17-10-26 21:11 OP:lp   STATUS:               ID:20161124021134 L   I
 OLDACT:UP  16-11-24 14:18 OP:dani STATUS:               ID:20161124020745d    3
 OLDACT:UP  16-11-24 14:18 OP:dani STATUS:               ID:20161124020745d    3
 OLDACT:UP  16-11-24 14:17 OP:dani STATUS:               ID:20161124020745d    3
 OLDACT:DUP 16-11-24 14:15 OP:dani STATUS:               ID:20161124020745d    3
 OLDACT:UP  16-11-24 14:14 OP:dani STATUS:               ID:20161124020744     3
 OLDACT:REG 16-11-24 12:31 OP:dani STATUS:               ID:20161124020744     3
 2016-11-24-0208-00M.COL___352                                                 6
 STAT SP IPHASW D HRMM SECON CODA AMPLIT PERI AZIMU VELO AIN AR TRES W  DIS CAZ7
 BAR2 EZ EP        211 54.05                             173   -0.5410 17.9 197 
 BAR2 EZ ES        212 10.59                             173    0.5610 17.9 197 
 BAR2 EZ I         212 12.13        16.9 0.22            171           17.9 197 
 BRR  HZ EP        211 56.54                             152    0.1410 75.1 302 
 BRR  HN ES        212 13.90                             152    0.6510 75.1 302 
 BRR  HZ I         212 17.04        10.5 0.15            147           75.1 302 
 PAM  EZ EP        211 57.49                             151    0.0210 81.3  36 
 PAM  EE ES        212 14.87                             151   -0.2910 81.3  36 
 PAM  EZ I         212 17.30        11.4 0.16            151           81.3  36 
 PTB  HZ EP        212  1.74                             133   -0.20 9  148 261 
 PTB  HN ES        212 22.76                             133   -0.37 9  148 261 
 PTB  HZ I         212 30.01        12.5 0.36            132            148 261 
 ZAR  HZ EP   3    212 10.63                             123    2.92 2  207 294 
 ZAR  HN ES        212 33.03                             123   -0.37 8  207 294 
 ZAR  HZ I         212 40.08         7.2 0.24            122            207 294 
 URE  HZ EP   4    212 19.01                             114    2.68 0  287 293 
 URE  HN ES   4    212 46.08                             114   -2.65 0  287 293 
 URE  HZ I         212 56.02         3.8 0.11            114            287 293 
 CBOC HZ EP   3    212 23.05                             111    1.33 2  333 253 
 CBOC HN ES   2    212 58.81                             111    0.49 3  333 253 
                                                                                
