 2017 1124 0803 28.0 L   6.822 -73.174138.0  RSN 10 0.4 1.6LRSN                1
 GAP=132        1.00       3.3     4.1  6.4 -0.3257E+01  0.1027E+02  0.2985E+01E
 Epicentro: ZAPATOCA - SANTANDER                                               3
 ACTION:UPD 17-12-12 19:59 OP:rebc STATUS:               ID:20171124080328 L   I
 OLDACT:REG 17-11-24 13:13 OP:osc  STATUS:               ID:20171124075737     3
 2017-11-24-0758-00M.COL___474                                                 6
 STAT SP IPHASW D HRMM SECON CODA AMPLIT PERI AZIMU VELO AIN AR TRES W  DIS CAZ7
 BAR2 EZ EP        8 3 46.61                             169   -0.0910 25.5 182 
 BAR2 EZ ES        8 4  1.61                             169    0.2910 25.5 182 
 BAR2 EZ I         8 4  3.21         8.5 0.20            169           25.5 182 
 PAM  EZ EP        8 3 49.56                             149    0.2010 77.6  42 
 PAM  EN ES        8 4  6.47                             149    0.4210 77.6  42 
 PAM  EZ I         8 4  7.21         5.9 0.18            154           77.6  42 
 RUS  HZ EP        8 3 50.74                             141   -0.4110  103 174 
 RUS  HN ES        8 4  9.06                             141   -0.1910  103 174 
 RUS  HZ I         8 4 10.23         4.7 0.22            144            103 174 
 PTB  HZ EP        8 3 53.52                             131   -0.54 9  145 258 
 PTB  HN ES        8 4 14.52                             131    0.10 9  145 258 
 PTB  HZ I         8 4 19.69         3.0 0.56            131            145 258 
 OCA  HE ES        8 4 16.42                             128   -0.39 9  157 354 
 SPBC HZ EP        8 3 55.73                             127   -0.14 9  163 218 
 SPBC HN ES        8 4 17.01                             127   -0.63 9  163 218 
 SPBC HZ I         8 4 20.28         7.2 0.22            128            163 218 
 ZAR  HN ES        8 4 23.96                             121   -0.15 9  200 292 
 ZAR  HZ I         8 4 30.50         7.5 0.46            122            200 292 
 NOR  HZ EP        8 4  2.93                             117   -0.19 8  234 234 
 NOR  HE ES        8 4 31.16                             117    0.60 8  234 234 
 NOR  HZ I         8 4 35.73         2.3 0.22            118            234 234 
 GUY2CHZ EP        8 4 12.23                             111    1.15 7  300 234 
 GUY2CHN ES        8 4 45.18                             111    0.45 7  300 234 
 GUY2CHZ I         8 4 53.02         1.5 0.38                           300 234 
 PRA  HZ EP        8 4 21.86                             105    0.57 6  393 209 
 PRA  HN ES        8 5  2.71                             105   -0.18 6  393 209 
 PRA  HZ I         8 5  8.00         1.2 0.58            107            393 209 
                                                                                
