 2013  524 0700 41.5 L   6.754 -73.173145.4  RSN  9 0.4 2.4LRSN                1
 GAP= 77        0.97       3.9     3.2  5.3  0.4117E+01  0.1319E+01  0.3219E+01E
 Epicentro: VILLANUEVA - SANTANDER                                             3
 ACTION:UPD 13-06-20 09:53 OP:ep   STATUS:               ID:20130524070041 L   I
 2013-05-24-0658-50M.COL___199                                                 6
 STAT SP IPHASW D HRMM SECON CODA AMPLIT PERI AZIMU VELO AIN AR TRES W  DIS CAZ7
 BAR2 SZ IP     C  7 1  0.95                             173   -0.0710 17.9 183 
 BAR2 SZ I         7 1  1.11        40.8 0.18            170           17.9 183 
 BAR2 SZ ES        7 1 15.79                             173   -0.4310 17.9 183 
 GIR2 SZ IP        7 1  1.29                             165   -0.0110 36.0 356 
 GIR2 SZ ES        7 1 16.79                             165    0.0810 36.0 356 
 BRR  HZ IP     D  7 1  3.08                             152    0.4410 71.2 303 
 BRR  HN ES        7 1 20.03                             152    0.9210 71.2 303 
 BRR  HN I         7 1 20.86       104.4 0.20            153           71.2 303 
 PAM  SZ IP     D  7 1  4.13                             149    0.0610 83.2  39 
 PAM  SZ I         7 1  4.45        27.2 0.26            153           83.2  39 
 PAM  SN ES        7 1 21.15                             149   -0.5010 83.2  39 
 RUS  HZ EP        7 1  4.73                             145   -0.1710 95.8 174 
 RUS  HE ES        7 1 23.28                             145    0.1410 95.8 174 
 RUS  HN I         7 1 27.13        21.6 0.56            144           95.8 174 
 PTB  HZ EP        7 1  7.69                             133   -0.43 9  144 261 
 PTB  HN ES        7 1 28.23                             133   -0.62 9  144 261 
 PTB  HN I         7 1 34.02        61.3 0.50            132            144 261 
 TAM  HZ EP        7 1  9.30                             130   -0.04 9  157 103 
 TAM  HZ I         7 1  9.35        30.3 0.16            132            157 103 
 TAM  HE ES        7 1 30.96                             130   -0.07 9  157 103 
 YOP  SZ EP        7 1 11.26                             127    0.02 9  176 152 
 YOP  SZ I         7 1 12.49        20.5 0.34            127            176 152 
 YOP  SN ES        7 1 34.90                             127    0.48 9  176 152 
 ZAR  HZ EP        7 1 14.09                             122    0.22 9  203 294 
 ZAR  HN ES        7 1 39.07                             122   -0.02 9  203 294 
                                                                                
