 2014  424 0732 57.9 L   6.818 -73.132138.5  RSN  7 0.4 1.7LRSN                1
 GAP=202        0.78       3.3     5.4  9.2  0.3799E+01 -0.2003E+01 -0.1019E+02E
 Epicentro: LOS SANTOS - SANTANDER                                             3
 OLDACT:DUP 14-04-24 16:41 OP:fm   STATUS:               ID:20140424072810d    3
 ACTION:UPD 14-05-13 23:11 OP:nd   STATUS:               ID:20140424073257 L   I
 OLDACT:UP  14-04-24 16:44 OP:fm   STATUS:               ID:20140424072810d    3
 2014-04-24-0728-09M.COL___242                                                 6
 STAT SP IPHASW D HRMM SECON CODA AMPLIT PERI AZIMU VELO AIN AR TRES W  DIS CAZ7
 RUS  HZ EP   1    733 21.39                             142    0.27 8  102 177 
 RUS  HN ES   1    733 39.44                             142    0.24 8  102 177 
 RUS  HZ I         733 40.77         8.8 1.56            145            102 177 
 PTB  HZ EP   1    733 23.90                             130   -0.60 8  150 258 
 PTB  HN ES   1    733 44.99                             130   -0.22 8  150 258 
 PTB  HZ I         733 52.26         3.9 0.34            129            150 258 
 SPBC HZ EP        733 25.90                             127   -0.2310  166 219 
 SPBC HN ES        733 47.81                             127   -0.3110  166 219 
 SPBC HZ I         733 54.12         7.2 0.32            128            166 219 
 ZAR  HZ EP   1    733 29.50                             121   -0.49 7  205 291 
 ZAR  HN ES        733 55.23                             121    0.24 9  205 291 
 ZAR  HZ I         734  0.45         5.4 0.40            121            205 291 
 NOR  HZ EP   2    733 32.65                             117   -0.87 4  237 234 
 NOR  HE ES   2    734  1.84                             117    0.57 4  237 234 
 NOR  HZ I         734 16.12         3.4 0.22            118            237 234 
 SML  HZ EP   1    733 34.21                             116    0.17 7  243 335 
 SML  HN ES        734  2.37                             116    0.17 9  243 335 
 SML  HZ I         734 10.18         4.0 0.08            119            243 335 
 ROSC BE ES   4    734  8.06                             115    2.47 0  255 211 
 GUY2CHZ EP   1    733 42.31                             111    0.82 6  304 235 
 GUY2CHE ES   1    734 16.28                             111    0.82 6  304 235 
 GUY2CHZ I         734 23.33         3.2 0.52                           304 235 
 SJC  HZ EP   4    733 51.28                             105   -1.89 0  408 327 
 SJC  HN ES   4    734 33.87                             105   -2.39 0  408 327 
                                                                                
