 2011  824 0038 58.1 L   6.773 -73.066137.5  RSN  5 0.3 1.9LRSN                1
 GAP=244        0.54       5.1     6.6  5.5  0.1507E+02  0.6972E+01  0.2444E+01E
 Epicentro: LOS SANTOS - SANTANDER                                             3
 ACTION:UPD 12-07-13 15:53 OP:ep   STATUS:               ID:20110824003858 L   I
 2011-08-24-0035-54S.COL___159                                                 6
 STAT SP IPHASW D HRMM SECON CODA AMPLIT PERI AZIMU VELO AIN AR TRES W  DIS CAZ7
 BAR2 SZ IP        039 16.71                             169   -0.0610 23.8 213 
 BAR2 SZ ES   1    039 31.27                             169   -0.04 7 23.8 213 
 BAR2 SZ I         039 32.94        27.7 0.29                          23.8 213 
 BRR  HZ EP   1    039 18.67                             148   -0.29 7 80.4 297 
 BRR  HZ I         039 21.98        23.0 0.11                          80.4 297 
 BRR  HN ES   1    039 35.38                             148    0.17 7 80.4 297 
 RUS  HZ EP   1    039 20.69                             143   -0.14 7 97.3 181 
 RUS  HZ I         039 21.54         6.7 0.09                          97.3 181 
 RUS  HN ES   1    039 38.76                             143    0.22 7 97.3 181 
 NOR  SN ES   2    040  1.41                             116   -0.56 4  240 236 
 HEL  HZ EP   1    039 39.42                             112    0.61 6  280 257 
 HEL  HZ I         040 15.83         5.8 0.55                           280 257 
                                                                                
