 2013  724 0959 23.6 L   6.798 -73.123144.7  RSN 10 0.4 1.9LRSN                1
 GAP=185        0.90       3.1     4.8  7.3 -0.2389E+01  0.8736E+01 -0.6761E+01E
 Epicentro: LOS SANTOS - SANTANDER                                             3
 ACTION:UPD 13-08-12 10:39 OP:ep   STATUS:               ID:20130724095923 L   I
 OLDACT:UP  13-07-24 19:08 OP:mh   STATUS:               ID:20130724095853     3
 OLDACT:UP  13-07-24 19:07 OP:mh   STATUS:               ID:20130724095853     3
 OLDACT:UP  13-07-24 19:07 OP:mh   STATUS:               ID:20130724095853     3
 OLDACT:REG 13-07-24 16:41 OP:stll STATUS:               ID:20130724095853     3
 2013-07-24-0958-53M.COL___231                                                 6
 STAT SP IPHASW D HRMM SECON CODA AMPLIT PERI AZIMU VELO AIN AR TRES W  DIS CAZ7
 BAR2 SZ EP   1    959 43.08                             170   -0.03 8 23.7 196 
 BAR2 SZ ES   1    959 57.87                             170   -0.45 8 23.7 196 
 BAR2 SZ I        10 0  1.71         3.8 0.12            169           23.7 196 
 GIR2 SZ EP   1    959 43.61                             167    0.45 8 32.0 346 
 BRR  HZ EP   1    959 45.32                             152    0.56 8 73.5 298 
 BRR  HN ES   1   10 0  1.98                             152    0.71 8 73.5 298 
 BRR  HN I        10 0  3.62        17.6 0.22            149           73.5 298 
 RUS  HN ES       10 0  5.32                             144   -0.3210  100 177 
 RUS  HN I        10 0  7.55         5.7 0.24            147            100 177 
 PTB  HZ EP   1    959 50.26                             131   -0.44 7  150 259 
 PTB  HN ES       10 0 11.19                             131   -0.64 9  150 259 
 PTB  HN I        10 0 16.75        22.6 0.32            131            150 259 
 OCA  HZ EP   1    959 52.06                             129    0.19 7  161 352 
 OCA  HN ES       10 0 13.85                             129   -0.08 9  161 352 
 OCA  HN I        10 0 16.79        18.8 0.20            131            161 352 
 SPBC HZ EP   1    959 52.17                             128    0.02 7  165 220 
 SPBC HN ES       10 0 15.10                             128    0.68 9  165 220 
 SPBC HN I        10 0 19.75        12.2 0.28            130            165 220 
 ZAR  HZ EP   1    959 56.00                             122   -0.22 6  206 292 
 ZAR  HE ES       10 0 21.59                             122   -0.07 8  206 292 
 ZAR  HZ I        10 0 28.32         4.2 0.30            123            206 292 
 NOR  HE ES       10 0 27.55                             118    0.10 8  237 235 
 NOR  HE I        10 0 32.49         6.7 0.42            119            237 235 
 SML  HZ EP   1    959 59.71                             117   -0.59 6  245 335 
 SML  HN ES   1   10 0 29.13                             117    0.21 6  245 335 
 SML  HN I        10 0 33.49         8.1 0.10            119            245 335 
                                                                                
