 2015  824 0240  4.5 L   6.804 -73.133146.0  RSN 23 0.4 2.5LRSN                1
 GAP=138        0.91       2.1     3.2  4.4 -0.1267E+01  0.4828E+01  0.1452E+01E
 Epicentro: LOS SANTOS - SANTANDER                                             3
 ACTION:UPD 15-09-15 23:04 OP:cam  STATUS:               ID:20150824024004 L   I
 OLDACT:REG 15-08-24 12:30 OP:spq  STATUS:               ID:20150824023744     3
 2015-08-24-0237-44M.COL___340                                                 6
 STAT SP IPHASW D HRMM SECON CODA AMPLIT PERI AZIMU VELO AIN AR TRES W  DIS CAZ7
 BAR2 EZ EP        240 23.89                             170   -0.2410 24.1 193 
 BAR2 EZ ES   1    240 39.02                             170   -0.45 7 24.1 193 
 BAR2 EZ I         240 40.23        96.3 0.13            167           24.1 193 
 BRR  HZ EP     C  240 25.84                             152    0.1510 72.2 298 
 BRR  HN ES        240 43.03                             152    0.7810 72.2 298 
 BRR  HZ I         240 43.72        41.0 0.30            149           72.2 298 
 PAM  EZ EP     C  240 26.88                             151    0.2510 76.1  39 
 PAM  EN ES        240 44.11                             151    0.2010 76.1  39 
 PAM  EZ I         240 45.76        27.0 0.66            156           76.1  39 
 RUS  HZ EP        240 27.83                             144   -0.4310  101 177 
 RUS  HN ES        240 46.95                             144    0.1310  101 177 
 RUS  HZ I         240 47.51        30.5 0.28            145            101 177 
 OCA  HZ EP        240 32.42                             130   -0.34 9  160 353 
 OCA  HN ES        240 54.51                             130   -0.33 9  160 353 
 OCA  HZ I         240 58.93        66.2 0.34            131            160 353 
 SPBC HZ EP     C  240 32.82                             129   -0.28 9  164 219 
 SPBC HE ES        240 55.05                             129   -0.38 9  164 219 
 SPBC HZ I         240 58.70        45.5 0.50            128            164 219 
 ZAR  HZ EP        240 36.62                             122   -0.42 9  205 292 
 ZAR  HN ES        241  2.42                             122   -0.03 9  205 292 
 ZAR  HZ I         241  8.90        34.5 0.40            122            205 292 
 NOR  HZ EP        240 40.24                             118   -0.12 8  236 235 
 NOR  HE ES        241  7.45                             118   -0.90 8  236 235 
 NOR  HZ I         241 13.23        23.9 0.38            118            236 235 
 SML  HZ EP        240 41.39                             117    0.27 8  244 335 
 SML  HE ES   1    241  9.32                             117   -0.39 6  244 335 
 SML  HZ I         241 13.00        23.0 0.07            118            244 335 
 CHI  HZ EP        240 41.99                             117   -0.27 8  249 195 
 CHI  HN ES        241 11.79                             117    0.05 8  249 195 
 CHI  HZ I         241 16.74        11.7 0.22            118            249 195 
 ROSC BZ EP        240 43.42                             117    0.70 8  254 211 
 ROSC BE ES        241 12.99                             117    0.44 8  254 211 
 ROSC BZ I         241 21.53        29.3 0.35            117            254 211 
 HEL  HZ EP        240 45.25                             115    0.40 8  274 256 
 HEL  HE ES        241 16.58                             115    0.23 8  274 256 
 HEL  HZ I         241 22.74        14.5 0.26            115            274 256 
 URE  HZ EP   4    240 44.45                             113   -1.22 0  285 292 
 URE  HE ES   4    241 15.53                             113   -2.28 0  285 292 
 URE  HZ I         241 28.07        13.0 0.24            114            285 292 
 GUY2CHZ EP        240 48.93                             112    0.69 7  303 235 
 GUY2CHE ES        241 22.64                             112    0.25 7  303 235 
 GUY2CHZ I         241 30.35        20.1 0.60                           303 235 
 VIL  SZ EP        240 48.02                             112    0.05 7  304 192 
 VIL  SN ES   1    241 21.61                             112   -0.30 5  304 192 
 VIL  SZ I         241 25.42        12.9 0.26            113            304 192 
 PTGC HZ EP   4    240 47.17                             112   -1.15 0  309 159 
 PTGC HN ES   4    241 19.81                             112   -2.72 0  309 159 
 PTGC HZ I         241 20.31        22.7 0.42            113            309 159 
 ELA  HZ EP   4    240 52.63                             110    1.15 0  331 230 
 ELA  HE ES        241 28.21                             110    0.06 7  331 230 
 ELA  HZ I         241 36.85         9.9 0.29            111            331 230 
 CBOC HZ EP        240 52.00                             110    0.44 7  335 252 
 CBOC HE ES   1    241 27.68                             110   -0.61 5  335 252 
 CBOC HZ I         241 36.34         5.1 0.45            110            335 252 
 DBB  SZ EP        240 51.62                             109   -0.49 7  341 274 
 DBB  SZ ES   1    241 29.39                             109    0.12 5  341 274 
 DBB  SZ I         241 30.68        22.5 0.48            110            341 274 
 TOL  SZ EP        240 53.74                             109    0.86 7  345 225 
 TOL  SE ES        241 30.05                             109   -0.59 7  345 225 
 TOL  SZ I         241 35.86        10.8 0.30            110            345 225 
 ORTC HZ EP        240 58.46                             106   -0.07 6  397 216 
 ORTC HN ES        241 41.28                             106    0.58 6  397 216 
 ORTC HZ I         241 47.40         9.9 0.56            107            397 216 
 SJC  HZ EP   4    240 58.48                             106   -1.60 0  410 327 
 SJC  HE ES   4    241 39.81                             106   -3.65 0  410 327 
 SJC  HZ I         241 45.20         3.3 0.32            106            410 327 
 CRJC HZ EP   4    241  4.61                             103   -2.30 0  467   3 
 CRJC HE ES   4    241 53.28                             103   -2.33 0  467   3 
 CRJC HZ I         241 55.03         5.5 0.46            105            467   3 
                                                                                
