 2016  124 0826 22.8 L   6.812 -73.144146.0  RSN  7 0.5 1.6LRSN                1
 GAP=201        0.99       4.3     5.7  7.8  0.6370E+01  0.5252E+01 -0.1212E+02E
 Epicentro: LOS SANTOS - SANTANDER                                             3
 ACTION:UPD 16-03-09 23:28 OP:cam  STATUS:               ID:20160124082622 L   I
 OLDACT:UP  16-01-24 16:16 OP:ar   STATUS:               ID:20160124081742     3
 OLDACT:UP  16-01-24 16:08 OP:ar   STATUS:               ID:20160124081742     3
 OLDACT:REG 16-01-24 13:11 OP:ar   STATUS:               ID:20160124081742     3
 2016-01-24-0817-42M.COL___307                                                 6
 STAT SP IPHASW D HRMM SECON CODA AMPLIT PERI AZIMU VELO AIN AR TRES W  DIS CAZ7
 BAR2 EZ EP        826 42.57                             170    0.0610 24.6 190 
 BAR2 EZ ES        826 57.88                             170    0.0210 24.6 190 
 BAR2 EZ I         826 59.16         5.8 0.26            166           24.6 190 
 RUS  HZ EP        826 46.49                             144   -0.2010  102 176 
 RUS  HN ES        827  5.57                             144    0.2710  102 176 
 RUS  HZ I         827  6.14         2.1 0.26            167            102 176 
 PTB  HZ EP        826 49.34                             132   -0.51 9  148 258 
 PTB  HN ES        827 10.76                             132   -0.18 9  148 258 
 PTB  HZ I         827 18.08         3.2 0.32            146            148 258 
 OCA  HZ EP   4    827 15.63                             130   24.59 0  159 353 
 OCA  HN ES   4    827 51.20                             130   38.16 0  159 353 
 OCA  HZ I         828  1.22        15.0 0.44            130            159 353 
 SPBC HZ EP        826 51.60                             129    0.15 9  164 219 
 SPBC HN ES        827 13.54                             129   -0.23 9  164 219 
 SPBC HZ I         827 16.13         5.5 0.24            152            164 219 
 ZAR  HZ EP   1    826 56.83                             122    1.57 6  204 292 
 ZAR  HN ES        827 20.86                             122    0.31 9  204 292 
 ZAR  HZ I         827 23.07         3.2 0.10            130            204 292 
 SML  HZ EP        826 59.05                             118   -0.30 8  243 335 
 SML  HN ES        827 27.58                             118   -0.26 8  243 335 
 SML  HZ I         827 31.33         4.3 0.10            122            243 335 
                                                                                
