 2017  624 0149 57.9 L   6.793 -73.118138.4  RSN 14 0.5 1.9LRSN                1
 GAP=155        1.06       3.1     3.6  5.3  0.6365E+00  0.1413E+01 -0.3442E+00E
 Epicentro: LOS SANTOS - SANTANDER                                             3
 ACTION:UPD 17-09-14 16:54 OP:jn   STATUS:               ID:20170624014957 L   I
 OLDACT:REG 17-06-24 17:05 OP:lv   STATUS:               ID:20170624014746     3
 2017-06-24-0148-00M.COL___374                                                 6
 STAT SP IPHASW D HRMM SECON CODA AMPLIT PERI AZIMU VELO AIN AR TRES W  DIS CAZ7
 BAR2 EZ EP        150 16.47                             170   -0.2010 23.3 198 
 BAR2 EZ ES        150 31.00                             170   -0.2910 23.3 198 
 BAR2 EZ I         150 32.42        24.4 0.21            168           23.3 198 
 BRR  HZ EP        150 18.29                             150   -0.1710 74.3 298 
 BRR  HN ES        150 35.26                             150    0.7710 74.3 298 
 BRR  HZ I         150 35.98        23.8 0.11            150           74.3 298 
 PTB  HZ EP   9    150 23.50                             130   -1.07 0  151 259 
 PTB  HN ES        150 43.75                                   -0.53 9  151 259 
 SPBC HZ EP        150 25.74                             127   -0.26 9  165 220 
 SPBC HN ES        150 48.25                             127    0.35 9  165 220 
 YPLC HZ EP        150 27.06                             125    0.08 9  175 152 
 YPLC HN ES        150 49.41                             125   -0.23 9  175 152 
 ZAR  HZ EP        150 29.69                             120   -0.54 8  207 292 
 ZAR  HN ES        150 54.78                             120   -0.65 8  207 292 
 NOR  HZ EP        150 32.97                             117   -0.49 8  237 235 
 NOR  HN ES        151  0.48                             117   -0.70 8  237 235 
 NOR  HZ I         151  2.70         5.5 0.15            116            237 235 
 CHI  HZ EP        150 36.12                             115    0.89 8  249 196 
 CHI  HN ES        151  4.58                             115    0.24 8  249 196 
 CHI  HZ I         151  7.62         4.5 0.40            115            249 196 
 ROSC BZ EP   9    150 37.73                             115    1.97 0  254 212 
 ROSC BN ES        151  7.84                                    0.60 8  254 212 
 ROSC BZ I         151 11.39         4.8 0.14            115            254 212 
 HEL  HZ EP        150 38.65                             113    0.56 8  275 256 
 HEL  HN ES        151  9.95                             113    0.54 8  275 256 
 HEL  HZ I         151 15.64         5.5 0.20            113            275 256 
 GUY2CHZ EP        150 41.14                             111   -0.30 7  303 235 
 GUY2CHN ES        151 15.78                             111    0.40 7  303 235 
 GUY2CHZ I         151 22.39         4.6 0.10                           303 235 
 PTGC HZ EP   9    150 39.96                             110   -1.29 0  307 159 
 PTGC HN ES        151 13.31                                   -0.44 7  307 159 
 LL6C HZ EP        150 43.33                             109   -0.09 7  326 357 
 LL6C HN ES        151 19.51                             109    0.59 7  326 357 
 CBOC HZ EP        150 44.67                             108   -0.19 7  336 252 
 CBOC HN ES        151 21.55                             108    0.09 7  336 252 
 SJC  HZ EP   4    150 50.78                             104   -2.75 0  412 327 
 SJC  HN ES   4    151 33.27                             104   -3.63 0  412 327 
                                                                                
