 2010 1124 0710 32.9 L   6.786 -73.129143.0  RSN  9 0.4 2.3LRSN                1
 GAP=161        0.82       3.4     5.8  7.3 -0.6544E+01  0.4399E+01  0.1596E+01E
 Epicentro: LOS SANTOS - SANTANDER                                             3
 ACTION:UP  10-12-17 16:54 OP:REBC STATUS:               ID:20101124071032 L   I
 2010-11-24-0708-55S.COL___129                                                 6
 STAT SP IPHASW D HRMM SECON CODA AMPLIT PERI AZIMU VELO SNR AR TRES W  DIS CAZ7
 BAR2 SZ IP        710 52.18                             171     0.010   22 196 
 BAR2 SZ I         711  7.92        72.0 0.30                            22 196 
 BRR  HZ IP     D  710 54.11                             151     0.210   74 299 
 BRR  HE ES   1    711 10.87                             151     0.6 7   74 299 
 BRR  HZ I         711 15.25        68.1 0.24                            74 299 
 RUS  HZ EP   1    710 56.38                             144     0.1 7   99 177 
 RUS  HE ES   1    711 14.16                             144    -0.4 7   99 177 
 RUS  HZ I         711 15.41        22.9 0.25                            99 177 
 GUE  SZ EP   1    710 57.36                             138    -0.1 7  118  11 
 GRA  SZ IP        710 58.20                             136     0.210  127  16 
 GRA  SZ I         710 59.47        43.3 0.39                           127  16 
 GRA  SZ ES   1    711 17.39                             136    -0.2 7  127  16 
 OCA  SZ EP        711  0.82                             129    -0.4 9  162 353 
 OCA  SZ I         711 27.56        32.9 0.24                           162 353 
 CHI  HZ EP   1    711 10.61                             117     0.2 6  248 196 
 CHI  HE ES   1    711 39.52                             117    -0.1 6  248 196 
 CHI  HZ I         711 46.33         4.4 0.24                           248 196 
 HEL  HZ EP   1    711 13.63                             114     0.5 6  273 256 
 HEL  HE ES   1    711 43.55                             114    -1.0 6  273 256 
 HEL  HZ I         711 52.97        11.0 0.42                           273 256 
 PRA  HZ EP   1    711 26.64                             106     0.3 4  392 210 
 PRA  HN ES   1    712  8.07                             106     0.1 4  392 210 
                                                                                
