 2012  624 0646 25.0 L   6.775 -73.159150.0  RSN  6 0.4 1.7LRSN                1
 GAP=136        0.65       4.5     4.9  7.2  0.6926E+00  0.6103E+00  0.1242E+01E
 Epicentro: LOS SANTOS - SANTANDER                                             3
 ACTION:UPD 12-08-06 17:52 OP:ep   STATUS:               ID:20120624064625 L   I
 2012-06-24-0640-00M.COL___199                                                 6
 STAT SP IPHASW D HRMM SECON CODA AMPLIT PERI AZIMU VELO AIN AR TRES W  DIS CAZ7
 BAR2 SZ EP        646 45.10                             172    0.0210 20.4 187 
 BAR2 SZ I         647  1.19        15.3 0.16                          20.4 187 
 BRR  HZ EP        646 46.95                             153    0.3410 71.3 301 
 BRR  HN ES   1    647  3.81                             153    0.35 7 71.3 301 
 BRR  HZ I         647  6.80        11.6 0.12                          71.3 301 
 PAM  SZ EP        646 47.86                             151    0.0210 80.4  39 
 PAM  SZ I         646 48.14         4.8 0.22                          80.4  39 
 PAM  SN ES   2    647  4.97                             151   -0.69 5 80.4  39 
 RUS  HZ EP        646 49.03                             145    0.0510 98.0 175 
 RUS  HN ES   1    647  7.68                             145   -0.01 7 98.0 175 
 RUS  HZ I         647  9.07         6.7 0.32                          98.0 175 
 PTB  HZ EP        646 51.84                             133   -0.30 9  146 260 
 PTB  HN ES   2    647 12.73                             133   -0.58 5  146 260 
 PTB  HZ I         647 19.97         4.8 0.42                           146 260 
 OCA  HE ES   3    647 15.17                             130   -1.23 2  163 354 
                                                                                
