 2017  224 0841 14.4 L   6.323 -73.741102.0  RSN  4 0.1 0.9LRSN                1
 GAP=164        0.43       3.3     2.0  4.8  0.2759E+01  0.1874E+01  0.3129E+01E
 Epicentro: LANDAZURI - SANTANDER                                              3
 ACTION:UPD 17-05-24 15:40 OP:jn   STATUS:               ID:20170224084114 L   I
 OLDACT:REG 17-02-24 12:55 OP:edw  STATUS:               ID:20170224083742     3
 2017-02-24-0838-00M.COL___379                                                 6
 STAT SP IPHASW D HRMM SECON CODA AMPLIT PERI AZIMU VELO AIN AR TRES W  DIS CAZ7
 BAR2 EZ EP        841 30.96                             143   -0.2310 68.6  64 
 BAR2 EZ ES        841 44.44                             143    0.1610 68.6  64 
 BAR2 EZ I         841 45.63         4.0 0.38            144           68.6  64 
 PTB  HZ EP        841 31.97                             138    0.0010 82.7 287 
 PTB  HN ES        841 45.68                             138    0.0110 82.7 287 
 PTB  HZ I         841 46.39         1.2 0.24            139           82.7 287 
 BRR  HZ EP   2    841 32.37                             136    0.08 5 86.8   2 
 BRR  HN ES   2    841 46.08                             136   -0.16 5 86.8   2 
 RUS  HZ EP        841 33.19                             137    0.2110 87.0 123 
 RUS  HE ES        841 47.34                             137   -0.1410 87.0 123 
                                                                                
