 2017 1224 0943  8.2 L   6.869 -73.204141.6  RSN  6 0.4 1.4LRSN                1
 GAP=180        1.03       4.2     6.4  8.9 -0.1921E+01  0.2071E+02 -0.6729E+01E
 Epicentro: ZAPATOCA - SANTANDER                                               3
 ACTION:UPD 18-01-04 13:23 OP:rebc STATUS:               ID:20171224094308 L   I
 OLDACT:UP  17-12-24 14:50 OP:edw  STATUS:               ID:20171224093319     3
 OLDACT:REG 17-12-24 13:17 OP:dani STATUS:               ID:20171224093319     3
 2017-12-24-0938-00M.COL___457                                                 6
 STAT SP IPHASW D HRMM SECON CODA AMPLIT PERI AZIMU VELO AIN AR TRES W  DIS CAZ7
 BAR2 EZ EP        943 27.47                             167   -0.0310 30.7 176 
 BAR2 EZ ES        943 42.70                             167    0.1410 30.7 176 
 BAR2 EZ I         943 43.67         6.5 0.30            167           30.7 176 
 PTB  HZ EP        943 34.76                             132    0.36 9  143 255 
 PTB  HN ES        943 54.30                             132   -0.55 9  143 255 
 PTB  HZ I         943 57.31         1.5 0.40            131            143 255 
 OCA  HN ES        943 56.48                             130   -0.14 9  152 355 
 SPBC HZ EP        943 36.95                             128    0.37 9  165 216 
 SPBC HN ES        943 58.35                             128   -0.38 9  165 216 
 SPBC HZ I         944  3.08         5.5 0.42            128            165 216 
 ZAR  HZ EP        943 39.10                             123   -0.36 9  195 291 
 ZAR  HN ES        944  4.74                             123    0.89 9  195 291 
 ZAR  HZ I         944 10.58         1.8 0.32            123            195 291 
 SJC  HZ EP   4    943 59.39                             105   -3.06 0  399 327 
 SJC  HN ES        944 44.13                             105   -0.64 6  399 327 
                                                                                
