 2017  924 0454 25.2 L   6.783 -73.129135.6  RSN  7 0.4 1.6LRSN                1
 GAP=139        0.89       4.3     5.3  6.8  0.1495E+01  0.2001E+02 -0.2709E+01E
 Epicentro: LOS SANTOS - SANTANDER                                             3
 ACTION:UPD 17-10-05 19:15 OP:rebc STATUS:               ID:20170924045425 L   I
 OLDACT:REG 17-09-24 13:56 OP:leo  STATUS:               ID:20170924044738     3
 2017-09-24-0448-00M.COL___414                                                 6
 STAT SP IPHASW D HRMM SECON CODA AMPLIT PERI AZIMU VELO AIN AR TRES W  DIS CAZ7
 BAR2 EZ EP        454 43.08                             170   -0.4710 21.9 195 
 BAR2 EZ ES        454 57.94                             170    0.0610 21.9 195 
 BAR2 EZ I         454 58.76        10.0 0.30            171           21.9 195 
 BRR  HZ EP        454 44.95                             150   -0.4210 73.7 299 
 BRR  HE ES   4    455  3.78                             150    2.64 0 73.7 299 
 BRR  HZ I         455  6.56         7.7 0.14            148           73.7 299 
 PAM  EZ EP        454 46.04                             149   -0.2910 77.7  38 
 PAM  EE ES        455  3.27                             149    0.4310 77.7  38 
 PAM  EZ I         455  5.27         9.5 0.42            153           77.7  38 
 RUS  HZ EP        454 47.94                             142    0.1610 98.6 177 
 RUS  HN ES        455  5.42                             142   -0.0110 98.6 177 
 RUS  HZ I         455  6.38         3.2 0.22            148           98.6 177 
 ZAR  HZ EP        454 57.89                             120    0.67 8  206 292 
 ZAR  HN ES        455 22.11                             120   -0.11 8  206 292 
 ZAR  HZ I         455 30.12         6.5 0.26            122            206 292 
 URE  HZ EP        455  5.81                             111   -0.22 7  286 292 
 URE  HE ES   4    455 35.03                             111   -2.87 0  286 292 
 URE  HZ I         455 37.02         5.2 0.34            114            286 292 
 GUY2CHZ EP        455  8.87                             110    0.50 7  302 235 
 GUY2CHN ES   4    455 45.46                             110    3.39 0  302 235 
 GUY2CHZ I         455 48.47         2.0 0.28                           302 235 
                                                                                
