 2014 1124 0908 25.9 L   6.838 -73.172139.7  RSN 17 0.5 2.3LRSN                1
 GAP= 68        1.21       3.2     3.2  5.6 -0.1478E+01  0.4957E+01  0.3639E+01E
 Epicentro: ZAPATOCA - SANTANDER                                               3
 ACTION:UPD 14-12-19 15:46 OP:nd   STATUS:               ID:20141124090825 L   I
 OLDACT:REG 14-11-24 11:27 OP:mh   STATUS:               ID:20141124090746     3
 2014-11-24-0907-46M.COL___297                                                 6
 STAT SP IPHASW D HRMM SECON CODA AMPLIT PERI AZIMU VELO AIN AR TRES W  DIS CAZ7
 BAR2 SZ EP        9 8 44.83                             168   -0.0310 27.2 182 
 BAR2 SZ ES        9 8 59.47                             168   -0.2010 27.2 182 
 BAR2 SZ I         9 9  1.68        38.4 0.32            167           27.2 182 
 BRR  HZ IP     C  9 8 46.37                             153    0.2610 66.7 297 
 BRR  HE ES        9 9  2.46                             153    0.5610 66.7 297 
 BRR  HZ I         9 9  6.90        31.8 0.20            153           66.7 297 
 PAM  SZ EP        9 8 47.54                             150    0.1710 76.1  43 
 PAM  SE ES        9 9  4.41                             150    0.2810 76.1  43 
 PAM  SZ I         9 9  6.32        79.9 0.44            151           76.1  43 
 RUS  HZ EP        9 8 49.35                             141   -0.0210  105 175 
 RUS  HN ES        9 9  7.76                             141    0.0710  105 175 
 PTB  HZ EP        9 8 51.48                             131   -0.69 9  146 257 
 PTB  HN ES        9 9 11.58                             131   -1.11 9  146 257 
 PTB  HE ES        9 9 12.50                             131            146 257 
 PTB  HZ I         9 9 17.74        21.5 0.30            130            146 257 
 OCA  HZ EP        9 8 52.35                             129   -0.94 9  156 354 
 OCA  HN ES        9 9 14.37                             129   -0.30 9  156 354 
 OCA  HZ I         9 9 18.35        38.2 0.20            129            156 354 
 TAM  HZ IP     D  9 8 53.34                             128   -0.11 9  159 106 
 TAM  HZ I         9 9 13.93        12.6 0.36            128            159 106 
 TAM  HE ES        9 9 15.00                             128    0.04 9  159 106 
 SPBC HZ EP        9 8 54.44                             127    0.38 9  165 217 
 SPBC HN ES        9 9 16.10                             127    0.05 9  165 217 
 SPBC HZ I         9 9 23.23        19.3 0.24            126            165 217 
 ZAR  HZ EP        9 8 57.43                             122   -0.06 9  200 291 
 ZAR  HN ES        9 9 23.28                             122    1.14 9  200 291 
 ZAR  HZ I         9 9 27.98        50.5 0.34            121            200 291 
 NOR  HZ EP        9 9  1.31                             117    0.03 8  235 233 
 NOR  HN ES        9 9 28.75                             117   -0.14 8  235 233 
 NOR  HZ I         9 9 37.65        11.5 0.16            116            235 233 
 CHI  HZ EP        9 9  3.14                             115   -0.47 8  252 194 
 CHI  HN ES        9 9 32.83                             115   -0.22 8  252 194 
 CHI  HZ I         9 9 39.51         7.6 0.40            114            252 194 
 HEL  HZ EP        9 9  6.42                             114    0.83 8  270 255 
 HEL  HN ES        9 9 36.39                             114   -0.18 8  270 255 
 HEL  HZ I         9 9 43.38        12.7 0.34            113            270 255 
 URE  HZ EP   4    9 9  8.30                             113    2.12 0  280 291 
 URE  HE ES   4    9 9 35.88                             113   -1.73 0  280 291 
 GUY2CHZ EP        9 9  9.08                             111   -0.14 7  301 234 
 GUY2CHN ES        9 9 42.85                             111   -0.18 7  301 234 
 GUY2CHZ I         9 9 52.59         9.2 0.66                           301 234 
 RREF HZ EP   4    9 9 13.43                             110    1.60 0  322 228 
 RREF HE ES   4    9 9 49.62                             110    1.95 0  322 228 
 RREF HZ I         9 9 56.27         7.4 0.24            109            322 228 
 CBOC HZ EP        9 9 12.76                             109    0.38 7  332 251 
 CBOC HN ES        9 9 47.97                             109   -0.69 7  332 251 
 CBOC HZ I         910  1.50         2.9 0.56            108            332 251 
 TOL  SZ EP        9 9 15.14                             108    1.13 7  345 224 
 TOL  SN ES        9 9 51.30                             108   -0.26 7  345 224 
 MON  HZ EP   4    9 9 11.31                             108   -2.77 0  349 308 
 MON  HN ES   4    9 9 49.66                             108   -2.02 0  349 308 
 ORTC HZ EP        9 9 19.78                             105   -0.02 6  397 215 
 ORTC HN ES        910  3.35                             105    1.49 6  397 215 
 ORTC HZ I         910  9.25         7.2 0.42            104            397 215 
 SJC  HZ EP   4    9 9 18.35                             105   -2.29 0  404 327 
 SJC  HN ES   4    9 9 59.10                             105   -4.25 0  404 327 
                                                                                
