 2016  824 0617 33.2 L   6.785 -73.153138.9  RSN 12 0.4 1.8LRSN                1
 GAP=136        1.04       3.5     3.8  5.5 -0.2632E+01  0.6269E+01  0.1469E+01E
 Epicentro: LOS SANTOS - SANTANDER                                             3
 ACTION:UPD 16-10-29 15:38 OP:rebc STATUS:               ID:20160824061733 L   I
 OLDACT:UP  16-08-24 13:06 OP:drio STATUS:               ID:20160824060735     3
 OLDACT:REG 16-08-24 12:31 OP:ak   STATUS:               ID:20160824060735     3
 2016-08-24-0608-00M.COL___371                                                 6
 STAT SP IPHASW D HRMM SECON CODA AMPLIT PERI AZIMU VELO AIN AR TRES W  DIS CAZ7
 BAR2 EZ EP        617 51.96                             171    0.0110 21.5 189 
 BAR2 EZ ES        618  6.12                             171   -0.4710 21.5 189 
 BAR2 EZ I         618  8.78        11.7 0.26                          21.5 189 
 BRR  HZ EP        617 53.74                             151    0.1410 71.3 300 
 BRR  HN ES        618 10.50                             151    0.9810 71.3 300 
 BRR  HZ I         618 16.60         8.7 0.26                          71.3 300 
 PAM  EZ EP        617 54.81                             149    0.0310 79.2  39 
 PAM  EE ES        618 11.76                             149    0.1310 79.2  39 
 PAM  EZ I         618 16.16         7.7 0.46                          79.2  39 
 RUS  HZ EP        617 56.08                             143   -0.0610 99.0 176 
 RUS  HN ES        618 14.31                             143    0.2610 99.0 176 
 RUS  HZ I         618 16.05         5.5 0.32                          99.0 176 
 PTB  HZ EP        617 58.61                             131   -0.88 9  147 259 
 PTB  HE ES        618 19.91                             131   -0.11 9  147 259 
 PTB  HZ I         618 22.78         8.3 0.36                           147 259 
 SPBC HZ EP        618  1.09                             128    0.10 9  161 219 
 SPBC HN ES        618 22.01                             128   -0.66 9  161 219 
 SPBC HZ I         618 26.97         7.5 0.12                           161 219 
 OCA  HZ EP        618  0.69                             128   -0.43 9  162 353 
 OCA  HE ES   4    618 21.18                             128   -1.73 0  162 353 
 OCA  HZ I         618 24.84        13.3 0.18                           162 353 
 ZAR  HZ EP        618  5.27                             121    0.09 9  204 293 
 ZAR  HN ES        618 29.92                             121   -0.21 9  204 293 
 ZAR  HZ I         618 36.86        12.8 0.56                           204 293 
 NOR  HZ EP        618  8.42                             117    0.08 8  233 235 
 NOR  HE ES        618 36.18                             117    0.41 8  233 235 
 NOR  HZ I         618 38.17         7.2 0.16                           233 235 
 HEL  HZ EP   4    618 11.81                             114   -1.11 0  271 256 
 HEL  HN ES        618 43.63                             114   -0.28 8  271 256 
 HEL  HZ I         618 51.18         3.9 0.42                           271 256 
 GUY2CHZ EP        618 16.75                             111    0.45 7  300 235 
 GUY2CHE ES   4    618 52.59                             111    2.67 0  300 235 
 GUY2CHZ I         619  1.07         4.0 0.72                           300 235 
 PRA  HZ EP        618 26.82                             106    0.57 6  390 210 
 PRA  HE ES        619  8.14                             106    0.49 6  390 210 
 PRA  HZ I         619 13.05         3.9 0.84                           390 210 
                                                                                
