 2015  124 0759 58.4 L   5.843 -73.783118.2  RSN  4 0.4 0.9LRSN                1
 GAP=130        1.09       5.1     5.8  9.2  0.8509E+01  0.8406E+00  0.3112E+01E
 Epicentro: JESUS MARIA - SANTANDER                                            3
 ACTION:UPD 15-03-02 15:41 OP:nd   STATUS:               ID:20150124075958 L   I
 OLDACT:DUP 15-01-24 17:13 OP:carl STATUS:               ID:20150124074742d    3
 2015-01-24-0747-39M.COL___265                                                 6
 STAT SP IPHASW D HRMM SECON CODA AMPLIT PERI AZIMU VELO AIN AR TRES W  DIS CAZ7
 SPBC HZ EP        8 0 15.68                             161    0.6910 38.4 237 
 SPBC HN ES        8 0 28.04                             161    0.1110 38.4 237 
 SPBC HZ I         8 0 30.39         6.5 0.40            162           38.4 237 
 RUS  HZ EP        8 0 17.97                             145    0.1910 77.7  86 
 RUS  HN ES        8 0 32.76                             145   -0.1410 77.7  86 
 RUS  HZ I         8 0 37.46         1.0 0.28            150           77.7  86 
 PTB  HZ EP        8 0 18.75                             135   -0.7010  107 316 
 PTB  HN ES        8 0 35.92                             135    0.0510  107 316 
 PTB  HZ I         8 0 42.93         1.3 0.24            139            107 316 
 CHI  HZ EP        8 0 22.77                             128    0.3010  134 178 
 CHI  HN ES        8 0 40.72                             128   -0.5410  134 178 
 CHI  HZ I         8 0 48.84         1.2 0.50            132            134 178 
                                                                                
