 2016  824 0518 50.4 L   6.798 -73.148137.7  RSN 15 0.5 1.7LRSN                1
 GAP=136        1.23       3.5     4.2  6.2 -0.2067E+01  0.7246E+01  0.5426E+01E
 Epicentro: LOS SANTOS - SANTANDER                                             3
 ACTION:UPD 16-10-29 15:38 OP:rebc STATUS:               ID:20160824051850 L   I
 OLDACT:REG 16-08-24 12:29 OP:ak   STATUS:               ID:20160824051733     3
 2016-08-24-0518-00M.COL___371                                                 6
 STAT SP IPHASW D HRMM SECON CODA AMPLIT PERI AZIMU VELO AIN AR TRES W  DIS CAZ7
 BAR2 EZ EP        519  8.81                             170   -0.2210 23.1 189 
 BAR2 EZ ES        519 23.42                             170   -0.1610 23.1 189 
 BAR2 EZ I         519 25.02        15.8 0.46                          23.1 189 
 BRR  HZ IP     C  519 10.78                             151    0.1310 71.0 299 
 BRR  HN ES        519 27.31                             151    0.8510 71.0 299 
 BRR  HZ I         519 29.07         6.1 0.20                          71.0 299 
 PAM  EZ EP        519 11.93                             149    0.1710 77.7  40 
 PAM  EN ES        519 28.74                             149    0.3110 77.7  40 
 PAM  EZ I         519 29.69         9.2 0.38                          77.7  40 
 RUS  HZ EP        519 13.03                             142   -0.3010  100 176 
 RUS  HE ES        519 31.56                             142    0.3310  100 176 
 PTB  HZ EP        519 15.95                             130   -0.72 9  147 259 
 PTB  HN ES        519 36.18                             130   -0.99 9  147 259 
 PTB  HZ I         519 39.31         8.8 0.14                           147 259 
 OCA  HZ EP   2    519 18.40                             128    0.31 5  160 353 
 OCA  HN ES        519 38.73                             128   -0.97 9  160 353 
 OCA  HZ I         519 44.99        10.0 0.26                           160 353 
 SPBC HZ EP        519 17.98                             127   -0.26 9  163 219 
 SPBC HN ES        519 39.89                             127   -0.08 9  163 219 
 SPBC HZ I         519 47.64         9.1 0.22                           163 219 
 ZAR  HN ES        519 47.50                             121    0.32 9  204 292 
 NOR  HZ EP        519 25.55                             117   -0.06 8  234 234 
 NOR  HE ES        519 52.19                             117   -0.91 8  234 234 
 NOR  HZ I         519 54.96         4.5 0.11                           234 234 
 CHI  HZ EP        519 27.92                             115    0.31 8  248 195 
 CHI  HN ES        519 56.60                             115   -0.05 8  248 195 
 ROSC BZ EP        519 28.98                             115    0.95 8  252 211 
 ROSC BN ES   4    519 59.49                             115    2.08 0  252 211 
 HEL  HZ EP        519 30.71                             113    0.56 8  272 256 
 HEL  HN ES        520  1.95                             113    0.77 8  272 256 
 HEL  HZ I         520  7.48         3.5 0.68                           272 256 
 GUY2CHZ EP   9    519 35.25                             111    1.67 0  301 235 
 GUY2CHN ES        520  9.16                                    0.21 7  301 235 
 GUY2CHZ I         520 14.41         2.7 0.30                           301 235 
 CBOC HZ EP        519 36.91                             108   -0.02 7  333 252 
 CBOC HN ES        520 14.10                             108    0.86 7  333 252 
 CBOC HZ I         520 16.32         0.9 0.33                           333 252 
 PRA  HZ EP        519 43.41                             105   -0.18 6  392 210 
 PRA  HN ES        520 25.06                             105   -0.04 6  392 210 
 PRA  HZ I         520 32.72         1.9 0.11                           392 210 
                                                                                
