 2013  524 0921 26.3 L   6.770 -73.161141.7  RSN  6 0.4 1.9LRSN                1
 GAP=136        1.09       5.6     5.8  8.6 -0.3156E+01 -0.1310E+01 -0.9110E-01E
 Epicentro: LOS SANTOS - SANTANDER                                             3
 ACTION:UPD 13-06-20 09:53 OP:ep   STATUS:               ID:20130524092125 L   I
 OLDACT:UP  13-05-27 02:14 OP:CF   STATUS:               ID:20130524092125 L   3
 2013-05-24-0918-50M.COL___196                                                 6
 STAT SP IPHASW D HRMM SECON CODA AMPLIT PERI AZIMU VELO AIN AR TRES W  DIS CAZ7
 BAR2 SZ EP        921 45.46                             172    0.1310 19.8 187 
 BAR2 SZ ES        922  0.20                             172   -0.0010 19.8 187 
 BAR2 SZ I         922  2.70        14.9 0.18            171           19.8 187 
 GIR2 SZ EP        921 45.42                             166   -0.1110 34.3 354 
 BRR  HZ EP        921 47.30                             152    0.3310 71.4 301 
 BRR  HN ES        922  3.89                             152    0.7510 71.4 301 
 BRR  HN I         922  4.69        47.4 0.26            153           71.4 301 
 PAM  SZ EP        921 48.34                             149    0.0810 81.0  39 
 PAM  SZ I         921 48.49        15.5 0.20            152           81.0  39 
 PAM  SN ES        922  4.81                             149   -0.6110 81.0  39 
 RUS  HZ EP        921 49.41                             144    0.0310 97.4 175 
 RUS  HN ES        922  7.51                             144    0.1010 97.4 175 
 RUS  HN I         922  9.65        14.6 0.42            145           97.4 175 
 PTB  HZ EP   4    921 50.82                             131   -1.87 0  146 260 
 PTB  HN ES        922 12.50                             131   -0.81 9  146 260 
 PTB  HZ I         922 14.90         4.4 0.25            133            146 260 
 PTB  HN I         922 18.54        14.0 0.52                           146 260 
                                                                                
