 2011  624 0129  1.2 L   6.738 -73.088146.0  RSN  8 0.2 1.6LRSN                1
 GAP=147        0.49       3.3     4.7  5.3 -0.4059E+01 -0.3269E+01 -0.1972E+01E
 Epicentro: JORDAN - SANTANDER                                                 3
 ACTION:UP  11-07-14 19:07 OP:ep   STATUS:               ID:20110624012901 L   I
 2011-06-24-0125-58S.COL___140                                                 6
 STAT SP IPHASW D HRMM SECON CODA AMPLIT PERI AZIMU VELO SNR AR TRES W  DIS CAZ7
 BAR2 SZ EP   1    129 20.85                             172     0.1 7   19 213 
 BAR2 SZ ES   2    129 36.07                             172     0.0 5   19 213 
 BAR2 SZ I         129 38.70         7.2 0.36                            19 213 
 PAM  SZ EP   1    129 23.71                             150     0.2 7   79  33 
 PAM  SN ES   2    129 41.03                             150     0.0 5   79  33 
 BRR  HZ EP   1    129 22.64                             150    -0.3 7   80 301 
 BRR  HN ES   1    129 40.18                             150     0.3 7   80 301 
 BRR  HZ I         129 43.97        10.9 0.31                            80 301 
 RUS  HZ EP   2    129 24.88                             146     0.4 5   94 180 
 RUS  HN ES   2    129 42.37                             146    -0.3 5   94 180 
 RUS  HZ I         129 44.54         4.0 0.49                            94 180 
 BRI  SZ EP   2    129 25.36                             140    -0.1 5  113  17 
 GRA  SZ EP   1    129 26.73                             136    -0.2 7  131  14 
 GRA  SZ I         129 28.00         4.7 0.37                           131  14 
 GRA  SZ ES   2    129 46.69                             136    -0.2 5  131  14 
 OCA  SZ EP   1    129 30.50                             128     0.2 7  168 351 
 OCA  SZ ES   2    129 52.52                             128    -0.4 5  168 351 
 OCA  SZ I         129 55.95         7.3 0.34                           168 351 
 NOR  SN ES   2    130  4.72                             118    -0.4 4  236 237 
                                                                                
