 2017 1024 0630 58.6 L   6.834 -73.079146.8  RSN  4 0.4 1.0LRSN                1
 GAP=270        1.01       7.7     8.1  8.3 -0.6433E+01  0.4492E+01  0.1177E+02E
 Epicentro: LOS SANTOS - SANTANDER                                             3
 ACTION:UPD 17-11-07 19:36 OP:rebc STATUS:               ID:20171024063058 L   I
 OLDACT:DUP 17-10-24 15:35 OP:dani STATUS:               ID:20171024062740d    3
 2017-10-24-0628-00M.COL___437                                                 6
 STAT SP IPHASW D HRMM SECON CODA AMPLIT PERI AZIMU VELO AIN AR TRES W  DIS CAZ7
 BAR2 EZ EP        631 18.57                             168    0.0610 29.1 203 
 BAR2 EZ ES        631 33.55                             168   -0.4610 29.1 203 
 BAR2 EZ I         631 36.26         2.2 0.28            163           29.1 203 
 BRR  HZ EP        631 20.53                             151    0.3610 76.2 293 
 BRR  HN ES        631 37.37                             151    0.3910 76.2 293 
 BRR  HZ I         631 38.55         2.6 0.41            151           76.2 293 
 PTB  HZ EP        631 26.01                             131   -0.40 9  156 258 
 PTB  HN ES        631 47.60                             131   -0.48 9  156 258 
 PTB  HZ I         631 51.64         0.9 0.29            130            156 258 
 SPBC HZ EP        631 27.79                             128   -0.14 9  171 220 
 SPBC HE ES        631 51.41                             128    0.62 9  171 220 
 SPBC HZ I         631 56.56                             127            171 220 
                                                                                
