 2010  224 0854 57.0 L   6.796 -73.035150.9  RSN 11 0.5 2.8LRSN                1
 GAP=194        0.90       3.2     7.2  5.7 -0.4354E+00  0.1027E+02  0.4233E+01E
 Epicentro: CEPITA - SANTANDER                                                 3
 ACTION:UP  10-08-24 09:50 OP:vdl  STATUS:               ID:20100224085457 L   I
 2010-02-24-0851-20S.COL___094                                                 6
 STAT SP IPHASW D HRMM SECON CODA AMPLIT PERI AZIMU VELO SNR AR TRES W  DIS CAZ7
 BAR2 SZ EP        855 17.39                             169     0.010   28 216 
 BAR2 SZ ES   2    855 32.41                             169    -0.9 5   28 216 
 BRR  HZ IP        855 19.29                             150    -0.110   82 295 
 BRR  HZ I         855 19.51       257.0 0.18                            82 295 
 BRR  HN ES        855 36.99                             150     0.210   82 295 
 RUS  BZ EP        855 21.21                             145    -0.110  100 183 
 RUS  BE ES        855 40.18                             145     0.010  100 183 
 RUS  BZ I         855 43.26        46.0 0.50                           100 183 
 OCA  SZ EP        855 25.84                             130    -0.1 9  163 349 
 OCA  SZ ES        855 48.78                             130     0.2 9  163 349 
 CHI  HZ EP        855 35.32                             118     0.0 8  252 198 
 CHI  HZ I         855 37.90        21.9 0.35                           252 198 
 CHI  HN ES   2    856  6.02                             118     0.8 4  252 198 
 ROSC BZ EP        855 37.08                             117     1.0 8  259 213 
 ROSC BN ES   1    856  6.25                             117    -0.3 6  259 213 
 GUY  HZ EP        855 42.43                             112     0.4 7  311 236 
 GUY  HN ES   2    856 17.88                             112     0.8 3  311 236 
 RREF BZ EP        855 44.31                             111    -0.1 7  331 231 
 RREF BZ I         856 25.95        38.1 0.16                           331 231 
 TOL  SZ EP        855 46.67                             110     0.2 6  352 226 
 TOL  SZ ES   2    856 24.45                             110    -0.6 3  352 226 
 DBB  SZ IP        855 45.23                             110    -0.9 6  352 274 
 PRA  HZ EP        855 50.73                             107    -0.7 6  398 211 
 PRA  HE ES   2    856 33.18                             107    -0.7 3  398 211 
 PRA  HZ I         856 39.44        23.4 0.57                           398 211 
                                                                                
