 2012  624 0259 38.9 L   5.747 -73.916105.8  RSN 23 0.5 3.1LRSN 3.9WRSN        1
 SPEC AVERAGE  MO 14.9 ST 12.9 OM  3.2 f0 2.40 R0.9124 AL 1.96 WI 39.5 MW  3.9 3
 SPEC SD       MO  0.2 ST 18.2 OM  0.6 f00.518 R0.3329 AL      WI      MW  0.1 3
 GAP= 66        1.04       2.4     2.9  7.8 -0.1250E+01  0.3117E+01  0.1618E+00E
 Epicentro: ALBANIA - SANTANDER                                                3
 SPEC OCA HH Z MO 14.9 ST  4.1 OM  2.3 f0 2.92 R0.9630 AL 2.08 WI 31.4 MW  3.9 3
 SPEC OCA HH Z T 3 017 K 0.000 GD  302 VP 7.60 DE 3.00 Q0230.0 QA 0.60 VS 4.20 3
 SPEC PRA HH E MO 15.1 ST 14.6 OM  3.3 f0 2.15 R0.7228 AL 2.08 WI 55.0 MW  4.0 3
 SPEC PRA HH E T 3 041 K 0.000 GD  270 VS 4.20 DE 3.00 Q0230.0 QA 0.60 VS 4.20 3
 SPEC ROSCBH Z MO 14.7 ST0.590 OM  2.4 f0 1.78 R1.5798 AL 2.05 WI 15.0 MW  3.8 3
 SPEC ROSCBH Z T 3 0 0 K 0.000 GD  152 VP 7.60 DE 3.00 Q0230.0 QA 0.60 VS 4.20 3
 SPEC COD HH N MO 14.8 ST  4.8 OM  2.8 f0 1.80 R0.8633 AL 1.20 WI 54.3 MW  3.8 3
 SPEC COD HH N T 3 126 K 0.000 GD  477 VS 4.20 DE 3.00 Q0230.0 QA 0.60 VS 4.20 3
 SPEC ANILHH Z MO 15.1 ST  4.2 OM  2.6 f0 2.53 R1.1115 AL 1.90 WI 25.5 MW  4.0 3
 SPEC ANILHH Z T 3 010 K 0.000 GD  240 VP 7.60 DE 3.00 Q0230.0 QA 0.60 VS 4.20 3
 SPEC BRR HH N MO 15.1 ST 56.4 OM  3.5 f0 3.28 R0.4738 AL 2.21 WI 43.1 MW  4.0 3
 SPEC BRR HH N T 3 022 K 0.000 GD  185 VS 4.20 DE 3.00 Q0230.0 QA 0.60 VS 4.20 3
 SPEC CHI HH N MO 14.6 ST  5.5 OM  3.0 f0 2.31 R0.6727 AL 2.18 WI 51.9 MW  3.7 3
 SPEC CHI HH N T 3 017 K 0.000 GD  163 VS 4.20 DE 3.00 Q0230.0 QA 0.60 VS 4.20 3
 ACTION:UPD 12-08-06 17:51 OP:ep   STATUS:               ID:20120624025938 L   I
 2012-06-24-0257-40M.COL___182                                                 6
 STAT SP IPHASW D HRMM SECON CODA AMPLIT PERI AZIMU VELO AIN AR TRES W  DIS CAZ7
 RUS  HZ IP     C  259 58.35                             135    0.0310 93.6  80 
 RUS  HZ I         259 58.49       183.4 0.34                          93.6  80 
 RUS  HE ES   2    3 0 13.59                             135    0.08 5 93.6  80 
 PTB  HZ IP     C  259 58.15                             131   -0.6310  106 326 
 PTB  HE ES   2    3 0 13.48                             131   -0.85 5  106 326 
 PTB  HZ I         3 0 18.04       140.2 0.24                           106 326 
 NOR  SZ EP        259 58.78                             130   -0.1810  108 259 
 NOR  SN ES   1    3 0 14.15                             130   -0.50 7  108 259 
 ROSC BZ IP     D  3 0  0.46                             130    0.8310  110 204 
 ROSC BZ I         3 0 21.51       223.1 0.65                           110 204 
 BAR2 SZ IP        3 0  1.13                             126    0.3710  124  41 
 BAR2 SZ ES   1    3 0 18.21                             126    0.36 7  124  41 
 BAR2 SZ I         3 0 20.02       414.1 0.34                           124  41 
 CHI  HZ IP     D  3 0  0.82                             126   -0.3210  125 171 
 CHI  HN ES   1    3 0 18.23                             126   -0.29 7  125 171 
 CHI  HZ I         3 0 22.24       111.3 0.28                           125 171 
 BRR  HZ IP     C  3 0  3.51                             120    0.17 9  152   9 
 BRR  HZ I         3 0  4.95       351.2 0.10                           152   9 
 BRR  HN ES   1    3 0 23.17                             120    0.73 7  152   9 
 YOP  SZ IP        3 0  5.97                             116    0.43 9  171 105 
 YOP  SN ES   2    3 0 26.25                             116   -0.11 4  171 105 
 YOP  SZ I         3 0 28.77       330.9 0.26                           171 105 
 VIL  SZ IP        3 0  6.60                             115   -0.19 9  182 172 
 VIL  SZ I         3 0  8.09        82.5 0.22                           182 172 
 VIL  SN ES   1    3 0 28.50                             115   -0.09 7  182 172 
 HEL  HZ EP        3 0  7.61                             114    0.21 9  185 285 
 HEL  HN ES   1    3 0 29.70                             114    0.04 7  185 285 
 HEL  HZ I         3 0 34.19        62.2 0.34                           185 285 
 TOL  SZ EP        3 0  9.25                             112    0.03 9  202 231 
 ANIL HZ EP        3 0 10.32                             110   -0.40 8  216 230 
 ANIL HN ES   1    3 0 36.21                             110    0.63 6  216 230 
 ANIL HZ I         3 0 37.65       363.0 0.30                           216 230 
 ZAR  HZ EP        3 0 10.21                             110   -0.58 8  219 332 
 ZAR  HN ES   1    3 0 35.51                             110   -0.20 6  219 332 
 ZAR  HZ I         3 0 43.54       149.0 0.36                           219 332 
 PAM  SZ EP        3 0 11.54                             110   -0.12 8  222  37 
 PAM  SZ I         3 0 13.48        48.4 0.16                           222  37 
 PAM  SE ES   1    3 0 36.32                             110   -0.93 6  222  37 
 PRA  HZ EP        3 0 13.62                             107   -0.67 8  249 206 
 PRA  HZ I         3 0 16.42       242.2 0.20                           249 206 
 PRA  HE ES   1    3 0 42.51                             107    0.58 6  249 206 
 SJA  SZ EP   3    3 0 17.54                             105    0.31 2  274 181 
 PAL  HZ EP   1    3 0 18.27                             104    0.53 6  278 251 
 OCA  HZ EP        3 0 18.25                             104   -0.19 7  283  13 
 OCA  HZ I         3 0 54.60       190.0 0.16                           283  13 
 DBB  SZ EP        3 0 20.70                             104    1.56 7  290 299 
 HORQ SZ EP   2    3 0 30.59                              98   -0.90 3  391 230 
 MARA HZ EP   3    3 0 30.29                              98   -1.41 1  393 215 
 MARA HZ I         3 0 32.39        13.7 0.30                           393 215 
 COD  HZ EP   1    3 0 40.13                              95   -0.08 4  466   6 
 FLO2 HZ EP   1    3 0 43.17                              94   -1.11 3  499 203 
 FLO2 HZ I         3 0 44.22        21.6 0.26                           499 203 
                                                                                
