 2015 1224 0359 40.4 L   6.786 -73.139145.2  RSN  8 0.4 1.5LRSN                1
 GAP=237        0.88       4.5     5.0  6.4  0.6968E+01  0.1049E+02  0.5270E+01E
 Epicentro: LOS SANTOS - SANTANDER                                             3
 ACTION:UPD 16-02-04 15:07 OP:cam  STATUS:               ID:20151224035940 L   I
 OLDACT:DUP 15-12-24 13:27 OP:dnl  STATUS:               ID:20151224034750d    3
 OLDACT:REG 15-12-24 12:41 OP:dnl  STATUS:               ID:20151224034749     3
 2015-12-24-0347-49M.COL___334                                                 6
 STAT SP IPHASW D HRMM SECON CODA AMPLIT PERI AZIMU VELO AIN AR TRES W  DIS CAZ7
 BAR2 EZ EP        4 0  0.09                             171    0.1610 22.0 193 
 BAR2 EZ ES        4 0 14.77                             171   -0.4010 22.0 193 
 BAR2 EZ I         4 0 16.12         5.5 0.13            167           22.0 193 
 BRR  HZ EP   2    4 0  1.85                             152    0.29 5 72.6 299 
 BRR  HN ES        4 0 18.40                             152    0.3310 72.6 299 
 BRR  HZ I         4 0 20.10         7.7 0.19            148           72.6 299 
 RUS  HZ EP   2    4 0  4.38                             144    0.40 5 99.0 176 
 RUS  HE ES        4 0 22.51                             144    0.1410 99.0 176 
 RUS  HZ I         4 0 23.52         4.2 0.32            143           99.0 176 
 PTB  HZ EP        4 0  6.79                             132   -0.56 9  148 259 
 PTB  HE ES        4 0 27.70                             132   -0.68 9  148 259 
 PTB  HZ I         4 0 30.88         4.2 0.09            129            148 259 
 SPBC HZ EP        4 0  8.84                             129    0.06 9  162 220 
 SPBC HN ES        4 0 31.03                             129    0.11 9  162 220 
 SPBC HZ I         4 0 33.55         5.1 0.12            127            162 220 
 ZAR  HZ EP   2    4 0 12.12                             122   -0.81 4  205 292 
 ZAR  HE ES        4 0 38.98                             122    0.67 8  205 292 
 ZAR  HZ I         4 0 45.31         2.8 0.28            121            205 292 
 NOR  HZ EP   2    4 0 15.91                             118   -0.15 4  234 235 
 NOR  HE ES        4 0 44.08                             118    0.20 8  234 235 
 NOR  HZ I         4 0 51.18         3.2 0.14            117            234 235 
 CHI  HZ EP   2    4 0 17.89                             117   -0.03 4  247 195 
 CHI  HN ES   2    4 0 47.93                             117    0.74 4  247 195 
 CHI  HZ I         4 0 50.73         1.2 0.30            117            247 195 
                                                                                
