 2013  724 0544 51.5 L   6.855 -73.038146.3  RSN  6 0.3 1.8LRSN                1
 GAP=211        0.68       5.1     7.2  5.7  0.2335E+02 -0.2443E+01 -0.7386E+01E
 Epicentro: CEPITA - SANTANDER                                                 3
 ACTION:UPD 13-08-12 10:39 OP:ep   STATUS:               ID:20130724054451 L   I
 OLDACT:UP  13-07-24 10:57 OP:cam  STATUS:               ID:20130724053959     3
 OLDACT:REG 13-07-24 09:12 OP:cam  STATUS:               ID:20130724053959     3
 2013-07-24-0539-59M.COL___267                                                 6
 STAT SP IPHASW D HRMM SECON CODA AMPLIT PERI AZIMU VELO AIN AR TRES W  DIS CAZ7
 BAR2 SZ EP        545 11.46                             167    0.0610 33.2 209 
 BAR2 SZ ES   1    545 27.14                             167    0.20 7 33.2 209 
 BRR  HZ EP        545 13.19                             150    0.0310 79.5 291 
 BRR  HN ES        545 30.24                             150    0.1610 79.5 291 
 BRR  HZ I         545 34.17        10.9 0.14            149           79.5 291 
 RUS  HZ EP   1    545 15.99                             142    0.28 7  107 183 
 RUS  HN ES   1    545 34.09                             142   -0.53 7  107 183 
 RUS  HZ I         545 35.77         4.7 0.34            150            107 183 
 PTB  HZ EP        545 19.37                             130   -0.30 9  161 258 
 ZAR  HZ EP   1    545 25.65                             121    0.77 6  213 289 
 ZAR  HE ES   1    545 50.73                             121   -0.21 6  213 289 
 ZAR  HZ I         545 55.60         7.4 0.34            123            213 289 
 SML  HZ EP   1    545 28.01                             118   -0.09 6  244 332 
 SML  HE ES   1    545 56.24                             118   -0.43 6  244 332 
 SML  HZ I         546  6.07         5.8 0.10            118            244 332 
                                                                                
