 2016  324 0123 48.8 L   6.802 -73.142141.4  RSN 15 0.4 1.9LRSN                1
 GAP= 71        0.85       2.4     2.3  4.5 -0.7874E+00  0.2720E+01  0.9956E+00E
 Epicentro: LOS SANTOS - SANTANDER                                             3
 ACTION:UPD 16-05-13 21:26 OP:cam  STATUS:               ID:20160324012348 L   I
 OLDACT:REG 16-03-24 12:21 OP:ak   STATUS:               ID:20160324011746     3
 2016-03-24-0117-46M.COL___308                                                 6
 STAT SP IPHASW D HRMM SECON CODA AMPLIT PERI AZIMU VELO AIN AR TRES W  DIS CAZ7
 BAR2 EZ EP        124  7.93                             170    0.0110 23.6 191 
 BAR2 EZ ES        124 23.37                             170    0.5410 23.6 191 
 BAR2 EZ I         124 24.24        14.3 0.26            169           23.6 191 
 PAM  EZ EP        124 10.82                             150    0.2810 76.9  39 
 PAM  EN ES        124 27.71                             150    0.2310 76.9  39 
 PAM  EZ I         124 30.06        13.8 0.58            147           76.9  39 
 RUS  HZ EP        124 11.67                             143   -0.4810  101 176 
 RUS  HN ES        124 30.61                             143    0.2610  101 176 
 RUS  HZ I         124 32.57         5.1 0.34            139            101 176 
 PTB  HN ES        124 35.69                             131   -0.57 9  148 259 
 TAM  HZ EP        124 16.34                             129    0.23 9  155 105 
 TAM  HN ES        124 36.90                             129   -0.51 9  155 105 
 OCA  HZ EP        124 16.61                             129   -0.16 9  160 353 
 OCA  HE ES        124 38.29                             129   -0.28 9  160 353 
 OCA  HZ I         124 42.39        21.1 0.26            124            160 353 
 SPBC HZ EP        124 17.06                             128    0.04 9  164 219 
 SPBC HN ES        124 38.64                             128   -0.38 9  164 219 
 ZAR  HZ EP        124 21.10                             121    0.09 9  204 292 
 ZAR  HN ES        124 46.25                             121    0.13 9  204 292 
 ZAR  HZ I         124 51.84        14.1 0.40            116            204 292 
 NOR  HZ EP        124 24.51                             117    0.17 8  235 234 
 NOR  HE ES        124 51.69                             117   -0.36 8  235 234 
 NOR  HZ I         124 54.03        10.3 0.20            113            235 234 
 CHI  HZ EP        124 25.89                             116   -0.42 8  249 195 
 CHI  HN ES        124 55.68                             116    0.13 8  249 195 
 CHI  HZ I         125  1.31         3.5 0.32            112            249 195 
 HEL  HZ EP   2    124 28.94                             114    0.09 4  273 256 
 HEL  HN ES        124 59.86                             114   -0.23 8  273 256 
 HEL  HZ I         125  7.22         4.5 0.38            110            273 256 
 URE  HZ EP   9    124 27.20                             113   -2.50 0  284 292 
 URE  HN ES        124 58.78                                   -0.32 7  284 292 
 GUY2CHZ EP        124 33.00                             111    0.73 7  302 235 
 GUY2CHN ES        125  6.80                             111    0.63 7  302 235 
 GUY2CHZ I         125 14.27         3.9 0.44                           302 235 
 CBOC HZ EP        124 35.87                             109    0.27 7  334 252 
 CBOC HZ I         125 21.76         1.4 0.13            105            334 252 
 MON  HZ EP   9    124 35.58                             108   -2.09 0  354 308 
 MON  HN ES        125 13.08                                   -0.61 6  354 308 
 MON  HZ I         125 17.08         1.8 0.40            104            354 308 
                                                                                
