 2014  524 0714 58.8 L   6.764 -73.129150.8  RSN  7 0.4 1.5LRSN                1
 GAP=140        1.00       4.0     5.2  6.3  0.7568E+00  0.5448E+01 -0.2974E+01E
 Epicentro: LOS SANTOS - SANTANDER                                             3
 ACTION:UPD 15-03-16 17:00 OP:nd   STATUS:               ID:20140524071458 L   I
 OLDACT:REG 14-05-24 12:56 OP:ca   STATUS:               ID:20140524071000     3
 2014-05-24-0710-00M.COL___276                                                 6
 STAT SP IPHASW D HRMM SECON CODA AMPLIT PERI AZIMU VELO AIN AR TRES W  DIS CAZ7
 BAR2 SZ EP   1    715 18.78                             172   -0.18 7 19.9 197 
 BAR2 SZ ES        715 34.83                             172    0.1410 19.9 197 
 BAR2 SZ I         715 35.64        11.9 0.32            171           19.9 197 
 BRR  HZ EP        715 20.83                             152    0.1510 74.8 301 
 BRR  HN ES        715 38.30                             152    0.5510 74.8 301 
 BRR  HZ I         715 41.76         2.6 0.12            151           74.8 301 
 PAM  SZ EP        715 21.88                             151    0.2310 79.4  37 
 PAM  SN ES        715 39.16                             151   -0.3310 79.4  37 
 PAM  SZ I         715 41.10         5.7 0.48            154           79.4  37 
 RUS  HZ EP        715 23.37                             146    0.6210 96.5 177 
 RUS  HE ES        715 40.86                             146   -0.5810 96.5 177 
 RUS  HZ I         715 42.98         1.9 0.32            148           96.5 177 
 PTB  HZ EP        715 25.84                             133   -0.42 9  149 260 
 PTB  HE ES        715 47.45                             133   -0.25 9  149 260 
 PTB  HZ I         715 52.79         3.8 0.26            133            149 260 
 CHI  HZ EP   1    715 36.94                             118    0.53 6  245 196 
 SML  HZ EP        715 35.60                             118   -0.57 8  248 335 
 SML  HN ES        716  5.43                             118    0.10 8  248 335 
 SML  HZ I         716  7.54         5.4 0.10            119            248 335 
                                                                                
