 2015  724 0320  5.1 L   6.804 -73.140147.2  RSN  6 0.4 1.7LRSN                1
 GAP=184        1.06       4.1     5.8  8.1  0.4092E+01  0.6935E+01 -0.1307E+02E
 Epicentro: LOS SANTOS - SANTANDER                                             3
 ACTION:UPD 15-09-08 21:50 OP:cam  STATUS:               ID:20150724032005 L   I
 OLDACT:REG 15-07-24 12:39 OP:stll STATUS:               ID:20150724031748     3
 2015-07-24-0317-48M.COL___340                                                 6
 STAT SP IPHASW D HRMM SECON CODA AMPLIT PERI AZIMU VELO AIN AR TRES W  DIS CAZ7
 BAR2 EZ EP        320 25.10                             170    0.1610 23.8 191 
 BAR2 EZ ES        320 40.44                             170    0.0510 23.8 191 
 BAR2 EZ I         320 42.05         5.4 0.38            173           23.8 191 
 RUS  HZ EP        320 28.86                             144   -0.1910  101 176 
 RUS  HN ES        320 47.53                             144   -0.1710  101 176 
 RUS  HZ I         320 50.47         2.2 0.42            148            101 176 
 CPBEREZ EP        320 32.99                             132    0.71 9  148 259 
 CPBEREN ES        320 53.12                             132   -0.34 9  148 259 
 OCA  HZ EP        320 34.25                             130    0.73 9  160 353 
 OCA  HN ES        320 55.63                             130   -0.04 9  160 353 
 OCA  HZ I         320 59.08         9.4 0.54            131            160 353 
 ZAR  HZ EP        320 37.40                             123   -0.32 9  205 292 
 ZAR  HE ES        321  3.44                             123    0.31 9  205 292 
 ZAR  HZ I         321  8.86         6.9 0.78            124            205 292 
 SML  HZ EP        320 40.85                             118   -0.98 8  244 335 
 SML  HN ES        321 10.27                             118   -0.18 8  244 335 
 SML  HZ I         321 17.30         6.3 0.10            119            244 335 
                                                                                
