 2016  524 0902  0.7 L   6.794 -73.155143.7  RSN  4 0.4 1.2LRSN                1
 GAP=248        1.10       8.0     8.4  9.0 -0.7593E+01  0.7940E+01  0.1459E+02E
 Epicentro: LOS SANTOS - SANTANDER                                             3
 ACTION:UPD 16-08-18 17:49 OP:cam  STATUS:               ID:20160524085746 L   I
 OLDACT:UP  16-05-24 18:20 OP:mh   STATUS:               ID:20160524085746 L   3
 OLDACT:UPD 16-05-24 15:34 OP:dnl  STATUS:               ID:20160524085746 L   3
 2016-05-24-0857-46M.COL___289                                                 6
 STAT SP IPHASW D HRMM SECON CODA AMPLIT PERI AZIMU VELO AIN AR TRES W  DIS CAZ7
 BAR2 EZ EP        9 2 19.65                             171   -0.3610 22.5 188 
 BAR2 EZ ES        9 2 34.96                             171   -0.1510 22.5 188 
 BAR2 EZ I         9 2 36.28         3.8 0.13            166           22.5 188 
 BRR  HZ EP        9 2 21.34                             152   -0.2010 70.6 299 
 BRR  HN ES        9 2 38.46                             152    0.6310 70.6 299 
 BRR  HZ I         9 2 39.48         3.5 0.37            150           70.6 299 
 PTB  HZ EP        9 2 27.64                             132    0.30 9  147 259 
 PTB  HN ES        9 2 47.36                             132   -0.80 9  147 259 
 PTB  HZ I         9 2 53.48         1.2 0.16            130            147 259 
 SPBC HZ EP        9 2 29.17                             129    0.30 9  162 219 
 SPBC HN ES        9 2 51.21                             129    0.33 9  162 219 
 SPBC HZ I         9 2 55.41         2.0 0.62            128            162 219 
                                                                                
