 2012 1124 0535 23.3 L   6.755 -73.214139.4  RSN  4 0.4 1.0LRSN                1
 GAP=166        0.78       8.4     7.8  9.9  0.2347E+02  0.3683E+02  0.3161E+02E
 Epicentro: VILLANUEVA - SANTANDER                                             3
 ACTION:UPD 12-12-05 15:35 OP:}ep  STATUS:               ID:20121124053523 L   I
 2012-11-24-0530-00M.COL___233                                                 6
 STAT SP IPHASW D HRMM SECON CODA AMPLIT PERI AZIMU VELO AIN AR TRES W  DIS CAZ7
 BAR2 SZ ES   1    535 56.12                             172   -0.63 7 18.3 169 
 BAR2 SZ I         535 57.93         6.6 0.27                          18.3 169 
 GIR2 SZ ES   1    535 57.63                             165    0.37 7 35.9   4 
 GIR2 SZ I         535 59.05         1.8 0.38                          35.9   4 
 RUS  HZ EP   1    535 45.86                             144   -0.31 7 96.4 171 
 RUS  HN ES   1    536  4.45                             144    0.48 7 96.4 171 
 RUS  HZ I         536  5.21         1.1 0.48                          96.4 171 
 PTB  HZ EP   1    535 49.19                             132    0.15 7  139 260 
 PTB  HN ES   1    536  9.02                             132   -0.06 7  139 260 
 PTB  HZ I         536 13.63         1.5 0.12                           139 260 
                                                                                
