 2011  924 0441  5.7 L   6.796 -73.052142.3  RSN 11 0.4 2.4LRSN                1
 GAP=149        0.81       3.1     4.6  4.9 -0.3078E+01  0.5808E+01 -0.6068E+00E
 Epicentro: LOS SANTOS - SANTANDER                                             3
 ACTION:UPD 12-07-13 15:59 OP:ep   STATUS:               ID:20110924044105 L   I
 2011-09-24-0439-03S.COL___165                                                 6
 STAT SP IPHASW D HRMM SECON CODA AMPLIT PERI AZIMU VELO AIN AR TRES W  DIS CAZ7
 BAR2 SZ IP        441 25.42                             169    0.4010 26.7 213 
 BAR2 SZ ES        441 39.92                             169   -0.1410 26.7 213 
 BAR2 SZ I         441 41.96        54.3 0.17                          26.7 213 
 BTL  SZ EP        441 25.62                             168    0.5910 27.4 300 
 PAM  SZ EP   1    441 26.90                             152   -0.34 7 71.7  33 
 PAM  SN ES   1    441 43.44                             152   -0.58 7 71.7  33 
 BRR  HZ IP     C  441 27.25                             149    0.1810 80.6 295 
 BRR  HN ES        441 44.01                             149    0.2910 80.6 295 
 BRR  HZ I         441 48.10        61.0 0.14                          80.6 295 
 RUS  HZ EP        441 29.43                             143    0.3410 99.9 182 
 RUS  HE ES        441 46.87                             143   -0.4510 99.9 182 
 RUS  HZ I         441 49.26        25.4 0.14                          99.9 182 
 OCA  SZ EP   1    441 33.94                             128   -0.02 7  162 350 
 OCA  SZ I         441 59.04        40.0 0.22                           162 350 
 NOR  SZ EP   1    441 41.29                             117   -0.85 6  243 236 
 NOR  SE ES   1    442 10.11                             117   -0.44 6  243 236 
 CHI  HZ EP   1    441 43.44                             116   -0.06 6  251 197 
 CHI  HN ES   1    442 13.18                             116    0.21 6  251 197 
 CHI  HZ I         442 20.66        11.6 0.42                           251 197 
 HEL  HZ EP   1    441 46.93                             113    0.06 6  282 256 
 HEL  HN ES   1    442 18.58                             113   -0.38 6  282 256 
 HEL  HZ I         442 24.56        14.5 0.44                           282 256 
 RREF HZ EP   2    441 52.50                             110   -0.09 3  329 231 
 RREF HN ES   1    442 29.20                             110    0.06 5  329 231 
 RREF HZ I         442 38.25        12.5 0.15                           329 231 
 COD  HZ EP   1    441 53.51                             108   -0.64 5  350 353 
 COD  HZ I         441 53.77        12.3 0.44                           350 353 
 COD  HN ES   1    442 31.77                             108   -0.15 5  350 353 
                                                                                
