 2012  524 0139 29.1 L   6.778 -73.196136.7  RSN  5 0.3 1.6LRSN                1
 GAP=177        0.65       5.1     5.0  7.5  0.1005E+02  0.8729E+01 -0.8431E+01E
 Epicentro: ZAPATOCA - SANTANDER                                               3
 ACTION:UP  12-07-05 12:07 OP:pat  STATUS:               ID:20120524013929 L   I
 2012-05-24-0134-48M.COL___188                                                 6
 STAT SP IPHASW D HRMM SECON CODA AMPLIT PERI AZIMU VELO SNR AR TRES W  DIS CAZ7
 BAR2 SZ EP        139 47.57                             171     0.010   21 176 
 BAR2 SZ ES   1    140  2.11                             171     0.2 7   21 176 
 BAR2 SZ I         140  5.87        11.1 0.31                            21 176 
 RUS  HZ EP   1    139 51.69                             142    -0.1 7   99 173 
 RUS  HE ES   1    140  9.54                             142     0.0 7   99 173 
 RUS  HZ I         140 11.20         3.3 0.18                            99 173 
 PTB  HZ EP   1    139 54.34                             131    -0.4 7  142 259 
 PTB  HN ES   1    140 14.55                             131    -0.2 7  142 259 
 PTB  HZ I         140 17.78         4.7 0.08                           142 259 
 OCA  HN ES   2    140 18.16                             127    -0.4 5  162 355 
 ZAR  HZ EP   1    140  1.13                             121     0.6 6  200 293 
 ZAR  HN ES   1    140 25.12                             121     0.1 6  200 293 
 ZAR  HZ I         140 32.34         7.1 0.35                           200 293 
                                                                                
