 2012 1224 0403 53.0 L   7.085 -73.409108.9  RSN  9 0.5 1.9LRSN                1
 GAP= 87        0.89       3.3     4.4  6.5  0.2154E+01  0.9441E+01 -0.2287E+01E
 Epicentro: SAN VICENTE DE CHUCURI - SANTANDER                                 3
 ACTION:UPD 13-01-04 14:30 OP:ep   STATUS:               ID:20121224040353 L   I
 2012-12-24-0400-00M.COL___243                                                 6
 STAT SP IPHASW D HRMM SECON CODA AMPLIT PERI AZIMU VELO AIN AR TRES W  DIS CAZ7
 GIR2 SZ EP        4 4  8.45                             167    0.3310 23.8  92 
 GIR2 SZ ES   1    4 4 20.24                             167    0.35 7 23.8  92 
 GIR2 SZ I         4 4 20.50        24.2 0.26                          23.8  92 
 BRR  HZ IP     D  4 4  7.96                             162   -0.2710 33.5 274 
 BRR  HN ES   1    4 4 19.59                             162   -0.50 7 33.5 274 
 BRR  HZ I         4 4 20.24        25.0 0.14                          33.5 274 
 BAR2 SZ IP     D  4 4 10.36                             149    0.4310 60.0 155 
 BAR2 SZ ES   1    4 4 23.17                             149    0.05 7 60.0 155 
 BAR2 SZ I         4 4 24.28        93.2 0.48                          60.0 155 
 OCA  HZ EP   1    4 4 15.60                             126    0.14 7  128   4 
 OCA  HN ES   1    4 4 33.31                             126    0.35 7  128   4 
 OCA  HZ I         4 4 35.22        12.8 0.18                           128   4 
 PTB  HZ EP   4 D  4 4 13.54                             126   -1.99 0  131 243 
 PTB  HN ES   2    4 4 32.32                             126   -0.77 5  131 243 
 PTB  HZ I         4 4 34.47        10.9 0.14                           131 243 
 RUS  HZ EP   1    4 4 16.47                             125   -0.31 7  137 165 
 RUS  HN ES   1    4 4 34.71                             125   -0.60 7  137 165 
 RUS  HZ I         4 4 38.44         4.5 0.40                           137 165 
 ZAR  HZ EP   1    4 4 18.71                             119   -0.50 7  166 286 
 ZAR  HE ES   1    4 4 40.08                             119    0.44 7  166 286 
 ZAR  HZ I         4 4 42.06        15.3 0.48                           166 286 
 SML  HZ EP   1    4 4 22.60                             113   -0.68 6  203 339 
 SML  HE ES   1    4 4 46.42                             113   -0.45 6  203 339 
 SML  HZ I         4 4 53.01        24.2 0.10                           203 339 
 HEL  HZ EP   1    4 4 30.07                             108    0.48 6  254 247 
 HEL  HN ES   1    4 4 58.90                             108    0.79 6  254 247 
 HEL  HZ I         4 5  0.19         4.0 0.30                           254 247 
 MON  HZ EP   4    4 4 34.62                             103   -1.20 0  311 307 
 MON  HN ES   4    4 5  7.12                             103   -2.08 0  311 307 
                                                                                
