 2015  124 0753 47.3 L   6.807 -73.153150.5  RSN 10 0.5 1.9LRSN                1
 GAP=135        1.25       3.7     5.1  6.7 -0.6290E+00  0.9184E+01  0.1031E+01E
 Epicentro: LOS SANTOS - SANTANDER                                             3
 ACTION:UPD 15-03-02 15:41 OP:nd   STATUS:               ID:20150124075347 L   I
 OLDACT:REG 15-01-24 13:35 OP:carl STATUS:               ID:20150124074739     3
 2015-01-24-0747-39M.COL___265                                                 6
 STAT SP IPHASW D HRMM SECON CODA AMPLIT PERI AZIMU VELO AIN AR TRES W  DIS CAZ7
 BAR2 EZ EP        754  7.47                             171   -0.0510 24.0 188 
 BAR2 EZ ES        754 23.14                             171   -0.1510 24.0 188 
 BAR2 EZ I         754 23.77        12.4 0.10            169           24.0 188 
 BRR  HZ EP        754  9.38                             154    0.4710 70.1 298 
 BRR  HN ES        754 26.63                             154    0.8710 70.1 298 
 BRR  HZ I         754 30.93        12.5 0.32            152           70.1 298 
 PAM  SZ EP        754 10.25                             152    0.2210 77.3  40 
 PAM  SN ES        754 27.57                             152   -0.1710 77.3  40 
 PAM  SZ I         754 28.20         8.1 0.22            156           77.3  40 
 RUS  HZ EP        754 11.32                             145   -0.2710  101 176 
 RUS  HN ES        754 30.27                             145   -0.2510  101 176 
 RUS  HZ I         754 32.00         5.6 0.30            146            101 176 
 PTB  HZ EP        754 13.97                             133   -0.64 9  147 258 
 PTB  HN ES        754 35.02                             133   -0.89 9  147 258 
 PTB  HZ I         754 38.24        10.9 0.22            133            147 258 
 SPBC HZ EP        754 16.33                             130    0.14 9  163 219 
 SPBC HN ES        754 38.93                             130    0.22 9  163 219 
 SPBC HZ I         754 43.92        15.5 0.18            130            163 219 
 ZAR  HZ EP        754 20.04                             124    0.08 9  203 292 
 ZAR  HN ES        754 46.15                             124    0.72 9  203 292 
 ZAR  HZ I         754 51.84        11.3 0.46            124            203 292 
 SML  HZ EP        754 23.81                             119   -0.28 8  243 335 
 SML  HN ES        754 52.09                             119   -0.70 8  243 335 
 SML  HZ I         754 56.20        10.0 0.10            120            243 335 
 CHI  HZ EP        754 25.44                             118    0.11 8  249 195 
 CHI  HN ES        754 55.46                             118    0.47 8  249 195 
 CHI  HZ I         755  3.53         2.0 0.38            119            249 195 
 GUY2CHZ EP        754 32.18                             113    1.06 7  301 235 
 GUY2CHE ES        755  4.35                             113   -0.94 7  301 235 
 GUY2CHZ I         755 14.23         6.8 0.76                           301 235 
                                                                                
