 2016 1124 0359 42.6 L   6.726 -73.132149.1  RSN  4 0.2 1.3LRSN                1
 GAP=165        0.64       6.7     4.1  5.2 -0.1363E+02  0.1398E+01  0.3946E+01E
 Epicentro: JORDAN - SANTANDER                                                 3
 ACTION:UPD 17-10-26 21:11 OP:lp   STATUS:               ID:20161124035942 L   I
 OLDACT:REG 16-11-24 12:38 OP:dani STATUS:               ID:20161124035747     3
 2016-11-24-0358-00M.COL___349                                                 6
 STAT SP IPHASW D HRMM SECON CODA AMPLIT PERI AZIMU VELO AIN AR TRES W  DIS CAZ7
 BAR2 EZ EP        4 0  2.70                             174    0.2310 15.8 201 
 BAR2 EZ ES        4 0 18.05                             174    0.0510 15.8 201 
 BRR  HZ EP        4 0  4.50                             151    0.1110 76.7 303 
 BRR  HN ES        4 0 21.74                             151    0.3310 76.7 303 
 BRR  HZ I         4 0 22.05         3.6 0.13            149           76.7 303 
 PAM  EZ EP        4 0  5.53                             150    0.0610 82.9  35 
 PAM  EN ES        4 0 22.98                             150   -0.3510 82.9  35 
 PAM  EZ I         4 0 24.95         3.0 0.43            152           82.9  35 
 PTB  HZ EP        4 0  9.64                             133   -0.18 9  148 262 
 PTB  HN ES        4 0 30.76                             133   -0.32 9  148 262 
 PTB  HZ I         4 0 37.67         2.8 0.46            132            148 262 
                                                                                
