 2012  624 0636  4.8 L   6.771 -73.130150.8  RSN  5 0.5 1.4LRSN                1
 GAP=184        0.77       6.9    10.5  8.6  0.9575E+01  0.3159E+02 -0.2475E+01E
 Epicentro: LOS SANTOS - SANTANDER                                             3
 ACTION:UPD 12-08-06 17:52 OP:ep   STATUS:               ID:20120624063604 L   I
 2012-06-24-0630-00M.COL___199                                                 6
 STAT SP IPHASW D HRMM SECON CODA AMPLIT PERI AZIMU VELO AIN AR TRES W  DIS CAZ7
 BAR2 SZ ES   1    636 40.69                             172   -0.04 7 20.6 196 
 BRR  HZ EP        636 27.02                             152    0.3510 74.3 300 
 BRR  HZ I         636 27.37         6.5 0.12                          74.3 300 
 BRR  HN ES   1    636 44.15                             152    0.42 7 74.3 300 
 RUS  HZ EP   3    636 29.41                             146    0.60 2 97.2 177 
 RUS  HN ES   2    636 47.08                             146   -0.47 5 97.2 177 
 RUS  HZ I         636 50.77         1.7 0.24                          97.2 177 
 PTB  HZ EP        636 32.11                             133   -0.17 9  149 260 
 PTB  HN ES   2    636 53.22                             133   -0.50 5  149 260 
 PTB  HZ I         637  0.33         4.8 0.48                           149 260 
 OCA  HN ES   2    636 55.37                             130   -1.10 5  164 353 
                                                                                
