 2012 1124 0034  9.2 L   6.781 -73.147145.1  RSN  9 0.4 1.7LRSN                1
 GAP=137        0.76       3.1     4.2  5.5 -0.2282E+00  0.8319E+01  0.1050E+01E
 Epicentro: LOS SANTOS - SANTANDER                                             3
 ACTION:UPD 12-12-05 15:35 OP:}ep  STATUS:               ID:20121124003409 L   I
 2012-11-24-0030-00M.COL___233                                                 6
 STAT SP IPHASW D HRMM SECON CODA AMPLIT PERI AZIMU VELO AIN AR TRES W  DIS CAZ7
 BAR2 SZ EP   1    034 28.61                             171   -0.06 7 21.2 191 
 BAR2 SZ ES   1    034 43.11                             171   -0.77 7 21.2 191 
 BAR2 SZ I         034 45.35        40.2 0.24                          21.2 191 
 GIR2 SZ EP   1    034 29.02                             166    0.21 7 33.3 351 
 GIR2 SZ ES   1    034 44.66                             166    0.52 7 33.3 351 
 GIR2 SZ I         034 45.21         7.3 0.18                          33.3 351 
 PAM  SZ EP   1    034 31.64                             150    0.23 7 79.1  39 
 PAM  SN ES   1    034 48.85                             150    0.09 7 79.1  39 
 PAM  SZ I         034 51.52         6.0 0.26                          79.1  39 
 RUS  HZ EP        034 32.64                             144   -0.0510 98.5 176 
 RUS  HN ES   1    034 51.02                             144   -0.03 7 98.5 176 
 RUS  HZ I         034 52.60         5.6 0.24                          98.5 176 
 PTB  HZ EP   1    034 35.94                             132   -0.09 7  147 260 
 PTB  HN ES   1    034 56.50                             132   -0.48 7  147 260 
 PTB  HZ I         034 59.54         5.1 0.12                           147 260 
 ZAR  HZ EP   1    034 41.56                             122   -0.07 6  205 293 
 ZAR  HN ES   1    035  7.05                             122    0.09 6  205 293 
 ZAR  HZ I         035 12.74         7.7 0.35                           205 293 
 NOR  HZ EP   1    034 44.64                             118   -0.07 6  233 235 
 NOR  HN ES   1    035 13.13                             118    0.69 6  233 235 
 NOR  HZ I         035 18.68         4.6 0.18                           233 235 
 SML  HZ EP   1    034 44.95                             117   -1.00 6  246 336 
 SML  HN ES   1    035 15.16                             117    0.51 6  246 336 
 CHI  HZ EP   1    034 46.79                             117    0.19 6  247 195 
 CHI  HN ES   1    035 16.04                             117    0.24 6  247 195 
 CHI  HZ I         035 20.60         3.7 0.74                           247 195 
                                                                                
