 2017  424 0549 20.3 L   6.816 -73.173144.9  RSN 12 0.5 2.0LRSN                1
 GAP=109        1.21       3.8     4.1  6.4  0.9315E+00  0.4354E+01  0.5097E+01E
 Epicentro: LOS SANTOS - SANTANDER                                             3
 ACTION:UPD 17-05-30 21:15 OP:jn   STATUS:               ID:20170424054920 L   I
 OLDACT:UP  17-04-24 14:55 OP:dani STATUS:               ID:20170424054738     3
 OLDACT:REG 17-04-24 12:53 OP:dani STATUS:               ID:20170424054738     3
 2017-04-24-0548-00M.COL___365                                                 6
 STAT SP IPHASW D HRMM SECON CODA AMPLIT PERI AZIMU VELO AIN AR TRES W  DIS CAZ7
 BAR2 EZ EP        549 39.76                             170   -0.0610 24.8 182 
 BAR2 EZ ES        549 54.52                             170   -0.5610 24.8 182 
 BAR2 EZ I         549 56.03        34.0 0.22            166           24.8 182 
 BRR  HZ EP        549 41.58                             153    0.4510 67.7 298 
 BRR  HN ES        549 57.79                             153    0.3910 67.7 298 
 BRR  HZ I         550  2.43        16.1 0.14            154           67.7 298 
 PAM  EZ EP        549 42.58                             150    0.1510 78.1  42 
 PAM  EN ES        549 59.59                             150   -0.1310 78.1  42 
 PAM  EZ I         550  1.63        15.2 0.48            156           78.1  42 
 PTB  HZ EP        549 46.93                             132    0.01 9  145 258 
 PTB  HN ES        550  6.95                             132   -0.77 9  145 258 
 SPBC HZ EP        549 48.65                             129    0.00 9  163 218 
 SPBC HN ES        550 10.89                             129    0.10 9  163 218 
 SPBC HZ I         550 16.57        17.0 0.28            129            163 218 
 YPLC HZ EP        549 50.13                             126   -0.17 9  180 151 
 YPLC HN ES        550 14.27                             126    0.55 9  180 151 
 YPLC HZ I         550 17.71        11.4 0.39            127            180 151 
 ZAR  HZ EP        549 53.14                             122    0.85 9  201 292 
 ZAR  HN ES        550 17.85                             122    0.57 9  201 292 
 ZAR  HZ I         550 23.10         9.5 0.54            124            201 292 
 NOR  HZ EP        549 54.35                             118   -1.44 8  233 234 
 NOR  HN ES        550 23.81                             118    0.31 8  233 234 
 NOR  HZ I         550 28.93        12.0 0.52            119            233 234 
 CHI  HZ EP        549 58.14                             117    0.12 8  250 194 
 CHI  HE ES        550 27.54                             117    0.08 8  250 194 
 CHI  HZ I         550 34.36         4.3 0.50            117            250 194 
 ROSC BZ EP   9    549 59.92                             116    1.59 0  253 210 
 ROSC BE ES        550 28.84                                   -0.77 8  253 210 
 ROSC BZ I         550 36.41         8.3 0.31            117            253 210 
 PRA  HZ EP        550 13.54                             106   -0.22 6  392 209 
 PRA  HN ES   3    550 56.67                             106    1.18 1  392 209 
 PRA  HZ I         551  2.36         4.4 0.48            107            392 209 
 SJC  HZ EP   3    550 14.22                             105   -1.21 1  406 327 
 SJC  HN ES        550 57.46                             105   -1.00 6  406 327 
 SJC  HZ I         550 58.69         2.0 0.14            107            406 327 
                                                                                
