 2013  224 0426 49.1 L   6.745 -73.161143.8  RSN  7 0.5 1.8LRSN                1
 GAP=137        1.29       5.3     6.6  9.4 -0.3179E+01  0.7780E+01 -0.6563E+00E
 Epicentro: VILLANUEVA - SANTANDER                                             3
 ACTION:UPD 13-03-12 09:35 OP:ep   STATUS:               ID:20130224042649 L   I
 2013-02-24-0420-00M.COL___225                                                 6
 STAT SP IPHASW D HRMM SECON CODA AMPLIT PERI AZIMU VELO AIN AR TRES W  DIS CAZ7
 BAR2 SZ EP        427  8.37                             173   -0.0210 17.1 188 
 BAR2 SZ ES        427 23.10                             173   -0.3310 17.1 188 
 BAR2 SZ I         427 24.54        16.2 0.18            170           17.1 188 
 BRR  HZ EP        427 10.27                             152    0.1310 72.8 303 
 BRR  HN ES        427 27.14                             152    0.6010 72.8 303 
 BRR  HN I         427 27.26        18.4 0.28            150           72.8 303 
 PAM  SZ EP        427 11.27                             149   -0.2010 83.2  38 
 PAM  SN ES        427 28.13                             149   -0.7910 83.2  38 
 PAM  SN I         427 29.35         5.6 0.24            151           83.2  38 
 RUS  HZ EP        427 12.38                             145    0.1410 94.7 175 
 RUS  HN ES        427 31.01                             145    0.7210 94.7 175 
 PTB  HZ EP        427 15.35                             132   -0.31 9  145 261 
 PTB  HN ES        427 35.73                             132   -0.64 9  145 261 
 PTB  HN I         427 41.25         6.4 0.32            130            145 261 
 OCA  HN ES        427 40.92                             128    0.71 9  166 354 
 OCA  HN I         427 42.48        20.9 0.24            128            166 354 
 CHI  HZ EP   4    427 26.54                             117    0.53 0  242 195 
 CHI  HN ES   4    427 58.50                             117    3.70 0  242 195 
 CHI  HN I         428  1.93         2.9 0.32            116            242 195 
                                                                                
