 2010  924 0036 55.4 L   6.763 -73.073149.3  RSN  4 0.2 1.6LRSN                1
 GAP=242        0.39       4.4     9.3  5.2  0.2717E+02 -0.2175E+01  0.1572E+01E
 Epicentro: LOS SANTOS - SANTANDER                                             3
 ACTION:UP  11-02-18 11:05 OP:tino STATUS:               ID:20100924003655 L   I
 2010-09-24-0035-35S.COL___119                                                 6
 STAT SP IPHASW D HRMM SECON CODA AMPLIT PERI AZIMU VELO SNR AR TRES W  DIS CAZ7
 BAR2 SZ EP   2    037 15.20                             171    -0.2 5   23 213 
 BAR2 SZ ES   2    037 30.72                             171    -0.3 5   23 213 
 BAR2 SZ I         037 32.25         9.2 0.20                            23 213 
 BRR  HZ EP   1    037 17.41                             150     0.0 7   80 298 
 BRR  HE ES   1    037 34.73                             150     0.1 7   80 298 
 BRR  HZ I         037 36.39        10.8 0.19                            80 298 
 RUS  HZ EP   2    037 19.35                             146     0.2 5   96 181 
 RUS  HE ES   1    037 37.89                             146     0.2 7   96 181 
 RUS  HZ I         037 39.38         5.4 0.25                            96 181 
 CHI  HZ EP   2    037 33.03                             118    -0.1 4  247 197 
 CHI  HZ I         037 36.97         1.8 0.36                           247 197 
 CHI  HN ES   2    038  2.30                             118    -0.2 4  247 197 
                                                                                
