 2014  624 0907 14.5 L   6.767 -73.179144.2  RSN  5 0.3 1.6LRSN                1
 GAP=179        0.80       2.8     7.9  6.9 -0.2135E+00  0.2028E+02 -0.5294E+01E
 Epicentro: LOS SANTOS - SANTANDER                                             3
 ACTION:UPD 14-07-01 22:56 OP:nd   STATUS:               ID:20140624090714 L   I
 OLDACT:DUP 14-06-24 18:13 OP:spq  STATUS:               ID:20140624085809d    3
 2014-06-24-0858-08M.COL___259                                                 6
 STAT SP IPHASW D HRMM SECON CODA AMPLIT PERI AZIMU VELO AIN AR TRES W  DIS CAZ7
 BAR2 SZ EP        9 7 33.80                             172   -0.1110 19.3 181 
 BAR2 SZ I         9 7 34.00         7.5 0.40            173           19.3 181 
 BAR2 SZ ES        9 7 48.80                             172   -0.2210 19.3 181 
 RUS  HZ EP        9 7 37.79                             144   -0.1110 97.3 174 
 RUS  HZ I         9 7 38.75         2.7 0.26            145           97.3 174 
 RUS  HN ES        9 7 56.19                             144    0.0710 97.3 174 
 SPBC HZ EP        9 7 42.33                             130   -0.11 9  158 219 
 SPBC HZ I         9 7 43.00         5.7 0.56            129            158 219 
 SPBC HE ES        9 8  4.48                             130    0.29 9  158 219 
 OCA  HN ES        9 8  5.84                             129    0.57 9  164 355 
 SML  HZ EP        9 7 51.57                             117    0.29 8  246 336 
 SML  HN ES        9 8 19.26                             117   -0.68 8  246 336 
 SML  HZ I         9 8 25.01         5.0 0.10            116            246 336 
                                                                                
