 2012 1024 0906  2.5 L   6.775 -73.129141.3  RSN  9 0.3 2.1LRSN                1
 GAP=140        0.68       3.5     3.6  4.5  0.2081E+01  0.4769E+01  0.3302E+01E
 Epicentro: LOS SANTOS - SANTANDER                                             3
 ACTION:UPD 12-11-22 17:05 OP:ep   STATUS:               ID:20121024090602 L   I
 2012-10-24-0900-00M.COL___234                                                 6
 STAT SP IPHASW D HRMM SECON CODA AMPLIT PERI AZIMU VELO AIN AR TRES W  DIS CAZ7
 BAR2 SZ EP        9 6 21.47                             171   -0.0510 21.1 196 
 BAR2 SZ ES        9 6 36.32                             171   -0.0610 21.1 196 
 BAR2 SZ I         9 6 37.83        42.2 0.15                          21.1 196 
 GIR2 SZ EP        9 6 21.59                             166   -0.1110 34.3 348 
 BRR  HZ EP        9 6 23.39                             151    0.0810 74.1 300 
 BRR  HZ I         9 6 25.25        30.8 0.13                          74.1 300 
 BRR  HN ES        9 6 40.05                             151    0.4810 74.1 300 
 PAM  SZ EP        9 6 24.42                             150    0.1410 78.4  37 
 PAM  SZ I         9 6 24.84        20.2 0.19                          78.4  37 
 PAM  SN ES        9 6 41.20                             150   -0.0810 78.4  37 
 RUS  HZ EP        9 6 25.66                             144    0.0810 97.7 177 
 RUS  HN ES   1    9 6 43.18                             144   -0.42 7 97.7 177 
 RUS  HZ I         9 6 45.97        13.7 0.51                          97.7 177 
 ZAR  HZ IP   1    9 6 34.20                             121   -0.71 6  207 293 
 ZAR  HZ EP   1    9 6 34.58                             121            207 293 
 ZAR  HE ES        9 6 59.85                             121   -0.37 8  207 293 
 ZAR  HZ I         9 7  6.00        22.3 0.20                           207 293 
 CHI  HZ EP   1    9 6 39.88                             116    0.19 6  246 196 
 CHI  HZ I         9 7 18.93         4.9 0.56                           246 196 
 HEL  HZ EP   1    9 6 42.85                             114    0.27 6  273 256 
 HEL  HZ I         9 7 20.81         6.6 0.24                           273 256 
 RREF HZ EP   1    9 6 48.98                             110    0.60 5  321 230 
 RREF HZ I         9 7 31.36         6.1 0.30                           321 230 
                                                                                
