 2012 1024 0601 58.5 L   6.705 -73.212152.0  RSN  4 0.1 1.4LRSN                1
 GAP=217        0.38       5.7     6.5  5.2  0.3127E+02 -0.5402E+01 -0.6817E+01E
 Epicentro: VILLANUEVA - SANTANDER                                             3
 ACTION:UPD 12-11-22 17:05 OP:ep   STATUS:               ID:20121024060158 L   I
 2012-10-24-0600-00M.COL___234                                                 6
 STAT SP IPHASW D HRMM SECON CODA AMPLIT PERI AZIMU VELO AIN AR TRES W  DIS CAZ7
 BAR2 SZ EP   1    6 2 18.51                             175   -0.26 7 12.9 165 
 BAR2 SZ I         6 2 30.66        10.3 0.60                          12.9 165 
 BRR  HZ EP        6 2 20.51                             154    0.1510 71.0 309 
 BRR  HZ I         6 2 20.80         3.1 0.10                          71.0 309 
 BRR  HE ES   1    6 2 37.34                             154   -0.03 7 71.0 309 
 RUS  HZ EP   1    6 2 22.37                             148    0.11 7 90.9 171 
 RUS  HN ES   1    6 2 40.75                             148   -0.01 7 90.9 171 
 RUS  HN I         6 2 42.49         2.8 0.21                          90.9 171 
 ZAR  HZ EP   2    6 2 30.98                             124   -0.18 4  202 296 
 ZAR  HN ES   1    6 2 56.57                             124   -0.03 6  202 296 
 ZAR  HZ I         6 3  2.89         1.8 0.26                           202 296 
                                                                                
