 2016 1124 0050 13.7 L   6.694 -73.157142.0  RSN  5 0.5 1.4LRSN                1
 GAP=159        0.99       8.2     4.7  7.9 -0.8880E+01  0.7874E+01  0.1842E+01E
 Epicentro: VILLANUEVA - SANTANDER                                             3
 ACTION:UPD 17-10-26 21:11 OP:lp   STATUS:               ID:20161124005013 L   I
 OLDACT:UP  16-11-24 13:54 OP:dani STATUS:               ID:20161124004747d    3
 OLDACT:DUP 16-11-24 13:51 OP:dani STATUS:               ID:20161124004747d    3
 2016-11-24-0048-00M.COL___352                                                 6
 STAT SP IPHASW D HRMM SECON CODA AMPLIT PERI AZIMU VELO AIN AR TRES W  DIS CAZ7
 BAR2 EZ EP        050 32.90                             175    0.2210 11.6 194 
 BAR2 EZ ES        050 47.97                             175    0.4710 11.6 194 
 BRR  HZ EP        050 34.81                             150    0.0710 76.4 307 
 BRR  HN ES        050 51.45                             150    0.2910 76.4 307 
 BRR  HZ I         050 51.99         5.4 0.10            151           76.4 307 
 PAM  EZ EP        050 36.08                             147   -0.0610 87.5  35 
 PAM  EE ES        050 53.17                             147   -0.4910 87.5  35 
 PAM  EZ I         050 54.99         4.4 0.54            149           87.5  35 
 PTB  HZ EP        050 39.81                             132   -0.26 9  145 263 
 PTB  HN ES        050 59.92                             132   -0.72 9  145 263 
 PTB  HZ I         051  4.23         3.6 0.13            132            145 263 
 ZAR  HZ EP   3    050 47.84                             121    1.58 2  208 295 
 ZAR  HE ES        051 12.06                             121    0.40 8  208 295 
                                                                                
