 2013  724 0218 17.5 L   6.479 -73.587107.9  RSN  7 0.4 1.8LRSN                1
 GAP=135        0.84       4.9     3.9  6.7 -0.2190E+01  0.5475E+01  0.6217E-01E
 Epicentro: SANTA HELENA DEL OPON - SANTANDER                                  3
 ACTION:UPD 13-08-12 10:39 OP:ep   STATUS:               ID:20130724021817 L   I
 OLDACT:DUP 13-07-24 09:45 OP:cam  STATUS:               ID:20130724020960d    3
 OLDACT:REG 13-07-24 08:04 OP:cam  STATUS:               ID:20130724020959     3
 2013-07-24-0209-59M.COL___266                                                 6
 STAT SP IPHASW D HRMM SECON CODA AMPLIT PERI AZIMU VELO AIN AR TRES W  DIS CAZ7
 BAR2 SZ EP        218 33.70                             155    0.2110 46.4  74 
 BAR2 SZ ES   1    218 45.96                             155   -0.02 7 46.4  74 
 BAR2 SZ I         218 47.29        57.8 0.46            152           46.4  74 
 BRR  HZ EP        218 34.58                             144   -0.0710 70.8 349 
 BRR  HE ES   1    218 48.63                             144    0.57 7 70.8 349 
 BRR  HZ I         218 54.28         8.7 0.14            131           70.8 349 
 GIR2 SZ EP        218 35.10                             141   -0.3810 79.3  33 
 GIR2 SZ ES        218 49.48                             141   -0.0510 79.3  33 
 RUS  HZ EP   1    218 36.73                             139    0.27 7 85.5 139 
 PTB  HZ EP        218 36.51                             135   -0.2010 96.4 274 
 PTB  HZ I         218 36.69         9.2 0.20            124           96.4 274 
 PTB  HN ES        218 51.46                             135   -0.2710 96.4 274 
 ZAR  HZ EP   1    218 46.17                             116    1.11 7  180 309 
 ZAR  HZ I         219 10.66         6.4 0.42            109            180 309 
 SML  HZ EP   1    218 54.11                             107   -0.34 6  262 348 
 SML  HZ I         218 56.23         4.0 0.10            103            262 348 
 SML  HN ES   1    219 23.08                             107   -0.21 6  262 348 
                                                                                
