 2014 1024 0832 38.7 L   6.202 -73.782 99.3  RSN  8 0.4 1.5LRSN                1
 GAP=120        0.98       4.6     3.1  6.9  0.4003E+00  0.6661E+01  0.4998E+01E
 Epicentro: LANDAZURI - SANTANDER                                              3
 ACTION:UPD 14-11-29 23:56 OP:nd   STATUS:               ID:20141024083238 L   I
 OLDACT:UP  14-10-27 16:54 OP:cam  STATUS:               ID:20141024082808     3
 OLDACT:ARG 14-10-27 14:42 OP:cam  STATUS:               ID:20141024082808     3
 2014-10-24-0828-08M.COL___280                                                 6
 STAT SP IPHASW D HRMM SECON CODA AMPLIT PERI AZIMU VELO AIN AR TRES W  DIS CAZ7
 SPBC HZ EP        832 55.07                             143    0.0410 68.7 208 
 SPBC HN ES        833  7.81                             143    0.0510 68.7 208 
 SPBC HZ I         833  9.94        18.1 0.20            145           68.7 208 
 BAR2 SZ EP        832 56.20                             139    0.1510 79.2  57 
 BAR2 SZ ES        833 10.10                             139    0.5210 79.2  57 
 BAR2 SZ I         833 11.45        30.9 0.44            143           79.2  57 
 PTB  HZ IP     C  832 55.52                             137   -0.5810 83.4 297 
 PTB  HN ES        833  9.17                             137   -0.4810 83.4 297 
 PTB  HZ I         833 12.55         8.4 0.14            138           83.4 297 
 RUS  HZ EP        832 56.54                             137   -0.3110 84.6 114 
 RUS  HE ES        833 10.91                             137   -0.0910 84.6 114 
 RUS  HZ I         833 11.85         4.3 0.36            142           84.6 114 
 CHI  HZ EP   1    833  5.81                             116    0.07 7  174 178 
 HEL  HZ EP        833  7.94                             113    0.08 9  193 270 
 HEL  HN ES        833 31.54                             113    0.95 9  193 270 
 HEL  HZ I         833 34.77         1.9 0.22            114            193 270 
 GUY2CHZ EP        833  9.22                             112   -0.22 8  206 238 
 GUY2CHN ES   4    833 35.52                             112    2.12 0  206 238 
 GUY2CHZ I         833 37.65         3.0 0.46                           206 238 
 RREF HZ EP   4    833  6.56                             110   -5.31 0  225 230 
 PRA  HZ EP   1    833 20.27                             104    0.18 5  301 204 
                                                                                
