 2016 1024 0553 34.4 L   6.873 -73.393122.0  RSN  9 0.3 1.9LRSN                1
 GAP= 57        0.70       2.3     2.8  4.1 -0.1941E+01  0.7146E+00 -0.4477E+00E
 Epicentro: SAN VICENTE DE CHUCURI - SANTANDER                                 3
 ACTION:UPD 16-11-09 19:22 OP:rebc STATUS:               ID:20161024055334 L   I
 OLDACT:REG 16-10-24 13:49 OP:cara STATUS:               ID:20161024054745     3
 2016-10-24-0548-00M.COL___356                                                 6
 STAT SP IPHASW D HRMM SECON CODA AMPLIT PERI AZIMU VELO AIN AR TRES W  DIS CAZ7
 BAR2 EZ EP        553 51.95                             161    0.3010 38.8 143 
 BAR2 EZ ES        554  4.97                             161   -0.1610 38.8 143 
 BAR2 EZ I         554  6.18        42.7 0.24            166           38.8 143 
 BRR  HZ EP   9    553 52.39                             159    0.89 0 43.7 306 
 BRR  HN ES        554  6.08                                    0.3410 43.7 306 
 BRR  HZ I         554  7.27        35.1 0.12            156           43.7 306 
 PAM  EZ EP        553 55.39                             141    0.1710 92.4  56 
 PAM  EN ES        554 11.60                             141    0.1210 92.4  56 
 PAM  EZ I         554 13.82        12.1 0.34            144           92.4  56 
 RUS  HZ EP        553 57.08                             134    0.0910  114 162 
 RUS  HN ES        554 14.33                             134   -0.2910  114 162 
 RUS  HZ I         554 15.45         6.0 0.20            138            114 162 
 PTB  HZ EP        553 57.04                             132   -0.1410  123 253 
 PTB  HN ES        554 14.56                             132   -0.4110  123 253 
 PTB  HZ I         554 18.92         9.2 0.16            132            123 253 
 OCA  HZ EP        554  0.05                             125   -0.00 9  151   3 
 OCA  HN ES        554 20.04                             125   -0.04 9  151   3 
 OCA  HZ I         554 26.14        22.2 0.34            126            151   3 
 SPBC HZ EP        554  0.55                             125    0.25 9  155 209 
 SPBC HN ES        554 20.97                             125    0.46 9  155 209 
 SPBC HZ I         554 25.53         8.6 0.34            127            155 209 
 TAM  HZ EP        554  2.86                             120   -0.39 9  184 105 
 TAM  HE ES   4    554 23.28                             120   -2.48 0  184 105 
 GUY2CHZ EP   4    554 16.65                             109    1.60 0  284 230 
 GUY2CHN ES   4    554 46.21                             109   -0.57 0  284 230 
 GUY2CHZ I         554 55.70         2.7 0.38                           284 230 
                                                                                
