 2014  124 0911 30.2 L   6.795 -73.136145.0  RSN 16 0.4 2.2LRSN                1
 GAP=154        0.83       2.5     3.5  5.0 -0.2769E+01  0.6288E+01  0.7336E+00E
 Epicentro: LOS SANTOS - SANTANDER                                             3
 ACTION:UPD 14-03-13 09:58 OP:ep   STATUS:               ID:20140124091130 L   I
 OLDACT:REG 14-01-24 07:54 OP:nd   STATUS:               ID:20140124091000     3
 2014-01-24-0910-00M.COL___285                                                 6
 STAT SP IPHASW D HRMM SECON CODA AMPLIT PERI AZIMU VELO AIN AR TRES W  DIS CAZ7
 BAR2 SZ EP     D  911 50.04                             171    0.3110 23.0 193 
 BAR2 SZ ES        912  4.80                             171   -0.1710 23.0 193 
 BAR2 SZ I         912  6.39        57.7 0.48            168           23.0 193 
 PAM  SZ EP     D  911 52.87                             151    0.5510 77.2  39 
 PAM  SN ES        912  9.76                             151    0.1810 77.2  39 
 PAM  SZ I         912 12.06        20.5 0.56            154           77.2  39 
 PTB  HZ EP        911 56.69                             132   -0.50 9  149 259 
 PTB  HN ES   2    912 17.98                             132   -0.27 5  149 259 
 PTB  HZ I         912 23.07        13.2 0.28            132            149 259 
 OCA  HZ EP        911 58.17                             129   -0.35 9  161 353 
 OCA  HN ES        912 20.15                             129   -0.46 9  161 353 
 OCA  HZ I         912 24.77        20.0 0.26            131            161 353 
 SPBC HZ EP        911 58.95                             129    0.29 9  163 219 
 SPBC HN ES        912 20.78                             129   -0.08 9  163 219 
 SPBC HZ I         912 27.82        18.4 0.42            129            163 219 
 ZAR  HZ EP        912  2.78                             122    0.06 8  205 292 
 ZAR  HN ES        912 28.55                             122    0.46 8  205 292 
 ZAR  HZ I         912 34.74        14.9 0.34            123            205 292 
 NOR  HZ EP        912  6.31                             118    0.37 8  235 235 
 NOR  HN ES        912 33.57                             118   -0.25 8  235 235 
 NOR  HZ I         912 37.13        10.9 0.20            119            235 235 
 SML  HZ EP        912  6.27                             117   -0.62 8  245 335 
 SML  HN ES   2    912 35.71                             117    0.20 4  245 335 
 SML  HZ I         912 40.46        17.5 0.20            119            245 335 
 CHI  HZ EP        912  8.04                             117    0.22 8  248 195 
 CHI  HN ES        912 36.66                             117   -0.51 8  248 195 
 CHI  HZ I         912 43.42         7.1 0.24            117            248 195 
 ROSC BZ EP   4    912  9.69                             116    1.41 0  253 211 
 ROSC BN ES   4    912 41.74                             116    3.76 0  253 211 
 HEL  HZ EP   2    912 11.21                             114    0.74 4  273 256 
 HEL  HN ES        912 42.41                             114    0.52 8  273 256 
 HEL  HZ I         912 49.80         4.8 0.44            115            273 256 
 URE  HZ EP   4    912 11.05                             113   -0.32 0  285 292 
 URE  HN ES   4    912 39.77                             113   -3.71 0  285 292 
 URE  HZ I         912 44.07         9.4 0.12            114            285 292 
 GUY2CHZ EP   4    912 14.51                             112    0.68 0  302 235 
 GUY2CHN ES   4    912 49.02                             112    1.15 0  302 235 
 GUY2CHZ I         912 57.12        29.6 0.96                           302 235 
 PTGC HZ EP   4    912 12.73                             111   -1.18 0  308 159 
 PTGC HN ES   4    912 46.35                             111   -1.65 0  308 159 
 PTGC HZ I         913  1.10        15.5 0.32            112            308 159 
 CBOC HZ EP   4    912 18.77                             110    1.59 0  334 252 
 CBOC HN ES        912 53.60                             110   -0.22 7  334 252 
 CBOC HZ I         912 57.16         2.3 0.20            110            334 252 
 PRA  HZ EP        912 23.57                             106   -0.12 6  392 210 
 PRA  HN ES        913  5.19                             106   -0.23 6  392 210 
 PRA  HZ I         913 12.57         6.8 0.36            107            392 210 
 SJC  HZ EP   4    912 24.57                             105   -1.29 0  410 327 
 SJC  HN ES   4    913  6.46                             105   -2.82 0  410 327 
 SJC  HZ I         913 10.17         5.9 0.50            106            410 327 
                                                                                
