 2011  424 0928 10.9 L   6.927 -72.889136.1  RSN  5 0.5 1.4LRSN                1
 GAP=254        1.19      21.1    25.3 17.6  0.3422E+03 -0.1092E+03  0.9378E+02E
 Epicentro: LOS SANTOS - SANTANDER                                             3
 ACTION:UP  11-06-22 15:33 OP:REBC STATUS:               ID:20110424092810 L   I
 2011-04-24-0920-00M.COL___140                                                 6
 STAT SP IPHASW D HRMM SECON CODA AMPLIT PERI AZIMU VELO SNR AR TRES W  DIS CAZ7
 GIR2 SZ EP   2    928 28.77                             165    -0.9 5   38 297 
 GIR2 SZ ES   2    928 43.44                             165    -0.8 5   38 297 
 BTL  SZ EP        928 30.77                             164     0.810   42 269 
 BTL  SZ ES   2    928 45.46                             164     0.7 5   42 269 
 BAR2 SZ EP        928 30.24                             162     0.010   49 221 
 BRR  HZ EP        928 32.24                             145    -0.210   93 282 
 BRR  HN ES   1    928 49.09                             145    -0.2 7   93 282 
 BRR  HZ I         928 50.99         5.9 0.08                            93 282 
 RUS  HZ EP        928 34.70                             139    -0.310  116 191 
 RUS  HZ I         928 53.63         2.7 0.47                           116 191 
                                                                                
