 2015  424 0948  1.3 L   7.037 -73.827 93.8  RSN  7 0.5 1.5LRSN                1
 GAP=131        1.24       3.9     5.8  8.9 -0.6186E+01  0.1692E+02 -0.1266E+02E
 Epicentro: BARRANCABERMEJA - SANTANDER                                        3
 ACTION:UPD 15-06-03 16:57 OP:cam  STATUS:               ID:20150424094801 L   I
 OLDACT:UP  15-04-24 16:05 OP:mh   STATUS:               ID:20150424094549     3
 OLDACT:UP  15-04-24 16:04 OP:mh   STATUS:               ID:20150424094549     3
 OLDACT:REG 15-04-24 15:59 OP:mh   STATUS:               ID:20150424094549     3
 2015-04-24-0945-49M.COL___260                                                 6
 STAT SP IPHASW D HRMM SECON CODA AMPLIT PERI AZIMU VELO AIN AR TRES W  DIS CAZ7
 BRR  HZ EP        948 14.71                             170    0.5510 14.9  59 
 BRR  HN ES        948 24.59                             170    0.4110 14.9  59 
 BRR  HZ I         948 26.68        10.1 0.18            168           14.9  59 
 PTB  HZ EP        948 19.18                             133    0.5010 88.7 232 
 PTB  HN ES        948 32.06                             133   -0.1610 88.7 232 
 PTB  HZ I         948 33.19         5.1 0.22            134           88.7 232 
 ZAR  HZ EP   1    948 21.35                             123   -0.81 7  124 294 
 ZAR  HN ES        948 38.03                             123   -0.3810  124 294 
 ZAR  HZ I         948 41.86         6.5 0.24            124            124 294 
 OCA  HE ES        948 41.87                             119   -0.61 9  144  23 
 OCA  HZ I         948 46.47         5.2 0.40            118            144  23 
 SPBC HN ES        948 43.90                             117   -0.63 9  156 190 
 SPBC HZ I         948 50.81         6.0 0.11            117            156 190 
 SML  HZ EP        948 30.12                             111   -0.04 9  197 352 
 SML  HE ES        948 52.33                             111   -0.32 9  197 352 
 SML  HZ I         948 58.01         6.7 0.30            111            197 352 
 MON  HZ EP        948 40.80                             104    0.90 7  280 314 
 MON  HN ES        949 10.52                             104    0.54 7  280 314 
                                                                                
