 2013  324 0647 51.3 L   6.918 -73.307112.2  RSN  7 0.3 1.8LRSN                1
 GAP=160        0.78       3.1     4.2  6.1  0.5441E+01  0.6929E+01  0.5830E+00E
 Epicentro: BETULIA - SANTANDER                                                3
 ACTION:UPD 13-04-09 14:04 OP:ep   STATUS:               ID:20130324064751 L   I
 2013-03-24-0640-00M.COL___245                                                 6
 STAT SP IPHASW D HRMM SECON CODA AMPLIT PERI AZIMU VELO AIN AR TRES W  DIS CAZ7
 BAR2 SZ EP        648  7.48                             160    0.0910 38.6 159 
 BAR2 SZ ES        648 20.40                             160    0.4310 38.6 159 
 BRR  HZ EP        648  7.14                             155   -0.4110 49.4 295 
 BRR  HN ES        648 20.21                             155   -0.0510 49.4 295 
 BRR  HN I         648 20.58        26.8 0.32            154           49.4 295 
 RUS  HZ EP        648 13.63                             131    0.3710  116 168 
 RUS  HN ES        648 29.92                             131   -0.5010  116 168 
 RUS  HN I         648 30.46         5.3 0.20            131            116 168 
 PTB  HZ EP   4    648 12.00                             126   -2.31 0  134 252 
 PTB  HN ES   4    648 28.23                             126   -4.06 0  134 252 
 PTB  HN I         648 32.53        11.9 0.20            126            134 252 
 OCA  HN ES        648 34.87                             123    0.05 9  146 359 
 ZAR  HZ EP   1    648 19.49                             117    0.09 7  183 290 
 ZAR  HN ES        648 41.17                             117   -0.19 9  183 290 
 ZAR  HN I         648 43.10         9.1 0.12            117            183 290 
 HEL  HN ES   1    648 57.76                             108    0.35 6  259 252 
                                                                                
