 2016 1224 0551 49.3 L   5.822 -73.913108.7  RSN  6 0.4 0.9LRSN                1
 GAP=151        0.98       3.5     4.3  9.4  0.4335E+01  0.1241E+02 -0.2159E+01E
 Epicentro: FLORIAN - SANTANDER                                                3
 ACTION:UPD 17-01-11 20:18 OP:rebc STATUS:               ID:20161224055149 L   I
 OLDACT:REG 16-12-24 13:21 OP:cog  STATUS:               ID:20161224054740     3
 2016-12-24-0548-00M.COL___387                                                 6
 STAT SP IPHASW D HRMM SECON CODA AMPLIT PERI AZIMU VELO AIN AR TRES W  DIS CAZ7
 RUS  HZ EP        552  8.76                             137   -0.1710 92.2  85 
 RUS  HZ I         552 23.01         0.7 0.26            133           92.2  85 
 RUS  HE ES        552 24.04                             137   -0.1810 92.2  85 
 PTB  HZ EP        552  8.15                             134   -0.7610 99.6 323 
 PTB  HN ES        552 24.64                             134    0.4510 99.6 323 
 PTB  HZ I         552 27.04         3.2 0.14            133           99.6 323 
 BAR2 EZ EP        552 11.51                             129    0.6710  117  43 
 BAR2 HN ES        552 27.56                             129   -0.0610  117  43 
 CHI  HZ EP   4    552 13.99                             125    1.37 0  133 171 
 CHI  HE ES        552 30.89                             125    0.0910  133 171 
 CHI  HZ I         552 34.63         0.7 0.44            121            133 171 
 BRR  HZ EP        552 13.15                             123    0.02 9  144   9 
 BRR  HE ES        552 31.64                             123   -0.07 9  144   9 
 ZAR  HZ EP        552 20.93                             112    0.35 8  212 331 
 ZAR  HE ES        552 44.67                             112   -0.30 8  212 331 
 ZAR  HZ I         552 47.46         1.6 0.44            111            212 331 
                                                                                
