 2016  724 0209 10.2 L   6.763 -73.102138.8  RSN 10 0.5 2.2LRSN                1
 GAP=144        1.29       4.5     5.8  8.0 -0.1919E+01  0.1282E+02  0.6384E+01E
 Epicentro: LOS SANTOS - SANTANDER                                             3
 ACTION:UPD 17-03-29 16:54 OP:lp   STATUS:               ID:20160724020910 L   I
 OLDACT:UP  16-07-24 15:48 OP:ar   STATUS:               ID:20160724020760d    3
 OLDACT:DUP 16-07-24 15:43 OP:ar   STATUS:               ID:20160724020760d    3
 OLDACT:UP  16-07-24 15:41 OP:ar   STATUS:               ID:20160724020759     3
 OLDACT:REG 16-07-24 13:41 OP:ar   STATUS:               ID:20160724020759     3
 2016-07-24-0207-59S.COL___331                                                 6
 STAT SP IPHASW D HRMM SECON CODA AMPLIT PERI AZIMU VELO AIN AR TRES W  DIS CAZ7
 BAR2 EZ IP     D  2 9 28.51                             171   -0.4410 20.8 205 
 BAR2 EZ ES        2 9 43.97                             171    0.4010 20.8 205 
 BRR  HZ EP        2 9 30.60                             149   -0.3810 77.4 299 
 BRR  HN ES        2 9 47.57                             149    0.3810 77.4 299 
 BRR  HZ I         2 9 51.84        28.6 0.12            149           77.4 299 
 PAM  EZ IP     D  2 9 31.49                             150   -0.2110 77.7  35 
 PAM  EN ES        2 9 48.46                             150   -0.0210 77.7  35 
 PAM  EZ I         2 9 50.64        30.5 0.48            153           77.7  35 
 RUS  HZ EP        2 9 32.85                             144   -0.1110 96.3 179 
 RUS  HN ES        2 9 50.87                             144    0.1610 96.3 179 
 RUS  HZ I         2 9 51.78        17.2 0.32            145           96.3 179 
 SPBC HZ EP        2 9 37.26                             128   -0.91 9  163 221 
 SPBC HN ES        2 9 59.41                             128   -0.58 9  163 221 
 SPBC HZ I         210  1.68        20.9 0.24            128            163 221 
 ZAR  HZ EP        2 9 43.60                             120    0.76 8  210 293 
 ZAR  HN ES        210  8.13                             120   -0.16 8  210 293 
 ZAR  HZ I         210 12.75        25.8 0.38            121            210 293 
 NOR  HN ES        210 13.47                             117    0.06 8  236 236 
 NOR  HZ I         210 16.50         7.4 0.22            118            236 236 
 CHI  HZ EP        2 9 48.65                             116    1.42 8  246 197 
 CHI  HN ES        210 16.27                             116    0.15 8  246 197 
 CHI  HZ I         210 21.76         4.3 0.28            117            246 197 
 URE  HZ EP   4    2 9 53.32                             112    1.70 0  290 292 
 URE  HE ES   4    210 20.61                             112   -3.32 0  290 292 
 URE  HZ I         210 24.56         9.7 0.14            113            290 292 
 PTGC HN ES   4    210 24.70                             111   -1.89 0  303 159 
 PTGC HZ I         210 26.80        11.6 0.40            112            303 159 
 GUY2CHN ES   4    210 29.83                             111    2.23 0  303 236 
                                                                                
