 2017  824 0019  2.6 L   6.735 -73.095142.6  RSN 15 0.5 1.9LRSN                1
 GAP= 92        0.82       2.9     3.3  4.8 -0.1016E+01  0.1103E+01  0.2241E+01E
 Epicentro: JORDAN - SANTANDER                                                 3
 ACTION:UPD 17-09-04 20:23 OP:rebc STATUS:               ID:20170824001902 L   I
 OLDACT:UP  17-08-24 13:46 OP:and  STATUS:               ID:20170824000742d    3
 OLDACT:UP  17-08-24 13:46 OP:and  STATUS:               ID:20170824000742d    3
 OLDACT:UP  17-08-24 13:44 OP:and  STATUS:               ID:20170824000742d    3
 OLDACT:UP  17-08-24 13:44 OP:and  STATUS:               ID:20170824000742d    3
 OLDACT:UP  17-08-24 13:43 OP:and  STATUS:               ID:20170824000742d    3
 OLDACT:UP  17-08-24 13:41 OP:and  STATUS:               ID:20170824000742d    3
 OLDACT:DUP 17-08-24 13:30 OP:and  STATUS:               ID:20170824000742d    3
 2017-08-24-0008-00M.COL___419                                                 6
 STAT SP IPHASW D HRMM SECON CODA AMPLIT PERI AZIMU VELO AIN AR TRES W  DIS CAZ7
 BAR2 EZ EP        019 22.19                             172    0.4610 18.5 211 
 BAR2 EZ ES        019 36.92                             172    0.2410 18.5 211 
 BAR2 EZ I         019 38.25        26.5 0.26            169           18.5 211 
 BRR  HZ IP     C  019 23.44                             149   -0.4510 79.6 301 
 BRR  HE ES        019 40.82                             149    0.3110 79.6 301 
 BRR  HZ I         019 42.24        10.0 0.28            149           79.6 301 
 PAM  EZ IP     D  019 24.61                             149    0.0110 79.9  33 
 PAM  EN ES        019 41.42                             149   -0.3710 79.9  33 
 PAM  EZ I         019 44.56        11.7 0.40            153           79.9  33 
 RUS  HZ EP        019 25.07                             145   -0.4110 93.2 179 
 RUS  HN ES        019 43.15                             145   -0.2010 93.2 179 
 RUS  HZ I         019 44.57        20.3 0.50            144           93.2 179 
 TAM  HZ IP     D  019 29.63                             131    0.29 9  148 103 
 TAM  HN ES   2    019 50.34                             131    0.13 5  148 103 
 SPBC HZ EP   2    019 30.25                             129   -0.41 5  161 222 
 SPBC HN ES        019 52.36                             129   -0.20 9  161 222 
 SPBC HZ I         019 54.20        12.0 0.30            128            161 222 
 YPLC HZ EP   2    019 31.31                             127    0.05 5  168 152 
 YPLC HN ES   2    019 54.28                             127    0.65 5  168 152 
 YPLC HZ I         019 57.56         4.9 0.28            127            168 152 
 ZAR  HZ EP        019 36.31                             120    0.67 8  212 293 
 ZAR  HE ES   2    020  0.31                             120   -1.13 4  212 293 
 ZAR  HZ I         020  6.13        10.2 0.30            121            212 293 
 NOR  HZ EP   2    019 37.29                             118   -0.89 4  235 237 
 NOR  HN ES   2    020  5.47                             118   -0.48 4  235 237 
 NOR  HZ I         020 10.40         6.6 0.30            117            235 237 
 CHI  HZ EP   3    019 38.40                             117   -1.11 2  243 197 
 CHI  HN ES        020  8.50                             117    0.18 8  243 197 
 CHI  HZ I         020 16.95         2.3 0.32            117            243 197 
 HEL  HZ EP   3    019 44.39                             114    1.34 2  276 258 
 HEL  HN ES   2    020 14.86                             114    0.24 4  276 258 
 HEL  HZ I         020 19.79         4.3 0.54            114            276 258 
 URE  HZ EP   4    019 48.27                             112    3.89 0  292 293 
 URE  HN ES   4    020 13.89                             112   -3.10 0  292 293 
 URE  HZ I         020 15.24         5.7 0.12            113            292 293 
 PTGC HZ EP   2    019 44.36                             112   -0.94 4  300 159 
 PTGC HN ES   4    020 16.84                             112   -1.78 0  300 159 
 GUY2CHZ EP   4    019 48.50                             112    2.40 0  302 237 
 GUY2CHN ES   3    020 21.21                             112    1.16 2  302 237 
 GUY2CHZ I         020 26.26         2.7 0.60                           302 237 
 PRA  HZ EP   2    019 56.07                             106    0.48 3  389 211 
 PRA  HN ES   2    020 37.95                             106    1.01 3  389 211 
 PRA  HZ I         020 39.84         1.5 0.36            106            389 211 
                                                                                
