 2011 1224 0411 51.7 L   6.845 -73.273119.5  RSN 10 0.2 2.0LRSN                1
 GAP=111        0.40       1.6     2.0  2.5  0.5374E-02  0.1247E+01  0.5603E+00E
 Epicentro: ZAPATOCA - SANTANDER                                               3
 ACTION:UPD 12-07-13 16:18 OP:ep   STATUS:               ID:20111224041151 L   I
 2011-12-24-0410-00M.COL___189                                                 6
 STAT SP IPHASW D HRMM SECON CODA AMPLIT PERI AZIMU VELO AIN AR TRES W  DIS CAZ7
 GIR2 SZ EP        412  8.08                             166   -0.0110 27.3  19 
 GIR2 SZ ES   1    412 20.68                             166   -0.23 7 27.3  19 
 BAR2 SZ EP        412  8.51                             165    0.2010 29.7 160 
 BAR2 SZ I         412  8.77        66.9 0.13                          29.7 160 
 BAR2 SZ ES        412 21.50                             165    0.2010 29.7 160 
 BRR  HZ EP        412  8.92                             153   -0.2110 56.5 301 
 BRR  HN ES        412 22.80                             153    0.0410 56.5 301 
 BRR  HZ I         412 24.23        29.8 0.16                          56.5 301 
 PAM  SZ EP   1    412 11.64                             143    0.05 7 83.7  49 
 RUS  HZ EP        412 13.27                             136   -0.2210  107 169 
 RUS  HE ES   1    412 30.50                             136   -0.02 7  107 169 
 OCA  SZ EP   1    412 17.49                             124    0.05 7  154 358 
 OCA  SZ ES   1    412 37.56                             124    0.00 7  154 358 
 OCA  SZ I         412 44.40        20.4 0.32                           154 358 
 ZAR  HE ES   2    412 43.82                             118    0.09 4  189 292 
 ZAR  HZ I         412 46.91         9.7 0.27                           189 292 
 NOR  SZ EP   1    412 24.92                             113   -0.15 6  226 231 
 NOR  SE ES   1    412 51.12                             113   -0.02 6  226 231 
 CHI  HZ EP   1    412 28.27                             111    0.06 6  250 192 
 CHI  HZ I         413  0.54         2.1 0.44                           250 192 
 HEL  HZ EP   1    412 29.70                             110    0.45 6  260 254 
 HEL  HN ES   1    412 58.45                             110   -0.13 6  260 254 
 HEL  HZ I         413  3.04         5.2 0.40                           260 254 
                                                                                
