 2010  524 0322 16.3 L   6.717 -72.935150.9  RSN  5 0.4 1.9LRSN                1
 GAP=213        0.95       7.7    19.3 11.8 -0.7280E+02  0.1618E+02 -0.1749E+02E
 Epicentro: CEPITA - SANTANDER                                                 3
 ACTION:UP  10-08-24 10:06 OP:vdl  STATUS:               ID:20100524032216 L   I
 2010-05-24-0318-01S.COL___111                                                 6
 STAT SP IPHASW D HRMM SECON CODA AMPLIT PERI AZIMU VELO SNR AR TRES W  DIS CAZ7
 BAR2 SZ EP        322 36.95                             168     0.210   31 243 
 BAR2 SZ ES   1    322 52.29                             168    -0.3 7   31 243 
 GUE  SZ EP   1    322 42.38                             139     0.4 7  123   1 
 OCA  SZ EP   1    322 45.34                             128    -0.9 7  174 346 
 OCA  SZ ES   1    323  9.92                             128     0.3 7  174 346 
 OCA  SZ I         323 12.28         8.1 0.29                           174 346 
 RREF BN ES   2    323 41.61                             111     0.3 3  334 233 
 RREF BZ I         323 48.73         2.5 0.66                           334 233 
 PRA  HN ES   2    323 52.74                             107     0.0 3  396 213 
 PRA  HZ I         324  1.13         3.0 0.64                           396 213 
                                                                                
