 2014 1224 0612 46.9 L   6.809 -73.117150.0  RSN 11 0.4 1.6LRSN                1
 GAP=186        1.03       3.7     4.9  6.6  0.8321E+00  0.4679E+01  0.5003E+01E
 Epicentro: LOS SANTOS - SANTANDER                                             3
 ACTION:UPD 15-02-10 17:06 OP:nd   STATUS:               ID:20141224061246 L   I
 OLDACT:UP  14-12-24 16:33 OP:mh   STATUS:               ID:20141224060748d    3
 OLDACT:UP  14-12-24 16:31 OP:mh   STATUS:               ID:20141224060748d    3
 OLDACT:DUP 14-12-24 16:31 OP:mh   STATUS:               ID:20141224060748d    3
 2014-12-24-0607-47M.COL___289                                                 6
 STAT SP IPHASW D HRMM SECON CODA AMPLIT PERI AZIMU VELO AIN AR TRES W  DIS CAZ7
 BAR2 EZ EP        613  7.01                             170   -0.0910 25.1 197 
 BAR2 EZ ES   1    613 22.18                             170   -0.66 7 25.1 197 
 BAR2 EZ I         613 23.27        10.8 0.14            166           25.1 197 
 BRR  HZ EP        613  9.26                             153    0.5910 73.6 297 
 BRR  HN ES        613 26.33                             153    0.7010 73.6 297 
 BRR  HZ I         613 30.35         7.1 0.18            148           73.6 297 
 RUS  HZ EP        613 11.07                             145   -0.0910  101 178 
 RUS  HN ES   1    613 30.03                             145   -0.03 7  101 178 
 RUS  HZ I         613 30.93         3.5 0.20            146            101 178 
 PTB  HZ EP        613 13.80                             132   -0.74 9  151 259 
 PTB  HN ES        613 35.19                             132   -0.90 9  151 259 
 PTB  HZ I         613 40.86         6.5 0.16            130            151 259 
 OCA  HN ES        613 37.74                             131   -0.07 9  160 352 
 OCA  HZ I         613 42.59         4.0 0.08            132            160 352 
 SPBC HZ EP        613 16.17                             130    0.15 9  166 220 
 SPBC HN ES        613 39.19                             130    0.48 9  166 220 
 SPBC HZ I         613 44.23         6.8 0.15            129            166 220 
 ZAR  HZ EP        613 19.79                             123   -0.13 8  207 292 
 ZAR  HN ES        613 45.80                             123    0.15 8  207 292 
 ZAR  HZ I         613 52.22         5.8 0.50            122            207 292 
 NOR  HZ EP        613 22.96                             119   -0.29 8  238 235 
 NOR  HN ES        613 51.94                             119    0.36 8  238 235 
 NOR  HZ I         613 57.14         4.6 0.22            119            238 235 
 SML  HN ES   4    613 55.39                             118    2.76 0  244 335 
 CHI  HZ EP        613 25.07                             118    0.01 8  250 196 
 CHI  HN ES   1    613 55.17                             118    0.36 6  250 196 
 CHI  HZ I         613 59.85         2.0 0.24            119            250 196 
 CBOC HZ EP   1    613 34.45                             111    0.04 5  337 252 
 CBOC HN ES        614 11.49                             111    0.05 7  337 252 
 CBOC HZ I         614 24.92         1.3 0.44            111            337 252 
 MON  HZ EP   4    613 34.05                             109   -2.26 0  356 308 
 MON  HN ES   4    614 13.19                             109   -1.65 0  356 308 
 MON  HZ I         614 16.21         0.7 0.22            110            356 308 
                                                                                
