 2016  824 0456 51.3 L   6.805 -73.081144.7  RSN 11 0.5 1.7LRSN                1
 GAP=124        1.19       4.0     4.5  6.6 -0.5990E+01 -0.1352E+01  0.1106E+01E
 Epicentro: LOS SANTOS - SANTANDER                                             3
 ACTION:UPD 16-10-29 15:38 OP:rebc STATUS:               ID:20160824045651 L   I
 OLDACT:REG 16-08-24 12:28 OP:ak   STATUS:               ID:20160824044736     3
 2016-08-24-0448-00M.COL___377                                                 6
 STAT SP IPHASW D HRMM SECON CODA AMPLIT PERI AZIMU VELO AIN AR TRES W  DIS CAZ7
 BAR2 EZ EP   2    457 10.75                             169   -0.09 5 26.1 205 
 BAR2 EZ ES        457 25.38                             169   -0.7210 26.1 205 
 BAR2 EZ I         457 26.00         7.7 0.44                          26.1 205 
 BRR  HZ EP        457 12.32                             150   -0.3510 77.3 296 
 BRR  HN ES        457 30.05                             150    0.6910 77.3 296 
 RUS  HZ EP        457 15.16                             144    0.2110  101 180 
 RUS  HN ES        457 34.02                             144    0.6110  101 180 
 PTB  HZ EP        457 17.96                             130   -0.85 9  155 259 
 PTB  HN ES        457 39.88                             130   -0.42 9  155 259 
 PTB  HZ I         457 45.08         5.0 0.15                           155 259 
 OCA  HZ EP   2    457 20.64                             129    1.09 5  161 351 
 OCA  HN ES        457 42.24                             129    0.64 9  161 351 
 OCA  HZ I         457 49.61         7.0 0.16                           161 351 
 SPBC HZ EP        457 20.03                             128   -0.14 9  168 221 
 SPBC HN ES        457 42.40                             128   -0.32 9  168 221 
 SPBC HZ I         457 49.24         8.4 0.34                           168 221 
 NOR  HZ EP        457 27.32                             118   -0.29 8  241 235 
 NOR  HN ES        457 56.13                             118    0.18 8  241 235 
 NOR  HZ I         457 58.80         3.1 0.18                           241 235 
 CHI  HZ EP   2    457 29.79                             117    0.60 4  251 197 
 CHI  HN ES        457 59.32                             117    0.56 8  251 197 
 HEL  HZ EP   2    457 32.14                             114   -0.08 4  279 256 
 HEL  HN ES        458  3.90                             114   -0.26 7  279 256 
 HEL  HZ I         458 11.14         1.9 0.36                           279 256 
 SOCV BZ EP        457 33.69                             112    0.13 7  295  56 
 SOCV BN ES        458  5.80                             112   -0.75 7  295  56 
 GUY2CHZ EP        457 36.33                             112    0.79 7  307 235 
 GUY2CHN ES   4    458 13.85                             112    3.79 0  307 235 
 GUY2CHZ I         458 18.37         2.1 0.18                           307 235 
 ELA  HZ EP   4    457 36.33                             110   -2.42 0  335 230 
                                                                                
