 2013 1224 0932  8.5 L   6.847 -73.166135.1  RSN  5 0.4 1.7LRSN                1
 GAP=181        1.01       4.2     6.4 11.9  0.1140E+01  0.4504E+01 -0.1287E+02E
 Epicentro: LOS SANTOS - SANTANDER                                             3
 ACTION:UPD 14-01-13 10:20 OP:ep   STATUS:               ID:20131224093208 L   I
 OLDACT:REG 13-12-24 08:20 OP:mh   STATUS:               ID:20131224093000     3
 2013-12-24-0930-00M.COL___285                                                 6
 STAT SP IPHASW D HRMM SECON CODA AMPLIT PERI AZIMU VELO AIN AR TRES W  DIS CAZ7
 RUS  HZ EP   1    932 31.82                             140    0.22 8  106 175 
 RUS  HN ES   1    932 49.75                             140    0.10 8  106 175 
 RUS  HZ I         932 52.08         1.9 0.20            147            106 175 
 PTB  HZ EP        932 33.90                             130   -0.5910  147 257 
 PTB  HN ES        932 54.48                             130   -0.3110  147 257 
 PTB  HZ I         932 57.76         3.8 0.09            133            147 257 
 OCA  HN ES        932 56.63                             128    0.1310  155 354 
 ZAR  HZ EP        932 40.67                             120    0.84 9  200 291 
 ZAR  HN ES        933  4.75                             120    0.46 9  200 291 
 ZAR  HZ I         933 10.22        20.4 0.04            124            200 291 
 SML  HZ EP        932 43.52                             116   -0.39 9  238 335 
 SML  HN ES        933 11.22                             116   -0.32 9  238 335 
 SML  HZ I         933 20.33         4.8 0.06            119            238 335 
                                                                                
