 2013  824 0629 27.4 L   6.830 -73.129136.0  RSN  8 0.5 1.9LRSN                1
 GAP=185        1.19       4.5     6.4  9.3  0.3920E+01  0.1442E+02 -0.2845E+01E
 Epicentro: LOS SANTOS - SANTANDER                                             3
 ACTION:UPD 14-01-14 09:06 OP:ep   STATUS:               ID:20130824062927 L   I
 OLDACT:UP  13-08-24 09:23 OP:nd   STATUS:               ID:20130824062742     3
 OLDACT:REG 13-08-24 07:51 OP:nd   STATUS:               ID:20130824062742     3
 2013-08-24-0627-42M.COL___217                                                 6
 STAT SP IPHASW D HRMM SECON CODA AMPLIT PERI AZIMU VELO AIN AR TRES W  DIS CAZ7
 BAR2 SZ EP        629 46.29                             168    0.3510 26.9 193 
 BAR2 SZ ES        630  0.36                             168   -0.0410 26.9 193 
 BAR2 SZ I         630  2.08        13.1 0.36            163           26.9 193 
 BRR  HZ EP        629 48.16                             151    0.6510 71.3 296 
 BRR  HN ES   2    630  3.65                             151    0.45 5 71.3 296 
 BRR  HZ I         630  9.45         9.1 0.12            146           71.3 296 
 PAM  SZ EP   4    629 49.17                             150    0.81 0 73.7  40 
 PAM  SN ES   4    629 59.96                             150   -4.75 0 73.7  40 
 PAM  SZ I         630  0.50        55.2 0.14            158           73.7  40 
 RUS  HZ EP        629 50.27                             141   -0.1710  104 177 
 RUS  HN ES        630  8.59                             141    0.1710  104 177 
 RUS  HZ I         630 10.46         6.7 0.42            143            104 177 
 PTB  HZ EP        629 53.41                             129   -0.41 9  150 258 
 PTB  HN ES        630 13.48                             129   -0.95 9  150 258 
 PTB  HZ I         630 19.75         7.4 0.30            128            150 258 
 OCA  HZ EP   3    629 54.81                             128    0.13 2  157 352 
 OCA  HN ES        630 15.28                             128   -0.68 9  157 352 
 OCA  HZ I         630 16.95        14.1 0.30            130            157 352 
 SPBC HZ EP        629 55.34                             126   -0.19 9  167 219 
 SPBC HN ES        630 17.59                             126    0.12 9  167 219 
 SPBC HZ I         630 20.59         6.8 0.14            126            167 219 
 ZAR  HZ EP   2    629 59.41                             120    0.13 4  205 291 
 ZAR  HN ES        630 25.12                             120    0.97 9  205 291 
 ZAR  HZ I         630 31.12         7.7 0.32            120            205 291 
                                                                                
