 2014  124 0650 22.8 L   7.455 -73.265124.5  RSN 19 0.5 2.3LRSN                1
 GAP=105        1.00       2.3     3.3  5.8  0.5418E+00  0.8187E+01  0.1854E+01E
 Epicentro: EL PLAYON - SANTANDER                                              3
 ACTION:UPD 14-03-13 09:58 OP:ep   STATUS:               ID:20140124065022 L   I
 OLDACT:REG 14-01-24 07:48 OP:nd   STATUS:               ID:20140124065000     3
 2014-01-24-0650-00M.COL___285                                                 6
 STAT SP IPHASW D HRMM SECON CODA AMPLIT PERI AZIMU VELO AIN AR TRES W  DIS CAZ7
 PAM  SZ EP        650 42.11                             151    0.1310 63.7 102 
 PAM  SN ES        650 56.96                             151    0.0510 63.7 102 
 PAM  SZ I         650 59.47        35.6 0.42            158           63.7 102 
 OCA  HZ EP        650 43.10                             143    0.0610 86.9 356 
 OCA  HN ES        650 59.48                             143    0.6910 86.9 356 
 OCA  HZ I         651  2.82        68.0 0.38            145           86.9 356 
 BAR2 SZ EP        650 43.64                             140   -0.2010 95.9 175 
 BAR2 SZ ES        650 59.53                             140   -0.6810 95.9 175 
 BAR2 SZ I         651  1.01       137.7 0.28            140           95.9 175 
 PTB  HZ EP        650 49.68                             123   -0.32 9  166 233 
 PTB  HN ES        651 11.20                             123    0.02 9  166 233 
 PTB  HZ I         651 14.56        20.3 0.20            122            166 233 
 SML  HZ EP        650 50.35                             122   -0.37 9  173 329 
 SML  HN ES        651 12.44                             122   -0.02 9  173 329 
 SML  HZ I         651 13.93       119.1 0.10            122            173 329 
 ZAR  HZ EP        650 51.16                             121    0.16 9  176 271 
 ZAR  HN ES   4    651 14.37                             121    1.41 0  176 271 
 ZAR  HZ I         651 19.29        29.0 0.22            120            176 271 
 TAM  HZ EP        650 52.92                             118   -0.48 9  198 125 
 TAM  HN ES        651 16.92                             118   -0.31 9  198 125 
 TAM  HZ I         651 18.00        18.9 0.30            121            198 125 
 SPBC HZ EP        650 56.15                             115    0.48 8  218 204 
 SPBC HN ES        651 21.75                             115    0.47 8  218 204 
 SPBC HZ I         651 30.62        17.6 0.24            116            218 204 
 URE  HZ EP   4    650 58.28                             112   -1.09 0  252 278 
 URE  HN ES   4    651 30.29                             112    2.43 0  252 278 
 URE  HZ I         651 37.74        16.2 0.32            112            252 278 
 NOR  HZ EP        651  2.02                             110    0.10 8  274 220 
 NOR  HN ES        651 31.57                             110   -0.83 8  274 220 
 NOR  HZ I         651 38.50        14.4 0.18            110            274 220 
 COD  HZ EP        651  2.01                             110    0.09 8  275 356 
 COD  HN ES   2    651 32.08                             110   -0.32 4  275 356 
 COD  HZ I         651 40.77         4.6 0.32            111            275 356 
 HEL  HZ EP   4    651  3.90                             109    0.16 0  287 241 
 HEL  HN ES   4    651 35.58                             109   -0.05 0  287 241 
 HEL  HZ I         651 43.63        11.7 0.32            109            287 241 
 CHI  HZ EP        651  8.45                             107    1.17 7  317 189 
 CHI  HN ES        651 42.98                             107    1.03 7  317 189 
 CHI  HZ I         651 54.35         6.3 0.40            107            317 189 
 DBB  SZ EP        651  8.14                             106   -0.14 7  329 262 
 DBB  SZ ES   4    651 40.47                             106   -3.26 0  329 262 
 DBB  SZ I         651 45.13        10.3 0.44            106            329 262 
 GUY2CHZ EP   4    651 11.81                             105    1.85 0  339 223 
 GUY2CHN ES   4    651 45.50                             105   -1.21 0  339 223 
 GUY2CHZ I         651 57.33         9.5 0.42                           339 223 
 SJC  HZ EP   4    651  9.08                             105   -0.79 0  342 322 
 SJC  HN ES        651 45.99                             105   -0.56 7  342 322 
 SJC  HZ I         651 50.61         6.8 0.84            106            342 322 
 CBOC HZ EP        651 11.31                             105    0.30 6  351 240 
 CBOC HN ES        651 48.20                             105   -0.38 6  351 240 
 CBOC HZ I         652  1.27         3.9 0.74            105            351 240 
 ORTC HZ EP   4    651 24.24                             100    1.68 0  449 209 
 ORTC HN ES   4    652 12.42                             100    3.29 0  449 209 
 ORTC HZ I         652 19.00         3.7 0.32            101            449 209 
 PRA  HZ EP   2    651 22.47                             100   -0.29 2  451 204 
 PRA  HN ES   2    652  9.54                             100    0.05 2  451 204 
 PRA  HZ I         652 19.29         5.6 0.28            101            451 204 
                                                                                
