 2012  124 0044 39.9 L   6.808 -73.135157.2  RSN  4 0.2 1.2LRSN                1
 GAP=189        0.42       5.9     9.1  5.7  0.3952E+02 -0.3093E+01 -0.2449E+01E
 Epicentro: LOS SANTOS - SANTANDER                                             3
 ACTION:UP  12-02-03 08:20 OP:REBC STATUS:               ID:20120124004439 L   I
 2012-01-24-0040-00M.COL___187                                                 6
 STAT SP IPHASW D HRMM SECON CODA AMPLIT PERI AZIMU VELO SNR AR TRES W  DIS CAZ7
 GIR2 SZ EP   2    045  0.68                             168    -0.2 5   31 348 
 BRR  HZ EP   1    045  2.62                             154     0.3 7   72 297 
 BRR  HN ES   1    045 19.78                             154    -0.1 7   72 297 
 BRR  HZ I         045 31.87         6.6 0.57                            72 297 
 RUS  HZ EP   1    045  4.82                             146     0.0 7  101 177 
 RUS  HE ES   1    045 24.32                             146     0.0 7  101 177 
 RUS  HZ I         045 24.72         1.0 0.21                           101 177 
 PTB  HZ EP   1    045  7.83                             134    -0.1 7  149 259 
                                                                                
