 2017 1224 0713 20.5 L   6.852 -73.167149.0  RSN  9 0.6 1.4LRSN                1
 GAP= 77        1.31       4.9     5.2  8.3 -0.4322E+01  0.9039E+01 -0.5653E+01E
 Epicentro: ZAPATOCA - SANTANDER                                               3
 ACTION:UPD 18-01-04 13:23 OP:rebc STATUS:               ID:20171224071320 L   I
 OLDACT:UP  17-12-24 13:56 OP:edw  STATUS:               ID:20171224070636d    3
 OLDACT:DUP 17-12-24 13:48 OP:edw  STATUS:               ID:20171224070636d    3
 2017-12-24-0707-00M.COL___454                                                 6
 STAT SP IPHASW D HRMM SECON CODA AMPLIT PERI AZIMU VELO AIN AR TRES W  DIS CAZ7
 BAR2 EZ EP        713 40.30                             169   -0.3110 28.7 183 
 BAR2 EZ ES        713 55.82                             169   -0.4910 28.7 183 
 BAR2 EZ I         713 58.43         4.8 0.26            170           28.7 183 
 PAM  EZ EP        713 43.30                             152    0.4310 74.7  44 
 PAM  EN ES        714  0.58                             152    0.2310 74.7  44 
 PAM  EZ I         714  2.76         5.0 0.58            156           74.7  44 
 PTB  HZ EP        713 47.74                             133    0.13 9  147 256 
 PTB  HN ES        714  8.18                             133   -0.59 9  147 256 
 PTB  HZ I         714 11.36         1.9 0.30            134            147 256 
 OCA  HZ EP        713 48.24                             131   -0.24 9  154 354 
 OCA  HN ES        714 10.54                             131    0.21 9  154 354 
 OCA  HZ I         714 14.93         6.3 0.16            134            154 354 
 TAM  HZ EP     D  713 48.67                             131   -0.08 9  159 107 
 SPBC HZ EP        713 50.10                             129    0.60 9  166 217 
 SPBC HN ES        714 12.01                             129   -0.14 9  166 217 
 SPBC HZ I         714 16.81         3.6 0.60            132            166 217 
 ZAR  HZ EP        713 52.93                             124    0.24 9  200 291 
 ZAR  HN ES        714 18.99                             124    1.17 9  200 291 
 ZAR  HZ I         714 24.81         2.6 0.30            125            200 291 
 GUY2CHZ EP   4    714  6.88                             113    2.49 0  303 234 
 GUY2CHE ES   4    714 41.43                             113    2.78 0  303 234 
 GUY2CHZ I         714 45.55         0.9 0.34                           303 234 
 SJC  HZ EP        714 14.81                             106   -0.62 6  403 327 
 SJC  HE ES        714 56.50                             106   -1.80 6  403 327 
                                                                                
