 2012  724 0739 20.9 L   6.751 -73.167154.0  RSN  7 0.4 2.2LRSN                1
 GAP=109        0.75       6.9     5.0  8.2  0.1327E+02 -0.1054E+02 -0.5700E+01E
 Epicentro: VILLANUEVA - SANTANDER                                             3
 ACTION:UPD 12-08-14 11:45 OP:ep   STATUS:               ID:20120724073920 L   I
 2012-07-24-0737-50M.COL___208                                                 6
 STAT SP IPHASW D HRMM SECON CODA AMPLIT PERI AZIMU VELO AIN AR TRES W  DIS CAZ7
 BAR2 SZ IP        739 41.32                             174    -0.110   18 186 
 BAR2 SZ I         739 57.99        32.0 0.38            175             18 186 
 BRR  HZ IP     C  739 43.16                             154     0.210   72 303 
 BRR  HZ I         739 43.30        53.7 0.24            157             72 303 
 BRR  HN ES   1    740  0.32                             154     0.2 7   72 303 
 RUS  HZ EP        739 45.15                             147     0.110   95 174 
 RUS  HN ES   2    740  3.86                             147    -0.1 5   95 174 
 RUS  HZ I         740  5.42        13.8 0.38            151             95 174 
 PTB  HZ EP        739 47.87                             135    -0.3 9  145 261 
 PTB  HN ES   1    740  9.14                             135    -0.4 7  145 261 
 PTB  HZ I         740 11.20        13.0 0.40            140            145 261 
 TAM  HZ IP        739 49.37                             132     0.1 9  156 103 
 TAM  HZ I         739 49.53        22.9 0.34            133            156 103 
 OCA  HZ EP   3    739 48.74                             130    -1.5 2  165 354 
 OCA  HN ES   3    740 12.19                             130    -1.0 2  165 354 
 OCA  HZ I         740 17.02        33.7 0.30            132            165 354 
 ZAR  HZ EP        739 54.16                             124     0.3 9  204 294 
