 2012 1224 0208 53.3 L   6.819 -73.159148.2  RSN  5 0.5 1.8LRSN                1
 GAP=182        0.98       6.0     8.6  9.7  0.9877E+01  0.1141E+02 -0.1202E+01E
 Epicentro: LOS SANTOS - SANTANDER                                             3
 ACTION:UPD 13-01-04 14:30 OP:ep   STATUS:               ID:20121224020853 L   I
 2012-12-24-0200-00M.COL___243                                                 6
 STAT SP IPHASW D HRMM SECON CODA AMPLIT PERI AZIMU VELO AIN AR TRES W  DIS CAZ7
 BAR2 SZ EP   1    2 9 13.11                             170   -0.14 7 25.2 186 
 BAR2 SZ ES   1    2 9 28.63                             170   -0.19 7 25.2 186 
 BAR2 SZ I         2 9 30.30        22.0 0.34                          25.2 186 
 BRR  HZ IP     C  2 9 15.17                             154    0.5910 68.9 298 
 BRR  HN ES   1    2 9 31.91                             154    0.73 7 68.9 298 
 BRR  HZ I         2 9 36.52        10.5 0.14                          68.9 298 
 RUS  HZ EP   1    2 9 17.72                             144    0.28 7  103 175 
 RUS  HN ES   1    2 9 35.98                             144   -0.29 7  103 175 
 RUS  HZ I         2 9 38.05         4.2 0.26                           103 175 
 PTB  HZ EP        2 9 20.09                             133   -0.28 9  147 258 
 PTB  HE ES   1    2 9 41.02                             133   -0.47 7  147 258 
 PTB  HZ I         2 9 43.71         8.6 0.28                           147 258 
 OCA  HN ES   1    2 9 42.91                             130   -0.73 7  158 354 
 OCA  HZ I         2 9 46.22         8.8 0.22                           158 354 
                                                                                
