 2017 1124 0832 38.9 L   6.825 -73.147140.1  RSN  9 0.5 1.3LRSN                1
 GAP=166        1.03       3.8     4.6  7.0  0.7997E+00  0.7109E+01  0.2927E+01E
 Epicentro: LOS SANTOS - SANTANDER                                             3
 ACTION:UPD 17-12-12 19:59 OP:rebc STATUS:               ID:20171124083238 L   I
 OLDACT:REG 17-11-24 13:15 OP:osc  STATUS:               ID:20171124081527     3
 2017-11-24-0828-00M.COL___474                                                 6
 STAT SP IPHASW D HRMM SECON CODA AMPLIT PERI AZIMU VELO AIN AR TRES W  DIS CAZ7
 BAR2 EZ EP        832 58.21                             169    0.2810 26.0 189 
 BAR2 EZ ES        833 12.64                             169   -0.1210 26.0 189 
 BAR2 EZ I         833 14.45         7.7 0.30            168           26.0 189 
 RUS  HZ EP        833  2.35                             142    0.0210  103 176 
 RUS  HN ES        833 20.72                             142    0.1410  103 176 
 RUS  HZ I         833 21.81         1.1 0.16            143            103 176 
 PTB  HZ EP        833  5.41                             131   -0.06 9  148 258 
 PTB  HN ES        833 25.78                             131   -0.39 9  148 258 
 PTB  HZ I         833 30.99         1.4 0.16            131            148 258 
 OCA  HN ES        833 28.19                             129    0.12 9  158 353 
 SPBC HZ EP        833  7.89                             127    0.70 9  165 218 
 SPBC HN ES        833 29.37                             127    0.13 9  165 218 
 SPBC HZ I         833 33.30         3.6 0.10            128            165 218 
 ZAR  HN ES        833 35.42                             121   -0.39 9  203 291 
 NOR  HN ES        833 42.41                             117    0.18 8  236 234 
 GUY2CHZ EP        833 23.04                             111    0.60 7  303 234 
 GUY2CHN ES        833 56.01                             111   -0.37 7  303 234 
 GUY2CHZ I         834  4.55         1.4 0.60                           303 234 
 PTGC HZ EP        833 21.45                             110   -1.38 7  311 159 
 PTGC HE ES   4    833 54.35                             110   -2.73 0  311 159 
                                                                                
