 2013  824 0904 10.1 L   7.491 -73.253125.3  RSN  5 0.5 1.3LRSN                1
 GAP=235        1.14       8.9    12.5 11.3 -0.4589E+02  0.4370E+02 -0.1346E+01E
 Epicentro: EL PLAYON - SANTANDER                                              3
 ACTION:UPD 14-01-14 09:06 OP:ep   STATUS:               ID:20130824090410 L   I
 OLDACT:REG 13-08-24 07:43 OP:nd   STATUS:               ID:20130824085959     3
 2013-08-24-0859-59M.COL___270                                                 6
 STAT SP IPHASW D HRMM SECON CODA AMPLIT PERI AZIMU VELO AIN AR TRES W  DIS CAZ7
 PAM  SZ EP        9 4 29.71                             151    0.4410 63.4 105 
 PAM  SN ES        9 4 44.17                             151   -0.0910 63.4 105 
 PAM  SZ I         9 4 46.90         3.9 0.34            157           63.4 105 
 BRR  HZ EP   2    9 4 29.50                             150    0.77 5 66.1 230 
 BRR  HN ES   2    9 4 43.28                             150   -0.00 5 66.1 230 
 BRR  HZ I         9 4 45.50         8.6 0.22            148           66.1 230 
 BAR2 SZ EP        9 4 31.25                             139   -0.1910 99.7 175 
 BAR2 SZ ES        9 4 47.64                             139   -0.4810 99.7 175 
 BAR2 SZ I         9 4 48.98         7.2 0.12            140           99.7 175 
 ZAR  HZ EP   4    9 4 37.84                             121   -0.57 0  177 270 
 ZAR  HN ES   4    9 5  3.00                             121    2.49 0  177 270 
 ZAR  HZ I         9 5  5.56         2.9 0.22            121            177 270 
 RUS  HZ EP        9 4 38.45                             121   -0.65 9  178 174 
 RUS  HN ES        9 5  2.57                             121    0.82 9  178 174 
 RUS  HZ I         9 5  8.57         0.5 0.62            123            178 174 
                                                                                
