 2016  624 0941 24.1 L   6.851 -73.112150.8  RSN  8 0.5 1.7LRSN                1
 GAP=212        1.22       5.1     7.0  7.2  0.1224E+02  0.7741E+01 -0.2617E+01E
 Epicentro: LOS SANTOS - SANTANDER                                             3
 ACTION:UPD 16-07-21 22:22 OP:rebc STATUS:               ID:20160624094124 L   I
 OLDACT:REG 16-06-24 14:41 OP:ak   STATUS:               ID:20160624093745     3
 2016-06-24-0937-45M.COL___316                                                 6
 STAT SP IPHASW D HRMM SECON CODA AMPLIT PERI AZIMU VELO AIN AR TRES W  DIS CAZ7
 BAR2 EZ EP        941 44.56                             169    0.0410 29.7 195 
 BAR2 EZ ES        942  0.68                             169    0.2610 29.7 195 
 BAR2 EZ I         942  3.04        22.5 0.04                          29.7 195 
 BRR  HZ EP        941 46.49                             153    0.6010 72.1 293 
 BRR  HN ES        942  3.22                             153    0.3610 72.1 293 
 BRR  HZ I         942  8.29         9.2 0.43                          72.1 293 
 RUS  HZ EP        941 49.37                             144    0.5810  106 178 
 RUS  HE ES        942  7.20                             144   -0.8110  106 178 
 RUS  HZ I         942  8.26         3.4 0.50                           106 178 
 PTB  HZ EP        941 51.75                             133   -0.21 9  153 257 
 PTB  HN ES        942 12.95                             133   -0.72 9  153 257 
 PTB  HZ I         942 14.73         5.1 0.21                           153 257 
 SPBC HZ EP        941 53.73                             129    0.06 9  170 219 
 SPBC HN ES        942 16.11                             129   -0.60 9  170 219 
 SPBC HZ I         942 18.95         6.8 0.05                           170 219 
 ZAR  HZ EP        941 57.18                             123    0.11 8  206 290 
 ZAR  HN ES        942 23.46                             123    0.70 8  206 290 
 ZAR  HZ I         942 29.61         4.5 0.29                           206 290 
 PRA  HZ EP        942 19.00                             107    0.37 6  399 210 
 PRA  HN ES        943  1.34                             107    0.20 6  399 210 
 PRA  HZ I         943  4.00         2.0 0.22                           399 210 
 SJC  HZ EP        942 18.64                             107   -0.92 6  407 326 
 SJC  HN ES        943  1.93                             107   -0.86 6  407 326 
                                                                                
