 2013  524 0526  9.1 L   6.774 -73.178150.9  RSN  6 0.3 1.6LRSN                1
 GAP=134        0.87       5.5     5.2  6.7  0.4862E+01 -0.3921E+01 -0.7333E+01E
 Epicentro: LOS SANTOS - SANTANDER                                             3
 ACTION:UPD 13-06-20 09:53 OP:ep   STATUS:               ID:20130524052609 L   I
 2013-05-24-0518-51M.COL___202                                                 6
 STAT SP IPHASW D HRMM SECON CODA AMPLIT PERI AZIMU VELO AIN AR TRES W  DIS CAZ7
 BAR2 SZ EP        526 29.31                             172    0.0510 20.1 181 
 BAR2 SZ ES        526 44.69                             172   -0.3110 20.1 181 
 BAR2 SZ I         526 45.38         6.0 0.26            174           20.1 181 
 GIR2 SZ EP        526 28.92                             167   -0.5010 33.7 357 
 BRR  HZ EP        526 31.07                             154    0.3910 69.6 302 
 BRR  HN ES        526 48.01                             154    0.4710 69.6 302 
 BRR  HN I         526 52.06        14.6 0.28            154           69.6 302 
 PAM  SZ EP        526 31.99                             150   -0.1010 81.8  40 
 RUS  HZ EP        526 33.57                             146    0.4210 98.0 174 
 RUS  HN ES        526 51.97                             146    0.0410 98.0 174 
 RUS  HN I         526 53.47         5.5 0.24            149           98.0 174 
 PTB  HZ EP        526 35.83                             134   -0.27 9  144 260 
 PTB  HN ES        526 56.94                             134   -0.25 9  144 260 
                                                                                
