 2015  124 0904 51.1 L   6.767 -73.157150.0  RSN  7 0.5 1.7LRSN                1
 GAP=137        1.18       5.5     5.9  7.5 -0.7532E+01  0.3697E+01  0.8337E+01E
 Epicentro: LOS SANTOS - SANTANDER                                             3
 ACTION:UPD 15-03-02 15:41 OP:nd   STATUS:               ID:20150124090451 L   I
 OLDACT:REG 15-01-24 13:37 OP:carl STATUS:               ID:20150124085738     3
 2015-01-24-0857-38M.COL___268                                                 6
 STAT SP IPHASW D HRMM SECON CODA AMPLIT PERI AZIMU VELO AIN AR TRES W  DIS CAZ7
 BAR2 EZ EP        9 5 11.10                             172   -0.0910 19.5 188 
 BAR2 EZ ES        9 5 27.36                             172    0.5210 19.5 188 
 BAR2 EZ I         9 5 27.61        25.1 0.20            170           19.5 188 
 BRR  HZ EP        9 5 12.93                             153    0.1710 71.9 302 
 BRR  HN ES        9 5 30.42                             153    0.7710 71.9 302 
 BRR  HZ I         9 5 34.01         7.7 0.24            150           71.9 302 
 PAM  SZ EP        9 5 13.99                             150   -0.0110 81.0  39 
 PAM  SN ES        9 5 31.14                             150   -0.7110 81.0  39 
 PAM  SZ I         9 5 33.08         3.6 0.44            155           81.0  39 
 RUS  HZ EP        9 5 15.06                             146    0.0210 97.1 175 
 RUS  HN ES        9 5 33.66                             146   -0.0410 97.1 175 
 RUS  HZ I         9 5 34.94         4.6 0.24            148           97.1 175 
 PTB  HZ EP        9 5 17.82                             133   -0.44 9  146 260 
 PTB  HN ES        9 5 38.96                             133   -0.47 9  146 260 
 PTB  HZ I         9 5 46.30         5.4 0.38            132            146 260 
 SPBC HZ EP        9 5 20.09                             131    0.48 9  160 219 
 SPBC HN ES        9 5 41.18                             131   -0.65 9  160 219 
 SPBC HZ I         9 5 48.06        12.0 0.20            131            160 219 
 CHI  HZ EP        9 5 29.14                             118    0.50 8  245 195 
                                                                                
