 2014  424 0215 11.5 L   6.824 -73.162143.4  RSN  9 0.4 1.7LRSN                1
 GAP=133        0.83       2.8     3.8  7.7 -0.1791E+01  0.9549E+01 -0.1453E+01E
 Epicentro: LOS SANTOS - SANTANDER                                             3
 ACTION:UPD 14-05-13 23:11 OP:nd   STATUS:               ID:20140424021511 L   I
 OLDACT:REG 14-04-24 13:12 OP:spq  STATUS:               ID:20140424020810     3
 2014-04-24-0208-10M.COL___242                                                 6
 STAT SP IPHASW D HRMM SECON CODA AMPLIT PERI AZIMU VELO AIN AR TRES W  DIS CAZ7
 PAM  SZ EP   1    215 33.92                             151    0.47 8 76.5  42 
 PAM  SN ES   1    215 50.43                             151   -0.11 8 76.5  42 
 RUS  HZ EP        215 35.41                             142    0.1510  103 175 
 RUS  HN ES        215 53.79                             142    0.0210  103 175 
 RUS  HZ I         215 55.28         4.8 0.32            146            103 175 
 PTB  HZ EP        215 37.84                             132   -0.36 9  147 258 
 PTB  HE ES        215 59.24                             132    0.24 9  147 258 
 PTB  HZ I         216  4.78         5.3 0.27            131            147 258 
 OCA  HZ EP   1    215 38.53                             130   -0.86 7  157 354 
 OCA  HN ES   1    216  0.85                             130   -0.27 7  157 354 
 SPBC HZ EP        215 40.04                             128    0.09 9  164 218 
 SPBC HN ES   1    216  2.09                             128   -0.02 7  164 218 
 ZAR  HZ EP   1    215 44.20                             122    0.65 6  201 292 
 ZAR  HN ES        216  8.58                             122    0.05 9  201 292 
 ZAR  HZ I         216 18.32         4.2 0.19            123            201 292 
 NOR  HE ES        216 14.23                             118   -0.69 8  235 234 
 NOR  HZ I         216 21.11         2.9 0.16            119            235 234 
 SML  HE ES   1    216 16.38                             117    0.50 6  241 335 
 SML  HZ I         216 19.13         8.3 0.10            119            241 335 
 RREF HN ES        216 33.97                             110    0.40 7  322 229 
 RREF HZ I         216 39.53         2.4 0.28            112            322 229 
                                                                                
