 2010  224 0356 23.9 L   6.798 -73.044151.2  RSN  9 0.3 2.6LRSN                1
 GAP=193        0.63       2.3     5.3  4.1 -0.2219E+01  0.1990E+01  0.2339E+01E
 Epicentro: LOS SANTOS - SANTANDER                                             3
 ACTION:UP  10-08-24 09:50 OP:vdl  STATUS:               ID:20100224035623 L   I
 2010-02-24-0353-37S.COL___094                                                 6
 STAT SP IPHASW D HRMM SECON CODA AMPLIT PERI AZIMU VELO SNR AR TRES W  DIS CAZ7
 BAR2 SZ IP        356 44.32                             169     0.110   28 214 
 BAR2 SZ ES   2    356 59.74                             169    -0.4 5   28 214 
 GIR2 SZ EP        356 44.45                             167     0.110   35 332 
 GIR2 SZ ES   2    357  0.38                             167     0.1 5   35 332 
 BRR  HZ EP        356 46.04                             150    -0.210   81 295 
 BRR  HN ES        357  3.40                             150    -0.210   81 295 
 BRR  HZ I         357  4.66        52.6 0.17                            81 295 
 RUS  BZ IP        356 48.23                             145     0.110  100 182 
 RUS  BE ES        357  7.25                             145     0.210  100 182 
 RUS  BZ I         357  8.01        46.9 0.27                           100 182 
 OCA  SZ EP        356 52.70                             131    -0.1 9  162 349 
 OCA  SZ ES   2    357 15.66                             131     0.3 5  162 349 
 CHI  HZ IP        357  2.27                             118     0.1 8  252 198 
 CHI  HE ES        357 31.70                             118    -0.4 8  252 198 
 CHI  HZ I         357 40.09        17.1 0.52                           252 198 
 ROSC BZ EP        357  3.09                             117     0.2 8  259 213 
 ROSC BN ES        357 33.87                             117     0.5 8  259 213 
 ROSC BZ I         357 36.71        19.3 0.36                           259 213 
 RREF BZ EP        357 11.40                             111     0.2 7  330 231 
 RREF BN ES   2    357 48.63                             111     0.5 3  330 231 
 RREF BZ I         357 55.96        23.9 0.53                           330 231 
 PRA  HZ EP        357 17.56                             107    -0.7 6  397 211 
 PRA  HN ES        358  0.36                             107    -0.3 6  397 211 
 PRA  HZ I         358  6.26        20.8 0.40                           397 211 
                                                                                
