 2013  224 0842 49.2 L   6.763 -73.140142.0  RSN  7 0.4 1.6LRSN                1
 GAP=235        0.80       6.1     6.1  7.5  0.1735E+02  0.8917E+01 -0.1620E+01E
 Epicentro: LOS SANTOS - SANTANDER                                             3
 ACTION:UPD 13-03-12 09:35 OP:ep   STATUS:               ID:20130224084249 L   I
 2013-02-24-0840-00M.COL___225                                                 6
 STAT SP IPHASW D HRMM SECON CODA AMPLIT PERI AZIMU VELO AIN AR TRES W  DIS CAZ7
 BAR2 SZ EP        843  8.32                             172    0.0210 19.5 194 
 BAR2 SZ ES   1    843 22.79                             172   -0.41 7 19.5 194 
 BAR2 SZ I         843 24.32        13.2 0.16            172           19.5 194 
 BRR  HZ EP     C  843 10.18                             151    0.0910 73.8 301 
 BRR  HE ES   1    843 27.03                             151    0.64 7 73.8 301 
 BRR  HZ I         843 30.35         6.3 0.20            150           73.8 301 
 RUS  HZ EP   1    843 12.19                             145   -0.10 7 96.5 176 
 RUS  HN ES   1    843 30.63                             145    0.34 7 96.5 176 
 RUS  HZ I         843 31.93         2.8 0.30            149           96.5 176 
 PTB  HZ EP   1    843 15.13                             131   -0.73 7  148 260 
 PTB  HN ES   1    843 35.98                             131   -0.66 7  148 260 
 PTB  HZ I         843 38.23         4.5 0.12            132            148 260 
 ZAR  HZ EP   1    843 21.92                             121    0.29 6  206 293 
 ZAR  HN ES   1    843 46.95                             121    0.03 6  206 293 
 ZAR  HZ I         843 53.18         5.4 0.44            122            206 293 
 CHI  HN ES   2    843 55.69                             117    0.48 4  245 196 
 HEL  HE ES   2    844  1.08                             114    0.71 4  272 257 
                                                                                
