 2010  424 0802 53.5 L   6.811 -73.089153.5  RSN 15 0.6 3.1LRSN                1
 GAP=147        1.07       4.7     6.3  6.9 -0.1822E+02 -0.4048E+00  0.9107E+01E
 Epicentro: LOS SANTOS - SANTANDER                                             3
 ACTION:UPD 10-08-24 10:00 OP:vdl  STATUS:               ID:20100424080300 L   I
 2010-04-24-0758-53S.COL___104                                                 6
 STAT SP IPHASW D HRMM SECON CODA AMPLIT PERI AZIMU VELO AIN AR TRES W  DIS CAZ7
 BAR2 SZ IP        8 3 13.72                             170    -0.410   26 203 
 BAR2 SZ ES   1    8 3 29.03                             170    -1.2 7   26 203 
 BRR  HZ IP     C  8 3 16.10                             152     0.310   76 296 
 BRR  HZ I         8 3 16.39       419.8 0.16                            76 296 
 BRR  HE ES   1    8 3 33.44                             152     0.3 7   76 296 
 BRI  SZ IP        8 3 18.24                             143     0.310  105  18 
 BRI  SZ ES   2    8 3 37.02                             143     0.1 5  105  18 
 GUE  SZ EP   1    8 3 18.61                             141    -0.2 7  114   9 
 GUE  SZ ES   1    8 3 38.62                             141     0.2 7  114   9 
 GRA  SZ IP        8 3 19.52                             139     0.310  123  15 
 GRA  SZ ES   1    8 3 39.75                             139     0.5 7  123  15 
 OCA  SZ IP        8 3 22.05                             131    -0.3 9  160 351 
 OCA  SZ ES   2    8 3 45.02                             131     0.1 5  160 351 
 OCA  SZ I         8 3 50.51       240.1 0.32                           160 351 
 CHI  HZ EP   2    8 3 31.42                             118    -0.5 4  251 196 
 CHI  HE ES   2    8 4  1.32                             118    -0.6 4  251 196 
 CHI  HZ I         8 4  8.84        40.4 0.45                           251 196 
 ROSC BZ IP     D  8 3 33.27                             118     0.8 8  257 212 
 ROSC BE ES   1    8 4  3.73                             118     0.8 6  257 212 
 ROSC BZ I         8 4 11.84        65.6 0.57                           257 212 
 HEL  HZ EP   2    8 3 34.34                             115    -0.5 4  278 256 
 HEL  HN ES   2    8 4  7.30                             115     0.3 4  278 256 
 HEL  HZ I         8 4 12.38        62.2 0.32                           278 256 
 RREF BZ EP   1    8 3 40.80                             112     0.2 5  327 230 
 RREF BN ES   2    8 4 17.13                             112    -0.2 3  327 230 
 RREF BZ I         8 4 22.15        56.9 0.29                           327 230 
 DBB  SZ IP        8 3 41.51                             110    -0.5 6  346 274 
 DBB  SZ ES   1    8 4 18.44                             110    -1.4 5  346 274 
 TOL  SZ EP   1    8 3 43.08                             110     0.4 5  349 225 
 TOL  SZ ES   2    8 4 22.09                             110     1.1 3  349 225 
 SDV  BZ IP     C  8 3 42.98                             110    -0.2 6  355  50 
 SDV  BZ I         8 3 44.20        16.2 0.30                           355  50 
 SDV  BE ES   2    8 4 20.66                             110    -1.3 3  355  50 
 ANIL BZ EP   1    8 3 44.89                             109     0.7 5  363 225 
 ANIL BN ES   2    8 4 24.33                             109     0.6 3  363 225 
 ANIL BZ I         8 4 30.30        99.9 0.35                           363 225 
 PRA  HZ EP   1    8 3 46.97                             107    -0.8 4  396 210 
 PRA  HN ES   1    8 4 29.65                             107    -0.5 4  396 210 
 PRA  HZ I         8 4 35.41        51.5 0.25                           396 210 
                                                                                
