 2010  524 0044  8.6 L   6.791 -73.139118.6  RSN  6 0.6 1.9LRSN                1
 GAP=184        1.17      10.8    16.0 51.7 -0.9831E+02 -0.1042E+03  0.3378E+03E
 Epicentro: LOS SANTOS - SANTANDER                                             3
 ACTION:UP  10-08-24 10:06 OP:vdl  STATUS:               ID:20100524004408 L   I
 2010-05-24-0041-47S.COL___111                                                 6
 STAT SP IPHASW D HRMM SECON CODA AMPLIT PERI AZIMU VELO SNR AR TRES W  DIS CAZ7
 GUE  SZ EP        044 31.59                             132     0.610  117  12 
 OCA  SZ EP   1    044 34.38                             122    -0.7 7  161 353 
 OCA  SZ ES   1    044 55.38                             122    -0.3 7  161 353 
 OCA  SZ I         044 58.58         9.5 0.54                           161 353 
 CHI  HN ES   2    045 12.48                             110    -0.7 4  248 195 
 CHI  HZ I         045 17.64         3.6 0.24                           248 195 
 HEL  HE ES   2    045 18.96                             108     0.8 4  273 256 
 HEL  HZ I         045 22.70         3.3 0.70                           273 256 
 RREF BN ES   2    045 28.26                             105    -0.7 4  322 230 
 RREF BZ I         045 35.32         3.4 0.14                           322 230 
 PRA  HN ES   2    045 42.53                             101     0.2 3  392 210 
 PRA  HZ I         045 46.04         5.0 0.89                           392 210 
                                                                                
