 2010  424 0228 33.8 L   6.700 -73.021153.5  RSN  4 0.1 1.8LRSN                1
 GAP=224        0.38       5.9     6.5  6.0 -0.1026E+02 -0.1046E+02  0.2242E+01E
 Epicentro: ARATOCA - SANTANDER                                                3
 ACTION:UPD 10-08-24 10:00 OP:vdl  STATUS:               ID:20100424022833 L   I
 2010-04-24-0224-30S.COL___104                                                 6
 STAT SP IPHASW D HRMM SECON CODA AMPLIT PERI AZIMU VELO AIN AR TRES W  DIS CAZ7
 BAR2 SZ EP   2    228 54.13                             171    -0.2 5   22 236 
 BAR2 SZ ES   2    229 10.35                             171     0.0 5   22 236 
 BRR  HZ IP     D  228 56.95                             148     0.110   89 301 
 BRR  HZ I         228 57.13         9.9 0.15                            89 301 
 BRR  HE ES   1    229 14.62                             148    -0.1 7   89 301 
 BRI  SZ EP   2    228 58.71                             141    -0.2 5  115  12 
 GRA  SZ ES   2    229 21.12                             137     0.1 5  133  10 
                                                                                
