 2010  424 0211 50.6 L   6.756 -73.095147.2  RSN 14 0.4 2.4LRSN                1
 GAP=179        0.75       4.0     6.4  5.8 -0.1592E+02 -0.3060E+01  0.6860E+01E
 Epicentro: LOS SANTOS - SANTANDER                                             3
 ACTION:UPD 10-08-24 10:00 OP:vdl  STATUS:               ID:20100424021157 L   I
 2010-04-24-0209-00S.COL___104                                                 6
 STAT SP IPHASW D HRMM SECON CODA AMPLIT PERI AZIMU VELO AIN AR TRES W  DIS CAZ7
 BAR2 SZ EP   1    212 10.19                             172    -0.2 8   21 208 
 BAR2 SZ ES   1    212 25.56                             172    -0.2 8   21 208 
 BRR  HZ EP   1    212 12.50                             151     0.2 8   78 300 
 BRR  HZ I         212 12.81        51.5 0.16                            78 300 
 BRR  HN ES   1    212 29.28                             151     0.0 8   78 300 
 BRI  SZ IP        212 14.67                             141    -0.210  111  17 
 GUE  SZ IP        212 15.16                             139    -0.610  120   9 
 GRA  SZ IP        212 16.93                             137     0.710  129  14 
 GRA  SZ ES   1    212 36.60                             137     0.4 7  129  14 
 OCA  SZ EP   1    212 19.12                             129    -0.4 7  166 351 
 OCA  SZ ES   2    212 42.27                             129     0.2 5  166 351 
 OCA  SZ I         212 46.87        40.5 0.31                           166 351 
 CHI  HZ EP   1    212 27.96                             118    -0.1 6  246 197 
 CHI  HE ES   2    212 57.32                             118     0.1 4  246 197 
 CHI  HZ I         213  3.53         8.0 0.60                           246 197 
 ROSC BZ IP     D  212 28.62                             117     0.0 8  252 213 
 ROSC BZ I         213  4.70        15.8 0.37                           252 213 
 HEL  HZ EP   2    212 31.87                             115     0.5 4  276 257 
 HEL  HE ES   2    213  2.63                             115    -0.5 4  276 257 
 HEL  HZ I         213  9.06         7.3 0.41                           276 257 
 RREF BZ EP   2    212 37.46                             111     0.5 3  323 231 
 RREF BN ES   2    213 13.60                             111     0.5 3  323 231 
 RREF BZ I         213 21.78        13.8 0.28                           323 231 
 TOL  SZ EP   2    212 39.31                             110     0.3 3  344 226 
 DBB  SZ EP   2    212 38.32                             109    -0.5 3  345 275 
 ANIL BE ES   2    213 19.73                             109     0.3 3  358 226 
 PRA  HZ EP   1    212 43.84                             107    -0.2 4  391 211 
 PRA  HN ES   1    213 25.83                             107     0.2 4  391 211 
 PRA  HZ I         213 29.97         8.6 0.58                           391 211 
                                                                                
