 2013  824 0542 18.6 L   6.806 -73.191131.6  RSN  7 0.4 1.7LRSN                1
 GAP=131        1.08       4.1     5.0  7.3  0.7346E+00  0.1121E+02  0.3456E+00E
 Epicentro: ZAPATOCA - SANTANDER                                               3
 ACTION:UPD 14-01-14 09:06 OP:ep   STATUS:               ID:20130824054218 L   I
 OLDACT:REG 13-08-24 07:36 OP:nd   STATUS:               ID:20130824053959     3
 2013-08-24-0539-59M.COL___270                                                 6
 STAT SP IPHASW D HRMM SECON CODA AMPLIT PERI AZIMU VELO AIN AR TRES W  DIS CAZ7
 BAR2 SZ EP        542 36.51                             169   -0.0410 23.6 178 
 BAR2 SZ ES        542 49.81                             169   -0.7410 23.6 178 
 BAR2 SZ I         542 52.39        11.0 0.32            172           23.6 178 
 BRR  HZ IP     C  542 38.29                             151    0.3210 66.5 300 
 BRR  HN ES        542 53.15                             151    0.0810 66.5 300 
 BRR  HZ I         542 55.94         8.4 0.13            148           66.5 300 
 PAM  SZ EP        542 40.18                             147    0.6510 80.2  43 
 PAM  SN ES        542 55.99                             147    0.1510 80.2  43 
 PAM  SZ I         542 58.70         7.5 0.46            148           80.2  43 
 RUS  HZ EP        542 40.58                             140   -0.5110  102 173 
 RUS  HN ES        542 58.79                             140    0.1710  102 173 
 RUS  HZ I         543  1.06         6.3 0.16            144            102 173 
 SPBC HZ EP        542 45.43                             126   -0.38 9  161 217 
 SPBC HN ES        543  7.75                             126    0.73 9  161 217 
 SPBC HZ I         543 12.26         5.4 0.22            127            161 217 
 ZAR  HZ EP        542 49.38                             120   -0.28 9  199 293 
 ZAR  HN ES        543 13.82                             120   -0.06 9  199 293 
 ZAR  HZ I         543 20.13         7.2 0.34            119            199 293 
 SML  HZ EP   4    542 53.04                             114   -1.16 0  241 336 
 SML  HE ES   2    543 21.24                             114   -0.71 4  241 336 
 SML  HZ I         543 32.29         6.1 0.10            114            241 336 
                                                                                
