 2017  624 0558 47.8 L   5.964 -73.695120.8  RSN 12 0.4 2.3LRSN                1
 GAP= 74        1.12       2.8     2.9  6.5  0.4036E-01 -0.3357E-01  0.8257E+00E
 Epicentro: GUAVATA - SANTANDER                                                3
 ACTION:UPD 17-09-14 16:54 OP:jn   STATUS:               ID:20170624055847 L   I
 OLDACT:REG 17-06-24 13:42 OP:lv   STATUS:               ID:20170624055740     3
 2017-06-24-0558-00M.COL___374                                                 6
 STAT SP IPHASW D HRMM SECON CODA AMPLIT PERI AZIMU VELO AIN AR TRES W  DIS CAZ7
 SPBC HZ EP        559  5.24                             154   -0.2010 54.2 230 
 SPBC HN ES        559 18.79                             154   -0.4010 54.2 230 
 SPBC HZ I         559 23.45        24.2 0.24            157           54.2 230 
 BAR2 EZ IP     D  559  8.35                             141    0.3810 89.6  39 
 BAR2 EZ ES        559 23.90                             141    0.2010 89.6  39 
 PTB  HZ EP        559  8.05                             136   -0.9010  106 307 
 PTB  HN ES        559 25.59                             136    0.1410  106 307 
 BRR  HZ EP        559 10.96                             130    0.1810  126 359 
 BRR  HN ES        559 29.10                             130    0.3910  126 359 
 BRR  HZ I         559 31.76       144.5 0.04            133            126 359 
 NOR  HZ EP        559 12.08                             128    0.18 9  137 251 
 NOR  HN ES        559 30.91                             128    0.21 9  137 251 
 ROSC BZ EP   4    559 14.10                             127    1.27 0  142 209 
 ROSC BN ES        559 32.65                             127    0.30 9  142 209 
 CHI  HZ EP        559 13.24                             126   -0.14 9  148 182 
 CHI  HN ES        559 32.91                             126   -0.42 9  148 182 
 YPLC HZ IP     C  559 14.54                             123    0.51 9  159 113 
 YPLC HN ES        559 34.33                             123   -0.15 9  159 113 
 YPLC HZ I         559 37.49        21.1 0.15            126            159 113 
 GUY2CHZ EP        559 19.85                             117    0.68 9  202 246 
 GUY2CHN ES        559 44.20                             117    0.57 9  202 246 
 HEL  HZ EP        559 19.89                             116    0.61 9  205 277 
 HEL  HN ES        559 43.30                             116   -0.52 9  205 277 
 ZAR  HZ EP        559 19.03                             115   -0.64 8  212 323 
 ZAR  HN ES        559 44.04                             115   -0.48 8  212 323 
 ZAR  HZ I         559 46.87         9.8 0.26            118            212 323 
 PTGC HZ EP        559 24.46                             110   -0.67 8  261 138 
 PTGC HN ES   4    559 52.86                             110   -1.38 0  261 138 
 PTGC HZ I         559 55.79                             112            261 138 
 SJC  HZ IP   4 D  559 47.26                              99   -2.05 0  465 339 
 SJC  HN ES   4    6 0 33.53                              99   -3.76 0  465 339 
                                                                                
