 2010  524 0337 20.1 L   6.820 -72.963147.3  RSN 11 0.5 2.4LRSN                1
 GAP=151        0.96       4.8     8.7  9.9 -0.2751E+02  0.7059E+01  0.1058E+02E
 Epicentro: CEPITA - SANTANDER                                                 3
 ACTION:UP  10-08-24 10:06 OP:vdl  STATUS:               ID:20100524033720 L   I
 2010-05-24-0332-53S.COL___111                                                 6
 STAT SP IPHASW D HRMM SECON CODA AMPLIT PERI AZIMU VELO SNR AR TRES W  DIS CAZ7
 BAR2 SZ IP        337 40.05                             166    -0.110   35 224 
 BAR2 SZ ES   2    337 55.26                             166    -0.6 5   35 224 
 GUE  SZ EP        337 45.00                             142     0.410  112   2 
 GUE  SZ ES   2    338  3.24                             142    -0.4 5  112   2 
 GRA  SZ EP        337 44.75                             140    -0.210  119   8 
 OCA  SZ EP        337 48.50                             130    -0.1 9  162 346 
 OCA  SZ ES   1    338 11.32                             130     0.4 7  162 346 
 CHI  HZ I         338  0.83         8.6 0.99                           257 199 
 CHI  HN ES   1    338 28.84                             117     0.0 6  257 199 
 ROSC BZ EP        337 59.63                             116     0.0 8  266 215 
 ROSC BN ES   1    338 31.39                             116     0.8 6  266 215 
 ROSC BZ I         338 38.09        18.6 1.65                           266 215 
 CVER SZ EP   2    338  1.25                             115    -0.4 4  282 206 
 HEL  HZ EP   1    338  1.90                             114    -0.7 5  292 256 
 HEL  HN ES   2    338 35.33                             114    -0.4 4  292 256 
 HEL  HZ I         338 38.90        13.7 0.29                           292 256 
 RREF BZ EP        338  7.84                             110    -0.4 7  339 231 
 RREF BN ES        338 46.83                             110     1.1 7  339 231 
 RREF BZ I         338 52.03        13.5 0.31                           339 231 
 SDV  BZ I         338 10.29         6.4 0.55                           344  48 
 SDV  BN ES   2    338 46.68                             110     0.9 3  344  48 
 PRA  HZ EP        338 14.49                             107    -0.6 6  404 212 
 PRA  HN ES   1    338 57.49                             107    -0.5 4  404 212 
 PRA  HZ I         339  2.07        10.9 0.76                           404 212 
                                                                                
