 2017  124 0553 41.4 L   6.737 -73.142141.9  RSN  5 0.3 1.1LRSN                1
 GAP=140        0.88       4.4     4.0  7.8  0.1105E+01  0.5715E+01  0.2686E+01E
 Epicentro: LOS SANTOS - SANTANDER                                             3
 ACTION:UPD 17-05-22 16:02 OP:jn   STATUS:               ID:20170124055341 L   I
 OLDACT:REG 17-01-24 13:12 OP:lv   STATUS:               ID:20170124054558     3
 2017-01-24-0548-00M.COL___342                                                 6
 STAT SP IPHASW D HRMM SECON CODA AMPLIT PERI AZIMU VELO AIN AR TRES W  DIS CAZ7
 BRR  HZ EP        554  2.60                             150    0.2510 75.1 303 
 BRR  HN ES        554 18.93                             150    0.2310 75.1 303 
 PAM  EZ EP        554  3.61                             148    0.0910 82.7  36 
 PAM  EN ES        554 20.41                             148   -0.3810 82.7  36 
 PAM  EZ I         554 22.99         2.6 0.46            151           82.7  36 
 RUS  HZ EP        554  4.42                             145    0.1610 93.6 176 
 RUS  HN ES        554 22.30                             145    0.2010 93.6 176 
 RUS  HZ I         554 23.52         1.9 0.28            147           93.6 176 
 PTB  HZ EP        554  7.47                             131   -0.50 9  147 262 
 PTB  HN ES        554 28.17                             131   -0.53 9  147 262 
 PTB  HZ I         554 32.24         1.8 0.15            133            147 262 
 ZAR  HE ES        554 39.74                             121    0.47 8  207 294 
                                                                                
