 2016  624 0008 18.7 L   6.547 -73.573 98.7  RSN 10 0.5 1.4LRSN                1
 GAP= 97        1.17       3.9     4.2  8.6  0.7211E+00  0.2145E+02  0.6397E+01E
 Epicentro: EL CARMEN - SANTANDER                                              3
 ACTION:UPD 16-07-21 22:22 OP:rebc STATUS:               ID:20160624000818 L   I
 OLDACT:REG 16-06-24 12:40 OP:ak   STATUS:               ID:20160624000000     3
 2016-06-24-0000-00M.COL___331                                                 6
 STAT SP IPHASW D HRMM SECON CODA AMPLIT PERI AZIMU VELO AIN AR TRES W  DIS CAZ7
 BAR2 EZ IP     D  0 8 33.50                             155   -0.0810 43.5  83 
 BAR2 EZ ES        0 8 46.03                             155    0.8710 43.5  83 
 BAR2 EZ I         0 8 47.33        15.6 0.31                          43.5  83 
 BRR  HZ IP        0 8 34.13                             145   -0.3810 63.8 346 
 BRR  HE ES        0 8 46.98                             145    0.1710 63.8 346 
 BRR  HZ I         0 8 54.54         4.1 0.19                          63.8 346 
 RUS  HZ EP   4    0 8 35.93                             135   -1.39 0 90.4 143 
 RUS  HN ES        0 8 51.50                             135   -0.3110 90.4 143 
 RUS  HZ I         0 8 53.69         4.1 0.38                          90.4 143 
 PTB  HZ EP        0 8 36.33                             132   -0.9910 97.7 270 
 PTB  HN ES        0 8 51.15                             132   -0.6810 97.7 270 
 PTB  HZ I         0 8 54.74         4.6 0.17                          97.7 270 
 SPBC HZ EP   2    0 8 38.76                             128   -0.15 5  113 209 
 SPBC HN ES        0 8 54.66                             128    0.0210  113 209 
 ZAR  HZ EP   2    0 8 45.45                             115   -0.03 4  176 306 
 ZAR  HN ES        0 9  6.77                             115    0.43 9  176 306 
 ZAR  HZ I         0 9 11.87         5.3 0.32                           176 306 
 NOR  HZ EP        0 8 45.79                             115   -0.16 9  180 233 
 NOR  HE ES        0 9  7.27                             115    0.08 9  180 233 
 NOR  HZ I         0 9 11.06         4.9 0.14                           180 233 
 HEL  HZ EP   2    0 8 50.67                             110   -0.24 4  220 260 
 HEL  HE ES        0 9 16.12                             110    0.11 8  220 260 
 HEL  HZ I         0 9 22.86         2.6 0.50                           220 260 
 GUY2CHZ EP   2    0 8 54.72                             108    0.57 4  246 234 
 GUY2CHN ES        0 9 22.33                             108    0.56 8  246 234 
 GUY2CHZ I         0 9 28.52                                            246 234 
 CBOC HZ EP        0 8 58.74                             105    0.97 7  280 255 
 CBOC HE ES        0 9 28.50                             105    0.27 7  280 255 
 CBOC HZ I         0 9 31.88         1.0 0.22                           280 255 
                                                                                
