 2012  724 0854  5.6 L   6.755 -73.247152.9  RSN  4 0.1 1.0LRSN                1
 GAP=211        0.32      10.3     5.9 10.8  0.2179E+01 -0.1734E+02  0.7482E+02E
 Epicentro: ZAPATOCA - SANTANDER                                               3
 ACTION:UPD 12-08-14 11:45 OP:ep   STATUS:               ID:20120724085405 L   I
 2012-07-24-0850-00M.COL___215                                                 6
 STAT SP IPHASW D HRMM SECON CODA AMPLIT PERI AZIMU VELO AIN AR TRES W  DIS CAZ7
 BAR2 SZ EP   3    854 25.57                             172    -0.4 2   19 158 
 BAR2 SZ I         854 33.72         1.9 0.38            160             19 158 
 BRR  HZ EP   3    854 27.30                             156     0.2 2   64 307 
 BRR  HN ES   2    854 43.97                             156     0.0 5   64 307 
 RUS  HZ EP   2    854 29.88                             146     0.1 5   97 169 
 PTB  HZ EP   2    854 32.07                             136     0.0 5  136 260 
 PTB  HN ES   2    854 52.75                             136     0.0 5  136 260 
