 2012  124 0219 11.3 L   6.755 -73.169139.2  RSN 10 0.3 2.1LRSN                1
 GAP=179        0.60       2.3     3.7  4.4 -0.7957E+00  0.2181E+01  0.8283E+00E
 Epicentro: VILLANUEVA - SANTANDER                                             3
 ACTION:UP  12-02-03 08:20 OP:REBC STATUS:               ID:20120124021911 L   I
 2012-01-24-0214-39S.COL___153                                                 6
 STAT SP IPHASW D HRMM SECON CODA AMPLIT PERI AZIMU VELO SNR AR TRES W  DIS CAZ7
 BAR2 SZ EP        219 29.81                             172    -0.210   18 185 
 BAR2 SZ ES   1    219 44.50                             172    -0.2 7   18 185 
 BAR2 SZ I         219 46.41        47.7 0.31                            18 185 
 GIR2 SZ EP        219 30.13                             165    -0.210   36 356 
 BRR  HZ IP     C  219 31.92                             151     0.210   72 303 
 BRR  HN ES   1    219 48.21                             151     0.5 7   72 303 
 BRR  HZ I         219 53.07        31.3 0.04                            72 303 
 RUS  HZ EP   1    219 33.99                             144    -0.1 7   96 174 
 RUS  HN ES   1    219 52.03                             144     0.2 7   96 174 
 RUS  HZ I         219 53.26        10.8 0.18                            96 174 
 PTB  HZ EP   1    219 37.06                             131    -0.4 7  144 261 
 PTB  HE ES   1    219 57.49                             131    -0.3 7  144 261 
 OCA  SZ EP        219 39.60                             127     0.0 9  165 354 
 OCA  SZ ES   1    220  1.56                             127     0.0 7  165 354 
 OCA  SZ I         220  6.38        25.4 0.43                           165 354 
 ZAR  HZ EP   2    219 43.86                             121     0.6 4  204 294 
 ZAR  HE ES   2    220  8.17                             121     0.0 4  204 294 
 ZAR  HZ I         220 14.51        14.8 0.46                           204 294 
 NOR  SZ EP   1    219 46.21                             118     0.1 6  230 235 
 NOR  SN ES   1    220 13.18                             118    -0.1 6  230 235 
 CHI  HZ EP   1    219 48.28                             116     0.2 6  243 195 
 CHI  HE ES   1    220 17.01                             116     0.3 6  243 195 
 CHI  HZ I         220 24.35         5.7 0.64                           243 195 
 PRA  HZ EP   1    220  4.40                             106     0.5 4  386 210 
 PRA  HN ES   1    220 44.39                             106    -0.6 4  386 210 
                                                                                
