 2013  124 0245 47.9 L   6.789 -73.176143.3  RSN  8 0.5 2.0LRSN 2.9WRSN        1
 SPEC AVERAGE  MO 13.4 ST  4.7 OM  3.3 f0 4.99 R0.2955 AL 3.36 WI 17.5 MW  2.9 3
 SPEC SD       MO  0.2 ST  2.5 OM  1.6 f00.225 R0.0133 AL      WI      MW  0.1 3
 GAP=100        1.19       4.7     4.6  7.0  0.2199E+01  0.3227E+01  0.5195E+01E
 Epicentro: LOS SANTOS - SANTANDER                                             3
 SPEC ZAR HH E MO 13.6 ST  7.1 OM  1.8 f0 5.21 R0.2821 AL 3.01 WI 18.6 MW  3.0 3
 SPEC ZAR HH E T 24644 K 0.000 GD  246 VS 4.20 DE 3.00 Q0230.0 QA 0.60 VS 4.20 3
 SPEC BRR HH N MO 13.2 ST  2.2 OM  1.6 f0 4.76 R0.3088 AL 3.70 WI 16.5 MW  2.7 3
 SPEC BRR HH N T 24625 K 0.000 GD  159 VS 4.20 DE 3.00 Q0230.0 QA 0.60 VS 4.20 3
 ACTION:UPD 13-02-15 09:16 OP:ep   STATUS:               ID:20130124024547 L   I
 2013-01-24-0238-36M.COL___181                                                 6
 STAT SP IPHASW D HRMM SECON CODA AMPLIT PERI AZIMU VELO AIN AR TRES W  DIS CAZ7
 BAR2 SZ EP        246  7.33                             171    0.1210 21.8 182 
 BAR2 SZ ES        246 21.87                             171   -0.4010 21.8 182 
 BAR2 SZ I         246 23.26        17.1 0.42            170           21.8 182 
 BRR  HZ EP        246  8.96                             153    0.3010 68.9 301 
 BRR  HN ES        246 25.92                             153    1.0710 68.9 301 
 BRR  HN I         246 26.61        29.8 0.26            150           68.9 301 
 PAM  SZ EP        246 10.04                             149   -0.0110 80.5  41 
 PAM  SN ES        246 26.74                             149   -0.5810 80.5  41 
 RUS  HZ EP        246 11.52                             144    0.1810 99.6 174 
 RUS  HN ES        246 30.02                             144    0.3910 99.6 174 
 PTB  HZ EP        246 13.81                             132   -0.54 9  144 259 
 PTB  HN ES        246 34.29                             132   -0.70 9  144 259 
 TAM  HZ EP        246 15.57                             129   -0.09 9  158 104 
 ZAR  HZ EP        246 19.87                             122   -0.05 9  201 293 
 ZAR  HE ES        246 44.88                             122   -0.01 9  201 293 
 ZAR  HE I         246 53.31        12.8 0.26            121            201 293 
 CHI  HZ EP        246 25.82                             117    0.58 8  247 194 
 CHI  HN ES        246 54.00                             117   -0.37 8  247 194 
 CHI  HN I         246 57.32         3.9 0.66            117            247 194 
                                                                                
