 2010  924 0558 56.1 L   6.832 -73.081140.2  RSN  6 0.4 1.6LRSN                1
 GAP=165        0.68       4.4    16.6 10.0  0.2593E+01  0.1182E+02 -0.4412E+01E
 Epicentro: LOS SANTOS - SANTANDER                                             3
 ACTION:UP  11-02-18 11:05 OP:tino STATUS:               ID:20100924055856 L   I
 2010-09-24-0556-47S.COL___119                                                 6
 STAT SP IPHASW D HRMM SECON CODA AMPLIT PERI AZIMU VELO SNR AR TRES W  DIS CAZ7
 BAR2 SZ EP   2    559 15.19                             168     0.0 5   29 203 
 BAR2 SZ ES   2    559 29.70                             168    -0.4 5   29 203 
 BAR2 SZ I         559 31.69        11.3 0.22                            29 203 
 BRR  HZ EP   1    559 16.93                             150     0.0 7   76 294 
 BRR  HZ I         559 38.05        10.6 0.15                            76 294 
 RUS  HZ EP   1    559 19.16                             142    -0.4 7  104 180 
 RUS  HZ I         559 20.08         3.0 0.17                           104 180 
 RUS  HE ES   2    559 38.55                             142     0.7 5  104 180 
 GRA  SZ EP   2    559 20.78                             137     0.4 5  120  15 
 GRA  SZ I         559 49.54         4.2 0.42                           120  15 
 OCA  SZ EP   2    559 23.92                             129     0.1 5  158 350 
 OCA  SZ ES   2    559 45.49                             129     0.2 5  158 350 
 OCA  SZ I         559 48.59         6.6 0.21                           158 350 
 CHI  HZ EP   2    559 33.80                             115    -0.3 4  254 197 
 CHI  HN ES   2    6 0  4.37                             115     0.6 4  254 197 
 CHI  HZ I         6 0  9.91         1.9 0.25                           254 197 
                                                                                
