 2012  224 0944 17.8 L   6.796 -73.220146.8  RSN  5 0.3 1.4LRSN                1
 GAP=164        0.56       6.3     9.5  7.1  0.3897E+02  0.3004E+02  0.2149E+02E
 ACTION:UP  12-03-07 16:33 OP:epov STATUS:               ID:20120224094417 L   I
 2012-02-24-0940-00M.COL___192                                                 6
 STAT SP IPHASW D HRMM SECON CODA AMPLIT PERI AZIMU VELO AIN AR TRES W  DIS CAZ7
 BAR2 SZ EP   2    944 36.84                             171   -0.75 5 22.9 170 
 GIR2 SZ ES   1    944 53.06                             167   -0.02 7 31.4   5 
 BRR  HZ EP   1    944 39.14                             155    0.41 7 64.3 302 
 BRR  HZ I         944 52.19         8.3 0.35                          64.3 302 
 BRR  HE ES   1    944 54.97                             155   -0.06 7 64.3 302 
 RUS  HZ EP   1    944 41.82                             144    0.09 7  101 171 
 RUS  HN ES   1    945  0.43                             144    0.07 7  101 171 
 RUS  HZ I         945  1.10         2.4 0.25                           101 171 
 PTB  HZ EP   1    944 44.00                             134   -0.17 7  140 258 
                                                                                
