 2016  524 0713  7.5 L   6.777 -73.089145.6  RSN 16 0.5 2.0LRSN                1
 GAP=163        0.91       2.9     4.2  5.4  0.1026E+01  0.4690E+00  0.2235E+01E
 Epicentro: LOS SANTOS - SANTANDER                                             3
 ACTION:UPD 16-08-18 17:49 OP:cam  STATUS:               ID:20160524071307 L   I
 OLDACT:UP  16-06-01 05:06 OP:dnl  STATUS:               ID:20160524071307 L   3
 OLDACT:REG 16-05-24 12:27 OP:mhre STATUS:               ID:20160524070744     3
 2016-05-24-0707-44M.COL___304                                                 6
 STAT SP IPHASW D HRMM SECON CODA AMPLIT PERI AZIMU VELO AIN AR TRES W  DIS CAZ7
 BAR2 EZ EP        713 27.57                             171    0.4810 22.9 207 
 BAR2 EZ ES        713 42.19                             171   -0.1810 22.9 207 
 BAR2 EZ I         713 43.34        28.4 0.18            164           22.9 207 
 BRR  HZ EP     C  713 29.48                             150    0.4710 78.0 298 
 BRR  HN IS        713 46.35                             150    0.5510 78.0 298 
 BRR  HZ I         713 50.81        34.3 0.14            142           78.0 298 
 RUS  HZ EP   2    713 31.98                             145    0.96 5 97.8 180 
 RUS  HE ES   2    713 49.38                             145    0.01 5 97.8 180 
 RUS  HZ I         713 50.81        12.3 0.24            143           97.8 180 
 PTB  HZ EP        713 34.74                             131   -0.23 9  154 260 
 PTB  HN ES   4    713 55.03                             131   -1.37 0  154 260 
 PTB  HZ I         713 58.88        10.9 0.10            125            154 260 
 OCA  HZ EP        713 35.92                             129   -0.19 9  164 351 
 OCA  HN ES        713 57.63                             129   -0.80 9  164 351 
 OCA  HZ I         714  0.14        27.2 0.18            126            164 351 
 SPBC HZ EP        713 36.72                             129    0.55 9  165 221 
 SPBC HE ES        713 57.98                             129   -0.57 9  165 221 
 SPBC HZ I         714  3.02         9.4 0.10            125            165 221 
 ZAR  HZ EP        713 40.71                             121    0.08 8  211 292 
 ZAR  HN ES        714  6.51                             121    0.03 8  211 292 
 ZAR  HZ I         714 12.16        10.2 0.18            117            211 292 
 NOR  HZ EP   3    713 42.70                             118   -0.91 2  238 236 
 NOR  HN ES        714 11.41                             118   -0.37 8  238 236 
 NOR  HZ I         714 18.80         6.0 0.24            115            238 236 
 HEL  HZ EP   4    713 49.71                             114    1.41 0  278 257 
 HEL  HN ES   2    714 19.35                             114   -0.79 4  278 257 
 HEL  HZ I         714 28.37         2.8 0.22            111            278 257 
 URE  HZ EP   4    713 48.19                             113   -1.12 0  291 292 
 URE  HN ES   4    714 18.82                             113   -3.12 0  291 292 
 URE  HZ I         714 40.98        11.0 0.06            110            291 292 
 PTGC HZ EP        713 50.81                             112    0.00 7  304 160 
 PTGC HN ES        714 23.92                             112   -0.68 7  304 160 
 LL6C HZ EP   2    713 53.31                             110   -0.20 3  328 357 
 LL6C HN ES   4    714 25.84                             110   -3.57 0  328 357 
 LL6C HZ I         714 39.75         3.5 0.76            109            328 357 
 CBOC HZ EP   2    713 55.00                             109    0.00 3  339 253 
 CBOC HN ES   2    714 31.77                             109   -0.28 3  339 253 
 CBOC HZ I         714 36.56         1.3 0.26            107            339 253 
 PRA  HZ EP   3    714  1.03                             106   -0.08 1  393 211 
 PRA  HE ES   2    714 43.73                             106    0.79 3  393 211 
 PRA  HZ I         714 49.41         4.5 0.38            105            393 211 
 ORTC HZ EP   2    714  2.02                             106    0.42 3  397 217 
 ORTC HN ES   2    714 44.47                             106    0.66 3  397 217 
 ORTC HZ I         714 50.84         3.1 0.38            105            397 217 
 SJC  HZ EP   4    714  2.41                             105   -1.29 0  415 326 
 SJC  HE ES   4    714 42.85                             105   -4.70 0  415 326 
 SJC  HZ I         714 47.86         4.7 0.62            104            415 326 
                                                                                
