 2017 1024 0535 57.8 L   6.630 -73.657102.5  RSN  5 0.4 1.0LRSN                1
 GAP=122        1.11       5.5     3.8 10.4  0.4520E+01  0.1046E+02 -0.1041E+02E
 Epicentro: EL CARMEN - SANTANDER                                              3
 ACTION:UPD 17-11-07 19:36 OP:rebc STATUS:               ID:20171024053557 L   I
 OLDACT:UP  17-10-24 15:14 OP:dani STATUS:               ID:20171024052513     3
 OLDACT:REG 17-10-24 12:57 OP:dani STATUS:               ID:20171024052513     3
 2017-10-24-0528-00M.COL___435                                                 6
 STAT SP IPHASW D HRMM SECON CODA AMPLIT PERI AZIMU VELO AIN AR TRES W  DIS CAZ7
 BAR2 HZ EP        536 13.37                             151   -0.1610 52.7  95 
 BAR2 HZ ES        536 25.48                             151   -0.3610 52.7  95 
 BAR2 HZ I         536 26.92         4.0 0.09            151           52.7  95 
 PTB  HZ EP        536 15.46                             135   -0.4310 88.9 264 
 PTB  HZ I         536 29.78         1.3 0.17                          88.9 264 
 PTB  HN ES        536 29.80                             135   -0.2310 88.9 264 
 RUS  HZ EP        536 17.52                             131   -0.3010  103 142 
 RUS  HN ES        536 34.31                             131    0.8510  103 142 
 RUS  HZ I         536 34.68         2.3 0.20                           103 142 
 PAM  EE ES        536 38.39                             124    0.0410  132  53 
 ZAR  HZ EP        536 23.34                             117    0.07 9  163 306 
 ZAR  HN ES        536 43.85                             117    0.67 9  163 306 
 ZAR  HZ I         536 46.05         1.7 0.23            113            163 306 
                                                                                
