 2014  324 0345  3.9 L   6.870 -73.372121.9  RSN  7 0.4 1.8LRSN                1
 GAP= 91        1.07       3.5     4.0  8.4 -0.2445E+01  0.1185E+02 -0.7824E+01E
 Epicentro: SAN VICENTE DE CHUCURI - SANTANDER                                 3
 ACTION:UPD 14-04-09 23:20 OP:nd   STATUS:               ID:20140324034503 L   I
 OLDACT:REG 14-03-24 08:12 OP:carl STATUS:               ID:20140324034035     3
 2014-03-24-0340-35M.COL___240                                                 6
 STAT SP IPHASW D HRMM SECON CODA AMPLIT PERI AZIMU VELO AIN AR TRES W  DIS CAZ7
 BAR2 SZ EP        345 21.38                             162    0.2810 37.2 146 
 BAR2 SZ ES        345 34.94                             162    0.4310 37.2 146 
 BAR2 SZ I         345 35.84        78.1 0.24            166           37.2 146 
 PAM  SZ EP        345 24.52                             141   -0.0810 90.6  55 
 PAM  SN ES        345 40.76                             141    0.0210 90.6  55 
 PAM  SZ I         345 43.01         9.6 0.26            146           90.6  55 
 RUS  HZ EP        345 26.43                             135    0.0210  113 164 
 RUS  HN ES        345 43.71                             135   -0.2610  113 164 
 RUS  HZ I         345 45.02         6.4 0.26            139            113 164 
 PTB  HZ EP        345 26.70                             131   -0.1910  125 253 
 PTB  HN ES        345 43.84                             131   -0.9810  125 253 
 PTB  HZ I         345 48.66         7.4 0.62            133            125 253 
 OCA  HZ EP        345 29.37                             125   -0.22 9  151   2 
 OCA  HN ES        345 49.30                             125   -0.32 9  151   2 
 OCA  HZ I         345 50.54        13.3 0.30            128            151   2 
 SPBC HN ES        345 50.49                             124    0.32 9  155 210 
 SPBC HZ I         345 53.08         6.3 0.26            127            155 210 
 ZAR  HZ EP        345 32.46                             120    0.35 9  178 293 
 ZAR  HN ES        345 54.88                             120    0.76 9  178 293 
 ZAR  HZ I         345 59.86         8.0 0.32            122            178 293 
                                                                                
