 2012  224 0949 59.0 L   6.635 -73.154161.0  RSN  5 0.1 1.5LRSN                1
 GAP=224        0.34       3.3     3.3  5.1  0.3466E+01 -0.2796E+01 -0.1113E+01E
 ACTION:UP  12-03-07 16:33 OP:epov STATUS:               ID:20120224094959 L   I
 2012-02-24-0947-39S.COL___172                                                 6
 STAT SP IPHASW D HRMM SECON CODA AMPLIT PERI AZIMU VELO AIN AR TRES W  DIS CAZ7
 BAR2 SZ EP   1    950 20.18                             178   -0.10 7 5.74 213 
 BAR2 SZ I         950 37.61         6.6 0.25                          5.74 213 
 BRR  HZ EP   1    950 22.55                             152    0.20 7 80.8 310 
 BRR  HZ I         950 23.49         8.9 0.19                          80.8 310 
 BRR  HN ES   1    950 40.46                             152   -0.10 7 80.8 310 
 RUS  HZ EP   1    950 23.08                             152   -0.09 7 82.5 175 
 RUS  HN ES   1    950 42.09                             152    0.09 7 82.5 175 
 RUS  HZ I         950 45.13         2.4 0.20                          82.5 175 
 PTB  HN ES   1    950 48.83                             136    0.03 7  144 266 
 NOR  SN ES   2    951  2.18                             123   -0.10 4  224 238 
                                                                                
