 2010  624 0715 43.1 L   7.471 -73.361118.0  RSN  5 0.3 1.5LRSN                1
 GAP=158        0.68      33.2    29.5  9.0 -0.9621E+03  0.8397E+02 -0.9951E+02E
 Epicentro: EL PLAYON - SANTANDER                                              3
 ACTION:UP  10-08-24 10:12 OP:vdl  STATUS:               ID:20100624071543 L   I
 2010-06-24-0713-32S.COL___118                                                 6
 STAT SP IPHASW D HRMM SECON CODA AMPLIT PERI AZIMU VELO SNR AR TRES W  DIS CAZ7
 BRR  HZ EP        716  0.07                             153    -0.310   56 224 
 BRR  HZ I         716  0.32         8.7 0.11                            56 224 
 BRR  HE ES   1    716 14.11                             153     0.3 7   56 224 
 GUE  SZ EP        716  0.91                             150    -0.310   62  50 
 GUE  SZ ES   2    716 15.23                             150    -0.1 5   62  50 
 BRI  SZ EP   3    716  1.86                             148     0.5 2   68  66 
 GRA  SZ EP        716  2.31                             145     0.410   77  53 
 GRA  SZ ES   1    716 16.34                             145    -0.2 7   77  53 
 OCA  SZ EP   3    716  2.72                             142     0.2 2   85   3 
                                                                                
