 2017  724 0027  0.9 L   6.768 -73.136148.0  RSN  7 0.4 1.3LRSN                1
 GAP=236        0.83       6.4     6.9  6.5  0.2872E+02  0.7535E+01  0.4401E-01E
 Epicentro: LOS SANTOS - SANTANDER                                             3
 ACTION:UPD 17-08-30 15:36 OP:rebc STATUS:               ID:20170724002700 L   I
 OLDACT:UP  17-07-24 13:25 OP:and  STATUS:               ID:20170724001700     3
 OLDACT:UP  17-07-24 13:24 OP:and  STATUS:               ID:20170724001700     3
 OLDACT:REG 17-07-24 12:38 OP:and  STATUS:               ID:20170724001700     3
 2017-07-24-0018-00M.COL___389                                                 6
 STAT SP IPHASW D HRMM SECON CODA AMPLIT PERI AZIMU VELO AIN AR TRES W  DIS CAZ7
 BAR2 EZ EP        027 20.50                             172   -0.2310 20.1 195 
 BAR2 EZ ES        027 36.07                             172   -0.1410 20.1 195 
 BAR2 EZ I         027 37.11         6.7 0.22            161           20.1 195 
 BRR  HZ EP        027 22.38                             152   -0.0510 73.9 301 
 BRR  HN ES        027 39.62                             152    0.3810 73.9 301 
 RUS  HZ EP        027 24.85                             146    0.2410 97.0 177 
 RUS  HN ES        027 43.18                             146    0.0610 97.0 177 
 RUS  HZ I         027 46.56         1.6 0.20            139           97.0 177 
 PTB  HZ IP     C  027 27.58                             133   -0.50 9  148 260 
 PTB  HN ES   2    027 48.27                             133   -1.02 5  148 260 
 PTB  HZ I         027 49.83         1.8 0.26            128            148 260 
 SPBC HN ES   2    027 52.54                             130    0.95 5  161 220 
 SPBC HZ I         027 57.08         3.8 0.26            125            161 220 
 ZAR  HZ EP   2    027 34.39                             123    0.66 4  206 293 
 ZAR  HE ES        027 59.45                             123    0.11 8  206 293 
 NOR  HZ I         028 11.01         1.7 0.15            116            234 235 
                                                                                
