 2017  224 0138 31.6 L   6.171 -73.632118.1  RSN  7 0.3 1.5LRSN                1
 GAP= 87        1.13       3.5     6.0  9.1  0.5912E+01  0.2866E+02  0.1074E+02E
 Epicentro: LA PAZ - SANTANDER                                                 3
 ACTION:UPD 17-05-24 15:40 OP:jn   STATUS:               ID:20170224013831 L   I
 OLDACT:UP  17-02-24 14:22 OP:edw  STATUS:               ID:20170224013745     3
 OLDACT:REG 17-02-24 12:16 OP:edw  STATUS:               ID:20170224013745     3
 2017-02-24-0138-00M.COL___394                                                 6
 STAT SP IPHASW D HRMM SECON CODA AMPLIT PERI AZIMU VELO AIN AR TRES W  DIS CAZ7
 RUS  HZ EP        138 50.27                             145   -0.0210 68.1 117 
 RUS  HN ES        139  4.40                             145   -0.5010 68.1 117 
 RUS  HZ I         139  5.67         4.3 0.24            149           68.1 117 
 BAR2 EZ EP        138 50.11                             145    0.1810 68.2  47 
 BAR2 EZ ES        139  4.75                             145    0.4910 68.2  47 
 BAR2 EZ I         139  5.29        26.9 0.22            150           68.2  47 
 PTB  HZ EP   9    138 51.21                             136   -0.77 0 99.9 294 
 PTB  HN ES        139  6.00                             135   -1.1410 99.9 294 
 PTB  HZ I         139  8.65         2.9 0.12            136           99.9 294 
 BRR  HZ EP        138 52.34                             134    0.0410  104 355 
 BRR  HN ES        139  8.38                             134   -0.1010  104 355 
 CHI  HZ EP        138 59.55                             119    0.25 9  171 184 
 CHI  HN ES        139 21.01                             119    0.07 9  171 184 
 CHI  HZ I         139 23.08         2.3 0.26            120            171 184 
 ZAR  HZ EP        139  1.30                             115   -0.54 9  199 317 
 ZAR  HN ES        139 25.57                             115    0.11 9  199 317 
 ZAR  HZ I         139 26.89         6.9 0.42            116            199 317 
 PRA  HZ EP   4    139 15.35                             105    1.38 0  305 207 
 PRA  HN ES        139 46.99                             105   -0.05 7  305 207 
 PRA  HZ I         139 53.64         1.5 0.30            105            305 207 
                                                                                
