 2016 1024 0129 41.3 L   6.789 -73.174146.4  RSN  8 0.3 1.4LRSN                1
 GAP=134        0.74       2.3     3.6  4.3 -0.2049E+01  0.1433E+01  0.1122E+01E
 Epicentro: LOS SANTOS - SANTANDER                                             3
 ACTION:UPD 16-11-09 19:22 OP:rebc STATUS:               ID:20161024012941 L   I
 OLDACT:DUP 16-10-24 15:05 OP:cara STATUS:               ID:20161024012747d    3
 OLDACT:REG 16-10-24 13:29 OP:cara STATUS:               ID:20161024012746     3
 2016-10-24-0128-00M.COL___359                                                 6
 STAT SP IPHASW D HRMM SECON CODA AMPLIT PERI AZIMU VELO AIN AR TRES W  DIS CAZ7
 BAR2 EZ EP        130  0.99                             171   -0.0110 21.8 182 
 BAR2 EZ ES        130 16.49                             171    0.1410 21.8 182 
 BRR  HZ EP        130  3.04                             153    0.6110 69.1 301 
 BRR  HN ES        130 18.99                             153    0.1110 69.1 301 
 BRR  HZ I         130 23.80         6.1 0.30            153           69.1 301 
 PAM  EZ EP        130  3.82                             150    0.0410 80.3  41 
 PAM  EN ES        130 21.29                             150   -0.0110 80.3  41 
 PAM  EZ I         130 24.12         3.1 0.34            153           80.3  41 
 RUS  HZ EP        130  5.01                             144   -0.0610 99.7 174 
 RUS  HN ES        130 23.22                             144   -0.3710 99.7 174 
 RUS  HZ I         130 24.88         3.2 0.36            146           99.7 174 
 PTB  HZ EP        130  7.73                             133   -0.32 9  144 259 
 PTB  HN ES        130 28.52                             133   -0.37 9  144 259 
 PTB  HZ I         130 32.40         2.3 0.20            133            144 259 
 SPBC HZ EP        130  9.74                             130    0.14 9  160 218 
 SPBC HE ES        130 32.03                             130    0.37 9  160 218 
 SPBC HZ I         130 36.84         4.4 0.18            131            160 218 
 OCA  HZ EP        130  9.34                             130   -0.43 9  161 354 
 OCA  HN ES        130 31.94                             130   -0.01 9  161 354 
 OCA  HZ I         130 36.46         7.3 0.26            132            161 354 
 CHI  HZ EP        130 19.17                             117    0.32 8  247 195 
 CHI  HN ES        130 47.95                             117   -0.17 8  247 195 
 CHI  HZ I         130 54.71         1.6 0.38            119            247 195 
                                                                                
