 2012  924 0043  3.1 L   7.355 -73.193135.5  RSN  6 0.3 1.6LRSN                1
 GAP=177        0.62       7.3     3.8  7.5 -0.6545E+01  0.1085E+02 -0.1989E+02E
 Epicentro: RIONEGRO - SANTANDER                                               3
 ACTION:UPD 12-10-22 14:20 OP:ep   STATUS:               ID:20120924004303 L   I
 2012-09-24-0040-00M.COL___221                                                 6
 STAT SP IPHASW D HRMM SECON CODA AMPLIT PERI AZIMU VELO AIN AR TRES W  DIS CAZ7
 GIR2 SZ EP   1    043 21.56                             166    0.01 7 30.5 180 
 GIR2 SZ ES   1    043 35.98                             166    0.06 7 30.5 180 
 PAM  SZ EP   1    043 23.11                             157    0.13 7 54.5  92 
 PAM  SN ES   1    043 38.11                             157   -0.35 7 54.5  92 
 PAM  SZ I         043 39.06         6.8 0.14                          54.5  92 
 BRR  HZ EP        043 22.68                             153   -0.0410 63.5 245 
 BRR  HZ I         043 22.92         8.2 0.54                          63.5 245 
 BRR  HN ES   1    043 38.02                             153    0.00 7 63.5 245 
 BAR2 SZ ES   1    043 41.35                             146    0.45 7 84.3 179 
 BAR2 SZ I         043 42.21        11.7 0.56                          84.3 179 
 PTB  HN ES   1    043 52.21                             126   -0.62 7  166 237 
 ZAR  HE ES   1    043 56.44                             123    0.35 7  184 275 
                                                                                
