 2017 1124 0153 58.6 L   6.804 -73.138140.2  RSN 14 0.7 1.8LRSN                1
 GAP=137        1.58       3.9     6.2  8.1 -0.7348E+01  0.1828E+02 -0.6890E+00E
 Epicentro: LOS SANTOS - SANTANDER                                             3
 ACTION:UPD 17-12-12 19:59 OP:rebc STATUS:               ID:20171124015358 L   I
 OLDACT:REG 17-11-24 12:37 OP:osc  STATUS:               ID:20171124014742     3
 2017-11-24-0148-00M.COL___492                                                 6
 STAT SP IPHASW D HRMM SECON CODA AMPLIT PERI AZIMU VELO AIN AR TRES W  DIS CAZ7
 BAR2 EZ EP        154 17.44                             170   -0.1810 23.9 192 
 BAR2 EZ ES        154 32.48                             170    0.0610 23.9 192 
 BAR2 EZ I         154 33.75        26.9 0.22            168           23.9 192 
 PAM  EZ EP        154 20.35                             150    0.1310 76.5  39 
 PAM  EN ES        154 37.47                             150    0.4310 76.5  39 
 PAM  EZ I         154 37.91         7.3 0.36            154           76.5  39 
 RUS  HZ EP        154 21.47                             142   -0.4110  101 177 
 RUS  HN ES        154 39.89                             142   -0.1210  101 177 
 RUS  HZ I         154 41.04        12.4 0.30            144            101 177 
 PTB  HZ EP        154 24.64                             130   -0.61 9  149 259 
 PTB  HE ES        154 45.11                             130   -0.90 9  149 259 
 PTB  HZ I         154 48.72         5.6 0.15            130            149 259 
 OCA  HZ EP        154 26.13                             128   -0.37 9  160 353 
 OCA  HN ES        154 47.79                             128   -0.43 9  160 353 
 OCA  HZ I         154 49.62        22.5 0.42            130            160 353 
 SPBC HZ EP        154 26.80                             127   -0.01 9  164 219 
 SPBC HN ES        154 48.57                             127   -0.21 9  164 219 
 SPBC HZ I         154 50.91         8.0 0.32            128            164 219 
 ZAR  HZ EP        154 30.86                             121    0.06 9  205 292 
 ZAR  HE ES        154 57.09                             121    1.21 9  205 292 
 ZAR  HZ I         155  4.25         9.9 0.50            121            205 292 
 NOR  HZ EP        154 34.21                             117    0.05 8  236 234 
 NOR  HE ES        155  1.53                             117   -0.34 8  236 234 
 NOR  HZ I         155  4.26         3.2 0.16            118            236 234 
 CHI  HZ EP        154 35.66                             116   -0.46 8  249 195 
 CHI  HE ES        155  7.22                             116    1.88 8  249 195 
 CHI  HZ I         155 15.17         1.8 0.30            117            249 195 
 HEL  HZ EP        154 39.69                             113    1.00 8  273 256 
 HEL  HN ES   4    155 13.25                             113    3.33 0  273 256 
 HEL  HZ I         155 18.13         3.8 0.26            114            273 256 
 DRL03HZ EP        154 39.46                             112   -0.50 7  289 353 
 DRL03HE ES        155 12.78                             112    0.60 7  289 353 
 GUY2CHZ EP        154 43.47                             111    1.36 7  302 235 
 GUY2CHE ES        155 15.67                             111   -0.35 7  302 235 
 GUY2CHZ I         155 25.10         2.9 0.70                           302 235 
 PRA  HZ EP        154 50.66                             105   -1.42 6  393 210 
 PRA  HE ES        155 34.92                             105    1.17 6  393 210 
 ORTC HZ EP        154 52.75                             105    0.27 6  396 216 
 ORTC HN ES        155 32.96                             105   -1.52 6  396 216 
                                                                                
