 2015  724 0829 12.3 L   6.864 -73.143138.0  RSN  6 0.6 1.7LRSN                1
 GAP=134        1.47       5.3     8.4 11.0  0.6235E+01  0.3655E+02 -0.1401E+02E
 Epicentro: LOS SANTOS - SANTANDER                                             3
 ACTION:UPD 15-09-08 21:50 OP:cam  STATUS:               ID:20150724082912 L   I
 OLDACT:REG 15-07-24 12:46 OP:stll STATUS:               ID:20150724082749     3
 2015-07-24-0827-49M.COL___340                                                 6
 STAT SP IPHASW D HRMM SECON CODA AMPLIT PERI AZIMU VELO AIN AR TRES W  DIS CAZ7
 BAR2 EZ EP        829 30.97                             167   -0.2110 30.4 188 
 BAR2 EZ ES        829 45.77                             167   -0.1310 30.4 188 
 BAR2 EZ I         829 46.67         6.4 0.32            167           30.4 188 
 PAM  EZ EP        829 33.89                             151    0.5210 71.8  43 
 PAM  EZ I         829 34.04        13.0 0.16            155           71.8  43 
 PAM  EN ES        829 50.36                             151    0.5610 71.8  43 
 RUS  HZ EP        829 35.34                             140   -0.5110  108 176 
 RUS  HN ES        829 53.96                             140   -0.2510  108 176 
 OCA  HZ EP        829 39.56                             129    0.20 9  153 353 
 OCA  HN ES        830  0.31                             129   -0.15 9  153 353 
 OCA  HZ I         830  3.94         9.6 0.22            129            153 353 
 ZAR  HZ EP        829 45.04                             121    1.02 9  202 290 
 ZAR  HN ES        830  9.30                             121    0.54 9  202 290 
 ZAR  HZ I         830 17.38         4.1 0.36            120            202 290 
 SML  HZ EP        829 47.55                             116   -0.27 8  237 335 
 SML  HE ES        830 13.96                             116   -1.56 8  237 335 
 SML  HZ I         830 20.34         5.8 0.10            117            237 335 
                                                                                
