 2015  524 0551  8.9 L   6.754 -73.323122.0  RSN  9 0.3 1.5LRSN                1
 GAP= 92        0.75       3.0     3.1  5.8 -0.5199E+00  0.5997E+01  0.1533E+00E
 Epicentro: ZAPATOCA - SANTANDER                                               3
 ACTION:UPD 15-09-10 22:06 OP:cam  STATUS:               ID:20150524055108 L   I
 OLDACT:REG 15-05-24 12:31 OP:spq  STATUS:               ID:20150524054748     3
 2015-05-24-0547-48M.COL___291                                                 6
 STAT SP IPHASW D HRMM SECON CODA AMPLIT PERI AZIMU VELO AIN AR TRES W  DIS CAZ7
 BAR2 EZ EP        551 25.36                             168   -0.3710 23.7 139 
 BAR2 EZ ES   1    551 38.79                             168   -0.03 7 23.7 139 
 BAR2 EZ I         551 39.70        26.1 0.30            169           23.7 139 
 BRR  HZ EP     D  551 26.24                             153   -0.5410 58.1 312 
 BRR  HN ES        551 40.67                             153   -0.0210 58.1 312 
 BRR  HZ I         551 41.38         8.0 0.14            153           58.1 312 
 PAM  SZ EP        551 29.85                             140   -0.1010 94.6  47 
 PAM  SN ES        551 46.65                             140    0.3110 94.6  47 
 PAM  SZ I         551 49.50         5.1 0.30            142           94.6  47 
 RUS  HZ EP   1    551 30.11                             139   -0.18 7 98.8 164 
 RUS  HE ES   1    551 47.21                             139    0.26 7 98.8 164 
 RUS  HZ I         551 49.25         2.6 0.28            139           98.8 164 
 SPBC HN ES   1    551 54.25                             126    0.45 7  147 214 
 SPBC HZ I         551 58.64         4.9 0.20            126            147 214 
 OCA  HN ES   1    551 57.42                             123    0.45 7  164   0 
 OCA  HZ I         552  0.38         8.3 0.46            124            164   0 
 ZAR  HZ EP   1    551 38.29                             119    0.04 7  188 296 
 ZAR  HN ES        552  1.12                             119    0.01 9  188 296 
 ZAR  HZ I         552  4.29         4.0 0.31            120            188 296 
 HEL  HZ EP   1    551 46.55                             112    0.81 6  252 256 
 HEL  HN ES   1    552 14.31                             112   -0.14 6  252 256 
 HEL  HZ I         552 19.11         2.7 0.42            112            252 256 
 MON  HZ EP   4    551 53.34                             105   -2.39 0  342 311 
 MON  HE ES   4    552 29.88                             105   -2.35 0  342 311 
 MON  HZ I         552 30.23         0.6 0.20            105            342 311 
                                                                                
