 2016  724 0452 20.6 L   6.708 -73.138148.4  RSN  4 0.3 1.2LRSN                1
 GAP=231        0.68       4.0     6.4  5.8  0.3511E+01  0.7230E+01  0.2196E+01E
 Epicentro: JORDAN - SANTANDER                                                 3
 ACTION:UPD 17-03-29 16:54 OP:lp   STATUS:               ID:20160724045220 L   I
 OLDACT:DUP 16-07-24 17:10 OP:ar   STATUS:               ID:20160724044760d    3
 2016-07-24-0447-59S.COL___337                                                 6
 STAT SP IPHASW D HRMM SECON CODA AMPLIT PERI AZIMU VELO AIN AR TRES W  DIS CAZ7
 BAR2 EZ EP        452 40.65                             175    0.2910 13.8 201 
 BAR2 EZ ES        452 55.47                             175   -0.3310 13.8 201 
 BRR  HZ EP        452 42.25                             151   -0.0910 77.3 305 
 BRR  HZ I         452 58.37         4.3 0.66            138           77.3 305 
 BRR  HN ES        452 59.48                             151    0.1410 77.3 305 
 RUS  HZ EP   2    452 43.03                             147   -0.84 5 90.4 176 
 RUS  HN ES        453  2.30                             147    0.2410 90.4 176 
 RUS  HZ I         453  3.16         1.9 0.26            143           90.4 176 
 SPBC HZ EP        452 48.67                             131    0.07 9  156 222 
 SPBC HN ES        453 10.35                             131   -0.12 9  156 222 
 SPBC HZ I         453 18.01         2.1 0.50            122            156 222 
                                                                                
