 2012  424 0744 21.1 L   6.823 -73.133145.2  RSN 10 0.4 1.8LRSN                1
 GAP=137        0.98       4.1     5.2  8.3 -0.1993E+01  0.1069E+02  0.2924E+01E
 Epicentro: LOS SANTOS - SANTANDER                                             3
 ACTION:UPD 12-07-05 11:55 OP:tino STATUS:               ID:20120424074421 L   I
 2012-04-24-0740-00M.COL___186                                                 6
 STAT SP IPHASW D HRMM SECON CODA AMPLIT PERI AZIMU VELO AIN AR TRES W  DIS CAZ7
 BAR2 SZ EP   1    744 40.85                             169     0.2 7   26 192 
 BAR2 SZ I         744 41.21        12.7 0.12                            26 192 
 BAR2 SZ ES   1    744 55.51                             169    -0.5 7   26 192 
 BRR  HZ EP   1    744 42.53                             152     0.4 7   71 296 
 BRR  HN ES   1    744 59.47                             152     0.8 7   71 296 
 BRR  HZ I         745  3.49        24.2 0.13                            71 296 
 PAM  SZ EP   1    744 43.36                             152     0.3 7   75  40 
 PAM  SZ I         744 43.64        20.0 0.15                            75  40 
 PAM  SN ES   1    745  0.23                             152     0.0 7   75  40 
 RUS  HZ EP   1    744 44.98                             143     0.0 7  103 177 
 RUS  HN ES   1    745  3.45                             143    -0.1 7  103 177 
 RUS  HZ I         745  5.65         6.7 0.25                           103 177 
 PTB  HZ EP   1    744 47.28                             131    -0.9 7  150 258 
 PTB  HN ES   1    745  8.69                             131    -0.6 7  150 258 
 PTB  HZ I         745 10.54         6.0 0.15                           150 258 
 OCA  SZ EP   1    744 48.94                             130    -0.2 7  158 353 
 OCA  SZ ES   1    745 10.69                             130    -0.3 7  158 353 
 ZAR  HN ES   1    745 19.01                             122     0.2 6  204 291 
 CHI  HN ES   1    745 28.95                             117     0.3 6  251 195 
 CHI  HZ I         745 33.23         1.7 0.25                           251 195 
 HEL  HN ES   1    745 33.23                             114     0.2 6  274 255 
 HEL  HZ I         745 39.53         3.3 0.39                           274 255 
 PRA  HN ES   1    745 57.44                             106     0.5 4  395 210 
                                                                                
