 2014  524 0804 46.2 L   6.817 -73.182146.3  RSN  6 0.4 1.5LRSN                1
 GAP=131        1.10       4.8     5.8  7.8  0.3408E+01  0.3697E+01 -0.7944E+01E
 Epicentro: ZAPATOCA - SANTANDER                                               3
 ACTION:UPD 15-03-16 17:00 OP:nd   STATUS:               ID:20140524080446 L   I
 OLDACT:UP  14-05-24 14:25 OP:cam  STATUS:               ID:20140524080000     3
 OLDACT:REG 14-05-24 12:57 OP:ca   STATUS:               ID:20140524080000     3
 2014-05-24-0800-00M.COL___276                                                 6
 STAT SP IPHASW D HRMM SECON CODA AMPLIT PERI AZIMU VELO AIN AR TRES W  DIS CAZ7
 BAR2 SZ EP        8 5  6.02                             170    0.0610 24.8 180 
 BAR2 SZ ES        8 5 20.92                             170   -0.4310 24.8 180 
 BAR2 SZ I         8 5 22.23        10.1 0.40            172           24.8 180 
 BRR  HZ EP     C  8 5  7.71                             154    0.5110 66.8 299 
 BRR  HN ES        8 5 24.47                             154    0.9110 66.8 299 
 BRR  HZ I         8 5 28.44         5.8 0.18            153           66.8 299 
 PAM  SZ EP        8 5  8.87                             150    0.2910 78.6  43 
 PAM  SN ES   1    8 5 25.48                             150   -0.53 7 78.6  43 
 PAM  SZ I         8 5 28.21         4.5 0.46            153           78.6  43 
 RUS  HZ EP        8 5 10.15                             143   -0.0510  103 174 
 RUS  HN ES        8 5 28.89                             143    0.0010  103 174 
 RUS  HZ I         8 5 30.31         1.7 0.32            147            103 174 
 PTB  HZ EP        8 5 12.66                             133   -0.27 9  144 258 
 PTB  HE ES        8 5 33.26                             133   -0.49 9  144 258 
 PTB  HZ I         8 5 38.01         2.7 0.10            134            144 258 
 SML  HZ EP   1    8 5 22.61                             118    0.08 6  240 336 
 SML  HN ES        8 5 50.27                             118   -0.57 8  240 336 
 SML  HZ I         8 5 54.43         4.7 0.10            120            240 336 
                                                                                
