 2017  924 0043 22.5 L   6.765 -73.102142.0  RSN  4 0.2 1.6LRSN                1
 GAP=144        0.51       2.6     2.8  4.6  0.1592E+01  0.3012E+01  0.6274E+00E
 Epicentro: LOS SANTOS - SANTANDER                                             3
 ACTION:UPD 17-10-05 19:15 OP:rebc STATUS:               ID:20170924004322 L   I
 OLDACT:UP  17-09-24 14:27 OP:leo  STATUS:               ID:20170924003742     3
 OLDACT:REG 17-09-24 13:22 OP:leo  STATUS:               ID:20170924003742     3
 2017-09-24-0038-00M.COL___420                                                 6
 STAT SP IPHASW D HRMM SECON CODA AMPLIT PERI AZIMU VELO AIN AR TRES W  DIS CAZ7
 BRR  HZ EP        043 43.37                             150   -0.2610 77.3 299 
 BRR  HN ES        044  0.24                             150    0.1510 77.3 299 
 BRR  HZ I         044  4.37        10.2 0.12            150           77.3 299 
 PAM  EZ EP        043 44.49                             150    0.1410 77.5  35 
 PAM  EN ES        044  1.32                             150   -0.0610 77.5  35 
 PAM  EZ I         044  2.86         5.8 0.20            153           77.5  35 
 RUS  HZ EP        043 45.46                             144   -0.1610 96.5 179 
 RUS  HN ES        044  3.73                             144    0.1110 96.5 179 
 RUS  HZ I         044  4.77         3.4 0.26            148           96.5 179 
 ZAR  HZ EP   1    043 55.77                             121    0.42 6  210 293 
 ZAR  HE ES        044 20.82                             121   -0.12 8  210 293 
 ZAR  HZ I         044 23.02         5.1 0.10            123            210 293 
                                                                                
