 2017 1024 0229 24.0 L   6.651 -74.071  4.0  RSN  9 0.7 1.6LRSN                1
 GAP= 81        1.69       3.1     2.7  7.6 -0.1639E+01  0.6310E+00  0.3097E+01E
 Epicentro: PUERTO PARRA - SANTANDER                                           3
 ACTION:UPD 17-11-07 19:35 OP:rebc STATUS:               ID:20171024022924 L   I
 OLDACT:REG 17-10-24 12:32 OP:dani STATUS:               ID:20171024022743     3
 2017-10-24-0228-00M.COL___437                                                 6
 STAT SP IPHASW D HRMM SECON CODA AMPLIT PERI AZIMU VELO AIN AR TRES W  DIS CAZ7
 PTB  HZ EP     D  229 31.21                              47   -0.1610 44.4 254 
 PTB  HN ES        229 37.18                              47    0.0910 44.4 254 
 PTB  HZ I         229 37.37        18.8 0.26             47           44.4 254 
 BRR  HZ EP        229 34.32                              47   -0.0310 64.2  38 
 BRR  HN ES        229 42.59                              47    0.1910 64.2  38 
 BRR  HZ I         229 43.33        30.3 0.10             47           64.2  38 
 BAR2 EZ EP        229 39.74                              47   -0.0510 98.4  94 
 BAR2 EZ ES        229 51.51                              47   -0.5710 98.4  94 
 BAR2 EZ I         229 57.86        10.9 0.50             47           98.4  94 
 SPBC HZ EP        229 42.29                              47    0.8410  110 180 
 SPBC HN ES        229 56.05                              47    1.0110  110 180 
 SPBC HZ I         229 57.75         6.0 0.22             47            110 180 
 ZAR  HZ EP        229 44.07                              47    0.1310  127 317 
 ZAR  HN ES        229 59.15                              47   -0.3110  127 317 
 ZAR  HZ I         230  0.39        10.9 0.09             47            127 317 
 RUS  HZ EP        229 46.41                              47    0.40 9  138 127 
 RUS  HE ES        230  2.18                              47   -0.96 9  138 127 
 RUS  HZ I         230  6.37        17.5 0.25             47            138 127 
 NOR  HE ES        230  3.85                              47   -1.58 9  149 216 
 PAM  EZ EP        229 50.41                              47   -0.42 9  170  63 
 PAM  EN ES        230 12.29                              47    0.56 9  170  63 
 PAM  EZ I         230 13.57        13.7 0.48             47            170  63 
 GUY2CHZ EP        229 57.61                              37    1.11 8  213 222 
 GUY2CHN ES        230 21.66                              37   -0.17 8  213 222 
 GUY2CHZ I         230 25.27         4.3 0.51                           213 222 
                                                                                
