 2016  924 0305  0.1 L   6.779 -73.141148.9  RSN 22 0.4 2.4LRSN                1
 GAP= 66        0.96       2.6     2.6  4.4 -0.7909E+00  0.8361E+00  0.1407E+01E
 Epicentro: LOS SANTOS - SANTANDER                                             3
 ACTION:UPD 17-08-17 21:15 OP:lp   STATUS:               ID:20160924030500 L   I
 OLDACT:UP  16-09-24 16:50 OP:and  STATUS:               ID:20160924025740     3
 OLDACT:UP  16-09-24 16:48 OP:and  STATUS:               ID:20160924025740     3
 OLDACT:UP  16-09-24 16:45 OP:and  STATUS:               ID:20160924025740     3
 OLDACT:UP  16-09-24 16:41 OP:and  STATUS:               ID:20160924025740     3
 OLDACT:UP  16-09-24 16:38 OP:and  STATUS:               ID:20160924025740     3
 OLDACT:UP  16-09-24 16:36 OP:and  STATUS:               ID:20160924025740     3
 OLDACT:UP  16-09-24 16:34 OP:and  STATUS:               ID:20160924025740     3
 OLDACT:REG 16-09-24 12:28 OP:and  STATUS:               ID:20160924025740     3
 2016-09-24-0258-00M.COL___330                                                 6
 STAT SP IPHASW D HRMM SECON CODA AMPLIT PERI AZIMU VELO AIN AR TRES W  DIS CAZ7
 BAR2 EZ IP        3 5 20.01                             171   -0.1010 21.2 192 
 BAR2 EZ ES        3 5 35.30                             171   -0.3810 21.2 192 
 BAR2 EZ I         3 5 37.87        73.7 0.30            170           21.2 192 
 BRR  HZ IP     C  3 5 21.92                             153    0.2010 72.7 300 
 BRR  HE ES        3 5 39.36                             153    0.8210 72.7 300 
 BRR  HZ I         3 5 43.23        56.5 0.20            150           72.7 300 
 PAM  EZ IP        3 5 22.86                             151    0.0810 78.9  38 
 PAM  EE ES        3 5 40.12                             151   -0.3110 78.9  38 
 PAM  EZ I         3 5 42.31        38.0 0.16            149           78.9  38 
 RUS  HZ EP        3 5 23.89                             145   -0.1510 98.3 176 
 RUS  HN ES        3 5 42.86                             145    0.1810 98.3 176 
 RUS  HZ I         3 5 43.88        25.5 0.28            143           98.3 176 
 PTB  HZ EP        3 5 26.90                             133   -0.47 9  148 260 
 PTB  HN ES        3 5 47.90                             133   -0.71 9  148 260 
 PTB  HZ I         3 5 51.14        25.6 0.16            130            148 260 
 TAM  HZ IP     D  3 5 28.21                             132    0.23 9  154 104 
 TAM  HZ I         3 5 49.12        21.5 0.32            129            154 104 
 TAM  HE ES        3 5 49.97                             132    0.29 9  154 104 
 SPBC HZ IP     D  3 5 28.92                             130    0.17 9  162 220 
 SPBC HN ES        3 5 51.18                             130    0.12 9  162 220 
 SPBC HZ I         3 5 57.94        57.7 0.27            127            162 220 
 OCA  HZ EP        3 5 28.57                             130   -0.35 9  163 353 
 OCA  HE ES        3 5 51.28                             130   -0.08 9  163 353 
 OCA  HZ I         3 5 59.94        55.2 0.20            127            163 353 
 ZAR  HZ EP        3 5 33.94                             123    1.01 8  205 293 
 ZAR  HE ES        3 5 58.38                             123   -0.12 8  205 293 
 ZAR  HZ I         3 6  3.54        22.3 0.26            120            205 293 
 NOR  HZ EP        3 5 35.85                             119   -0.11 8  234 235 
 NOR  HE ES        3 6  3.79                             119   -0.10 8  234 235 
 NOR  HZ I         3 6  8.17        29.6 0.20            117            234 235 
 CHI  HZ EP        3 5 38.08                             118    0.29 8  247 195 
 CHI  HN ES        3 6  7.46                             118    0.30 8  247 195 
 CHI  HZ I         3 6 11.38        13.2 0.34            116            247 195 
 ROSC BZ EP   9    3 5 40.14                             118    1.89 0  251 211 
 ROSC BN ES        3 6 10.51                                    0.65 8  251 211 
 ROSC BZ I         3 6 16.12        37.1 0.55            115            251 211 
 HEL  HZ EP   9    3 5 41.96                             115    1.45 0  272 256 
 HEL  HE ES        3 6 13.89                                    0.45 8  272 256 
 HEL  HZ I         3 6 18.37        15.1 0.32            113            272 256 
 GUY2CHZ IP   9 C  3 5 45.23                             113    1.43 0  300 235 
 GUY2CHN ES        3 6 19.36                                    0.08 7  300 235 
 GUY2CHZ I         3 6 26.58        17.9 0.28                           300 235 
 PTGC HZ IP     D  3 5 42.86                             112   -1.02 7  306 159 
 PTGC HE ES   4    3 6 16.67                             112   -1.33 0  306 159 
 ELA  HZ EP   4    3 5 49.44                             111    2.44 0  328 230 
 ELA  HN ES   4    3 6 24.88                             111    1.33 0  328 230 
 ELA  HZ I         3 6 31.75        12.1 0.36            109            328 230 
 CBOC HZ EP   2    3 5 47.80                             110    0.64 3  333 252 
 CBOC HN ES        3 6 23.54                             110   -0.30 7  333 252 
 CBOC HZ I         3 6 38.33         4.2 0.38            108            333 252 
 ANIL HZ EP   9    3 5 53.96                             109    4.04 0  356 225 
 ANIL HE ES        3 6 32.43                                   -0.35 6  356 225 
 ARGC HZ EP   9    3 5 51.54                             109    1.35 0  362 340 
 ARGC HN ES        3 6 30.45                                   -0.12 6  362 340 
 ARGC HZ I         3 6 34.93         5.1 0.26            107            362 340 
 PAL  HZ EP        3 5 55.46                             106    0.14 6  405 239 
 PAL  HN ES   4    3 6 40.82                             106    2.46 0  405 239 
 SJC  HZ IP   4 C  3 5 54.21                             106   -1.86 0  411 327 
 SJC  HN ES   4    3 6 35.53                             106   -4.15 0  411 327 
 SJC  HZ I         3 6 41.38         4.3 0.36            104            411 327 
 CRJC HZ EP   9    3 6  0.26                             104   -2.74 0  470   3 
 CRJC HE ES        3 6 49.23                                   -0.06 5  470   3 
 CRJC HZ I         3 6 52.57         8.6 0.28            102            470   3 
 SMAR HZ EP   4    3 6  5.32                             103   -1.06 0  499 346 
 SMAR HE ES   4    3 6 53.58                             103   -4.46 0  499 346 
 URI  HZ EP   4    3 6 10.42                             101   -3.05 0  559  13 
                                                                                
