 2017  424 0004  7.7 L   6.800 -73.157144.2  RSN 13 0.5 1.9LRSN                1
 GAP=111        1.35       4.4     4.4  7.5  0.2831E+00  0.5392E+01  0.9363E+01E
 Epicentro: LOS SANTOS - SANTANDER                                             3
 ACTION:UPD 17-05-30 21:15 OP:jn   STATUS:               ID:20170424000407 L   I
 OLDACT:UP  17-04-24 13:19 OP:dani STATUS:               ID:20170423235959     3
 OLDACT:UP  17-04-24 13:17 OP:dani STATUS:               ID:20170423235959     3
 OLDACT:UP  17-04-24 13:17 OP:dani STATUS:               ID:20170423235959     3
 OLDACT:UP  17-04-24 13:17 OP:dani STATUS:               ID:20170423235959     3
 OLDACT:UP  17-04-24 13:15 OP:dani STATUS:               ID:20170423235959     3
 OLDACT:REG 17-04-24 12:07 OP:dani STATUS:               ID:20170423235959     3
 2017-04-24-0000-15M.COL___365                                                 6
 STAT SP IPHASW D HRMM SECON CODA AMPLIT PERI AZIMU VELO AIN AR TRES W  DIS CAZ7
 BAR2 EZ EP        0 4 27.10                             170   -0.0610 23.1 187 
 BAR2 EZ ES        0 4 42.20                             170   -0.1210 23.1 187 
 BAR2 EZ I         0 4 44.00        15.9 0.28            169           23.1 187 
 BRR  HZ EP        0 4 28.77                             153    0.1310 70.1 299 
 BRR  HN ES        0 4 45.68                             153    0.7210 70.1 299 
 BRR  HZ I         0 4 50.68        11.7 0.16            152           70.1 299 
 PAM  EZ EP        0 4 29.88                             151    0.0610 78.2  40 
 PAM  EN ES        0 4 46.86                             151   -0.2010 78.2  40 
 PAM  EZ I         0 4 49.08        16.8 0.48            155           78.2  40 
 PTB  HZ EP        0 4 33.41                             132   -1.05 9  147 259 
 PTB  HN ES        0 4 54.53                             132   -0.77 9  147 259 
 PTB  HZ I         0 5  1.65         6.9 0.52            133            147 259 
 SPBC HZ EP        0 4 36.06                             129    0.03 9  162 219 
 SPBC HN ES        0 4 57.66                             129   -0.45 9  162 219 
 SPBC HZ I         0 5  1.94        12.8 0.10            130            162 219 
 YPLC HZ EP        0 4 37.37                             126   -0.10 9  177 151 
 YPLC HN ES        0 5  1.32                             126    0.66 9  177 151 
 YPLC HZ I         0 5  2.29        10.7 0.30            129            177 151 
 ZAR  HZ EP        0 4 40.82                             122    0.87 9  203 292 
 ZAR  HN ES        0 5  4.57                             122   -0.51 9  203 292 
 ZAR  HZ I         0 5 12.12         4.8 0.07            124            203 292 
 NOR  HN ES        0 5 11.77                             118    0.80 8  234 234 
 CHI  HZ EP        0 4 45.23                             117   -0.07 8  248 195 
 CHI  HN ES        0 5 14.13                             117   -0.48 8  248 195 
 CHI  HZ I         0 5 18.16         4.1 0.64            119            248 195 
 ROSC BZ EP   9    0 4 46.70                             116    1.01 0  252 211 
 ROSC BN ES        0 5 17.52                                    1.21 8  252 211 
 ROSC BZ I         0 5 21.73         4.9 0.62            118            252 211 
 HEL  HN ES        0 5 19.69                             115    0.77 8  271 256 
 PTGC HZ EP   9    0 4 50.03                             111   -1.54 0  309 158 
 PTGC HN ES        0 5 23.71                             111   -0.51 7  309 158 
 PTGC HZ I         0 5 25.49         6.3 0.35            114            309 158 
 PRA  HZ EP        0 5  0.90                             106   -0.22 6  391 209 
 PRA  HE ES        0 5 43.26                             106    0.49 6  391 209 
 PRA  HZ I         0 5 46.96         2.5 0.32            108            391 209 
                                                                                
