 2011 1224 0900 33.1 L   6.197 -73.415127.0  RSN  5 0.1 1.2LRSN                1
 GAP=156        0.37       4.1     4.1  4.2  0.6969E+01  0.1699E+01 -0.1036E+01E
 Epicentro: GUADALUPE - SANTANDER                                              3
 ACTION:UPD 12-07-13 16:18 OP:ep   STATUS:               ID:20111224090033 L   I
 2011-12-24-0900-00M.COL___189                                                 6
 STAT SP IPHASW D HRMM SECON CODA AMPLIT PERI AZIMU VELO AIN AR TRES W  DIS CAZ7
 RUS  HZ EP   2    9 0 51.93                             158    0.17 5 49.8 133 
 RUS  HE ES   2    9 1  6.37                             158    0.04 5 49.8 133 
 BAR2 SZ EP   1    9 0 51.42                             157   -0.01 8 50.7  31 
 BAR2 SZ ES   1    9 1  5.60                             157   -0.14 8 50.7  31 
 BAR2 SZ I         9 1  7.17         4.0 0.19                          50.7  31 
 GIR2 SZ EP        9 0 54.64                             139    0.1110  101  14 
 BRR  HZ EP        9 0 54.58                             138   -0.1910  106 342 
 BRR  HZ I         9 0 54.93         3.2 0.09                           106 342 
 BRR  HE ES   1    9 1 11.86                             138    0.17 7  106 342 
 PTB  HN ES   2    9 1 14.11                             133    0.03 5  121 288 
                                                                                
