 2015  424 0630 46.1 L   6.396 -73.249  7.9  RSN  6 0.4 1.3LRSN                1
 GAP=132        0.94       1.9     2.5  6.3 -0.1528E+01  0.2648E+01 -0.3017E+01E
 Epicentro: CONFINES - SANTANDER                                               3
 ACTION:UPD 15-06-03 16:57 OP:cam  STATUS:               ID:20150424063046 L   I
 OLDACT:REG 15-04-24 12:31 OP:mh   STATUS:               ID:20150424062747     3
 2015-04-24-0627-47M.COL___260                                                 6
 STAT SP IPHASW D HRMM SECON CODA AMPLIT PERI AZIMU VELO AIN AR TRES W  DIS CAZ7
 BAR2 EZ EP   1    630 50.94                             101    0.42 7 22.9  19 
 BAR2 EZ ES        630 54.22                             101    0.2910 22.9  19 
 BAR2 EZ I         630 55.60        39.4 0.15            118           22.9  19 
 RUS  HZ EP        630 56.17                              94    0.0110 58.7 162 
 RUS  HN ES        631  3.84                              94   -0.1310 58.7 162 
 RUS  HZ I         631  4.91         6.9 0.36             99           58.7 162 
 PAM  SZ EP        631  5.65                              92    0.1110  121  30 
 PAM  SN ES        631 20.21                              92   -0.4610  121  30 
 PAM  SZ I         631 20.98         5.7 0.14             94            121  30 
 SPBC HE ES        631 20.98                              92    0.4710  123 228 
 SPBC HZ I         631 25.90         6.3 0.12             94            123 228 
 PTB  HZ EP        631  6.82                              91   -0.3310  135 277 
 PTB  HN ES        631 23.24                              91   -0.2810  135 277 
 PTB  HZ I         631 23.31         8.4 0.14             94            135 277 
 OCA  HZ EP   1    631 15.85                              56   -0.89 6  204 358 
 OCA  HN ES        631 41.16                              56    0.55 9  204 358 
                                                                                
