 2015  224 0337 12.3 L   6.873 -73.179146.7  RSN  5 0.4 1.4LRSN                1
 GAP=279        0.95       6.8     6.4  7.7  0.7622E+01  0.8236E+01  0.5504E+01E
 Epicentro: ZAPATOCA - SANTANDER                                               3
 ACTION:UPD 15-04-30 21:28 OP:nd   STATUS:               ID:20150224033712 L   I
 OLDACT:REG 15-02-24 13:22 OP:mh   STATUS:               ID:20150224032739     3
 2015-02-24-0327-39M.COL___278                                                 6
 STAT SP IPHASW D HRMM SECON CODA AMPLIT PERI AZIMU VELO AIN AR TRES W  DIS CAZ7
 BAR2 EZ EP   1    337 32.93                             167    0.70 7 31.1 181 
 BAR2 EZ ES        337 47.42                             167   -0.3510 31.1 181 
 BAR2 EZ I         337 49.86         6.6 0.20            166           31.1 181 
 RUS  HZ EP        337 37.22                             142    0.4510  109 174 
 RUS  HN ES        337 55.68                             142   -0.1610  109 174 
 PTB  HZ EP        337 38.77                             132   -0.42 9  146 255 
 PTB  HN ES        338  0.37                             132    0.22 9  146 255 
 PTB  HZ I         338  4.20         2.5 0.24            132            146 255 
 SPBC HZ EP   4    337 39.96                             128   -1.31 0  167 216 
 SPBC HN ES        338  4.03                             128    0.17 9  167 216 
 SPBC HZ I         338  6.24         5.6 0.16            128            167 216 
 CHI  HZ EP        337 50.15                             116   -0.66 8  256 194 
 CHI  HN ES        338 21.01                             116    0.17 8  256 194 
 CHI  HZ I         338 24.25         1.0 0.36            117            256 194 
 GUY2CHZ EP   4    337 58.44                             112    2.28 0  303 233 
 GUY2CHN ES   4    338 33.02                             112    2.66 0  303 233 
                                                                                
