 2012 1124 0730 36.9 L   7.420 -73.179139.0  RSN  8 0.3 1.6LRSN                1
 GAP=109        0.63       2.9     4.0  7.7  0.2164E+01  0.1107E+02  0.6115E-01E
 Epicentro: EL PLAYON - SANTANDER                                              3
 ACTION:UPD 12-12-05 15:35 OP:}ep  STATUS:               ID:20121124073036 L   I
 2012-11-24-0730-00M.COL___233                                                 6
 STAT SP IPHASW D HRMM SECON CODA AMPLIT PERI AZIMU VELO AIN AR TRES W  DIS CAZ7
 GIR2 SZ EP   1    730 56.17                             164    0.17 7 37.7 182 
 GIR2 SZ I         731 11.75         5.4 0.36                          37.7 182 
 PAM  SZ EP   1    730 57.34                             158    0.19 7 53.7  99 
 PAM  SE ES   1    731 13.28                             158    0.37 7 53.7  99 
 PAM  SZ I         731 26.20         3.1 0.48                          53.7  99 
 BAR2 SZ EP   1    730 59.12                             145    0.11 7 91.5 180 
 BAR2 SZ ES   1    731 16.10                             145   -0.12 7 91.5 180 
 BAR2 SZ I         731 17.31        10.8 0.28                          91.5 180 
 OCA  HN ES   1    731 15.89                             145   -0.17 7 91.9 350 
 RUS  HN ES   1    731 28.02                             127   -0.72 7  169 176 
 PTB  HN ES   1    731 28.29                             126    0.27 7  171 235 
 PTB  HZ I         731 33.40         5.2 0.16                           171 235 
 SML  HZ EP   1    731  6.67                             124    0.04 7  182 327 
 SML  HE ES   1    731 29.29                             124   -0.50 7  182 327 
 ZAR  HN ES   1    731 30.74                             124    0.23 7  186 273 
 ZAR  HZ I         731 34.94         7.0 0.33                           186 273 
                                                                                
