 2012  824 0722 18.8 L   6.777 -73.123150.1  RSN  5 0.4 1.7LRSN                1
 GAP=141        0.89       4.0     5.3  8.5  0.2622E+01  0.7487E+01 -0.3369E+01E
 Epicentro: LOS SANTOS - SANTANDER                                             3
 ACTION:UPD 12-09-10 11:58 OP:ep   STATUS:               ID:20120824072218 L   I
 2012-08-24-0720-00M.COL___218                                                 6
 STAT SP IPHASW D HRMM SECON CODA AMPLIT PERI AZIMU VELO AIN AR TRES W  DIS CAZ7
 BRR  HZ EP        722 40.67                             152    0.0910 74.7 299 
 BRR  HZ I         722 40.94         8.6 0.14                          74.7 299 
 BRR  HE ES        722 57.72                             152    0.1310 74.7 299 
 PAM  SZ EP   1    722 41.71                             151    0.24 7 77.8  37 
 PAM  SZ I         722 42.08        11.5 0.22                          77.8  37 
 PAM  SN ES        722 58.73                             151   -0.4510 77.8  37 
 RUS  HZ EP   1    722 43.00                             145    0.25 7 97.8 177 
 RUS  HN ES        723  1.48                             145    0.0210 97.8 177 
 RUS  HZ I         723  3.46         2.0 0.27                          97.8 177 
 OCA  HZ EP   1    722 46.98                             130   -0.70 7  163 352 
 OCA  HN ES        723 10.89                             130    0.65 9  163 352 
 OCA  HZ I         723 13.09        11.8 0.11                           163 352 
 ZAR  HE ES        723 17.25                             123   -0.38 8  207 293 
                                                                                
