 2010  924 0302  1.3 L   6.790 -73.085149.2  RSN  7 0.3 2.2LRSN                1
 GAP=166        0.67       3.5     6.7  5.7 -0.1200E+01  0.3467E+01  0.5133E+01E
 Epicentro: LOS SANTOS - SANTANDER                                             3
 ACTION:UP  11-02-18 11:05 OP:tino STATUS:               ID:20100924030201 L   I
 2010-09-24-0259-41S.COL___119                                                 6
 STAT SP IPHASW D HRMM SECON CODA AMPLIT PERI AZIMU VELO SNR AR TRES W  DIS CAZ7
 BAR2 SZ EP        3 2 21.47                             170     0.110   25 207 
 BAR2 SZ ES   1    3 2 36.63                             170    -0.4 7   25 207 
 BAR2 SZ I         3 2 38.23        58.3 0.27                            25 207 
 BRR  HZ IP     C  3 2 23.32                             151     0.110   78 297 
 BRR  HZ I         3 2 23.58        82.0 0.15                            78 297 
 BRR  HE ES   1    3 2 40.68                             151     0.4 7   78 297 
 RUS  HZ EP        3 2 25.38                             145     0.010   99 180 
 RUS  HE ES   2    3 2 43.81                             145    -0.2 5   99 180 
 RUS  HZ I         3 2 45.39        19.2 0.30                            99 180 
 GRA  SZ ES   2    3 2 46.76                             138     0.1 5  125  14 
 GRA  SZ I         3 2 52.65        14.0 0.80                           125  14 
 OCA  SZ EP   1    3 2 29.97                             130    -0.1 7  162 351 
 OCA  SZ ES   2    3 2 52.59                             130     0.0 5  162 351 
 OCA  SZ I         3 2 58.28        13.9 0.33                           162 351 
 NOR  SZ EP        3 2 37.38                             119    -0.4 8  240 236 
 NOR  SE ES   2    3 3  5.98                             119    -0.3 4  240 236 
 CHI  HZ EP        3 2 39.51                             118     0.2 8  249 197 
 CHI  HZ I         3 2 42.14         6.6 0.38                           249 197 
 CHI  HN ES   2    3 3  9.91                             118     1.0 4  249 197 
                                                                                
