 2014  824 0624 13.5 L   6.788 -73.156146.2  RSN  6 0.4 1.3LRSN                1
 GAP=136        0.96       4.6     4.8  6.6 -0.5471E+01  0.4226E+01  0.3213E+01E
 Epicentro: LOS SANTOS - SANTANDER                                             3
 ACTION:UPD 14-09-15 21:52 OP:nd   STATUS:               ID:20140824062413 L   I
 OLDACT:DUP 14-08-24 18:37 OP:stll STATUS:               ID:20140824061819d    3
 2014-08-24-0618-18M.COL___257                                                 6
 STAT SP IPHASW D HRMM SECON CODA AMPLIT PERI AZIMU VELO AIN AR TRES W  DIS CAZ7
 BAR2 SZ EP        624 32.80                             171   -0.4010 21.9 188 
 BAR2 SZ ES        624 48.02                             171   -0.5010 21.9 188 
 BAR2 SZ I         624 49.32         4.8 0.28            169           21.9 188 
 BRR  HZ EP        624 35.05                             153    0.3310 70.8 300 
 BRR  HN ES        624 51.87                             153    0.6410 70.8 300 
 BRR  HZ I         624 55.28         3.6 0.26            150           70.8 300 
 PAM  SZ EP        624 36.09                             150    0.1810 79.1  40 
 PAM  SZ I         624 36.33         7.2 0.18            154           79.1  40 
 PAM  SN ES        624 53.14                             150   -0.2110 79.1  40 
 RUS  HZ EP        624 37.34                             144    0.0910 99.4 175 
 RUS  HN ES        624 56.10                             144    0.3610 99.4 175 
 RUS  HZ I         624 56.88         1.5 0.26            146           99.4 175 
 PTB  HZ EP        624 39.90                             132   -0.52 9  146 259 
 PTB  HN ES        625  1.07                             132   -0.31 9  146 259 
 PTB  HZ I         625  7.81         2.8 0.74            131            146 259 
 SPBC HZ EP        624 42.14                             129    0.23 9  161 219 
 SPBC HN ES        625  4.08                             129    0.05 9  161 219 
 SPBC HZ I         625  8.94         3.1 0.42            129            161 219 
                                                                                
