 2017  224 0529 13.6 L   6.801 -73.172149.8  RSN  8 0.4 1.5LRSN                1
 GAP=117        1.02       4.5     4.5  6.3 -0.1533E+01  0.2933E+01  0.9432E+01E
 Epicentro: LOS SANTOS - SANTANDER                                             3
 ACTION:UPD 17-05-24 15:40 OP:jn   STATUS:               ID:20170224052913 L   I
 OLDACT:UP  17-02-24 15:43 OP:edw  STATUS:               ID:20170224052737     3
 OLDACT:REG 17-02-24 12:38 OP:edw  STATUS:               ID:20170224052737     3
 2017-02-24-0528-00M.COL___388                                                 6
 STAT SP IPHASW D HRMM SECON CODA AMPLIT PERI AZIMU VELO AIN AR TRES W  DIS CAZ7
 BAR2 EZ EP        529 33.36                             171   -0.4010 23.1 183 
 BAR2 EZ ES        529 49.08                             171   -0.3710 23.1 183 
 BAR2 EZ I         529 50.64        10.9 0.40            170           23.1 183 
 BRR  HZ EP     D  529 35.59                             154    0.4910 68.7 300 
 BRR  HN ES        529 52.26                             154    0.4310 68.7 300 
 BRR  HZ I         529 53.73         5.6 0.18            155           68.7 300 
 PAM  EZ IP     C  529 36.71                             151    0.3110 79.2  41 
 PAM  EN ES        529 53.89                             151   -0.2610 79.2  41 
 PAM  EZ I         529 55.92         6.5 0.48            153           79.2  41 
 RUS  HZ EP        529 37.79                             144   -0.0310  101 174 
 RUS  HN ES        529 57.18                             144    0.5010  101 174 
 RUS  HZ I         529 57.67         9.3 0.32            145            101 174 
 PTB  HZ EP        529 40.49                             133   -0.21 9  145 259 
 PTB  HN ES        530  1.23                             133   -0.57 9  145 259 
 PTB  HZ I         530  3.55         2.9 0.16            134            145 259 
 CHI  HZ EP        529 52.05                             118    0.55 8  248 195 
 CHI  HE ES        530 21.16                             118    0.13 8  248 195 
 CHI  HZ I         530 24.80         1.5 0.42            119            248 195 
 PTGC HZ EP        529 57.01                             112   -0.80 7  310 158 
 PTGC HE ES   4    530 30.10                             112   -2.16 0  310 158 
 CBOC HE ES        530 36.90                             111   -0.01 7  331 252 
                                                                                
