 2010 1024 0930  3.6 L   6.816 -73.116149.0  RSN 19 0.4 4.2LRSN                1
 GAP=104        0.89       2.7     4.0  5.1 -0.3485E+01  0.2044E+01  0.3388E+01E
 Epicentro: LOS SANTOS - SANTANDER                                             3
 ACTION:UP  11-02-18 11:11 OP:tino STATUS:               ID:20101024093003 L   I
 2010-10-24-0928-25S.COL___124                                                 6
 STAT SP IPHASW D HRMM SECON CODA AMPLIT PERI AZIMU VELO SNR AR TRES W  DIS CAZ7
 BAR2 SZ IP        930 23.58                             170    -0.110   26 197 
 BAR2 SZ ES   1    930 38.95                             170    -0.4 7   26 197 
 BAR2 SZ I         930 42.04      2462.9 0.53                            26 197 
 BRR  HZ IP     C  930 25.44                             152     0.210   73 296 
 BRR  HN ES   1    930 42.38                             152     0.3 7   73 296 
 BRR  HZ I         930 47.28      1348.5 0.18                            73 296 
 RUS  HZ IP     C  930 27.59                             144    -0.210  102 178 
 RUS  HE ES   1    930 46.35                             144    -0.3 7  102 178 
 RUS  HZ I         930 48.17      1714.5 0.34                           102 178 
 GRA  SZ IP        930 29.24                             138     0.310  123  16 
 GRA  SZ ES   1    930 48.28                             138    -0.4 7  123  16 
 GRA  SZ I         930 50.27      1310.7 0.35                           123  16 
 OCA  SZ IP        930 31.84                             131    -0.2 9  159 352 
 OCA  SZ ES        930 54.47                             131     0.3 9  159 352 
 OCA  SZ I         930 59.36      2324.8 0.31                           159 352 
 YOP  SZ IP        930 34.37                             127     0.5 9  179 155 
 NOR  SZ IP        930 39.61                             119    -0.3 8  239 235 
 NOR  SE ES   1    931  7.86                             119    -0.4 6  239 235 
 CHI  HZ IP     C  930 41.65                             117    -0.1 8  251 196 
 CHI  HE ES   1    931 11.40                             117    -0.1 6  251 196 
 CHI  HZ I         931 17.42       771.4 0.60                           251 196 
 ROSC BN ES   1    931 13.40                             117     1.0 6  256 211 
 ROSC BZ I         931 18.88      1042.3 0.63            117            256 211 
 HEL  HZ EP   1    930 43.72                             115    -0.6 6  276 256 
 HEL  HN ES   1    931 15.48                             115    -0.7 6  276 256 
 HEL  HZ I         931 24.44      1099.9 0.62                           276 256 
 VIL  SZ EP        930 47.02                             113    -0.2 7  304 190 
 VIL  SE ES   1    931 21.54                             113     0.3 5  304 190 
 GUY  SZ EP        930 48.19                             113     0.4 7  305 235 
 GUY  SN ES   1    931 23.01                             113     0.8 5  305 235 
 GUY  SZ I         931 30.14      1700.4 0.21                           305 235 
 RREF HZ EP        930 50.03                             111    -0.2 7  325 230 
 RREF HE ES   1    931 26.09                             111    -0.6 5  325 230 
 RREF HZ I         931 37.77       932.2 0.51                           325 230 
 DBB  SZ IP        930 51.44                             110    -0.1 7  343 274 
 TOL  SZ EP   1    930 53.01                             110     0.6 5  347 225 
 SDV  BZ IP     C  930 53.04                             109    -0.3 6  357  50 
 SDV  BZ I         931 34.98       264.6 0.64                           357  50 
 ANIL HZ EP        930 54.29                             109     0.4 6  361 225 
 ANIL HN ES   1    931 33.45                             109     0.3 5  361 225 
 ANIL HZ I         931 38.34      1637.9 0.24                           361 225 
 PRA  HZ EP        930 56.83                             107    -0.8 6  395 210 
 PRA  HE ES   1    931 40.09                             107     0.4 4  395 210 
 PRA  HZ I         931 46.88      2093.2 0.26                           395 210 
 GUA  SZ EP   2    931  6.12                             103    -0.9 2  475 173 
                                                                                
