 2010  424 0937 25.6 L   6.682 -74.029 16.1  RSN  6 0.3 2.0LRSN                1
 GAP=156        0.66       3.7     2.9  3.7 -0.6225E+01  0.4454E+01 -0.2397E+01E
 Epicentro: PUERTO PARRA - SANTANDER                                           3
 ACTION:UPD 10-08-24 10:00 OP:vdl  STATUS:               ID:20100424093724 L   I
 2010-04-24-0934-10S.COL___104                                                 6
 STAT SP IPHASW D HRMM SECON CODA AMPLIT PERI AZIMU VELO AIN AR TRES W  DIS CAZ7
 BRR  HZ IP     D  937 35.23                             103     0.010   59  37 
 BRR  HN ES   1    937 42.60                             103    -0.2 7   59  37 
 BRR  HZ I         937 43.01        68.2 0.12                            59  37 
 BAR2 SZ IP        937 40.98                              98     0.210   94  96 
 BAR2 SZ ES   2    937 52.22                              98    -0.4 5   94  96 
 HEL  HZ IP     C  937 52.32                              56     0.3 9  175 252 
 HEL  HN ES   1    938 12.31                              56    -0.4 7  175 252 
 HEL  HZ I         938 13.19        22.5 0.21                           175 252 
 GUE  SZ EP   1    937 52.33                              56     0.2 7  176  44 
 GUE  SZ ES   1    938 12.55                              56    -0.4 7  176  44 
 BRI  SZ IP        937 52.09                              56    -0.1 9  178  50 
 BRI  SZ ES   1    938 13.11                              56     0.1 7  178  50 
 GRA  SZ ES   2    938 16.60                              56     1.0 4  190  45 
                                                                                
