 2011 1224 0915  9.9 L   6.643 -73.510110.9  RSN  5 0.2 1.7LRSN                1
 GAP=114        0.58       4.7     2.9  5.1  0.7498E+00  0.1728E+01  0.6565E+01E
 Epicentro: EL CARMEN DE CHUCURI - SANTANDER                                   3
 ACTION:UPD 12-07-13 16:18 OP:ep   STATUS:               ID:20111224091509 L   I
 2011-12-24-0910-00M.COL___189                                                 6
 STAT SP IPHASW D HRMM SECON CODA AMPLIT PERI AZIMU VELO AIN AR TRES W  DIS CAZ7
 BAR2 SZ EP        915 25.82                             160    0.0210 36.7  99 
 BAR2 SZ ES        915 38.14                             160   -0.0710 36.7  99 
 BAR2 SZ I         915 39.57        26.5 0.35                          36.7  99 
 BRR  HZ EP        915 26.52                             151    0.1010 56.0 337 
 BRR  HZ I         915 26.69        21.2 0.10                          56.0 337 
 BRR  HN ES        915 39.55                             151    0.2510 56.0 337 
 GIR2 SZ EP        915 26.47                             150   -0.3710 59.6  36 
 RUS  HZ EP   1    915 30.24                             137    0.27 7 95.5 150 
 RUS  HZ I         915 48.41         3.3 0.47                          95.5 150 
 PTB  HZ EP        915 30.30                             133    0.1410  105 264 
 PTB  HN ES        915 45.75                             133   -0.2210  105 264 
                                                                                
