 2012  524 0238 32.5 L   6.813 -73.195142.5  RSN 11 0.3 2.5LRSN                1
 GAP=130        0.58       2.1     2.7  4.2 -0.7792E+00  0.4527E+01  0.3461E+00E
 Epicentro: ZAPATOCA - SANTANDER                                               3
 ACTION:UP  12-07-05 12:07 OP:pat  STATUS:               ID:20120524023832 L   I
 2012-05-24-0234-49M.COL___188                                                 6
 STAT SP IPHASW D HRMM SECON CODA AMPLIT PERI AZIMU VELO SNR AR TRES W  DIS CAZ7
 BAR2 SZ EP        238 51.98                             170     0.210   24 177 
 BAR2 SZ ES   1    239  6.75                             170     0.0 7   24 177 
 BAR2 SZ I         239  9.69        55.6 0.27                            24 177 
 PAM  SZ EP        238 54.64                             149     0.110   80  43 
 PAM  SE ES   1    239 11.75                             149     0.0 7   80  43 
 RUS  HZ EP        238 55.83                             143    -0.310  102 173 
 RUS  HN ES        239 14.54                             143     0.110  102 173 
 PTB  HZ EP   1    238 58.57                             132    -0.2 7  143 258 
 PTB  HE ES   1    239 19.14                             132    -0.1 7  143 258 
 PTB  HZ I         239 27.36        46.0 0.32                           143 258 
 OCA  HZ EP   1    239  0.20                             129    -0.2 7  158 355 
 OCA  HE ES   1    239 22.34                             129     0.2 7  158 355 
 OCA  HZ I         239 28.55        55.3 0.49                           158 355 
 ZAR  HZ EP   1    239  4.16                             122     0.0 6  199 292 
 ZAR  HN ES   1    239 28.29                             122    -0.6 6  199 292 
 ZAR  HZ I         239 40.90        28.3 0.48                           199 292 
 NOR  SZ EP   1    239  7.85                             118     0.2 6  231 233 
 NOR  SN ES   1    239 35.36                             118     0.3 6  231 233 
 CHI  HZ EP   1    239  9.80                             116    -0.2 6  249 194 
 CHI  HN ES   1    239 38.92                             116    -0.4 6  249 194 
 CHI  HZ I         239 48.87        12.0 0.65                           249 194 
 HEL  HZ EP   1    239 12.49                             115     0.5 6  267 255 
 HEL  HE ES   1    239 43.01                             115     0.2 6  267 255 
 HEL  HZ I         239 50.64        17.5 0.38                           267 255 
 RREF HZ EP   1    239 18.66                             110     0.5 5  319 229 
 RREF HZ I         240  4.53        16.5 0.38                           319 229 
 PRA  HZ EP   1    239 25.24                             106    -0.5 4  391 209 
 PRA  HE ES   1    240  7.64                             106     0.4 4  391 209 
                                                                                
