 2013  624 0447 14.9 L   6.774 -73.222150.0  RSN  4 0.3 1.1LRSN                1
 GAP=223        0.60       5.9     6.7  6.3  0.1677E+02  0.1394E+02  0.2742E+01E
 Epicentro: ZAPATOCA - SANTANDER                                               3
 ACTION:UPD 14-01-08 09:56 OP:ep   STATUS:               ID:20130624044714 L   I
 OLDACT:REG 13-06-24 07:06 OP:jn   STATUS:               ID:20130624043959     3
 2013-06-24-0439-59M.COL___267                                                 6
 STAT SP IPHASW D HRMM SECON CODA AMPLIT PERI AZIMU VELO AIN AR TRES W  DIS CAZ7
 BAR2 SZ ES   1    447 50.20                             172   -0.45 7 20.5 168 
 BAR2 SZ I         447 51.34         2.4 0.17            169           20.5 168 
 BRR  HZ EP        447 36.11                             155   -0.0910 65.5 304 
 BRR  HN ES        447 53.09                             155    0.2710 65.5 304 
 BRR  HZ I         447 57.46         2.5 0.12            150           65.5 304 
 RUS  HN ES   1    447 57.99                             145    0.32 7 98.6 171 
 PTB  HZ EP        447 41.41                             135   -0.02 9  139 259 
 PTB  HN ES   1    448  1.96                             135   -0.17 7  139 259 
 PTB  HZ I         448  7.65         1.7 0.22            133            139 259 
                                                                                
