 2015  124 0729 23.8 L   6.430 -73.234139.9  RSN  6 0.5 1.2LRSN                1
 GAP=134        1.40       6.1     6.6  9.6 -0.1100E+02  0.8448E+01 -0.1224E+01E
 Epicentro: SOCORRO - SANTANDER                                                3
 ACTION:UPD 15-03-02 15:41 OP:nd   STATUS:               ID:20150124072923 L   I
 OLDACT:DUP 15-01-24 17:00 OP:carl STATUS:               ID:20150124071740d    3
 2015-01-24-0717-39M.COL___268                                                 6
 STAT SP IPHASW D HRMM SECON CODA AMPLIT PERI AZIMU VELO AIN AR TRES W  DIS CAZ7
 BAR2 EZ EP        729 42.57                             172   -0.0810 18.8  18 
 BAR2 EZ ES        729 57.33                             172   -0.0110 18.8  18 
 RUS  HZ EP        729 44.58                             155    0.0510 61.8 164 
 RUS  HN ES        730  0.92                             155    0.2410 61.8 164 
 RUS  HZ I         730  3.38         1.8 0.34            157           61.8 164 
 BRR  HZ EP        729 45.60                             145   -0.0410 91.6 325 
 BRR  HN ES        730  3.44                             145    0.7710 91.6 325 
 BRR  HZ I         730  6.75         3.1 0.38            147           91.6 325 
 PAM  SZ EP        729 48.36                             138    0.1310  117  30 
 PAM  SN ES        730  6.67                             138   -0.6110  117  30 
 PAM  SZ I         730  8.41         2.3 0.18            143            117  30 
 SPBC HZ EP        729 49.60                             135    1.0910  127 227 
 SPBC HN ES        730  6.97                             135   -0.8110  127 227 
 SPBC HZ I         730 14.35         4.2 0.20            137            127 227 
 PTB  HZ EP        729 48.42                             133   -0.79 9  136 275 
 PTB  HN ES        730  9.00                             133   -0.02 9  136 275 
 PTB  HZ I         730 11.55         2.8 0.12            135            136 275 
                                                                                
