 2010  924 0827 52.6 L   6.795 -73.098143.5  RSN 10 0.4 2.1LRSN                1
 GAP=164        0.72       3.3     5.6  5.6 -0.5470E+01  0.2143E+01  0.3286E+01E
 Epicentro: LOS SANTOS - SANTANDER                                             3
 ACTION:UP  11-02-18 11:05 OP:tino STATUS:               ID:20100924082752 L   I
 2010-09-24-0824-34S.COL___119                                                 6
 STAT SP IPHASW D HRMM SECON CODA AMPLIT PERI AZIMU VELO SNR AR TRES W  DIS CAZ7
 BAR2 SZ IP        828 11.85                             170    -0.110   24 203 
 BAR2 SZ ES   1    828 27.36                             170     0.3 7   24 203 
 BRR  HZ EP        828 13.63                             151    -0.210   76 297 
 BRR  HZ I         828 15.80        64.2 0.13                            76 297 
 BRR  HE ES   1    828 30.49                             151     0.2 7   76 297 
 RUS  HZ EP        828 15.90                             144    -0.210  100 179 
 RUS  HE ES   2    828 34.05                             144    -0.3 5  100 179 
 RUS  HZ I         828 36.89        18.0 0.18                           100 179 
 GRA  SZ EP        828 17.59                             137     0.010  125  15 
 GRA  SZ ES   1    828 37.17                             137     0.1 7  125  15 
 GRA  SZ I         828 46.16        11.1 0.33                           125  15 
 OCA  SZ EP   1    828 20.52                             129    -0.3 7  162 351 
 OCA  SZ ES   2    828 43.16                             129     0.3 5  162 351 
 OCA  SZ I         828 46.63        26.2 0.31                           162 351 
 NOR  SZ EP   2    828 28.23                             118    -0.4 4  239 235 
 NOR  SN ES   2    828 56.36                             118    -0.4 4  239 235 
 NOR  SZ I         828 59.71         2.5 0.34                           239 235 
 CHI  HZ EP   1    828 30.19                             117    -0.1 6  249 196 
 CHI  HE ES   2    828 59.93                             117     0.3 4  249 196 
 CHI  HZ I         829  7.54         5.9 0.37                           249 196 
 ROSC BZ EP   1    828 31.80                             116     1.0 6  255 212 
 ROSC BZ I         828 33.75         9.4 0.15                           255 212 
 HEL  HZ EP   2    828 33.68                             114     0.4 4  277 256 
 HEL  HE ES   2    829  4.19                             114    -0.8 4  277 256 
 HEL  HZ I         829 10.19        14.7 0.56                           277 256 
 RREF HZ EP   1    828 39.60                             110     0.5 5  325 230 
 RREF HZ I         829 23.67         9.3 0.23                           325 230 
                                                                                
