 2017  224 0943 43.3 L   6.799 -73.124148.8  RSN  6 0.4 1.4LRSN                1
 GAP=139        0.93       4.2     6.6  6.2 -0.6592E+01 -0.6789E+01  0.7501E+01E
 Epicentro: LOS SANTOS - SANTANDER                                             3
 ACTION:UPD 17-05-24 15:40 OP:jn   STATUS:               ID:20170224094343 L   I
 OLDACT:UP  17-02-24 17:49 OP:edw  STATUS:               ID:20170224093741d    3
 OLDACT:DUP 17-02-24 17:46 OP:edw  STATUS:               ID:20170224093741d    3
 OLDACT:UP  17-02-24 17:45 OP:edw  STATUS:               ID:20170224093740     3
 OLDACT:UP  17-02-24 17:44 OP:edw  STATUS:               ID:20170224093740     3
 OLDACT:REG 17-02-24 12:59 OP:edw  STATUS:               ID:20170224093740     3
 2017-02-24-0938-00M.COL___378                                                 6
 STAT SP IPHASW D HRMM SECON CODA AMPLIT PERI AZIMU VELO AIN AR TRES W  DIS CAZ7
 BAR2 EZ EP        944  3.35                             171    0.0710 23.8 196 
 BAR2 EZ ES        944 18.50                             171   -0.3810 23.8 196 
 BAR2 EZ I         944 19.92         5.4 0.50            170           23.8 196 
 BRR  HZ EP        944  5.08                             152    0.2110 73.4 298 
 BRR  HN ES        944 21.72                             152   -0.0010 73.4 298 
 PAM  EZ EP        944  6.17                             152    0.4410 76.0  38 
 PAM  EN ES        944 22.97                             152   -0.2810 76.0  38 
 PAM  EZ I         944 24.75         2.7 0.18            153           76.0  38 
 RUS  HZ EP        944  7.42                             144    0.1110  100 177 
 RUS  HN ES        944 26.38                             144    0.3310  100 177 
 RUS  HZ I         944 27.87         4.6 0.18            145            100 177 
 PTB  HZ EP   9    944  9.40                             132   -1.30 0  150 259 
 PTB  HN ES        944 30.88                             133    0.09 9  150 259 
 PTB  HZ I         944 33.43         5.3 0.12            133            150 259 
 NOR  HN ES   4    944 45.96                             119   -1.59 0  237 235 
 CHI  HZ EP        944 20.16                             118   -1.04 8  249 196 
 CHI  HN ES        944 51.03                             118    0.25 8  249 196 
                                                                                
