 2016  824 0326 36.7 L   6.801 -73.123144.5  RSN  9 0.6 1.5LRSN                1
 GAP=185        1.23       4.5     6.8  7.8 -0.1364E+01  0.1234E+02  0.5353E+01E
 Epicentro: LOS SANTOS - SANTANDER                                             3
 ACTION:UPD 16-10-29 15:38 OP:rebc STATUS:               ID:20160824032636 L   I
 OLDACT:REG 16-08-24 12:24 OP:ak   STATUS:               ID:20160824031740     3
 2016-08-24-0318-00M.COL___377                                                 6
 STAT SP IPHASW D HRMM SECON CODA AMPLIT PERI AZIMU VELO AIN AR TRES W  DIS CAZ7
 BAR2 EZ EP   1    326 56.26                             170    0.08 7 24.0 196 
 BAR2 EZ ES        327 10.80                             170   -0.5910 24.0 196 
 BAR2 EZ I         327 12.17         7.5 0.16                          24.0 196 
 BRR  HZ EP        326 58.54                             152    0.7110 73.4 298 
 BRR  HN ES        327 15.29                             152    0.9710 73.4 298 
 BRR  HZ I         327 20.15         8.9 0.14                          73.4 298 
 RUS  HZ EP        327  0.37                             144    0.0610  101 178 
 RUS  HN ES        327 18.68                             144   -0.0610  101 178 
 RUS  HZ I         327 28.45         2.2 0.32                           101 178 
 PTB  HZ EP        327  3.00                             131   -0.78 9  150 259 
 PTB  HN ES        327 24.20                             131   -0.72 9  150 259 
 PTB  HZ I         327 31.19         2.6 0.18                           150 259 
 OCA  HZ EP   2    327  4.41                             129   -0.51 5  161 352 
 OCA  HN ES        327 26.85                             129   -0.10 9  161 352 
 SPBC HZ EP        327  5.00                             128   -0.25 9  165 220 
 SPBC HN ES        327 27.75                             128    0.23 9  165 220 
 SPBC HZ I         327 33.97         3.6 0.16                           165 220 
 GUY2CHZ EP   2    327 20.82                             112    0.35 4  303 235 
 GUY2CHN ES   4    327 56.60                             112    1.97 0  303 235 
 GUY2CHZ I         327 59.67         1.3 0.34                           303 235 
 CBOC HZ EP   2    327 22.67                             109   -1.16 3  336 252 
 CBOC HN ES        328  0.52                             109   -0.08 7  336 252 
 PRA  HZ EP        327 31.33                             106    1.02 6  393 210 
 PRA  HN ES        328 12.53                             106    0.38 6  393 210 
 PRA  HZ I         328 16.36         1.1 0.20                           393 210 
                                                                                
