 2013  524 0201 54.2 L   6.790 -73.149149.6  RSN  8 0.3 2.0LRSN                1
 GAP=137        0.93       3.8     4.1  6.0  0.3231E+00  0.4600E+01  0.1041E+01E
 Epicentro: LOS SANTOS - SANTANDER                                             3
 ACTION:UPD 13-06-20 09:53 OP:ep   STATUS:               ID:20130524020154 L   I
 2013-05-24-0158-36M.COL___203                                                 6
 STAT SP IPHASW D HRMM SECON CODA AMPLIT PERI AZIMU VELO AIN AR TRES W  DIS CAZ7
 BAR2 SZ IP     D  2 2 14.19                             171   -0.0410 22.2 190 
 BAR2 SZ ES        2 2 29.35                             171   -0.5410 22.2 190 
 BAR2 SZ I         2 2 30.87        11.2 0.28            171           22.2 190 
 GIR2 SZ EP        2 2 14.29                             167   -0.0310 32.3 351 
 GIR2 SZ ES        2 2 30.71                             167    0.6710 32.3 351 
 BRR  HZ IP     C  2 2 16.08                             153    0.3410 71.4 299 
 BRR  HZ I         2 2 16.30        19.2 0.24            151           71.4 299 
 BRR  HN ES        2 2 33.09                             153    0.5210 71.4 299 
 PAM  SZ EP        2 2 17.02                             151    0.1710 78.4  39 
 PAM  SZ I         2 2 17.28        10.7 0.22            152           78.4  39 
 PAM  SN ES        2 2 34.08                             151   -0.4610 78.4  39 
 RUS  HZ EP        2 2 18.38                             145    0.1610 99.6 176 
 RUS  HN ES        2 2 37.00                             145    0.0210 99.6 176 
 RUS  HN I         2 2 37.29        10.4 0.32            146           99.6 176 
 PTB  HZ EP        2 2 21.27                             133   -0.13 9  147 259 
 PTB  HN ES        2 2 42.30                             133   -0.34 9  147 259 
 PTB  HN I         2 2 47.21        14.2 0.26            132            147 259 
 OCA  HN ES        2 2 44.95                             130   -0.31 9  161 353 
 OCA  HN I         2 2 48.31        36.8 0.26            130            161 353 
 ZAR  HN ES        2 2 52.18                             123   -0.20 9  204 292 
                                                                                
