 2014 1224 0939 25.9 L   6.802 -73.136141.6  RSN  9 0.5 2.1LRSN                1
 GAP=138        1.17       4.1     5.3  7.3 -0.1794E+01  0.9777E+01 -0.4146E+01E
 Epicentro: LOS SANTOS - SANTANDER                                             3
 ACTION:UPD 15-02-10 17:06 OP:nd   STATUS:               ID:20141224093925 L   I
 OLDACT:REG 14-12-24 13:19 OP:mh   STATUS:               ID:20141224093738     3
 2014-12-24-0937-38M.COL___283                                                 6
 STAT SP IPHASW D HRMM SECON CODA AMPLIT PERI AZIMU VELO AIN AR TRES W  DIS CAZ7
 BAR2 EZ EP        939 45.18                             170    0.1110 23.8 193 
 BAR2 EZ ES        939 59.26                             170   -0.7410 23.8 193 
 BAR2 EZ I         940  1.07        20.8 0.10            171           23.8 193 
 BRR  HZ EP        939 47.13                             152    0.4510 72.1 298 
 BRR  HN ES        940  3.64                             152    0.7710 72.1 298 
 BRR  HZ I         940  7.07        16.5 0.57            149           72.1 298 
 PAM  SN ES        940  5.03                             150    0.4410 76.5  39 
 PAM  SZ I         940  6.97        38.9 0.58            153           76.5  39 
 RUS  HZ EP        939 49.24                             143   -0.0510  101 177 
 RUS  HN ES   1    940  7.83                             143    0.32 7  101 177 
 PTB  HZ EP   1    939 52.95                             131    0.29 7  149 259 
 PTB  HN ES        940 12.60                             131   -0.92 9  149 259 
 PTB  HZ I         940 19.70        12.8 0.34            132            149 259 
 OCA  HZ EP        939 53.39                             129   -0.52 9  160 353 
 OCA  HN ES   1    940 15.13                             129   -0.60 7  160 353 
 OCA  HZ I         940 19.79        12.2 0.28            130            160 353 
 SPBC HZ EP   1    939 54.43                             128    0.23 7  164 219 
 SPBC HN ES        940 16.07                             128   -0.18 9  164 219 
 ZAR  HZ EP        939 58.38                             121    0.18 9  205 292 
 ZAR  HN ES        940 23.82                             121    0.44 9  205 292 
 ZAR  HZ I         940 28.99        12.4 0.46            122            205 292 
 SML  HZ EP   1    940  1.74                             117   -0.61 6  244 335 
 SML  HN ES   1    940 30.76                             117    0.00 6  244 335 
                                                                                
