 2013  224 0922 14.3 L   6.545 -73.727 97.8  RSN  7 0.4 1.3LRSN                1
 GAP=124        0.75       4.5     3.5  8.9  0.5385E+01  0.2330E+01 -0.1523E+02E
 Epicentro: SANTA HELENA DEL OPON - SANTANDER                                  3
 ACTION:UPD 13-03-12 09:35 OP:ep   STATUS:               ID:20130224092214 L   I
 2013-02-24-0920-00M.COL___225                                                 6
 STAT SP IPHASW D HRMM SECON CODA AMPLIT PERI AZIMU VELO AIN AR TRES W  DIS CAZ7
 BAR2 SZ EP   1    922 30.31                             146    0.26 7 60.5  85 
 BAR2 SZ ES   1    922 42.46                             146    0.09 7 60.5  85 
 BRR  HZ EP   1    922 29.96                             145    0.13 7 62.2   2 
 BRR  HZ I         922 49.49         4.0 0.48            134           62.2   2 
 PTB  HZ EP   1    922 30.91                             137   -0.36 7 80.6 270 
 PTB  HN ES   1    922 43.93                             137   -0.62 7 80.6 270 
 PTB  HZ I         922 45.49         6.4 0.20            136           80.6 270 
 RUS  HZ EP   1    922 33.66                             131   -0.10 7  101 135 
 RUS  HN ES   1    922 49.04                             131    0.06 7  101 135 
 RUS  HZ I         922 50.16         2.8 0.20            129            101 135 
 ZAR  HN ES   1    922 59.90                             117    0.75 7  163 310 
 ZAR  HZ I         923  5.25         3.7 0.22            112            163 310 
 HEL  HN ES   2    923  8.84                             111    0.83 4  203 259 
 SML  HZ EP   1    922 49.54                             107   -0.19 6  252 351 
 SML  HE ES   1    923 17.00                             107   -0.40 6  252 351 
 SML  HZ I         923 20.29         2.2 0.11            103            252 351 
                                                                                
