 2014  324 0012 17.7 L   6.816 -73.158144.7  RSN 18 0.5 2.6LRSN                1
 GAP= 70        1.04       2.3     2.9  4.9 -0.1547E+01  0.4779E+01 -0.6335E-01E
 Epicentro: LOS SANTOS - SANTANDER                                             3
 ACTION:UPD 14-04-09 23:20 OP:nd   STATUS:               ID:20140324001217 L   I
 OLDACT:DUP 14-03-24 08:33 OP:carl STATUS:               ID:20140324001043d    3
 2014-03-24-0010-42M.COL___243                                                 6
 STAT SP IPHASW D HRMM SECON CODA AMPLIT PERI AZIMU VELO AIN AR TRES W  DIS CAZ7
 BAR2 SZ EP        012 37.38                             170    0.1610 24.9 186 
 BAR2 SZ ES        012 52.69                             170    0.2410 24.9 186 
 BAR2 SZ I         012 54.15       124.8 0.20            170           24.9 186 
 PAM  SZ EP     C  012 40.15                             151    0.3910 76.9  41 
 PAM  SN ES        012 57.38                             151    0.4010 76.9  41 
 PAM  SZ I         012 59.57        45.9 0.18            149           76.9  41 
 RUS  HZ EP        012 41.22                             143   -0.2510  102 175 
 RUS  HN ES        012 59.89                             143   -0.1210  102 175 
 RUS  HZ I         013  1.17        31.7 0.26            143            102 175 
 PTB  HZ EP        012 43.95                             132   -0.53 9  147 258 
 PTB  HN ES        013  5.22                             132   -0.15 9  147 258 
 PTB  HZ I         013  8.41        45.1 0.12            131            147 258 
 TAM  HZ IP     D  012 45.57                             130    0.12 9  157 105 
 TAM  HZ I         013  6.41        23.3 0.42            129            157 105 
 TAM  HN ES        013  6.98                             130   -0.11 9  157 105 
 OCA  HZ EP        012 45.49                             130   -0.25 9  158 354 
 OCA  HN ES        013  7.21                             130   -0.40 9  158 354 
 OCA  HZ I         013 17.25        33.0 0.20            129            158 354 
 SPBC HZ EP        012 46.27                             129    0.11 9  164 218 
 SPBC HN ES        013  8.31                             129   -0.05 9  164 218 
 SPBC HZ I         013 15.28        68.6 0.22            128            164 218 
 ZAR  HZ EP        012 50.34                             122    0.47 9  202 292 
 ZAR  HN ES        013 15.24                             122    0.27 9  202 292 
 ZAR  HZ I         013 23.27        32.4 0.12            122            202 292 
 NOR  HZ EP        012 53.20                             118   -0.15 8  235 234 
 NOR  HN ES        013 20.53                             118   -0.63 8  235 234 
 NOR  HZ I         013 25.45        37.5 0.20            118            235 234 
 SML  HZ EP        012 53.70                             117   -0.32 8  242 335 
 SML  HN ES        013 22.80                             117    0.44 8  242 335 
 SML  HZ I         013 27.60        48.2 0.26            117            242 335 
 CHI  HZ EP        012 55.31                             117   -0.16 8  250 195 
 CHI  HN ES        013 24.39                             117   -0.55 8  250 195 
 CHI  HZ I         013 29.13        14.6 0.24            116            250 195 
 ROSC BZ EP   4    012 56.84                             116    1.00 0  254 211 
 ROSC BN ES   4    013 27.57                             116    1.98 0  254 211 
 HEL  HZ EP        012 58.05                             115    0.30 8  271 255 
 HEL  HN ES        013 28.75                             115   -0.25 8  271 255 
 HEL  HZ I         013 35.68        18.6 0.34            114            271 255 
 GUY2CHZ EP        013  1.73                             112    0.49 7  301 234 
 GUY2CHN ES        013 35.97                             112    0.76 7  301 234 
 GUY2CHZ I         013 43.94        18.7 0.26                           301 234 
 RREF HZ EP        013  4.41                             111    0.61 7  322 229 
 RREF HE ES        013 38.83                             111   -0.93 7  322 229 
 RREF HZ I         013 49.87        25.2 0.36            110            322 229 
 TOL  SZ EP        013  6.09                             109    0.15 7  344 224 
 TOL  SZ ES        013 42.76                             109   -0.81 7  344 224 
 COD  HZ EP        013  4.82                             109   -0.99 6  346 355 
 COD  HN ES        013 42.83                             109   -0.51 6  346 355 
 COD  HZ I         013 48.37        16.3 0.82            108            346 355 
 ANIL HZ EP        013  9.16                             108    1.67 6  358 224 
 ANIL HN ES        013 46.82                             108    0.49 6  358 224 
 ANIL HZ I         013 51.30        48.5 0.30            108            358 224 
 ORTC HZ EP        013 11.45                             106   -0.20 6  396 216 
 ORTC HN ES        013 54.32                             106    0.59 6  396 216 
 ORTC HZ I         014  1.90        14.0 0.30            106            396 216 
                                                                                
