 2016  324 0216 37.6 L   6.767 -73.167139.1  RSN  6 0.4 1.6LRSN                1
 GAP=135        0.95       4.0     4.3  7.3 -0.1383E+00  0.1063E+02  0.1955E+01E
 Epicentro: LOS SANTOS - SANTANDER                                             3
 ACTION:UPD 16-05-13 21:27 OP:cam  STATUS:               ID:20160324021127 L   I
 OLDACT:UP  16-03-24 18:06 OP:ak   STATUS:               ID:20160324021127 L   3
 OLDACT:DUP 16-03-24 17:58 OP:nlst STATUS:               ID:20160324021127 L   3
 OLDACT:REG 16-03-24 12:25 OP:ak   STATUS:               ID:20160324020746     3
 2016-03-24-0207-46M.COL___308                                                 6
 STAT SP IPHASW D HRMM SECON CODA AMPLIT PERI AZIMU VELO AIN AR TRES W  DIS CAZ7
 BAR2 EZ EP        216 56.27                             172   -0.1210 19.4 185 
 BAR2 EZ ES        217 10.70                             172   -0.3110 19.4 185 
 PAM  EZ EP        216 59.50                             148    0.0810 81.7  39 
 PAM  EN ES        217 16.69                             148    0.2810 81.7  39 
 PAM  EZ I         217 18.71         8.6 0.54            152           81.7  39 
 RUS  HZ EP        217  0.03                             143   -0.4510 97.1 175 
 RUS  HN ES        217 18.51                             143    0.2110 97.1 175 
 RUS  HZ I         217 20.15         2.9 0.50            147           97.1 175 
 PTB  HZ EP        217  3.36                             131   -0.43 9  145 260 
 PTB  HN ES        217 23.86                             131   -0.33 9  145 260 
 PTB  HZ I         217 29.88         4.8 0.15            131            145 260 
 ZAR  HZ EP   2    217  9.32                             121   -0.25 4  203 293 
 ZAR  HN ES        217 35.17                             121    0.68 9  203 293 
 ZAR  HZ I         217 41.29         6.8 0.36            122            203 293 
 CHI  HZ EP   2    217 14.76                             116    0.24 4  245 195 
 CHI  HN ES        217 44.07                             116    0.78 8  245 195 
                                                                                
