 2010  224 0108  0.8 L   6.798 -73.076149.7  RSN  5 0.2 1.7LRSN                1
 GAP=244        0.49       4.9     8.9  5.9  0.1858E+02  0.1265E+02  0.1300E+02E
 Epicentro: LOS SANTOS - SANTANDER                                             3
 ACTION:UP  10-08-24 09:50 OP:vdl  STATUS:               ID:20100224010800 L   I
 2010-02-24-0107-04S.COL___094                                                 6
 STAT SP IPHASW D HRMM SECON CODA AMPLIT PERI AZIMU VELO SNR AR TRES W  DIS CAZ7
 BAR2 SZ EP        1 8 21.08                             170     0.110   26 207 
 BAR2 SZ ES   2    1 8 36.45                             170    -0.3 5   26 207 
 BRR  HZ EP        1 8 22.74                             152    -0.110   78 296 
 BRR  HZ I         1 8 31.06         8.6 0.33                            78 296 
 BRR  HE ES   2    1 8 39.91                             152     0.0 5   78 296 
 RUS  BZ EP        1 8 25.20                             145     0.310  100 180 
 RUS  BN ES   2    1 8 43.76                             145     0.0 5  100 180 
 RUS  BZ I         1 8 45.09         5.1 0.37                           100 180 
 CHI  HZ EP        1 8 38.64                             118    -0.3 8  251 197 
 CHI  HZ I         1 9  4.36         2.9 0.45                           251 197 
 PRA  HZ EP   1    1 8 54.83                             107    -0.1 4  396 211 
 PRA  HZ I         1 8 55.78         1.6 0.32                           396 211 
 PRA  HN ES   2    1 9 37.41                             107     0.3 3  396 211 
                                                                                
