 2016  224 0316 21.8 L   6.035 -73.872 99.8  RSN 20 0.4 2.3LRSN                1
 GAP= 74        1.01       2.2     2.3  5.2 -0.1511E+01  0.2675E+01 -0.6164E+00E
 Epicentro: EL PENON - SANTANDER                                               3
 ACTION:UPD 16-03-04 21:28 OP:rebc STATUS:               ID:20160224031621 L   I
 OLDACT:UP  16-02-24 15:38 OP:mh   STATUS:               ID:20160224030749     3
 OLDACT:UP  16-02-24 15:36 OP:mh   STATUS:               ID:20160224030749     3
 OLDACT:UP  16-02-24 15:36 OP:mh   STATUS:               ID:20160224030749     3
 OLDACT:UP  16-02-24 15:34 OP:mh   STATUS:               ID:20160224030749     3
 OLDACT:REG 16-02-24 12:51 OP:mh   STATUS:               ID:20160224030749     3
 2016-02-24-0307-49M.COL___334                                                 6
 STAT SP IPHASW D HRMM SECON CODA AMPLIT PERI AZIMU VELO AIN AR TRES W  DIS CAZ7
 SPBC HZ IP     D  316 36.89                             153    0.1110 47.8 208 
 SPBC HN ES        316 48.69                             153    0.2210 47.8 208 
 SPBC HZ I         316 51.16       113.4 0.16            145           47.8 208 
 PTB  HZ EP     D  316 38.61                             137   -0.7710 85.3 311 
 PTB  HN ES        316 52.46                             137   -0.6410 85.3 311 
 PTB  HZ I         316 56.71        38.6 0.10            130           85.3 311 
 RUS  HZ EP   1    316 40.18                             136   -0.15 7 88.8 100 
 RUS  HN ES        316 54.85                             136    0.0610 88.8 100 
 RUS  HZ I         316 56.08        97.4 0.22            131           88.8 100 
 BAR2 EZ IP     D  316 41.10                             132    0.2910 98.1  51 
 BAR2 EZ ES        316 56.01                             132    0.3710 98.1  51 
 BAR2 EZ I         316 57.38        72.3 0.10            128           98.1  51 
 BRR  HZ EP        316 42.43                             126   -0.1410  120   9 
 BRR  HN ES        316 59.28                             126    0.5110  120   9 
 BRR  HZ I         317  0.07        29.7 0.15            121            120   9 
 NOR  HE EP   1    316 42.50                             126   -0.36 7  122 245 
 NOR  HZ ES        316 59.29                             126   -0.0110  122 245 
 ROSC BZ EP   1    316 46.38                             122    1.11 7  141 201 
 ROSC BN ES   4    317  6.12                             122    2.54 0  141 201 
 ROSC BZ I         317  9.55        27.5 0.70            115            141 201 
 CHI  HZ EP        316 46.65                             119   -0.25 9  156 174 
 CHI  HN ES        317  6.01                             119   -0.48 9  156 174 
 CHI  HZ I         317 16.99         8.6 0.38            113            156 174 
 HEL  HZ EP   1    316 50.52                             114    0.59 7  184 275 
 HEL  HE ES        317 12.64                             114    0.77 9  184 275 
 HEL  HZ I         317 15.80        37.0 0.56            109            184 275 
 GUY2CHZ EP        316 50.59                             114    0.08 9  188 242 
 GUY2CHN ES   4    317 13.89                             114    0.98 0  188 242 
 GUY2CHZ I         317 18.65        22.7 0.48                           188 242 
 ZAR  HZ EP   1    316 50.31                             113   -0.33 6  194 326 
 ZAR  HN ES        317 13.25                             113    0.11 9  194 326 
 ZAR  HZ I         317 16.46        26.3 0.64            108            194 326 
 PAM  EZ EP   1    316 51.05                             113   -0.13 6  194  42 
 PAM  EN ES        317 13.65                             113   -0.46 9  194  42 
 PAM  EZ I         317 17.05        21.4 0.20            109            194  42 
 CRECREZ EP   4    316 47.58                             112   -4.66 0  203 234 
 CRECREN ES   4    317 13.82                             112   -2.17 0  203 234 
 ELA  HZ EP        316 53.66                             111    0.20 8  213 233 
 ELA  HN ES        317 17.43                             111   -0.73 8  213 233 
 ELA  HZ I         317 24.15        16.1 0.48            106            213 233 
 CBOC HZ EP   1    316 56.13                             109    0.30 6  238 266 
 CBOC HN ES        317 22.42                             109    0.03 8  238 266 
 CBOC HZ I         317 30.17        10.1 0.62            104            238 266 
 ANIL HZ EP   4    316 56.77                             108    0.43 0  241 225 
 ANIL HE ES   4    317 23.93                             108    0.64 0  241 225 
 ANIL HZ I         317 31.96        45.4 0.28            104            241 225 
 OCA  HZ EP        316 57.90                             108    0.50 8  251  14 
 OCA  HN ES        317 24.83                             108   -0.34 8  251  14 
 OCA  HZ I         317 35.46        32.4 0.32            104            251  14 
 URE  HZ EP   4    316 56.69                             107   -2.04 0  264 316 
 URE  HN ES   4    317 26.74                             107   -0.81 0  264 316 
 ORTC HZ EP   1    317  0.65                             106   -0.03 6  280 213 
 ORTC HN ES        317 31.43                             106    0.41 7  280 213 
 ORTC HZ I         317 36.14         8.7 0.24            102            280 213 
 DBB  SZ EP        317  0.45                             106   -0.32 7  280 293 
 DBB  SZ I         317 34.82        30.2 0.44            102            280 293 
 PAL  HZ EP   4    317  2.86                             105    0.38 0  295 245 
 PAL  HN ES   4    317 34.00                             105   -0.21 0  295 245 
 MON  HZ EP   4    317 15.87                             102    5.39 0  362 327 
 MON  HN ES   4    317 47.49                             102   -0.96 0  362 327 
 MON  HZ I         317 50.03         2.1 0.32             99            362 327 
 SJC  HZ EP   4    317 19.30                              99   -2.01 0  451 341 
 SJC  HN ES   4    318  3.30                              99   -4.43 0  451 341 
 SJC  HZ I         318  8.72         2.3 0.46             97            451 341 
                                                                                
