 2011  524 0433 14.6 L   6.764 -73.061151.4  RSN  7 0.2 1.8LRSN                1
 GAP=149        0.56       3.4     5.4  4.9 -0.4509E+01  0.1646E+01 -0.1018E+01E
 Epicentro: LOS SANTOS - SANTANDER                                             3
 ACTION:UP  11-06-29 08:55 OP:tino STATUS:               ID:20110524043314 L   I
 2011-05-24-0420-00M.COL___139                                                 6
 STAT SP IPHASW D HRMM SECON CODA AMPLIT PERI AZIMU VELO SNR AR TRES W  DIS CAZ7
 BAR2 SZ EP   1    433 34.70                             171    -0.2 7   23 215 
 BAR2 SZ ES   1    433 50.51                             171    -0.2 7   23 215 
 BAR2 SZ I         433 51.67        26.4 0.17                            23 215 
 PAM  SZ EP   1    433 37.39                             153     0.1 7   75  32 
 PAM  SN ES   2    433 54.89                             153    -0.1 5   75  32 
 BRR  HZ EP   1    433 36.75                             150    -0.2 7   81 298 
 BRR  HN ES   1    433 54.46                             150     0.1 7   81 298 
 BRR  HZ I         433 55.92        10.2 0.17                            81 298 
 RUS  HZ EP   1    433 38.89                             146     0.3 7   96 181 
 RUS  HN ES   1    433 57.37                             146     0.0 7   96 181 
 RUS  HZ I         433 58.84         5.1 0.43                            96 181 
 BRI  SZ EP   2    433 39.26                             142     0.2 5  109  15 
 BRI  SZ ES   1    433 58.55                             142     0.4 7  109  15 
 GRA  SZ EP   1    433 39.95                             138    -0.5 7  127  13 
 GRA  SZ I         433 58.01         8.0 0.39                           127  13 
 HEL  HZ EP   1    433 56.14                             115     0.1 6  280 257 
                                                                                
