 2013  124 0443 59.2 L   7.250 -73.212123.2  RSN  4 0.2 1.6LRSN                1
 GAP=281        0.54       5.0     4.9  5.5  0.1356E+02  0.5379E+01  0.8335E+00E
 Epicentro: RIONEGRO - SANTANDER                                               3
 ACTION:UPD 13-02-15 09:16 OP:ep   STATUS:               ID:20130124044359 L   I
 2013-01-24-0438-36M.COL___180                                                 6
 STAT SP IPHASW D HRMM SECON CODA AMPLIT PERI AZIMU VELO AIN AR TRES W  DIS CAZ7
 BRR  HZ EP        444 17.37                             153    0.2810 57.4 254 
 BRR  HZ I         444 17.45         7.6 0.22            152           57.4 254 
 BRR  HN ES        444 30.96                             153   -0.1210 57.4 254 
 BAR2 SZ ES        444 33.29                             148   -0.0610 72.8 177 
 BAR2 SZ I         444 34.98        13.8 0.38            147           72.8 177 
 RUS  HN ES        444 45.76                             126    0.04 9  151 175 
 PTB  HZ EP        444 25.12                             124   -0.32 9  158 240 
 PTB  HE ES        444 46.10                             124    0.16 9  158 240 
 PTB  HN I         444 48.07         3.8 0.24            124            158 240 
                                                                                
