 2017  324 0856 12.9 L   6.822 -73.177145.1  RSN  9 0.5 2.0LRSN                1
 GAP=139        1.03       5.0     4.3  6.7 -0.4012E+01  0.1231E+02  0.7028E+00E
 Epicentro: ZAPATOCA - SANTANDER                                               3
 ACTION:UPD 17-05-25 18:44 OP:jn   STATUS:               ID:20170324085612 L   I
 OLDACT:UP  17-03-24 15:39 OP:cog  STATUS:               ID:20170324084745     3
 OLDACT:REG 17-03-24 13:45 OP:cog  STATUS:               ID:20170324084745     3
 2017-03-24-0848-00M.COL___381                                                 6
 STAT SP IPHASW D HRMM SECON CODA AMPLIT PERI AZIMU VELO AIN AR TRES W  DIS CAZ7
 BAR2 EZ EP        856 32.42                             170   -0.0510 25.4 181 
 BAR2 EZ ES        856 47.74                             170   -0.0210 25.4 181 
 BAR2 EZ I         856 48.97        66.1 0.16            166           25.4 181 
 PAM  EZ EP        856 35.18                             150    0.1310 77.8  43 
 PAM  EE ES        856 52.56                             150    0.2110 77.8  43 
 PAM  EZ I         856 54.83         8.1 0.34            156           77.8  43 
 PTB  HZ EP        856 39.20                             132   -0.33 9  145 258 
 PTB  HN ES        857  0.36                             132    0.04 9  145 258 
 PTB  HZ I         857  2.05        10.2 0.24            132            145 258 
 SPBC HZ EP        856 41.35                             129    0.05 9  163 218 
 SPBC HE ES        857  3.09                             129   -0.39 9  163 218 
 SPBC HZ I         857  7.98        20.6 0.40            128            163 218 
 ZAR  HZ EP        856 44.94                             123    0.08 9  200 292 
 ZAR  HN ES        857  9.69                             123   -0.11 9  200 292 
 ZAR  HZ I         857 16.05        12.5 0.50            124            200 292 
 CHI  HZ EP        856 50.54                             117   -0.16 8  250 194 
 CHI  HN ES   3    857 19.64                             117   -0.56 2  250 194 
 CHI  HZ I         857 28.38         5.4 0.42            117            250 194 
 URE  HZ EP        856 52.57                             114   -0.89 7  280 292 
 URE  HN ES   4    857 23.94                             114   -1.17 0  280 292 
 URE  HZ I         857 25.09         7.0 0.10            115            280 292 
 ELA  HN ES   4    857 40.78                             110    4.77 0  328 229 
 CBOC HZ EP        857  0.63                             110    1.16 7  331 252 
 CBOC HN ES        857 37.15                             110    1.33 7  331 252 
 CBOC HZ I         857 50.07         1.7 0.58            110            331 252 
 DBB  EE ES        857 36.11                             110   -0.49 7  336 274 
                                                                                
