 2017  324 0214  6.9 L   6.777 -73.169146.0  RSN  4 0.1 1.4LRSN                1
 GAP=144        0.37       3.3     1.9  3.5 -0.2071E+01  0.2457E+01 -0.1650E+01E
 Epicentro: LOS SANTOS - SANTANDER                                             3
 ACTION:UPD 17-05-25 18:44 OP:jn   STATUS:               ID:20170324021406 L   I
 OLDACT:REG 17-03-24 12:40 OP:cog  STATUS:               ID:20170324020748     3
 2017-03-24-0208-00M.COL___396                                                 6
 STAT SP IPHASW D HRMM SECON CODA AMPLIT PERI AZIMU VELO AIN AR TRES W  DIS CAZ7
 BAR2 EZ EP        214 26.55                             172    0.0910 20.5 184 
 BAR2 EZ ES        214 41.84                             172    0.0910 20.5 184 
 BAR2 EZ I         214 44.20         7.4 0.30            173           20.5 184 
 PAM  EZ EP        214 29.25                             150   -0.0710 81.0  40 
 PAM  EE ES        214 46.78                             150   -0.0610 81.0  40 
 PAM  EZ I         214 51.17         3.4 0.34            154           81.0  40 
 PTB  HZ EP        214 33.59                             133    0.02 9  145 260 
 PTB  HN ES        214 54.22                             133   -0.19 9  145 260 
 PTB  HZ I         215  1.82         4.1 0.50            135            145 260 
 ZAR  HN ES        215  4.51                             123    0.13 9  203 293 
                                                                                
