 2010 1124 0323  2.0 L   6.780 -73.011145.3  RSN 12 0.4 2.3LRSN                1
 GAP=174        0.97       4.4     7.7  7.8 -0.1136E+02  0.9090E+01 -0.6652E+00E
 Epicentro: CEPITA - SANTANDER                                                 3
 ACTION:UP  10-12-17 16:54 OP:REBC STATUS:               ID:20101124032302 L   I
 2010-11-24-0321-28S.COL___129                                                 6
 STAT SP IPHASW D HRMM SECON CODA AMPLIT PERI AZIMU VELO SNR AR TRES W  DIS CAZ7
 BAR2 SZ EP        323 21.69                             169     0.010   28 223 
 BAR2 SZ ES   2    323 36.43                             169    -0.7 5   28 223 
 BAR2 SZ I         323 38.49        37.8 0.56                            28 223 
 BRR  HZ IP     C  323 23.61                             148    -0.410   86 295 
 BRR  HN ES   1    323 41.05                             148    -0.1 7   86 295 
 BRR  HZ I         323 43.99        41.1 0.15                            86 295 
 RUS  HZ EP   1    323 25.51                             144    -0.1 7   98 185 
 RUS  HN ES   1    323 44.25                             144     0.3 7   98 185 
 RUS  HZ I         323 47.82        16.7 0.45                            98 185 
 GUE  SZ EP   1    323 27.08                             139     0.4 7  117   5 
 GUE  SZ I         323 33.56         1.7 0.06                           117   5 
 GRA  SZ EP   1    323 27.59                             137     0.5 7  124  11 
 GRA  SZ I         323 49.43        20.7 0.33                           124  11 
 OCA  SZ EP        323 31.03                             129     0.3 9  165 348 
 OCA  SZ I         323 58.00        42.1 0.36                           165 348 
 CHI  HZ EP   1    323 39.23                             117    -0.7 6  251 199 
 CHI  HN ES   1    324  9.90                             117     0.4 6  251 199 
 CHI  HZ I         324 14.98         9.2 0.38                           251 199 
 ROSC BZ EP   2    323 40.59                             116    -0.2 4  259 214 
 ROSC BZ I         324 16.72        14.7 0.13                           259 214 
 HEL  HZ EP   1    323 43.37                             113    -0.4 6  286 257 
 HEL  HZ I         324 20.74         9.0 0.46                           286 257 
 GUY  SZ EP   1    323 46.65                             111    -0.3 5  312 237 
 GUY  SE ES   1    324 22.00                             111     0.1 5  312 237 
 GUY  SZ I         324 31.54        15.2 0.43                           312 237 
 RREF HZ EP   1    323 49.81                             110     0.5 5  332 231 
 RREF HN ES   1    324 27.20                             110     1.0 5  332 231 
 RREF HZ I         324 30.18        12.7 0.16                           332 231 
 PRA  HZ EP   1    323 55.32                             106    -0.9 4  398 212 
 PRA  HZ I         324 41.89        23.8 0.19                           398 212 
                                                                                
