 2011  724 0020 17.6 L   6.798 -73.135138.7  RSN 12 0.4 2.3LRSN                1
 GAP=138        0.74       3.1     4.8  4.7 -0.6316E+01  0.1841E+01  0.3142E+01E
 Epicentro: LOS SANTOS - SANTANDER                                             3
 ACTION:UPD 12-07-25 14:02 OP:epov STATUS:               ID:20110724002017 L   I
 2011-07-24-0018-15S.COL___143                                                 6
 STAT SP IPHASW D HRMM SECON CODA AMPLIT PERI AZIMU VELO AIN AR TRES W  DIS CAZ7
 BTL  SZ EP        020 36.66                             172    0.3410 19.8 312 
 BAR2 SZ EP   1    020 36.21                             170   -0.18 7 23.4 193 
 BAR2 SZ ES   1    020 50.58                             170   -0.46 7 23.4 193 
 BAR2 SZ I         020 52.61        35.6 0.20                          23.4 193 
 GIR2 SZ EP   1    020 36.51                             167    0.06 7 31.7 348 
 GIR2 SZ ES   1    020 51.43                             167    0.28 7 31.7 348 
 BRR  HZ EP        020 38.23                             151    0.1710 72.4 298 
 BRR  HE ES        020 54.28                             151    0.2610 72.4 298 
 BRR  HZ I         020 59.53        63.3 0.11                          72.4 298 
 PAM  SZ EP        020 39.33                             150    0.3010 76.8  39 
 PAM  SN ES   1    020 55.99                             150    0.24 7 76.8  39 
 RUS  HZ EP   2    020 40.02                             142   -0.63 5  100 177 
 RUS  HN ES   2    020 58.69                             142    0.07 5  100 177 
 BRI  SZ EP   1    020 40.99                             140    0.18 7  108  20 
 BRI  SZ ES   1    020 58.46                             140   -0.45 7  108  20 
 BRI  SZ I         021  4.66        32.9 0.50                           108  20 
 OCA  SZ EP        020 45.02                             128   -0.39 9  161 353 
 OCA  SZ ES   1    021  6.26                             128   -0.84 7  161 353 
 OCA  SZ I         021  9.92        31.8 0.30                           161 353 
 NOR  SZ EP   1    020 53.10                             117    0.07 6  236 235 
 NOR  SN ES   1    021 20.35                             117   -0.31 6  236 235 
 CHI  HZ EP   2    020 55.11                             116    0.18 4  249 195 
 CHI  HN ES   1    021 24.04                             116   -0.01 6  249 195 
 HEL  HZ EP   2    020 58.55                             113    0.96 4  273 256 
 PRA  HZ EP   1    021 11.31                             105    0.37 4  392 210 
 PRA  HE ES   1    021 51.63                             105   -0.91 4  392 210 
                                                                                
