 2015 1124 0918 35.0 L   6.810 -73.124150.0  RSN 19 0.4 2.1LRSN                1
 GAP=139        0.98       2.5     3.5  4.6 -0.2001E+01  0.5441E+01  0.5883E+00E
 Epicentro: LOS SANTOS - SANTANDER                                             3
 ACTION:UPD 15-12-28 16:13 OP:cam  STATUS:               ID:20151124091835 L   I
 OLDACT:REG 15-11-24 13:03 OP:ak   STATUS:               ID:20151124091749     3
 2015-11-24-0917-49M.COL___215                                                 6
 STAT SP IPHASW D HRMM SECON CODA AMPLIT PERI AZIMU VELO AIN AR TRES W  DIS CAZ7
 BAR2 EZ EP        918 55.12                             170   -0.0610 24.9 195 
 BAR2 EZ ES        919 10.50                             170   -0.4110 24.9 195 
 BAR2 EZ I         919 12.86        19.0 0.28            167           24.9 195 
 BRR  HZ EP     D  918 57.01                             153    0.3110 72.8 297 
 BRR  HN ES        919 14.46                             153    0.8410 72.8 297 
 BRR  HZ I         919 16.80        16.8 0.19            150           72.8 297 
 PAM  EZ EP        918 57.94                             152    0.4010 75.0  39 
 PAM  EN ES        919 15.17                             152    0.0610 75.0  39 
 PAM  EZ I         919 17.33        18.6 0.50            158           75.0  39 
 RUS  HZ EP        918 59.07                             144   -0.1710  102 177 
 RUS  HN ES        919 18.04                             144   -0.1110  102 177 
 RUS  HZ I         919 20.66         7.2 0.38            146            102 177 
 PTB  HZ EP        919  1.76                             132   -0.79 9  150 259 
 PTB  HN ES        919 23.38                             132   -0.65 9  150 259 
 PTB  HZ I         919 29.18        19.6 0.34            132            150 259 
 OCA  HZ EP        919  3.94                             131    0.37 9  159 352 
 OCA  HE ES        919 25.80                             131   -0.05 9  159 352 
 OCA  HZ I         919 31.25        21.7 0.28            133            159 352 
 SPBC HZ EP        919  4.05                             130   -0.00 9  166 219 
 SPBC HE ES        919 26.58                             130   -0.13 9  166 219 
 SPBC HZ I         919 33.29        33.9 0.36            130            166 219 
 ZAR  HZ EP        919  7.75                             123   -0.16 8  206 292 
 ZAR  HE ES        919 33.48                             123   -0.10 8  206 292 
 ZAR  HZ I         919 39.66        19.9 0.07            124            206 292 
 NOR  HZ EP        919 11.31                             119    0.05 8  237 235 
 NOR  HN ES        919 39.53                             119   -0.00 8  237 235 
 NOR  HZ I         919 42.96        12.9 0.18            120            237 235 
 SML  HZ EP        919 11.82                             118   -0.05 8  244 335 
 SML  HN ES        919 40.03                             118   -0.59 8  244 335 
 SML  HZ I         919 43.28        25.2 0.16            120            244 335 
 ROSC BZ EP        919 14.05                             117    0.46 8  255 211 
 ROSC BN ES   4    919 47.20                             117    3.51 0  255 211 
 ROSC BZ I         919 51.04        13.3 0.40            119            255 211 
 HEL  HZ EP        919 16.15                             115    0.43 8  275 256 
 HEL  HN ES        919 48.09                             115    0.61 8  275 256 
 HEL  HZ I         919 53.87         7.4 0.36            116            275 256 
 URE  HZ EP        919 15.73                             114   -0.75 7  286 292 
 URE  HE ES   4    919 47.12                             114   -1.71 0  286 292 
 URE  HZ I         919 55.89         7.4 0.25            115            286 292 
 SOCV BZ EP   4    919 16.61                             113   -1.34 0  299  57 
 SOCV BN ES   4    919 49.17                             113   -2.29 0  299  57 
 ELA  HZ EP   4    919 23.93                             111    1.61 0  332 230 
 ELA  HN ES        920  0.17                             111    0.94 7  332 230 
 ELA  HZ I         920  6.94         6.5 0.38            112            332 230 
 CBOC HZ EP        919 22.83                             110    0.44 7  336 252 
 CBOC HN ES        919 59.35                             110   -0.01 7  336 252 
 CBOC HZ I         920  6.81         2.1 0.36            111            336 252 
 MON  HZ EP   4    919 22.43                             109   -1.87 0  355 308 
 MON  HN ES   4    920  0.21                             109   -2.55 0  355 308 
 MON  HZ I         920  3.74         2.9 0.39            111            355 308 
 PRA  HZ EP        919 28.47                             107   -0.45 6  394 210 
 PRA  HN ES        920 10.63                             107   -0.35 6  394 210 
 PRA  HZ I         920 19.52         5.8 0.48            109            394 210 
 ORTC HZ EP   1    919 28.81                             107   -0.53 4  398 216 
 ORTC HN ES        920 11.95                             107    0.23 6  398 216 
 ORTC HZ I         920 16.98         3.6 0.43            108            398 216 
 SJC  HZ EP   4    919 29.19                             106   -1.56 0  410 327 
 SJC  HN ES   4    920 10.27                             106   -3.96 0  410 327 
 SJC  HZ I         920 14.81         1.7 0.36            108            410 327 
                                                                                
