 2010 1224 0817 20.7 L   6.830 -73.163142.5  RSN  8 0.3 1.7LRSN                1
 GAP=156        0.72       4.9     6.0 11.0 -0.1421E+02  0.2706E+02 -0.2233E+02E
 Epicentro: LOS SANTOS - SANTANDER                                             3
 ACTION:UP  11-01-14 15:26 OP:pat  STATUS:               ID:20101224081720 L   I
 2010-12-24-0800-00M.COL___132                                                 6
 STAT SP IPHASW D HRMM SECON CODA AMPLIT PERI AZIMU VELO SNR AR TRES W  DIS CAZ7
 BAR2 SZ EP   1    817 40.13                             169     0.1 8   26 185 
 BAR2 SZ I         817 58.47        13.5 0.25                            26 185 
 RUS  HZ EP   1    817 44.05                             142    -0.3 8  104 175 
 RUS  HE ES   1    818  2.83                             142     0.0 8  104 175 
 RUS  HZ I         818  5.49         6.7 0.41                           104 175 
 GRA  SZ EP        817 45.55                             137     0.110  123  19 
 GRA  SZ I         818  8.38         5.4 0.23                           123  19 
 OCA  SZ EP   1    817 48.33                             130    -0.1 7  157 354 
 OCA  SZ I         818 13.28         8.1 0.40                           157 354 
 NOR  SZ EP   1    817 56.66                             118     0.4 6  235 234 
 NOR  SE ES   1    818 24.67                             118     0.6 6  235 234 
 CHI  HZ EP   1    817 58.26                             116    -0.3 6  251 195 
 CHI  HZ I         818  0.99         3.4 0.36                           251 195 
 HEL  HE ES   1    818 31.08                             114    -0.7 6  271 255 
 PRA  HZ EP   1    818 14.49                             106     0.2 5  394 209 
                                                                                
