 2011 1124 0645  7.4 L   7.485 -73.073149.2  RSN  6 0.2 1.8LRSN                1
 GAP=129        0.39       2.2     2.8  3.6  0.1112E+01  0.1259E+01  0.9923E+00E
 Epicentro: EL PLAYON - SANTANDER                                              3
 ACTION:UPD 12-07-13 16:12 OP:ep   STATUS:               ID:20111124064507 L   I
 2011-11-24-0643-29S.COL___177                                                 6
 STAT SP IPHASW D HRMM SECON CODA AMPLIT PERI AZIMU VELO AIN AR TRES W  DIS CAZ7
 PAM  SZ EP   1    645 28.46                             163    0.07 7 44.3 111 
 PAM  SZ I         645 28.62         7.7 0.16                          44.3 111 
 PAM  SE ES   1    645 44.71                             163   -0.07 7 44.3 111 
 BRR  HZ EP   1    645 29.45                             150   -0.10 7 82.0 239 
 BRR  HZ I         645 29.77        24.7 0.12                          82.0 239 
 BRR  HN ES   1    645 47.11                             150    0.28 7 82.0 239 
 OCA  SZ EP   1    645 30.21                             148    0.09 7 87.6 342 
 OCA  SZ ES   1    645 47.85                             148    0.00 7 87.6 342 
 OCA  SZ I         645 49.18         7.0 0.30                          87.6 342 
 BAR2 SZ EP        645 30.97                             145   -0.0810 99.5 187 
 BAR2 SZ ES   1    645 49.27                             145   -0.23 7 99.5 187 
 BAR2 SZ I         645 51.12        23.6 0.27                          99.5 187 
 RUS  HZ EP   1    645 37.87                             128   -0.06 7  176 180 
 RUS  HN ES   1    646  2.00                             128    0.26 7  176 180 
 RUS  HZ I         646  3.48         2.3 0.38                           176 180 
 ZAR  HZ EP   2    645 39.74                             124    0.39 4  197 270 
 ZAR  HE ES   1    646  4.01                             124   -0.27 6  197 270 
 ZAR  HZ I         646  5.57         6.6 0.10                           197 270 
                                                                                
