 2013  724 0748 58.4 L   6.028 -73.698109.6  RSN  4 0.1 1.5LRSN                1
 GAP=202        0.39       2.9     2.1  4.3  0.2055E+01  0.1679E+01  0.1369E+01E
 Epicentro: BOLIVAR - SANTANDER                                                3
 ACTION:UPD 13-08-12 10:39 OP:ep   STATUS:               ID:20130724074858 L   I
 OLDACT:REG 13-07-24 09:18 OP:cam  STATUS:               ID:20130724073959     3
 2013-07-24-0739-59M.COL___267                                                 6
 STAT SP IPHASW D HRMM SECON CODA AMPLIT PERI AZIMU VELO AIN AR TRES W  DIS CAZ7
 RUS  HZ EP   1    749 16.66                             146    0.25 7 69.7 102 
 RUS  HZ I         749 16.98         5.5 0.30            150           69.7 102 
 RUS  HN ES   1    749 30.38                             146   -0.04 7 69.7 102 
 BAR2 SZ EP        749 17.17                             140    0.0210 84.5  42 
 BAR2 SZ ES   1    749 31.54                             140   -0.21 7 84.5  42 
 BAR2 SZ I         749 33.27        14.5 0.28            144           84.5  42 
 PTB  HZ EP        749 18.15                             134   -0.0910  101 304 
 PTB  HN ES        749 33.71                             134    0.0210  101 304 
 PTB  HZ I         749 36.63         4.1 0.10            136            101 304 
 BRR  HZ EP        749 19.78                             129   -0.1010  119 359 
 BRR  HE ES        749 36.76                             129    0.1510  119 359 
 BRR  HZ I         749 37.72         5.5 0.12            132            119 359 
                                                                                
