 2013 1024 0357  0.2 L   6.806 -73.143148.7  RSN 10 0.5 1.8LRSN                1
 GAP=137        1.15       3.5     4.8  6.7 -0.1032E+00  0.4492E+01  0.1324E+00E
 Epicentro: LOS SANTOS - SANTANDER                                             3
 ACTION:UPD 13-11-25 09:23 OP:ep   STATUS:               ID:20131024035700 L   I
 OLDACT:REG 13-10-24 08:28 OP:carl STATUS:               ID:20131024034837     3
 2013-10-24-0348-37M.COL___223                                                 6
 STAT SP IPHASW D HRMM SECON CODA AMPLIT PERI AZIMU VELO AIN AR TRES W  DIS CAZ7
 BAR2 SZ EP        357 20.26                             170    0.0910 24.1 191 
 BAR2 SZ ES        357 34.99                             170   -0.7810 24.1 191 
 BAR2 SZ I         357 36.87        15.4 0.40            168           24.1 191 
 BRR  HZ EP        357 22.19                             153    0.5510 71.2 298 
 BRR  HN ES        357 39.48                             153    1.1010 71.2 298 
 BRR  HZ I         357 42.39         9.1 0.14            150           71.2 298 
 PAM  SZ EP        357 22.76                             152    0.1010 76.6  40 
 PAM  SN ES   1    357 40.25                             152    0.05 7 76.6  40 
 PAM  SZ I         357 42.20        13.4 0.52            156           76.6  40 
 RUS  HZ EP        357 24.34                             144    0.0810  101 176 
 RUS  HN ES        357 43.02                             144   -0.0310  101 176 
 RUS  HZ I         357 43.96         4.0 0.24            145            101 176 
 PTB  HZ EP        357 26.87                             133   -0.56 9  148 259 
 PTB  HN ES        357 48.18                             133   -0.50 9  148 259 
 PTB  HZ I         357 53.98         7.5 0.40            131            148 259 
 SPBC HZ EP        357 29.12                             130    0.15 9  164 219 
 SPBC HN ES        357 51.31                             130   -0.12 9  164 219 
 SPBC HZ I         357 53.99         9.9 0.22            129            164 219 
 ZAR  HN ES        357 58.37                             123    0.09 9  204 292 
 ZAR  HZ I         358  5.07         7.8 0.26            122            204 292 
 NOR  HE ES        358  4.49                             119    0.28 8  235 234 
 NOR  HE I         358 11.83        10.0 0.28            119            235 234 
 SML  HZ EP        357 36.57                             118   -0.35 8  243 335 
 SML  HN ES        358  4.91                             118   -0.66 8  243 335 
 SML  HZ I         358  9.00         9.7 0.10            119            243 335 
 CHI  HZ EP        357 38.54                             118    0.42 8  249 195 
 CHI  HN ES        358  7.52                             118   -0.19 8  249 195 
 CHI  HZ I         358 17.32         2.8 0.50            118            249 195 
                                                                                
