 2015  124 0330 12.5 L   6.805 -73.161145.4  RSN 10 0.5 1.6LRSN                1
 GAP=134        1.18       3.4     4.7  6.3 -0.5185E+00  0.8286E+01  0.9368E+00E
 Epicentro: LOS SANTOS - SANTANDER                                             3
 ACTION:UPD 15-03-02 15:41 OP:nd   STATUS:               ID:20150124033012 L   I
 OLDACT:REG 15-01-24 13:28 OP:carl STATUS:               ID:20150124032749     3
 2015-01-24-0327-49M.COL___265                                                 6
 STAT SP IPHASW D HRMM SECON CODA AMPLIT PERI AZIMU VELO AIN AR TRES W  DIS CAZ7
 BAR2 EZ EP        330 32.17                             170    0.0410 23.7 186 
 BAR2 EZ ES        330 46.83                             170   -0.5810 23.7 186 
 BAR2 EZ I         330 48.17         9.7 0.22            170           23.7 186 
 BRR  HZ EP        330 33.86                             153    0.3110 69.4 299 
 BRR  HN ES        330 51.02                             153    1.0810 69.4 299 
 BRR  HZ I         330 55.07         7.0 0.18            153           69.4 299 
 PAM  SZ EP        330 34.95                             150    0.2010 78.0  41 
 PAM  SN ES        330 52.05                             150   -0.0310 78.0  41 
 PAM  SZ I         330 54.14         6.1 0.54            154           78.0  41 
 RUS  HZ EP        330 35.99                             144   -0.3110  101 175 
 RUS  HN ES        330 55.06                             144    0.2210  101 175 
 RUS  HZ I         330 56.19         3.4 0.44            146            101 175 
 PTB  HZ EP        330 39.03                             132   -0.31 9  146 258 
 PTB  HN ES        330 59.31                             132   -0.93 9  146 258 
 PTB  HZ I         331  1.74         4.7 0.16            133            146 258 
 SPBC HZ EP        330 40.68                             129   -0.27 9  163 218 
 SPBC HN ES        331  2.93                             129   -0.18 9  163 218 
 SPBC HZ I         331  7.48         8.0 0.62            131            163 218 
 ZAR  HZ EP        330 45.51                             123    0.73 9  202 292 
 ZAR  HN ES        331  9.81                             123   -0.11 9  202 292 
 ZAR  HZ I         331 15.12         4.8 0.36            124            202 292 
 SML  HZ EP        330 48.34                             117   -0.67 8  242 336 
 SML  HN ES        331 17.20                             117   -0.26 8  242 336 
 CHI  HZ EP        330 50.65                             117    0.42 8  249 195 
 CHI  HN ES        331 19.75                             117    0.12 8  249 195 
 CHI  HZ I         331 23.00         3.5 0.58            119            249 195 
 GUY2CHZ EP        330 56.08                             112    0.07 7  300 234 
 GUY2CHN ES        331 30.47                             112    0.55 7  300 234 
 GUY2CHZ I         331 38.29         2.1 0.58                           300 234 
                                                                                
