 2010 1024 0425 20.5 L   6.572 -73.390115.9  RSN  6 0.3 1.5LRSN                1
 GAP=104        0.63       4.6     6.9  5.5  0.1498E+02 -0.3318E+01 -0.4471E+00E
 Epicentro: HATO - SANTANDER                                                   3
 ACTION:UP  11-02-18 11:11 OP:tino STATUS:               ID:20101024042520 L   I
 2010-10-24-0424-41S.COL___125                                                 6
 STAT SP IPHASW D HRMM SECON CODA AMPLIT PERI AZIMU VELO SNR AR TRES W  DIS CAZ7
 BAR2 SZ EP   1    425 36.66                             168     0.1 7   23  85 
 BAR2 SZ ES   1    425 49.30                             168     0.3 7   23  85 
 BAR2 SZ I         425 50.71        22.2 0.33                            23  85 
 BRR  HZ IP     D  425 38.14                             147    -0.210   69 329 
 BRR  HZ I         425 45.71        11.9 0.09                            69 329 
 BRR  HN ES   1    425 52.44                             147     0.1 7   69 329 
 RUS  HZ EP   1    425 39.85                             142    -0.1 7   82 156 
 RUS  HZ I         425 40.31         4.9 0.10                            82 156 
 RUS  HE ES   2    425 54.71                             142    -0.5 5   82 156 
 GRA  SZ IP        425 46.41                             122    -0.1 9  159  24 
 GRA  SZ I         426  9.69         3.6 0.27                           159  24 
 YOP  SZ EP   1    425 48.30                             120     0.4 7  172 141 
 HEL  HZ EP   2    425 55.93                             111     0.2 4  240 260 
 HEL  HZ I         426 24.36         2.0 0.55                           240 260 
                                                                                
