 2012 1124 0918 19.2 L   6.820 -73.169150.3  RSN  5 0.3 1.4LRSN                1
 GAP=180        0.60       3.7     5.6  6.3  0.6860E+00  0.7843E+01  0.5054E+00E
 Epicentro: LOS SANTOS - SANTANDER                                             3
 ACTION:UPD 12-12-05 15:35 OP:}ep  STATUS:               ID:20121124091820dL   I
 2012-11-24-0910-00M.COL___233                                                 6
 STAT SP IPHASW D HRMM SECON CODA AMPLIT PERI AZIMU VELO AIN AR TRES W  DIS CAZ7
 BAR2 SZ EP   1    918 39.47                             170    0.02 7 25.2 183 
 BAR2 SZ ES   1    918 55.07                             170   -0.14 7 25.2 183 
 BAR2 SZ I         918 56.30         9.6 0.48                          25.2 183 
 GIR2 SZ EP   1    918 39.20                             169   -0.18 7 28.7 355 
 GIR2 SZ ES   1    918 55.66                             169    0.57 7 28.7 355 
 GIR2 SZ I         918 56.65         5.3 0.29                          28.7 355 
 RUS  HZ EP   1    918 43.94                             144    0.34 7  103 175 
 RUS  HN ES   1    919  2.25                             144   -0.36 7  103 175 
 RUS  HZ I         919  3.16         2.2 0.26                           103 175 
 PTB  HZ EP   1    918 46.49                             133    0.10 7  146 258 
 PTB  HN ES   1    919  7.51                             133   -0.05 7  146 258 
 PTB  HZ I         919 14.79         3.8 0.38                           146 258 
 OCA  HE ES   1    919  9.51                             131   -0.34 7  158 354 
                                                                                
