 2011  324 0344 10.1 L   6.782 -72.992138.4  RSN  5 0.4 1.7LRSN                1
 GAP=224        0.76       9.0    12.7 13.1 -0.6273E+02 -0.8016E+02  0.6356E+02E
 Epicentro: CEPITA - SANTANDER                                                 3
 ACTION:UP  11-06-16 14:35 OP:jfem STATUS:               ID:20110324034410 L   I
 2011-03-24-0340-00M.COL___140                                                 6
 STAT SP IPHASW D HRMM SECON CODA AMPLIT PERI AZIMU VELO SNR AR TRES W  DIS CAZ7
 BAR2 SZ EP   1    344 29.28                             167     0.3 7   30 225 
 BAR2 SZ I         344 45.87        10.7 0.11                            30 225 
 BRR  HZ EP   1    344 31.08                             146    -0.4 7   87 294 
 BRR  HN ES   1    344 48.07                             146    -0.1 7   87 294 
 BRR  HZ I         344 52.25         6.9 0.19                            87 294 
 OCA  SZ EP   1    344 38.67                             127     0.3 7  165 347 
 RREF HN ES   1    345 34.61                             109     0.5 5  334 232 
 RREF HZ I         345 41.23         2.6 0.53                           334 232 
 PRA  HZ EP   1    345  3.66                             105    -0.6 4  399 212 
                                                                                
