 2011  224 0955 54.8 L   6.789 -73.319134.0  RSN  5 0.4 1.3LRSN                1
 GAP=127        0.84       6.3     6.2  8.8  0.9013E+00  0.3048E+02  0.4178E+01E
 Epicentro: ZAPATOCA - SANTANDER                                               3
 ACTION:UP  11-03-28 15:10 OP:jfem STATUS:               ID:20110224095554 L   I
 2011-02-24-0952-28S.COL___137                                                 6
 STAT SP IPHASW D HRMM SECON CODA AMPLIT PERI AZIMU VELO SNR AR TRES W  DIS CAZ7
 BTL  SZ EP        956 13.20                             173     0.310   15  22 
 BAR2 SZ EP        956 13.14                             168     0.010   26 146 
 BAR2 SZ ES        956 26.98                             168    -0.410   26 146 
 BAR2 SZ I         956 28.89        10.2 0.26                            26 146 
 RUS  HZ EP   1    956 17.68                             140     0.1 7  103 165 
 RUS  HN ES   1    956 35.57                             140     0.2 7  103 165 
 RUS  HZ I         956 37.72         3.8 0.25                           103 165 
 CHI  HZ EP   2    956 31.32                             115     0.0 4  243 191 
 CHI  HZ I         956 43.24         0.9 0.80                           243 191 
 CHI  HE ES   1    956 59.65                             115    -0.1 6  243 191 
 HEL  HZ EP   1    956 31.41                             114    -0.9 6  253 255 
 HEL  HN ES        957  1.90                             114     0.3 8  253 255 
                                                                                
