 2012  224 0806  6.5 L   6.722 -73.167146.6  RSN  5 0.4 0.9LRSN                1
 GAP=178        0.88       7.3     8.1  9.3  0.1646E+02  0.1530E+01  0.6983E+01E
 ACTION:UP  12-03-07 16:33 OP:epov STATUS:               ID:20120224080606 L   I
 2012-02-24-0800-00M.COL___192                                                 6
 STAT SP IPHASW D HRMM SECON CODA AMPLIT PERI AZIMU VELO AIN AR TRES W  DIS CAZ7
 BAR2 SZ EP   1    8 6 26.03                             174   -0.05 7 14.4 187 
 BAR2 SZ I         8 6 26.30         2.3 0.16                          14.4 187 
 BAR2 SZ ES   1    8 6 41.20                             174   -0.16 7 14.4 187 
 GIR2 SZ EP   1    8 6 25.95                             164   -0.57 7 39.6 356 
 GIR2 SZ ES   1    8 6 41.80                             164   -0.33 7 39.6 356 
 BRR  HZ EP   1    8 6 28.13                             152    0.25 7 73.8 305 
 BRR  HE ES   1    8 6 45.43                             152    0.87 7 73.8 305 
 RUS  HZ EP   1    8 6 30.14                             146    0.40 7 92.2 174 
 RUS  HE ES   1    8 6 47.95                             146    0.07 7 92.2 174 
 RUS  HZ I         8 6 49.63         1.3 0.18                          92.2 174 
 PTB  HN ES   1    8 6 53.46                             133   -0.55 7  144 262 
                                                                                
