 2010  924 0311 45.0 L   6.769 -73.127139.5  RSN 13 0.5 3.0LRSN                1
 GAP=161        1.15       4.5     8.6  8.4 -0.1240E+02  0.1538E+02  0.4766E+01E
 Epicentro: LOS SANTOS - SANTANDER                                             3
 ACTION:UP  11-02-18 11:05 OP:tino STATUS:               ID:20100924031145 L   I
 2010-09-24-0309-08S.COL___119                                                 6
 STAT SP IPHASW D HRMM SECON CODA AMPLIT PERI AZIMU VELO SNR AR TRES W  DIS CAZ7
 BAR2 SZ IP        312  3.54                             171    -0.210   21 198 
 BAR2 SZ ES   2    312 17.82                             171    -0.6 5   21 198 
 BAR2 SZ I         312 19.56       332.5 0.56                            21 198 
 BRR  HZ IP     D  312  5.48                             150    -0.210   75 300 
 BRR  HN ES   1    312 22.38                             150     0.6 7   75 300 
 BRR  HZ I         312 23.63       230.9 0.15                            75 300 
 RUS  HZ EP        312  7.58                             144    -0.310   97 177 
 RUS  HE ES   1    312 25.96                             144     0.3 7   97 177 
 RUS  HZ I         312 27.53       200.1 0.33                            97 177 
 GRA  SZ EP        312 10.61                             135     0.710  128  16 
 GRA  SZ ES   1    312 29.51                             135     0.2 7  128  16 
 GRA  SZ I         312 31.42       224.1 0.21                           128  16 
 OCA  SZ EP        312 12.23                             128    -0.9 9  164 353 
 OCA  SZ I         312 35.92       140.9 0.54                           164 353 
 NOR  SZ EP   2    312 19.53                             117    -0.8 4  235 236 
 NOR  SE ES   2    312 48.03                             117     0.1 4  235 236 
 CHI  HZ EP        312 21.76                             116    -0.3 8  246 196 
 CHI  HN ES   1    312 50.81                             116    -0.1 6  246 196 
 CHI  HZ I         312 54.49        60.8 0.50                           246 196 
 ROSC BZ EP        312 23.37                             116     0.8 8  251 212 
 ROSC BN ES   2    312 51.01                             116    -0.8 4  251 212 
 ROSC BZ I         312 57.42        52.9 0.24                           251 212 
 CVER SZ EP   1    312 25.15                             114     0.4 6  270 203 
 CVER SZ I         312 26.77        65.2 0.28                           270 203 
 HEL  HZ EP   2    312 24.79                             113    -0.2 4  273 257 
 RREF HZ EP   1    312 30.96                             110     0.2 5  321 230 
 RREF HN ES   2    313  6.53                             110     0.0 3  321 230 
 RREF HZ I         313 12.01        58.9 0.35                           321 230 
 DBB  SZ EP   1    312 32.26                             108    -0.2 5  342 275 
 DBB  SZ I         313 16.25        15.7 0.27                           342 275 
 TOL  SZ EP   1    312 33.39                             108     0.5 5  343 225 
                                                                                
