 2013  424 0800 26.6 L   6.728 -73.139130.6  RSN  8 0.4 1.8LRSN                1
 GAP=185        0.86       6.3     6.4  8.5  0.3395E+01  0.1529E+02 -0.1760E+02E
 Epicentro: JORDAN - SANTANDER                                                 3
 ACTION:UPD 13-05-22 14:40 OP:EP   STATUS:               ID:20130424080026 L   I
 2013-04-24-0758-47M.COL___206                                                 6
 STAT SP IPHASW D HRMM SECON CODA AMPLIT PERI AZIMU VELO AIN AR TRES W  DIS CAZ7
 BAR2 SZ EP   1    8 0 44.72                             173    0.45 7 15.7 198 
 BAR2 SZ ES        8 0 57.53                             173   -0.5110 15.7 198 
 BAR2 SZ I         8 1  0.48        12.2 0.28            172           15.7 198 
 GIR2 SZ EP        8 0 44.78                             162    0.0410 39.3 351 
 GIR2 SZ I         8 1  4.58         3.3 0.26            159           39.3 351 
 BRR  HZ EP     C  8 0 46.54                             148    0.1110 75.9 304 
 BRR  HN ES   1    8 1  2.52                             148    0.62 7 75.9 304 
 BRR  HN I         8 1  5.59        14.8 0.14            144           75.9 304 
 RUS  HN ES   2    8 1  5.93                             143    0.73 5 92.6 176 
 RUS  HN I         8 1  7.89         9.5 0.22            137           92.6 176 
 PTB  HZ EP   1    8 0 51.53                             128   -0.79 7  147 262 
 PTB  HN ES   1    8 1 12.28                             128   -0.09 7  147 262 
 PTB  HN I         8 1 17.79         6.7 0.26            123            147 262 
 ZAR  HN ES   2    8 1 23.37                             118   -0.03 4  208 294 
 ZAR  HN I         8 1 31.31        11.3 0.12            113            208 294 
 SML  HN ES   1    8 1 31.68                             113   -0.19 6  251 336 
 SML  HN I         8 1 33.09        16.3 0.10            108            251 336 
 HEL  HE ES   2    8 1 37.21                             112    0.56 4  271 257 
 HEL  HE I         8 1 43.75         3.4 0.36            107            271 257 
                                                                                
