 2013  124 0439  1.9 L   6.709 -73.205163.1  RSN  4 0.3 1.6LRSN                1
 GAP=221        0.68       7.4     5.7  8.7  0.2198E+02 -0.1252E+02 -0.2970E+02E
 Epicentro: VILLANUEVA - SANTANDER                                             3
 ACTION:UPD 13-02-15 09:16 OP:ep   STATUS:               ID:20130124043901 L   I
 2013-01-24-0438-36M.COL___180                                                 6
 STAT SP IPHASW D HRMM SECON CODA AMPLIT PERI AZIMU VELO AIN AR TRES W  DIS CAZ7
 BAR2 SZ EP        439 23.20                             175   -0.2910 13.1 169 
 BAR2 SZ I         439 23.45         4.8 0.34            171           13.1 169 
 BRR  HZ EP        439 25.17                             155    0.2010 71.3 308 
 BRR  HN ES   2    439 42.98                             155    0.04 5 71.3 308 
 BRR  HN I         439 43.68         5.7 0.22            153           71.3 308 
 RUS  HE EP        439 26.56                             150   -0.2510 91.3 172 
 RUS  HZ EP        439 27.54                             149           91.3 172 
 RUS  HN ES        439 46.47                             150    0.2410 91.3 172 
 PTB  HZ EP        439 30.02                             137    0.35 9  140 262 
 PTB  HN ES        439 51.06                             137   -0.25 9  140 262 
 PTB  HN I         439 56.47         6.5 0.48            135            140 262 
                                                                                
