 2013 1124 0852 38.5 L   6.821 -73.194142.6  RSN 10 0.4 1.6LRSN                1
 GAP=130        0.97       3.3     5.3  6.7 -0.7234E+00  0.1260E+02  0.1088E+01E
 Epicentro: ZAPATOCA - SANTANDER                                               3
 ACTION:UPD 14-01-09 16:30 OP:ep   STATUS:               ID:20131124085239dL   I
 OLDACT:REG 13-11-24 07:58 OP:mh   STATUS:               ID:20131124085000     3
 2013-11-24-0850-00M.COL___282                                                 6
 STAT SP IPHASW D HRMM SECON CODA AMPLIT PERI AZIMU VELO AIN AR TRES W  DIS CAZ7
 BAR2 SZ EP   1    852 58.23                             169    0.43 7 25.3 177 
 BAR2 SZ ES   1    853 13.06                             169    0.21 7 25.3 177 
 BAR2 SZ I         853 14.45        17.4 0.23            164           25.3 177 
 BRR  HZ EP   1    852 59.82                             154    0.82 7 65.4 299 
 BRR  HN ES   1    853 15.46                             154    0.49 7 65.4 299 
 BRR  HZ I         853 17.34         7.2 0.08            147           65.4 299 
 PAM  SZ EP        853  0.81                             150    0.3110 79.2  44 
 PAM  SN ES        853 17.39                             150   -0.2610 79.2  44 
 PAM  SZ I         853 19.84        10.3 0.51            151           79.2  44 
 RUS  HZ EP        853  2.28                             142    0.1210  103 173 
 RUS  HN ES        853 20.44                             142   -0.1710  103 173 
 RUS  HZ I         853 22.34         2.5 0.22            136            103 173 
 PTB  HZ EP        853  4.43                             132   -0.36 9  143 257 
 PTB  HN ES   1    853 25.06                             132   -0.23 7  143 257 
 PTB  HZ I         853 30.07         3.7 0.26            125            143 257 
 OCA  HZ EP   1    853  6.05                             129   -0.26 7  157 355 
 OCA  HE ES   1    853 27.07                             129   -0.92 7  157 355 
 OCA  HZ I         853 31.02         7.9 0.17            126            157 355 
 SPBC HZ EP        853  5.87                             129   -0.76 9  162 217 
 SPBC HZ I         853 34.67         5.0 0.22            122            162 217 
 ZAR  HZ EP        853 10.53                             122    0.38 9  198 292 
 ZAR  HN ES   4    853 38.31                             122    3.48 0  198 292 
 ZAR  HZ I         853 42.13         4.3 0.15            117            198 292 
 SML  HN ES   1    853 42.75                             117    0.19 6  239 336 
 CHI  HZ EP   1    853 16.71                             116    0.57 6  250 194 
 CHI  HN ES   1    853 45.43                             116   -0.05 6  250 194 
 CHI  HZ I         853 50.53         1.4 0.29            111            250 194 
 SJC  HZ EP   4    853 32.63                             105   -0.77 0  404 327 
 SJC  HN ES   4    854 12.38                             105   -3.84 0  404 327 
                                                                                
