 2013  624 0656 49.2 L   6.765 -73.177149.9  RSN  4 0.3 1.3LRSN                1
 GAP=185        0.62       8.0     4.7  5.3 -0.6686E+01  0.5469E+01  0.2272E+01E
 Epicentro: LOS SANTOS - SANTANDER                                             3
 ACTION:UPD 14-01-08 09:56 OP:ep   STATUS:               ID:20130624065649 L   I
 OLDACT:REG 13-06-24 07:14 OP:jn   STATUS:               ID:20130624064959     3
 2013-06-24-0649-59M.COL___266                                                 6
 STAT SP IPHASW D HRMM SECON CODA AMPLIT PERI AZIMU VELO AIN AR TRES W  DIS CAZ7
 BAR2 SZ EP        657  9.16                             172   -0.0810 19.1 182 
 BAR2 SZ ES        657 25.08                             172    0.2010 19.1 182 
 BAR2 SZ I         657 25.79         4.6 0.20            168           19.1 182 
 GIR2 SZ EP   1    657  9.14                             166   -0.31 7 34.7 357 
 GIR2 SZ ES   1    657 24.91                             166   -0.34 7 34.7 357 
 BRR  HZ EP        657 10.86                             154    0.1310 70.1 303 
 BRR  HN ES   1    657 27.88                             154    0.35 7 70.1 303 
 BRR  HZ I         657 32.06         3.6 0.26            148           70.1 303 
 PTB  HZ EP        657 16.35                             134    0.22 9  144 260 
 PTB  HN ES        657 36.82                             134   -0.32 9  144 260 
 PTB  HZ I         657 44.52         2.8 0.42            131            144 260 
                                                                                
