 2015  524 0756 19.7 L   6.795 -73.097152.1  RSN 15 0.3 1.9LRSN                1
 GAP=168        0.72       2.2     3.3  4.2  0.1224E+00  0.1110E+01 -0.5724E-01E
 Epicentro: LOS SANTOS - SANTANDER                                             3
 ACTION:UPD 15-09-10 22:06 OP:cam  STATUS:               ID:20150524075619 L   I
 OLDACT:REG 15-05-24 12:36 OP:spq  STATUS:               ID:20150524074742     3
 2015-05-24-0747-42M.COL___288                                                 6
 STAT SP IPHASW D HRMM SECON CODA AMPLIT PERI AZIMU VELO AIN AR TRES W  DIS CAZ7
 BAR2 EZ EP        756 40.16                             171    0.0110 24.3 203 
 BAR2 EZ ES   1    756 56.03                             171   -0.03 7 24.3 203 
 BAR2 EZ I         756 56.84        11.0 0.26            167           24.3 203 
 BRR  HZ EP        756 42.09                             152    0.2410 76.3 297 
 BRR  HN ES        756 59.58                             152    0.4810 76.3 297 
 BRR  HZ I         757  4.36         8.2 0.14            150           76.3 297 
 RUS  HZ EP        756 44.03                             145   -0.0310 99.7 179 
 RUS  HE ES        757  2.97                             145   -0.0510 99.7 179 
 RUS  HZ I         757  5.65         5.0 0.34            147           99.7 179 
 OCA  HZ EP        756 49.04                             131    0.37 9  162 351 
 OCA  HN ES        757 10.87                             131   -0.36 9  162 351 
 OCA  HZ I         757 16.22        11.9 0.21            133            162 351 
 SPBC HZ EP        756 49.09                             130    0.08 9  166 221 
 SPBC HN ES        757 11.64                             130   -0.19 9  166 221 
 SPBC HZ I         757 18.30        14.5 0.38            130            166 221 
 ZAR  HZ EP   1    756 52.63                             123   -0.50 6  209 292 
 ZAR  HE ES        757 18.53                             123   -0.65 8  209 292 
 ZAR  HZ I         757 24.67         9.7 0.62            123            209 292 
 NOR  HZ EP   1    756 56.84                             119    0.57 6  239 235 
 NOR  HN ES        757 24.59                             119   -0.18 8  239 235 
 NOR  HZ I         757 26.49         5.5 0.26            120            239 235 
 SML  HZ EP        756 56.89                             118   -0.14 8  247 334 
 SML  HN ES   1    757 26.35                             118    0.23 6  247 334 
 SML  HZ I         757 28.25        11.8 0.06            120            247 334 
 ROSC BZ EP   4    756 59.72                             118    1.26 0  255 212 
 ROSC BE ES   4    757 30.88                             118    2.22 0  255 212 
 ROSC BZ I         757 34.48         7.0 0.35            119            255 212 
 HEL  HZ EP   4    757  2.17                             116    1.33 0  277 256 
 HEL  HN ES   1    757 33.06                             116    0.16 6  277 256 
 HEL  HZ I         757 38.89         3.9 0.30            116            277 256 
 GUY2CHZ EP   4    757  5.44                             113    1.34 0  305 235 
 GUY2CHE ES   4    757 43.27                             113    4.57 0  305 235 
 GUY2CHZ I         757 47.40         4.8 0.62                           305 235 
 PTGC HZ EP        757  3.05                             113   -0.55 7  306 160 
 CBOC HZ EP   1    757  8.02                             111    0.53 5  339 252 
 CBOC HE ES   1    757 44.86                             111    0.13 5  339 252 
 CBOC HZ I         757 50.83         1.1 0.22            111            339 252 
 MON  HZ EP   4    757  7.44                             109   -2.08 0  358 308 
 MON  HN ES   4    757 46.72                             109   -1.63 0  358 308 
 MON  HZ I         757 48.55         2.1 0.40            110            358 308 
 ORTC HZ EP        757 14.48                             107    0.28 6  398 217 
 ORTC HN ES   4    757 58.71                             107    2.04 0  398 217 
 ORTC HZ I         758  1.77         2.0 0.38            108            398 217 
                                                                                
