 2014 1024 0323 56.2 L   6.787 -73.149143.3  RSN 12 0.5 2.1LRSN                1
 GAP= 71        1.17       4.1     3.9  6.0 -0.2548E+01  0.3339E+01  0.3369E+01E
 Epicentro: LOS SANTOS - SANTANDER                                             3
 ACTION:UPD 14-11-29 23:55 OP:nd   STATUS:               ID:20141024032356 L   I
 OLDACT:UP  14-10-27 16:01 OP:cam  STATUS:               ID:20141024031814     3
 OLDACT:ARG 14-10-27 14:42 OP:cam  STATUS:               ID:20141024031814     3
 2014-10-24-0318-14M.COL___283                                                 6
 STAT SP IPHASW D HRMM SECON CODA AMPLIT PERI AZIMU VELO AIN AR TRES W  DIS CAZ7
 BAR2 SZ EP        324 15.50                             171   -0.0510 21.9 190 
 BAR2 SZ ES        324 30.72                             171    0.1010 21.9 190 
 BAR2 SZ I         324 32.10        25.7 0.22            169           21.9 190 
 BRR  HZ EP        324 17.36                             152    0.2110 71.5 300 
 BRR  HN ES        324 34.07                             152    0.6110 71.5 300 
 BRR  HZ I         324 38.22        22.3 0.24            154           71.5 300 
 PAM  SZ EP     D  324 18.57                             150    0.2910 78.7  39 
 PAM  SN ES        324 35.69                             150    0.2210 78.7  39 
 PAM  SZ I         324 37.75        24.1 0.50            154           78.7  39 
 RUS  HZ EP        324 19.59                             144   -0.0710 99.2 176 
 RUS  HN ES        324 37.81                             144   -0.1110 99.2 176 
 RUS  HZ I         324 39.34        14.5 0.36            144           99.2 176 
 PTB  HZ EP        324 21.94                             132   -1.02 9  147 259 
 PTB  HN ES        324 42.97                             132   -0.82 9  147 259 
 PTB  HZ I         324 45.69        12.1 0.22            133            147 259 
 TAM  HZ EP     C  324 24.04                             130    0.31 9  155 104 
 TAM  HE ES        324 44.27                             130   -0.91 9  155 104 
 TAM  HE I         324 47.22        23.3 0.54            133            155 104 
 OCA  HZ EP        324 24.31                             129   -0.18 9  162 353 
 OCA  HN ES   4    324 45.04                             129   -1.49 0  162 353 
 SPBC HZ EP        324 24.55                             129    0.12 9  162 219 
 SPBC HN ES        324 46.48                             129    0.06 9  162 219 
 SPBC HZ I         324 53.50        21.8 0.28            130            162 219 
 CHI  HZ EP        324 33.95                             117    0.30 8  247 195 
 CHI  HN ES        325  3.22                             117    0.39 8  247 195 
 CHI  HZ I         325  9.33         6.3 0.34            118            247 195 
 ROSC BZ EP        324 34.74                             116    0.66 8  251 211 
 HEL  HZ EP        324 36.87                             114    0.62 8  271 256 
 GUY2CHZ EP   4    324 40.76                             112    1.15 0  300 235 
 CBOC HZ EP        324 42.35                             109   -0.62 7  333 252 
 PRA  HZ EP   4    324 47.93                             106   -1.59 0  391 210 
                                                                                
