 2015  524 0836 46.2 L   6.555 -73.493117.9  RSN 13 0.4 1.8LRSN                1
 GAP= 77        0.90       2.6     3.5  5.4 -0.1708E+01  0.8032E+01 -0.1589E+01E
 Epicentro: EL CARMEN - SANTANDER                                              3
 ACTION:UPD 15-09-10 22:06 OP:cam  STATUS:               ID:20150524083646 L   I
 OLDACT:UP  15-05-24 18:53 OP:spq  STATUS:               ID:20150524082748     3
 OLDACT:REG 15-05-24 12:38 OP:spq  STATUS:               ID:20150524082748     3
 2015-05-24-0827-48M.COL___288                                                 6
 STAT SP IPHASW D HRMM SECON CODA AMPLIT PERI AZIMU VELO AIN AR TRES W  DIS CAZ7
 BAR2 EZ EP        837  3.01                             163    0.2210 34.6  83 
 BAR2 EZ ES   1    837 15.96                             163    0.19 7 34.6  83 
 BAR2 EZ I         837 17.14        32.3 0.46            167           34.6  83 
 BRR  HZ EP        837  3.85                             149   -0.1610 65.6 338 
 BRR  HE ES        837 17.81                             149   -0.1210 65.6 338 
 BRR  HZ I         837 25.06         6.4 0.08            149           65.6 338 
 RUS  HZ EP   1    837  6.13                             142   -0.01 7 86.2 148 
 RUS  HN ES   1    837 21.96                             142    0.24 7 86.2 148 
 RUS  HZ I         837 23.20         8.8 0.38            147           86.2 148 
 SPBC HZ EP        837  7.98                             131   -0.3310  119 213 
 SPBC HN ES        837 24.98                             131   -0.6110  119 213 
 SPBC HZ I         837 30.30        18.1 0.12            135            119 213 
 ZAR  HZ EP        837 14.80                             118    0.14 9  183 305 
 ZAR  HE ES        837 37.75                             118    0.86 9  183 305 
 ZAR  HZ I         837 39.50        10.9 0.28            121            183 305 
 OCA  HZ EP   1    837 15.08                             118   -0.22 7  187   6 
 OCA  HN ES        837 37.83                             118   -0.20 9  187   6 
 OCA  HZ I         837 45.00        20.2 0.30            121            187   6 
 NOR  HZ EP        837 14.79                             118   -0.43 9  188 234 
 NOR  HE ES        837 38.25                             118    0.35 9  188 234 
 NOR  HZ I         837 40.57         8.4 0.12            121            188 234 
 HEL  HZ EP        837 20.68                             113    0.52 8  229 260 
 HEL  HN ES        837 46.32                             113   -0.37 8  229 260 
 HEL  HZ I         837 50.77         4.6 0.34            115            229 260 
 GUY2CHZ EP   1    837 23.92                             110    0.74 6  254 235 
 GUY2CHN ES   4    837 53.89                             110    1.82 0  254 235 
 GUY2CHZ I         838  1.23         3.3 0.50                           254 235 
 SML  HZ EP        837 22.84                             110    0.00 8  256 346 
 SML  HN ES   4    837 52.64                             110    1.19 0  256 346 
 SML  HZ I         837 58.74         8.2 0.09            112            256 346 
 CBOC HZ EP   4    837 28.36                             107    1.53 0  289 255 
 CBOC HN ES   1    837 58.75                             107    0.19 5  289 255 
 CBOC HZ I         838  1.21         1.8 0.46            110            289 255 
 MON  HZ EP        837 32.46                             104   -0.53 7  343 316 
 MON  HN ES   1    838  8.79                             104   -0.74 5  343 316 
 MON  HZ I         838  9.99         1.4 0.26            106            343 316 
 ORTC HZ EP        837 34.59                             103    0.60 6  351 214 
 ORTC HE ES   4    838 14.01                             103    2.71 0  351 214 
 ORTC HZ I         838 20.09         1.3 0.30            106            351 214 
                                                                                
