 2010  724 0324 40.2 L   6.806 -73.082143.0  RSN  6 0.2 1.5LRSN                1
 GAP=166        0.51       2.7     5.6  5.3 -0.2548E+01 -0.2946E+01 -0.5285E+00E
 Epicentro: LOS SANTOS - SANTANDER                                             3
 ACTION:UPD 10-12-01 15:19 OP:pat  STATUS:               ID:20100724032440 L   I
 2010-07-24-0321-56S.COL___123                                                 6
 STAT SP IPHASW D HRMM SECON CODA AMPLIT PERI AZIMU VELO AIN AR TRES W  DIS CAZ7
 BAR2 SZ IP        324 59.48                             169    -0.110   26 205 
 BAR2 SZ ES   1    325 15.05                             169     0.4 7   26 205 
 BAR2 SZ I         325 17.01         9.0 0.52                            26 205 
 GIR2 SZ EP   2    324 59.65                             167     0.1 5   33 338 
 BRR  HZ IP     C  325  1.45                             150     0.010   77 296 
 BRR  HZ I         325  1.80        10.2 0.12                            77 296 
 BRR  HN ES   1    325 17.85                             150    -0.1 7   77 296 
 RUS  HZ EP   1    325  3.91                             143     0.2 7  101 180 
 RUS  HN ES   1    325 21.80                             143    -0.3 7  101 180 
 RUS  HZ I         325 23.36         4.9 0.30                           101 180 
 GUE  SZ EP   1    325  4.63                             139     0.1 7  115   9 
 GUE  SZ I         325 25.91         1.9 0.08                           115   9 
 GRA  SZ ES        325 24.24                             137    -0.110  123  14 
 GRA  SZ I         325 26.12         7.8 0.40                           123  14 
                                                                                
