 2017 1124 0232 56.1 L   6.845 -73.195145.4  RSN  5 0.2 1.3LRSN                1
 GAP=148        0.61       3.5     3.5  5.2 -0.5380E+01  0.4971E+01 -0.1988E+01E
 Epicentro: ZAPATOCA - SANTANDER                                               3
 ACTION:UPD 17-12-12 19:59 OP:rebc STATUS:               ID:20171124023256 L   I
 OLDACT:REG 17-11-24 12:39 OP:osc  STATUS:               ID:20171124022739     3
 2017-11-24-0228-00M.COL___492                                                 6
 STAT SP IPHASW D HRMM SECON CODA AMPLIT PERI AZIMU VELO AIN AR TRES W  DIS CAZ7
 BAR2 EZ EP        233 15.76                             169   -0.0310 27.9 177 
 BAR2 EZ ES        233 31.37                             169    0.2310 27.9 177 
 BAR2 EZ I         233 32.22         6.3 0.20            171           27.9 177 
 PAM  EZ EP        233 18.61                             151    0.3310 77.4  45 
 PAM  EN ES        233 35.29                             151   -0.2810 77.4  45 
 PAM  EZ I         233 37.64         3.2 0.46            151           77.4  45 
 RUS  HZ EP        233 20.34                             142    0.1310  106 173 
 RUS  HN ES        233 38.83                             142   -0.1910  106 173 
 PTB  HZ EP        233 22.31                             133   -0.34 9  143 256 
 PTB  HN ES        233 43.49                             133    0.13 9  143 256 
 PTB  HZ I         233 45.04         1.6 0.32            134            143 256 
 SPBC HN ES        233 46.88                             129    0.01 9  164 216 
                                                                                
