 2014  624 0911  4.5 L   6.823 -73.189145.0  RSN  4 0.1 1.5LRSN                1
 GAP=246        0.41       2.9     2.8  3.6  0.1686E+01  0.2482E+01 -0.1693E+01E
 Epicentro: ZAPATOCA - SANTANDER                                               3
 ACTION:UPD 14-07-01 22:56 OP:nd   STATUS:               ID:20140624091104 L   I
 OLDACT:REG 14-06-24 13:35 OP:spq  STATUS:               ID:20140624090806     3
 2014-06-24-0908-06M.COL___259                                                 6
 STAT SP IPHASW D HRMM SECON CODA AMPLIT PERI AZIMU VELO AIN AR TRES W  DIS CAZ7
 BAR2 SZ EP        911 23.97                             170   -0.1210 25.6 178 
 BAR2 SZ ES        911 39.43                             170    0.0710 25.6 178 
 BAR2 SZ I         911 41.81         3.7 0.40            169           25.6 178 
 PTB  HZ EP        911 30.99                             133   -0.05 9  144 257 
 PTB  HN ES        911 51.90                             133    0.17 9  144 257 
 PTB  HZ I         911 59.18         3.7 0.44            133            144 257 
 SPBC HZ EP        911 33.03                             129    0.17 9  162 217 
 SPBC HN ES        911 54.79                             129   -0.18 9  162 217 
 SPBC HZ I         911 57.91        11.0 0.88            131            162 217 
 ZAR  HZ EP        911 36.43                             123    0.08 9  199 292 
 ZAR  HN ES        912  1.03                             123   -0.15 9  199 292 
 ZAR  HZ I         912  7.48         1.9 0.30            124            199 292 
                                                                                
