 2016  924 0523 41.7 L   6.852 -73.321123.5  RSN  7 0.6 1.6LRSN                1
 GAP=152        1.43       4.6     6.4 10.0  0.3032E+01  0.3070E+01 -0.3615E+01E
 Epicentro: BETULIA - SANTANDER                                                3
 ACTION:UPD 17-08-17 21:15 OP:lp   STATUS:               ID:20160924052341 L   I
 OLDACT:UP  16-09-24 17:51 OP:drio STATUS:               ID:20160924051745     3
 OLDACT:UP  16-09-24 17:50 OP:drio STATUS:               ID:20160924051745     3
 OLDACT:REG 16-09-24 12:43 OP:y    STATUS:               ID:20160924051745     3
 2016-09-24-0518-00M.COL___330                                                 6
 STAT SP IPHASW D HRMM SECON CODA AMPLIT PERI AZIMU VELO AIN AR TRES W  DIS CAZ7
 BAR2 EZ EP        523 59.22                             164    0.2910 32.5 152 
 BAR2 EZ ES        524 12.20                             164   -0.1610 32.5 152 
 BAR2 EZ I         524 13.40        17.8 0.24            166           32.5 152 
 BRR  HZ EP        523 59.63                             156    0.2610 51.6 303 
 BRR  HN ES        524 13.68                             156    0.5310 51.6 303 
 RUS  HZ EP        524  4.70                             136    0.6410  109 166 
 RUS  HN ES        524 21.56                             136    0.0710  109 166 
 PTB  HZ EP   4    524  3.98                             130   -1.30 0  130 255 
 PTB  HE ES        524 22.89                             130   -0.7710  130 255 
 PTB  HZ I         524 26.51         4.0 0.16            129            130 255 
 OCA  HZ EP        524  7.23                             125   -0.47 9  153   0 
 OCA  HN ES        524 27.21                             125   -0.76 9  153   0 
 OCA  HZ I         524 28.77         9.9 0.26            126            153   0 
 SPBC HZ EP        524  7.98                             125    0.05 9  157 212 
 SPBC HN ES        524 27.58                             125   -0.80 9  157 212 
 SPBC HZ I         524 30.34         5.5 0.16            124            157 212 
 ZAR  HZ EP   4    524 12.12                             120    1.47 0  184 293 
 ZAR  HN ES        524 34.22                             120    0.99 9  184 293 
 ZAR  HZ I         524 38.54         3.0 0.28            119            184 293 
                                                                                
