 2015 1124 0438 20.5 L   6.775 -73.157154.2  RSN  8 0.4 1.5LRSN                1
 GAP=199        0.91       3.7     5.2  5.7  0.5710E+01  0.1375E+01 -0.6209E+01E
 Epicentro: LOS SANTOS - SANTANDER                                             3
 ACTION:UPD 15-12-28 16:13 OP:cam  STATUS:               ID:20151124043820 L   I
 OLDACT:REG 15-11-24 12:30 OP:ak   STATUS:               ID:20151124042745     3
 2015-11-24-0427-45M.COL___215                                                 6
 STAT SP IPHASW D HRMM SECON CODA AMPLIT PERI AZIMU VELO AIN AR TRES W  DIS CAZ7
 BAR2 EZ EP        438 41.02                             172   -0.1010 20.4 188 
 BAR2 EZ ES        438 57.10                             172   -0.0910 20.4 188 
 BAR2 EZ I         438 57.98         5.5 0.21            172           20.4 188 
 BRR  HZ EP        438 43.13                             154    0.5210 71.5 301 
 BRR  HZ I         438 59.68         3.2 0.14            150           71.5 301 
 BRR  HN ES        439  0.17                             154    0.3310 71.5 301 
 RUS  HZ EP        438 44.99                             146    0.0610 97.9 175 
 RUS  HN ES        439  3.67                             146   -0.3010 97.9 175 
 RUS  HZ I         439  5.02         2.0 0.46            147           97.9 175 
 PTB  HZ EP        438 47.99                             134   -0.05 9  146 260 
 PTB  HN ES        439  8.92                             134   -0.59 9  146 260 
 PTB  HZ I         439 16.34         3.7 0.34            132            146 260 
 SPBC HZ EP        438 49.97                             131    0.56 9  160 219 
 SPBC HN ES        439 12.00                             131    0.05 9  160 219 
 SPBC HZ I         439 14.49         5.6 0.07            130            160 219 
 ZAR  HZ EP        438 52.88                             124   -0.64 9  204 293 
 ZAR  HE ES        439 19.77                             124    0.50 9  204 293 
 ZAR  HZ I         439 24.73         4.8 0.48            122            204 293 
 SML  HZ EP        438 57.96                             119    0.11 8  246 336 
 SML  HN ES        439 26.63                             119   -0.34 8  246 336 
 SML  HZ I         439 30.00         5.0 0.16            118            246 336 
 SJC  HZ EP        439 16.15                             107   -0.42 6  411 327 
 SJC  HN ES   4    439 57.15                             107   -3.13 0  411 327 
                                                                                
