 2017  824 0855  3.8 L   6.699 -73.037136.5  RSN  5 0.5 1.3LRSN                1
 GAP=250        0.68       6.7     7.5  8.1  0.1521E+02 -0.2056E+00 -0.1900E+02E
 Epicentro: ARATOCA - SANTANDER                                                3
 ACTION:UPD 17-09-04 20:24 OP:rebc STATUS:               ID:20170824085503 L   I
 OLDACT:UP  17-08-24 17:59 OP:and  STATUS:               ID:20170824084740     3
 OLDACT:UP  17-08-24 17:59 OP:and  STATUS:               ID:20170824084740     3
 OLDACT:UP  17-08-24 17:58 OP:and  STATUS:               ID:20170824084740     3
 OLDACT:UP  17-08-24 17:58 OP:and  STATUS:               ID:20170824084740     3
 OLDACT:UP  17-08-24 17:58 OP:and  STATUS:               ID:20170824084740     3
 OLDACT:UP  17-08-24 17:58 OP:and  STATUS:               ID:20170824084740     3
 OLDACT:REG 17-08-24 13:18 OP:and  STATUS:               ID:20170824084740     3
 2017-08-24-0848-00M.COL___420                                                 6
 STAT SP IPHASW D HRMM SECON CODA AMPLIT PERI AZIMU VELO AIN AR TRES W  DIS CAZ7
 BAR2 EZ IP   2 C  855 21.47                             171   -0.75 5 19.9 234 
 BAR2 EZ ES        855 36.41                             171   -0.2010 19.9 234 
 BAR2 EZ I         855 37.38         3.5 0.26            168           19.9 234 
 RUS  HZ EP   2    855 25.87                             144    0.06 5 89.3 183 
 RUS  HN ES        855 43.28                             144    0.2910 89.3 183 
 RUS  HZ I         855 44.96         2.1 0.20            144           89.3 183 
 SPBC HN ES   3    855 51.92                             126   -1.29 2  163 225 
 SPBC HZ I         855 53.41         3.8 0.20            124            163 225 
 ZAR  HZ EP   2    855 37.48                             118    0.21 4  219 294 
 ZAR  HN ES   2    856  4.09                             118    0.69 4  219 294 
 ZAR  HZ I         856  7.60         2.8 0.28            116            219 294 
 NOR  HZ EP   9    855 38.09                             115   -1.31 0  238 238 
 NOR  HN ES        856  5.66                             116   -0.22 8  238 238 
 NOR  HZ I         856 10.65         1.1 0.17            114            238 238 
                                                                                
