 2015  424 0451  2.4 L   6.876 -73.148151.8  RSN  6 0.5 1.7LRSN                1
 GAP=143        1.14       6.0     8.5 10.4 -0.2005E+02  0.1201E+01  0.1672E+02E
 Epicentro: LOS SANTOS - SANTANDER                                             3
 ACTION:UPD 15-06-03 16:57 OP:cam  STATUS:               ID:20150424045102 L   I
 OLDACT:UP  15-04-24 13:15 OP:mh   STATUS:               ID:20150424044748     3
 OLDACT:REG 15-04-24 12:30 OP:mh   STATUS:               ID:20150424044748     3
 2015-04-24-0447-48M.COL___260                                                 6
 STAT SP IPHASW D HRMM SECON CODA AMPLIT PERI AZIMU VELO AIN AR TRES W  DIS CAZ7
 BAR2 EZ EP        451 22.56                             168   -0.3710 31.6 187 
 BAR2 EZ I         451 46.84        11.7 0.18            159           31.6 187 
 BRR  HZ EP        451 24.33                             155    0.3510 67.3 292 
 BRR  HN ES        451 41.12                             155    0.3010 67.3 292 
 BRR  HZ I         451 44.50         9.2 0.26            136           67.3 292 
 PAM  SZ EP        451 25.65                             154    0.7510 71.3  44 
 PAM  SN ES   1    451 42.22                             154   -0.25 7 71.3  44 
 OCA  HE ES        451 51.61                             133   -0.65 9  152 353 
 SPBC HZ EP        451 31.33                             129   -0.62 9  170 217 
 SPBC HN ES        451 55.05                             129    0.03 9  170 217 
 SPBC HZ I         451 59.63         8.1 0.24            113            170 217 
 ZAR  HZ EP        451 35.09                             124    0.20 9  201 290 
 ZAR  HZ I         452 11.12         3.1 0.20            109            201 290 
                                                                                
