 2017  724 0121 35.9 L   6.807 -73.129145.1  RSN 17 0.5 2.0LRSN                1
 GAP=108        0.93       3.8     2.8  5.1  0.3621E+00  0.1272E+01 -0.3239E+01E
 Epicentro: LOS SANTOS - SANTANDER                                             3
 ACTION:UPD 17-08-30 15:36 OP:rebc STATUS:               ID:20170724012135 L   I
 OLDACT:UP  17-07-24 14:31 OP:and  STATUS:               ID:20170724011739     3
 OLDACT:UP  17-07-24 14:29 OP:and  STATUS:               ID:20170724011739     3
 OLDACT:UP  17-07-24 14:29 OP:and  STATUS:               ID:20170724011739     3
 OLDACT:UP  17-07-24 14:29 OP:and  STATUS:               ID:20170724011739     3
 OLDACT:UP  17-07-24 14:27 OP:and  STATUS:               ID:20170724011739     3
 OLDACT:REG 17-07-24 12:44 OP:and  STATUS:               ID:20170724011739     3
 2017-07-24-0118-00M.COL___389                                                 6
 STAT SP IPHASW D HRMM SECON CODA AMPLIT PERI AZIMU VELO AIN AR TRES W  DIS CAZ7
 BAR2 EZ IP     D  121 55.42                             170   -0.0210 24.5 194 
 BAR2 EZ ES        122 10.53                             170   -0.1710 24.5 194 
 BAR2 EZ I         122 12.02        45.5 0.18            168           24.5 194 
 BRR  HZ IP     D  121 57.38                             152    0.3710 72.4 297 
 BRR  HN ES   2    122 14.86                             152    1.36 5 72.4 297 
 BRR  HZ I         122 15.59        17.0 0.28            151           72.4 297 
 RUS  HZ EP        121 59.29                             143   -0.3110  101 177 
 RUS  HN ES        122 17.71                             143   -0.4010  101 177 
 RUS  HZ I         122 19.23        14.4 0.42            143            101 177 
 PTB  HZ EP   2    122  2.28                             131   -0.67 5  150 259 
 PTB  HN ES        122 23.49                             131   -0.59 9  150 259 
 PTB  HZ I         122 26.32         7.7 0.18            131            150 259 
 TAM  HZ IP     D  122  3.69                             130    0.35 9  154 105 
 TAM  HN ES        122 25.15                             130    0.37 9  154 105 
 TAM  HZ I         122 26.37        14.1 0.48            133            154 105 
 SPBC HZ EP        122  4.38                             128   -0.10 9  165 219 
 SPBC HN ES        122 26.74                             128   -0.06 9  165 219 
 SPBC HZ I         122 29.25        19.8 0.12            128            165 219 
 YPLC HZ EP        122  5.65                             126    0.06 9  177 152 
 ZAR  HZ EP   2    122  8.32                             122   -0.08 4  205 292 
 ZAR  HN ES        122 34.04                             122    0.26 8  205 292 
 ZAR  HZ I         122 38.75        13.7 0.42            122            205 292 
 NOR  HZ EP        122 11.52                             118   -0.24 8  237 235 
 NOR  HN ES        122 39.75                             118   -0.01 8  237 235 
 NOR  HZ I         122 43.82         6.0 0.36            118            237 235 
 ROSC BZ EP   9    122 16.15                             116    2.03 0  254 211 
 ROSC BN ES        122 45.94                             116   -0.05 8  254 211 
 ROSC BZ I         122 49.89        10.7 0.40            116            254 211 
 HEL  HZ EP   2    122 17.39                             114    1.13 4  274 256 
 HEL  HN ES   2    122 49.35                             114    1.59 4  274 256 
 HEL  HZ I         122 53.64         4.6 0.56            114            274 256 
 GUY2CHZ EP        122 20.54                             112    0.88 7  303 235 
 GUY2CHN ES   4    122 57.74                             112    3.92 0  303 235 
 GUY2CHZ I         123  7.37         4.6 0.60                           303 235 
 PTGC HZ EP   3    122 18.33                             111   -1.37 2  309 159 
 PTGC HN ES   4    122 51.10                             111   -2.80 0  309 159 
 LL6C HZ EP        122 20.68                             110   -0.77 7  324 357 
 LL6C HN ES   2    122 56.27                             110   -0.73 3  324 357 
 CBOC HZ EP        122 23.16                             109    0.19 7  336 252 
 PAL  HZ EP        122 30.81                             106   -0.42 6  408 239 
 SJC  HZ EP   9    122 29.65                             105   -1.78 0  410 327 
 SJC  HN ES        123 12.64                             106   -0.36 6  410 327 
                                                                                
