 2012  124 0359 60.0 L   6.820 -73.127145.5  RSN  6 0.3 1.4LRSN                1
 GAP=138        0.63       4.4     4.9  6.0 -0.1641E+01  0.5298E+01 -0.5419E+00E
 Epicentro: LOS SANTOS - SANTANDER                                             3
 ACTION:UP  12-02-03 08:20 OP:REBC STATUS:               ID:20120124035960 L   I
 2012-01-24-0400-00M.COL___187                                                 6
 STAT SP IPHASW D HRMM SECON CODA AMPLIT PERI AZIMU VELO SNR AR TRES W  DIS CAZ7
 BAR2 SZ ES   1    4 0 34.80                             169    -0.2 7   26 194 
 BAR2 SZ I         4 0 35.67         6.4 0.31                            26 194 
 GIR2 SZ EP   1    4 0 19.45                             168    -0.1 7   30 346 
 BRR  HZ EP        4 0 21.23                             152     0.110   72 296 
 BRR  HZ I         4 0 21.50         5.1 0.13                            72 296 
 BRR  HN ES   1    4 0 38.16                             152     0.5 7   72 296 
 PAM  SZ EP   1    4 0 22.22                             152     0.2 7   74  39 
 PAM  SN ES   1    4 0 38.88                             152    -0.3 7   74  39 
 RUS  HZ EP   1    4 0 24.20                             143     0.3 7  103 177 
 RUS  HE ES   1    4 0 42.48                             143     0.0 7  103 177 
 PTB  HZ EP   1    4 0 26.73                             131    -0.4 7  150 258 
 PTB  HE ES   2    4 0 48.07                             131    -0.3 5  150 258 
                                                                                
