 2012 1224 0634 39.7 L   6.819 -73.112150.2  RSN  5 0.5 1.2LRSN                1
 GAP=243        0.96      10.2     9.1 10.2  0.6349E+02  0.8136E+01 -0.6347E+01E
 Epicentro: LOS SANTOS - SANTANDER                                             3
 ACTION:UPD 13-01-04 14:30 OP:ep   STATUS:               ID:20121224063439 L   I
 2012-12-24-0630-00M.COL___243                                                 6
 STAT SP IPHASW D HRMM SECON CODA AMPLIT PERI AZIMU VELO AIN AR TRES W  DIS CAZ7
 BAR2 SZ EP   1    635  0.00                             170    0.11 9 26.3 197 
 BAR2 SZ ES   1    635 14.78                             170   -0.88 9 26.3 197 
 BAR2 SZ I         635 17.17         5.4 0.68                          26.3 197 
 BRR  HZ EP   1    635  1.16                             152   -0.27 9 73.5 296 
 BRR  HN ES   1    635 19.22                             152    0.82 9 73.5 296 
 BRR  HZ I         635 20.43         2.9 0.64                          73.5 296 
 RUS  HZ EP   1    635  4.47                             144    0.47 9  103 178 
 RUS  HN ES   1    635 23.21                             144    0.24 9  103 178 
 RUS  HZ I         635 24.96         2.1 0.40                           103 178 
 PTB  HZ EP   1    635  6.88                             132   -0.49 8  152 258 
 PTB  HN ES   1    635 28.95                             132   -0.02 8  152 258 
 ZAR  HN ES        635 38.38                             123   -0.0510  207 291 
                                                                                
