 2011  424 0244 36.4 L   6.794 -73.089142.1  RSN 19 0.5 2.7LRSN                1
 GAP=120        1.25       4.4     6.8  6.5 -0.7936E+01  0.1085E+02  0.6641E+01E
 Epicentro: LOS SANTOS - SANTANDER                                             3
 ACTION:UP  11-06-22 15:32 OP:REBC STATUS:               ID:20110424024436 L   I
 2011-04-24-0242-03S.COL___139                                                 6
 STAT SP IPHASW D HRMM SECON CODA AMPLIT PERI AZIMU VELO SNR AR TRES W  DIS CAZ7
 BTL  SZ IP        244 56.58                             170     0.910   24 305 
 BTL  SZ ES   1    245 11.65                             170     1.0 7   24 305 
 BAR2 SZ IP        244 55.45                             170    -0.210   25 205 
 BAR2 SZ ES   1    245  9.85                             170    -0.8 7   25 205 
 BAR2 SZ I         245 11.53       147.9 0.19                            25 205 
 GIR2 SZ EP        244 55.58                             166    -0.210   34 340 
 GIR2 SZ ES   2    245 10.76                             166     0.0 5   34 340 
 PAM  SZ IP        244 58.32                             151     0.310   74  35 
 PAM  SZ I         244 58.67        66.8 0.13                            74  35 
 PAM  SN ES   1    245 15.20                             151     0.3 7   74  35 
 BRR  HZ EP        244 57.47                             150    -0.110   77 297 
 BRR  HN ES   1    245 14.36                             150     0.4 7   77 297 
 BRR  HZ I         245 16.04       103.5 0.27                            77 297 
 RUS  HZ EP        244 59.38                             143    -0.410  100 180 
 RUS  HZ I         245  0.56        35.9 0.17                           100 180 
 RUS  HN ES   1    245 17.32                             143    -0.6 7  100 180 
 BRI  SZ IP        245  0.17                             141     0.310  107  18 
 BRI  SZ ES   1    245 18.02                             141    -0.1 7  107  18 
 BRI  SZ I         245 23.94        97.9 0.34                           107  18 
 GRA  SZ IP        245  1.45                             136     0.210  125  15 
 GRA  SZ ES   2    245 20.20                             136    -0.4 5  125  15 
 GRA  SZ I         245 21.96        86.0 0.27                           125  15 
 OCA  SZ EP        245  4.05                             128    -0.6 9  162 351 
 OCA  SZ ES   1    245 25.40                             128    -1.2 7  162 351 
 OCA  SZ I         245 29.11        93.2 0.31                           162 351 
 YOP  SZ IP        245  6.13                             126     0.2 9  176 155 
 YOP  SZ I         245  6.68        23.3 0.13                           176 155 
 NOR  SZ EP        245 11.96                             117    -0.5 8  239 235 
 NOR  SN ES   2    245 40.12                             117    -0.5 4  239 235 
 ROSC BZ EP   1    245 15.35                             115     0.7 6  255 212 
 HEL  HZ EP        245 17.60                             113     0.5 7  278 256 
 HEL  HZ I         245 54.59        34.3 0.50                           278 256 
 VIL  SZ EP   1    245 19.16                             111    -0.6 5  304 193 
 GUY  SZ EP        245 21.09                             111     0.4 7  308 236 
 GUY  SZ I         246  3.94        28.1 0.42                           308 236 
 DBB  SZ EP        245 24.14                             108    -0.4 6  346 274 
 TOL  SZ EP        245 25.49                             108     0.5 6  347 225 
 MON  HZ IP   4 D  245 23.39                             108    -2.5 0  359 308 
 PRA  HZ EP   2    245 29.82                             106    -0.3 3  395 210 
 PRA  HN ES   2    246 11.95                             106    -0.1 3  395 210 
 SJA  SZ EP   2    245 30.36                             105    -0.6 3  401 194 
 SJA  SZ I         246 20.24        16.4 0.35                           401 194 
                                                                                
