 2012  124 0627  4.6 L   6.764 -73.141139.1  RSN  7 0.3 1.5LRSN                1
 GAP=139        0.63       3.5     4.0  5.3 -0.1617E+01  0.9745E+00  0.3177E+01E
 Epicentro: LOS SANTOS - SANTANDER                                             3
 ACTION:UP  12-02-03 08:20 OP:REBC STATUS:               ID:20120124062704 L   I
 2012-01-24-0620-00M.COL___187                                                 6
 STAT SP IPHASW D HRMM SECON CODA AMPLIT PERI AZIMU VELO SNR AR TRES W  DIS CAZ7
 BAR2 SZ EP        627 23.49                             172     0.110   20 194 
 BAR2 SZ ES   1    627 38.19                             172     0.2 7   20 194 
 BAR2 SZ I         627 40.77        14.0 0.46                            20 194 
 GIR2 SZ EP   1    627 23.55                             165    -0.1 7   35 350 
 BRR  HZ EP        627 25.45                             150     0.210   74 301 
 BRR  HN ES   1    627 41.63                             150     0.4 7   74 301 
 BRR  HZ I         627 43.78        10.1 0.14                            74 301 
 PAM  SZ EP        627 26.27                             149     0.010   80  37 
 PAM  SN ES   1    627 42.91                             149    -0.3 7   80  37 
 RUS  HZ EP        627 27.43                             144     0.010   97 176 
 RUS  HZ I         627 28.63         3.6 0.10                            97 176 
 RUS  HN ES   1    627 44.97                             144    -0.3 7   97 176 
 PTB  HZ EP   1    627 30.78                             130    -0.3 7  148 260 
 PTB  HN ES   1    627 51.12                             130    -0.5 7  148 260 
 CHI  HZ EP   1    627 41.62                             116     0.1 6  245 196 
 CHI  HZ I         627 44.38         1.4 0.34                           245 196 
 CHI  HN ES   2    628 10.99                             116     0.6 4  245 196 
                                                                                
