 2013 1224 0041 15.6 L   6.811 -73.138148.3  RSN 17 0.5 2.4LRSN                1
 GAP= 71        1.01       2.9     3.0  5.7 -0.4154E+00  0.2900E+01  0.2264E+01E
 Epicentro: LOS SANTOS - SANTANDER                                             3
 ACTION:UPD 14-01-13 10:20 OP:ep   STATUS:               ID:20131224004115 L   I
 OLDACT:UP  13-12-24 09:15 OP:mh   STATUS:               ID:20131224004000     3
 OLDACT:REG 13-12-24 07:47 OP:mh   STATUS:               ID:20131224004000     3
 2013-12-24-0040-00M.COL___285                                                 6
 STAT SP IPHASW D HRMM SECON CODA AMPLIT PERI AZIMU VELO AIN AR TRES W  DIS CAZ7
 BAR2 SZ EP        041 35.49                             170   -0.0610 24.7 191 
 BAR2 SZ I         041 52.25        66.2 0.28            170           24.7 191 
 BRR  HZ EP        041 37.42                             153    0.4010 71.4 297 
 BRR  HN ES        041 54.65                             153    0.9110 71.4 297 
 BRR  HZ I         041 58.35        29.6 0.12            153           71.4 297 
 PAM  SZ EP        041 38.33                             152    0.3410 75.9  40 
 PAM  SE ES   1    041 55.55                             152    0.09 7 75.9  40 
 PAM  SZ I         041 57.71        33.5 0.20            155           75.9  40 
 RUS  HZ EP   1    041 39.40                             144   -0.27 7  102 177 
 RUS  HN ES   1    041 57.69                             144   -0.76 7  102 177 
 RUS  HZ I         041 59.36        19.6 0.44            147            102 177 
 PTB  HZ EP        041 42.53                             132   -0.33 9  149 258 
 PTB  HN ES        042  3.56                             132   -0.57 9  149 258 
 PTB  HZ I         042  7.27        19.0 0.20            134            149 258 
 TAM  HZ EP        041 43.69                             131    0.27 9  155 105 
 TAM  HN ES        042  4.87                             131   -0.26 9  155 105 
 OCA  HZ EP        041 43.94                             130   -0.05 9  159 353 
 OCA  HE ES   1    042  6.00                             130   -0.15 7  159 353 
 OCA  HZ I         042 14.04        25.4 0.26            133            159 353 
 SPBC HZ EP        041 44.54                             129    0.12 9  165 219 
 SPBC HN ES   1    042  6.91                             129    0.00 7  165 219 
 ZAR  HZ EP        041 47.79                             123   -0.44 9  204 292 
 ZAR  HN ES        042 13.70                             123    0.00 9  204 292 
 ZAR  HZ I         042 19.90        37.4 0.27            125            204 292 
 NOR  HZ EP        041 51.37                             119   -0.24 8  236 234 
 NOR  HN ES        042 19.13                             119   -0.58 8  236 234 
 NOR  HZ I         042 27.83        19.9 0.13            121            236 234 
 SML  HZ EP        041 51.76                             118   -0.52 8  243 335 
 SML  HN ES   1    042 20.27                             118   -0.62 6  243 335 
 SML  HZ I         042 24.75        57.3 0.08            120            243 335 
 CHI  HZ EP        041 53.53                             117   -0.05 8  250 195 
 CHI  HN ES        042 23.19                             117   -0.02 8  250 195 
 CHI  HZ I         042 28.90        10.9 0.29            120            250 195 
 ROSC BZ EP   4    041 55.17                             117    1.16 0  254 211 
 ROSC BN ES   4    042 26.93                             117    2.96 0  254 211 
 HEL  HZ EP        041 56.95                             115    0.90 8  273 256 
 HEL  HN ES   1    042 28.08                             115    0.46 6  273 256 
 HEL  HZ I         042 34.03        10.1 0.47            117            273 256 
 URE  HZ EP   1    041 56.08                             114   -0.74 6  284 292 
 URE  HN ES   4    042 26.15                             114   -2.83 0  284 292 
 GUY2CHZ EP   1    041 59.85                             113    0.38 5  303 235 
 GUY2CHN ES   4    042 37.09                             113    3.39 0  303 235 
 GUY2CHZ I         042 42.44        14.1 0.35                           303 235 
 RREF HZ EP        042  2.93                             111    0.93 7  323 229 
 RREF HN ES   4    042 37.24                             111   -0.97 0  323 229 
 CBOC HZ EP   4    042  3.01                             110    0.27 0  335 252 
 CBOC HN ES   4    042 37.91                             110   -1.61 0  335 252 
 ORTC HZ EP   1    042  9.93                             107    0.16 4  397 216 
 ORTC HN ES   1    042 52.91                             107    0.88 4  397 216 
 ORTC HZ I         043  0.27         8.4 0.25            108            397 216 
 SJC  HZ EP   4    042  9.69                             106   -1.48 0  409 327 
 SJC  HN ES   4    042 50.00                             106   -4.52 0  409 327 
                                                                                
