 2015  424 0533 14.5 L   6.838 -73.131140.2  RSN 11 0.4 1.9LRSN                1
 GAP=136        1.06       3.4     4.1  5.9 -0.2528E+01  0.6922E+01 -0.2541E+00E
 Epicentro: LOS SANTOS - SANTANDER                                             3
 ACTION:UPD 15-06-03 16:57 OP:cam  STATUS:               ID:20150424053314 L   I
 OLDACT:UP  15-04-24 14:02 OP:mh   STATUS:               ID:20150424052745     3
 OLDACT:UP  15-04-24 14:01 OP:mh   STATUS:               ID:20150424052745     3
 OLDACT:REG 15-04-24 12:31 OP:mh   STATUS:               ID:20150424052745     3
 2015-04-24-0527-45M.COL___260                                                 6
 STAT SP IPHASW D HRMM SECON CODA AMPLIT PERI AZIMU VELO AIN AR TRES W  DIS CAZ7
 BAR2 EZ EP        533 33.30                             168   -0.2410 27.7 192 
 BAR2 EZ ES        533 48.03                             168   -0.3810 27.7 192 
 BAR2 EZ I         533 50.69        11.4 0.15            169           27.7 192 
 BRR  HZ EP        533 35.49                             152    0.4910 70.7 295 
 BRR  HN ES        533 51.40                             152    0.3910 70.7 295 
 PAM  SZ EP        533 36.10                             151    0.2510 73.2  41 
 PAM  SN ES   1    533 53.20                             151    0.68 7 73.2  41 
 PAM  SZ I         533 54.95        13.5 0.18            154           73.2  41 
 RUS  HZ EP        533 37.95                             141   -0.0410  105 177 
 RUS  HN ES        533 56.52                             141    0.1910  105 177 
 RUS  HZ I         533 57.42         4.6 0.26            144            105 177 
 PTB  HZ EP        533 41.08                             130   -0.14 9  150 257 
 PTB  HN ES        534  1.76                             130   -0.32 9  150 257 
 PTB  HZ I         534  3.91        12.9 0.24            131            150 257 
 OCA  HZ EP        533 41.50                             129   -0.49 9  156 352 
 OCA  HN ES        534  2.61                             129   -0.83 9  156 352 
 OCA  HZ I         534  8.33        23.1 0.24            131            156 352 
 SPBC HZ EP        533 43.08                             127    0.11 9  167 219 
 SPBC HN ES        534  5.28                             127    0.09 9  167 219 
 SPBC HZ I         534 12.78        11.2 0.24            129            167 219 
 ZAR  HZ EP        533 47.23                             121    0.67 9  204 291 
 ZAR  HN ES        534 11.89                             121    0.31 9  204 291 
 ZAR  HZ I         534 16.99         9.8 0.26            122            204 291 
 NOR  HZ EP        533 49.92                             117   -0.37 8  238 234 
 NOR  HN ES        534 17.34                             117   -0.89 8  238 234 
 HEL  HZ EP        533 54.62                             113   -0.08 8  275 255 
 HEL  HN ES        534 26.61                             113    0.54 8  275 255 
 HEL  HZ I         534 32.05         6.2 0.40            115            275 255 
 GUY2CHZ EP   1    533 58.85                             111    0.60 5  305 234 
 GUY2CHN ES   4    534 34.15                             111    1.75 0  305 234 
 GUY2CHZ I         534 43.35         3.2 0.50                           305 234 
                                                                                
