 2011  924 0558  1.8 L   6.801 -73.103149.4  RSN 18 0.3 3.1LRSN                1
 GAP=118        0.65       2.0     3.0  3.5  0.1706E+00  0.3400E+01  0.1274E+01E
 Epicentro: LOS SANTOS - SANTANDER                                             3
 ACTION:UPD 12-07-13 15:59 OP:ep   STATUS:               ID:20110924055801 L   I
 2011-09-24-0555-48S.COL___165                                                 6
 STAT SP IPHASW D HRMM SECON CODA AMPLIT PERI AZIMU VELO AIN AR TRES W  DIS CAZ7
 BTL  SZ EP        558 22.14                             171    0.2510 22.4 305 
 BAR2 SZ IP        558 21.88                             170   -0.0610 24.7 201 
 BAR2 SZ ES   1    558 37.05                             170   -0.56 7 24.7 201 
 BAR2 SZ I         558 39.81       378.9 0.36                          24.7 201 
 GIR2 SZ EP        558 21.99                             167    0.0110 32.3 342 
 GIR2 SZ ES   1    558 37.73                             167    0.05 7 32.3 342 
 PAM  SZ EP        558 24.74                             152    0.4710 74.3  37 
 PAM  SN ES   1    558 42.00                             152    0.24 7 74.3  37 
 BRR  HZ EP        558 23.73                             152    0.1110 75.3 297 
 BRR  HE ES   1    558 40.97                             152    0.36 7 75.3 297 
 BRR  HZ I         558 44.51       178.3 0.29                          75.3 297 
 RUS  HZ IP     D  558 25.76                             145   -0.1910  101 179 
 RUS  HN ES   1    558 44.42                             145   -0.33 7  101 179 
 RUS  HZ I         558 45.85       123.9 0.33                           101 179 
 OCA  SZ EP        558 30.52                             130    0.04 9  161 351 
 OCA  SZ ES   2    558 52.76                             130   -0.06 5  161 351 
 OCA  SZ I         558 57.00       106.3 0.29                           161 351 
 YOP  SZ EP   1    558 32.43                             127    0.47 7  177 155 
 YOP  SE ES   1    558 54.99                             127   -0.46 7  177 155 
 YOP  SZ I         558 57.20        79.3 0.38                           177 155 
 ZAR  HZ EP        558 34.45                             122   -0.53 8  208 292 
 ZAR  HN ES   1    559  0.36                             122   -0.46 6  208 292 
 ZAR  HZ I         559  5.99       115.8 0.33                           208 292 
 NOR  SZ EP        558 38.03                             119   -0.18 8  239 235 
 NOR  SN ES   2    559  6.96                             119    0.39 4  239 235 
 CHI  HZ EP        558 40.01                             118    0.11 8  250 196 
 CHI  HE ES   1    559  9.36                             118   -0.22 6  250 196 
 CHI  HZ I         559 19.52        54.3 0.52                           250 196 
 HEL  HZ EP        558 43.01                             115    0.25 7  277 256 
 HEL  HN ES   2    559 15.36                             115    0.69 4  277 256 
 HEL  HZ I         559 22.13        74.9 0.38                           277 256 
 VIL  SZ EP        558 45.39                             113   -0.17 7  304 192 
 VIL  SN ES   2    559 19.39                             113   -0.26 4  304 192 
 VIL  SZ I         559 29.08        35.4 0.71                           304 192 
 GUY  SZ EP   2    558 47.08                             112    0.75 4  308 236 
 GUY  SE ES   2    559 20.71                             112   -0.32 4  308 236 
 GUY  SZ I         559 29.54       124.8 0.37                           308 236 
 RREF HZ EP        558 49.16                             111    0.59 7  325 230 
 RREF HN ES   2    559 25.08                             111    0.07 3  325 230 
 RREF HZ I         559 36.06        57.1 0.43                           325 230 
 DBB  SZ EP   2    558 49.89                             110   -0.12 3  344 274 
 TOL  SZ EP   1    558 50.58                             110   -0.06 5  347 225 
 COD  HZ EP        558 49.82                             109   -0.58 6  349 354 
 COD  HN ES   2    559 27.93                             109   -0.35 3  349 354 
 COD  HZ I         559 38.90        59.6 0.75                           349 354 
                                                                                
