 2017 1124 0547 13.1 L   6.809 -73.179141.1  RSN  7 0.4 1.7LRSN                1
 GAP=132        0.81       3.6     3.5  6.1 -0.2667E+01  0.7939E+01  0.3212E+00E
 Epicentro: ZAPATOCA - SANTANDER                                               3
 ACTION:UPD 17-12-12 19:59 OP:rebc STATUS:               ID:20171124054713 L   I
 OLDACT:DUP 17-11-24 16:03 OP:osc  STATUS:               ID:20171124053742d    3
 2017-11-24-0538-00M.COL___492                                                 6
 STAT SP IPHASW D HRMM SECON CODA AMPLIT PERI AZIMU VELO AIN AR TRES W  DIS CAZ7
 BAR2 EZ EP        547 32.19                             170   -0.0310 23.9 181 
 BAR2 EZ ES        547 46.98                             170   -0.1310 23.9 181 
 BAR2 EZ I         547 48.18        14.6 0.24            167           23.9 181 
 PAM  EZ EP        547 35.15                             150    0.1810 79.1  42 
 PAM  EN ES        547 52.06                             150    0.0710 79.1  42 
 PAM  EZ I         547 54.74         8.2 0.60            152           79.1  42 
 RUS  HZ EP        547 36.29                             143   -0.2410  102 174 
 RUS  HN ES        547 54.85                             143    0.0810  102 174 
 RUS  HZ I         547 55.74         5.3 0.24            141            102 174 
 PTB  HZ EP        547 38.77                             132   -0.64 9  144 258 
 PTB  HN ES        547 59.64                             132   -0.27 9  144 258 
 PTB  HZ I         548  0.85         2.7 0.30            134            144 258 
 SPBC HZ EP        547 41.29                             128    0.15 9  162 218 
 SPBC HE ES        548  3.56                             128    0.59 9  162 218 
 SPBC HZ I         548  7.96         4.9 0.22            129            162 218 
 ZAR  HZ I         548  3.24        10.9 0.10            125            200 292 
 ZAR  HN ES        548 10.08                             122    0.43 9  200 292 
 GUY2CHZ EP   3    547 58.11                             112    1.85 2  299 234 
 GUY2CHE ES        548 29.65                             112   -0.23 7  299 234 
                                                                                
