 2013  824 0922 43.6 L   6.822 -73.074141.2  RSN  5 0.4 2.0LRSN                1
 GAP=246        0.91       6.2    10.4  7.1  0.2872E+02  0.1243E+02  0.1309E+02E
 Epicentro: LOS SANTOS - SANTANDER                                             3
 ACTION:UPD 14-01-14 09:06 OP:ep   STATUS:               ID:20130824092243 L   I
 OLDACT:REG 13-08-24 07:45 OP:nd   STATUS:               ID:20130824091959     3
 2013-08-24-0919-59M.COL___270                                                 6
 STAT SP IPHASW D HRMM SECON CODA AMPLIT PERI AZIMU VELO AIN AR TRES W  DIS CAZ7
 BAR2 SZ EP        923  2.69                             168   -0.1210 28.1 205 
 BAR2 SZ ES        923 17.16                             168   -0.6210 28.1 205 
 BAR2 SZ I         923 35.15         7.4 0.50            166           28.1 205 
 BRR  HZ IP     C  923  4.46                             149   -0.1810 77.3 294 
 BRR  HN ES        923 21.44                             149    0.4110 77.3 294 
 BRR  HZ I         923 25.81         8.4 0.26            160           77.3 294 
 RUS  HZ EP        923  7.23                             142    0.1410  103 181 
 RUS  HN ES        923 25.88                             142    0.4910  103 181 
 RUS  HZ I         923 34.70         7.3 0.78            146            103 181 
 SML  HZ EP   4    923 40.24                             116   20.11 0  245 333 
 SML  HN ES   4    923 40.26                             116   -8.34 0  245 333 
 SML  HZ I         923 51.58       145.0 0.10            129            245 333 
 GUY2CHZ EP   4    923 28.50                             111    0.58 0  309 235 
 PRA  HZ EP     C  923 37.77                             105    0.07 6  398 210 
 PRA  HN ES        924 19.45                             105   -0.43 6  398 210 
 PRA  HZ I         924 23.99         3.0 0.58            112            398 210 
                                                                                
