 2011  224 0737  3.6 L   6.777 -73.054143.7  RSN 11 0.3 2.1LRSN                1
 GAP=107        0.74       3.5     6.3  5.5 -0.9222E+01  0.6737E+01 -0.5285E+00E
 Epicentro: LOS SANTOS - SANTANDER                                             3
 ACTION:UP  11-03-28 15:10 OP:jfem STATUS:               ID:20110224073703 L   I
 2011-02-24-0735-26S.COL___137                                                 6
 STAT SP IPHASW D HRMM SECON CODA AMPLIT PERI AZIMU VELO SNR AR TRES W  DIS CAZ7
 BAR2 SZ EP        737 22.78                             170    -0.210   25 215 
 BAR2 SZ ES   1    737 37.76                             170    -0.3 7   25 215 
 BAR2 SZ I         737 39.33        43.9 0.12                            25 215 
 BTL  SZ EP        737 23.12                             168     0.110   28 304 
 GIR2 SZ EP   1    737 22.95                             165    -0.2 7   37 335 
 RUS  HZ EP        737 26.77                             144    -0.110   98 182 
 RUS  HN ES   1    737 45.37                             144     0.3 7   98 182 
 RUS  HZ I         737 47.19        18.1 0.42                            98 182 
 GRA  SZ EP        737 28.57                             137     0.010  126  13 
 GRA  SZ ES   1    737 48.71                             137     0.6 7  126  13 
 GRA  SZ I         737 49.65        10.0 0.20                           126  13 
 YOP  SZ EP   2    737 32.71                             127    -0.1 4  172 156 
 YOP  SE ES   2    737 56.30                             127     0.7 4  172 156 
 YOP  SZ I         737 58.34        11.7 0.31                           172 156 
 CHI  HZ EP        737 41.03                             117    -0.1 8  249 198 
 CHI  HE ES   2    738 10.16                             117    -0.4 4  249 198 
 CHI  HZ I         738 13.81         7.1 0.32                           249 198 
 HEL  HZ EP   1    737 44.61                             113    -0.1 6  281 257 
 HEL  HZ I         738 23.28         8.8 0.43                           281 257 
 RREF HZ EP        737 51.05                             110     0.7 7  328 231 
 RREF HN ES   2    738 26.56                             110    -0.2 3  328 231 
 RREF HZ I         738 35.00         7.2 0.37                           328 231 
 TOL  SZ EP   1    737 52.42                             109     0.1 5  349 226 
 SDV  BZ EP        737 52.38                             108    -0.4 6  354  49 
 SDV  BZ I         738 34.40         2.2 0.47                           354  49 
                                                                                
