 2012  124 0104 31.6 L   6.758 -73.112145.5  RSN 14 0.4 2.4LRSN                1
 GAP=143        0.94       3.5     4.7  5.7 -0.4159E+01  0.5155E+01  0.4039E+01E
 Epicentro: LOS SANTOS - SANTANDER                                             3
 ACTION:UP  12-02-03 08:20 OP:REBC STATUS:               ID:20120124010431 L   I
 2012-01-24-0100-00M.COL___187                                                 6
 STAT SP IPHASW D HRMM SECON CODA AMPLIT PERI AZIMU VELO SNR AR TRES W  DIS CAZ7
 BAR2 SZ EP        1 4 51.23                             172     0.010   20 203 
 BAR2 SZ ES   1    1 5  6.23                             172    -0.2 7   20 203 
 BAR2 SZ I         1 5  7.96        76.5 0.36                            20 203 
 GIR2 SZ EP        1 4 51.27                             165    -0.210   37 346 
 BRR  HZ IP     C  1 4 53.06                             151     0.010   77 300 
 BRR  HZ I         1 4 53.45        87.4 0.12                            77 300 
 BRR  HE ES        1 5 10.41                             151     0.610   77 300 
 PAM  SZ EP        1 4 53.97                             150     0.010   79  35 
 PAM  SN ES   1    1 5 11.10                             150    -0.2 7   79  35 
 RUS  HZ EP        1 4 55.13                             145     0.110   96 178 
 RUS  HE ES   1    1 5 13.36                             145     0.1 7   96 178 
 RUS  HZ I         1 5 14.74        23.0 0.37                            96 178 
 PTB  HZ EP        1 4 57.93                             131    -0.9 9  151 261 
 PTB  HE ES   1    1 5 19.37                             131    -0.7 7  151 261 
 OCA  SZ EP        1 5  0.02                             129    -0.4 9  165 352 
 OCA  SZ ES   1    1 5 23.36                             129     0.5 7  165 352 
 OCA  SZ I         1 5 26.67        37.9 0.27                           165 352 
 ZAR  HZ EP   1    1 5  4.96                             122     0.3 6  209 293 
 ZAR  HZ I         1 5 35.81        24.8 0.27                           209 293 
 NOR  SZ EP   1    1 5  7.42                             118     0.0 6  235 236 
 NOR  SE ES   1    1 5 35.27                             118     0.0 6  235 236 
 CHI  HZ EP        1 5  9.16                             117     0.2 8  245 196 
 CHI  HZ I         1 5  9.89        10.8 0.22                           245 196 
 CHI  HE ES   1    1 5 38.39                             117     0.3 6  245 196 
 HEL  HZ EP   1    1 5 12.81                             115     0.7 6  275 257 
 HEL  HZ I         1 5 51.87        13.4 0.26                           275 257 
 GUY  SZ EP   1    1 5 15.89                             112     0.3 5  304 236 
 GUY  SN ES   1    1 5 49.82                             112     0.0 5  304 236 
 GUY  SZ I         1 5 57.92        17.1 0.31                           304 236 
 RREF HZ EP   1    1 5 18.20                             111     0.4 5  322 230 
 RREF HZ I         1 6  3.02        15.8 0.59                           322 230 
 PRA  HZ EP   1    1 5 24.96                             107     0.1 4  390 210 
 PRA  HN ES   1    1 6  6.43                             107     0.0 4  390 210 
                                                                                
