 2015  724 0143 48.7 L   6.865 -73.052138.7  RSN  5 0.3 1.5LRSN                1
 GAP=193        0.87       3.8     7.3  7.5  0.1181E+02  0.1204E+02 -0.7854E+01E
 Epicentro: LOS SANTOS - SANTANDER                                             3
 ACTION:UPD 15-09-08 21:50 OP:cam  STATUS:               ID:20150724014348 L   I
 OLDACT:DUP 15-07-24 14:47 OP:drio STATUS:               ID:20150724013749d    3
 2015-07-24-0137-48M.COL___340                                                 6
 STAT SP IPHASW D HRMM SECON CODA AMPLIT PERI AZIMU VELO AIN AR TRES W  DIS CAZ7
 BAR2 EZ EP        144  7.24                             166   -0.5110 33.5 206 
 BAR2 EZ ES        144 22.92                             166    0.3210 33.5 206 
 BAR2 EZ I         144 25.90         5.1 0.16            168           33.5 206 
 RUS  HZ EP        144 12.70                             140    0.3910  108 182 
 RUS  HN ES        144 30.38                             140   -0.3410  108 182 
 RUS  HZ I         144 32.24         2.4 0.28            144            108 182 
 OCA  HN ES        144 37.42                             129    0.22 9  155 349 
 ZAR  HZ EP        144 21.95                             120    0.50 8  211 289 
 ZAR  HN ES        144 46.84                             120   -0.16 8  211 289 
 SML  HZ EP        144 24.54                             116   -0.19 8  242 332 
 SML  HN ES        144 52.56                             116   -0.28 8  242 332 
 SML  HZ I         144 57.20         5.8 0.10            118            242 332 
                                                                                
