 2011  424 0646 50.9 L   6.737 -73.113147.6  RSN  6 0.4 1.8LRSN                1
 GAP=163        1.13       7.9    15.9 10.4  0.3903E+02 -0.6095E+02 -0.3196E+02E
 Epicentro: JORDAN - SANTANDER                                                 3
 ACTION:UP  11-06-22 15:33 OP:REBC STATUS:               ID:20110424064650 L   I
 2011-04-24-0642-35S.COL___138                                                 6
 STAT SP IPHASW D HRMM SECON CODA AMPLIT PERI AZIMU VELO SNR AR TRES W  DIS CAZ7
 BAR2 SZ EP        647 10.55                             173    -0.110   18 206 
 BAR2 SZ ES   1    647 25.60                             173    -0.4 7   18 206 
 BAR2 SZ I         647 27.33        15.7 0.17                            18 206 
 GIR2 SZ EP        647 11.83                             164     0.810   39 347 
 GIR2 SZ ES   1    647 26.72                             164     0.0 7   39 347 
 BRR  HZ EP        647 12.41                             151    -0.210   78 302 
 BRR  HZ I         647 12.67        19.8 0.14                            78 302 
 BRR  HN ES   1    647 29.76                             151     0.2 7   78 302 
 RUS  HZ EP   1    647 14.44                             146     0.1 7   93 178 
 RUS  HN ES   1    647 32.38                             146    -0.2 7   93 178 
 RUS  HZ I         647 34.46         9.4 0.66                            93 178 
 GRA  SZ EP        647 16.79                             136     0.010  131  15 
 GRA  SZ I         647 38.70         6.3 0.33                           131  15 
 OCA  SZ EP   1    647 19.13                             129    -0.9 7  168 352 
                                                                                
