 2016  324 0257 10.0 L   6.849 -73.106152.7  RSN 23 0.6 2.4LRSN                1
 GAP=128        1.20       2.9     3.7  5.5 -0.3370E+01  0.4979E+01 -0.2274E+01E
 Epicentro: LOS SANTOS - SANTANDER                                             3
 ACTION:UPD 16-05-13 21:27 OP:cam  STATUS:               ID:20160324025710 L   I
 OLDACT:UP  16-03-24 17:58 OP:nlst STATUS:               ID:20160324025710 L   3
 OLDACT:REG 16-03-24 12:27 OP:ak   STATUS:               ID:20160324024743     3
 2016-03-24-0247-43M.COL___305                                                 6
 STAT SP IPHASW D HRMM SECON CODA AMPLIT PERI AZIMU VELO AIN AR TRES W  DIS CAZ7
 BAR2 EZ EP        257 31.11                             169    0.4810 29.6 196 
 BAR2 EZ ES        257 46.93                             169    0.2310 29.6 196 
 BAR2 EZ I         257 48.94        29.1 0.48            163           29.6 196 
 PAM  EZ EP   2    257 33.49                             154    0.89 5 70.4  40 
 PAM  EN ES        257 49.98                             154   -0.2310 70.4  40 
 RUS  HZ EP        257 34.98                             144    0.1410  106 179 
 RUS  HN ES        257 53.82                             144   -0.3710  106 179 
 RUS  HZ I         257 56.49        19.3 0.38            139            106 179 
 PTB  HZ EP        257 37.52                             132   -0.53 9  153 257 
 PTB  HN ES        257 59.18                             132   -0.72 9  153 257 
 PTB  HZ I         258  6.49        38.9 0.36            124            153 257 
 OCA  HZ EP        257 39.30                             132    0.86 9  155 351 
 OCA  HN ES        258  0.94                             132    0.33 9  155 351 
 SPBC HZ EP        257 40.04                             129    0.33 9  170 219 
 SPBC HN ES        258  2.41                             129   -0.47 9  170 219 
 SPBC HZ I         258  6.12        45.7 0.22            122            170 219 
 ZAR  HZ EP        257 43.61                             123    0.47 8  206 290 
 ZAR  HN ES        258  9.79                             123    0.82 8  206 290 
 ZAR  HZ I         258 17.83        25.0 0.36            117            206 290 
 NOR  HZ EP        257 47.03                             119    0.15 8  241 234 
 NOR  HE ES        258 15.43                             119   -0.19 8  241 234 
 NOR  HZ I         258 18.77        25.0 0.20            113            241 234 
 CHI  HZ EP        257 48.07                             118   -0.73 8  255 196 
 CHI  HN ES        258 18.09                             118   -0.96 8  255 196 
 CHI  HZ I         258 23.96        10.5 0.34            113            255 196 
 ROSC BZ EP        257 48.87                             117   -0.41 8  260 211 
 ROSC BN ES        258 20.48                             117    0.59 8  260 211 
 ROSC BZ I         258 28.85        17.0 0.35            112            260 211 
 HEL  HZ EP   4    257 52.70                             115    1.49 0  278 255 
 HEL  HE ES        258 22.84                             115   -0.50 7  278 255 
 HEL  HZ I         258 30.23        18.7 0.36            110            278 255 
 URE  HZ EP        257 50.74                             115   -0.93 7  286 291 
 URE  HN ES   4    258 22.44                             115   -1.71 0  286 291 
 URE  HZ I         258 34.67        13.4 0.16            109            286 291 
 GUY2CHZ EP        257 55.56                             113    0.85 7  308 234 
 GUY2CHE ES        258 30.52                             113    0.95 7  308 234 
 GUY2CHZ I         258 36.44        14.9 0.28                           308 234 
 ELA  HZ EP   9    257 59.87                             111    1.92 0  336 229 
 ELA  HN ES        258 36.87                                   -0.39 7  336 229 
 ELA  HZ I         258 50.79        10.4 0.58            106            336 229 
 CBOC HZ EP        257 58.39                             111    0.49 7  339 251 
 CBOC HE ES   4    258 33.62                             111   -1.62 0  339 251 
 CBOC HZ I         258 48.85         5.3 0.40            106            339 251 
 DBB  SZ EP        257 58.32                             110    0.08 7  343 273 
 DBB  SZ ES        258 35.53                             110   -0.32 7  343 273 
 DBB  SZ I         258 39.74        20.1 0.30            105            343 273 
 SDV  BZ I         258 40.28         3.2 0.30            106            354  50 
 MON  HZ EP   4    257 58.08                             110   -1.23 0  354 307 
 MON  HN ES        258 36.75                             110   -1.01 6  354 307 
 MON  HZ I         258 38.56         3.3 0.30            105            354 307 
 SDV  BZ EP        257 59.99                             110    0.44 6  354  50 
 SDV  BN ES        258 37.82                             110   -0.37 6  354  50 
 ANIL HZ EP   9    258  2.44                             109    1.54 0  364 224 
 ANIL HN ES        258 41.94                                   -0.18 6  364 224 
 ANIL HZ I         258 52.55        22.8 0.32            105            364 224 
 ORTC HZ EP   2    258  5.54                             107    0.54 3  402 216 
 ORTC HN ES        258 48.74                             107    0.86 6  402 216 
 ORTC HZ I         258 54.51        10.5 0.80            103            402 216 
 SJC  HZ EP        258  5.21                             107   -0.36 6  407 326 
 SJC  HN ES   4    258 45.88                             107   -3.02 0  407 326 
 SJC  HZ I         258 51.83         4.7 0.26            103            407 326 
 PAL  HZ EP   4    257 59.77                             107   -6.41 0  412 239 
 PAL  HZ I         258 53.84         4.8 0.28            102            412 239 
 CRJC HZ EP        258 11.36                             104   -0.69 5  462   3 
 CRJC HE ES        258 59.71                             104   -0.72 5  462   3 
 CRJC HZ I         259  5.65         6.1 0.27            101            462   3 
                                                                                
