 2016 1024 0231 14.3 L   6.741 -73.155144.5  RSN  4 0.3 1.2LRSN                1
 GAP=138        0.69       3.7     3.6  6.1 -0.1460E+01  0.1970E+01  0.2631E+01E
 Epicentro: LOS SANTOS - SANTANDER                                             3
 ACTION:UPD 16-11-09 19:22 OP:rebc STATUS:               ID:20161024023114 L   I
 OLDACT:REG 16-10-24 13:33 OP:cara STATUS:               ID:20161024022747     3
 2016-10-24-0228-00M.COL___356                                                 6
 STAT SP IPHASW D HRMM SECON CODA AMPLIT PERI AZIMU VELO AIN AR TRES W  DIS CAZ7
 BRR  HZ EP        231 35.52                             151    0.0310 73.6 303 
 BRR  HE ES        231 52.42                             151    0.4310 73.6 303 
 BRR  HZ I         231 56.00         3.1 0.14            148           73.6 303 
 PAM  EZ IP        231 36.67                             149   -0.1010 83.1  37 
 PAM  EZ I         231 47.51         2.4 0.46            145           83.1  37 
 PAM  EE ES        231 54.06                             149   -0.2210 83.1  37 
 RUS  HZ EP        231 37.87                             145    0.3610 94.2 175 
 RUS  HE ES        231 55.47                             145   -0.1210 94.2 175 
 RUS  HZ I         231 57.33         2.3 0.22            146           94.2 175 
 PTB  HZ EP        231 40.90                             132   -0.10 9  146 261 
 PTB  HN ES        232  1.46                             132   -0.34 9  146 261 
 PTB  HZ I         232  6.87         2.0 0.42            131            146 261 
                                                                                
