 2016 1224 0837 34.0 L   5.920 -73.635122.9  RSN 10 0.5 1.5LRSN                1
 GAP= 91        1.06       3.4     3.0  7.1 -0.1889E+01  0.6986E+01  0.1934E+01E
 Epicentro: BARBOSA - SANTANDER                                                3
 ACTION:UPD 17-01-11 20:18 OP:rebc STATUS:               ID:20161224083734 L   I
 OLDACT:UP  16-12-24 16:25 OP:cog  STATUS:               ID:20161224082740     3
 OLDACT:UP  16-12-24 16:23 OP:cog  STATUS:               ID:20161224082740     3
 OLDACT:REG 16-12-24 13:40 OP:y    STATUS:               ID:20161224082740     3
 2016-12-24-0828-00M.COL___381                                                 6
 STAT SP IPHASW D HRMM SECON CODA AMPLIT PERI AZIMU VELO AIN AR TRES W  DIS CAZ7
 RUS  HZ EP        837 52.47                             152   -0.3310 61.2  93 
 RUS  HN ES        838  7.02                             152   -0.4710 61.2  93 
 RUS  HZ I         838  8.37         6.5 0.38            155           61.2  93 
 BAR2 HZ EP        837 54.42                             142    0.0810 89.6  34 
 BAR2 HZ ES        838 10.84                             142    0.6110 89.6  34 
 PTB  HZ EP        837 55.01                             134   -1.0110  114 307 
 PTB  HN ES        838 13.42                             134    0.2110  114 307 
 PTB  HZ I         838 14.83         7.3 0.16            137            114 307 
 BRR  HZ EP        837 57.68                             130    0.0810  132 356 
 BRR  HE ES        838 16.20                             130    0.1710  132 356 
 BRR  HZ I         838 16.94         7.8 0.10            134            132 356 
 NOR  HZ EP        837 58.96                             127    0.26 9  142 254 
 NOR  HN ES        838 17.33                             127   -0.66 9  142 254 
 NOR  HZ I         838 22.17         9.2 0.22            129            142 254 
 CHI  HZ EP        837 59.02                             127   -0.25 9  143 184 
 CHI  HE ES        838 19.39                             127    0.40 9  143 184 
 CHI  HZ I         838 24.45         1.8 0.42            129            143 184 
 GUY2CHZ EP        838  6.36                             117    0.44 8  207 248 
 GUY2CHN ES        838 31.36                             117    0.53 8  207 248 
 GUY2CHZ I         838 34.95         2.6 0.22                           207 248 
 TAM  HZ EP   3    838  6.10                             116    0.16 2  212  74 
 TAM  HE ES        838 30.75                             116   -0.12 8  212  74 
 TAM  HZ I         838 31.74         4.9 0.38            119            212  74 
 ZAR  HZ EP        838  7.15                             115    0.32 8  220 322 
 ZAR  HN ES   3    838 30.65                             115   -1.79 2  220 322 
 CBOC HZ EP        838 11.80                             110   -0.09 8  263 269 
 CBOC HE ES        838 41.73                             110    0.28 8  263 269 
 CBOC HZ I         838 43.44         2.0 0.22            112            263 269 
                                                                                
