 2012 1124 0810  9.1 L   6.851 -73.129145.8  RSN 12 0.5 2.4LRSN                1
 GAP=136        0.87       3.1     4.7  5.9 -0.6580E+00  0.9847E+01  0.1757E+01E
 Epicentro: LOS SANTOS - SANTANDER                                             3
 ACTION:UPD 12-12-05 15:35 OP:}ep  STATUS:               ID:20121124081009 L   I
 2012-11-24-0810-00M.COL___233                                                 6
 STAT SP IPHASW D HRMM SECON CODA AMPLIT PERI AZIMU VELO AIN AR TRES W  DIS CAZ7
 GIR2 SZ EP     C  810 28.61                             169    0.0110 26.1 344 
 GIR2 SZ ES   1    810 44.01                             169    0.16 7 26.1 344 
 GIR2 SZ I         810 45.26        43.4 0.26                          26.1 344 
 BAR2 SZ EP   1    810 28.84                             168    0.02 7 29.2 192 
 BAR2 SZ ES   1    810 44.33                             168    0.09 7 29.2 192 
 BAR2 SZ I         810 45.70        40.7 0.13                          29.2 192 
 PAM  SZ EP   1    810 31.51                             153    0.55 7 71.9  41 
 PAM  SN ES   1    810 48.18                             153    0.14 7 71.9  41 
 PAM  SZ I         810 50.31        76.2 0.38                          71.9  41 
 RUS  HZ EP   1    810 33.09                             142   -0.13 7  106 177 
 RUS  HE ES   1    810 51.98                             142   -0.08 7  106 177 
 RUS  HZ I         810 53.73         9.8 0.34                           106 177 
 PTB  HZ EP   1    810 35.34                             131   -0.95 7  151 257 
 PTB  HE ES   1    810 57.03                             131   -0.51 7  151 257 
 PTB  HZ I         810 59.71        32.9 0.24                           151 257 
 OCA  HZ EP   1    810 36.56                             131   -0.31 7  155 352 
 OCA  HE ES   1    810 57.94                             131   -0.61 7  155 352 
 OCA  HZ I         811  3.11        37.0 0.24                           155 352 
 ZAR  HZ EP   1    810 41.37                             122   -0.09 6  204 290 
 ZAR  HE ES   1    811  7.17                             122    0.43 6  204 290 
 ZAR  HZ I         811 12.84        46.2 0.26                           204 290 
 SML  HZ EP   1    810 44.79                             118   -0.42 6  239 334 
 SML  HE ES   1    811 13.96                             118    0.55 6  239 334 
 CHI  HZ EP   1    810 47.59                             116    0.19 6  255 195 
 CHI  HN ES   1    811 16.84                             116   -0.47 6  255 195 
 CHI  HZ I         811 23.40        11.6 0.28                           255 195 
 ROSC BZ EP   1    810 49.20                             116    1.39 6  259 211 
 ROSC BN ES   4    811 18.68                             116    0.64 0  259 211 
 ROSC BZ I         811 25.06        17.5 0.35                           259 211 
 HEL  HN ES   1    811 21.98                             114    0.72 6  275 255 
 HEL  HZ I         811 27.59        23.8 0.34                           275 255 
 MON  HZ EP   4    810 55.69                             109   -2.13 0  352 307 
 MON  HN ES   4    811 33.88                             109   -1.97 0  352 307 
 PRA  HZ EP   1    811  3.13                             106   -0.13 4  398 209 
 PRA  HN ES   1    811 45.33                             106   -0.21 4  398 209 
 PRA  HZ I         811 54.45        18.1 0.42                           398 209 
                                                                                
