 2014  724 0742 39.3 L   6.849 -73.153141.9  RSN  9 0.4 1.7LRSN                1
 GAP=183        0.80       2.5     4.7  8.2 -0.2320E+00  0.1203E+01 -0.4100E+00E
 Epicentro: LOS SANTOS - SANTANDER                                             3
 ACTION:UPD 15-03-16 20:46 OP:nd   STATUS:               ID:20140724074239 L   I
 OLDACT:UP  14-07-24 18:23 OP:mh   STATUS:               ID:20140724073810     3
 OLDACT:REG 14-07-24 14:05 OP:mh   STATUS:               ID:20140724073810     3
 2014-07-24-0738-10M.COL___260                                                 6
 STAT SP IPHASW D HRMM SECON CODA AMPLIT PERI AZIMU VELO AIN AR TRES W  DIS CAZ7
 BAR2 SZ EP   1    742 58.12                             168   -0.45 8 28.6 187 
 BAR2 SZ I         743 15.78         8.9 0.21            167           28.6 187 
 RUS  HZ EP        743  3.36                             141    0.2910  106 176 
 RUS  HN ES   1    743 21.58                             141   -0.04 7  106 176 
 RUS  HZ I         743 23.48         4.1 0.13            142            106 176 
 PTB  HZ EP        743  5.87                             131   -0.10 9  148 257 
 PTB  HN ES   1    743 26.65                             131   -0.14 7  148 257 
 PTB  HZ I         743 29.26         4.8 0.16            136            148 257 
 OCA  HZ EP        743  6.12                             130   -0.66 9  155 353 
 OCA  HN ES        743 28.37                             130    0.15 9  155 353 
 OCA  HZ I         743 32.51         7.0 0.35            133            155 353 
 SPBC HZ EP        743  8.48                             127    0.63 9  167 218 
 SPBC HN ES   1    743 30.15                             127    0.01 7  167 218 
 SPBC HZ I         743 34.17         5.0 0.06            131            167 218 
 ZAR  HN ES        743 36.27                             122    0.18 9  201 291 
 SML  HZ EP        743 15.51                             117    0.39 8  238 335 
 SML  HN ES        743 43.06                             117   -0.01 8  238 335 
 SML  HZ I         743 46.15         7.8 0.18            120            238 335 
 GUY2CHN ES   4    743 54.35                             111   -2.75 0  304 234 
 TOL  SN ES   1    744  4.65                             108   -0.94 5  347 224 
 PRA  HZ EP   1    743 32.95                             106   -0.23 4  396 209 
 PRA  HN ES   1    744 15.00                             106   -0.23 4  396 209 
 PRA  HZ I         744 22.19         1.7 0.31            108            396 209 
                                                                                
