 2015  124 0046 45.9 L   6.486 -73.678 99.4  RSN 10 0.5 1.8LRSN                1
 GAP= 86        1.36       3.9     3.5  8.7 -0.2759E+01  0.1013E+02  0.1623E+01E
 Epicentro: SANTA HELENA DEL OPON - SANTANDER                                  3
 ACTION:UPD 15-03-02 15:41 OP:nd   STATUS:               ID:20150124004645 L   I
 OLDACT:REG 15-01-24 13:22 OP:carl STATUS:               ID:20150124003741     3
 2015-01-24-0037-41M.COL___265                                                 6
 STAT SP IPHASW D HRMM SECON CODA AMPLIT PERI AZIMU VELO AIN AR TRES W  DIS CAZ7
 BAR2 EZ EP        047  1.79                             149    0.2110 56.1  78 
 BAR2 EZ ES        047 14.44                             149    0.6510 56.1  78 
 BAR2 EZ I         047 15.75        41.4 0.38            151           56.1  78 
 BRR  HZ EP        047  2.02                             143   -0.1110 68.8 357 
 BRR  HN ES        047 15.30                             143    0.5410 68.8 357 
 BRR  HZ I         047 17.34        15.5 0.20            143           68.8 357 
 PTB  HZ IP     D  047  2.73                             136   -0.8210 86.3 274 
 PTB  HN ES        047 16.15                             136   -1.1510 86.3 274 
 PTB  HZ I         047 17.98        18.5 0.10            136           86.3 274 
 RUS  HZ EP        047  4.60                             134   -0.1910 93.0 135 
 RUS  HE ES        047 19.28                             134   -0.2210 93.0 135 
 RUS  HZ I         047 21.21        11.5 0.34            136           93.0 135 
 PAM  SZ EP        047  9.54                             121   -0.21 9  144  49 
 PAM  SE ES        047 28.30                             121   -0.04 9  144  49 
 PAM  SZ I         047 32.56         7.0 0.18            122            144  49 
 NOR  HZ EP        047 11.13                             117   -0.56 9  167 232 
 NOR  HN ES        047 32.02                             117    0.23 9  167 232 
 NOR  HZ I         047 36.05         6.9 0.24            117            167 232 
 ZAR  HZ EP        047 12.17                             116    0.01 9  171 311 
 ZAR  HN ES        047 33.20                             116    0.58 9  171 311 
 ZAR  HZ I         047 36.95        14.2 0.34            116            171 311 
 OCA  HN ES        047 38.13                             113   -0.12 9  198  12 
 HEL  HZ EP        047 17.01                             112    0.33 8  207 261 
 HEL  HN ES        047 41.04                             112    0.38 8  207 261 
 HEL  HZ I         047 46.24         5.0 0.22            111            207 261 
 TOL  SN ES        047 56.55                             106    1.24 7  278 221 
                                                                                
