 2012  724 0759  2.2 L   6.710 -73.224148.0  RSN  4 0.3 1.1LRSN                1
 GAP=211        0.66      12.9    11.8 11.8  0.1060E+03  0.5089E+02  0.9602E+02E
 Epicentro: VILLANUEVA - SANTANDER                                             3
 ACTION:UPD 12-08-14 11:45 OP:ep   STATUS:               ID:20120724075902 L   I
 2012-07-24-0750-00M.COL___215                                                 6
 STAT SP IPHASW D HRMM SECON CODA AMPLIT PERI AZIMU VELO AIN AR TRES W  DIS CAZ7
 BAR2 SZ EP   1    759 21.67                             174    -0.3 7   14 160 
 BAR2 SZ ES   3    759 36.68                             174    -0.7 2   14 160 
 BRR  HZ EP        759 23.41                             153    -0.110   69 309 
 BRR  HZ I         759 23.54         4.2 0.10             47             69 309 
 BRR  HN ES   1    759 40.49                             153     0.4 7   69 309 
 RUS  HZ EP        759 25.78                             147     0.210   92 170 
 RUS  HZ I         759 45.13         1.4 0.34             47             92 170 
 PTB  HZ EP        759 28.32                             135    -0.1 9  138 262 
 PTB  HZ I         759 55.43         1.1 0.26             37            138 262 
