 2011 1224 0227 20.0 L   6.820 -73.347117.4  RSN  9 0.3 1.9LRSN                1
 GAP=143        0.74       2.8     4.0  4.8  0.2262E+01  0.6063E+01  0.1230E+01E
 Epicentro: ZAPATOCA - SANTANDER                                               3
 ACTION:UPD 12-07-13 16:18 OP:ep   STATUS:               ID:20111224022720 L   I
 2011-12-24-0220-00M.COL___189                                                 6
 STAT SP IPHASW D HRMM SECON CODA AMPLIT PERI AZIMU VELO AIN AR TRES W  DIS CAZ7
 BAR2 SZ EP        227 36.87                             164    0.3810 31.1 144 
 BAR2 SZ I         227 37.13        64.2 0.09                          31.1 144 
 BAR2 SZ ES        227 49.38                             164    0.0610 31.1 144 
 BRR  HZ EP        227 37.31                             155    0.3110 51.3 308 
 BRR  HE ES        227 50.35                             155    0.1110 51.3 308 
 BRR  HZ I         227 52.42        30.4 0.17                          51.3 308 
 RUS  HZ EP        227 41.72                             135    0.0910  107 164 
 RUS  HN ES   1    227 57.81                             135   -0.66 7  107 164 
 PTB  HZ EP        227 42.15                             129   -0.6310  127 256 
 OCA  SZ EP        227 45.83                             123   -0.13 9  157   1 
 OCA  SZ ES   1    228  5.77                             123   -0.42 7  157   1 
 OCA  SZ I         228 11.77        12.6 0.23                           157   1 
 ZAR  HZ EP   1    227 48.69                             118    0.21 7  183 294 
 ZAR  HE ES   1    228 10.89                             118    0.22 7  183 294 
 ZAR  HZ I         228 14.05         9.8 0.24                           183 294 
 NOR  SZ EP   2    227 52.32                             114   -0.13 4  218 231 
 NOR  SE ES   1    228 17.54                             114   -0.20 6  218 231 
 CHI  HZ EP   1    227 56.49                             111    0.47 6  246 190 
 CHI  HE ES   2    228 24.48                             111    0.39 4  246 190 
 CHI  HZ I         228 31.66         2.2 0.32                           246 190 
 HEL  HZ EP   1    227 56.55                             110   -0.01 6  251 254 
                                                                                
