 2013  824 0722 44.0 L   6.728 -73.127140.0  RSN  6 0.4 1.6LRSN                1
 GAP=142        0.98       4.0     4.8  6.6 -0.3741E+00  0.9008E+01  0.7663E-01E
 Epicentro: JORDAN - SANTANDER                                                 3
 ACTION:UPD 14-01-14 09:06 OP:ep   STATUS:               ID:20130824072244 L   I
 OLDACT:REG 13-08-24 07:40 OP:nd   STATUS:               ID:20130824071959     3
 2013-08-24-0719-59M.COL___270                                                 6
 STAT SP IPHASW D HRMM SECON CODA AMPLIT PERI AZIMU VELO AIN AR TRES W  DIS CAZ7
 BAR2 SZ EP        723  2.72                             173   -0.0810 16.3 202 
 BAR2 SZ ES        723 16.93                             173   -0.5410 16.3 202 
 BAR2 SZ I         723 18.95        10.1 0.18            172           16.3 202 
 BRR  HZ EP        723  4.83                             149   -0.0410 77.0 303 
 BRR  HN ES        723 21.66                             149    0.5010 77.0 303 
 BRR  HZ I         723 22.80         8.2 0.15            148           77.0 303 
 PAM  SZ EP        723  5.78                             148   -0.1410 82.4  35 
 PAM  SN ES        723 23.05                             148    0.0310 82.4  35 
 PAM  SZ I         723 25.31         5.3 0.50            151           82.4  35 
 RUS  HZ EP        723  6.39                             145   -0.2110 92.6 177 
 RUS  HN ES        723 24.85                             145    0.6110 92.6 177 
 RUS  HZ I         723 26.47         3.8 0.34            147           92.6 177 
 SPBC HZ EP        723 11.45                             129   -0.15 9  158 221 
 SPBC HN ES        723 32.96                             129   -0.18 9  158 221 
 SPBC HZ I         723 35.84         6.0 0.20            129            158 221 
 ZAR  HN EP        723 17.29                             120    0.70 8  209 294 
 ZAR  HE ES        723 41.52                             120   -0.50 8  209 294 
 ZAR  HN I         723 49.51        10.0 0.26            121            209 294 
                                                                                
