 2012  124 0920 28.0 L   6.776 -73.131141.7  RSN  9 0.3 1.8LRSN                1
 GAP=139        0.64       3.0     3.3  5.0 -0.1678E+01  0.3833E+01 -0.1648E+01E
 Epicentro: LOS SANTOS - SANTANDER                                             3
 ACTION:UP  12-02-03 08:20 OP:REBC STATUS:               ID:20120124092028 L   I
 2012-01-24-0920-00M.COL___187                                                 6
 STAT SP IPHASW D HRMM SECON CODA AMPLIT PERI AZIMU VELO SNR AR TRES W  DIS CAZ7
 BAR2 SZ EP   1    920 46.88                             171    -0.2 7   21 196 
 BAR2 SZ ES   1    921  1.78                             171    -0.2 7   21 196 
 BAR2 SZ I         921  3.37        18.1 0.27                            21 196 
 GIR2 SZ EP   1    920 47.25                             166     0.0 7   34 348 
 GIR2 SZ ES   2    921  2.12                             166    -0.1 5   34 348 
 BRR  HZ EP        920 49.03                             151     0.210   74 300 
 BRR  HN ES   1    921  5.73                             151     0.6 7   74 300 
 BRR  HZ I         921  8.49        14.3 0.26                            74 300 
 PAM  SZ EP        920 49.86                             150     0.110   78  37 
 PAM  SE ES   1    921  6.52                             150    -0.3 7   78  37 
 RUS  HZ EP   1    920 51.30                             144     0.2 7   98 177 
 RUS  HE ES   1    921  9.37                             144     0.2 7   98 177 
 RUS  HZ I         921 10.79         5.6 0.19                            98 177 
 PTB  HZ EP   1    920 54.14                             131    -0.6 7  149 260 
 PTB  HE ES   1    921 15.13                             131    -0.4 7  149 260 
 OCA  SZ EP   1    920 56.16                             128    -0.1 7  163 353 
 OCA  SZ ES   1    921 18.11                             128    -0.2 7  163 353 
 ZAR  HZ EP   1    921  0.76                             121     0.4 6  207 293 
 ZAR  HN ES   1    921 25.72                             121     0.0 6  207 293 
 ZAR  HZ I         921 34.01         6.1 0.36                           207 293 
 NOR  SN ES   1    921 30.97                             118    -0.1 6  234 235 
                                                                                
