 2014 1024 0810 20.6 L   6.830 -73.210134.8  RSN  5 0.2 1.5LRSN                1
 GAP=128        0.57       2.8     3.5  4.9 -0.5334E+01  0.5512E+01 -0.7818E+00E
 Epicentro: ZAPATOCA - SANTANDER                                               3
 ACTION:UPD 14-11-29 23:56 OP:nd   STATUS:               ID:20141024081020 L   I
 OLDACT:UP  14-10-27 17:39 OP:cam  STATUS:               ID:20141024080813     3
 OLDACT:UP  14-10-27 16:48 OP:cam  STATUS:               ID:20141024080813     3
 OLDACT:ARG 14-10-27 14:42 OP:cam  STATUS:               ID:20141024080813     3
 2014-10-24-0808-13M.COL___280                                                 6
 STAT SP IPHASW D HRMM SECON CODA AMPLIT PERI AZIMU VELO AIN AR TRES W  DIS CAZ7
 BAR2 SZ EP        810 39.00                             168    0.0310 26.5 173 
 BAR2 SZ ES        810 52.95                             168   -0.3610 26.5 173 
 BAR2 SZ I         810 57.28         7.6 0.18            167           26.5 173 
 PAM  SZ EP     D  810 41.80                             148    0.0110 79.7  45 
 PAM  SN ES        810 58.64                             148    0.3010 79.7  45 
 PAM  SZ I         811  0.94         6.2 0.58            154           79.7  45 
 PTB  HZ EP        810 45.85                             131   -0.24 9  142 257 
 PTB  HN ES        811  6.16                             131    0.17 9  142 257 
 PTB  HZ I         811  9.57         4.4 0.18            134            142 257 
 OCA  HN ES        811  8.72                             128   -0.09 9  156 356 
 SPBC HZ EP        810 48.07                             127   -0.03 9  161 216 
 SPBC HN ES        811  9.78                             127    0.22 9  161 216 
 SPBC HZ I         811 16.34         5.8 0.30            129            161 216 
                                                                                
