 2012  524 0850 30.0 L   6.474 -73.698 99.5  RSN  7 0.3 1.7LRSN                1
 GAP= 99        0.72       3.6     2.6  7.2  0.3854E+00  0.5597E+01 -0.5311E+01E
 Epicentro: SANTA HELENA DEL OPON - SANTANDER                                  3
 ACTION:UP  12-07-05 12:07 OP:pat  STATUS:               ID:20120524085030 L   I
 2012-05-24-0850-00M.COL___200                                                 6
 STAT SP IPHASW D HRMM SECON CODA AMPLIT PERI AZIMU VELO SNR AR TRES W  DIS CAZ7
 BAR2 SZ EP        850 46.09                             147     0.310   59  77 
 BAR2 SZ ES   1    850 58.34                             147     0.2 7   59  77 
 BAR2 SZ I         851  0.18        37.5 0.32                            59  77 
 PTB  HZ EP        850 47.07                             137    -0.410   84 275 
 PTB  HN ES   1    851  0.76                             137    -0.3 7   84 275 
 PTB  HZ I         851  2.35        10.2 0.10                            84 275 
 RUS  HZ EP        850 48.69                             134    -0.210   94 133 
 RUS  HZ I         850 49.57         9.8 0.14                            94 133 
 RUS  HN ES   1    851  3.62                             134    -0.1 7   94 133 
 NOR  SN ES   1    851 15.71                             117     0.4 7  164 232 
 ZAR  HZ EP   1    850 56.32                             116     0.2 7  171 311 
 ZAR  HN ES   1    851 16.85                             116     0.3 7  171 311 
 ZAR  HZ I         851 20.96         6.2 0.28                           171 311 
 OCA  HZ EP   1    850 59.78                             112     0.2 6  200  12 
 OCA  HN ES   2    851 21.95                             112    -0.7 4  200  12 
 OCA  HZ I         851 27.47        11.2 0.08                           200  12 
 HEL  HZ EP   1    851  0.64                             112     0.2 6  205 261 
 HEL  HE ES   1    851 24.13                             112    -0.1 6  205 261 
 HEL  HZ I         851 28.84         3.6 0.19                           205 261 
                                                                                
