 2012 1224 0406 23.6 L   7.260 -73.854 93.4  RSN  8 0.4 1.4LRSN                1
 GAP= 77        0.75       2.7     3.2  6.8  0.1130E+01  0.2099E+01 -0.2016E+01E
 Epicentro: PUERTO WILCHES - SANTANDER                                         3
 ACTION:UPD 13-01-04 14:30 OP:ep   STATUS:               ID:20121224040623 L   I
 2012-12-24-0400-00M.COL___243                                                 6
 STAT SP IPHASW D HRMM SECON CODA AMPLIT PERI AZIMU VELO AIN AR TRES W  DIS CAZ7
 BRR  HZ IP     D  4 6 36.76                             165    0.1510 23.0 137 
 BRR  HN ES   1    4 6 46.66                             165   -0.10 7 23.0 137 
 GIR2 SZ EP   1    4 6 39.94                             138   -0.03 7 75.6 105 
 PTB  HZ EP     D  4 6 42.35                             128    0.0010  104 220 
 PTB  HN ES   1    4 6 56.26                             128   -0.72 7  104 220 
 PTB  HZ I         4 6 57.72         7.8 0.18                           104 220 
 BAR2 SZ ES   1    4 6 57.82                             128    0.18 7  105 135 
 BAR2 SZ I         4 6 58.49        12.2 0.50                           105 135 
 ZAR  HZ EP   1    4 6 43.25                             125   -0.07 7  114 283 
 ZAR  HN ES   1    4 6 59.52                             125    0.81 7  114 283 
 ZAR  HZ I         4 7  6.52         5.9 0.30                           114 283 
 OCA  HE ES   1    4 7  0.90                             123    0.15 7  123  29 
 OCA  HZ I         4 7  4.18         4.0 0.16                           123  29 
 SML  HZ EP   1    4 6 49.62                             114    0.04 7  172 352 
 SML  HE ES   1    4 7  9.11                             114   -0.73 7  172 352 
 RUS  HZ EP   1    4 6 50.52                             114    0.15 7  174 151 
 RUS  HN ES   1    4 7 11.22                             114   -0.04 7  174 151 
 RUS  HZ I         4 7 15.60         2.1 0.26                           174 151 
                                                                                
