 2016  324 0211 53.6 L   6.822 -73.140142.9  RSN 22 0.4 2.2LRSN                1
 GAP= 71        0.90       2.2     2.3  4.3 -0.9602E+00  0.3292E+01  0.5558E+00E
 Epicentro: LOS SANTOS - SANTANDER                                             3
 ACTION:UPD 16-05-13 21:27 OP:cam  STATUS:               ID:20160324021153 L   I
 OLDACT:UP  16-03-24 17:58 OP:nlst STATUS:               ID:20160324021153 L   3
 OLDACT:REG 16-03-24 12:25 OP:ak   STATUS:               ID:20160324020746     3
 2016-03-24-0207-46M.COL___308                                                 6
 STAT SP IPHASW D HRMM SECON CODA AMPLIT PERI AZIMU VELO AIN AR TRES W  DIS CAZ7
 BAR2 EZ EP        212 13.24                             169    0.2610 25.8 190 
 BAR2 EZ ES        212 28.34                             169    0.2710 25.8 190 
 BAR2 EZ I         212 29.74        38.2 0.16            167           25.8 190 
 BAR2 EZ E         212 29.92                                           25.8 190 
 PAM  EZ EP        212 16.00                             151    0.5810 75.1  40 
 PAM  EN ES        212 32.78                             151    0.3710 75.1  40 
 PAM  EZ I         212 35.15        30.4 0.39            156           75.1  40 
 RUS  HZ EP        212 17.14                             143   -0.1510  103 176 
 RUS  HN ES        212 35.76                             143    0.0210  103 176 
 RUS  HZ I         212 37.21        10.2 0.46            144            103 176 
 PTB  HZ EP        212 19.81                             131   -0.67 9  149 258 
 PTB  HN ES        212 40.91                             131   -0.50 9  149 258 
 PTB  HZ I         212 48.60        13.1 0.36            132            149 258 
 TAM  HZ EP        212 21.52                             130    0.42 9  155 106 
 TAM  HE ES        212 41.54                             130   -0.98 9  155 106 
 OCA  HZ EP        212 21.47                             129   -0.04 9  158 353 
 OCA  HN ES        212 43.30                             129    0.05 9  158 353 
 OCA  HZ I         212 46.99        53.6 0.16            133            158 353 
 SPBC HZ EP        212 22.50                             128    0.36 9  165 219 
 SPBC HN ES        212 44.49                             128    0.12 9  165 219 
 SPBC HZ I         212 49.01        22.7 0.22            129            165 219 
 ZAR  HZ EP        212 26.06                             122    0.19 9  204 291 
 ZAR  HN ES        212 50.98                             122   -0.02 9  204 291 
 ZAR  HZ I         212 56.72         9.6 0.06            123            204 291 
 NOR  HZ EP        212 29.56                             118    0.15 8  237 234 
 NOR  HE ES        212 56.86                             118   -0.45 8  237 234 
 NOR  HZ I         213  3.49        11.4 0.20            119            237 234 
 CHI  HZ EP        212 31.52                             116    0.06 8  251 195 
 CHI  HN ES        213  0.31                             116   -0.64 8  251 195 
 CHI  HZ I         213  8.18         7.6 0.38            118            251 195 
 ROSC BZ EP   2    212 32.17                             116    0.30 4  255 211 
 ROSC BN ES        213  1.65                             116   -0.04 8  255 211 
 ROSC BZ I         213  8.18        15.7 0.50            117            255 211 
 HEL  HZ EP   2    212 34.01                             114    0.17 4  273 255 
 HEL  HN ES        213  5.12                             114   -0.08 8  273 255 
 HEL  HZ I         213 11.89         5.6 0.48            115            273 255 
 URE  HN ES   4    213  4.09                             113   -2.35 0  283 291 
 SOCV BZ EP   4    212 34.96                             112   -1.39 0  299  57 
 SOCV BE ES   4    213  6.56                             112   -3.11 0  299  57 
 GUY2CHZ EP        212 37.09                             112   -0.24 7  303 234 
 GUY2CHN ES        213 11.96                             112    0.55 7  303 234 
 GUY2CHZ I         213 20.96         8.2 0.44                           303 234 
 ELA  HZ EP   2    212 41.19                             110    0.58 3  331 229 
 ELA  HN ES        213 17.56                             110    0.32 7  331 229 
 ELA  HZ I         213 25.18         6.9 0.46            111            331 229 
 CBOC HZ EP        212 41.27                             109    0.68 7  335 252 
 CBOC HN IS        213 16.91                             109   -0.30 7  335 252 
 DBB  SZ EP   2    212 41.25                             109    0.20 3  340 274 
 DBB  SZ ES        213 17.55                             109   -0.48 7  340 274 
 DBB  SZ I         213 19.04        14.9 0.30            110            340 274 
 MON  HZ EP   4    212 40.58                             108   -1.83 0  353 308 
 MON  HE ES        213 19.85                             108   -0.61 6  353 308 
 MON  HZ I         213 21.26         2.8 0.68            110            353 308 
 SDV  BZ EP        212 42.64                             108   -0.70 6  358  50 
 SDV  BE ES   4    213 19.80                             108   -2.31 0  358  50 
 ANIL HZ EP        212 44.18                             108    0.59 6  359 224 
 ANIL HN ES        213 23.08                             108    0.54 6  359 224 
 ANIL HZ I         213 33.75        16.4 0.40            109            359 224 
 ORTC HZ EP        212 47.34                             106   -0.39 6  398 216 
 ORTC HN ES        213 30.18                             106    0.25 6  398 216 
 ORTC HZ I         213 37.73         4.9 0.32            107            398 216 
 PAL  HZ EP   2    212 48.36                             105   -0.55 3  407 239 
 SJC  HZ EP   4    212 47.03                             105   -1.88 0  408 327 
 SJC  HE ES   4    213 27.63                             105   -4.39 0  408 327 
 SJC  HZ I         213 32.85         3.1 0.19            107            408 327 
                                                                                
