 2010  224 0005 42.8 L   6.836 -73.079141.4  RSN  7 0.4 2.2LRSN                1
 GAP=247        0.79       5.9     8.6  7.2  0.1967E+02  0.1127E+02  0.2225E+02E
 Epicentro: LOS SANTOS - SANTANDER                                             3
 ACTION:UP  10-08-24 09:50 OP:vdl  STATUS:               ID:20100224000542 L   I
 2010-02-24-0000-00S.COL___129                                                 6
 STAT SP IPHASW D HRMM SECON CODA AMPLIT PERI AZIMU VELO SNR AR TRES W  DIS CAZ7
 BRR  HZ IP        0 6  4.06                             150     0.310   76 293 
 BRR  HZ I         0 6  4.27        68.0 0.15                            76 293 
 BRR  HN ES        0 6 19.89                             150    -0.210   76 293 
 RUS  BZ EP        0 6  6.54                             142     0.210  104 180 
 RUS  BN ES   1    0 6 24.49                             142    -0.3 7  104 180 
 RUS  BZ I         0 6 26.44        14.7 0.26                           104 180 
 CHI  HZ EP        0 6 20.73                             115    -0.1 8  254 197 
 CHI  HN ES   2    0 6 51.19                             115     0.6 4  254 197 
 CHI  HZ I         0 6 56.27         5.7 0.29                           254 197 
 ROSC BZ EP   2    0 6 22.20                             115     0.7 4  260 212 
 ROSC BZ I         0 6 56.89        10.5 0.27                           260 212 
 RREF BZ EP        0 6 29.16                             109    -0.5 7  330 230 
 RREF BN ES   2    0 7  6.52                             109     0.3 3  330 230 
 RREF BZ I         0 7 15.02         6.6 0.31                           330 230 
 TOL  SZ EP   1    0 6 32.37                             108     0.6 5  352 225 
 TOL  SZ ES   2    0 7 10.32                             108     0.3 3  352 225 
 PRA  HZ EP        0 6 36.32                             105    -0.7 6  399 210 
 PRA  HN ES   2    0 7 19.29                             105     0.0 3  399 210 
 PRA  HZ I         0 7 22.79         6.0 0.22                           399 210 
                                                                                
