 2013  824 0033  8.8 L   6.764 -73.167140.2  RSN  5 0.4 1.6LRSN                1
 GAP=232        0.96       7.0     7.0  7.1  0.2358E+02  0.1002E+02  0.8758E+01E
 Epicentro: LOS SANTOS - SANTANDER                                             3
 ACTION:UPD 14-01-14 09:06 OP:ep   STATUS:               ID:20130824003308 L   I
 OLDACT:REG 13-08-24 07:22 OP:nd   STATUS:               ID:20130824002959     3
 2013-08-24-0029-59M.COL___270                                                 6
 STAT SP IPHASW D HRMM SECON CODA AMPLIT PERI AZIMU VELO AIN AR TRES W  DIS CAZ7
 BAR2 SZ EP        033 27.58                             172   -0.0710 19.1 185 
 BAR2 SZ ES        033 41.72                             172   -0.6610 19.1 185 
 BAR2 SZ I         033 44.01         7.3 0.50            169           19.1 185 
 BRR  HZ EP     D  033 29.27                             151   -0.0510 71.2 302 
 BRR  HN ES        033 45.98                             151    0.6310 71.2 302 
 BRR  HZ I         033 53.10        11.6 0.84            151           71.2 302 
 RUS  HZ EP        033 31.67                             144   -0.0310 96.8 175 
 RUS  HN ES        033 50.03                             144    0.4410 96.8 175 
 RUS  HZ I         033 52.41         2.7 0.24            146           96.8 175 
 PTB  HZ EP        033 34.87                             131   -0.14 9  145 260 
 PTB  HN ES        033 55.18                             131   -0.30 9  145 260 
 PTB  HZ I         033 57.21         5.0 0.42            132            145 260 
 SPBC HZ EP        033 36.57                             129    0.16 9  159 219 
 SPBC HN ES   4    034  2.63                             129    4.66 0  159 219 
 SPBC HZ I         034  3.58        11.7 0.10            130            159 219 
                                                                                
