 2016  124 0753 37.8 L   6.827 -73.150139.7  RSN 11 0.4 1.7LRSN                1
 GAP= 82        1.08       3.0     3.2  6.4 -0.1246E+01  0.5210E+01  0.1162E+01E
 Epicentro: LOS SANTOS - SANTANDER                                             3
 ACTION:UPD 16-03-09 23:28 OP:cam  STATUS:               ID:20160124075337 L   I
 OLDACT:UP  16-01-24 15:27 OP:ar   STATUS:               ID:20160124074739     3
 OLDACT:REG 16-01-24 13:10 OP:ar   STATUS:               ID:20160124074739     3
 2016-01-24-0747-39M.COL___307                                                 6
 STAT SP IPHASW D HRMM SECON CODA AMPLIT PERI AZIMU VELO AIN AR TRES W  DIS CAZ7
 BAR2 EZ EP        753 56.93                             169    0.1310 26.2 188 
 BAR2 EZ ES        754 11.08                             169   -0.5210 26.2 188 
 BAR2 EZ I         754 12.61        18.2 0.20            168           26.2 188 
 PAM  EZ EP        753 59.84                             150    0.5510 75.4  41 
 PAM  EN ES        754 16.70                             150    0.6710 75.4  41 
 PAM  EZ I         754 18.71        18.0 0.44            152           75.4  41 
 PTB  HZ EP        754  3.90                             131   -0.43 9  148 258 
 PTB  HN ES        754 24.37                             131   -0.62 9  148 258 
 PTB  HZ I         754 28.31         5.6 0.20            132            148 258 
 TAM  HZ EP        754  5.36                             129    0.20 9  156 106 
 TAM  HE ES        754 26.23                             129   -0.25 9  156 106 
 TAM  HZ I         754 38.57         4.5 0.54            130            156 106 
 OCA  HZ EP        754  5.15                             129   -0.25 9  157 353 
 OCA  HN ES        754 26.92                             129    0.03 9  157 353 
 OCA  HZ I         754 30.96        11.5 0.18            131            157 353 
 SPBC HZ EP        754  6.10                             127    0.03 9  165 218 
 SPBC HN ES        754 27.78                             127   -0.32 9  165 218 
 SPBC HZ I         754 33.01         7.0 0.12            128            165 218 
 ZAR  HZ EP   4    754 13.23                             121    3.50 0  202 291 
 ZAR  HN ES        754 35.25                             121    0.64 9  202 291 
 ZAR  HZ I         754 43.07         7.4 0.44            123            202 291 
 SML  HZ EP        754 13.20                             116   -0.61 8  241 335 
 SML  HN ES        754 41.57                             116   -0.30 8  241 335 
 SML  HZ I         754 45.92         6.5 0.24            118            241 335 
 CHI  HZ EP        754 15.20                             115   -0.31 8  251 195 
 CHI  HN ES        754 45.31                             115    0.42 8  251 195 
 CHI  HZ I         754 51.91         1.3 0.38            116            251 195 
 HEL  HZ EP        754 17.59                             113   -0.19 8  272 255 
 HEL  HN ES        754 49.31                             113    0.38 8  272 255 
 HEL  HZ I         754 56.18         2.4 0.36            115            272 255 
 GUY2CHZ EP   4    754 23.80                             111    2.48 0  303 234 
 GUY2CHN ES        754 56.22                             111    0.98 7  303 234 
 GUY2CHZ I         755  2.20         1.6 0.48                           303 234 
                                                                                
