 2010  524 0728 43.3 L   6.803 -72.950145.1  RSN  9 0.6 2.2LRSN                1
 GAP=192        1.15       6.6    12.4 10.6 -0.5874E+02  0.3586E+02  0.6920E+00E
 Epicentro: CEPITA - SANTANDER                                                 3
 ACTION:UP  10-08-24 10:06 OP:vdl  STATUS:               ID:20100524072843 L   I
 2010-05-24-0724-29S.COL___111                                                 6
 STAT SP IPHASW D HRMM SECON CODA AMPLIT PERI AZIMU VELO SNR AR TRES W  DIS CAZ7
 BAR2 SZ EP        729  2.88                             166    -0.310   35 228 
 BAR2 SZ ES   1    729 18.12                             166    -0.5 7   35 228 
 GUE  SZ EP        729  7.74                             140     0.010  114   1 
 GUE  SZ ES   2    729 26.39                             140    -0.4 5  114   1 
 GRA  SZ EP        729  8.59                             138     0.510  121   8 
 GRA  SZ ES   1    729 27.87                             138     0.5 7  121   8 
 OCA  SZ IP   1    729 11.35                             128    -0.6 7  164 346 
 OCA  SZ ES   1    729 34.51                             128     0.3 7  164 346 
 OCA  SZ I         729 38.11        26.8 0.33                           164 346 
 CHI  HZ I         729 23.19         7.6 1.13                           255 200 
 CHI  HN ES   2    729 52.01                             116     0.3 4  255 200 
 ROSC BN ES   2    729 54.37                             115     0.9 4  265 215 
 ROSC BZ I         730  0.90         6.9 0.53                           265 215 
 HEL  HZ EP   1    729 24.93                             113    -0.9 5  293 257 
 HEL  HN ES   2    729 58.48                             113    -0.6 4  293 257 
 HEL  HZ I         730  2.27         9.8 0.62                           293 257 
 RREF BZ EP        729 30.96                             109    -0.4 7  339 232 
 RREF BN ES        730 10.03                             109     1.2 7  339 232 
 RREF BZ I         730 14.73         7.9 0.25                           339 232 
 PRA  HZ I         729 38.36         4.7 0.62                           403 212 
 PRA  HN ES   1    730 20.78                             106    -0.1 4  403 212 
                                                                                
