 2015  424 0527 33.4 L   6.798 -73.119143.6  RSN 14 0.4 1.8LRSN                1
 GAP=140        0.98       3.2     3.7  5.8 -0.3028E+01  0.6625E+01  0.9263E+00E
 Epicentro: LOS SANTOS - SANTANDER                                             3
 ACTION:UPD 15-06-03 16:57 OP:cam  STATUS:               ID:20150424052733 L   I
 OLDACT:UP  15-04-24 13:33 OP:mh   STATUS:               ID:20150424051738     3
 OLDACT:UP  15-04-24 13:31 OP:mh   STATUS:               ID:20150424051738     3
 OLDACT:REG 15-04-24 12:30 OP:mh   STATUS:               ID:20150424051738     3
 2015-04-24-0517-38M.COL___260                                                 6
 STAT SP IPHASW D HRMM SECON CODA AMPLIT PERI AZIMU VELO AIN AR TRES W  DIS CAZ7
 BAR2 EZ EP        527 52.69                             170   -0.0910 23.8 197 
 BAR2 EZ I         528  9.07        14.0 0.75            169           23.8 197 
 BRR  HZ EP        527 54.84                             151    0.3710 73.9 298 
 BRR  HN ES        528 11.47                             151    0.5610 73.9 298 
 BRR  HZ I         528 15.96        15.4 0.37            151           73.9 298 
 PAM  SZ EP        527 55.70                             151    0.4210 75.7  38 
 PAM  SN ES        528 12.58                             151    0.2310 75.7  38 
 PAM  SZ I         528 14.93        12.7 0.54            154           75.7  38 
 RUS  HZ EP        527 56.90                             143   -0.0210  100 178 
 RUS  HN ES        528 14.81                             143   -0.4510  100 178 
 RUS  HZ I         528 15.99         6.2 0.24            145            100 178 
 PTB  HZ EP        528  0.61                             131    0.16 9  151 259 
 PTB  HE ES        528 21.57                             131    0.01 9  151 259 
 PTB  HZ I         528 23.98         6.9 0.48            132            151 259 
 OCA  HZ EP        528  1.28                             129   -0.32 9  161 352 
 OCA  HN ES        528 22.80                             129   -0.79 9  161 352 
 OCA  HZ I         528 26.19        19.8 0.52            131            161 352 
 SPBC HZ EP   1    528  1.42                             128   -0.48 7  165 220 
 SPBC HN ES   1    528 23.63                             128   -0.50 7  165 220 
 SPBC HZ I         528 27.32        10.2 0.50            129            165 220 
 ZAR  HZ EP        528  6.20                             121    0.21 8  207 292 
 ZAR  HN ES        528 30.93                             121   -0.49 8  207 292 
 ZAR  HZ I         528 37.44         7.8 0.28            123            207 292 
 NOR  HZ EP        528  9.65                             118    0.40 8  237 235 
 NOR  HN ES        528 37.11                             118   -0.11 8  237 235 
 NOR  HZ I         528 42.01         5.2 0.28            119            237 235 
 SML  HZ EP   1    528  9.61                             117   -0.45 6  245 335 
 SML  HN ES   4    528 36.22                             117   -2.43 0  245 335 
 HEL  HZ EP        528 14.69                             114    0.87 8  275 256 
 HEL  HN ES        528 45.87                             114    0.53 8  275 256 
 HEL  HZ I         528 52.23         3.2 0.34            115            275 256 
 GUY2CHZ EP   1    528 17.39                             112    0.22 5  303 235 
 GUY2CHN ES   1    528 51.28                             112   -0.03 5  303 235 
 GUY2CHZ I         528 58.12         2.8 0.28                           303 235 
 CBOC HZ EP        528 19.85                             109   -0.69 7  336 252 
 CBOC HN ES   1    528 56.66                             109   -0.65 5  336 252 
 CBOC HZ I         529  9.41         1.1 0.40            110            336 252 
 MON  HZ EP   4    528 20.68                             108   -1.92 0  356 308 
 MON  HN ES   4    528 58.45                             108   -2.52 0  356 308 
 MON  HZ I         528 59.83         2.1 0.22            109            356 308 
 SJC  HZ EP   4    528 26.89                             105   -2.21 0  411 327 
 SJC  HN ES   4    529  9.23                             105   -3.31 0  411 327 
                                                                                
