 2010  924 0130  0.9 L   6.789 -73.135149.7  RSN 13 0.5 3.3LRSN                1
 GAP=160        1.26       4.4     8.6  8.2 -0.1452E+02  0.1524E+02  0.8234E+01E
 Epicentro: LOS SANTOS - SANTANDER                                             3
 ACTION:UP  11-02-18 11:05 OP:tino STATUS:               ID:20100924013000 L   I
 2010-09-24-0128-18S.COL___119                                                 6
 STAT SP IPHASW D HRMM SECON CODA AMPLIT PERI AZIMU VELO SNR AR TRES W  DIS CAZ7
 BAR2 SZ IP        130 20.53                             171    -0.410   22 194 
 BAR2 SZ ES   1    130 36.62                             171     0.0 7   22 194 
 BAR2 SZ I         130 38.59       422.6 0.18                            22 194 
 BRR  HZ IP     C  130 22.47                             153    -0.110   73 299 
 BRR  HZ I         130 22.80       747.4 0.15                            73 299 
 BRR  HN ES   1    130 39.95                             153     0.5 7   73 299 
 RUS  HZ EP        130 24.37                             145    -0.610   99 177 
 RUS  HN ES   1    130 43.55                             145    -0.1 7   99 177 
 RUS  HZ I         130 44.21       206.4 0.32                            99 177 
 GUE  SZ EP   1    130 25.59                             140    -0.4 7  118  11 
 GRA  SZ EP        130 27.40                             137     0.910  127  17 
 GRA  SZ ES        130 47.00                             137     0.410  127  17 
 GRA  SZ I         130 49.99       365.2 0.27                           127  17 
 OCA  SZ EP   1    130 29.00                             130    -0.6 7  162 353 
 OCA  SZ ES        130 51.61                             130    -0.4 9  162 353 
 OCA  SZ I         130 55.95       523.9 0.35                           162 353 
 NOR  SZ EP   1    130 36.25                             119    -0.6 6  235 235 
 NOR  SE ES   1    131  4.63                             119    -0.3 6  235 235 
 NOR  SZ I         131  8.86        33.7 0.30                           235 235 
 CHI  HZ EP        130 38.45                             118    -0.2 8  248 196 
 CHI  HN ES   2    131  8.24                             118     0.0 4  248 196 
 CHI  HZ I         131 16.26       134.3 0.49                           248 196 
 ROSC BZ EP        130 40.02                             117     0.9 8  252 211 
 ROSC BN ES   2    131  9.30                             117     0.3 4  252 211 
 ROSC BZ I         131 18.48       165.0 0.21                           252 211 
 CVER SZ EP        130 41.78                             116     0.4 8  271 203 
 CVER SZ I         130 43.28       238.5 0.17                           271 203 
 RREF HZ EP        130 47.53                             111     0.3 7  322 230 
 RREF HE ES   2    131 23.47                             111     0.1 3  322 230 
 RREF HZ I         131 32.81       181.0 0.17                           322 230 
 DBB  SZ EP   1    130 47.87                             110    -0.8 5  341 274 
 DBB  SZ I         131 27.65        27.9 0.26                           341 274 
 TOL  SZ EP        130 49.88                             110     0.6 7  343 225 
                                                                                
