 2017 1224 0840 31.3 L   6.737 -73.176131.4  RSN  4 0.2 1.0LRSN                1
 GAP=144        0.58       4.9     3.0  5.1 -0.5479E+01  0.7251E+01 -0.6945E+01E
 Epicentro: VILLANUEVA - SANTANDER                                             3
 ACTION:UPD 18-01-04 13:23 OP:rebc STATUS:               ID:20171224084031 L   I
 OLDACT:REG 17-12-24 13:11 OP:dani STATUS:               ID:20171224082350     3
 2017-12-24-0838-00M.COL___460                                                 6
 STAT SP IPHASW D HRMM SECON CODA AMPLIT PERI AZIMU VELO AIN AR TRES W  DIS CAZ7
 BAR2 EZ EP        840 49.25                             173    0.2210 16.0 183 
 BAR2 EZ ES        841  2.82                             173   -0.0710 16.0 183 
 BAR2 EZ I         841  5.49         3.2 0.40            175           16.0 183 
 PAM  EZ EP        840 52.25                             145   -0.2310 84.9  38 
 PAM  EN ES        841  9.11                             145    0.0910 84.9  38 
 PAM  EZ I         841 10.83         1.3 0.14            147           84.9  38 
 PTB  HZ EP        840 56.38                             129   -0.30 9  143 261 
 PTB  HN ES        841 16.58                             129    0.09 9  143 261 
 PTB  HZ I         841 18.52         0.8 0.18            131            143 261 
 ZAR  HZ EP        841  3.18                             119    0.39 9  204 294 
 ZAR  HE ES        841 27.22                             119   -0.15 9  204 294 
 ZAR  HZ I         841 34.31         1.5 0.46            120            204 294 
                                                                                
