 2010  624 0219 23.7 L   6.814 -73.118153.0  RSN  4 0.1 1.7LRSN                1
 GAP=277        0.33      11.5     9.8  6.5 -0.8507E+02 -0.2950E+02  0.2183E+02E
 Epicentro: LOS SANTOS - SANTANDER                                             3
 ACTION:UP  10-08-24 10:12 OP:vdl  STATUS:               ID:20100624021923 L   I
 2010-06-24-0216-36S.COL___118                                                 6
 STAT SP IPHASW D HRMM SECON CODA AMPLIT PERI AZIMU VELO SNR AR TRES W  DIS CAZ7
 BRR  HZ EP   2    219 45.53                             153    -0.2 5   73 296 
 BRR  HZ I         220  2.97         9.6 0.35                            73 296 
 BRR  HE ES   2    220  3.03                             153     0.1 5   73 296 
 BRI  SZ EP   3    219 48.19                             144     0.1 3  106  20 
 GRA  SZ EP   1    219 49.47                             139     0.1 8  123  16 
 GRA  SZ ES   2    220  9.32                             139    -0.1 5  123  16 
 OCA  SZ EP        219 52.46                             131     0.010  159 352 
                                                                                
