 2015  524 0924  9.5 L   6.845 -73.094148.8  RSN  9 0.4 1.8LRSN                1
 GAP=188        0.97       3.4     5.7  7.0  0.4143E+00  0.2228E+01 -0.4027E+01E
 Epicentro: LOS SANTOS - SANTANDER                                             3
 ACTION:UPD 15-09-10 22:06 OP:cam  STATUS:               ID:20150524092409 L   I
 OLDACT:REG 15-05-24 12:42 OP:spq  STATUS:               ID:20150524091748     3
 2015-05-24-0917-48M.COL___288                                                 6
 STAT SP IPHASW D HRMM SECON CODA AMPLIT PERI AZIMU VELO AIN AR TRES W  DIS CAZ7
 BAR2 EZ EP        924 29.74                             168    0.0710 29.6 199 
 BAR2 EZ ES   1    924 45.40                             168    0.03 7 29.6 199 
 BAR2 EZ I         924 46.69        12.4 0.18            168           29.6 199 
 BRR  HZ EP        924 31.39                             152    0.2210 74.1 293 
 BRR  HE ES        924 48.57                             152    0.5210 74.1 293 
 BRR  HZ I         924 52.14         8.7 0.12            150           74.1 293 
 RUS  HZ EP   1    924 34.27                             143    0.34 7  105 179 
 RUS  HN ES   1    924 52.66                             143   -0.29 7  105 179 
 RUS  HZ I         924 54.00         4.6 0.26            146            105 179 
 OCA  HZ EP        924 37.63                             131   -0.06 9  156 351 
 OCA  HN ES        924 59.56                             131   -0.10 9  156 351 
 OCA  HZ I         925  4.67        16.5 0.38            133            156 351 
 SPBC HZ EP        924 39.19                             129    0.22 9  171 219 
 SPBC HN ES        925  1.25                             129   -0.69 9  171 219 
 SPBC HZ I         925  5.64         6.3 0.36            130            171 219 
 ZAR  HZ EP   1    924 43.07                             123    0.54 6  208 290 
 ZAR  HN ES        925  7.49                             123   -0.78 8  208 290 
 ZAR  HZ I         925 13.87         5.8 0.30            123            208 290 
 SML  HZ EP        924 45.60                             118   -0.51 8  242 334 
 SML  HN ES   1    925 14.72                             118    0.09 6  242 334 
 SML  HZ I         925 18.22         8.5 0.10            120            242 334 
 HEL  HN ES   1    925 23.68                             115    0.96 6  279 255 
 HEL  HZ I         925 28.19         2.8 0.30            116            279 255 
 MON  HN ES   4    925 35.37                             109   -1.89 0  355 307 
 MON  HZ I         925 35.93         2.0 0.20            110            355 307 
                                                                                
