 2010  424 0512 18.7 L   7.362 -73.386114.0  RSN  5 0.4 1.3LRSN                1
 GAP=172        0.75       9.1     9.3  9.4 -0.6604E+02  0.1010E+02 -0.1576E+02E
 Epicentro: SABANA DE TORRES - SANTANDER                                       3
 ACTION:UPD 10-08-24 10:00 OP:vdl  STATUS:               ID:20100424051218 L   I
 2010-04-24-0507-38S.COL___104                                                 6
 STAT SP IPHASW D HRMM SECON CODA AMPLIT PERI AZIMU VELO AIN AR TRES W  DIS CAZ7
 BRR  HZ IP     C  512 35.14                             157     0.110   46 232 
 BRR  HZ I         512 35.48         6.2 0.25                            46 232 
 BRR  HN ES   1    512 47.76                             157     0.0 7   46 232 
 GUE  SZ EP   1    512 36.47                             145    -0.6 7   73  44 
 GUE  SZ ES   2    512 50.55                             145    -0.9 5   73  44 
 BRI  SZ EP   2    512 37.29                             144     0.2 5   76  59 
 BRI  SZ ES   2    512 52.07                             144     0.6 5   76  59 
 GRA  SZ EP   1    512 38.15                             140     0.3 7   86  48 
 GRA  SZ ES   1    512 53.08                             140     0.3 7   86  48 
 BAR2 SZ ES   2    512 53.03                             140    -0.2 5   88 165 
                                                                                
