 2014  424 0051 42.3 L   6.803 -73.131147.5  RSN 17 0.4 2.1LRSN                1
 GAP= 72        0.79       1.9     2.5  4.2 -0.2687E+00  0.3458E+01  0.1390E+01E
 Epicentro: LOS SANTOS - SANTANDER                                             3
 ACTION:UPD 14-05-13 23:11 OP:nd   STATUS:               ID:20140424005142 L   I
 OLDACT:REG 14-04-24 12:52 OP:spq  STATUS:               ID:20140424004810     3
 2014-04-24-0048-10M.COL___245                                                 6
 STAT SP IPHASW D HRMM SECON CODA AMPLIT PERI AZIMU VELO AIN AR TRES W  DIS CAZ7
 BRR  HZ EP        052  4.18                             152    0.5010 72.5 298 
 BRR  HE ES        052 20.47                             152    0.0910 72.5 298 
 BRR  HZ I         052 24.38        11.4 0.09            152           72.5 298 
 PAM  SZ EP        052  4.56                             151   -0.0310 76.1  39 
 PAM  SE ES        052 21.77                             151   -0.2410 76.1  39 
 PAM  SZ I         052 24.50        18.1 0.19            157           76.1  39 
 RUS  HZ EP        052  6.00                             144   -0.2110  101 177 
 RUS  HE ES        052 25.06                             144    0.1710  101 177 
 PTB  HZ EP        052  8.96                             132   -0.57 9  149 259 
 PTB  HN ES        052 30.18                             132   -0.61 9  149 259 
 PTB  HZ I         052 36.19        15.8 0.15            132            149 259 
 TAM  HZ I         052 31.20        11.9 0.38            136            154 105 
 TAM  HN ES        052 31.75                             131    0.21 9  154 105 
 OCA  HN ES        052 33.03                             130    0.16 9  160 353 
 SPBC HZ EP        052 11.21                             129    0.19 9  164 219 
 SPBC HN ES        052 33.54                             129    0.09 9  164 219 
 SPBC HZ I         052 38.33        20.4 0.23            130            164 219 
 ZAR  HZ EP        052 15.25                             122    0.28 8  205 292 
 ZAR  HN ES        052 40.63                             122    0.16 8  205 292 
 ZAR  HZ I         052 46.72        11.5 0.13            124            205 292 
 NOR  HZ EP        052 18.21                             119   -0.05 8  236 235 
 NOR  HE ES        052 45.87                             119   -0.47 8  236 235 
 NOR  HZ I         052 50.10         9.8 0.26            120            236 235 
 SML  HZ EP        052 18.48                             118   -0.55 8  244 335 
 SML  HN ES        052 48.10                             118    0.40 8  244 335 
 SML  HZ I         052 50.73        22.2 0.10            120            244 335 
 CHI  HZ EP   1    052 19.82                             117   -0.33 6  249 196 
 CHI  HN ES        052 49.22                             117   -0.47 8  249 196 
 CHI  HZ I         052 58.12         3.9 0.38            119            249 196 
 GUY2CHZ EP        052 25.97                             112   -0.16 7  303 235 
 GUY2CHE ES   1    053  1.00                             112    0.66 5  303 235 
 RREF HZ EP   1    052 28.42                             111   -0.23 5  323 230 
 RREF HN ES   1    053  5.09                             111    0.26 5  323 230 
 RREF HZ I         053 14.90         7.5 0.46            112            323 230 
 CBOC HZ EP        052 29.31                             110   -0.13 7  335 252 
 PRA  HZ EP        052 36.32                             107    0.34 6  393 210 
 PRA  HN ES        053 18.52                             107    0.65 6  393 210 
 PRA  HZ I         053 24.08         6.0 0.36            108            393 210 
 ORTC HZ EP        052 36.41                             106    0.02 6  397 216 
 ORTC HN ES        053 19.52                             106    0.91 6  397 216 
 ORTC HZ I         053 27.09         4.5 0.27            108            397 216 
 SJC  HZ EP   4    052 36.49                             106   -1.46 0  410 327 
 SJC  HN ES        053 21.43                             106    0.04 6  410 327 
 SJC  HZ I         053 23.19         1.7 0.36            108            410 327 
                                                                                
