 2010 1024 0739 28.3 L   6.802 -73.074138.4  RSN  5 0.4 1.6LRSN                1
 GAP=167        0.85       4.9    10.5 10.2 -0.4138E+00 -0.3499E+02 -0.7823E+01E
 Epicentro: LOS SANTOS - SANTANDER                                             3
 ACTION:UP  11-02-18 11:11 OP:tino STATUS:               ID:20101024073928 L   I
 2010-10-24-0737-08S.COL___125                                                 6
 STAT SP IPHASW D HRMM SECON CODA AMPLIT PERI AZIMU VELO SNR AR TRES W  DIS CAZ7
 BRR  HZ EP   1    739 48.76                             149    -0.3 8   78 296 
 BRR  HN ES   1    740  5.37                             149     0.0 8   78 296 
 BRR  HZ I         740  9.86         7.9 0.17                            78 296 
 RUS  HZ EP   1    739 51.20                             142    -0.2 8  101 181 
 RUS  HZ I         739 51.86         2.8 0.22                           101 181 
 RUS  HN ES   1    740  9.57                             142     0.3 8  101 181 
 GRA  SZ EP        739 52.75                             136     0.010  123  14 
 GRA  SZ ES   2    740 11.05                             136    -0.7 5  123  14 
 GRA  SZ I         740 17.91         3.6 0.32                           123  14 
 OCA  SZ EP   1    739 56.85                             128     0.7 7  161 350 
 OCA  SZ I         740 20.37         6.3 0.05                           161 350 
 PRA  HZ EP   1    740 21.63                             105    -0.5 4  396 211 
 PRA  HZ I         740 23.98         3.9 0.03                           396 211 
                                                                                
