 2015 1224 0654 58.5 L   6.762 -73.163142.9  RSN  8 0.5 1.6LRSN                1
 GAP=181        1.21       4.0     6.2  8.5  0.1226E+01  0.6864E+01 -0.1072E+02E
 Epicentro: LOS SANTOS - SANTANDER                                             3
 ACTION:UPD 16-02-04 15:07 OP:cam  STATUS:               ID:20151224065458 L   I
 OLDACT:REG 15-12-24 12:53 OP:dnl  STATUS:               ID:20151224064749     3
 2015-12-24-0647-49M.COL___334                                                 6
 STAT SP IPHASW D HRMM SECON CODA AMPLIT PERI AZIMU VELO AIN AR TRES W  DIS CAZ7
 BAR2 EZ EP        655 17.82                             172    0.1610 18.9 186 
 BAR2 EZ ES        655 32.95                             172    0.3110 18.9 186 
 BAR2 EZ I         655 34.18        10.9 0.20            174           18.9 186 
 BRR  HZ EP        655 19.87                             152    0.5510 71.6 302 
 BRR  HN ES   2    655 36.59                             152    0.99 5 71.6 302 
 BRR  HZ I         655 37.85         8.2 0.18            152           71.6 302 
 RUS  HZ EP        655 21.72                             144    0.0810 96.6 175 
 RUS  HE ES        655 39.65                             144   -0.0810 96.6 175 
 RUS  HZ I         655 41.08         2.7 0.38            148           96.6 175 
 PTB  HZ EP        655 24.92                             132   -0.03 9  145 260 
 PTB  HN ES        655 44.75                             132   -0.86 9  145 260 
 PTB  HZ I         655 46.72         4.9 0.14            134            145 260 
 SPBC HZ EP        655 26.62                             129    0.30 9  159 219 
 SPBC HN ES        655 47.40                             129   -0.64 9  159 219 
 SPBC HZ I         655 50.94         4.8 0.19            132            159 219 
 OCA  HZ EP        655 26.84                             128   -0.08 9  164 354 
 OCA  HN ES        655 48.60                             128   -0.52 9  164 354 
 OCA  HZ I         655 53.65         9.2 0.29            130            164 354 
 ZAR  HZ EP   2    655 31.74                             122    1.04 4  204 293 
 ZAR  HE ES        655 56.82                             122    0.98 9  204 293 
 ZAR  HZ I         655 58.73         5.7 0.09            123            204 293 
 SML  HZ EP        655 34.96                             116   -0.29 8  247 336 
 SML  HE ES        656  3.30                             116   -0.65 8  247 336 
 SML  HZ I         656  6.49         4.1 0.15            118            247 336 
                                                                                
