 2015 1124 0046  2.9 L   7.466 -73.182134.6  RSN 20 0.5 2.5LRSN                1
 GAP= 73        1.12       2.4     3.1  5.1 -0.9805E+00  0.3314E+01 -0.8450E+00E
 Epicentro: EL PLAYON - SANTANDER                                              3
 ACTION:UPD 15-12-28 16:13 OP:cam  STATUS:               ID:20151124004602 L   I
 OLDACT:UP  15-11-24 13:38 OP:ak   STATUS:               ID:20151124003750     3
 OLDACT:REG 15-11-24 12:08 OP:ak   STATUS:               ID:20151124003750     3
 2015-11-24-0037-50M.COL___212                                                 6
 STAT SP IPHASW D HRMM SECON CODA AMPLIT PERI AZIMU VELO AIN AR TRES W  DIS CAZ7
 PAM  EZ IP     D  046 23.49                             157    0.8410 55.0 105 
 PAM  EN ES        046 38.43                             157    0.3510 55.0 105 
 PAM  EZ I         046 41.24       120.2 0.31            158           55.0 105 
 BRR  HZ IP     C  046 23.09                             151    0.3010 70.8 236 
 BRR  HE ES        046 38.19                             151   -0.1410 70.8 236 
 BRR  HZ I         046 41.40        72.3 0.30            147           70.8 236 
 OCA  HZ EP        046 24.57                             145    0.5210 86.7 350 
 OCA  HN ES        046 40.99                             145    0.4210 86.7 350 
 OCA  HZ I         046 43.62       149.9 0.20            148           86.7 350 
 BAR2 EZ EP        046 25.03                             142    0.1510 96.7 180 
 BAR2 EZ ES        046 41.46                             142   -0.6010 96.7 180 
 BAR2 EZ I         046 42.60        92.2 0.18            140           96.7 180 
 PTB  HZ EP        046 31.09                             124   -0.43 9  174 234 
 PTB  HN ES        046 53.38                             124   -0.50 9  174 234 
 PTB  HZ I         046 55.68        42.3 0.38            123            174 234 
 RUS  HZ EP        046 31.99                             125   -0.18 9  174 176 
 RUS  HE ES        046 54.29                             125   -0.74 9  174 176 
 RUS  HZ I         047  1.60        10.4 0.28            123            174 176 
 SML  HZ EP        046 31.93                             124    0.13 9  177 326 
 SML  HN ES        046 53.67                             124   -0.70 9  177 326 
 SML  HZ I         046 56.56        87.9 0.10            125            177 326 
 ZAR  HZ EP        046 33.12                             123    0.50 9  185 271 
 ZAR  HN ES        046 56.52                             123    0.69 9  185 271 
 ZAR  HZ I         046 57.59        77.6 0.18            122            185 271 
 SPBC HZ EP        046 37.67                             117    0.88 8  224 206 
 SPBC HN ES        047  3.24                             117   -0.02 8  224 206 
 SPBC HZ I         047 18.09        33.1 0.16            116            224 206 
 LL6C HZ EP        046 40.18                             114    0.47 8  251 358 
 LL6C HN ES        047  7.69                             114   -0.77 8  251 358 
 URE  HZ EP        046 40.39                             113   -0.48 8  261 277 
 URE  HN ES   4    047  8.45                             113   -2.07 0  261 277 
 URE  HZ I         047 11.82        26.6 0.10            113            261 277 
 SOCV BZ EP        046 42.09                             112    0.02 8  272  70 
 SOCV BN ES        047 11.89                             112   -0.77 8  272  70 
 NOR  HZ EP        046 43.00                             111   -0.17 7  281 222 
 NOR  HN ES        047 14.57                             111   -0.04 7  281 222 
 NOR  HZ I         047 20.84        17.1 0.18            111            281 222 
 HEL  HZ EP   4    046 47.31                             110    2.14 0  295 242 
 HEL  HE ES   4    047 15.79                             110   -2.37 0  295 242 
 HEL  HZ I         047 26.51        20.4 0.36            110            295 242 
 MON  HZ EP   1    046 45.41                             109   -0.94 5  310 298 
 MON  HN ES        047 19.78                             109   -0.50 7  310 298 
 MON  HZ I         047 20.24         4.3 0.17            110            310 298 
 SJC  HZ EP        046 50.60                             107   -0.18 6  347 321 
 SJC  HN ES   4    047 26.57                             107   -1.59 0  347 321 
 SJC  HZ I         047 29.28         6.4 0.42            107            347 321 
 CBOC HZ EP        046 52.73                             106    0.36 6  360 241 
 CBOC HE ES        047 30.77                             106   -0.22 6  360 241 
 CBOC HZ I         047 43.46         6.3 0.38            106            360 241 
 ELA  HZ EP   4    046 57.93                             105    2.89 0  379 221 
 ELA  HN ES   2    047 36.06                             105    0.32 3  379 221 
 ELA  HZ I         047 46.19        13.6 0.32            105            379 221 
 ANIL HN ES   4    047 45.31                             104    3.33 0  411 217 
 ORTC HZ EP        047  3.22                             102   -0.27 5  455 210 
 ORTC HN ES   4    047 54.49                             102    3.71 0  455 210 
 ORTC HZ I         048  4.30         6.6 0.54            102            455 210 
 PRA  HZ EP   2    047  4.50                             102    0.90 2  456 205 
 PRA  HE ES        047 51.44                             102    0.46 5  456 205 
 PRA  HZ I         048  0.40         8.1 0.32            102            456 205 
                                                                                
