 2012  124 0324 54.8 L   6.988 -73.313131.4  RSN  4 0.3 1.4LRSN                1
 GAP=126        0.56       7.5     4.8  5.7  0.4565E+01  0.5967E+00  0.4748E+01E
 Epicentro: BETULIA - SANTANDER                                                3
 ACTION:UP  12-02-03 08:20 OP:REBC STATUS:               ID:20120124032454 L   I
 2012-01-24-0320-00M.COL___187                                                 6
 STAT SP IPHASW D HRMM SECON CODA AMPLIT PERI AZIMU VELO SNR AR TRES W  DIS CAZ7
 GIR2 SZ EP   2    325 12.11                             173    -0.3 5   17  52 
 GIR2 SZ ES   3    325 24.71                             173    -1.4 2   17  52 
 BRR  HE ES        325 27.54                             160     0.210   46 287 
 BAR2 SZ EP        325 13.48                             160     0.110   46 162 
 BAR2 SZ I         325 13.80         6.6 0.21                            46 162 
 BAR2 SZ ES   1    325 28.08                             160     0.1 7   46 162 
 BRR  HZ EP        325 13.05                             160     0.010   46 287 
 BRR  HZ I         325 28.73         5.7 0.17                            46 287 
 PTB  HZ EP   1    325 19.22                             132    -0.3 7  136 249 
 PTB  HN ES   1    325 38.70                             132    -0.1 7  136 249 
                                                                                
