 2012  224 0925  1.1 L   6.050 -73.720105.3  RSN  8 0.6 1.4LRSN                1
 GAP= 77        1.05       4.6     4.3 11.6 -0.8742E+00  0.1767E+02  0.9721E+01E
 ACTION:UP  12-03-07 16:33 OP:epov STATUS:               ID:20120224092501 L   I
 2012-02-24-0920-00M.COL___192                                                 6
 STAT SP IPHASW D HRMM SECON CODA AMPLIT PERI AZIMU VELO AIN AR TRES W  DIS CAZ7
 RUS  HZ EP   1    925 19.03                             143    0.16 7 72.6 104 
 RUS  HZ I         925 19.32         3.6 0.17                          72.6 104 
 RUS  HN ES   1    925 32.68                             143   -0.03 7 72.6 104 
 BAR2 SZ EP   1    925 19.26                             138   -0.17 7 84.5  45 
 BAR2 SZ ES   1    925 34.54                             138    0.83 7 84.5  45 
 BAR2 SZ I         925 35.81        11.8 0.17                          84.5  45 
 PTB  HZ EP   1    925 19.55                             133   -0.71 7 97.8 304 
 PTB  HN ES   1    925 34.52                             133   -0.67 7 97.8 304 
 BRR  HN ES   1    925 37.87                             128   -0.43 7  117   0 
 GIR2 SZ EP   1    925 23.55                             125    0.29 7  128  27 
 NOR  SZ EP   1    925 24.09                             123   -0.10 7  138 247 
 NOR  SN ES   1    925 43.01                             123    0.82 7  138 247 
 CHI  HZ EP   2    925 25.69                             119   -0.94 5  157 180 
 CHI  HN ES   1    925 46.10                             119   -0.44 7  157 180 
 CHI  HZ I         925 48.49         4.8 0.51                           157 180 
 HEL  HZ EP   1    925 32.30                             112    0.91 6  201 275 
 HEL  HZ I         925 33.70         2.0 0.42                           201 275 
 HEL  HN ES   1    925 55.20                             112    0.20 6  201 275 
                                                                                
