 2017  124 0122 47.7 L   6.139 -73.457  4.0  RSN  6 0.5 1.2LRSN                1
 GAP=102        1.23       2.5     2.9  6.7  0.1924E+01  0.1840E+01 -0.1674E+01E
 Epicentro: SUAITA - SANTANDER                                                 3
 ACTION:UPD 17-05-22 16:02 OP:jn   STATUS:               ID:20170124012247 L   I
 OLDACT:UP  17-01-24 13:57 OP:lv   STATUS:               ID:20170124011743     3
 OLDACT:REG 17-01-24 12:40 OP:lv   STATUS:               ID:20170124011743     3
 2017-01-24-0118-00M.COL___345                                                 6
 STAT SP IPHASW D HRMM SECON CODA AMPLIT PERI AZIMU VELO AIN AR TRES W  DIS CAZ7
 RUS  HZ IP     D  122 56.14                              47   -0.1710 49.6 123 
 RUS  HN ES        123  2.46                              47   -0.5710 49.6 123 
 BRR  HZ EP        123  5.41                              47    0.3410  111 345 
 BRR  HN ES        123 18.98                              47    0.3710  111 345 
 BRR  HZ I         123 21.60         7.3 0.38             47            111 345 
 PTB  HZ EP        123  6.06                              47   -0.3010  119 292 
 PTB  HN ES        123 19.95                              47   -0.9610  119 292 
 PTB  HZ I         123 22.81         5.2 0.16             47            119 292 
 PAM  EZ EP        123 13.03                              47    0.45 9  157  32 
 PAM  EN ES        123 31.74                              47   -0.25 9  157  32 
 PAM  EZ I         123 33.28         3.1 0.26             47            157  32 
 CHI  HZ EP        123 14.70                              47    0.27 9  170 190 
 CHI  HE ES        123 35.97                              47    0.69 9  170 190 
 CHI  HZ I         123 43.83         1.6 0.42             47            170 190 
 ZAR  HE ES        123 45.41                              37    0.42 8  215 314 
                                                                                
