 2010  924 0857 17.5 L   6.797 -73.057139.8  RSN 10 0.4 2.3LRSN                1
 GAP=169        0.94       4.2     9.5  7.5 -0.1316E+02  0.1760E+02  0.4152E+01E
 Epicentro: LOS SANTOS - SANTANDER                                             3
 ACTION:UP  11-02-18 11:05 OP:tino STATUS:               ID:20100924085717 L   I
 2010-09-24-0852-39S.COL___119                                                 6
 STAT SP IPHASW D HRMM SECON CODA AMPLIT PERI AZIMU VELO SNR AR TRES W  DIS CAZ7
 BAR2 SZ IP        857 36.57                             169     0.110   27 212 
 BAR2 SZ ES   1    857 50.74                             169    -0.5 7   27 212 
 BAR2 SZ I         857 54.41        47.2 0.31                            27 212 
 BRR  HZ EP   1    857 38.44                             148    -0.1 7   80 295 
 BRR  HE ES   2    857 55.54                             148     0.6 5   80 295 
 BRR  HZ I         857 59.61        63.2 0.08                            80 295 
 RUS  HZ EP        857 40.54                             142    -0.110  100 182 
 RUS  HE ES   2    857 59.14                             142     0.5 5  100 182 
 RUS  HZ I         858  1.71        17.0 0.63                           100 182 
 GRA  SZ IP        857 42.22                             136     0.210  123  13 
 GRA  SZ ES   1    858  1.48                             136     0.3 7  123  13 
 GRA  SZ I         858  3.12        44.3 0.60                           123  13 
 OCA  SZ EP   1    857 45.15                             128    -0.4 7  162 350 
 OCA  SZ ES   2    858  6.46                             128    -0.9 5  162 350 
 OCA  SZ I         858 11.00        21.4 0.27                           162 350 
 NOR  SZ EP   1    857 52.87                             116    -0.9 6  243 236 
 CHI  HZ EP        857 54.97                             115    -0.2 8  251 197 
 CHI  HN ES   2    858 24.21                             115    -0.3 4  251 197 
 CHI  HZ I         858 33.85         7.4 0.30                           251 197 
 ROSC BZ EP   1    857 56.31                             115     0.5 6  258 213 
 HEL  HZ EP   1    857 59.00                             113     0.5 6  282 256 
 HEL  HZ I         858 36.15        17.2 0.46                           282 256 
 RREF HZ EP   1    858  4.88                             109     0.7 5  329 231 
 RREF HZ I         858  6.63         6.0 0.09                           329 231 
                                                                                
