 2011  824 0311 25.3 L   7.359 -73.262117.0  RSN  4 0.1 1.2LRSN                1
 GAP=177        0.34       3.1     6.8  5.8  0.1166E+02 -0.2679E+02 -0.9420E+01E
 Epicentro: EL PLAYON - SANTANDER                                              3
 ACTION:UPD 12-07-13 15:53 OP:ep   STATUS:               ID:20110824031125 L   I
 2011-08-24-0309-40S.COL___159                                                 6
 STAT SP IPHASW D HRMM SECON CODA AMPLIT PERI AZIMU VELO AIN AR TRES W  DIS CAZ7
 BRR  HZ EP   1    311 42.55                             152   -0.01 7 56.9 241 
 BRR  HZ I         311 55.85         5.4 0.13                          56.9 241 
 BRR  HE ES   1    311 56.00                             152    0.00 7 56.9 241 
 BAR2 SZ EP   1    311 45.03                             142    0.24 7 85.2 174 
 BAR2 SZ ES   1    311 59.92                             142   -0.06 7 85.2 174 
 BAR2 SZ I         312  1.14         5.7 0.17                          85.2 174 
 OCA  SZ EP   1    311 45.61                             137   -0.04 7 97.5 356 
 RUS  HZ EP   1    311 52.17                             122   -0.16 7  163 173 
 RUS  HE ES   2    312 13.39                             122    0.00 5  163 173 
 RUS  HZ I         312 14.05         1.1 0.58                           163 173 
                                                                                
