 2017  824 0504 24.9 L   6.825 -73.036144.6  RSN  5 0.3 1.2LRSN                1
 GAP=250        0.60       3.7     5.7  5.9  0.2869E+01  0.5485E+01  0.6324E+00E
 Epicentro: CEPITA - SANTANDER                                                 3
 ACTION:UPD 17-09-04 20:23 OP:rebc STATUS:               ID:20170824050424 L   I
 OLDACT:UP  17-08-24 15:30 OP:and  STATUS:               ID:20170824045635d    3
 OLDACT:UP  17-08-24 15:29 OP:and  STATUS:               ID:20170824045635d    3
 OLDACT:DUP 17-08-24 15:28 OP:and  STATUS:               ID:20170824045635d    3
 OLDACT:UP  17-08-24 15:27 OP:and  STATUS:               ID:20170824045634     3
 OLDACT:UP  17-08-24 15:24 OP:and  STATUS:               ID:20170824045634     3
 OLDACT:REG 17-08-24 12:52 OP:and  STATUS:               ID:20170824045634     3
 2017-08-24-0457-00M.COL___419                                                 6
 STAT SP IPHASW D HRMM SECON CODA AMPLIT PERI AZIMU VELO AIN AR TRES W  DIS CAZ7
 BAR2 EZ EP        5 4 44.64                             167    0.0810 30.3 212 
 BAR2 EZ ES        5 4 59.40                             167   -0.4910 30.3 212 
 BAR2 EZ I         5 5  2.43         2.8 0.22            161           30.3 212 
 BRR  HZ EP        5 4 46.47                             149   -0.0410 80.9 293 
 BRR  HN ES        5 5  3.60                             149    0.2410 80.9 293 
 BRR  HZ I         5 5  5.66         3.3 0.36            147           80.9 293 
 RUS  HZ EP   3    5 4 49.12                             143    0.38 2  103 183 
 RUS  HN ES        5 5  7.56                             143    0.2410  103 183 
 RUS  HZ I         5 5 11.49         1.7 0.34            141            103 183 
 SPBC HZ EP   2    5 4 53.93                             127   -0.34 4  173 222 
 SPBC HN ES        5 5 17.23                             127    0.06 9  173 222 
 SPBC HZ I         5 5 21.82         2.7 0.09            126            173 222 
 NOR  HN ES   2    5 5 30.39                             117   -0.20 4  246 236 
 NOR  HZ I         5 5 35.60         0.9 0.18            117            246 236 
                                                                                
