 2017  424 0240 53.1 L   6.730 -73.141141.1  RSN  4 0.3 1.6LRSN                1
 GAP=226        0.68       8.4     3.7  6.5 -0.1537E+02  0.3281E+00  0.1960E+02E
 Epicentro: JORDAN - SANTANDER                                                 3
 ACTION:UPD 17-05-30 21:15 OP:jn   STATUS:               ID:20170424024053 L   I
 OLDACT:UP  17-05-11 15:28 OP:nlst STATUS:               ID:20170424024053 L   3
 OLDACT:REG 17-04-24 12:17 OP:dani STATUS:               ID:20170424023740     3
 2017-04-24-0238-00M.COL___365                                                 6
 STAT SP IPHASW D HRMM SECON CODA AMPLIT PERI AZIMU VELO AIN AR TRES W  DIS CAZ7
 BRR  HZ EP        241 14.24                             150    0.1910 75.6 304 
 BRR  HN ES        241 30.77                             150    0.4110 75.6 304 
 BRR  HZ I         241 34.87         7.7 0.19            146           75.6 304 
 PAM  EZ EP        241 15.30                             148    0.0710 83.2  36 
 PAM  EN ES        241 32.15                             148   -0.3010 83.2  36 
 PAM  EZ I         241 33.78         5.3 0.40            148           83.2  36 
 PTB  HZ EP        241 19.49                             131   -0.17 9  147 262 
 PTB  HN ES        241 40.17                             131   -0.17 9  147 262 
 PTB  HZ I         241 43.17         3.8 0.19            131            147 262 
 ZAR  HZ EP        241 25.88                             121    0.23 8  208 294 
 ZAR  HN ES        241 50.66                             121   -0.35 8  208 294 
 ZAR  HZ I         241 56.41         6.6 0.34            121            208 294 
                                                                                
