 2011 1024 0916  2.2 L   6.799 -73.138143.4  RSN 12 0.4 2.8LRSN                1
 GAP=138        0.75       3.1     3.9  5.3 -0.2068E+01  0.8094E+01  0.1624E+01E
 Epicentro: LOS SANTOS - SANTANDER                                             3
 ACTION:UPD 12-07-13 16:05 OP:ep   STATUS:               ID:20111024091602 L   I
 2011-10-24-0913-59S.COL___171                                                 6
 STAT SP IPHASW D HRMM SECON CODA AMPLIT PERI AZIMU VELO AIN AR TRES W  DIS CAZ7
 BAR2 SZ IP        916 21.64                             170    0.1310 23.3 192 
 BAR2 SZ ES   1    916 36.47                             170   -0.13 7 23.3 192 
 BAR2 SZ I         916 38.89       125.0 0.21                          23.3 192 
 GIR2 SZ EP        916 21.66                             167    0.1010 31.6 349 
 BRR  HZ IP     C  916 23.46                             152    0.3610 72.0 298 
 BRR  HN ES   1    916 40.20                             152    0.76 7 72.0 298 
 BRR  HZ I         916 43.39        77.3 0.16                          72.0 298 
 PAM  SZ EP        916 24.41                             151    0.3110 77.0  39 
 PAM  SZ I         916 24.71       100.9 0.19                          77.0  39 
 PAM  SN ES   1    916 40.80                             151   -0.41 7 77.0  39 
 RUS  HZ EP   1    916 25.64                             143   -0.02 7  100 177 
 RUS  HN ES   1    916 43.70                             143   -0.30 7  100 177 
 RUS  HZ I         916 46.18        91.1 0.35                           100 177 
 OCA  SZ EP   1    916 29.79                             129   -0.52 7  161 353 
 OCA  SZ ES   1    916 51.67                             129   -0.60 7  161 353 
 OCA  SZ I         916 56.88        46.0 0.28                           161 353 
 ZAR  HZ EP        916 34.41                             122   -0.13 9  205 292 
 ZAR  HN ES   1    916 59.71                             122   -0.09 6  205 292 
 NOR  SZ EP   1    916 37.51                             118   -0.31 6  235 235 
 NOR  SN ES   1    917  5.13                             118   -0.50 6  235 235 
 HEL  HZ EP   1    916 42.35                             114    0.01 6  273 256 
 HEL  HN ES   1    917 13.31                             114   -0.37 6  273 256 
 HEL  HZ I         917 21.16        34.1 0.42                           273 256 
 GUY  SZ EP   1    916 46.93                             112    0.94 5  304 235 
 GUY  SZ I         917 29.56        33.6 0.31                           304 235 
 RREF HZ EP   1    916 48.50                             110    0.24 5  322 229 
 RREF HZ I         917 33.69        31.4 0.28                           322 229 
 PRA  HZ EP   1    916 55.18                             106   -0.45 4  392 210 
 PRA  HN ES   1    917 37.19                             106   -0.15 4  392 210 
 PRA  HZ I         917 43.72        70.1 0.20                           392 210 
                                                                                
