 2015 1224 0340 43.7 L   7.438 -73.363110.3  RSN  6 0.5 1.6LRSN                1
 GAP=165        0.98       3.3     6.7  8.4  0.3360E+01  0.1297E+02 -0.4012E+00E
 Epicentro: SABANA DE TORRES - SANTANDER                                       3
 ACTION:UPD 16-02-04 15:07 OP:cam  STATUS:               ID:20151224034043 L   I
 OLDACT:REG 15-12-24 12:39 OP:dnl  STATUS:               ID:20151224033747     3
 2015-12-24-0337-47M.COL___334                                                 6
 STAT SP IPHASW D HRMM SECON CODA AMPLIT PERI AZIMU VELO AIN AR TRES W  DIS CAZ7
 BRR  HZ EP        340 59.97                             152    0.0110 53.1 226 
 BRR  HE ES        341 12.94                             152    0.2710 53.1 226 
 BRR  HZ I         341 13.33         7.6 0.12            151           53.1 226 
 OCA  HZ EP   2    341  2.99                             138    0.33 5 88.7   3 
 OCA  HN ES        341 17.81                             138    0.3310 88.7   3 
 OCA  HZ I         341 19.16        13.2 0.09            140           88.7   3 
 BAR2 EZ EP        341  3.45                             136    0.0910 95.7 168 
 BAR2 EZ ES        341 18.23                             136   -0.4810 95.7 168 
 BAR2 EZ I         341 20.09        15.4 0.21            137           95.7 168 
 PTB  HZ EP        341  9.46                             121    0.55 9  156 231 
 PTB  HE ES   2    341 27.36                             121   -1.23 5  156 231 
 PTB  HZ I         341 31.95         2.9 0.20            121            156 231 
 ZAR  HZ EP   2    341 10.00                             119    0.18 5  165 272 
 ZAR  HE ES   2    341 30.81                             119    0.60 5  165 272 
 ZAR  HZ I         341 32.47         4.7 0.10            119            165 272 
 SML  HZ EP   2    341  9.78                             118   -0.51 5  170 333 
 SML  HE ES        341 30.36                             118   -0.70 9  170 333 
 SML  HZ I         341 32.02         4.3 0.10            119            170 333 
                                                                                
