 2013  224 0957  6.8 L   6.811 -73.148148.3  RSN 11 0.5 2.0LRSN                1
 GAP=136        0.86       3.3     5.0  6.3  0.1172E+01  0.9358E+01 -0.5918E+00E
 Epicentro: LOS SANTOS - SANTANDER                                             3
 ACTION:UPD 13-03-12 09:35 OP:ep   STATUS:               ID:20130224095706 L   I
 2013-02-24-0950-00M.COL___225                                                 6
 STAT SP IPHASW D HRMM SECON CODA AMPLIT PERI AZIMU VELO AIN AR TRES W  DIS CAZ7
 BAR2 SZ EP   1    957 27.04                             170    0.29 7 24.5 189 
 BAR2 SZ ES   1    957 41.80                             170   -0.52 7 24.5 189 
 BAR2 SZ I         957 45.63        19.8 0.12            165           24.5 189 
 BRR  HZ EP   1    957 28.92                             153    0.75 7 70.4 298 
 BRR  HN ES   1    957 45.82                             153    0.97 7 70.4 298 
 BRR  HZ I         957 49.39        19.2 0.26            146           70.4 298 
 PAM  SN ES   1    957 46.89                             152    0.14 7 76.7  40 
 RUS  HZ EP   1    957 30.83                             144   -0.05 7  102 176 
 RUS  HN ES   1    957 49.45                             144   -0.22 7  102 176 
 RUS  HZ I         957 50.70         6.7 0.36            145            102 176 
 PTB  HZ EP   1    957 33.64                             133   -0.32 7  148 258 
 PTB  HN ES   1    957 54.58                             133   -0.58 7  148 258 
 PTB  HZ I         958  0.77        14.5 0.32            129            148 258 
 OCA  HZ EP   1    957 35.12                             130   -0.07 7  159 353 
 OCA  HN ES   1    957 56.93                             130   -0.41 7  159 353 
 OCA  HZ I         958  2.96        11.9 0.26            130            159 353 
 ZAR  HZ EP   1    957 39.57                             123    0.24 6  203 292 
 ZAR  HN ES   1    958  5.14                             123    0.43 6  203 292 
 ZAR  HZ I         958 11.97        16.0 0.24            121            203 292 
 SML  HZ EP   1    957 43.39                             118   -0.04 6  242 335 
 SML  HE ES   1    958 11.09                             118   -0.92 6  242 335 
 SML  HN ES   1    958 12.20                             118            242 335 
 SML  HZ I         958 21.14        15.4 0.10            118            242 335 
 CHI  HZ EP   1    957 45.05                             118    0.30 6  250 195 
 CHI  HN ES   1    958 14.19                             118   -0.16 6  250 195 
 CHI  HZ I         958 24.26         4.6 0.46            118            250 195 
 HEL  HN ES   2    958 18.34                             115   -0.26 4  272 256 
 HEL  HZ I         958 26.31         4.5 0.24            114            272 256 
 URE  HZ EP   1    957 47.78                             114   -0.12 6  283 292 
 URE  HN ES   4    958 18.15                             114   -1.82 0  283 292 
 URE  HZ I         958 32.08         9.1 0.20            113            283 292 
                                                                                
