 2014  924 0417 55.8 L   6.800 -73.159147.9  RSN 11 0.4 2.4LRSN                1
 GAP=135        0.90       2.9     3.6  4.7 -0.5198E+00  0.4872E+01  0.1963E+00E
 Epicentro: LOS SANTOS - SANTANDER                                             3
 ACTION:UPD 14-10-03 23:08 OP:nd   STATUS:               ID:20140924041755 L   I
 OLDACT:UP  14-09-24 15:03 OP:cam  STATUS:               ID:20140924041000     3
 OLDACT:UP  14-09-24 15:03 OP:cam  STATUS:               ID:20140924041000     3
 OLDACT:REG 14-09-24 12:59 OP:cam  STATUS:               ID:20140924041000     3
 2014-09-24-0410-00M.COL___252                                                 6
 STAT SP IPHASW D HRMM SECON CODA AMPLIT PERI AZIMU VELO AIN AR TRES W  DIS CAZ7
 BAR2 SZ EP        418 15.58                             171   -0.1010 23.1 187 
 BAR2 SZ ES        418 30.79                             171   -0.4010 23.1 187 
 BAR2 SZ I         418 32.15        93.7 0.16            173           23.1 187 
 BRR  HZ EP     D  418 17.46                             153    0.3510 69.9 299 
 BRR  HN ES        418 34.51                             153    0.7810 69.9 299 
 BRR  HZ I         418 38.64        26.3 0.16            152           69.9 299 
 PAM  SZ EP     D  418 18.43                             151    0.1310 78.3  40 
 PAM  SN ES        418 35.95                             151    0.1110 78.3  40 
 PAM  SZ I         418 38.10        21.1 0.60            152           78.3  40 
 RUS  HZ EP        418 19.58                             144   -0.1910  101 175 
 RUS  HE ES        418 38.47                             144    0.0110  101 175 
 RUS  HZ I         418 39.47        34.4 0.22            148            101 175 
 PTB  HN ES        418 43.48                             133   -0.41 9  146 259 
 SPBC HZ EP        418 24.59                             130    0.21 9  162 219 
 SPBC HN ES        418 46.39                             130   -0.28 9  162 219 
 SPBC HZ I         418 47.85        31.6 0.26            132            162 219 
 ZAR  HZ EP        418 27.68                             123   -0.57 9  203 292 
 ZAR  HE ES        418 53.70                             123    0.14 9  203 292 
 ZAR  HZ I         418 58.88        21.4 0.40            124            203 292 
 SML  HZ EP        418 32.34                             118   -0.14 8  243 336 
 SML  HN ES        419  0.48                             118   -0.61 8  243 336 
 SML  HZ I         419  6.51        28.1 0.10            119            243 336 
 CHI  HZ EP        418 33.73                             118    0.15 8  248 195 
 URE  HZ EP   4    418 38.82                             114    1.99 0  283 292 
 GUY2CHZ EP        418 39.50                             113    0.12 7  300 235 
 GUY2CHN ES        419 13.43                             113    0.06 7  300 235 
 GUY2CHZ I         419 27.83         7.2 0.52                           300 235 
 CBOC HZ EP        418 43.43                             110    0.78 7  332 252 
 SJC  HZ EP   4    418 49.62                             106   -1.72 0  408 327 
                                                                                
