 2017  224 0956  9.4 L   6.814 -73.133150.1  RSN 13 0.5 1.9LRSN                1
 GAP=137        1.09       4.3     4.6  5.8 -0.4463E+01  0.7374E+01  0.3301E+01E
 Epicentro: LOS SANTOS - SANTANDER                                             3
 ACTION:UPD 17-05-24 15:40 OP:jn   STATUS:               ID:20170224095609 L   I
 OLDACT:UP  17-02-24 17:54 OP:edw  STATUS:               ID:20170224094740     3
 OLDACT:REG 17-02-24 13:00 OP:edw  STATUS:               ID:20170224094740     3
 2017-02-24-0948-00M.COL___378                                                 6
 STAT SP IPHASW D HRMM SECON CODA AMPLIT PERI AZIMU VELO AIN AR TRES W  DIS CAZ7
 BAR2 EZ IP     D  956 29.52                             170   -0.0410 25.1 193 
 BAR2 EZ ES        956 45.19                             170   -0.1210 25.1 193 
 BAR2 EZ I         956 45.60        25.0 0.36            170           25.1 193 
 BRR  HZ IP     C  956 31.30                             153    0.2710 71.8 297 
 BRR  HN ES        956 48.69                             153    0.7710 71.8 297 
 BRR  HZ I         956 51.52        19.0 0.28            150           71.8 297 
 PAM  EZ EP     D  956 32.52                             152    0.5910 75.3  39 
 PAM  EN ES        956 49.09                             152   -0.4410 75.3  39 
 PAM  EZ I         956 51.70        11.4 0.50            154           75.3  39 
 RUS  HZ EP        956 33.55                             144   -0.1110  102 177 
 RUS  HN ES        956 52.32                             144   -0.2810  102 177 
 RUS  HZ I         956 53.29        15.4 0.30            146            102 177 
 PTB  HZ EP   9    956 36.28                             133   -0.57 0  149 258 
 PTB  HN ES        956 57.31                             133   -0.41 9  149 258 
 PTB  HZ I         956 59.21        10.3 0.42            131            149 258 
 NOR  HZ EP        956 45.67                             119    0.09 8  237 234 
 NOR  HN ES        957 13.37                             119   -0.45 8  237 234 
 NOR  HZ I         957 16.10         4.0 0.12            119            237 234 
 CHI  HZ EP        956 47.73                             118    0.21 8  250 195 
 CHI  HN ES        957 17.28                             118    0.01 8  250 195 
 CHI  HZ I         957 19.22         5.4 0.36            118            250 195 
 HEL  HZ EP   4    956 51.68                             115    1.67 0  274 256 
 HEL  HN ES        957 21.74                             115    0.04 8  274 256 
 HEL  HZ I         957 27.60         4.7 0.28            115            274 256 
 URE  HZ EP   2    956 50.02                             114   -0.72 4  285 292 
 URE  HN ES   4    957 19.15                             114   -3.86 0  285 292 
 URE  HZ I         957 28.67         5.7 0.16            114            285 292 
 CBOC HZ EP        956 57.47                             110    0.79 7  335 252 
 CBOC HN ES        957 32.53                             110   -1.05 7  335 252 
 CBOC HZ I         957 39.10         1.2 0.56            110            335 252 
 DBB  EZ EP   4    956 57.87                             110    0.69 0  341 274 
 DBB  EN ES   4    957 31.63                             110   -2.84 0  341 274 
 DBB  EZ I         957 35.40         2.6 0.14            110            341 274 
 ORTC HZ EP   2    957  3.29                             107   -0.40 3  398 216 
 ORTC HN ES   2    957 47.21                             107    1.16 3  398 216 
 ORTC HZ I         957 50.95         3.3 0.20            107            398 216 
 SJC  HZ EP        957  3.69                             106   -1.33 6  409 327 
 SJC  HN ES   4    957 44.75                             106   -3.68 0  409 327 
                                                                                
