 2010  624 0612 11.5 L   6.824 -72.989135.1  RSN  4 0.3 1.3LRSN                1
 GAP=176        0.81       6.7    12.8 15.9  0.2245E+02 -0.1745E+02  0.2398E+02E
 Epicentro: CEPITA - SANTANDER                                                 3
 ACTION:UP  10-08-24 10:12 OP:vdl  STATUS:               ID:20100624061211 L   I
 2010-06-24-0608-48S.COL___118                                                 6
 STAT SP IPHASW D HRMM SECON CODA AMPLIT PERI AZIMU VELO SNR AR TRES W  DIS CAZ7
 BAR2 SZ EP        612 30.05                             165    -0.110   34 220 
 BRR  HZ EP        612 32.18                             146    -0.310   86 291 
 BRR  HZ I         612 32.36         7.3 0.12                            86 291 
 BRR  HN ES   2    612 49.28                             146     0.4 5   86 291 
 RUS  HZ EP        612 34.93                             140     0.410  104 186 
 RUS  HE ES   2    612 51.92                             140    -0.5 5  104 186 
 RUS  HZ I         612 54.04         2.2 0.36                           104 186 
 GRA  SZ ES   2    612 53.83                             136     0.0 5  119  10 
                                                                                
