 2014  224 0007 17.8 L   6.684 -73.571112.3  RSN  5 0.7 1.2LRSN                1
 GAP=202        1.25      10.9     7.8 16.9  0.2918E+02  0.6105E+02  0.7082E+02E
 Epicentro: EL CARMEN DE CHUCURI - SANTANDER                                   3
 ACTION:UPD 14-03-10 08:12 OP:ep   STATUS:               ID:20140224000717 L   I
 OLDACT:REG 14-02-24 07:40 OP:fm   STATUS:               ID:20140223235938     3
 2014-02-23-2359-38M.COL___236                                                 6
 STAT SP IPHASW D HRMM SECON CODA AMPLIT PERI AZIMU VELO AIN AR TRES W  DIS CAZ7
 BAR2 SZ ES   1    0 7 47.89                             157    0.92 7 44.2 103 
 BAR2 SZ I         0 7 48.44        16.8 0.59            162           44.2 103 
 PTB  HZ EP        0 7 37.62                             135   -0.0310 99.2 261 
 PTB  HN ES   1    0 7 52.81                             135   -0.33 7 99.2 261 
 PTB  HZ I         0 7 56.02         3.0 0.14            138           99.2 261 
 RUS  HZ EP   1    0 7 38.49                             135   -0.12 7  103 148 
 RUS  HE ES   1    0 7 53.72                             135   -1.14 7  103 148 
 RUS  HZ I         0 7 55.01         0.9 0.34            140            103 148 
 NOR  HN ES   1    0 8  9.46                             116    0.08 7  190 229 
 CHI  HN ES   1    0 8 18.74                             111    0.95 6  228 184 
                                                                                
