 2013  124 0413 55.0 L   6.813 -73.170145.4  RSN  7 0.4 1.9LRSN                1
 GAP=133        1.00       4.1     4.4  6.7  0.1656E+01  0.5452E+01  0.6754E+01E
 Epicentro: LOS SANTOS - SANTANDER                                             3
 ACTION:UPD 13-02-15 09:16 OP:ep   STATUS:               ID:20130124041355 L   I
 2013-01-24-0408-36M.COL___177                                                 6
 STAT SP IPHASW D HRMM SECON CODA AMPLIT PERI AZIMU VELO AIN AR TRES W  DIS CAZ7
 BAR2 SZ EP        414 14.75                             170    0.1310 24.5 183 
 BAR2 SZ ES        414 29.65                             170   -0.2610 24.5 183 
 BAR2 SZ I         414 30.89        13.9 0.20            169           24.5 183 
 BRR  HZ EP        414 16.31                             153    0.3610 68.2 299 
 BRR  HN ES        414 33.08                             153    0.8010 68.2 299 
 BRR  HN I         414 33.69        25.7 0.32            151           68.2 299 
 PAM  SZ EP        414 17.35                             151    0.1310 78.0  42 
 PAM  SE ES        414 34.28                             151   -0.2610 78.0  42 
 RUS  HZ EP        414 18.57                             143   -0.2810  102 175 
 RUS  HN ES        414 37.28                             143   -0.1510  102 175 
 RUS  HN I         414 38.77         6.2 0.38            144            102 175 
 PTB  HZ EP        414 21.32                             132   -0.42 9  145 258 
 PTB  HN ES        414 42.08                             132   -0.51 9  145 258 
 ZAR  HE ES        414 51.98                             123   -0.19 9  201 292 
 ZAR  HE I         414 58.92        13.7 0.20            122            201 292 
 CHI  HZ EP        414 32.82                             117    0.05 8  249 194 
 CHI  HN ES        415  2.95                             117    0.73 8  249 194 
 CHI  HN I         415  4.65         3.0 0.62            117            249 194 
                                                                                
