 2011  824 0408 32.8 L   6.717 -73.480109.7  RSN  5 0.1 1.6LRSN                1
 GAP=107        0.28       1.7     3.1  3.7  0.8258E+00  0.1877E+01 -0.1097E+01E
 Epicentro: EL CARMEN DE CHUCURI - SANTANDER                                   3
 ACTION:UPD 12-07-13 15:53 OP:ep   STATUS:               ID:20110824040832 L   I
 2011-08-24-0406-02S.COL___159                                                 6
 STAT SP IPHASW D HRMM SECON CODA AMPLIT PERI AZIMU VELO AIN AR TRES W  DIS CAZ7
 BAR2 SZ EP   2    4 8 48.73                             161    0.18 5 35.7 113 
 BAR2 SZ ES   2    4 9  0.81                             161   -0.01 5 35.7 113 
 BAR2 SZ I         4 9  1.94        25.7 0.20                          35.7 113 
 BRR  HZ EP   2    4 8 48.66                             154   -0.23 5 50.2 329 
 BRR  HE ES   2    4 9  1.42                             154    0.00 5 50.2 329 
 RUS  HZ EP   1    4 8 53.28                             134    0.00 7  101 154 
 RUS  HZ I         4 8 53.63         4.2 0.34                           101 154 
 RUS  HE ES   1    4 9  9.22                             134   -0.02 7  101 154 
 OCA  SZ EP   1    4 8 59.52                             118   -0.04 7  169   6 
 OCA  SZ ES   2    4 9 20.57                             118    0.15 5  169   6 
 OCA  SZ I         4 9 29.90         5.9 0.48                           169   6 
 NOR  SN ES   2    4 9 26.25                             114    0.09 4  200 230 
                                                                                
