 2012  724 0836 32.8 L   7.247 -73.318126.7  RSN  5 0.3 1.9LRSN                1
 GAP=168        0.74       4.5     4.7  7.3 -0.1480E+01  0.3821E+01 -0.8644E+01E
 Epicentro: LEBRIJA - SANTANDER                                                3
 ACTION:UPD 12-08-14 11:45 OP:ep   STATUS:               ID:20120724083632 L   I
 2012-07-24-0830-00M.COL___215                                                 6
 STAT SP IPHASW D HRMM SECON CODA AMPLIT PERI AZIMU VELO AIN AR TRES W  DIS CAZ7
 BRR  HZ EP        836 50.76                             159     0.210   46 250 
 BRR  HN ES   1    837  4.54                             159     0.1 7   46 250 
 BRR  HZ I         837  5.72        14.2 0.12            159             46 250 
 BAR2 SZ EP        836 52.75                             148     0.310   74 168 
 BAR2 SZ ES   1    837  7.74                             148    -0.1 7   74 168 
 BAR2 SZ I         837  9.06        47.4 0.24            152             74 168 
 OCA  HZ EP        836 54.96                             136    -0.110  110 360 
 OCA  HN ES   2    837 11.90                             136    -0.5 5  110 360 
 OCA  HZ I         837 14.58        28.5 0.44            138            110 360 
 PTB  HZ EP        836 58.03                             127    -0.3 9  148 238 
 PTB  HN ES   1    837 17.79                             127    -0.5 7  148 238 
 PTB  HZ I         837 19.88         4.9 0.22            129            148 238 
 ZAR  HZ EP   1    837  0.99                             123     0.2 7  172 279 
 ZAR  HN ES   1    837 22.96                             123     0.4 7  172 279 
 ZAR  HZ I         837 25.31         6.5 0.24            124            172 279 
