 2017 1024 0257  4.9 L   5.941 -73.780104.0  RSN  7 0.5 0.7LRSN                1
 GAP=131        1.04       4.6     3.8 11.6 -0.4347E+01  0.2502E+01 -0.4144E+01E
 Epicentro: SUCRE - SANTANDER                                                  3
 ACTION:UPD 17-11-07 19:36 OP:rebc STATUS:               ID:20171024025704 L   I
 OLDACT:UP  17-10-24 14:32 OP:dani STATUS:               ID:20171024024326d    3
 OLDACT:UP  17-10-24 14:32 OP:dani STATUS:               ID:20171024024326d    3
 OLDACT:DUP 17-10-24 14:21 OP:dani STATUS:               ID:20171024024326d    3
 OLDACT:UP  17-10-24 14:20 OP:dani STATUS:               ID:20171024024325     3
 OLDACT:UP  17-10-24 14:20 OP:dani STATUS:               ID:20171024024325     3
 OLDACT:REG 17-10-24 12:35 OP:dani STATUS:               ID:20171024024325     3
 2017-10-24-0248-00M.COL___437                                                 6
 STAT SP IPHASW D HRMM SECON CODA AMPLIT PERI AZIMU VELO AIN AR TRES W  DIS CAZ7
 SPBC HZ EP        257 19.51                             156   -0.7010 45.5 225 
 SPBC HN ES        257 32.55                             156    0.3910 45.5 225 
 SPBC HZ I         257 35.82         2.6 0.21            157           45.5 225 
 RUS  HZ EP        257 22.54                             142   -0.3310 77.3  94 
 RUS  HN ES        257 36.96                             142    0.0610 77.3  94 
 RUS  HZ I         257 38.19         1.0 0.32            146           77.3  94 
 BAR2 HN ES        257 39.68                             135    0.3810 97.8  43 
 PTB  HN ES        257 38.68                             134   -0.4310 99.9 312 
 NOR  HN ES        257 44.26                             127    0.3510  128 251 
 BRR  HN ES        257 44.23                             126    0.1710  129   3 
 GUY2CHZ EP   3    257 36.22                             115    1.90 2  193 246 
 GUY2CHN ES   3    257 58.71                             115    1.44 2  193 246 
                                                                                
