 2010  424 0513 49.2 L   6.785 -73.059148.8  RSN  7 0.2 2.0LRSN                1
 GAP=195        0.44       4.3     5.5  4.7 -0.1451E+02 -0.8786E+01  0.6380E+01E
 Epicentro: LOS SANTOS - SANTANDER                                             3
 ACTION:UPD 10-08-24 10:00 OP:vdl  STATUS:               ID:20100424051357 L   I
 2010-04-24-0509-51S.COL___104                                                 6
 STAT SP IPHASW D HRMM SECON CODA AMPLIT PERI AZIMU VELO AIN AR TRES W  DIS CAZ7
 BAR2 SZ EP   2    514  8.73                             170    -0.5 5   25 213 
 BAR2 SZ ES   2    514 24.70                             170    -0.1 5   25 213 
 BRR  HZ IP     C  514 11.12                             150    -0.110   81 296 
 BRR  HZ I         514 11.40        16.3 0.16                            81 296 
 BRR  HE ES   1    514 28.58                             150     0.2 7   81 296 
 BRI  SZ IP        514 13.34                             142     0.110  107  16 
 BRI  SZ ES   1    514 32.20                             142     0.2 7  107  16 
 GUE  SZ EP   1    514 14.40                                     0.2 7  117   7 
 GRA  SZ IP        514 14.60                             138     0.010  125  13 
 GRA  SZ ES   1    514 34.30                             138    -0.2 7  125  13 
 OCA  SZ EP   2    514 17.84                             129    -0.2 5  163 350 
 OCA  SZ ES   2    514 40.00                             129    -0.5 5  163 350 
 OCA  SZ I         514 44.96        16.7 0.26                           163 350 
 PRA  HZ EP   2    514 43.56                                     0.4 3  395 211 
 PRA  HE ES   3    515 25.08                                    -0.2 1  395 211 
 PRA  HZ I         515 28.70         1.8 0.54                           395 211 
                                                                                
