 2017  724 0820 43.1 L   6.744 -73.145142.7  RSN  7 0.4 0.9LRSN                1
 GAP=208        0.93       4.9     4.7  6.1  0.1389E+02 -0.4411E+00 -0.2187E+01E
 Epicentro: LOS SANTOS - SANTANDER                                             3
 ACTION:UPD 17-08-30 15:36 OP:rebc STATUS:               ID:20170724082043 L   I
 OLDACT:UP  17-07-24 17:17 OP:osc  STATUS:               ID:20170724081736     3
 OLDACT:REG 17-07-24 13:10 OP:and  STATUS:               ID:20170724081736     3
 2017-07-24-0818-00M.COL___380                                                 6
 STAT SP IPHASW D HRMM SECON CODA AMPLIT PERI AZIMU VELO AIN AR TRES W  DIS CAZ7
 BAR2 EZ EP        821  2.52                             173    0.2310 17.2 194 
 BAR2 EZ ES        821 17.23                             173   -0.0010 17.2 194 
 BAR2 EZ I         821 20.22         4.1 0.28            172           17.2 194 
 BRR  HZ EP        821  4.24                             151    0.0910 74.4 303 
 BRR  HN ES        821 20.70                             151    0.1710 74.4 303 
 RUS  HZ EP        821  5.72                             145   -0.4310 94.4 176 
 RUS  HE ES        821 23.95                             145   -0.1410 94.4 176 
 RUS  HZ I         821 26.42         1.6 0.38            146           94.4 176 
 PTB  HZ EP        821  9.10                             131   -0.66 9  147 261 
 PTB  HE ES        821 30.40                             131   -0.13 9  147 261 
 PTB  HZ I         821 32.75         0.5 0.10            133            147 261 
 SPBC HE ES        821 33.22                             129    0.58 9  158 220 
 YPLC HZ EP        821 12.82                             127    0.64 9  171 150 
 YPLC HN ES        821 34.48                             127   -0.35 9  171 150 
 ZAR  HZ EP        821 15.95                             121    0.31 8  207 294 
 ZAR  HE ES        821 40.76                             121   -0.23 8  207 294 
                                                                                
