 2015  524 0912 46.0 L   6.881 -73.230123.9  RSN  7 0.3 1.3LRSN                1
 GAP=174        0.67       3.0     4.4  5.3  0.4722E+01 -0.1340E+01 -0.5318E+01E
 Epicentro: BETULIA - SANTANDER                                                3
 ACTION:UPD 15-09-10 22:06 OP:cam  STATUS:               ID:20150524091246 L   I
 OLDACT:REG 15-05-24 12:41 OP:spq  STATUS:               ID:20150524090735     3
 2015-05-24-0907-35M.COL___288                                                 6
 STAT SP IPHASW D HRMM SECON CODA AMPLIT PERI AZIMU VELO AIN AR TRES W  DIS CAZ7
 BAR2 EZ EP        913  3.37                             164    0.1510 32.4 171 
 BAR2 EZ ES   1    913 16.96                             164    0.28 7 32.4 171 
 BAR2 EZ I         913 17.77         9.5 0.24            165           32.4 171 
 BRR  HZ EP        913  3.78                             153   -0.2710 58.8 295 
 BRR  HE ES        913 18.04                             153   -0.1110 58.8 295 
 BRR  HZ I         913 19.29         3.4 0.06            152           58.8 295 
 RUS  HZ EP   1    913  8.28                             136   -0.17 7  111 172 
 RUS  HN ES   1    913 26.17                             136    0.17 7  111 172 
 RUS  HZ I         913 27.85         1.0 0.28            137            111 172 
 OCA  HZ EP        913 11.54                             126   -0.15 9  150 356 
 OCA  HE ES        913 31.51                             126   -0.24 9  150 356 
 OCA  HZ I         913 33.15         5.3 0.22            127            150 356 
 ZAR  HZ EP   1    913 16.26                             119    0.47 7  192 291 
 ZAR  HN ES        913 38.91                             119   -0.15 9  192 291 
 ZAR  HZ I         913 43.02         1.8 0.32            119            192 291 
 SML  HZ EP        913 20.06                             114   -0.05 8  232 336 
 SML  HN ES   1    913 47.70                             114    0.95 6  232 336 
 SML  HZ I         913 49.66         3.5 0.10            115            232 336 
 MON  HN ES   4    914  7.15                             105   -1.98 0  341 308 
 MON  HZ I         914  8.30         0.6 0.41            106            341 308 
                                                                                
