 2013  324 0302 59.2 L   6.781 -73.155149.5  RSN  4 0.3 1.5LRSN                1
 GAP=235        0.70       7.7     6.3  6.9  0.2925E+02  0.6375E+01  0.4553E+01E
 Epicentro: LOS SANTOS - SANTANDER                                             3
 ACTION:UPD 13-04-09 14:04 OP:ep   STATUS:               ID:20130324030259 L   I
 2013-03-24-0300-00M.COL___245                                                 6
 STAT SP IPHASW D HRMM SECON CODA AMPLIT PERI AZIMU VELO AIN AR TRES W  DIS CAZ7
 BAR2 SZ EP   2    3 3 19.08                             172   -0.16 5 21.0 188 
 BAR2 SZ ES   1    3 3 34.26                             172   -0.60 7 21.0 188 
 BAR2 SZ I         3 3 35.70        12.5 0.32            167           21.0 188 
 BRR  HN ES   1    3 3 38.10                             153    0.53 7 71.3 300 
 RUS  HZ EP        3 3 23.33                             145    0.1510 98.5 175 
 RUS  HE ES        3 3 42.03                             145    0.1610 98.5 175 
 RUS  HN I         3 3 43.25         3.1 0.50            144           98.5 175 
 PTB  HZ EP        3 3 26.13                             133   -0.22 9  146 260 
 PTB  HE ES        3 3 47.47                             133   -0.05 9  146 260 
 PTB  HN I         3 3 51.52         3.2 0.20            131            146 260 
                                                                                
