 2016 1024 0750  5.8 L   6.792 -73.099144.0  RSN 13 0.4 2.1LRSN                1
 GAP=143        1.02       3.1     5.1  5.3 -0.5393E+01  0.9467E+01  0.1890E+01E
 Epicentro: LOS SANTOS - SANTANDER                                             3
 ACTION:UPD 16-11-09 19:22 OP:rebc STATUS:               ID:20161024075005 L   I
 OLDACT:UP  16-10-24 17:30 OP:drio STATUS:               ID:20161024074739     3
 OLDACT:REG 16-10-24 13:59 OP:cara STATUS:               ID:20161024074739     3
 2016-10-24-0748-00M.COL___353                                                 6
 STAT SP IPHASW D HRMM SECON CODA AMPLIT PERI AZIMU VELO AIN AR TRES W  DIS CAZ7
 BAR2 EZ EP        750 25.30                             170    0.0610 24.0 203 
 BAR2 EZ ES        750 40.04                             170   -0.3510 24.0 203 
 BAR2 EZ I         750 41.44        40.5 0.18            166           24.0 203 
 PAM  EZ EP        750 28.18                             151    0.5010 74.9  36 
 PAM  EE ES        750 45.36                             151    0.6110 74.9  36 
 PAM  EZ I         750 47.56        27.4 0.66            156           74.9  36 
 BRR  HZ EP        750 27.19                             151    0.1410 76.2 297 
 BRR  HN ES        750 44.16                             151    0.5310 76.2 297 
 BRR  HZ I         750 48.53        15.8 0.16            146           76.2 297 
 RUS  HZ EP        750 29.31                             144    0.0010 99.5 179 
 RUS  HE ES        750 47.35                             144   -0.2910 99.5 179 
 RUS  HZ I         750 48.86        16.3 0.34            146           99.5 179 
 PTB  HZ EP        750 32.22                             131   -0.86 9  153 260 
 PTB  HE ES   4    750 53.15                             131   -1.21 0  153 260 
 PTB  HZ I         751  4.41         7.4 0.22            129            153 260 
 OCA  HZ EP        750 33.53                             129   -0.59 9  162 351 
 OCA  HE ES        750 55.51                             129   -0.70 9  162 351 
 OCA  HZ I         750 59.64        36.2 0.24            130            162 351 
 SPBC HZ EP        750 34.32                             128   -0.10 9  166 221 
 SPBC HN ES        750 56.35                             128   -0.40 9  166 221 
 SPBC HZ I         750 57.19        22.0 0.20            128            166 221 
 NOR  HZ EP        750 41.78                             118   -0.06 8  238 235 
 NOR  HE ES        751 10.21                             118    0.27 8  238 235 
 NOR  HZ I         751 10.94         8.8 0.14            118            238 235 
 CHI  HZ EP        750 43.45                             117   -0.02 8  249 196 
 CHI  HN ES        751 12.80                             117   -0.05 8  249 196 
 CHI  HZ I         751 18.46         5.4 0.36            119            249 196 
 HEL  HZ EP        750 47.29                             114    0.83 7  277 256 
 HEL  HE ES   4    751 19.69                             114    1.51 0  277 256 
 HEL  HZ I         751 23.73         5.2 0.48            114            277 256 
 GUY2CHZ EP        750 49.97                             112    0.21 7  305 235 
 GUY2CHN ES        751 24.39                             112    0.35 7  305 235 
 GUY2CHZ I         751 30.30         5.9 0.32                           305 235 
 CBOC HZ EP        750 53.38                             109    0.20 7  338 253 
 CBOC HE ES   4    751 28.68                             109   -1.46 0  338 253 
 CBOC HZ I         751 43.62         1.7 0.54            110            338 253 
 PRA  HZ EP        750 59.46                             106   -0.02 6  394 210 
 PRA  HE ES        751 41.66                             106    0.31 6  394 210 
 PRA  HZ I         751 48.00         6.9 0.24            108            394 210 
                                                                                
