 2016  824 0400 59.5 L   6.827 -73.128152.9  RSN  5 0.5 1.3LRSN                1
 GAP=242        1.10       7.0     7.7  8.2  0.1437E+02  0.8180E+01  0.5451E+01E
 Epicentro: LOS SANTOS - SANTANDER                                             3
 ACTION:UPD 16-10-29 15:38 OP:rebc STATUS:               ID:20160824040059 L   I
 OLDACT:REG 16-08-24 12:26 OP:ak   STATUS:               ID:20160824035733     3
 2016-08-24-0358-00M.COL___377                                                 6
 STAT SP IPHASW D HRMM SECON CODA AMPLIT PERI AZIMU VELO AIN AR TRES W  DIS CAZ7
 BAR2 EZ EP   2    4 1 19.31                             170   -0.77 5 26.6 193 
 BAR2 EZ ES        4 1 35.50                             170   -0.6110 26.6 193 
 BAR2 EZ I         4 1 37.84         5.9 0.32                          26.6 193 
 BRR  HZ EP        4 1 21.67                             154    0.2010 71.5 296 
 BRR  HE ES        4 1 39.25                             154    0.6710 71.5 296 
 BRR  HZ I         4 1 41.96         4.3 0.32                          71.5 296 
 RUS  HZ EP        4 1 24.52                             144    0.3410  103 177 
 RUS  HE ES        4 1 43.53                             144    0.1110  103 177 
 RUS  HZ I         4 1 43.93         1.6 0.38                           103 177 
 PTB  HZ EP        4 1 26.63                             133   -0.67 9  150 258 
 PTB  HN ES        4 1 48.65                             133   -0.32 9  150 258 
 PTB  HZ I         4 1 55.04         1.7 0.14                           150 258 
 SPBC HZ EP        4 1 29.16                             130    0.25 9  167 219 
 SPBC HE ES        4 1 52.00                             130    0.17 9  167 219 
 SPBC HZ I         4 1 55.93         3.7 0.08                           167 219 
 GUY2CHN ES   4    4 2 22.30                             113    3.89 0  304 235 
                                                                                
