 2016  824 0357  1.8 L   6.774 -73.153143.4  RSN  4 0.4 1.0LRSN                1
 GAP=235        0.95       5.8     7.0  9.4  0.1318E+02 -0.4293E+01 -0.7692E+00E
 Epicentro: LOS SANTOS - SANTANDER                                             3
 ACTION:UPD 16-10-29 15:38 OP:rebc STATUS:               ID:20160824035701 L   I
 OLDACT:DUP 16-08-24 19:39 OP:ak   STATUS:               ID:20160824034744d    3
 2016-08-24-0348-00M.COL___377                                                 6
 STAT SP IPHASW D HRMM SECON CODA AMPLIT PERI AZIMU VELO AIN AR TRES W  DIS CAZ7
 BRR  HZ EP        357 23.01                             152    0.2310 72.0 301 
 BRR  HE ES        357 39.13                             152    0.0210 72.0 301 
 BRR  HZ I         357 44.53         2.0 0.32                          72.0 301 
 RUS  HZ EP        357 24.60                             144   -0.5610 97.8 175 
 RUS  HN ES        357 43.49                             144    0.1510 97.8 175 
 RUS  HZ I         357 44.57         1.4 0.26                          97.8 175 
 PTB  HZ EP        357 28.97                             132    0.47 9  146 260 
 PTB  HN ES        357 48.71                             132   -0.58 9  146 260 
 PTB  HZ I         357 52.91         1.3 0.28                           146 260 
 SPBC HZ EP   2    357 29.61                             129   -0.29 5  160 219 
 SPBC HN ES        357 52.17                             129    0.38 9  160 219 
 SPBC HZ I         357 58.05         1.8 0.18                           160 219 
                                                                                
