 2015 1124 0333 28.8 L   7.441 -73.200135.0  RSN 10 0.5 1.9LRSN                1
 GAP=110        1.29       3.6     5.0  7.8  0.2782E+01  0.1299E+02 -0.9227E+00E
 Epicentro: EL PLAYON - SANTANDER                                              3
 ACTION:UPD 15-12-28 16:13 OP:cam  STATUS:               ID:20151124033328 L   I
 OLDACT:DUP 15-11-24 14:42 OP:ak   STATUS:               ID:20151124032451d    3
 2015-11-24-0324-49M.COL___215                                                 6
 STAT SP IPHASW D HRMM SECON CODA AMPLIT PERI AZIMU VELO AIN AR TRES W  DIS CAZ7
 PAM  EZ EP        333 49.26                             156    0.5610 56.3 102 
 PAM  EN ES        334  3.81                             156   -0.4110 56.3 102 
 BRR  HZ EP        333 48.82                             152    0.2310 67.6 237 
 BRR  HN ES        334  4.10                             152    0.0810 67.6 237 
 BRR  HZ I         334  7.54        12.8 0.40            152           67.6 237 
 OCA  HZ EP        333 50.91                             144    0.7110 89.2 351 
 OCA  HN ES        334  7.16                             144    0.2710 89.2 351 
 OCA  HZ I         334 12.09        17.6 0.34            147           89.2 351 
 BAR2 EZ EP        333 51.00                             143    0.3410 93.9 179 
 BAR2 EZ ES        334  7.49                             143   -0.2210 93.9 179 
 BAR2 EZ I         334  8.82        14.8 0.15            145           93.9 179 
 PTB  HZ EP        333 57.29                             125    0.11 9  171 234 
 PTB  HN ES        334 18.84                             125   -0.46 9  171 234 
 RUS  HZ EP        333 57.43                             125   -0.46 9  172 176 
 RUS  HN ES        334 19.79                             125   -0.77 9  172 176 
 SML  HZ EP        333 57.69                             124   -0.21 9  178 327 
 SML  HN ES        334 19.67                             124   -0.92 9  178 327 
 ZAR  HZ EP        333 58.76                             123    0.36 9  183 272 
 ZAR  HE ES        334 22.35                             123    0.87 9  183 272 
 SPBC HZ EP   4    334  4.73                             118    2.33 0  220 206 
 SPBC HE ES        334 29.18                             118    0.58 8  220 206 
 SPBC HZ I         334 36.60         5.4 0.16            120            220 206 
 MON  HZ EP        334 11.44                             109   -0.83 7  309 299 
 MON  HN ES        334 45.51                             109   -0.66 7  309 299 
                                                                                
