 2015  724 0326 53.5 L   6.815 -73.193142.1  RSN  6 0.5 1.7LRSN                1
 GAP=178        1.21       4.9     6.5  9.9  0.6810E+01  0.5525E+01 -0.2139E+02E
 Epicentro: ZAPATOCA - SANTANDER                                               3
 ACTION:UPD 15-09-08 21:50 OP:cam  STATUS:               ID:20150724032653 L   I
 OLDACT:DUP 15-07-24 16:30 OP:stll STATUS:               ID:20150724031749d    3
 OLDACT:REG 15-07-24 12:39 OP:stll STATUS:               ID:20150724031748     3
 2015-07-24-0317-48M.COL___340                                                 6
 STAT SP IPHASW D HRMM SECON CODA AMPLIT PERI AZIMU VELO AIN AR TRES W  DIS CAZ7
 BAR2 EZ IP     D  327 12.94                             170    0.2110 24.6 177 
 BAR2 EZ I         327 13.17        13.9 0.10            171           24.6 177 
 BAR2 EZ ES        327 28.19                             170    0.4710 24.6 177 
 RUS  HZ EP        327 16.85                             142   -0.2110  103 173 
 RUS  HE ES        327 35.22                             142   -0.2110  103 173 
 RUS  HZ I         327 36.70         4.1 0.32            146            103 173 
 CPBEREN ES        327 39.43                             132   -0.79 9  143 258 
 OCA  HZ EP        327 21.14                             129   -0.20 9  158 355 
 OCA  HE ES        327 43.02                             129   -0.02 9  158 355 
 OCA  HZ I         327 47.81        12.5 0.50            130            158 355 
 ZAR  HZ EP        327 26.31                             122    1.15 9  199 292 
 ZAR  HN ES        327 50.24                             122    0.40 9  199 292 
 ZAR  HZ I         328  1.80         4.2 0.48            122            199 292 
 SML  HZ EP        327 29.15                             117   -0.39 8  240 336 
 SML  HZ I         327 31.53         5.0 0.10            118            240 336 
 SML  HN ES        327 57.21                             117   -0.44 8  240 336 
                                                                                
