 2017 1124 0523 21.0 L   6.444 -73.667102.0  RSN  7 0.4 1.3LRSN                1
 GAP=156        1.05       5.4     3.6  8.0 -0.2957E+01  0.1019E+02 -0.2525E+00E
 Epicentro: SANTA HELENA DEL OPON - SANTANDER                                  3
 ACTION:UPD 17-12-12 19:59 OP:rebc STATUS:               ID:20171124052321 L   I
 OLDACT:REG 17-11-24 12:59 OP:osc  STATUS:               ID:20171124051738     3
 2017-11-24-0518-00M.COL___483                                                 6
 STAT SP IPHASW D HRMM SECON CODA AMPLIT PERI AZIMU VELO AIN AR TRES W  DIS CAZ7
 BAR2 EZ EP        523 37.10                             149    0.2010 56.1  73 
 BAR2 EZ ES        523 49.90                             149    0.5710 56.1  73 
 PTB  HZ EP        523 38.56                             136   -0.4110 87.9 277 
 PTB  HN ES        523 52.57                             136   -0.4510 87.9 277 
 PTB  HZ I         523 56.02         3.6 0.10            136           87.9 277 
 RUS  HZ EP        523 39.28                             136   -0.4210 88.8 133 
 RUS  HN ES        523 53.88                             136   -0.4410 88.8 133 
 RUS  HZ I         523 55.27         2.8 0.34            140           88.8 133 
 SPBC HZ EP        523 39.88                             132   -0.1110 98.3 207 
 SPBC HN ES        523 55.32                             132    0.5010 98.3 207 
 SPBC HZ I         523 56.67         7.0 0.18            133           98.3 207 
 NOR  HZ EP        523 47.11                             117    0.43 9  165 234 
 NOR  HN ES        524  6.45                             117   -0.28 9  165 234 
 NOR  HZ I         524  9.81         3.3 0.16            118            165 234 
 HEL  HZ EP        523 52.46                             111    0.56 8  208 262 
 HEL  HN ES   3    524 17.02                             111    1.00 2  208 262 
 HEL  HZ I         524 21.13         2.0 0.22            112            208 262 
 GUY2CHZ EP   9    523 56.17                             108    1.43 0  231 234 
 GUY2CHE ES        524 22.91                                    0.40 8  231 234 
 GUY2CHZ I         524 26.94         1.7 0.34                           231 234 
                                                                                
