 2015  524 0311 19.4 L   6.809 -73.086141.9  RSN  5 0.3 1.4LRSN                1
 GAP=244        0.68       5.0     6.4  7.2  0.1609E+02 -0.1278E+01 -0.1410E+01E
 Epicentro: LOS SANTOS - SANTANDER                                             3
 ACTION:UPD 15-09-10 22:06 OP:cam  STATUS:               ID:20150524031119 L   I
 OLDACT:DUP 15-05-24 14:55 OP:spq  STATUS:               ID:20150524030751d    3
 2015-05-24-0307-50M.COL___291                                                 6
 STAT SP IPHASW D HRMM SECON CODA AMPLIT PERI AZIMU VELO AIN AR TRES W  DIS CAZ7
 BAR2 EZ EP        311 38.48                             169   -0.1310 26.2 204 
 BAR2 EZ ES   1    311 53.28                             169   -0.33 7 26.2 204 
 BAR2 EZ I         311 54.25         5.4 0.24            165           26.2 204 
 BRR  HZ EP        311 40.42                             150   -0.0210 76.7 296 
 BRR  HN ES        311 57.25                             150    0.3910 76.7 296 
 BRR  HZ I         311 58.79         6.0 0.14            148           76.7 296 
 RUS  HZ EP   1    311 43.23                             143    0.42 7  101 180 
 RUS  HN ES   1    312  0.85                             143   -0.23 7  101 180 
 RUS  HZ I         312  1.59         1.8 0.20            142            101 180 
 SPBC HN ES   1    312 10.56                             127    0.12 7  168 221 
 SPBC HZ I         312 13.36         3.5 0.10            126            168 221 
 ZAR  HE ES   1    312 17.25                             121   -0.52 6  210 291 
 ZAR  HZ I         312 19.16         2.5 0.24            120            210 291 
                                                                                
