 2011  424 0712 51.2 L   6.800 -73.320123.9  RSN  5 0.5 1.8LRSN                1
 GAP=162        1.33      11.4    15.6 12.5  0.1664E+02 -0.3958E+02 -0.3832E+02E
 Epicentro: ZAPATOCA - SANTANDER                                               3
 ACTION:UP  11-06-22 15:33 OP:REBC STATUS:               ID:20110424071251 L   I
 2011-04-24-0700-00M.COL___139                                                 6
 STAT SP IPHASW D HRMM SECON CODA AMPLIT PERI AZIMU VELO SNR AR TRES W  DIS CAZ7
 BAR2 SZ EP        713  8.36                             167     0.110   28 146 
 BAR2 SZ ES   1    713 21.24                             167    -0.4 7   28 146 
 BAR2 SZ I         713 22.81        26.7 0.22                            28 146 
 GIR2 SZ EP        713  9.22                             164     0.910   34  24 
 GIR2 SZ ES   1    713 21.92                             164     0.2 7   34  24 
 BRR  HZ EP        713  8.73                             155    -0.310   55 308 
 BRR  HN ES   1    713 22.91                             155    -0.1 7   55 308 
 BRR  HZ I         713 23.51        12.9 0.16                            55 308 
 GRA  SZ EP        713 14.67                             130    -0.510  133  25 
 GRA  SZ I         713 16.12         7.7 0.17                           133  25 
 GRA  SZ ES   3    713 32.75                             130    -1.2 2  133  25 
 OCA  SZ ES   2    713 39.25                             124     0.7 5  159   0 
 OCA  SZ I         713 44.33         7.7 0.28                           159   0 
 MON  HN ES   4    714  9.44                             105    -4.5 0  339 310 
                                                                                
