 2010  424 0224 20.7 L   6.752 -73.068139.4  RSN  6 0.5 1.7LRSN                1
 GAP=195        0.81       7.9    10.7  9.6 -0.4988E+02 -0.3911E+02  0.2237E+02E
 Epicentro: LOS SANTOS - SANTANDER                                             3
 ACTION:UPD 10-08-24 10:00 OP:vdl  STATUS:               ID:20100424022427 L   I
 2010-04-24-0220-43S.COL___104                                                 6
 STAT SP IPHASW D HRMM SECON CODA AMPLIT PERI AZIMU VELO AIN AR TRES W  DIS CAZ7
 BAR2 SZ ES   2    224 53.92                             171    -0.3 5   22 216 
 BRR  HZ IP     C  224 41.71                             149    -0.110   81 299 
 BRR  HZ I         224 42.07        10.2 0.09                            81 299 
 BRR  HE ES   1    224 58.51                             149     0.3 7   81 299 
 BRI  SZ EP   1    224 43.81                             140    -0.4 7  111  16 
 BRI  SZ ES   2    225  2.28                             140    -0.2 5  111  16 
 GRA  SZ IP        224 46.17                             136     0.510  129  13 
 GRA  SZ ES   2    225  5.28                             136     0.2 5  129  13 
 OCA  SZ EP   2    224 48.00                             128    -1.2 5  167 350 
 OCA  SZ ES   2    225 11.21                             128    -0.1 5  167 350 
 OCA  SZ I         225 13.86         6.9 0.19                           167 350 
 PRA  HZ EP   2    225 14.70                             106     0.7 3  392 211 
 PRA  HN ES   2    225 55.32                             106    -0.2 3  392 211 
 PRA  HZ I         226  2.81         1.5 0.53                           392 211 
                                                                                
