 2016 1024 0523 46.8 L   6.788 -73.151147.0  RSN  9 0.3 2.1LRSN                1
 GAP=136        0.87       2.7     4.0  5.1 -0.3234E+01  0.2887E+01  0.1726E+01E
 Epicentro: LOS SANTOS - SANTANDER                                             3
 ACTION:UPD 16-11-09 19:22 OP:rebc STATUS:               ID:20161024052346 L   I
 OLDACT:REG 16-10-24 13:47 OP:cara STATUS:               ID:20161024051747     3
 2016-10-24-0518-00M.COL___356                                                 6
 STAT SP IPHASW D HRMM SECON CODA AMPLIT PERI AZIMU VELO AIN AR TRES W  DIS CAZ7
 BAR2 EZ EP        524  6.57                             171    0.0110 21.9 189 
 BAR2 EZ ES        524 21.82                             171   -0.1410 21.9 189 
 BAR2 EZ I         524 22.63        52.5 0.24            175           21.9 189 
 BRR  HZ IP        524  8.33                             153    0.2310 71.3 300 
 BRR  HN ES        524 25.29                             153    0.5910 71.3 300 
 BRR  HZ I         524 29.42        18.3 0.32            144           71.3 300 
 PAM  EZ EP        524  9.32                             151    0.0810 78.8  39 
 PAM  EN ES        524 26.51                             151   -0.2210 78.8  39 
 PAM  EZ I         524 28.73        20.0 0.52            143           78.8  39 
 RUS  HZ EP        524 10.38                             144   -0.2110 99.3 176 
 RUS  HN ES        524 29.29                             144    0.1610 99.3 176 
 RUS  HZ I         524 30.49        13.3 0.40            144           99.3 176 
 PTB  HZ EP        524 13.50                             132   -0.30 9  147 259 
 PTB  HN ES        524 34.26                             132   -0.59 9  147 259 
 PTB  HZ I         524 40.07        12.6 0.62            126            147 259 
 SPBC HZ EP        524 15.66                             130    0.39 9  162 219 
 SPBC HN ES        524 37.04                             130   -0.43 9  162 219 
 SPBC HZ I         524 42.39        16.7 0.44            126            162 219 
 OCA  HZ EP        524 14.79                             130   -0.54 9  162 353 
 OCA  HN ES        524 37.89                             130    0.31 9  162 353 
 OCA  HZ I         524 43.23        20.0 0.14            122            162 353 
 CHI  HZ EP        524 24.77                             117    0.35 8  247 195 
 CHI  HN ES        524 53.84                             117    0.09 8  247 195 
 GUY2CHZ EP   4    524 32.16                             113    1.83 0  300 235 
 GUY2CHN ES        525  4.72                             113    0.44 7  300 235 
 GUY2CHZ I         525 13.97         2.8 0.28                           300 235 
                                                                                
