 2014  624 0808 57.5 L   6.199 -73.665102.9  RSN  7 0.5 1.2LRSN                1
 GAP= 99        1.20       5.0     4.7  9.6 -0.4903E+01  0.2039E+02 -0.6308E+01E
 Epicentro: LA PAZ - SANTANDER                                                 3
 ACTION:UPD 14-07-01 22:56 OP:nd   STATUS:               ID:20140624080857 L   I
 OLDACT:REG 14-06-24 13:12 OP:spq  STATUS:               ID:20140624080818     3
 2014-06-24-0808-18M.COL___256                                                 6
 STAT SP IPHASW D HRMM SECON CODA AMPLIT PERI AZIMU VELO AIN AR TRES W  DIS CAZ7
 BAR2 SZ EP        8 9 14.37                             143   -0.0310 68.8  51 
 BAR2 SZ ES        8 9 27.57                             143    0.0110 68.8  51 
 BAR2 SZ I         8 9 29.40        16.6 0.32            154           68.8  51 
 RUS  HE ES   2    8 9 27.41                             142   -1.31 5 72.8 118 
 SPBC HZ EP        8 9 15.04                             141    0.3610 75.5 217 
 SPBC HN ES        8 9 28.78                             141    0.7010 75.5 217 
 SPBC HZ I         8 9 35.18         4.0 0.42            143           75.5 217 
 PTB  HZ EP     C  8 9 15.80                             134   -0.4310 95.3 293 
 PTB  HN ES        8 9 30.66                             134   -0.1710 95.3 293 
 PTB  HZ I         8 9 34.52         3.0 0.16            137           95.3 293 
 ZAR  HZ EP        8 9 26.77                             112    0.26 9  195 317 
 ZAR  HN ES        8 9 49.38                             112    0.26 9  195 317 
 HEL  HE ES        8 9 51.88                             111   -0.43 8  206 270 
 HEL  HZ I         810  2.08         1.1 0.40            116            206 270 
 GUY2CHZ EP        8 9 30.31                             110    0.66 8  217 240 
 GUY2CHN ES        8 9 53.79                             110   -0.93 8  217 240 
 GUY2CHZ I         810  1.29         1.5 0.76                           217 240 
                                                                                
