 2017  324 0459 37.4 L   6.802 -73.156146.0  RSN  5 0.2 1.5LRSN                1
 GAP=147        0.50       2.9     2.5  3.9 -0.2426E+01  0.3775E+01 -0.1016E+01E
 Epicentro: LOS SANTOS - SANTANDER                                             3
 ACTION:UPD 17-05-25 18:44 OP:jn   STATUS:               ID:20170324045937 L   I
 OLDACT:REG 17-03-24 13:08 OP:cog  STATUS:               ID:20170324045645     3
 2017-03-24-0457-00M.COL___390                                                 6
 STAT SP IPHASW D HRMM SECON CODA AMPLIT PERI AZIMU VELO AIN AR TRES W  DIS CAZ7
 BAR2 EZ EP        459 56.91                             170   -0.1110 23.4 187 
 BAR2 EZ ES        5 0 12.34                             170   -0.0110 23.4 187 
 BAR2 EZ I         5 0 13.32         8.8 0.12            173           23.4 187 
 PAM  EZ EP        459 59.72                             151    0.0910 77.9  40 
 PAM  EN ES        5 0 17.02                             151    0.0110 77.9  40 
 PAM  EZ I         5 0 20.99         4.1 0.16            152           77.9  40 
 PTB  HZ EP        5 0  3.91                             132   -0.33 9  147 259 
 PTB  HN ES        5 0 24.97                             132   -0.25 9  147 259 
 PTB  HZ I         5 0 30.74         4.2 0.50            134            147 259 
 SPBC HZ EP        5 0  5.99                             129    0.17 9  163 219 
 SPBC HE ES        5 0 28.24                             129    0.21 9  163 219 
 ZAR  HZ EP        5 0  9.72                             123    0.02 9  203 292 
 ZAR  HN ES        5 0 35.19                             123    0.27 9  203 292 
                                                                                
