 2017 1024 0917 39.9 L   6.674 -74.097  1.3  RSN  5 0.2 0.9LRSN                1
 GAP=122        0.62       1.7     1.3  3.9  0.9569E-01  0.5508E+00 -0.5669E+00E
 Epicentro: PUERTO PARRA - SANTANDER                                           3
 ACTION:UPD 17-11-07 19:36 OP:rebc STATUS:               ID:20171024091739 L   I
 OLDACT:UP  17-10-24 17:05 OP:dani STATUS:               ID:20171024090741d    3
 OLDACT:DUP 17-10-24 17:03 OP:dani STATUS:               ID:20171024090741d    3
 OLDACT:UP  17-10-24 16:56 OP:dani STATUS:               ID:20171024090739     3
 OLDACT:UP  17-10-24 16:52 OP:dani STATUS:               ID:20171024090739     3
 OLDACT:REG 17-10-24 13:16 OP:dani STATUS:               ID:20171024090739     3
 2017-10-24-0908-00M.COL___425                                                 6
 STAT SP IPHASW D HRMM SECON CODA AMPLIT PERI AZIMU VELO AIN AR TRES W  DIS CAZ7
 PTB  HZ IP     D  917 47.27                              47   -0.0210 42.4 249 
 PTB  HE ES        917 53.02                              47   -0.0610 42.4 249 
 PTB  HZ I         917 53.35         4.2 0.24             47           42.4 249 
 BRR  HZ EP        917 50.63                              47    0.0910 64.0  42 
 BRR  HE ES        917 58.91                              47    0.0410 64.0  42 
 BRR  HZ I         917 59.63         4.8 0.12             47           64.0  42 
 BAR2 EZ EP        917 55.95                              47   -0.5210  102  95 
 ZAR  HZ EP        917 59.86                              47    0.3010  124 317 
 ZAR  HE ES        918 14.80                              47   -0.1310  124 317 
 ZAR  HZ I         918 16.38         2.2 0.18             47            124 317 
 RUS  HZ EP        918  3.00                              47    0.20 9  142 128 
 RUS  HN ES        918 20.85                              47    0.16 9  142 128 
 RUS  HZ I         918 22.24         3.7 0.17             47            142 128 
                                                                                
