 2011 1224 0416 18.1 L   6.588 -73.590 11.4  RSN  5 0.4 1.0LRSN                1
 GAP=103        1.03       3.6     2.7 10.6  0.3414E+01  0.1295E+02  0.1700E+02E
 Epicentro: EL CARMEN DE CHUCURI - SANTANDER                                   3
 ACTION:UPD 12-07-13 16:18 OP:ep   STATUS:               ID:20111224041618 L   I
 2011-12-24-0410-00M.COL___189                                                 6
 STAT SP IPHASW D HRMM SECON CODA AMPLIT PERI AZIMU VELO AIN AR TRES W  DIS CAZ7
 BAR2 SZ EP        416 26.16                             100    0.2710 45.1  89 
 BAR2 SZ ES   1    416 31.53                             100   -0.43 7 45.1  89 
 BAR2 SZ I         416 34.79        14.9 0.51                          45.1  89 
 BRR  HZ EP        416 27.69                              98   -0.0110 58.9 347 
 BRR  HE ES   1    416 34.91                              98   -0.28 7 58.9 347 
 BRR  HZ I         416 35.93         7.7 0.04                          58.9 347 
 RUS  HZ EP        416 34.37                              95    0.6810 95.2 144 
 RUS  HN ES   1    416 44.92                              95   -0.92 7 95.2 144 
 RUS  HZ I         416 48.13         2.6 0.40                          95.2 144 
 PTB  HZ EP        416 33.61                              95    0.3210 95.9 267 
 PTB  HN ES        416 44.89                              95   -0.2510 95.9 267 
 NOR  SN ES   1    417  6.59                              56   -0.20 7  181 231 
                                                                                
