 2016 1124 0246 48.8 L   6.800 -73.175145.6  RSN 11 0.5 1.9LRSN                1
 GAP=141        0.87       3.5     3.6  5.4 -0.1536E+01  0.4423E+01  0.7426E+01E
 Epicentro: LOS SANTOS - SANTANDER                                             3
 ACTION:UPD 17-10-26 21:11 OP:lp   STATUS:               ID:20161124024648 L   I
 OLDACT:UP  16-11-24 14:30 OP:dani STATUS:               ID:20161124023744d    3
 OLDACT:UP  16-11-24 14:29 OP:dani STATUS:               ID:20161124023744d    3
 OLDACT:DUP 16-11-24 14:26 OP:dani STATUS:               ID:20161124023744d    3
 OLDACT:UP  16-11-24 14:26 OP:dani STATUS:               ID:20161124023743     3
 OLDACT:UP  16-11-24 14:25 OP:dani STATUS:               ID:20161124023743     3
 OLDACT:REG 16-11-24 12:32 OP:dani STATUS:               ID:20161124023743     3
 2016-11-24-0238-00M.COL___352                                                 6
 STAT SP IPHASW D HRMM SECON CODA AMPLIT PERI AZIMU VELO AIN AR TRES W  DIS CAZ7
 BAR2 EZ EP        247  8.27                             171   -0.1110 23.0 182 
 BAR2 EZ ES        247 23.64                             171   -0.0310 23.0 182 
 BAR2 EZ I         247 25.33        22.3 0.28            167           23.0 182 
 BRR  HZ EP        247 10.02                             153    0.2710 68.3 300 
 BRR  HN ES        247 26.62                             153    0.5210 68.3 300 
 BRR  HZ I         247 32.04        11.5 0.15            152           68.3 300 
 PAM  EZ EP        247 11.19                             150    0.0910 79.5  41 
 PAM  EN ES        247 28.10                             150   -0.4110 79.5  41 
 PAM  EZ I         247 30.41        19.8 0.47            160           79.5  41 
 PTB  HZ EP        247 14.90                             133   -0.55 9  145 259 
 PTB  HN ES        247 35.87                             133   -0.37 9  145 259 
 PTB  HZ I         247 43.16         8.8 0.28            133            145 259 
 ZAR  HZ EP        247 20.86                             123   -0.04 9  201 292 
 ZAR  HE ES        247 46.18                             123    0.22 9  201 292 
 ZAR  HZ I         247 55.07         7.1 0.21            125            201 292 
 NOR  HZ EP        247 24.82                             119    0.60 8  232 234 
 NOR  HN ES        247 51.68                             119   -0.18 8  232 234 
 NOR  HZ I         247 56.91         7.4 0.33            121            232 234 
 CHI  HZ EP        247 26.47                             117    0.09 8  248 194 
 CHI  HN ES        247 56.00                             117    0.29 8  248 194 
 CHI  HZ I         247 59.24         4.3 0.47            120            248 194 
 URE  HN ES   3    247 58.72                             114   -2.54 2  281 292 
 LL6C HZ EP   9    247 14.25                             110   -20.2 0  325 358 
 LL6C HE ES        247 49.96                                    0.09 7  325 358 
 LL6C HZ I         248  1.28         5.7 0.59            115            325 358 
 CBOC HZ EP   2    247 36.75                             110    1.42 3  331 252 
 CBOC HN ES   2    248 10.25                             110   -1.39 3  331 252 
 CBOC HZ I         248 16.35         1.4 0.25            113            331 252 
 PRA  HZ EP        247 41.80                             106   -0.31 6  390 209 
 PRA  HN ES     D  248 23.80                             106    0.09 6  390 209 
 PRA  HZ I         248 28.25         3.2 0.24            109            390 209 
                                                                                
