 2010  824 0720 21.1 L   6.791 -73.085146.3  RSN 11 0.2 2.5LRSN                1
 GAP=166        0.56       2.1     4.9  4.0 -0.3634E+01  0.1139E+01  0.6672E+00E
 Epicentro: LOS SANTOS - SANTANDER                                             3
 ACTION:UP  10-09-07 10:57 OP:vdl  STATUS:               ID:20100824072021 L   I
 2010-08-24-0717-48S.COL___120                                                 6
 STAT SP IPHASW D HRMM SECON CODA AMPLIT PERI AZIMU VELO SNR AR TRES W  DIS CAZ7
 BAR2 SZ EP        720 40.85                             170     0.010   25 206 
 BAR2 SZ ES   1    720 55.73                             170    -0.5 7   25 206 
 BAR2 SZ I         720 56.86       142.6 0.30                            25 206 
 BRR  HZ IP     C  720 42.61                             150    -0.110   78 297 
 BRR  HZ I         720 42.87       251.2 0.25                            78 297 
 BRR  HN ES   1    720 59.80                             150     0.3 7   78 297 
 RUS  HZ EP        720 44.83                                     0.010   99 180 
 RUS  HN ES   1    721  3.29                             144     0.0 7   99 180 
 RUS  HZ I         721  4.62        31.0 0.39                            99 180 
 GUE  SZ IP        720 45.84                             139     0.010  116   9 
 GUE  SZ I         721  5.84        15.6 0.12                           116   9 
 GRA  SZ IP        720 46.61                             137     0.310  125  14 
 GRA  SZ ES   1    721  6.08                             137     0.1 7  125  14 
 GRA  SZ I         721  7.27        23.7 0.35                           125  14 
 OCA  SZ IP        720 49.21                             129    -0.4 9  162 351 
 OCA  SZ ES   1    721 11.93                             129     0.1 7  162 351 
 OCA  SZ I         721 15.81        42.3 0.20                           162 351 
 CHI  HZ EP   1    720 59.08                             117     0.2 6  250 197 
 CHI  HN ES   1    721 28.69                             117     0.3 6  250 197 
 CHI  HZ I         721 30.86        15.7 0.38                           250 197 
 HEL  HZ EP   2    721  2.02                             114     0.0 4  278 256 
 HEL  HZ I         721 39.66        17.1 0.64                           278 256 
 RREF HZ EP   2    721  7.49                             111    -0.3 3  326 230 
 RREF HN ES   2    721 44.43                             111     0.3 3  326 230 
 RREF HZ I         721 50.72        18.5 0.35                           326 230 
 ANIL HE ES   3    721 51.01                                     0.4 2  361 225 
 PRA  HZ EP        721 14.83                             106    -0.1 6  394 210 
 PRA  HN ES   1    721 56.55                             106    -0.4 4  394 210 
 PRA  HZ I         722  1.69        11.5 0.74                           394 210 
                                                                                
