 2017  124 0741 37.3 L   6.781 -73.182141.5  RSN  6 0.4 1.0LRSN                1
 GAP=133        1.08       5.7     5.3  8.6  0.6826E+01  0.1534E+02  0.7151E+01E
 Epicentro: LOS SANTOS - SANTANDER                                             3
 ACTION:UPD 17-05-22 16:02 OP:jn   STATUS:               ID:20170124074137 L   I
 OLDACT:REG 17-01-24 13:19 OP:lv   STATUS:               ID:20170124073740     3
 2017-01-24-0738-00M.COL___336                                                 6
 STAT SP IPHASW D HRMM SECON CODA AMPLIT PERI AZIMU VELO AIN AR TRES W  DIS CAZ7
 BAR2 EZ EP        741 56.13                             171   -0.2310 20.9 180 
 BAR2 EZ ES        742 11.09                             171   -0.1410 20.9 180 
 BRR  HZ EP        741 58.27                             153    0.4310 68.8 302 
 BRR  HN ES        742 13.50                             153   -0.3610 68.8 302 
 PAM  EE ES        742 16.50                             149    0.0210 81.6  41 
 RUS  HZ EP        742  0.16                             143   -0.3410 98.9 174 
 RUS  HN ES        742 19.26                             143    0.6710 98.9 174 
 RUS  HZ I         742 20.28         1.1 0.36            143           98.9 174 
 PTB  HZ EP        742  3.18                             132   -0.34 9  143 259 
 PTB  HN ES        742 23.58                             132   -0.39 9  143 259 
 PTB  HZ I         742 30.23         2.0 0.25            131            143 259 
 ZAR  HN ES        742 34.81                             122    0.80 9  201 293 
                                                                                
