 2015 1224 0623 58.4 L   6.798 -73.157150.0  RSN  7 0.5 1.4LRSN                1
 GAP=211        1.20       5.4    10.2  9.0 -0.2157E+01  0.1652E+02 -0.9418E+01E
 Epicentro: LOS SANTOS - SANTANDER                                             3
 ACTION:UPD 16-02-04 15:07 OP:cam  STATUS:               ID:20151224062358 L   I
 OLDACT:REG 15-12-24 12:48 OP:dnl  STATUS:               ID:20151224061750     3
 2015-12-24-0617-50M.COL___334                                                 6
 STAT SP IPHASW D HRMM SECON CODA AMPLIT PERI AZIMU VELO AIN AR TRES W  DIS CAZ7
 BAR2 EZ EP   2    624 18.62                             171    0.06 5 22.9 187 
 BAR2 EZ ES        624 33.39                             171   -0.8710 22.9 187 
 BAR2 EZ I         624 34.77         3.3 0.34            167           22.9 187 
 BRR  HZ EP        624 20.49                             153    0.5010 70.2 299 
 BRR  HE ES        624 37.80                             153    1.0110 70.2 299 
 BRR  HZ I         624 43.20         2.9 0.13            142           70.2 299 
 PTB  HZ EP   2    624 25.37                             133   -0.27 5  146 259 
 PTB  HN ES   2    624 46.45                             133   -0.40 5  146 259 
 PTB  HZ I         624 49.87         2.0 0.07            124            146 259 
 SPBC HZ EP        624 27.20                             130    0.03 9  162 219 
 SPBC HN ES        624 49.63                             130    0.05 9  162 219 
 SPBC HZ I         624 51.68         4.6 0.16            124            162 219 
 ZAR  HZ EP   2    624 30.85                             123   -0.20 4  203 292 
 ZAR  HZ I         624 54.10         5.9 0.05            116            203 292 
 ZAR  HE ES   1    624 56.01                             123   -0.47 6  203 292 
 NOR  HE ES   2    625  2.19                             119   -0.06 4  234 234 
 NOR  HZ I         625  8.76         2.4 0.21            113            234 234 
 SML  HZ EP        624 35.48                             118    0.21 8  243 336 
 SML  HN ES        625  3.25                             118   -0.74 8  243 336 
                                                                                
