 2010  224 0547 16.3 L   6.821 -73.043148.6  RSN  9 0.4 2.2LRSN                1
 GAP=193        0.71       3.2     6.7  6.2 -0.6284E+01  0.6285E+01  0.4632E+01E
 Epicentro: LOS SANTOS - SANTANDER                                             3
 ACTION:UP  10-08-24 09:50 OP:vdl  STATUS:               ID:20100224054716 L   I
 2010-02-24-0546-46S.COL___094                                                 6
 STAT SP IPHASW D HRMM SECON CODA AMPLIT PERI AZIMU VELO SNR AR TRES W  DIS CAZ7
 BAR2 SZ EP        547 36.20                             168    -0.210   30 212 
 BAR2 SZ ES   2    547 51.41                             168    -0.7 5   30 212 
 GIR2 SZ EP        547 36.50                             167     0.210   33 330 
 GIR2 SZ ES   2    547 52.54                             167     0.6 5   33 330 
 BRR  HZ EP        547 38.27                             150     0.010   80 293 
 BRR  HZ I         547 38.71        55.1 0.17                            80 293 
 BRR  HN ES   2    547 55.67                             150     0.3 5   80 293 
 RUS  BZ EP        547 40.29                             144    -0.210  103 182 
 RUS  BN ES   2    547 59.24                             144    -0.1 5  103 182 
 RUS  BZ I         547 59.70         9.8 0.45                           103 182 
 OCA  SZ EP        547 44.85                             130     0.1 9  160 349 
 OCA  SZ ES   2    548  6.54                             130    -0.4 5  160 349 
 CHI  HZ EP        547 54.78                             117     0.1 8  254 198 
 CHI  HE ES        548 25.20                             117     0.5 8  254 198 
 CHI  HZ I         548 33.50         7.5 0.30                           254 198 
 RREF BE ES        548 40.35                             111    -0.3 7  332 230 
 RREF BZ I         548 48.35         9.4 0.22                           332 230 
 TOL  SZ EP   1    548  6.57                             109     0.8 5  353 226 
 TOL  SZ ES   2    548 44.28                             109    -0.1 3  353 226 
 PRA  HZ EP        548 10.14                             107    -0.6 6  400 211 
 PRA  HE ES   2    548 53.06                             107    -0.2 3  400 211 
 PRA  HZ I         548 58.86         7.2 0.25                           400 211 
                                                                                
