 2014 1124 0748 13.8 L   6.767 -73.178145.9  RSN  4 0.3 1.7LRSN                1
 GAP=248        0.81       5.7     5.5  7.0  0.5744E+01  0.9972E+01 -0.6061E+01E
 Epicentro: LOS SANTOS - SANTANDER                                             3
 ACTION:UPD 14-12-19 15:46 OP:nd   STATUS:               ID:20141124074813 L   I
 OLDACT:UP  14-11-24 19:15 OP:mh   STATUS:               ID:20141124073739d    3
 OLDACT:DUP 14-11-24 19:13 OP:mh   STATUS:               ID:20141124073739d    3
 OLDACT:REG 14-11-24 11:24 OP:mh   STATUS:               ID:20141124073738     3
 2014-11-24-0737-38M.COL___297                                                 6
 STAT SP IPHASW D HRMM SECON CODA AMPLIT PERI AZIMU VELO AIN AR TRES W  DIS CAZ7
 BAR2 SZ EP        748 32.95                             172   -0.4610 19.3 181 
 BAR2 SZ ES        748 48.94                             172    0.2610 19.3 181 
 BAR2 SZ I    1    748 50.27         7.6 0.19            165           19.3 181 
 PTB  HZ EP        748 40.20                             133   -0.24 9  144 260 
 PTB  HN ES        749  1.30                             133    0.11 9  144 260 
 PTB  HZ I         749  7.20         4.9 0.34            131            144 260 
 SPBC HZ EP        748 42.23                             130    0.36 9  158 219 
 SPBC HN ES        749  3.54                             130   -0.19 9  158 219 
 SPBC HZ I         749 11.07         9.4 0.28            128            158 219 
 ZAR  HZ EP        748 46.59                             123    0.49 9  202 293 
 ZAR  HN ES        749 11.01                             123   -0.26 9  202 293 
 ZAR  HZ I         749 16.80         5.9 0.32            123            202 293 
                                                                                
