 2017 1224 0923 52.3 L   6.836 -73.174145.5  RSN 27 0.5 2.4LRSN                1
 GAP= 63        1.14       2.5     3.0  5.3 -0.4289E+00  0.4312E+01  0.7548E+00E
 Epicentro: ZAPATOCA - SANTANDER                                               3
 ACTION:UPD 18-01-04 13:23 OP:rebc STATUS:               ID:20171224092352 L   I
 OLDACT:UP  17-12-24 14:35 OP:edw  STATUS:               ID:20171224091740     3
 OLDACT:UP  17-12-24 14:35 OP:edw  STATUS:               ID:20171224091740     3
 OLDACT:REG 17-12-24 13:16 OP:dani STATUS:               ID:20171224091740     3
 2017-12-24-0918-00M.COL___459                                                 6
 STAT SP IPHASW D HRMM SECON CODA AMPLIT PERI AZIMU VELO AIN AR TRES W  DIS CAZ7
 BAR2 EZ IP     C  924 11.87                             169   -0.1010 26.9 182 
 BAR2 EZ ES        924 27.10                             169   -0.2210 26.9 182 
 BAR2 EZ I         924 29.67        71.0 0.30            167           26.9 182 
 PAM  EZ EP     D  924 14.68                             151    0.2610 76.5  43 
 PAM  EN ES        924 31.94                             151    0.2510 76.5  43 
 PAM  EZ I         924 34.92        29.3 0.30            154           76.5  43 
 PTB  HZ EP        924 18.54                             132   -0.50 9  146 257 
 PTB  HN ES        924 39.22                             132   -0.68 9  146 257 
 PTB  HZ I         924 44.81        19.2 0.44            131            146 257 
 OCA  HZ EP        924 20.03                             130   -0.15 9  156 354 
 OCA  HE ES        924 42.27                             130    0.33 9  156 354 
 OCA  HZ I         924 45.77        66.1 0.20            131            156 354 
 TAM  HZ EP     D  924 20.29                             130   -0.03 9  159 106 
 TAM  HZ I         924 41.19        14.4 0.36            131            159 106 
 TAM  HN ES        924 42.16                             130   -0.03 9  159 106 
 SPBC HZ EP        924 20.83                             129   -0.05 9  164 217 
 SPBC HN ES        924 42.29                             129   -0.90 9  164 217 
 SPBC HZ I         924 49.03        43.3 0.20            127            164 217 
 YPLC HZ EP     C  924 22.34                             126   -0.21 9  182 151 
 YPLC HN ES        924 46.56                             126    0.40 9  182 151 
 YPLC HZ I         924 47.28        37.7 0.26            126            182 151 
 ZAR  HZ EP        924 24.36                             123    0.09 9  200 291 
 ZAR  HN ES        924 50.17                             123    0.95 9  200 291 
 ZAR  HZ I         924 55.06        20.5 0.26            122            200 291 
 ROSC BZ EP   4    924 31.90                             116    1.31 0  255 210 
 ROSC BN ES   4    925  2.57                             116    2.10 0  255 210 
 ROSC BZ I         925  6.68        25.9 0.45            116            255 210 
 CVER HZ EP        924 33.41                             114    0.50 8  275 201 
 CVER HN ES        925  4.67                             114    0.07 8  275 201 
 CVER HZ I         925  9.00        12.1 0.34            114            275 201 
 URE  HZ EP   9    924 31.73                             114   -1.13 0  280 291 
 URE  HN ES        925  3.03                             114   -0.35 7  280 291 
 URE  HZ I         925 15.52        11.1 0.38            113            280 291 
 DRL03HZ EP        924 33.91                             113    0.51 7  285 353 
 DRL03HN ES   4    925  6.50                             113    1.02 0  285 353 
 GUY2CHZ EP        924 36.37                             112    0.51 7  301 234 
 GUY2CHN ES   4    925  9.20                             112   -0.65 0  301 234 
 GUY2CHZ I         925 18.61        12.9 0.24                           301 234 
 VIL  EZ EP        924 35.76                             112   -0.30 7  307 191 
 VIL  EE ES        925 10.54                             112    0.33 7  307 191 
 VIL  EZ I         925 19.34        16.8 0.42            111            307 191 
 PTGC HZ EP   9    924 35.15                             111   -1.53 0  313 158 
 PTGC HN ES        925  8.66                             111   -1.12 7  313 158 
 PTGC HZ I         925  9.79        11.8 0.22            111            313 158 
 DRL02HZ EP        924 37.27                             111   -0.24 7  321 358 
 DRL02HN ES        925 12.09                             111   -0.70 7  321 358 
 ELA  HZ EP   4    924 41.02                             110    1.86 0  329 229 
 ELA  HN ES   4    925 17.46                             110    1.74 0  329 229 
 ELA  HZ I         925 31.13        10.5 0.46            110            329 229 
 CBOC HZ EP        924 39.65                             110    0.65 7  332 251 
 CBOC HN ES        925 16.06                             110    0.63 7  332 251 
 CBOC HZ I         925 29.44         4.0 0.30            109            332 251 
 DBB  EZ EP        924 39.21                             110   -0.16 7  336 274 
 DBB  EN ES        925 16.20                             110    0.11 7  336 274 
 DBB  EZ I         925 21.75         4.7 0.24            109            336 274 
 ARGC HZ EP   4    924 43.24                             108    1.86 0  354 341 
 ARGC HN ES   4    925 21.67                             108    1.99 0  354 341 
 ANIL HZ EP   4    924 43.86                             108    1.70 0  358 224 
 ANIL HE ES   4    925 23.66                             108    2.60 0  358 224 
 ANIL HZ I         925 28.14        30.2 0.32            108            358 224 
 PRA  HZ EP        924 45.65                             106   -0.38 6  394 209 
 PRA  HN ES        925 27.10                             106   -0.84 6  394 209 
 PRA  HZ I         925 34.10        12.2 0.52            106            394 209 
 ORTC HZ EP        924 46.39                             106    0.03 6  397 215 
 ORTC HN ES        925 29.96                             106    1.42 6  397 215 
 ORTC HZ I         925 35.80         6.3 0.32            106            397 215 
 SJC  HZ EP        924 46.16                             106   -1.10 6  404 327 
 SJC  HN ES   4    925 26.76                             106   -3.37 0  404 327 
 SJC  HZ I         925 30.48         3.0 0.32            106            404 327 
 PAL  HZ EP        924 47.41                             106    0.04 6  405 238 
 PAL  HN ES   4    925 32.61                             106    2.27 0  405 238 
 PAL  HZ I         925 33.82         3.0 0.20            105            405 238 
 CRJC HZ EP   9    924 51.87                             103   -2.47 0  464   4 
 CRJC HN ES   1    925 40.89                             104    0.62 4  464   4 
 SMAR HZ EP        924 57.18                             102   -0.43 4  492 347 
 SMAR HN ES   4    925 43.79                             102   -4.77 0  492 347 
 MACC HZ EP   9    925 40.07                             101   38.67 0  524 188 
 MACC HN ES        926 31.43                             100   -2.55 4  524 188 
                                                                                
