 2016  824 0305 16.3 L   6.809 -73.091145.1  RSN 19 0.6 2.1LRSN                1
 GAP=103        1.37       3.9     4.0  5.9 -0.5272E+01  0.2698E+01  0.1543E+01E
 Epicentro: LOS SANTOS - SANTANDER                                             3
 ACTION:UPD 16-10-29 15:38 OP:rebc STATUS:               ID:20160824030516 L   I
 OLDACT:DUP 16-08-24 18:48 OP:ak   STATUS:               ID:20160824025737d    3
 OLDACT:UP  16-08-24 18:44 OP:ak   STATUS:               ID:20160824025736     3
 OLDACT:UP  16-08-24 18:43 OP:ak   STATUS:               ID:20160824025736     3
 OLDACT:UP  16-08-24 18:41 OP:ak   STATUS:               ID:20160824025736     3
 OLDACT:UP  16-08-24 18:40 OP:ak   STATUS:               ID:20160824025736     3
 OLDACT:UP  16-08-24 18:39 OP:ak   STATUS:               ID:20160824025736     3
 OLDACT:UP  16-08-24 18:37 OP:ak   STATUS:               ID:20160824025736     3
 OLDACT:UP  16-08-24 18:36 OP:ak   STATUS:               ID:20160824025736     3
 OLDACT:UP  16-08-24 18:03 OP:ak   STATUS:               ID:20160824025736     3
 OLDACT:REG 16-08-24 12:24 OP:ak   STATUS:               ID:20160824025736     3
 2016-08-24-0258-00M.COL___377                                                 6
 STAT SP IPHASW D HRMM SECON CODA AMPLIT PERI AZIMU VELO AIN AR TRES W  DIS CAZ7
 BAR2 EZ EP        3 5 36.05                             169    0.1110 26.1 203 
 BAR2 EZ ES        3 5 51.24                             169    0.0110 26.1 203 
 PAM  EZ EP        3 5 38.92                             152    0.7110 72.8  36 
 PAM  EN ES        3 5 55.90                             152    0.6310 72.8  36 
 PAM  EZ I         3 5 58.19        30.1 0.68                          72.8  36 
 BRR  HZ EP        3 5 38.14                             151    0.4510 76.1 296 
 BRR  HN ES        3 5 54.73                             151    0.3810 76.1 296 
 BRR  HZ I         3 5 59.02        25.6 0.14                          76.1 296 
 RUS  HZ EP        3 5 40.39                             143    0.3210  101 180 
 RUS  HN ES        3 5 58.36                             143   -0.2310  101 180 
 RUS  HZ I         3 5 59.34         9.7 0.26                           101 180 
 PTB  HZ EP        3 5 42.95                             131   -0.86 9  154 259 
 PTB  HN ES        3 6  4.66                             131   -0.58 9  154 259 
 PTB  HZ I         3 6  7.03        14.2 0.11                           154 259 
 OCA  HZ EP        3 5 44.56                             130   -0.01 9  160 351 
 OCA  HN ES        3 6  6.12                             130   -0.47 9  160 351 
 OCA  HZ I         3 6  9.70        33.3 0.52                           160 351 
 SPBC HZ EP   2    3 5 45.46                             128    0.24 5  168 220 
 SPBC HN ES        3 6  6.90                             128   -0.86 9  168 220 
 SPBC HZ I         3 6 11.00        15.8 0.06                           168 220 
 ZAR  HZ EP        3 5 50.01                             122    0.74 8  209 291 
 ZAR  HN ES        3 6 14.95                             122   -0.02 8  209 291 
 ZAR  HZ I         3 6 20.18        12.3 0.31                           209 291 
 NOR  HZ EP        3 5 51.82                             118   -0.80 8  240 235 
 NOR  HE ES        3 6 20.76                             118   -0.16 8  240 235 
 NOR  HZ I         3 6 25.92         8.6 0.34                           240 235 
 HEL  HZ EP        3 5 58.13                             114    0.94 7  278 256 
 HEL  HN ES        3 6 28.33                             114   -0.73 7  278 256 
 HEL  HZ I         3 6 35.32         6.5 0.32                           278 256 
 URE  HZ EP   4    3 6  0.48                             113    2.53 0  289 291 
 URE  HN ES   4    3 6 27.51                             113   -2.91 0  289 291 
 URE  HZ I         3 6 30.17        15.8 0.12                           289 291 
 SOCV BZ EP        3 5 58.90                             112    0.19 7  296  56 
 SOCV BN ES        3 6 30.64                             112   -1.12 7  296  56 
 GUY2CHZ EP        3 6  1.86                             112    1.32 7  307 235 
 GUY2CHN ES   4    3 6 37.40                             112    2.38 0  307 235 
 GUY2CHZ I         3 6 44.01         5.3 0.72                           307 235 
 PTGC HZ EP        3 5 59.32                             111   -0.70 7  308 160 
 PTGC HN ES   4    3 6 32.26                             111   -1.84 0  308 160 
 LL6C HZ EP        3 6  0.81                             110   -1.11 7  324 357 
 LL6C HN ES   4    3 6 35.99                             110   -1.48 0  324 357 
 CBOC HZ EP        3 6  4.20                             109    0.29 7  340 252 
 CBOC HZ I         3 6 34.11         2.6 0.12                           340 252 
 CBOC HE ES        3 6 40.72                             109   -0.31 7  340 252 
 PRA  HZ EP        3 6 10.76                             106    0.47 6  396 210 
 PRA  HN ES        3 6 53.26                             106    0.89 6  396 210 
 PRA  HZ I         3 6 56.78         5.5 0.26                           396 210 
 PAL  HZ EP        3 6 11.71                             105   -0.43 6  411 239 
 PAL  HN ES        3 6 56.53                             105    0.86 6  411 239 
 PAL  HZ I         3 6 59.58         2.4 0.50                           411 239 
 SJC  HZ EP   9    3 6 10.40                             105   -1.76 0  412 326 
 SJC  HN ES        3 6 53.34                                   -0.61 6  412 326 
 CRJC HZ EP   4    3 6 16.84                             103   -1.80 0  466   3 
 CRJC HN ES   4    3 7  1.95                             103   -5.30 0  466   3 
                                                                                
