 2010 1224 0507 35.9 L   6.330 -73.625106.2  RSN  4 0.4 1.4LRSN                1
 GAP=153        0.97       9.4     6.2 14.3 -0.1737E+02  0.6074E+02 -0.1085E+02E
 Epicentro: SANTA HELENA DEL OPON - SANTANDER                                  3
 ACTION:UP  11-01-14 15:26 OP:pat  STATUS:               ID:20101224050735 L   I
 2010-12-24-0500-00M.COL___132                                                 6
 STAT SP IPHASW D HRMM SECON CODA AMPLIT PERI AZIMU VELO SNR AR TRES W  DIS CAZ7
 BAR2 SZ EP        5 7 52.38                             152     0.110   57  59 
 BAR2 SZ ES   1    5 8  5.31                             152     0.2 7   57  59 
 BAR2 SZ I         5 8  6.61        18.4 0.34                            57  59 
 RUS  HZ EP   1    5 7 53.62                             145    -0.5 7   77 129 
 RUS  HN ES   1    5 8  8.12                             145    -0.1 7   77 129 
 RUS  HZ I         5 8  9.53         2.4 0.08                            77 129 
 NOR  SZ EP   1    5 8  1.68                             119     0.1 7  162 239 
 NOR  SN ES   1    5 8 22.03                             119     0.5 7  162 239 
 HEL  HZ EP   1    5 8  7.98                             112     0.6 6  211 266 
 HEL  HN ES   1    5 8 31.01                                    -1.0 6  211 266 
 HEL  HZ I         5 8 39.13         2.3 0.56                           211 266 
                                                                                
