 2010 1024 0711  4.5 L   6.790 -73.102142.6  RSN  4 0.1 1.3LRSN                1
 GAP=164        0.36       4.2     8.4  8.7  0.1841E+02 -0.5541E+02 -0.2070E+02E
 Epicentro: LOS SANTOS - SANTANDER                                             3
 ACTION:UP  11-02-18 11:11 OP:tino STATUS:               ID:20101024071104 L   I
 2010-10-24-0707-03S.COL___125                                                 6
 STAT SP IPHASW D HRMM SECON CODA AMPLIT PERI AZIMU VELO SNR AR TRES W  DIS CAZ7
 BRR  HZ EP   1    711 25.46                             151    -0.1 7   76 298 
 BRR  HN ES   1    711 42.05                             151     0.1 7   76 298 
 BRR  HZ I         711 47.16         6.6 0.17                            76 298 
 RUS  HZ EP   2    711 27.98                             144     0.2 5   99 179 
 RUS  HN ES   2    711 45.89                             144    -0.1 5   99 179 
 RUS  HZ I         711 47.55         1.1 0.09                            99 179 
 GRA  SZ EP   1    711 29.47                             136     0.1 7  125  15 
 GRA  SZ I         711 51.22         3.0 0.17                           125  15 
 OCA  SZ EP   2    711 32.52                             129    -0.2 5  162 352 
 OCA  SZ I         711 59.07         4.3 0.38                           162 352 
                                                                                
