 2012  924 0752  7.9 L   6.753 -73.157138.9  RSN  5 0.4 1.5LRSN                1
 GAP=137        0.89       5.3     6.1 10.9  0.1603E+00  0.1402E+01 -0.4039E+01E
 Epicentro: LOS SANTOS - SANTANDER                                             3
 ACTION:UPD 12-10-22 14:20 OP:ep   STATUS:               ID:20120924075207 L   I
 2012-09-24-0750-00M.COL___221                                                 6
 STAT SP IPHASW D HRMM SECON CODA AMPLIT PERI AZIMU VELO AIN AR TRES W  DIS CAZ7
 BAR2 SZ EP   1    752 26.60                             172    0.02 7 17.9 189 
 BAR2 SZ I         752 44.05         8.2 0.42                          17.9 189 
 BRR  HZ EP        752 28.38                             151    0.0010 72.8 303 
 BRR  HN ES   1    752 45.17                             151    0.79 7 72.8 303 
 BRR  HN I         752 49.09        23.6 0.17                          72.8 303 
 BRR  HZ I         752 49.28         5.8 0.19                          72.8 303 
 PAM  SZ EP   1    752 29.47                             148   -0.21 7 82.3  38 
 PAM  SN ES   1    752 46.33                             148   -0.36 7 82.3  38 
 RUS  HZ EP   1    752 31.14                             144    0.55 7 95.5 175 
 RUS  HN ES        752 48.20                             144   -0.1010 95.5 175 
 RUS  HZ I         752 51.37         1.4 0.36                          95.5 175 
 PTB  HE ES   1    752 53.83                             131   -0.71 7  146 261 
                                                                                
