 2016  924 0211 10.9 L   6.771 -73.110139.6  RSN  9 0.3 1.6LRSN                1
 GAP=142        0.70       3.8     3.2  4.7 -0.2875E+01  0.3263E+01 -0.2574E+00E
 Epicentro: LOS SANTOS - SANTANDER                                             3
 ACTION:UPD 17-08-17 21:15 OP:lp   STATUS:               ID:20160924021110 L   I
 OLDACT:UP  16-09-24 16:08 OP:and  STATUS:               ID:20160924020742     3
 OLDACT:UP  16-09-24 16:00 OP:and  STATUS:               ID:20160924020742     3
 OLDACT:UP  16-09-24 15:59 OP:and  STATUS:               ID:20160924020742     3
 OLDACT:REG 16-09-24 12:11 OP:y    STATUS:               ID:20160924020742     3
 2016-09-24-0208-00M.COL___330                                                 6
 STAT SP IPHASW D HRMM SECON CODA AMPLIT PERI AZIMU VELO AIN AR TRES W  DIS CAZ7
 BAR2 EZ EP        211 29.58                             171   -0.1510 21.3 202 
 BAR2 EZ ES        211 43.89                             171   -0.5410 21.3 202 
 BAR2 EZ I         211 45.35        10.4 0.18            169           21.3 202 
 BRR  HZ EP        211 31.44                             150   -0.2310 76.2 299 
 BRR  HN ES        211 48.30                             150    0.4210 76.2 299 
 BRR  HZ I         211 49.96        11.1 0.16            148           76.2 299 
 PAM  EZ IP     C  211 32.59                             150    0.1310 77.5  36 
 PAM  EN ES        211 49.45                             150    0.1710 77.5  36 
 PAM  EZ I         211 50.87         4.6 0.18            152           77.5  36 
 RUS  HZ EP   3    211 34.61                             143    0.83 2 97.1 178 
 RUS  HN ES   2    211 52.21                             143    0.57 5 97.1 178 
 RUS  HZ I         211 52.90         2.2 0.21            143           97.1 178 
 PTB  HZ EP   9    211 36.61                             130   -1.05 0  151 260 
 PTB  HN ES        211 57.31                             130   -0.18 9  151 260 
 PTB  HZ I         211 59.28         6.2 0.14            129            151 260 
 SPBC HZ EP   2    211 38.93                             128    0.01 5  163 221 
 SPBC HE ES   2    212  1.43                             128    0.64 5  163 221 
 SPBC HZ I         212  4.95         6.0 0.11            127            163 221 
 OCA  HN ES   4    211 59.61                             127   -1.46 0  164 352 
 ZAR  HZ EP        211 43.21                             120   -0.24 8  209 293 
 ZAR  HN ES        212  8.80                             120   -0.04 8  209 293 
 ZAR  HZ I         212 14.43         7.0 0.28            120            209 293 
 NOR  HE ES        212 14.24                             117    0.12 8  236 236 
 NOR  HZ I         212 18.47         3.8 0.16            117            236 236 
 GUY2CHZ EP   4    211 56.98                             111    2.61 0  303 236 
 GUY2CHE ES   4    212 31.40                             111    3.11 0  303 236 
 GUY2CHZ I         212 34.91         2.9 0.22                           303 236 
                                                                                
