 2016 1124 0952 57.3 L   6.788 -73.145150.3  RSN  6 0.4 1.6LRSN                1
 GAP=152        1.01       6.5     4.8  6.8 -0.1014E+02  0.8782E+01  0.5294E+01E
 Epicentro: LOS SANTOS - SANTANDER                                             3
 ACTION:UPD 17-10-26 21:11 OP:lp   STATUS:               ID:20161124095257 L   I
 OLDACT:UP  16-11-24 17:27 OP:dani STATUS:               ID:20161124094741     3
 OLDACT:UP  16-11-24 17:26 OP:dani STATUS:               ID:20161124094741     3
 OLDACT:REG 16-11-24 13:13 OP:dani STATUS:               ID:20161124094741     3
 2016-11-24-0948-00M.COL___349                                                 6
 STAT SP IPHASW D HRMM SECON CODA AMPLIT PERI AZIMU VELO AIN AR TRES W  DIS CAZ7
 BAR2 EZ EP        953 17.64                             171    0.1610 22.1 191 
 BAR2 EZ ES        953 32.73                             171   -0.4710 22.1 191 
 BAR2 EZ I         953 35.32         9.1 0.20            170           22.1 191 
 BRR  HZ EP        953 19.08                             153    0.0710 71.9 299 
 BRR  HN ES        953 36.09                             153    0.1710 71.9 299 
 BRR  HZ I         953 37.83         9.2 0.42            152           71.9 299 
 PAM  EZ EP        953 20.57                             151    0.4910 78.3  39 
 PAM  EE ES        953 37.81                             151   -0.0210 78.3  39 
 PAM  EZ I         953 40.01         8.1 0.49            155           78.3  39 
 PTB  HZ EP        953 24.50                             133   -0.16 9  148 259 
 PTB  HN ES        953 45.67                             133   -0.30 9  148 259 
 PTB  HZ I         953 47.94         4.4 0.14            133            148 259 
 ZAR  HZ EP        953 29.29                             123   -0.84 9  205 292 
 ZAR  HN ES        953 56.06                             123    0.34 9  205 292 
 ZAR  HZ I         954  1.32         4.1 0.13            124            205 292 
 NOR  HZ EP        953 33.00                             119   -0.25 8  234 235 
 NOR  HN ES        954  2.06                             119    0.79 8  234 235 
 NOR  HZ I         954  9.49         3.1 0.10            120            234 235 
                                                                                
