 2010  924 0233 34.2 L   6.791 -73.038148.2  RSN  9 0.3 2.5LRSN                1
 GAP=194        0.58       2.9     6.4  4.9  0.1112E+01  0.2766E+01  0.1233E+01E
 Epicentro: CEPITA - SANTANDER                                                 3
 ACTION:UP  11-02-18 11:05 OP:tino STATUS:               ID:20100924023334 L   I
 2010-09-24-0230-36S.COL___119                                                 6
 STAT SP IPHASW D HRMM SECON CODA AMPLIT PERI AZIMU VELO SNR AR TRES W  DIS CAZ7
 BAR2 SZ EP        233 54.33                             169     0.110   27 216 
 BAR2 SZ ES   2    234  9.71                             169    -0.1 5   27 216 
 BAR2 SZ I         234 11.16        72.7 0.54                            27 216 
 BRR  HZ IP     C  233 56.20                             149    -0.110   82 295 
 BRR  HZ I         233 56.47       122.1 0.17                            82 295 
 BRR  HE ES   1    234 13.65                             149     0.1 7   82 295 
 RUS  HZ EP        233 58.17                             145     0.010   99 183 
 RUS  HE ES   1    234 16.88                             145     0.1 7   99 183 
 RUS  HZ I         234 18.19        28.4 0.30                            99 183 
 OCA  SZ EP        234  2.72                             130    -0.3 9  163 349 
 OCA  SZ ES   2    234 25.87                             130     0.4 5  163 349 
 OCA  SZ I         234 30.93        36.8 0.26                           163 349 
 NOR  SZ EP   2    234 10.63                             118    -0.5 4  244 236 
 CHI  HZ EP   1    234 12.10                             117    -0.2 6  251 198 
 CHI  HE ES   2    234 41.72                             117    -0.3 4  251 198 
 CHI  HZ I         234 49.44        10.3 0.26                           251 198 
 ROSC BZ EP   2    234 13.35                             117     0.3 4  258 213 
 ROSC BZ I         234 52.46        19.1 0.48                           258 213 
 RREF HZ EP   1    234 22.16                             111     0.7 5  330 231 
 RREF HE ES   2    234 57.55                             111    -0.7 3  330 231 
 RREF HZ I         235  2.76        14.0 0.30                           330 231 
 TOL  SZ EP   1    234 23.74                             109     0.3 5  351 226 
                                                                                
