 2013  324 0828 15.3 L   6.835 -73.134145.1  RSN  6 0.5 1.8LRSN                1
 GAP=136        1.19       5.0     5.8  9.7 -0.2413E+01  0.2393E+02 -0.7856E+01E
 Epicentro: LOS SANTOS - SANTANDER                                             3
 ACTION:UPD 13-04-09 14:04 OP:ep   STATUS:               ID:20130324082815 L   I
 2013-03-24-0820-00M.COL___245                                                 6
 STAT SP IPHASW D HRMM SECON CODA AMPLIT PERI AZIMU VELO AIN AR TRES W  DIS CAZ7
 BAR2 SZ EP   1    828 34.80                             169   -0.09 7 27.4 191 
 BAR2 SZ ES        828 50.55                             169    0.3410 27.4 191 
 BAR2 SZ I         828 51.89        10.9 0.31            168           27.4 191 
 PAM  SZ EP        828 37.37                             152    0.2010 73.6  41 
 PAM  SE ES        828 54.26                             152   -0.0110 73.6  41 
 PAM  SE I         828 54.54        14.1 0.26            155           73.6  41 
 RUS  HZ EP   1    828 38.73                             143   -0.49 7  104 177 
 RUS  HN ES        828 58.00                             143    0.0910  104 177 
 PTB  HZ EP        828 41.59                             131   -0.76 9  150 257 
 PTB  HN ES        829  3.23                             131   -0.25 9  150 257 
 PTB  HN I         829  7.35        10.2 0.20            132            150 257 
 OCA  HN ES        829  4.45                             130   -0.48 9  157 353 
 ZAR  HZ EP        828 48.86                             122    1.24 9  204 291 
 ZAR  HN ES        829 12.97                             122    0.10 9  204 291 
                                                                                
