 2017  624 0655  7.6 L   6.753 -73.125150.8  RSN  4 0.3 1.4LRSN                1
 GAP=258        0.78       9.0     5.8  6.2  0.2018E+02  0.6771E+01 -0.5287E+01E
 Epicentro: LOS SANTOS - SANTANDER                                             3
 ACTION:UPD 17-09-14 16:54 OP:jn   STATUS:               ID:20170624065508 L   I
 OLDACT:UP  17-07-06 20:30 OP:nlst STATUS:               ID:20170624065508 L   3
 OLDACT:REG 17-06-24 13:44 OP:lv   STATUS:               ID:20170624064739     3
 2017-06-24-0648-00M.COL___374                                                 6
 STAT SP IPHASW D HRMM SECON CODA AMPLIT PERI AZIMU VELO AIN AR TRES W  DIS CAZ7
 BAR2 EZ EP        655 28.07                             173    0.2610 18.9 200 
 BAR2 EZ ES        655 43.51                             173   -0.0310 18.9 200 
 BAR2 EZ I         655 45.24         2.5 0.17            167           18.9 200 
 BRR  HZ EP        655 29.62                             152    0.0210 75.7 301 
 BRR  HE ES        655 46.54                             152   -0.1910 75.7 301 
 PTB  HZ EP        655 35.34                             133    0.18 9  149 261 
 PTB  HN ES        655 56.42                             133   -0.19 9  149 261 
 PTB  HZ I         655 59.83         7.5 0.04            132            149 261 
 ZAR  HZ EP        655 40.23                             123   -0.62 8  208 293 
 ZAR  HE ES        656  7.29                             123    0.55 8  208 293 
                                                                                
