 2016 1024 0735 45.3 L   6.767 -73.131150.2  RSN  5 0.3 1.2LRSN                1
 GAP=140        0.85       4.1     4.4  6.8 -0.4858E+01  0.2283E+01  0.4641E+01E
 Epicentro: LOS SANTOS - SANTANDER                                             3
 ACTION:UPD 16-11-09 19:22 OP:rebc STATUS:               ID:20161024073545 L   I
 OLDACT:REG 16-10-24 13:57 OP:cara STATUS:               ID:20161024072743     3
 2016-10-24-0728-00M.COL___356                                                 6
 STAT SP IPHASW D HRMM SECON CODA AMPLIT PERI AZIMU VELO AIN AR TRES W  DIS CAZ7
 BRR  HZ EP        736  7.33                             152    0.1710 74.4 300 
 BRR  HN ES        736 24.56                             152    0.3910 74.4 300 
 PAM  EZ EP        736  8.36                             151    0.2210 79.2  37 
 PAM  EN ES        736 25.67                             151   -0.2610 79.2  37 
 PAM  EZ I         736 31.25         1.7 0.42            153           79.2  37 
 RUS  HZ EP        736  9.38                             146    0.1010 96.8 177 
 RUS  HE ES        736 27.70                             146   -0.2410 96.8 177 
 RUS  HZ I         736 29.20         2.4 0.22            148           96.8 177 
 PTB  HZ EP        736 12.09                             133   -0.68 9  149 260 
 PTB  HE ES        736 33.85                             133   -0.31 9  149 260 
 PTB  HZ I         736 35.24         2.1 0.32            136            149 260 
 SPBC HZ EP        736 14.28                             130    0.25 9  161 220 
 SPBC HN ES        736 36.71                             130    0.31 9  161 220 
 SPBC HZ I         736 40.89         3.9 0.10            133            161 220 
                                                                                
