 2017  724 0632  2.1 L   6.830 -73.123145.7  RSN  7 0.4 1.3LRSN                1
 GAP=217        0.91       5.7     4.9  6.6  0.7111E+01 -0.1597E+00  0.5369E+01E
 Epicentro: LOS SANTOS - SANTANDER                                             3
 ACTION:UPD 17-08-30 15:36 OP:rebc STATUS:               ID:20170724063202 L   I
 OLDACT:UP  17-07-24 17:43 OP:and  STATUS:               ID:20170724062738d    3
 OLDACT:UP  17-07-24 17:42 OP:and  STATUS:               ID:20170724062738d    3
 OLDACT:DUP 17-07-24 17:41 OP:and  STATUS:               ID:20170724062738d    3
 OLDACT:UP  17-07-24 17:35 OP:and  STATUS:               ID:20170724062737     3
 OLDACT:REG 17-07-24 13:02 OP:and  STATUS:               ID:20170724062737     3
 2017-07-24-0628-00M.COL___380                                                 6
 STAT SP IPHASW D HRMM SECON CODA AMPLIT PERI AZIMU VELO AIN AR TRES W  DIS CAZ7
 BAR2 EZ EP        632 21.61                             169   -0.1710 27.2 194 
 BAR2 EZ ES        632 36.46                             169   -0.6910 27.2 194 
 BAR2 EZ I         632 39.16         5.3 0.42            165           27.2 194 
 BRR  HZ EP        632 23.49                             152    0.2310 71.9 295 
 BRR  HN ES        632 40.32                             152    0.5410 71.9 295 
 BRR  HZ I         632 41.07         4.3 0.12            153           71.9 295 
 RUS  HZ EP        632 26.13                             143    0.0710  104 178 
 RUS  HN ES        632 45.20                             143    0.4410  104 178 
 RUS  HZ I         632 47.05         2.4 0.26            142            104 178 
 PTB  HZ EP        632 28.91                             131   -0.42 9  151 258 
 PTB  HN ES        632 50.38                             131   -0.20 9  151 258 
 PTB  HZ I         632 52.18         1.4 0.14            132            151 258 
 SPBC HN ES   2    632 53.42                             128   -0.09 5  167 219 
 SPBC HZ I         632 58.82         4.2 0.24            128            167 219 
 YPLC HZ EP        632 32.09                             126    0.05 9  179 153 
 NOR  HN ES        633  6.58                             118    0.14 8  239 234 
                                                                                
