 2017  124 0139 11.4 L   6.756 -73.117144.3  RSN  4 0.3 1.0LRSN                1
 GAP=142        0.82       4.4     4.3  7.3 -0.2099E+01  0.3269E+01  0.4005E+01E
 Epicentro: LOS SANTOS - SANTANDER                                             3
 ACTION:UPD 17-05-22 16:02 OP:jn   STATUS:               ID:20170124013911 L   I
 OLDACT:REG 17-01-24 12:42 OP:lv   STATUS:               ID:20170124013745     3
 2017-01-24-0138-00M.COL___345                                                 6
 STAT SP IPHASW D HRMM SECON CODA AMPLIT PERI AZIMU VELO AIN AR TRES W  DIS CAZ7
 BRR  HZ EP        139 32.97                             150    0.2410 76.4 301 
 BRR  HE ES        139 49.78                             150    0.4410 76.4 301 
 PAM  EZ EP        139 33.84                             150    0.2210 79.3  36 
 PAM  EN ES        139 50.44                             150   -0.4710 79.3  36 
 PAM  EZ I         139 52.98         1.5 0.23            151           79.3  36 
 RUS  HZ EP        139 34.78                             145    0.0910 95.5 178 
 RUS  HE ES        139 52.87                             145    0.0610 95.5 178 
 RUS  HZ I         139 54.03         1.3 0.19            146           95.5 178 
 PTB  HZ EP        139 38.14                             131   -0.35 9  150 261 
 PTB  HE ES        139 59.27                             131   -0.32 9  150 261 
 PTB  HZ I         140  1.23         2.0 0.14            133            150 261 
                                                                                
