 2012  924 0821 31.6 L   6.777 -73.130142.5  RSN  5 0.2 1.6LRSN                1
 GAP=140        0.40       3.7     3.2  5.5 -0.1550E+01 -0.1865E+01  0.6959E+00E
 Epicentro: LOS SANTOS - SANTANDER                                             3
 ACTION:UPD 12-10-22 14:20 OP:ep   STATUS:               ID:20120924082131 L   I
 2012-09-24-0820-00M.COL___221                                                 6
 STAT SP IPHASW D HRMM SECON CODA AMPLIT PERI AZIMU VELO AIN AR TRES W  DIS CAZ7
 BAR2 SZ EP   1    821 50.62                             171   -0.15 7 21.2 196 
 BAR2 SZ ES   2    822  5.31                             171   -0.44 5 21.2 196 
 BAR2 SZ I         822  7.09        16.6 0.23                          21.2 196 
 BRR  HZ EP   1    821 52.58                             151    0.05 7 74.0 300 
 BRR  HZ I         821 54.03        10.7 0.08                          74.0 300 
 BRR  HN ES   2    822  8.95                             151    0.06 5 74.0 300 
 PAM  SZ EP   1    821 53.61                             150    0.11 7 78.3  37 
 PAM  SN ES   2    822 10.68                             150    0.08 5 78.3  37 
 PAM  SZ I         822 12.64         3.2 0.54                          78.3  37 
 RUS  HZ EP   1    821 54.68                             144   -0.13 7 97.9 177 
 RUS  HN ES   2    822 13.39                             144    0.45 5 97.9 177 
 RUS  HZ I         822 14.47         4.3 0.15                          97.9 177 
 PTB  HN ES   1    822 19.37                             131    0.06 7  149 260 
                                                                                
