 2012 1224 0805 56.0 L   5.953 -73.792108.3  RSN 18 0.4 2.3LRSN                1
 GAP= 82        0.84       1.9     2.4  6.0 -0.1161E+01  0.2537E+01  0.5610E+00E
 Epicentro: GUAVATA - SANTANDER                                                3
 ACTION:UPD 13-01-04 14:30 OP:ep   STATUS:               ID:20121224080556 L   I
 2012-12-24-0800-00M.COL___243                                                 6
 STAT SP IPHASW D HRMM SECON CODA AMPLIT PERI AZIMU VELO AIN AR TRES W  DIS CAZ7
 RUS  HZ IP     D  8 6 14.42                             141   -0.0510 78.8  95 
 RUS  HN ES   1    8 6 28.40                             141   -0.50 7 78.8  95 
 RUS  HZ I         8 6 30.29        35.6 0.24                          78.8  95 
 BAR2 SZ IP        8 6 15.98                             135    0.3210 97.7  44 
 BAR2 SZ ES   1    8 6 31.71                             135    0.69 7 97.7  44 
 PTB  HZ IP     D  8 6 14.42                             134   -0.9610 98.0 311 
 PTB  HN ES   1    8 6 30.71                             134    0.18 7 98.0 311 
 PTB  HZ I         8 6 33.92        29.2 0.14                          98.0 311 
 BRR  HZ IP     D  8 6 18.15                             126    0.0010  128   4 
 BRR  HE ES   1    8 6 35.73                             126    0.27 7  128   4 
 BRR  HZ I         8 6 39.34        61.8 0.34                           128   4 
 ROSC BZ EP   1    8 6 19.86                             125    0.37 7  136 205 
 ROSC BN ES   1    8 6 38.10                             125    0.25 7  136 205 
 ROSC BZ I         8 6 46.25        31.7 0.35                           136 205 
 GIR2 SZ EP     C  8 6 20.02                             123    0.37 9  141  28 
 GIR2 SZ ES   1    8 6 38.38                             123    0.26 7  141  28 
 GIR2 SZ I         8 6 39.60        46.9 0.28                           141  28 
 CHI  HZ EP     C  8 6 20.23                             122   -0.33 9  146 177 
 CHI  HN ES   1    8 6 39.09                             122   -0.66 7  146 177 
 CHI  HZ I         8 6 43.45        13.9 0.34                           146 177 
 CVER SZ EP   1    8 6 22.93                             119    0.73 7  161 191 
 HEL  HZ EP   1    8 6 25.94                             114    0.32 6  194 278 
 HEL  HN ES   1    8 6 48.53                             114   -0.22 6  194 278 
 HEL  HZ I         8 6 54.20        15.8 0.54                           194 278 
 VIL  SZ EP   1    8 6 26.23                             113   -0.19 6  204 177 
 VIL  SE ES   1    8 6 49.82                             113   -0.35 6  204 177 
 VIL  SZ I         8 6 55.93        23.8 0.40                           204 177 
 ZAR  HZ EP   1    8 6 26.62                             112    0.00 6  207 325 
 ZAR  HN ES   1    8 6 49.98                             112   -0.55 6  207 325 
 ZAR  HZ I         8 6 53.20        25.8 0.32                           207 325 
 RREF HZ EP   1    8 6 27.56                             113    0.05 6  208 236 
 RREF HN ES   1    8 6 52.14                             113    0.02 6  208 236 
 RREF HZ I         8 6 58.10        29.1 0.26                           208 236 
 TOL  SZ EP   1    8 6 29.62                             110    0.31 6  227 228 
 TOL  SZ ES   1    8 6 55.26                             110   -0.06 6  227 228 
 TOL  SZ I         8 7  1.64        11.1 0.50                           227 228 
 TAM  HZ EP     D  8 6 29.00                             110   -0.02 8  228  76 
 TAM  HN ES   1    8 6 54.75                             110   -0.06 6  228  76 
 TAM  HZ I         8 6 58.54        10.2 0.24                           228  76 
 ANIL HZ EP   1    8 6 31.03                             109    0.19 6  241 228 
 ANIL HN ES   1    8 6 58.83                             109    0.78 6  241 228 
 ANIL HZ I         8 7  2.68        19.0 0.36                           241 228 
 OCA  HZ EP   1    8 6 32.92                             107    0.25 6  258  12 
 OCA  HN ES   1    8 7  1.19                             107   -0.12 6  258  12 
 OCA  HZ I         8 7  8.99        24.1 0.52                           258  12 
 SML  HZ EP   1    8 6 38.60                             103   -0.75 5  316 354 
 SML  HE ES   1    8 7 13.06                             103   -0.14 5  316 354 
 SML  HZ I         8 7 22.13        33.9 0.10                           316 354 
 MON  HZ EP   4    8 6 44.33                             100   -1.99 0  375 327 
 MON  HN ES   4    8 7 24.04                             100   -1.55 0  375 327 
 MON  HZ I         8 7 25.44         3.2 0.36                           375 327 
                                                                                
