 2014  624 0506  6.8 L   6.797 -73.176141.0  RSN 10 0.5 1.6LRSN                1
 GAP=198        1.16       4.1     5.7  7.0  0.3710E+01  0.8335E+01  0.9443E+00E
 Epicentro: LOS SANTOS - SANTANDER                                             3
 ACTION:UPD 14-07-01 22:56 OP:nd   STATUS:               ID:20140624050606 L   I
 OLDACT:REG 14-06-24 12:57 OP:spq  STATUS:               ID:20140624045807     3
 2014-06-24-0458-07M.COL___262                                                 6
 STAT SP IPHASW D HRMM SECON CODA AMPLIT PERI AZIMU VELO AIN AR TRES W  DIS CAZ7
 BAR2 SZ EP        5 6 25.35                             170   -0.5310 22.7 182 
 BAR2 SZ ES        5 6 40.03                             170   -0.7110 22.7 182 
 BAR2 SZ I         5 6 42.31        13.7 0.30            169           22.7 182 
 BRR  HZ IP     D  5 6 27.91                             153    0.5910 68.4 300 
 BRR  HE ES        5 6 44.16                             153    0.8710 68.4 300 
 BRR  HZ I         5 6 48.37         6.2 0.30            148           68.4 300 
 RUS  HZ EP        5 6 30.33                             143    0.2110  101 174 
 RUS  HN ES   1    5 6 48.21                             143   -0.08 7  101 174 
 RUS  HZ I         5 6 49.77         3.6 0.24            145            101 174 
 PTB  HZ EP        5 6 32.89                             132   -0.23 9  144 259 
 PTB  HN ES        5 6 53.23                             132   -0.38 9  144 259 
 PTB  HZ I         5 6 55.92         3.9 0.12            130            144 259 
 SPBC HZ EP        5 6 35.41                             128    0.66 9  161 218 
 SPBC HN ES        5 6 57.15                             128    0.62 9  161 218 
 SPBC HZ I         5 6 59.77         4.8 0.24            128            161 218 
 ZAR  HZ EP        5 6 38.71                             122    0.04 9  201 293 
 ZAR  HE ES        5 7  3.43                             122   -0.06 9  201 293 
 ZAR  HZ I         5 7 14.75         3.9 0.30            121            201 293 
 SML  HZ EP   1    5 6 42.94                             117   -0.14 6  243 336 
 SML  HN ES        5 7 10.91                             117   -0.44 8  243 336 
 SML  HZ I         5 7 15.18         5.0 0.11            117            243 336 
 HEL  HN ES   1    5 7 16.73                             114   -0.60 6  269 256 
 HEL  HZ I         5 7 24.43         1.5 0.32            114            269 256 
 GUY2CHN ES   1    5 7 22.93                             112   -0.56 5  298 234 
 GUY2CHZ I         5 7 34.76         1.4 0.34                           298 234 
 PRA  HZ EP        5 6 59.96                             106   -0.01 6  390 209 
 PRA  HN ES        5 7 40.79                             106   -0.63 6  390 209 
 PRA  HZ I         5 7 46.78         1.3 0.26            107            390 209 
                                                                                
