 2011  724 0423 38.4 L   6.826 -73.053151.9  RSN  5 0.5 1.7LRSN                1
 GAP=192        0.76       5.6     7.2  8.5  0.7840E+01  0.1482E+02 -0.4368E+01E
 Epicentro: LOS SANTOS - SANTANDER                                             3
 ACTION:UPD 12-07-25 14:02 OP:epov STATUS:               ID:20110724042338 L   I
 2011-07-24-0421-02S.COL___143                                                 6
 STAT SP IPHASW D HRMM SECON CODA AMPLIT PERI AZIMU VELO AIN AR TRES W  DIS CAZ7
 BRR  HZ EP   1    424  1.30                             151    0.63 8 79.2 293 
 BRR  HE ES   1    424 17.99                             151   -0.05 8 79.2 293 
 BRR  HZ I         424 21.65         8.9 0.10                          79.2 293 
 RUS  HZ EP   1    424  3.16                             144    0.20 7  103 182 
 RUS  HN ES        424 22.03                             144   -0.0710  103 182 
 RUS  HZ I         424 22.71         3.7 0.30                           103 182 
 OCA  SZ EP   2    424  6.19                             131   -0.89 5  159 349 
 OCA  SZ I         424 36.10         8.1 0.26                           159 349 
 NOR  SZ EP   1    424 15.59                             119    0.02 6  245 235 
 NOR  SN ES   1    424 43.80                             119   -0.76 6  245 235 
 HEL  HZ EP   2    424 19.99                             115   -0.12 4  283 256 
 HEL  HE ES   2    424 53.36                             115    0.72 4  283 256 
 HEL  HZ I         425  1.55         2.7 0.26                           283 256 
                                                                                
