 2013  624 0501 19.6 L   6.806 -73.147150.0  RSN  5 0.4 1.5LRSN                1
 GAP=183        1.02       5.6     7.1  8.2  0.1165E+02  0.3279E+01 -0.9951E+00E
 Epicentro: LOS SANTOS - SANTANDER                                             3
 ACTION:UPD 14-01-08 09:56 OP:ep   STATUS:               ID:20130624050119 L   I
 OLDACT:REG 13-06-24 07:07 OP:jn   STATUS:               ID:20130624045959     3
 2013-06-24-0459-59M.COL___267                                                 6
 STAT SP IPHASW D HRMM SECON CODA AMPLIT PERI AZIMU VELO AIN AR TRES W  DIS CAZ7
 BAR2 SZ EP        5 1 39.79                             171    0.0410 23.9 189 
 BAR2 SZ ES        5 1 55.25                             171   -0.2210 23.9 189 
 BAR2 SZ I         5 1 57.69         6.2 0.54            171           23.9 189 
 BRR  HZ EP     D  5 1 41.69                             153    0.5010 70.7 298 
 BRR  HN ES        5 1 58.66                             153    0.6410 70.7 298 
 BRR  HZ I         5 2  2.14         7.2 0.30            154           70.7 298 
 RUS  HZ EP        5 1 43.89                             144    0.0710  101 176 
 RUS  HN ES        5 2  2.58                             144   -0.1310  101 176 
 RUS  HZ I         5 2  3.51         3.7 0.31            148            101 176 
 PTB  HZ EP        5 1 46.83                             133   -0.08 9  148 259 
 PTB  HN ES        5 2  7.74                             133   -0.48 9  148 259 
 PTB  HZ I         5 2 10.10         4.5 0.27            135            148 259 
 OCA  HE ES   1    5 2  9.59                             131   -0.89 7  160 353 
                                                                                
