 2012  524 0109 16.1 L   6.765 -73.170146.4  RSN  4 0.1 1.5LRSN                1
 GAP=139        0.37       3.9     3.0  4.4  0.5879E+00  0.2416E+00 -0.5123E+01E
 Epicentro: LOS SANTOS - SANTANDER                                             3
 ACTION:UP  12-07-05 12:07 OP:pat  STATUS:               ID:20120524010916 L   I
 2012-05-24-0104-47M.COL___188                                                 6
 STAT SP IPHASW D HRMM SECON CODA AMPLIT PERI AZIMU VELO SNR AR TRES W  DIS CAZ7
 BAR2 SZ EP   1    1 9 35.60                             172    -0.1 7   19 184 
 BAR2 SZ ES   1    1 9 51.14                             172     0.1 7   19 184 
 BAR2 SZ I         1 9 53.62         9.4 0.26                            19 184 
 PAM  SZ EP   1    1 9 38.53                             149    -0.1 7   82  39 
 RUS  HZ EP        1 9 39.69                             145     0.110   97 174 
 RUS  HN ES   1    1 9 57.85                             145    -0.1 7   97 174 
 RUS  HZ I         110  1.37         4.4 0.29                            97 174 
 PTB  HZ EP   1    1 9 42.87                             133     0.1 7  144 260 
 PTB  HN ES   1    110  3.51                             133    -0.1 7  144 260 
 PTB  HZ I         110 11.39         4.9 0.30                           144 260 
                                                                                
