 2012  924 0639 23.2 L   6.784 -73.118148.1  RSN 11 0.4 2.2LRSN                1
 GAP= 73        0.80       3.9     3.3  6.1 -0.7701E+00  0.6163E+01  0.3353E+01E
 Epicentro: LOS SANTOS - SANTANDER                                             3
 ACTION:UPD 12-10-22 14:20 OP:ep   STATUS:               ID:20120924063923 L   I
 2012-09-24-0637-41M.COL___204                                                 6
 STAT SP IPHASW D HRMM SECON CODA AMPLIT PERI AZIMU VELO AIN AR TRES W  DIS CAZ7
 BAR2 SZ EP        639 42.96                             171   -0.1510 22.4 199 
 BAR2 SZ ES   1    639 58.83                             171    0.20 7 22.4 199 
 BAR2 SZ I         640  2.34        28.6 0.14                          22.4 199 
 GIR2 SZ EP        639 43.00                             167   -0.2310 33.6 346 
 GIR2 SZ ES   1    639 59.26                             167    0.42 7 33.6 346 
 BRR  HZ IP     D  639 44.80                             152   -0.0210 74.7 299 
 BRR  HN ES   1    640  2.32                             152    0.65 7 74.7 299 
 BRR  HZ I         640  5.82        34.9 0.28                          74.7 299 
 PAM  SZ EP   1    639 45.69                             151    0.04 7 76.8  37 
 PAM  SN ES   1    640  2.88                             151   -0.27 7 76.8  37 
 RUS  HZ EP   1    639 46.86                             145   -0.21 7 98.7 178 
 RUS  HN ES   1    640  5.17                             145   -0.50 7 98.7 178 
 PTB  HN ES   1    640 11.04                             132   -0.96 7  150 260 
 TAM  HN ES   1    640 12.70                             132    0.44 7  152 105 
 ZAR  HZ EP   1    639 55.91                             122   -0.27 6  208 292 
 ZAR  HE ES   1    640 21.77                             122   -0.11 6  208 292 
 NOR  SN ES        640 27.67                             119    0.32 8  236 235 
 CHI  HN ES   1    640 30.61                             118    0.22 6  248 196 
 CHI  HN I         640 35.05        12.4 0.46                           248 196 
 HEL  HZ EP   1    640  4.61                             115    0.78 6  275 256 
 HEL  HN ES   1    640 35.80                             115    0.28 6  275 256 
 HEL  HN I         640 42.15         9.4 0.44                           275 256 
 HEL  HZ I         640 43.14         8.2 0.24                           275 256 
                                                                                
