 2010 1124 0350 20.0 L   6.805 -73.062140.7  RSN  8 0.4 1.7LRSN                1
 GAP=168        0.75       3.7     6.7  5.7 -0.2140E+01 -0.4894E+01  0.4266E+01E
 Epicentro: LOS SANTOS - SANTANDER                                             3
 ACTION:UP  10-12-17 16:54 OP:REBC STATUS:               ID:20101124035020 L   I
 2010-11-24-0347-00S.COL___129                                                 6
 STAT SP IPHASW D HRMM SECON CODA AMPLIT PERI AZIMU VELO SNR AR TRES W  DIS CAZ7
 BAR2 SZ EP        350 39.06                             169     0.010   27 210 
 BAR2 SZ ES   1    350 53.57                             169    -0.4 7   27 210 
 BAR2 SZ I         350 55.38        15.2 0.29                            27 210 
 BRR  HZ EP   1    350 40.79                             149    -0.3 7   79 295 
 BRR  HE ES        350 57.63                             149     0.110   79 295 
 BRR  HZ I         350 58.55         9.6 0.12                            79 295 
 RUS  HZ EP        350 43.06                             143    -0.210  101 181 
 RUS  HE ES   1    351  1.78                             143     0.4 7  101 181 
 RUS  HZ I         351  3.05         4.0 0.39                           101 181 
 GRA  SZ EP        350 44.79                             136     0.310  123  13 
 GRA  SZ ES   2    351  3.33                             136    -0.3 5  123  13 
 GRA  SZ I         351 10.10         4.3 0.24                           123  13 
 CHI  HZ EP   1    350 57.47                             116    -0.2 6  252 197 
 CHI  HE ES   2    351 27.96                             116     0.8 4  252 197 
 CHI  HZ I         351 33.88         3.5 0.52                           252 197 
 HEL  HZ EP   2    351  0.89                             113     0.0 4  281 256 
 HEL  HZ I         351 37.91         3.7 0.53                           281 256 
 RREF HZ EP   1    351  7.34                             109     0.6 5  329 230 
 RREF HZ I         351 53.12         4.1 0.12                           329 230 
 PRA  HZ EP   1    351 13.28                             105    -0.6 4  397 211 
 PRA  HN ES   2    351 55.31                             105    -0.7 3  397 211 
                                                                                
