 2016 1224 0451 37.1 L   6.794 -73.174138.1  RSN  6 0.5 1.4LRSN                1
 GAP=133        1.22       5.9     5.2  8.3  0.3217E+01  0.1149E+02 -0.1979E+01E
 Epicentro: LOS SANTOS - SANTANDER                                             3
 ACTION:UPD 17-01-11 20:18 OP:rebc STATUS:               ID:20161224045137 L   I
 OLDACT:REG 16-12-24 13:15 OP:cog  STATUS:               ID:20161224044745     3
 2016-12-24-0448-00M.COL___387                                                 6
 STAT SP IPHASW D HRMM SECON CODA AMPLIT PERI AZIMU VELO AIN AR TRES W  DIS CAZ7
 BAR2 EZ EP        451 55.77                             170   -0.0610 22.3 182 
 BAR2 EZ ES        452 10.59                             170    0.1910 22.3 182 
 BAR2 EZ I         452 13.40         8.7 0.24            170           22.3 182 
 BRR  HZ EP        451 57.66                             152    0.3310 68.8 300 
 BRR  HE ES        452 12.34                             152   -0.7310 68.8 300 
 BRR  HZ I         452 18.22         6.8 0.30            152           68.8 300 
 PAM  EZ EP        451 58.94                             148    0.2310 79.9  41 
 PAM  EE ES        452 15.44                             148   -0.0910 79.9  41 
 RUS  HZ EP        451 59.77                             142   -0.3410  100 174 
 RUS  HN ES        452 18.47                             142    0.4410  100 174 
 RUS  HZ I         452 19.73         5.4 0.30            145            100 174 
 PTB  HZ EP        452  2.17                             131   -1.03 9  145 259 
 PTB  HN ES        452 23.65                             131    0.13 9  145 259 
 PTB  HZ I         452 27.91         2.2 0.10            133            145 259 
 ZAR  HZ EP        452  9.30                             121    0.47 9  201 293 
 ZAR  HN ES        452 34.19                             121    0.65 9  201 293 
 GUY2CHZ EP   4    452 21.54                             111    1.47 0  298 235 
 GUY2CHE ES   4    452 50.69                             111   -2.86 0  298 235 
                                                                                
