 2016 1024 0106 53.2 L   6.773 -73.115141.5  RSN  4 0.2 1.3LRSN                1
 GAP=142        0.56       2.7     3.7  5.0 -0.3158E+01  0.6648E+00  0.2953E+01E
 Epicentro: LOS SANTOS - SANTANDER                                             3
 ACTION:UPD 16-11-09 19:22 OP:rebc STATUS:               ID:20161024010653 L   I
 OLDACT:REG 16-10-24 13:23 OP:cara STATUS:               ID:20161024005743     3
 2016-10-24-0058-00M.COL___359                                                 6
 STAT SP IPHASW D HRMM SECON CODA AMPLIT PERI AZIMU VELO AIN AR TRES W  DIS CAZ7
 BRR  HZ IP        1 7 13.93                             150   -0.2310 75.5 299 
 BRR  HE ES        1 7 30.55                             150    0.0510 75.5 299 
 BRR  HZ I         1 7 34.03         6.4 0.42            150           75.5 299 
 PAM  EZ EP        1 7 15.09                             150    0.0910 77.6  36 
 PAM  EN ES        1 7 32.03                             150    0.0410 77.6  36 
 PAM  EZ I         1 7 32.71         2.9 0.20            155           77.6  36 
 RUS  HZ EP        1 7 16.59                             144    0.2610 97.5 178 
 RUS  HE ES        1 7 34.10                             144   -0.2510 97.5 178 
 RUS  HZ I         1 7 36.28         1.3 0.54            146           97.5 178 
 SPBC HZ EP        1 7 21.17                             128   -0.21 9  163 221 
 SPBC HE ES        1 7 43.61                             128    0.26 9  163 221 
 SPBC HZ I         1 7 47.58         3.3 0.20            129            163 221 
                                                                                
