 2013  124 0050 46.1 L   7.316 -73.319120.0  RSN  5 0.4 1.6LRSN                1
 GAP=253        0.76      13.2     5.9  8.2  0.9533E+01 -0.1140E+02  0.3413E+02E
 Epicentro: RIONEGRO - SANTANDER                                               3
 ACTION:UPD 13-02-15 09:16 OP:ep   STATUS:               ID:20130124005046 L   I
 2013-01-24-0048-36M.COL___181                                                 6
 STAT SP IPHASW D HRMM SECON CODA AMPLIT PERI AZIMU VELO AIN AR TRES W  DIS CAZ7
 BRR  HN ES        051 16.59                             156   -0.0310 49.2 242 
 BRR  HN I         051 17.06        24.1 0.18            140           49.2 242 
 BAR2 SZ EP        051  5.53                             143   -0.0410 81.4 169 
 BAR2 SZ I         051  5.66         9.0 0.10            130           81.4 169 
 PTB  HZ EP        051 11.04                             124   -0.50 9  152 236 
 PTB  HN ES        051 31.51                             124    0.12 9  152 236 
 PTB  HE I         051 38.39         2.9 0.18            117            152 236 
 RUS  HZ EP   1    051 13.45                             123    0.54 7  160 171 
 ZAR  HN ES   2    051 35.51                             121    0.70 4  171 277 
                                                                                
