 2014  524 0725 16.9 L   6.790 -73.118152.0  RSN  9 0.4 1.7LRSN                1
 GAP=141        1.01       3.6     4.7  7.0  0.1002E+01  0.6541E+01 -0.3111E+01E
 Epicentro: LOS SANTOS - SANTANDER                                             3
 ACTION:UPD 15-03-16 17:00 OP:nd   STATUS:               ID:20140524072516 L   I
 OLDACT:REG 14-05-24 12:56 OP:ca   STATUS:               ID:20140524072000     3
 2014-05-24-0720-00M.COL___276                                                 6
 STAT SP IPHASW D HRMM SECON CODA AMPLIT PERI AZIMU VELO AIN AR TRES W  DIS CAZ7
 BAR2 SZ EP        725 37.25                             171    0.0010 23.0 198 
 BAR2 SZ ES   4    725 51.69                             171   -1.45 0 23.0 198 
 BAR2 SZ I         725 54.17         9.2 0.28            172           23.0 198 
 BRR  HZ EP        725 39.33                             153    0.4510 74.4 298 
 BRR  HE ES        725 56.05                             153    0.0110 74.4 298 
 BRR  HZ I         726  0.04         6.9 0.34            151           74.4 298 
 PAM  SZ EP        725 40.36                             152    0.6610 76.3  37 
 PAM  SN ES        725 57.14                             152   -0.3610 76.3  37 
 PAM  SZ I         725 59.08        11.8 0.60            154           76.3  37 
 RUS  HZ EP   1    725 41.74                             145    0.58 7 99.3 178 
 RUS  HN ES        725 59.97                             145   -0.1310 99.3 178 
 RUS  HZ I         726  0.71         4.6 0.38            149           99.3 178 
 PTB  HZ EP        725 43.98                             133   -0.63 9  151 259 
 PTB  HN ES        726  6.05                             133   -0.19 9  151 259 
 PTB  HZ I         726  7.26         3.7 0.28            134            151 259 
 ZAR  HZ EP   1    725 50.40                             123    0.34 6  207 292 
 ZAR  HE ES        726 16.60                             123    0.65 8  207 292 
 ZAR  HZ I         726 23.35         4.2 0.46            124            207 292 
 SML  HZ EP        725 53.60                             118   -0.50 8  246 335 
 SML  HE ES        726 22.82                             118   -0.32 8  246 335 
 SML  HZ I         726 25.63         6.0 0.10            120            246 335 
 CHI  HN ES        726 24.25                             118   -0.31 8  248 196 
 URE  HE ES   4    726 29.40                             114   -1.77 0  287 292 
 SJC  HZ EP        726 12.44                             106   -0.51 6  412 327 
 SJC  HE ES   4    726 53.05                             106   -3.64 0  412 327 
                                                                                
