 2013  324 0946 19.2 L   6.822 -73.153145.3  RSN 15 0.5 3.2LRSN 3.5WRSN        1
 SPEC AVERAGE  MO 14.4 ST 38.5 OM  2.8 f0 3.66 R0.6570 AL 2.20 WI 54.3 MW  3.5 3
 SPEC SD       MO  0.3 ST 58.5 OM  0.6 f0 1.81 R0.3559 AL      WI      MW  0.2 3
 GAP= 70        1.17       3.4     3.6  5.4  0.9487E+00  0.7240E+01  0.2794E+01E
 Epicentro: LOS SANTOS - SANTANDER                                             3
 SPEC TAM HH N MO 14.4 ST  6.5 OM  2.4 f0 3.28 R0.5549 AL 2.91 WI 46.5 MW  3.5 3
 SPEC TAM HH N T 947 7 K 0.050 GD  213 VS 5.20 DE 3.20 Q0750.0 QA 1.50 VS 5.20 3
 SPEC OCA HH N MO 14.9 ST 94.9 OM  2.9 f0 5.45 R0.3339 AL 2.38 WI 40.6 MW  3.9 3
 SPEC OCA HH N T 947 6 K 0.050 GD  214 VS 5.20 DE 3.20 Q0750.0 QA 1.50 VS 5.20 3
 SPEC PTB HH N MO 14.5 ST 31.1 OM  2.5 f0 5.17 R0.3520 AL 1.76 WI 45.9 MW  3.6 3
 SPEC PTB HH N T 947 4 K 0.050 GD  206 VS 5.20 DE 3.20 Q0750.0 QA 1.50 VS 5.20 3
 SPEC RUS HH N MO 14.3 ST0.562 OM  2.4 f0 1.54 R1.1818 AL 1.06 WI 41.2 MW  3.5 3
 SPEC RUS HH N T 947 0 K 0.050 GD  178 VS 5.20 DE 3.20 Q0750.0 QA 1.50 VS 5.20 3
 SPEC COD HH N MO 13.8 ST  1.1 OM  1.6 f0 2.77 R0.6570 AL 1.57 WI 76.5 MW  3.2 3
 SPEC COD HH N T 94743 K 0.050 GD  375 VS 5.20 DE 3.20 Q0750.0 QA 1.50 VS 5.20 3
 SPEC HEL HH N MO 14.2 ST  2.5 OM  2.0 f0 2.87 R0.6341 AL 1.62 WI 73.9 MW  3.4 3
 SPEC HEL HH N T 94729 K 0.050 GD  308 VS 5.20 DE 3.20 Q0750.0 QA 1.50 VS 5.20 3
 SPEC CHI HH N MO 14.2 ST0.367 OM  2.1 f0 1.43 R1.2727 AL 1.30 WI 83.2 MW  3.4 3
 SPEC CHI HH N T 94724 K 0.050 GD  290 VS 5.20 DE 3.20 Q0750.0 QA 1.50 VS 5.20 3
 SPEC BRR HH N MO 14.9 ST171.0 OM  3.0 f0 6.76 R0.2692 AL 5.03 WI 26.8 MW  3.9 3
 SPEC BRR HH N T 94656 K 0.050 GD  160 VS 5.20 DE 3.20 Q0750.0 QA 1.50 VS 5.20 3
 ACTION:UPD 13-04-09 14:04 OP:ep   STATUS:               ID:20130324094619 L   I
 2013-03-24-0940-00M.COL___245                                                 6
 STAT SP IPHASW D HRMM SECON CODA AMPLIT PERI AZIMU VELO AIN AR TRES W  DIS CAZ7
 BAR2 SZ IP        946 38.77                             170   -0.0610 25.7 187 
 BAR2 SZ ES        946 53.41                             170   -0.7210 25.7 187 
 BAR2 SZ I         946 55.09       331.8 0.50            169           25.7 187 
 GIR2 SZ IP     C  946 38.88                             168    0.1310 28.7 351 
 GIR2 SZ ES        946 54.32                             168    0.3210 28.7 351 
 GIR2 SZ I         946 55.76       149.9 0.44            166           28.7 351 
 BRR  HZ IP     C  946 40.68                             153    0.4810 69.3 297 
 BRR  HN ES        946 57.51                             153    0.9410 69.3 297 
 BRR  HN I         946 57.60       756.6 0.24            149           69.3 297 
 PAM  SZ IP     C  946 41.63                             151    0.3510 76.0  41 
 PAM  SN ES        946 58.60                             151    0.0910 76.0  41 
 PAM  SN I         946 59.51       186.4 0.24            151           76.0  41 
 RUS  HZ EP        946 42.68                             143   -0.4110  103 176 
 RUS  HN ES        947  1.11                             143   -0.6110  103 176 
 RUS  HN I         947  2.59       188.1 0.32            143            103 176 
 PTB  HZ EP        946 45.58                             132   -0.53 9  147 258 
 PTB  HN ES   4    947  5.90                             132   -1.19 0  147 258 
 PTB  HN I         947  8.71       394.9 0.30            130            147 258 
 TAM  HZ IP     C  946 47.17                             130    0.20 9  157 106 
 TAM  HN ES        947  8.55                             130   -0.08 9  157 106 
 TAM  HN I         947 12.65       199.8 0.36            131            157 106 
 OCA  HZ EP        946 47.13                             130   -0.11 9  158 353 
 OCA  HN ES        947  8.67                             130   -0.43 9  158 353 
 OCA  HN I         947 12.35       931.2 0.38            128            158 353 
 ZAR  HZ EP        946 51.72                             122    0.27 9  202 292 
 ZAR  HN ES   4    947 17.29                             122    0.69 0  202 292 
 ZAR  HN I         947 23.43       272.1 0.30            120            202 292 
 CHI  HZ EP        946 57.71                             117    0.60 8  251 195 
 CHI  HE ES        947 26.80                             117    0.12 8  251 195 
 CHI  HE I         947 32.22        49.0 0.36            116            251 195 
 HEL  HZ EP        946 59.31                             115   -0.07 8  272 255 
 HEL  HN ES        947 31.63                             115    0.92 8  272 255 
 HEL  HN I         947 38.30        52.9 0.36            113            272 255 
 URE  HZ IP     C  946 59.17                             114   -0.90 7  282 292 
 URE  HN ES        947 31.38                             114   -0.56 7  282 292 
 URE  HN I         947 42.77       170.0 0.28            112            282 292 
 DBB  SZ EP        947  7.03                             109    0.48 7  339 274 
 DBB  SZ ES        947 42.53                             109   -0.95 7  339 274 
 DBB  SZ I         947 51.98        25.0 0.56            108            339 274 
 COD  HZ EP   1    947  7.13                             109   -0.14 5  346 355 
 COD  HN ES   4    947 43.72                             109   -1.03 0  346 355 
 COD  HN I         947 55.37        18.2 0.48            108            346 355 
 PRA  HZ EP        947 12.84                             106   -0.08 6  394 209 
 PRA  HN ES        947 55.51                             106    0.70 6  394 209 
 PRA  HN I         948  1.17        18.0 0.22            106            394 209 
                                                                                
