 2012 1024 0654 15.6 L   6.777 -73.065151.0  RSN  9 0.4 2.2LRSN                1
 GAP=148        0.90       4.6     5.1  6.3 -0.1298E+01  0.8203E+01 -0.3032E+01E
 Epicentro: LOS SANTOS - SANTANDER                                             3
 ACTION:UPD 12-11-22 17:05 OP:ep   STATUS:               ID:20121024065415 L   I
 2012-10-24-0650-00M.COL___234                                                 6
 STAT SP IPHASW D HRMM SECON CODA AMPLIT PERI AZIMU VELO AIN AR TRES W  DIS CAZ7
 BAR2 SZ EP        654 35.92                             171    0.0310 24.2 212 
 BAR2 SZ I         654 36.50        37.2 0.21                          24.2 212 
 BAR2 SZ ES   1    654 51.67                             171   -0.03 7 24.2 212 
 GIR2 SZ EP        654 35.97                             166   -0.0710 36.2 337 
 PAM  SZ EP        654 38.74                             153    0.5410 74.1  33 
 PAM  SZ I         654 38.99        25.5 0.18                          74.1  33 
 PAM  SN ES   1    654 56.00                             153    0.18 7 74.1  33 
 BRR  HZ IP     C  654 37.85                             150    0.0110 80.2 297 
 BRR  HZ I         654 38.33        49.5 0.12                          80.2 297 
 BRR  HN ES        654 55.30                             150    0.1110 80.2 297 
 RUS  HZ EP        654 39.77                             146    0.0810 97.9 181 
 RUS  HN ES        654 58.06                             146   -0.4110 97.9 181 
 RUS  HN I         654 59.14        24.9 0.37                          97.9 181 
 OCA  HZ EP   1    654 44.10                             130   -0.58 7  164 350 
 ZAR  HZ EP        654 48.46                             122   -0.88 8  213 292 
 ZAR  HZ I         655 21.08        22.6 0.24                           213 292 
 CHI  HZ EP   2    654 53.67                             118    0.06 4  249 197 
 HEL  HZ EP   1    654 57.68                             115    0.70 6  280 257 
 HEL  HN ES        655 29.76                             115    0.51 7  280 257 
 HEL  HZ I         655 36.37         5.3 0.48                           280 257 
                                                                                
