 2013  924 0441 42.9 L   6.681 -73.105  4.0  RSN  4 0.2 1.0LRSN                1
 GAP=233        0.62       2.7     4.4  6.0  0.7885E+01  0.1558E+02  0.8968E+01E
 Epicentro: JORDAN - SANTANDER                                                 3
 ACTION:UPD 13-10-22 09:24 OP:ep   STATUS:               ID:20130924044142 L   I
 OLDACT:REG 13-09-24 09:29 OP:mh   STATUS:               ID:20130924044000     3
 2013-09-24-0440-00M.COL___268                                                 6
 STAT SP IPHASW D HRMM SECON CODA AMPLIT PERI AZIMU VELO AIN AR TRES W  DIS CAZ7
 BAR2 SZ IP     D  441 45.82                              47    0.1110 13.0 221 
 BAR2 SZ ES   1    441 47.78                              47   -0.12 7 13.0 221 
 BAR2 SZ I         441 48.81        66.0 0.14             96           13.0 221 
 BRR  HZ EP   1    441 56.11                              47    0.19 7 82.0 305 
 BRR  HN ES   1    442  5.69                              47   -0.38 7 82.0 305 
 BRR  HZ I         442  8.88         3.9 0.62             47           82.0 305 
 RUS  HZ EP        441 57.44                              47    0.2310 87.2 178 
 RUS  HN ES        442  8.03                              47   -0.3410 87.2 178 
 RUS  HZ I         442  9.11         3.5 0.22             47           87.2 178 
 SPBC HZ EP   4    442  9.80                              47    2.55 0  156 223 
 SPBC HE ES        442 26.46                              47    0.21 9  156 223 
 SPBC HZ I         442 31.60         2.7 0.26             47            156 223 
                                                                                
