 2013  724 0502 50.1 L   5.982 -73.671118.7  RSN  4 0.1 1.5LRSN                1
 GAP=267        0.37       4.8     3.0  4.4 -0.4513E+01  0.4829E+00 -0.1770E+01E
 Epicentro: VELEZ - SANTANDER                                                  3
 ACTION:UPD 13-08-12 10:39 OP:ep   STATUS:               ID:20130724050250 L   I
 OLDACT:REG 13-07-24 09:10 OP:cam  STATUS:               ID:20130724045959     3
 2013-07-24-0459-59M.COL___267                                                 6
 STAT SP IPHASW D HRMM SECON CODA AMPLIT PERI AZIMU VELO AIN AR TRES W  DIS CAZ7
 BAR2 SZ ES   1    5 3 25.03                             141   -0.15 8 86.5  39 
 BAR2 SZ I         5 3 26.03         8.7 0.12            140           86.5  39 
 PTB  HZ EP   1    5 3 11.19                             135    0.07 7  107 305 
 PTB  HZ I         5 3 11.59         3.1 0.42            134            107 305 
 PTB  HN ES        5 3 27.45                             135   -0.0910  107 305 
 BRR  HZ EP   1    5 3 12.88                             130    0.17 7  125 358 
 BRR  HN ES   1    5 3 30.58                             130    0.21 7  125 358 
 BRR  HN I         5 3 33.14         9.6 0.22            129            125 358 
 SML  HZ EP   1    5 3 33.43                             105   -0.16 5  315 352 
 SML  HN ES   1    5 4  7.43                             105   -0.09 5  315 352 
                                                                                
