 2014 1124 0728  5.6 L   6.785 -73.095145.8  RSN  6 0.4 1.7LRSN                1
 GAP=213        0.98       6.8     6.9  9.6 -0.2446E+02 -0.1187E+02  0.1389E+02E
 Epicentro: LOS SANTOS - SANTANDER                                             3
 ACTION:UPD 14-12-19 15:46 OP:nd   STATUS:               ID:20141124072805 L   I
 OLDACT:UP  14-11-24 19:09 OP:mh   STATUS:               ID:20141124071746     3
 OLDACT:REG 14-11-24 11:24 OP:mh   STATUS:               ID:20141124071746     3
 2014-11-24-0717-46M.COL___297                                                 6
 STAT SP IPHASW D HRMM SECON CODA AMPLIT PERI AZIMU VELO AIN AR TRES W  DIS CAZ7
 BAR2 SZ EP   1    728 24.79                             170   -0.39 7 23.4 204 
 BAR2 SZ I         728 42.12        29.2 0.20            161           23.4 204 
 BRR  HZ EP     C  728 27.53                             151    0.5010 76.9 298 
 BRR  HN ES        728 43.93                             151    0.1410 76.9 298 
 BRR  HZ I         728 47.38         6.7 0.32            162           76.9 298 
 PTB  HZ EP        728 32.59                             131   -0.40 9  153 260 
 PTB  HN ES        728 54.30                             131   -0.10 9  153 260 
 PTB  HZ I         728 56.37         4.5 0.14            135            153 260 
 OCA  HZ EP        728 33.69                             129   -0.40 9  163 351 
 OCA  HN ES        728 56.47                             129    0.12 9  163 351 
 OCA  HZ I         728 59.31         4.3 0.14            136            163 351 
 ZAR  HZ EP        728 39.31                             122    0.71 8  210 292 
 ZAR  HN ES        729  3.76                             122   -0.61 8  210 292 
 ZAR  HZ I         729 10.14         3.6 0.46            127            210 292 
 HEL  HZ EP   4    728 48.27                             114    1.95 0  277 256 
 HEL  HN ES        729 18.43                             114    0.31 7  277 256 
 HEL  HZ I         729 25.82         1.6 0.32            116            277 256 
                                                                                
