 2016 1224 0733 34.5 L   6.764 -73.178138.7  RSN  7 0.6 1.5LRSN                1
 GAP=134        1.52       5.8     6.5  9.5  0.4634E+01  0.1580E+02  0.9585E+01E
 Epicentro: LOS SANTOS - SANTANDER                                             3
 ACTION:UPD 17-01-11 20:18 OP:rebc STATUS:               ID:20161224073334 L   I
 OLDACT:REG 16-12-24 13:32 OP:cog  STATUS:               ID:20161224072741     3
 2016-12-24-0728-00M.COL___387                                                 6
 STAT SP IPHASW D HRMM SECON CODA AMPLIT PERI AZIMU VELO AIN AR TRES W  DIS CAZ7
 BAR2 EZ EP        733 53.12                             172   -0.0510 19.0 181 
 BAR2 EZ ES        734  7.69                             172   -0.0610 19.0 181 
 BAR2 EZ I         734  9.42        10.1 0.22            169           19.0 181 
 BRR  HZ EP        733 55.05                             152    0.2410 70.2 303 
 BRR  HE ES        734 11.63                             152    0.9710 70.2 303 
 BRR  HZ I         734 15.75         8.8 0.38            151           70.2 303 
 PAM  EZ EP        733 55.88                             148   -0.4110 82.8  40 
 PAM  EN ES        734 12.74                             148   -0.5510 82.8  40 
 PAM  EZ I         734 14.96         4.9 0.52            154           82.8  40 
 RUS  HZ EP        733 57.31                             143    0.0410 96.9 174 
 RUS  HN ES        734 15.64                             143    0.6010 96.9 174 
 RUS  HZ I         734 18.12         3.8 0.30            144           96.9 174 
 PTB  HZ EP        733 59.75                             131   -0.74 9  144 260 
 PTB  HN ES        734 19.51                             131   -1.26 9  144 260 
 PTB  HZ I         734 26.58         4.4 0.22            131            144 260 
 ZAR  HZ EP        734  7.02                             121    0.73 9  202 294 
 ZAR  HE ES        734 31.39                             121    0.29 9  202 294 
 ZAR  HZ I         734 37.64         3.4 0.24            122            202 294 
 CHI  HZ EP        734 11.92                             116    0.65 8  244 195 
 CHI  HE ES        734 39.69                             116   -0.27 8  244 195 
 CHI  HZ I         734 48.44         1.7 0.40            118            244 195 
 GUY2CHZ EP   4    734 20.16                             111    2.98 0  296 235 
 GUY2CHN ES   4    734 53.38                             111    2.91 0  296 235 
                                                                                
