 2012  324 0122  2.0 L   5.725 -73.897110.4  RSN 11 0.4 1.8LRSN                1
 GAP= 93        0.71       3.1     3.3  9.2 -0.2797E+01  0.8261E+01 -0.5554E+00E
 ACTION:UP  12-03-31 23:22 OP:EP   STATUS:               ID:20120324012202 L   I
 2012-03-24-0120-00M.COL___196                                                 6
 STAT SP IPHASW D HRMM SECON CODA AMPLIT PERI AZIMU VELO SNR AR TRES W  DIS CAZ7
 RUS  HZ EP        122 21.78                             137     0.110   92  78 
 RUS  HN ES   2    122 36.83                             137    -0.3 5   92  78 
 ROSC BZ EP   2    122 23.38                             132     0.4 5  108 206 
 ROSC BN ES   2    122 38.88                             132    -0.5 5  108 206 
 ROSC BZ I         122 43.25        15.3 0.35                           108 206 
 PTB  HZ EP   2    122 21.57                             132    -1.0 5  109 326 
 PTB  HE ES   2    122 38.62                             132     0.0 5  109 326 
 PTB  HZ I         122 39.96         6.8 0.12                           109 326 
 NOR  SZ EP        122 22.28                             132    -0.310  109 261 
 NOR  SN ES   2    122 39.24                             132     0.6 5  109 261 
 CHI  HZ EP   2    122 24.54                             128     0.2 5  122 171 
 CHI  HE ES   2    122 41.69                             128    -0.1 5  122 171 
 CHI  HZ I         122 45.07         8.6 0.48                           122 171 
 BAR2 SZ EP   2    122 24.63                             128     0.4 5  124  39 
 BAR2 SZ ES   1    122 41.58                             128    -0.1 7  124  39 
 BAR2 SZ I         122 43.41        12.7 0.55                           124  39 
 BRR  HZ EP   2    122 27.20                             121     0.2 5  154   8 
 BRR  HN ES   2    122 47.45                             121     1.0 5  154   8 
 RREF HZ EP   1    122 31.29                             116     0.3 7  185 241 
 RREF HE ES   2    122 53.98                             116     0.3 4  185 241 
 RREF HZ I         122 57.76        10.0 0.33                           185 241 
 HEL  HZ EP   2    122 31.51                             116     0.5 4  188 286 
 HEL  HN ES   2    122 53.90                             116     0.2 4  188 286 
 HEL  HZ I         122 56.45         5.1 0.28                           188 286 
 ZAR  HZ EP   2    122 33.85                             111    -0.6 4  222 332 
 ZAR  HN ES   2    122 59.19                             111    -0.6 4  222 332 
 ZAR  HZ I         123  0.61         8.0 0.31                           222 332 
 PRA  HE ES   2    123  5.05                             108     0.0 4  248 206 
                                                                                
