 2012 1124 0852 43.0 L   6.790 -73.191142.7  RSN  6 0.4 1.3LRSN                1
 GAP=131        0.74       4.1     4.5  7.3  0.4845E+00  0.1135E+02 -0.9156E+01E
 Epicentro: ZAPATOCA - SANTANDER                                               3
 ACTION:UPD 12-12-05 15:35 OP:}ep  STATUS:               ID:20121124085243 L   I
 2012-11-24-0850-00M.COL___233                                                 6
 STAT SP IPHASW D HRMM SECON CODA AMPLIT PERI AZIMU VELO AIN AR TRES W  DIS CAZ7
 BAR2 SZ EP   1    853  2.37                             171    0.09 7 21.9 177 
 BAR2 SZ ES   1    853 17.37                             171    0.08 7 21.9 177 
 BAR2 SZ I         853 18.31        11.8 0.30                          21.9 177 
 PAM  SZ EP   1    853  5.09                             149   -0.10 7 81.5  42 
 PAM  SE ES   1    853 22.25                             149   -0.22 7 81.5  42 
 PAM  SZ I         853 24.84         3.6 0.62                          81.5  42 
 RUS  HZ EP   1    853  6.49                             143    0.04 7100.0 173 
 RUS  HN ES   1    853 25.10                             143    0.39 7100.0 173 
 RUS  HZ I         853 26.99         1.5 0.20                         100.0 173 
 PTB  HZ EP   1    853  9.02                             132   -0.28 7  143 259 
 PTB  HN ES   1    853 28.98                             132   -0.79 7  143 259 
 PTB  HZ I         853 32.75         2.0 0.22                           143 259 
 ZAR  HZ EP   1    853 15.39                             122    0.54 6  200 293 
 ZAR  HN ES   1    853 40.25                             122    0.58 6  200 293 
 ZAR  HZ I         853 42.85         1.6 0.17                           200 293 
 SML  HZ EP   1    853 18.86                             117   -0.53 6  243 336 
 SML  HE ES   1    853 48.00                             117    0.27 6  243 336 
                                                                                
