 2010  824 0933 55.3 L   6.785 -73.055148.3  RSN 10 0.3 1.8LRSN                1
 GAP=169        0.56       2.4     5.3  4.9 -0.3083E+01 -0.2035E+01 -0.2271E+00E
 Epicentro: LOS SANTOS - SANTANDER                                             3
 ACTION:UP  10-09-07 10:57 OP:vdl  STATUS:               ID:20100824093355 L   I
 2010-08-24-0930-05S.COL___120                                                 6
 STAT SP IPHASW D HRMM SECON CODA AMPLIT PERI AZIMU VELO SNR AR TRES W  DIS CAZ7
 BAR2 SZ IP        934 15.22                             170    -0.110   26 214 
 BAR2 SZ ES   2    934 30.68                             170    -0.2 5   26 214 
 BAR2 SZ I         934 31.51        14.3 0.39                            26 214 
 BRR  HZ IP     C  934 17.14                             150    -0.210   81 296 
 BRR  HZ I         934 17.42        33.1 0.17                            81 296 
 BRR  HN ES   1    934 34.65                             150     0.2 7   81 296 
 RUS  HZ EP   1    934 19.17                             145     0.0 7   99 182 
 RUS  HE ES   1    934 37.74                             145     0.0 7   99 182 
 RUS  HZ I         934 39.11         5.8 0.19                            99 182 
 GUE  SZ EP        934 20.20                                     0.010  116   7 
 GUE  SZ I         934 22.16         3.5 0.11                           116   7 
 GRA  SZ EP        934 21.02                                     0.310  125  13 
 OCA  SZ EP   1    934 23.76                             130    -0.3 7  163 350 
 OCA  SZ ES   1    934 46.50                             130    -0.1 7  163 350 
 OCA  SZ I         934 51.53        12.6 0.28                           163 350 
 CHI  HZ EP   2    934 33.27                             117     0.0 4  250 198 
 CHI  HZ I         934 35.93         2.7 0.36                           250 198 
 CHI  HN ES   2    935  3.68                             117     0.8 4  250 198 
 HEL  HZ EP   2    934 36.97                             114     0.3 4  281 257 
 HEL  HZ I         935 13.56         4.7 0.33                           281 257 
 RREF HZ EP   2    934 42.79                             111     0.5 3  328 231 
 RREF HE ES   2    935 18.86                             111    -0.1 3  328 231 
 RREF HZ I         935 27.43         3.7 0.27                           328 231 
 PRA  HZ EP   1    934 49.07                             107    -0.3 4  396 211 
 PRA  HN ES   2    935 30.65                             107    -0.8 3  396 211 
 PRA  HZ I         935 35.20         2.4 0.46                           396 211 
                                                                                
