 2014  624 0846 29.0 L   6.786 -73.141136.9  RSN  9 0.3 2.1LRSN                1
 GAP=138        0.64       2.3     2.8  5.7 -0.1282E+01  0.4948E+01 -0.1885E+01E
 Epicentro: LOS SANTOS - SANTANDER                                             3
 ACTION:UPD 14-07-01 22:56 OP:nd   STATUS:               ID:20140624084629 L   I
 OLDACT:DUP 14-06-24 17:26 OP:spq  STATUS:               ID:20140624083808d    3
 2014-06-24-0838-07M.COL___259                                                 6
 STAT SP IPHASW D HRMM SECON CODA AMPLIT PERI AZIMU VELO AIN AR TRES W  DIS CAZ7
 BAR2 SZ EP        846 47.37                             171   -0.1710 21.9 192 
 BAR2 SZ ES        847  2.28                             171    0.2810 21.9 192 
 BAR2 SZ I         847  3.95        17.4 0.20            173           21.9 192 
 PAM  SZ EP        846 50.62                             149    0.2810 78.3  38 
 PAM  SZ I         846 50.85        30.3 0.24            150           78.3  38 
 RUS  HZ EP        846 51.56                             143   -0.2110 99.0 176 
 RUS  HN ES        847  9.57                             143    0.0410 99.0 176 
 RUS  HZ I         847 10.77         7.0 0.42            148           99.0 176 
 PTB  HZ EP   2    846 56.17                             130    0.89 5  148 259 
 PTB  HN ES        847 15.60                             130   -0.18 9  148 259 
 OCA  HE ES        847 18.17                             127   -0.31 9  162 353 
 OCA  HN I         847 27.44        39.9 0.28            128            162 353 
 SPBC HN ES        847 18.20                             127   -0.19 9  162 219 
 SPBC HZ I         847 23.39         8.7 0.46            130            162 219 
 ZAR  HN ES        847 26.25                             120    0.29 9  205 292 
 ZAR  HZ I         847 32.00         8.6 0.28            121            205 292 
 NOR  HN ES        847 31.50                             117   -0.12 8  234 235 
 NOR  HZ I         847 34.24       171.7 1.20            119            234 235 
 GUY2CHE ES        847 45.86                             111    0.04 7  301 235 
 GUY2CHZ I         847 57.84         2.6 0.62                           301 235 
                                                                                
