 2011 1124 0205 32.8 L   6.790 -73.140144.4  RSN 16 0.4 2.9LRSN                1
 GAP=115        0.71       2.8     3.7  4.7  0.1782E+01  0.6281E+01  0.3805E+01E
 Epicentro: LOS SANTOS - SANTANDER                                             3
 ACTION:UPD 12-07-13 16:11 OP:ep   STATUS:               ID:20111124020532 L   I
 2011-11-24-0203-40S.COL___177                                                 6
 STAT SP IPHASW D HRMM SECON CODA AMPLIT PERI AZIMU VELO AIN AR TRES W  DIS CAZ7
 BAR2 SZ IP        2 5 52.23                             171   -0.0510 22.4 192 
 BAR2 SZ ES   1    2 6  6.65                             171   -0.80 7 22.4 192 
 BAR2 SZ I         2 6  8.42       175.5 0.44                          22.4 192 
 BRR  HZ IP     C  2 5 54.15                             152    0.2510 72.2 299 
 BRR  HZ I         2 5 54.45       245.1 0.13                          72.2 299 
 BRR  HN ES   1    2 6 11.02                             152    0.69 7 72.2 299 
 PAM  SZ IP        2 5 54.99                             150    0.0510 77.9  39 
 PAM  SE ES   1    2 6 12.21                             150    0.04 7 77.9  39 
 PAM  SZ I         2 6 14.33       118.7 0.54                          77.9  39 
 RUS  HZ IP     D  2 5 56.08                             144   -0.2910 99.5 176 
 RUS  HZ I         2 5 56.96        51.8 0.19                          99.5 176 
 RUS  HN ES   1    2 6 15.03                             144    0.30 7 99.5 176 
 OCA  SZ EP   1    2 6  0.97                             129   -0.18 7  161 353 
 OCA  SZ ES   2    2 6 23.63                             129    0.40 5  161 353 
 OCA  SZ I         2 6 27.66       125.3 0.34                           161 353 
 YOP  SZ EP   1    2 6  2.79                             126    0.13 7  178 153 
 YOP  SN ES   1    2 6 26.21                             126    0.29 7  178 153 
 YOP  SZ I         2 6 30.34        30.0 0.42                           178 153 
 ZAR  HZ EP   1    2 6  4.76                             122   -0.53 6  205 292 
 ZAR  HE ES   1    2 6 30.07                             122   -0.54 6  205 292 
 ZAR  HZ I         2 6 36.68       111.1 0.29                           205 292 
 NOR  SZ EP   1    2 6  8.19                             118   -0.28 6  235 235 
 NOR  SN ES   2    2 6 35.85                             118   -0.41 4  235 235 
 CHI  HZ EP   1    2 6 10.21                             117   -0.15 6  248 195 
 CHI  HZ I         2 6 43.38        25.4 0.43                           248 195 
 HEL  HZ EP   1    2 6 13.63                             114    0.62 6  272 256 
 HEL  HZ I         2 6 51.51        69.0 0.28                           272 256 
 VIL  SZ EP   1    2 6 15.78                             112   -0.31 5  302 192 
 VIL  SN ES   2    2 6 49.73                             112   -0.09 4  302 192 
 VIL  SZ I         2 6 54.18        23.8 0.40                           302 192 
 GUY  SZ EP   1    2 6 17.22                             112    0.59 5  303 235 
 GUY  SZ I         2 6 58.81        87.4 0.37                           303 235 
 RREF HZ EP   1    2 6 19.26                             111    0.37 5  322 230 
 RREF HZ I         2 7  4.27        54.5 0.27                           322 230 
 DBB  SZ EP   2    2 6 20.38                             109    0.05 3  340 274 
 PRA  HZ EP   1    2 6 25.62                             106   -0.61 4  391 210 
 PRA  HE ES   1    2 7  8.59                             106    0.71 4  391 210 
 PAL  HZ EP   2    2 6 27.97                             106    0.03 3  406 239 
 PAL  HZ I         2 6 29.72        43.0 0.12                           406 239 
                                                                                
