 2014  624 0629 16.4 L   6.898 -73.201150.0  RSN  4 0.1 1.5LRSN                1
 GAP=244        0.83      11.7     7.9  8.6  0.4393E+02 -0.2985E+02 -0.2244E+02E
 Epicentro: BETULIA - SANTANDER                                                3
 ACTION:UPD 14-07-01 22:56 OP:nd   STATUS:               ID:20140624062916 L   I
 OLDACT:REG 14-06-24 13:06 OP:spq  STATUS:               ID:20140624062815     3
 2014-06-24-0628-15M.COL___262                                                 6
 STAT SP IPHASW D HRMM SECON CODA AMPLIT PERI AZIMU VELO AIN AR TRES W  DIS CAZ7
 BAR2 SZ EP        629 36.92                             168    0.0910 33.9 176 
 BAR2 SZ I         629 37.18         3.7 0.34            170           33.9 176 
 BRR  HZ EP   9    629 38.27                             158    0.76 0 61.0 292 
 BRR  HZ I         629 38.57         6.4 0.16            157           61.0 292 
 BRR  HE ES        629 55.43                                    0.7210 61.0 292 
 PTB  HZ EP        629 43.50                             136    0.05 9  144 254 
 PTB  HN ES        630  4.47                             136   -0.04 9  144 254 
 PTB  HZ I         630 11.54         4.5 0.30            139            144 254 
 ZAR  HZ EP        629 48.29                             126    0.10 9  194 290 
 ZAR  HN ES        630 12.71                             126   -0.24 9  194 290 
 ZAR  HZ I         630 20.55         4.6 0.28            130            194 290 
                                                                                
