 2017  124 0154  3.3 L   6.765 -73.135145.6  RSN  6 0.3 1.4LRSN                1
 GAP=139        0.77       3.5     3.3  5.7 -0.7229E+00  0.5293E+01  0.2406E+01E
 Epicentro: LOS SANTOS - SANTANDER                                             3
 ACTION:UPD 17-05-22 16:02 OP:jn   STATUS:               ID:20170124015403 L   I
 OLDACT:REG 17-01-24 12:55 OP:lv   STATUS:               ID:20170124014652     3
 2017-01-24-0148-00M.COL___345                                                 6
 STAT SP IPHASW D HRMM SECON CODA AMPLIT PERI AZIMU VELO AIN AR TRES W  DIS CAZ7
 BRR  HZ EP        154 24.70                             151    0.0810 74.1 301 
 BRR  HN ES        154 41.69                             151    0.4610 74.1 301 
 PAM  EZ EP        154 25.71                             150    0.0510 79.7  37 
 PAM  EN ES        154 42.97                             150   -0.1110 79.7  37 
 PAM  EZ I         154 44.97         3.4 0.18            154           79.7  37 
 RUS  HZ EP        154 26.80                             145    0.0210 96.7 177 
 RUS  HN ES        154 44.86                             145   -0.2210 96.7 177 
 RUS  HZ I         154 47.63         2.0 0.12            148           96.7 177 
 PTB  HZ EP        154 29.92                             132   -0.40 9  148 260 
 PTB  HE ES        154 51.29                             132   -0.08 9  148 260 
 PTB  HZ I         154 57.06         3.7 0.29            133            148 260 
 ZAR  HZ EP        154 36.47                             122    0.44 8  207 293 
 ZAR  HN ES        155  0.90                             122   -0.63 8  207 293 
 ZAR  HZ I         155  7.46         2.4 0.12            124            207 293 
 NOR  HZ EP        154 39.02                             119    0.11 8  233 235 
 NOR  HN ES        155  7.00                             119    0.33 8  233 235 
 NOR  HZ I         155  9.49         2.5 0.27            120            233 235 
                                                                                
