 2017 1024 0514  1.4 L   6.802 -73.151146.0  RSN 10 0.6 1.8LRSN                1
 GAP=111        1.14       4.3     4.3  6.7  0.3965E+01  0.4326E+01  0.3095E+01E
 Epicentro: LOS SANTOS - SANTANDER                                             3
 ACTION:UPD 17-11-07 19:36 OP:rebc STATUS:               ID:20171024051401 L   I
 OLDACT:UP  17-10-24 15:05 OP:dani STATUS:               ID:20171024050331     3
 OLDACT:UP  17-10-24 15:05 OP:dani STATUS:               ID:20171024050331     3
 OLDACT:REG 17-10-24 12:56 OP:dani STATUS:               ID:20171024050331     3
 2017-10-24-0508-00M.COL___435                                                 6
 STAT SP IPHASW D HRMM SECON CODA AMPLIT PERI AZIMU VELO AIN AR TRES W  DIS CAZ7
 BAR2 EZ EP     C  514 20.95                             171   -0.1510 23.5 189 
 BAR2 EZ ES        514 35.92                             171   -0.5210 23.5 189 
 BAR2 EZ I         514 37.33        14.4 0.52            170           23.5 189 
 BRR  HZ EP     C  514 22.73                             153    0.1510 70.6 299 
 BRR  HN ES        514 39.85                             153    0.7810 70.6 299 
 BRR  HZ I         514 43.73        15.0 0.12            152           70.6 299 
 PAM  EZ EP        514 23.79                             150    0.1010 77.5  40 
 PAM  EN ES        514 40.83                             150   -0.2210 77.5  40 
 PAM  EZ I         514 41.26         5.8 0.50            154           77.5  40 
 RUS  HZ EP        514 25.34                             144    0.1010  101 176 
 RUS  HN ES        514 43.51                             144   -0.2910  101 176 
 RUS  HZ I         514 45.07         6.3 0.18            145            101 176 
 PTB  HZ EP        514 27.93                             132   -0.45 9  147 259 
 PTB  HN ES        514 48.69                             132   -0.71 9  147 259 
 PTB  HZ I         514 50.85         5.6 0.12            132            147 259 
 SPBC HZ EP        514 29.39                             129   -0.55 9  163 219 
 SPBC HN ES        514 52.21                             129    0.03 9  163 219 
 SPBC HZ I         514 55.76        10.1 0.18            130            163 219 
 YPLC HZ EP        514 31.65                             126    0.35 9  177 151 
 YPLC HN ES        514 55.37                             126    0.77 9  177 151 
 YPLC HZ I         514 57.98         6.3 0.18            128            177 151 
 ZAR  HZ EP        514 33.84                             122    0.01 9  203 292 
 ZAR  HN ES        514 59.95                             122    0.85 9  203 292 
 ZAR  HZ I         515  5.31        11.4 0.28            123            203 292 
 GUY2CHZ EP   3    514 46.99                             112    1.97 2  301 235 
 GUY2CHN ES   4    515 22.90                             112    3.88 0  301 235 
 GUY2CHZ I         515 28.25         2.1 0.57                           301 235 
 SJC  HZ EP   3    514 55.28                             106   -1.66 1  409 327 
 SJC  HN ES   3    515 38.03                             106   -2.21 1  409 327 
 SJC  HZ I         515 39.83         1.3 0.45            107            409 327 
                                                                                
