 2011  824 0613 42.9 L   6.712 -73.227148.0  RSN  4 0.4 1.8LRSN                1
 GAP=163        0.64       5.0    15.1  7.9  0.3770E+02 -0.8198E+01 -0.6929E+01E
 Epicentro: VILLANUEVA - SANTANDER                                             3
 ACTION:UPD 12-07-13 15:53 OP:ep   STATUS:               ID:20110824061342 L   I
 2011-08-24-0612-35S.COL___159                                                 6
 STAT SP IPHASW D HRMM SECON CODA AMPLIT PERI AZIMU VELO AIN AR TRES W  DIS CAZ7
 BAR2 SZ EP   1    614  2.41                             174   -0.24 7 14.1 160 
 BAR2 SZ ES   1    614 17.68                             174   -0.38 7 14.1 160 
 BAR2 SZ I         614 18.99        18.1 0.13                          14.1 160 
 BRR  HZ EP   1    614  4.30                             154    0.12 7 69.2 309 
 BRR  HZ I         614  4.55        25.8 0.14                          69.2 309 
 BRR  HE ES   2    614 20.67                             154   -0.11 5 69.2 309 
 RUS  HZ EP   1    614  6.28                             147    0.00 7 92.0 170 
 RUS  HE ES   2    614 25.37                             147    0.86 5 92.0 170 
 RUS  HZ I         614 26.26         4.7 0.44                          92.0 170 
 OCA  SZ EP   2    614 11.78                             128   -0.44 5  169 357 
 OCA  SZ ES   1    614 35.49                             128    0.40 7  169 357 
 OCA  SZ I         614 39.42         5.1 0.37                           169 357 
                                                                                
