 2017 1024 0150 46.0 L   6.776 -73.143152.0  RSN  6 0.4 1.3LRSN                1
 GAP=138        0.82       4.3     3.7  5.9  0.1441E+01  0.4129E+01  0.2217E+00E
 Epicentro: LOS SANTOS - SANTANDER                                             3
 ACTION:UPD 17-11-07 19:35 OP:rebc STATUS:               ID:20171024015046 L   I
 OLDACT:UP  17-10-24 13:54 OP:dani STATUS:               ID:20171024014744     3
 OLDACT:REG 17-10-24 12:29 OP:dani STATUS:               ID:20171024014744     3
 2017-10-24-0148-00M.COL___443                                                 6
 STAT SP IPHASW D HRMM SECON CODA AMPLIT PERI AZIMU VELO AIN AR TRES W  DIS CAZ7
 BAR2 EZ EP        151  6.24                             172   -0.0610 20.8 192 
 BAR2 EZ ES        151 21.95                             172   -0.2110 20.8 192 
 BAR2 EZ I         151 22.72         5.6 0.32            173           20.8 192 
 BRR  HZ EP        151  8.04                             153    0.1610 72.8 300 
 BRR  HE ES        151 25.40                             153    0.4310 72.8 300 
 BRR  HZ I         151 28.28         3.6 0.27            151           72.8 300 
 PAM  EZ EP        151  9.01                             151    0.0510 79.3  38 
 PAM  EN ES        151 26.64                             151   -0.2510 79.3  38 
 PAM  EZ I         151 28.24         4.2 0.50            152           79.3  38 
 RUS  HZ EP        151 10.08                             146   -0.0710 97.9 176 
 RUS  HN ES        151 29.17                             146    0.1610 97.9 176 
 RUS  HZ I         151 29.86         2.6 0.32            148           97.9 176 
 PTB  HZ EP        151 13.92                             133    0.49 9  148 260 
 PTB  HN ES        151 34.29                             133   -0.57 9  148 260 
 PTB  HZ I         151 35.89         1.3 0.12            133            148 260 
 ZAR  HZ EP   3    151 16.66                             123   -2.30 2  205 293 
 ZAR  HN ES        151 44.64                             123   -0.05 8  205 293 
 ZAR  HZ I         151 50.40         2.4 0.29            123            205 293 
                                                                                
