 2010  424 0341 59.6 L   6.776 -73.055147.4  RSN 15 0.5 2.5LRSN                1
 GAP=149        0.84       4.4     6.4  6.0 -0.1785E+02 -0.5894E+01  0.9928E+01E
 Epicentro: LOS SANTOS - SANTANDER                                             3
 ACTION:UPD 10-08-24 10:00 OP:vdl  STATUS:               ID:20100424034207 L   I
 2010-04-24-0340-27S.COL___104                                                 6
 STAT SP IPHASW D HRMM SECON CODA AMPLIT PERI AZIMU VELO AIN AR TRES W  DIS CAZ7
 BAR2 SZ IP        342 19.25                             170    -0.210   25 215 
 BAR2 SZ ES   1    342 34.33                             170    -0.6 7   25 215 
 BRR  HZ IP     C  342 21.63                             149     0.110   81 297 
 BRR  HE ES   1    342 38.67                             149     0.0 7   81 297 
 BRR  HZ I         342 40.89        51.2 0.15                            81 297 
 BRI  SZ IP        342 23.87                             142     0.310  108  15 
 BRI  SZ ES   1    342 42.52                             142     0.2 7  108  15 
 GUE  SZ IP        342 24.38                             139    -0.210  117   7 
 GRA  SZ ES   1    342 45.59                             137     0.8 7  126  13 
 OCA  SZ EP   1    342 27.75                             129    -0.7 7  164 350 
 OCA  SZ ES   2    342 50.58                             129    -0.3 5  164 350 
 OCA  SZ I         342 52.72        83.7 0.27                           164 350 
 CHI  HZ EP   1    342 37.46                             117     0.0 6  249 198 
 CHI  HZ I         342 39.97        13.2 0.42                           249 198 
 CHI  HE ES   2    343  6.85                             117    -0.1 4  249 198 
 ROSC BZ EP   1    342 38.94                             116     0.8 6  256 213 
 ROSC BZ I         342 40.89        17.4 0.22                           256 213 
 HEL  HZ EP   2    342 40.43                             114    -0.5 4  281 257 
 HEL  HE ES   2    343 13.74                             114     0.6 4  281 257 
 HEL  HZ I         343 18.10        14.7 0.44                           281 257 
 RREF BZ EP   2    342 46.74                             111     0.2 3  328 231 
 RREF BE ES   2    343 23.25                             111     0.2 3  328 231 
 RREF BZ I         343 30.21        15.2 0.55                           328 231 
 TOL  SZ EP   1    342 48.78                             109     0.2 5  349 226 
 DBB  SZ EP   2    342 47.12                             109    -1.2 3  350 275 
 SDV  BZ IP     C  342 48.88                             109    -0.1 6  354  49 
 SDV  BZ I         343 28.52         4.3 0.62                           354  49 
 ANIL BZ EP   2    342 50.87                             108     0.8 3  363 226 
 ANIL BN ES   2    343 29.92                             108     0.5 3  363 226 
 ANIL BZ I         343 37.20        26.3 0.30                           363 226 
 PRA  HZ EP   1    342 52.86                             106    -0.7 4  395 211 
 PRA  HN ES   1    343 35.81                             106     0.3 4  395 211 
 PRA  HZ I         343 41.80        14.3 0.40                           395 211 
                                                                                
