 2017 1024 0523  9.5 L   6.823 -73.147151.4  RSN 15 0.7 2.1LRSN                1
 GAP=111        1.40       3.9     4.6  6.6  0.3144E+01  0.3859E+01  0.4050E+01E
 Epicentro: LOS SANTOS - SANTANDER                                             3
 ACTION:UPD 17-11-07 19:36 OP:rebc STATUS:               ID:20171024052309 L   I
 OLDACT:UP  17-10-24 15:11 OP:dani STATUS:               ID:20171024051745     3
 OLDACT:UP  17-10-24 15:10 OP:dani STATUS:               ID:20171024051745     3
 OLDACT:UP  17-10-24 15:10 OP:dani STATUS:               ID:20171024051745     3
 OLDACT:REG 17-10-24 12:56 OP:dani STATUS:               ID:20171024051745     3
 2017-10-24-0518-00M.COL___435                                                 6
 STAT SP IPHASW D HRMM SECON CODA AMPLIT PERI AZIMU VELO AIN AR TRES W  DIS CAZ7
 BAR2 EZ EP        523 29.87                             170   -0.0110 25.9 189 
 BAR2 EZ ES        523 45.14                             170   -0.6210 25.9 189 
 BAR2 EZ I         523 46.10        42.1 0.26            168           25.9 189 
 BRR  HZ EP     C  523 31.64                             154    0.4410 69.8 297 
 BRR  HN ES        523 48.79                             154    0.6710 69.8 297 
 BRR  HZ I         523 51.98        27.2 0.40            153           69.8 297 
 PAM  EZ EP     C  523 32.91                             152    0.6810 75.5  41 
 PAM  EN ES        523 50.00                             152    0.0610 75.5  41 
 PAM  EZ I         523 52.68        17.8 0.82            157           75.5  41 
 RUS  HZ EP        523 33.93                             144   -0.0810  103 176 
 RUS  HN ES        523 52.76                             144   -0.3610  103 176 
 RUS  HZ I         523 55.21         8.2 0.32            145            103 176 
 PTB  HZ EP        523 36.56                             133   -0.42 9  148 258 
 PTB  HN ES        523 57.63                             133   -0.77 9  148 258 
 PTB  HZ I         524  2.63        12.2 0.30            133            148 258 
 SPBC HZ EP        523 38.88                             130    0.25 9  165 218 
 SPBC HN ES        524  1.39                             130    0.05 9  165 218 
 SPBC HZ I         524  5.88        19.3 0.38            130            165 218 
 YPLC HZ EP     D  523 40.33                             127    0.38 9  179 152 
 YPLC HE ES        524  4.59                             127    0.89 9  179 152 
 YPLC HZ I         524  5.27         7.1 0.28            129            179 152 
 ZAR  HZ EP        523 42.39                             124    0.17 9  203 291 
 ZAR  HE ES        524  7.93                             124    0.20 9  203 291 
 ZAR  HZ I         524 14.11        16.3 0.32            124            203 291 
 NOR  HZ EP        523 45.81                             120    0.09 8  236 234 
 NOR  HN ES        524 13.45                             120   -0.52 8  236 234 
 NOR  HZ I         524 19.22        10.0 0.16            120            236 234 
 CHI  HZ EP        523 48.30                             118    0.50 8  251 195 
 CHI  HN ES        524 17.57                             118   -0.09 8  251 195 
 CHI  HZ I         524 22.54         6.1 0.38            119            251 195 
 ROSC BZ EP   9    523 50.02                             118    1.84 0  255 211 
 ROSC BN ES        524 20.90                             117    0.72 8  255 211 
 ROSC BZ I         524 24.41        14.5 0.43            118            255 211 
 GUY2CHZ EP   3    523 55.29                             113    1.75 2  303 234 
 GUY2CHN ES   4    524 32.03                             113    4.15 0  303 234 
 GUY2CHZ I         524 36.23         6.8 0.76                           303 234 
 PTGC HZ EP        523 53.15                             112   -0.76 7  311 159 
 PTGC HN ES        524 26.57                             112   -1.97 7  311 159 
 PTGC HZ I         524 29.41         8.0 0.46            114            311 159 
 PRA  HZ EP        524  3.81                             107    0.32 6  394 209 
 PRA  HN ES        524 46.99                             107    1.40 6  394 209 
 PRA  HZ I         524 50.32         4.8 0.41            108            394 209 
 SJC  HZ EP        524  4.29                             107   -0.71 6  407 327 
 SJC  HN ES        524 47.24                             107   -1.04 6  407 327 
 SJC  HZ I         524 49.40         2.0 0.29            108            407 327 
                                                                                
