 2016  324 0456 16.7 L   5.746 -73.872114.0  RSN  6 0.4 1.1LRSN                1
 GAP=166        0.90       4.7     3.1  7.2 -0.1037E+01  0.5283E+00 -0.1256E+02E
 Epicentro: ALBANIA - SANTANDER                                                3
 ACTION:UPD 16-05-13 21:27 OP:cam  STATUS:               ID:20160324045616 L   I
 OLDACT:REG 16-03-24 12:37 OP:ak   STATUS:               ID:20160324044741     3
 2016-03-24-0447-41M.COL___301                                                 6
 STAT SP IPHASW D HRMM SECON CODA AMPLIT PERI AZIMU VELO AIN AR TRES W  DIS CAZ7
 SPBC HZ EP        456 32.29                             167   -0.0910 24.5 245 
 SPBC HE ES        456 44.62                             167    0.0410 24.5 245 
 SPBC HZ I         456 48.24         3.1 0.16            169           24.5 245 
 RUS  HZ EP        456 36.68                             139    0.1210 88.8  79 
 RUS  HE ES        456 51.52                             139   -0.4910 88.8  79 
 PTB  HZ EP        456 37.37                             132   -0.2410  109 324 
 PTB  HN ES        456 53.54                             132   -0.3510  109 324 
 PTB  HZ I         456 55.48         1.6 0.26            136            109 324 
 NOR  HZ EP   2    456 37.19                             131   -0.77 5  112 260 
 NOR  HN ES        456 54.87                             131    0.3610  112 260 
 NOR  HZ I         456 55.37         3.9 0.12            136            112 260 
 BAR2 EZ EP        456 39.68                             130    0.7010  121  39 
 BAR2 EZ ES        456 56.51                             130    0.1910  121  39 
 BAR2 EZ I         456 59.21         2.6 0.26            133            121  39 
 ZAR  HZ EP   2    456 48.64                             112   -0.69 4  222 331 
 ZAR  HE ES        457 14.90                             112    0.16 8  222 331 
                                                                                
