 2012  324 0017 36.2 L   6.769 -73.089149.0  RSN 12 0.3 2.2LRSN                1
 GAP=145        0.47       2.6     2.8  4.4 -0.1114E+01  0.2298E+01  0.3822E+01E
 ACTION:UP  12-03-31 23:22 OP:EP   STATUS:               ID:20120324001736 L   I
 2012-03-24-0010-00M.COL___196                                                 6
 STAT SP IPHASW D HRMM SECON CODA AMPLIT PERI AZIMU VELO SNR AR TRES W  DIS CAZ7
 BAR2 SZ EP        017 56.07                             171    -0.110   22 208 
 BAR2 SZ ES   2    018 11.61                             171    -0.2 5   22 208 
 BAR2 SZ I         018 12.87        29.3 0.19                            22 208 
 PAM  SZ EP        017 58.83                             152     0.210   76  34 
 PAM  SN ES   1    018 16.09                             152    -0.1 7   76  34 
 BRR  HZ EP        017 57.98                             151    -0.110   78 299 
 BRR  HZ I         017 58.35        55.6 0.11                            78 299 
 BRR  HE ES   1    018 15.45                             151     0.3 7   78 299 
 RUS  HZ EP        017 59.92                             145    -0.110   97 180 
 RUS  HE ES   2    018 18.82                             145     0.3 5   97 180 
 RUS  HZ I         018 19.99        14.2 0.43                            97 180 
 PTB  HZ EP   2    018  3.03                             132    -0.9 5  153 261 
 PTB  HE ES   2    018 25.36                             132    -0.2 5  153 261 
 PTB  HZ I         018 26.13        14.2 0.06                           153 261 
 OCA  SZ ES   2    018 27.99                             130     0.3 5  165 351 
 ZAR  HZ EP   2    018  9.48                             122    -0.1 4  211 292 
 ZAR  HN ES   2    018 35.50                             122    -0.1 4  211 292 
 ZAR  HZ I         018 41.15        29.8 0.34                           211 292 
 NOR  SZ EP   2    018 12.18                             119    -0.3 4  238 236 
 NOR  SN ES   2    018 40.43                             119    -0.3 4  238 236 
 CHI  HZ EP   2    018 14.41                             118     0.5 4  247 197 
 CHI  HN ES   2    018 43.25                             118     0.0 4  247 197 
 CHI  HZ I         018 53.31         7.6 0.49                           247 197 
 HEL  HZ EP   2    018 17.47                             115     0.3 4  277 257 
 HEL  HN ES   2    018 49.58                             115     0.5 4  277 257 
 HEL  HZ I         018 53.53         8.1 0.29                           277 257 
 RREF HZ EP   2    018 22.92                             111     0.2 3  324 231 
 RREF HE ES   2    018 59.21                             111     0.1 3  324 231 
 RREF HZ I         019  8.51        10.9 0.42                           324 231 
 PRA  HZ EP   2    018 30.18                             107     0.4 3  392 211 
 PRA  HN ES   2    019 12.08                             107     0.4 3  392 211 
                                                                                
