 2012  124 0424 10.9 L   6.760 -73.087144.0  RSN 12 0.4 2.5LRSN                1
 GAP=146        0.83       3.0     4.2  5.1 -0.1777E+01  0.5287E+01  0.4110E+01E
 Epicentro: LOS SANTOS - SANTANDER                                             3
 ACTION:UP  12-02-03 08:20 OP:REBC STATUS:               ID:20120124042410 L   I
 2012-01-24-0420-00M.COL___187                                                 6
 STAT SP IPHASW D HRMM SECON CODA AMPLIT PERI AZIMU VELO SNR AR TRES W  DIS CAZ7
 BAR2 SZ IP     D  424 30.19                             171     0.010   21 210 
 BAR2 SZ ES   1    424 45.85                             171     0.5 7   21 210 
 BAR2 SZ I         424 46.99        56.0 0.19                            21 210 
 GIR2 SZ EP        424 30.23                             165    -0.310   37 342 
 GIR2 SZ ES   1    424 45.40                             165    -0.4 7   37 342 
 PAM  SZ EP        424 32.95                             151     0.110   77  34 
 PAM  SN ES   1    424 49.79                             151    -0.2 7   77  34 
 BRR  HZ IP     C  424 32.12                             150    -0.210   79 299 
 BRR  HZ I         424 32.48       109.6 0.07                            79 299 
 BRR  HE ES        424 49.30                             150     0.310   79 299 
 RUS  HZ EP        424 34.00                             145    -0.110   96 180 
 RUS  HE ES   1    424 52.05                             145    -0.2 7   96 180 
 RUS  HZ I         424 54.09        28.0 0.46                            96 180 
 OCA  SZ EP   1    424 40.23                             128     0.7 7  166 351 
 OCA  SZ ES   1    425  2.43                             128     0.5 7  166 351 
 OCA  SZ I         425  8.45        31.1 0.23                           166 351 
 ZAR  HZ EP   1    424 43.03                             121    -0.9 6  212 293 
 ZAR  HN ES   1    425  9.28                             121    -0.5 6  212 293 
 ZAR  HZ I         425 15.35        47.3 0.30                           212 293 
 NOR  SZ EP   1    424 46.47                             118    -0.3 6  238 236 
 NOR  SE ES   1    425 15.06                             118     0.3 6  238 236 
 CHI  HZ EP   1    424 48.23                             117     0.0 6  246 197 
 CHI  HN ES   1    425 17.43                             117     0.1 6  246 197 
 CHI  HZ I         425 27.31        12.3 0.29                           246 197 
 HEL  HZ EP   1    424 51.90                             114     0.3 6  277 257 
 HEL  HN ES   2    425 22.75                             114    -0.6 4  277 257 
 HEL  HZ I         425 27.59        13.4 0.38                           277 257 
 RREF HZ EP   1    424 57.49                             110     0.3 5  324 231 
 RREF HN ES   1    425 33.88                             110     0.6 5  324 231 
 RREF HZ I         425 42.61        20.5 0.57                           324 231 
 PRA  HZ EP   1    425  4.20                             106     0.0 4  391 211 
 PRA  HN ES   1    425 45.95                             106     0.1 4  391 211 
                                                                                
