 2012  824 0327 19.6 L   6.811 -73.153144.0  RSN 16 0.5 3.5LRSN 3.8WRSN        1
 SPEC AVERAGE  MO 14.7 ST 78.7 OM  4.2 f0 4.42 R0.3511 AL 2.60 WI 20.3 MW  3.8 3
 SPEC SD       MO  0.1 ST 63.8 OM  1.3 f0 1.08 R0.0775 AL      WI      MW  0.1 3
 GAP= 65        1.02       3.2     3.4  6.1  0.8910E+00  0.4276E+01  0.2224E+01E
 Epicentro: LOS SANTOS - SANTANDER                                             3
 SPEC HEL HH N MO 14.6 ST 31.6 OM  2.7 f0 3.99 R0.3684 AL 2.53 WI 28.1 MW  3.6 3
 SPEC HEL HH N T 32829 K 0.000 GD  307 VS 4.20 DE 3.00 Q0230.0 QA 0.60 VS 4.20 3
 SPEC CHI HH N MO 14.8 ST 35.6 OM  3.0 f0 3.37 R0.4362 AL 2.40 WI 17.9 MW  3.8 3
 SPEC CHI HH N T 32825 K 0.000 GD  288 VS 4.20 DE 3.00 Q0230.0 QA 0.60 VS 4.20 3
 SPEC BRR HH N MO 14.8 ST168.8 OM  3.2 f0 5.91 R0.2487 AL 2.88 WI 14.8 MW  3.8 3
 SPEC BRR HH N T 32756 K 0.000 GD  160 VS 4.20 DE 3.00 Q0230.0 QA 0.60 VS 4.20 3
 ACTION:UP  12-09-10 11:58 OP:ep   STATUS:               ID:20120824032719 L   I
 2012-08-24-0320-00M.COL___218                                                 6
 STAT SP IPHASW D HRMM SECON CODA AMPLIT PERI AZIMU VELO AIN AR TRES W  DIS CAZ7
 BAR2 SZ EP        327 39.06                             170    0.0510 24.4 188 
 BAR2 SZ ES   1    327 53.86                             170   -0.32 7 24.4 188 
 GIR2 SZ IP        327 39.12                             167    0.1210 30.0 351 
 BRR  HZ IP     D  327 40.93                             152    0.4710 69.9 298 
 BRR  HN ES   2    327 57.75                             152    1.00 5 69.9 298 
 BRR  HZ I         328  1.99       590.1 0.17                          69.9 298 
 PAM  SZ EP        327 41.85                             150    0.2710 77.0  41 
 PAM  SZ I         327 42.23       932.3 0.24                          77.0  41 
 PAM  SN ES   1    327 58.73                             150   -0.01 7 77.0  41 
 RUS  HZ EP        327 42.92                             143   -0.3210  102 176 
 RUS  HN ES        328  0.99                             143   -0.7210  102 176 
 RUS  HZ I         328  2.95       308.1 0.37                           102 176 
 PTB  HZ EP   1    327 45.57                             131   -0.78 7  147 258 
 PTB  HN ES        328  6.81                             131   -0.42 9  147 258 
 PTB  HZ I         328 12.03       204.1 0.15                           147 258 
 TAM  HZ IP     D  327 47.38                             129    0.16 9  156 105 
 TAM  HE ES        328  8.58                             129   -0.20 9  156 105 
 OCA  HZ EP        327 47.20                             129   -0.43 9  159 353 
 OCA  HN ES   2    328  9.68                             129    0.17 5  159 353 
 OCA  HZ I         328 13.93      1089.7 0.34                           159 353 
 YOP  SZ EP   1    327 49.76                             125    0.13 7  180 153 
 YOP  SZ I         327 52.47       206.1 0.20                           180 153 
 YOP  SN ES   1    328 13.73                             125    0.65 7  180 153 
 ZAR  HZ EP   1    327 51.89                             122    0.11 6  203 292 
 ZAR  HN ES   1    328 17.28                             122    0.38 6  203 292 
 ZAR  HZ I         328 23.96       302.7 0.20                           203 292 
 NOR  SZ EP   1    327 54.81                             118   -0.40 6  235 234 
 CHI  HZ EP   1    327 56.83                             116   -0.45 6  250 195 
 CHI  HE ES        328 27.55                             116    0.86 8  250 195 
 CHI  HZ I         328 32.31       137.0 0.26                           250 195 
 ROSC BZ EP        327 58.76                             116    1.10 8  253 211 
 ROSC BZ I         328 35.23       239.2 0.39                           253 211 
 HEL  HZ EP   1    327 59.20                             114   -0.44 6  272 256 
 HEL  HZ I         328 39.48       131.1 0.36                           272 256 
 VIL  SZ EP   1    328  2.29                             111   -0.74 5  304 191 
 VIL  SN ES        328 37.00                             111    0.08 7  304 191 
 VIL  SZ I         328 41.06       202.3 0.27                           304 191 
 DBB  SZ EP   1    328  6.96                             109    0.09 5  339 274 
 DBB  SZ I         328 45.19        90.8 0.55                           339 274 
                                                                                
