 2011  924 0359 30.1 L   6.796 -73.073145.6  RSN  5 0.3 1.1LRSN                1
 GAP=238        0.59       9.1    15.9  8.1  0.1122E+03 -0.4404E+02 -0.1294E+02E
 Epicentro: LOS SANTOS - SANTANDER                                             3
 ACTION:UPD 12-07-13 15:59 OP:ep   STATUS:               ID:20110924035930 L   I
 2011-09-24-0357-00S.COL___165                                                 6
 STAT SP IPHASW D HRMM SECON CODA AMPLIT PERI AZIMU VELO AIN AR TRES W  DIS CAZ7
 BTL  SZ EP   1    359 49.96                             170    0.16 7 25.4 302 
 BAR2 SZ EP   2    359 49.80                             169   -0.01 5 25.6 208 
 BAR2 SZ ES   2    4 0  4.45                             169   -0.69 5 25.6 208 
 BAR2 SZ I         4 0  7.89         5.2 0.16                          25.6 208 
 BRR  HZ EP        359 51.48                             150   -0.2310 78.5 296 
 BRR  HN ES   1    4 0  8.82                             150    0.30 7 78.5 296 
 BRR  HZ I         4 0  9.62         2.3 0.15                          78.5 296 
 RUS  HZ EP   1    359 54.20                             144    0.36 7 99.9 181 
 RUS  HN ES   2    4 0 12.38                             144    0.06 5 99.9 181 
 RUS  HZ I         4 0 13.89         1.6 0.28                          99.9 181 
 CHI  HZ EP   2    4 0  7.57                             117   -0.47 4  250 197 
 CHI  HZ I         4 0  8.70         0.9 0.27                           250 197 
                                                                                
