 2011  924 0333  9.3 L   6.838 -73.046143.4  RSN  4 0.2 1.3LRSN                1
 GAP=250        0.39       4.3     8.6  6.1  0.2398E+02 -0.2105E+02 -0.2882E+01E
 Epicentro: LOS SANTOS - SANTANDER                                             3
 ACTION:UPD 12-07-13 15:59 OP:ep   STATUS:               ID:20110924033309 L   I
 2011-09-24-0320-00M.COL___167                                                 6
 STAT SP IPHASW D HRMM SECON CODA AMPLIT PERI AZIMU VELO AIN AR TRES W  DIS CAZ7
 BAR2 SZ EP   1    333 28.98                             167    0.19 8 31.0 209 
 BAR2 SZ I         333 53.50         5.8 0.25                          31.0 209 
 BRR  HZ EP   1    333 30.54                             149   -0.10 8 79.4 292 
 BRR  HE ES   1    333 47.30                             149   -0.02 8 79.4 292 
 BRR  HZ I         333 56.20         6.9 0.27                          79.4 292 
 RUS  HZ EP        333 33.13                             142    0.0510  105 182 
 RUS  HZ I         333 33.92         1.6 0.23                           105 182 
 RUS  HE ES   1    333 51.50                             142   -0.15 7  105 182 
 CHI  HZ EP   2    333 47.18                             116   -0.42 4  256 197 
 CHI  HE ES   2    334 17.87                             116    0.36 4  256 197 
 CHI  HZ I         334 20.77         1.2 0.54                           256 197 
                                                                                
