 2013  224 0724 48.1 L   6.774 -73.165140.1  RSN  5 0.5 0.8LRSN                1
 GAP=181        1.01       6.2     9.5 12.2  0.1421E+02 -0.1732E+01 -0.1101E+02E
 Epicentro: LOS SANTOS - SANTANDER                                             3
 ACTION:UPD 13-03-12 09:35 OP:ep   STATUS:               ID:20130224072448 L   I
 2013-02-24-0720-00M.COL___225                                                 6
 STAT SP IPHASW D HRMM SECON CODA AMPLIT PERI AZIMU VELO AIN AR TRES W  DIS CAZ7
 BAR2 SZ ES   1    725 21.49                             171   -0.19 7 20.1 185 
 BAR2 SZ I         725 23.82         2.8 0.26            172           20.1 185 
 BRR  HZ EP     C  725  8.60                             152    0.0310 70.8 301 
 BRR  HN ES   1    725 25.52                             152    0.94 7 70.8 301 
 BRR  HZ I         725 28.28         1.8 0.36            154           70.8 301 
 RUS  HZ EP   1    725 11.57                             143    0.51 7 97.8 175 
 RUS  HN ES   1    725 28.59                             143   -0.40 7 97.8 175 
 RUS  HZ I         725 31.47         0.5 0.18            147           97.8 175 
 PTB  HN ES   1    725 34.29                             131   -0.52 7  145 260 
 OCA  HN ES   1    725 37.59                             128   -0.54 7  163 354 
                                                                                
