 2016  224 0711 53.5 L   6.767 -73.147143.4  RSN  9 0.4 1.4LRSN                1
 GAP=138        1.06       3.5     4.9  8.1 -0.1636E+01  0.8707E+01 -0.8642E+00E
 Epicentro: LOS SANTOS - SANTANDER                                             3
 ACTION:UPD 16-03-04 21:29 OP:rebc STATUS:               ID:20160224071153 L   I
 OLDACT:UP  16-02-24 19:25 OP:mh   STATUS:               ID:20160224070749     3
 OLDACT:UP  16-02-24 19:25 OP:mh   STATUS:               ID:20160224070749     3
 OLDACT:REG 16-02-24 13:22 OP:mh   STATUS:               ID:20160224070749     3
 2016-02-24-0707-49M.COL___327                                                 6
 STAT SP IPHASW D HRMM SECON CODA AMPLIT PERI AZIMU VELO AIN AR TRES W  DIS CAZ7
 BAR2 EZ EP        712 13.03                             172    0.2310 19.7 192 
 BAR2 EZ ES        712 27.62                             172   -0.2210 19.7 192 
 BAR2 EZ I         712 29.52         6.6 0.19            171           19.7 192 
 BRR  HZ EP     C  712 14.87                             152    0.3510 72.9 301 
 BRR  HN ES        712 31.55                             152    0.6610 72.9 301 
 BRR  HZ I         712 36.04         3.7 0.16            150           72.9 301 
 PAM  EZ EP        712 15.87                             149    0.2010 80.3  38 
 PAM  EN ES   1    712 32.42                             149   -0.52 7 80.3  38 
 PAM  EZ I         712 34.48         2.3 0.23            152           80.3  38 
 RUS  HN ES        712 35.03                             144    0.1210 96.9 176 
 RUS  HZ I         712 36.46         3.4 0.30            146           96.9 176 
 PTB  HZ EP        712 19.59                             132   -0.64 9  147 260 
 PTB  HN ES        712 40.28                             132   -0.78 9  147 260 
 PTB  HZ I         712 45.28         1.9 0.34            131            147 260 
 SPBC HN ES        712 43.48                             129    0.05 9  160 220 
 OCA  HN ES        712 43.88                             128   -0.33 9  164 353 
 OCA  HZ I         712 47.32         6.7 0.30            129            164 353 
 ZAR  HE ES        712 51.73                             122    0.48 8  205 293 
 ZAR  HZ I         712 56.98         4.1 0.40            122            205 293 
 CHI  HN ES        712 59.79                             117    0.09 8  245 195 
 CHI  HZ I         713  5.86         1.0 0.12            118            245 195 
                                                                                
