 2017 1224 0945  0.6 L   6.691 -73.208138.1  RSN  4 0.1 0.9LRSN                1
 GAP=229        0.38       3.4     3.2  9.4  0.3280E+01 -0.9291E+01 -0.1534E+02E
 Epicentro: VILLANUEVA - SANTANDER                                             3
 ACTION:UPD 18-01-04 13:23 OP:rebc STATUS:               ID:20171224094500 L   I
 OLDACT:UP  17-12-24 14:55 OP:edw  STATUS:               ID:20171224093320d    3
 OLDACT:DUP 17-12-24 14:51 OP:edw  STATUS:               ID:20171224093320d    3
 OLDACT:UP  17-12-24 14:50 OP:edw  STATUS:               ID:20171224093319     3
 OLDACT:REG 17-12-24 13:17 OP:dani STATUS:               ID:20171224093319     3
 2017-12-24-0938-00M.COL___457                                                 6
 STAT SP IPHASW D HRMM SECON CODA AMPLIT PERI AZIMU VELO AIN AR TRES W  DIS CAZ7
 BAR2 EZ EP        945 19.14                             175    0.0010 11.3 165 
 BAR2 EZ I         945 35.29         2.4 0.22            157           11.3 165 
 PTB  HZ EP        945 26.25                             132    0.07 9  139 263 
 PTB  HN ES        945 46.25                             132    0.14 9  139 263 
 PTB  HZ I         945 53.34         1.0 0.48            164            139 263 
 SPBC HE ES        945 47.90                             130   -0.10 9  149 220 
 ZAR  HN ES        945 57.12                             121   -0.13 9  203 296 
                                                                                
