 2017  824 0833 25.1 L   6.819 -73.146148.0  RSN 27 0.5 2.4LRSN                1
 GAP= 65        0.76       2.1     2.1  3.3 -0.1051E+00  0.1632E+01  0.8357E+00E
 Epicentro: LOS SANTOS - SANTANDER                                             3
 ACTION:UPD 17-09-04 20:24 OP:rebc STATUS:               ID:20170824083325 L   I
 OLDACT:UP  17-08-24 17:53 OP:and  STATUS:               ID:20170824082745     3
 OLDACT:UP  17-08-24 17:52 OP:and  STATUS:               ID:20170824082745     3
 OLDACT:UP  17-08-24 17:51 OP:and  STATUS:               ID:20170824082745     3
 OLDACT:UP  17-08-24 17:49 OP:and  STATUS:               ID:20170824082745     3
 OLDACT:UP  17-08-24 17:49 OP:and  STATUS:               ID:20170824082745     3
 OLDACT:UP  17-08-24 17:49 OP:and  STATUS:               ID:20170824082745     3
 OLDACT:UP  17-08-24 17:48 OP:and  STATUS:               ID:20170824082745     3
 OLDACT:UP  17-08-24 17:47 OP:and  STATUS:               ID:20170824082745     3
 OLDACT:REG 17-08-24 13:16 OP:and  STATUS:               ID:20170824082745     3
 2017-08-24-0828-00M.COL___420                                                 6
 STAT SP IPHASW D HRMM SECON CODA AMPLIT PERI AZIMU VELO AIN AR TRES W  DIS CAZ7
 BAR2 EZ IP     D  833 44.91                             170   -0.1610 25.4 189 
 BAR2 EZ ES        833 59.86                             170   -0.7710 25.4 189 
 BAR2 EZ I         834  1.01        89.0 0.34            167           25.4 189 
 BRR  HZ EP        833 46.69                             153    0.2210 70.2 297 
 BRR  HN ES        834  3.90                             153    0.7910 70.2 297 
 BRR  HZ I         834  6.93        55.4 0.26            151           70.2 297 
 PAM  EZ IP     C  833 47.99                             152    0.4910 75.8  41 
 PAM  EN ES        834  4.71                             152   -0.2310 75.8  41 
 PAM  EZ I         834  7.12        47.1 0.48            155           75.8  41 
 RUS  HZ EP        833 49.14                             144   -0.1110  103 176 
 RUS  HN ES        834  7.83                             144   -0.2410  103 176 
 RUS  HZ I         834  8.67        33.9 0.28            143            103 176 
 TAM  HZ IP     D  833 53.36                             131    0.32 9  156 106 
 TAM  HN ES        834 14.91                             131    0.10 9  156 106 
 TAM  HZ I         834 15.71        16.1 0.28            133            156 106 
 SPBC HZ EP        833 53.78                             129   -0.17 9  165 219 
 SPBC HN ES        834 16.58                             129    0.15 9  165 219 
 SPBC HZ I         834 18.34        51.5 0.10            128            165 219 
 YPLC HZ IP     D  833 55.36                             127    0.09 9  179 152 
 YPLC HN ES        834 19.04                             127    0.26 9  179 152 
 YPLC HZ I         834 22.16        19.1 0.28            127            179 152 
 ZAR  HZ EP        833 57.53                             123   -0.11 9  203 292 
 ZAR  HE ES        834 22.95                             123   -0.04 9  203 292 
 ZAR  HZ I         834 29.22        28.6 0.17            122            203 292 
 TABC EZ EP   9    834  3.03                             119    1.83 0  232 210 
 TABC EZ ES        834 31.33                             119    0.17 8  232 210 
 TABC EZ I         834 33.42        25.7 0.36            119            232 210 
 NOR  HZ EP        834  0.95                             119   -0.17 8  236 234 
 NOR  HN ES        834 28.94                             119   -0.25 8  236 234 
 NOR  HZ I         834 33.89        16.0 0.18            118            236 234 
 CHI  HZ EP        834  3.09                             117   -0.08 8  251 195 
 CHI  HN ES        834 32.41                             117   -0.43 8  251 195 
 CHI  HZ I         834 37.54        15.2 0.38            117            251 195 
 ROSC BZ EP   9    834  5.93                             117    2.36 0  255 211 
 ROSC BN ES        834 35.86                             117   -0.05 8  255 211 
 ROSC BZ I         834 39.62        36.2 0.40            116            255 211 
 HEL  HZ EP   9    834  6.56                             115    1.05 0  273 255 
 HEL  HN ES        834 38.38                             115    0.33 8  273 255 
 HEL  HZ I         834 45.21        11.1 0.22            114            273 255 
 URE  HZ EP        834  5.59                             114   -0.63 7  283 292 
 URE  HN ES   4    834 35.64                             114   -2.63 0  283 292 
 URE  HZ I         834 46.22        16.0 0.40            114            283 292 
 GUY2CHZ EP        834  8.89                             113   -0.09 7  302 234 
 GUY2CHN ES   3    834 45.08                             113    1.91 2  302 234 
 GUY2CHZ I         834 51.12        11.4 0.30                           302 234 
 VIL  EZ EP        834  9.37                             112    0.49 7  305 191 
 VIL  EN ES   3    834 41.05                             112   -1.96 2  305 191 
 VIL  EZ I         834 52.60        20.4 0.48            112            305 191 
 PTGC HZ IP   3 D  834  8.02                             112   -1.29 2  311 159 
 PTGC HN ES   4    834 41.29                             112   -2.48 0  311 159 
 PTGC HZ I         834 44.16        13.1 0.40            112            311 159 
 LL6C HZ EP   2    834 10.23                             111   -0.46 3  323 358 
 LL6C HN ES   2    834 46.00                             111   -0.23 3  323 358 
 LL6C HZ I         834 50.13         9.8 0.64            111            323 358 
 ELA  HZ EP   3    834 13.96                             111    1.73 2  330 229 
 ELA  HN ES        834 49.40                             111    0.44 7  330 229 
 ELA  HZ I         834 56.75        10.4 0.36            110            330 229 
 DBB  EZ EP        834 13.08                             110    0.40 7  339 274 
 DBB  EN ES   3    834 48.16                             110   -1.60 2  339 274 
 DBB  EZ I         834 50.40         7.3 0.36            109            339 274 
 ARGC HZ EP   4    834 12.34                             109   -2.30 0  357 340 
 ARGC HN ES   4    834 54.51                             109    1.25 0  357 340 
 ANIL HZ EP   4    834 18.36                             109    3.17 0  359 224 
 ANIL HN ES   3    834 56.15                             109    1.91 2  359 224 
 ANIL HZ I         835  0.42        27.4 0.36            108            359 224 
 PRA  HZ EP        834 18.90                             107   -0.04 6  394 209 
 PRA  HN ES   3    834 59.61                             107   -1.30 1  394 209 
 PRA  HZ I         835  8.67         8.9 0.22            107            394 209 
 ORTC HZ EP        834 19.29                             107   -0.03 6  397 216 
 ORTC HN ES   2    835  2.58                             107    0.99 3  397 216 
 ORTC HZ I         835  6.31         9.0 0.22            106            397 216 
 SJC  HZ IP   3 C  834 19.12                             106   -1.44 1  407 327 
 SJC  HN ES   4    834 59.78                             106   -4.01 0  407 327 
 SJC  HZ I         835  4.30         4.0 0.48            106            407 327 
 PAL  HZ EP        834 20.39                             106   -0.10 6  407 239 
 PAL  HN ES   1    835  3.91                             106    0.25 4  407 239 
 PAL  HZ I         835  8.87         3.6 0.40            106            407 239 
 VALLCHZ EP   9    834 21.63                             106    1.02 0  408 358 
 VALLCHN ES        835  4.86                             106   -0.04 6  408 358 
 YOT  HZ EP        834 28.05                             103   -0.35 5  473 229 
                                                                                
