 2017  724 0435 11.8 L   6.737 -73.185152.1  RSN  4 0.3 1.0LRSN                1
 GAP=228        0.70       6.5     8.1  6.1  0.3147E+02  0.1124E+02  0.1085E+01E
 Epicentro: VILLANUEVA - SANTANDER                                             3
 ACTION:UPD 17-08-30 15:36 OP:rebc STATUS:               ID:20170724043511 L   I
 OLDACT:UP  17-07-24 16:37 OP:and  STATUS:               ID:20170724042738     3
 OLDACT:REG 17-07-24 12:55 OP:and  STATUS:               ID:20170724042738     3
 2017-07-24-0428-00M.COL___380                                                 6
 STAT SP IPHASW D HRMM SECON CODA AMPLIT PERI AZIMU VELO AIN AR TRES W  DIS CAZ7
 BAR2 EZ EP        435 31.86                             173   -0.2110 16.0 179 
 BAR2 EZ ES        435 47.44                             173   -0.4410 16.0 179 
 BAR2 EZ I         435 48.34         5.3 0.12            168           16.0 179 
 BRR  HZ EP        435 33.68                             153    0.0510 71.2 305 
 BRR  HN ES        435 51.01                             153    0.3410 71.2 305 
 RUS  HZ EP   2    435 35.86                             147    0.13 5 94.0 173 
 RUS  HN ES        435 54.72                             147    0.3210 94.0 173 
 RUS  HZ I         435 55.50         1.1 0.22            145           94.0 173 
 PTB  HZ EP        435 38.81                             134    0.01 9  142 261 
 PTB  HN ES   2    435 59.44                             134   -0.43 5  142 261 
 PTB  HZ I         436  3.72         0.6 0.10            131            142 261 
                                                                                
