 2014 1224 0054 55.2 L   6.319 -73.679 99.0  RSN  4 0.4 1.4LRSN                1
 GAP=177        1.06       6.0     4.5 10.7 -0.4511E+01  0.1793E+02  0.8613E+01E
 Epicentro: SANTA HELENA DEL OPON - SANTANDER                                  3
 ACTION:UPD 15-02-10 17:06 OP:nd   STATUS:               ID:20141224005455 L   I
 OLDACT:UP  14-12-24 13:47 OP:mh   STATUS:               ID:20141224004744     3
 OLDACT:REG 14-12-24 13:11 OP:mh   STATUS:               ID:20141224004744     3
 2014-12-24-0047-44M.COL___289                                                 6
 STAT SP IPHASW D HRMM SECON CODA AMPLIT PERI AZIMU VELO AIN AR TRES W  DIS CAZ7
 BAR2 EZ EP        055 11.45                             145    0.1910 62.7  61 
 BAR2 EZ ES        055 23.89                             145    0.1110 62.7  61 
 BAR2 EZ I         055 25.57        19.3 0.07            151           62.7  61 
 PTB  HZ EP        055 12.57                             135   -0.5010 89.4 286 
 PTB  HN ES        055 26.50                             135   -0.5110 89.4 286 
 PTB  HZ I         055 29.27         4.2 0.10            136           89.4 286 
 NOR  HZ EP        055 19.49                             118   -0.29 9  156 238 
 NOR  HN ES        055 39.59                             118    0.64 9  156 238 
 NOR  HZ I         055 45.02         3.0 0.13            119            156 238 
 ZAR  HZ EP   1    055 22.65                             114   -0.16 7  184 315 
 ZAR  HN ES        055 44.97                             114    0.62 9  184 315 
 ZAR  HZ I         055 48.62         3.4 0.24            115            184 315 
                                                                                
