 2014  224 0541  5.1 L   6.808 -73.125141.8  RSN  7 0.3 1.4LRSN                1
 GAP=139        0.74       3.0     3.6  7.5  0.1390E+00  0.9609E+01 -0.4017E+01E
 Epicentro: LOS SANTOS - SANTANDER                                             3
 ACTION:UPD 14-03-10 08:12 OP:ep   STATUS:               ID:20140224054105 L   I
 OLDACT:REG 14-02-24 08:21 OP:y    STATUS:               ID:20140224053806     3
 2014-02-24-0538-06M.COL___223                                                 6
 STAT SP IPHASW D HRMM SECON CODA AMPLIT PERI AZIMU VELO AIN AR TRES W  DIS CAZ7
 PAM  SZ EP        541 27.05                             151    0.3210 75.2  39 
 PAM  SN ES        541 43.81                             151    0.1810 75.2  39 
 PAM  SZ I         541 46.15         5.3 0.62            153           75.2  39 
 RUS  HZ EP        541 28.49                             143    0.0010  101 177 
 RUS  HN ES        541 46.44                             143   -0.3110  101 177 
 RUS  HZ I         541 47.27         2.2 0.50            147            101 177 
 PTB  HZ EP   1    541 31.98                             131    0.05 7  150 259 
 PTB  HN ES        541 52.85                             131   -0.04 9  150 259 
 PTB  HZ I         541 54.88         3.0 0.30            132            150 259 
 OCA  HN ES   2    541 54.69                             129   -0.12 5  160 352 
 OCA  HZ I         541 57.27         4.0 0.32            130            160 352 
 ZAR  HZ EP   2    541 37.64                             121    0.20 4  206 292 
 ZAR  HN ES        542  3.14                             121    0.46 8  206 292 
 ZAR  HZ I         542  7.94         3.0 0.52            123            206 292 
 SML  HZ EP   4    541 40.35                             117   -1.13 0  244 335 
 SML  HN ES        542  9.11                             117   -0.78 8  244 335 
 SML  HZ I         542 12.01         3.4 0.36            118            244 335 
 SJC  HZ EP   1    542  0.38                             105   -0.17 4  410 327 
                                                                                
