 2017 1124 0700 35.6 L   5.996 -73.907 31.7  RSN  6 0.4 1.1LRSN                1
 GAP=109        0.93       3.9     2.0  4.9 -0.6203E+00 -0.5866E+00 -0.1356E+02E
 Epicentro: EL PENON - SANTANDER                                               3
 ACTION:UPD 17-12-12 19:59 OP:rebc STATUS:               ID:20171124070035 L   I
 OLDACT:DUP 17-11-24 16:42 OP:osc  STATUS:               ID:20171124065742d    3
 2017-11-24-0658-00M.COL___483                                                 6
 STAT SP IPHASW D HRMM SECON CODA AMPLIT PERI AZIMU VELO AIN AR TRES W  DIS CAZ7
 SPBC HZ EP        7 0 43.97                             122   -0.0010 42.2 206 
 SPBC HE ES        7 0 50.49                             122    0.0210 42.2 206 
 SPBC HZ I         7 0 51.42        22.0 0.09            125           42.2 206 
 PTB  HZ EP        7 0 48.87                              61   -0.4710 85.5 315 
 PTB  HN ES        7 1  0.04                              61    0.0210 85.5 315 
 PTB  HZ I         7 1  1.16         4.0 0.18             99           85.5 315 
 RUS  HZ EP        7 0 50.47                              61   -0.2410 91.9  97 
 RUS  HN ES        7 1  2.12                              61   -0.3510 91.9  97 
 RUS  HZ I         7 1  3.59         2.7 0.22             98           91.9  97 
 BAR2 EZ EP        7 0 52.54                              61    0.6510  104  51 
 BAR2 EZ ES        7 1  4.78                              61    0.2110  104  51 
 BAR2 EZ I         7 1  7.89         7.3 0.30             96            104  51 
 HEL  HN ES        7 1 21.66                              61   -0.33 9  181 277 
 GUY2CHE ES        7 1 23.18                              61    0.55 9  183 242 
                                                                                
