 2011  324 0936 57.4 L   6.781 -73.075147.7  RSN  7 0.3 2.0LRSN                1
 GAP=207        0.53       3.1     5.7  4.4 -0.4294E+01  0.1369E+01  0.4522E+01E
 Epicentro: LOS SANTOS - SANTANDER                                             3
 ACTION:UP  11-06-16 14:35 OP:jfem STATUS:               ID:20110324093657 L   I
 2011-03-24-0935-25S.COL___132                                                 6
 STAT SP IPHASW D HRMM SECON CODA AMPLIT PERI AZIMU VELO SNR AR TRES W  DIS CAZ7
 BAR2 SZ EP   1    937 17.27                             170     0.010   24 210 
 BAR2 SZ ES   1    937 32.80                             170     0.010   24 210 
 BAR2 SZ I         937 35.16        23.4 0.21                            24 210 
 BRR  HZ EP   1    937 19.27        22.6 0.10            150     0.110   79 297 
 BRR  HE ES   1    937 36.39                             150     0.210   79 297 
 BRR  HZ I         937 39.88        22.6 0.10                            79 297 
 OCA  SZ EP   1    937 25.90                             129    -0.2 9  163 351 
 OCA  SZ ES   2    937 48.54                             129     0.0 6  163 351 
 OCA  SZ I         937 53.97        16.9 0.29                           163 351 
 NOR  SZ EP   1    937 33.62                             118    -0.2 8  240 236 
 NOR  SN ES   1    938  1.64                             118    -0.6 8  240 236 
 CHI  HZ EP        937 35.07                             117    -0.110  249 197 
 CHI  HZ I         937 37.38         5.1 0.15                           249 197 
 CHI  HN ES   2    938  4.70                             117     0.0 5  249 197 
 DBB  SZ EP   1    937 46.35                             109     0.5 6  347 274 
 PRA  HZ EP        937 51.52                             107     0.3 7  394 211 
 PRA  HN ES   1    938 33.79                             107     0.6 6  394 211 
                                                                                
