 2016 1124 0714 42.2 L   6.720 -73.111139.7  RSN  4 0.3 1.1LRSN                1
 GAP=176        0.69       6.9     4.8  5.6 -0.1334E+02  0.3363E+01  0.4120E+01E
 Epicentro: JORDAN - SANTANDER                                                 3
 ACTION:UPD 17-10-26 21:11 OP:lp   STATUS:               ID:20161124071442 L   I
 OLDACT:UP  16-11-24 16:25 OP:dani STATUS:               ID:20161124070640     3
 OLDACT:REG 16-11-24 12:54 OP:dani STATUS:               ID:20161124070640     3
 2016-11-24-0707-00M.COL___349                                                 6
 STAT SP IPHASW D HRMM SECON CODA AMPLIT PERI AZIMU VELO AIN AR TRES W  DIS CAZ7
 BAR2 EZ EP        715  0.89                             173   -0.0810 16.1 209 
 BAR2 EZ ES        715 15.76                             173    0.1510 16.1 209 
 BAR2 EZ I         715 17.06         5.1 0.28            169           16.1 209 
 BRR  HZ EP        715  2.99                             149   -0.1810 79.0 303 
 BRR  HN ES        715 19.83                             149    0.3110 79.0 303 
 BRR  HZ I         715 27.34         1.8 0.22            143           79.0 303 
 PAM  EZ EP        715  4.09                             148    0.0110 82.3  34 
 PAM  EN ES        715 20.93                             148   -0.2110 82.3  34 
 PTB  HZ EP        715  9.15                             130    0.26 9  150 262 
 PTB  HN ES   2    715 28.66                             130   -1.05 5  150 262 
 PTB  HZ I         715 32.89         1.4 0.15            129            150 262 
                                                                                
