 2016  724 0429 22.1 L   6.793 -73.152144.7  RSN  7 0.4 1.4LRSN                1
 GAP=136        1.10       4.7     5.5  8.0 -0.7805E+00  0.8173E+01  0.3828E+01E
 Epicentro: LOS SANTOS - SANTANDER                                             3
 ACTION:UPD 17-03-29 16:54 OP:lp   STATUS:               ID:20160724042922 L   I
 OLDACT:REG 16-07-24 13:54 OP:ar   STATUS:               ID:20160724041759     3
 2016-07-24-0417-59S.COL___337                                                 6
 STAT SP IPHASW D HRMM SECON CODA AMPLIT PERI AZIMU VELO AIN AR TRES W  DIS CAZ7
 BAR2 EZ EP        429 41.20                             171   -0.3710 22.5 189 
 BAR2 EZ ES        429 56.28                             171   -0.4910 22.5 189 
 BRR  HZ EP        429 43.17                             152    0.0610 71.0 299 
 BRR  HN ES        430  0.40                             152    0.9010 71.0 299 
 BRR  HZ I         430  8.30         5.6 0.24            151           71.0 299 
 PAM  EZ EP        429 44.20                             150   -0.0510 78.4  40 
 PAM  EN ES        430  1.53                             150   -0.0010 78.4  40 
 PAM  EZ I         430  3.73         3.4 0.27            155           78.4  40 
 RUS  HZ EP        429 45.85                             144    0.1710 99.9 176 
 RUS  HN ES        430  4.06                             144   -0.0210 99.9 176 
 RUS  HZ I         430  4.79         2.8 0.28            149           99.9 176 
 SPBC HZ EP        429 50.90                             129    0.49 9  162 219 
 SPBC HN ES        430 12.44                             129   -0.06 9  162 219 
 SPBC HZ I         430 16.36         5.9 0.18            132            162 219 
 ZAR  HN ES        430 18.90                             122   -0.76 9  204 292 
 GUY2CHZ EP   4    430  7.20                             112    1.66 0  300 235 
 GUY2CHN ES   4    430 43.22                             112    3.79 0  300 235 
 GUY2CHZ I         430 47.37         1.7 0.34                           300 235 
                                                                                
