 2012  624 0916  9.9 L   6.899 -73.209144.9  RSN  4 0.3 1.6LRSN                1
 GAP=155        0.66      13.2     7.5 11.0 -0.7921E+02 -0.3950E+01  0.4529E+02E
 Epicentro: BETULIA - SANTANDER                                                3
 ACTION:UPD 12-08-06 17:52 OP:ep   STATUS:               ID:20120624091609 L   I
 2012-06-24-0910-00M.COL___199                                                 6
 STAT SP IPHASW D HRMM SECON CODA AMPLIT PERI AZIMU VELO AIN AR TRES W  DIS CAZ7
 BAR2 SZ EP        916 29.40                             167   -0.3310 34.0 175 
 BAR2 SZ I         916 45.65         7.3 0.58                          34.0 175 
 PAM  SZ EP        916 32.19                             151    0.3010 74.4  49 
 PAM  SN ES   1    916 48.97                             151   -0.04 7 74.4  49 
 PAM  SZ I         916 51.24         8.6 0.46                          74.4  49 
 PTB  HZ EP        916 36.40                             132   -0.06 9  144 254 
 PTB  HE ES   1    916 57.08                             132   -0.06 7  144 254 
 NOR  SN ES   2    917 14.54                             118    0.89 4  236 231 
                                                                                
