 2017  224 0117 26.2 L   6.775 -73.123149.8  RSN  6 0.3 1.4LRSN                1
 GAP=238        0.90       7.3     8.5  5.7  0.4588E+02  0.1668E+00 -0.1233E+01E
 Epicentro: LOS SANTOS - SANTANDER                                             3
 ACTION:UPD 17-05-24 15:39 OP:jn   STATUS:               ID:20170224011726 L   I
 OLDACT:UP  17-02-24 14:08 OP:edw  STATUS:               ID:20170224010744d    3
 OLDACT:DUP 17-02-24 14:04 OP:edw  STATUS:               ID:20170224010744d    3
 OLDACT:UP  17-02-24 14:04 OP:edw  STATUS:               ID:20170224010743     3
 OLDACT:REG 17-02-24 12:13 OP:edw  STATUS:               ID:20170224010743     3
 2017-02-24-0108-00M.COL___394                                                 6
 STAT SP IPHASW D HRMM SECON CODA AMPLIT PERI AZIMU VELO AIN AR TRES W  DIS CAZ7
 BAR2 EZ ES        118  1.97                             173    0.0310 21.2 198 
 BRR  HZ EP     D  117 47.94                             152   -0.0510 74.7 299 
 BRR  HN ES        118  5.36                             152    0.3810 74.7 299 
 RUS  HZ EP        117 50.32                             146    0.1710 97.7 177 
 RUS  HN ES        118  8.36                             146   -0.4710 97.7 177 
 RUS  HZ I         118  9.94         3.5 0.42            136           97.7 177 
 PTB  HZ EP   9    117 52.99                             133   -0.69 0  150 260 
 PTB  HN ES        118 13.95                             133   -0.47 9  150 260 
 PTB  HZ I         118 19.02         3.5 0.44            124            150 260 
 ZAR  HZ EP        117 58.68                             123   -0.58 8  207 293 
 ZAR  HN ES        118 25.08                             123    0.03 8  207 293 
 ZAR  HZ I         118 30.17         3.5 0.42            118            207 293 
 CHI  HZ EP        118  4.44                             118    0.53 8  247 196 
 CHI  HE ES   4    118 34.61                             118    1.28 0  247 196 
 CHI  HZ I         118 39.80         1.4 0.30            113            247 196 
                                                                                
