 2014  924 0002 20.8 L   6.802 -73.160144.4  RSN 10 0.4 2.0LRSN                1
 GAP=135        1.06       3.2     4.4  5.7  0.3823E+00  0.6369E+01  0.5677E+00E
 Epicentro: LOS SANTOS - SANTANDER                                             3
 ACTION:UPD 14-10-03 23:08 OP:nd   STATUS:               ID:20140924000220 L   I
 OLDACT:UP  14-09-24 13:32 OP:cam  STATUS:               ID:20140924000000     3
 OLDACT:UP  14-09-24 13:32 OP:cam  STATUS:               ID:20140924000000     3
 OLDACT:REG 14-09-24 12:48 OP:cam  STATUS:               ID:20140924000000     3
 2014-09-24-0000-00M.COL___252                                                 6
 STAT SP IPHASW D HRMM SECON CODA AMPLIT PERI AZIMU VELO AIN AR TRES W  DIS CAZ7
 BAR2 SZ EP        0 2 40.11                             170   -0.1310 23.3 186 
 BAR2 SZ ES        0 2 54.84                             170   -0.5810 23.3 186 
 BAR2 SZ I         0 2 56.74        29.5 0.26            170           23.3 186 
 BRR  HZ EP        0 2 42.00                             153    0.3110 69.7 299 
 BRR  HN ES        0 2 58.69                             153    0.6910 69.7 299 
 BRR  HN I         0 2 59.44        71.8 0.30            152           69.7 299 
 PAM  SZ EP        0 2 43.10                             150    0.2110 78.2  41 
 PAM  SN ES        0 3  0.41                             150    0.2710 78.2  41 
 PAM  SZ I         0 3  2.91         7.7 0.28            153           78.2  41 
 RUS  HZ EP        0 2 44.19                             143   -0.2210  101 175 
 RUS  HN ES        0 3  3.01                             143    0.1610  101 175 
 RUS  HZ I         0 3  4.27        10.2 0.24            145            101 175 
 PTB  HZ EP        0 2 47.12                             132   -0.37 9  146 259 
 PTB  HN ES        0 3  7.66                             132   -0.67 9  146 259 
 PTB  HZ I         0 3 10.56        11.1 0.14            132            146 259 
 SPBC HZ EP        0 2 49.17                             129    0.08 9  162 219 
 SPBC HN ES        0 3 11.00                             129   -0.17 9  162 219 
 SPBC HZ I         0 3 16.08        15.8 0.18            130            162 219 
 ZAR  HZ EP        0 2 53.44                             122    0.47 9  203 292 
 ZAR  HN ES        0 3 18.66                             122    0.58 9  203 292 
 ZAR  HZ I         0 3 23.30         9.7 0.16            123            203 292 
 SML  HZ EP        0 2 56.70                             117   -0.53 8  243 336 
 SML  HN ES        0 3 24.81                             117   -0.85 8  243 336 
 SML  HZ I         0 3 27.37        12.2 0.10            119            243 336 
 CHI  HZ EP        0 2 58.50                             117    0.12 8  248 195 
 CHI  HN ES        0 3 27.75                             117    0.05 8  248 195 
 CHI  HZ I         0 3 31.53         6.2 0.82            118            248 195 
 GUY2CHZ EP        0 3  4.73                             112    0.54 7  300 235 
 GUY2CHZ I         0 3 46.38         5.4 0.36                           300 235 
                                                                                
