 2012 1124 0008 54.4 L   6.802 -73.406121.3  RSN  4 0.3 1.2LRSN                1
 GAP=141        0.67       5.7     4.9  7.6  0.3047E+01  0.1228E+02  0.8093E+01E
 Epicentro: SAN VICENTE DE CHUCURI - SANTANDER                                 3
 ACTION:UPD 12-12-05 15:35 OP:}ep  STATUS:               ID:20121124000854 L   I
 2012-11-24-0007-47M.COL___210                                                 6
 STAT SP IPHASW D HRMM SECON CODA AMPLIT PERI AZIMU VELO AIN AR TRES W  DIS CAZ7
 BAR2 SZ EP   1    0 9 11.65                             163    0.24 7 33.9 133 
 BAR2 SZ ES   1    0 9 25.14                             163    0.45 7 33.9 133 
 GIR2 SZ EP   1    0 9 11.80                             161    0.36 7 38.6  38 
 GIR2 SZ ES   1    0 9 24.19                             161   -0.55 7 38.6  38 
 GIR2 SZ I         0 9 26.48         6.7 0.48                          38.6  38 
 RUS  HZ EP   1    0 9 16.17                             136   -0.18 7  107 160 
 RUS  HZ I         0 9 32.69         1.6 0.50                           107 160 
 RUS  HE ES   1    0 9 33.25                             136   -0.21 7  107 160 
 PTB  HZ EP   1    0 9 16.60                             132   -0.23 7  120 256 
 PTB  HN ES   1    0 9 34.43                             132    0.11 7  120 256 
 PTB  HZ I         0 9 37.81         3.8 0.24                           120 256 
                                                                                
