 2017  124 0851 16.3 L   6.775 -73.137141.5  RSN  5 0.5 0.7LRSN                1
 GAP=139        1.21       6.5     6.2  9.2 -0.4789E+01  0.5161E+01  0.6412E+01E
 Epicentro: LOS SANTOS - SANTANDER                                             3
 ACTION:UPD 17-05-22 16:02 OP:jn   STATUS:               ID:20170124085116 L   I
 OLDACT:DUP 17-01-24 17:13 OP:lv   STATUS:               ID:20170124084741d    3
 2017-01-24-0848-00M.COL___330                                                 6
 STAT SP IPHASW D HRMM SECON CODA AMPLIT PERI AZIMU VELO AIN AR TRES W  DIS CAZ7
 BAR2 EZ EP        851 35.41                             171    0.0210 20.8 194 
 BAR2 EZ ES        851 50.22                             171   -0.0410 20.8 194 
 BRR  HN ES        851 54.25                             151    0.8710 73.4 300 
 PAM  EZ EP        851 38.31                             149    0.1310 79.0  38 
 PAM  EE ES        851 54.66                             149   -0.5710 79.0  38 
 PAM  EZ I         851 57.78         1.1 0.42            149           79.0  38 
 RUS  HZ EP        851 39.50                             144    0.0510 97.7 177 
 RUS  HN ES        851 57.64                             144    0.1510 97.7 177 
 PTB  HZ EP        851 43.18                             131    0.19 9  148 260 
 PTB  HN ES        852  2.88                             131   -0.90 9  148 260 
 PTB  HZ I         852  3.91         0.5 0.11            132            148 260 
                                                                                
