 2017  324 0136 29.8 L   6.788 -73.150142.0  RSN 12 0.5 2.4LRSN                1
 GAP=150        0.97       3.8     4.4  5.7 -0.5934E+01  0.4741E+01  0.6565E+01E
 Epicentro: LOS SANTOS - SANTANDER                                             3
 ACTION:UPD 17-05-25 18:44 OP:jn   STATUS:               ID:20170324013629 L   I
 OLDACT:UP  17-03-24 14:05 OP:cog  STATUS:               ID:20170324012742     3
 OLDACT:UP  17-03-24 14:01 OP:cog  STATUS:               ID:20170324012742     3
 OLDACT:REG 17-03-24 12:36 OP:cog  STATUS:               ID:20170324012742     3
 2017-03-24-0128-00M.COL___396                                                 6
 STAT SP IPHASW D HRMM SECON CODA AMPLIT PERI AZIMU VELO AIN AR TRES W  DIS CAZ7
 BAR2 EZ EP        136 48.79                             171   -0.2010 21.9 189 
 BAR2 EZ ES        137  4.30                             171    0.3710 21.9 189 
 BAR2 EZ I         137  4.88        63.4 0.36            169           21.9 189 
 BRR  HZ EP        136 50.62                             152    0.0210 71.4 300 
 BRR  HE ES        137  7.42                             152    0.6410 71.4 300 
 BRR  HZ I         137  8.39        36.4 0.14            149           71.4 300 
 PAM  EZ EP        136 51.66                             150   -0.0810 78.7  39 
 PAM  EN ES        137  8.65                             150   -0.1710 78.7  39 
 PAM  EZ I         137 11.01        74.8 0.52            153           78.7  39 
 PTB  HZ EP        136 55.97                             132   -0.46 9  147 259 
 PTB  HN ES        137 16.39                             132   -0.79 9  147 259 
 PTB  HZ I         137 18.50        13.6 0.32            130            147 259 
 SPBC HZ EP        136 57.78                             129   -0.14 9  162 219 
 SPBC HN ES        137 20.14                             129    0.31 9  162 219 
 SPBC HZ I         137 24.64        37.2 0.24            128            162 219 
 ZAR  HZ EP        137  2.11                             122    0.06 9  204 293 
 ZAR  HN ES   3    137 25.69                             122   -1.47 2  204 293 
 ZAR  HZ I         137 33.59        29.7 0.38            121            204 293 
 NOR  HN ES        137 32.21                             118   -0.62 8  233 235 
 NOR  HZ I         137 38.71        11.8 0.32            118            233 235 
 CHI  HZ EP        137  7.02                             117   -0.16 8  247 195 
 CHI  HE ES        137 36.34                             117    0.04 8  247 195 
 CHI  HZ I         137 39.81        16.5 0.50            117            247 195 
 ROSC BZ EP   3    137  9.21                             116    1.60 2  251 211 
 ROSC BN ES        137 37.34                             116    0.28 8  251 211 
 ROSC BZ I         137 42.66        26.3 0.45            116            251 211 
 URE  HZ EP   4    137 14.16                             113    3.43 0  284 292 
 URE  HE ES   4    137 40.68                             113   -1.95 0  284 292 
 URE  HZ I         137 50.62        15.5 0.30            113            284 292 
 CBOC HZ EP        137 17.47                             109    0.97 7  333 252 
 CBOC HE ES        137 53.60                             109    0.71 7  333 252 
 ANIL HN ES   4    138  0.11                             108    2.14 0  356 225 
 PRA  HZ EP        137 22.78                             106   -0.29 6  391 210 
 PRA  HN ES        138  4.54                             106   -0.05 6  391 210 
                                                                                
