 2012 1124 0726  1.2 L   6.810 -73.150149.2  RSN 12 0.4 2.5LRSN                1
 GAP= 70        0.79       2.7     3.2  5.1 -0.4964E-01  0.3698E+01  0.1629E+01E
 Epicentro: LOS SANTOS - SANTANDER                                             3
 ACTION:UPD 12-12-05 15:35 OP:}ep  STATUS:               ID:20121124072602dL   I
 2012-11-24-0720-00M.COL___233                                                 6
 STAT SP IPHASW D HRMM SECON CODA AMPLIT PERI AZIMU VELO AIN AR TRES W  DIS CAZ7
 BAR2 SZ IP     D  726 21.26                             170   -0.0410 24.4 188 
 BAR2 SZ ES   1    726 37.07                             170    0.12 7 24.4 188 
 BAR2 SZ I         726 37.99       127.6 0.46                          24.4 188 
 GIR2 SZ EP   1    726 21.33                             168    0.04 7 30.1 351 
 GIR2 SZ ES   1    726 37.48                             168    0.55 7 30.1 351 
 GIR2 SZ I         726 44.38        22.8 0.26                          30.1 351 
 PAM  SZ EP        726 24.05                             151    0.2710 76.8  40 
 PAM  SN ES   1    726 41.78                             151    0.40 7 76.8  40 
 PAM  SZ I         726 45.63        19.2 0.38                          76.8  40 
 RUS  HZ EP   1    726 25.12                             144   -0.29 7  102 176 
 RUS  HN ES   1    726 43.52                             144   -0.74 7  102 176 
 RUS  HZ I         726 44.95        43.1 0.36                           102 176 
 PTB  HZ EP   1    726 27.93                             133   -0.53 7  148 258 
 PTB  HN ES   1    726 49.12                             133   -0.58 7  148 258 
 PTB  HZ I         726 55.01        56.8 0.40                           148 258 
 TAM  HZ IP     C  726 29.42                             131    0.16 9  156 105 
 TAM  HN ES   1    726 51.12                             131    0.01 7  156 105 
 TAM  HZ I         726 52.32        22.4 0.44                           156 105 
 OCA  HZ EP   1    726 29.30                             131   -0.40 7  159 353 
 OCA  HN ES   1    726 51.63                             131   -0.28 7  159 353 
 OCA  HZ I         726 57.24        56.4 0.18                           159 353 
 ZAR  HZ EP   1    726 33.98                             123    0.16 6  203 292 
 ZAR  HN ES   1    726 59.56                             123    0.33 6  203 292 
 ZAR  HZ I         727  6.35        50.0 0.44                           203 292 
 SML  HZ EP   1    726 37.63                             118   -0.29 6  242 335 
 SML  HN ES   1    727  6.13                             118   -0.41 6  242 335 
 CHI  HZ EP   1    726 39.25                             118    0.02 6  250 195 
 CHI  HN ES   1    727  8.64                             118   -0.23 6  250 195 
 CHI  HZ I         727 18.65        11.0 0.40                           250 195 
 RREF HZ EP   1    726 48.20                             111    0.63 5  322 229 
 RREF HE ES   1    727 24.91                             111    1.20 5  322 229 
 RREF HZ I         727 29.91        23.2 0.26                           322 229 
 PRA  HZ EP   1    726 55.84                             107    0.88 4  393 209 
 PRA  HE ES   1    727 36.47                             107   -0.40 4  393 209 
 PRA  HZ I         727 42.59        11.4 0.35                           393 209 
                                                                                
