 2011  924 0450 15.1 L   6.854 -73.242121.8  RSN  7 0.3 2.2LRSN                1
 GAP=170        0.63       2.3     4.2  4.2  0.1922E+01  0.2780E+01  0.2741E+00E
 Epicentro: ZAPATOCA - SANTANDER                                               3
 ACTION:UPD 12-07-13 15:59 OP:ep   STATUS:               ID:20110924045015 L   I
 2011-09-24-0449-07S.COL___165                                                 6
 STAT SP IPHASW D HRMM SECON CODA AMPLIT PERI AZIMU VELO AIN AR TRES W  DIS CAZ7
 BTL  SZ EP        450 31.91                             176    0.3110 7.67 338 
 BAR2 SZ IP        450 32.34                             165    0.3210 29.7 167 
 BAR2 SZ I         450 32.59       124.9 0.07                          29.7 167 
 BAR2 SZ ES        450 45.37                             165    0.1410 29.7 167 
 BRR  HZ EP        450 32.68                             152   -0.2810 59.0 298 
 BRR  HN ES        450 46.79                             152   -0.1110 59.0 298 
 BRR  HZ I         450 47.85        48.0 0.14                          59.0 298 
 RUS  HZ EP        450 37.33                             136    0.1610  108 171 
 RUS  HN ES        450 54.16                             136   -0.2310  108 171 
 RUS  HZ I         450 55.87        16.1 0.23                           108 171 
 OCA  SZ EP        450 40.96                             125    0.00 9  153 357 
 OCA  SZ ES   1    451  0.69                             125   -0.45 7  153 357 
 OCA  SZ I         451  2.22        31.5 0.24                           153 357 
 CHI  HZ EP   1    450 51.72                             111   -0.23 6  252 192 
 CHI  HZ I         450 52.95         6.5 0.08                           252 192 
 CHI  HN ES   1    451 20.18                             111   -0.53 6  252 192 
 HEL  HZ EP   1    450 53.44                             110    0.23 6  263 254 
 HEL  HN ES   1    451 23.22                             110    0.28 6  263 254 
 HEL  HZ I         451 26.20         5.2 0.55                           263 254 
                                                                                
