 2012  524 0819 35.2 L   5.964 -74.007 12.3  RSN  4 0.5 1.0LRSN                1
 GAP=151        1.36       9.4     4.3 13.0  0.5842E+00  0.2521E+02 -0.1227E+02E
 Epicentro: LA BELLEZA - SANTANDER                                             3
 ACTION:UP  12-07-05 12:07 OP:pat  STATUS:               ID:20120524081935 L   I
 2012-05-24-0814-44M.COL___181                                                 6
 STAT SP IPHASW D HRMM SECON CODA AMPLIT PERI AZIMU VELO SNR AR TRES W  DIS CAZ7
 PTB  HZ EP        819 48.00                              96    -0.110   81 322 
 PTB  HZ I         820  0.54         8.0 0.10                            81 322 
 RUS  HZ EP        819 52.49                              95     0.610  103  94 
 RUS  HZ I         819 53.80         1.8 0.21                           103  94 
 RUS  HE ES   1    820  4.08                              95    -0.8 7  103  94 
 NOR  SN ES   1    820  4.64                              95    -0.2 7  105 245 
 HEL  HZ EP   1    820  2.20                              56     0.7 7  170 279 
 HEL  HE ES   1    820 21.48                              56    -0.5 7  170 279 
 HEL  HZ I         820 23.73         1.8 0.26                           170 279 
                                                                                
