 2013  424 0741  8.2 L   6.711 -73.206150.7  RSN  7 0.4 1.8LRSN                1
 GAP=167        0.79       5.7     6.3  9.4  0.1702E+02 -0.5361E+01 -0.1427E+02E
 Epicentro: VILLANUEVA - SANTANDER                                             3
 ACTION:UPD 13-05-22 14:40 OP:EP   STATUS:               ID:20130424074108 L   I
 2013-04-24-0738-45M.COL___205                                                 6
 STAT SP IPHASW D HRMM SECON CODA AMPLIT PERI AZIMU VELO AIN AR TRES W  DIS CAZ7
 BAR2 SZ IP        741 28.31                             175   -0.0110 13.4 169 
 BAR2 SZ EP        741 28.32                             175           13.4 169 
 GIR2 SZ EP   1    741 28.46                             164   -0.33 7 40.6   2 
 BRR  HZ EP   1    741 30.26                             153    0.33 7 71.0 308 
 BRR  HN ES   1    741 47.49                             153    0.65 7 71.0 308 
 BRR  HN I         741 47.83        14.8 0.20            151           71.0 308 
 RUS  HZ EP   1    741 32.03                             147    0.15 7 91.6 171 
 RUS  HN ES   1    741 50.07                             147   -0.24 7 91.6 171 
 RUS  HN I         741 52.01         5.3 0.24            148           91.6 171 
 PTB  HZ EP   1    741 34.83                             135   -0.08 7  140 262 
 PTB  HN ES   1    741 55.17                             135   -0.53 7  140 262 
 PTB  HN I         741 58.53         7.2 0.24            133            140 262 
 ZAR  HZ EP   1    741 41.40                             124    0.60 6  202 295 
 ZAR  HN ES   1    742  6.26                             124    0.06 6  202 295 
 ZAR  HN I         742 12.65         5.9 0.24            123            202 295 
 SML  HN ES   1    742 14.37                             118   -0.79 6  250 338 
 SML  HN I         742 17.05         7.7 0.10            118            250 338 
                                                                                
