 2017  224 0921  2.6 L   6.819 -73.186139.9  RSN  6 0.2 1.4LRSN                1
 GAP=145        0.56       3.1     3.0  4.7 -0.3812E+01  0.4680E+01 -0.4672E+00E
 Epicentro: ZAPATOCA - SANTANDER                                               3
 ACTION:UPD 17-05-24 15:40 OP:jn   STATUS:               ID:20170224092102 L   I
 OLDACT:UP  17-02-24 17:16 OP:edw  STATUS:               ID:20170224091623     3
 OLDACT:REG 17-02-24 12:57 OP:edw  STATUS:               ID:20170224091623     3
 2017-02-24-0918-00M.COL___379                                                 6
 STAT SP IPHASW D HRMM SECON CODA AMPLIT PERI AZIMU VELO AIN AR TRES W  DIS CAZ7
 BAR2 EZ EP     C  921 21.59                             170   -0.0210 25.0 179 
 BAR2 EZ ES        921 36.25                             170   -0.1410 25.0 179 
 BAR2 EZ I         921 37.84         9.0 0.26            171           25.0 179 
 PAM  EZ IP     D  921 24.61                             149    0.2910 78.8  43 
 PAM  EN ES        921 41.27                             149    0.0410 78.8  43 
 PAM  EZ I         921 44.07         2.8 0.36            152           78.8  43 
 RUS  HZ EP        921 25.67                             142   -0.3410  103 174 
 RUS  HN ES        921 44.33                             142    0.1010  103 174 
 RUS  HZ I         921 46.43         4.4 0.18            145            103 174 
 PTB  HZ EP        921 28.49                             131   -0.28 9  144 258 
 PTB  HN ES        921 49.32                             131    0.17 9  144 258 
 PTB  HZ I         921 51.90         3.8 0.40            134            144 258 
 NOR  HN ES        922  5.31                             118    0.13 8  232 233 
 CHI  HZ EP   4    921 40.84                             116    0.72 0  250 194 
 CHI  HE ES   2    922  9.91                             116    0.56 4  250 194 
 PTGC HE ES   4    922 17.37                             110   -3.61 0  312 158 
                                                                                
