 2017 1024 0938  9.5 L   6.358 -73.650103.1  RSN  6 0.6 1.2LRSN                1
 GAP=110        1.41       6.3     5.5 10.2  0.6212E+01  0.6145E+01 -0.8616E+01E
 Epicentro: SANTA HELENA DEL OPON - SANTANDER                                  3
 ACTION:UPD 17-11-07 19:36 OP:rebc STATUS:               ID:20171024093809 L   I
 OLDACT:DUP 17-10-24 17:18 OP:dani STATUS:               ID:20171024092701d    3
 OLDACT:UP  17-10-24 17:16 OP:dani STATUS:               ID:20171024092700     3
 OLDACT:REG 17-10-24 13:17 OP:dani STATUS:               ID:20171024092700     3
 2017-10-24-0928-00M.COL___425                                                 6
 STAT SP IPHASW D HRMM SECON CODA AMPLIT PERI AZIMU VELO AIN AR TRES W  DIS CAZ7
 BAR2 EZ EP        938 25.69                             148    0.0310 57.8  63 
 BAR2 EZ ES        938 38.40                             148    0.1410 57.8  63 
 BAR2 EZ I         938 40.13        15.6 0.30            152           57.8  63 
 SPBC HZ EP        938 27.45                             135   -0.5210 91.0 211 
 SPBC HN ES        938 43.27                             135    0.9010 91.0 211 
 SPBC HZ I         938 44.56         3.1 0.22            138           91.0 211 
 PTB  HZ EP        938 27.74                             135   -0.1610 91.4 283 
 PTB  HN ES        938 41.27                             135   -0.9810 91.4 283 
 PTB  HZ I         938 44.39         1.6 0.09            136           91.4 283 
 YPLC HZ EP        938 36.25                             115   -0.30 9  176 127 
 ZAR  HZ EP        938 37.08                             114   -0.15 9  183 313 
 ZAR  HN ES        938 59.44                             114    0.58 9  183 313 
 ZAR  HZ I         939  3.27         2.3 0.39            116            183 313 
 URE  HZ EP        938 46.76                             105    0.82 8  259 307 
                                                                                
