 2013  824 0643 47.4 L   6.792 -73.126140.0  RSN 16 0.5 2.3LRSN                1
 GAP=139        1.11       2.9     4.5  5.8 -0.2082E+01  0.8021E+01  0.1195E+01E
 Epicentro: LOS SANTOS - SANTANDER                                             3
 ACTION:UPD 14-01-14 09:06 OP:ep   STATUS:               ID:20130824064347 L   I
 OLDACT:REG 13-08-24 07:39 OP:nd   STATUS:               ID:20130824063959     3
 2013-08-24-0639-59M.COL___270                                                 6
 STAT SP IPHASW D HRMM SECON CODA AMPLIT PERI AZIMU VELO AIN AR TRES W  DIS CAZ7
 BAR2 SZ IP     D  644  6.62                             170    0.2710 23.0 196 
 BAR2 SZ ES        644 21.11                             170   -0.0010 23.0 196 
 BAR2 SZ I         644 22.22        80.5 0.28            168           23.0 196 
 BRR  HZ IP     C  644  8.50                             151    0.4210 73.5 298 
 BRR  HN ES        644 23.52                             151   -0.6810 73.5 298 
 BRR  HZ I         644 28.58        33.6 0.14            147           73.5 298 
 PAM  SZ IP     D  644  9.67                             150    0.6910 76.7  38 
 PAM  SN ES        644 26.24                             150    0.4410 76.7  38 
 PAM  SZ I         644 28.00        24.5 0.18            154           76.7  38 
 RUS  HZ EP     D  644 10.61                             143    0.0710 99.6 177 
 RUS  HN ES        644 28.11                             143   -0.4610 99.6 177 
 RUS  HZ I         644 29.85        23.7 0.24            144           99.6 177 
 OCA  HZ EP        644 15.21                             128   -0.18 9  161 352 
 OCA  HN ES        644 36.40                             128   -0.81 9  161 352 
 OCA  HZ I         644 40.61        37.7 0.18            129            161 352 
 SPBC HZ EP     D  644 15.57                             127    0.02 9  164 220 
 SPBC HN ES        644 37.40                             127   -0.09 9  164 220 
 SPBC HZ I         644 41.40        34.1 0.22            127            164 220 
 ZAR  HZ EP        644 19.83                             120    0.10 8  206 292 
 ZAR  HN ES        644 45.67                             120    0.73 8  206 292 
 ZAR  HZ I         644 53.20        27.2 0.28            120            206 292 
 NOR  HZ EP        644 23.23                             117    0.27 8  236 235 
 NOR  HN ES        644 50.33                             117   -0.35 8  236 235 
 NOR  HZ I         644 52.41        17.3 0.14            117            236 235 
 SML  HZ EP        644 23.01                             116   -0.90 8  245 335 
 SML  HN ES   2    644 52.22                             116   -0.15 4  245 335 
 SML  HZ I         644 58.01        40.6 0.08            117            245 335 
 CHI  HZ EP        644 24.98                             116    0.20 8  248 196 
 CHI  HN ES        644 53.69                             116   -0.23 8  248 196 
 CHI  HZ I         645  1.05         4.5 0.52            117            248 196 
 HEL  HZ EP   2    644 26.88                             113   -0.67 4  274 256 
 HEL  HN ES        644 59.81                             113    0.95 8  274 256 
 HEL  HZ I         645  5.72        10.0 0.26            113            274 256 
 URE  HZ EP   4    644 27.12                             112   -1.35 0  286 292 
 URE  HN ES   4    644 58.38                             112   -2.12 0  286 292 
 URE  HZ I         645  2.49        14.6 0.12            112            286 292 
 GUY2CHZ EP   4    644 32.25                             111    1.34 0  302 235 
 GUY2CHN ES   4    645  4.10                             111   -0.73 0  302 235 
 GUY2CHZ I         645 12.01         8.6 0.26                           302 235 
 RREF HZ EP   4    644 35.10                             109    1.66 0  323 230 
 RREF HN ES   4    645 10.83                             109    1.49 0  323 230 
 RREF HZ I         645 16.78         6.6 0.32            110            323 230 
 PRA  HZ EP        644 40.56                             105   -0.23 6  392 210 
 PRA  HN ES        645 21.90                             105   -0.51 6  392 210 
 PRA  HZ I         645 28.57         6.1 0.46            106            392 210 
 SJC  HZ EP   4    644 41.95                             104   -1.07 0  411 327 
 SJC  HN ES   4    645 22.00                             104   -4.38 0  411 327 
 SJC  HZ I         645 26.91         8.2 0.58            105            411 327 
                                                                                
