 2014  124 0816 38.4 L   6.829 -73.176144.4  RSN  4 0.3 1.4LRSN                1
 GAP=206        0.71       3.1     7.0 11.4  0.3358E+01 -0.3689E+02 -0.4617E+01E
 Epicentro: LOS SANTOS - SANTANDER                                             3
 ACTION:UPD 14-03-13 09:58 OP:ep   STATUS:               ID:20140124081638 L   I
 OLDACT:REG 14-01-24 07:52 OP:nd   STATUS:               ID:20140124081000     3
 2014-01-24-0810-00M.COL___285                                                 6
 STAT SP IPHASW D HRMM SECON CODA AMPLIT PERI AZIMU VELO AIN AR TRES W  DIS CAZ7
 BAR2 SZ EP        816 57.69                             169   -0.2010 26.2 182 
 BAR2 SZ I         817 14.61         6.7 0.26            156           26.2 182 
 PTB  HZ EP        817  4.78                             132   -0.21 9  145 257 
 PTB  HN ES        817 25.61                             132   -0.14 9  145 257 
 PTB  HZ I         817 27.76         2.2 0.46            166            145 257 
 SML  HZ EP        817 14.49                             118    0.04 8  239 336 
 SML  HN ES        817 42.97                             118    0.38 8  239 336 
 SML  HZ I         817 48.35         2.9 0.24            133            239 336 
 CHI  HZ EP        817 15.99                             116   -0.25 8  251 194 
 CHI  HN ES        817 46.40                             116    0.63 8  251 194 
 CHI  HZ I         817 53.73         0.8 0.42            131            251 194 
                                                                                
