 2015 1124 0631 13.2 L   6.715 -73.181147.9  RSN  5 0.3 1.1LRSN                1
 GAP=196        0.86       4.5     6.2  6.3  0.1111E+02  0.1871E+00 -0.8745E+01E
 Epicentro: VILLANUEVA - SANTANDER                                             3
 ACTION:UPD 15-12-28 16:13 OP:cam  STATUS:               ID:20151124063113 L   I
 OLDACT:REG 15-11-24 12:52 OP:ak   STATUS:               ID:20151124062748     3
 2015-11-24-0627-48M.COL___215                                                 6
 STAT SP IPHASW D HRMM SECON CODA AMPLIT PERI AZIMU VELO AIN AR TRES W  DIS CAZ7
 BAR2 EZ EP   1    631 32.90                             175    0.01 7 13.5 181 
 BAR2 EZ ES        631 47.93                             175   -0.3410 13.5 181 
 BAR2 EZ I         631 49.59         2.8 0.28            176           13.5 181 
 BRR  HZ EP        631 35.16                             152    0.5310 73.0 307 
 BRR  HE ES        631 51.76                             152    0.3810 73.0 307 
 BRR  HZ I         631 52.82         1.7 0.18            152           73.0 307 
 RUS  HZ EP        631 36.58                             147    0.0910 91.5 173 
 RUS  HN ES        631 54.62                             147   -0.0710 91.5 173 
 PTB  HZ EP        631 40.04                             134    0.23 9  142 262 
 PTB  HN ES        632  0.23                             134   -0.37 9  142 262 
 PTB  HZ I         632  1.68         1.4 0.12            134            142 262 
 SML  HZ EP        631 49.99                             117   -0.67 8  251 337 
 SML  HE ES        632 19.85                             117   -0.07 8  251 337 
 SML  HZ I         632 21.15         1.2 0.11            118            251 337 
                                                                                
