 2013  824 0026 55.6 L   6.528 -73.583103.2  RSN  7 0.4 1.7LRSN                1
 GAP= 93        1.10       3.5     4.5  7.2  0.1485E+01  0.8847E+01 -0.4644E+01E
 Epicentro: EL CARMEN DE CHUCURI - SANTANDER                                   3
 ACTION:UPD 14-01-14 09:06 OP:ep   STATUS:               ID:20130824002655 L   I
 OLDACT:REG 13-08-24 07:19 OP:nd   STATUS:               ID:20130824001959     3
 2013-08-24-0019-59M.COL___269                                                 6
 STAT SP IPHASW D HRMM SECON CODA AMPLIT PERI AZIMU VELO AIN AR TRES W  DIS CAZ7
 BAR2 SZ IP     C  027 11.14                             155    0.1610 44.9  81 
 BAR2 SZ ES        027 23.46                             155    0.4610 44.9  81 
 BAR2 SZ I         027 24.91        40.0 0.22            164           44.9  81 
 BRR  HZ EP        027 12.00                             145    0.1010 65.6 347 
 BRR  HN ES        027 24.55                             145   -0.1010 65.6 347 
 BRR  HZ I         027 34.78        10.5 0.32            150           65.6 347 
 RUS  HZ EP        027 14.06                             136   -0.3910 89.5 142 
 RUS  HN ES        027 28.84                             136   -0.3510 89.5 142 
 RUS  HZ I         027 32.20         3.0 0.22            145           89.5 142 
 PTB  HZ IP     C  027 14.00                             133   -0.4110 96.5 271 
 PTB  HN ES        027 28.71                             133   -0.4110 96.5 271 
 PTB  HZ I         027 30.11        12.8 0.16            137           96.5 271 
 SPBC HZ EP        027 15.63                             129   -0.2110  111 209 
 SPBC HN ES        027 32.23                             129    0.5710  111 209 
 SPBC HZ I         027 43.45         6.0 0.22            135            111 209 
 ZAR  HZ EP        027 23.52                             115    0.96 9  177 307 
 ZAR  HN ES   4    027 45.57                             115    1.94 0  177 307 
 ZAR  HZ I         027 47.60         9.0 0.58            121            177 307 
 SML  HZ EP        027 32.00                             106    0.24 8  257 348 
 SML  HE ES        027 59.48                             106   -0.53 8  257 348 
 SML  HZ I         028  3.72         7.4 0.10            112            257 348 
                                                                                
