 2010  924 0711 39.8 L   6.807 -73.074142.0  RSN  9 0.4 2.0LRSN                1
 GAP=167        0.79       3.5     7.5  6.0 -0.8754E+01  0.2659E+01  0.4077E+01E
 Epicentro: LOS SANTOS - SANTANDER                                             3
 ACTION:UP  11-02-18 11:05 OP:tino STATUS:               ID:20100924071139 L   I
 2010-09-24-0707-31S.COL___119                                                 6
 STAT SP IPHASW D HRMM SECON CODA AMPLIT PERI AZIMU VELO SNR AR TRES W  DIS CAZ7
 BAR2 SZ EP        711 58.92                             169    -0.110   27 207 
 BAR2 SZ ES   1    712 13.95                             169    -0.1 7   27 207 
 BAR2 SZ I         712 15.04        26.6 0.32                            27 207 
 BRR  HZ IP     D  712  0.66                             150    -0.210   78 295 
 BRR  HZ I         712  0.85        46.6 0.22                            78 295 
 BRR  HN ES   1    712 17.44                             150     0.0 7   78 295 
 RUS  HZ EP   1    712  3.18                             143     0.0 7  101 181 
 RUS  HE ES   2    712 21.43                             143     0.0 5  101 181 
 RUS  HZ I         712 23.02         9.1 0.44                           101 181 
 GRA  SZ EP   1    712  4.74                             137     0.3 7  123  14 
 GRA  SZ ES   1    712 24.28                             137     0.6 7  123  14 
 GRA  SZ I         712 27.29        15.5 0.28                           123  14 
 OCA  SZ EP        712  7.32                             129    -0.5 9  161 350 
 OCA  SZ ES   2    712 29.63                             129    -0.1 5  161 350 
 OCA  SZ I         712 34.10        15.7 0.32                           161 350 
 CHI  HZ EP        712 17.28                             116    -0.3 8  252 197 
 CHI  HE ES   2    712 46.65                             116    -0.4 4  252 197 
 CHI  HZ I         712 50.17         5.0 0.39                           252 197 
 ROSC BZ EP   1    712 18.67                             115     0.5 6  258 212 
 ROSC BZ I         712 20.88         5.1 0.32                           258 212 
 ROSC BE ES   2    712 49.01                             115     0.8 4  258 212 
 HEL  HZ EP   2    712 21.24                             113     0.6 4  280 256 
 HEL  HZ I         712 58.10        10.5 0.56                           280 256 
 RREF HZ EP   1    712 27.06                             110     0.6 5  328 230 
 RREF HE ES   2    713  2.89                             110     0.0 3  328 230 
 RREF HZ I         713 15.09         4.4 0.45                           328 230 
                                                                                
