 2016  924 0537  8.1 L   6.806 -73.143143.4  RSN 21 0.5 2.8LRSN                1
 GAP= 71        1.28       3.4     3.3  6.0 -0.1291E+01  0.6185E+01  0.2450E+01E
 Epicentro: LOS SANTOS - SANTANDER                                             3
 ACTION:UPD 17-08-17 21:15 OP:lp   STATUS:               ID:20160924053708 L   I
 OLDACT:UP  16-09-24 18:00 OP:drio STATUS:               ID:20160924052743     3
 OLDACT:UP  16-09-24 17:58 OP:drio STATUS:               ID:20160924052743     3
 OLDACT:REG 16-09-24 12:43 OP:y    STATUS:               ID:20160924052743     3
 2016-09-24-0528-00M.COL___330                                                 6
 STAT SP IPHASW D HRMM SECON CODA AMPLIT PERI AZIMU VELO AIN AR TRES W  DIS CAZ7
 BAR2 EZ EP        537 27.45                             170   -0.0410 24.0 190 
 BAR2 EZ ES        537 42.22                             170   -0.3710 24.0 190 
 BAR2 EZ I         537 43.24       158.7 0.28            168           24.0 190 
 BRR  HZ EP        537 29.31                             152    0.2910 71.2 298 
 BRR  HN ES        537 46.50                             152    1.1810 71.2 298 
 BRR  HZ I         537 53.65        86.8 0.50            151           71.2 298 
 PAM  EZ EP        537 30.43                             150    0.3810 76.7  40 
 PAM  EE ES        537 47.29                             150    0.1410 76.7  40 
 PAM  EZ I         537 49.73       124.3 0.40            157           76.7  40 
 RUS  HZ EP        537 31.44                             143   -0.2510  101 176 
 RUS  HE ES        537 49.82                             143   -0.2510  101 176 
 RUS  HZ I         537 50.60        65.2 0.48            145            101 176 
 PTB  HZ EP        537 34.15                             131   -0.79 9  148 259 
 PTB  HN ES        537 55.25                             131   -0.61 9  148 259 
 PTB  HZ I         538 13.94        28.6 0.16            132            148 259 
 TAM  HZ EP        537 35.83                             130    0.23 9  155 105 
 TAM  HE ES        537 57.38                             130    0.34 9  155 105 
 TAM  HZ I         537 57.91        62.8 0.24            137            155 105 
 OCA  HZ EP        537 35.71                             129   -0.49 9  160 353 
 OCA  HE ES        537 57.27                             129   -0.82 9  160 353 
 OCA  HZ I         538  3.61       154.5 0.26            133            160 353 
 SPBC HZ EP        537 36.50                             128   -0.01 9  164 219 
 SPBC HE ES        537 57.69                             128   -0.96 9  164 219 
 SPBC HZ I         538  1.01       148.6 0.20            130            164 219 
 ZAR  HZ EP        537 40.40                             122   -0.02 9  204 292 
 ZAR  HE ES        538  6.40                             122    0.79 9  204 292 
 ZAR  HZ I         538 11.35       117.3 0.28            123            204 292 
 NOR  HZ EP        537 43.68                             118   -0.11 8  235 234 
 NOR  HE ES        538 10.94                             118   -0.66 8  235 234 
 NOR  HZ I         538 15.44        57.2 0.42            120            235 234 
 CHI  HZ EP        537 45.79                             116    0.02 8  249 195 
 CHI  HE ES        538 15.13                             116   -0.00 8  249 195 
 CHI  HZ I         538 22.55        17.2 0.26            119            249 195 
 ROSC BZ EP   4    537 47.85                             116    1.66 0  253 211 
 ROSC BE ES        538 16.78                             116    0.89 8  253 211 
 ROSC BZ I         538 25.14        56.1 0.35            118            253 211 
 HEL  HZ EP        537 48.85                             114    0.58 8  273 256 
 HEL  HN ES        538 19.44                             114   -0.14 8  273 256 
 HEL  HZ I         538 26.56        31.9 0.30            116            273 256 
 URE  HZ EP   4    537 47.99                             113   -1.10 0  284 292 
 URE  HE ES   4    538 19.56                             113   -1.48 0  284 292 
 URE  HZ I         538 24.87        52.3 0.12            115            284 292 
 GUY2CHZ EP        537 51.89                             112    0.20 7  302 235 
 GUY2CHE ES        538 26.48                             112    0.80 7  302 235 
 GUY2CHZ I         538 34.27        31.0 0.68                           302 235 
 PTGC HZ EP   4    537 50.58                             111   -1.35 0  309 159 
 PTGC HE ES   4    538 23.70                             111   -2.40 0  309 159 
 PTGC HZ I         538 28.49        21.0 0.24            114            309 159 
 ELA  HZ EP   4    537 56.71                             110    1.76 0  330 229 
 ELA  HN ES   4    538 34.03                             110    2.55 0  330 229 
 ELA  HZ I         538 43.49        16.9 0.26            112            330 229 
 CBOC HZ EP        537 55.46                             109    0.46 7  334 252 
 CBOC HN ES        538 32.40                             109    0.84 7  334 252 
 CBOC HZ I         538 37.82        10.9 0.46            111            334 252 
 DBB  EZ EP        537 54.90                             109   -0.64 7  340 274 
 DBB  HN ES        538 32.13                             109   -0.39 7  340 274 
 ANIL HZ EP   4    537 59.38                             108    1.46 0  358 224 
 ANIL HE ES   4    538 38.55                             108    1.79 0  358 224 
 ANIL HZ I         538 45.87        60.3 0.28            110            358 224 
 PAL  HZ EP        538  3.42                             105    0.14 6  406 239 
 PAL  HN ES   4    538 48.64                             105    2.34 0  406 239 
 PAL  HZ I         538 50.63        10.2 0.48            107            406 239 
                                                                                
