 2013  824 0233 51.2 L   7.641 -73.210129.5  RSN  4 0.3 1.4LRSN                1
 GAP=215        0.72       4.3     7.0  8.4  0.3543E+01  0.1689E+01 -0.1810E+02E
 Epicentro: EL PLAYON - SANTANDER                                              3
 ACTION:UPD 14-01-14 09:06 OP:ep   STATUS:               ID:20130824023351 L   I
 OLDACT:REG 13-08-24 07:28 OP:nd   STATUS:               ID:20130824022959     3
 2013-08-24-0229-59M.COL___270                                                 6
 STAT SP IPHASW D HRMM SECON CODA AMPLIT PERI AZIMU VELO AIN AR TRES W  DIS CAZ7
 BRR  HZ EP     D  234 11.75                             146    0.4510 81.0 223 
 BRR  HE ES        234 27.07                             146    0.1310 81.0 223 
 BRR  HZ I         234 30.51         3.3 0.22            150           81.0 223 
 BAR2 SZ EP   2    234 13.56                             136   -0.79 5  116 178 
 BAR2 SZ ES        234 32.20                             136   -0.1710  116 178 
 BAR2 SZ I         234 32.99         5.0 0.36            144            116 178 
 SML  HZ EP        234 17.97                             126   -0.10 9  160 324 
 SML  HE ES   2    234 38.65                             126   -0.34 5  160 324 
 SML  HZ I         234 44.47         4.7 0.26            128            160 324 
 PTB  HZ EP        234 20.79                             121    0.23 9  184 229 
 PTB  HN ES        234 43.10                             121   -0.32 9  184 229 
 PTB  HZ I         234 45.22         2.1 0.28            127            184 229 
                                                                                
