 2016  524 1727 28.5 L   6.782 -73.182144.0  RSN  6 0.4 1.8LRSN                1
 GAP=232        1.04       5.5     6.0  7.1  0.1377E+02  0.7739E+01 -0.6019E+00E
 Epicentro: LOS SANTOS - SANTANDER                                             3
 ACTION:UPD 16-08-18 17:49 OP:cam  STATUS:               ID:20160524172728 L   I
 OLDACT:REG 16-05-24 20:59 OP:ar   STATUS:               ID:20160524171745     3
 2016-05-24-1717-45M.COL___317                                                 6
 STAT SP IPHASW D HRMM SECON CODA AMPLIT PERI AZIMU VELO AIN AR TRES W  DIS CAZ7
 BAR2 EZ EP       1727 47.71                             171   -0.1710 21.0 180 
 BAR2 EZ ES       1728  2.58                             171   -0.4110 21.0 180 
 BAR2 EZ I        1728  4.18         8.3 0.18            165           21.0 180 
 BRR  HZ EP       1727 49.49                             153    0.1610 68.7 302 
 BRR  HN ES       1728  5.86                             153    0.3010 68.7 302 
 BRR  HZ I        1728  8.66        22.1 0.38            147           68.7 302 
 RUS  HZ EP       1727 52.17                             144    0.1910 99.0 174 
 RUS  HN ES       1728 10.52                             144    0.2510 99.0 174 
 PTB  HZ EP       1727 54.01                             132   -0.94 9  143 259 
 PTB  HN ES       1728 15.05                             132   -0.51 9  143 259 
 PTB  HZ I        1728 22.62         6.6 0.42            129            143 259 
 SPBC HZ EP       1727 56.70                             129    0.20 9  159 218 
 SPBC HN ES       1728 18.67                             129    0.35 9  159 218 
 SPBC HZ I        1728 24.66         9.5 0.20            127            159 218 
 ZAR  HZ EP       1728  0.71                             122    0.17 9  201 293 
 ZAR  HN ES       1728 26.03                             122    0.51 9  201 293 
 ZAR  HZ I        1728 35.57         5.0 0.36            121            201 293 
                                                                                
