 2015  524 1942 39.8 L   6.790 -73.122148.7  RSN  8 0.3 1.9LRSN                1
 GAP=140        0.77       2.6     3.8  5.0 -0.8027E+00  0.4633E+01 -0.2723E+00E
 Epicentro: LOS SANTOS - SANTANDER                                             3
 ACTION:UPD 15-09-10 22:06 OP:cam  STATUS:               ID:20150524194239 L   I
 OLDACT:UP  15-05-24 23:15 OP:mh   STATUS:               ID:20150524192848     3
 OLDACT:REG 15-05-24 23:09 OP:mh   STATUS:               ID:20150524192848     3
 2015-05-24-1928-48M.COL___297                                                 6
 STAT SP IPHASW D HRMM SECON CODA AMPLIT PERI AZIMU VELO AIN AR TRES W  DIS CAZ7
 BAR2 EZ EP       1942 59.93                             171    0.1410 22.9 197 
 BAR2 EZ ES   1   1943 15.15                             171   -0.22 7 22.9 197 
 BAR2 EZ I        1943 15.80        14.2 0.48            170           22.9 197 
 BRR  HZ EP       1943  1.72                             152    0.2810 74.0 298 
 BRR  HN ES       1943 18.94                             152    0.6410 74.0 298 
 BRR  HZ I        1943 23.36        11.4 0.12            150           74.0 298 
 PAM  SZ EP       1943  2.61                             152    0.3110 76.6  38 
 PAM  SN ES       1943 19.74                             152   -0.1010 76.6  38 
 PAM  SZ I        1943 22.80         5.1 0.64            155           76.6  38 
 RUS  HZ EP       1943  3.92                             145    0.1410 99.4 177 
 RUS  HN ES       1943 22.19                             145   -0.2710 99.4 177 
 RUS  HZ I        1943 22.94         8.7 0.26            148           99.4 177 
 OCA  HZ EP       1943  8.06                             130   -0.43 9  162 352 
 OCA  HN ES       1943 30.51                             130   -0.34 9  162 352 
 OCA  HZ I        1943 34.82        22.9 0.18            132            162 352 
 SPBC HZ EP       1943  8.51                             130   -0.11 9  164 220 
 SPBC HN ES       1943 30.88                             130   -0.21 9  164 220 
 SPBC HZ I        1943 38.03        13.6 0.66            131            164 220 
 ZAR  HZ EP       1943 12.92                             123    0.18 8  207 292 
 ZAR  HN ES       1943 38.03                             123   -0.39 8  207 292 
 ZAR  HZ I        1943 43.37        16.9 0.34            123            207 292 
 GUY2CHZ EP   1   1943 23.89                             113    0.15 5  303 235 
 GUY2CHN ES   4   1944  0.33                             113    2.34 0  303 235 
 GUY2CHZ I        1944  8.14         4.9 0.52                           303 235 
                                                                                
