 2016 1224 1020  4.2 L   6.514 -73.097150.5  RSN  5 0.3 0.9LRSN                1
 GAP=245        0.87      10.5     5.6  7.4 -0.7400E+01 -0.2611E+01  0.3230E+01E
 Epicentro: SAN GIL - SANTANDER                                                3
 ACTION:UPD 17-01-11 20:18 OP:rebc STATUS:               ID:20161224102004 L   I
 OLDACT:UP  16-12-24 22:05 OP:edw  STATUS:               ID:20161224101743d    3
 OLDACT:DUP 16-12-24 22:03 OP:edw  STATUS:               ID:20161224101743d    3
 OLDACT:UP  16-12-24 22:01 OP:edw  STATUS:               ID:20161224101742d    3
 OLDACT:DUP 16-12-24 21:55 OP:edw  STATUS:               ID:20161224101742d    3
 2016-12-24-1018-00M.COL___378                                                 6
 STAT SP IPHASW D HRMM SECON CODA AMPLIT PERI AZIMU VELO AIN AR TRES W  DIS CAZ7
 BAR2 EZ EP       1020 24.33                             175    0.1110 12.8 313 
 BAR2 EZ ES       1020 39.73                             175   -0.1110 12.8 313 
 BRR  HZ EP       1020 26.50                             146   -0.7710 94.5 314 
 BRR  HE ES       1020 45.38                             146    0.1010 94.5 314 
 PAM  EZ EP       1020 28.85                             145    0.4010  101  26 
 PTB  HZ EP       1020 31.86                             132    0.09 9  150 271 
 PTB  HE ES       1020 53.48                             132    0.20 9  150 271 
 PTB  HZ I        1020 55.10         0.9 0.11            132            150 271 
 ZAR  HN ES   2   1021  6.05                             121    0.15 4  223 299 
                                                                                
