 2013  824 1254 36.8 L   6.789 -73.144148.6  RSN 10 0.4 1.5LRSN                1
 GAP=137        1.13       3.5     4.5  6.8 -0.3983E+00  0.7610E+01  0.1311E+01E
 Epicentro: LOS SANTOS - SANTANDER                                             3
 ACTION:UPD 14-01-14 09:06 OP:ep   STATUS:               ID:20130824125436 L   I
 OLDACT:DUP 13-08-24 18:18 OP:stll STATUS:               ID:20130824124849d    3
 2013-08-24-1248-48M.COL___220                                                 6
 STAT SP IPHASW D HRMM SECON CODA AMPLIT PERI AZIMU VELO AIN AR TRES W  DIS CAZ7
 BAR2 SZ EP       1254 56.55                             171   -0.1710 22.2 191 
 BAR2 SZ ES       1255 11.66                             171   -0.6210 22.2 191 
 BAR2 SZ I        1255 13.10         5.7 0.10            169           22.2 191 
 BRR  HZ EP       1254 58.79                             153    0.5210 71.9 299 
 BRR  HN ES       1255 16.06                             153    1.0310 71.9 299 
 BRR  HZ I        1255 16.40         4.4 0.14            153           71.9 299 
 PAM  SZ EP       1254 59.26                             151   -0.0810 78.2  39 
 PAM  SN ES       1255 16.92                             151   -0.0210 78.2  39 
 RUS  HZ EP       1255  1.16                             145    0.4410 99.4 176 
 RUS  HN ES       1255 19.31                             145   -0.0810 99.4 176 
 RUS  HZ I        1255 20.89         4.3 0.36            144           99.4 176 
 PTB  HZ EP       1255  3.68                             133   -0.29 9  148 259 
 PTB  HN ES       1255 24.33                             133   -0.85 9  148 259 
 PTB  HZ I        1255 26.97         6.4 0.44            133            148 259 
 SPBC HN ES       1255 27.91                             130    0.16 9  162 219 
 ZAR  HZ EP       1255  9.17                             123   -0.30 9  205 292 
 ZAR  HN ES       1255 34.92                             123   -0.05 9  205 292 
 NOR  HN ES       1255 41.01                             119    0.45 8  234 235 
 SML  HN ES       1255 42.23                             118   -0.25 8  245 335 
 CHI  HZ EP       1255 14.46                             118   -0.05 8  248 195 
 CHI  HN ES       1255 43.93                             118   -0.01 8  248 195 
 CHI  HZ I        1255 49.49         2.7 0.18            118            248 195 
                                                                                
