 2013  124 1911 25.5 L   6.763 -73.113149.2  RSN  6 0.5 1.6LRSN                1
 GAP=142        0.93       7.3     6.1  9.4 -0.5875E+01  0.3592E+01  0.3448E+02E
 Epicentro: LOS SANTOS - SANTANDER                                             3
 ACTION:UPD 13-02-15 09:16 OP:ep   STATUS:               ID:20130124191125 L   I
 2013-01-24-1910-00M.COL___241                                                 6
 STAT SP IPHASW D HRMM SECON CODA AMPLIT PERI AZIMU VELO AIN AR TRES W  DIS CAZ7
 BAR2 SZ EP   1   1911 45.35                             172   -0.15 7 20.4 202 
 BAR2 SZ ES   2   1912  1.82                             172    0.72 5 20.4 202 
 BAR2 SZ I        1912  2.25        10.1 0.08            169           20.4 202 
 BRR  HZ EP       1911 47.84                             151    0.5110 76.3 300 
 BRR  HZ I        1911 52.80         7.7 0.32            149           76.3 300 
 BRR  HN ES       1912  4.69                             151    0.3510 76.3 300 
 PAM  SZ EP   2   1911 48.36                             151    0.20 5 78.4  36 
 PAM  SE ES       1912  5.40                             151   -0.4210 78.4  36 
 RUS  HZ EP   1   1911 49.14                             146   -0.17 7 96.3 178 
 RUS  HN ES   2   1912  7.86                             146   -0.01 5 96.3 178 
 RUS  HN I        1912 10.12         4.2 0.39            145           96.3 178 
 PTB  HZ EP   1   1911 52.55                             132   -0.46 7  151 261 
 PTB  HN ES   1   1912 13.58                             132   -0.88 7  151 261 
 PTB  HZ I        1912 19.46         4.1 0.27            130            151 261 
 CHI  HZ EP   1   1912  3.54                             118    0.45 6  246 196 
                                                                                
