 2016  524 1811 36.2 L   6.817 -73.137139.0  RSN 11 0.4 2.3LRSN                1
 GAP=137        1.09       3.7     4.2  6.6 -0.2585E+01  0.9484E+01  0.3046E+01E
 Epicentro: LOS SANTOS - SANTANDER                                             3
 ACTION:UPD 16-08-18 17:49 OP:cam  STATUS:               ID:20160524181136 L   I
 OLDACT:UP  16-05-25 00:08 OP:ar   STATUS:               ID:20160524180748     3
 OLDACT:REG 16-05-24 21:14 OP:ar   STATUS:               ID:20160524180748     3
 2016-05-24-1807-48M.COL___313                                                 6
 STAT SP IPHASW D HRMM SECON CODA AMPLIT PERI AZIMU VELO AIN AR TRES W  DIS CAZ7
 BAR2 EZ EP       1811 55.20                             169    0.1010 25.3 191 
 BAR2 EZ ES       1812  9.75                             169   -0.0610 25.3 191 
 BAR2 EZ I        1812 10.91        40.0 0.22            168           25.3 191 
 BRR  HZ EP       1811 56.87                             151    0.2110 71.1 297 
 BRR  HN ES       1812 13.33                             151    0.7510 71.1 297 
 PAM  EZ EP       1811 57.97                             150    0.3510 75.4  40 
 PAM  EN ES       1812 14.23                             150   -0.0610 75.4  40 
 PAM  EZ I        1812 17.27        36.8 0.50            153           75.4  40 
 RUS  HZ EP       1811 59.54                             142    0.0710  102 177 
 RUS  HN ES       1812 17.81                             142    0.2310  102 177 
 RUS  HZ I        1812 19.02        16.7 0.30            143            102 177 
 PTB  HZ EP       1812  2.16                             130   -0.62 9  149 258 
 PTB  HN ES       1812 22.96                             130   -0.52 9  149 258 
 PTB  HZ I        1812 24.82        20.8 0.16            129            149 258 
 OCA  HN ES       1812 24.55                             128   -0.87 9  159 353 
 OCA  HZ I        1812 28.29        51.9 0.30            129            159 353 
 SPBC HZ EP       1812  4.25                             127   -0.17 9  165 219 
 SPBC HN ES       1812 25.78                             127   -0.63 9  165 219 
 SPBC HZ I        1812 32.71        26.4 0.44            127            165 219 
 ZAR  HZ EP   4   1812  9.70                             121    1.43 0  204 292 
 ZAR  HN ES       1812 33.57                             121    0.32 9  204 292 
 ZAR  HZ I        1812 39.80        30.5 0.44            121            204 292 
 NOR  HZ EP       1812 11.91                             117    0.13 8  237 234 
 NOR  HE ES       1812 39.33                             117   -0.18 8  237 234 
 NOR  HZ I        1812 43.13        21.3 0.28            117            237 234 
 URE  HZ EP   4   1812 19.57                             112    2.56 0  284 291 
 URE  HN ES   4   1812 45.67                             112   -3.14 0  284 291 
 URE  HZ I        1812 51.08         8.6 0.12            112            284 291 
 CBOC HZ EP       1812 23.67                             109    0.62 7  335 252 
 CBOC HN ES       1813  0.28                             109    0.72 7  335 252 
 CBOC HZ I        1813 11.09         3.7 0.62            109            335 252 
                                                                                
