 2012 1224 1058 40.9 L   6.789 -73.198152.5  RSN  8 0.2 1.9LRSN                1
 GAP=172        0.56       4.2     3.6  4.4  0.3096E+01  0.1108E+01 -0.7220E+01E
 Epicentro: ZAPATOCA - SANTANDER                                               3
 ACTION:UPD 13-01-04 14:30 OP:ep   STATUS:               ID:20121224105840 L   I
 2012-12-24-1050-00M.COL___243                                                 6
 STAT SP IPHASW D HRMM SECON CODA AMPLIT PERI AZIMU VELO AIN AR TRES W  DIS CAZ7
 BAR2 SZ EP   1   1059  1.38                             172    0.03 7 21.8 176 
 BAR2 SZ ES       1059 16.97                             172   -0.3010 21.8 176 
 BAR2 SZ I        1059 17.33        17.8 0.27                          21.8 176 
 GIR2 SZ EP       1059  1.35                             167   -0.0810 32.0   1 
 BRR  HZ EP       1059  2.91                             155    0.3210 66.8 302 
 BRR  HN ES       1059 19.73                             155    0.2610 66.8 302 
 BRR  HZ I        1059 23.10         7.8 0.18                          66.8 302 
 RUS  HN ES   1   1059 24.60                             145    0.28 7 99.9 173 
 RUS  HN I        1059 25.66        15.8 0.20                          99.9 173 
 PTB  HZ EP       1059  7.82                             135   -0.13 9  142 259 
 PTB  HE ES       1059 28.74                             135   -0.28 9  142 259 
 PTB  HZ I        1059 30.85         5.3 0.09                           142 259 
 OCA  HZ EP   2   1059  9.50                             131   -0.34 5  161 355 
 ZAR  HZ EP   1   1059 13.61                             124    0.26 6  199 293 
 ZAR  HE ES   1   1059 38.66                             124    0.04 6  199 293 
 ZAR  HZ I        1059 44.34         5.8 0.06                           199 293 
 SML  HZ EP   1   1059 17.68                             119   -0.14 6  242 337 
 SML  HZ I        1059 50.52         8.2 0.16                           242 337 
                                                                                
