 2013  924 1538 14.5 L   6.779 -73.143151.5  RSN  4 0.7 2.1LRSN                1
 GAP=216        1.67      11.0    13.4 13.5  0.8266E+01  0.1055E+02 -0.5333E+02E
 Epicentro: LOS SANTOS - SANTANDER                                             3
 ACTION:UPD 13-10-22 09:24 OP:ep   STATUS:               ID:20130924153814 L   I
 OLDACT:REG 13-09-24 16:00 OP:stll STATUS:               ID:20130924152850     3
 2013-09-24-1528-50M.COL___247                                                 6
 STAT SP IPHASW D HRMM SECON CODA AMPLIT PERI AZIMU VELO AIN AR TRES W  DIS CAZ7
 BAR2 SZ EP       1538 35.11                             172    0.3310 21.1 192 
 BAR2 SZ ES       1538 49.64                             172   -0.9510 21.1 192 
 BAR2 SZ I        1538 52.63        15.6 0.16            177           21.1 192 
 BRR  HZ EP       1538 37.07                             153    0.7210 72.6 300 
 BRR  HN ES       1538 54.45                             153    1.0610 72.6 300 
 PTB  HZ EP       1538 41.82                             133   -0.11 9  148 260 
 PTB  HN ES       1539  2.86                             133   -0.46 9  148 260 
 PTB  HZ I        1539  4.63        14.0 0.16            135            148 260 
 SML  HZ EP       1538 51.37                             118   -0.32 8  246 335 
 SML  HN ES       1539 19.95                             118   -0.76 8  246 335 
 SML  HZ I        1539 28.31        16.1 0.10            118            246 335 
                                                                                
