 2016 1024 1248 35.5 L   6.791 -73.160145.5  RSN  7 0.4 1.4LRSN                1
 GAP=135        0.95       4.6     4.8  6.6 -0.3064E+01  0.3800E+01  0.4112E+01E
 Epicentro: LOS SANTOS - SANTANDER                                             3
 *RUS                                                                          3
 ACTION:UPD 16-11-09 19:22 OP:rebc STATUS:               ID:20161024124835 L   I
 OLDACT:REG 16-10-24 21:04 OP:cog  STATUS:               ID:20161024124744     3
 2016-10-24-1248-00M.COL___365                                                 6
 STAT SP IPHASW D HRMM SECON CODA AMPLIT PERI AZIMU VELO AIN AR TRES W  DIS CAZ7
 BAR2 EZ EP       1248 54.85                             171   -0.2010 22.2 186 
 BAR2 EZ ES       1249  9.94                             171   -0.3810 22.2 186 
 BAR2 EZ I        1249 11.14         4.7 0.18            170           22.2 186 
 BRR  HZ EP       1248 56.65                             153    0.1110 70.3 300 
 BRR  HE ES       1249 13.87                             153    0.8910 70.3 300 
 PAM  EZ EP       1248 57.78                             150    0.0210 79.1  40 
 PAM  EN ES       1249 14.91                             150   -0.2410 79.1  40 
 PAM  EZ I        1249 16.97         5.8 0.54            152           79.1  40 
 RUS  HZ EP       1248 59.30                             144    0.1610 99.8 175 
 RUS  HN ES       1249 17.74                             144    0.1410 99.8 175 
 RUS  HZ I        1249 18.65         3.5 0.36            144           99.8 175 
 PTB  HZ EP       1249  2.05                             132   -0.21 9  146 259 
 PTB  HN ES       1249 22.54                             132   -0.62 9  146 259 
 PTB  HZ I        1249 24.54         2.3 0.14            133            146 259 
 SPBC HZ EP   2   1249  4.07                             129    0.29 5  161 219 
 SPBC HN ES   2   1249 25.59                             129   -0.28 5  161 219 
 SPBC HZ I        1249 28.56         4.7 0.13            129            161 219 
 CHI  HZ EP   2   1249 13.31                             117    0.30 4  247 195 
 CHI  HN ES   2   1249 43.32                             117    1.03 4  247 195 
 CHI  HZ I        1249 44.84         1.1 0.17            117            247 195 
                                                                                
