 2011  324 1305 14.5 L   5.957 -73.777106.0  RSN  5 0.3 2.2LRSN                1
 GAP=202        0.65       7.3     6.7 12.3 -0.3187E+02  0.1876E+02  0.2188E+02E
 Epicentro: GUAVATA - SANTANDER                                                3
 ACTION:UP  11-06-16 14:35 OP:jfem STATUS:               ID:20110324130514 L   I
 2011-03-24-1302-41S.COL___132                                                 6
 STAT SP IPHASW D HRMM SECON CODA AMPLIT PERI AZIMU VELO SNR AR TRES W  DIS CAZ7
 BAR2 SZ EP   1   13 5 33.84                             135     0.0 7   96  43 
 BAR2 SZ ES   1   13 5 49.01                             135     0.1 7   96  43 
 BAR2 SZ I        13 5 50.78        75.9 0.46                            96  43 
 BRR  HZ EP   1   13 5 35.91                             126    -0.5 7  127   3 
 BRR  HZ I        13 5 37.59        24.5 0.06                           127   3 
 BRR  HN ES   1   13 5 53.86                             126     0.3 7  127   3 
 NOR  SZ EP   1   13 5 36.73                             126     0.1 7  129 250 
 NOR  SN ES   2   13 5 53.67                             126    -0.3 5  129 250 
 GUY  SZ EP   2   13 5 44.76                             114     0.6 4  194 245 
 GUY  SZ I        13 6  1.80        36.6 0.09                           194 245 
 HEL  HZ EP   2   13 5 44.24                             114     0.0 4  196 278 
 HEL  HZ I        13 6 10.73         5.0 0.59                           196 278 
                                                                                
