 2013  524 1639 52.1 L   6.767 -73.144147.1  RSN 14 0.3 2.8LRSN 3.3WRSN        1
 SPEC AVERAGE  MO 14.0 ST  4.8 OM  2.9 f0 2.97 R0.5446 AL 1.86 WI 22.7 MW  3.3 3
 SPEC SD       MO  0.2 ST  4.5 OM  0.6 f00.620 R0.1003 AL      WI      MW  0.2 3
 GAP= 72        0.80       2.9     2.8  4.0 -0.7379E+00  0.2741E+01  0.1941E+01E
 Epicentro: LOS SANTOS - SANTANDER                                             3
 SPEC PTB HH N MO 14.1 ST  3.5 OM  2.4 f0 2.85 R0.5453 AL 1.68 WI 22.2 MW  3.4 3
 SPEC PTB HH N T164039 K 0.000 GD  207 VS 4.20 DE 3.20 Q0300.0 QA 0.60 VS 4.20 3
 SPEC PAM SH N MO 13.7 ST0.994 OM  2.1 f0 2.53 R0.6142 AL 1.72 WI 20.2 MW  3.1 3
 SPEC PAM SH N T164031 K 0.000 GD  167 VS 4.20 DE 3.20 Q0300.0 QA 0.60 VS 4.20 3
 SPEC HEL HH E MO 14.1 ST  1.9 OM  2.2 f0 2.38 R0.6529 AL 1.92 WI 27.0 MW  3.3 3
 SPEC HEL HH E T1641 2 K 0.000 GD  308 VS 4.20 DE 3.20 Q0300.0 QA 0.60 VS 4.20 3
 SPEC NOR HH N MO 14.2 ST  8.6 OM  2.4 f0 3.49 R0.4453 AL 2.03 WI 21.7 MW  3.4 3
 SPEC NOR HH N T164054 K 0.000 GD  275 VS 4.20 DE 3.20 Q0300.0 QA 0.60 VS 4.20 3
 SPEC BAR2SH Z MO 13.7 ST0.820 OM  2.1 f0 2.47 R0.6291 AL 1.40 WI 23.7 MW  3.1 3
 SPEC BAR2SH Z T164026 K 0.000 GD  148 VS 4.20 DE 3.20 Q0300.0 QA 0.60 VS 4.20 3
 SPEC BRR HH N MO 14.2 ST 12.9 OM  2.6 f0 4.08 R0.3809 AL 2.41 WI 21.6 MW  3.4 3
 SPEC BRR HH N T164031 K 0.000 GD  164 VS 4.20 DE 3.20 Q0300.0 QA 0.60 VS 4.20 3
 ACTION:UPD 13-06-20 09:53 OP:ep   STATUS:               ID:20130524163952 L   I
 2013-05-24-1637-47M.COL___200                                                 6
 STAT SP IPHASW D HRMM SECON CODA AMPLIT PERI AZIMU VELO AIN AR TRES W  DIS CAZ7
 BAR2 SZ IP     C 1640 11.81                             172    0.0210 19.8 192 
 BAR2 SZ ES       1640 27.25                             172    0.0810 19.8 192 
 BAR2 SZ I        1640 29.96        95.7 0.34            166           19.8 192 
 GIR2 SZ EP       1640 11.94                             166   -0.0510 34.9 351 
 GIR2 SZ ES       1640 27.13                             166   -0.4110 34.9 351 
 BRR  HZ IP     C 1640 13.77                             152    0.3110 73.1 301 
 BRR  HE ES       1640 31.08                             152    0.9210 73.1 301 
 BRR  HZ I        1640 35.54        99.5 0.16            149           73.1 301 
 PAM  SZ EP       1640 14.73                             150    0.1510 80.1  38 
 PAM  SN ES       1640 32.02                             150   -0.1310 80.1  38 
 PAM  SZ I        1640 34.06        45.6 0.20            144           80.1  38 
 RUS  HZ EP       1640 15.64                             145   -0.0510 96.9 176 
 RUS  HN ES       1640 33.93                             145   -0.1810 96.9 176 
 RUS  HZ I        1640 36.68        36.2 0.26            135           96.9 176 
 PTB  HZ EP       1640 18.76                             132   -0.33 9  147 260 
 PTB  HN ES       1640 39.78                             132   -0.40 9  147 260 
 PTB  HZ I        1640 47.30       101.4 0.44            125            147 260 
 TAM  HZ EP       1640 19.99                             131    0.24 9  154 104 
 TAM  HZ I        1640 40.86        58.2 0.32            121            154 104 
 OCA  HN ES   1   1640 42.54                             129   -0.70 7  164 353 
 OCA  HZ I        1640 46.89        96.5 0.20            123            164 353 
 ZAR  HZ EP       1640 24.45                             122   -0.30 8  206 293 
 ZAR  HE ES   1   1640 50.40                             122    0.15 6  206 293 
 ZAR  HZ I        1640 56.32        93.7 0.14            116            206 293 
 NOR  HZ EP       1640 27.68                             119    0.02 8  233 235 
 NOR  HN ES   1   1640 55.84                             119    0.42 6  233 235 
 NOR  HZ I        1640 59.56        81.8 0.20            111            233 235 
 SML  HE ES   1   1640 58.18                             117    0.14 6  247 336 
 HEL  HZ EP   1   1640 32.73                             115    0.47 6  271 257 
 HEL  HE ES   1   1641  3.26                             115   -0.36 6  271 257 
 HEL  HZ I        1641 11.55        39.6 0.24            108            271 257 
 URE  HZ EP   4   1640 31.45                             114   -1.92 0  285 293 
 URE  HN ES   4   1641  3.98                             114   -1.60 0  285 293 
 GUY2CHZ EP   1   1640 35.73                             113    0.22 5  299 235 
 GUY2CHN ES   1   1641  9.22                             113   -0.18 5  299 235 
 SDV  BZ EP   4   1640 41.21                             108   -1.20 0  363  50 
 SDV  BN ES   4   1641 17.91                             108   -3.77 0  363  50 
 PRA  HZ EP   1   1640 45.20                             107   -0.07 4  389 210 
 PRA  HZ I        1641 32.36        26.2 0.30            101            389 210 
                                                                                
