 2016  724 1557 52.7 L   6.776 -73.111149.0  RSN  7 0.3 1.8LRSN                1
 GAP=142        0.75       3.2     4.4  4.7 -0.4949E+01  0.3650E+01  0.3868E+01E
 Epicentro: LOS SANTOS - SANTANDER                                             3
 ACTION:UPD 17-03-29 16:54 OP:lp   STATUS:               ID:20160724155752 L   I
 OLDACT:DUP 16-07-24 23:16 OP:lv   STATUS:               ID:20160724154760d    3
 2016-07-24-1547-59S.COL___334                                                 6
 STAT SP IPHASW D HRMM SECON CODA AMPLIT PERI AZIMU VELO AIN AR TRES W  DIS CAZ7
 BAR2 EZ EP       1558 12.59                             171   -0.1410 21.8 201 
 BAR2 EZ ES       1558 27.94                             171   -0.3810 21.8 201 
 BRR  HZ EP       1558 14.61                             152    0.1110 75.9 299 
 BRR  HN ES       1558 31.83                             152    0.3510 75.9 299 
 BRR  HZ I        1558 35.43        15.5 0.39            152           75.9 299 
 PAM  EZ EP       1558 15.51                             151    0.2310 77.1  36 
 PAM  EE ES       1558 32.74                             151   -0.1310 77.1  36 
 PAM  EZ I        1558 34.84        13.0 0.21            154           77.1  36 
 RUS  HZ EP       1558 16.72                             145    0.1210 97.7 178 
 RUS  HE ES       1558 35.38                             145    0.1610 97.7 178 
 RUS  HZ I        1558 36.45         3.7 0.15            147           97.7 178 
 SPBC HZ EP       1558 20.77                             130   -0.75 9  164 221 
 SPBC HE ES       1558 44.00                             130    0.02 9  164 221 
 SPBC HZ I        1558 46.06        12.3 0.11            131            164 221 
 CHI  HZ EP       1558 30.56                             118    0.11 8  247 196 
 CHI  HN ES       1559  0.29                             118    0.43 8  247 196 
 CHI  HZ I        1559  4.18         2.1 0.20            119            247 196 
 GUY2CHZ EP       1558 36.75                             113    0.08 7  303 236 
 GUY2CHE ES       1559 10.77                             113   -0.18 7  303 236 
 GUY2CHZ I        1559 19.30         5.1 0.40                           303 236 
                                                                                
