 2017  824 1136 49.2 L   6.656 -73.204147.9  RSN  4 0.3 1.2LRSN                1
 GAP=209        0.64       7.0     7.9  5.5  0.4429E+02  0.1033E+02 -0.4957E+00E
 Epicentro: BARICHARA - SANTANDER                                              3
 ACTION:UPD 17-09-04 20:24 OP:rebc STATUS:               ID:20170824113649 L   I
 OLDACT:UP  17-08-24 21:56 OP:edw  STATUS:               ID:20170824112737     3
 OLDACT:REG 17-08-24 20:57 OP:edw  STATUS:               ID:20170824112737     3
 2017-08-24-1128-00M.COL___419                                                 6
 STAT SP IPHASW D HRMM SECON CODA AMPLIT PERI AZIMU VELO AIN AR TRES W  DIS CAZ7
 BAR2 EZ EP       1137  8.78                             177   -0.0610 7.42 161 
 BAR2 EZ ES       1137 24.57                             177    0.3810 7.42 161 
 BAR2 EZ I        1137 24.99         3.2 0.26            168           7.42 161 
 BRR  HZ EP       1137 10.59                             152   -0.1710 75.1 312 
 BRR  HN ES       1137 27.36                             152   -0.2610 75.1 312 
 RUS  HZ EP   2   1137 11.76                             149   -0.34 5 85.4 171 
 RUS  HN ES       1137 29.91                             149   -0.0910 85.4 171 
 RUS  HZ I        1137 32.60         3.3 0.28            144           85.4 171 
 ZAR  HZ EP       1137 22.24                             123    0.42 9  205 297 
 ZAR  HE ES       1137 47.26                             123   -0.04 9  205 297 
 ZAR  HZ I        1137 51.82         1.7 0.60            121            205 297 
                                                                                
