 2016 1224 1700  2.3 L   6.785 -73.212139.9  RSN  5 0.3 1.5LRSN                1
 GAP=129        0.73       4.5     4.2  5.6  0.4167E+01 -0.1506E+01 -0.3447E+01E
 Epicentro: ZAPATOCA - SANTANDER                                               3
 ACTION:UPD 17-01-11 20:18 OP:rebc STATUS:               ID:20161224170002 L   I
 OLDACT:UP  16-12-25 00:17 OP:dani STATUS:               ID:20161224165746     3
 OLDACT:REG 16-12-24 21:17 OP:edw  STATUS:               ID:20161224165746     3
 2016-12-24-1658-00M.COL___381                                                 6
 STAT SP IPHASW D HRMM SECON CODA AMPLIT PERI AZIMU VELO AIN AR TRES W  DIS CAZ7
 BAR2 EZ EP       17 0 20.93                             171   -0.2410 21.6 171 
 BAR2 EZ ES       17 0 35.66                             171   -0.2510 21.6 171 
 BAR2 EZ I        17 0 36.73         9.8 0.15            169           21.6 171 
 BRR  HZ EP       17 0 22.95                             153    0.4610 65.7 303 
 BRR  HE ES       17 0 38.51                             153    0.2610 65.7 303 
 BRR  HZ I        17 0 39.30         8.5 0.12            153           65.7 303 
 PAM  EZ EP       17 0 24.02                             148   -0.2410 83.4  43 
 RUS  HZ EP       17 0 25.46                             143    0.0610 99.7 172 
 RUS  HE ES       17 0 43.69                             143    0.2610 99.7 172 
 RUS  HZ I        17 0 45.22         4.4 0.35            142           99.7 172 
 PTB  HZ EP       17 0 28.07                             132   -0.02 9  140 259 
 PTB  HN ES       17 0 47.89                             132   -0.33 9  140 259 
 PTB  HZ I        17 0 51.51         3.3 0.23            132            140 259 
                                                                                
