 2012 1024 1625 43.4 L   6.790 -73.122150.9  RSN  5 0.3 2.3LRSN                1
 GAP=140        0.50       5.6     5.5  8.3  0.3270E+01 -0.2718E+01 -0.1020E+02E
 Epicentro: LOS SANTOS - SANTANDER                                             3
 ACTION:UPD 12-11-22 17:05 OP:ep   STATUS:               ID:20121024162543 L   I
 2012-10-24-1620-00M.COL___236                                                 6
 STAT SP IPHASW D HRMM SECON CODA AMPLIT PERI AZIMU VELO AIN AR TRES W  DIS CAZ7
 BAR2 SZ EP   1   1626  3.53                             171   -0.06 7 22.8 197 
 BAR2 SZ ES   2   1626 18.88                             171   -0.49 5 22.8 197 
 BAR2 SZ I        1626 19.96        40.7 0.09                          22.8 197 
 BRR  HN ES   2   1626 22.85                             152    0.58 5 74.1 298 
 BRR  HN I        1626 23.58        97.1 0.27                          74.1 298 
 PAM  SZ EP   1   1626  6.16                             152    0.09 7 76.6  37 
 PAM  SN ES   2   1626 23.69                             152   -0.10 5 76.6  37 
 PAM  SN I        1626 25.16        23.1 0.35                          76.6  37 
 RUS  HE ES   2   1626 26.59                             145    0.22 5 99.3 178 
 RUS  HE I        1626 27.20        20.7 0.23                          99.3 178 
 ZAR  HN ES   2   1626 41.87                             123   -0.37 4  207 292 
                                                                                
