 2011  224 1058  2.3 L   6.807 -73.147146.1  RSN  6 0.3 1.5LRSN                1
 GAP=158        0.60       5.5    18.2  6.6 -0.6161E+02 -0.1800E+02  0.1392E+02E
 Epicentro: LOS SANTOS - SANTANDER                                             3
 ACTION:UP  11-03-28 15:10 OP:jfem STATUS:               ID:20110224105802 L   I
 2011-02-24-1056-04S.COL___137                                                 6
 STAT SP IPHASW D HRMM SECON CODA AMPLIT PERI AZIMU VELO SNR AR TRES W  DIS CAZ7
 BTL  SZ EP       1058 22.14                             172     0.310   18 313 
 BTL  SZ ES   1   1058 36.84                             172    -0.3 7   18 313 
 BAR2 SZ EP       1058 21.95                             170     0.010   24 190 
 BAR2 SZ ES   2   1058 37.10                             170    -0.2 5   24 190 
 BAR2 SZ I        1058 38.43        11.4 0.17                            24 190 
 GIR2 SZ ES   2   1058 37.78                             167     0.5 5   30 350 
 RUS  HZ EP   2   1058 26.21                             144     0.1 5  101 176 
 RUS  HN ES   2   1058 44.93                             144     0.2 5  101 176 
 RUS  HZ I        1058 46.25         4.4 0.51                           101 176 
 GRA  SZ ES   1   1058 46.84                             137    -0.3 7  125  18 
 GRA  SZ I        1058 48.94         3.4 0.33                           125  18 
 CHI  HZ EP   1   1058 39.71                             117    -0.3 6  249 195 
 CHI  HN ES   3   1059  8.88                             117    -0.7 2  249 195 
 CHI  HZ I        1059 17.40         1.5 0.56                           249 195 
                                                                                
