 2012  824 1601 10.7 L   6.819 -73.158146.3  RSN  4 0.4 1.5LRSN                1
 GAP=134        0.73       7.2     5.2  8.5 -0.1440E+02  0.4407E+00  0.1430E+02E
 Epicentro: LOS SANTOS - SANTANDER                                             3
 ACTION:UPD 12-09-10 11:58 OP:ep   STATUS:               ID:20120824160110 L   I
 2012-08-24-1600-00M.COL___218                                                 6
 STAT SP IPHASW D HRMM SECON CODA AMPLIT PERI AZIMU VELO AIN AR TRES W  DIS CAZ7
 BRR  HZ EP   1   16 1 32.13                             153    0.33 7 69.0 298 
 BRR  HN ES   1   16 1 48.73                             153    0.49 7 69.0 298 
 PAM  SZ EP       16 1 33.01                             151    0.0710 76.7  41 
 PAM  SZ I        16 1 33.33        10.6 0.17                          76.7  41 
 PAM  SN ES   1   16 1 49.86                             151   -0.43 7 76.7  41 
 RUS  HZ EP   2   16 1 35.39                             143    0.71 5  103 175 
 RUS  HN ES   2   16 1 53.17                             143   -0.20 5  103 175 
 RUS  HZ I        16 1 55.46         2.4 0.26                           103 175 
 PTB  HZ EP       16 1 37.32                             132   -0.32 9  147 258 
 PTB  HN ES   1   16 1 58.36                             132   -0.28 7  147 258 
 PTB  HZ I        16 2  0.78         3.3 0.14                           147 258 
                                                                                
