 2014  724 1524 22.6 L   6.658 -73.150145.5  RSN  4 0.2 1.6LRSN                1
 GAP=257        0.58       6.6     4.5  5.0  0.8017E+01  0.4371E+01  0.8267E+00E
 Epicentro: VILLANUEVA - SANTANDER                                             3
 ACTION:UPD 15-03-16 20:46 OP:nd   STATUS:               ID:20140724152422 L   I
 OLDACT:REG 14-07-25 01:40 OP:fm   STATUS:               ID:20140724151820     3
 2014-07-24-1518-20M.COL___272                                                 6
 STAT SP IPHASW D HRMM SECON CODA AMPLIT PERI AZIMU VELO AIN AR TRES W  DIS CAZ7
 BAR2 SZ EP   1   1524 41.78                             177   -0.19 7 8.07 206 
 BAR2 SZ ES   1   1524 57.53                             177    0.43 7 8.07 206 
 BAR2 SZ I        1524 58.09         7.0 0.38            174           8.07 206 
 BRR  HZ EP       1524 43.96                             150   -0.2410 79.5 309 
 BRR  HN ES       1525  0.90                             150   -0.1510 79.5 309 
 BRR  HZ I        1525  4.28         8.4 0.50            147           79.5 309 
 PTB  HZ EP       1524 49.39                             132    0.11 9  145 265 
 PTB  HN ES       1525  9.92                             132   -0.19 9  145 265 
 PTB  HZ I        1525 12.80         4.0 0.44            132            145 265 
 ZAR  HZ EP       1524 55.88                             121    0.25 8  210 296 
 ZAR  HN ES       1525 21.63                             121    0.22 8  210 296 
 ZAR  HZ I        1525 26.99         4.0 0.26            122            210 296 
                                                                                
