 2012  824 1847 59.6 L   6.782 -73.175147.4  RSN  5 0.4 1.6LRSN                1
 GAP=134        0.85       6.1     5.8  8.2 -0.3295E+01  0.5590E+01  0.2104E+01E
 Epicentro: LOS SANTOS - SANTANDER                                             3
 ACTION:UPD 12-09-10 11:58 OP:ep   STATUS:               ID:20120824184759 L   I
 2012-08-24-1840-00M.COL___218                                                 6
 STAT SP IPHASW D HRMM SECON CODA AMPLIT PERI AZIMU VELO AIN AR TRES W  DIS CAZ7
 BAR2 SZ EP   1   1848 19.37                             172   -0.02 7 21.0 182 
 BAR2 SZ ES   1   1848 34.60                             172   -0.23 7 21.0 182 
 BAR2 SZ I        1848 36.33        17.0 0.46                          21.0 182 
 BRR  HZ EP   1   1848 21.34                             153    0.50 7 69.4 301 
 BRR  HN ES   1   1848 38.15                             153    0.76 7 69.4 301 
 PAM  SZ EP   1   1848 22.21                             150    0.00 7 81.0  40 
 PAM  SZ I        1848 22.49         9.4 0.26                          81.0  40 
 PAM  SE ES   1   1848 39.32                             150   -0.53 7 81.0  40 
 RUS  HZ EP   1   1848 23.41                             145    0.01 7 98.9 174 
 RUS  HN ES   1   1848 42.25                             145    0.29 7 98.9 174 
 RUS  HZ I        1848 44.19         4.1 0.37                          98.9 174 
 PTB  HZ EP   1   1848 26.23                             133   -0.16 7  144 259 
 PTB  HE ES   1   1848 46.57                             133   -0.72 7  144 259 
 PTB  HZ I        1848 50.85         3.9 0.19                           144 259 
                                                                                
