 2012 1124 1326 51.0 L   6.820 -73.198143.0  RSN  5 0.1 1.8LRSN                1
 GAP=129        0.35       2.6     2.5  3.6 -0.2490E+01  0.2927E+01 -0.2053E+01E
 Epicentro: ZAPATOCA - SANTANDER                                               3
 ACTION:UPD 12-12-05 15:35 OP:}ep  STATUS:               ID:20121124132651 L   I
 2012-11-24-1320-00M.COL___234                                                 6
 STAT SP IPHASW D HRMM SECON CODA AMPLIT PERI AZIMU VELO AIN AR TRES W  DIS CAZ7
 BAR2 SZ EP       1327 10.33                             169   -0.0510 25.3 176 
 BAR2 SZ ES   1   1327 25.26                             169   -0.21 7 25.3 176 
 BAR2 SZ I        1327 27.10        15.5 0.19                          25.3 176 
 GIR2 SZ EP       1327 10.32                             168    0.0010 28.6   1 
 PAM  SZ EP       1327 13.17                             150    0.0710 79.5  44 
 PAM  SZ I        1327 13.57        21.6 0.20                          79.5  44 
 PAM  SN ES   1   1327 30.34                             150    0.05 7 79.5  44 
 RUS  HZ EP   1   1327 14.78                             142    0.05 7  103 173 
 RUS  HN ES   1   1327 33.31                             142    0.10 7  103 173 
 RUS  HN I        1327 34.61         9.6 0.37                           103 173 
 PTB  HZ EP       1327 17.18                             132   -0.14 9  143 257 
 PTB  HN ES   1   1327 38.02                             132    0.21 7  143 257 
 PTB  HZ I        1327 40.23         5.4 0.21                           143 257 
                                                                                
