 2010 1224 1052 48.7 L   6.505 -74.154  5.0  RSN  6 0.4 1.8LRSN                1
 GAP=147        0.96       5.4     2.5  8.1 -0.5128E+01  0.3259E+01 -0.2479E+01E
 Epicentro: PUERTO PARRA - SANTANDER                                           3
 ACTION:UP  11-01-14 15:26 OP:pat  STATUS:               ID:20101224105248 L   I
 2010-12-24-1048-35S.COL___133                                                 6
 STAT SP IPHASW D HRMM SECON CODA AMPLIT PERI AZIMU VELO SNR AR TRES W  DIS CAZ7
 BAR2 SZ EP   1   1053  6.00                              91     0.2 8  108  85 
 BAR2 SZ ES   1   1053 18.70                              91    -0.5 8  108  85 
 BAR2 SZ I        1053 20.60        23.8 0.24                           108  85 
 NOR  SZ EP   1   1053  9.13                              91     0.0 8  131 218 
 NOR  SE ES   2   1053 24.72                              91    -0.4 5  131 218 
 RUS  HZ IP     D 1053 10.84                              91     0.410  136 120 
 RUS  HZ I        1053 10.97        26.5 0.15                           136 120 
 RUS  HN ES   1   1053 27.21                              91    -0.2 7  136 120 
 HEL  HZ IP     C 1053 13.64                              90     0.310  156 257 
 HEL  HE ES   1   1053 31.88                              90    -0.6 7  156 257 
 HEL  HZ I        1053 32.23        16.0 0.21                           156 257 
 GRA  SZ EP   2   1053 20.03                              56    -0.7 4  213  44 
 GRA  SZ ES   2   1053 45.83                              56     0.1 4  213  44 
 GRA  SZ I        1053 48.28        12.3 0.25                           213  44 
 RREF HZ EP   1   1053 23.09                              56     0.8 7  221 217 
 RREF HN ES   1   1053 48.06                              56    -0.4 7  221 217 
 RREF HZ I        1053 52.77         2.8 0.18                           221 217 
                                                                                
