 2016  724 1320 23.6 L   6.792 -73.117139.4  RSN  6 0.4 1.6LRSN                1
 GAP=141        1.01       4.9     5.3  7.2  0.4324E+01  0.1054E+02 -0.7518E+00E
 Epicentro: LOS SANTOS - SANTANDER                                             3
 ACTION:UPD 17-03-29 16:54 OP:lp   STATUS:               ID:20160724132023 L   I
 OLDACT:REG 16-07-24 20:58 OP:lv   STATUS:               ID:20160724131759     3
 2016-07-24-1317-59S.COL___334                                                 6
 STAT SP IPHASW D HRMM SECON CODA AMPLIT PERI AZIMU VELO AIN AR TRES W  DIS CAZ7
 BAR2 EZ EP       1320 42.18                             170   -0.2910 23.2 198 
 BAR2 EZ ES       1320 56.73                             170   -0.4510 23.2 198 
 BRR  HZ EP       1320 43.95                             150   -0.3210 74.4 298 
 BRR  HN ES       1321  0.43                             150    0.0510 74.4 298 
 BRR  HZ I        1321  2.52         6.1 0.20            149           74.4 298 
 PAM  EZ EP       1320 45.12                             150    0.0510 76.1  37 
 PAM  EN ES       1321  2.07                             150    0.2610 76.1  37 
 PAM  EZ I        1321  4.18         8.2 0.54            152           76.1  37 
 RUS  HZ EP       1320 46.20                             143   -0.4610 99.5 178 
 RUS  HN ES       1321  5.36                             143    0.7210 99.5 178 
 RUS  HZ I        1321  6.38         6.6 0.26            145           99.5 178 
 ZAR  HZ EP       1320 56.68                             120    0.69 8  207 292 
 ZAR  HE ES       1321 21.22                             120   -0.03 8  207 292 
 ZAR  HZ I        1321 26.98         6.7 0.16            121            207 292 
 GUY2CHZ EP   4   1321  8.87                             111    1.70 0  303 235 
 GUY2CHE ES   2   1321 40.99                             111   -0.16 4  303 235 
 GUY2CHZ I        1321 45.27         1.4 0.24                           303 235 
                                                                                
