 2016  524 1249  5.5 L   6.782 -73.132143.9  RSN  8 0.4 2.0LRSN                1
 GAP=238        1.06       5.0     5.1  6.5  0.5869E+01  0.1015E+02  0.1531E+01E
 Epicentro: LOS SANTOS - SANTANDER                                             3
 ACTION:UPD 16-08-18 17:49 OP:cam  STATUS:               ID:20160524124905 L   I
 OLDACT:REG 16-05-24 20:16 OP:ar   STATUS:               ID:20160524124744     3
 2016-05-24-1247-44M.COL___302                                                 6
 STAT SP IPHASW D HRMM SECON CODA AMPLIT PERI AZIMU VELO AIN AR TRES W  DIS CAZ7
 BAR2 EZ EP       1249 24.77                             171   -0.1010 21.7 195 
 BAR2 EZ ES       1249 39.60                             171   -0.3810 21.7 195 
 BAR2 EZ I        1249 40.71        16.1 0.24            166           21.7 195 
 BRR  HZ EP       1249 26.72                             151    0.1410 73.5 299 
 BRR  HN ES       1249 43.84                             151    0.8210 73.5 299 
 BRR  HZ I        1249 44.55        14.7 0.18            150           73.5 299 
 RUS  HZ EP       1249 29.00                             144    0.0810 98.5 177 
 RUS  HN ES       1249 47.37                             144    0.1910 98.5 177 
 RUS  HZ I        1249 48.73        11.0 0.42            143           98.5 177 
 PTB  HZ EP       1249 31.81                             131   -0.61 9  149 260 
 PTB  HN ES       1249 52.57                             131   -0.85 9  149 260 
 PTB  HZ I        1249 57.72        10.0 0.18            130            149 260 
 SPBC HZ EP       1249 33.91                             129    0.11 9  163 220 
 SPBC HN ES       1249 55.86                             129   -0.02 9  163 220 
 SPBC HZ I        1249 58.11        17.6 0.32            127            163 220 
 ZAR  HZ EP       1249 37.51                             122   -0.54 8  206 292 
 ZAR  HN ES       1250  3.47                             122    0.03 8  206 292 
 ZAR  HZ I        1250  4.53        10.6 0.30            122            206 292 
 NOR  HZ EP       1249 41.36                             118    0.23 8  235 235 
 NOR  HN ES       1250  8.98                             118    0.05 8  235 235 
 NOR  HZ I        1250 15.59         8.2 0.46            118            235 235 
 HEL  HZ EP       1249 46.33                             114    0.60 8  273 256 
 HEL  HE ES       1250 17.59                             114    0.48 8  273 256 
 HEL  HZ I        1250 22.69         5.0 0.56            114            273 256 
                                                                                
