 2016 1124 1517 18.4 L   6.817 -73.189142.3  RSN  7 0.3 1.8LRSN                1
 GAP=135        0.84       3.9     3.7  5.6 -0.7175E+00  0.4663E+01  0.5803E+01E
 Epicentro: ZAPATOCA - SANTANDER                                               3
 ACTION:UPD 17-10-26 21:11 OP:lp   STATUS:               ID:20161124151718 L   I
 OLDACT:DUP 16-11-24 23:02 OP:edw  STATUS:               ID:20161124150746d    3
 2016-11-24-1508-00M.COL___349                                                 6
 STAT SP IPHASW D HRMM SECON CODA AMPLIT PERI AZIMU VELO AIN AR TRES W  DIS CAZ7
 BAR2 EZ EP       1517 37.40                             170   -0.2210 24.9 178 
 BAR2 EZ ES       1517 52.83                             170    0.2010 24.9 178 
 BAR2 EZ I        1517 55.16        18.5 0.46            172           24.9 178 
 BRR  HZ EP       1517 39.33                             154    0.4710 66.0 299 
 BRR  HE ES       1517 54.46                             154   -0.3810 66.0 299 
 BRR  HZ I        1517 58.04        21.8 0.30            152           66.0 299 
 PAM  EZ EP       1517 40.37                             150    0.0410 79.1  43 
 PAM  EN ES       1517 57.45                             150   -0.0010 79.1  43 
 PAM  EZ I        1517 59.54        11.3 0.54            152           79.1  43 
 PTB  HZ EP       1517 44.04                             132   -0.62 9  143 258 
 PTB  HN ES       1518  4.95                             132   -0.22 9  143 258 
 PTB  HZ I        1518  8.69         5.7 0.08            133            143 258 
 ZAR  HZ EP       1517 50.20                             122    0.14 9  199 292 
 ZAR  HN ES       1518 15.26                             122    0.49 9  199 292 
 ZAR  HZ I        1518 21.42         5.7 0.20            123            199 292 
 NOR  HE ES   2   1518 21.23                             118    0.15 4  232 233 
 CHI  HZ EP       1517 55.68                             116   -0.27 8  249 194 
 CHI  HN ES       1518 25.74                             116    0.48 8  249 194 
                                                                                
