 2012 1024 1207 36.9 L   6.807 -73.140144.0  RSN  5 0.4 2.1LRSN                1
 GAP=137        0.83       4.6     4.9  7.7  0.5542E+01  0.1062E+02  0.1519E+01E
 Epicentro: LOS SANTOS - SANTANDER                                             3
 ACTION:UPD 12-11-22 17:05 OP:ep   STATUS:               ID:20121024120736 L   I
 2012-10-24-1200-00M.COL___234                                                 6
 STAT SP IPHASW D HRMM SECON CODA AMPLIT PERI AZIMU VELO AIN AR TRES W  DIS CAZ7
 BAR2 SZ EP   1   12 7 56.12                             170   -0.23 7 24.2 191 
 BAR2 SZ ES   2   12 8 10.64                             170   -0.87 5 24.2 191 
 BAR2 SZ I        12 8 12.36        27.5 0.22                          24.2 191 
 BRR  HZ EP   1   12 7 57.87                             152   -0.01 7 71.4 298 
 BRR  HN ES       12 8 14.81                             152    0.5810 71.4 298 
 BRR  HN I        12 8 15.39        66.4 0.20                          71.4 298 
 PAM  SZ EP   1   12 7 59.01                             151    0.13 7 76.4  40 
 PAM  SN ES       12 8 15.90                             151   -0.1110 76.4  40 
 PAM  SN I        12 8 17.22        14.4 0.52                          76.4  40 
 RUS  HZ EP   1   12 8  0.40                             143   -0.14 7  101 176 
 RUS  HN ES       12 8 19.10                             143    0.1210  101 176 
 RUS  HN I        12 8 20.68        10.9 0.36                           101 176 
 ZAR  HZ EP   1   12 8  9.74                             122    0.47 6  204 292 
 ZAR  HN ES       12 8 33.93                             122   -0.58 9  204 292 
 ZAR  HN I        12 8 39.27        14.3 0.32                           204 292 
                                                                                
