 2012  124 1722 27.9 L   6.763 -73.149150.0  RSN  9 0.4 2.3LRSN                1
 GAP=138        1.06       6.2     6.4  8.2 -0.7743E+00  0.2571E+01 -0.8642E+01E
 Epicentro: LOS SANTOS - SANTANDER                                             3
 ACTION:UP  12-02-03 08:20 OP:REBC STATUS:               ID:20120124172227 L   I
 2012-01-24-1720-00M.COL___187                                                 6
 STAT SP IPHASW D HRMM SECON CODA AMPLIT PERI AZIMU VELO SNR AR TRES W  DIS CAZ7
 BAR2 SZ EP       1722 47.96                             172     0.010   19 191 
 BAR2 SZ ES   1   1723  3.44                             172    -0.2 7   19 191 
 BAR2 SZ I        1723  4.86        40.9 0.24                            19 191 
 GIR2 SZ EP       1722 48.14                             166    -0.110   35 352 
 GIR2 SZ ES   2   1723  3.95                             166    -0.1 5   35 352 
 BRR  HZ IP     C 1722 49.98                             153     0.310   73 301 
 BRR  HZ I        1722 50.25        78.8 0.28                            73 301 
 BRR  HN ES   1   1723  7.61                             153     1.0 7   73 301 
 PAM  SZ EP       1722 50.93                             151     0.110   81  38 
 PAM  SN ES   2   1723  8.30                             151    -0.3 5   81  38 
 RUS  HZ EP       1722 52.10                             146     0.310   97 176 
 RUS  HN ES   1   1723 10.26                             146    -0.2 7   97 176 
 RUS  HZ I        1723 11.76        20.6 0.42                            97 176 
 PTB  HZ EP       1722 54.77                             133    -0.4 9  147 260 
 PTB  HN ES   1   1723 15.98                             133    -0.4 7  147 260 
 PTB  HZ I        1723 18.16        19.1 0.32                           147 260 
 OCA  SZ EP       1722 56.52                             130    -0.4 9  164 353 
 OCA  SZ I        1723 24.56        26.6 0.30                           164 353 
 ZAR  HN ES   2   1723 25.82                             123    -0.6 4  205 293 
 ZAR  HZ I        1723 33.03        31.5 0.26                           205 293 
 HEL  HZ EP   2   1723  9.43                             116     1.2 4  271 257 
 HEL  HZ I        1723 45.36         9.4 0.26                           271 257 
                                                                                
