 2013  724 1006 53.6 L   6.577 -73.458118.0  RSN 14 0.4 2.6LRSN                1
 GAP= 64        0.97       2.5     3.3  5.9 -0.1971E+01  0.7153E+01 -0.5286E+00E
 Epicentro: EL CARMEN DE CHUCURI - SANTANDER                                   3
 ACTION:UPD 13-08-12 10:39 OP:ep   STATUS:               ID:20130724100653 L   I
 OLDACT:UP  13-07-24 19:07 OP:mh   STATUS:               ID:20130724095853     3
 OLDACT:UP  13-07-24 19:07 OP:mh   STATUS:               ID:20130724095853     3
 OLDACT:REG 13-07-24 16:41 OP:stll STATUS:               ID:20130724095853     3
 2013-07-24-0958-53M.COL___231                                                 6
 STAT SP IPHASW D HRMM SECON CODA AMPLIT PERI AZIMU VELO AIN AR TRES W  DIS CAZ7
 BAR2 SZ EP       10 7 10.13                             165    0.0510 30.6  87 
 BAR2 SZ ES   1   10 7 22.98                             165    0.02 7 30.6  87 
 BAR2 SZ I        10 7 29.53        49.7 0.16            170           30.6  87 
 GIR2 SZ EP       10 7 11.46                             150    0.0010 62.8  28 
 GIR2 SZ ES   1   10 7 25.48                             150    0.07 7 62.8  28 
 GIR2 SZ I        10 7 27.33        63.4 0.32            155           62.8  28 
 BRR  HZ EP   1   10 7 11.44                             149    0.05 7 65.0 334 
 BRR  HN ES       10 7 25.74                             149    0.4410 65.0 334 
 BRR  HN I        10 7 26.23       321.8 0.20            152           65.0 334 
 RUS  HZ EP       10 7 13.42                             142   -0.1510 86.3 151 
 RUS  HN ES   1   10 7 28.77                             142   -0.40 7 86.3 151 
 RUS  HN I        10 7 31.03        33.1 0.22            146           86.3 151 
 PTB  HZ EP       10 7 13.94                             134   -0.9610  110 268 
 PTB  HN ES   4   10 7 30.15                             134   -1.38 0  110 268 
 PTB  HZ I        10 7 34.05        36.8 0.22            136            110 268 
 PAM  SZ EP       10 7 16.16                             132   -0.1410  119  45 
 PAM  SE ES       10 7 34.19                             132    0.1610  119  45 
 PAM  SE I        10 7 36.16        43.7 0.24            138            119  45 
 SPBC HZ EP   1   10 7 16.03                             131   -0.08 7  123 214 
 SPBC HN ES       10 7 34.02                             131    0.3210  123 214 
 SPBC HN I        10 7 38.83       153.6 0.34            133            123 214 
 OCA  HZ EP   1   10 7 23.20                             119    0.77 7  184   5 
 OCA  HN ES   1   10 7 44.96                             119    0.02 7  184   5 
 OCA  HN I        10 7 48.63       106.0 0.22            123            184   5 
 ZAR  HZ EP   1   10 7 22.46                             119    0.18 7  185 303 
 ZAR  HE ES       10 7 45.03                             119    0.35 9  185 303 
 ZAR  HZ I        10 7 48.38        32.3 0.32            121            185 303 
 NOR  HZ EP   1   10 7 23.49                             117    0.35 7  192 234 
 NOR  HN ES       10 7 46.23                             117    0.03 9  192 234 
 NOR  HN I        10 7 52.72        86.7 0.14            120            192 234 
 CHI  HN ES       10 7 51.84                             114   -0.12 8  217 188 
 CHI  HN I        10 7 56.01        12.7 0.28            118            217 188 
 HEL  HZ EP   1   10 7 28.90                             113    0.84 6  233 260 
 HEL  HN ES       10 7 54.43                             113   -0.54 8  233 260 
 HEL  HN I        10 8  3.53        16.3 0.34            115            233 260 
 SML  HZ EP   1   10 7 29.78                             110   -0.33 6  255 345 
 SML  HN ES       10 7 57.72                             110   -0.88 8  255 345 
 SML  HN I        10 8  1.63        96.1 0.10            114            255 345 
 GUY2CHZ EP   1   10 7 32.16                             110    1.03 6  259 235 
 GUY2CHN ES   4   10 8  3.46                             110    3.04 0  259 235 
 RREF HZ EP   4   10 7 35.22                             108    1.50 0  279 229 
                                                                                
