 2011  224 1645  0.4 L   6.795 -73.071144.8  RSN  6 0.4 1.8LRSN                1
 GAP=204        0.86       7.2    19.2  7.7  0.1869E+01  0.1447E+02  0.2142E+02E
 Epicentro: LOS SANTOS - SANTANDER                                             3
 ACTION:UP  11-03-28 15:10 OP:jfem STATUS:               ID:20110224164500 L   I
 2011-02-24-1644-13S.COL___137                                                 6
 STAT SP IPHASW D HRMM SECON CODA AMPLIT PERI AZIMU VELO SNR AR TRES W  DIS CAZ7
 BTL  SZ IP       1645 20.44                             169     0.510   26 302 
 BAR2 SZ IP       1645 20.04                             169     0.110   26 209 
 BAR2 SZ I        1645 20.17        13.8 0.30                            26 209 
 BAR2 SZ ES   1   1645 34.80                             169    -0.4 7   26 209 
 BTL  SZ ES   1   1645 35.42                             169     0.2 7   26 302 
 GIR2 SZ EP   1   1645 19.18                             166    -0.8 7   34 337 
 GIR2 SZ ES   3   1645 34.93                             166    -0.4 2   34 337 
 RUS  HZ EP       1645 23.94                             144     0.010  100 181 
 RUS  HZ I        1645 25.26         7.4 0.03                           100 181 
 RUS  HN ES   2   1645 42.55                             144     0.2 5  100 181 
 CHI  HZ EP       1645 38.21                             117     0.0 8  250 197 
 CHI  HZ I        1645 40.21         4.0 0.06                           250 197 
 CHI  HN ES   2   1646  7.48                             117    -0.2 4  250 197 
 HEL  HZ EP   2   1645 41.26                             114    -0.2 4  280 256 
 HEL  HZ I        1646 19.22         6.3 0.56                           280 256 
                                                                                
