 2017  224 1737 55.4 L   6.778 -73.104144.3  RSN  6 0.4 1.7LRSN                1
 GAP=143        0.91       4.6     4.4  6.1 -0.4889E+01  0.6188E+01  0.3652E+01E
 Epicentro: LOS SANTOS - SANTANDER                                             3
 ACTION:UPD 17-05-24 15:40 OP:jn   STATUS:               ID:20170224173755 L   I
 OLDACT:UP  17-02-24 23:03 OP:dani STATUS:               ID:20170224172749d    3
 OLDACT:DUP 17-02-24 22:53 OP:dani STATUS:               ID:20170224172749d    3
 2017-02-24-1728-00M.COL___394                                                 6
 STAT SP IPHASW D HRMM SECON CODA AMPLIT PERI AZIMU VELO AIN AR TRES W  DIS CAZ7
 BAR2 EZ EP       1738 14.77                             171   -0.0210 22.2 203 
 BAR2 EZ ES       1738 29.49                             171   -0.4510 22.2 203 
 BAR2 EZ I        1738 31.03        17.5 0.24            171           22.2 203 
 BRR  HZ EP       1738 16.56                             150   -0.0910 76.4 299 
 BRR  HE ES       1738 33.88                             150    0.6210 76.4 299 
 BRR  HZ I        1738 40.64        15.6 0.31            149           76.4 299 
 PAM  EZ EP       1738 17.64                             151    0.2810 76.5  36 
 PAM  EN ES       1738 34.40                             151   -0.1310 76.5  36 
 PAM  EZ I        1738 37.10         4.9 0.56            153           76.5  36 
 RUS  HZ EP       1738 18.92                             144    0.1510 97.9 179 
 RUS  HN ES       1738 37.16                             144    0.1310 97.9 179 
 RUS  HZ I        1738 38.71         5.5 0.24            149           97.9 179 
 PTB  HZ EP       1738 21.89                             131   -0.69 9  152 260 
 PTB  HN ES       1738 43.50                             131   -0.31 9  152 260 
 PTB  HZ I        1738 47.82         4.2 0.13            132            152 260 
 NOR  HZ EP       1738 31.42                             118    0.17 8  237 236 
 NOR  HN ES       1738 59.65                             118    0.40 8  237 236 
                                                                                
