 2015  124 1434 54.3 L   6.611 -73.596104.8  RSN  7 0.7 1.5LRSN                1
 GAP=146        1.67       9.5     6.9 13.1 -0.3725E+02  0.1950E+02  0.2153E+02E
 Epicentro: EL CARMEN - SANTANDER                                              3
 ACTION:UPD 15-03-02 15:42 OP:nd   STATUS:               ID:20150124143454 L   I
 OLDACT:REG 15-01-24 20:50 OP:stll STATUS:               ID:20150124142747     3
 2015-01-24-1427-47M.COL___268                                                 6
 STAT SP IPHASW D HRMM SECON CODA AMPLIT PERI AZIMU VELO AIN AR TRES W  DIS CAZ7
 BAR2 EZ EP       1435 10.09                             155    0.2010 45.7  93 
 BAR2 EZ I        1435 10.17        21.0 0.18            157           45.7  93 
 BAR2 EZ ES       1435 22.93                             155    0.8410 45.7  93 
 PTB  HZ EP       1435 13.02                             134   -0.1410 95.5 265 
 PTB  HN ES       1435 27.49                             134   -0.4110 95.5 265 
 PTB  HZ I        1435 29.19         6.3 0.44            136           95.5 265 
 RUS  HZ EP       1435 13.13                             134   -0.8610 97.6 144 
 SPBC HZ EP       1435 15.85                             127    0.4710  118 206 
 SPBC HN ES       1435 31.39                             127   -0.4610  118 206 
 SPBC HZ I        1435 34.88         8.1 0.20            129            118 206 
 PAM  SN ES       1435 34.22                             125   -0.1810  128  51 
 PAM  SZ I        1435 35.84         5.5 0.44            129            128  51 
 NOR  HZ EP       1435 21.88                             115   -0.17 9  182 231 
 NOR  HE ES       1435 42.86                             115   -0.87 9  182 231 
 NOR  HZ I        1435 47.91         2.8 0.20            116            182 231 
 GUY2CHZ EP       1435 30.57                             107    0.42 8  249 232 
 GUY2CHN ES       1435 59.88                             107    1.73 8  249 232 
 GUY2CHZ I        1436  4.83         1.9 0.44                           249 232 
                                                                                
