 2013  824 1641  6.0 L   6.791 -73.145147.0  RSN 17 0.4 2.5LRSN 2.8WRSN        1
 SPEC AVERAGE  MO 13.2 ST  7.6 OM  1.9 f0 6.20 R0.2909 AL 0.00 WI 20.0 MW  2.8 3
 SPEC SD       MO  0.2 ST  8.5 OM  0.4 f0 2.42 R0.1077 AL      WI      MW  0.1 3
 GAP=137        1.06       2.8     3.5  4.9 -0.3512E+01  0.3551E+01  0.2688E+01E
 Epicentro: LOS SANTOS - SANTANDER                                             3
 SPEC BAR2SH Z MO 13.3 ST  1.3 OM  1.7 f0 3.87 R0.4016 AL-0.00 WI 20.0 MW  2.8 3
 SPEC BAR2SH Z T164139 K 0.000 GD  148 VS 4.20 DE 3.20 Q0300.0 QA 0.60 VS 4.20 3
 SPEC BRR HH Z MO 13.2 ST  4.0 OM  1.6 f0 5.95 R0.2612 AL-0.00 WI 20.0 MW  2.8 3
 SPEC BRR HH Z T164143 K 0.000 GD  163 VS 4.20 DE 3.20 Q0300.0 QA 0.60 VS 4.20 3
 SPEC RUS HH Z MO 12.8 ST0.824 OM  1.2 f0 4.65 R0.3342 AL-0.00 WI 20.0 MW  2.5 3
 SPEC RUS HH Z T164146 K 0.000 GD  177 VS 4.20 DE 3.20 Q0300.0 QA 0.60 VS 4.20 3
 SPEC PTB HH Z MO 13.3 ST 27.2 OM  1.6 f0 10.4 R0.1494 AL-0.00 WI 20.0 MW  2.8 3
 SPEC PTB HH Z T164152 K 0.000 GD  208 VS 4.20 DE 3.20 Q0300.0 QA 0.60 VS 4.20 3
 SPEC SPBCHH Z MO 13.2 ST 11.2 OM  1.5 f0 8.23 R0.1888 AL-0.00 WI 20.0 MW  2.8 3
 SPEC SPBCHH Z T164155 K 0.000 GD  218 VS 4.20 DE 3.20 Q0300.0 QA 0.60 VS 4.20 3
 SPEC ZAR HH Z MO 13.2 ST 11.9 OM  1.4 f0 8.64 R0.1799 AL-0.00 WI 20.0 MW  2.7 3
 SPEC ZAR HH Z T1642 1 K 0.000 GD  251 VS 4.20 DE 3.20 Q0300.0 QA 0.60 VS 4.20 3
 SPEC NOR HH Z MO 13.5 ST  3.8 OM  1.7 f0 4.55 R0.3415 AL-0.00 WI 20.0 MW  3.0 3
 SPEC NOR HH Z T1642 7 K 0.000 GD  276 VS 4.20 DE 3.20 Q0300.0 QA 0.60 VS 4.20 3
 SPEC HEL HH Z MO 13.4 ST  1.0 OM  1.5 f0 3.30 R0.4709 AL-0.00 WI 20.0 MW  2.9 3
 SPEC HEL HH Z T164216 K 0.000 GD  309 VS 4.20 DE 3.20 Q0300.0 QA 0.60 VS 4.20 3
 SPECGUY2CHH Z MO 13.3 ST  0.9 OM  1.4 f0 3.22 R 0.483 AL-0.00 WI 20.0 MW  2.8 3
 SPECGUY2CHH Z T164222 K       GD335.0 VS 4.20 DE 3.20 Q0300.0 QA 0.60 VS 4.20 3
 OLDACT:REG 13-08-24 17:17 OP:stll STATUS:               ID:20130824163851     3
 ACTION:UPD 14-01-14 09:06 OP:ep   STATUS:               ID:20130824164106 L   I
 OLDACT:UP  13-08-24 19:32 OP:stll STATUS:               ID:20130824163851     3
 2013-08-24-1638-51M.COL___220                                                 6
 STAT SP IPHASW D HRMM SECON CODA AMPLIT PERI AZIMU VELO AIN AR TRES W  DIS CAZ7
 BAR2 SZ IP     D 1641 25.81                             171    0.0310 22.3 191 
 BAR2 SZ ES       1641 40.77                             171   -0.4210 22.3 191 
 BAR2 SZ I        1642  7.61       138.1 1.70            168           22.3 191 
 BRR  HZ IP     C 1641 27.71                             153    0.3810 71.7 299 
 BRR  HN ES       1641 45.12                             153    1.1610 71.7 299 
 BRR  SZ I        1641 47.71        26.2 0.26            157           71.7 299 
 PAM  SZ EP       1641 28.56                             151    0.1510 78.1  39 
 PAM  SN ES       1641 45.87                             151   -0.0110 78.1  39 
 PAM  SZ I        1641 49.38        16.9 0.70            157           78.1  39 
 RUS  HZ EP       1641 29.66                             144   -0.1610 99.6 176 
 RUS  HN ES       1641 48.35                             144   -0.0410 99.6 176 
 RUS  SZ I        1641 50.84        25.3 0.26            145           99.6 176 
 GRA  SZ EP       1641 31.51                             137    0.0510  127  17 
 GRA  SZ ES       1641 51.49                             137    0.2010  127  17 
 GRA  SZ I        1641 54.30      2124.7 2.44            144            127  17 
 PTB  HZ EP       1641 32.38                             132   -0.70 9  148 259 
 PTB  HN ES       1641 53.58                             132   -0.60 9  148 259 
 PTB  SZ I        1641 57.10        39.5 0.14            136            148 259 
 CAPV BZ EP       1641 33.49                             132   -0.10 9  150  38 
 OCA  HN ES       1641 56.27                             130   -0.48 9  161 353 
 SPBC HZ EP       1641 34.61                             129    0.07 9  162 219 
 SPBC HN ES       1641 56.87                             129    0.08 9  162 219 
 SPBC SZ I        1642  1.57        28.7 0.30            132            162 219 
 ZAR  HZ EP       1641 38.31                             123   -0.28 9  204 292 
 ZAR  HN ES       1642  3.29                             123   -0.70 9  204 292 
 ZAR  SZ I        1642  9.23        33.5 0.40            128            204 292 
 NOR  HZ EP       1641 41.57                             119   -0.19 8  234 235 
 NOR  HN ES       1642  9.18                             119   -0.46 8  234 235 
 NOR  SZ I        1642 13.97        23.9 0.22            122            234 235 
 CHI  HZ EP       1641 43.88                             117    0.20 8  248 195 
 CHI  HN ES       1642 12.81                             117   -0.25 8  248 195 
 CHI  SZ I        1642 18.07        11.0 0.60            120            248 195 
 HEL  HZ EP       1641 47.00                             115    0.73 8  272 256 
 HEL  HN ES       1642 18.08                             115    0.41 8  272 256 
 HEL  SZ I        1642 23.01        10.0 0.26            119            272 256 
 GUY2CHZ EP       1641 50.52                             113    0.89 7  301 235 
 GUY2CHN ES       1642 24.35                             113    0.72 7  301 235 
 GUY2CSZ I        1642 32.24        11.2 0.30                           301 235 
 RREF HZ EP       1641 51.85                             111   -0.30 7  321 230 
 RREF HN ES       1642 28.41                             111    0.29 7  321 230 
 RREF SZ I        1642 36.74        12.7 0.32            114            321 230 
 PRA  HZ EP       1641 59.19                             107   -0.29 6  391 210 
 PRA  HN ES       1642 41.01                             107   -0.17 6  391 210 
 PRA  SZ I        1642 44.95         9.9 0.30            110            391 210 
 ORTC HZ EP       1642  0.03                             107    0.14 6  395 216 
 ORTC SZ I        1642 49.01         8.6 0.54            110            395 216 
                                                                                
