 2017  224 1109 21.7 L   6.781 -73.203136.4  RSN  5 0.4 1.3LRSN                1
 GAP=130        1.06       5.4     4.8  9.0 -0.6574E+00  0.1362E+02 -0.4672E+01E
 Epicentro: ZAPATOCA - SANTANDER                                               3
 ACTION:UPD 17-05-24 15:40 OP:jn   STATUS:               ID:20170224110921 L   I
 OLDACT:REG 17-02-24 20:31 OP:lv   STATUS:               ID:20170224110739     3
 2017-02-24-1108-00M.COL___382                                                 6
 STAT SP IPHASW D HRMM SECON CODA AMPLIT PERI AZIMU VELO AIN AR TRES W  DIS CAZ7
 BAR2 EZ EP       11 9 40.15                             171    0.0410 21.0 174 
 BAR2 EZ ES       11 9 55.07                             171    0.5610 21.0 174 
 BAR2 EZ I        11 9 56.39         7.2 0.30            171           21.0 174 
 PAM  EZ EP       11 9 43.20                             147   -0.0610 83.2  42 
 PAM  EN ES       11 9 59.70                             147   -0.4110 83.2  42 
 PAM  EZ I        1110  1.09         3.1 0.29            152           83.2  42 
 RUS  HZ EP       11 9 44.63                             142    0.2410 99.1 172 
 RUS  HN ES       1110  2.02                             142   -0.1010 99.1 172 
 RUS  HZ I        1110  3.79         2.4 0.29            145           99.1 172 
 PTB  HZ EP       11 9 47.17                             131   -0.09 9  141 259 
 PTB  HN ES       1110  6.45                             131   -0.78 9  141 259 
 PTB  HZ I        1110 13.51         2.8 0.14            132            141 259 
 ZAR  HN ES       1110 18.07                             121    0.66 9  199 293 
 CHI  HN ES   4   1110 25.71                             115   -1.43 0  245 194 
                                                                                
