 2015  224 1001 43.3 L   6.803 -73.155147.6  RSN  6 0.4 1.7LRSN                1
 GAP=135        1.02       4.9     5.1  6.9 -0.6260E+01  0.4691E+01  0.3710E+01E
 Epicentro: LOS SANTOS - SANTANDER                                             3
 ACTION:UPD 15-04-30 21:29 OP:nd   STATUS:               ID:20150224100143 L   I
 OLDACT:REG 15-02-24 20:38 OP:carl STATUS:               ID:20150224095741     3
 2015-02-24-0957-41M.COL___284                                                 6
 STAT SP IPHASW D HRMM SECON CODA AMPLIT PERI AZIMU VELO AIN AR TRES W  DIS CAZ7
 BAR2 EZ EP       10 2  3.12                             171   -0.0210 23.5 187 
 BAR2 EZ ES       10 2 18.12                             171   -0.5010 23.5 187 
 BAR2 EZ I        10 2 19.04         6.2 0.24            169           23.5 187 
 BRR  HZ EP       10 2  4.85                             153    0.2810 70.1 299 
 BRR  HN ES       10 2 21.96                             153    0.7910 70.1 299 
 PAM  SZ EP       10 2  5.79                             151    0.0710 77.8  40 
 PAM  SN ES       10 2 22.90                             151   -0.3110 77.8  40 
 PAM  SZ I        10 2 24.79        15.3 0.52            153           77.8  40 
 RUS  HZ EP       10 2  7.15                             144   -0.1010  101 175 
 RUS  HN ES       10 2 26.30                             144    0.3610  101 175 
 RUS  HZ I        10 2 27.61         5.5 0.28            144            101 175 
 PTB  HZ EP       10 2  9.87                             133   -0.45 9  147 259 
 PTB  HN ES       10 2 30.86                             133   -0.54 9  147 259 
 PTB  HZ I        10 2 33.33         6.1 0.10            133            147 259 
 SPBC HZ EP       10 2 12.20                             129    0.31 9  163 219 
 SPBC HN ES       10 2 34.24                             129    0.04 9  163 219 
 SPBC HZ I        10 2 38.65         8.1 0.20            130            163 219 
                                                                                
