 2013 1124 1421 16.2 L   6.745 -73.183145.3  RSN  4 0.6 1.5LRSN                1
 GAP=141        1.45      14.7     8.8 11.7 -0.6475E+02  0.8555E+01  0.1497E+02E
 Epicentro: VILLANUEVA - SANTANDER                                             3
 ACTION:UPD 14-01-09 16:30 OP:ep   STATUS:               ID:20131124142116 L   I
 OLDACT:REG 13-11-24 16:30 OP:nd   STATUS:               ID:20131124142000     3
 2013-11-24-1420-00M.COL___282                                                 6
 STAT SP IPHASW D HRMM SECON CODA AMPLIT PERI AZIMU VELO AIN AR TRES W  DIS CAZ7
 BAR2 SZ EP       1421 36.05                             173    0.3410 16.9 180 
 BAR2 SZ ES       1421 51.09                             173    0.2110 16.9 180 
 BAR2 SZ I        1421 52.45        13.0 0.20            172           16.9 180 
 BRR  HZ EP       1421 37.88                             153    0.5610 70.8 304 
 BRR  HN ES       1421 54.50                             153    0.7410 70.8 304 
 BRR  HZ I        1421 57.52         5.9 0.66            149           70.8 304 
 PAM  SZ EP       1421 38.81                             148   -0.0510 84.7  39 
 PAM  SN ES       1421 55.69                             148   -0.8110 84.7  39 
 PAM  SZ I        1421 57.90         6.0 0.50            152           84.7  39 
 PTB  HZ EP       1421 42.52                             133   -0.19 9  143 261 
 PTB  HN ES       1422  2.42                             133   -0.93 9  143 261 
 PTB  HZ I        1422 11.09         3.2 0.40            132            143 261 
                                                                                
