 2012  224 1547  2.4 L   6.810 -73.131149.0  RSN  6 0.2 1.6LRSN                1
 GAP=138        0.40       3.4     3.3  3.8 -0.9921E+00  0.1906E+01  0.2822E+01E
 ACTION:UP  12-03-07 16:33 OP:epov STATUS:               ID:20120224154702 L   I
 2012-02-24-1540-00M.COL___193                                                 6
 STAT SP IPHASW D HRMM SECON CODA AMPLIT PERI AZIMU VELO AIN AR TRES W  DIS CAZ7
 BAR2 SZ EP   1   1547 22.21                             170   -0.27 7 24.8 193 
 BAR2 SZ ES   1   1547 38.13                             170    0.01 7 24.8 193 
 BAR2 SZ I        1547 39.44        12.5 0.34                          24.8 193 
 GIR2 SZ EP   1   1547 22.50                             168    0.03 7 30.5 347 
 GIR2 SZ ES   2   1547 37.99                             168   -0.11 5 30.5 347 
 BRR  HZ EP   1   1547 24.25                             153    0.27 7 72.1 297 
 BRR  HZ I        1547 25.91        14.4 0.14                          72.1 297 
 BRR  HE ES   1   1547 40.93                             153    0.14 7 72.1 297 
 PAM  SZ EP   2   1547 24.56                             152   -0.32 5 75.5  39 
 PAM  SN ES   1   1547 42.39                             152    0.00 7 75.5  39 
 RUS  HZ EP   1   1547 26.84                             144    0.26 7  102 177 
 RUS  HN ES   2   1547 45.37                             144   -0.04 5  102 177 
 RUS  HZ I        1547 46.76         3.0 0.42                           102 177 
 PTB  HZ EP   1   1547 29.72                             132   -0.11 7  150 259 
 PTB  HN ES   2   1547 50.88                             132   -0.32 5  150 259 
                                                                                
