 2011  824 1829 54.0 L   6.601 -73.384118.0  RSN 10 0.3 2.5LRSN                1
 GAP= 71        0.63       2.6     3.7  4.5 -0.7354E-01  0.7802E+01  0.3466E+01E
 Epicentro: HATO - SANTANDER                                                   3
 ACTION:UPD 12-07-13 15:53 OP:ep   STATUS:               ID:20110824182954 L   I
 2011-08-24-1827-20S.COL___166                                                 6
 STAT SP IPHASW D HRMM SECON CODA AMPLIT PERI AZIMU VELO AIN AR TRES W  DIS CAZ7
 BAR2 SZ IP       1830 10.39                             169    0.1010 22.3  93 
 BAR2 SZ ES   1   1830 23.02                             169    0.04 7 22.3  93 
 BAR2 SZ I        1830 24.39        79.2 0.16                          22.3  93 
 GIR2 SZ EP       1830 11.75                             153    0.2010 56.8  22 
 GIR2 SZ ES   1   1830 25.25                             153    0.02 7 56.8  22 
 BRR  HZ EP       1830 11.85                             148   -0.0910 66.6 327 
 BRR  HZ I        1830 19.47        57.2 0.13                          66.6 327 
 BRR  HN ES       1830 25.88                             148   -0.0410 66.6 327 
 RUS  HZ EP       1830 13.64                             142   -0.2910 85.2 157 
 RUS  HN ES   1   1830 29.57                             142    0.11 7 85.2 157 
 RUS  HZ I        1830 30.71        32.6 0.20                          85.2 157 
 OCA  SZ EP   1   1830 22.79                             119    0.27 7  181   2 
 OCA  SZ ES   1   1830 44.57                             119   -0.19 7  181   2 
 OCA  SZ I        1830 50.34        45.3 0.20                           181   2 
 NOR  SZ EP   1   1830 23.67                             116   -0.81 6  201 235 
 HEL  HZ EP   1   1830 29.20                             111   -0.28 6  242 259 
 HEL  HN ES   1   1830 57.16                             111    0.02 6  242 259 
 HEL  HZ I        1831  0.34        13.7 0.40                           242 259 
 GUY  SZ EP   1   1830 32.69                             109   -0.10 6  269 236 
 GUY  SZ I        1831  5.94        23.3 0.35                           269 236 
 RREF HZ EP       1830 35.83                             107    0.74 7  287 229 
 RREF HN ES   2   1831  7.89                             107    0.76 4  287 229 
 PRA  HZ EP   1   1830 42.88                             103   -0.03 5  360 208 
 PRA  HN ES   2   1831 20.53                             103   -0.52 3  360 208 
 PRA  HZ I        1831 23.45        24.8 0.21                           360 208 
                                                                                
