 2014 1124 1037 18.3 L   6.770 -73.160142.0  RSN  4 0.4 1.5LRSN                1
 GAP=242        1.03       9.3     8.3 13.5  0.5151E+02 -0.3556E+02 -0.7374E+02E
 Epicentro: LOS SANTOS - SANTANDER                                             3
 ACTION:UPD 14-12-19 15:46 OP:nd   STATUS:               ID:20141124103718 L   I
 OLDACT:DUP 14-11-24 21:44 OP:fm   STATUS:               ID:20141124102751d    3
 2014-11-24-1027-50M.COL___300                                                 6
 STAT SP IPHASW D HRMM SECON CODA AMPLIT PERI AZIMU VELO AIN AR TRES W  DIS CAZ7
 RUS  HZ EP       1037 41.11                             144   -0.3910 97.4 175 
 RUS  HN ES       1037 59.78                             144    0.2310 97.4 175 
 RUS  HZ I        1038  3.01         2.9 0.40            148           97.4 175 
 PTB  HZ EP       1037 45.12                             132    0.31 9  146 260 
 PTB  HN ES       1038  4.82                             132   -0.63 9  146 260 
 PTB  HZ I        1038 12.91         3.6 0.52            134            146 260 
 SPBC HZ EP       1037 45.75                             129   -0.47 9  160 219 
 SPBC HN ES       1038  8.47                             129    0.51 9  160 219 
 SPBC HZ I        1038 14.08         6.5 0.28            132            160 219 
 ZAR  HZ EP       1037 51.02                             122    0.49 9  204 293 
 ZAR  HN ES       1038 15.68                             122    0.05 9  204 293 
 ZAR  HZ I        1038 21.83         2.8 0.32            125            204 293 
                                                                                
