 2013 1224 1501 40.5 L   6.315 -73.671104.9  RSN 10 0.4 1.7LRSN                1
 GAP= 65        0.99       2.7     3.3  7.1 -0.6621E+00  0.6797E+01  0.2221E+01E
 Epicentro: SANTA HELENA DEL OPON - SANTANDER                                  3
 ACTION:UPD 14-01-13 10:20 OP:ep   STATUS:               ID:20131224150140 L   I
 OLDACT:REG 13-12-24 14:21 OP:jn   STATUS:               ID:20131224150000     3
 2013-12-24-1500-00M.COL___285                                                 6
 STAT SP IPHASW D HRMM SECON CODA AMPLIT PERI AZIMU VELO AIN AR TRES W  DIS CAZ7
 BAR2 SZ EP       15 1 57.43                             147    0.3310 62.1  60 
 BAR2 SZ ES       15 2 10.54                             147    0.4810 62.1  60 
 BAR2 SZ I        15 2 11.75        55.5 0.32            152           62.1  60 
 RUS  HZ EP       15 1 58.91                             140    0.1510 80.1 126 
 RUS  HN ES       15 2 12.57                             140   -0.4510 80.1 126 
 RUS  HZ I        15 2 16.04        10.7 0.60            143           80.1 126 
 SPBC HE ES   1   15 2 13.22                             138    0.39 7 85.7 211 
 SPBC HZ I        15 2 17.02        13.4 0.18            139           85.7 211 
 BRR  HZ EP       15 1 58.80                             137    0.1110 87.7 357 
 BRR  HE ES       15 2 13.21                             137    0.3110 87.7 357 
 BRR  HZ I        15 2 14.57        11.5 0.14            141           87.7 357 
 PTB  HZ EP       15 1 58.35                             136   -0.5810 90.3 286 
 PTB  HN ES   1   15 2 12.46                             136   -0.87 7 90.3 286 
 PTB  HZ I        15 2 14.68         9.7 0.14            138           90.3 286 
 PAM  SZ EP   2   15 2  6.26                             119    0.30 5  156  43 
 PAM  SN ES   1   15 2 24.96                             119   -0.89 7  156  43 
 PAM  SZ I        15 2 26.55         7.5 0.16            124            156  43 
 NOR  HZ EP       15 2  5.81                             119    0.37 9  157 238 
 NOR  HN ES       15 2 25.16                             119    0.23 9  157 238 
 NOR  HZ I        15 2 28.89         8.7 0.16            121            157 238 
 ZAR  HE ES   1   15 2 30.38                             114    0.07 7  185 315 
 ZAR  HZ I        15 2 33.83         9.9 0.40            117            185 315 
 CHI  HZ EP       15 2  9.31                             114    0.13 9  187 182 
 CHI  HN ES       15 2 31.19                             114   -0.38 9  187 182 
 CHI  HZ I        15 2 37.22         3.5 0.20            117            187 182 
 SML  HN ES   1   15 2 49.26                             104   -0.24 6  278 351 
                                                                                
