 2010  224 1231  4.8 L   6.795 -73.134149.7  RSN  6 0.5 2.1LRSN                1
 GAP=184        0.60       5.6    12.6  9.5  0.4154E+02 -0.4954E+02 -0.2448E+02E
 Epicentro: LOS SANTOS - SANTANDER                                             3
 ACTION:UP  10-08-24 09:50 OP:vdl  STATUS:               ID:20100224123104 L   I
 2010-02-24-1227-51S.COL___094                                                 6
 STAT SP IPHASW D HRMM SECON CODA AMPLIT PERI AZIMU VELO SNR AR TRES W  DIS CAZ7
 BAR2 SZ EP       1231 25.07                             170     0.210   23 194 
 BAR2 SZ ES   3   1231 39.81                             170    -0.8 2   23 194 
 GIR2 SZ EP   3   1231 24.19                             167    -0.8 2   32 348 
 GIR2 SZ ES   3   1231 41.62                             167     0.9 2   32 348 
 BRR  HZ EP       1231 26.68                             152     0.210   73 298 
 BRR  HZ I        1231 38.12        23.7 0.34                            73 298 
 BRR  HN ES   2   1231 43.58                             152     0.2 5   73 298 
 RUS  BZ EP       1231 28.89                             145     0.010  100 177 
 RUS  BN ES   2   1231 46.92                             145    -0.8 5  100 177 
 OCA  SZ EP       1231 33.38                             130    -0.1 9  161 353 
 OCA  SZ ES   3   1231 55.34                             130    -0.5 2  161 353 
 OCA  SZ I        1232  1.44        16.5 0.44                           161 353 
 MON  HZ EP   3   1231 54.39                             109     0.3 2  354 308 
 MON  HN ES   3   1232 30.89                             109    -1.6 2  354 308 
                                                                                
