 2014  224 1240 38.8 L   6.795 -73.161144.7  RSN  9 0.4 2.1LRSN                1
 GAP=135        0.86       2.8     4.0  6.3  0.5489E+00  0.9338E+01  0.1618E+01E
 Epicentro: LOS SANTOS - SANTANDER                                             3
 ACTION:UPD 14-03-10 08:12 OP:ep   STATUS:               ID:20140224124038 L   I
 OLDACT:REG 14-02-24 16:43 OP:cam  STATUS:               ID:20140224123816     3
 2014-02-24-1238-16M.COL___217                                                 6
 STAT SP IPHASW D HRMM SECON CODA AMPLIT PERI AZIMU VELO AIN AR TRES W  DIS CAZ7
 BAR2 SZ EP   1   1240 58.20                             171   -0.08 7 22.6 186 
 BAR2 SZ ES   1   1241 13.14                             171   -0.34 7 22.6 186 
 PAM  SZ IP     C 1241  1.25                             150    0.2610 78.9  40 
 PAM  SN ES       1241 18.38                             150    0.0810 78.9  40 
 PAM  SZ I        1241 20.63        19.8 0.60            154           78.9  40 
 RUS  HZ EP       1241  2.23                             144   -0.1810  100 175 
 RUS  HN ES       1241 20.89                             144    0.0610  100 175 
 RUS  HZ I        1241 22.90         7.8 0.26            145            100 175 
 PTB  HZ EP       1241  4.76                             132   -0.76 9  146 259 
 PTB  HN ES       1241 26.20                             132   -0.17 9  146 259 
 PTB  HZ I        1241 31.11        15.6 0.48            132            146 259 
 ZAR  HZ EP   1   1241 10.37                             122   -0.67 6  203 292 
 ZAR  HN ES       1241 36.69                             122    0.51 9  203 292 
 ZAR  HZ I        1241 42.35        16.7 0.32            123            203 292 
 SML  HZ EP   2   1241 14.73                             117   -0.61 4  244 336 
 SML  HN ES       1241 44.25                             117    0.40 8  244 336 
 SML  HZ I        1241 46.57        22.8 0.28            119            244 336 
 CHI  HZ EP   1   1241 16.59                             117    0.26 6  248 195 
 CHI  HN ES       1241 45.87                             117    0.26 8  248 195 
 CHI  HZ I        1241 51.66         5.6 0.68            118            248 195 
 GUY2CHZ EP   4   1241 23.62                             112    1.45 0  300 235 
 GUY2CHN ES   4   1241 57.69                             112    1.69 0  300 235 
 GUY2CHZ I        1242  6.56         6.1 0.50                           300 235 
 PRA  HZ EP   1   1241 32.32                             106    0.19 4  391 209 
 PRA  HN ES       1242 14.60                             106    0.87 6  391 209 
 PRA  HZ I        1242 19.92         5.0 0.32            107            391 209 
                                                                                
