 2012  624 1007 17.0 L   6.757 -73.120158.7  RSN  5 0.4 1.4LRSN                1
 GAP=237        0.63       6.3     7.1  8.0  0.1451E+02  0.4398E+01 -0.7975E+00E
 Epicentro: LOS SANTOS - SANTANDER                                             3
 ACTION:UPD 12-08-06 17:52 OP:ep   STATUS:               ID:20120624100717 L   I
 2012-06-24-1000-00M.COL___199                                                 6
 STAT SP IPHASW D HRMM SECON CODA AMPLIT PERI AZIMU VELO AIN AR TRES W  DIS CAZ7
 BAR2 SZ EP   1   10 7 38.22                             173    0.10 7 19.4 201 
 BAR2 SZ ES   1   10 7 54.35                             173   -0.24 7 19.4 201 
 BAR2 SZ I        10 7 56.11         7.2 0.43                          19.4 201 
 BRR  HZ EP   1   10 7 40.03                             153    0.21 7 76.0 301 
 BRR  HN ES   1   10 7 57.75                             153    0.13 7 76.0 301 
 BRR  HZ I        10 7 59.63         6.7 0.27                          76.0 301 
 RUS  HZ EP   2   10 7 41.02                             148   -0.69 5 95.6 178 
 RUS  HN ES   1   10 8  1.23                             148    0.24 7 95.6 178 
 RUS  HZ I        10 8  2.36         1.9 0.44                          95.6 178 
 PTB  HN ES   2   10 8  6.47                             134   -0.75 5  150 261 
 NOR  SE ES   2   10 8 22.43                             121    0.52 4  234 236 
                                                                                
