 2015 1024 1357 14.7 L   6.807 -73.113148.8  RSN 16 0.6 2.7LRSN                1
 GAP=140        1.20       3.1     4.9  6.2 -0.2467E+01  0.9468E+01  0.1743E+01E
 Epicentro: LOS SANTOS - SANTANDER                                             3
 ACTION:UPD 15-12-22 20:42 OP:cam  STATUS:               ID:20151024135714 L   I
 OLDACT:UP  15-10-24 22:51 OP:mh   STATUS:               ID:20151024134748     3
 OLDACT:REG 15-10-24 21:12 OP:mh   STATUS:               ID:20151024134748     3
 2015-10-24-1347-48M.COL___313                                                 6
 STAT SP IPHASW D HRMM SECON CODA AMPLIT PERI AZIMU VELO AIN AR TRES W  DIS CAZ7
 BAR2 EZ IP     D 1357 34.66                             170   -0.0410 24.9 198 
 BAR2 EZ ES       1357 50.03                             170   -0.2910 24.9 198 
 BAR2 EZ I        1357 50.48       100.1 0.58            166           24.9 198 
 BRR  HZ IP     C 1357 36.55                             152    0.2410 74.0 297 
 BRR  HN ES       1357 53.51                             152    0.3210 74.0 297 
 BRR  HZ I        1357 56.22       113.5 0.36            147           74.0 297 
 PAM  EZ EP       1357 37.46                             152    0.4110 74.5  38 
 PAM  EN ES       1357 54.60                             152    0.1010 74.5  38 
 PAM  EZ I        1357 57.22        41.7 0.28            156           74.5  38 
 RUS  HZ EP     D 1357 38.64                             144   -0.1210  101 178 
 RUS  HN ES       1357 57.28                             144   -0.2710  101 178 
 RUS  HZ I        1357 59.22        30.5 0.34            146            101 178 
 OCA  HZ EP       1357 42.92                             130   -0.27 9  160 352 
 OCA  HN ES       1358  5.57                             130    0.13 9  160 352 
 OCA  HZ I        1358  9.86       108.7 0.44            131            160 352 
 SPBC HZ EP       1357 43.53                             129   -0.14 9  166 220 
 SPBC HN ES       1358  6.14                             129   -0.16 9  166 220 
 SPBC HZ I        1358 12.49        99.1 0.32            128            166 220 
 ZAR  HZ EP   1   1357 46.94                             123   -0.69 6  207 292 
 ZAR  HN ES       1358 14.21                             123    0.87 8  207 292 
 ZAR  HZ I        1358 20.21        59.9 0.46            121            207 292 
 NOR  HZ EP       1357 50.46                             119   -0.48 8  238 235 
 NOR  HN ES       1358 17.82                             119   -1.41 8  238 235 
 NOR  HZ I        1358 25.48        41.7 0.18            118            238 235 
 SML  HZ EP   1   1357 50.98                             118   -0.58 6  245 334 
 SML  HN ES   1   1358 19.27                             118   -1.06 6  245 334 
 SML  HZ I        1358 23.57        67.2 0.26            118            245 334 
 CHI  HZ EP       1357 52.96                             118    0.24 8  250 196 
 CHI  HN ES       1358 22.33                             118   -0.07 8  250 196 
 CHI  HZ I        1358 28.28        20.4 0.72            118            250 196 
 ROSC BZ EP       1357 54.26                             117    1.03 8  255 212 
 ROSC BN ES       1358 24.25                             117    0.94 8  255 212 
 ROSC BZ I        1358 31.19        35.2 0.35            117            255 212 
 HEL  HZ EP   1   1357 55.21                             115   -0.24 6  276 256 
 HEL  HE ES       1358 27.59                             115    0.34 7  276 256 
 HEL  HZ I        1358 34.51        31.6 0.34            114            276 256 
 URE  HZ EP   4   1357 54.57                             114   -1.66 0  287 292 
 URE  HN ES   4   1358 26.92                             114   -1.73 0  287 292 
 URE  HZ I        1358 35.42        35.2 0.18            113            287 292 
 GUY2CHZ EP   1   1357 59.62                             113    0.82 5  305 235 
 GUY2CHN ES   4   1358 36.76                             113    3.54 0  305 235 
 GUY2CHZ I        1358 42.46        27.9 0.64                           305 235 
 DBB  SZ EP   1   1358  1.97                             110   -0.71 5  343 274 
 DBB  SZ ES   4   1358 38.06                             110   -2.06 0  343 274 
 DBB  SZ I        1358 43.01        48.9 0.37            110            343 274 
 MON  HZ EP   4   1358  1.74                             109   -2.32 0  356 308 
 MON  HN ES   4   1358 39.88                             109   -2.71 0  356 308 
 MON  HZ I        1358 56.18        10.3 0.32            109            356 308 
                                                                                
