 2010  624 1341 59.2 L   6.884 -73.338112.0  RSN 10 0.3 2.5LRSN                1
 GAP=119        0.62       2.6     6.1  6.9 -0.5945E+01  0.1688E+02 -0.2390E+01E
 Epicentro: BETULIA - SANTANDER                                                3
 ACTION:UP  10-08-24 10:12 OP:vdl  STATUS:               ID:20100624134159 L   I
 2010-06-24-1340-22S.COL___118                                                 6
 STAT SP IPHASW D HRMM SECON CODA AMPLIT PERI AZIMU VELO SNR AR TRES W  DIS CAZ7
 BAR2 SZ IP       1342 15.39                             161     0.210   37 152 
 BAR2 SZ ES   2   1342 27.78                             161     0.1 5   37 152 
 BRR  HZ IP     D 1342 15.34                             155     0.010   48 301 
 BRI  SZ EP   1   1342 20.66                             133     0.5 7  110  33 
 RUS  HZ EP   1   1342 20.35                             132    -0.5 7  113 166 
 RUS  HZ I        1342 21.27        54.2 0.14                           113 166 
 RUS  HN ES   2   1342 37.72                             132    -0.1 5  113 166 
 GUE  SZ IP       1342 20.54                             131    -0.210  114  24 
 GRA  SZ EP   1   1342 21.94                             128     0.4 7  125  28 
 GRA  SZ ES   2   1342 39.06                             128     0.0 5  125  28 
 OCA  SZ IP       1342 23.71                             123    -0.3 9  150   1 
 OCA  SZ ES   2   1342 43.25                             123    -0.1 5  150   1 
 OCA  SZ I        1342 49.13        79.5 0.21                           150   1 
 CHI  HZ EP   1   1342 35.58                             109    -0.2 6  253 190 
 CHI  HN ES   2   1343  4.41                             109     0.1 4  253 190 
 CHI  HZ I        1343  8.63        14.0 0.80                           253 190 
 HEL  HZ EP   1   1342 36.06                             109     0.3 6  254 253 
 HEL  HZ I        1343  8.05        26.1 0.34                           254 253 
 PRA  HZ EP   1   1342 51.51                             100     0.0 4  390 206 
 PRA  HE ES   2   1343 32.82                             100     0.5 3  390 206 
 PRA  HZ I        1343 38.60        14.8 0.81                           390 206 
                                                                                
