 2017 1124 1604  6.2 L   6.805 -73.124142.6  RSN  5 0.3 1.3LRSN                1
 GAP=246        0.73       5.4     4.3  6.1  0.9462E+01  0.8850E+01  0.3829E+00E
 Epicentro: LOS SANTOS - SANTANDER                                             3
 ACTION:UPD 17-12-12 19:59 OP:rebc STATUS:               ID:20171124160406 L   I
 OLDACT:UP  17-11-24 23:36 OP:edw  STATUS:               ID:20171124155311     3
 OLDACT:REG 17-11-24 20:53 OP:edw  STATUS:               ID:20171124155311     3
 2017-11-24-1558-00M.COL___494                                                 6
 STAT SP IPHASW D HRMM SECON CODA AMPLIT PERI AZIMU VELO AIN AR TRES W  DIS CAZ7
 BAR2 EZ EP       16 4 25.58                             170    0.0810 24.3 195 
 BAR2 EZ ES       16 4 40.79                             170    0.2510 24.3 195 
 BAR2 EZ I        16 4 41.61         5.6 0.34            163           24.3 195 
 RUS  HZ EP       16 4 29.83                             143    0.1310  101 177 
 RUS  HN ES       16 4 47.72                             143   -0.2810  101 177 
 RUS  HZ I        16 4 50.83         1.6 0.22            141            101 177 
 PTB  HZ EP       16 4 32.66                             131   -0.51 9  150 259 
 PTB  HE ES       16 4 53.87                             131   -0.31 9  150 259 
 PTB  HZ I        16 4 58.50         2.8 0.74            130            150 259 
 ZAR  HN ES       16 5  4.17                             121    0.17 8  206 292 
 NOR  HZ EP       16 4 42.25                             118    0.23 8  237 235 
 NOR  HN ES       16 5 10.32                             118    0.38 8  237 235 
 NOR  HZ I        16 5 14.95         1.6 0.16            117            237 235 
                                                                                
