 2012 1224 1556  2.2 L   6.771 -73.160145.4  RSN 11 0.4 2.2LRSN                1
 GAP=110        0.88       4.4     4.0  5.6  0.3540E+01 -0.2739E+01 -0.4464E+01E
 Epicentro: LOS SANTOS - SANTANDER                                             3
 ACTION:UPD 13-01-04 14:30 OP:ep   STATUS:               ID:20121224155602 L   I
 2012-12-24-1550-00M.COL___242                                                 6
 STAT SP IPHASW D HRMM SECON CODA AMPLIT PERI AZIMU VELO AIN AR TRES W  DIS CAZ7
 BAR2 SZ IP       1556 21.71                             172   -0.0310 19.9 187 
 BAR2 SZ ES       1556 36.63                             172   -0.3310 19.9 187 
 BAR2 SZ I        1556 37.99        58.0 0.21                          19.9 187 
 GIR2 SZ EP       1556 21.72                             166   -0.2110 34.2 354 
 BRR  HZ EP     D 1556 23.54                             152    0.2010 71.4 301 
 BRR  HN ES       1556 40.49                             152    0.6910 71.4 301 
 BRR  HZ I        1556 44.53        24.0 0.14                          71.4 301 
 RUS  HZ EP       1556 25.81                             145    0.1010 97.5 175 
 RUS  HE ES   1   1556 44.12                             145    0.09 7 97.5 175 
 RUS  HE I        1556 45.46        38.4 0.14                          97.5 175 
 PTB  HZ EP     C 1556 28.88                             132   -0.08 9  146 260 
 PTB  HE ES       1556 49.20                             132   -0.61 9  146 260 
 PTB  HZ I        1556 52.06        15.3 0.10                           146 260 
 TAM  HZ EP       1556 30.04                             130    0.10 9  156 104 
 TAM  HZ I        1556 30.47        15.1 0.24                           156 104 
 OCA  HZ EP   1   1556 30.85                             129    0.07 7  163 354 
 OCA  HZ I        1556 55.94        14.1 0.20                           163 354 
 ZAR  HZ EP   1   1556 35.49                             122    0.88 6  204 293 
 ZAR  HE ES   1   1556 59.77                             122   -0.10 6  204 293 
 ZAR  HZ I        1557  6.61        18.6 0.38                           204 293 
 NOR  HE ES   1   1557  5.38                             119    0.21 6  232 235 
 CHI  HZ EP   1   1556 39.61                             117    0.10 6  245 195 
 CHI  HZ I        1557 16.46         3.7 0.57                           245 195 
 SML  HZ EP       1556 38.39                             117   -0.68 8  246 336 
 SML  HZ I        1557 10.13        25.1 0.12                           246 336 
                                                                                
