 2015  324 1302 46.8 L   6.763 -73.142138.9  RSN  6 0.4 1.7LRSN                1
 GAP=139        1.14       5.2     5.7  8.3 -0.7874E+01  0.2502E+01  0.6516E+01E
 Epicentro: LOS SANTOS - SANTANDER                                             3
 ACTION:UPD 15-04-30 16:29 OP:nd   STATUS:               ID:20150324130246 L   I
 OLDACT:REG 15-03-24 20:35 OP:stll STATUS:               ID:20150324125748     3
 2015-03-24-1257-48M.COL___277                                                 6
 STAT SP IPHASW D HRMM SECON CODA AMPLIT PERI AZIMU VELO AIN AR TRES W  DIS CAZ7
 BAR2 EZ EP       13 3  5.26                             172   -0.2710 19.4 193 
 BAR2 EZ ES       13 3 19.76                             172   -0.3710 19.4 193 
 BAR2 EZ I        13 3 21.09         8.3 0.28            168           19.4 193 
 BRR  HZ EP       13 3  7.36                             150    0.0110 73.6 301 
 BRR  HE ES       13 3 24.26                             150    0.8810 73.6 301 
 BRR  HZ I        13 3 27.82        14.0 0.12            149           73.6 301 
 PAM  SZ EP       13 3  8.32                             149   -0.1510 80.4  37 
 PAM  SZ I        13 3  8.44         7.5 0.14            155           80.4  37 
 PAM  SN ES       13 3 25.33                             149   -0.0510 80.4  37 
 RUS  HZ EP       13 3  9.79                             144    0.2110 96.4 176 
 RUS  HE ES       13 3 27.37                             144    0.0310 96.4 176 
 RUS  HZ I        13 3 31.32         4.9 0.32            143           96.4 176 
 PTB  HN ES       13 3 32.83                             130   -0.93 9  147 260 
 PTB  HZ I        13 3 38.78         5.6 0.22            130            147 260 
 SPBC HZ EP       13 3 14.73                             128    0.24 9  160 220 
 SPBC HN ES       13 3 36.47                             128    0.37 9  160 220 
 SPBC HZ I        13 3 43.83        12.8 0.30            128            160 220 
                                                                                
