 2016  724 1857  6.4 L   6.823 -73.146146.4  RSN  5 0.4 1.5LRSN                1
 GAP=245        0.51       4.9     5.3  4.7 -0.7031E+01  0.9068E+01 -0.3396E+01E
 Epicentro: LOS SANTOS - SANTANDER                                             3
 ACTION:UPD 17-03-29 16:54 OP:lp   STATUS:               ID:20160724185706 L   I
 OLDACT:REG 16-07-24 21:39 OP:lv   STATUS:               ID:20160724184759     3
 2016-07-24-1847-59S.COL___328                                                 6
 STAT SP IPHASW D HRMM SECON CODA AMPLIT PERI AZIMU VELO AIN AR TRES W  DIS CAZ7
 BAR2 EZ EP       1857 26.34                             170    0.1610 25.8 189 
 BAR2 EZ ES       1857 41.62                             170    0.0310 25.8 189 
 RUS  HZ EP       1857 30.31                             144   -0.1110  103 176 
 RUS  HN ES       1857 48.99                             144   -0.1510  103 176 
 RUS  HZ I        1857 50.08         2.3 0.32            147            103 176 
 SPBC HZ EP       1857 35.38                             129    0.23 9  165 218 
 SPBC HN ES       1857 57.51                             129   -0.05 9  165 218 
 SPBC HZ I        1858  3.40         5.7 0.20            127            165 218 
 ZAR  HZ EP   3   1857 39.35                             122    0.55 2  203 291 
 ZAR  HN ES   3   1858  3.31                             122   -0.75 2  203 291 
 ZAR  HZ I        1858 13.63         2.4 0.38            119            203 291 
 GUY2CHZ EP   2   1857 49.34                             112   -0.88 4  303 234 
 GUY2CHN ES   3   1858 25.69                             112    1.31 2  303 234 
 GUY2CHZ I        1858 32.72         2.1 0.50                           303 234 
                                                                                
