 2012  524 1813 47.0 L   6.725 -73.202147.8  RSN  5 0.4 1.5LRSN                1
 GAP=236        0.78       8.5     6.0  9.7  0.1257E+02  0.1860E+02 -0.3846E+01E
 Epicentro: VILLANUEVA - SANTANDER                                             3
 ACTION:UP  12-07-05 12:07 OP:pat  STATUS:               ID:20120524181347 L   I
 2012-05-24-1810-00M.COL___200                                                 6
 STAT SP IPHASW D HRMM SECON CODA AMPLIT PERI AZIMU VELO SNR AR TRES W  DIS CAZ7
 BAR2 SZ EP   1   1814  6.73                             174     0.0 7   15 171 
 BAR2 SZ I        1814  7.05        12.7 0.09                            15 171 
 BAR2 SZ ES   1   1814 21.68                             174    -0.5 7   15 171 
 RUS  HZ EP   1   1814 10.42                             146     0.0 7   93 172 
 RUS  HN ES   1   1814 29.33                             146     0.6 7   93 172 
 RUS  HZ I        1814 30.19         3.5 0.23                            93 172 
 PTB  HZ EP   1   1814 13.54                             134     0.0 7  140 262 
 PTB  HN ES   1   1814 34.35                             134     0.2 7  140 262 
 ZAR  HN ES   2   1814 45.08                             123     0.5 4  202 295 
 NOR  SN ES   1   1814 48.42                             120    -0.6 6  225 235 
                                                                                
