 2015 1024 1955 30.7 L   6.763 -73.117147.8  RSN  8 0.3 1.9LRSN                1
 GAP=142        0.73       3.1     4.0  4.7  0.8442E-01  0.5887E+01  0.2973E+01E
 Epicentro: LOS SANTOS - SANTANDER                                             3
 ACTION:UPD 15-12-22 20:42 OP:cam  STATUS:               ID:20151024195530 L   I
 OLDACT:UP  15-10-25 00:02 OP:mher STATUS:               ID:20151024194748     3
 OLDACT:UP  15-10-25 00:02 OP:mher STATUS:               ID:20151024194748     3
 OLDACT:REG 15-10-24 21:20 OP:mh   STATUS:               ID:20151024194748     3
 2015-10-24-1947-48M.COL___307                                                 6
 STAT SP IPHASW D HRMM SECON CODA AMPLIT PERI AZIMU VELO AIN AR TRES W  DIS CAZ7
 BAR2 EZ EP   1   1955 50.49                             172   -0.03 7 20.2 201 
 BAR2 EZ ES       1956  5.98                             172    0.0010 20.2 201 
 BAR2 EZ I        1956  7.26        36.1 0.23            168           20.2 201 
 BRR  HZ EP   1   1955 52.53                             151    0.18 7 76.0 300 
 BRR  HN ES       1956  9.66                             151    0.4310 76.0 300 
 BRR  HZ I        1956 13.24        20.0 0.44            149           76.0 300 
 PAM  EZ EP       1955 53.36                             151    0.1410 78.7  36 
 PAM  EN ES       1956 10.70                             151   -0.0710 78.7  36 
 PAM  EZ I        1956 12.80        11.5 0.52            156           78.7  36 
 RUS  HZ EP       1955 54.49                             145    0.1310 96.3 178 
 RUS  HN ES       1956 12.26                             145   -0.5410 96.3 178 
 RUS  HZ I        1956 14.08         8.5 0.34            145           96.3 178 
 ZAR  HZ EP       1956  3.25                             122   -0.50 8  209 293 
 ZAR  HN ES   1   1956 29.09                             122   -0.43 6  209 293 
 ZAR  HZ I        1956 35.03         8.3 0.62            122            209 293 
 NOR  HZ EP       1956  6.43                             119   -0.15 8  235 236 
 NOR  HN ES   1   1956 34.76                             119    0.20 6  235 236 
 NOR  HZ I        1956 38.79         6.3 0.46            119            235 236 
 CHI  HZ EP       1956  8.47                             118    0.29 8  246 196 
 CHI  HN ES   1   1956 37.96                             118    0.55 6  246 196 
 CHI  HZ I        1956 47.18         4.0 0.48            118            246 196 
 GUY2CHZ EP   4   1956 16.48                             113    2.04 0  301 236 
 GUY2CHN ES   4   1956 50.20                             113    1.65 0  301 236 
 GUY2CHZ I        1957  2.26         3.1 0.38                           301 236 
                                                                                
