 2012 1224 1731 40.9 L   6.806 -73.135146.0  RSN  6 0.3 1.8LRSN                1
 GAP=189        0.70       5.8     6.7  6.8  0.1557E+02 -0.3824E+01  0.5436E+01E
 Epicentro: LOS SANTOS - SANTANDER                                             3
 ACTION:UPD 13-01-04 14:30 OP:ep   STATUS:               ID:20121224173140 L   I
 2012-12-24-1730-00M.COL___242                                                 6
 STAT SP IPHASW D HRMM SECON CODA AMPLIT PERI AZIMU VELO AIN AR TRES W  DIS CAZ7
 BAR2 SZ EP   2   1732  0.47                             170   -0.07 5 24.2 192 
 BAR2 SZ ES   2   1732 15.28                             170   -0.61 5 24.2 192 
 BAR2 SZ I        1732 17.49        16.1 0.25                          24.2 192 
 GIR2 SZ EP   1   1732  0.29                             168   -0.27 7 30.9 348 
 GIR2 SZ I        1732 16.54         6.4 0.10                          30.9 348 
 BRR  HZ EP       1732  2.01                             153   -0.0710 71.9 298 
 BRR  HE ES       1732 19.11                             153    0.4810 71.9 298 
 BRR  HZ I        1732 22.60        20.4 0.14                          71.9 298 
 RUS  HZ EP   1   1732  4.74                             144    0.06 7  101 177 
 RUS  HN ES   1   1732 23.40                             144    0.14 7  101 177 
 RUS  HN I        1732 25.21        12.1 0.35                           101 177 
 PTB  HZ EP   1   1732  7.46                             132   -0.51 7  149 259 
 PTB  HE ES   1   1732 28.86                             132   -0.25 7  149 259 
 PTB  HZ I        1732 30.92        11.8 0.28                           149 259 
 CHI  HZ EP   1   1732 19.19                             117    0.51 6  250 195 
 CHI  HZ I        1732 21.43         4.1 0.15                           250 195 
                                                                                
