 2017  324 1644 44.0 L   6.776 -73.145148.8  RSN  5 0.4 1.7LRSN                1
 GAP=153        1.07       9.3     5.9  9.6 -0.5243E+01  0.2164E+02  0.9628E+01E
 Epicentro: LOS SANTOS - SANTANDER                                             3
 ACTION:UPD 17-05-25 18:44 OP:jn   STATUS:               ID:20170324164443 L   I
 OLDACT:UP  17-05-02 12:59 OP:nlst STATUS:               ID:20170324164443 L   3
 OLDACT:REG 17-03-24 21:08 OP:lv   STATUS:               ID:20170324163744     3
 2017-03-24-1638-00M.COL___374                                                 6
 STAT SP IPHASW D HRMM SECON CODA AMPLIT PERI AZIMU VELO AIN AR TRES W  DIS CAZ7
 BAR2 EZ EP       1645  4.16                             172    0.2310 20.7 191 
 BAR2 EZ ES       1645 19.72                             172    0.2310 20.7 191 
 BAR2 EZ I        1645 22.01         7.7 0.28            173           20.7 191 
 BRR  HZ EP       1645  5.85                             153    0.3110 72.6 300 
 BRR  HN ES       1645 22.88                             153    0.5310 72.6 300 
 BRR  HZ I        1645 23.80         6.9 0.30            150           72.6 300 
 PAM  EN ES       1645 23.73                             151   -0.5910 79.4  38 
 PAM  EZ I        1645 25.40         8.9 0.11            152           79.4  38 
 PTB  HZ EP       1645 11.02                             133   -0.14 9  147 260 
 PTB  HN ES       1645 31.63                             133   -0.73 9  147 260 
 PTB  HZ I        1645 34.55         3.9 0.11            133            147 260 
 ZAR  HN ES       1645 42.35                             123    0.06 9  205 293 
 ZAR  HZ I        1645 48.74         7.8 0.05            123            205 293 
                                                                                
