 2014  724 1019 28.5 L   6.835 -73.088140.0  RSN  9 0.4 1.7LRSN                1
 GAP=206        0.75       3.7     4.7  7.2  0.1156E+01  0.6973E+01 -0.6294E+01E
 Epicentro: LOS SANTOS - SANTANDER                                             3
 ACTION:UPD 15-03-16 20:46 OP:nd   STATUS:               ID:20140724101928 L   I
 OLDACT:REG 14-07-24 20:56 OP:fm   STATUS:               ID:20140724101814     3
 2014-07-24-1018-14M.COL___263                                                 6
 STAT SP IPHASW D HRMM SECON CODA AMPLIT PERI AZIMU VELO AIN AR TRES W  DIS CAZ7
 BAR2 SZ EP   1   1019 47.69                             168    0.14 8 28.8 201 
 BAR2 SZ ES   1   1020  2.37                             168   -0.05 8 28.8 201 
 BAR2 SZ I        1020  4.10         8.4 0.20            168           28.8 201 
 RUS  HZ EP   1   1019 52.32                             141    0.37 8  104 180 
 RUS  HN ES   1   1020  9.84                             141   -0.41 8  104 180 
 RUS  HZ I        1020 12.07         2.9 0.32            143            104 180 
 PTB  HZ EP   1   1019 55.28                             129   -0.37 7  155 258 
 PTB  HN ES       1020 17.12                             129    0.2910  155 258 
 PTB  HZ I        1020 18.80         6.6 0.18            129            155 258 
 SPBC HZ EP       1019 57.73                             126    0.5010  170 220 
 SPBC HN ES   1   1020 19.33                             126   -0.33 7  170 220 
 SPBC HZ I        1020 24.90         4.1 0.38            127            170 220 
 ZAR  HN ES   1   1020 26.86                             120    0.43 7  209 291 
 ZAR  HZ I        1020 30.94         5.4 0.26            120            209 291 
 NOR  HN ES   1   1020 32.86                             116   -0.08 6  242 235 
 NOR  HZ I        1020 33.85         2.6 0.16            117            242 235 
 SML  HZ EP   1   1020  4.53                             116   -0.19 6  243 334 
 SML  HE ES   1   1020 32.44                             116   -0.54 6  243 334 
 SML  HZ I        1020 38.39        10.4 0.10            116            243 334 
 GUY2CHZ EP   4   1020 14.19                             110    1.51 0  309 235 
 GUY2CHN ES   1   1020 46.32                             110   -0.83 6  309 235 
 GUY2CHZ I        1020 53.33         1.5 0.24                           309 235 
 PRA  HN ES   4   1021  0.79                             105   -3.98 0  399 210 
 PRA  HZ I        1021  9.79         2.0 0.50            106            399 210 
                                                                                
