 2015  824 1054 27.6 L   7.502 -73.228116.0  RSN  8 0.4 1.9LRSN                1
 GAP=210        0.95       3.2     5.7  6.7  0.4335E+01  0.7266E+01 -0.1063E+01E
 Epicentro: EL PLAYON - SANTANDER                                              3
 ACTION:UPD 15-09-15 23:04 OP:cam  STATUS:               ID:20150824105427 L   I
 OLDACT:REG 15-08-24 22:07 OP:ak   STATUS:               ID:20150824104748     3
 2015-08-24-1047-48M.COL___337                                                 6
 STAT SP IPHASW D HRMM SECON CODA AMPLIT PERI AZIMU VELO AIN AR TRES W  DIS CAZ7
 BRR  HZ EP       1054 45.55                             147    0.1110 69.1 231 
 BRR  HN ES       1054 59.53                             147    0.1510 69.1 231 
 BRR  HZ I        1055  0.22        42.3 0.14            143           69.1 231 
 BAR2 EZ EP       1054 48.52                             136    0.3410  101 177 
 BAR2 EZ ES       1055  4.35                             136    0.0810  101 177 
 BAR2 EZ I        1055  5.40        26.5 0.18            137            101 177 
 SML  HZ EP       1054 54.64                             120   -0.03 9  171 327 
 SML  HN ES       1055 15.05                             120   -0.77 9  171 327 
 SML  HZ I        1055 19.52        12.9 0.10            119            171 327 
 ZAR  HZ EP       1054 55.96                             118    0.33 9  180 270 
 ZAR  HN ES       1055 17.95                             118    0.42 9  180 270 
 ZAR  HZ I        1055 20.98         8.7 0.20            117            180 270 
 SPBC HZ EP       1055  0.50                             113   -0.19 8  225 205 
 SPBC HN ES       1055 25.78                             113   -0.75 8  225 205 
 SPBC HZ I        1055 30.93         5.3 0.30            112            225 205 
 URE  HZ EP       1055  4.63                             109    0.51 8  256 276 
 URE  HN ES   4   1055 30.64                             109   -2.00 0  256 276 
 URE  HZ I        1055 38.46         4.6 0.14            109            256 276 
 NOR  HZ EP       1055  6.80                             107   -0.28 7  281 220 
 NOR  HE ES       1055 37.22                             107   -0.68 7  281 220 
 NOR  HZ I        1055 42.25         4.4 0.20            107            281 220 
 GUY2CHZ EP   1   1055 15.72                             103    0.52 5  345 223 
 GUY2CHN ES       1055 52.65                             103    0.29 6  345 223 
 GUY2CHZ I        1056  0.31         2.5 0.42                           345 223 
                                                                                
