 2012  624 1800 34.2 L   6.812 -73.148147.6  RSN  8 0.4 1.8LRSN                1
 GAP=136        0.73       4.6     5.0  7.6 -0.1352E+00  0.6676E+01  0.5113E+01E
 Epicentro: LOS SANTOS - SANTANDER                                             3
 ACTION:UPD 12-08-06 17:52 OP:ep   STATUS:               ID:20120624180034 L   I
 2012-06-24-1800-00M.COL___199                                                 6
 STAT SP IPHASW D HRMM SECON CODA AMPLIT PERI AZIMU VELO AIN AR TRES W  DIS CAZ7
 BAR2 SZ EP   1   18 0 54.01                             170   -0.11 7 24.7 189 
 BAR2 SZ ES   2   18 1  9.64                             170    0.01 5 24.7 189 
 BAR2 SZ I        18 1  9.86        12.0 0.12                          24.7 189 
 BRR  HZ EP   1   18 0 56.03                             153    0.48 7 70.3 298 
 BRR  HN ES   1   18 1 12.72                             153    0.56 7 70.3 298 
 BRR  HZ I        18 1 14.06        18.8 0.19                          70.3 298 
 PAM  SZ EP   1   18 0 57.00                             152    0.40 7 76.5  40 
 PAM  SN ES   2   18 1 13.82                             152   -0.22 5 76.5  40 
 RUS  HZ EP   1   18 0 58.40                             144    0.12 7  102 176 
 RUS  HN ES   2   18 1 16.43                             144   -0.59 5  102 176 
 RUS  HZ I        18 1 17.62         4.0 0.31                           102 176 
 PTB  HZ EP   1   18 1  1.07                             132   -0.30 7  148 258 
 PTB  HE ES   2   18 1 22.26                             132   -0.26 5  148 258 
 PTB  HZ I        18 1 24.36         7.0 0.26                           148 258 
 OCA  HN ES   1   18 1 23.85                             130   -0.81 7  159 353 
 ZAR  HZ EP   2   18 1  7.32                             123    0.58 4  203 292 
 ZAR  HN ES   2   18 1 32.00                             123   -0.08 4  203 292 
 ZAR  HZ I        18 1 38.56         6.9 0.14                           203 292 
 HEL  HZ EP   2   18 1 13.79                             115   -0.77 4  272 256 
 HEL  HN ES   2   18 1 45.97                             115   -0.04 4  272 256 
                                                                                
