 2012  324 1831 23.0 L   6.795 -73.169148.5  RSN  4 0.3 1.6LRSN                1
 GAP=235        0.76       6.7     6.7 10.1  0.1190E+02  0.4803E+01  0.7574E+01E
 ACTION:UP  12-03-31 23:22 OP:EP   STATUS:               ID:20120324183123 L   I
 2012-03-24-1830-00M.COL___196                                                 6
 STAT SP IPHASW D HRMM SECON CODA AMPLIT PERI AZIMU VELO SNR AR TRES W  DIS CAZ7
 BRR  HZ EP   1   1831 44.79                             154     0.5 7   69 300 
 BRR  HZ I        1831 45.26         9.7 0.16                            69 300 
 BRR  HE ES   1   1832  0.91                             154     0.0 7   69 300 
 RUS  HZ EP   1   1831 46.59                             144    -0.4 7  100 175 
 RUS  HN ES   1   1832  5.78                             144     0.1 7  100 175 
 PTB  HZ EP   1   1831 49.70                             133    -0.2 7  145 259 
 PTB  HN ES   1   1832 10.49                             133    -0.4 7  145 259 
 PTB  HZ I        1832 16.74         4.1 0.39                           145 259 
 NOR  SN ES   1   1832 26.85                             119     0.5 6  232 234 
                                                                                
