 2010  224 1033 17.2 L   6.783 -73.144150.5  RSN 10 0.4 2.2LRSN                1
 GAP=183        0.64       3.1     7.3  5.2  0.1718E+01  0.1504E+02  0.3969E+01E
 Epicentro: LOS SANTOS - SANTANDER                                             3
 ACTION:UP  10-08-24 09:50 OP:vdl  STATUS:               ID:20100224103317 L   I
 2010-02-24-1031-57S.COL___094                                                 6
 STAT SP IPHASW D HRMM SECON CODA AMPLIT PERI AZIMU VELO SNR AR TRES W  DIS CAZ7
 BAR2 SZ IP       1033 37.32                             171     0.010   22 192 
 BAR2 SZ ES   2   1033 52.57                             171    -0.5 5   22 192 
 GIR2 SZ EP       1033 37.60                             167     0.110   33 351 
 GIR2 SZ ES   1   1033 53.20                             167    -0.1 7   33 351 
 BRR  HZ IP       1033 39.20                             153     0.310   72 300 
 BRR  HZ I        1033 39.38        37.6 0.12                            72 300 
 BRR  HN ES   2   1033 56.04                             153     0.2 5   72 300 
 RUS  BZ IP       1033 41.22                             145     0.010   99 176 
 RUS  BN ES   2   1033 59.59                             145    -0.5 5   99 176 
 RUS  BZ I        1034  1.04        17.4 0.29                            99 176 
 OCA  SZ IP       1033 45.80                             130    -0.2 9  162 353 
 OCA  SZ ES   2   1034  8.42                             130    -0.1 5  162 353 
 CHI  HZ EP       1033 55.21                             118     0.3 8  247 195 
 CHI  HE ES   2   1034 24.25                             118    -0.1 4  247 195 
 CHI  HZ I        1034 30.41         8.5 0.28                           247 195 
 DBB  SZ EP       1034  4.99                             110     0.1 7  340 275 
 TOL  SZ EP   2   1034  6.17                             110     0.7 3  342 225 
 TOL  SZ ES   3   1034 42.29                             110    -0.9 2  342 225 
 MON  HZ EP   2   1034  4.62                             109    -1.8 3  354 309 
 MON  HZ I        1034 58.90         5.6 0.41                           354 309 
 PRA  HZ EP       1034 10.56                             107    -0.1 6  390 210 
 PRA  HN ES   2   1034 52.27                             107    -0.1 3  390 210 
                                                                                
