 2017  724 1620 49.1 L   6.821 -73.114144.8  RSN  8 0.4 1.9LRSN                1
 GAP=114        1.15       4.9     5.3  7.3  0.1498E+01  0.5340E+01  0.6933E+01E
 Epicentro: LOS SANTOS - SANTANDER                                             3
 ACTION:UPD 17-08-30 15:36 OP:rebc STATUS:               ID:20170724162049 L   I
 OLDACT:UP  17-07-25 00:12 OP:ar   STATUS:               ID:20170724161738     3
 OLDACT:UP  17-07-25 00:12 OP:ar   STATUS:               ID:20170724161738     3
 OLDACT:REG 17-07-24 22:00 OP:ar   STATUS:               ID:20170724161738     3
 2017-07-24-1618-00M.COL___389                                                 6
 STAT SP IPHASW D HRMM SECON CODA AMPLIT PERI AZIMU VELO AIN AR TRES W  DIS CAZ7
 BAR2 EZ EP       1621  8.71                             169    0.0210 26.3 197 
 BAR2 EZ ES       1621 24.00                             169    0.0410 26.3 197 
 BAR2 EZ I        1621 25.27        34.2 0.16            164           26.3 197 
 BRR  HZ EP       1621 10.50                             152    0.2310 73.3 296 
 BRR  HN ES       1621 27.56                             152    0.7810 73.3 296 
 BRR  HZ I        1621 30.76        20.9 0.28            145           73.3 296 
 PAM  EZ EP       1621 11.66                             152    0.6710 73.4  39 
 PAM  EE ES       1621 27.15                             152   -0.9110 73.4  39 
 PAM  EZ I        1621 30.81        17.7 0.52            148           73.4  39 
 RUS  HZ EP       1621 12.71                             143   -0.2110  103 178 
 RUS  HN ES       1621 31.56                             143    0.0710  103 178 
 RUS  HZ I        1621 32.47         6.3 0.66            135            103 178 
 PTB  HZ EP       1621 15.94                             131   -0.41 9  152 258 
 PTB  HZ I        1621 43.58         6.4 0.20            123            152 258 
 SPBC HZ EP       1621 17.88                             128   -0.03 9  167 219 
 SPBC HN ES       1621 40.15                             128   -0.23 9  167 219 
 YPLC HZ EP       1621 19.11                             126    0.24 9  177 153 
 YPLC HN ES   4   1621 44.83                             126    2.75 0  177 153 
 YPLC HZ I        1621 55.76         8.1 0.26            119            177 153 
 ZAR  HE ES       1621 46.76                             122   -0.43 8  206 291 
 ZAR  HZ I        1621 51.78        10.7 0.26            114            206 291 
                                                                                
