 2015  624 1540  7.0 L   6.805 -73.089137.5  RSN  8 0.4 2.1LRSN                1
 GAP=144        0.90       2.8     4.6  5.2  0.1190E+01  0.6959E+01 -0.9341E+00E
 Epicentro: LOS SANTOS - SANTANDER                                             3
 ACTION:UPD 15-09-10 22:14 OP:cam  STATUS:               ID:20150624154007 L   I
 OLDACT:REG 15-06-24 20:33 OP:drio STATUS:               ID:20150624153749     3
 2015-06-24-1537-49M.COL___322                                                 6
 STAT SP IPHASW D HRMM SECON CODA AMPLIT PERI AZIMU VELO AIN AR TRES W  DIS CAZ7
 BAR2 EZ EP     C 1540 25.90                             169    0.2010 25.6 204 
 BAR2 EZ ES       1540 40.55                             169    0.2810 25.6 204 
 BAR2 EZ I        1540 41.68        24.4 0.34            168           25.6 204 
 PAM  SZ EP       1540 28.85                             151    0.7610 73.2  36 
 PAM  SE ES       1540 44.33                             151   -0.2110 73.2  36 
 PAM  SZ I        1540 46.69        19.7 0.16            153           73.2  36 
 BRR  HZ EP       1540 27.85                             149    0.2610 76.5 296 
 BRR  HN ES       1540 43.62                             149   -0.0210 76.5 296 
 RUS  HZ EP       1540 29.37                             142   -0.6110  101 180 
 RUS  HN ES       1540 47.60                             142   -0.2910  101 180 
 RUS  HZ I        1540 49.17        11.3 0.50            144            101 180 
 OCA  HZ EP       1540 34.68                             128   -0.05 9  161 351 
 OCA  HN ES       1540 56.17                             128   -0.17 9  161 351 
 OCA  HZ I        1541  0.73        17.6 0.32            128            161 351 
 ZAR  HZ EP       1540 39.95                             120    0.43 8  210 291 
 ZAR  HE ES       1541  5.00                             120    0.12 8  210 291 
 ZAR  HZ I        1541 12.69        16.8 0.50            120            210 291 
 SML  HZ EP       1540 43.19                             115   -0.24 8  246 334 
 SML  HN ES       1541 11.18                             115   -0.66 8  246 334 
 SML  HZ I        1541 14.82        13.9 0.10            116            246 334 
 PRA  HZ EP       1541  0.69                             105    0.02 6  396 210 
 PRA  HE ES       1541 42.43                             105   -0.10 6  396 210 
 PRA  HZ I        1541 46.54         2.9 0.26            106            396 210 
                                                                                
