 2012  524 1849 40.9 L   6.824 -73.183148.4  RSN 24 0.5 4.4LRSN                1
 GAP=123        0.97       3.2     3.9  5.2 -0.1577E+01  0.6189E+01  0.7761E+00E
 Epicentro: ZAPATOCA - SANTANDER                                               3
 SPEC SD       MO  0.5 ST369.3 OM  1.0 f00.511 R0.0501 AL      WI      MW  0.4 3
 SPEC RREFHH N MO 16.5 ST999.9 OM  4.6 f0 4.22 R0.3483 AL 5.11 WI 18.1 MW  5.0 3
 SPEC RREFHH N T1851 5 K 0.020 GD  353 VS 4.20 DE 3.20 Q0230.0 QA 0.60 VS 4.20 3
 SPEC OCA HH N MO 16.0 ST490.6 OM  4.3 f0 3.21 R0.4579 AL 2.36 WI 21.9 MW  4.6 3
 SPEC OCA HH N T185029 K 0.020 GD  216 VS 4.20 DE 3.20 Q0230.0 QA 0.60 VS 4.20 3
 SPEC ROSCBH N MO 17.0 ST999.9 OM  5.1 f0 3.53 R0.4164 AL 5.42 WI 20.3 MW  5.3 3
 SPEC ROSCBH N T185049 K 0.020 GD  293 VS 4.20 DE 3.20 Q0230.0 QA 0.60 VS 4.20 3
 SPEC PTB HH N MO 15.3 ST112.7 OM  3.6 f0 3.41 R0.4311 AL 2.51 WI 20.2 MW  4.2 3
 SPEC PTB HH N T185027 K 0.020 GD  207 VS 4.20 DE 3.20 Q0230.0 QA 0.60 VS 4.20 3
 SPEC RUS HH N MO 16.0 ST999.9 OM  4.3 f0 4.54 R0.3238 AL 3.50 WI 12.9 MW  4.6 3
 SPEC RUS HH N T185022 K 0.020 GD  180 VS 4.20 DE 3.20 Q0230.0 QA 0.60 VS 4.20 3
 SPEC CHI HH N MO 15.9 ST935.9 OM  4.0 f0 4.54 R0.3238 AL 4.36 WI 17.4 MW  4.5 3
 SPEC CHI HH N T185047 K 0.020 GD  290 VS 4.20 DE 3.20 Q0230.0 QA 0.60 VS 4.20 3
 SPEC HEL HH N MO 15.5 ST206.3 OM  3.6 f0 3.66 R0.4016 AL 2.92 WI 28.1 MW  4.3 3
 SPEC HEL HH N T185051 K 0.020 GD  307 VS 4.20 DE 3.20 Q0230.0 QA 0.60 VS 4.20 3
 ACTION:UP  12-07-05 12:07 OP:pat  STATUS:               ID:20120524184940 L   I
 2012-05-24-1847-59S.COL___211                                                 6
 STAT SP IPHASW D HRMM SECON CODA AMPLIT PERI AZIMU VELO SNR AR TRES W  DIS CAZ7
 BAR2 SZ EP       1850  1.18                             170     0.310   26 180 
 BAR2 SZ ES       1850 16.48                             170     0.010   26 180 
 BAR2 SZ I        1850 19.20     13424.7 0.33                            26 180 
 PAM  SZ EP       1850  3.99                             151     0.510   78  43 
 PAM  SN ES   1   1850 21.02                             151     0.0 7   78  43 
 RUS  HZ EP       1850  5.05                             143    -0.110  104 174 
 RUS  HN ES   1   1850 23.32                             143    -0.7 7  104 174 
 RUS  HZ I        1850 25.16      5149.6 0.32                           104 174 
 PTB  HZ EP   1   1850  7.70                             133    -0.1 7  144 258 
 PTB  HN ES   1   1850 28.75                             133     0.0 7  144 258 
 PTB  HZ I        1850 34.96      1459.8 0.44                           144 258 
 OCA  HZ EP       1850  9.19                             131     0.0 9  157 355 
 OCA  HN ES   1   1850 31.46                             131     0.3 7  157 355 
 ZAR  HZ EP   1   1850 13.55                             124     0.5 6  199 292 
 ZAR  HN ES   1   1850 38.09                             124     0.0 6  199 292 
 ZAR  HZ I        1850 45.10      2863.2 0.49                           199 292 
 NOR  SZ EP   1   1850 16.85                             119     0.2 6  233 233 
 NOR  SN ES   1   1850 44.03                             119    -0.4 6  233 233 
 CHI  HZ EP   1   1850 19.19                             117     0.3 6  250 194 
 CHI  HZ I        1850 52.29      2390.1 0.57                           250 194 
 ROSC BZ EP       1850 20.40                             117     1.2 8  253 210 
 ROSC BZ I        1850 55.14      5316.9 0.63                           253 210 
 HEL  HZ EP   1   1850 20.14                             116    -0.8 6  269 255 
 HEL  HZ I        1851  0.29      1134.9 0.38                           269 255 
 URE  HZ EP   1   1850 20.85                             114    -0.8 6  279 292 
 URE  HN ES   1   1850 52.90                             114    -0.4 6  279 292 
 URE  HZ I        1851  2.68      1082.3 0.32                           279 292 
 GUY  SZ EP   1   1850 25.26                             113     0.5 5  302 234 
 VIL  SZ EP   1   1850 24.20                             112    -0.5 5  305 191 
 VIL  SN ES   1   1850 58.53                             112    -0.3 5  305 191 
 VIL  SZ I        1851  1.73      1718.9 0.49                           305 191 
 RREF HZ EP   1   1850 26.70                             111    -0.3 5  320 229 
 DBB  SZ EP   1   1850 28.51                             110     0.5 5  335 274 
 DBB  SZ ES   1   1851  4.80                             110     0.0 5  335 274 
 COD  HZ EP   1   1850 28.21                             109    -0.9 5  345 355 
 COD  HZ I        1851 17.72      1577.6 0.58                           345 355 
 SDV  BZ EP       1850 30.38                             109    -0.9 6  362  51 
 PRA  HZ EP   1   1850 34.25                             107    -0.3 4  392 209 
 PRA  HN ES   1   1851 16.64                             107     0.2 4  392 209 
 PAL  HZ EP   1   1850 36.46                             106     0.5 4  404 238 
 SJC  HZ EP   2   1850 35.33                             106    -0.7 3  405 327 
 SJC  HZ I        1851 24.37       698.5 0.55                           405 327 
 YOT  HZ EP   1   1850 43.53                             104    -0.4 4  471 228 
 YOT  HZ I        1851 46.83       238.5 0.50                           471 228 
 MARA HZ EP   1   1850 51.81                             101    -0.2 3  537 215 
 PCON HZ EP   1   1851  1.65                             100     0.3 2  612 216 
 PCON HZ I        1852 10.68       169.3 0.63                           612 216 
 POP2 HZ EP   1   1851  0.49                             100    -0.4 2  612 219 
 POP2 HZ I        1852  9.43       103.9 0.44                           612 219 
                                                                                
