 2012  424 1241 56.2 L   6.670 -74.112 14.1  RSN  5 0.2 1.2LRSN                1
 GAP=185        0.51       2.9     1.9  2.9 -0.3819E+01 -0.2303E+01  0.2575E+01E
 Epicentro: PUERTO PARRA - SANTANDER                                           3
 ACTION:UPD 12-07-05 11:55 OP:tino STATUS:               ID:20120424124156 L   I
 2012-04-24-1240-00M.COL___186                                                 6
 STAT SP IPHASW D HRMM SECON CODA AMPLIT PERI AZIMU VELO AIN AR TRES W  DIS CAZ7
 PTB  HZ IP     D 1242  3.28                             105     0.110   41 249 
 PTB  HN ES   1   1242  8.44                             105    -0.2 7   41 249 
 PTB  HZ I        1242  9.22        15.2 0.20                            41 249 
 BRR  HZ EP   1   1242  6.68                              99    -0.1 7   66  42 
 BRR  HZ I        1242 12.39        11.4 0.40                            66  42 
 BRR  HN ES   1   1242 15.16                              99     0.0 7   66  42 
 ZAR  HN ES   1   1242 30.51                              95     0.0 7  123 318 
 ZAR  HZ I        1242 33.23         3.9 0.21                           123 318 
 HEL  HZ EP   1   1242 22.15                              56     0.4 7  165 251 
 HEL  HN ES   1   1242 41.34                              56    -0.3 7  165 251 
 PAM  SN ES       1242 43.44                              56     0.0 9  173  65 
                                                                                
