 2012  124 1633 58.4 L   6.754 -73.066140.1  RSN  5 0.4 1.7LRSN                1
 GAP=149        1.04       6.8    11.6 11.7 -0.1085E+02  0.1409E+02 -0.1535E+01E
 Epicentro: LOS SANTOS - SANTANDER                                             3
 ACTION:UP  12-02-03 08:20 OP:REBC STATUS:               ID:20120124163358 L   I
 2012-01-24-1630-00M.COL___187                                                 6
 STAT SP IPHASW D HRMM SECON CODA AMPLIT PERI AZIMU VELO SNR AR TRES W  DIS CAZ7
 BAR2 SZ EP   2   1634 16.93                             170    -0.4 5   22 216 
 BAR2 SZ ES   2   1634 31.79                             170    -0.3 5   22 216 
 BAR2 SZ I        1634 33.48        14.1 0.20                            22 216 
 GIR2 SZ EP   2   1634 17.03                             163    -0.6 5   39 339 
 PAM  SZ EP       1634 19.83                             150    -0.110   76  32 
 PAM  SN ES   1   1634 36.93                             150     0.2 7   76  32 
 BRR  HZ EP       1634 20.27                             147     0.710   81 299 
 BRR  HN ES   2   1634 35.51                             147    -0.6 5   81 299 
 BRR  HZ I        1634 38.40        16.2 0.46                            81 299 
 RUS  HZ EP       1634 20.82                             144    -0.410   95 181 
 RUS  HN ES   1   1634 39.46                             144     0.4 7   95 181 
 RUS  HZ I        1634 40.77         3.2 0.34                            95 181 
                                                                                
