 2012  124 1044 29.4 L   6.849 -73.345120.6  RSN  6 0.5 1.5LRSN                1
 GAP= 95        1.35      10.0    10.5 12.0  0.2010E+02  0.3905E+02  0.4162E+02E
 Epicentro: ZAPATOCA - SANTANDER                                               3
 ACTION:UP  12-02-03 08:20 OP:REBC STATUS:               ID:20120124104429 L   I
 2012-01-24-1040-00M.COL___187                                                 6
 STAT SP IPHASW D HRMM SECON CODA AMPLIT PERI AZIMU VELO SNR AR TRES W  DIS CAZ7
 GIR2 SZ EP       1044 46.15                             165     0.110   30  33 
 GIR2 SZ ES   1   1044 57.84                             165    -1.2 7   30  33 
 BAR2 SZ EP       1044 46.58                             164     0.310   34 148 
 BAR2 SZ I        1044 46.71        22.5 0.10                            34 148 
 BAR2 SZ ES   1   1044 59.76                             164     0.2 7   34 148 
 BRR  HZ EP       1044 47.04                             156     0.410   50 305 
 BRR  HE ES   1   1045  0.90                             156     0.8 7   50 305 
 BRR  HZ I        1045  1.84        14.2 0.14                            50 305 
 PAM  SZ EP   2   1044 50.36                             141     0.5 5   90  53 
 PAM  SE ES   2   1045  5.57                             141    -0.3 5   90  53 
 RUS  HZ EP       1044 51.59                             135     0.010  110 165 
 RUS  HN ES   2   1045  8.80                             135     0.0 5  110 165 
 RUS  HZ I        1045 10.07         3.0 0.22                           110 165 
 PTB  HZ EP       1044 51.77                             130    -0.710  128 255 
 PTB  HZ I        1045 10.54         2.5 0.80                           128 255 
                                                                                
