 2012  224 1759 48.7 L   6.771 -73.116147.3  RSN 15 0.4 2.6LRSN                1
 GAP=142        0.56       2.7     3.4  3.8 -0.2823E+01  0.2666E+01  0.3621E+01E
 ACTION:UP  12-03-07 16:33 OP:epov STATUS:               ID:20120224175948 L   I
 2012-02-24-1800-00M.COL___193                                                 6
 STAT SP IPHASW D HRMM SECON CODA AMPLIT PERI AZIMU VELO AIN AR TRES W  DIS CAZ7
 BAR2 SZ IP       18 0  8.29                             171   -0.1310 21.1 201 
 BAR2 SZ I        18 0  8.59       122.0 0.11                          21.1 201 
 BAR2 SZ ES   1   18 0 24.07                             171    0.22 7 21.1 201 
 GIR2 SZ EP   1   18 0  8.36                             166   -0.26 7 35.1 346 
 GIR2 SZ ES   2   18 0 24.22                             166    0.03 5 35.1 346 
 BRR  HZ IP     C 18 0 10.15                             151   -0.0710 75.7 299 
 BRR  HZ I        18 0 10.42       157.4 0.16                          75.7 299 
 BRR  HE ES   2   18 0 27.64                             151    0.59 5 75.7 299 
 PAM  SZ EP       18 0 11.03                             151   -0.0310 77.9  36 
 PAM  SE ES   1   18 0 28.68                             151    0.14 7 77.9  36 
 RUS  HZ EP       18 0 12.12                             145   -0.1910 97.2 178 
 RUS  HN ES   1   18 0 30.85                             145    0.08 7 97.2 178 
 RUS  HZ I        18 0 32.23        28.9 0.54                          97.2 178 
 PTB  HZ EP   2   18 0 15.33                             132   -0.66 5  150 260 
 PTB  HE ES   2   18 0 37.54                             132    0.23 5  150 260 
 NOR  SZ EP   1   18 0 24.37                             119   -0.19 6  236 236 
 NOR  SN ES   1   18 0 52.12                             119   -0.45 6  236 236 
 CHI  HZ EP       18 0 26.26                             118    0.07 8  246 196 
 CHI  HN ES   1   18 0 54.95                             118   -0.53 6  246 196 
 CHI  HZ I        18 1  5.40        12.2 0.58                           246 196 
 ROSC BZ EP   2   18 0 26.56                             117   -0.18 4  252 212 
 ROSC BN ES   2   18 0 57.05                             117    0.60 4  252 212 
 ROSC BZ I        18 1  1.23        24.5 0.45                           252 212 
 HEL  HZ EP   2   18 0 29.31                             115    0.10 4  275 257 
 HEL  HN ES   2   18 1  0.61                             115   -0.24 4  275 257 
 HEL  HZ I        18 1  6.48        16.3 0.37                           275 257 
 VIL  SZ EP   2   18 0 31.61                             112   -0.25 4  301 192 
 RREF HZ EP   1   18 0 35.72                             111    0.81 5  322 230 
 RREF HN ES   2   18 1 11.33                             111    0.34 3  322 230 
 RREF HZ I        18 1 19.89        27.0 0.30                           322 230 
 TOL  SZ EP   2   18 0 37.69                             110    0.72 3  344 225 
 PRA  HZ EP   1   18 0 42.01                             107   -0.08 4  391 210 
 PRA  HN ES   1   18 1 23.71                             107   -0.06 4  391 210 
 SJA  SZ EP   2   18 0 43.79                             106    0.81 3  398 194 
 SJA  SZ EPG      18 0 43.80                             106    0.82 6  398 194 
 SJA  SZ ES   2   18 1 25.29                             106   -0.06 3  398 194 
                                                                                
