 2011 1024 1441 51.7 L   6.748 -73.163142.3  RSN  5 0.2 1.5LRSN                1
 GAP=149        0.50       6.9     6.9  5.6 -0.2141E+02 -0.1549E+00 -0.1019E+01E
 Epicentro: VILLANUEVA - SANTANDER                                             3
 ACTION:UPD 12-07-13 16:05 OP:ep   STATUS:               ID:20111024144151 L   I
 2011-10-24-1440-00M.COL___175                                                 6
 STAT SP IPHASW D HRMM SECON CODA AMPLIT PERI AZIMU VELO AIN AR TRES W  DIS CAZ7
 BAR2 SZ EP       1442 10.56                             173   -0.2210 17.4 187 
 BAR2 SZ ES   1   1442 25.75                             173    0.07 7 17.4 187 
 BAR2 SZ I        1442 27.38         4.2 0.24                          17.4 187 
 BTL  SZ EP       1442 11.22                             171    0.3610 22.1 328 
 GIR2 SZ EP       1442 10.90                             165   -0.1910 36.7 355 
 GIR2 SZ ES   3   1442 26.52                             165    0.28 2 36.7 355 
 BRR  HZ EP   2   1442 12.81                             151    0.29 5 72.5 303 
 BRR  HE ES   2   1442 28.52                             151   -0.27 5 72.5 303 
 BRR  HZ I        1442 31.74        12.5 0.36                          72.5 303 
 PAM  SZ EP       1442 13.85                             148   -0.0210 83.0  38 
 PAM  SE ES   1   1442 31.20                             148    0.02 7 83.0  38 
                                                                                
