 2013 1024 1614 31.7 L   6.552 -73.592108.0  RSN  6 0.5 1.9LRSN                1
 GAP= 97        1.23       5.7     5.1  9.9  0.3600E+01  0.2192E+02  0.1505E+02E
 Epicentro: EL CARMEN DE CHUCURI - SANTANDER                                   3
 ACTION:UPD 13-11-25 09:23 OP:ep   STATUS:               ID:20131024161431 L   I
 OLDACT:UP  13-10-24 16:53 OP:cam  STATUS:               ID:20131024160838     3
 OLDACT:REG 13-10-24 15:19 OP:cam  STATUS:               ID:20131024160838     3
 2013-10-24-1608-38M.COL___233                                                 6
 STAT SP IPHASW D HRMM SECON CODA AMPLIT PERI AZIMU VELO AIN AR TRES W  DIS CAZ7
 BAR2 SZ EP       1614 47.47                             156   -0.2210 45.5  84 
 BAR2 SZ ES       1614 59.96                             156   -0.2010 45.5  84 
 BRR  HZ EP       1614 48.19                             147   -0.1610 62.8 348 
 BRR  HE ES       1615  1.94                             147    0.6110 62.8 348 
 RUS  HZ EP   1   1614 50.66                             137   -0.59 7 92.2 142 
 RUS  HN ES       1615  6.92                             137    0.4210 92.2 142 
 PTB  HZ EP       1614 50.28                             135   -0.6110 95.6 269 
 PTB  HN ES       1615  5.27                             135   -0.5810 95.6 269 
 PTB  HZ I        1615 11.21        13.1 0.46             47           95.6 269 
 ZAR  HZ EP   1   1614 59.77                             117    1.06 7  174 307 
 ZAR  HZ I        1615 23.62        18.8 0.62             37            174 307 
 NOR  HZ EP       1614 59.49                             116    0.23 9  179 232 
 NOR  HN ES       1615 21.26                             116    0.52 9  179 232 
 NOR  HZ I        1615 24.23         9.2 0.18             47            179 232 
                                                                                
