 2013 1124 1449 36.9 L   6.825 -73.218137.0  RSN 11 0.4 1.9LRSN                1
 GAP=126        0.92       3.4     4.6  5.9 -0.8564E+01  0.1136E+02 -0.4199E+01E
 Epicentro: ZAPATOCA - SANTANDER                                               3
 ACTION:UPD 14-01-09 16:30 OP:ep   STATUS:               ID:20131124144936 L   I
 OLDACT:REG 13-11-24 20:13 OP:nd   STATUS:               ID:20131124144835     3
 2013-11-24-1448-35M.COL___250                                                 6
 STAT SP IPHASW D HRMM SECON CODA AMPLIT PERI AZIMU VELO AIN AR TRES W  DIS CAZ7
 BAR2 SZ EP       1449 55.54                             169    0.0210 26.0 171 
 BAR2 SZ ES       1450 10.48                             169    0.4210 26.0 171 
 BAR2 SZ I        1450 11.61        21.2 0.26            171           26.0 171 
 BRR  HZ EP       1449 57.42                             153    0.8110 62.8 300 
 BRR  HN ES   2   1450 12.62                             153    0.61 5 62.8 300 
 BRR  HZ I        1450 18.62        11.6 0.26            146           62.8 300 
 PAM  SZ EP       1449 58.34                             148   -0.0510 80.8  45 
 PAM  SN ES       1450 14.36                             148   -0.8010 80.8  45 
 PAM  SZ I        1450 17.56        16.3 0.54            149           80.8  45 
 PTB  HZ EP       1450  2.50                             131    0.03 9  140 257 
 PTB  HN ES       1450 22.70                             131    0.27 9  140 257 
 PTB  HZ I        1450 28.66        10.0 0.18            132            140 257 
 OCA  HZ EP       1450  4.07                             128   -0.11 9  157 356 
 OCA  HN ES       1450 25.52                             128    0.04 9  157 356 
 OCA  HZ I        1450 54.55         9.5 0.44            128            157 356 
 SPBC HZ EP       1450  4.31                             128   -0.15 9  160 216 
 SPBC HN ES       1450 25.45                             128   -0.52 9  160 216 
 SPBC HZ I        1450 30.51        11.7 0.20            133            160 216 
 ZAR  HZ EP       1450  7.87                             121   -0.01 9  196 292 
 ZAR  HN ES   2   1450 31.61                             121   -0.45 4  196 292 
 ZAR  HZ I        1450 42.41         6.6 0.42            122            196 292 
 NOR  HZ EP       1450 11.96                             117    0.37 8  230 233 
 NOR  HN ES       1450 38.40                             117   -0.26 8  230 233 
 NOR  HZ I        1450 46.52         7.8 0.28            121            230 233 
 SML  HZ EP       1450 12.72                             116    0.33 8  238 337 
 SML  HN ES   2   1450 39.71                             116   -0.38 4  238 337 
 SML  HZ I        1450 45.60        10.4 0.20            117            238 337 
 GUY2CHZ EP   2   1450 19.56                             111    0.02 4  296 233 
 GUY2CHN ES       1450 52.29                             111   -0.52 7  296 233 
 GUY2CHZ I        1451  0.01         3.2 0.28                           296 233 
 SJC  HZ EP   4   1450 30.11                             104   -1.27 0  403 328 
 SJC  HN ES   2   1451 13.02                             104   -0.87 3  403 328 
 SJC  HZ I        1451 16.99         1.8 0.42            107            403 328 
                                                                                
