 2013  724 1510 25.3 L   6.803 -73.156141.3  RSN  8 0.4 2.2LRSN                1
 GAP=200        0.77       3.7     5.8  9.4  0.8510E+01  0.1922E+00 -0.5411E+01E
 Epicentro: LOS SANTOS - SANTANDER                                             3
 ACTION:UPD 13-08-12 10:39 OP:ep   STATUS:               ID:20130724151025 L   I
 OLDACT:UP  13-07-24 18:22 OP:mh   STATUS:               ID:20130724150842     3
 OLDACT:REG 13-07-24 17:03 OP:mh   STATUS:               ID:20130724150842     3
 2013-07-24-1508-42M.COL___234                                                 6
 STAT SP IPHASW D HRMM SECON CODA AMPLIT PERI AZIMU VELO AIN AR TRES W  DIS CAZ7
 RUS  HZ EP   1   1510 48.20                             143   -0.41 8  101 175 
 RUS  HN ES   1   1511  6.79                             143   -0.03 8  101 175 
 RUS  HN I        1511  9.21        19.9 0.28            146            101 175 
 PTB  HZ EP       1510 51.88                             131    0.1010  147 259 
 PTB  HN ES   1   1511 12.27                             131   -0.19 7  147 259 
 PTB  HZ I        1511 20.22        12.4 0.48            132            147 259 
 SPBC HZ EP       1510 53.94                             128    0.5610  163 219 
 SPBC HN ES   1   1511 16.00                             128    0.68 7  163 219 
 SPBC HZ I        1511 21.25        12.0 0.56            131            163 219 
 ZAR  HZ EP   1   1510 56.86                             121   -0.44 7  203 292 
 ZAR  HE ES       1511 22.29                             121    0.00 9  203 292 
 ZAR  HE I        1511 29.37        23.9 0.20            125            203 292 
 NOR  HZ EP   1   1511  0.63                             117   -0.03 6  234 234 
 NOR  HE ES   1   1511 27.58                             117   -0.69 6  234 234 
 NOR  HE I        1511 32.58        15.9 0.48            121            234 234 
 SML  HE ES   1   1511 29.98                             116    0.12 6  243 335 
 SML  HE I        1511 32.43        36.5 0.10            121            243 335 
 CHI  HN ES   1   1511 31.33                             116   -0.61 6  249 195 
 CHI  HN I        1511 39.83         9.8 0.48            120            249 195 
 PRA  HN ES   1   1512  0.63                             106    0.42 5  392 209 
                                                                                
