 2010 1224 1202 13.3 L   6.787 -73.181141.7  RSN  4 0.1 1.6LRSN                1
 GAP=179        0.39       2.3     6.3  5.0 -0.5372E+00  0.7402E+01 -0.3529E+01E
 Epicentro: LOS SANTOS - SANTANDER                                             3
 ACTION:UP  11-01-14 15:26 OP:pat  STATUS:               ID:20101224120213 L   I
 2010-12-24-1157-16S.COL___133                                                 6
 STAT SP IPHASW D HRMM SECON CODA AMPLIT PERI AZIMU VELO SNR AR TRES W  DIS CAZ7
 BAR2 SZ EP   1   12 2 32.23                             171    -0.1 7   22 181 
 BAR2 SZ ES   1   12 2 47.32                             171     0.0 7   22 181 
 BAR2 SZ I        12 2 48.65        13.1 0.25                            22 181 
 RUS  HZ EP   1   12 2 36.43                             143    -0.1 7   99 174 
 RUS  HE ES   1   12 2 54.79                             143     0.1 7   99 174 
 RUS  HZ I        12 2 56.48         3.8 0.18                            99 174 
 OCA  SZ EP   1   12 2 41.62                             128     0.3 7  161 355 
 OCA  SZ ES   1   12 3  3.17                             128    -0.1 7  161 355 
 OCA  SZ I        12 3  7.27         7.5 0.29                           161 355 
 NOR  SE ES   2   12 3 15.70                             118     0.0 4  231 234 
                                                                                
