 2015 1224 1015 10.5 L   6.825 -73.152146.2  RSN  6 0.2 1.6LRSN                1
 GAP=201        0.48       2.1     2.7  3.8  0.1478E+01  0.1069E+01 -0.2726E+01E
 Epicentro: LOS SANTOS - SANTANDER                                             3
 ACTION:UPD 16-02-04 15:07 OP:cam  STATUS:               ID:20151224101510 L   I
 OLDACT:REG 15-12-24 19:59 OP:cara STATUS:               ID:20151224100748     3
 2015-12-24-1007-48M.COL___337                                                 6
 STAT SP IPHASW D HRMM SECON CODA AMPLIT PERI AZIMU VELO AIN AR TRES W  DIS CAZ7
 BAR2 EZ IP       1015 30.29                             169    0.0610 26.0 187 
 BAR2 EZ ES       1015 45.63                             169    0.0010 26.0 187 
 BAR2 EZ I        1015 46.77        15.0 0.20            167           26.0 187 
 RUS  HZ IP       1015 34.74                             143    0.2510  103 176 
 RUS  HN ES       1015 53.09                             143   -0.1210  103 176 
 RUS  HZ I        1015 54.06         2.9 0.26            144            103 176 
 PTB  HZ EP       1015 37.16                             132   -0.32 9  148 258 
 PTB  HE ES       1015 58.42                             132   -0.11 9  148 258 
 PTB  HZ I        1016  1.12         3.5 0.17            130            148 258 
 SPBC HZ IP       1015 39.29                             129    0.10 9  165 218 
 SPBC HN ES       1016  1.56                             129   -0.01 9  165 218 
 SPBC HZ I        1016  8.43         6.8 0.24            128            165 218 
 ZAR  HN ES       1016  8.30                             123    0.32 9  202 291 
 ZAR  HZ I        1016 13.64         6.1 0.30            122            202 291 
 SML  HZ EP       1015 46.66                             118   -0.17 8  241 335 
 SML  HN ES       1016 15.15                             118   -0.03 8  241 335 
 SML  HZ I        1016 17.68         3.6 0.30            118            241 335 
                                                                                
