 2012 1124 1725  9.9 L   6.796 -73.197142.2  RSN  6 0.2 1.9LRSN                1
 GAP=130        0.49       2.6     2.7  4.2 -0.8146E+00  0.3194E+01 -0.1246E+01E
 Epicentro: ZAPATOCA - SANTANDER                                               3
 ACTION:UPD 12-12-05 15:35 OP:}ep  STATUS:               ID:20121124172509 L   I
 2012-11-24-1720-00M.COL___234                                                 6
 STAT SP IPHASW D HRMM SECON CODA AMPLIT PERI AZIMU VELO AIN AR TRES W  DIS CAZ7
 BAR2 SZ EP       1725 29.18                             170    0.0510 22.6 176 
 BAR2 SZ ES       1725 44.06                             170   -0.0410 22.6 176 
 BAR2 SZ I        1725 45.36        29.6 0.21                          22.6 176 
 GIR2 SZ EP   1   1725 29.43                             167    0.23 7 31.3   1 
 PAM  SZ EP       1725 32.12                             149    0.0910 81.4  42 
 PAM  SN ES       1725 49.10                             149   -0.1610 81.4  42 
 PAM  SZ I        1725 51.48        13.3 0.61                          81.4  42 
 RUS  HZ EP       1725 33.12                             143   -0.2410  101 173 
 RUS  HN ES       1725 51.85                             143    0.2410  101 173 
 RUS  HN I        1725 53.42        10.0 0.26                           101 173 
 PTB  HZ EP   1   1725 36.07                             132   -0.05 7  142 259 
 PTB  HN ES   1   1725 56.20                             132   -0.32 7  142 259 
 PTB  HZ I        1725 59.39         7.7 0.16                           142 259 
 ZAR  HE ES   1   1726  6.65                             122    0.29 6  199 293 
 ZAR  HZ I        1726 13.74        10.3 0.33                           199 293 
                                                                                
