 2010  324 1142 27.1 L   6.784 -72.934146.7  RSN  9 0.5 2.5LRSN                1
 GAP=204        0.77       4.3     8.3  7.7 -0.4113E+01  0.1162E+02  0.6354E+01E
 Epicentro: CEPITA - SANTANDER                                                 3
 ACTION:UP  10-08-24 09:55 OP:vdl  STATUS:               ID:20100324114227 L   I
 2010-03-24-1141-28S.COL___098                                                 6
 STAT SP IPHASW D HRMM SECON CODA AMPLIT PERI AZIMU VELO SNR AR TRES W  DIS CAZ7
 BAR2 SZ EP   1   1142 47.45                             166     0.3 7   35 232 
 BAR2 SZ ES   2   1143  2.18                             166    -0.6 5   35 232 
 BRR  HZ EP   1   1142 49.43                             146    -0.3 7   93 293 
 BRR  HN ES   2   1143  7.00                             146    -0.4 5   93 293 
 BRR  HZ I        1143  9.18        69.2 0.09                            93 293 
 RUS  HZ EP   1   1142 51.32                             144     0.4 7  100 190 
 RUS  HN ES   2   1143 10.16                             144     0.7 5  100 190 
 RUS  HZ I        1143 11.35        20.4 0.28                           100 190 
 OCA  SZ EP   1   1142 55.86                             129    -0.2 7  166 345 
 OCA  SZ ES   2   1143 18.82                             129     0.2 5  166 345 
 CHI  HZ EP   1   1143  5.44                             117     0.0 6  254 200 
 CHI  HE ES   2   1143 34.52                             117    -0.8 4  254 200 
 CHI  HZ I        1143 42.58        11.9 0.28                           254 200 
 ROSC BZ EP   1   1143  5.69                             116    -0.8 6  264 216 
 ROSC BE ES   2   1143 37.31                             116     0.1 4  264 216 
 ROSC BZ I        1143 43.48        22.9 0.48                           264 216 
 HEL  HZ EP   1   1143 10.06                             113     0.2 5  294 257 
 HEL  HE ES   2   1143 43.94                             113     0.8 4  294 257 
 HEL  HZ I        1143 46.11        13.0 0.26                           294 257 
 RREF BZ EP   1   1143 15.61                             110     0.4 5  339 232 
 RREF BE ES   2   1143 52.89                             110     0.1 3  339 232 
 RREF BZ I        1143 57.08        18.6 0.34                           339 232 
 PRA  HZ EP   1   1143 21.75                             106    -0.1 4  403 213 
 PRA  HE ES   2   1144  3.67                             106    -0.9 3  403 213 
 PRA  HZ I        1144  9.16        17.5 0.30                           403 213 
                                                                                
