 2013 1124 1520 56.9 L   6.729 -73.146143.4  RSN  4 0.4 1.7LRSN                1
 GAP=159        0.98       9.8     6.0  7.9 -0.2897E+02  0.3932E+01  0.7492E+01E
 Epicentro: JORDAN - SANTANDER                                                 3
 ACTION:UPD 14-01-09 16:30 OP:ep   STATUS:               ID:20131124152056 L   I
 OLDACT:REG 13-11-24 17:48 OP:nd   STATUS:               ID:20131124152000     3
 2013-11-24-1520-00M.COL___282                                                 6
 STAT SP IPHASW D HRMM SECON CODA AMPLIT PERI AZIMU VELO AIN AR TRES W  DIS CAZ7
 BAR2 SZ IP     C 1521 16.44                             173    0.2810 15.6 195 
 BAR2 SZ ES       1521 31.23                             173    0.0810 15.6 195 
 BAR2 SZ I        1521 34.00        14.1 0.26            174           15.6 195 
 BRR  HZ IP     D 1521 18.32                             151    0.2510 75.2 304 
 BRR  HN ES       1521 35.07                             151    0.5210 75.2 304 
 BRR  HZ I        1521 38.18         9.7 0.32            151           75.2 304 
 PAM  SZ EP       1521 19.44                             148    0.1410 83.6  36 
 PAM  SN ES       1521 36.14                             148   -0.5910 83.6  36 
 PAM  SZ I        1521 38.15         4.5 0.14            151           83.6  36 
 PTB  HZ EP       1521 23.32                             132   -0.27 9  146 262 
 PTB  HN ES       1521 43.88                             132   -0.50 9  146 262 
 PTB  HZ I        1521 46.11         6.8 0.42            134            146 262 
                                                                                
