 2016 1224 1058 27.2 L   6.798 -73.115143.3  RSN  8 0.3 1.6LRSN                1
 GAP=140        0.75       3.2     4.6  4.9 -0.1907E+01 -0.2112E+01  0.4129E+01E
 Epicentro: LOS SANTOS - SANTANDER                                             3
 ACTION:UPD 17-01-11 20:18 OP:rebc STATUS:               ID:20161224105827 L   I
 OLDACT:UP  16-12-24 22:39 OP:edw  STATUS:               ID:20161224105743     3
 OLDACT:REG 16-12-24 20:16 OP:edw  STATUS:               ID:20161224105743     3
 2016-12-24-1058-00M.COL___369                                                 6
 STAT SP IPHASW D HRMM SECON CODA AMPLIT PERI AZIMU VELO AIN AR TRES W  DIS CAZ7
 BAR2 EZ IP     D 1058 46.38                             170   -0.1610 23.9 198 
 BAR2 EZ ES       1059  1.38                             170   -0.2510 23.9 198 
 BAR2 EZ I        1059  2.65        11.6 0.30            170           23.9 198 
 BRR  HZ EP       1058 48.13                             151   -0.1310 74.3 297 
 BRR  HN ES       1059  5.11                             151    0.4310 74.3 297 
 PAM  EZ IP     D 1058 49.25                             151    0.2110 75.5  37 
 PAM  EN ES       1059  6.16                             151    0.0910 75.5  37 
 PAM  EZ I        1059  7.67         5.1 0.42            151           75.5  37 
 RUS  HZ EP       1058 50.50                             143   -0.1710  100 178 
 RUS  HN ES       1059  8.68                             143   -0.3010  100 178 
 RUS  HZ I        1059 10.54         6.7 0.24            144            100 178 
 PTB  HZ EP   9   1058 53.16                             131   -1.10 0  151 259 
 PTB  HN ES       1059 14.08                             131   -0.19 9  151 259 
 PTB  HZ I        1059 15.54         4.2 0.13            132            151 259 
 ZAR  HN ES   2   1059 24.38                             121   -0.87 4  207 292 
 CHI  HZ EP       1059  4.87                             116    0.04 8  249 196 
 CHI  HE ES       1059 34.83                             116    0.65 8  249 196 
 ROSC BZ EP   4   1059  6.44                             116    1.09 0  254 212 
 ROSC BE ES   4   1059 28.94                             116   -6.16 0  254 212 
 URE  HN ES   4   1059 43.78                             113    3.05 0  287 292 
 GUY2CHZ EP   4   1059 12.05                             112    1.07 0  304 235 
 GUY2CHN ES   4   1059 50.09                             112    4.95 0  304 235 
 GUY2CHZ I        1059 55.74         2.2 0.54                           304 235 
 SJC  HZ EP   4   1059 20.72                             105   -2.20 0  411 327 
 SJC  HN ES   4   11 0  1.33                             105   -5.05 0  411 327 
                                                                                
