 2017  924 1648 39.6 L   6.764 -73.139148.0  RSN  5 0.3 1.5LRSN                1
 GAP=139        0.89       4.7     5.0  7.0  0.5138E+01  0.3988E+01 -0.5324E+00E
 Epicentro: LOS SANTOS - SANTANDER                                             3
 ACTION:UPD 17-10-05 19:15 OP:rebc STATUS:               ID:20170924164839 L   I
 OLDACT:REG 17-09-24 20:19 OP:lv   STATUS:               ID:20170924163739     3
 2017-09-24-1638-00M.COL___408                                                 6
 STAT SP IPHASW D HRMM SECON CODA AMPLIT PERI AZIMU VELO AIN AR TRES W  DIS CAZ7
 BAR2 EZ IP     D 1648 59.32                             172   -0.0710 19.6 194 
 BAR2 EZ ES       1649 14.62                             172   -0.2410 19.6 194 
 BAR2 EZ I        1649 17.16         6.1 0.30            173           19.6 194 
 BRR  HZ EP       1649  1.09                             152   -0.0010 73.8 301 
 BRR  HN ES       1649 18.61                             152    0.7110 73.8 301 
 BRR  HZ I        1649 22.16        10.1 0.22            154           73.8 301 
 PAM  EZ EP       1649  2.40                             150    0.2410 80.0  37 
 PAM  EN ES       1649 19.51                             150   -0.2910 80.0  37 
 PAM  EZ I        1649 22.28         5.6 0.54            153           80.0  37 
 RUS  HZ EP       1649  3.37                             145    0.1310 96.6 176 
 RUS  HN ES       1649 21.66                             145   -0.0610 96.6 176 
 RUS  HZ I        1649 24.60         2.2 0.20            148           96.6 176 
 ZAR  HE ES       1649 37.40                             123   -0.58 8  206 293 
                                                                                
