 2012  524 1135 43.5 L   6.107 -73.697108.8  RSN  6 0.4 1.3LRSN                1
 GAP=136        0.92       6.9     4.1 11.0 -0.1832E+01  0.6065E+01 -0.1343E+02E
 Epicentro: BOLIVAR - SANTANDER                                                3
 ACTION:UP  12-07-05 12:07 OP:pat  STATUS:               ID:20120524113543 L   I
 2012-05-24-1130-00M.COL___200                                                 6
 STAT SP IPHASW D HRMM SECON CODA AMPLIT PERI AZIMU VELO SNR AR TRES W  DIS CAZ7
 RUS  HZ EP   1   1136  1.36                             144    -0.2 7   72 109 
 RUS  HN ES   1   1136 15.31                             144    -0.3 7   72 109 
 RUS  HZ I        1136 16.87         6.2 0.38                            72 109 
 BAR2 SZ EP       1136  1.95                             142     0.310   78  47 
 BAR2 SZ ES   1   1136 16.27                             142     0.5 7   78  47 
 PTB  HZ EP   1   1136  2.31                             135    -0.5 7   97 300 
 PTB  HN ES   1   1136 17.40                             135    -0.5 7   97 300 
 PTB  HZ I        1136 20.57         3.5 0.15                            97 300 
 NOR  SN ES   1   1136 26.48                             123     0.6 7  143 245 
 PAM  SZ EP   1   1136 11.15                             117    -0.1 7  175  39 
 ZAR  HN ES   2   1136 37.26                             113     0.6 4  200 320 
                                                                                
