 2012 1124 1207 17.6 L   6.813 -73.205140.3  RSN  6 0.1 2.0LRSN                1
 GAP=129        0.34       2.2     2.4  2.7 -0.1950E+01  0.1881E+01  0.2801E+00E
 Epicentro: ZAPATOCA - SANTANDER                                               3
 ACTION:UPD 12-12-05 15:35 OP:}ep  STATUS:               ID:20121124120717 L   I
 2012-11-24-1200-00M.COL___234                                                 6
 STAT SP IPHASW D HRMM SECON CODA AMPLIT PERI AZIMU VELO AIN AR TRES W  DIS CAZ7
 BAR2 SZ EP       12 7 36.55                             170   -0.0310 24.5 174 
 BAR2 SZ ES       12 7 51.44                             170    0.0510 24.5 174 
 BAR2 SZ I        12 7 52.62        37.1 0.21                          24.5 174 
 GIR2 SZ EP       12 7 36.64                             168    0.0910 29.4   2 
 PAM  SZ EP       12 7 39.48                             149    0.0610 80.7  44 
 PAM  SZ I        12 7 39.74        16.8 0.27                          80.7  44 
 PAM  SN ES       12 7 56.40                             149   -0.0510 80.7  44 
 RUS  HZ EP   1   12 7 40.87                             142   -0.08 7  103 172 
 RUS  HE ES   1   12 7 59.08                             142   -0.10 7  103 172 
 RUS  HE I        12 8  0.19        20.4 0.18                           103 172 
 PTB  HZ EP       12 7 43.34                             132   -0.21 9  142 258 
 PTB  HE ES   1   12 8  3.94                             132    0.14 7  142 258 
 PTB  HZ I        12 8  6.22         8.8 0.22                           142 258 
 CHI  HZ EP       12 7 55.13                             116    0.17 8  248 194 
                                                                                
