 2017 1124 1451 36.4 L   6.830 -73.142150.9  RSN  8 0.3 1.5LRSN                1
 GAP=135        0.86       3.8     3.7  5.9 -0.3490E+01  0.9003E+01 -0.1092E+01E
 Epicentro: LOS SANTOS - SANTANDER                                             3
 ACTION:UPD 17-12-12 19:59 OP:rebc STATUS:               ID:20171124145136 L   I
 OLDACT:UP  17-11-24 22:53 OP:edw  STATUS:               ID:20171124144742     3
 OLDACT:UP  17-11-24 22:52 OP:edw  STATUS:               ID:20171124144742     3
 OLDACT:UP  17-11-24 22:51 OP:edw  STATUS:               ID:20171124144742     3
 OLDACT:REG 17-11-24 20:36 OP:edw  STATUS:               ID:20171124144742     3
 2017-11-24-1448-00M.COL___477                                                 6
 STAT SP IPHASW D HRMM SECON CODA AMPLIT PERI AZIMU VELO AIN AR TRES W  DIS CAZ7
 BAR2 EZ EP       1451 56.63                             170   -0.0810 26.6 190 
 BAR2 EZ ES       1452 12.41                             170   -0.1510 26.6 190 
 BAR2 EZ I        1452 12.79        12.5 0.30            171           26.6 190 
 PAM  EZ EP     C 1451 59.65                             152    0.6510 74.6  41 
 PAM  EN ES       1452 16.72                             152    0.0910 74.6  41 
 PAM  EZ I        1452 19.70         4.8 0.50            154           74.6  41 
 RUS  HZ EP       1452  0.64                             144   -0.2510  104 176 
 RUS  HN ES       1452 19.87                             144   -0.1210  104 176 
 RUS  HZ I        1452 20.33         2.3 0.68            147            104 176 
 PTB  HZ EP       1452  3.24                             133   -0.64 9  149 258 
 PTB  HN ES       1452 25.04                             133   -0.28 9  149 258 
 PTB  HZ I        1452 29.44         2.8 0.14            133            149 258 
 SPBC HZ EP       1452  5.62                             130    0.06 9  166 218 
 SPBC HN ES       1452 28.42                             130    0.12 9  166 218 
 ZAR  HZ EP       1452  9.00                             124   -0.09 9  203 291 
 ZAR  HE ES       1452 34.64                             124    0.04 9  203 291 
 ZAR  HZ I        1452 39.57         4.5 0.60            124            203 291 
 NOR  HZ EP       1452 12.50                             119   -0.17 8  237 234 
 NOR  HE ES       1452 41.79                             119    0.83 8  237 234 
 NOR  HZ I        1452 45.94         2.8 0.14            121            237 234 
 GUY2CHZ EP   4   1452 23.08                             113    2.58 0  303 234 
 GUY2CHN ES       1452 55.11                             113    0.22 7  303 234 
 GUY2CHZ I        1453  2.02         1.6 0.50                           303 234 
                                                                                
