 2011 1024 1214 44.6 L   6.813 -73.102143.8  RSN  7 0.2 1.8LRSN                1
 GAP=141        0.53       3.4     4.3  4.5  0.1126E+01  0.4274E+01 -0.1114E+01E
 Epicentro: LOS SANTOS - SANTANDER                                             3
 ACTION:UPD 12-07-13 16:05 OP:ep   STATUS:               ID:20111024121444 L   I
 2011-10-24-1200-00M.COL___175                                                 6
 STAT SP IPHASW D HRMM SECON CODA AMPLIT PERI AZIMU VELO AIN AR TRES W  DIS CAZ7
 BTL  SZ EP       1215  4.19                             171    0.2210 21.7 303 
 BAR2 SZ EP       1215  3.79                             169   -0.2610 26.0 200 
 BAR2 SZ ES   1   1215 19.07                             169   -0.16 7 26.0 200 
 BAR2 SZ I        1215 20.05        12.0 0.24                          26.0 200 
 GIR2 SZ EP       1215  3.79                             167   -0.2510 31.1 341 
 PAM  SZ EP       1215  6.63                             152    0.2610 73.3  37 
 PAM  SN ES   1   1215 23.30                             152   -0.04 7 73.3  37 
 BRR  HZ EP       1215  5.54                             151   -0.2110 74.8 296 
 BRR  HZ I        1215  5.73        15.1 0.16                          74.8 296 
 BRR  HN ES   1   1215 22.44                             151    0.19 7 74.8 296 
 RUS  HZ EP       1215  8.26                             143    0.0110  102 179 
 RUS  HE ES   1   1215 26.92                             143    0.23 7  102 179 
 RUS  HZ I        1215 28.20         9.5 0.26                           102 179 
 ZAR  HZ EP       1215 17.47                             121    0.14 8  208 291 
 ZAR  HZ I        1215 48.25         5.7 0.54                           208 291 
                                                                                
