 2012  724 1020  9.9 L   6.712 -73.241127.6  RSN  5 0.1 0.8LRSN                1
 GAP=204        0.30       4.5     2.9  5.6  0.6504E+01 -0.5720E+00  0.5802E+01E
 Epicentro: VILLANUEVA - SANTANDER                                             3
 ACTION:UPD 12-08-14 11:45 OP:ep   STATUS:               ID:20120724102009 L   I
 2012-07-24-1020-00M.COL___215                                                 6
 STAT SP IPHASW D HRMM SECON CODA AMPLIT PERI AZIMU VELO AIN AR TRES W  DIS CAZ7
 BAR2 SZ EP   1   1020 27.21                             173     0.0 7   15 154 
 BRR  HN ES   2   1020 43.67                             150    -0.1 5   68 310 
 RUS  HZ EP   1   1020 31.32                             142     0.0 7   92 169 
 RUS  HZ I        1020 32.69         1.1 0.22            137             92 169 
 PTB  HZ EP   1   1020 34.20                             130    -0.1 7  136 262 
 PTB  HN ES   1   1020 53.34                             130     0.0 7  136 262 
 PTB  HZ I        1020 59.19         0.9 0.24            128            136 262 
 ZAR  HZ EP   2   1020 40.61                             119     0.0 4  198 296 
 ZAR  HN ES   2   1021  4.73                             119     0.2 4  198 296 
