 2012  924 1843 18.9 L   6.788 -73.125141.8  RSN  8 0.4 2.3LRSN                1
 GAP=140        0.76       3.8     4.4  6.3  0.2006E+01  0.4613E+01  0.3942E+01E
 Epicentro: LOS SANTOS - SANTANDER                                             3
 ACTION:UPD 12-10-22 14:20 OP:ep   STATUS:               ID:20120924184318 L   I
 2012-09-24-1840-00M.COL___220                                                 6
 STAT SP IPHASW D HRMM SECON CODA AMPLIT PERI AZIMU VELO AIN AR TRES W  DIS CAZ7
 BAR2 SZ EP       1843 37.92                             171   -0.1710 22.6 196 
 BAR2 SZ I        1843 38.31        46.2 0.32                          22.6 196 
 BAR2 SZ ES   1   1843 53.22                             171    0.20 7 22.6 196 
 GIR2 SZ EP   1   1843 38.04                             166   -0.16 7 33.0 347 
 BRR  HZ EP       1843 39.85                             151    0.0310 73.8 299 
 BRR  HN ES   1   1843 56.68                             151    0.57 7 73.8 299 
 BRR  HN I        1844  0.91        71.7 0.26                          73.8 299 
 PAM  SZ EP   1   1843 40.89                             150    0.17 7 77.0  38 
 PAM  SZ I        1843 41.20        13.1 0.22                          77.0  38 
 PAM  SN ES   1   1843 57.72                             150    0.02 7 77.0  38 
 RUS  HZ EP       1843 41.94                             143   -0.2610 99.1 177 
 RUS  HN ES   1   1843 59.95                             143   -0.40 7 99.1 177 
 PTB  HE ES   1   1844  6.08                             131   -0.63 7  150 260 
 PTB  HN I        1844  7.98        24.0 0.24                           150 260 
 ZAR  HZ EP   1   1843 51.14                             121   -0.27 6  207 292 
 ZAR  HN ES   1   1844 16.87                             121    0.14 6  207 292 
 ZAR  HN I        1844 24.34        23.4 0.16                           207 292 
 CHI  HZ EP   1   1843 57.18                             116    0.83 6  248 196 
 CHI  HN ES   1   1844 26.23                             116    0.70 6  248 196 
                                                                                
