 2011 1024 1201 22.4 L   6.760 -73.105148.6  RSN  6 0.3 1.6LRSN                1
 GAP=144        0.60       4.5     9.1  6.9 -0.1492E+02 -0.1178E+02  0.5657E+01E
 Epicentro: LOS SANTOS - SANTANDER                                             3
 ACTION:UPD 12-07-13 16:05 OP:ep   STATUS:               ID:20111024120122 L   I
 2011-10-24-1200-00M.COL___175                                                 6
 STAT SP IPHASW D HRMM SECON CODA AMPLIT PERI AZIMU VELO AIN AR TRES W  DIS CAZ7
 BAR2 SZ EP       12 1 42.36                             172    0.0510 20.4 205 
 BAR2 SZ ES   2   12 1 57.42                             172   -0.43 5 20.4 205 
 BAR2 SZ I        12 1 58.93        11.1 0.22                          20.4 205 
 BTL  SZ ES   3   12 1 58.46                             170    0.45 2 25.1 314 
 GIR2 SZ ES   3   12 1 58.09                             166   -0.19 2 36.5 345 
 BRR  HE ES   2   12 2  1.27                             151    0.07 5 77.2 300 
 PAM  SZ EP       12 1 45.24                             151    0.2810 78.2  35 
 PAM  SN ES   1   12 2  2.32                             151   -0.24 7 78.2  35 
 RUS  HZ EP       12 1 45.75                             146   -0.3610 96.0 179 
 RUS  HN ES   1   12 2  5.03                             146    0.43 7 96.0 179 
 RUS  HZ I        12 2  6.17         4.4 0.22                          96.0 179 
                                                                                
