 2013  324 1031 11.7 L   6.696 -73.257143.4  RSN  4 0.2 1.4LRSN                1
 GAP=208        0.58       8.4     5.2 10.3  0.3046E+02 -0.1884E+02 -0.6309E+02E
 Epicentro: BARICHARA - SANTANDER                                              3
 ACTION:UPD 13-04-09 14:04 OP:ep   STATUS:               ID:20130324103111 L   I
 2013-03-24-1030-00M.COL___245                                                 6
 STAT SP IPHASW D HRMM SECON CODA AMPLIT PERI AZIMU VELO AIN AR TRES W  DIS CAZ7
 BAR2 SZ EP       1031 30.68                             174   -0.2610 14.1 144 
 RUS  HN ES       1031 52.60                             146    0.2110 90.9 168 
 RUS  HN I        1031 54.12         4.6 0.32            158           90.9 168 
 PTB  HZ EP       1031 37.35                             134    0.0810  134 263 
 PTB  HN ES       1031 56.90                             134   -0.2810  134 263 
 PTB  HN I        1032  0.20         3.3 0.24            141            134 263 
 ZAR  HZ EP       1031 43.40                             123    0.03 9  198 297 
 ZAR  HN ES       1032  8.31                             123    0.28 9  198 297 
 ZAR  HN I        1032 14.05         3.0 0.16            128            198 297 
                                                                                
