 2016 1224 1426 22.3 L   6.791 -73.098141.9  RSN 11 0.4 2.0LRSN                1
 GAP=143        0.99       4.0     4.9  5.4 -0.3824E+01  0.5427E+01  0.4426E+01E
 Epicentro: LOS SANTOS - SANTANDER                                             3
 ACTION:UPD 17-01-11 20:18 OP:rebc STATUS:               ID:20161224142622 L   I
 OLDACT:UP  16-12-25 01:02 OP:edw  STATUS:               ID:20161224141747d    3
 OLDACT:UP  16-12-25 01:02 OP:edw  STATUS:               ID:20161224141747d    3
 OLDACT:DUP 16-12-25 00:57 OP:edw  STATUS:               ID:20161224141747d    3
 2016-12-24-1418-00M.COL___375                                                 6
 STAT SP IPHASW D HRMM SECON CODA AMPLIT PERI AZIMU VELO AIN AR TRES W  DIS CAZ7
 BAR2 EZ IP     C 1426 40.98                             170   -0.4510 23.9 203 
 BAR2 EZ ES       1426 56.64                             170    0.2510 23.9 203 
 BAR2 EZ I        1426 58.11        15.2 0.32            167           23.9 203 
 PAM  EZ EP       1426 44.65                             151    0.7310 75.0  36 
 PAM  EN ES       1427  0.55                             151   -0.2610 75.0  36 
 PAM  EZ I        1427  2.57        11.6 0.20            155           75.0  36 
 BRR  HZ IP     C 1426 42.60                             150   -0.6910 76.3 297 
 BRR  HE ES       1426 59.79                             150    0.0910 76.3 297 
 BRR  HZ I        1427  2.90        17.8 0.12            149           76.3 297 
 RUS  HZ EP       1426 44.92                             143   -0.6210 99.3 179 
 RUS  HN ES       1427  4.11                             143    0.4110 99.3 179 
 RUS  HZ I        1427  5.79        12.8 0.26            143           99.3 179 
 PTB  HZ EP   9   1426 47.68                             130   -1.69 0  153 260 
 PTB  HN ES       1427  8.90                             130    0.07 9  153 260 
 PTB  HZ I        1427 11.46        19.8 0.30            130            153 260 
 ZAR  HZ EP       1426 55.49                             121    0.49 8  209 292 
 ZAR  HN ES   4   1427 18.92                             121   -1.62 0  209 292 
 ZAR  HZ I        1427 24.37        23.7 0.36            121            209 292 
 NOR  HZ EP       1426 58.37                             117    0.20 8  238 235 
 NOR  HN ES       1427 26.18                             117    0.00 8  238 235 
 NOR  HZ I        1427 30.61         5.7 0.28            117            238 235 
 CHI  HZ EP       1426 59.77                             116   -0.03 8  249 196 
 CHI  HN ES       1427 29.06                             116   -0.01 8  249 196 
 CHI  HZ I        1427 34.05         2.9 0.24            117            249 196 
 GUY2CHZ EP   4   1427  7.08                             111    0.97 0  305 235 
 GUY2CHN ES   4   1427 41.21                             111    0.89 0  305 235 
 GUY2CHZ I        1427 49.31         5.2 0.38                           305 235 
 CBOC HZ EP   2   1427  9.84                             109    0.28 3  338 253 
 CBOC HN ES   2   1427 45.86                             109   -0.59 3  338 253 
 ORTC HZ EP       1427 16.69                             106    0.37 6  398 217 
 ORTC HN ES   4   1427 59.98                             106    1.49 0  398 217 
 ORTC HZ I        1428  5.96         2.4 0.44            106            398 217 
                                                                                
