 2015  924 1428 45.9 L   6.509 -73.595103.6  RSN  8 0.5 1.9LRSN                1
 GAP=131        1.15       3.6     4.9  7.5 -0.4069E+01  0.1280E+02 -0.3799E+01E
 Epicentro: SANTA HELENA DEL OPON - SANTANDER                                  3
 ACTION:UPD 15-10-28 16:28 OP:cam  STATUS:               ID:20150924142845 L   I
 OLDACT:UP  15-09-24 20:51 OP:mh   STATUS:               ID:20150924142750     3
 OLDACT:UP  15-09-24 20:49 OP:mh   STATUS:               ID:20150924142750     3
 OLDACT:REG 15-09-24 18:47 OP:mh   STATUS:               ID:20150924142750     3
 2015-09-24-1427-50M.COL___355                                                 6
 STAT SP IPHASW D HRMM SECON CODA AMPLIT PERI AZIMU VELO AIN AR TRES W  DIS CAZ7
 BAR2 EZ IP     D 1429  1.35                             154   -0.1310 46.5  79 
 BAR2 EZ ES       1429 14.00                             154    0.3910 46.5  79 
 BAR2 EZ I        1429 15.30        56.1 0.47            152           46.5  79 
 BRR  HZ EP       1429  2.13                             144   -0.3210 67.3 349 
 BRR  HZ I        1429 15.00        12.6 0.42            143           67.3 349 
 BRR  HN ES       1429 15.30                             144   -0.0210 67.3 349 
 PTB  HZ IP     D 1429  4.15                             134   -0.5710 95.4 272 
 PTB  HN ES       1429 18.61                             134   -0.7610 95.4 272 
 PTB  HZ I        1429 20.06        10.9 0.10            134           95.4 272 
 SPBC HZ EP       1429  6.32                             130    0.3010  109 209 
 SPBC HN ES       1429 21.82                             130    0.1310  109 209 
 SPBC HZ I        1429 24.17        17.7 0.48            130            109 209 
 NOR  HZ EP       1429 12.90                             115   -0.02 9  176 234 
 NOR  HN ES       1429 34.16                             115    0.20 9  176 234 
 NOR  HZ I        1429 36.00         6.3 0.16            115            176 234 
 ZAR  HZ EP       1429 13.68                             115    0.68 9  177 308 
 ZAR  HN ES       1429 34.94                             115    0.84 9  177 308 
 ZAR  HZ I        1429 37.69         9.1 0.46            114            177 308 
 GUY2CHZ EP   4   1429 23.16                             107    2.14 0  242 234 
 GUY2CHN ES   4   1429 51.40                             107    3.02 0  242 234 
 GUY2CHZ I        1429 53.50         5.6 0.36                           242 234 
 SML  HZ EP       1429 21.69                             106   -0.68 8  259 348 
 SML  HN ES       1429 50.88                             106    0.10 8  259 348 
 SML  HZ I        1429 53.09         9.5 0.10            105            259 348 
                                                                                
