 2011  224 1605 18.7 L   6.759 -73.021139.2  RSN  7 0.2 2.0LRSN                1
 GAP=173        0.47       3.6     6.2  4.2 -0.5001E+01  0.2066E+01  0.8556E+01E
 Epicentro: CEPITA - SANTANDER                                                 3
 ACTION:UP  11-03-28 15:10 OP:jfem STATUS:               ID:20110224160518 L   I
 2011-02-24-1603-25S.COL___137                                                 6
 STAT SP IPHASW D HRMM SECON CODA AMPLIT PERI AZIMU VELO SNR AR TRES W  DIS CAZ7
 BAR2 SZ ES   1   16 5 52.14                             169    -0.2 7   26 224 
 BAR2 SZ I        16 5 53.37        24.5 0.18                            26 224 
 BTL  SZ EP       16 5 37.73                             166     0.010   32 303 
 BTL  SZ ES   1   16 5 52.85                             166     0.2 7   32 303 
 GIR2 SZ EP   3   16 5 37.85                             163     0.0 2   40 332 
 GIR2 SZ ES   1   16 5 52.61                             163    -0.2 7   40 332 
 RUS  HZ EP       16 5 41.39                             144     0.010   96 184 
 RUS  HN ES   2   16 5 59.42                             144     0.2 5   96 184 
 RUS  HZ I        16 6  0.93         8.8 0.31                            96 184 
 GRA  SZ ES   3   16 6  3.50                             135     0.8 2  127  11 
 GRA  SZ I        16 6  4.90        14.7 0.12                           127  11 
 CHI  HZ EP       16 5 55.76                             116    -0.2 8  248 199 
 CHI  HN ES   1   16 6 25.45                             116     0.4 6  248 199 
 CHI  HZ I        16 6 29.49         6.5 0.47                           248 199 
 RREF HZ EP   1   16 6  5.60                             109     0.2 5  329 232 
 RREF HN ES   1   16 6 41.70                             109    -0.2 5  329 232 
 RREF HZ I        16 6 47.10         8.5 0.43                           329 232 
                                                                                
