 2014  824 1045 26.7 L   6.723 -73.097139.1  RSN  5 0.2 1.5LRSN                1
 GAP=146        0.67       3.1     4.3  4.9 -0.4317E+01  0.1374E+01  0.1950E+01E
 Epicentro: JORDAN - SANTANDER                                                 3
 ACTION:UPD 14-09-15 21:52 OP:nd   STATUS:               ID:20140824104526 L   I
 OLDACT:REG 14-08-24 20:33 OP:cam  STATUS:               ID:20140824104000     3
 2014-08-24-1040-00M.COL___288                                                 6
 STAT SP IPHASW D HRMM SECON CODA AMPLIT PERI AZIMU VELO AIN AR TRES W  DIS CAZ7
 BAR2 SZ EP       1045 45.29                             173   -0.1010 17.2 213 
 BAR2 SZ ES       1045 59.66                             173   -0.3210 17.2 213 
 BAR2 SZ I        1046  1.40         9.8 0.24            173           17.2 213 
 BRR  HZ EP     C 1045 47.24                             148   -0.4110 80.2 302 
 BRR  HN ES       1046  4.31                             148    0.2910 80.2 302 
 BRR  HN I        1046  4.75        16.1 0.28            151           80.2 302 
 PAM  SZ EP       1045 48.44                             148    0.0310 81.1  33 
 PAM  SN ES       1046  5.54                             148    0.1610 81.1  33 
 PAM  SZ I        1046  7.69         3.9 0.58            150           81.1  33 
 RUS  HZ EP       1045 49.50                             145    0.3710 91.8 179 
 RUS  HN ES       1046  6.59                             145   -0.0710 91.8 179 
 RUS  HZ I        1046  8.72         3.4 0.22            146           91.8 179 
 SPBC HZ EP       1045 54.27                             128   -0.11 9  160 222 
 SPBC HN ES       1046 16.16                             128    0.17 9  160 222 
 SPBC HZ I        1046 17.43         3.7 0.22            130            160 222 
 SML  HE ES   4   1046 30.83                             115   -2.35 0  254 335 
                                                                                
