 2010  224 1120 10.2 L   6.669 -73.288102.0  RSN  4 0.6 1.4LRSN                1
 GAP=151        0.81      11.3    17.0 15.0  0.1112E+03  0.6417E+02 -0.8083E+01E
 Epicentro: GALAN - SANTANDER                                                  3
 ACTION:UP  10-08-24 09:50 OP:vdl  STATUS:               ID:20100224112010 L   I
 2010-02-24-1117-49S.COL___094                                                 6
 STAT SP IPHASW D HRMM SECON CODA AMPLIT PERI AZIMU VELO SNR AR TRES W  DIS CAZ7
 BAR2 SZ EP       1120 24.58                             170     0.210   14 126 
 BAR2 SZ ES   2   1120 34.85                             170    -0.6 5   14 126 
 GIR2 SZ EP       1120 25.65                             152     0.210   47  13 
 BRR  HZ EP       1120 26.32                             144    -0.310   67 316 
 BRR  HZ I        1120 26.41         6.6 0.23                            67 316 
 BRR  HE ES   3   1120 40.36                             144     1.0 2   67 316 
 RUS  BZ EP   2   1120 28.43                             136    -0.5 5   89 165 
 RUS  BN ES   3   1120 45.27                             136     1.7 2   89 165 
                                                                                
