 2014  824 1439 42.7 L   6.745 -73.151146.4  RSN  5 0.4 1.7LRSN                1
 GAP=138        1.00       7.8     5.4  7.9 -0.1211E+02 -0.5351E+00  0.1830E+02E
 Epicentro: LOS SANTOS - SANTANDER                                             3
 ACTION:UPD 14-09-15 21:52 OP:nd   STATUS:               ID:20140824143942 L   I
 OLDACT:UP  14-08-25 00:05 OP:cam  STATUS:               ID:20140824143846     3
 OLDACT:REG 14-08-24 23:46 OP:cam  STATUS:               ID:20140824143846     3
 2014-08-24-1438-46M.COL___255                                                 6
 STAT SP IPHASW D HRMM SECON CODA AMPLIT PERI AZIMU VELO AIN AR TRES W  DIS CAZ7
 BAR2 SZ EP     D 1440  2.27                             173    0.0210 17.2 192 
 BAR2 SZ ES       1440 17.84                             173    0.3110 17.2 192 
 BAR2 SZ I        1440 22.32         6.1 0.20            171           17.2 192 
 BRR  HZ EP       1440  4.42                             152    0.4010 73.8 303 
 BRR  HN ES       1440 21.12                             152    0.4410 73.8 303 
 BRR  HN I        1440 24.81        11.5 0.18            154           73.8 303 
 PAM  SZ EP       1440  5.41                             149    0.1610 82.6  37 
 PAM  SN ES       1440 22.23                             149   -0.6410 82.6  37 
 PAM  SN I        1440 23.34        11.2 0.36            155           82.6  37 
 RUS  HZ EP       1440  5.97                             146   -0.0610 94.5 175 
 PTB  HZ EP       1440  9.43                             132   -0.09 9  146 261 
 PTB  HN ES       1440 29.84                             132   -0.64 9  146 261 
 PTB  HZ I        1440 32.87         5.1 0.42            135            146 261 
                                                                                
