 2010 1224 1626 36.8 L   6.810 -73.168142.0  RSN 11 0.5 2.4LRSN                1
 GAP=134        1.20       3.8     6.5  8.9 -0.4283E+01  0.2030E+02 -0.8898E+00E
 Epicentro: LOS SANTOS - SANTANDER                                             3
 ACTION:UP  11-01-14 15:27 OP:pat  STATUS:               ID:20101224162636 L   I
 2010-12-24-1620-00M.COL___132                                                 6
 STAT SP IPHASW D HRMM SECON CODA AMPLIT PERI AZIMU VELO SNR AR TRES W  DIS CAZ7
 BAR2 SZ IP       1626 55.99                             170     0.010   24 184 
 BAR2 SZ ES   1   1627 10.66                             170    -0.3 7   24 184 
 BAR2 SZ I        1627 11.97       121.0 0.19                            24 184 
 RUS  HZ EP       1627  0.09                             142    -0.210  102 175 
 RUS  HN ES       1627 18.53                             142    -0.110  102 175 
 RUS  HZ I        1627 19.52        26.9 0.30                           102 175 
 GRA  SZ IP       1627  2.76                             136     1.110  125  19 
 GRA  SZ I        1627  3.86        38.9 0.32                           125  19 
 GRA  SZ ES   1   1627 21.73                             136     0.6 7  125  19 
 OCA  SZ IP       1627  3.89                             129    -0.8 9  159 354 
 OCA  SZ ES   1   1627 25.65                             129    -0.8 7  159 354 
 OCA  SZ I        1627 30.31        59.9 0.07                           159 354 
 YOP  SZ EP       1627  6.75                             125     0.0 9  181 153 
 YOP  SZ I        1627  7.46        15.8 0.17                           181 153 
 YOP  SE ES   1   1627 30.17                             125     0.0 7  181 153 
 NOR  SZ EP   1   1627 12.46                             118     0.3 6  233 234 
 NOR  SE ES   1   1627 40.03                             118     0.2 6  233 234 
 CHI  HZ EP   1   1627 14.41                             116     0.1 6  249 195 
 CHI  HN ES   1   1627 43.91                             116     0.3 6  249 195 
 CHI  HZ I        1627 48.70         9.2 0.27                           249 195 
 HEL  HZ EP   2   1627 17.06                             114     0.5 4  270 255 
 HEL  HN ES   1   1627 48.19                             114     0.6 6  270 255 
 RREF HZ EP   2   1627 23.00                             110     0.3 3  321 229 
 RREF HE ES   2   1627 58.85                             110     0.4 3  321 229 
 RREF HZ I        1628  5.65        14.0 0.27                           321 229 
 DBB  SZ EP   1   1627 22.95                             109    -0.9 5  337 274 
 DBB  SZ I        1628  5.33         3.0 0.45                           337 274 
 PRA  HZ EP   1   1627 29.93                             106    -0.2 4  392 209 
 PRA  HN ES   1   1628 10.88                             106    -0.9 4  392 209 
 PRA  HZ I        1628 16.96        41.6 0.40                           392 209 
                                                                                
