 2011  424 1907 32.3 L   6.813 -73.128154.8  RSN  8 0.3 1.8LRSN                1
 GAP=160        0.63       3.0     4.5  6.0 -0.3168E+01  0.4031E+01  0.2540E+01E
 Epicentro: LOS SANTOS - SANTANDER                                             3
 ACTION:UP  11-06-22 15:33 OP:REBC STATUS:               ID:20110424190732 L   I
 2011-04-24-1905-39S.COL___139                                                 6
 STAT SP IPHASW D HRMM SECON CODA AMPLIT PERI AZIMU VELO SNR AR TRES W  DIS CAZ7
 BAR2 SZ EP   1   19 7 52.82                             170    -0.2 8   25 194 
 BAR2 SZ I        19 8  9.09        11.8 0.20                            25 194 
 BRR  HZ EP   1   19 7 54.57                             154     0.1 8   72 297 
 BRR  HZ I        19 8 11.27        11.4 0.13                            72 297 
 BRR  HN ES   1   19 8 11.93                             154     0.2 8   72 297 
 RUS  HZ EP       19 7 57.08                             145     0.110  102 177 
 RUS  HN ES   1   19 8 16.20                             145    -0.1 7  102 177 
 RUS  HZ I        19 8 16.75        10.1 0.22                           102 177 
 GRA  SZ EP   1   19 7 58.39                             139     0.2 7  124  17 
 GRA  SZ ES   1   19 8 17.99                             139    -0.4 7  124  17 
 GRA  SZ I        19 8 19.75         8.9 0.25                           124  17 
 OCA  SZ EP   1   19 8  1.39                             132     0.2 7  159 352 
 NOR  SZ EP   1   19 8  9.00                             120     0.2 6  237 234 
 NOR  SN ES   2   19 8 36.60                             120    -0.7 4  237 234 
 CHI  HZ EP   1   19 8 10.45                             119    -0.2 6  251 196 
 CHI  HN ES   1   19 8 40.93                             119     0.3 6  251 196 
 CHI  HZ I        19 8 43.67         4.8 0.28                           251 196 
 HEL  HZ EP   1   19 8 12.47                             116    -0.7 6  274 256 
 HEL  HN ES   1   19 8 45.29                             116     0.2 6  274 256 
 HEL  HZ I        19 8 50.60         3.4 0.32                           274 256 
                                                                                
