 2017 1124 1523  3.4 L   6.789 -73.164142.3  RSN 11 0.4 1.8LRSN                1
 GAP=135        0.98       3.6     4.0  6.1 -0.1822E+01  0.8829E+01  0.5831E+01E
 Epicentro: LOS SANTOS - SANTANDER                                             3
 ACTION:UPD 17-12-12 19:59 OP:rebc STATUS:               ID:20171124152303 L   I
 OLDACT:UP  17-11-24 23:06 OP:edw  STATUS:               ID:20171124151739     3
 OLDACT:UP  17-11-24 23:04 OP:edw  STATUS:               ID:20171124151739     3
 OLDACT:REG 17-11-24 20:38 OP:edw  STATUS:               ID:20171124151739     3
 2017-11-24-1518-00M.COL___494                                                 6
 STAT SP IPHASW D HRMM SECON CODA AMPLIT PERI AZIMU VELO AIN AR TRES W  DIS CAZ7
 BAR2 EZ EP       1523 22.42                             171   -0.1710 21.8 185 
 BAR2 EZ ES       1523 37.62                             171    0.0710 21.8 185 
 BAR2 EZ I        1523 39.01        24.1 0.34            168           21.8 185 
 PAM  EZ EP       1523 25.26                             149   -0.1310 79.7  40 
 PAM  EN ES       1523 42.39                             149   -0.1510 79.7  40 
 PAM  EZ I        1523 44.46        11.3 0.58            156           79.7  40 
 RUS  HZ EP       1523 26.53                             143   -0.2110 99.5 175 
 RUS  HN ES       1523 45.42                             143    0.4910 99.5 175 
 RUS  HZ I        1523 46.09         5.0 0.68            145           99.5 175 
 PTB  HZ EP       1523 30.35                             132    0.46 9  146 259 
 PTB  HN ES       1523 49.44                             132   -1.10 9  146 259 
 PTB  HZ I        1523 56.71         5.4 0.36            131            146 259 
 SPBC HZ EP       1523 31.61                             128    0.18 9  161 219 
 SPBC HE ES   4   1523 54.61                             128    1.33 0  161 219 
 SPBC HZ I        1523 57.51        13.8 0.40            129            161 219 
 OCA  HE ES   2   1523 54.84                             129    1.35 5  161 354 
 ZAR  HZ EP   4   1523 36.69                             122    1.21 0  203 293 
 ZAR  HE ES       1524  0.64                             122    0.14 9  203 293 
 ZAR  HZ I        1524  5.48         7.2 0.26            123            203 293 
 NOR  HZ EP       1523 38.61                             118   -0.07 8  232 234 
 NOR  HN ES       1524  6.22                             118    0.03 8  232 234 
 NOR  HZ I        1524 15.64         4.1 0.46            119            232 234 
 CHI  HZ EP       1523 40.64                             116   -0.09 8  247 195 
 CHI  HE ES       1524  9.62                             116   -0.21 8  247 195 
 CHI  HZ I        1524 13.33         4.3 0.64            118            247 195 
 GUY2CHZ EP       1523 46.48                             112   -0.11 7  299 235 
 GUY2CHE ES       1524 20.98                             112    0.72 7  299 235 
 GUY2CHZ I        1524 28.54         3.5 0.34                           299 235 
 PRA  HZ EP       1523 56.29                             106   -0.28 6  390 209 
 PRA  HE ES       1524 38.39                             106    0.36 6  390 209 
 PRA  HZ I        1524 44.60         4.4 0.36            108            390 209 
                                                                                
