 2010 1224 1811 24.0 L   6.789 -73.114138.1  RSN 11 0.5 2.2LRSN                1
 GAP=162        1.08       4.7    10.5  9.6 -0.2352E+02  0.4483E+02 -0.6002E+01E
 Epicentro: LOS SANTOS - SANTANDER                                             3
 ACTION:UP  11-01-14 15:27 OP:pat  STATUS:               ID:20101224181124 L   I
 2010-12-24-1807-20S.COL___135                                                 6
 STAT SP IPHASW D HRMM SECON CODA AMPLIT PERI AZIMU VELO SNR AR TRES W  DIS CAZ7
 BTL  SZ EP       1811 43.63                             170     1.010   22 310 
 BAR2 SZ IP       1811 42.69                             170     0.010   23 199 
 BAR2 SZ ES   1   1811 57.62                             170     0.4 7   23 199 
 BAR2 SZ I        1811 58.34        61.4 0.25                            23 199 
 GIR2 SZ EP   1   1811 42.82                             166     0.0 7   33 345 
 RUS  HZ EP       1811 46.66                             143    -0.210   99 178 
 RUS  HN ES   1   1812  4.04                             143    -0.7 7   99 178 
 RUS  HZ I        1812  7.33        23.7 0.40                            99 178 
 GRA  SZ IP       1811 48.82                             135     0.310  126  16 
 GRA  SZ ES   1   1812  7.36                             135    -0.4 7  126  16 
 GRA  SZ I        1812 10.43        25.0 0.22                           126  16 
 OCA  SZ EP   1   1811 51.32                             127    -0.5 7  162 352 
 OCA  SZ ES   1   1812 12.91                             127    -0.7 7  162 352 
 OCA  SZ I        1812 18.90        23.2 0.24                           162 352 
 NOR  SZ EP   1   1811 59.18                             117    -0.3 6  237 235 
 NOR  SE ES   2   1812 26.58                             117    -0.7 4  237 235 
 CHI  HZ EP   2   1812  0.78                             115    -0.4 4  248 196 
 CHI  HN ES   2   1812 30.03                             115    -0.2 4  248 196 
 CHI  HZ I        1812 34.21         5.2 0.24                           248 196 
 HEL  HZ EP   2   1812  4.44                             113     0.3 4  275 256 
 HEL  HZ I        1812 41.68        10.6 0.24                           275 256 
 RREF HZ EP   1   1812 10.23                             109     0.2 5  324 230 
 RREF HE ES   1   1812 46.20                             109     0.3 5  324 230 
 RREF HZ I        1812 51.88         6.8 0.23                           324 230 
 PRA  HZ EP   1   1812 17.37                             105     0.1 4  393 210 
                                                                                
