 2017 1124 1958 54.5 L   6.761 -73.153137.5  RSN  4 0.3 1.0LRSN                1
 GAP=138        0.74       4.3     4.3  6.3 -0.5884E+01  0.8156E+01 -0.2883E+01E
 Epicentro: LOS SANTOS - SANTANDER                                             3
 ACTION:UPD 17-12-12 19:59 OP:rebc STATUS:               ID:20171124195854 L   I
 OLDACT:UP  17-11-25 00:55 OP:edw  STATUS:               ID:20171124194741     3
 OLDACT:REG 17-11-24 21:15 OP:edw  STATUS:               ID:20171124194741     3
 2017-11-24-1948-00M.COL___487                                                 6
 STAT SP IPHASW D HRMM SECON CODA AMPLIT PERI AZIMU VELO AIN AR TRES W  DIS CAZ7
 BAR2 EZ ES       1959 27.35                             172   -0.2010 18.9 190 
 PAM  EZ EP       1959 16.17                             148    0.0610 81.3  38 
 PAM  EN ES       1959 33.01                             148    0.0610 81.3  38 
 PAM  EZ I        1959 37.34         2.7 0.62            149           81.3  38 
 RUS  HZ EP       1959 17.47                             143    0.3210 96.3 175 
 RUS  HN ES       1959 34.72                             143   -0.0910 96.3 175 
 RUS  HZ I        1959 36.35         1.1 0.52            148           96.3 175 
 PTB  HZ EP       1959 20.14                             130   -0.54 9  146 260 
 PTB  HE ES       1959 41.44                             130    0.36 9  146 260 
 PTB  HZ I        1959 44.76         1.2 0.50            132            146 260 
                                                                                
