 2011 1124 1718 14.1 L   6.782 -73.120147.6  RSN  6 0.2 1.9LRSN                1
 GAP=141        0.51       3.3     4.0  4.4 -0.2936E+01  0.3547E+01  0.3122E+01E
 Epicentro: LOS SANTOS - SANTANDER                                             3
 ACTION:UPD 12-07-13 16:12 OP:ep   STATUS:               ID:20111124171814 L   I
 2011-11-24-1716-02S.COL___178                                                 6
 STAT SP IPHASW D HRMM SECON CODA AMPLIT PERI AZIMU VELO AIN AR TRES W  DIS CAZ7
 BAR2 SZ EP       1718 34.05                             171    0.0810 22.1 198 
 BAR2 SZ ES   1   1718 49.08                             171   -0.35 7 22.1 198 
 BAR2 SZ I        1718 50.76        18.7 0.37                          22.1 198 
 BRR  HZ EP       1718 35.53                             152   -0.1610 74.6 299 
 BRR  HZ I        1718 40.49        22.9 0.15                          74.6 299 
 BRR  HN ES   1   1718 52.94                             152    0.45 7 74.6 299 
 PAM  SZ EP   1   1718 36.59                             151    0.05 7 77.2  37 
 PAM  SN ES   1   1718 53.81                             151   -0.20 7 77.2  37 
 RUS  HZ EP   1   1718 38.17                             145    0.25 7 98.4 178 
 RUS  HN ES   1   1718 56.67                             145    0.20 7 98.4 178 
 RUS  HZ I        1718 57.80        10.4 0.30                          98.4 178 
 NOR  SZ EP   1   1718 50.08                             119   -0.02 6  236 235 
 NOR  SE ES   1   1719 17.87                             119   -0.28 6  236 235 
 CHI  HZ EP   1   1718 51.72                             118   -0.10 6  247 196 
                                                                                
