 2017  124 1536 37.3 L   6.799 -73.181144.4  RSN  6 0.2 1.7LRSN                1
 GAP=132        0.52       2.2     2.4  3.8  0.1278E+00  0.2674E+01  0.1253E+01E
 Epicentro: ZAPATOCA - SANTANDER                                               3
 ACTION:UPD 17-05-22 16:02 OP:jn   STATUS:               ID:20170124153637 L   I
 OLDACT:REG 17-01-24 20:54 OP:dnl  STATUS:               ID:20170124152747     3
 2017-01-24-1528-00M.COL___343                                                 6
 STAT SP IPHASW D HRMM SECON CODA AMPLIT PERI AZIMU VELO AIN AR TRES W  DIS CAZ7
 BAR2 EZ EP       1536 56.71                             171   -0.0510 22.9 180 
 BAR2 EZ ES       1537 11.77                             171   -0.1610 22.9 180 
 BAR2 EZ I        1537 14.45        17.4 0.30            170           22.9 180 
 PAM  EZ IP     C 1536 59.65                             150    0.1210 80.0  42 
 PAM  EE ES       1537 16.98                             150    0.1110 80.0  42 
 PAM  EZ I        1537 18.81        12.4 0.48            153           80.0  42 
 RUS  HZ EP       1537  0.71                             143   -0.2210  101 174 
 RUS  HE ES       1537 19.46                             143    0.0910  101 174 
 RUS  HZ I        1537 20.51         9.6 0.30            145            101 174 
 PTB  HZ EP       1537  3.39                             132   -0.41 9  144 259 
 PTB  HN ES       1537 24.49                             132    0.01 9  144 259 
 PTB  HZ I        1537 26.97         5.5 0.16            132            144 259 
 ZAR  HZ EP   2   1537  9.45                             123    0.17 4  200 293 
 ZAR  HE ES       1537 34.46                             123    0.23 9  200 293 
 ZAR  HZ I        1537 43.60         6.0 0.12            122            200 293 
 CHI  HZ EP       1537 14.92                             117    0.12 8  248 194 
 CHI  HN ES       1537 44.38                             117    0.33 8  248 194 
 CHI  HZ I        1537 50.22         2.4 0.30            118            248 194 
                                                                                
