 2012  424 1456 58.7 L   6.714 -73.181146.0  RSN  4 0.1 1.4LRSN                1
 GAP=227        0.31       3.3     3.2  4.2  0.5409E+01 -0.1377E+01 -0.1023E+01E
 Epicentro: VILLANUEVA - SANTANDER                                             3
 ACTION:UPD 12-07-05 11:55 OP:tino STATUS:               ID:20120424145658 L   I
 2012-04-24-1450-00M.COL___186                                                 6
 STAT SP IPHASW D HRMM SECON CODA AMPLIT PERI AZIMU VELO AIN AR TRES W  DIS CAZ7
 BAR2 SZ EP   1   1457 18.08                             174    -0.1 7   13 181 
 BAR2 SZ I        1457 35.18         7.5 0.23                            13 181 
 BRR  HZ EP   1   1457 20.07                             152     0.1 7   73 307 
 BRR  HN ES   1   1457 36.53                             152     0.0 7   73 307 
 RUS  HZ EP   1   1457 21.77                             146     0.0 7   92 173 
 RUS  HN ES   1   1457 39.93                             146     0.1 7   92 173 
 PTB  HZ EP   1   1457 25.21                             133     0.0 7  142 262 
 PTB  HN ES   1   1457 45.81                             133     0.0 7  142 262 
 PTB  HZ I        1457 47.78         2.7 0.33                           142 262 
                                                                                
