 2011  624 1028  6.3 L   6.694 -73.061154.4  RSN  6 0.5 1.4LRSN                1
 GAP=201        0.95      15.7    16.6 17.0 -0.4191E+02 -0.1344E+03 -0.1542E+02E
 Epicentro: ARATOCA - SANTANDER                                                3
 ACTION:UP  11-07-14 19:07 OP:ep   STATUS:               ID:20110624102806 L   I
 2011-06-24-1020-00M.COL___124                                                 6
 STAT SP IPHASW D HRMM SECON CODA AMPLIT PERI AZIMU VELO SNR AR TRES W  DIS CAZ7
 BAR2 SZ EP       1028 26.92                             173     0.010   17 230 
 BAR2 SZ I        1028 42.96         5.7 0.28                            17 230 
 BTL  SZ EP       1028 27.64                             168     0.410   34 317 
 BTL  SZ ES   2   1028 42.48                             168    -1.0 5   34 317 
 GIR2 SZ EP       1028 27.50                             164     0.110   45 341 
 PAM  SZ EP   2   1028 29.91                             151     0.2 5   82  29 
 BRR  HZ EP       1028 28.69                             150    -0.510   85 302 
 BRR  HN ES   2   1028 47.89                             150     0.8 5   85 302 
 BRI  SZ EP       1028 31.62                             141     0.010  117  14 
                                                                                
