 2011  724 1357  3.8 L   6.752 -73.118149.1  RSN  6 0.5 1.7LRSN                1
 GAP=159        0.84       5.9     6.6  7.5 -0.4714E+01  0.1277E+02 -0.3357E+01E
 Epicentro: LOS SANTOS - SANTANDER                                             3
 ACTION:UPD 12-07-25 14:03 OP:epov STATUS:               ID:20110724135703 L   I
 2011-07-24-1355-41S.COL___143                                                 6
 STAT SP IPHASW D HRMM SECON CODA AMPLIT PERI AZIMU VELO AIN AR TRES W  DIS CAZ7
 BAR2 SZ EP   1   1357 23.03                             172   -0.69 7 19.1 202 
 BAR2 SZ ES   1   1357 39.04                             172   -0.24 7 19.1 202 
 BAR2 SZ I        1357 41.32        13.6 0.26                          19.1 202 
 BRR  HZ EP       1357 25.57                             151    0.0010 76.5 301 
 BRR  HZ I        1357 25.93        15.0 0.13                          76.5 301 
 BRR  HN ES   1   1357 42.89                             151    0.31 7 76.5 301 
 RUS  HZ EP   1   1357 27.93                             146    0.47 7 95.2 178 
 RUS  HN ES   1   1357 46.30                             146    0.35 7 95.2 178 
 RUS  HZ I        1357 49.16         4.0 0.27                          95.2 178 
 BRI  SZ EP   1   1357 28.22                             141   -0.05 7  112  18 
 BRI  SZ I        1357 28.56         5.7 0.17                           112  18 
 NOR  SZ EP   1   1357 39.10                             119   -0.53 6  234 236 
 NOR  SN ES   1   1358  7.02                             119   -0.59 6  234 236 
 HEL  HZ EP   1   1357 45.20                             115    0.86 6  274 257 
 HEL  HN ES   2   1358 16.39                             115    0.41 4  274 257 
 HEL  HZ I        1358 22.66         3.9 0.37                           274 257 
                                                                                
