 2013  124 1313 15.1 L   6.769 -73.136149.8  RSN  4 0.4 1.4LRSN                1
 GAP=236        0.77       8.7     8.9 10.0  0.4189E+02  0.1903E+01  0.1669E+01E
 Epicentro: LOS SANTOS - SANTANDER                                             3
 ACTION:UPD 13-02-15 09:16 OP:ep   STATUS:               ID:20130124131315 L   I
 2013-01-24-1310-00M.COL___241                                                 6
 STAT SP IPHASW D HRMM SECON CODA AMPLIT PERI AZIMU VELO AIN AR TRES W  DIS CAZ7
 BAR2 SZ ES   1   1313 50.36                             172   -0.49 7 20.2 195 
 BRR  HZ EP   1   1313 36.50                             152   -0.38 7 73.9 300 
 BRR  HN ES   1   1313 54.43                             152    0.60 7 73.9 300 
 BRR  HZ I        1313 55.42         6.3 0.46            154           73.9 300 
 RUS  HZ EP   1   1313 39.34                             146    0.29 7 97.0 177 
 RUS  HN ES   1   1313 57.84                             146    0.15 7 97.0 177 
 RUS  HZ I        1313 59.83         2.8 0.44            147           97.0 177 
 PTB  HN ES   1   1314  3.61                             133   -0.20 7  148 260 
                                                                                
