 2017  924 1908 17.6 L   6.842 -73.107143.6  RSN 22 0.5 2.4LRSN                1
 GAP= 68        1.15       3.0     3.3  5.5  0.9893E-02  0.5372E+01  0.4458E+01E
 Epicentro: LOS SANTOS - SANTANDER                                             3
 ACTION:UPD 17-10-05 19:15 OP:rebc STATUS:               ID:20170924190817 L   I
 OLDACT:REG 17-09-24 20:29 OP:lv   STATUS:               ID:20170924190746     3
 2017-09-24-1908-00M.COL___405                                                 6
 STAT SP IPHASW D HRMM SECON CODA AMPLIT PERI AZIMU VELO AIN AR TRES W  DIS CAZ7
 BAR2 EZ EP       19 8 36.87                             168   -0.2710 28.8 197 
 BAR2 EZ ES       19 8 51.50                             168   -0.8410 28.8 197 
 BAR2 EZ I        19 8 52.88       110.1 0.22            166           28.8 197 
 PAM  EZ IP     D 19 8 39.82                             152    0.5610 71.1  39 
 PAM  EN ES       19 8 56.59                             152    0.4610 71.1  39 
 PAM  EZ I        19 8 59.00        31.4 0.52            157           71.1  39 
 BRR  HZ IP     C 19 8 38.76                             151    0.1010 73.0 294 
 BRR  HN ES       19 8 55.53                             151    0.4810 73.0 294 
 BRR  HZ I        19 9  0.08        59.3 0.12            151           73.0 294 
 RUS  HZ EP       19 8 40.87                             142   -0.6410  105 179 
 RUS  HN ES   4   19 8 59.10                             142   -1.02 0  105 179 
 RUS  HZ I        19 9  0.07        31.6 0.24            143            105 179 
 TAM  HZ EP       19 8 45.18                             131    0.29 9  152 107 
 TAM  HN ES       19 9  6.25                             131    0.11 9  152 107 
 YPLC HZ EP       19 8 47.27                             126   -0.22 9  179 153 
 YPLC HN ES       19 9 10.79                             126    0.02 9  179 153 
 YPLC HZ I        19 9 15.80        12.8 0.18            128            179 153 
 ZAR  HZ EP       19 8 50.09                             121   -0.09 8  206 291 
 ZAR  HN ES       19 9 15.47                             121   -0.09 8  206 291 
 ZAR  HZ I        19 9 21.74        44.0 0.32            123            206 291 
 TABC EZ EP       19 8 54.98                             118    1.06 8  236 211 
 TABC EZ ES   4   19 9 24.54                             118    2.32 0  236 211 
 TABC EZ I    4   19 9 26.15        23.1 0.50            119            236 211 
 NOR  HZ EP       19 8 53.42                             117   -0.49 8  241 234 
 NOR  HN ES       19 9 21.66                             117   -0.53 8  241 234 
 NOR  HZ I        19 9 22.82        16.9 0.14            118            241 234 
 CHI  HZ EP       19 8 55.20                             116   -0.63 8  254 196 
 CHI  HN ES       19 9 25.53                             116   -0.08 8  254 196 
 CHI  HZ I        19 9 27.55         9.1 0.28            117            254 196 
 ROSC BZ EP       19 8 57.20                             116    0.88 8  259 211 
 ROSC BN ES   4   19 9 28.93                             116    2.45 0  259 211 
 ROSC BZ I        19 9 31.62        16.9 0.35            117            259 211 
 HEL  HZ EP       19 8 59.11                             114    0.78 7  277 255 
 HEL  HN ES   4   19 9 27.54                             114   -2.53 0  277 255 
 HEL  HZ I        19 9 35.23        10.6 0.30            115            277 255 
 URE  HZ EP       19 8 59.30                             113    0.44 7  286 291 
 URE  HN ES   4   19 9 27.52                             113   -3.49 0  286 291 
 GUY2CHZ EP       19 9  1.92                             111    0.08 7  307 235 
 GUY2CHN ES       19 9 36.25                             111   -0.07 7  307 235 
 GUY2CHZ I        19 9 43.40         9.0 0.52                           307 235 
 VIL  EZ EP       19 9  1.08                             111   -0.49 7  309 192 
 VIL  EN ES       19 9 36.20                             111    0.36 7  309 192 
 VIL  EZ I        19 9 39.87        13.2 0.54            112            309 192 
 PTGC HZ IP   4 C 19 9  0.14                             111   -1.58 0  311 160 
 PTGC HN ES   4   19 9 33.49                             111   -2.61 0  311 160 
 PTGC HZ I        19 9 39.94        12.9 0.40            112            311 160 
 LL6C HZ EP       19 9  1.68                             110   -1.07 7  321 357 
 LL6C HN ES       19 9 37.40                             110   -0.53 7  321 357 
 ELA  HZ EP   4   19 9  8.67                             109    3.56 0  335 229 
 ELA  HE ES       19 9 42.90                             109    0.76 7  335 229 
 ELA  HZ I        19 9 50.57         9.7 0.44            110            335 229 
 DBB  EZ EP   4   19 9  4.52                             109   -0.96 0  343 273 
 DBB  EN ES   4   19 9 39.91                             109   -2.89 0  343 273 
 DBB  EZ I        19 9 43.79         9.0 0.14            110            343 273 
 PRA  HZ EP       19 9 11.48                             106   -0.32 6  398 210 
 PRA  HN ES       19 9 53.40                             106   -0.65 6  398 210 
 PRA  HZ I        19 9 58.74        13.1 0.34            107            398 210 
 ORTC HZ EP       19 9 12.19                             106   -0.03 6  402 216 
 ORTC HN ES       19 9 55.04                             106    0.26 6  402 216 
 ORTC HZ I        1910  1.40         7.8 0.70            107            402 216 
 SJC  HZ EP   4   19 9 11.81                             105   -1.15 0  408 326 
 SJC  HN ES   4   19 9 52.98                             105   -3.12 0  408 326 
 SJC  HZ I        19 9 57.12         8.9 0.60            107            408 326 
                                                                                
