 2012 1124 1556 44.2 L   5.955 -74.167 73.8  RSN  6 0.4 2.2LRSN                1
 GAP=120        0.97       4.5     3.8 13.7  0.7817E+01  0.1729E+02  0.4454E+02E
 Epicentro: LA BELLEZA - SANTANDER                                             3
 ACTION:UPD 12-12-05 15:35 OP:}ep  STATUS:               ID:20121124155644 L   I
 2012-11-24-1550-00M.COL___234                                                 6
 STAT SP IPHASW D HRMM SECON CODA AMPLIT PERI AZIMU VELO AIN AR TRES W  DIS CAZ7
 PTB  HZ EP       1556 58.63                             131    0.2910 72.1 334 
 PTB  HE ES       1557  9.60                             131    0.2010 72.1 334 
 PTB  HZ I        1557 11.74        74.5 0.23                          72.1 334 
 RUS  HZ EP   1   1557  4.29                             116    0.35 7  120  93 
 RUS  HN ES   1   1557 18.93                             116   -0.45 7  120  93 
 RUS  HZ I        1557 20.65        23.4 0.32                           120  93 
 HEL  HZ EP       1557  7.58                             110    0.07 9  153 280 
 HEL  HN ES       1557 25.11                             110   -0.62 9  153 280 
 HEL  HZ I        1557 27.84        38.4 0.24                           153 280 
 CHI  HZ EP       1557  6.92                             110   -0.81 9  154 162 
 CHI  HE ES       1557 26.27                             110    0.16 9  154 162 
 CHI  HZ I        1557 32.21        22.9 0.44                           154 162 
 ANIL HZ EP   1   1557 14.72                             103    0.30 6  212 220 
 PRA  HZ EP       1557 20.38                             100    0.43 8  260 198 
 PRA  HN ES       1557 48.22                             100    0.36 8  260 198 
                                                                                
