 2012  924 1703 26.2 L   6.786 -73.135149.2  RSN  7 0.2 2.0LRSN                1
 GAP=138        0.48       2.7     2.9  5.3  0.5025E+00  0.9884E+00  0.4129E+01E
 Epicentro: LOS SANTOS - SANTANDER                                             3
 ACTION:UPD 12-10-22 14:20 OP:ep   STATUS:               ID:20120924170326 L   I
 2012-09-24-1700-00M.COL___220                                                 6
 STAT SP IPHASW D HRMM SECON CODA AMPLIT PERI AZIMU VELO AIN AR TRES W  DIS CAZ7
 BAR2 SZ EP       17 3 46.12                             171   -0.0910 22.1 194 
 BAR2 SZ I        17 3 46.32        18.8 0.20                          22.1 194 
 BRR  HZ EP       17 3 47.95                             153    0.1410 72.9 299 
 BRR  HN ES   1   17 4  4.88                             153    0.21 7 72.9 299 
 PAM  SZ EP   1   17 3 48.97                             151    0.17 7 77.8  38 
 PAM  SN ES   1   17 4  6.22                             151   -0.21 7 77.8  38 
 PAM  SN I        17 4  6.81        12.6 0.42                          77.8  38 
 RUS  HZ EP   1   17 3 49.78                             145   -0.39 7 99.0 177 
 RUS  HN ES   1   17 4  9.11                             145    0.24 7 99.0 177 
 PTB  HN ES   1   17 4 14.47                             133   -0.36 7  149 259 
 PTB  HN I        17 4 19.38        11.6 0.38                           149 259 
 ZAR  HN ES   1   17 4 24.70                             123    0.05 6  206 292 
 ZAR  HN I        17 4 29.75         9.2 0.12                           206 292 
 CHI  HZ EP   1   17 4  4.16                             118    0.20 6  247 196 
 CHI  HN ES   1   17 4 33.48                             118    0.06 6  247 196 
                                                                                
