 2017  424 1136 46.7 L   6.805 -73.100145.8  RSN  5 0.2 1.2LRSN                1
 GAP=164        0.54       5.4     3.7  4.6 -0.2750E+01  0.8892E+00 -0.2034E+01E
 Epicentro: LOS SANTOS - SANTANDER                                             3
 ACTION:UPD 17-05-30 21:15 OP:jn   STATUS:               ID:20170424113646 L   I
 OLDACT:UP  17-04-24 21:36 OP:and  STATUS:               ID:20170424112746     3
 OLDACT:UP  17-04-24 21:35 OP:and  STATUS:               ID:20170424112746     3
 OLDACT:UP  17-04-24 21:35 OP:and  STATUS:               ID:20170424112746     3
 OLDACT:REG 17-04-24 20:14 OP:and  STATUS:               ID:20170424112746     3
 2017-04-24-1128-00M.COL___365                                                 6
 STAT SP IPHASW D HRMM SECON CODA AMPLIT PERI AZIMU VELO AIN AR TRES W  DIS CAZ7
 BAR2 EZ EP       1137  6.08                             170   -0.2910 25.2 201 
 BAR2 EZ ES       1137 21.90                             170    0.1910 25.2 201 
 PAM  EZ EP     C 1137  9.05                             152    0.3510 73.8  37 
 PAM  EN ES       1137 25.65                             152   -0.2210 73.8  37 
 PAM  EZ I        1137 28.24         2.4 0.58            149           73.8  37 
 BRR  HZ EP       1137  8.05                             151   -0.0410 75.4 296 
 BRR  HE ES       1137 24.79                             151    0.0110 75.4 296 
 PTB  HZ EP   9   1137 12.46                             131   -1.66 0  153 259 
 PTB  HN ES   2   1137 33.55                             136   -0.31 5  153 259 
 PTB  HZ I        1137 35.92         1.9 0.24            131            153 259 
 ZAR  HZ EP   2   1137 19.48                             122   -0.12 4  209 291 
 ZAR  HN ES   2   1137 45.37                             122    0.10 4  209 291 
 ZAR  HZ I        1137 48.48         1.8 0.29            121            209 291 
 CBOC HN ES   4   1138  5.80                             109   -5.41 0  339 252 
                                                                                
