 2016 1024 1018 43.5 L   6.799 -73.063146.8  RSN 10 0.5 1.5LRSN                1
 GAP=147        1.09       3.6     6.6  6.3 -0.6446E+01  0.2430E+00  0.2333E+01E
 Epicentro: LOS SANTOS - SANTANDER                                             3
 ACTION:UPD 16-11-09 19:22 OP:rebc STATUS:               ID:20161024101843 L   I
 OLDACT:UP  16-10-25 00:42 OP:cog  STATUS:               ID:20161024101741     3
 OLDACT:UP  16-10-25 00:41 OP:cog  STATUS:               ID:20161024101741     3
 OLDACT:UP  16-10-25 00:39 OP:cog  STATUS:               ID:20161024101741     3
 OLDACT:UP  16-10-25 00:37 OP:cog  STATUS:               ID:20161024101741     3
 OLDACT:REG 16-10-24 19:49 OP:cog  STATUS:               ID:20161024101741     3
 2016-10-24-1018-00M.COL___359                                                 6
 STAT SP IPHASW D HRMM SECON CODA AMPLIT PERI AZIMU VELO AIN AR TRES W  DIS CAZ7
 BAR2 EZ EP       1019  3.15                             169   -0.1310 26.4 210 
 BAR2 EZ ES       1019 18.30                             169   -0.4410 26.4 210 
 PAM  EZ EP   2   1019  6.24                             153    0.76 5 72.0  34 
 PAM  EN ES   2   1019 22.41                             153   -0.24 5 72.0  34 
 BRR  HZ EP       1019  5.33                             150    0.1310 79.4 295 
 BRR  HN ES       1019 22.97                             150    0.8110 79.4 295 
 RUS  HZ EP   2   1019  7.26                             144   -0.03 5  100 181 
 RUS  HN ES       1019 26.22                             144    0.3410  100 181 
 RUS  HZ I        1019 26.94         1.5 0.34            144            100 181 
 PTB  HZ EP   9   1019 10.00                             130   -1.34 0  157 260 
 PTB  HN ES       1019 31.43                             131   -0.31 9  157 260 
 PTB  HZ I        1019 34.66         4.0 0.16            129            157 260 
 OCA  HZ EP       1019 12.49                             129    0.50 9  162 350 
 OCA  HN ES       1019 33.46                             129   -0.78 9  162 350 
 OCA  HZ I        1019 39.79         7.8 0.24            129            162 350 
 SPBC HZ EP       1019 12.15                             128   -0.45 9  169 221 
 SPBC HN ES       1019 34.92                             128   -0.40 9  169 221 
 SPBC HZ I        1019 41.55         5.9 0.44            128            169 221 
 NOR  HZ EP   4   1019 18.51                             118   -1.54 0  242 236 
 NOR  HN ES       1019 48.36                             118   -0.23 8  242 236 
 NOR  HZ I        1019 50.95         3.6 0.16            117            242 236 
 CHI  HZ EP       1019 20.96                             117   -0.52 8  251 197 
 CHI  HE ES       1019 51.65                             117    0.51 8  251 197 
 CHI  HZ I        1019 54.63         1.0 0.27            117            251 197 
 GUY2CHZ EP       1019 28.45                             112    0.49 7  309 236 
 GUY2CHN ES   4   1020  4.85                             112    2.18 0  309 236 
 GUY2CHZ I        1020 10.44         2.2 0.28                           309 236 
 SJC  HZ EP   4   1019 37.72                             106   -1.95 0  414 326 
 SJC  HN ES   4   1020 19.57                             106   -3.93 0  414 326 
                                                                                
