 2012 1224 1033 25.8 L   6.784 -73.157143.2  RSN 12 0.3 2.0LRSN                1
 GAP=111        0.67       3.0     2.9  4.3  0.2493E+01  0.3825E+00  0.5903E+00E
 Epicentro: LOS SANTOS - SANTANDER                                             3
 ACTION:UPD 13-01-04 14:30 OP:ep   STATUS:               ID:20121224103325 L   I
 2012-12-24-1030-00M.COL___243                                                 6
 STAT SP IPHASW D HRMM SECON CODA AMPLIT PERI AZIMU VELO AIN AR TRES W  DIS CAZ7
 BAR2 SZ EP       1033 45.02                             171   -0.0410 21.4 188 
 BAR2 SZ ES       1034  0.07                             171   -0.0310 21.4 188 
 BAR2 SZ I        1034  1.51        37.8 0.17                          21.4 188 
 GIR2 SZ EP       1033 44.92                             166   -0.2610 32.8 353 
 BRR  HZ IP     C 1033 46.76                             152    0.1310 71.0 300 
 BRR  HN ES       1034  3.34                             152    0.4410 71.0 300 
 BRR  HZ I        1034  6.91        20.9 0.19                          71.0 300 
 RUS  HZ EP       1033 49.09                             144   -0.0610 98.9 175 
 RUS  HE ES   1   1034  7.08                             144   -0.31 7 98.9 175 
 RUS  HE I        1034 11.09        10.0 0.58                          98.9 175 
 PTB  HZ EP       1033 51.91                             132   -0.48 9  146 259 
 PTB  HE ES   1   1034 12.80                             132   -0.35 7  146 259 
 PTB  HZ I        1034 17.72        14.9 0.18                           146 259 
 TAM  HZ EP       1033 53.42                             130    0.10 9  156 104 
 TAM  HE ES   1   1034 14.85                             130    0.05 7  156 104 
 TAM  HZ I        1034 15.79         8.3 0.31                           156 104 
 OCA  HN ES   2   1034 16.43                             129    0.35 5  162 354 
 OCA  HZ I        1034 17.86        17.0 0.22                           162 354 
 ZAR  HZ EP   1   1033 57.86                             122   -0.14 6  204 293 
 ZAR  HE ES   2   1034 22.79                             122   -0.35 4  204 293 
 ZAR  HZ I        1034 29.08        14.5 0.32                           204 293 
 SML  HN ES   1   1034 30.92                             117    0.00 6  245 336 
 CHI  HZ EP   1   1034  3.22                             117    0.11 6  247 195 
 CHI  HE ES   1   1034 32.96                             117    0.73 6  247 195 
 CHI  HZ I        1034 38.03         3.6 0.41                           247 195 
 ROSC BZ EP   4   1034  4.99                             116    1.47 0  251 211 
 ROSC BZ I        1034 40.97         8.9 0.35                           251 211 
 HEL  HZ EP   1   1034  6.39                             114    0.72 6  270 256 
 HEL  HZ I        1034 44.60         5.5 0.22                           270 256 
                                                                                
