 2010  524 1205 35.1 L   6.880 -73.367113.7  RSN  4 0.3 1.9LRSN                1
 GAP=173        0.55       2.9    18.9  9.0 -0.8054E+01  0.8349E+02 -0.3066E+01E
 Epicentro: SAN VICENTE DE CHUCURI - SANTANDER                                 3
 ACTION:UP  10-08-24 10:06 OP:vdl  STATUS:               ID:20100524120535 L   I
 2010-05-24-1203-41S.COL___111                                                 6
 STAT SP IPHASW D HRMM SECON CODA AMPLIT PERI AZIMU VELO SNR AR TRES W  DIS CAZ7
 BAR2 SZ EP   1   12 5 51.89                             160     0.5 8   38 147 
 BAR2 SZ ES   2   12 6  3.83                             160    -0.3 5   38 147 
 GUE  SZ EP   1   12 5 56.81                             131    -0.2 8  116  25 
 OCA  SZ EP       12 6  0.14                             123     0.010  150   2 
 OCA  SZ ES       12 6 19.68                             123     0.010  150   2 
 OCA  SZ I        12 6 23.29        23.7 0.31                           150   2 
 CHI  HZ EP   2   12 6 11.70                             109     0.0 4  252 189 
 CHI  HN ES   2   12 6 39.76                             109    -0.4 4  252 189 
 CHI  HZ I        12 6 46.64         3.5 0.30                           252 189 
                                                                                
