 2013 1024 1350 58.4 L   6.791 -73.144147.1  RSN  9 0.5 1.9LRSN                1
 GAP=137        1.09       4.8     6.0  7.2 -0.1287E+01  0.1050E+02 -0.4541E+01E
 Epicentro: LOS SANTOS - SANTANDER                                             3
 ACTION:UPD 13-11-25 09:23 OP:ep   STATUS:               ID:20131024135058 L   I
 OLDACT:UP  13-10-24 16:17 OP:cam  STATUS:               ID:20131024134850     3
 OLDACT:REG 13-10-24 15:15 OP:cam  STATUS:               ID:20131024134850     3
 2013-10-24-1348-50M.COL___230                                                 6
 STAT SP IPHASW D HRMM SECON CODA AMPLIT PERI AZIMU VELO AIN AR TRES W  DIS CAZ7
 BAR2 SZ EP       1351 18.02                             171   -0.1110 22.4 191 
 BAR2 SZ ES       1351 33.23                             171   -0.3310 22.4 191 
 BAR2 SZ I        1351 34.62        31.8 0.20            170           22.4 191 
 BRR  HZ EP       1351 19.83                             152    0.1410 71.8 299 
 BRR  HN ES       1351 37.29                             152    0.9610 71.8 299 
 PAM  SZ EP       1351 20.81                             151    0.0610 78.0  39 
 PAM  SN ES   1   1351 38.26                             151    0.04 7 78.0  39 
 PAM  SZ I        1351 39.60         6.7 0.18            154           78.0  39 
 RUS  HZ EP   1   1351 22.38                             145    0.21 7 99.6 176 
 RUS  HN ES       1351 40.50                             145   -0.2510 99.6 176 
 RUS  HZ I        1351 41.83         8.0 0.32            145           99.6 176 
 PTB  HZ EP   1   1351 24.93                             132   -0.51 7  148 259 
 PTB  HN ES   1   1351 45.76                             132   -0.80 7  148 259 
 PTB  HZ I        1351 49.77         8.5 0.10            132            148 259 
 ZAR  HZ EP   1   1351 31.69                             123    0.74 6  205 292 
 NOR  HZ EP   1   1351 34.94                             119    0.81 6  234 235 
 NOR  HN ES   1   1352  2.05                             119    0.03 6  234 235 
 NOR  HZ I        1352  6.32         6.5 0.22            119            234 235 
 SML  HZ EP   1   1351 34.49                             118   -0.67 6  245 335 
 SML  HN ES   1   1352  2.88                             118   -0.99 6  245 335 
 SML  HZ I        1352  5.56        16.0 0.10            118            245 335 
 CHI  HZ EP   2   1351 36.09                             118    0.05 4  248 195 
                                                                                
