 2016 1224 1826 15.1 L   7.311 -73.437109.4  RSN  5 0.2 1.2LRSN                1
 GAP=214        0.62       5.8     3.8  8.0 -0.1296E+02  0.1713E+02 -0.1755E+02E
 Epicentro: SABANA DE TORRES - SANTANDER                                       3
 ACTION:UPD 17-01-11 20:18 OP:rebc STATUS:               ID:20161224182615 L   I
 OLDACT:UP  16-12-25 00:39 OP:dani STATUS:               ID:20161224181744d    3
 OLDACT:UP  16-12-25 00:38 OP:dani STATUS:               ID:20161224181744d    3
 OLDACT:UP  16-12-25 00:38 OP:dani STATUS:               ID:20161224181744d    3
 OLDACT:UP  16-12-25 00:38 OP:dani STATUS:               ID:20161224181744d    3
 OLDACT:DUP 16-12-25 00:35 OP:dani STATUS:               ID:20161224181744d    3
 OLDACT:REG 16-12-24 21:25 OP:edw  STATUS:               ID:20161224181743     3
 2016-12-24-1818-00M.COL___381                                                 6
 STAT SP IPHASW D HRMM SECON CODA AMPLIT PERI AZIMU VELO AIN AR TRES W  DIS CAZ7
 BRR  HZ EP       1826 30.30                             159   -0.2110 37.8 233 
 PAM  EZ EP       1826 34.19                             141    0.2910 81.5  88 
 PAM  EE ES       1826 48.56                             141   -0.0110 81.5  88 
 PAM  EZ I        1826 50.34         4.8 0.18             47           81.5  88 
 BAR2 EZ EP       1826 33.66                             140   -0.1010 84.3 160 
 BAR2 EZ ES       1826 48.22                             140   -0.1110 84.3 160 
 BAR2 EZ I        1826 49.07        10.0 0.37             47           84.3 160 
 PTB  HZ EP       1826 38.41                             123   -0.29 9  141 233 
 PTB  HN ES       1826 57.49                             123    0.37 9  141 233 
 PTB  HZ I        1827  2.65         2.1 0.24             47            141 233 
 ZAR  HN ES   4   1827  3.39                             120    3.17 0  158 277 
 RUS  HZ EP   2   1826 41.83                             120    0.39 5  162 166 
 RUS  HZ I        1827  3.19         0.9 0.26             37            162 166 
                                                                                
