 2014  324 1247 13.8 L   6.654 -73.632108.6  RSN  5 0.3 1.8LRSN                1
 GAP=196        0.68       4.6     3.0  6.9 -0.4593E+00  0.9537E+01  0.3194E+01E
 Epicentro: EL CARMEN DE CHUCURI - SANTANDER                                   3
 ACTION:UPD 14-04-09 23:20 OP:nd   STATUS:               ID:20140324124713 L   I
 OLDACT:UP  14-03-24 16:53 OP:mh   STATUS:               ID:20140324123813     3
 OLDACT:REG 14-03-24 14:50 OP:mh   STATUS:               ID:20140324123813     3
 2014-03-24-1238-13M.COL___243                                                 6
 STAT SP IPHASW D HRMM SECON CODA AMPLIT PERI AZIMU VELO AIN AR TRES W  DIS CAZ7
 BAR2 SZ EP       1247 29.84                             153   -0.2310 50.1  98 
 BAR2 SZ ES       1247 43.15                             153    0.3710 50.1  98 
 BAR2 SZ I        1247 44.42        70.3 0.42            162           50.1  98 
 PTB  HZ EP     C 1247 32.92                             136    0.2010 92.1 262 
 PTB  HN ES       1247 47.14                             136   -0.3410 92.1 262 
 PTB  HZ I        1247 52.66         8.2 0.25            138           92.1 262 
 RUS  HE ES       1247 50.22                             133   -0.2210  104 144 
 SPBC HE ES   1   1247 52.31                             128   -0.02 7  121 204 
 NOR  HZ EP       1247 41.75                             116   -0.03 9  182 229 
 NOR  HE ES       1248  3.93                             116    0.32 9  182 229 
 NOR  HZ I        1248  6.69         3.8 0.15            120            182 229 
                                                                                
