 2011  524 1927 42.1 L   6.756 -73.127139.4  RSN 11 0.3 2.8LRSN                1
 GAP=141        0.67       2.4     4.2  4.1 -0.4260E+01  0.4603E+01 -0.1093E+01E
 Epicentro: LOS SANTOS - SANTANDER                                             3
 ACTION:UP  11-06-29 08:55 OP:tino STATUS:               ID:20110524192742 L   I
 2011-05-24-1926-02S.COL___139                                                 6
 STAT SP IPHASW D HRMM SECON CODA AMPLIT PERI AZIMU VELO SNR AR TRES W  DIS CAZ7
 BAR2 SZ IP       1928  1.18                             172     0.310   19 199 
 BAR2 SZ I        1928  1.51       150.0 0.08                            19 199 
 BAR2 SZ ES       1928 15.34                             172    -0.210   19 199 
 BRR  HZ IP     C 1928  3.07                             150     0.210   75 301 
 BRR  HZ I        1928  3.59       244.5 0.08                            75 301 
 BRR  HE ES   1   1928 19.71                             150     0.7 7   75 301 
 PAM  SZ IP     D 1928  4.04                             149     0.210   80  36 
 PAM  SN ES   1   1928 20.62                             149    -0.2 7   80  36 
 RUS  HZ EP       1928  5.13                             144     0.210   96 177 
 RUS  HN ES       1928 22.46                             144    -0.210   96 177 
 RUS  HZ I        1928 24.78        62.7 0.33                            96 177 
 BRI  SZ EP       1928  5.80                             139     0.110  112  19 
 BRI  SZ ES   1   1928 23.91                             139    -0.2 7  112  19 
 GRA  SZ IP       1928  7.16                             134     0.010  130  16 
 GRA  SZ ES   1   1928 26.32                             134    -0.4 7  130  16 
 GRA  SZ I        1928 27.79       106.8 0.37                           130  16 
 OCA  SZ EP   1   1928 10.31                             127    -0.1 7  165 353 
 OCA  SZ ES   1   1928 32.24                             127    -0.3 7  165 353 
 OCA  SZ I        1928 33.88        83.0 0.37                           165 353 
 NOR  SZ EP   1   1928 17.11                             117    -0.3 6  234 236 
 NOR  SN ES   1   1928 44.53                             117    -0.3 6  234 236 
 TOL  SZ EP   2   1928 30.10                             108     0.2 3  342 225 
 DBB  SZ EP   1   1928 29.35                             108    -0.3 5  342 275 
 PRA  HZ EP   1   1928 35.27                             105     0.2 4  389 210 
 PRA  HN ES   2   1929 15.54                             105    -0.8 3  389 210 
                                                                                
