 2010  124 1544 11.5 L   6.791 -73.073149.6  RSN 11 0.3 2.4LRSN                1
 GAP=190        0.74       2.7     7.2  4.8 -0.2768E+01  0.1738E+02  0.9529E+00E
 Epicentro: LOS SANTOS - SANTANDER                                             3
 ACTION:UP  10-08-24 09:45 OP:vdl  STATUS:               ID:20100124154411 L   I
 2010-01-24-1540-46S.COL___095                                                 6
 STAT SP IPHASW D HRMM SECON CODA AMPLIT PERI AZIMU VELO SNR AR TRES W  DIS CAZ7
 BAR2 SZ IP       1544 31.71                             170     0.010   25 209 
 BAR2 SZ ES       1544 46.99                             170    -0.410   25 209 
 GIR2 SZ ES   1   1544 48.19                             166     0.7 7   35 337 
 RUS  BZ IP       1544 35.55                             145     0.010   99 181 
 RUS  BN ES       1544 54.32                             145     0.010   99 181 
 RUS  BZ I        1544 55.58        21.4 0.42                            99 181 
 OCA  SZ IP       1544 40.05                             130    -0.3 9  162 350 
 OCA  SZ ES       1545  2.88                             130     0.1 9  162 350 
 OCA  SZ I        1545  9.04        47.8 0.14                           162 350 
 CHI  HZ IP       1544 49.75                             118     0.2 8  250 197 
 CHI  HE ES   1   1545 19.24                             118     0.0 6  250 197 
 CHI  HZ I        1545 28.58         8.7 0.60                           250 197 
 ROSC BN ES   2   1545 20.78                             117     0.4 4  256 213 
 ROSC BZ I        1545 28.15        17.0 0.37                           256 213 
 HEL  HZ EP   2   1544 53.33                             115     0.5 4  280 256 
 HEL  HN ES   2   1545 24.43                             115    -0.5 4  280 256 
 HEL  HZ I        1545 32.80         5.5 0.39                           280 256 
 RREF BZ IP       1544 59.24                             111     0.8 7  327 230 
 RREF BE ES   2   1545 34.94                             111    -0.2 3  327 230 
 RREF BZ I        1545 44.22        11.2 0.38                           327 230 
 DBB  SZ EP   1   1544 59.74                             110    -0.4 5  348 274 
 TOL  SZ IP       1545  0.49                             110     0.0 6  349 226 
 PRA  HZ IP       1545  5.32                             107    -0.2 6  395 211 
 PRA  HE ES   1   1545 47.37                             107    -0.3 4  395 211 
 PRA  HZ I        1545 53.39        13.9 0.39                           395 211 
                                                                                
