 2016  324 1011 40.6 L   6.806 -73.175143.4  RSN 13 0.3 1.9LRSN                1
 GAP=109        0.65       2.5     2.1  3.9 -0.3559E+00  0.1978E+01  0.3001E+00E
 Epicentro: LOS SANTOS - SANTANDER                                             3
 ACTION:UPD 16-05-13 21:27 OP:cam  STATUS:               ID:20160324101140 L   I
 OLDACT:REG 16-03-24 22:04 OP:dnl  STATUS:               ID:20160324100748     3
 2016-03-24-1007-48M.COL___292                                                 6
 STAT SP IPHASW D HRMM SECON CODA AMPLIT PERI AZIMU VELO AIN AR TRES W  DIS CAZ7
 BAR2 EZ IP       1012  0.07                             170    0.0810 23.7 182 
 BAR2 EZ ES       1012 14.70                             170   -0.3810 23.7 182 
 BAR2 EZ I        1012 16.63        22.1 0.14            170           23.7 182 
 PAM  EZ EP       1012  2.87                             150    0.1810 79.0  42 
 PAM  EN ES       1012 20.01                             150    0.1110 79.0  42 
 PAM  EZ I        1012 22.20        25.9 0.52            147           79.0  42 
 RUS  HZ EP   2   1012  4.22                             143   -0.01 5  102 174 
 RUS  HE ES       1012 22.93                             143    0.3110  102 174 
 RUS  HZ I        1012 23.93        16.2 0.32            141            102 174 
 PTB  HZ EP       1012  6.67                             132   -0.46 9  145 258 
 PTB  HN ES       1012 27.69                             132   -0.11 9  145 258 
 PTB  HZ I        1012 30.43         8.0 0.14            128            145 258 
 TAM  HZ EP       1012  8.42                             129   -0.02 9  158 105 
 TAM  HN ES       1012 29.96                             129   -0.16 9  158 105 
 TAM  HZ I        1012 44.74         2.9 0.25            127            158 105 
 SPBC HZ EP       1012  8.89                             129    0.08 9  162 218 
 SPBC HN ES       1012 30.65                             129   -0.14 9  162 218 
 SPBC HZ I        1012 32.82        16.1 0.18            125            162 218 
 ZAR  HZ EP   2   1012 12.93                             122    0.34 4  201 292 
 ZAR  HN ES       1012 38.14                             122    0.63 9  201 292 
 ZAR  HZ I        1012 43.79         6.9 0.16            119            201 292 
 NOR  HZ EP   3   1012 16.02                             118    0.03 2  232 234 
 NOR  HN ES   3   1012 43.15                             118   -0.41 2  232 234 
 NOR  HZ I        1012 49.71         9.2 0.18            115            232 234 
 CHI  HZ EP       1012 18.33                             117    0.14 8  248 194 
 CHI  HN ES       1012 47.69                             117    0.21 8  248 194 
 CHI  HZ I        1012 57.46         5.8 0.40            114            248 194 
 HEL  HZ EP   2   1012 20.74                             115    0.34 4  269 255 
 HEL  HE ES   3   1012 51.63                             115    0.22 2  269 255 
 HEL  HZ I        1012 59.76         4.4 0.28            111            269 255 
 URE  HZ EP       1012 20.52                             113   -0.71 7  281 292 
 URE  HN ES   4   1012 50.86                             113   -2.02 0  281 292 
 URE  HZ I        1013 10.76         3.4 0.34            110            281 292 
 GUY2CHZ EP   4   1012 25.11                             112    1.22 0  299 234 
 GUY2CHN ES   4   1012 59.61                             112    1.99 0  299 234 
 GUY2CHZ I        1013  6.23         5.6 0.32                           299 234 
 SOCV BZ EP   4   1012 21.79                             111   -2.05 0  304  57 
 SOCV BN ES   4   1012 54.06                             111   -3.48 0  304  57 
 ORTC HZ EP   2   1012 34.50                             106    0.18 3  394 216 
 ORTC HN ES   4   1013 17.93                             106    1.74 0  394 216 
 ORTC HZ I        1013 23.05         2.8 0.38            104            394 216 
                                                                                
