 2014  924 1038 20.4 L   6.759 -73.121141.2  RSN  9 0.4 1.5LRSN                1
 GAP=142        0.96       3.7     4.3  6.3 -0.1556E+01  0.5642E+01 -0.1057E+01E
 Epicentro: LOS SANTOS - SANTANDER                                             3
 ACTION:UPD 14-10-03 23:08 OP:nd   STATUS:               ID:20140924103820 L   I
 OLDACT:DUP 14-09-24 21:02 OP:spq  STATUS:               ID:20140924102821d    3
 2014-09-24-1028-20M.COL___284                                                 6
 STAT SP IPHASW D HRMM SECON CODA AMPLIT PERI AZIMU VELO AIN AR TRES W  DIS CAZ7
 BAR2 SZ EP     C 1038 39.38                             172   -0.0410 19.6 200 
 BAR2 SZ ES   1   1038 53.67                             172   -0.58 7 19.6 200 
 BAR2 SZ I        1038 55.46         5.9 0.36            171           19.6 200 
 BRR  HZ EP       1038 41.17                             150   -0.1710 75.8 301 
 BRR  HN ES       1038 58.44                             150    0.7710 75.8 301 
 BRR  HZ I        1038 59.36         9.5 0.22            149           75.8 301 
 PAM  SZ EP       1038 42.25                             149   -0.0110 79.3  36 
 PAM  SN ES   1   1038 59.05                             149   -0.26 7 79.3  36 
 PAM  SZ I        1039  1.43         4.7 0.52            153           79.3  36 
 RUS  HZ EP   1   1038 43.43                             144    0.06 7 95.9 177 
 RUS  HE ES   1   1039  2.06                             144    0.77 7 95.9 177 
 RUS  HZ I        1039  3.02         2.5 0.34            147           95.9 177 
 PTB  HZ EP       1038 46.43                             131   -0.75 9  150 261 
 PTB  HE ES       1039  7.66                             131   -0.40 9  150 261 
 PTB  HZ I        1039 14.56         4.1 0.26            131            150 261 
 SPBC HZ EP       1038 48.54                             128    0.15 9  161 221 
 SPBC HE ES       1039  9.99                             128   -0.23 9  161 221 
 SPBC HZ I        1039 12.91         3.6 0.24            130            161 221 
 ZAR  HZ EP       1038 53.58                             121    0.57 8  208 293 
 ZAR  HE ES       1039 18.38                             121   -0.05 8  208 293 
 ZAR  HZ I        1039 24.12         3.7 0.32            122            208 293 
 SML  HZ EP   1   1038 57.73                             116    0.37 6  249 335 
 SML  HN ES   1   1039 26.04                             116   -0.14 6  249 335 
 SML  HZ I        1039 28.71         3.2 0.10            118            249 335 
 GUY2CHZ EP   1   1039  3.68                             112   -0.09 5  301 236 
 GUY2CHN ES   1   1039 37.92                             112    0.33 5  301 236 
 GUY2CHZ I        1039 44.56         1.1 0.46                           301 236 
                                                                                
