 2010  524 1605 46.4 L   6.858 -73.100134.4  RSN 13 0.5 3.2LRSN                1
 GAP=145        1.07       4.9     9.2  8.8 -0.2285E+02  0.2473E+02 -0.2993E+00E
 Epicentro: LOS SANTOS - SANTANDER                                             3
 ACTION:UP  10-08-24 10:06 OP:vdl  STATUS:               ID:20100524160546 L   I
 2010-05-24-1602-58S.COL___111                                                 6
 STAT SP IPHASW D HRMM SECON CODA AMPLIT PERI AZIMU VELO SNR AR TRES W  DIS CAZ7
 BAR2 SZ IP       16 6  5.25                             166     0.410   31 197 
 BAR2 SZ ES   1   16 6 18.93                             166    -0.3 7   31 197 
 GUE  SZ EP       16 6  9.83                             139     0.410  109  10 
 GRA  SZ IP       16 6  9.23                             136    -0.810  118  16 
 OCA  SZ EP       16 6 13.55                             128     0.3 9  155 351 
 OCA  SZ ES   2   16 6 34.99                             128     0.7 5  155 351 
 OCA  SZ I        16 6 40.03       195.0 0.36                           155 351 
 CHI  HZ EP       16 6 23.90                             114    -0.4 8  256 196 
 CHI  HN ES   1   16 6 53.73                             114    -0.2 6  256 196 
 CHI  HZ I        16 6 57.22        42.1 0.25                           256 196 
 ROSC BZ EP       16 6 25.03                             113     0.2 8  261 211 
 ROSC BZ I        16 7  1.29        75.2 0.27                           261 211 
 HEL  HZ EP   1   16 6 26.55                             112    -0.2 6  279 255 
 HEL  HN ES   2   16 6 57.76                             112    -0.5 4  279 255 
 HEL  HZ I        16 7  4.62        76.3 0.47                           279 255 
 CVER SZ EP       16 6 27.14                             112     0.1 7  280 203 
 RREF BZ EP       16 6 33.74                             108     0.8 7  330 229 
 RREF BZ I        16 7 15.87       108.7 0.15                           330 229 
 DBB  SZ EP       16 6 33.16                             107    -0.8 7  344 273 
 SDV  BZ EP   1   16 6 34.73                             107    -0.4 5  352  50 
 ANIL BZ EP   1   16 6 37.47                             106     0.7 5  365 224 
 PRA  HN ES   2   16 7 22.30                             104    -0.4 3  400 210 
 PRA  HZ I        16 7 30.40        57.4 0.62                           400 210 
                                                                                
