 2013  124 1124 31.5 L   6.814 -73.183139.2  RSN  7 0.3 1.8LRSN                1
 GAP=131        0.67       3.7     4.1  6.6  0.4101E+00  0.8148E+01  0.3510E+01E
 Epicentro: ZAPATOCA - SANTANDER                                               3
 ACTION:UPD 13-02-15 09:16 OP:ep   STATUS:               ID:20130124112431 L   I
 2013-01-24-1120-00M.COL___241                                                 6
 STAT SP IPHASW D HRMM SECON CODA AMPLIT PERI AZIMU VELO AIN AR TRES W  DIS CAZ7
 BAR2 SZ EP   1   1124 50.32                             169   -0.02 7 24.6 180 
 BAR2 SZ ES   1   1125  4.96                             169   -0.10 7 24.6 180 
 BRR  HZ EP   1   1124 52.05                             153    0.39 7 66.8 299 
 BRR  HN ES   4   1125  8.98                             153    1.56 0 66.8 299 
 BRR  HZ I        1125 12.72        14.2 0.16            151           66.8 299 
 PAM  SZ EP   1   1124 53.21                             149    0.12 7 78.9  43 
 PAM  SN ES   1   1125  9.84                             149   -0.11 7 78.9  43 
 PAM  SZ I        1125 12.15        20.9 0.48            153           78.9  43 
 RUS  HZ EP   1   1124 54.41                             142   -0.32 7  103 174 
 RUS  HN ES   1   1125 13.10                             142    0.23 7  103 174 
 RUS  HZ I        1125 14.28         9.0 0.34            146            103 174 
 PTB  HZ EP   1   1124 56.80                             131   -0.77 7  144 258 
 PTB  HN ES   1   1125 17.63                             131   -0.29 7  144 258 
 PTB  HZ I        1125 19.45         7.4 0.20            132            144 258 
 ZAR  HN ES   1   1125 28.19                             121    0.53 6  200 292 
 ZAR  HZ I        1125 34.66         9.9 0.44            123            200 292 
 CHI  HZ EP   1   1125  9.07                             116    0.21 6  249 194 
 CHI  HN ES   1   1125 38.38                             116    0.35 6  249 194 
 CHI  HZ I        1125 41.64         2.6 0.60            119            249 194 
                                                                                
