 2012  424 1540 52.6 L   6.759 -73.121146.0  RSN 11 0.4 2.1LRSN                1
 GAP=142        0.83       4.3     4.9  6.1 -0.2209E+01  0.1007E+02  0.9545E+00E
 Epicentro: LOS SANTOS - SANTANDER                                             3
 ACTION:UPD 12-07-05 11:55 OP:tino STATUS:               ID:20120424154052 L   I
 2012-04-24-1540-00M.COL___186                                                 6
 STAT SP IPHASW D HRMM SECON CODA AMPLIT PERI AZIMU VELO AIN AR TRES W  DIS CAZ7
 BAR2 SZ EP       1541 12.15                             172     0.010   20 200 
 BAR2 SZ ES   1   1541 27.66                             172     0.2 7   20 200 
 BAR2 SZ I        1541 28.09        27.0 0.10                            20 200 
 BRR  HZ EP       1541 14.16                             151     0.110   76 301 
 BRR  HN ES   1   1541 31.18                             151     0.4 7   76 301 
 BRR  HZ I        1541 32.97        34.0 0.21                            76 301 
 PAM  SZ EP       1541 15.14                             150     0.210   79  36 
 PAM  SE ES   1   1541 32.06                             150    -0.3 7   79  36 
 RUS  HZ EP   1   1541 15.99                             145    -0.1 7   96 177 
 RUS  HN ES   1   1541 34.24                             145    -0.1 7   96 177 
 RUS  HZ I        1541 35.88        15.8 0.17                            96 177 
 PTB  HZ EP   1   1541 18.69                             132    -1.1 7  150 261 
 PTB  HZ I        1541 42.92        10.0 0.17                           150 261 
 OCA  SZ EP   1   1541 21.28                             129    -0.1 7  165 352 
 ZAR  HZ EP   1   1541 25.10                             122    -0.4 6  208 293 
 ZAR  HE ES   1   1541 51.42                             122     0.3 6  208 293 
 ZAR  HZ I        1541 56.93        16.3 0.53                           208 293 
 NOR  SZ EP   1   1541 28.82                             119     0.5 6  234 236 
 NOR  SE ES   1   1541 55.80                             119    -0.4 6  234 236 
 CHI  HZ EP   2   1541 30.61                             118     0.7 4  245 196 
 HEL  HZ EP   1   1541 33.26                             115     0.3 6  274 257 
 HEL  HZ I        1542 11.11         9.2 0.61                           274 257 
 PRA  HZ EP   1   1541 46.17                             107     0.3 4  389 210 
                                                                                
