 2013  724 1213 45.5 L   6.754 -73.158145.3  RSN  7 0.4 2.2LRSN                1
 GAP=232        0.80       4.8     5.4  6.2  0.1312E+02  0.9707E+01  0.5820E+01E
 Epicentro: LOS SANTOS - SANTANDER                                             3
 ACTION:UPD 13-08-12 10:39 OP:ep   STATUS:               ID:20130724121345 L   I
 OLDACT:REG 13-07-24 16:49 OP:stll STATUS:               ID:20130724120852     3
 2013-07-24-1208-52M.COL___234                                                 6
 STAT SP IPHASW D HRMM SECON CODA AMPLIT PERI AZIMU VELO AIN AR TRES W  DIS CAZ7
 BAR2 SZ EP       1214  4.81                             173   -0.1210 18.0 189 
 BAR2 SZ ES   1   1214 20.29                             173    0.16 7 18.0 189 
 BAR2 SZ I        1214 22.29        18.2 0.28            163           18.0 189 
 BRR  HZ EP   1   1214  6.69                             152    0.06 7 72.6 303 
 BRR  HN ES       1214 23.43                             152    0.2810 72.6 303 
 BRR  HN I        1214 24.28        39.6 0.28            148           72.6 303 
 RUS  HZ EP   1   1214  8.66                             145   -0.14 7 95.6 175 
 RUS  HN ES       1214 26.90                             145   -0.1110 95.6 175 
 RUS  HN I        1214 28.99        17.5 0.30            142           95.6 175 
 PTB  HZ EP   1   1214 11.69                             132   -0.49 7  145 261 
 PTB  HN ES   1   1214 32.31                             132   -0.71 7  145 261 
 PTB  HZ I        1214 39.95        14.8 0.48            129            145 261 
 ZAR  HZ EP   1   1214 18.64                             122    0.69 6  205 294 
 ZAR  HE ES       1214 43.10                             122   -0.19 9  205 294 
 ZAR  HE I        1214 48.99        28.8 0.20            122            205 294 
 NOR  HZ EP   1   1214 20.29                             119   -0.43 6  231 235 
 NOR  HN ES   1   1214 49.09                             119    0.86 6  231 235 
 NOR  HN I        1214 54.75        22.9 0.18            117            231 235 
 CHI  HZ EP   1   1214 23.12                             118    0.57 6  243 195 
 CHI  HN ES   2   1214 51.48                             118   -0.00 4  243 195 
 CHI  HN I        1214 55.89         9.9 0.22            117            243 195 
                                                                                
