 2017  924 1247 49.6 L   6.806 -73.119141.7  RSN  8 0.4 1.8LRSN                1
 GAP=215        0.92       4.1     4.7  5.8  0.9581E+01  0.7602E+01  0.6547E+01E
 Epicentro: LOS SANTOS - SANTANDER                                             3
 ACTION:UPD 17-10-05 19:15 OP:rebc STATUS:               ID:20170924124749 L   I
 OLDACT:DUP 17-09-24 21:46 OP:lv   STATUS:               ID:20170924123430d    3
 OLDACT:REG 17-09-24 19:46 OP:lv   STATUS:               ID:20170924123429     3
 2017-09-24-1238-00M.COL___408                                                 6
 STAT SP IPHASW D HRMM SECON CODA AMPLIT PERI AZIMU VELO AIN AR TRES W  DIS CAZ7
 BAR2 EZ EP       1248  8.65                             170   -0.1510 24.7 196 
 BAR2 EZ ES       1248 23.51                             170   -0.2410 24.7 196 
 BAR2 EZ I        1248 24.87        15.9 0.20            168           24.7 196 
 BRR  HZ EP       1248 10.76                             151    0.2910 73.5 297 
 BRR  HN ES       1248 27.55                             151    0.8310 73.5 297 
 RUS  HZ EP       1248 13.16                             143    0.1310  101 178 
 RUS  HN ES       1248 30.93                             143   -0.3410  101 178 
 RUS  HZ I        1248 32.96         6.5 0.42            142            101 178 
 YPLC HZ EP       1248 19.27                             126    0.21 9  176 152 
 YPLC HN ES       1248 41.81                             126   -0.20 9  176 152 
 YPLC HZ I        1248 45.53         6.4 0.50            126            176 152 
 ZAR  HZ EP       1248 21.47                             121   -0.60 8  207 292 
 ZAR  HE ES       1248 46.94                             121   -0.43 8  207 292 
 ZAR  HZ I        1248 53.40         7.6 0.28            121            207 292 
 NOR  HZ EP       1248 25.50                             117    0.07 8  237 235 
 NOR  HN ES       1248 52.95                             117   -0.40 8  237 235 
 NOR  HZ I        1248 55.22         3.0 0.20            117            237 235 
 CHI  HN ES       1248 56.83                             116    0.21 8  250 196 
 PRA  HZ EP       1248 43.61                             106    0.35 6  394 210 
 PRA  HN ES       1249 25.63                             106    0.54 6  394 210 
 PRA  HZ I        1249 30.26         2.3 0.32            106            394 210 
                                                                                
