 2010  624 1644 33.9 L   6.771 -73.052147.2  RSN  4 0.4 1.6LRSN                1
 GAP=167        0.70       7.4    14.0 11.9  0.3627E+02 -0.7836E+02 -0.3456E+02E
 Epicentro: LOS SANTOS - SANTANDER                                             3
 ACTION:UP  10-08-24 10:12 OP:vdl  STATUS:               ID:20100624164433 L   I
 2010-06-24-1641-32S.COL___118                                                 6
 STAT SP IPHASW D HRMM SECON CODA AMPLIT PERI AZIMU VELO SNR AR TRES W  DIS CAZ7
 BAR2 SZ EP   1   1644 53.57                             171    -0.1 7   25 216 
 BAR2 SZ ES   2   1645  8.47                             171    -0.7 5   25 216 
 BRR  HZ EP   1   1644 55.63                             150    -0.2 7   82 297 
 BRR  HZ I        1644 57.10        17.4 0.14                            82 297 
 BRR  HN ES   2   1645 13.31                             150     0.4 5   82 297 
 RUS  HZ EP   1   1644 57.41                             145    -0.1 7   97 182 
 RUS  HZ I        1644 58.03         2.8 0.21                            97 182 
 RUS  HE ES   2   1645 16.65                             145     0.7 5   97 182 
 BRI  SZ EP   1   1644 58.15                             142     0.3 7  108  15 
                                                                                
