 2013  624 1043 11.8 L   6.839 -73.158139.9  RSN  8 0.5 1.9LRSN                1
 GAP=182        1.00       4.6     7.1  8.5  0.1392E+01  0.1545E+02 -0.1116E+02E
 Epicentro: LOS SANTOS - SANTANDER                                             3
 ACTION:UPD 14-01-08 09:56 OP:ep   STATUS:               ID:20130624104311 L   I
 OLDACT:REG 13-06-24 17:44 OP:carl STATUS:               ID:20130624103959     3
 2013-06-24-1039-59M.COL___267                                                 6
 STAT SP IPHASW D HRMM SECON CODA AMPLIT PERI AZIMU VELO AIN AR TRES W  DIS CAZ7
 GIR2 SZ EP       1043 30.83                             169    0.1410 26.8 352 
 BAR2 SZ EP       1043 30.91                             168    0.0610 27.4 186 
 BAR2 SZ ES   1   1043 45.54                             168   -0.15 7 27.4 186 
 BAR2 SZ I        1043 47.26        12.6 0.18            168           27.4 186 
 BRR  HZ EP       1043 32.69                             153    0.5210 68.0 296 
 BRR  HN ES   1   1043 48.34                             153    0.31 7 68.0 296 
 BRR  HN I        1043 49.88        13.2 0.18            149           68.0 296 
 RUS  HN ES   1   1043 53.60                             141   -0.08 7  105 175 
 RUS  HZ I        1043 55.36         6.6 0.32            145            105 175 
 PTB  HZ EP       1043 37.51                             131   -0.78 9  147 257 
 PTB  HN ES   1   1043 58.41                             131   -0.52 7  147 257 
 PTB  HZ I        1044  3.55         6.1 0.16            131            147 257 
 OCA  HN ES       1044  0.39                             129   -0.28 9  156 353 
 OCA  HN I        1044  4.77        43.8 0.22            131            156 353 
 ZAR  HZ EP       1043 44.21                             121    0.60 9  201 291 
 ZAR  HE ES   2   1044  9.48                             121    1.09 4  201 291 
 ZAR  HZ I        1044 14.70         5.2 0.34            122            201 291 
 SML  HZ EP       1043 47.69                             117    0.04 8  239 335 
 SML  HN ES   1   1044 14.88                             117   -0.70 6  239 335 
 SML  HZ I        1044 18.50         7.4 0.28            118            239 335 
                                                                                
