 2012  324 1427 36.8 L   6.703 -73.142152.0  RSN  5 0.2 1.4LRSN                1
 GAP=141        0.54       6.3     4.8  7.3  0.1334E+01 -0.7086E+01 -0.1174E+02E
 ACTION:UP  12-03-31 23:22 OP:EP   STATUS:               ID:20120324142736 L   I
 2012-03-24-1420-00M.COL___196                                                 6
 STAT SP IPHASW D HRMM SECON CODA AMPLIT PERI AZIMU VELO SNR AR TRES W  DIS CAZ7
 BAR2 SZ EP   1   1427 56.98                             175     0.0 7   13 200 
 BAR2 SZ ES   2   1428 12.29                             175    -0.5 5   13 200 
 BAR2 SZ I        1428 15.16         4.6 0.24                            13 200 
 BRR  HZ EP       1427 59.06                             152     0.110   77 305 
 BRR  HZ I        1427 59.40        13.3 0.22                            77 305 
 BRR  HN ES   1   1428 16.48                             152     0.2 7   77 305 
 PAM  SZ EP   1   1428  0.08                             149    -0.1 7   86  35 
 RUS  HN ES   2   1428 19.31                             148     0.4 5   90 176 
 RUS  HZ I        1428 21.09         2.0 0.39                            90 176 
 PTB  HZ EP   2   1428  4.14                             134     0.0 5  146 263 
 PTB  HN ES   1   1428 25.29                             134    -0.2 7  146 263 
 PTB  HZ I        1428 31.21         2.5 0.36                           146 263 
                                                                                
