 2011 1024 1902 33.2 L   6.787 -73.089139.8  RSN  7 0.4 1.7LRSN                1
 GAP=145        0.88       5.4     6.4  7.3  0.4601E+01  0.9574E+01 -0.2648E+01E
 Epicentro: LOS SANTOS - SANTANDER                                             3
 ACTION:UPD 12-07-13 16:05 OP:ep   STATUS:               ID:20111024190233 L   I
 2011-10-24-1900-00M.COL___175                                                 6
 STAT SP IPHASW D HRMM SECON CODA AMPLIT PERI AZIMU VELO AIN AR TRES W  DIS CAZ7
 BAR2 SZ EP       19 2 51.57                             170   -0.5210 23.9 206 
 BAR2 SZ ES   1   19 3  7.14                             170    0.29 7 23.9 206 
 BAR2 SZ I        19 3 10.26         6.7 0.12                          23.9 206 
 BTL  SZ EP       19 2 52.16                             169    0.0510 24.5 306 
 BTL  SZ ES   3   19 3  7.18                             169    0.30 2 24.5 306 
 GIR2 SZ EP       19 2 51.90                             165   -0.3210 34.3 340 
 PAM  SZ EP       19 2 54.70                             151    0.1110 74.7  35 
 PAM  SE ES   1   19 3 11.56                             151    0.26 7 74.7  35 
 BRR  HZ EP       19 2 53.66                             149   -0.3910 77.4 297 
 BRR  HZ I        19 2 55.05        16.2 0.12                          77.4 297 
 BRR  HN ES   1   19 3 10.49                             149    0.15 7 77.4 297 
 RUS  HZ EP       19 2 56.31                             143    0.1010 98.9 180 
 RUS  HN ES   1   19 3 14.32                             143    0.13 7 98.9 180 
 RUS  HZ I        19 3 16.80         4.7 0.34                          98.9 180 
 ZAR  HZ EP       19 3  6.80                             120    0.90 8  210 292 
 ZAR  HN ES   2   19 3 30.64                             120   -0.79 4  210 292 
 ZAR  HZ I        19 3 35.57         8.5 0.24                           210 292 
                                                                                
