 2012  924 1121 58.9 L   6.773 -73.127140.2  RSN 13 0.4 2.6LRSN                1
 GAP=140        0.78       3.2     3.7  5.5 -0.1822E+01  0.4486E+01  0.5604E+01E
 Epicentro: LOS SANTOS - SANTANDER                                             3
 ACTION:UPD 12-10-22 14:20 OP:ep   STATUS:               ID:20120924112158 L   I
 2012-09-24-1120-00M.COL___221                                                 6
 STAT SP IPHASW D HRMM SECON CODA AMPLIT PERI AZIMU VELO AIN AR TRES W  DIS CAZ7
 BAR2 SZ EP       1122 17.83                             171   -0.0110 20.9 197 
 BAR2 SZ ES   1   1122 32.50                             171   -0.09 7 20.9 197 
 GIR2 SZ EP   1   1122 17.94                             165   -0.10 7 34.5 348 
 GIR2 SZ ES   1   1122 32.46                             165   -0.47 7 34.5 348 
 BRR  HZ EP       1122 19.73                             150    0.0610 74.4 300 
 BRR  HN ES   1   1122 36.68                             150    0.84 7 74.4 300 
 BRR  HN I        1122 37.14       195.6 0.28                          74.4 300 
 PAM  SZ EP       1122 20.76                             149    0.1410 78.4  37 
 PAM  SN ES   1   1122 37.57                             149    0.04 7 78.4  37 
 PAM  SN I        1122 38.68        65.7 0.24                          78.4  37 
 RUS  HZ EP       1122 21.69                             143   -0.2210 97.5 177 
 RUS  HZ I        1122 22.59        21.7 0.12                          97.5 177 
 RUS  HE ES   1   1122 40.10                             143    0.26 7 97.5 177 
 PTB  HN ES   1   1122 45.36                             130   -1.01 7  149 260 
 PTB  HN I        1122 51.07        42.7 0.28                           149 260 
 ZAR  HZ EP   1   1122 31.15                             121   -0.18 6  207 293 
 ZAR  HN ES   1   1122 56.93                             121    0.33 6  207 293 
 ZAR  HN I        1123  1.31        50.4 0.26                           207 293 
 NOR  SN ES   1   1123  1.79                             117   -0.17 6  235 235 
 CHI  HZ EP   1   1122 35.95                             116   -0.13 6  246 196 
 CHI  HN ES   1   1123  4.75                             116   -0.30 6  246 196 
 CHI  HN I        1123 10.77        23.3 0.50                           246 196 
 ROSC BN ES   1   1123  6.74                             116    0.77 6  251 212 
 HEL  HN ES   2   1123  9.53                             113   -0.73 4  273 257 
 HEL  HN I        1123 17.02        17.8 0.30                           273 257 
 RREF HZ EP   2   1122 45.22                             110    0.42 3  321 230 
 RREF HN ES   1   1123 21.38                             110    0.81 5  321 230 
 RREF HZ I        1123 24.98        14.8 0.70                           321 230 
 PRA  HZ EP   1   1122 51.88                             106   -0.20 4  390 210 
 PRA  HN ES   1   1123 33.62                             106    0.08 4  390 210 
 PRA  HN I        1123 40.01        11.2 0.70                           390 210 
                                                                                
