 2013  824 1839  1.3 L   6.789 -73.158145.1  RSN  7 0.6 1.9LRSN                1
 GAP=182        1.61       6.7    10.6 10.8  0.1182E+02  0.1026E+02 -0.5887E+01E
 Epicentro: LOS SANTOS - SANTANDER                                             3
 ACTION:UPD 14-01-14 09:06 OP:ep   STATUS:               ID:20130824183901 L   I
 OLDACT:REG 13-08-24 17:27 OP:stll STATUS:               ID:20130824183830     3
 2013-08-24-1838-30M.COL___268                                                 6
 STAT SP IPHASW D HRMM SECON CODA AMPLIT PERI AZIMU VELO AIN AR TRES W  DIS CAZ7
 BAR2 SZ EP       1839 20.79                             171   -0.0710 22.0 187 
 BAR2 SZ ES       1839 35.35                             171   -0.7410 22.0 187 
 BAR2 SZ I        1839 38.30        10.4 0.22            174           22.0 187 
 BRR  HZ EP       1839 23.30                             153    0.9210 70.6 300 
 BRR  HN ES       1839 40.01                             153    1.2210 70.6 300 
 BRR  HZ I        1839 42.64         8.8 0.16            152           70.6 300 
 RUS  HZ EP       1839 25.06                             144    0.1110 99.5 175 
 RUS  HN ES       1839 43.52                             144    0.1610 99.5 175 
 RUS  HZ I        1839 44.03         8.0 0.30            148           99.5 175 
 PTB  HZ EP       1839 27.57                             132   -0.54 9  146 259 
 PTB  HN ES       1839 48.30                             132   -0.69 9  146 259 
 PTB  HZ I        1839 51.37         8.0 0.18            134            146 259 
 SPBC HZ EP       1839 29.71                             129    0.09 9  161 219 
 OCA  HN ES       1839 51.06                             129   -0.75 9  161 354 
 OCA  HN I        1839 55.88        35.1 0.30            131            161 354 
 SML  HZ EP       1839 38.00                             117    0.02 8  244 336 
                                                                                
