 2017  924 1246 13.6 L   6.476 -73.505116.3  RSN 20 0.5 2.4LRSN                1
 GAP= 42        1.05       2.7     2.5  5.3  0.1498E+01  0.5152E+01  0.5487E+01E
 Epicentro: SIMACOTA - SANTANDER                                               3
 ACTION:UPD 17-10-05 19:15 OP:rebc STATUS:               ID:20170924124613 L   I
 OLDACT:REG 17-09-24 19:46 OP:lv   STATUS:               ID:20170924123429     3
 2017-09-24-1238-00M.COL___408                                                 6
 STAT SP IPHASW D HRMM SECON CODA AMPLIT PERI AZIMU VELO AIN AR TRES W  DIS CAZ7
 BAR2 EZ IP     D 1246 30.31                             161    0.1410 37.9  70 
 BAR2 EZ ES       1246 43.28                             161    0.1810 37.9  70 
 BRR  HZ EP       1246 31.48                             145   -0.3210 73.5 342 
 BRR  HN ES       1246 45.96                             145   -0.0510 73.5 342 
 BRR  HZ I        1246 46.59        65.6 0.10            149           73.5 342 
 RUS  HZ IP     D 1246 32.90                             143   -0.0310 79.6 144 
 RUS  HN ES       1246 47.29                             143   -0.7310 79.6 144 
 RUS  HZ I        1246 48.58        54.8 0.36            143           79.6 144 
 PAM  EZ EP       1246 37.39                             128    0.1210  131  43 
 PAM  EE ES       1246 55.74                             128   -0.0010  131  43 
 PAM  EZ I        1246 56.88        28.1 0.18            132            131  43 
 YPLC HZ IP     C 1246 41.42                             120    0.45 9  172 134 
 YPLC HN ES       1247  2.89                             120    0.57 9  172 134 
 YPLC HZ I        1247  5.13        62.8 0.32            121            172 134 
 NOR  HZ EP       1246 41.38                             118   -0.54 9  182 236 
 NOR  HN ES   4   1247  2.55                             118   -1.46 0  182 236 
 NOR  HZ I        1247  6.58        17.2 0.28            118            182 236 
 ZAR  HZ EP       1246 42.49                             117    0.04 9  187 307 
 ZAR  HE ES       1247  5.18                             117    0.22 9  187 307 
 ZAR  HZ I        1247 10.93        52.9 0.29            119            187 307 
 TAM  HZ EP       1246 43.06                             117    0.30 9  190  91 
 TAM  HN ES   4   1247  4.18                             117   -1.34 0  190  91 
 TAM  HZ I        1247  4.98        28.4 0.44            119            190  91 
 CHI  HZ EP       1246 45.38                             115    0.38 8  206 187 
 CHI  HN ES       1247 10.03                             115    0.52 8  206 187 
 CHI  HZ I        1247 15.02        12.4 0.38            115            206 187 
 HEL  HZ EP       1246 47.90                             112    0.67 8  226 262 
 HEL  HN ES       1247 13.29                             112   -0.18 8  226 262 
 HEL  HZ I        1247 19.98        16.6 0.26            113            226 262 
 GUY2CHZ EP   9   1246 51.19                             110    1.33 0  248 236 
 GUY2CHN ES       1247 20.12                                    0.64 8  248 236 
 GUY2CHZ I        1247 25.73        10.7 0.32                           248 236 
 VIL  EZ EP       1246 51.33                             109    0.28 8  262 185 
 VIL  EN ES   4   1247 21.00                             109    0.74 0  262 185 
 VIL  EZ I        1247 29.07        16.2 0.36            109            262 185 
 URE  HZ EP   9   1246 49.91                             108   -1.28 0  265 302 
 URE  HN ES       1247 18.54                                   -0.70 8  265 302 
 URE  HZ I        1247 20.87        45.6 0.12            110            265 302 
 CBOC HZ EP       1246 54.11                             107    0.30 7  286 256 
 CBOC HN ES       1247 25.47                             107    0.28 7  286 256 
 CBOC HZ I        1247 27.77         4.8 0.48            108            286 256 
 PTGC HZ EP       1246 53.84                             106   -0.75 7  294 149 
 PTGC HN ES       1247 25.29                             106   -1.27 7  294 149 
 PTGC HZ I        1247 32.21        12.5 0.22            107            294 149 
 DBB  EZ EP       1246 55.99                             105    0.02 7  305 281 
 DBB  EN ES       1247 28.19                             105   -0.83 7  305 281 
 DBB  EZ I        1247 30.72        12.3 0.32            106            305 281 
 PRA  HZ EP       1247  0.50                             103    0.25 7  342 207 
 PRA  HN ES       1247 37.09                             103    0.45 7  342 207 
 PRA  HZ I        1247 44.95        13.6 0.34            104            342 207 
 ORTC HZ EP       1246 59.63                             103   -0.80 7  343 214 
 ORTC HN ES       1247 36.86                             103   -0.11 7  343 214 
 ORTC HZ I        1247 43.05         5.4 0.15            104            343 214 
 SJC  HZ EP   4   1247  7.18                             100   -2.57 0  421 334 
 SJC  HN ES   4   1247 50.50                             100   -3.05 0  421 334 
 SJC  HZ I        1247 52.65         4.4 0.28            101            421 334 
 CRJC HE ES   4   1248 10.47                              97   -1.69 0  507   8 
 URI  HZ EP       1247 31.14                              95   -0.36 3  601  16 
 URI  HN ES   4   1248 28.97                              95   -3.30 0  601  16 
                                                                                
