 2012  624 1916 30.1 L   6.859 -73.160148.1  RSN 10 0.4 2.0LRSN                1
 GAP=132        0.69       3.4     3.9  5.6 -0.3018E+00  0.5456E+01  0.3062E+01E
 Epicentro: LOS SANTOS - SANTANDER                                             3
 ACTION:UPD 12-08-06 17:52 OP:ep   STATUS:               ID:20120624191630 L   I
 2012-06-24-1910-00M.COL___199                                                 6
 STAT SP IPHASW D HRMM SECON CODA AMPLIT PERI AZIMU VELO AIN AR TRES W  DIS CAZ7
 BAR2 SZ EP       1916 50.19                             168    0.0910 29.6 185 
 BAR2 SZ ES   1   1917  5.83                             168    0.10 7 29.6 185 
 BAR2 SZ I        1917  7.10        18.2 0.39                          29.6 185 
 BRR  HZ EP       1916 51.54                             154    0.3210 66.9 294 
 BRR  HZ I        1916 52.96        28.2 0.12                          66.9 294 
 BRR  HN ES   1   1917  8.39                             154    0.67 7 66.9 294 
 PAM  SZ EP   1   1916 52.10                             152   -0.19 7 73.5  44 
 PAM  SN ES   1   1917  9.14                             152   -0.49 7 73.5  44 
 RUS  HZ EP   1   1916 54.50                             142   -0.01 7  107 175 
 RUS  HN ES   1   1917 13.54                             142   -0.05 7  107 175 
 RUS  HZ I        1917 15.87         6.4 0.38                           107 175 
 PTB  HZ EP   1   1916 56.79                             132   -0.41 7  148 256 
 PTB  HN ES   1   1917 17.64                             132   -0.73 7  148 256 
 PTB  HZ I        1917 20.65        11.3 0.12                           148 256 
 OCA  HN ES   2   1917 19.33                             131   -0.34 5  154 353 
 ZAR  HZ EP   1   1917  2.74                             123    0.48 6  200 291 
 ZAR  HN ES   2   1917 27.29                             123   -0.09 4  200 291 
 ZAR  HZ I        1917 32.85        33.6 0.53                           200 291 
 NOR  SN ES   2   1917 34.33                             119   -0.05 4  237 233 
 CHI  HZ EP   1   1917  8.48                             117   -0.04 6  255 194 
 CHI  HN ES   1   1917 38.78                             117    0.26 6  255 194 
 CHI  HZ I        1917 44.39         5.9 0.31                           255 194 
 HEL  HN ES   2   1917 41.48                             115   -0.39 4  272 254 
                                                                                
