 2016  824 1012 17.5 L   6.826 -73.134152.4  RSN 44 0.6 3.5LRSN                1
 GAP= 53        1.11       2.1     2.6  4.1 -0.7403E+00  0.1946E+01  0.7695E+00E
 Epicentro: LOS SANTOS - SANTANDER                                             3
 ACTION:UPD 16-10-29 15:38 OP:rebc STATUS:               ID:20160824101217 L   I
 OLDACT:UP  16-08-24 21:31 OP:ar   STATUS:               ID:20160824100741     3
 OLDACT:UP  16-08-24 21:27 OP:ar   STATUS:               ID:20160824100741     3
 OLDACT:UP  16-08-24 20:05 OP:ak   STATUS:               ID:20160824100741     3
 OLDACT:REG 16-08-24 19:53 OP:ar   STATUS:               ID:20160824100741     3
 2016-08-24-1008-00M.COL___371                                                 6
 STAT SP IPHASW D HRMM SECON CODA AMPLIT PERI AZIMU VELO AIN AR TRES W  DIS CAZ7
 BAR2 EZ IP     C 1012 38.10                             170    0.1110 26.3 192 
 BAR2 EZ ES       1012 53.25                             170   -0.7210 26.3 192 
 BAR2 HE ES       1012 53.46                             170           26.3 192 
 BAR2 EZ I        1012 54.57      1099.2 0.20                          26.3 192 
 BRR  HZ IP     C 1012 40.02                             154    0.6610 71.0 296 
 BRR  HE ES       1012 57.08                             154    0.6710 71.0 296 
 BRR  HZ I        1013  0.91       391.2 0.34                          71.0 296 
 PAM  EZ EP       1012 40.93                             153    0.6810 74.4  40 
 PAM  HE ES       1012 58.07                             153    0.0610 74.4  40 
 PAM  EZ I        1012 58.80       348.4 0.30                          74.4  40 
 RUS  HZ IP     C 1012 41.99                             144   -0.1110  103 177 
 RUS  HN ES       1013  0.91                             144   -0.3810  103 177 
 RUS  HZ I        1013  2.67       249.1 0.26                           103 177 
 PTB  HZ EP       1012 44.61                             133   -0.57 9  150 258 
 PTB  HE ES       1013  6.15                             133   -0.62 9  150 258 
 PTB  HZ I        1013 13.39       535.1 0.46                           150 258 
 TAM  HZ EP       1012 46.42                             132    0.75 9  155 106 
 TAM  HZ I        1013  6.99       294.7 0.30                           155 106 
 TAM  HN ES       1013  8.14                             132    0.50 9  155 106 
 OCA  HZ EP       1012 46.30                             131    0.21 9  158 353 
 OCA  HE ES       1013  8.23                             131   -0.16 9  158 353 
 OCA  HZ I        1013 11.39       727.1 0.38                           158 353 
 SPBC HZ EP     C 1012 46.92                             130    0.13 9  166 219 
 SPBC HE ES       1013  9.26                             130   -0.38 9  166 219 
 SPBC HZ I        1013 13.51       583.2 0.24                           166 219 
 ZAR  HZ EP       1012 50.54                             124    0.14 9  204 291 
 ZAR  HN ES       1013 16.06                             124   -0.00 9  204 291 
 ZAR  HZ I        1013 22.22       502.7 0.56                           204 291 
 NOR  HZ EP       1012 54.28                             119    0.38 8  237 234 
 NOR  HE ES       1013 21.63                             119   -0.67 8  237 234 
 NOR  HZ I        1013 27.68       386.5 0.54                           237 234 
 CHI  HZ EP       1012 55.95                             118    0.05 8  252 195 
 CHI  HN ES       1013 25.64                             118   -0.22 8  252 195 
 CHI  HZ I        1013 31.08       211.2 0.38                           252 195 
 ROSC BZ EP   4   1012 57.78                             118    1.46 0  256 211 
 ROSC BE ES       1013 26.36                             118   -0.24 8  256 211 
 HEL  HZ EP   4   1012 59.68                             116    1.41 0  274 255 
 HEL  HN ES       1013 31.07                             116    1.00 8  274 255 
 HEL  HZ I        1013 36.66       213.9 0.34                           274 255 
 URE  HZ EP       1012 58.12                             115   -0.79 7  284 291 
 URE  HE ES   4   1013 28.32                             115   -2.90 0  284 291 
 URE  HZ I        1013 41.46       203.2 0.28                           284 291 
 SOCV BZ EP       1013  0.83                             113    0.27 7  299  57 
 SOCV BE ES   4   1013 32.74                             113   -1.42 0  299  57 
 LL1C HZ EP   9   1013  3.78                             113    2.67 0  304 351 
 LL1C HN ES       1013 37.58                             113   -0.22 7  304 351 
 LL1C HZ I        1013 46.06       420.9 0.48                           304 351 
 GUY2CHZ EP       1013  2.73                             113    1.01 7  304 234 
 GUY2CHE ES       1013 37.41                             113    1.20 7  304 234 
 GUY2CHZ I        1013 47.87       222.2 0.62                           304 234 
 VIL  EZ EP       1013  1.25                             113   -0.31 7  306 192 
 VIL  EE ES       1013 35.56                             113   -0.38 7  306 192 
 VIL  EZ I        1013 39.66       229.4 0.36                           306 192 
 PTGC HZ IP     C 1013  1.09                             113   -0.81 7  311 159 
 PTGC HZ I        1013 36.30       119.3 0.24                           311 159 
 PTGC HN ES   4   1013 38.34                             113    1.80 0  311 159 
 LL6C HZ EP       1013  2.45                             112   -0.72 7  322 357 
 LL6C HE ES       1013 37.74                             112   -1.06 7  322 357 
 LL6C HZ I        1013 41.31        53.0 0.36                           322 357 
 ELA  HZ EP   4   1013  6.94                             111    1.99 0  332 229 
 ELA  HE ES   4   1013 45.17                             111    3.20 0  332 229 
 ELA  HZ I        1013 50.71       247.5 0.64                           332 229 
 CBOC HZ EP       1013  5.84                             111    0.91 7  336 252 
 CBOC HN ES       1013 41.51                             111   -0.42 7  336 252 
 CBOC HZ I        1013 56.11       105.9 0.72                           336 252 
 DBB  EZ EP       1013  5.60                             110    0.23 7  341 274 
 DBB  HE ES       1013 43.02                             110    0.30 7  341 274 
 DBB  EZ I        1013 44.87        88.7 0.54                           341 274 
 ARGC HZ EP   4   1013  8.83                             109    1.67 0  357 340 
 ARGC HE ES       1013 45.87                             109   -0.02 6  357 340 
 ARGC HZ I        1013 54.80        40.9 0.30                           357 340 
 ANIL HZ EP       1013  9.08                             109    1.18 6  360 224 
 ANIL HN ES       1013 47.08                             109   -0.13 6  360 224 
 PRA  HZ EP       1013 11.08                             107   -0.53 6  395 210 
 PRA  HN ES       1013 53.36                             107   -0.46 6  395 210 
 PRA  HZ I        1014  0.73       292.0 0.21                           395 210 
 SJC  HZ EP       1013 12.02                             107   -1.07 6  408 327 
 SJC  HN ES   4   1013 53.72                             107   -2.73 0  408 327 
 SJC  HZ I        1014  9.29        41.5 0.38                           408 327 
 PAL  HZ EP       1013 13.73                             107    0.55 6  408 239 
 PAL  HN ES   4   1013 58.19                             107    1.57 0  408 239 
 PAL  HZ I        1014  2.52        91.1 0.40                           408 239 
 LCBC HN ES       1013 59.20                             106    0.01 5  421 302 
 CRJC HZ EP       1013 18.48                             104   -1.37 5  465   3 
 CRJC HN ES   4   1014  5.60                             104   -2.88 0  465   3 
 CRJC HZ I        1014 11.72        49.2 0.44                           465   3 
 YOT  HZ EP       1013 20.72                             104   -0.34 5  475 229 
 YOT  HE ES       1014 10.37                             104   -0.28 5  475 229 
 GUA  EZ EP       1013 20.68                             104   -0.47 5  477 173 
 GUA  EE ES       1014 10.45                             104   -0.35 5  477 173 
 GUA  EZ I        1014 15.18        56.2 0.24                           477 173 
 PTA  HZ EP       1013 25.79                             103   -0.21 4  518 274 
 PTA  HZ I        1014 12.45        28.0 0.82                           518 274 
 PTA  HE ES   4   1014 21.31                             103    1.87 0  518 274 
 BET  EZ EP       1013 27.27                             102    0.96 4  520 209 
 BET  EN ES   4   1014 15.28                             102   -4.70 0  520 209 
 BET  EZ I        1014 29.09        37.3 0.60                           520 209 
 MACC HZ EP   4   1013 25.06                             102   -1.67 0  524 189 
 MACC HE ES   4   1014 16.08                             102   -4.65 0  524 189 
 MACC HZ I        1014 23.25        38.1 0.66                           524 189 
 DABV BZ EP       1013 27.01                             102   -0.45 4  530  31 
 DABV BN ES   4   1014 19.03                             102   -2.99 0  530  31 
 MARO HZ EP       1013 29.34                             102    0.30 4  540 216 
 MARO HN ES       1014 24.93                             102    0.08 4  540 216 
 URI  HZ EP   4   1013 28.55                             101   -1.74 0  554  13 
 URI  HE ES   4   1014 22.32                             101   -4.75 0  554  13 
 URI  HZ I        1014 30.47        11.0 0.50                           554  13 
 GARC HZ EP       1013 32.21                             101   -1.06 3  576 207 
 GARC HE ES   4   1014 26.91                             101   -5.46 0  576 207 
 GARC HZ I        1014 35.82        45.0 0.22                           576 207 
 CONO HZ EP       1013 38.76                             100    0.39 3  615 216 
 CONO HN ES   4   1014 32.29                             100   -9.16 0  615 216 
 CONO HZ I        1014 47.55        16.3 0.42                           615 216 
 POP2 HZ EP       1013 37.85                             100   -0.15 3  616 220 
 POP2 HN ES   4   1014 35.15                             100   -5.65 0  616 220 
 FLO2 HZ EP       1013 40.46                              99   -0.66 2  644 206 
 FLO2 HE ES       1014 46.00                              99   -0.35 2  644 206 
 FLO2 HZ I        1014 53.27        10.5 0.36                           644 206 
 SOTO HZ EP   4   1013 43.58                              99    1.57 0  646 217 
 BBAC HZ EP       1013 47.74                              98   -0.44 1  700 221 
 BBAC HN ES   4   1014 57.40                              98   -1.51 0  700 221 
 BBAC HZ I        1015  2.59         6.6 0.32                           700 221 
 PTLC HZ EP   4   1014  4.63                              97    5.22 0  795 193 
 PTLC HE ES   4   1015 29.25                              97   10.35 0  795 193 
 PTLC HZ I        1015 41.94         7.7 0.34                           795 193 
                                                                                
