 2010  924 1737  6.1 L   6.741 -73.098143.3  RSN  5 0.3 1.8LRSN                1
 GAP=188        0.76       4.6    10.8  7.6 -0.1111E+02 -0.2590E+02  0.8895E+01E
 Epicentro: JORDAN - SANTANDER                                                 3
 ACTION:UP  11-02-18 11:05 OP:tino STATUS:               ID:20100924173706 L   I
 2010-09-24-1734-19S.COL___122                                                 6
 STAT SP IPHASW D HRMM SECON CODA AMPLIT PERI AZIMU VELO SNR AR TRES W  DIS CAZ7
 BAR2 SZ EP       1737 25.17                             172    -0.110   19 210 
 BAR2 SZ ES   1   1737 40.13                             172    -0.2 7   19 210 
 BAR2 SZ I        1737 42.26        10.9 0.41                            19 210 
 BTL  SZ EP       1737 25.45                             169     0.010   27 316 
 BRR  HZ EP       1737 27.05                             149    -0.410   79 301 
 BRR  HZ I        1737 27.34        18.4 0.20                            79 301 
 BRR  HE ES   1   1737 44.32                             149     0.3 7   79 301 
 GUE  SZ EP       1737 31.37                             137     0.410  122   9 
 CHI  HZ EP       1737 43.01                             117    -0.1 8  244 197 
 CHI  HN ES   1   1738 12.50                             117     0.5 6  244 197 
 CHI  HZ I        1738 21.70         3.0 0.80                           244 197 
                                                                                
