 2017 1224 1612  3.3 L   6.808 -73.159134.0  RSN  8 0.5 1.7LRSN                1
 GAP=145        1.14       4.7     6.5  7.5 -0.1707E+02  0.1887E+02 -0.1757E+01E
 Epicentro: LOS SANTOS - SANTANDER                                             3
 ACTION:UPD 18-01-04 13:23 OP:rebc STATUS:               ID:20171224161203 L   I
 OLDACT:REG 17-12-24 21:50 OP:osc  STATUS:               ID:20171224160738     3
 2017-12-24-1608-00M.COL___475                                                 6
 STAT SP IPHASW D HRMM SECON CODA AMPLIT PERI AZIMU VELO AIN AR TRES W  DIS CAZ7
 BAR2 EZ IP     C 1612 21.20                             169   -0.3410 24.0 186 
 BAR2 EZ ES       1612 35.82                             169    0.0710 24.0 186 
 BAR2 EZ I        1612 37.61        12.5 0.20            167           24.0 186 
 PAM  EZ IP     C 1612 24.11                             148   -0.1910 77.7  41 
 PAM  EN ES       1612 41.12                             148    0.4410 77.7  41 
 PAM  EZ I        1612 41.84         5.2 0.52            145           77.7  41 
 PTB  HZ EP       1612 28.18                             129   -1.04 9  146 258 
 PTB  HE ES       1612 49.08                             129   -0.35 9  146 258 
 PTB  HZ I        1612 52.12         3.6 0.24            122            146 258 
 OCA  HZ EP       1612 30.75                             127    0.12 9  159 354 
 OCA  HN ES       1612 51.87                             127   -0.07 9  159 354 
 OCA  HZ I        1612 55.82        12.7 0.18            120            159 354 
 SPBC HZ EP       1612 30.42                             126   -0.48 9  163 218 
 SPBC HN ES       1612 52.74                             126    0.31 9  163 218 
 SPBC HZ I        1612 59.12         7.5 0.36            122            163 218 
 ZAR  HZ EP       1612 35.71                             120    0.88 9  202 292 
 ZAR  HZ I        1613  5.54         5.7 0.62            113            202 292 
 GUY2CHZ EP       1612 46.71                             110    0.40 7  300 234 
 GUY2CHE ES       1613 20.57                             110    0.71 7  300 234 
 GUY2CHZ I        1613 30.12         2.0 0.52                           300 234 
 PRA  HZ EP       1612 56.36                             104   -0.08 6  392 209 
 PRA  HE ES       1613 38.34                             104    0.45 6  392 209 
 PRA  HZ I        1613 42.34         2.4 0.30            102            392 209 
                                                                                
