 2016  624 1803 36.8 L   6.801 -73.152145.3  RSN 16 0.4 2.7LRSN                1
 GAP=136        0.95       3.0     3.4  4.8 -0.3588E+00  0.4596E+01  0.3947E+01E
 Epicentro: LOS SANTOS - SANTANDER                                             3
 ACTION:UPD 16-07-21 22:22 OP:rebc STATUS:               ID:20160624180336 L   I
 OLDACT:REG 16-06-24 23:26 OP:dnl  STATUS:               ID:20160624175744     3
 2016-06-24-1757-44M.COL___331                                                 6
 STAT SP IPHASW D HRMM SECON CODA AMPLIT PERI AZIMU VELO AIN AR TRES W  DIS CAZ7
 BAR2 EZ IP       18 3 56.17                             170   -0.1710 23.4 188 
 BAR2 EZ ES       18 4 11.32                             170   -0.2810 23.4 188 
 BAR2 EZ I        18 4 13.98       119.3 0.28                          23.4 188 
 BRR  HZ EP       18 3 57.97                             153    0.1510 70.5 299 
 BRR  HN ES       18 4 15.03                             153    0.7810 70.5 299 
 BRR  HZ I        18 4 18.79        88.8 0.38                          70.5 299 
 PAM  EZ EP     C 18 3 59.00                             151    0.0510 77.7  40 
 PAM  EN ES       18 4 16.37                             151    0.1210 77.7  40 
 PAM  EZ I        18 4 18.63        59.6 0.26                          77.7  40 
 RUS  HZ EP       18 4  0.38                             144   -0.1010  101 176 
 RUS  HE ES       18 4 19.03                             144    0.0510  101 176 
 RUS  HZ I        18 4 20.27        32.4 0.30                           101 176 
 PTB  HZ EP       18 4  2.66                             132   -0.98 9  147 259 
 PTB  HN ES       18 4 23.86                             132   -0.73 9  147 259 
 PTB  HZ I        18 4 31.02        42.3 0.24                           147 259 
 SPBC HZ EP       18 4  5.14                             129   -0.06 9  163 219 
 SPBC HE ES       18 4 27.40                             129    0.03 9  163 219 
 SPBC HZ I        18 4 31.83        72.7 0.42                           163 219 
 ZAR  HZ EP       18 4  9.46                             122    0.35 9  203 292 
 ZAR  HE ES       18 4 34.00                             122   -0.34 9  203 292 
 ZAR  HZ I        18 4 43.10        51.4 0.24                           203 292 
 NOR  HZ EP       18 4 12.18                             118   -0.24 8  234 234 
 NOR  HN ES       18 4 40.00                             118   -0.23 8  234 234 
 NOR  HZ I        18 4 47.68        32.1 0.22                           234 234 
 CHI  HZ EP       18 4 14.48                             117    0.05 8  249 195 
 CHI  HN ES       18 4 43.79                             117   -0.02 8  249 195 
 CHI  HZ I        18 4 47.18        32.2 0.60                           249 195 
 HEL  HZ EP   4   18 4 18.11                             115    1.22 0  271 256 
 HEL  HN ES       18 4 48.56                             115    0.38 8  271 256 
 HEL  HZ I        18 4 54.61        18.5 0.34                           271 256 
 URE  HZ EP   4   18 4 19.97                             113    2.23 0  283 292 
 URE  HZ ES   4   18 4 47.81                             113   -1.88 0  283 292 
 URE  HN ES   4   18 4 52.06                             113    2.37 0  283 292 
 URE  HZ I        18 4 59.87        31.0 0.34                           283 292 
 GUY2CHZ EP       18 4 21.15                             112    0.85 7  301 235 
 GUY2CHE ES       18 4 54.91                             112    0.65 7  301 235 
 GUY2CHZ I        18 5  2.56        24.3 0.62                           301 235 
 VIL  SZ EP       18 4 20.04                             112   -0.12 7  303 191 
 VIL  SN ES       18 4 54.06                             112    0.05 7  303 191 
 DBB  SZ EP       18 4 24.19                             109    0.05 7  339 274 
 DBB  SZ ES   4   18 4 59.47                             109   -1.63 0  339 274 
 DBB  SZ I        18 5  3.78        59.1 0.44                           339 274 
 PRA  HZ EP       18 4 30.22                             106   -0.03 6  392 209 
 PRA  HN ES       18 5 12.68                             106    0.72 6  392 209 
 PRA  HZ I        18 5 17.39        30.1 0.30                           392 209 
 PAL  HZ EP   2   18 4 31.74                             106   -0.11 3  405 239 
 PAL  HE ES   4   18 5 13.50                             106   -1.32 0  405 239 
 PAL  HZ I        18 5 21.52         6.7 0.24                           405 239 
                                                                                
