 2014  924 1312 22.2 L   6.736 -73.161151.9  RSN  4 0.3 1.4LRSN                1
 GAP=231        0.73       6.8     5.9  7.0  0.1255E+02  0.4419E+01 -0.2055E+01E
 Epicentro: LOS SANTOS - SANTANDER                                             3
 ACTION:UPD 14-10-03 23:08 OP:nd   STATUS:               ID:20140924131222 L   I
 OLDACT:REG 14-09-24 19:17 OP:spq  STATUS:               ID:20140924130820     3
 2014-09-24-1308-20M.COL___284                                                 6
 STAT SP IPHASW D HRMM SECON CODA AMPLIT PERI AZIMU VELO AIN AR TRES W  DIS CAZ7
 BAR2 SZ EP       1312 42.51                             174    0.0610 16.1 188 
 BAR2 SZ ES   1   1312 57.60                             174   -0.65 7 16.1 188 
 BAR2 SZ I        1312 58.53         4.6 0.24            172           16.1 188 
 BRR  HZ EP       1312 44.31                             153    0.1710 73.4 304 
 BRR  HE ES       1313  1.47                             153    0.2110 73.4 304 
 BRR  HZ I        1313  2.49         8.2 0.38            153           73.4 304 
 RUS  HE ES   1   1313  5.13                             147    0.40 7 93.7 175 
 RUS  HZ I        1313  6.08         2.6 0.24            147           93.7 175 
 PTB  HZ EP       1312 49.11                             134   -0.32 9  145 261 
 PTB  HN ES       1313 10.64                             134   -0.02 9  145 261 
 PTB  HZ I        1313 12.13         2.7 0.14            134            145 261 
                                                                                
