 2017  624 1446  9.3 L   6.695 -73.385123.0  RSN  4 0.3 1.8LRSN                1
 GAP=178        0.72       5.3     4.2  7.2 -0.7849E+00  0.1522E+02 -0.7372E+01E
 Epicentro: GALAN - SANTANDER                                                  3
 ACTION:UPD 17-09-14 16:54 OP:jn   STATUS:               ID:20170624144609 L   I
 OLDACT:UP  17-06-25 00:52 OP:dani STATUS:               ID:20170624143739d    3
 OLDACT:DUP 17-06-25 00:50 OP:dani STATUS:               ID:20170624143739d    3
 OLDACT:DUP 17-06-25 00:47 OP:dani STATUS:               ID:20170624143738d    3
 OLDACT:UP  17-06-25 00:37 OP:dani STATUS:               ID:20170624143737     3
 OLDACT:REG 17-06-24 22:19 OP:dani STATUS:               ID:20170624143737     3
 2017-06-24-1438-00M.COL___355                                                 6
 STAT SP IPHASW D HRMM SECON CODA AMPLIT PERI AZIMU VELO AIN AR TRES W  DIS CAZ7
 BAR2 EZ EP       1446 26.28                             168   -0.0110 25.1 117 
 BAR2 EZ ES       1446 39.49                             168   -0.0110 25.1 117 
 BAR2 EZ I        1446 40.60        37.4 0.38            174           25.1 117 
 PTB  HZ EP       1446 31.55                             133   -0.3610  120 262 
 PTB  HN ES       1446 49.80                             133    0.2910  120 262 
 PTB  HZ I        1446 53.37         5.0 0.40            134            120 262 
 ZAR  HZ EP       1446 38.88                             120    0.50 9  185 299 
 ZAR  HE ES       1447  0.70                             120   -0.32 9  185 299 
 ZAR  HZ I        1447  4.55         6.2 0.30            121            185 299 
 NOR  HN ES       1447  5.16                             117   -0.06 8  206 233 
                                                                                
