 2017 1024 1827 20.2 L   6.825 -73.141147.5  RSN 13 0.5 2.0LRSN                1
 GAP=111        1.08       3.5     3.7  5.5  0.1509E+01  0.3347E+01  0.5820E+01E
 Epicentro: LOS SANTOS - SANTANDER                                             3
 ACTION:UPD 17-11-07 19:36 OP:rebc STATUS:               ID:20171024182720 L   I
 OLDACT:UP  17-10-24 23:07 OP:dhb  STATUS:               ID:20171024181616     3
 OLDACT:REG 17-10-24 20:40 OP:dhb  STATUS:               ID:20171024181616     3
 2017-10-24-1818-00M.COL___456                                                 6
 STAT SP IPHASW D HRMM SECON CODA AMPLIT PERI AZIMU VELO AIN AR TRES W  DIS CAZ7
 BAR2 EZ IP     D 1827 39.90                             169   -0.2110 26.1 190 
 BAR2 EZ ES       1827 55.30                             169   -0.3310 26.1 190 
 BAR2 EZ I        1827 56.50        18.8 0.20            167           26.1 190 
 BRR  HZ EP       1827 41.70                             153    0.1910 70.4 296 
 BRR  HN ES       1827 58.69                             153    0.5710 70.4 296 
 BRR  HZ I        1828  2.66        22.9 0.42            152           70.4 296 
 PAM  EZ IP     C 1827 42.90                             152    0.4310 74.9  41 
 PAM  EN ES       1827 59.74                             152   -0.0910 74.9  41 
 RUS  HZ EP       1827 43.92                             143   -0.4110  103 176 
 RUS  HN ES       1828  3.11                             143   -0.0310  103 176 
 RUS  HZ I        1828  4.63         6.5 0.32            143            103 176 
 PTB  HZ EP       1827 46.61                             132   -0.81 9  149 258 
 PTB  HN ES       1828  7.99                             132   -0.65 9  149 258 
 PTB  HZ I        1828  9.74         8.8 0.12            132            149 258 
 SPBC HZ EP       1827 48.90                             129   -0.18 9  166 219 
 SPBC HE ES       1828 12.40                             129    0.80 9  166 219 
 SPBC HZ I        1828 17.91        14.6 0.30            129            166 219 
 YPLC HZ EP       1827 50.67                             127    0.32 9  179 152 
 YPLC HN ES       1828 14.25                             127    0.40 9  179 152 
 YPLC HZ I        1828 15.33        11.6 0.26            128            179 152 
 ZAR  HZ EP       1827 52.60                             123   -0.12 9  204 291 
 ZAR  HN ES       1828 18.05                             123   -0.03 9  204 291 
 ZAR  HZ I        1828 25.75        11.8 0.42            123            204 291 
 NOR  HZ EP       1827 57.11                             119    0.84 8  237 234 
 NOR  HN ES       1828 24.34                             119   -0.04 8  237 234 
 NOR  HZ I        1828 28.71         5.7 0.16            119            237 234 
 CHI  HZ EP       1827 58.15                             117   -0.16 8  251 195 
 CHI  HE ES       1828 28.20                             117    0.17 8  251 195 
 CHI  HZ I        1828 30.62         4.8 0.36            118            251 195 
 GUY2CHZ EP   2   1828  5.39                             113    1.25 4  303 234 
 GUY2CHN ES   4   1828 41.90                             113    3.51 0  303 234 
 GUY2CHZ I        1828 50.27         4.4 0.44                           303 234 
 PTGC HZ EP       1828  3.58                             112   -0.84 7  311 159 
 PTGC HE ES   3   1828 36.71                             112   -2.18 2  311 159 
 PTGC HZ I        1828 45.81        13.6 0.36            113            311 159 
 PRA  HZ EP       1828 14.43                             107    0.32 6  395 209 
 PRA  HE ES       1828 55.81                             107   -0.33 6  395 209 
 PRA  HZ I        1829  0.05         3.3 0.24            107            395 209 
                                                                                
