 2014 1024 1709 17.3 L   6.766 -73.157137.7  RSN  4 0.2 1.6LRSN                1
 GAP=138        0.62       4.1     3.7  5.8 -0.5364E+01  0.5260E+01  0.3531E+00E
 Epicentro: LOS SANTOS - SANTANDER                                             3
 ACTION:UPD 14-11-29 23:56 OP:nd   STATUS:               ID:20141024170917 L   I
 OLDACT:DUP 14-10-28 10:04 OP:mh   STATUS:               ID:20141024170748d    3
 2014-10-24-1707-47M.COL___286                                                 6
 STAT SP IPHASW D HRMM SECON CODA AMPLIT PERI AZIMU VELO AIN AR TRES W  DIS CAZ7
 BAR2 SZ EP   1   17 9 36.28                             172    0.44 7 19.4 188 
 BAR2 SZ ES   1   17 9 50.16                             172   -0.17 7 19.4 188 
 BAR2 SZ I        17 9 51.99        10.4 0.17            172           19.4 188 
 PAM  SZ EP       17 9 38.92                             148    0.0710 81.1  39 
 PAM  SN ES       17 9 55.64                             148   -0.0610 81.1  39 
 PAM  SZ I        17 9 58.19        11.0 0.11            151           81.1  39 
 RUS  HZ EP       17 9 40.05                             143    0.1010 96.9 175 
 RUS  HN ES   1   17 9 57.50                             143   -0.14 7 96.9 175 
 RUS  HZ I        17 9 59.50         4.6 0.34            146           96.9 175 
 PTB  HZ EP       17 9 42.95                             130   -0.45 9  146 260 
 PTB  HN ES       1710  4.02                             130    0.24 9  146 260 
 PTB  HZ I        1710  6.46         5.5 0.56            133            146 260 
                                                                                
