 2017 1024 1931 22.6 L   6.794 -73.152141.9  RSN 11 0.5 1.8LRSN                1
 GAP=111        1.11       3.7     3.9  6.1  0.2613E+01  0.6168E+01  0.7233E+01E
 Epicentro: LOS SANTOS - SANTANDER                                             3
 ACTION:UPD 17-11-07 19:36 OP:rebc STATUS:               ID:20171024193122 L   I
 OLDACT:REG 17-10-24 20:49 OP:dhb  STATUS:               ID:20171024192739     3
 2017-10-24-1928-00M.COL___455                                                 6
 STAT SP IPHASW D HRMM SECON CODA AMPLIT PERI AZIMU VELO AIN AR TRES W  DIS CAZ7
 BAR2 EZ EP       1931 41.57                             171   -0.1410 22.6 189 
 BAR2 EZ ES       1931 56.46                             171   -0.1910 22.6 189 
 BAR2 EZ I        1931 58.25        17.5 0.22            170           22.6 189 
 BRR  HZ IP     C 1931 43.36                             152    0.0810 70.9 299 
 BRR  HN ES       1932  0.17                             152    0.7310 70.9 299 
 BRR  HZ I        1932  3.11        16.0 0.32            151           70.9 299 
 PAM  EZ EP       1931 44.30                             150   -0.1210 78.3  40 
 PAM  EN ES       1932  1.52                             150    0.0510 78.3  40 
 PAM  EZ I        1932  3.81         5.7 0.48            153           78.3  40 
 RUS  HZ EP       1931 46.09                             143    0.2010  100 176 
 RUS  HN ES       1932  4.47                             143    0.3810  100 176 
 RUS  HZ I        1932  5.91        14.5 0.24            145            100 176 
 PTB  HZ EP       1931 48.38                             131   -0.77 9  147 259 
 PTB  HN ES       1932  8.97                             131   -0.91 9  147 259 
 PTB  HZ I        1932 11.29         6.5 0.22            132            147 259 
 YPLC HZ EP       1931 51.78                             126   -0.27 9  177 151 
 YPLC HN ES       1932 14.53                             126   -0.53 9  177 151 
 YPLC HZ I        1932 16.74         6.2 0.28            128            177 151 
 ZAR  HZ EP       1931 55.68                             121    0.96 9  204 292 
 ZAR  HN ES       1932 19.49                             121   -0.31 9  204 292 
 ZAR  HZ I        1932 26.16         7.5 0.24            122            204 292 
 NOR  HZ EP       1931 57.92                             118   -0.05 8  234 234 
 NOR  HE ES       1932 25.49                             118   -0.10 8  234 234 
 NOR  HZ I        1932 31.56         4.8 0.16            119            234 234 
 CHI  HZ EP       1932  0.16                             116    0.20 8  248 195 
 CHI  HE ES       1932 29.56                             116    0.42 8  248 195 
 CHI  HZ I        1932 31.36         3.6 0.44            118            248 195 
 GUY2CHZ EP   3   1932  7.39                             112    1.50 2  300 235 
 GUY2CHE ES   4   1932 42.52                             112    2.83 0  300 235 
 GUY2CHZ I        1932 49.00         2.6 0.40                           300 235 
 PRA  HZ EP       1932 15.99                             106    0.14 6  391 210 
 PRA  HE ES       1932 58.15                             106    0.74 6  391 210 
 PRA  HZ I        1933  1.59         3.6 0.64            107            391 210 
                                                                                
