 2016 1024 1652 48.7 L   6.742 -73.149157.9  RSN  5 0.2 1.2LRSN                1
 GAP=139        0.56       4.1     3.2  4.3 -0.2828E+01  0.3009E+00  0.3659E+01E
 Epicentro: LOS SANTOS - SANTANDER                                             3
 ACTION:UPD 16-11-09 19:22 OP:rebc STATUS:               ID:20161024165248 L   I
 OLDACT:UP  16-10-25 00:47 OP:edw  STATUS:               ID:20161024164741     3
 OLDACT:REG 16-10-24 22:06 OP:edw  STATUS:               ID:20161024164741     3
 2016-10-24-1648-00M.COL___361                                                 6
 STAT SP IPHASW D HRMM SECON CODA AMPLIT PERI AZIMU VELO AIN AR TRES W  DIS CAZ7
 BAR2 EZ EP       1653  9.75                             174    0.0910 16.9 192 
 BAR2 EZ ES       1653 26.14                             174    0.1110 16.9 192 
 BAR2 EZ I        1653 27.78         6.2 0.28            173           16.9 192 
 BRR  HZ EP       1653 11.29                             153   -0.0110 74.2 303 
 BRR  HN ES       1653 29.04                             153    0.0810 74.2 303 
 PAM  EZ EP       1653 12.90                             151    0.4010 82.7  37 
 PAM  EN ES       1653 30.73                             151   -0.3510 82.7  37 
 PAM  EZ I        1653 31.46         1.3 0.17            153           82.7  37 
 RUS  HZ EP       1653 13.00                             148   -0.2110 94.2 176 
 RUS  HN ES   2   1653 32.53                             148    0.18 5 94.2 176 
 PTB  HZ EP       1653 16.37                             135   -0.16 9  146 261 
 PTB  HN ES       1653 38.22                             135   -0.03 9  146 261 
 PTB  HZ I        1653 39.04         1.6 0.48            136            146 261 
                                                                                
