 2011  224 1048 10.0 L   6.784 -73.045144.2  RSN  5 0.2 1.2LRSN                1
 GAP=170        0.57       6.3    31.4  9.3  0.6237E+02 -0.2221E+03 -0.1509E+02E
 Epicentro: LOS SANTOS - SANTANDER                                             3
 ACTION:UP  11-03-28 15:10 OP:jfem STATUS:               ID:20110224104810 L   I
 2011-02-24-1046-14S.COL___137                                                 6
 STAT SP IPHASW D HRMM SECON CODA AMPLIT PERI AZIMU VELO SNR AR TRES W  DIS CAZ7
 BAR2 SZ EP       1048 29.29                             168    -0.210   26 216 
 BAR2 SZ ES   1   1048 44.29                             168    -0.4 7   26 216 
 BAR2 SZ I        1048 45.82         5.0 0.26                            26 216 
 BTL  SZ EP       1048 29.66                             167     0.110   29 301 
 BTL  SZ ES   1   1048 45.07                             167     0.3 7   29 301 
 GIR2 SZ ES   3   1048 45.28                             164     0.3 2   37 333 
 RUS  HZ EP   1   1048 33.58                             144     0.1 7   99 182 
 RUS  HZ I        1048 33.87         1.7 0.29                            99 182 
 RUS  HN ES   2   1048 52.08                             144     0.3 5   99 182 
 GRA  SZ EP   2   1048 35.06                             137     0.1 5  125  12 
 GRA  SZ I        1048 57.50         2.4 0.26                           125  12 
                                                                                
