 2010  824 1442 28.5 L   6.770 -73.050139.8  RSN  6 0.2 1.5LRSN                1
 GAP=170        0.45       3.4     5.5  4.5  0.4888E+01 -0.9742E+01 -0.1423E+01E
 Epicentro: LOS SANTOS - SANTANDER                                             3
 ACTION:UP  10-09-07 10:57 OP:vdl  STATUS:               ID:20100824144226 L   I
 2010-08-24-1438-51S.COL___120                                                 6
 STAT SP IPHASW D HRMM SECON CODA AMPLIT PERI AZIMU VELO SNR AR TRES W  DIS CAZ7
 BAR2 SZ EP       1442 47.46                             175     0.010   25 217 
 BAR2 SZ ES   1   1443  2.37                                     0.1 7   25 217 
 BRR  HZ EP       1442 49.42                             152    -0.310   82 297 
 BRR  HN ES       1443  6.32                             152     0.110   82 297 
 RUS  HZ EP   1   1442 51.51                                     0.1 7   97 182 
 RUS  HZ I        1442 52.66         6.3 0.03                            97 182 
 RUS  HN ES   2   1443  9.22                             148    -0.1 5   97 182 
 GUE  SZ EP   2   1442 53.19                             138     0.4 5  118   7 
 GUE  SZ I        1443 13.90         2.6 0.33                           118   7 
 GRA  SZ EP   1   1442 53.36                             136     0.1 7  126  12 
 GRA  SZ I        1443 14.02         8.9 0.71                           126  12 
 PRA  HZ EP   1   1443 22.06                                    -0.1 4  394 211 
 PRA  HN ES   3   1444  5.08                                     1.1 1  394 211 
                                                                                
