 2012  724 1040 31.9 L   6.903 -73.284121.3  RSN  6 0.5 1.7LRSN                1
 GAP=163        1.26       6.0     7.3 10.9  0.7219E+01  0.8334E+01 -0.1439E+02E
 Epicentro: BETULIA - SANTANDER                                                3
 ACTION:UPD 12-08-14 11:45 OP:ep   STATUS:               ID:20120724104031 L   I
 2012-07-24-1040-00M.COL___215                                                 6
 STAT SP IPHASW D HRMM SECON CODA AMPLIT PERI AZIMU VELO AIN AR TRES W  DIS CAZ7
 BAR2 SZ EP       1040 49.39                             163     0.410   36 162 
 BAR2 SZ ES   1   1041  2.34                             163     0.0 7   36 162 
 BAR2 SZ I        1041  3.92        35.9 0.22            163             36 162 
 BRR  HZ EP   1   1040 49.92                             155     0.5 7   52 295 
 BRR  HE ES   1   1041  3.65                             155     0.6 7   52 295 
 BRR  HZ I        1041  5.58        23.1 0.16            152             52 295 
 RUS  HZ EP   1   1040 54.83                             134     0.3 7  114 169 
 RUS  HE ES   1   1041 11.69                             134    -0.4 7  114 169 
 RUS  HZ I        1041 14.25         4.0 0.24            136            114 169 
 PTB  HZ EP       1040 55.30                             129    -0.6 9  136 253 
 PTB  HN ES   1   1041 13.70                             129    -0.8 7  136 253 
 PTB  HZ I        1041 18.91         3.3 0.17            128            136 253 
 OCA  HZ EP       1040 57.06                             126    -0.2 9  148 358 
 OCA  HN ES   1   1041 16.13                             126    -0.8 7  148 358 
 ZAR  HZ EP   1   1041  1.57                             119     0.6 7  186 291 
 ZAR  HN ES   1   1041 23.98                             119     0.4 7  186 291 
 ZAR  HZ I        1041 28.47         6.9 0.13            120            186 291 
