 2010  524 1134 32.8 L   6.787 -73.047141.2  RSN  7 0.2 2.5LRSN                1
 GAP=185        0.48       3.1     5.7  6.1 -0.9815E+01  0.1066E+02  0.1873E+01E
 Epicentro: LOS SANTOS - SANTANDER                                             3
 ACTION:UP  10-08-24 10:06 OP:vdl  STATUS:               ID:20100524113432 L   I
 2010-05-24-1132-32S.COL___111                                                 6
 STAT SP IPHASW D HRMM SECON CODA AMPLIT PERI AZIMU VELO SNR AR TRES W  DIS CAZ7
 BAR2 SZ IP       1134 52.01                             169     0.010   26 215 
 BAR2 SZ ES   2   1135  7.02                             169     0.1 5   26 215 
 GUE  SZ EP   1   1134 57.07                             138     0.0 7  116   7 
 GRA  SZ EP   1   1134 57.95                             136     0.4 7  124  12 
 GRA  SZ ES   1   1135 16.41                             136    -0.4 7  124  12 
 OCA  SZ EP   2   1135  0.87                             128    -0.2 5  163 349 
 OCA  SZ ES   2   1135 23.47                             128     0.4 5  163 349 
 OCA  SZ I        1135 25.74        41.8 0.25                           163 349 
 CHI  HZ EP   1   1135 10.14                             116    -0.3 6  250 198 
 CHI  HN ES   2   1135 40.00                             116     0.2 4  250 198 
 CHI  HZ I        1135 47.38        11.5 0.67                           250 198 
 HEL  HZ EP   1   1135 13.94                             113     0.0 6  282 257 
 HEL  HN ES   2   1135 45.81                             113    -0.2 4  282 257 
 HEL  HZ I        1135 51.95        16.0 0.31                           282 257 
 RREF BZ EP   2   1135 19.74                             109     0.1 3  329 231 
 RREF BN ES   2   1135 56.10                             109     0.0 3  329 231 
 RREF BZ I        1136  4.99        21.3 0.40                           329 231 
                                                                                
