 2015  424 1942 10.7 L   6.746 -73.181134.0  RSN  6 0.4 1.8LRSN                1
 GAP=142        0.90       7.5     6.6  7.1 -0.3864E+02  0.1550E+02 -0.3093E+01E
 Epicentro: VILLANUEVA - SANTANDER                                             3
 ACTION:UPD 15-06-03 16:57 OP:cam  STATUS:               ID:20150424194210 L   I
 OLDACT:REG 15-04-24 21:42 OP:ak   STATUS:               ID:20150424193750     3
 2015-04-24-1937-50M.COL___250                                                 6
 STAT SP IPHASW D HRMM SECON CODA AMPLIT PERI AZIMU VELO AIN AR TRES W  DIS CAZ7
 BAR2 EZ EP       1942 29.08                             172    0.2410 17.0 181 
 BAR2 EZ ES       1942 43.23                             172    0.2810 17.0 181 
 BAR2 EZ I        1942 45.75        19.6 0.12            173           17.0 181 
 PAM  SZ IP     D 1942 32.04                             146   -0.1510 84.5  39 
 PAM  SE ES       1942 48.84                             146   -0.0710 84.5  39 
 PAM  SZ I        1942 51.32        13.4 0.46            149           84.5  39 
 PTB  HZ EP       1942 35.79                             130   -0.53 9  143 261 
 PTB  HN ES       1942 56.45                             130    0.18 9  143 261 
 PTB  HZ I        1942 58.98         7.3 0.13            131            143 261 
 SPBC HZ EP   2   1942 38.00                             128    0.33 5  156 219 
 SPBC HN ES       1942 58.08                             128   -0.60 9  156 219 
 NOR  HZ EP       1942 45.37                             117    0.28 8  228 235 
 NOR  HE ES       1943 11.51                             117   -0.37 8  228 235 
 NOR  HZ I        1943 18.31         6.5 0.38            119            228 235 
 GUY2CHZ EP   2   1942 53.66                             111    0.58 4  295 235 
 GUY2CHN ES       1943 26.92                             111    0.82 7  295 235 
 GUY2CHZ I        1943 35.29         3.8 0.36                           295 235 
                                                                                
