 2013  824 1515 35.7 L   6.801 -73.142139.4  RSN  6 0.5 1.4LRSN                1
 GAP=137        1.19       5.6     7.1  8.7  0.4279E+01  0.3000E+02  0.5203E+01E
 Epicentro: LOS SANTOS - SANTANDER                                             3
 ACTION:UPD 14-01-14 09:06 OP:ep   STATUS:               ID:20130824151535 L   I
 OLDACT:REG 13-08-24 17:15 OP:stll STATUS:               ID:20130824150848     3
 2013-08-24-1508-48M.COL___221                                                 6
 STAT SP IPHASW D HRMM SECON CODA AMPLIT PERI AZIMU VELO AIN AR TRES W  DIS CAZ7
 BAR2 SZ EP       1515 54.10                             170   -0.4410 23.5 191 
 BAR2 SZ ES       1516  8.83                             170   -0.4310 23.5 191 
 BAR2 SZ I        1516 11.88         4.8 0.16            170           23.5 191 
 PAM  SZ EP       1515 57.04                             150   -0.1410 77.0  39 
 PAM  SN ES       1516 14.23                             150    0.2610 77.0  39 
 PAM  SZ I        1516 16.54         6.8 0.54            152           77.0  39 
 RUS  HZ EP       1515 58.69                             142   -0.1110  101 176 
 RUS  HN ES       1516 17.56                             142    0.7110  101 176 
 RUS  HZ I        1516 19.52         3.0 0.46            144            101 176 
 ZAR  HZ EP       1516  8.70                             121    0.96 9  204 292 
 ZAR  HN ES       1516 32.41                             121   -0.35 9  204 292 
 CHI  HZ EP       1516 12.41                             116   -0.63 8  249 195 
 GUY2CHZ EP       1516 19.24                             111    0.21 7  302 235 
                                                                                
