 2016  724 1137 54.3 L   6.175 -73.628112.1  RSN  6 0.4 1.5LRSN                1
 GAP= 90        0.93       3.4     4.2  9.2  0.2171E+01  0.2718E+02  0.5522E+01E
 Epicentro: LA PAZ - SANTANDER                                                 3
 ACTION:UPD 17-03-29 16:54 OP:lp   STATUS:               ID:20160724113754 L   I
 OLDACT:REG 16-07-24 20:45 OP:lv   STATUS:               ID:20160724112759     3
 2016-07-24-1127-59S.COL___331                                                 6
 STAT SP IPHASW D HRMM SECON CODA AMPLIT PERI AZIMU VELO AIN AR TRES W  DIS CAZ7
 BAR2 EZ EP       1138 12.02                             147    0.0610 67.5  47 
 BAR2 EZ ES       1138 25.80                             147    0.0210 67.5  47 
 RUS  HZ EP       1138 12.29                             147   -0.0610 67.9 117 
 RUS  HN ES       1138 26.71                             147    0.2310 67.9 117 
 RUS  HZ I        1138 27.94         3.8 0.21            150           67.9 117 
 CHI  HZ EP       1138 21.23                             119   -0.46 9  171 184 
 CHI  HN ES       1138 42.77                             119   -0.33 9  171 184 
 CHI  HZ I        1138 44.97         3.7 0.23            121            171 184 
 ZAR  HZ EP       1138 23.91                             114   -0.31 9  199 317 
 ZAR  HE ES       1138 47.39                             114   -0.20 9  199 317 
 ZAR  HZ I        1138 48.79         5.6 0.11            117            199 317 
 HEL  HZ EP       1138 26.78                             113    0.86 8  210 271 
 HEL  HE ES       1138 50.05                             113   -0.58 8  210 271 
 HEL  HZ I        1138 53.41         2.4 0.32            115            210 271 
 GUY2CHZ EP       1138 27.48                             112    0.42 8  219 241 
 GUY2CHE ES       1138 53.05                             112    0.40 8  219 241 
 GUY2CHZ I        1138 59.30         3.2 0.28                           219 241 
                                                                                
