 2014 1224 1713 46.1 L   6.782 -73.141145.1  RSN  7 0.5 1.8LRSN                1
 GAP=138        1.13       4.4     5.0  7.0  0.2628E+01  0.8608E+01  0.5301E+01E
 Epicentro: LOS SANTOS - SANTANDER                                             3
 ACTION:UPD 15-02-10 17:06 OP:nd   STATUS:               ID:20141224171346 L   I
 OLDACT:REG 14-12-24 22:39 OP:carl STATUS:               ID:20141224170750     3
 2014-12-24-1707-50M.COL___289                                                 6
 STAT SP IPHASW D HRMM SECON CODA AMPLIT PERI AZIMU VELO AIN AR TRES W  DIS CAZ7
 BAR2 EZ EP       1714  5.33                             171   -0.3310 21.5 192 
 BAR2 EZ ES       1714 20.87                             171   -0.0110 21.5 192 
 BAR2 EZ I        1714 21.77        32.1 0.22            170           21.5 192 
 BRR  HZ EP       1714  7.31                             152    0.0110 72.6 300 
 BRR  HN ES       1714 24.59                             152    0.7910 72.6 300 
 BRR  HZ I        1714 28.48        14.7 0.46            150           72.6 300 
 PAM  SZ EP       1714  8.26                             150   -0.1010 78.6  38 
 PAM  SN ES       1714 25.70                             150    0.0110 78.6  38 
 PAM  SZ I        1714 27.80        11.2 0.38            154           78.6  38 
 RUS  HZ EP       1714  9.55                             144   -0.1410 98.6 176 
 RUS  HE ES       1714 27.77                             144   -0.2810 98.6 176 
 RUS  HZ I        1714 28.88         4.2 0.30            147           98.6 176 
 PTB  HZ EP       1714 12.59                             132   -0.48 9  148 260 
 PTB  HN ES       1714 33.61                             132   -0.46 9  148 260 
 PTB  HZ I        1714 39.13         8.5 0.62            132            148 260 
 ZAR  HZ EP       1714 19.56                             122    0.89 8  205 293 
 ZAR  HE ES       1714 43.51                             122   -0.53 8  205 293 
 ZAR  HZ I        1714 49.53         6.9 0.36            123            205 293 
 CHI  HZ EP       1714 23.76                             117    0.15 8  247 195 
 CHI  HN ES       1714 53.65                             117    0.81 8  247 195 
 CHI  HZ I        1714 55.24         2.5 0.32            119            247 195 
                                                                                
