 2010 1224 1948 24.7 L   6.540 -73.541106.1  RSN  8 0.4 1.9LRSN                1
 GAP=107        0.76       3.5     5.2  8.1 -0.5270E+01  0.2679E+02 -0.4398E+01E
 Epicentro: EL CARMEN DE CHUCURI - SANTANDER                                   3
 ACTION:UP  11-01-14 15:27 OP:pat  STATUS:               ID:20101224194824 L   I
 2010-12-24-1944-03S.COL___135                                                 6
 STAT SP IPHASW D HRMM SECON CODA AMPLIT PERI AZIMU VELO SNR AR TRES W  DIS CAZ7
 BAR2 SZ IP       1948 40.49                             158     0.310   40  82 
 BAR2 SZ ES   1   1948 52.28                             158     0.0 7   40  82 
 RUS  HZ EP   1   1948 43.66                             138     0.0 7   88 145 
 RUS  HN ES   1   1948 58.56                             138     0.1 7   88 145 
 RUS  HZ I        1949  0.30        14.5 0.42                            88 145 
 NOR  SZ EP   1   1948 52.25                             115    -0.3 7  183 234 
 NOR  SN ES   1   1949 13.74                             115    -0.5 7  183 234 
 OCA  SZ EP   1   1948 52.69                             114    -0.7 7  189   7 
 OCA  SZ ES   1   1949 15.86                             114     0.0 7  189   7 
 OCA  SZ I        1949 22.81        22.6 0.26                           189   7 
 CHI  HZ EP   1   1948 56.60                             111     0.3 6  212 186 
 CHI  HZ I        1948 58.16         4.6 0.47                           212 186 
 CHI  HE ES   2   1949 20.32                             111    -0.7 4  212 186 
 HEL  HZ EP   1   1948 58.03                             110     0.5 6  223 260 
 HEL  HE ES   2   1949 23.59                             110     0.4 4  223 260 
 HEL  HZ I        1949 26.98         7.5 0.34                           223 260 
 RREF HZ EP   2   1949  3.72                             106     0.4 4  270 228 
 RREF HZ I        1949 40.45         5.6 0.18                           270 228 
 PRA  HZ EP   1   1949 11.72                             101     0.1 5  346 206 
                                                                                
