 2015 1124 1124 34.8 L   6.809 -73.140145.1  RSN 14 0.4 2.3LRSN                1
 GAP=137        1.01       3.0     3.8  5.8 -0.1743E+01  0.6103E+01  0.2321E+01E
 Epicentro: LOS SANTOS - SANTANDER                                             3
 ACTION:UPD 15-12-28 16:13 OP:cam  STATUS:               ID:20151124112434 L   I
 OLDACT:REG 15-11-24 20:24 OP:drio STATUS:               ID:20151124111750     3
 2015-11-24-1117-50M.COL___215                                                 6
 STAT SP IPHASW D HRMM SECON CODA AMPLIT PERI AZIMU VELO AIN AR TRES W  DIS CAZ7
 BAR2 EZ EP     C 1124 54.56                             170    0.2210 24.4 191 
 BAR2 EZ I        1125 12.61        33.9 0.30            170           24.4 191 
 BRR  HZ EP       1124 56.41                             152    0.5610 71.3 298 
 BRR  HE ES       1125 12.59                             152    0.3010 71.3 298 
 BRR  HZ I        1125 18.23        20.4 0.18            152           71.3 298 
 PAM  EZ EP       1124 57.35                             151    0.5010 76.3  40 
 PAM  EN ES       1125 14.11                             151    0.0510 76.3  40 
 PAM  EZ I        1125 17.04        21.1 0.64            154           76.3  40 
 RUS  HZ EP       1124 58.44                             143   -0.0810  101 176 
 RUS  HN ES       1125 16.40                             143   -0.6410  101 176 
 RUS  HZ I        1125 18.83        16.7 0.38            146            101 176 
 PTB  HZ EP       1125  1.33                             132   -0.42 9  149 259 
 PTB  HN ES       1125 22.19                             132   -0.60 9  149 259 
 PTB  HZ I        1125 29.90        25.7 0.46            132            149 259 
 SPBC HZ EP       1125  3.52                             129    0.20 9  164 219 
 SPBC HN ES       1125 25.65                             129    0.06 9  164 219 
 SPBC HZ I        1125 30.97        33.5 0.28            130            164 219 
 ZAR  HZ EP       1125  6.29                             122   -0.90 9  204 292 
 ZAR  HE ES       1125 33.01                             122    0.53 9  204 292 
 ZAR  HZ I        1125 38.79        18.3 0.36            123            204 292 
 NOR  HZ EP       1125 10.48                             118   -0.09 8  236 234 
 NOR  HN ES       1125 38.42                             118   -0.07 8  236 234 
 NOR  HZ I        1125 45.10        16.6 0.14            120            236 234 
 SML  HZ EP       1125 11.07                             117   -0.22 8  243 335 
 SML  HN ES       1125 39.41                             117   -0.37 8  243 335 
 SML  HZ I        1125 47.62        24.7 0.28            119            243 335 
 HEL  HZ EP       1125 14.62                             115   -0.42 8  273 256 
 HEL  HN ES       1125 46.77                             115    0.33 8  273 256 
 HEL  HZ I        1125 53.65        10.6 0.36            116            273 256 
 URE  HZ EP   4   1125 14.42                             113   -1.41 0  284 292 
 URE  HN ES   4   1125 44.34                             113   -3.51 0  284 292 
 SOCV BZ EP   4   1125 15.99                             112   -1.68 0  300  57 
 SOCV BN ES   4   1125 47.98                             112   -3.15 0  300  57 
 MON  HZ EP   4   1125 21.37                             108   -2.36 0  354 308 
 MON  HN ES   4   1126  0.13                             108   -1.79 0  354 308 
 MON  HZ I        1126  5.07         2.8 0.22            110            354 308 
 ANIL HZ EP   4   1125 25.45                             108    0.78 0  358 224 
 ANIL HN ES       1126  4.07                             108    0.47 6  358 224 
 ANIL HZ I        1126 10.57        17.8 0.24            110            358 224 
 PRA  HZ EP       1125 28.14                             106   -0.26 6  393 210 
 PRA  HN ES       1126 10.09                             106   -0.13 6  393 210 
 PRA  HZ I        1126 19.08         6.3 0.34            108            393 210 
 ORTC HZ EP       1125 29.38                             106    0.58 6  397 216 
 ORTC HN ES       1126 11.82                             106    0.89 6  397 216 
 ORTC HZ I        1126 17.95         6.9 0.74            108            397 216 
                                                                                
