 2013  524 1852  2.0 L   6.804 -73.159150.2  RSN 20 0.4 4.0LRSN 4.1WRSN        1
 SPEC AVERAGE  MO 15.3 ST  9.1 OM  3.8 f0 1.43 R1.1528 AL 1.87 WI 33.8 MW  4.1 3
 SPEC SD       MO  0.2 ST  8.3 OM  0.4 f00.364 R0.2884 AL      WI      MW  0.2 3
 GAP= 55        0.94       2.3     2.4  4.0  0.1025E+00  0.2223E+01  0.1144E+01E
 Epicentro: LOS SANTOS - SANTANDER                                             3
 SPEC YOP SH E MO 15.9 ST 12.1 OM  4.1 f0 1.12 R1.3875 AL 2.68 WI 38.7 MW  4.5 3
 SPEC YOP SH E T185254 K 0.000 GD  234 VS 4.20 DE 3.20 Q0300.0 QA 0.60 VS 4.20 3
 SPEC YOP SH Z MO 15.3 ST 11.4 OM  3.5 f0 1.74 R0.8931 AL 2.70 WI 19.0 MW  4.1 3
 SPEC YOP SH Z T185254 K 0.000 GD  234 VS 4.20 DE 3.20 Q0300.0 QA 0.60 VS 4.20 3
 SPEC TAM HH N MO 15.0 ST  5.0 OM  3.3 f0 1.58 R0.9835 AL 2.36 WI 40.0 MW  4.0 3
 SPEC TAM HH N T185251 K 0.000 GD  217 VS 4.20 DE 3.20 Q0300.0 QA 0.60 VS 4.20 3
 SPEC PTB HH N MO 15.2 ST 18.1 OM  3.5 f0 2.11 R0.7365 AL 2.03 WI 31.9 MW  4.1 3
 SPEC PTB HH N T185249 K 0.000 GD  209 VS 4.20 DE 3.20 Q0300.0 QA 0.60 VS 4.20 3
 SPEC RUS HH N MO 15.4 ST  5.7 OM  3.7 f0 1.29 R1.2047 AL 2.22 WI 28.8 MW  4.2 3
 SPEC RUS HH N T185242 K 0.000 GD  181 VS 4.20 DE 3.20 Q0300.0 QA 0.60 VS 4.20 3
 SPEC PRA HH N MO 15.1 ST  1.9 OM  3.1 f0 1.07 R1.4523 AL 1.41 WI 42.9 MW  4.0 3
 SPEC PRA HH N T185334 K 0.000 GD  419 VS 4.20 DE 3.20 Q0300.0 QA 0.60 VS 4.20 3
 SPECGUY2CHH N MO 15.6 ST 11.8 OM  3.7 f0 1.35 R1.1546 AL 2.76 WI 58.2 MW  4.4 3
 SPECGUY2CHH N T185318 K 0.000 GD  335 VS 4.20 DE 3.20 Q0300.0 QA 0.60 VS 4.20 3
 SPEC HEL HH N MO 15.3 ST  6.6 OM  3.4 f0 1.43 R1.0867 AL 2.03 WI 50.1 MW  4.1 3
 SPEC HEL HH N T185312 K 0.000 GD  309 VS 4.20 DE 3.20 Q0300.0 QA 0.60 VS 4.20 3
 SPEC NOR HH E MO 15.4 ST 13.2 OM  3.6 f0 1.60 R0.9712 AL 1.41 WI 36.4 MW  4.2 3
 SPEC NOR HH E T1853 5 K 0.000 GD  278 VS 4.20 DE 3.20 Q0300.0 QA 0.60 VS 4.20 3
 SPEC OCA HH N MO 15.5 ST 31.8 OM  3.8 f0 1.99 R0.7809 AL 1.53 WI 38.9 MW  4.3 3
 SPEC OCA HH N T185251 K 0.000 GD  219 VS 4.20 DE 3.20 Q0300.0 QA 0.60 VS 4.20 3
 SPEC PAM SH N MO 15.5 ST  4.5 OM  3.9 f0 1.05 R1.4800 AL 2.35 WI 22.7 MW  4.3 3
 SPEC PAM SH N T185241 K 0.000 GD  169 VS 4.20 DE 3.20 Q0300.0 QA 0.60 VS 4.20 3
 SPEC COD HH E MO 15.1 ST  3.9 OM  3.1 f0 1.41 R1.1021 AL 1.38 WI 43.5 MW  4.0 3
 SPEC COD HH E T185324 K 0.000 GD  379 VS 4.20 DE 3.20 Q0300.0 QA 0.60 VS 4.20 3
 SPEC BRR HH N MO 15.0 ST  1.2 OM  3.4 f00.991 R1.5681 AL 0.76 WI 21.6 MW  4.0 3
 SPEC BRR HH N T185241 K 0.000 GD  165 VS 4.20 DE 3.20 Q0300.0 QA 0.60 VS 4.20 3
 SPEC BAR2SH Z MO 15.2 ST  2.8 OM  3.6 f0 1.16 R1.3397 AL 1.40 WI 24.6 MW  4.1 3
 SPEC BAR2SH Z T185236 K 0.000 GD  152 VS 4.20 DE 3.20 Q0300.0 QA 0.60 VS 4.20 3
 ACTION:UPD 13-06-20 09:53 OP:ep   STATUS:               ID:20130524185202 L   I
 2013-05-24-1850-00M.COL___261                                                 6
 STAT SP IPHASW D HRMM SECON CODA AMPLIT PERI AZIMU VELO AIN AR TRES W  DIS CAZ7
 BAR2 SZ IP     C 1852 22.31                             171    0.1610 23.6 186 
 BAR2 SZ ES       1852 37.52                             171   -0.3710 23.6 186 
 BAR2 SZ I        1852 39.42      1659.8 0.36            170           23.6 186 
 GIR2 SZ EP       1852 22.36                             168    0.1910 30.6 353 
 GIR2 SZ ES       1852 37.65                             168   -0.2610 30.6 353 
 BRR  HZ IP     D 1852 24.19                             154    0.6610 69.6 299 
 BRR  HE ES   1   1852 41.21                             154    0.87 7 69.6 299 
 BRR  HZ I        1852 44.66       900.3 0.36            150           69.6 299 
 PAM  SZ IP     D 1852 25.08                             151    0.3710 78.0  41 
 PAM  SN ES       1852 42.26                             151   -0.1810 78.0  41 
 PAM  SZ I        1852 44.57      2267.7 0.52            154           78.0  41 
 RUS  HZ EP       1852 26.20                             144   -0.0110  101 175 
 RUS  HE ES       1852 44.89                             144   -0.2210  101 175 
 RUS  HZ I        1852 46.70      1259.8 0.40            147            101 175 
 PTB  HZ EP       1852 28.77                             133   -0.42 9  146 259 
 PTB  HN ES       1852 50.32                             133   -0.09 9  146 259 
 PTB  HZ I        1852 57.58      1489.6 0.62            132            146 259 
 TAM  HZ IP     D 1852 30.46                             131    0.30 9  157 105 
 TAM  HN ES       1852 52.16                             131    0.02 9  157 105 
 OCA  HZ EP       1852 30.34                             131   -0.24 9  160 354 
 OCA  HN ES       1852 52.46                             131   -0.43 9  160 354 
 OCA  HZ I        1852 58.06       957.3 0.32            131            160 354 
 YOP  SZ EP       1852 32.84                             127    0.39 9  180 153 
 YOP  SE ES       1852 56.22                             127   -0.00 9  180 153 
 YOP  SZ I        1852 57.45      1017.1 0.32            130            180 153 
 ZAR  HZ EP       1852 34.66                             124    0.10 9  202 292 
 ZAR  HN ES       1853  0.10                             124    0.13 9  202 292 
 ZAR  HZ I        1853  7.49       960.4 0.32            123            202 292 
 NOR  HZ EP       1852 38.00                             119    0.13 8  234 234 
 NOR  HE ES       1853  5.96                             119    0.10 8  234 234 
 NOR  HZ I        1853 13.07       666.0 0.32            120            234 234 
 SML  HE ES   1   1853  8.56                             118    1.14 6  243 336 
 HEL  HZ EP       1852 42.81                             116    0.54 8  271 256 
 HEL  HN ES       1853 13.35                             116   -0.35 8  271 256 
 HEL  HZ I        1853 20.68       520.5 0.38            116            271 256 
 URE  HZ EP       1852 42.15                             115   -0.94 7  282 292 
 URE  HN ES   4   1853 13.65                             115   -1.51 0  282 292 
 URE  HZ I        1853 30.30       413.3 0.38            115            282 292 
 GUY2CHZ EP       1852 46.32                             113    0.63 7  300 235 
 GUY2CHN ES   1   1853 19.90                             113    0.12 5  300 235 
 GUY2CHZ I        1853 29.50       582.4 0.50                           300 235 
 VIL  SZ EP   1   1852 45.29                             113   -0.33 5  304 191 
 VIL  SE ES       1853 19.52                             113   -0.14 7  304 191 
 COD  HZ EP       1852 49.41                             110   -1.06 6  348 355 
 COD  HE ES   4   1853 25.69                             110   -2.60 0  348 355 
 COD  HZ I        1853 35.10       194.0 0.32            111            348 355 
 SDV  BZ EP       1852 51.68                             109   -0.61 6  361  50 
 SDV  BN ES   4   1853 28.14                             109   -3.40 0  361  50 
 PRA  HZ EP       1852 55.30                             107   -0.32 6  392 209 
 PRA  HN ES   1   1853 37.16                             107   -0.29 4  392 209 
 PRA  HZ I        1853 42.46       398.5 0.34            108            392 209 
 PAL  HZ EP   4   1852 58.03                             107    0.86 0  405 239 
 PAL  HN ES   4   1853 40.10                             107   -0.11 0  405 239 
 YOT  HZ EP       1853  4.80                             104   -0.25 5  471 229 
 GUA  SZ EP   4   1853  5.61                             104    0.28 0  475 173 
 GUA  SN ES   4   1853 52.30                             104   -2.45 0  475 173 
 SMAR HZ EP   4   1853  6.34                             103   -1.53 0  496 346 
 SMAR HE ES   4   1853 55.39                             103   -3.88 0  496 346 
 BET  SZ EP   4   1853  9.93                             102   -1.02 0  521 209 
 PCON HZ EP   4   1853 21.21                             100   -1.17 0  612 216 
 POP2 HZ EP   4   1853 21.66                             100   -0.35 0  612 220 
 FLO2 HZ EP   4   1853 24.14                              99   -1.02 0  640 206 
 SOTA HZ EP   4   1853 26.91                              99    0.89 0  643 217 
                                                                                
