 2017 1124 1533 57.3 L   6.786 -73.164134.7  RSN 10 0.4 1.8LRSN                1
 GAP=135        1.06       3.3     4.4  6.6 -0.3826E+01  0.1206E+02 -0.1279E+01E
 Epicentro: LOS SANTOS - SANTANDER                                             3
 ACTION:UPD 17-12-12 19:59 OP:rebc STATUS:               ID:20171124153357 L   I
 OLDACT:UP  17-11-24 23:23 OP:edw  STATUS:               ID:20171124152624     3
 OLDACT:UP  17-11-24 23:21 OP:edw  STATUS:               ID:20171124152624     3
 OLDACT:REG 17-11-24 20:39 OP:edw  STATUS:               ID:20171124152624     3
 2017-11-24-1528-00M.COL___494                                                 6
 STAT SP IPHASW D HRMM SECON CODA AMPLIT PERI AZIMU VELO AIN AR TRES W  DIS CAZ7
 BAR2 EZ EP       1534 15.65                             170    0.0610 21.5 186 
 BAR2 EZ ES       1534 29.37                             170   -0.4710 21.5 186 
 BAR2 EZ I        1534 31.38        21.9 0.36            170           21.5 186 
 PAM  EZ EP       1534 18.51                             148   -0.0310 79.8  40 
 PAM  EN ES       1534 35.50                             148    0.4210 79.8  40 
 PAM  EZ I        1534 37.47        16.9 0.68            152           79.8  40 
 RUS  HZ EP       1534 19.83                             142   -0.0810 99.2 175 
 RUS  HN ES       1534 38.15                             142    0.6410 99.2 175 
 RUS  HZ I        1534 38.86         5.7 0.22            144           99.2 175 
 PTB  HZ EP       1534 23.38                             130    0.17 9  146 259 
 PTB  HN ES       1534 42.96                             130   -0.43 9  146 259 
 PTB  HZ I        1534 45.61         5.8 0.28            129            146 259 
 SPBC HN ES       1534 45.47                             127   -0.69 9  161 219 
 OCA  HZ EP       1534 24.09                             127   -0.84 9  162 354 
 OCA  HN ES       1534 46.41                             127   -0.05 9  162 354 
 ZAR  HZ EP       1534 29.00                             120    0.05 9  203 293 
 ZAR  HN ES       1534 54.39                             120    0.78 9  203 293 
 ZAR  HZ I        1535  1.40         7.9 0.28            120            203 293 
 NOR  HZ EP       1534 32.31                             116    0.14 8  232 234 
 NOR  HN ES   4   1535  0.43                             116    1.09 0  232 234 
 NOR  HZ I        1535  6.36         2.8 0.16            117            232 234 
 CHI  HN ES   4   1535  0.47                             115   -2.52 0  247 195 
 GUY2CHZ EP   2   1534 40.84                             110    0.68 4  299 235 
 GUY2CHN ES       1535 14.14                             110    0.57 7  299 235 
 GUY2CHZ I        1535 18.55         1.7 0.30                           299 235 
 PRA  HZ EP       1534 50.30                             105    0.08 6  390 209 
 PRA  HN ES       1535 31.15                             105   -0.32 6  390 209 
 PRA  HZ I        1535 37.66         3.0 0.44            106            390 209 
                                                                                
