 2010 1224 1048 37.2 L   6.775 -73.106148.0  RSN  9 0.3 2.4LRSN                1
 GAP=163        0.66       2.7     5.2  5.4 -0.6750E+01  0.1081E+02 -0.1009E+01E
 Epicentro: LOS SANTOS - SANTANDER                                             3
 ACTION:UP  11-01-14 15:26 OP:pat  STATUS:               ID:20101224104837 L   I
 2010-12-24-1048-35S.COL___133                                                 6
 STAT SP IPHASW D HRMM SECON CODA AMPLIT PERI AZIMU VELO SNR AR TRES W  DIS CAZ7
 BAR2 SZ IP       1048 57.09                             171     0.010   22 203 
 BAR2 SZ ES   1   1049 12.54                             171     0.0 7   22 203 
 BAR2 SZ I        1049 13.37        45.1 0.44                            22 203 
 RUS  HZ EP       1049  1.00                             145     0.110   98 179 
 RUS  HN ES   1   1049 19.47                             145     0.0 7   98 179 
 RUS  HZ I        1049 20.94        26.3 0.24                            98 179 
 GRA  SZ IP       1049  2.91                             137     0.210  127  15 
 GRA  SZ ES   1   1049 22.57                             137    -0.1 7  127  15 
 GRA  SZ I        1049 23.57        39.4 0.30                           127  15 
 OCA  SZ IP       1049  5.64                             129    -0.3 9  164 352 
 OCA  SZ ES   1   1049 28.59                             129     0.2 7  164 352 
 OCA  SZ I        1049 33.41        41.7 0.34                           164 352 
 NOR  SZ EP   2   1049 13.08                             119    -0.2 4  237 236 
 NOR  SN ES   1   1049 41.01                             119    -0.4 6  237 236 
 CHI  HZ EP   1   1049 15.14                             118     0.3 6  247 196 
 CHI  HZ I        1049 17.77         9.3 0.35                           247 196 
 CHI  HE ES   2   1049 43.97                             118    -0.3 4  247 196 
 HEL  HZ EP   1   1049 17.57                             115    -0.3 6  276 257 
 HEL  HN ES   2   1049 49.75                             115     0.1 4  276 257 
 HEL  HZ I        1049 55.43        14.4 0.30                           276 257 
 RREF HZ EP   1   1049 24.37                             111     0.8 5  323 230 
 RREF HE ES   1   1050  0.63                             111     0.8 5  323 230 
 RREF HZ I        1050  8.71        13.8 0.31                           323 230 
 PRA  HZ EP       1049 30.57                             107    -0.2 6  392 210 
 PRA  HE ES   1   1050 11.82                             107    -0.7 4  392 210 
                                                                                
