 2012  624 1954 46.7 L   6.679 -73.211150.2  RSN  5 0.4 1.2LRSN                1
 GAP=124        0.80       7.7     6.5  8.9  0.6993E+01  0.2149E+00 -0.1980E+02E
 Epicentro: VILLANUEVA - SANTANDER                                             3
 ACTION:UPD 12-08-06 17:52 OP:ep   STATUS:               ID:20120624195446 L   I
 2012-06-24-1950-00M.COL___199                                                 6
 STAT SP IPHASW D HRMM SECON CODA AMPLIT PERI AZIMU VELO AIN AR TRES W  DIS CAZ7
 BAR2 SZ EP   1   1955  6.75                             176    0.02 7 10.1 162 
 BAR2 SZ I        1955  7.04         3.3 0.13                          10.1 162 
 BAR2 SZ ES   1   1955 21.95                             176   -0.36 7 10.1 162 
 BRR  HZ EP   1   1955  9.10                             153    0.63 7 72.9 311 
 BRR  HZ I        1955  9.51         6.3 0.13                          72.9 311 
 BRR  HE ES   1   1955 25.80                             153    0.38 7 72.9 311 
 RUS  HE ES   1   1955 28.61                             148    0.30 7 88.1 171 
 PAM  SZ EP   1   1955  9.87                             147   -0.50 7 92.3  38 
 PTB  HZ EP   1   1955 13.26                             135   -0.02 7  139 264 
 PTB  HN ES   1   1955 33.46                             135   -0.51 7  139 264 
 PTB  HZ I        1955 42.91         1.1 0.18                           139 264 
                                                                                
