 2011 1124 1951 22.3 L   6.775 -73.140141.0  RSN  7 0.3 1.8LRSN                1
 GAP=138        0.47       2.5     2.9  4.4 -0.2027E+01  0.2749E+01  0.6538E+00E
 Epicentro: LOS SANTOS - SANTANDER                                             3
 ACTION:UPD 12-07-13 16:12 OP:ep   STATUS:               ID:20111124195122 L   I
 2011-11-24-1947-28S.COL___178                                                 6
 STAT SP IPHASW D HRMM SECON CODA AMPLIT PERI AZIMU VELO AIN AR TRES W  DIS CAZ7
 BAR2 SZ EP   1   1951 41.19                             171   -0.11 7 20.8 193 
 BAR2 SZ ES   1   1951 56.02                             171   -0.10 7 20.8 193 
 BAR2 SZ I        1951 57.58        27.4 0.15                          20.8 193 
 BRR  HZ EP   1   1951 43.02                             151   -0.02 7 73.1 300 
 BRR  HN ES   1   1951 59.36                             151    0.14 7 73.1 300 
 BRR  HZ I        1952  2.43        17.3 0.20                          73.1 300 
 PAM  SZ EP       1951 44.18                             149    0.0710 79.1  38 
 PAM  SN ES   1   1952  0.83                             149   -0.29 7 79.1  38 
 RUS  HZ EP   1   1951 45.27                             144   -0.10 7 97.8 176 
 RUS  HE ES   1   1952  3.61                             144    0.24 7 97.8 176 
 RUS  HZ I        1952  4.46         4.0 0.12                          97.8 176 
 OCA  SZ ES   2   1952 13.27                             128    0.76 5  163 353 
 OCA  SZ I        1952 16.51        10.1 0.21                           163 353 
 ZAR  HN ES   2   1952 19.25                             121   -0.56 4  206 293 
 ZAR  HZ I        1952 25.12         6.8 0.14                           206 293 
 NOR  SZ EP   2   1951 57.49                             118   -0.14 4  234 235 
 NOR  SN ES       1952 25.25                             118    0.05 8  234 235 
                                                                                
