 2016 1024 1849 47.6 L   6.805 -73.160149.5  RSN  5 0.4 1.7LRSN                1
 GAP=145        0.89       5.7     5.7  7.0 -0.1392E+02  0.7088E+01  0.1168E+02E
 Epicentro: LOS SANTOS - SANTANDER                                             3
 ACTION:UPD 16-11-09 19:22 OP:rebc STATUS:               ID:20161024184947 L   I
 OLDACT:UP  16-10-24 23:30 OP:dani STATUS:               ID:20161024184744     3
 OLDACT:UP  16-10-24 23:28 OP:dani STATUS:               ID:20161024184744     3
 OLDACT:REG 16-10-24 22:23 OP:edw  STATUS:               ID:20161024184744     3
 2016-10-24-1848-00M.COL___359                                                 6
 STAT SP IPHASW D HRMM SECON CODA AMPLIT PERI AZIMU VELO AIN AR TRES W  DIS CAZ7
 BAR2 EZ EP       1850  7.67                             171   -0.0010 23.6 186 
 BAR2 EZ ES       1850 23.01                             171   -0.3310 23.6 186 
 BAR2 EZ I        1850 24.27        15.9 0.30            169           23.6 186 
 PAM  EZ EP       1850 10.61                             151    0.3710 78.0  41 
 PAM  EN ES       1850 27.81                             151   -0.0910 78.0  41 
 PAM  EZ I        1850 29.90        10.3 0.50            155           78.0  41 
 PTB  HZ EP       1850 14.87                             133    0.14 9  146 258 
 PTB  HE ES       1850 36.22                             133    0.32 9  146 258 
 PTB  HZ I        1850 42.18         4.0 0.13            133            146 258 
 NOR  HZ EP       1850 22.54                             119   -0.89 8  234 234 
 CHI  HZ EP       1850 25.48                             118   -0.03 8  249 195 
 CHI  HN ES       1850 55.48                             118    0.40 8  249 195 
 CHI  HZ I        1850 59.24         3.4 0.48            119            249 195 
 SJC  HZ EP   4   1850 38.49                             106   -4.63 0  408 327 
                                                                                
