 2012  324 1229  6.8 L   6.714 -73.183150.6  RSN  4 0.3 1.3LRSN                1
 GAP=226        0.68       7.3     7.2  9.1  0.2687E+02 -0.7667E+01 -0.5710E+01E
 ACTION:UP  12-03-31 23:22 OP:EP   STATUS:               ID:20120324122906 L   I
 2012-03-24-1224-48M.COL___175                                                 6
 STAT SP IPHASW D HRMM SECON CODA AMPLIT PERI AZIMU VELO SNR AR TRES W  DIS CAZ7
 BAR2 SZ EP   1   1229 26.47                             175    -0.4 7   13 180 
 BAR2 SZ I        1229 27.27         5.3 0.33                            13 180 
 BRR  HZ EP   1   1229 28.45                             153    -0.1 7   73 307 
 BRR  HZ I        1229 36.06        13.8 0.43                            73 307 
 BRR  HN ES   1   1229 45.76                             153     0.2 7   73 307 
 RUS  HZ EP   1   1229 30.89                             147     0.5 7   91 173 
 RUS  HN ES   1   1229 48.68                             147    -0.1 7   91 173 
 RUS  HZ I        1229 50.56         1.3 0.36                            91 173 
 PTB  HZ EP   1   1229 33.62                             134     0.0 7  142 262 
 PTB  HE ES   1   1229 54.55                             134    -0.1 7  142 262 
 PTB  HZ I        1229 56.41         1.5 0.24                           142 262 
                                                                                
