 2013  524 1435 29.1 L   6.685 -73.160142.7  RSN  5 0.4 1.5LRSN                1
 GAP=179        0.83       7.6     8.2  9.7  0.2610E+02 -0.6644E+01 -0.1452E+02E
 Epicentro: VILLANUEVA - SANTANDER                                             3
 ACTION:UPD 13-06-20 09:53 OP:ep   STATUS:               ID:20130524143529 L   I
 2013-05-24-1430-00M.COL___259                                                 6
 STAT SP IPHASW D HRMM SECON CODA AMPLIT PERI AZIMU VELO AIN AR TRES W  DIS CAZ7
 BAR2 SZ ES   1   1436  2.49                             176   -0.52 7 10.5 193 
 BAR2 SZ I        1436  4.85         5.1 0.22            178           10.5 193 
 GIR2 SZ EP   1   1435 48.33                             162   -0.44 7 43.7 355 
 BRR  HZ EP       1435 50.25                             150    0.0410 76.8 307 
 BRR  HN ES   1   1436  7.40                             150    0.69 7 76.8 307 
 BRR  HZ I        1436 13.32        10.3 0.40            151           76.8 307 
 RUS  HZ EP   1   1435 51.93                             147    0.30 7 88.0 174 
 RUS  HN ES   1   1436  9.46                             147    0.22 7 88.0 174 
 RUS  HZ I        1436 11.32         3.7 0.34            154           88.0 174 
 PTB  HN ES   1   1436 15.68                             132   -0.37 7  144 264 
                                                                                
