 2011  424 1615 36.2 L   6.756 -73.011147.1  RSN  7 0.3 1.7LRSN                1
 GAP=172        0.72       4.1     5.6  6.3 -0.6384E+01  0.4437E+01 -0.5608E+01E
 Epicentro: CEPITA - SANTANDER                                                 3
 ACTION:UP  11-06-22 15:33 OP:REBC STATUS:               ID:20110424161536 L   I
 2011-04-24-1600-00M.COL___140                                                 6
 STAT SP IPHASW D HRMM SECON CODA AMPLIT PERI AZIMU VELO SNR AR TRES W  DIS CAZ7
 BAR2 SZ EP   1   1615 55.99                             169    -0.1 7   26 226 
 BAR2 SZ I        1615 56.44         7.2 0.09                            26 226 
 BAR2 SZ ES   1   1616 11.24                             169    -0.3 7   26 226 
 BRR  HZ EP   1   1615 58.07                             148    -0.4 7   87 297 
 BRR  HZ I        1615 58.44        25.6 0.09                            87 297 
 BRR  HN ES   1   1616 15.96                             148     0.2 7   87 297 
 RUS  HZ EP   1   1615 59.68                             145    -0.1 7   96 185 
 RUS  HN ES   1   1616 18.44                             145     0.3 7   96 185 
 RUS  HZ I        1616 20.22         4.9 0.24                            96 185 
 BRI  SZ EP   1   1616  0.74                             142     0.5 7  109  13 
 BRI  SZ I        1616  2.68         4.7 0.32                           109  13 
 GRA  SZ EP   1   1616  1.66                             137     0.0 7  127  10 
 GRA  SZ ES   1   1616 21.30                             137    -0.2 7  127  10 
 GRA  SZ I        1616 22.69        11.6 0.32                           127  10 
 OCA  SZ EP   1   1616  5.62                             129     0.3 7  167 348 
 HEL  HZ EP   1   1616 17.37                             114    -0.6 6  285 258 
 HEL  HN ES   1   1616 50.96                             114     0.4 6  285 258 
                                                                                
