 2011 1024 1236 14.8 L   6.801 -73.148147.3  RSN  5 0.4 1.2LRSN                1
 GAP=136        0.52       7.4    12.8  9.5  0.2883E+02 -0.2397E+02  0.3268E+02E
 Epicentro: LOS SANTOS - SANTANDER                                             3
 ACTION:UPD 12-07-13 16:05 OP:ep   STATUS:               ID:20111024123614 L   I
 2011-10-24-1220-00M.COL___175                                                 6
 STAT SP IPHASW D HRMM SECON CODA AMPLIT PERI AZIMU VELO AIN AR TRES W  DIS CAZ7
 BAR2 SZ EP       1236 34.74                             171    0.0910 23.4 189 
 BAR2 SZ I        1236 50.40         4.7 0.38                          23.4 189 
 GIR2 SZ ES   2   1236 50.67                             167    0.50 5 31.1 351 
 BRR  HN ES   2   1236 52.47                             153   -0.28 5 70.9 299 
 PAM  SN ES   3   1236 53.54                             151   -1.14 2 77.5  40 
 RUS  HZ EP       1236 38.71                             144   -0.0410  101 176 
 RUS  HN ES   2   1236 57.28                             144   -0.12 5  101 176 
 RUS  HZ I        1236 58.84         1.9 0.38                           101 176 
                                                                                
