 2014  424 1017 12.2 L   6.815 -73.130144.0  RSN  5 0.3 2.0LRSN                1
 GAP=227        0.84       3.5     7.2 10.8 -0.1002E+02 -0.3044E+02  0.2360E+01E
 Epicentro: LOS SANTOS - SANTANDER                                             3
 ACTION:UPD 14-05-13 23:11 OP:nd   STATUS:               ID:20140424101712 L   I
 OLDACT:REG 14-04-24 20:14 OP:nd   STATUS:               ID:20140424101043     3
 2014-04-24-1010-43M.COL___245                                                 6
 STAT SP IPHASW D HRMM SECON CODA AMPLIT PERI AZIMU VELO AIN AR TRES W  DIS CAZ7
 PTB  HZ EP       1017 38.47                             131   -0.7410  150 258 
 PTB  HN ES       1018  0.09                             131   -0.1810  150 258 
 PTB  HZ I        1018  2.16         9.4 0.14            136            150 258 
 OCA  HZ EP       1017 40.51                             129    0.2710  159 352 
 OCA  HN ES       1018  2.10                             129   -0.0110  159 352 
 OCA  HZ I        1018  7.94        10.8 0.26            134            159 352 
 SPBC HZ EP       1017 40.76                             128   -0.0310  166 219 
 SPBC HN ES       1018  3.38                             128    0.2910  166 219 
 SPBC HZ I        1018  7.12        11.9 0.20            134            166 219 
 ZAR  HZ EP       1017 45.17                             122    0.54 9  205 292 
 ZAR  HN ES       1018 10.22                             122    0.29 9  205 292 
 ZAR  HZ I        1018 16.12        11.8 0.32            127            205 292 
 SML  HZ EP       1017 48.58                             117   -0.06 9  243 335 
 SML  HN ES       1018 16.77                             117   -0.30 9  243 335 
 SML  HZ I        1018 21.51        12.2 0.10            122            243 335 
                                                                                
