 2013 1224 1429 48.4 L   6.807 -73.166146.1  RSN 11 0.4 2.3LRSN                1
 GAP=134        0.87       2.6     3.9  5.1 -0.1353E+01  0.6217E+01  0.1266E+00E
 Epicentro: LOS SANTOS - SANTANDER                                             3
 ACTION:UPD 14-01-13 10:20 OP:ep   STATUS:               ID:20131224142948 L   I
 OLDACT:REG 13-12-24 14:39 OP:jn   STATUS:               ID:20131224142842     3
 2013-12-24-1428-42M.COL___241                                                 6
 STAT SP IPHASW D HRMM SECON CODA AMPLIT PERI AZIMU VELO AIN AR TRES W  DIS CAZ7
 BAR2 SZ EP     C 1430  8.22                             170    0.1010 23.9 184 
 BAR2 SZ ES       1430 23.05                             170   -0.4210 23.9 184 
 BAR2 SZ I        1430 24.91        58.2 0.26            169           23.9 184 
 BRR  HZ EP     D 1430 10.08                             153    0.5810 68.9 299 
 BRR  HN ES   1   1430 26.58                             153    0.66 7 68.9 299 
 BRR  HZ I        1430 30.51        34.3 0.32            152           68.9 299 
 PAM  SZ EP       1430 11.11                             150    0.3710 78.2  41 
 PAM  SN ES       1430 28.10                             150   -0.0310 78.2  41 
 PAM  SZ I        1430 30.38        67.1 0.56            157           78.2  41 
 RUS  HZ EP       1430 12.11                             144   -0.1910  102 175 
 RUS  HN ES       1430 30.93                             144    0.0310  102 175 
 RUS  HZ I        1430 33.71        16.0 0.42            147            102 175 
 PTB  HZ EP       1430 14.89                             132   -0.37 9  146 258 
 PTB  HE ES   1   1430 35.99                             132   -0.18 7  146 258 
 PTB  HZ I        1430 42.06        26.0 0.26            133            146 258 
 SPBC HZ EP       1430 17.27                             129    0.37 9  162 218 
 SPBC HN ES       1430 38.70                             129   -0.39 9  162 218 
 SPBC HZ I        1430 45.12        45.0 0.24            131            162 218 
 ZAR  HN ES   1   1430 46.52                             123    0.72 6  202 292 
 ZAR  HZ I        1430 52.63        15.5 0.14            124            202 292 
 NOR  HZ EP       1430 24.08                             119    0.03 8  233 234 
 NOR  HN ES       1430 51.74                             119   -0.08 8  233 234 
 NOR  HZ I        1430 54.88        17.2 0.36            120            233 234 
 SML  HZ EP       1430 24.28                             118   -0.63 8  242 336 
 SML  HN ES       1430 52.79                             118   -0.56 8  242 336 
 CHI  HZ EP       1430 26.34                             117    0.16 8  249 195 
 CHI  HN ES       1430 55.61                             117   -0.01 8  249 195 
 CHI  HZ I        1430 59.39         8.9 0.58            120            249 195 
 CBOC HZ EP   2   1430 35.38                             110    0.22 3  332 252 
                                                                                
