 2011 1124 1602 57.1 L   6.775 -73.114148.0  RSN  5 0.4 1.6LRSN                1
 GAP=193        0.66       6.8     9.4  8.4  0.1477E+02  0.3814E+01 -0.2240E+01E
 Epicentro: LOS SANTOS - SANTANDER                                             3
 ACTION:UPD 12-07-13 16:12 OP:ep   STATUS:               ID:20111124160257 L   I
 2011-11-24-1600-37S.COL___163                                                 6
 STAT SP IPHASW D HRMM SECON CODA AMPLIT PERI AZIMU VELO AIN AR TRES W  DIS CAZ7
 BAR2 SZ EP   1   16 3 16.56                             171   -0.36 7 21.6 200 
 BAR2 SZ ES   1   16 3 32.58                             171    0.17 7 21.6 200 
 BAR2 SZ I        16 3 33.42        13.1 0.17                          21.6 200 
 GIR2 SZ EP   2   16 3 16.97                             166   -0.11 5 34.7 345 
 BRR  HZ EP   2   16 3 19.73                             152    1.04 5 75.6 299 
 BRR  HN ES   2   16 3 35.20                             152   -0.37 5 75.6 299 
 RUS  HZ EP   1   16 3 20.61                             145   -0.20 7 97.6 178 
 RUS  HN ES   1   16 3 39.54                             145    0.19 7 97.6 178 
 RUS  HZ I        16 3 40.91         4.4 0.34                          97.6 178 
 NOR  SE ES   2   16 4  0.95                             119   -0.17 4  236 236 
                                                                                
