 2017 1024 1417  4.3 L   6.844 -73.163145.8  RSN 16 0.5 2.2LRSN                1
 GAP= 63        1.00       2.4     2.7  4.9 -0.2447E+00  0.4427E+01 -0.3349E+00E
 Epicentro: LOS SANTOS - SANTANDER                                             3
 ACTION:UPD 17-11-07 19:36 OP:rebc STATUS:               ID:20171024141704 L   I
 OLDACT:DUP 17-10-24 21:44 OP:dhb  STATUS:               ID:20171024140739d    3
 OLDACT:REG 17-10-24 20:13 OP:dhb  STATUS:               ID:20171024140738     3
 2017-10-24-1408-00M.COL___448                                                 6
 STAT SP IPHASW D HRMM SECON CODA AMPLIT PERI AZIMU VELO AIN AR TRES W  DIS CAZ7
 BAR2 EZ IP     D 1417 23.95                             169   -0.0910 27.9 184 
 BAR2 EZ ES       1417 39.50                             169    0.0610 27.9 184 
 BAR2 EZ I        1417 40.07        37.8 0.38            170           27.9 184 
 PAM  EZ IP     C 1417 26.94                             151    0.5610 75.0  43 
 PAM  EE ES       1417 44.04                             151    0.4410 75.0  43 
 PAM  EZ I        1417 46.19        37.8 0.52            152           75.0  43 
 RUS  HZ EP       1417 28.33                             143   -0.1010  106 175 
 RUS  HE ES       1417 47.09                             143   -0.1510  106 175 
 RUS  HZ I        1417 48.27        26.4 0.44            144            106 175 
 PTB  HZ EP       1417 31.09                             132   -0.11 9  147 257 
 PTB  HN ES       1417 51.86                             132   -0.32 9  147 257 
 PTB  HZ I        1417 54.67        12.3 0.14            133            147 257 
 TAM  HZ IP     D 1417 32.41                             130    0.13 9  158 107 
 TAM  HN ES       1417 53.62                             130   -0.48 9  158 107 
 TAM  HZ I        1418  4.90        12.1 0.36            131            158 107 
 YPLC HZ IP     D 1417 34.43                             126   -0.18 9  182 152 
 YPLC HN ES       1417 58.27                             126    0.02 9  182 152 
 YPLC HZ I        1418  1.09        13.2 0.24            127            182 152 
 ZAR  HZ EP       1417 37.94                             123    1.55 9  200 291 
 ZAR  HN ES       1418  1.16                             123   -0.25 9  200 291 
 ZAR  HZ I        1418  7.15        17.3 0.38            123            200 291 
 TABC EZ EP       1417 40.18                             119   -0.23 8  233 210 
 TABC EZ ES       1418  8.45                             119   -0.11 8  233 210 
 TABC EZ I        1418 12.35        14.0 0.36            120            233 210 
 NOR  HZ EP       1417 40.13                             118   -0.05 8  236 233 
 NOR  HE ES       1418  8.18                             118    0.02 8  236 233 
 NOR  HZ I        1418 15.05         9.4 0.28            119            236 233 
 CHI  HZ EP       1417 42.21                             117   -0.26 8  253 194 
 CHI  HN ES       1418 11.61                             117   -0.62 8  253 194 
 CHI  HZ I        1418 15.26        11.9 0.52            118            253 194 
 URE  HZ EP       1417 44.61                             114   -0.37 7  280 291 
 URE  HE ES   2   1418 15.80                             114   -0.90 4  280 291 
 URE  HZ I        1418 26.71         9.8 0.26            114            280 291 
 GUY2CHZ EP       1417 48.88                             112    0.82 7  302 234 
 GUY2CHE ES       1418 22.71                             112    0.52 7  302 234 
 GUY2CHZ I        1418 30.24         8.9 0.36                           302 234 
 LL6C HZ EP       1417 49.28                             111   -0.16 7  320 358 
 LL6C HN ES       1418 24.45                             111   -0.20 7  320 358 
 LL6C HZ I        1418 29.74         7.1 0.46            111            320 358 
 PRA  HZ EP       1417 57.78                             106   -0.44 6  395 209 
 PRA  HE ES       1418 40.55                             106    0.28 6  395 209 
 PRA  HZ I        1418 46.50         7.2 0.21            107            395 209 
 ORTC HZ EP       1417 58.31                             106   -0.25 6  398 216 
 ORTC HE ES       1418 41.44                             106    0.56 6  398 216 
 ORTC HZ I        1418 45.35         6.3 0.26            107            398 216 
 SJC  HZ EP       1417 59.19                             106   -0.08 6  404 327 
 SJC  HE ES       1418 41.24                             106   -0.90 6  404 327 
 SJC  HZ I        1418 47.98         3.0 0.40            106            404 327 
                                                                                
