 2014  624 1426 39.4 L   7.250 -73.040153.1  RSN 12 0.5 2.4LRSN                1
 GAP=107        1.23       3.6     5.3  6.6 -0.3103E+00  0.1105E+02  0.4074E+01E
 Epicentro: CHARTA - SANTANDER                                                 3
 ACTION:UPD 14-07-01 22:56 OP:nd   STATUS:               ID:20140624142639 L   I
 OLDACT:REG 14-06-24 23:35 OP:carl STATUS:               ID:20140624141819     3
 2014-06-24-1418-19M.COL___264                                                 6
 STAT SP IPHASW D HRMM SECON CODA AMPLIT PERI AZIMU VELO AIN AR TRES W  DIS CAZ7
 PAM  SZ EP       1427  0.95                             165    0.2210 38.9  75 
 PAM  SN ES       1427 17.71                             165    0.3810 38.9  75 
 PAM  SZ I        1427 18.81        35.8 0.18            171           38.9  75 
 BAR2 SZ EP     C 1427  2.15                             153    0.2310 74.4 192 
 BAR2 SZ ES       1427 18.51                             153   -0.9410 74.4 192 
 BAR2 SZ I        1427 22.23        34.7 0.14            152           74.4 192 
 BRR  HZ EP     D 1427  2.18                             152    0.5310 75.9 258 
 BRR  HN ES       1427 19.53                             152    0.5610 75.9 258 
 BRR  HZ I        1427 22.30        30.8 0.14            150           75.9 258 
 OCA  HE ES       1427 23.88                             142    0.0210  114 344 
 OCA  HZ I        1427 27.09        47.0 0.26            144            114 344 
 RUS  HZ EP       1427  7.66                             133   -0.23 9  150 182 
 RUS  HN ES       1427 29.85                             133   -0.22 9  150 182 
 RUS  HZ I        1427 32.46        14.8 0.34            135            150 182 
 PTB  HZ EP       1427  9.28                             128   -0.26 9  175 243 
 PTB  HN ES       1427 33.40                             128    0.38 9  175 243 
 PTB  HZ I        1427 36.09        31.5 0.16            129            175 243 
 ZAR  HZ EP       1427 13.30                             124    1.08 9  202 278 
 ZAR  HN ES       1427 37.90                             124    0.11 9  202 278 
 ZAR  HZ I        1427 44.31        31.4 0.38            125            202 278 
 SML  HZ EP       1427 11.77                             124   -0.77 8  206 327 
 SML  HN ES       1427 37.22                             124   -1.13 8  206 327 
 SML  HZ I        1427 39.24        37.5 0.10            126            206 327 
 SPBC HZ EP       1427 12.97                             123   -0.16 8  210 213 
 SPBC HN ES       1427 39.43                             123    0.02 8  210 213 
 SPBC HZ I        1427 47.18        16.0 0.20            124            210 213 
 NOR  HZ EP       1427 20.06                             116    0.08 8  275 227 
 NOR  HN ES       1427 51.29                             116   -0.31 8  275 227 
 NOR  HZ I        1427 58.47        12.6 0.20            117            275 227 
 GUY2CHZ EP       1427 28.70                             111    0.79 7  341 229 
 GUY2CHN ES       1428  5.17                             111   -0.55 7  341 229 
 GUY2CHZ I        1428 16.60         7.5 0.56                           341 229 
 PRA  HZ EP       1427 38.90                             105   -0.09 5  441 208 
 PRA  HN ES       1428 25.16                             105   -0.28 5  441 208 
 PRA  HZ I        1428 30.72         4.5 0.42            107            441 208 
                                                                                
