 2014  924 1435 26.4 L   6.772 -73.140144.0  RSN  6 0.2 1.6LRSN                1
 GAP=236        0.58       3.2     4.3  4.8  0.1323E+01 -0.2053E+01  0.5123E+01E
 Epicentro: LOS SANTOS - SANTANDER                                             3
 ACTION:UPD 14-10-03 23:08 OP:nd   STATUS:               ID:20140924143526 L   I
 OLDACT:REG 14-09-24 19:32 OP:spq  STATUS:               ID:20140924142820     3
 2014-09-24-1428-20M.COL___283                                                 6
 STAT SP IPHASW D HRMM SECON CODA AMPLIT PERI AZIMU VELO AIN AR TRES W  DIS CAZ7
 BAR2 SZ EP       1435 45.73                             172   -0.0510 20.4 193 
 BAR2 SZ ES   1   1436  0.94                             172    0.06 7 20.4 193 
 BAR2 SZ I        1436  1.96        29.8 0.24            167           20.4 193 
 BRR  HZ IP     C 1435 47.51                             151    0.0110 73.3 300 
 BRR  HN ES       1436  4.12                             151    0.1810 73.3 300 
 BRR  HZ I        1436  7.12         9.7 0.30            149           73.3 300 
 RUS  HZ EP       1435 49.42                             144   -0.3510 97.4 176 
 RUS  HN ES   1   1436  8.03                             144    0.04 7 97.4 176 
 RUS  HZ I        1436  9.55         4.3 0.24            144           97.4 176 
 PTB  HN ES   1   1436 13.66                             132   -0.52 7  148 260 
 PTB  HZ I        1436 19.15         4.0 0.30            130            148 260 
 SPBC HZ EP       1435 54.71                             129    0.11 9  161 220 
 SPBC HN ES       1436 16.71                             129    0.14 9  161 220 
 SPBC HZ I        1436 19.19         4.8 0.34            128            161 220 
 CHI  HZ EP       1436  4.15                             117    0.43 8  246 196 
 CHI  HN ES   1   1436 32.64                             117   -0.17 6  246 196 
 CHI  HZ I        1436 36.80         2.0 0.46            118            246 196 
                                                                                
