 2014  224 1820 56.2 L   6.786 -73.160140.4  RSN  9 0.4 2.0LRSN                1
 GAP= 71        1.01       4.3     4.5  6.2 -0.1425E+01 -0.7688E+00  0.4715E+01E
 Epicentro: LOS SANTOS - SANTANDER                                             3
 ACTION:UPD 14-03-10 08:12 OP:ep   STATUS:               ID:20140224182056 L   I
 OLDACT:UP  14-02-24 19:00 OP:cam  STATUS:               ID:20140224181820     3
 OLDACT:REG 14-02-24 16:55 OP:cam  STATUS:               ID:20140224181820     3
 2014-02-24-1818-20M.COL___226                                                 6
 STAT SP IPHASW D HRMM SECON CODA AMPLIT PERI AZIMU VELO AIN AR TRES W  DIS CAZ7
 BAR2 SZ EP       1821 15.17                             171   -0.0210 21.5 187 
 BAR2 SZ ES       1821 29.84                             171   -0.1310 21.5 187 
 BAR2 SZ I        1821 31.26        43.5 0.20            172           21.5 187 
 BRR  HZ EP       1821 17.07                             152    0.2910 70.6 300 
 BRR  HN ES       1821 33.77                             152    0.9710 70.6 300 
 BRR  HZ I        1821 38.88        19.5 0.18            152           70.6 300 
 PAM  SZ EP       1821 18.10                             149    0.0710 79.6  40 
 PAM  SN ES       1821 34.81                             149   -0.2010 79.6  40 
 PAM  SZ I        1821 37.29        31.1 0.58            152           79.6  40 
 RUS  HZ EP       1821 19.50                             143    0.1410 99.1 175 
 RUS  HN ES       1821 37.30                             143   -0.0910 99.1 175 
 RUS  HZ I        1821 39.28         8.0 0.28            146           99.1 175 
 PTB  HZ EP       1821 22.09                             131   -0.52 9  146 259 
 PTB  HN ES       1821 42.65                             131   -0.52 9  146 259 
 PTB  HZ I        1821 46.05        14.6 0.24            133            146 259 
 TAM  HZ EP       1821 23.55                             129   -0.05 9  156 104 
 OCA  HE ES   1   1821 45.48                             128   -0.66 7  162 354 
 CHI  HZ EP   2   1821 33.80                             116    0.36 4  247 195 
 PRA  HZ EP       1821 49.85                             106    0.52 6  390 209 
                                                                                
