 2017  424 1441 59.8 L   6.783 -73.159142.3  RSN  8 0.4 1.7LRSN                1
 GAP=148        0.68       3.3     3.6  5.7 -0.1458E+01  0.7632E+01  0.2552E+01E
 Epicentro: LOS SANTOS - SANTANDER                                             3
 ACTION:UPD 17-05-30 21:15 OP:jn   STATUS:               ID:20170424144159 L   I
 OLDACT:UP  17-04-24 22:50 OP:and  STATUS:               ID:20170424143738     3
 OLDACT:UP  17-04-24 22:49 OP:and  STATUS:               ID:20170424143738     3
 OLDACT:UP  17-04-24 22:49 OP:and  STATUS:               ID:20170424143738     3
 OLDACT:UP  17-04-24 22:48 OP:and  STATUS:               ID:20170424143738     3
 OLDACT:UP  17-04-24 22:47 OP:and  STATUS:               ID:20170424143738     3
 OLDACT:UP  17-04-24 22:46 OP:and  STATUS:               ID:20170424143738     3
 OLDACT:UP  17-04-24 22:46 OP:and  STATUS:               ID:20170424143738     3
 OLDACT:UP  17-04-24 22:45 OP:and  STATUS:               ID:20170424143738     3
 OLDACT:UP  17-04-24 22:45 OP:and  STATUS:               ID:20170424143738     3
 OLDACT:REG 17-04-24 20:38 OP:y    STATUS:               ID:20170424143738     3
 2017-04-24-1438-00M.COL___371                                                 6
 STAT SP IPHASW D HRMM SECON CODA AMPLIT PERI AZIMU VELO AIN AR TRES W  DIS CAZ7
 BAR2 EZ IP     D 1442 18.99                             171    0.0210 21.2 187 
 BAR2 EZ ES       1442 33.70                             171   -0.2210 21.2 187 
 BAR2 EZ I        1442 35.51         9.4 0.23            167           21.2 187 
 BRR  HZ EP       1442 20.69                             152    0.1310 70.9 300 
 BRR  HN ES   2   1442 37.78                             152    1.04 5 70.9 300 
 BRR  HZ I        1442 41.66         7.0 0.38            151           70.9 300 
 PAM  EZ IP     C 1442 21.90                             149    0.1110 79.8  39 
 PAM  EN ES       1442 38.92                             149   -0.0310 79.8  39 
 PAM  EZ I        1442 41.09         8.6 0.48            158           79.8  39 
 PTB  HZ EP       1442 25.92                             131   -0.41 9  146 259 
 PTB  HN ES   2   1442 46.14                             131   -0.87 5  146 259 
 PTB  HZ I        1442 53.71         5.8 0.46            132            146 259 
 SPBC HN ES   2   1442 49.73                             129    0.08 5  161 219 
 SPBC HZ I        1442 57.00         9.4 0.22            130            161 219 
 ZAR  HZ EP   2   1442 32.38                             122    0.42 4  203 293 
 ZAR  HE ES       1442 57.01                             122   -0.03 9  203 293 
 ZAR  HZ I        1443  2.45         4.0 0.34            124            203 293 
 NOR  HN ES   3   1443  4.20                             118    1.59 2  232 235 
 CHI  HZ EP   2   1442 37.21                             116    0.14 4  246 195 
 CHI  HN ES       1443  6.32                             116    0.19 8  246 195 
 CHI  HZ I        1443 11.04         2.3 0.29            119            246 195 
 PTGC HZ EP   4   1442 42.09                             111   -1.27 0  307 158 
                                                                                
