 2015 1124 1915 24.5 L   6.792 -73.150141.5  RSN  7 0.4 1.8LRSN                1
 GAP=236        1.14       5.7     6.0  7.8  0.9442E+01  0.1213E+02  0.6850E+01E
 Epicentro: LOS SANTOS - SANTANDER                                             3
 ACTION:UPD 15-12-28 16:13 OP:cam  STATUS:               ID:20151124191524 L   I
 OLDACT:REG 15-11-24 20:59 OP:drio STATUS:               ID:20151124190750     3
 2015-11-24-1907-50M.COL___204                                                 6
 STAT SP IPHASW D HRMM SECON CODA AMPLIT PERI AZIMU VELO AIN AR TRES W  DIS CAZ7
 BAR2 EZ EP       1915 43.34                             171   -0.2510 22.3 189 
 BAR2 EZ ES       1915 57.83                             171   -0.6610 22.3 189 
 BAR2 EZ I        1916  0.38        18.1 0.20            163           22.3 189 
 BRR  HZ EP       1915 45.80                             152    0.6110 71.2 299 
 BRR  HE ES       1916  1.91                             152    0.5910 71.2 299 
 RUS  HZ EP       1915 47.70                             143   -0.0710 99.7 176 
 RUS  HE ES       1916  6.21                             143    0.2910 99.7 176 
 RUS  HZ I        1916  7.34         4.8 0.32            142           99.7 176 
 PTB  HZ EP       1915 50.34                             131   -0.71 9  147 259 
 PTB  HN ES       1916 11.18                             131   -0.59 9  147 259 
 PTB  HZ I        1916 19.20         8.7 0.40            128            147 259 
 SPBC HZ EP       1915 52.66                             128    0.09 9  162 219 
 SPBC HN ES       1916 15.00                             128    0.53 9  162 219 
 SPBC HZ I        1916 20.09        11.6 0.10            126            162 219 
 ZAR  HZ EP   4   1915 57.84                             121    1.19 0  204 292 
 ZAR  HN ES       1916 21.77                             121    0.04 9  204 292 
 ZAR  HZ I        1916 27.02         8.9 0.34            121            204 292 
 NOR  HZ EP       1916  0.02                             118    0.14 8  234 235 
 NOR  HE ES       1916 27.46                             118   -0.01 8  234 235 
 NOR  HZ I        1916 35.84         6.1 0.16            117            234 235 
                                                                                
