 2012  624 1747 43.3 L   6.769 -73.125140.7  RSN 10 0.3 2.0LRSN                1
 GAP=141        0.52       2.6     3.2  4.2 -0.3852E+00  0.4074E+01  0.9102E+00E
 Epicentro: LOS SANTOS - SANTANDER                                             3
 ACTION:UPD 12-08-06 17:52 OP:ep   STATUS:               ID:20120624174743 L   I
 2012-06-24-1740-00M.COL___199                                                 6
 STAT SP IPHASW D HRMM SECON CODA AMPLIT PERI AZIMU VELO AIN AR TRES W  DIS CAZ7
 BAR2 SZ EP   1   1748  2.12                             171   -0.12 7 20.5 198 
 BAR2 SZ ES   1   1748 16.59                             171   -0.44 7 20.5 198 
 BAR2 SZ I        1748 19.26        14.3 0.24                          20.5 198 
 BRR  HZ EP   1   1748  4.22                             150    0.13 7 74.9 300 
 BRR  HE ES   1   1748 20.78                             150    0.45 7 74.9 300 
 BRR  HZ I        1748 25.74        27.7 0.12                          74.9 300 
 PAM  SZ EP   1   1748  5.20                             149    0.17 7 78.7  37 
 PAM  SN ES   1   1748 22.13                             149    0.13 7 78.7  37 
 RUS  HZ EP   1   1748  6.39                             144    0.13 7 97.0 177 
 RUS  HN ES   1   1748 24.28                             144    0.08 7 97.0 177 
 RUS  HZ I        1748 25.92         9.3 0.35                          97.0 177 
 PTB  HZ EP   1   1748  9.95                             130   -0.03 7  149 260 
 PTB  HN ES   2   1748 30.64                             130   -0.18 5  149 260 
 PTB  HZ I        1748 32.80        10.6 0.12                           149 260 
 OCA  HZ EP   2   1748 10.97                             128   -0.58 5  164 352 
 OCA  HN ES   2   1748 33.03                             128   -0.58 5  164 352 
 OCA  HZ I        1748 35.68        32.5 0.32                           164 352 
 ZAR  HZ EP   1   1748 15.61                             121   -0.14 6  208 293 
 ZAR  HN ES   2   1748 41.39                             121    0.30 4  208 293 
 ZAR  HZ I        1748 46.41        14.7 0.47                           208 293 
 NOR  SN ES   2   1748 46.61                             117    0.28 4  235 235 
 CHI  HZ EP   1   1748 20.50                             116    0.11 6  246 196 
 CHI  HN ES   2   1748 48.99                             116   -0.36 4  246 196 
 CHI  HZ I        1748 56.43         2.4 0.43                           246 196 
 HEL  HZ EP   2   1748 24.00                             114    0.61 4  273 257 
 HEL  HN ES   2   1748 53.88                             114   -0.80 4  273 257 
                                                                                
