 2011  724 1315 57.7 L   6.783 -73.100146.5  RSN  9 0.3 2.1LRSN                1
 GAP=161        0.56       2.7     3.8  4.5 -0.4615E+01  0.4640E+01 -0.8646E+00E
 Epicentro: LOS SANTOS - SANTANDER                                             3
 ACTION:UPD 12-07-25 14:03 OP:epov STATUS:               ID:20110724131557 L   I
 2011-07-24-1314-24S.COL___143                                                 6
 STAT SP IPHASW D HRMM SECON CODA AMPLIT PERI AZIMU VELO AIN AR TRES W  DIS CAZ7
 BAR2 SZ EP   1   1316 17.31                             171   -0.14 7 22.9 203 
 BAR2 SZ ES   1   1316 32.45                             171   -0.37 7 22.9 203 
 BAR2 SZ I        1316 33.93        41.4 0.22                          22.9 203 
 GIR2 SZ EP   1   1316 17.50                             166   -0.09 7 34.3 343 
 BRR  HZ EP       1316 19.29                             151    0.0110 76.5 298 
 BRR  HZ I        1316 19.53        42.3 0.12                          76.5 298 
 BRR  HN ES   1   1316 36.56                             151    0.49 7 76.5 298 
 RUS  HZ EP   1   1316 21.40                             145   -0.01 7 98.5 179 
 RUS  HN ES   1   1316 40.04                             145    0.16 7 98.5 179 
 RUS  HZ I        1316 41.25        17.5 0.20                          98.5 179 
 BRI  SZ EP   1   1316 21.99                             141    0.28 7  109  18 
 BRI  SZ ES   1   1316 40.42                             141    0.01 7  109  18 
 GRA  SZ EP   1   1316 23.20                             137    0.11 7  126  15 
 GRA  SZ ES   1   1316 42.86                             137    0.01 7  126  15 
 GRA  SZ I        1316 45.84         9.3 0.42                           126  15 
 OCA  SZ EP   1   1316 26.15                             129   -0.20 7  163 351 
 OCA  SZ ES   2   1316 48.04                             129   -0.62 5  163 351 
 OCA  SZ I        1316 54.64        15.0 0.39                           163 351 
 NOR  SZ EP   1   1316 33.44                             118   -0.40 6  238 236 
 NOR  SN ES   1   1317  2.14                             118    0.15 6  238 236 
 HEL  HZ EP   1   1316 39.13                             114    0.65 6  276 256 
 HEL  HN ES   1   1317  9.79                             114   -0.46 6  276 256 
                                                                                
