 2013  624 1112 13.1 L   6.816 -73.160146.2  RSN 10 0.5 1.9LRSN                1
 GAP=134        1.03       4.8     5.4  8.4 -0.3844E+01  0.1280E+02 -0.1093E+02E
 Epicentro: LOS SANTOS - SANTANDER                                             3
 ACTION:UPD 14-01-08 09:56 OP:ep   STATUS:               ID:20130624111213 L   I
 OLDACT:REG 13-06-24 17:45 OP:carl STATUS:               ID:20130624110959     3
 2013-06-24-1109-59M.COL___267                                                 6
 STAT SP IPHASW D HRMM SECON CODA AMPLIT PERI AZIMU VELO AIN AR TRES W  DIS CAZ7
 BAR2 SZ EP       1112 32.89                             170    0.1010 24.9 186 
 BAR2 SZ ES   1   1112 47.53                             170   -0.64 7 24.9 186 
 GIR2 SZ EP       1112 32.88                             168    0.1310 29.3 353 
 GIR2 SZ I        1112 50.29         6.2 0.20            165           29.3 353 
 BRR  HZ EP       1112 34.77                             153    0.6210 68.9 298 
 BRR  HN ES   1   1112 51.69                             153    1.11 7 68.9 298 
 PAM  SZ EP       1112 35.63                             151    0.3110 77.1  41 
 PAM  SN ES   1   1112 52.59                             151   -0.08 7 77.1  41 
 PAM  SZ I        1112 54.89         6.7 0.56            151           77.1  41 
 RUS  HN ES   1   1112 55.08                             143   -0.60 7  102 175 
 RUS  HN I        1112 55.94        11.9 0.36            143            102 175 
 PTB  HZ EP   1   1112 39.43                             132   -0.54 7  147 258 
 PTB  HN ES   1   1113  0.51                             132   -0.44 7  147 258 
 PTB  HZ I        1113  7.86         7.7 0.28            129            147 258 
 OCA  HN ES   1   1113  2.68                             130   -0.53 7  158 354 
 OCA  HN I        1113  6.58        39.4 0.26            128            158 354 
 ZAR  HZ EP   1   1112 45.23                             123   -0.10 6  202 292 
 ZAR  HE ES   1   1113 10.45                             123   -0.04 6  202 292 
 ZAR  HZ I        1113 16.92        13.2 0.34            120            202 292 
 NOR  HE ES   1   1113 17.02                             118    0.35 6  234 234 
 NOR  HZ I        1113 24.41         4.6 0.16            117            234 234 
 SML  HZ EP       1112 49.33                             118   -0.15 8  241 335 
 SML  HN ES   1   1113 17.09                             118   -0.79 6  241 335 
 SML  HZ I        1113 25.04        10.0 0.28            116            241 335 
                                                                                
