 2016  124 1715  7.6 L   6.822 -73.194140.0  RSN 11 0.4 2.2LRSN                1
 GAP=129        0.87       2.5     3.6  5.3 -0.1804E+01  0.7438E+01 -0.1029E+01E
 Epicentro: ZAPATOCA - SANTANDER                                               3
 ACTION:UPD 16-03-09 23:28 OP:cam  STATUS:               ID:20160124171507 L   I
 OLDACT:UP  16-01-25 00:14 OP:mh   STATUS:               ID:20160124170741     3
 OLDACT:UP  16-01-25 00:12 OP:mh   STATUS:               ID:20160124170741     3
 OLDACT:REG 16-01-24 21:10 OP:mh   STATUS:               ID:20160124170741     3
 2016-01-24-1707-41M.COL___329                                                 6
 STAT SP IPHASW D HRMM SECON CODA AMPLIT PERI AZIMU VELO AIN AR TRES W  DIS CAZ7
 BAR2 EZ EP       1715 26.74                             169    0.1110 25.5 177 
 BAR2 EZ ES       1715 41.52                             169    0.0910 25.5 177 
 BAR2 EZ I        1715 42.97        34.0 0.28            167           25.5 177 
 PAM  EZ EP       1715 29.61                             149    0.2610 79.1  44 
 PAM  EN ES       1715 46.60                             149    0.3110 79.1  44 
 PAM  EZ I        1715 48.86        37.6 0.54            156           79.1  44 
 RUS  HZ EP       1715 30.75                             142   -0.3010  104 173 
 RUS  HN ES       1715 49.31                             142   -0.0010  104 173 
 RUS  HZ I        1715 50.12         9.1 0.24            143            104 173 
 PTB  HZ EP       1715 32.98                             132   -0.73 9  143 257 
 PTB  HN ES       1715 53.83                             132   -0.21 9  143 257 
 PTB  HZ I        1716  1.27        10.8 0.22            130            143 257 
 OCA  HZ EP       1715 34.35                             129   -0.87 9  157 355 
 OCA  HN ES       1715 56.76                             129    0.02 9  157 355 
 OCA  HZ I        1716  5.92        22.5 0.48            131            157 355 
 SPBC HZ EP   1   1715 35.68                             128    0.11 7  162 217 
 SPBC HN ES   1   1715 57.30                             128   -0.06 7  162 217 
 SPBC HZ I        1716  3.41        22.1 0.10            127            162 217 
 ZAR  HZ EP   1   1715 39.70                             122    0.60 6  198 292 
 ZAR  HN ES       1716  3.94                             122    0.30 9  198 292 
 ZAR  HZ I        1716 11.13        16.1 0.34            121            198 292 
 NOR  HZ EP   1   1715 42.62                             118   -0.11 6  232 233 
 NOR  HN ES       1716 10.11                             118    0.01 8  232 233 
 NOR  HZ I        1716 16.39         8.1 0.24            118            232 233 
 SML  HZ EP   1   1715 43.20                             117   -0.26 6  239 336 
 SML  HN ES       1716 11.76                             117    0.36 8  239 336 
 SML  HZ I        1716 14.65        25.8 0.10            118            239 336 
 GUY2CHZ EP   1   1715 51.11                             112    0.45 5  298 234 
 GUY2CHN ES   4   1716 28.11                             112    3.90 0  298 234 
 GUY2CHZ I        1716 30.71         3.9 0.34                           298 234 
 ORTC HZ EP       1716  1.41                             106    0.18 6  394 215 
 ORTC HN ES       1716 43.89                             106    0.85 6  394 215 
 ORTC HZ I        1717 17.05         6.7 0.22            106            394 215 
                                                                                
