 2016 1224 1022 48.2 L   6.403 -73.647109.0  RSN  8 0.4 1.3LRSN                1
 GAP= 76        0.86       3.3     3.8  7.2  0.4104E+01  0.9578E+01  0.1042E+02E
 Epicentro: SANTA HELENA DEL OPON - SANTANDER                                  3
 ACTION:UPD 17-01-11 20:18 OP:rebc STATUS:               ID:20161224102248 L   I
 OLDACT:UP  16-12-24 22:01 OP:edw  STATUS:               ID:20161224101742d    3
 OLDACT:DUP 16-12-24 21:55 OP:edw  STATUS:               ID:20161224101742d    3
 2016-12-24-1018-00M.COL___378                                                 6
 STAT SP IPHASW D HRMM SECON CODA AMPLIT PERI AZIMU VELO AIN AR TRES W  DIS CAZ7
 BAR2 EZ EP       1023  5.08                             151    0.2710 55.4  68 
 BAR2 EZ ES       1023 17.90                             151    0.1210 55.4  68 
 BRR  HZ EP       1023  6.16                             142    0.1510 78.2 355 
 BRR  HE ES       1023 19.99                             142    0.0710 78.2 355 
 RUS  HZ EP       1023  7.09                             140   -0.0710 84.1 132 
 RUS  HE ES       1023 21.65                             140   -0.3210 84.1 132 
 RUS  HZ I        1023 22.88         4.4 0.32            140           84.1 132 
 PTB  HZ IP     C 1023  6.16                             137   -0.8810 90.8 280 
 PTB  HE ES       1023 21.84                             137    0.0910 90.8 280 
 PTB  HZ I        1023 22.94         7.7 0.10            135           90.8 280 
 ZAR  HZ EP   2   1023 15.81                             116   -0.05 4  180 312 
 ZAR  HE ES   2   1023 38.30                             116    0.84 4  180 312 
 ZAR  HZ I        1023 42.44         5.3 0.26            115            180 312 
 ROSC BE ES   2   1023 40.55                             115    0.61 4  188 203 
 CHI  HZ EP       1023 18.49                             114    0.31 9  196 183 
 CHI  HN ES       1023 41.67                             114    0.08 9  196 183 
 CHI  HZ I        1023 45.00         0.9 0.28            113            196 183 
 GUY2CHZ EP   4   1023 20.48                             110   -1.66 0  231 236 
 GUY2CHN ES   4   1023 51.94                             110    3.31 0  231 236 
 GUY2CHZ I        1023 55.24         1.1 0.40                           231 236 
                                                                                
