 2010  724 1229 48.8 L   6.763 -73.091144.5  RSN 11 0.3 2.3LRSN                1
 GAP=165        0.65       2.9     6.4  5.2 -0.7941E+01 -0.1446E+01  0.2563E+01E
 Epicentro: LOS SANTOS - SANTANDER                                             3
 ACTION:UPD 10-12-01 15:19 OP:pat  STATUS:               ID:20100724122948 L   I
 2010-07-24-1225-34S.COL___122                                                 6
 STAT SP IPHASW D HRMM SECON CODA AMPLIT PERI AZIMU VELO AIN AR TRES W  DIS CAZ7
 BAR2 SZ IP       1230  8.27                             171     0.010   22 208 
 BAR2 SZ ES   1   1230 23.55                             171     0.2 7   22 208 
 BAR2 SZ I        1230 24.98        51.7 0.25                            22 208 
 GIR2 SZ EP   2   1230  8.35                             165    -0.1 5   37 342 
 BRR  HZ IP     C 1230 10.13                             150    -0.110   78 299 
 BRR  HN ES   1   1230 26.83                             150    -0.1 7   78 299 
 BRR  HZ I        1230 30.87        57.7 0.14                            78 299 
 RUS  HZ EP   1   1230 12.19                             145     0.1 7   96 179 
 RUS  HN ES   2   1230 30.34                             145     0.0 5   96 179 
 RUS  HZ I        1230 32.62        26.6 0.25                            96 179 
 GUE  SZ EP       1230 13.17                             139    -0.410  119   9 
 GRA  SZ IP       1230 14.03                             136    -0.110  128  14 
 GRA  SZ ES   1   1230 34.40                             136     0.5 7  128  14 
 GRA  SZ I        1230 39.38        14.9 0.28                           128  14 
 OCA  SZ EP   2   1230 17.30                             129    -0.2 5  165 351 
 OCA  SZ ES   2   1230 40.19                             129     0.4 5  165 351 
 OCA  SZ I        1230 45.02        21.2 0.31                           165 351 
 CHI  HZ EP   1   1230 26.37                             117     0.2 6  246 197 
 CHI  HE ES   1   1230 55.49                             117     0.2 6  246 197 
 CHI  HZ I        1231  1.66        10.5 0.38                           246 197 
 HEL  HZ EP   2   1230 30.09                             114     0.6 4  277 257 
 HEL  HZ I        1231  6.40         9.6 0.35                           277 257 
 RREF HZ EP   2   1230 35.95                             111     0.8 3  324 231 
 RREF HZ I        1231 19.86        15.1 0.27                           324 231 
 PRA  HZ EP   1   1230 42.10                             107    -0.1 4  391 211 
 PRA  HN ES   1   1231 23.26                             107    -0.6 4  391 211 
 PRA  HZ I        1231 28.06        11.7 0.64                           391 211 
                                                                                
