 2016  124 1010 14.3 L   6.816 -73.188142.7  RSN 13 0.3 2.4LRSN                1
 GAP=131        0.62       1.7     3.1  3.8 -0.1079E+01  0.5273E+01  0.2595E+00E
 Epicentro: ZAPATOCA - SANTANDER                                               3
 ACTION:UPD 16-03-09 23:28 OP:cam  STATUS:               ID:20160124101013 L   I
 OLDACT:UP  16-02-23 20:55 OP:AR   STATUS:               ID:20160124101013 L   3
 OLDACT:REG 16-01-24 20:51 OP:mh   STATUS:               ID:20160124100739     3
 2016-01-24-1007-39M.COL___311                                                 6
 STAT SP IPHASW D HRMM SECON CODA AMPLIT PERI AZIMU VELO AIN AR TRES W  DIS CAZ7
 BAR2 EZ EP       1010 33.49                             170   -0.0610 24.7 178 
 BAR2 EZ ES       1010 48.37                             170   -0.2210 24.7 178 
 BAR2 EZ I        1010 49.61        54.4 0.26            169           24.7 178 
 PAM  EZ EP   1   1010 36.53                             150    0.27 7 79.2  43 
 PAM  EN ES       1010 53.67                             150    0.2610 79.2  43 
 PAM  EZ I        1010 56.48        17.1 0.42            155           79.2  43 
 RUS  HZ EP       1010 37.62                             142   -0.2510  103 173 
 RUS  HN ES       1010 56.31                             142    0.0310  103 173 
 RUS  HZ I        1010 58.64        14.9 0.16            144            103 173 
 PTB  HZ EP       1010 40.10                             132   -0.48 9  143 258 
 PTB  HN ES       1011  1.31                             132    0.19 9  143 258 
 PTB  HZ I        1011  5.98        24.3 0.28            131            143 258 
 OCA  HZ EP   1   1010 42.17                             129    0.05 7  158 355 
 OCA  HN ES       1011  3.97                             129    0.12 9  158 355 
 OCA  HZ I        1011  8.52        44.1 0.32            131            158 355 
 NOR  HZ EP   1   1010 49.65                             118    0.14 6  232 233 
 NOR  HN ES       1011 17.08                             118    0.08 8  232 233 
 NOR  HZ I        1011 22.19        18.1 0.16            118            232 233 
 SML  HZ EP   1   1010 50.01                             117   -0.32 6  240 336 
 SML  HN ES       1011 18.16                             117   -0.30 8  240 336 
 SML  HZ I        1011 23.37        34.8 0.26            118            240 336 
 CHI  HZ EP   4   1010 50.56                             116   -1.28 0  249 194 
 CHI  HN ES       1011 20.87                             116   -0.28 8  249 194 
 CHI  HZ I        1011 25.79        13.5 0.40            118            249 194 
 ROSC BZ EP       1010 52.70                             116    0.59 8  252 210 
 ROSC BN ES   4   1011 24.79                             116    3.15 0  252 210 
 ROSC BZ I        1011 27.73        35.0 0.35            117            252 210 
 HEL  HZ EP       1010 54.11                             114    0.26 8  268 255 
 HEL  HN ES   4   1011 26.31                             114    1.57 0  268 255 
 HEL  HZ I        1011 31.67        12.0 0.34            115            268 255 
 GUY2CHZ EP   1   1010 57.89                             112    0.49 5  298 234 
 GUY2CHN ES   4   1011 33.96                             112    2.90 0  298 234 
 GUY2CHZ I        1011 39.81        10.6 0.60                           298 234 
 SOCV BZ EP   4   1010 55.16                             111   -2.35 0  304  58 
 SOCV BN ES   4   1011 27.35                             111   -3.90 0  304  58 
 PRA  HZ EP       1011  7.32                             106   -0.26 6  391 209 
 PRA  HN ES       1011 49.43                             106    0.26 6  391 209 
 PRA  HZ I        1011 55.85        11.7 0.22            107            391 209 
 ORTC HZ EP   1   1011  7.57                             106   -0.34 4  394 215 
 ORTC HN ES   4   1011 51.23                             106    1.47 0  394 215 
 ORTC HZ I        1011 56.88         6.1 0.36            107            394 215 
                                                                                
