 2014  924 1424  3.1 L   6.815 -73.146146.7  RSN 13 0.4 2.0LRSN                1
 GAP=130        0.87       3.2     3.9  5.3  0.2226E+01 -0.1501E+01  0.1907E+01E
 Epicentro: LOS SANTOS - SANTANDER                                             3
 ACTION:UPD 14-10-03 23:08 OP:nd   STATUS:               ID:20140924142403 L   I
 OLDACT:REG 14-09-24 19:26 OP:spq  STATUS:               ID:20140924141818     3
 2014-09-24-1418-18M.COL___283                                                 6
 STAT SP IPHASW D HRMM SECON CODA AMPLIT PERI AZIMU VELO AIN AR TRES W  DIS CAZ7
 BAR2 SZ EP       1424 22.84                             170   -0.0810 24.9 189 
 BAR2 SZ ES   1   1424 38.38                             170    0.03 7 24.9 189 
 BAR2 SZ I        1424 39.66        22.3 0.46            167           24.9 189 
 BRR  HZ EP       1424 24.78                             153    0.4310 70.4 297 
 BRR  HN ES       1424 41.22                             153    0.3310 70.4 297 
 BRR  HZ I        1424 48.66        15.2 0.33            148           70.4 297 
 RUS  HZ EP       1424 27.20                             144    0.0910  102 176 
 RUS  HN ES   1   1424 45.75                             144   -0.05 7  102 176 
 RUS  HZ I        1424 48.07         9.3 0.52            145            102 176 
 PTB  HZ EP       1424 29.56                             132   -0.65 9  148 258 
 PTB  HN ES       1424 50.86                             132   -0.47 9  148 258 
 PTB  HZ I        1424 58.35        12.8 0.40            130            148 258 
 TAM  HZ EP       1424 30.95                             131    0.01 9  156 106 
 SPBC HZ EP       1424 31.65                             129   -0.18 9  164 219 
 SPBC HN ES       1424 53.83                             129   -0.38 9  164 219 
 SPBC HZ I        1424 58.85        10.5 0.21            128            164 219 
 ZAR  HZ EP   1   1424 35.86                             123    0.28 6  203 292 
 ZAR  HN ES       1425  1.53                             123    0.64 9  203 292 
 ZAR  HZ I        1425  6.39        10.7 0.46            122            203 292 
 SML  HZ EP   1   1424 38.93                             118   -0.73 6  242 335 
 SML  HE ES   1   1425  7.70                             118   -0.45 6  242 335 
 SML  HZ I        1425 10.94        10.7 0.24            118            242 335 
 CHI  HZ EP       1424 41.05                             117   -0.01 8  250 195 
 CHI  HN ES   1   1425 10.42                             117   -0.22 6  250 195 
 CHI  HZ I        1425 16.11         3.9 0.28            118            250 195 
 GUY2CHZ EP       1424 47.20                             112    0.30 7  302 235 
 GUY2CHN ES   4   1425 24.05                             112    3.02 0  302 235 
 GUY2CHZ I        1425 29.48         4.1 0.70                           302 235 
 TOL  SZ EP   4   1424 52.78                             109    1.21 0  345 224 
 TOL  SN ES   4   1425 30.99                             109    1.65 0  345 224 
 TOL  SZ I        1425 36.77         5.9 0.25            110            345 224 
 MON  HZ EP   4   1424 49.88                             109   -2.18 0  353 308 
 MON  HE ES   4   1425 27.05                             109   -3.17 0  353 308 
 MON  HZ I        1425 44.17         2.0 0.44            109            353 308 
 PRA  HZ EP       1424 57.31                             107    0.45 6  393 209 
 PRA  HE ES       1425 39.64                             107    0.88 6  393 209 
 PRA  HZ I        1425 42.08         3.5 0.24            107            393 209 
                                                                                
