 2017 1024 1142  3.1 L   6.810 -73.126144.2  RSN 21 0.6 2.7LRSN                1
 GAP= 72        1.09       3.0     2.7  4.8  0.3275E+00  0.3569E+01  0.2902E+01E
 Epicentro: LOS SANTOS - SANTANDER                                             3
 ACTION:UPD 17-11-07 19:36 OP:rebc STATUS:               ID:20171024114203 L   I
 OLDACT:UP  17-10-24 21:10 OP:dhb  STATUS:               ID:20171024113726     3
 OLDACT:REG 17-10-24 19:53 OP:dhb  STATUS:               ID:20171024113726     3
 2017-10-24-1138-00M.COL___428                                                 6
 STAT SP IPHASW D HRMM SECON CODA AMPLIT PERI AZIMU VELO AIN AR TRES W  DIS CAZ7
 BAR2 EZ IP     C 1142 22.66                             170    0.0910 24.9 195 
 BAR2 EZ ES       1142 37.57                             170   -0.1810 24.9 195 
 BAR2 EZ I        1142 38.59       106.5 0.34            167           24.9 195 
 BRR  HZ IP     C 1142 24.56                             152    0.4110 72.6 297 
 BRR  HE ES       1142 41.18                             152    0.6110 72.6 297 
 BRR  HZ I        1142 44.91        98.5 0.28            151           72.6 297 
 PAM  EZ IP     C 1142 25.46                             151    0.4610 75.1  39 
 PAM  EN ES       1142 42.44                             151    0.3510 75.1  39 
 PAM  EZ I        1142 44.71       109.5 0.52            157           75.1  39 
 RUS  HZ EP       1142 26.58                             143   -0.1810  102 177 
 RUS  HE ES       1142 45.45                             143    0.2310  102 177 
 RUS  HZ I        1142 47.66        75.7 0.62            144            102 177 
 PTB  HZ EP       1142 29.55                             131   -0.60 9  150 259 
 PTB  HN ES       1142 50.47                             131   -0.78 9  150 259 
 PTB  HZ I        1142 57.90        50.4 0.30            131            150 259 
 TAM  HZ IP     C 1142 30.87                             130    0.39 9  153 106 
 TAM  HE ES       1142 50.63                             130   -1.20 9  153 106 
 TAM  HZ I        1142 52.97        27.4 0.30            135            153 106 
 SPBC HZ EP       1142 31.62                             128   -0.07 9  165 219 
 SPBC HN ES       1142 53.62                             128   -0.37 9  165 219 
 SPBC HZ I        1142 59.73        96.4 0.32            128            165 219 
 YPLC HZ IP     C 1142 32.94                             126    0.17 9  177 152 
 YPLC HE ES       1142 56.28                             126    0.37 9  177 152 
 YPLC HZ I        1142 59.47        31.4 0.28            129            177 152 
 ZAR  HZ EP       1142 35.58                             122   -0.02 8  206 292 
 ZAR  HN ES       1143  0.96                             122    0.00 8  206 292 
 ZAR  HZ I        1143  6.68        81.4 0.44            123            206 292 
 TABC EZ EP       1142 39.74                             119    0.77 8  232 211 
 TABC EZ ES       1143  7.01                             119    0.05 8  232 211 
 TABC EZ I        1143 14.55        60.0 0.58            120            232 211 
 NOR  HZ EP       1142 38.61                             118   -0.39 8  237 235 
 NOR  HN ES       1143  6.64                             118   -0.36 8  237 235 
 NOR  HZ I        1143 11.97        45.9 0.23            119            237 235 
 CHI  HZ EP       1142 40.77                             117   -0.12 8  250 196 
 CHI  HE ES       1143  9.98                             117   -0.39 8  250 196 
 CHI  HZ I        1143 18.24        17.1 0.58            118            250 196 
 ROSC BZ EP   9   1142 42.74                             116    1.38 0  255 211 
 ROSC BE ES       1143 12.49                             116   -0.09 8  255 211 
 ROSC BZ I        1143 20.47        50.5 0.45            117            255 211 
 URE  HZ EP       1142 43.58                             113   -0.69 7  285 292 
 URE  HE ES   2   1143 14.59                             113   -1.79 4  285 292 
 URE  HZ I        1143 26.05        15.7 0.16            114            285 292 
 GUY2CHZ EP       1142 46.95                             112    0.04 7  304 235 
 GUY2CHE ES       1143 21.95                             112    0.87 7  304 235 
 GUY2CHZ I        1143 30.41        37.8 0.56                           304 235 
 PTGC HZ IP   2 C 1142 45.66                             111   -1.25 4  309 159 
 PTGC HE ES   3   1143 18.89                             111   -2.20 2  309 159 
 PTGC HZ I        1143 21.50        27.5 0.28            113            309 159 
 DBB  EZ EP       1142 51.25                             109    0.50 7  342 274 
 DBB  EE ES       1143 27.54                             109   -0.38 7  342 274 
 DBB  EZ I        1143 33.88        17.4 0.18            110            342 274 
 PRA  HZ EP       1142 56.58                             106   -0.22 6  394 210 
 PRA  HE ES       1143 39.60                             106    0.90 6  394 210 
 PRA  HZ I        1143 45.99        25.1 0.62            107            394 210 
 ORTC HZ EP       1142 57.51                             106    0.29 6  398 216 
 ORTC HE ES       1143 39.58                             106    0.14 6  398 216 
 ORTC HZ I        1143 47.33        14.6 0.42            107            398 216 
 PAL  HZ EP       1142 58.52                             105    0.03 6  408 239 
 PAL  HN ES       1143 42.48                             105    0.78 6  408 239 
 PAL  HZ I        1143 44.84        13.1 0.26            107            408 239 
 SJC  HZ EP   9   1142 56.44                             105   -2.19 0  409 327 
 SJC  HE ES       1143 40.15                                    0.39 6  409 327 
 SJC  HZ I        1143 42.77         8.5 0.46            107            409 327 
                                                                                
