 2012  324 1104 18.2 L   6.706 -73.210140.9  RSN  4 0.3 1.3LRSN                1
 GAP=218        0.56       7.4     6.4  7.6  0.2705E+02  0.6810E+01 -0.5171E+00E
 ACTION:UP  12-03-31 23:22 OP:EP   STATUS:               ID:20120324110418 L   I
 2012-03-24-1100-00M.COL___196                                                 6
 STAT SP IPHASW D HRMM SECON CODA AMPLIT PERI AZIMU VELO SNR AR TRES W  DIS CAZ7
 BAR2 SZ ES   2   11 4 51.20                             175    -0.6 5   13 166 
 BAR2 SZ I        11 4 53.35         5.5 0.25                            13 166 
 BRR  HZ EP   2   11 4 38.94                             152     0.1 5   71 309 
 BRR  HE ES   2   11 4 55.34                             152     0.4 5   71 309 
 BRR  HZ I        11 5  7.40        10.8 0.29                            71 309 
 RUS  HZ EP   1   11 4 40.80                             146     0.0 7   91 171 
 RUS  HE ES   1   11 4 58.60                             146     0.2 7   91 171 
 RUS  HZ I        11 5  0.30         1.5 0.24                            91 171 
 PTB  HZ EP   1   11 4 43.87                             133    -0.1 7  139 262 
 PTB  HN ES   1   11 5  4.06                             133     0.0 7  139 262 
 PTB  HZ I        11 5  7.00         1.3 0.10                           139 262 
                                                                                
