 2014  924 1458 16.6 L   6.796 -73.114148.0  RSN 14 0.4 2.0LRSN                1
 GAP=141        0.96       3.5     4.5  5.8  0.1298E+01  0.4827E+01  0.4752E+01E
 Epicentro: LOS SANTOS - SANTANDER                                             3
 ACTION:UPD 14-10-03 23:08 OP:nd   STATUS:               ID:20140924145816 L   I
 OLDACT:DUP 14-09-24 23:37 OP:spq  STATUS:               ID:20140924144820d    3
 OLDACT:UP  14-09-24 23:33 OP:spq  STATUS:               ID:20140924144819d    3
 OLDACT:DUP 14-09-24 23:27 OP:spq  STATUS:               ID:20140924144819d    3
 OLDACT:UP  14-09-24 23:23 OP:spq  STATUS:               ID:20140924144818     3
 OLDACT:REG 14-09-24 19:33 OP:spq  STATUS:               ID:20140924144818     3
 2014-09-24-1448-18M.COL___284                                                 6
 STAT SP IPHASW D HRMM SECON CODA AMPLIT PERI AZIMU VELO AIN AR TRES W  DIS CAZ7
 BAR2 SZ EP     C 1458 36.40                             170   -0.1410 23.8 199 
 BAR2 SZ ES   1   1458 51.77                             170   -0.30 7 23.8 199 
 BAR2 SZ I        1458 53.12        22.4 0.28            167           23.8 199 
 BRR  HZ EP       1458 38.42                             152    0.2110 74.5 298 
 BRR  HN ES       1458 55.74                             152    0.7010 74.5 298 
 BRR  HZ I        1458 57.35        14.5 0.26            151           74.5 298 
 PAM  SZ EP   1   1458 39.20                             152    0.22 7 75.5  37 
 PAM  SN ES   1   1458 56.51                             152    0.11 7 75.5  37 
 PAM  SZ I        1458 58.56        12.5 0.20            157           75.5  37 
 RUS  HZ EP       1458 40.57                             145    0.0110100.0 178 
 RUS  HE ES   1   1458 58.89                             145   -0.33 7100.0 178 
 PTB  HZ EP       1458 43.30                             132   -0.79 9  151 259 
 PTB  HE ES       1459  4.98                             132   -0.52 9  151 259 
 PTB  HZ I        1459 10.38        13.5 0.40            132            151 259 
 SPBC HZ EP       1458 45.39                             129   -0.09 9  165 220 
 SPBC HN ES       1459  8.65                             129    0.66 9  165 220 
 SPBC HZ I        1459 14.55        18.3 0.32            129            165 220 
 ZAR  HZ EP       1458 49.14                             123   -0.43 8  207 292 
 ZAR  HN ES       1459 15.37                             123    0.10 8  207 292 
 ZAR  HZ I        1459 20.92        11.6 0.60            123            207 292 
 SML  HE ES   1   1459 22.08                             118   -0.33 6  246 335 
 SML  HZ I        1459 27.34        11.7 0.10            120            246 335 
 CHI  HZ EP   1   1458 54.39                             118   -0.12 6  249 196 
 CHI  HN ES   1   1459 23.44                             118   -0.62 6  249 196 
 CHI  HZ I        1459 29.74         3.3 0.28            119            249 196 
 GUY2CHZ EP   1   1459  1.22                             113    0.58 5  304 235 
 GUY2CHN ES   4   1459 39.36                             113    4.39 0  304 235 
 GUY2CHZ I        1459 43.26         7.6 0.76                           304 235 
 TOL  SZ EP       1459  5.93                             110    0.70 6  346 225 
 TOL  SE ES   4   1459 45.09                             110    1.96 0  346 225 
 MON  HN ES   4   1459 42.13                             109   -2.50 0  357 308 
 MON  HZ I        1459 44.58         2.1 0.40            110            357 308 
 PRA  HZ EP       1459 10.87                             107    0.48 6  393 210 
 PRA  HE ES   1   1459 52.55                             107    0.23 4  393 210 
 PRA  HZ I        15 0  0.80         4.2 0.54            108            393 210 
 SJC  HZ EP   4   1459 10.60                             106   -1.93 0  412 327 
 SJC  HN ES   4   1459 52.35                             106   -3.79 0  412 327 
 SJC  HZ I        1459 52.96         1.3 0.45            107            412 327 
                                                                                
