 2016 1224 1237 17.1 L   6.874 -73.147156.3  RSN 25 0.7 3.0LRSN 3.7WRSN        1
 SPEC AVERAGE  MO 14.6 ST0.844 OM  3.0 f0 1.41 R2.5371 AL 0.00 WI 30.0 MW  3.7 3
 SPEC SD       MO  0.4 ST  1.0 OM  0.6 f0 1.03 R2.0038 AL      WI      MW  0.3 3
 GAP= 64        1.51       4.9     4.3  6.9  0.8451E+00  0.7002E+01  0.6252E+01E
 Epicentro: LOS SANTOS - SANTANDER                                             3
 SPEC BRR HH Z MO 14.3 ST  1.6 OM  2.4 f0 2.26 R0.8513 AL-0.00 WI 30.0 MW  3.5 3
 SPEC BRR HH Z T123755 K 0.000 GD  170 VS 5.20 DE 3.50 Q0750.0 QA 1.50 Q1 0.00 3
 SPEC RUS HH Z MO 14.7 ST0.450 OM  2.7 f0 1.14 R1.6877 AL-0.00 WI 30.0 MW  3.7 3
 SPEC RUS HH Z T123759 K 0.000 GD  190 VS 5.20 DE 3.50 Q0750.0 QA 1.50 Q1 0.00 3
 SPEC ZAR HH Z MO 14.1 ST  2.8 OM  2.0 f0 3.26 R0.5902 AL-0.00 WI 30.0 MW  3.4 3
 SPEC ZAR HH Z T123814 K 0.000 GD  254 VS 5.20 DE 3.50 Q0750.0 QA 1.50 Q1 0.00 3
 SPEC CHI HH Z MO 14.4 ST0.156 OM  2.2 f0 1.01 R1.9050 AL-0.00 WI 30.0 MW  3.5 3
 SPEC CHI HH Z T123823 K 0.000 GD  299 VS 5.20 DE 3.50 Q0750.0 QA 1.50 Q1 0.00 3
 SPECGUY2CHH Z MO 15.3 ST0.038 OM  3.1 f00.302 R6.3709 AL-0.00 WI 30.0 MW  4.2 3
 SPECGUY2CHH Z T123833 K 0.000 GD  343 VS 5.20 DE 3.50 Q0750.0 QA 1.50 Q1 0.00 3
 SPEC CBOCHH Z MO 14.7 ST0.038 OM  2.4 f00.504 R3.8175 AL-0.00 WI 30.0 MW  3.7 3
 SPEC CBOCHH Z T123840 K 0.000 GD  370 VS 5.20 DE 3.50 Q0750.0 QA 1.50 Q1 0.00 3
 OLDACT:UP  16-12-25 00:17 OP:edw  STATUS:               ID:20161224122744     3
 OLDACT:UP  16-12-25 00:16 OP:edw  STATUS:               ID:20161224122744     3
 OLDACT:UP  16-12-25 00:11 OP:edw  STATUS:               ID:20161224122744     3
 OLDACT:REG 16-12-24 20:25 OP:edw  STATUS:               ID:20161224122744     3
 ACTION:UPD 17-01-11 20:18 OP:rebc STATUS:               ID:20161224123717 L   I
 OLDACT:UP  16-12-25 00:19 OP:edw  STATUS:               ID:20161224122744     3
 2016-12-24-1228-00M.COL___369                                                 6
 STAT SP IPHASW D HRMM SECON CODA AMPLIT PERI AZIMU VELO AIN AR TRES W  DIS CAZ7
 BAR2 EZ IP     C 1237 38.17                             168   -0.0110 31.4 187 
 BAR2 EZ ES       1237 54.36                             168   -0.2610 31.4 187 
 BAR2 EZ I        1237 56.05       422.8 0.42            165           31.4 187 
 BRR  HZ IP     C 1237 39.99                             155    0.7810 67.5 292 
 BRR  HN ES       1237 56.51                             155    0.0510 67.5 292 
 BRR  HZ I        1238  1.19       244.2 0.18            155           67.5 292 
 PAM  EZ IP     C 1237 40.97                             154    0.8410 71.4  44 
 PAM  EN ES       1237 58.25                             154    0.1610 71.4  44 
 PAM  EZ I        1238  0.39       290.3 0.52            159           71.4  44 
 RUS  HZ EP       1237 42.17                             144   -0.3110  109 176 
 RUS  HN ES       1238  0.84                             144   -1.4410  109 176 
 RUS  HZ I        1238  2.14       403.4 0.32            143            109 176 
 PTB  HZ EP       1237 45.18                             134    0.08 9  149 256 
 PTB  HN ES       1238  5.88                             134   -1.05 9  149 256 
 PTB  HZ I        1238  8.96        76.0 0.36            133            149 256 
 TAM  HZ IP     C 1237 46.56                             132    0.70 9  158 108 
 TAM  HN ES       1238  8.67                             132    0.38 9  158 108 
 TAM  HZ I        1238 18.05        36.3 0.50            134            158 108 
 ZAR  HZ EP   4   1237 50.89                             125    0.94 0  201 290 
 ZAR  HE ES       1238 16.18                             125    0.61 9  201 290 
 ZAR  HZ I        1238 21.92       152.8 0.28            126            201 290 
 NOR  HZ EP       1237 54.28                             120    0.32 8  239 233 
 NOR  HN ES       1238 22.71                             120   -0.00 8  239 233 
 NOR  HZ I        1238 25.10        76.1 0.16            120            239 233 
 CHI  HZ EP     D 1237 56.40                             118    0.15 8  256 195 
 CHI  HN ES   4   1238 25.13                             118   -1.65 0  256 195 
 CHI  HZ I        1238 35.62        71.5 0.40            118            256 195 
 ROSC BZ IP   4   1237 57.85                             118    1.28 0  260 210 
 ROSC BN ES   4   1238 29.90                             118    2.55 0  260 210 
 ROSC BZ I        1238 32.89       165.1 0.40            118            260 210 
 URE  HZ EP       1237 58.79                             116    0.42 7  281 290 
 URE  HE ES   4   1238 29.42                             116   -1.13 0  281 290 
 URE  HZ I        1238 38.79       102.7 0.20            116            281 290 
 LL1C HZ EP   4   1238  3.33                             114    3.04 0  298 351 
 LL1C HN ES   4   1238 38.59                             114    4.61 0  298 351 
 GUY2CHZ EP       1238  2.26                             114    0.52 7  306 234 
 GUY2CHN ES   4   1238 35.24                             114   -1.31 0  306 234 
 GUY2CHZ I        1238 44.21        63.0 0.38                           306 234 
 VIL  EZ EP       1238  1.81                             113   -0.11 7  311 191 
 VIL  EN ES   4   1238 35.80                             113   -1.07 0  311 191 
 VIL  EZ I        1238 41.23        73.5 0.38            114            311 191 
 PTGC HZ IP     D 1238  1.27                             113   -1.05 7  316 159 
 PTGC HN ES   4   1238 34.65                             113   -2.93 0  316 159 
 PTGC HZ I        1238 39.62        79.3 0.32            113            316 159 
 LL6C HZ EP   4   1237 43.60                             113   -18.8 0  317 358 
 LL6C HE ES   4   1238 18.15                             113   -19.5 0  317 358 
 LL6C HZ I        1238 24.10        15.5 0.22            114            317 358 
 CBOC HZ EP   4   1238  5.81                             112    1.06 0  336 251 
 CBOC HE ES       1238 42.38                             112    0.47 7  336 251 
 CBOC HZ I        1238 52.93        17.1 0.52            112            336 251 
 DBB  EZ EP   4   1238  5.68                             111    0.73 0  339 273 
 DBB  EN ES   4   1238 40.86                             111   -1.41 0  339 273 
 DBB  EZ I        1238 43.43        30.5 0.20            112            339 273 
 ARGC HZ EP   4   1238  8.37                             110    2.07 0  351 340 
 ARGC HN ES   4   1238 47.41                             110    2.75 0  351 340 
 ARGC HZ I        1238 49.94        20.1 0.40            112            351 340 
 APAC HZ EP   4   1238 11.94                             108    0.57 0  396 287 
 APAC HN ES   2   1238 53.45                             108   -0.24 3  396 287 
 APAC HZ I        1238 59.96        18.7 0.42            109            396 287 
 ORTC HZ EP     C 1238 12.39                             108    0.23 6  402 215 
 ORTC HN ES       1238 55.82                             108    0.72 6  402 215 
 ORTC HZ I        1239  2.05        44.0 0.40            108            402 215 
 SJC  HZ EP   4   1238 12.36                             108    0.13 0  402 326 
 SJC  HN ES       1238 53.40                             108   -1.82 6  402 326 
 SJC  HZ I        1238 57.65        21.4 0.62            109            402 326 
 PAL  HZ EP       1238 13.66                             107    0.55 6  410 238 
 PAL  HN ES   4   1238 56.31                             107   -0.49 0  410 238 
 PAL  HZ I        1238 59.80        18.0 0.20            108            410 238 
 LCBC HZ EP   4   1238 20.78                             107    6.88 0  417 302 
 LCBC HE ES   4   1239  0.56                             107    2.37 0  417 302 
 CRJC HZ EP   4 C 1238 18.56                             105   -0.40 0  459   4 
 CRJC HN ES       1239  5.26                             105   -1.94 5  459   4 
 CRJC HZ I        1239  7.32        23.9 0.16            106            459   4 
 YOT  HZ EP       1238 20.64                             104   -0.44 5  477 228 
 YOT  HN ES   4   1239 16.71                             104    5.73 0  477 228 
 SMAR HZ EP   4   1238 23.06                             104    0.74 0  489 346 
 SMAR HN ES   2   1239 10.83                             104   -2.36 2  489 346 
 SMAR HZ I        1239 15.54        18.3 0.16            105            489 346 
 MAL  EZ EP   4   1238 32.68                             102    1.73 0  562 236 
 MAL  EN ES   4   1239 31.28                             102    2.74 0  562 236 
                                                                                
