 2012  524 1203  6.7 L   6.761 -73.175138.1  RSN  6 0.3 1.8LRSN                1
 GAP=135        0.75       4.5     4.6  7.8 -0.7010E+00  0.1378E+02 -0.5596E+01E
 Epicentro: LOS SANTOS - SANTANDER                                             3
 ACTION:UP  12-07-05 12:07 OP:pat  STATUS:               ID:20120524120306 L   I
 2012-05-24-1200-00M.COL___200                                                 6
 STAT SP IPHASW D HRMM SECON CODA AMPLIT PERI AZIMU VELO SNR AR TRES W  DIS CAZ7
 BAR2 SZ EP   1   12 3 25.43                             172     0.1 7   19 182 
 BAR2 SZ ES   1   12 3 39.58                             172    -0.2 7   19 182 
 BAR2 SZ I        12 3 41.89        23.3 0.21                            19 182 
 PAM  SZ EP   1   12 3 28.18                             148    -0.2 7   83  39 
 PAM  SE ES   1   12 3 45.21                             148    -0.2 7   83  39 
 RUS  HZ EP   1   12 3 29.38                             143     0.0 7   97 174 
 RUS  HN ES   1   12 3 47.62                             143     0.5 7   97 174 
 RUS  HZ I        12 3 49.81         5.5 0.38                            97 174 
 PTB  HZ EP   1   12 3 32.29                             131    -0.4 7  144 260 
 PTB  HN ES   1   12 3 52.46                             131    -0.5 7  144 260 
 PTB  HZ I        12 3 55.14         5.2 0.19                           144 260 
 OCA  HN ES   2   12 3 57.27                             127     0.6 5  164 354 
 ZAR  HZ EP   1   12 3 38.58                             121     0.1 6  203 294 
 ZAR  HN ES   1   12 4  3.82                             121     0.5 6  203 294 
 ZAR  HZ I        12 4 10.15         8.2 0.26                           203 294 
                                                                                
