 2011 1024 1513 13.7 L   6.541 -73.445120.8  RSN  5 0.2 1.4LRSN                1
 GAP=184        0.35       6.2     7.0  4.1  0.3199E+02  0.4396E+01  0.3108E+01E
 Epicentro: HATO - SANTANDER                                                   3
 ACTION:UPD 12-07-13 16:05 OP:ep   STATUS:               ID:20111024151313 L   I
 2011-10-24-1500-00M.COL___175                                                 6
 STAT SP IPHASW D HRMM SECON CODA AMPLIT PERI AZIMU VELO AIN AR TRES W  DIS CAZ7
 BAR2 SZ EP       1513 30.59                             165    0.1110 29.6  79 
 BAR2 SZ ES   1   1513 43.53                             165   -0.06 7 29.6  79 
 BAR2 SZ I        1513 44.25         6.8 0.58                          29.6  79 
 BTL  SZ EP       1513 31.21                             158    0.0910 46.1  25 
 GIR2 SZ EP       1513 32.00                             149   -0.0410 65.7  25 
 GIR2 SZ ES   3   1513 46.03                             149   -0.33 2 65.7  25 
 BRR  HZ EP       1513 32.04                             148   -0.0210 69.2 335 
 BRR  HE ES   1   1513 46.31                             148   -0.08 7 69.2 335 
 BRR  HZ I        1513 46.83        16.5 0.32                          69.2 335 
 RUS  HZ EP   3   1513 32.77                             143   -0.87 2 82.1 151 
 RUS  HN ES   3   1513 49.39                             143    0.19 2 82.1 151 
 RUS  HZ I        1513 50.65         1.8 0.38                          82.1 151 
                                                                                
