 2010 1224 1442 27.4 L   6.784 -73.174146.0  RSN  4 0.3 1.7LRSN                1
 GAP=156        0.57       5.2     9.8  7.1 -0.3560E+02  0.2580E+02 -0.1365E+02E
 Epicentro: LOS SANTOS - SANTANDER                                             3
 ACTION:UP  11-01-14 15:27 OP:pat  STATUS:               ID:20101224144227 L   I
 2010-12-24-1437-46S.COL___133                                                 6
 STAT SP IPHASW D HRMM SECON CODA AMPLIT PERI AZIMU VELO SNR AR TRES W  DIS CAZ7
 BAR2 SZ EP   1   1442 46.80                             172    -0.2 8   21 183 
 BAR2 SZ ES   1   1443  2.39                             172     0.1 8   21 183 
 BAR2 SZ I        1443  4.59        14.0 0.30                            21 183 
 RUS  HZ EP   2   1442 50.91                             145    -0.1 5   99 174 
 RUS  HN ES   2   1443  9.75                             145     0.2 5   99 174 
 RUS  HZ I        1443 10.78         3.9 0.24                            99 174 
 GRA  SZ IP       1442 52.73                             137    -0.110  128  19 
 GRA  SZ I        1442 53.84         8.6 0.33                           128  19 
 GRA  SZ ES   1   1443 12.97                             137     0.2 7  128  19 
 NOR  SZ EP   2   1443  3.60                             119     0.8 4  231 234 
 NOR  SN ES   2   1443 29.99                             119    -0.4 4  231 234 
                                                                                
