 2014  924 1742 36.9 L   6.800 -73.165142.7  RSN  5 0.3 1.4LRSN                1
 GAP=142        0.63       4.1     3.8  5.7 -0.7535E+01  0.5005E+01 -0.1937E+01E
 Epicentro: LOS SANTOS - SANTANDER                                             3
 ACTION:UPD 14-10-03 23:08 OP:nd   STATUS:               ID:20140924174236 L   I
 OLDACT:DUP 14-09-25 01:50 OP:spq  STATUS:               ID:20140924173820d    3
 OLDACT:UP  14-09-25 01:48 OP:spq  STATUS:               ID:20140924173819d    3
 OLDACT:UP  14-09-25 01:42 OP:spq  STATUS:               ID:20140924173819d    3
 OLDACT:DUP 14-09-25 01:39 OP:spq  STATUS:               ID:20140924173819d    3
 2014-09-24-1738-18M.COL___284                                                 6
 STAT SP IPHASW D HRMM SECON CODA AMPLIT PERI AZIMU VELO AIN AR TRES W  DIS CAZ7
 BAR2 SZ EP       1742 56.65                             170    0.4510 23.0 185 
 BAR2 SZ ES   1   1743 11.31                             170    0.09 7 23.0 185 
 BAR2 SZ I        1743 13.08         9.6 0.30            171           23.0 185 
 PAM  SZ EP       1742 59.05                             150    0.1310 78.8  41 
 PAM  SN ES   1   1743 15.62                             150   -0.45 7 78.8  41 
 PAM  SZ I        1743 18.15         6.5 0.50            152           78.8  41 
 RUS  HZ EP   1   1743  0.49                             143    0.08 7  101 175 
 RUS  HN ES   1   1743 18.64                             143   -0.07 7  101 175 
 RUS  HZ I        1743 19.89         3.7 0.38            146            101 175 
 PTB  HZ EP       1743  3.18                             132   -0.29 9  146 259 
 PTB  HN ES       1743 24.35                             132    0.19 9  146 259 
 PTB  HZ I        1743 25.61         1.8 0.16            134            146 259 
 SPBC HZ EP       1743  4.91                             129   -0.17 9  162 218 
 SPBC HN ES       1743 26.85                             129   -0.18 9  162 218 
 SPBC HZ I        1743 28.40         4.4 0.12            131            162 218 
                                                                                
