 2012  624 1611 43.5 L   6.833 -73.153145.2  RSN  5 0.4 1.2LRSN                1
 GAP=145        0.69       9.6     5.5  9.3 -0.1398E+02  0.1186E+02  0.2677E+02E
 Epicentro: LOS SANTOS - SANTANDER                                             3
 ACTION:UPD 12-08-06 17:52 OP:ep   STATUS:               ID:20120624161143 L   I
 2012-06-24-1610-00M.COL___199                                                 6
 STAT SP IPHASW D HRMM SECON CODA AMPLIT PERI AZIMU VELO AIN AR TRES W  DIS CAZ7
 BAR2 SZ EP   1   1612  3.31                             169    0.17 7 26.8 187 
 BAR2 SZ I        1612  3.49         4.4 0.21                          26.8 187 
 BAR2 SZ ES   2   1612 18.17                             169   -0.29 5 26.8 187 
 BRR  HZ EP   1   1612  4.94                             153    0.49 7 68.8 296 
 BRR  HN ES   1   1612 21.24                             153    0.44 7 68.8 296 
 PAM  SN ES   1   1612 22.35                             151   -0.35 7 75.1  42 
 PTB  HZ EP   1   1612 10.12                             132   -0.30 7  148 257 
 PTB  HN ES   1   1612 31.27                             132   -0.15 7  148 257 
 PTB  HZ I        1612 37.10         1.7 0.19                           148 257 
 ZAR  HN ES   2   1612 40.07                             122   -0.74 4  202 291 
                                                                                
