 2011 1024 1204 52.3 L   6.794 -73.141148.6  RSN  5 0.4 1.7LRSN                1
 GAP=137        0.52       5.4     7.8 11.9 -0.8036E+00 -0.6880E+01  0.7911E+01E
 Epicentro: LOS SANTOS - SANTANDER                                             3
 ACTION:UPD 12-07-13 16:05 OP:ep   STATUS:               ID:20111024120452 L   I
 2011-10-24-1200-00M.COL___175                                                 6
 STAT SP IPHASW D HRMM SECON CODA AMPLIT PERI AZIMU VELO AIN AR TRES W  DIS CAZ7
 BAR2 SZ ES   3   12 5 27.13                             171   -0.71 2 22.7 192 
 GIR2 SZ EP   3   12 5 12.29                             168   -0.05 2 32.1 350 
 BRR  HZ EP       12 5 13.60                             153   -0.2110 72.0 299 
 BRR  HE ES   3   12 5 32.02                             153    1.44 2 72.0 299 
 BRR  HZ I        12 5 37.87        10.3 0.34                          72.0 299 
 PAM  SZ EP       12 5 14.85                             151    0.0110 77.6  39 
 PAM  SE ES   3   12 5 32.41                             151    0.00 2 77.6  39 
 RUS  HZ EP       12 5 16.46                             144    0.1710 99.9 176 
 RUS  HN ES   3   12 5 34.63                             144   -0.36 2 99.9 176 
                                                                                
