 2017 1124 1113 22.6 L   6.781 -73.182134.5  RSN  5 0.2 1.2LRSN                1
 GAP=133        0.64       3.2     2.9  5.0 -0.1801E+00  0.5700E+01 -0.2727E+01E
 Epicentro: LOS SANTOS - SANTANDER                                             3
 ACTION:UPD 17-12-12 19:59 OP:rebc STATUS:               ID:20171124111322 L   I
 OLDACT:REG 17-11-24 20:06 OP:edw  STATUS:               ID:20171124110739     3
 2017-11-24-1108-00M.COL___483                                                 6
 STAT SP IPHASW D HRMM SECON CODA AMPLIT PERI AZIMU VELO AIN AR TRES W  DIS CAZ7
 BAR2 HZ EP       1113 40.67                             171   -0.1310 20.8 180 
 BAR2 HZ ES       1113 55.08                             171    0.0610 20.8 180 
 BAR2 HZ I        1113 56.68        10.0 0.22            172           20.8 180 
 PAM  EZ IP     D 1113 43.65                             147   -0.2310 81.6  41 
 PAM  EE ES       1114  0.57                             147    0.0710 81.6  41 
 PAM  EZ I        1114  0.85         1.8 0.42            149           81.6  41 
 RUS  HZ EP       1113 44.94                             142   -0.1610 98.8 174 
 RUS  HN ES       1114  2.93                             142    0.2510 98.8 174 
 RUS  HZ I        1114  3.81         2.2 0.24            145           98.8 174 
 PTB  HZ EP       1113 48.54                             130    0.30 9  143 259 
 PTB  HZ IP       1113 48.80                                            143 259 
 PTB  HN ES       1114  7.78                             130   -0.48 9  143 259 
 PTB  HZ I        1114  8.77         1.0 0.26            130            143 259 
 ZAR  HZ EP       1113 54.21                             120    0.20 9  201 293 
 ZAR  HE ES       1114 18.74                             120    0.22 9  201 293 
 ZAR  HZ I        1114 27.18         2.5 0.30            120            201 293 
                                                                                
