 2012 1024 1941  2.5 L   6.771 -73.104149.5  RSN  4 0.3 1.9LRSN                1
 GAP=143        0.57       3.6     7.1  7.2 -0.6626E+01  0.1549E+02 -0.8357E+00E
 Epicentro: LOS SANTOS - SANTANDER                                             3
 ACTION:UPD 12-11-22 17:05 OP:ep   STATUS:               ID:20121024194102 L   I
 2012-10-24-1940-00M.COL___234                                                 6
 STAT SP IPHASW D HRMM SECON CODA AMPLIT PERI AZIMU VELO AIN AR TRES W  DIS CAZ7
 BAR2 SZ EP   1   1941 22.21                             171   -0.29 7 21.6 204 
 BRR  HZ EP   1   1941 24.11                             151   -0.22 7 76.8 299 
 BRR  HZ I        1941 24.41        28.1 0.17                          76.8 299 
 BRR  HE ES   2   1941 41.75                             151    0.36 5 76.8 299 
 PAM  SZ EP   1   1941 25.03                             151   -0.03 7 77.1  35 
 PAM  SN ES       1941 42.72                             151    0.0410 77.1  35 
 PAM  SN I        1941 43.68         9.1 0.20                          77.1  35 
 RUS  HZ EP   1   1941 26.85                             145    0.51 7 97.2 179 
 RUS  HN ES       1941 44.85                             145   -0.1110 97.2 179 
 RUS  HN I        1941 46.63        10.9 0.16                          97.2 179 
                                                                                
