 2017  224 1427 26.7 L   6.750 -73.146150.4  RSN  6 0.2 1.3LRSN                1
 GAP=139        0.67       3.5     3.0  5.1  0.9208E+00  0.2694E+01  0.8639E+00E
 Epicentro: LOS SANTOS - SANTANDER                                             3
 ACTION:UPD 17-05-24 15:40 OP:jn   STATUS:               ID:20170224142726 L   I
 OLDACT:DUP 17-02-24 22:53 OP:lv   STATUS:               ID:20170224141747d    3
 2017-02-24-1418-00M.COL___388                                                 6
 STAT SP IPHASW D HRMM SECON CODA AMPLIT PERI AZIMU VELO AIN AR TRES W  DIS CAZ7
 BAR2 EZ EP       1427 46.78                             173   -0.0510 17.9 193 
 BAR2 EZ ES       1428  2.06                             173   -0.4410 17.9 193 
 BAR2 EZ I        1428  3.33        10.6 0.23            172           17.9 193 
 BRR  HZ EP   4   1427 50.57                             152    2.03 0 74.0 302 
 BRR  HN ES       1428  6.06                             152    0.5110 74.0 302 
 PAM  EZ EP       1427 49.66                             150   -0.0510 81.8  37 
 PAM  EN ES       1428  7.61                             150   -0.0210 81.8  37 
 PAM  EZ I        1428  9.26         2.6 0.61            152           81.8  37 
 RUS  HZ EP       1427 50.80                             146    0.2410 95.0 176 
 RUS  HN ES       1428  9.27                             146    0.1210 95.0 176 
 RUS  HZ I        1428 11.01         2.6 0.22            147           95.0 176 
 PTB  HZ EP       1427 53.84                             133   -0.15 9  147 261 
 PTB  HN ES       1428 15.18                             133   -0.08 9  147 261 
 PTB  HZ I        1428 18.94         1.9 0.16            134            147 261 
 ZAR  HN ES       1428 25.26                             123   -0.16 8  206 294 
                                                                                
