 2014  724 1818 51.0 L   6.697 -73.158158.2  RSN  4 0.2 1.6LRSN                1
 GAP=228        0.42       4.5     4.1  5.2  0.1096E+02 -0.1384E+01 -0.2733E+01E
 Epicentro: VILLANUEVA - SANTANDER                                             3
 ACTION:UPD 15-03-16 20:46 OP:nd   STATUS:               ID:20140724181851 L   I
 OLDACT:REG 14-07-24 21:21 OP:fm   STATUS:               ID:20140724181818     3
 2014-07-24-1818-18M.COL___272                                                 6
 STAT SP IPHASW D HRMM SECON CODA AMPLIT PERI AZIMU VELO AIN AR TRES W  DIS CAZ7
 BRR  HZ EP   1   1819 13.76                             153   -0.05 8 76.2 307 
 BRR  HE ES   1   1819 31.61                             153    0.03 8 76.2 307 
 BRR  HZ I        1819 35.26        11.7 0.38            153           76.2 307 
 RUS  HZ EP   1   1819 15.04                             149   -0.26 8 89.4 175 
 RUS  HN ES   1   1819 34.35                             149    0.12 8 89.4 175 
 RUS  HZ I        1819 37.54         2.8 0.36            152           89.4 175 
 PTB  HZ EP       1819 19.02                             135    0.2410  145 263 
 PTB  HN ES       1819 40.31                             135   -0.1110  145 263 
 PTB  HZ I        1819 45.72         4.5 0.58            137            145 263 
 ZAR  HN ES   1   1819 50.83                             124   -0.05 7  207 295 
 ZAR  HZ I        1819 56.39         4.7 0.30            127            207 295 
                                                                                
