 2017  424 1606 18.3 L   6.382 -73.591104.7  RSN  4 0.3 1.5LRSN                1
 GAP=218        0.54       5.6     4.1  6.6  0.8472E+01  0.1800E+02  0.1560E+02E
 Epicentro: SANTA HELENA DEL OPON - SANTANDER                                  3
 ACTION:UPD 17-05-30 21:15 OP:jn   STATUS:               ID:20170424160618 L   I
 OLDACT:UP  17-04-24 23:33 OP:and  STATUS:               ID:20170424155741     3
 OLDACT:UP  17-04-24 23:33 OP:and  STATUS:               ID:20170424155741     3
 OLDACT:UP  17-04-24 23:33 OP:and  STATUS:               ID:20170424155741     3
 OLDACT:UP  17-04-24 23:33 OP:and  STATUS:               ID:20170424155741     3
 OLDACT:UP  17-04-24 23:32 OP:and  STATUS:               ID:20170424155741     3
 OLDACT:UP  17-04-24 23:32 OP:and  STATUS:               ID:20170424155741     3
 OLDACT:UP  17-04-24 23:32 OP:and  STATUS:               ID:20170424155741     3
 OLDACT:UP  17-04-24 23:32 OP:and  STATUS:               ID:20170424155741     3
 OLDACT:REG 17-04-24 20:43 OP:and  STATUS:               ID:20170424155741     3
 2017-04-24-1558-00M.COL___371                                                 6
 STAT SP IPHASW D HRMM SECON CODA AMPLIT PERI AZIMU VELO AIN AR TRES W  DIS CAZ7
 BAR2 EZ IP     D 16 6 34.36                             152    0.1410 50.8  63 
 BAR2 EZ ES       16 6 46.71                             152    0.0910 50.8  63 
 BAR2 EZ I        16 6 48.03        26.4 0.42            170           50.8  63 
 BRR  HZ EP   2   16 6 35.16                             139   -0.83 5 81.3 351 
 BRR  HN ES       16 6 49.72                             139   -0.0510 81.3 351 
 PTB  HZ IP     D 16 6 37.22                             133   -0.1510 97.3 280 
 PTB  HN ES   2   16 6 52.17                             133   -0.05 5 97.3 280 
 PTB  HZ I        16 6 58.68         2.3 0.30            135           97.3 280 
 ZAR  HZ EP       16 6 46.63                             114    0.16 9  186 311 
 ZAR  HE ES   2   16 7  8.79                             114    0.37 4  186 311 
 ZAR  HZ I        16 7 10.90         4.4 0.56            120            186 311 
                                                                                
