 2013 1224 1344 44.1 L   6.762 -73.191140.4  RSN  5 0.1 1.5LRSN                1
 GAP=133        0.39       2.3     2.0  4.0 -0.1053E+01  0.3295E+01 -0.2141E+01E
 Epicentro: VILLANUEVA - SANTANDER                                             3
 ACTION:UPD 14-01-13 10:20 OP:ep   STATUS:               ID:20131224134444 L   I
 OLDACT:REG 13-12-24 14:20 OP:jn   STATUS:               ID:20131224134000     3
 2013-12-24-1340-00M.COL___285                                                 6
 STAT SP IPHASW D HRMM SECON CODA AMPLIT PERI AZIMU VELO AIN AR TRES W  DIS CAZ7
 BAR2 SZ ES   1   1345 17.77                             172    0.06 7 18.8 177 
 BAR2 SZ I        1345 19.06        12.7 0.20            174           18.8 177 
 PAM  SZ EP       1345  6.21                             148    0.0910 83.8  40 
 PAM  SN ES       1345 23.21                             148   -0.1110 83.8  40 
 PAM  SZ I        1345 26.14         3.0 0.36            151           83.8  40 
 RUS  HZ EP   2   1345  7.20                             144    0.17 5 96.9 173 
 RUS  HN ES       1345 24.97                             144    0.0410 96.9 173 
 RUS  HZ I        1345 26.88         4.4 0.58            147           96.9 173 
 PTB  HZ EP       1345  9.91                             132   -0.18 9  142 260 
 PTB  HN ES       1345 30.30                             132   -0.08 9  142 260 
 PTB  HZ I        1345 34.75         3.9 0.20            133            142 260 
 ZAR  HE ES   1   1345 40.96                             122    0.30 6  201 294 
 ZAR  HZ I        1345 43.53         4.8 0.26            123            201 294 
                                                                                
