 2013  524 1745 58.8 L   6.746 -73.182150.9  RSN  6 0.4 1.6LRSN                1
 GAP=134        0.90       5.5     5.3  9.7  0.2756E+01  0.3300E+00 -0.8706E+01E
 Epicentro: VILLANUEVA - SANTANDER                                             3
 ACTION:UPD 13-06-20 09:53 OP:ep   STATUS:               ID:20130524174558 L   I
 2013-05-24-1740-00M.COL___261                                                 6
 STAT SP IPHASW D HRMM SECON CODA AMPLIT PERI AZIMU VELO AIN AR TRES W  DIS CAZ7
 BAR2 SZ ES   1   1746 34.57                             173   -0.04 7 17.0 180 
 BAR2 SZ I        1746 35.80         9.4 0.18            177           17.0 180 
 BRR  HN ES   1   1746 38.24                             153    0.88 7 70.9 304 
 BRR  HZ I        1746 41.75         7.7 0.32            154           70.9 304 
 PAM  SZ EP       1746 22.07                             149    0.1210 84.5  39 
 PAM  SE ES   1   1746 39.59                             149   -0.45 7 84.5  39 
 PAM  SZ I        1746 43.87         5.9 0.46            151           84.5  39 
 RUS  HZ EP   1   1746 22.96                             146    0.33 7 95.0 173 
 RUS  HN ES       1746 41.06                             146   -0.2010 95.0 173 
 RUS  HZ I        1746 42.91         4.7 0.26            152           95.0 173 
 PTB  HN ES   1   1746 46.68                             134   -0.05 7  143 261 
 PTB  HZ I        1746 48.17         4.0 0.20            138            143 261 
 ZAR  HE ES   1   1746 56.12                             124   -0.75 6  203 294 
                                                                                
