 2014  224 1412 44.6 L   6.820 -73.140146.0  RSN  7 0.3 2.0LRSN                1
 GAP=202        0.67       2.6     3.7  4.8  0.2954E+01  0.4237E+01 -0.1161E+01E
 Epicentro: LOS SANTOS - SANTANDER                                             3
 ACTION:UPD 14-03-10 08:12 OP:ep   STATUS:               ID:20140224141244 L   I
 OLDACT:UP  14-02-24 18:31 OP:cam  STATUS:               ID:20140224140819     3
 OLDACT:UP  14-02-24 18:30 OP:cam  STATUS:               ID:20140224140819     3
 OLDACT:REG 14-02-24 16:46 OP:cam  STATUS:               ID:20140224140819     3
 2014-02-24-1408-19M.COL___229                                                 6
 STAT SP IPHASW D HRMM SECON CODA AMPLIT PERI AZIMU VELO AIN AR TRES W  DIS CAZ7
 BAR2 SZ EP       1413  4.46                             170    0.1510 25.6 190 
 BAR2 SZ ES       1413 19.65                             170   -0.0410 25.6 190 
 BAR2 SZ I        1413 21.27        27.6 0.44            169           25.6 190 
 RUS  HZ EP       1413  8.67                             143    0.1310  103 176 
 RUS  HN ES       1413 27.20                             143   -0.0110  103 176 
 RUS  HZ I        1413 29.68         8.8 0.50            145            103 176 
 PTB  HZ EP       1413 11.03                             132   -0.66 9  149 258 
 PTB  HN ES       1413 32.68                             132   -0.13 9  149 258 
 PTB  HZ I        1413 37.04        11.3 0.30            131            149 258 
 ZAR  HZ EP       1413 17.14                             122    0.10 9  204 292 
 ZAR  HE ES       1413 42.90                             122    0.56 9  204 292 
 ZAR  HZ I        1413 48.36        11.6 0.66            123            204 292 
 SML  HZ EP   1   1413 21.31                             118    0.26 6  242 335 
 SML  HE ES       1413 49.19                             118   -0.30 8  242 335 
 SML  HZ I        1413 54.17        10.5 0.22            119            242 335 
 CHI  HZ EP       1413 22.62                             117    0.06 8  251 195 
 CHI  HE ES       1413 52.23                             117    0.06 8  251 195 
 CHI  HZ I        1413 57.73         3.7 0.26            118            251 195 
 GUY2CHZ EP   4   1413 29.77                             112    1.35 0  303 234 
 GUY2CHE ES       1414  2.58                             112   -0.02 7  303 234 
 GUY2CHZ I        1414 10.28         4.1 0.54                           303 234 
                                                                                
