 2012  724 1919 29.6 L   6.766 -73.144143.0  RSN  6 0.4 1.8LRSN                1
 GAP=138        0.90       5.8     5.0  7.8  0.8273E+00  0.8424E+01 -0.5246E+01E
 Epicentro: LOS SANTOS - SANTANDER                                             3
 ACTION:UPD 12-08-14 11:45 OP:ep   STATUS:               ID:20120724191929 L   I
 2012-07-24-1917-40M.COL___208                                                 6
 STAT SP IPHASW D HRMM SECON CODA AMPLIT PERI AZIMU VELO AIN AR TRES W  DIS CAZ7
 BAR2 SZ EP   2   1919 48.38                             172    -0.4 5   20 192 
 BAR2 SZ ES   1   1920  3.77                             172    -0.1 7   20 192 
 BAR2 SZ I        1920  4.80        16.7 0.34            171             20 192 
 BRR  HZ EP       1919 50.68                             151     0.110   73 301 
 BRR  HN ES   1   1920  7.60                             151     0.7 7   73 301 
 BRR  HZ I        1920 11.42        29.8 0.17            149             73 301 
 PAM  SZ EP       1919 51.82                             149     0.110   80  38 
 PAM  SN ES   1   1920  8.39                             149    -0.5 7   80  38 
 RUS  HZ EP   1   1919 53.26                             144     0.5 7   97 176 
 RUS  HN ES   1   1920 10.96                             144     0.1 7   97 176 
 RUS  HZ I        1920 12.65         4.2 0.21            148             97 176 
 PTB  HZ EP   1   1919 55.72                             131    -0.6 7  147 260 
 PTB  HN ES   1   1920 16.61                             131    -0.5 7  147 260 
 PTB  HZ I        1920 19.16         7.8 0.15            131            147 260 
 ZAR  HZ EP   1   1920  2.19                             121     0.2 6  206 293 
 ZAR  HN ES   1   1920 27.38                             121     0.0 6  206 293 
 ZAR  HZ I        1920 34.89         8.2 0.25            122            206 293 
