 2011 1024 1300 37.5 L   6.783 -73.124135.7  RSN  7 0.4 1.6LRSN                1
 GAP=140        0.89       5.3     6.3  7.2  0.4870E+01  0.9860E+01 -0.7466E+00E
 Epicentro: LOS SANTOS - SANTANDER                                             3
 ACTION:UPD 12-07-13 16:05 OP:ep   STATUS:               ID:20111024130037 L   I
 2011-10-24-1300-00M.COL___175                                                 6
 STAT SP IPHASW D HRMM SECON CODA AMPLIT PERI AZIMU VELO AIN AR TRES W  DIS CAZ7
 BTL  SZ EP       13 0 56.41                             170    0.5610 21.9 313 
 BAR2 SZ EP       13 0 55.52                             170   -0.3310 22.0 197 
 BAR2 SZ ES   1   13 1  9.85                             170   -0.35 7 22.0 197 
 BAR2 SZ I        13 1 12.02        10.7 0.58                          22.0 197 
 GIR2 SZ EP       13 0 55.85                             165   -0.1610 33.6 347 
 GIR2 SZ ES   2   13 1 10.32                             165   -0.15 5 33.6 347 
 BRR  HZ EP       13 0 57.40                             149   -0.3110 74.2 299 
 BRR  HZ I        13 1  4.36        19.9 0.34                          74.2 299 
 BRR  HE ES   1   13 1 13.95                             149    0.44 7 74.2 299 
 PAM  SZ EP       13 0 58.39                             149   -0.2210 77.4  37 
 PAM  SN ES   1   13 1 15.29                             149    0.18 7 77.4  37 
 RUS  HZ EP       13 0 59.92                             142   -0.1610 98.5 177 
 RUS  HN ES   1   13 1 18.21                             142    0.49 7 98.5 177 
 RUS  HZ I        13 1 19.20         3.2 0.26                          98.5 177 
 ZAR  HZ EP       13 1 10.18                             120    0.60 8  207 292 
 ZAR  HN ES   2   13 1 33.63                             120   -1.01 4  207 292 
 ZAR  HZ I        13 1 36.49         3.9 0.28                           207 292 
                                                                                
