 2013  824 1044 26.4 L   6.431 -73.398 24.4  RSN  5 0.5 1.2LRSN                1
 GAP= 96        1.36       6.6    13.6 17.1  0.7776E+02  0.2237E+03  0.9980E+02E
 Epicentro: SIMACOTA - SANTANDER                                               3
 ACTION:UPD 14-01-14 09:06 OP:ep   STATUS:               ID:20130824104426 L   I
 OLDACT:REG 13-08-24 17:05 OP:stll STATUS:               ID:20130824103848     3
 2013-08-24-1038-48M.COL___223                                                 6
 STAT SP IPHASW D HRMM SECON CODA AMPLIT PERI AZIMU VELO AIN AR TRES W  DIS CAZ7
 BAR2 SZ EP       1044 33.25                             128    0.3910 29.8  53 
 BAR2 SZ ES       1044 37.81                             128   -0.1010 29.8  53 
 BAR2 SZ I        1044 39.98        11.0 0.18            146           29.8  53 
 RUS  HZ EP       1044 38.49                             108    0.0310 69.0 150 
 RUS  HN ES       1044 47.40                             108   -0.4610 69.0 150 
 RUS  HZ I        1044 47.81        11.6 0.38            106           69.0 150 
 BRR  HZ EP       1044 40.13                             105    0.2510 82.4 335 
 BRR  HN ES       1044 50.54                             105    0.1510 82.4 335 
 BRR  HZ I        1044 51.05        11.3 0.34            100           82.4 335 
 SPBC HZ EP       1044 43.91                              56   -0.3410  114 221 
 SPBC HN ES       1044 59.36                              56    1.1810  114 221 
 SPBC HZ I        1045  1.17         3.8 0.28             95            114 221 
 PTB  HZ EP       1044 44.33                              56   -0.3010  118 276 
 PTB  HN ES       1044 58.03                              56   -0.8210  118 276 
 PTB  HZ I        1044 58.24         9.5 0.22             95            118 276 
                                                                                
