 2010  424 1746 26.9 L   6.775 -73.016141.4  RSN  4 0.1 2.0LRSN                1
 GAP=212        0.32       4.7     5.4  5.8  0.5603E+01 -0.1831E+02 -0.1078E+02E
 Epicentro: CEPITA - SANTANDER                                                 3
 ACTION:UPD 10-08-24 10:00 OP:vdl  STATUS:               ID:20100424174626 L   I
 2010-04-24-1741-19S.COL___104                                                 6
 STAT SP IPHASW D HRMM SECON CODA AMPLIT PERI AZIMU VELO AIN AR TRES W  DIS CAZ7
 BAR2 SZ EP       1746 46.14                             169     0.010   27 223 
 BAR2 SZ ES   2   1747  1.06                             169     0.0 5   27 223 
 BRR  HZ EP       1746 48.43                             147     0.010   85 296 
 BRR  HZ I        1746 48.90        19.1 0.91                            85 296 
 BRR  HN ES   1   1747  5.32                             147     0.0 7   85 296 
 GUE  SZ EP   2   1746 51.10                             138    -0.2 5  117   5 
 GRA  SZ EP   1   1746 51.81                             136     0.1 7  125  11 
                                                                                
