 2012  224 1503  7.5 L   6.686 -73.160150.0  RSN  5 0.3 1.7LRSN                1
 GAP=179        0.56       5.7     5.1  6.4  0.6371E+01  0.2848E+00  0.7020E+01E
 ACTION:UP  12-03-07 16:33 OP:epov STATUS:               ID:20120224150307 L   I
 2012-02-24-1500-00M.COL___193                                                 6
 STAT SP IPHASW D HRMM SECON CODA AMPLIT PERI AZIMU VELO AIN AR TRES W  DIS CAZ7
 BAR2 SZ EP   1   15 3 27.40                             176   -0.07 7 10.7 193 
 BAR2 SZ ES   2   15 3 42.62                             176   -0.42 5 10.7 193 
 BAR2 SZ I        15 3 44.55         7.7 0.36                          10.7 193 
 GIR2 SZ EP   1   15 3 27.93                             163   -0.14 7 43.6 355 
 GIR2 SZ ES   2   15 3 43.92                             163   -0.18 5 43.6 355 
 BRR  HZ EP   1   15 3 29.18                             151   -0.25 7 76.7 307 
 BRR  HZ I        15 3 30.00        16.6 0.26                          76.7 307 
 BRR  HE ES   1   15 3 47.08                             151    0.55 7 76.7 307 
 RUS  HZ EP   1   15 3 31.23                             148    0.38 7 88.2 174 
 RUS  HN ES   2   15 3 49.00                             148   -0.04 5 88.2 174 
 RUS  HZ I        15 3 50.90         4.6 0.41                          88.2 174 
 PTB  HZ EP   1   15 3 34.54                             134    0.02 7  144 264 
 PTB  HN ES   1   15 3 55.35                             134   -0.23 7  144 264 
                                                                                
