 2017 1024 1557  9.7 L   5.958 -73.871109.5  RSN  5 0.2 1.6LRSN                1
 GAP=197        0.58       3.9     3.2  6.5 -0.9629E+01 -0.6885E+01  0.1257E+02E
 Epicentro: SUCRE - SANTANDER                                                  3
 ACTION:UPD 17-11-07 19:36 OP:rebc STATUS:               ID:20171024155709 L   I
 OLDACT:DUP 17-10-24 22:06 OP:dhb  STATUS:               ID:20171024154418d    3
 OLDACT:REG 17-10-24 20:22 OP:dhb  STATUS:               ID:20171024154417     3
 2017-10-24-1548-00M.COL___447                                                 6
 STAT SP IPHASW D HRMM SECON CODA AMPLIT PERI AZIMU VELO AIN AR TRES W  DIS CAZ7
 PTB  HZ EP       1557 28.25                             137   -0.3510 91.3 315 
 PTB  HN ES       1557 43.41                             137    0.0310 91.3 315 
 BAR2 EZ EP       1557 30.00                             133    0.0410  104  47 
 BAR2 EZ ES       1557 45.80                             133    0.0010  104  47 
 BAR2 EZ I        1557 47.17        16.0 0.54            136            104  47 
 NOR  HZ EP       1557 30.98                             129   -0.1410  119 249 
 NOR  HN ES       1557 47.67                             129   -0.2010  119 249 
 NOR  HZ I        1557 49.06        14.1 0.20            131            119 249 
 BRR  HZ EP       1557 31.80                             126   -0.1510  128   8 
 BRR  HN ES       1557 49.62                             126    0.2710  128   8 
 GUY2CHZ EP       1557 38.76                             116    0.32 9  184 244 
 GUY2CHN ES       1558  1.20                             116    0.30 9  184 244 
 GUY2CHZ I        1558  6.62         1.3 0.38                           184 244 
                                                                                
