 2012 1024 1146 39.7 L   6.775 -73.134147.1  RSN  9 0.4 2.2LRSN                1
 GAP=139        0.68       2.8     4.1  6.5  0.8969E+00  0.1248E+02  0.1368E+01E
 Epicentro: LOS SANTOS - SANTANDER                                             3
 ACTION:UPD 12-11-22 17:05 OP:ep   STATUS:               ID:20121024114639 L   I
 2012-10-24-1140-00M.COL___234                                                 6
 STAT SP IPHASW D HRMM SECON CODA AMPLIT PERI AZIMU VELO AIN AR TRES W  DIS CAZ7
 BAR2 SZ EP   1   1146 59.34                             172   -0.12 7 20.9 195 
 BAR2 SZ ES   2   1147 14.47                             172   -0.40 5 20.9 195 
 BAR2 SZ I        1147 15.53        45.8 0.25                          20.9 195 
 GIR2 SZ EP   1   1146 59.41                             166   -0.22 7 34.3 349 
 BRR  HZ EP   1   1147  1.20                             152    0.05 7 73.7 300 
 BRR  HN ES   2   1147 18.85                             152    0.97 5 73.7 300 
 PAM  SZ EP   1   1147  2.06                             151   -0.09 7 78.7  37 
 PAM  SN ES       1147 19.37                             151   -0.2910 78.7  37 
 RUS  HZ EP   1   1147  3.49                             145    0.09 7 97.7 177 
 RUS  HN ES       1147 22.01                             145    0.1410 97.7 177 
 RUS  HN I        1147 23.87        21.5 0.40                          97.7 177 
 OCA  HE ES       1147 31.26                             129    0.48 9  163 353 
 ZAR  HZ EP   1   1147 12.08                             122   -0.40 6  206 293 
 ZAR  HN ES       1147 37.87                             122   -0.18 8  206 293 
 ZAR  HN I        1147 44.78        24.8 0.23                           206 293 
 HEL  HN ES   2   1147 50.82                             115   -0.72 4  273 256 
 PRA  HZ EP   1   1147 33.63                             107    0.55 4  390 210 
 PRA  HN ES   2   1148 15.41                             107    0.71 3  390 210 
 PRA  HN I        1148 20.95         3.3 0.49                           390 210 
                                                                                
