 2016  424 1522 49.9 L   6.805 -73.136150.0  RSN  9 0.4 1.7LRSN                1
 GAP=137        0.86       3.0     3.9  5.9 -0.2626E+01  0.7033E+01 -0.2382E+01E
 Epicentro: LOS SANTOS - SANTANDER                                             3
 ACTION:UPD 16-05-05 14:23 OP:rebc STATUS:               ID:20160424152249 L   I
 OLDACT:UP  16-04-24 23:40 OP:ar   STATUS:               ID:20160424151748     3
 OLDACT:REG 16-04-24 21:32 OP:ar   STATUS:               ID:20160424151748     3
 2016-04-24-1517-48M.COL___309                                                 6
 STAT SP IPHASW D HRMM SECON CODA AMPLIT PERI AZIMU VELO AIN AR TRES W  DIS CAZ7
 BAR2 EZ EP       1523 10.04                             170   -0.0310 24.1 192 
 BAR2 EZ ES       1523 25.60                             170   -0.1910 24.1 192 
 BAR2 EZ I        1523 27.93         8.9 0.22            168           24.1 192 
 PAM  EZ EP       1523 12.94                             152    0.4210 76.3  39 
 PAM  EN ES       1523 30.20                             152    0.0510 76.3  39 
 PAM  EZ I        1523 32.85         7.4 0.54            156           76.3  39 
 RUS  HZ EP       1523 13.88                             144   -0.2410  101 177 
 RUS  HE ES       1523 32.78                             144   -0.2210  101 177 
 RUS  HZ I        1523 33.90         3.1 0.30            147            101 177 
 PTB  HZ EP       1523 17.01                             132   -0.32 9  149 259 
 PTB  HN ES       1523 38.07                             132   -0.64 9  149 259 
 PTB  HZ I        1523 43.91         9.3 0.38            132            149 259 
 OCA  HZ EP       1523 18.81                             130    0.30 9  160 353 
 OCA  HN ES       1523 40.54                             130   -0.28 9  160 353 
 SPBC HZ EP       1523 18.98                             129    0.14 9  164 219 
 SPBC HN ES       1523 42.03                             129    0.63 9  164 219 
 SPBC HZ I        1523 44.41        11.3 0.10            130            164 219 
 ZAR  HZ EP   2   1523 22.35                             123   -0.36 4  205 292 
 ZAR  HN ES       1523 48.86                             123    0.57 9  205 292 
 ZAR  HZ I        1523 56.19         5.8 0.50            123            205 292 
 NOR  HZ EP   2   1523 26.15                             119    0.14 4  236 234 
 NOR  HE ES   2   1523 54.79                             119    0.62 4  236 234 
 NOR  HZ I        1524  2.42         2.6 0.18            120            236 234 
 SJC  HZ EP   2   1523 44.47                             106   -1.15 3  409 327 
 SJC  HN ES   4   1524 25.54                             106   -3.54 0  409 327 
 SJC  HZ I        1524 30.20         1.5 0.28            108            409 327 
                                                                                
