 2016  724 1016 49.1 L   6.789 -73.157148.7  RSN 10 0.3 1.8LRSN                1
 GAP=136        0.69       2.7     2.9  4.1 -0.4421E+00  0.3739E+01  0.2180E+01E
 Epicentro: LOS SANTOS - SANTANDER                                             3
 ACTION:UPD 17-03-29 16:54 OP:lp   STATUS:               ID:20160724101649 L   I
 OLDACT:DUP 16-07-24 21:50 OP:lv   STATUS:               ID:20160724100760d    3
 2016-07-24-1007-59S.COL___331                                                 6
 STAT SP IPHASW D HRMM SECON CODA AMPLIT PERI AZIMU VELO AIN AR TRES W  DIS CAZ7
 BAR2 EZ EP       1017  8.93                             171   -0.1310 21.9 187 
 BAR2 EZ ES       1017 24.24                             171   -0.3910 21.9 187 
 BRR  HZ EP       1017 10.78                             153    0.2410 70.7 300 
 BRR  HN ES       1017 27.85                             153    0.5810 70.7 300 
 BRR  HZ I        1017 30.27         9.3 0.13            151           70.7 300 
 PAM  EZ EP       1017 11.68                             151   -0.0610 79.2  40 
 PAM  EN ES       1017 29.22                             151   -0.1710 79.2  40 
 PAM  EZ I        1017 31.15        11.6 0.47            154           79.2  40 
 RUS  HZ EP       1017 12.95                             145   -0.1210 99.5 175 
 RUS  HN ES       1017 32.05                             145    0.2910 99.5 175 
 RUS  HZ I        1017 33.02        11.0 0.29            145           99.5 175 
 SPBC HZ EP       1017 17.91                             130    0.25 9  161 219 
 SPBC HN ES       1017 39.71                             130   -0.23 9  161 219 
 SPBC HZ I        1017 42.62        10.8 0.23            130            161 219 
 ZAR  HZ EP       1017 21.61                             123   -0.06 9  203 293 
 ZAR  HN ES       1017 46.95                             123   -0.12 9  203 293 
 ZAR  HZ I        1017 51.47         3.8 0.14            123            203 293 
 CHI  HZ EP       1017 26.69                             118   -0.11 8  247 195 
 CHI  HN ES   2   1017 56.79                             118    0.58 4  247 195 
 CHI  HZ I        1018  0.05         2.4 0.13            118            247 195 
 HEL  HZ EP   4   1017 30.56                             115    1.27 0  271 256 
 HEL  HN ES       1018  0.19                             115   -0.45 8  271 256 
 HEL  HZ I        1018  7.77         4.5 0.44            116            271 256 
 GUY2CHZ EP   4   1017 34.33                             113    1.68 0  299 235 
 GUY2CHN ES       1018  6.56                             113   -0.06 7  299 235 
 GUY2CHZ I        1018 14.99         4.1 0.34                           299 235 
 PRA  HZ EP       1017 42.93                             107    0.40 6  390 209 
 PRA  HN ES   4   1018 25.55                             107    1.35 0  390 209 
 PRA  HZ I        1018 31.18         2.6 0.39            108            390 209 
                                                                                
