 2014  924 1827 57.8 L   6.835 -73.205144.5  RSN  4 0.3 1.5LRSN                1
 GAP=148        0.63       4.8     4.2  7.1 -0.6484E+01 -0.5823E+00 -0.8146E-01E
 Epicentro: ZAPATOCA - SANTANDER                                               3
 ACTION:UPD 14-10-03 23:08 OP:nd   STATUS:               ID:20140924182757 L   I
 OLDACT:REG 14-09-24 20:03 OP:spq  STATUS:               ID:20140924181820     3
 2014-09-24-1818-20M.COL___284                                                 6
 STAT SP IPHASW D HRMM SECON CODA AMPLIT PERI AZIMU VELO AIN AR TRES W  DIS CAZ7
 BAR2 SZ ES   1   1828 32.89                             169    0.32 7 27.0 175 
 BAR2 SZ I        1828 33.66        14.9 0.20            171           27.0 175 
 PAM  SZ EP       1828 20.25                             150    0.3210 78.9  45 
 PAM  SN ES   1   1828 36.80                             150   -0.43 7 78.9  45 
 PAM  SZ I        1828 39.59         3.9 0.42            152           78.9  45 
 RUS  HZ EP       1828 21.52                             142   -0.2010  105 173 
 RUS  HN ES   1   1828 40.44                             142    0.03 7  105 173 
 RUS  HZ I        1828 41.64         3.6 0.28            145            105 173 
 PTB  HN ES       1828 44.59                             133   -0.09 9  142 257 
 PTB  HZ I        1828 47.20         3.6 0.18            134            142 257 
                                                                                
