 2010  324 1606 48.5 L   6.777 -72.971146.5  RSN  8 0.5 2.1LRSN                1
 GAP=201        0.73       4.2     7.9  7.4 -0.2024E+01  0.1275E+02  0.5255E+01E
 Epicentro: CEPITA - SANTANDER                                                 3
 ACTION:UP  10-08-24 09:55 OP:vdl  STATUS:               ID:20100324160648 L   I
 2010-03-24-1605-24S.COL___098                                                 6
 STAT SP IPHASW D HRMM SECON CODA AMPLIT PERI AZIMU VELO SNR AR TRES W  DIS CAZ7
 BAR2 SZ EP   1   16 7  8.48                             168     0.1 7   31 229 
 BAR2 SZ ES   2   16 7 23.56                             168    -0.4 5   31 229 
 BRR  HZ EP   1   16 7 10.37                             147    -0.5 7   90 294 
 BRR  HE ES   2   16 7 27.79                             147    -0.5 5   90 294 
 BRR  HZ I        16 7 31.75        17.1 0.11                            90 294 
 RUS  HZ EP   1   16 7 12.35                             144     0.2 7   99 187 
 RUS  HE ES   2   16 7 31.09                             144     0.5 5   99 187 
 RUS  HZ I        16 7 32.20        11.1 0.28                            99 187 
 OCA  SZ EP   1   16 7 17.60                             129     0.2 7  166 347 
 OCA  SZ ES   2   16 7 40.61                             129     0.6 5  166 347 
 CHI  HZ EP   1   16 7 26.56                             117     0.0 6  252 200 
 CHI  HE ES   2   16 7 56.66                             117     0.4 4  252 200 
 CHI  HZ I        16 8  4.38         5.7 0.70                           252 200 
 HEL  HZ EP   1   16 7 30.63                             113    -0.1 5  290 257 
 HEL  HE ES   2   16 8  4.11                             113     0.4 4  290 257 
 HEL  HZ I        16 8  7.44         7.3 0.29                           290 257 
 RREF BZ EP   1   16 7 36.63                             110     0.4 5  335 232 
 RREF BE ES   2   16 8 14.17                             110     0.8 3  335 232 
 RREF BZ I        16 8 18.17         7.6 0.22                           335 232 
 PRA  HZ EP   1   16 7 41.93                             106    -1.0 4  400 212 
 PRA  HN ES   2   16 8 24.67                             106    -0.7 3  400 212 
 PRA  HZ I        16 8 30.82         6.0 0.22                           400 212 
                                                                                
