 2014  824 1328  0.1 L   6.752 -73.138147.0  RSN  5 0.4 1.8LRSN                1
 GAP=140        0.96       5.1     5.0  7.0 -0.2402E+01  0.4269E+01  0.1264E+01E
 Epicentro: LOS SANTOS - SANTANDER                                             3
 ACTION:UPD 14-09-15 21:52 OP:nd   STATUS:               ID:20140824132800 L   I
 OLDACT:UP  14-08-24 21:50 OP:cam  STATUS:               ID:20140824132001d    3
 OLDACT:DUP 14-08-24 21:48 OP:cam  STATUS:               ID:20140824132001d    3
 OLDACT:UP  14-08-24 21:48 OP:cam  STATUS:               ID:20140824132000     3
 OLDACT:UP  14-08-24 21:43 OP:cam  STATUS:               ID:20140824132000     3
 OLDACT:UP  14-08-24 21:43 OP:cam  STATUS:               ID:20140824132000     3
 OLDACT:UP  14-08-24 21:42 OP:cam  STATUS:               ID:20140824132000     3
 OLDACT:UP  14-08-24 21:41 OP:cam  STATUS:               ID:20140824132000     3
 OLDACT:REG 14-08-24 20:41 OP:cam  STATUS:               ID:20140824132000     3
 2014-08-24-1320-00M.COL___288                                                 6
 STAT SP IPHASW D HRMM SECON CODA AMPLIT PERI AZIMU VELO AIN AR TRES W  DIS CAZ7
 BAR2 SZ EP       1328 19.74                             173   -0.0710 18.3 195 
 BAR2 SZ ES       1328 34.78                             173   -0.3810 18.3 195 
 BAR2 SZ I        1328 36.13        31.5 0.14            173           18.3 195 
 BRR  HZ EP       1328 21.94                             152    0.3510 74.5 302 
 BRR  HN ES       1328 39.04                             152    0.7010 74.5 302 
 BRR  HN I        1328 39.38        25.6 0.42            153           74.5 302 
 PAM  SZ EP     D 1328 22.65                             150   -0.0410 81.0  37 
 PAM  SN ES       1328 39.97                             150   -0.3210 81.0  37 
 PAM  SZ I        1328 42.28         8.0 0.62            151           81.0  37 
 RUS  HZ EP       1328 23.86                             146    0.2410 95.3 176 
 RUS  HE ES       1328 42.17                             146    0.2310 95.3 176 
 RUS  HZ I        1328 43.56         5.9 0.26            147           95.3 176 
 PTB  HZ EP       1328 26.82                             132   -0.36 9  148 261 
 PTB  HN ES       1328 47.82                             132   -0.46 9  148 261 
 PTB  HZ I        1328 49.15         6.0 0.24            134            148 261 
                                                                                
