 2017  324 1934 10.8 L   6.831 -73.148143.1  RSN  5 0.3 1.3LRSN                1
 GAP=135        0.90       4.9     4.6  7.9 -0.2470E+01  0.2639E+01  0.6851E+01E
 Epicentro: LOS SANTOS - SANTANDER                                             3
 ACTION:UPD 17-05-25 18:44 OP:jn   STATUS:               ID:20170324193410 L   I
 OLDACT:REG 17-03-24 21:16 OP:lv   STATUS:               ID:20170324192739     3
 2017-03-24-1928-00M.COL___386                                                 6
 STAT SP IPHASW D HRMM SECON CODA AMPLIT PERI AZIMU VELO AIN AR TRES W  DIS CAZ7
 BAR2 EZ EP       1934 30.04                             169   -0.1410 26.7 188 
 BAR2 EZ I        1934 53.36         4.3 0.08            165           26.7 188 
 BRR  HZ EP       1934 32.01                             153    0.4610 69.4 296 
 BRR  HN ES       1934 48.06                             153    0.3210 69.4 296 
 PAM  EZ EP       1934 32.94                             151    0.3610 75.0  41 
 PAM  EN ES       1934 49.07                             151   -0.5010 75.0  41 
 PAM  EZ I        1934 51.99         4.0 0.33            146           75.0  41 
 RUS  HZ EP       1934 34.35                             142   -0.1910  104 176 
 RUS  HN ES       1934 53.31                             142    0.2610  104 176 
 RUS  HZ I        1934 54.75         2.6 0.34            137            104 176 
 PTB  HZ EP       1934 37.27                             131   -0.32 9  148 258 
 PTB  HN ES       1934 58.15                             131   -0.33 9  148 258 
 PTB  HZ I        1935  0.98         2.7 0.14            129            148 258 
                                                                                
