 2012 1224 1539 34.0 L   6.783 -73.167139.1  RSN 10 0.4 2.1LRSN                1
 GAP=109        0.82       3.6     3.8  5.5  0.2695E+01  0.2655E-01  0.5261E+00E
 Epicentro: LOS SANTOS - SANTANDER                                             3
 ACTION:UPD 13-01-04 14:30 OP:ep   STATUS:               ID:20121224153934 L   I
 2012-12-24-1534-41M.COL___226                                                 6
 STAT SP IPHASW D HRMM SECON CODA AMPLIT PERI AZIMU VELO AIN AR TRES W  DIS CAZ7
 BAR2 SZ EP       1539 52.91                             171    0.1610 21.1 185 
 BAR2 SZ ES       1540  7.35                             171   -0.0510 21.1 185 
 BAR2 SZ I        1540  9.00        55.2 0.15                          21.1 185 
 GIR2 SZ EP       1539 52.96                             166    0.0710 32.9 355 
 BRR  HZ EP     D 1539 54.70                             152    0.3610 70.1 301 
 BRR  HN ES   1   1540 11.01                             152    0.79 7 70.1 301 
 BRR  HZ I        1540 12.39        25.9 0.12                          70.1 301 
 RUS  HZ EP       1539 56.92                             143   -0.0210 98.9 175 
 RUS  HN ES   1   1540 14.74                             143   -0.12 7 98.9 175 
 RUS  HN I        1540 18.59        20.8 0.75                          98.9 175 
 PTB  HZ EP       1539 59.64                             131   -0.52 9  145 259 
 PTB  HE ES       1540 20.30                             131   -0.28 9  145 259 
 PTB  HZ I        1540 22.84        15.3 0.12                           145 259 
 TAM  HZ EP     C 1540  1.35                             129    0.06 9  157 104 
 TAM  HZ I        1540 13.10        17.1 0.52                           157 104 
 OCA  HN ES       1540 23.24                             128   -0.49 9  162 354 
 OCA  HZ I        1540 25.93        20.8 0.19                           162 354 
 ZAR  HZ EP   1   1540  6.11                             121    0.27 6  203 293 
 ZAR  HE ES   1   1540 30.49                             121   -0.21 6  203 293 
 ZAR  HZ I        1540 38.38        15.3 0.25                           203 293 
 CHI  HZ EP   1   1540 10.75                             116   -0.29 6  246 195 
 CHI  HZ I        1540 51.67         4.3 0.33                           246 195 
 HEL  HZ EP   1   1540 14.37                             114    0.82 6  269 256 
                                                                                
