 2010  724 1216 27.2 L   6.754 -72.958159.5  RSN  5 0.2 1.8LRSN                1
 GAP=187        0.46       5.2     8.9  8.2  0.1174E+02 -0.3119E+02 -0.2313E+02E
 Epicentro: CEPITA - SANTANDER                                                 3
 ACTION:UPD 10-12-01 15:19 OP:pat  STATUS:               ID:20100724121627 L   I
 2010-07-24-1212-35S.COL___123                                                 6
 STAT SP IPHASW D HRMM SECON CODA AMPLIT PERI AZIMU VELO AIN AR TRES W  DIS CAZ7
 BAR2 SZ IP       1216 48.74                             169     0.110   31 234 
 BAR2 SZ I        1216 48.93        15.9 0.31                            31 234 
 BAR2 SZ ES   2   1217  5.30                             169    -0.1 5   31 234 
 GIR2 SZ EP   2   1216 48.86                             164     0.0 5   44 324 
 BRR  HZ IP     C 1216 50.89                             149    -0.210   92 295 
 BRR  HE ES   2   1217  9.99                             149     0.3 5   92 295 
 BRR  HZ I        1217 13.26        10.2 0.16                            92 295 
 RUS  HZ EP   2   1216 52.40                             148     0.3 5   96 188 
 RUS  HZ I        1216 52.77         6.6 0.16                            96 188 
 RUS  HE ES   2   1217 11.14                             148    -0.3 5   96 188 
 GUE  SZ EP       1216 53.46                             142     0.010  119   2 
 GUE  SZ I        1216 53.79         6.4 0.14                           119   2 
                                                                                
