 2015  524 1029 25.6 L   6.454 -73.527 10.9  RSN  9 0.4 1.6LRSN                1
 GAP= 95        0.80       2.0     2.9  5.0  0.8207E+00  0.1076E+02  0.1349E+01E
 Epicentro: SANTA HELENA DEL OPON - SANTANDER                                  3
 ACTION:UPD 15-09-10 22:06 OP:cam  STATUS:               ID:20150524102925 L   I
 OLDACT:UP  15-05-24 21:35 OP:mh   STATUS:               ID:20150524102749     3
 OLDACT:REG 15-05-24 20:03 OP:mh   STATUS:               ID:20150524102749     3
 2015-05-24-1027-49M.COL___285                                                 6
 STAT SP IPHASW D HRMM SECON CODA AMPLIT PERI AZIMU VELO AIN AR TRES W  DIS CAZ7
 BAR2 EZ EP       1029 33.06                             101    0.2910 41.1  68 
 BAR2 EZ ES   1   1029 38.08                             101   -0.27 7 41.1  68 
 BAR2 EZ I        1029 38.58        33.8 0.16             47           41.1  68 
 BRR  HZ EP   1   1029 37.64                              95    0.03 7 75.0 344 
 BRR  HN ES       1029 46.67                              95   -0.3110 75.0 344 
 BRR  HZ I        1029 47.93        12.1 0.26             47           75.0 344 
 RUS  HZ EP   1   1029 38.98                              95    0.23 7 79.2 142 
 RUS  HE ES   1   1029 48.44                              95   -0.57 7 79.2 142 
 RUS  HZ I        1029 49.45        10.1 0.38             47           79.2 142 
 NOR  HZ EP   1   1029 53.05                              56    0.44 7  178 237 
 NOR  HN ES       1030 13.47                              56   -0.21 9  178 237 
 NOR  HZ I        1030 14.64         9.3 0.50             47            178 237 
 ZAR  HZ EP   1   1029 53.94                              56    0.35 7  187 308 
 ZAR  HN ES       1030 15.26                              56   -0.17 9  187 308 
 ZAR  HZ I        1030 17.32         6.5 0.46             37            187 308 
 OCA  HN ES       1030 18.30                              56   -0.14 9  199   7 
 HEL  HZ EP       1029 59.06                              56    0.43 8  223 263 
 HEL  HN ES   1   1030 23.86                              56   -0.54 6  223 263 
 HEL  HZ I        1030 25.03         4.3 0.28             37            223 263 
 GUY2CHZ EP   4   1030  3.58                              56    2.14 0  245 236 
 GUY2CHN ES   4   1030 30.48                              56    1.09 0  245 236 
 GUY2CHZ I        1030 35.12         2.6 0.46                           245 236 
 SML  HZ EP   1   1030  4.53                              56    0.97 6  266 347 
 SML  HN ES   4   1030 37.15                              56    3.99 0  266 347 
 SML  HZ I        1030 39.96         6.7 0.26             37            266 347 
                                                                                
