 2013  824 1912 13.4 L   6.781 -73.145147.6  RSN  8 0.5 1.7LRSN 2.3WRSN        1
 SPEC AVERAGE  MO 12.6 ST0.963 OM  1.4 f0 5.37 R0.3073 AL 0.00 WI 20.0 MW  2.3 3
 SPEC SD       MO  0.2 ST  1.1 OM  0.5 f0 1.39 R0.0716 AL      WI      MW  0.1 3
 GAP=138        1.18       5.0     5.1  7.5 -0.6412E+00  0.6110E+01  0.6877E+01E
 Epicentro: LOS SANTOS - SANTANDER                                             3
 SPEC BAR2SH Z MO 12.8 ST0.346 OM  1.2 f0 3.69 R0.4211 AL-0.00 WI 20.0 MW  2.5 3
 SPEC BAR2SH Z T191246 K 0.000 GD  149 VS 4.20 DE 3.20 Q0300.0 QA 0.60 VS 4.20 3
 SPEC BRR HH Z MO 12.6 ST0.539 OM  1.0 f0 4.83 R0.3217 AL-0.00 WI 20.0 MW  2.4 3
 SPEC BRR HH Z T191251 K 0.000 GD  164 VS 4.20 DE 3.20 Q0300.0 QA 0.60 VS 4.20 3
 SPEC PAM SH Z MO 12.5 ST0.538 OM  0.9 f0 5.18 R0.3000 AL-0.00 WI 20.0 MW  2.3 3
 SPEC PAM SH Z T191251 K 0.000 GD  167 VS 4.20 DE 3.20 Q0300.0 QA 0.60 VS 4.20 3
 SPEC RUS HH Z MO 12.1 ST0.234 OM  0.5 f0 5.23 R0.2971 AL-0.00 WI 20.0 MW  2.0 3
 SPEC RUS HH Z T191254 K 0.000 GD  177 VS 4.20 DE 3.20 Q0300.0 QA 0.60 VS 4.20 3
 SPEC SPBCHH Z MO 12.7 ST  3.2 OM  1.0 f0 7.91 R0.1965 AL-0.00 WI 20.0 MW  2.4 3
 SPEC SPBCHH Z T1913 2 K 0.000 GD  219 VS 4.20 DE 3.20 Q0300.0 QA 0.60 VS 4.20 3
 OLDACT:REG 13-08-24 17:24 OP:stll STATUS:               ID:20130824190850     3
 ACTION:UPD 14-01-14 09:06 OP:ep   STATUS:               ID:20130824191213 L   I
 OLDACT:UP  13-08-24 20:59 OP:stll STATUS:               ID:20130824190850     3
 2013-08-24-1908-50M.COL___217                                                 6
 STAT SP IPHASW D HRMM SECON CODA AMPLIT PERI AZIMU VELO AIN AR TRES W  DIS CAZ7
 BAR2 SZ EP       1912 33.20                             171   -0.0510 21.3 191 
 BAR2 SZ ES       1912 48.48                             171   -0.2310 21.3 191 
 BAR2 SZ I        1912 49.90         9.1 0.22            160           21.3 191 
 BRR  HZ EP       1912 35.02                             152    0.1710 72.3 300 
 BRR  HN ES       1912 52.78                             152    1.2310 72.3 300 
 PAM  SZ EP       1912 35.82                             151   -0.1210 78.9  39 
 PAM  SN ES       1912 53.14                             151   -0.3610 78.9  39 
 PAM  SZ I        1912 55.28         7.9 0.20            145           78.9  39 
 RUS  HZ EP       1912 37.13                             145   -0.1010 98.5 176 
 RUS  HN ES       1912 55.77                             145   -0.0110 98.5 176 
 RUS  SZ I        1912 59.55         4.1 1.28            131           98.5 176 
 PTB  HZ EP       1912 40.33                             132   -0.20 9  147 260 
 PTB  HN ES       1913  1.36                             132   -0.30 9  147 260 
 PTB  SZ I        1913  7.04         9.0 0.24            123            147 260 
 SPBC HZ EP       1912 42.28                             130    0.35 9  162 219 
 SPBC HN ES       1913  3.79                             130   -0.37 9  162 219 
 SPBC SZ I        1913  9.24         9.7 0.18            119            162 219 
 ZAR  HN ES       1913 10.91                             123   -0.66 9  205 293 
 CHI  HZ EP       1912 51.68                             118    0.65 8  247 195 
 CHI  HZ I        1913 27.08         2.7 0.40            108            247 195 
                                                                                
