 2013  824 1728 34.8 L   6.818 -73.136146.9  RSN  8 0.6 1.8LRSN 2.3WRSN        1
 SPEC AVERAGE  MO 12.5 ST  2.9 OM  1.2 f0 7.55 R0.2413 AL 0.00 WI 20.0 MW  2.3 3
 SPEC SD       MO  0.2 ST  3.8 OM  0.4 f0 3.64 R0.0804 AL      WI      MW  0.2 3
 GAP=137        1.45       5.2     7.2 10.0 -0.1597E+01  0.1828E+02  0.4479E+01E
 Epicentro: LOS SANTOS - SANTANDER                                             3
 SPEC BRR HH Z MO 12.6 ST  1.3 OM  1.0 f0 6.53 R0.2380 AL-0.00 WI 20.0 MW  2.3 3
 SPEC BRR HH Z T172911 K 0.000 GD  163 VS 4.20 DE 3.20 Q0300.0 QA 0.60 VS 4.20 3
 SPEC PAM SH Z MO 12.6 ST0.358 OM  1.0 f0 4.21 R0.3691 AL-0.00 WI 20.0 MW  2.4 3
 SPEC PAM SH Z T172913 K 0.000 GD  165 VS 4.20 DE 3.20 Q0300.0 QA 0.60 VS 4.20 3
 SPEC RUS HH Z MO 12.0 ST0.207 OM  0.4 f0 5.40 R0.2878 AL-0.00 WI 20.0 MW  2.0 3
 SPEC RUS HH Z T172915 K 0.000 GD  179 VS 4.20 DE 3.20 Q0300.0 QA 0.60 VS 4.20 3
 SPEC PTB HH Z MO 12.4 ST 11.1 OM  0.7 f0 15.4 R0.1009 AL-0.00 WI 20.0 MW  2.2 3
 SPEC PTB HH Z T172920 K 0.000 GD  209 VS 4.20 DE 3.20 Q0300.0 QA 0.60 VS 4.20 3
 SPEC SPBCHH Z MO 12.7 ST  1.9 OM  1.0 f0 6.64 R0.2340 AL-0.00 WI 20.0 MW  2.4 3
 SPEC SPBCHH Z T172925 K 0.000 GD  220 VS 4.20 DE 3.20 Q0300.0 QA 0.60 VS 4.20 3
 SPEC ZAR HH Z MO 12.8 ST  2.6 OM  1.0 f0 7.12 R0.2183 AL-0.00 WI 20.0 MW  2.5 3
 SPEC ZAR HH Z T172930 K 0.000 GD  251 VS 4.20 DE 3.20 Q0300.0 QA 0.60 VS 4.20 3
 OLDACT:DUP 13-08-24 19:51 OP:stll STATUS:               ID:20130824171853d    3
 ACTION:UPD 14-01-14 09:06 OP:ep   STATUS:               ID:20130824172834 L   I
 OLDACT:UP  13-08-24 21:01 OP:stll STATUS:               ID:20130824171853d    3
 OLDACT:UP  13-08-24 19:58 OP:stll STATUS:               ID:20130824171853d    3
 2013-08-24-1718-51M.COL___220                                                 6
 STAT SP IPHASW D HRMM SECON CODA AMPLIT PERI AZIMU VELO AIN AR TRES W  DIS CAZ7
 BAR2 SZ EP       1728 54.53                             170   -0.0710 25.5 192 
 BAR2 SZ ES       1729  9.71                             170   -0.3410 25.5 192 
 BAR2 SZ I        1729 10.30         6.1 1.04            166           25.5 192 
 BRR  HZ EP       1728 57.22                             153    1.1610 71.2 297 
 BRR  HN ES       1729 13.35                             153    0.7010 71.2 297 
 BRR  SZ I        1729 18.91         9.2 0.74            144           71.2 297 
 PAM  SZ EP       1728 57.24                             152    0.2510 75.2  40 
 PAM  SN ES       1729 14.52                             152    0.2110 75.2  40 
 PAM  SZ I        1729 16.33        16.6 0.52            151           75.2  40 
 RUS  HZ EP       1728 58.76                             143   -0.0310  103 177 
 RUS  HN ES       1729 16.90                             143   -0.6010  103 177 
 RUS  HZ I        1729 18.84         3.8 0.22            141            103 177 
 PTB  HZ EP       1729  1.36                             132   -0.62 9  149 258 
 PTB  SZ I        1729 24.77         7.7 0.40            125            149 258 
 OCA  HN ES       1729 24.21                             130   -0.81 9  158 353 
 SPBC HZ EP       1729  3.56                             129   -0.02 9  165 219 
 SPBC HN ES       1729 26.50                             129    0.46 9  165 219 
 SPBC SZ I        1729 28.55         7.4 0.26            123            165 219 
 ZAR  HZ EP   4   1729  9.18                             123    1.85 0  204 292 
 ZAR  HN ES       1729 32.10                             123   -0.61 9  204 292 
 ZAR  SZ I        1729 38.17        13.6 0.30            116            204 292 
                                                                                
