 2012 1224 1843 42.0 L   6.501 -74.013 31.1  RSN  6 0.3 1.8LRSN                1
 GAP=135        0.79       2.9     2.5  4.9 -0.1541E+00 -0.8934E+01 -0.2002E+00E
 Epicentro: PUERTO PARRA - SANTANDER                                           3
 ACTION:UPD 13-01-04 14:30 OP:ep   STATUS:               ID:20121224184342 L   I
 2012-12-24-1840-00M.COL___242                                                 6
 STAT SP IPHASW D HRMM SECON CODA AMPLIT PERI AZIMU VELO AIN AR TRES W  DIS CAZ7
 PTB  HZ EP       1843 50.94                             116   -0.2010 49.3 275 
 PTB  HN ES       1843 58.19                             116   -0.0510 49.3 275 
 PTB  HZ I        1843 58.49       155.7 0.14                          49.3 275 
 BRR  HZ EP       1843 54.26                              61   -0.1810 74.8  26 
 BRR  HN ES       1844  4.24                              61    0.1410 74.8  26 
 BRR  HZ I        1844  5.70        12.8 0.16                          74.8  26 
 BAR2 SZ EP       1843 56.88                              61   -0.0410 92.4  84 
 BAR2 SZ ES       1844  7.91                              61   -0.6110 92.4  84 
 BAR2 SZ I        1844  8.63        21.0 0.22                          92.4  84 
 GIR2 SZ EP       1843 59.59                              61    0.4810  111  55 
 RUS  HZ EP     C 1844  1.48                              61    0.4410  123 123 
 RUS  HN ES       1844 15.85                              61   -0.0110  123 123 
 RUS  HN I        1844 17.33        25.7 0.35                           123 123 
 HEL  HZ EP     C 1844  7.13                              61    0.20 9  171 259 
 HEL  HE ES   1   1844 26.13                              61   -0.22 7  171 259 
                                                                                
