 2013  824 1716 28.1 L   6.686 -73.087140.1  RSN  4 0.2 1.4LRSN                1
 GAP=195        0.66       7.5     4.5  5.4 -0.2027E+02  0.3484E+01  0.8658E+00E
 Epicentro: JORDAN - SANTANDER                                                 3
 ACTION:UPD 14-01-14 09:06 OP:ep   STATUS:               ID:20130824171628 L   I
 OLDACT:REG 13-08-24 17:18 OP:stll STATUS:               ID:20130824170851     3
 2013-08-24-1708-51M.COL___220                                                 6
 STAT SP IPHASW D HRMM SECON CODA AMPLIT PERI AZIMU VELO AIN AR TRES W  DIS CAZ7
 BAR2 SZ ES       1717  1.65                             174    0.1310 14.7 225 
 BAR2 SZ I        1717  3.12         5.1 0.36            171           14.7 225 
 BRR  HZ EP       1716 49.52                             147    0.1810 83.3 304 
 BRR  HN ES       1717  6.21                             147    0.2710 83.3 304 
 PAM  SZ EP       1716 50.27                             148    0.1810 84.0  31 
 PAM  SZ I        1716 50.54         5.4 0.22            150           84.0  31 
 PAM  SN ES       1717  6.90                             148   -0.3810 84.0  31 
 PTB  HZ EP       1716 54.84                             130   -0.14 9  152 264 
 PTB  HN ES       1717 15.69                             130   -0.30 9  152 264 
 PTB  HZ I        1717 18.16         4.0 0.14            130            152 264 
                                                                                
