 2017  424 1202 27.6 L   6.769 -73.129143.3  RSN 11 0.5 1.8LRSN                1
 GAP=122        0.83       3.9     3.6  5.7 -0.2589E+01  0.2440E+01  0.6048E+01E
 Epicentro: LOS SANTOS - SANTANDER                                             3
 ACTION:UPD 17-05-30 21:15 OP:jn   STATUS:               ID:20170424120227 L   I
 OLDACT:UP  17-04-24 21:55 OP:and  STATUS:               ID:20170424115736     3
 OLDACT:UP  17-04-24 21:55 OP:and  STATUS:               ID:20170424115736     3
 OLDACT:UP  17-04-24 21:54 OP:and  STATUS:               ID:20170424115736     3
 OLDACT:UP  17-04-24 21:54 OP:and  STATUS:               ID:20170424115736     3
 OLDACT:UP  17-04-24 21:54 OP:and  STATUS:               ID:20170424115736     3
 OLDACT:UP  17-04-24 21:52 OP:and  STATUS:               ID:20170424115736     3
 OLDACT:UP  17-04-24 21:45 OP:and  STATUS:               ID:20170424115736     3
 OLDACT:UP  17-04-24 21:44 OP:and  STATUS:               ID:20170424115736     3
 OLDACT:UP  17-04-24 21:43 OP:and  STATUS:               ID:20170424115736     3
 OLDACT:UP  17-04-24 21:42 OP:and  STATUS:               ID:20170424115736     3
 OLDACT:REG 17-04-24 20:16 OP:and  STATUS:               ID:20170424115736     3
 2017-04-24-1158-00M.COL___371                                                 6
 STAT SP IPHASW D HRMM SECON CODA AMPLIT PERI AZIMU VELO AIN AR TRES W  DIS CAZ7
 BAR2 EZ IP     D 12 2 46.79                             171   -0.0510 20.5 197 
 BAR2 EZ ES       12 3  2.00                             171    0.1210 20.5 197 
 BAR2 EZ I        12 3  3.16        15.7 0.15            169           20.5 197 
 BRR  HZ EP       12 2 48.69                             151    0.0510 74.5 300 
 BRR  HE ES       12 3  5.69                             151    0.6110 74.5 300 
 BRR  HZ I        12 3  8.86        11.7 0.34            150           74.5 300 
 PAM  EZ IP     D 12 2 49.60                             150   -0.0110 78.9  37 
 PAM  EN ES       12 3  6.60                             150   -0.2110 78.9  37 
 PAM  EZ I        12 3  8.79        16.3 0.50            153           78.9  37 
 PTB  HZ EP       12 2 54.19                             131   -0.25 9  149 260 
 PTB  HN ES       12 3 14.55                             131   -0.86 9  149 260 
 PTB  HZ I        12 3 20.40         4.1 0.28            131            149 260 
 SPBC HN ES       12 3 17.78                             129    0.06 9  162 220 
 SPBC HZ I        12 3 19.00         8.4 0.22            129            162 220 
 ZAR  HZ EP   2   12 3  0.85                             122    0.69 4  207 293 
 ZAR  HE ES       12 3 25.51                             122   -0.08 8  207 293 
 ZAR  HZ I        12 3 31.51        11.0 0.26            122            207 293 
 NOR  HN ES   2   12 3 31.57                             118    0.74 4  234 235 
 NOR  HZ I        12 3 32.46         5.2 0.14            118            234 235 
 CHI  HZ EP   2   12 3  5.21                             117    0.39 4  246 196 
 CHI  HN ES   2   12 3 34.36                             117    0.47 4  246 196 
 CHI  HZ I        12 3 41.76         2.5 0.48            117            246 196 
 PTGC HZ EP   2   12 3 10.04                             111   -0.83 4  305 159 
 PTGC HN ES   3   12 3 43.69                             111   -0.96 2  305 159 
 PRA  HZ EP       12 3 21.31                             106    0.55 6  390 210 
 PRA  HN ES   3   12 4  3.38                             106    1.12 1  390 210 
 PRA  HZ I        12 4  5.09         2.1 0.27            107            390 210 
 SJC  HZ EP   9   12 3 21.33                             105   -2.17 0  413 327 
 SJC  HN ES       12 4  4.37                             106   -0.59 6  413 327 
                                                                                
