 2012  624 1746 17.2 L   6.765 -73.084144.1  RSN  5 0.2 1.4LRSN                1
 GAP=146        0.43       3.0     3.7  4.6  0.1119E+01  0.6770E+00 -0.2271E-01E
 Epicentro: LOS SANTOS - SANTANDER                                             3
 ACTION:UPD 12-08-06 17:52 OP:ep   STATUS:               ID:20120624174617 L   I
 2012-06-24-1740-00M.COL___199                                                 6
 STAT SP IPHASW D HRMM SECON CODA AMPLIT PERI AZIMU VELO AIN AR TRES W  DIS CAZ7
 BAR2 SZ EP   1   1746 36.51                             171   -0.11 7 22.0 210 
 BAR2 SZ ES   1   1746 51.45                             171   -0.30 7 22.0 210 
 BAR2 SZ I        1746 53.01         4.8 0.37                          22.0 210 
 PAM  SZ EP   1   1746 39.29                             151    0.10 7 76.4  34 
 PAM  SN ES   1   1746 56.36                             151    0.03 7 76.4  34 
 BRR  HZ EP   1   1746 38.76                             150    0.11 7 79.0 299 
 BRR  HZ I        1746 42.58         8.7 0.46                          79.0 299 
 BRR  HN ES   1   1746 55.45                             150    0.09 7 79.0 299 
 RUS  HZ EP   1   1746 40.28                             145   -0.23 7 96.5 180 
 RUS  HZ I        1746 58.30         2.8 0.77                          96.5 180 
 RUS  HN ES   1   1746 59.00                             145    0.32 7 96.5 180 
 ZAR  HN ES   2   1747 16.15                             121   -0.06 4  212 292 
                                                                                
