 2011  124 1358 30.7 L   6.784 -73.140139.7  RSN 14 0.4 2.5LRSN                1
 GAP=136        0.89       3.7     5.7  5.7 -0.5548E+01  0.1309E+02  0.1793E+01E
 Epicentro: LOS SANTOS - SANTANDER                                             3
 ACTION:UP  11-02-08 08:42 OP:pat  STATUS:               ID:20110124135830 L   I
 2011-01-24-1355-23S.COL___138                                                 6
 STAT SP IPHASW D HRMM SECON CODA AMPLIT PERI AZIMU VELO SNR AR TRES W  DIS CAZ7
 BTL  SZ ES   1   1359  4.65                             171     0.4 7   20 316 
 BAR2 SZ IP       1358 49.62                             171     0.010   22 193 
 BAR2 SZ ES   2   1359  3.92                             171    -0.4 5   22 193 
 BAR2 SZ I        1359  7.01        74.6 0.54                            22 193 
 GIR2 SZ EP       1358 49.63                             166    -0.110   33 350 
 GIR2 SZ ES   2   1359  4.82                             166     0.3 5   33 350 
 RUS  HZ EP       1358 53.40                             143    -0.310   99 176 
 RUS  HN ES   1   1359 11.69                             143     0.0 7   99 176 
 RUS  HZ I        1359 13.69        37.3 0.35                            99 176 
 GRA  SZ EP       1358 55.57                             135     0.010  127  17 
 GRA  SZ ES   1   1359 14.96                             135     0.1 7  127  17 
 GRA  SZ I        1359 16.12        34.8 0.36                           127  17 
 OCA  SZ EP       1358 58.36                             128    -0.4 9  162 353 
 OCA  SZ I        1359 25.91        37.9 0.13                           162 353 
 YOP  SZ EP       1359  0.07                             125    -0.1 9  177 153 
 YOP  SN ES   3   1359 23.39                             125     0.3 2  177 153 
 YOP  SZ I        1359 28.83        25.5 0.55                           177 153 
 NOR  SZ EP       1359  5.53                             117    -0.5 8  234 235 
 NOR  SN ES   1   1359 32.93                             117    -0.7 6  234 235 
 ROSC BZ EP       1359  9.30                             115     0.9 8  252 211 
 ROSC BZ I        1359 45.80        23.3 0.54                           252 211 
 HEL  HZ EP       1359 10.81                             113     0.2 8  272 256 
 HEL  HZ I        1359 48.49        17.7 0.30                           272 256 
 RREF HZ EP       1359 16.90                             110     0.4 7  321 230 
 RREF HZ I        14 0  1.52        19.2 0.36                           321 230 
 DBB  SZ EP       1359 18.26                             108     0.2 7  340 275 
 TOL  SZ EP       1359 18.93                             108     0.3 7  343 225 
 SJA  SZ EP   3   1359 23.18                             105    -1.7 1  399 193 
                                                                                
