 2016  224 1758 20.1 L   6.802 -73.082151.5  RSN  6 0.3 1.5LRSN                1
 GAP=145        0.78       3.5     4.6  5.9 -0.5770E+01  0.2908E+01  0.6508E+01E
 Epicentro: LOS SANTOS - SANTANDER                                             3
 ACTION:UPD 16-03-04 21:29 OP:rebc STATUS:               ID:20160224175820 L   I
 OLDACT:REG 16-02-24 21:16 OP:drio STATUS:               ID:20160224175748     3
 2016-02-24-1757-48M.COL___334                                                 6
 STAT SP IPHASW D HRMM SECON CODA AMPLIT PERI AZIMU VELO AIN AR TRES W  DIS CAZ7
 PAM  EZ EP       1758 42.51                             153   -0.1910 73.0  35 
 PAM  EN ES       1759  0.20                             153   -0.1110 73.0  35 
 PAM  EZ I        1759  2.24         3.9 0.60            153           73.0  35 
 BRR  HZ EP       1758 42.51                             151    0.2710 77.4 296 
 BRR  HN ES       1758 59.82                             151    0.3210 77.4 296 
 RUS  HZ EP       1758 44.51                             145    0.0810  101 180 
 RUS  HE ES       1759  3.33                             145   -0.0710  101 180 
 RUS  HZ I        1759  5.88         3.1 0.42            143            101 180 
 SPBC HZ EP       1758 49.41                             129   -0.09 9  168 221 
 SPBC HZ I        1759  0.93         5.9 0.22            127            168 221 
 SPBC HN ES       1759 11.78                             129   -0.64 9  168 221 
 NOR  HZ EP       1758 56.32                             119   -0.49 8  241 235 
 NOR  HE ES       1759 25.53                             119    0.10 8  241 235 
 NOR  HZ I        1759 30.35         3.3 0.42            117            241 235 
 CHI  HZ EP       1758 58.77                             118    0.40 8  251 197 
 CHI  HE ES       1759 28.68                             118    0.48 8  251 197 
                                                                                
