 2013  124 1011 13.4 L   6.822 -73.111140.0  RSN  6 0.4 1.2LRSN                1
 GAP=140        0.85       5.9     6.9  9.8  0.1787E+01  0.2944E+02 -0.3997E+01E
 Epicentro: LOS SANTOS - SANTANDER                                             3
 ACTION:UPD 13-02-15 09:16 OP:ep   STATUS:               ID:20130124101113 L   I
 2013-01-24-1010-00M.COL___241                                                 6
 STAT SP IPHASW D HRMM SECON CODA AMPLIT PERI AZIMU VELO AIN AR TRES W  DIS CAZ7
 BAR2 SZ EP   1   1011 32.47                             169    0.04 7 26.6 197 
 BAR2 SZ ES   1   1011 47.41                             169    0.15 7 26.6 197 
 PAM  SZ EP   1   1011 35.33                             151    0.56 7 73.1  38 
 PAM  SE ES   1   1011 50.87                             151   -0.55 7 73.1  38 
 PAM  SZ I        1011 53.69         3.1 0.38            144           73.1  38 
 BRR  HZ EP   1   1011 34.27                             151    0.18 7 73.5 295 
 RUS  HZ EP   1   1011 36.91                             142    0.13 7  103 178 
 RUS  HE ES   1   1011 55.03                             142    0.03 7  103 178 
 RUS  HZ I        1011 56.42         1.1 0.22            131            103 178 
 PTB  HZ EP   1   1011 39.36                             130   -0.96 7  152 258 
 PTB  HZ I        1012  4.69         3.0 0.12            116            152 258 
 ZAR  HN ES   1   1012 11.40                             121    0.39 6  207 291 
 ZAR  HZ I        1012 16.05         2.7 0.34            110            207 291 
                                                                                
