 2011  124 1155 54.3 L   6.784 -73.055143.5  RSN  6 0.1 1.6LRSN                1
 GAP=169        0.43       2.8    12.1  4.7 -0.2188E+02  0.9711E+01 -0.7295E+00E
 Epicentro: LOS SANTOS - SANTANDER                                             3
 ACTION:UP  11-02-08 08:42 OP:pat  STATUS:               ID:20110124115554 L   I
 2011-01-24-1154-35S.COL___138                                                 6
 STAT SP IPHASW D HRMM SECON CODA AMPLIT PERI AZIMU VELO SNR AR TRES W  DIS CAZ7
 BAR2 SZ EP       1156 13.66                             169    -0.110   26 214 
 BAR2 SZ ES   2   1156 28.98                             169     0.1 5   26 214 
 BAR2 SZ I        1156 30.40         8.8 0.22                            26 214 
 BTL  SZ EP       1156 13.95                             168     0.110   28 302 
 GIR2 SZ EP       1156 13.84                             165     0.010   36 335 
 RUS  HZ EP       1156 17.78                             144     0.010   99 182 
 RUS  HN ES   1   1156 36.00                             144     0.0 7   99 182 
 RUS  HZ I        1156 37.55         5.1 0.39                            99 182 
 GRA  SZ EP       1156 19.48                             137     0.210  125  13 
 GRA  SZ ES   1   1156 38.53                             137    -0.3 7  125  13 
 GRA  SZ I        1156 40.12         7.6 0.31                           125  13 
 CHI  HZ EP       1156 31.88                             116    -0.2 8  250 197 
 CHI  HZ I        1156 34.35         2.3 0.53                           250 197 
                                                                                
