 2011 1224 1226  9.3 L   7.375 -73.207131.2  RSN  5 0.2 1.9LRSN                1
 GAP=263        0.53       7.1     4.9  5.6  0.1336E+01  0.7502E+01 -0.1592E+02E
 Epicentro: EL PLAYON - SANTANDER                                              3
 ACTION:UPD 12-07-13 16:18 OP:ep   STATUS:               ID:20111224122609 L   I
 2011-12-24-1220-00M.COL___189                                                 6
 STAT SP IPHASW D HRMM SECON CODA AMPLIT PERI AZIMU VELO AIN AR TRES W  DIS CAZ7
 GIR2 SZ EP   1   1226 27.41                             165    0.09 7 32.7 177 
 GIR2 SZ ES   1   1226 40.87                             165   -0.48 7 32.7 177 
 BRR  HZ EP       1226 28.60                             153    0.1510 63.1 242 
 BRR  HZ I        1226 29.12        20.9 0.16                          63.1 242 
 BRR  HN ES   1   1226 43.73                             153    0.37 7 63.1 242 
 BAR2 SZ EP   1   1226 30.45                             145    0.17 7 86.6 178 
 BAR2 SZ ES   1   1226 46.64                             145    0.02 7 86.6 178 
 BAR2 SZ I        1226 48.08        10.8 0.12                          86.6 178 
 PTB  HZ EP   1   1226 36.71                             125   -0.24 7  166 236 
 PTB  HN ES   1   1226 58.39                             125   -0.10 7  166 236 
 ZAR  HZ EP   1   1226 38.44                             122   -0.19 7  183 274 
 ZAR  HZ I        1227  3.27        12.4 0.27                           183 274 
                                                                                
