 2012 1224 1548 41.1 L   6.259 -73.718102.3  RSN  6 0.2 1.6LRSN                1
 GAP=119        0.52       2.8     2.9  6.5 -0.8338E+00  0.1076E+02  0.1666E+01E
 Epicentro: LANDAZURI - SANTANDER                                              3
 ACTION:UPD 13-01-04 14:30 OP:ep   STATUS:               ID:20121224154841 L   I
 2012-12-24-1540-00M.COL___242                                                 6
 STAT SP IPHASW D HRMM SECON CODA AMPLIT PERI AZIMU VELO AIN AR TRES W  DIS CAZ7
 BAR2 SZ ES       1549 11.23                             143    0.0510 69.7  58 
 BAR2 SZ I        1549 13.40        37.5 0.41                          69.7  58 
 RUS  HZ EP       1548 59.01                             139   -0.2210 81.1 120 
 RUS  HE ES   1   1549 13.46                             139    0.10 7 81.1 120 
 RUS  HE I        1549 16.84         7.8 0.63                          81.1 120 
 PTB  HZ EP       1548 58.78                             136   -0.3110 87.4 291 
 PTB  HZ I        1549 15.29         4.5 0.18                          87.4 291 
 BRR  HZ EP       1548 59.87                             134    0.2510 93.8   0 
 BRR  HZ I        1549  8.47         4.9 0.50                          93.8   0 
 BRR  HN ES   1   1549 13.96                             134   -0.10 7 93.8   0 
 GIR2 SZ EP   1   1549  1.09                             130    0.02 7  108  33 
 NOR  HZ EP   1   1549  5.47                             119    0.35 7  149 239 
 NOR  HN ES   1   1549 23.93                             119    0.08 7  149 239 
 NOR  HZ I        1549 28.95        11.0 0.12                           149 239 
                                                                                
