 2017  924 1748 22.9 L   6.797 -73.095138.9  RSN  6 0.3 1.4LRSN                1
 GAP= 99        0.74       3.7     3.6  5.3  0.3006E+01 -0.1747E+01 -0.1291E+00E
 Epicentro: LOS SANTOS - SANTANDER                                             3
 ACTION:UPD 17-10-05 19:15 OP:rebc STATUS:               ID:20170924174822 L   I
 OLDACT:REG 17-09-24 20:24 OP:lv   STATUS:               ID:20170924174714     3
 2017-09-24-1748-00M.COL___402                                                 6
 STAT SP IPHASW D HRMM SECON CODA AMPLIT PERI AZIMU VELO AIN AR TRES W  DIS CAZ7
 BAR2 EZ EP       1748 41.64                             169   -0.0710 24.6 203 
 BAR2 EZ ES       1748 56.26                             169   -0.1410 24.6 203 
 BAR2 EZ I        1748 57.48         7.8 0.18            171           24.6 203 
 PAM  EZ EP       1748 44.42                             151    0.2510 74.2  36 
 PAM  EN ES       1749  0.43                             151   -0.3510 74.2  36 
 PAM  EZ I        1749  3.56         6.1 0.58            151           74.2  36 
 BRR  HZ EP       1748 43.63                             149    0.0310 76.3 297 
 BRR  HN ES       1749  0.27                             149    0.5110 76.3 297 
 RUS  HZ EP       1748 45.60                             142   -0.3210  100 179 
 RUS  HN ES       1749  4.00                             142    0.1110  100 179 
 RUS  HZ I        1749  5.60         3.1 0.38            144            100 179 
 TAM  HZ EP       1748 49.76                             130    0.26 9  150 105 
 ZAR  HN ES       1749 20.51                             120   -0.34 8  209 292 
                                                                                
