 2013  124 1143 40.3 L   6.789 -73.156138.5  RSN  5 0.2 1.4LRSN                1
 GAP=136        0.44       3.0     3.1  5.3  0.1284E+00  0.3968E+01 -0.1390E+01E
 Epicentro: LOS SANTOS - SANTANDER                                             3
 ACTION:UPD 13-02-15 09:16 OP:ep   STATUS:               ID:20130124114340 L   I
 2013-01-24-1140-00M.COL___241                                                 6
 STAT SP IPHASW D HRMM SECON CODA AMPLIT PERI AZIMU VELO AIN AR TRES W  DIS CAZ7
 BAR2 SZ IP       1143 58.89                             171   -0.1110 22.0 188 
 BAR2 SZ EP       1143 58.89                              97           22.0 188 
 BAR2 SZ ES   1   1144 13.75                             171    0.14 7 22.0 188 
 PAM  SZ EP   1   1144  1.79                             149   -0.03 7 79.0  40 
 PAM  SN ES   1   1144 18.55                             149   -0.08 7 79.0  40 
 PAM  SZ I        1144 21.12         2.9 0.50             56           79.0  40 
 RUS  HZ EP   1   1144  3.39                             143    0.16 7 99.5 175 
 RUS  HE ES   1   1144 21.15                             143    0.01 7 99.5 175 
 RUS  HZ I        1144 22.49         3.0 0.22             56           99.5 175 
 PTB  HZ I        1143  9.44         6.0 0.32            126            146 259 
 PTB  HN ES   2   1144 26.43                             130   -0.59 5  146 259 
 ZAR  HN ES   1   1144 37.39                             121    0.30 6  204 293 
                                                                                
