 2017  824 1327 17.1 L   6.774 -73.157143.8  RSN  4 0.2 1.5LRSN                1
 GAP=234        0.63       6.9     7.9  5.0  0.4591E+02  0.3749E+01 -0.1686E+01E
 Epicentro: LOS SANTOS - SANTANDER                                             3
 ACTION:UPD 17-09-04 20:24 OP:rebc STATUS:               ID:20170824132717 L   I
 OLDACT:UP  17-08-24 23:33 OP:edw  STATUS:               ID:20170824131743     3
 OLDACT:REG 17-08-24 21:08 OP:edw  STATUS:               ID:20170824131743     3
 2017-08-24-1318-00M.COL___420                                                 6
 STAT SP IPHASW D HRMM SECON CODA AMPLIT PERI AZIMU VELO AIN AR TRES W  DIS CAZ7
 BAR2 EZ EP       1327 36.12                             172   -0.2810 20.3 188 
 BAR2 EZ ES       1327 51.35                             172   -0.1210 20.3 188 
 BAR2 EZ I        1327 52.00         7.5 0.50            170           20.3 188 
 BRR  HZ EP       1327 38.26                             152    0.2410 71.6 301 
 BRR  HN ES       1327 54.51                             152    0.1510 71.6 301 
 RUS  HZ EP       1327 40.78                             144    0.3610 97.8 175 
 RUS  HN ES       1327 58.53                             144   -0.1010 97.8 175 
 RUS  HZ I        1327 59.59         6.0 0.32            144           97.8 175 
 ZAR  HZ EP       1327 49.02                             122   -0.36 9  204 293 
 ZAR  HN ES       1328 14.61                             122    0.03 9  204 293 
                                                                                
