 2013  524 1049 49.5 L   6.724 -73.157139.9  RSN  9 0.4 1.8LRSN                1
 GAP=138        0.92       4.7     4.8  7.0  0.3195E-01  0.1198E+02 -0.1640E+01E
 Epicentro: VILLANUEVA - SANTANDER                                             3
 ACTION:UPD 13-06-20 09:53 OP:ep   STATUS:               ID:20130524104949 L   I
 2013-05-24-1048-51M.COL___199                                                 6
 STAT SP IPHASW D HRMM SECON CODA AMPLIT PERI AZIMU VELO AIN AR TRES W  DIS CAZ7
 BAR2 SZ EP   1   1050  8.53                             174    0.26 7 14.9 191 
 BAR2 SZ ES       1050 22.68                             174   -0.2410 14.9 191 
 BAR2 SZ I        1050 24.30        20.9 0.18            173           14.9 191 
 GIR2 SZ EP   1   1050  8.64                             163   -0.08 7 39.4 354 
 GIR2 SZ ES   1   1050 23.41                             163   -0.31 7 39.4 354 
 BRR  HZ EP       1050 10.40                             150    0.2010 74.5 305 
 BRR  HN ES   1   1050 27.08                             150    0.72 7 74.5 305 
 BRR  HZ I        1050 32.30        10.7 0.12            150           74.5 305 
 PAM  SZ EP   1   1050 11.55                             147   -0.00 7 84.7  37 
 PAM  SN ES   1   1050 28.20                             147   -0.56 7 84.7  37 
 PAM  SZ I        1050 30.70        13.2 0.60            152           84.7  37 
 RUS  HZ EP   1   1050 12.57                             145    0.50 7 92.3 175 
 RUS  HN ES   1   1050 30.13                             145    0.44 7 92.3 175 
 RUS  HZ I        1050 32.39         5.8 0.52            149           92.3 175 
 PTB  HZ EP       1050 15.17                             131   -0.57 9  145 262 
 PTB  HN ES   1   1050 35.98                             131   -0.24 7  145 262 
 PTB  HZ I        1050 39.02         9.7 0.13            133            145 262 
 ZAR  HE ES   1   1050 47.76                             121    0.78 6  206 294 
 ZAR  HZ I        1050 49.80         7.5 0.09            123            206 294 
 SML  HN ES   1   1050 55.67                             115    0.17 6  251 336 
 HEL  HE ES   1   1050 59.11                             114   -0.81 6  269 257 
 HEL  HZ I        1051  2.88         3.3 0.27            116            269 257 
                                                                                
