 2012  624 1923 56.6 L   6.781 -73.130150.5  RSN  5 0.4 1.7LRSN                1
 GAP=139        0.80       5.7     6.0  7.7  0.8169E+01  0.1055E+02 -0.1927E+01E
 Epicentro: LOS SANTOS - SANTANDER                                             3
 ACTION:UPD 12-08-06 17:52 OP:ep   STATUS:               ID:20120624192356 L   I
 2012-06-24-1920-00M.COL___199                                                 6
 STAT SP IPHASW D HRMM SECON CODA AMPLIT PERI AZIMU VELO AIN AR TRES W  DIS CAZ7
 BAR2 SZ EP   1   1924 16.69                             171   -0.08 7 21.7 195 
 BAR2 SZ ES   1   1924 31.96                             171   -0.54 7 21.7 195 
 BAR2 SZ I        1924 34.23         9.7 0.31                          21.7 195 
 BRR  HZ EP   1   1924 18.69                             152    0.29 7 73.7 299 
 BRR  HZ I        1924 20.88        20.2 0.18                          73.7 299 
 BRR  HN ES   1   1924 36.21                             152    0.80 7 73.7 299 
 PAM  SZ EP   1   1924 19.68                             151    0.33 7 77.9  38 
 PAM  SN ES   1   1924 36.73                             151   -0.37 7 77.9  38 
 RUS  HZ EP   1   1924 20.69                             145    0.03 7 98.4 177 
 RUS  HE ES   1   1924 39.56                             145    0.13 7 98.4 177 
 RUS  HZ I        1924 40.99         2.7 0.40                          98.4 177 
 ZAR  HZ EP   1   1924 29.26                             123   -0.34 6  206 293 
 ZAR  HE ES   1   1924 54.86                             123   -0.48 6  206 293 
 ZAR  HZ I        1925  0.91         4.7 0.24                           206 293 
                                                                                
