 2011  924 1835 48.8 L   6.779 -73.082141.1  RSN 11 0.4 2.4LRSN                1
 GAP=146        0.77       4.3     5.7  6.7 -0.2000E+01  0.1659E+02  0.1019E+02E
 Epicentro: LOS SANTOS - SANTANDER                                             3
 ACTION:UPD 12-07-13 15:59 OP:ep   STATUS:               ID:20110924183548 L   I
 2011-09-24-1834-17S.COL___165                                                 6
 STAT SP IPHASW D HRMM SECON CODA AMPLIT PERI AZIMU VELO AIN AR TRES W  DIS CAZ7
 BAR2 SZ EP       1836  7.65                             170   -0.2510 23.4 208 
 BAR2 SZ I        1836 24.86        57.4 0.24                          23.4 208 
 BTL  SZ EP       1836  7.90                             169   -0.0510 25.6 307 
 PAM  SZ IP       1836 10.61                             151    0.2010 75.1  34 
 PAM  SN ES   1   1836 27.74                             151    0.50 7 75.1  34 
 BRR  HZ IP     C 1836  9.47                             149   -0.4510 78.5 298 
 BRR  HN ES   1   1836 26.35                             149   -0.01 7 78.5 298 
 BRR  HZ I        1836 28.78        52.0 0.20                          78.5 298 
 RUS  HZ EP       1836 11.69                             143   -0.2510 98.0 180 
 RUS  HN ES   1   1836 30.10                             143    0.14 7 98.0 180 
 RUS  HZ I        1836 32.54        29.2 0.34                          98.0 180 
 OCA  SZ EP   3   1836 16.71                             128   -0.39 2  164 351 
 OCA  SZ I        1836 42.71        29.3 0.27                           164 351 
 NOR  SZ EP       1836 24.23                             117   -0.54 8  239 236 
 CHI  HZ EP       1836 26.06                             116   -0.18 8  248 197 
 CHI  HN ES   2   1836 55.99                             116    0.57 4  248 197 
 CHI  HZ I        1836 58.74        11.0 0.30                           248 197 
 HEL  HZ EP       1836 30.01                             113    0.50 7  278 257 
 HEL  HN ES   3   1837  1.13                             113   -0.10 2  278 257 
 HEL  HZ I        1837  7.57        10.7 0.50                           278 257 
 GUY  SZ EP       1836 33.41                             111    0.41 7  308 236 
 GUY  SE ES   3   1837  7.46                             111    0.01 2  308 236 
 GUY  SZ I        1837 15.39        18.7 0.36                           308 236 
 RREF HZ EP       1836 36.02                             110    0.80 7  326 230 
 RREF HZ I        1837 19.73        16.7 0.28                           326 230 
                                                                                
