 2016 1024 1621 20.4 L   6.785 -73.081140.4  RSN  8 0.3 1.6LRSN                1
 GAP=146        0.66       3.1     3.9  3.9 -0.3931E+01 -0.2444E+00  0.3049E+01E
 Epicentro: LOS SANTOS - SANTANDER                                             3
 ACTION:UPD 16-11-09 19:22 OP:rebc STATUS:               ID:20161024162120 L   I
 OLDACT:UP  16-10-25 00:26 OP:edw  STATUS:               ID:20161024161747     3
 OLDACT:REG 16-10-24 21:23 OP:edw  STATUS:               ID:20161024161747     3
 2016-10-24-1618-00M.COL___362                                                 6
 STAT SP IPHASW D HRMM SECON CODA AMPLIT PERI AZIMU VELO AIN AR TRES W  DIS CAZ7
 BAR2 EZ EP     C 1621 39.33                             170   -0.0710 24.1 208 
 BAR2 EZ ES       1621 54.54                             170    0.3310 24.1 208 
 BAR2 EZ I        1621 56.66         7.2 0.36            165           24.1 208 
 PAM  EZ EP       1621 42.35                             151    0.4910 74.4  34 
 PAM  EN ES       1621 58.24                             151   -0.3610 74.4  34 
 BRR  HZ EP       1621 41.20                             149   -0.2010 78.3 297 
 BRR  HN ES       1621 57.76                             149   -0.0110 78.3 297 
 RUS  HZ EP       1621 43.39                             143   -0.1010 98.7 180 
 RUS  HN ES       1622  1.53                             143    0.0410 98.7 180 
 RUS  HZ I        1622  4.24         4.3 0.18            140           98.7 180 
 PTB  HZ EP   9   1621 46.07                             129   -1.49 0  154 260 
 PTB  HN ES       1622  7.29                             130    0.04 9  154 260 
 PTB  HZ I        1622  8.53         7.6 0.14            130            154 260 
 SPBC HZ EP       1621 48.51                             127   -0.31 9  167 221 
 SPBC HN ES       1622 10.91                             127   -0.07 9  167 221 
 SPBC HZ I        1622 16.51         6.1 0.22            126            167 221 
 CHI  HZ EP       1621 57.76                             116   -0.09 8  249 197 
 CHI  HN ES   4   1622 24.97                             116   -2.09 0  249 197 
 CHI  HZ I        1622 33.95         2.3 0.46            116            249 197 
 GUY2CHZ EP       1622  4.80                             111    0.47 7  306 236 
 GUY2CHN ES   4   1622 40.54                             111    1.95 0  306 236 
 GUY2CHZ I        1622 47.27         3.0 0.58                           306 236 
                                                                                
