 2017  124 1122 46.2 L   6.601 -73.478108.0  RSN  5 0.4 1.5LRSN                1
 GAP=152        0.91       4.2     4.6  7.8  0.8024E+01  0.1129E+02  0.2465E+01E
 Epicentro: EL CARMEN - SANTANDER                                              3
 ACTION:UPD 17-05-22 16:02 OP:jn   STATUS:               ID:20170124112246 L   I
 OLDACT:REG 17-01-24 20:44 OP:dnl  STATUS:               ID:20170124111741     3
 2017-01-24-1118-00M.COL___343                                                 6
 STAT SP IPHASW D HRMM SECON CODA AMPLIT PERI AZIMU VELO AIN AR TRES W  DIS CAZ7
 BAR2 EZ EP       1123  1.79                             162    0.1410 32.6  92 
 BAR2 EZ ES       1123 14.22                             162    0.5510 32.6  92 
 BRR  HZ EP       1123  2.32                             148   -0.4910 61.7 335 
 BRR  HN ES       1123 15.44                             148   -0.2910 61.7 335 
 BRR  HZ I        1123 18.44         9.1 0.30            146           61.7 335 
 RUS  HZ EP       1123  5.30                             138   -0.2710 89.6 151 
 RUS  HN ES       1123 20.56                             138   -0.0910 89.6 151 
 PAM  EZ EP   2   1123  9.09                             129    0.95 5  119  46 
 PAM  EN ES       1123 25.08                             129   -0.1510  119  46 
 PAM  EZ I        1123 26.81         3.9 0.38            130            119  46 
 ZAR  HZ EP   2   1123 14.72                             116    0.68 4  182 303 
 ZAR  HN ES       1123 36.03                             116    0.30 9  182 303 
 ZAR  HZ I        1123 41.13         4.3 0.32            115            182 303 
                                                                                
