 2013  724 1300 44.5 L   6.784 -73.148142.2  RSN 11 0.3 2.3LRSN                1
 GAP=137        0.63       2.1     3.1  4.2 -0.5614E+00  0.3710E+01  0.3246E+00E
 Epicentro: LOS SANTOS - SANTANDER                                             3
 ACTION:UPD 13-08-12 10:39 OP:ep   STATUS:               ID:20130724130044 L   I
 OLDACT:REG 13-07-24 16:51 OP:stll STATUS:               ID:20130724125842     3
 2013-07-24-1258-42M.COL___234                                                 6
 STAT SP IPHASW D HRMM SECON CODA AMPLIT PERI AZIMU VELO AIN AR TRES W  DIS CAZ7
 BAR2 SZ EP       13 1  3.79                             171    0.1210 21.6 190 
 BAR2 SZ ES   1   13 1 18.57                             171   -0.05 7 21.6 190 
 BAR2 SZ I        13 1 20.25        32.1 0.14            169           21.6 190 
 BRR  HZ IP     C 13 1  5.61                             152    0.3010 71.8 300 
 BRR  HN ES   1   13 1 22.05                             152    0.52 7 71.8 300 
 BRR  HN I        13 1 23.21        88.0 0.24            150           71.8 300 
 PAM  SZ EP   1   13 1  6.62                             150    0.19 7 78.8  39 
 PAM  SE ES   1   13 1 23.09                             150   -0.44 7 78.8  39 
 PAM  SE I        13 1 26.27        32.4 0.36            155           78.8  39 
 RUS  HZ EP   1   13 1  7.70                             144   -0.08 7 98.9 176 
 RUS  HE ES       13 1 26.01                             144    0.0710 98.9 176 
 RUS  HE I        13 1 27.35        18.8 0.50            145           98.9 176 
 PTB  HZ EP   1   13 1 10.52                             131   -0.61 7  147 259 
 PTB  HN ES   1   13 1 31.24                             131   -0.67 7  147 259 
 PTB  HZ I        13 1 36.50        16.4 0.32            131            147 259 
 SPBC HZ EP       13 1 12.76                             128    0.17 9  162 219 
 SPBC HN ES       13 1 34.70                             128    0.20 9  162 219 
 SPBC HZ I        13 1 40.01        18.1 0.18            129            162 219 
 ZAR  HZ EP   1   13 1 16.95                             121    0.19 6  205 293 
 ZAR  HE ES   1   13 1 41.94                             121    0.01 6  205 293 
 ZAR  HZ I        13 1 47.96        16.3 0.26            122            205 293 
 NOR  HZ EP   1   13 1 19.93                             118    0.03 6  234 235 
 NOR  HN ES       13 1 47.53                             118    0.02 8  234 235 
 NOR  HN I        13 1 53.18        38.0 0.18            119            234 235 
 SML  HZ EP   1   13 1 21.30                             117    0.21 6  245 336 
 SML  HN ES   1   13 1 49.20                             117   -0.43 6  245 336 
 CHI  HZ EP   1   13 1 21.55                             117   -0.27 6  247 195 
 CHI  HN ES       13 1 50.52                             117   -0.40 8  247 195 
 CHI  HN I        13 1 53.79        22.4 0.44            118            247 195 
 GUY2CHZ EP   4   13 1 29.02                             112    1.20 0  300 235 
 GUY2CHN ES   4   13 2  4.47                             112    2.87 0  300 235 
 PRA  HZ EP   1   13 1 37.66                             106   -0.05 4  390 210 
 PRA  HN ES   1   13 2 19.65                             106    0.43 4  390 210 
 PRA  HN I        13 2 24.15         5.1 0.26            107            390 210 
                                                                                
