 2013  324 1216 58.1 L   6.732 -73.145166.1  RSN  5 0.1 1.8LRSN                1
 GAP=232        0.44       3.9     3.4  4.2  0.7161E+01  0.1706E+01 -0.2973E+01E
 Epicentro: JORDAN - SANTANDER                                                 3
 ACTION:UPD 13-04-09 14:04 OP:ep   STATUS:               ID:20130324121658 L   I
 2013-03-24-1210-00M.COL___245                                                 6
 STAT SP IPHASW D HRMM SECON CODA AMPLIT PERI AZIMU VELO AIN AR TRES W  DIS CAZ7
 BAR2 SZ EP       1217 20.26                             174    0.2310 16.0 195 
 BAR2 SZ ES       1217 37.13                             174   -0.0410 16.0 195 
 BAR2 SZ I        1217 37.98        12.0 0.20            165           16.0 195 
 BRR  HZ EP       1217 21.46                             154   -0.1810 75.1 304 
 BRR  HN ES       1217 40.15                             154    0.1110 75.1 304 
 BRR  HN I        1218 10.88        23.8 0.48            149           75.1 304 
 RUS  HN ES       1217 43.01                             150   -0.1310 93.1 176 
 RUS  HN I        1217 45.22         5.7 0.22            174           93.1 176 
 PTB  HZ EP   1   1217 26.73                             137    0.08 7  147 262 
 PTB  HN ES       1217 49.08                             137    0.13 9  147 262 
 PTB  HN I        1217 55.08         5.7 0.28            143            147 262 
 ZAR  HN ES       1217 58.65                             126   -0.18 8  207 294 
                                                                                
