 2013  324 1027  3.8 L   6.770 -73.153146.0  RSN 10 0.5 2.0LRSN                1
 GAP=137        1.11       4.6     5.0  8.3  0.1742E+01  0.6087E+01  0.1354E+02E
 Epicentro: LOS SANTOS - SANTANDER                                             3
 ACTION:UPD 13-04-09 14:04 OP:ep   STATUS:               ID:20130324102703 L   I
 2013-03-24-1020-00M.COL___245                                                 6
 STAT SP IPHASW D HRMM SECON CODA AMPLIT PERI AZIMU VELO AIN AR TRES W  DIS CAZ7
 BAR2 SZ EP       1027 23.36                             172    0.0110 19.9 189 
 BRR  HZ EP       1027 25.19                             152    0.2110 72.1 301 
 BRR  HN ES       1027 42.29                             152    0.7510 72.1 301 
 BRR  HN I        1027 45.82        27.0 0.16            142           72.1 301 
 PAM  SZ EP       1027 26.12                             150   -0.0610 80.5  38 
 PAM  SN ES       1027 43.32                             150   -0.3510 80.5  38 
 PAM  SN I        1027 44.56        15.9 0.48            144           80.5  38 
 RUS  HZ EP       1027 27.25                             145   -0.0410 97.3 175 
 RUS  HN ES       1027 45.75                             145    0.0910 97.3 175 
 RUS  HN I        1027 47.54         7.2 0.36            136           97.3 175 
 PTB  HZ EP       1027 29.96                             132   -0.65 9  146 260 
 PTB  HN ES       1027 50.74                             132   -0.82 9  146 260 
 PTB  HN I        1027 56.64        12.3 0.28            121            146 260 
 OCA  HN ES   4   1027 52.71                             129   -2.01 0  163 354 
 OCA  HN I        1027 57.05        24.2 0.42            120            163 354 
 ZAR  HN ES       1028  1.93                             122    0.30 9  205 293 
 ZAR  HN I        1028  7.43         9.4 0.24            113            205 293 
 CHI  HZ EP       1027 41.13                             118    0.04 8  245 195 
 CHI  HN ES       1028 10.27                             118    0.06 8  245 195 
 CHI  HN I        1028 13.18         4.1 0.26            109            245 195 
 SML  HN ES   4   1028  7.07                             117   -2.42 0  246 336 
 SML  HN I        1028 12.25        13.9 0.10            109            246 336 
 PRA  HZ EP       1027 58.01                             107    1.12 6  389 210 
 PRA  HN I        1028 44.63         1.3 0.38            100            389 210 
                                                                                
