 2014 1024 1434  9.1 L   6.792 -73.129140.0  RSN 15 0.4 2.1LRSN                1
 GAP=139        0.91       3.2     4.1  5.0 -0.3496E+01  0.5201E+01  0.3768E+01E
 Epicentro: LOS SANTOS - SANTANDER                                             3
 ACTION:UPD 14-11-29 23:56 OP:nd   STATUS:               ID:20141024143409 L   I
 OLDACT:ARG 14-10-27 17:43 OP:cam  STATUS:               ID:20141024142818     3
 2014-10-24-1428-18M.COL___280                                                 6
 STAT SP IPHASW D HRMM SECON CODA AMPLIT PERI AZIMU VELO AIN AR TRES W  DIS CAZ7
 BAR2 SZ EP     D 1434 28.06                             170    0.0010 22.9 195 
 BAR2 SZ ES   1   1434 42.60                             170   -0.22 7 22.9 195 
 BAR2 SZ I        1434 45.08        38.2 0.20            168           22.9 195 
 BRR  HZ EP     C 1434 29.89                             151    0.1110 73.3 298 
 BRR  HN ES       1434 46.48                             151    0.5910 73.3 298 
 BRR  HZ I        1434 50.85        29.2 0.09            151           73.3 298 
 PAM  SZ EP     D 1434 30.82                             150    0.1110 76.9  38 
 PAM  SN ES       1434 47.53                             150   -0.0010 76.9  38 
 PAM  SZ I        1434 50.10        28.4 0.44            154           76.9  38 
 RUS  HZ EP       1434 32.10                             143   -0.1510 99.6 177 
 RUS  HE ES       1434 50.35                             143    0.0710 99.6 177 
 RUS  HZ I        1434 52.77        14.0 0.30            144           99.6 177 
 PTB  HZ EP       1434 34.78                             130   -1.01 9  149 259 
 PTB  HE ES       1434 56.32                             130   -0.26 9  149 259 
 PTB  HZ I        1434 57.90        16.2 0.16            131            149 259 
 SPBC HZ EP       1434 37.11                             128   -0.13 9  164 220 
 SPBC HN ES       1434 59.24                             128    0.07 9  164 220 
 SPBC HZ I        1435  5.52        18.2 0.28            129            164 220 
 SML  HZ EP   1   1434 45.33                             116   -0.28 6  245 335 
 SML  HN ES   2   1435 13.22                             116   -0.85 4  245 335 
 SML  HZ I        1435 18.11        16.4 0.03            118            245 335 
 CHI  HZ EP   1   1434 46.14                             116   -0.34 6  248 196 
 CHI  HN ES   1   1435 15.40                             116   -0.21 6  248 196 
 CHI  HZ I        1435 21.69         3.8 0.22            118            248 196 
 HEL  HZ EP   1   1434 49.17                             113   -0.07 6  274 256 
 HEL  HE ES   4   1435 18.18                             113   -2.34 0  274 256 
 HEL  HZ I        1435 22.43         6.2 0.28            115            274 256 
 GUY2CHZ EP       1434 53.36                             111    0.76 7  302 235 
 GUY2CHN ES   1   1435 27.27                             111    0.77 5  302 235 
 GUY2CHZ I        1435 33.55         6.7 0.32                           302 235 
 TOL  SZ EP       1434 58.25                             108    1.01 7  344 225 
 TOL  SE ES   1   1435 34.60                             108   -0.17 5  344 225 
 TOL  SZ I        1435 42.25         8.7 0.28            110            344 225 
 MON  HZ EP   4   1434 56.75                             107   -1.40 0  356 308 
 MON  HN ES   4   1435 34.07                             107   -2.31 0  356 308 
 MON  HZ I        1435 35.04         3.3 0.18            109            356 308 
 PRA  HZ EP       1435  2.98                             106    0.50 6  392 210 
 PRA  HN ES       1435 43.82                             106   -0.27 6  392 210 
 PRA  HZ I        1435 49.74         4.1 0.32            107            392 210 
 ORTC HZ EP       1435  3.18                             105    0.27 6  396 216 
 ORTC HE ES       1435 44.35                             105   -0.50 6  396 216 
 ORTC HZ I        1435 49.89         3.2 0.60            107            396 216 
 SJC  HZ EP   4   1435  2.38                             105   -2.34 0  411 327 
 SJC  HN ES   4   1435 44.13                             105   -3.94 0  411 327 
 SJC  HZ I        1435 49.79         1.7 0.42            106            411 327 
                                                                                
