 2016  524 1314 31.2 L   6.107 -73.522129.6  RSN  5 0.2 1.7LRSN                1
 GAP=114        0.51       3.4     2.6  4.7 -0.4045E+00  0.3171E+01 -0.6231E+01E
 Epicentro: SAN BENITO - SANTANDER                                             3
 ACTION:UPD 16-08-18 17:49 OP:cam  STATUS:               ID:20160524131431 L   I
 OLDACT:REG 16-05-24 20:26 OP:ar   STATUS:               ID:20160524130747     3
 2016-05-24-1307-47M.COL___302                                                 6
 STAT SP IPHASW D HRMM SECON CODA AMPLIT PERI AZIMU VELO AIN AR TRES W  DIS CAZ7
 RUS  HZ EP   2   1314 50.36                             156   -0.00 5 54.0 116 
 RUS  HN ES   2   1315  5.13                             156   -0.19 5 54.0 116 
 RUS  HZ I        1315  5.90         5.1 0.24            165           54.0 116 
 BAR2 EZ EP       1314 50.60                             152   -0.0010 65.4  35 
 BAR2 EZ ES       1315  5.79                             152    0.0410 65.4  35 
 BAR2 EZ I        1315  6.50        18.2 0.24            155           65.4  35 
 SPBC HN ES       1315  7.13                             147    0.2410 79.1 231 
 SPBC HZ I        1315 10.82        10.1 0.38            147           79.1 231 
 PTB  HZ EP       1314 53.60                             136   -0.2110  114 295 
 PTB  HN ES       1315 11.14                             136   -0.3210  114 295 
 PTB  HZ I        1315 16.62         7.3 0.16            136            114 295 
 ZAR  HZ EP       1315  3.69                             117    0.12 8  213 316 
 ZAR  HN ES       1315 29.10                             117    0.27 8  213 316 
 ZAR  HZ I        1315 35.36         7.4 0.28            119            213 316 
                                                                                
