 2017 1224 1315 22.8 L   6.800 -73.206136.4  RSN 10 0.6 1.9LRSN                1
 GAP=106        1.29       3.3     4.5  7.5 -0.2429E+01  0.8232E+01  0.1989E+00E
 Epicentro: ZAPATOCA - SANTANDER                                               3
 ACTION:UPD 18-01-04 13:23 OP:rebc STATUS:               ID:20171224131522 L   I
 OLDACT:REG 17-12-24 21:27 OP:osc  STATUS:               ID:20171224130738     3
 2017-12-24-1308-00M.COL___460                                                 6
 STAT SP IPHASW D HRMM SECON CODA AMPLIT PERI AZIMU VELO AIN AR TRES W  DIS CAZ7
 BAR2 EZ EP       1315 41.05                             170   -0.3010 23.2 173 
 BAR2 EZ ES       1315 55.83                             170    0.0510 23.2 173 
 BAR2 EZ I        1315 58.83        17.1 0.24            171           23.2 173 
 PAM  EZ EP       1315 43.96                             148   -0.3910 81.8  43 
 PAM  EN ES       1316  1.05                             148   -0.0810 81.8  43 
 PAM  EZ I        1316  3.97         9.5 0.54            152           81.8  43 
 PTB  HZ EP       1315 47.74                             131   -0.72 9  141 258 
 PTB  HN ES       1316  8.54                             131    0.11 9  141 258 
 PTB  HZ I        1316  9.85         8.9 0.16            133            141 258 
 SPBC HZ EP       1315 49.93                             128   -0.31 9  159 217 
 SPBC HN ES       1316 12.57                             128    0.96 9  159 217 
 SPBC HZ I        1316 18.96        14.2 0.38            130            159 217 
 OCA  HZ EP       1315 50.06                             127   -0.32 9  160 356 
 OCA  HN ES       1316 12.48                             127    0.63 9  160 356 
 YPLC HZ EP       1315 51.59                             124   -0.72 9  180 149 
 YPLC HE ES       1316 15.65                             124    0.35 9  180 149 
 ZAR  HZ EP       1315 53.78                             121   -0.27 9  198 293 
 ZAR  HN ES       1316 17.51                             121   -0.87 9  198 293 
 ZAR  HZ I        1316 24.51         9.3 0.42            124            198 293 
 ROSC BZ EP       1316  0.54                             115    0.44 8  249 210 
 ROSC BE ES       1316 29.12                             115   -0.04 8  249 210 
 DRL03HZ EP       1316  4.48                             111    0.55 7  288 354 
 DRL03HN ES       1316 37.01                             111    1.03 7  288 354 
 GUY2CHZ EP       1316  6.43                             111    1.01 7  296 234 
 GUY2CHN ES       1316 38.55                             111   -0.07 7  296 234 
 GUY2CHZ I        1316 49.01         5.2 0.76                           296 234 
                                                                                
