 2013  924 1546 37.5 L   6.754 -73.178140.0  RSN  9 0.6 2.0LRSN                1
 GAP=159        1.38       6.9     6.3  9.3 -0.1159E+02 -0.6832E+01  0.2842E+02E
 Epicentro: VILLANUEVA - SANTANDER                                             3
 OLDACT:REG 13-09-24 16:01 OP:stll STATUS:               ID:20130924153850     3
 ACTION:UPD 13-10-22 09:24 OP:ep   STATUS:               ID:20130924154637 L   I
 OLDACT:UP  13-09-24 19:09 OP:stll STATUS:               ID:20130924153850     3
 2013-09-24-1538-50M.COL___247                                                 6
 STAT SP IPHASW D HRMM SECON CODA AMPLIT PERI AZIMU VELO AIN AR TRES W  DIS CAZ7
 BAR2 SZ EP       1546 56.29                             172   -0.0310 17.9 182 
 BAR2 SZ ES       1547 10.25                             172   -0.7710 17.9 182 
 BAR2 SZ I        1547 13.62        20.3 0.16            169           17.9 182 
 BRR  HZ EP       1546 58.15                             152    0.1610 70.8 304 
 BRR  HN ES       1547 14.53                             152    0.5410 70.8 304 
 BRR  SZ I        1547 19.08        17.0 0.28            156           70.8 304 
 PTB  HZ EP       1547  3.10                             131   -0.49 9  143 261 
 PTB  HN ES       1547 24.09                             131    0.14 9  143 261 
 PTB  SZ I        1547 30.91        12.4 0.50            135            143 261 
 TAM  HZ EP       1547  4.71                             129   -0.21 9  157 103 
 TAM  SZ I        1547 30.76        14.4 0.52            134            157 103 
 SPBC HZ EP       1547  5.31                             129    0.35 9  157 219 
 SPBC HN ES       1547 27.20                             129    0.81 9  157 219 
 SPBC SZ I        1547 34.13        14.6 0.54            132            157 219 
 NOR  HZ EP       1547 12.53                             118    0.27 8  229 235 
 NOR  HN ES       1547 38.16                             118   -1.22 8  229 235 
 NOR  SZ I        1547 46.04        13.0 0.20            121            229 235 
 CHI  HZ EP       1547 14.69                             116    0.45 8  243 195 
 CHI  HE ES       1547 43.67                             116    0.77 8  243 195 
 CHI  SZ I        1547 47.74         7.8 2.80            120            243 195 
 GUY2CHN ES       1547 53.25                             112   -0.22 7  295 235 
 PRA  HN ES       1548  9.92                             106   -1.20 6  386 209 
                                                                                
