 2017  224 1237 18.9 L   6.845 -72.831146.3  RSN  4 0.2 1.1LRSN                1
 GAP=267        0.60       7.7     8.4  7.1  0.5002E+02 -0.1656E+02 -0.2606E+02E
 Epicentro: GUACA - SANTANDER                                                  3
 ACTION:UPD 17-05-24 15:40 OP:jn   STATUS:               ID:20170224123719 L   I
 OLDACT:UP  17-04-18 16:08 OP:nlst STATUS:               ID:20170224123719 L   3
 OLDACT:REG 17-02-24 20:36 OP:lv   STATUS:               ID:20170224122744     3
 2017-02-24-1228-00M.COL___382                                                 6
 STAT SP IPHASW D HRMM SECON CODA AMPLIT PERI AZIMU VELO AIN AR TRES W  DIS CAZ7
 BAR2 EZ EP       1237 39.57                             161    0.2510 47.9 234 
 BAR2 EZ ES       1237 55.28                             161    0.0310 47.9 234 
 BAR2 EZ I        1237 55.65         5.2 0.19            160           47.9 234 
 BRR  HZ EP   1   1237 41.53                             143   -0.54 7  102 287 
 RUS  HZ EP       1237 43.40                             142    0.0910  109 195 
 RUS  HN ES       1238  2.20                             142   -0.1510  109 195 
 RUS  HZ I        1238  3.00         1.0 0.27            141            109 195 
 ZAR  HE ES       1238 22.63                             118    0.12 8  235 288 
                                                                                
