 2014  924 1725 52.3 L   6.811 -73.155135.8  RSN  5 0.4 1.2LRSN                1
 GAP=135        0.95       6.6     5.7  8.8 -0.6973E+01  0.1183E+02 -0.2654E+01E
 Epicentro: LOS SANTOS - SANTANDER                                             3
 ACTION:UPD 14-10-03 23:08 OP:nd   STATUS:               ID:20140924172552 L   I
 OLDACT:REG 14-09-24 19:56 OP:spq  STATUS:               ID:20140924171818     3
 2014-09-24-1718-18M.COL___283                                                 6
 STAT SP IPHASW D HRMM SECON CODA AMPLIT PERI AZIMU VELO AIN AR TRES W  DIS CAZ7
 BAR2 SZ ES   1   1726 25.00                             169   -0.19 7 24.4 187 
 BAR2 SZ I        1726 27.03         6.8 0.18            170           24.4 187 
 BRR  HZ EP       1726 12.68                             151    0.3410 69.7 298 
 BRR  HN ES       1726 27.42                             151   -0.5110 69.7 298 
 PAM  SZ EP   1   1726 13.08                             149   -0.41 7 77.1  41 
 PAM  SN ES   1   1726 30.58                             149    0.60 7 77.1  41 
 PAM  SZ I        1726 33.01         5.5 0.60            151           77.1  41 
 RUS  HN ES   1   1726 33.07                             141   -0.00 7  102 176 
 RUS  HZ I        1726 34.55         1.0 0.20            143            102 176 
 PTB  HZ EP       1726 18.13                             130   -0.32 9  147 258 
 PTB  HE ES       1726 39.31                             130    0.50 9  147 258 
 PTB  HZ I        1726 41.89         2.2 0.20            132            147 258 
                                                                                
