 2012  124 1307 36.4 L   6.777 -73.174152.1  RSN  6 0.5 1.4LRSN                1
 GAP=134        0.75      12.7    11.6 12.4  0.3012E+02  0.1936E+02  0.8057E+02E
 Epicentro: LOS SANTOS - SANTANDER                                             3
 ACTION:UP  12-02-03 08:20 OP:REBC STATUS:               ID:20120124130736 L   I
 2012-01-24-1300-00M.COL___187                                                 6
 STAT SP IPHASW D HRMM SECON CODA AMPLIT PERI AZIMU VELO SNR AR TRES W  DIS CAZ7
 BAR2 SZ EP   3   13 7 56.37                             172    -0.4 2   20 183 
 BAR2 SZ I        13 7 56.79         6.3 0.40                            20 183 
 GIR2 SZ EP   3   13 7 56.54                             167    -0.4 2   33 356 
 BRR  HZ EP       13 7 58.53                             154     0.310   70 302 
 BRR  HN ES   1   13 8 15.21                             154     0.0 7   70 302 
 BRR  HZ I        13 8 15.50        11.2 0.50                            70 302 
 PAM  SZ EP   3   13 7 59.77                             151     0.2 2   81  40 
 PAM  SE ES   3   13 8 15.72                             151    -1.9 2   81  40 
 RUS  HZ EP   2   13 8  0.94                             146     0.3 5   98 174 
 RUS  HE ES   3   13 8 19.62                             146     0.1 2   98 174 
 RUS  HZ I        13 8 20.45         2.7 0.74                            98 174 
 PTB  HZ EP       13 8  3.29                             134    -0.3 9  144 260 
 PTB  HZ I        13 8 31.73         2.2 0.36                           144 260 
                                                                                
