 2017  924 1905 34.3 L   6.733 -73.116150.1  RSN  5 0.1 1.6LRSN                1
 GAP=236        0.34       2.1     2.3  3.0  0.2093E+01  0.1777E+01  0.6074E+00E
 Epicentro: JORDAN - SANTANDER                                                 3
 ACTION:UPD 17-10-05 19:15 OP:rebc STATUS:               ID:20170924190534 L   I
 OLDACT:REG 17-09-24 20:28 OP:lv   STATUS:               ID:20170924185739     3
 2017-09-24-1858-00M.COL___405                                                 6
 STAT SP IPHASW D HRMM SECON CODA AMPLIT PERI AZIMU VELO AIN AR TRES W  DIS CAZ7
 BAR2 EZ EP       19 5 54.32                             173   -0.0210 17.2 205 
 BAR2 EZ ES       19 6 10.00                             173    0.0310 17.2 205 
 BAR2 EZ I        19 6 10.31         8.3 0.34            169           17.2 205 
 BRR  HZ EP       19 5 56.34                             151    0.0610 77.7 302 
 BRR  HN ES       19 6 13.52                             151    0.0910 77.7 302 
 BRR  HZ I        19 6 18.07         7.6 0.14            148           77.7 302 
 RUS  HZ EP       19 5 57.98                             147    0.0310 93.0 178 
 RUS  HN ES       19 6 16.30                             147   -0.1110 93.0 178 
 RUS  HZ I        19 6 17.74         6.4 0.30            148           93.0 178 
 ZAR  HE ES       19 6 33.43                             122   -0.19 8  210 294 
 ZAR  HZ I        19 6 37.70         4.6 0.32            122            210 294 
 NOR  HN ES       19 6 38.16                             120    0.10 8  233 236 
 NOR  HZ I        19 6 42.37         2.8 0.20            119            233 236 
                                                                                
