 2016  324 1745 30.4 L   6.742 -73.163128.0  RSN  5 0.4 1.2LRSN                1
 GAP=137        0.60       4.9     4.7  7.6 -0.7916E+01  0.1499E+02 -0.3309E+01E
 Epicentro: LOS SANTOS - SANTANDER                                             3
 ACTION:UPD 16-05-13 21:27 OP:cam  STATUS:               ID:20160324174530 L   I
 OLDACT:UP  16-03-25 01:07 OP:dnl  STATUS:               ID:20160324173750d    3
 OLDACT:DUP 16-03-25 00:47 OP:dnl  STATUS:               ID:20160324173750d    3
 OLDACT:REG 16-03-24 22:23 OP:dnl  STATUS:               ID:20160324173749     3
 2016-03-24-1737-49M.COL___304                                                 6
 STAT SP IPHASW D HRMM SECON CODA AMPLIT PERI AZIMU VELO AIN AR TRES W  DIS CAZ7
 BAR2 EZ EP   2   1745 47.88                             172    0.09 5 16.7 187 
 BAR2 EZ ES   2   1746  1.78                             172    0.45 5 16.7 187 
 BAR2 EZ I        1746  4.00         3.8 0.09            171           16.7 187 
 PAM  EZ EP       1745 50.87                             146   -0.3410 83.6  38 
 PAM  EN ES       1746  7.55                             146    0.1410 83.6  38 
 PAM  EZ I        1746  9.77         6.8 0.54            151           83.6  38 
 RUS  HZ EP   2   1745 51.88                             142   -0.11 5 94.3 175 
 RUS  HE ES   2   1746  8.99                             142    0.18 5 94.3 175 
 RUS  HZ I        1746 11.56         2.4 0.29            147           94.3 175 
 PTB  HZ EP   2   1745 55.77                             129    0.05 5  145 261 
 PTB  HE ES   2   1746 14.75                             129   -0.69 5  145 261 
 PTB  HZ I        1746 18.98         2.0 0.16            130            145 261 
 ZAR  HZ EP   2   1746  2.75                             119    0.89 4  205 294 
 ZAR  HE ES   2   1746 26.52                             119    0.14 4  205 294 
 ZAR  HZ I        1746 32.16         1.9 0.15            121            205 294 
                                                                                
