 2011  524 1647 55.3 L   6.785 -73.070141.8  RSN  8 0.4 2.1LRSN                1
 GAP=165        0.84       4.4     7.8  7.9 -0.1332E+02 -0.4676E+01  0.1902E+01E
 Epicentro: LOS SANTOS - SANTANDER                                             3
 ACTION:UP  11-06-29 08:55 OP:tino STATUS:               ID:20110524164755 L   I
 2011-05-24-1644-06S.COL___141                                                 6
 STAT SP IPHASW D HRMM SECON CODA AMPLIT PERI AZIMU VELO SNR AR TRES W  DIS CAZ7
 BAR2 SZ EP   1   1648 14.25                             170    -0.2 7   25 210 
 BAR2 SZ ES   2   1648 29.06                             170    -0.4 5   25 210 
 BAR2 SZ I        1648 32.60        32.8 0.26                            25 210 
 BTL  SZ EP       1648 14.87                             169     0.410   26 304 
 BRR  HZ EP   1   1648 16.34                             149    -0.2 7   79 297 
 BRR  HE ES   1   1648 33.54                             149     0.5 7   79 297 
 BRR  HZ I        1648 36.33        26.2 0.34                            79 297 
 RUS  HZ EP   1   1648 18.74                             144     0.2 7   99 181 
 RUS  HN ES   1   1648 36.59                             144     0.0 7   99 181 
 RUS  HZ I        1648 38.66        16.4 0.20                            99 181 
 BRI  SZ EP   1   1648 18.74                             141     0.0 7  107  16 
 GRA  SZ EP       1648 20.39                             136     0.310  125  14 
 GRA  SZ ES   1   1648 38.71                             136    -0.8 7  125  14 
 GRA  SZ I        1648 41.49        14.2 0.42                           125  14 
 NOR  SZ EP   2   1648 30.96                             117    -0.5 4  241 236 
 NOR  SE ES   2   1648 58.83                             117    -0.8 4  241 236 
 PRA  HZ EP   1   1648 48.27                             106    -0.7 4  395 211 
 PRA  HE ES   2   1649 31.21                             106     0.3 3  395 211 
                                                                                
