 2017  424 1501  1.0 L   6.754 -73.112148.0  RSN  6 0.3 1.5LRSN                1
 GAP=168        0.68       5.6     3.6  5.7 -0.2932E+01  0.5033E+01 -0.4297E+00E
 Epicentro: LOS SANTOS - SANTANDER                                             3
 ACTION:UPD 17-05-30 21:15 OP:jn   STATUS:               ID:20170424150101 L   I
 OLDACT:UP  17-04-24 23:08 OP:and  STATUS:               ID:20170424145744     3
 OLDACT:UP  17-04-24 23:08 OP:and  STATUS:               ID:20170424145744     3
 OLDACT:UP  17-04-24 23:07 OP:and  STATUS:               ID:20170424145744     3
 OLDACT:REG 17-04-24 20:39 OP:and  STATUS:               ID:20170424145744     3
 2017-04-24-1458-00M.COL___371                                                 6
 STAT SP IPHASW D HRMM SECON CODA AMPLIT PERI AZIMU VELO AIN AR TRES W  DIS CAZ7
 BAR2 EZ IP     C 15 1 21.21                             172    0.3410 19.5 204 
 BAR2 EZ ES       15 1 36.11                             172   -0.2310 19.5 204 
 BAR2 EZ I        15 1 38.62         7.5 0.18            173           19.5 204 
 BRR  HZ EP       15 1 22.90                             151    0.1310 77.0 301 
 BRR  HN ES       15 1 39.91                             151    0.2010 77.0 301 
 PAM  EZ EP       15 1 23.81                             150    0.2010 79.2  35 
 PAM  EN ES       15 1 40.90                             150   -0.3010 79.2  35 
 PAM  EZ I        15 1 43.41         3.1 0.52            151           79.2  35 
 PTB  HZ EP   2   15 1 27.34                             132   -1.10 5  151 261 
 PTB  HN ES   2   15 1 49.47                             132   -0.35 5  151 261 
 ZAR  HZ EP   2   15 1 33.93                             122   -0.26 4  209 293 
 ZAR  HE ES       15 2  0.03                             122   -0.02 8  209 293 
 ZAR  HZ I        15 2  6.27         4.6 0.24            122            209 293 
 NOR  HN ES   2   15 2  5.03                             119    0.13 4  235 236 
                                                                                
