 2010  724 1001 46.1 L   6.290 -74.200 32.1  RSN 16 0.4 3.6LRSN                1
 GAP=118        1.04       3.4     2.9 12.8 -0.4622E+01 -0.5495E+01  0.6118E+01E
 Epicentro: CIMITARRA - SANTANDER                                              3
 ACTION:UPD 10-12-01 15:19 OP:pat  STATUS:               ID:20100724100146 L   I
 2010-07-24-1001-15S.COL___123                                                 6
 STAT SP IPHASW D HRMM SECON CODA AMPLIT PERI AZIMU VELO AIN AR TRES W  DIS CAZ7
 BRR  HZ IP     C 10 2  1.93                              61    -0.210  105  31 
 BRR  HE ES   1   10 2 15.58                              61     0.9 7  105  31 
 BRR  HZ I        10 2 17.49      1407.9 0.20                           105  31 
 BAR2 SZ IP       10 2  4.14                              61     0.210  117  73 
 BAR2 SZ ES   1   10 2 17.70                              61    -0.2 7  117  73 
 BAR2 SZ I        10 2 19.87      2916.8 0.47                           117  73 
 RUS  HZ IP     D 10 2  5.72                              61    -0.310  131 110 
 RUS  HN ES       10 2 21.22                              61    -0.310  131 110 
 RUS  HZ I        10 2 22.18      1802.8 0.43                           131 110 
 GIR2 SZ EP   1   10 2  7.24                              61     0.4 7  141  52 
 HEL  HZ IP     D 10 2  7.47                              61    -0.4 9  147 266 
 HEL  HE ES   1   10 2 24.55                              61    -0.3 7  147 266 
 HEL  HZ I        10 2 25.46      1782.7 0.24                           147 266 
 ROSC BZ EP   1   10 2  9.57                              61     0.0 7  161 185 
 GUY  SZ EP   2   10 2 11.99                              61     0.6 4  175 228 
 GUY  SZ I        10 2 32.70       619.0 0.36                           175 228 
 CHI  HZ EP   1   10 2 14.10                              61     0.7 7  191 164 
 RREF HZ IP     D 10 2 14.98                              61     0.3 9  199 220 
 RREF HN ES   1   10 2 36.25                              61    -0.7 6  199 220 
 RREF HZ I        10 2 39.53       292.2 0.21                           199 220 
 GUE  SZ IP       10 2 17.26                              61     0.2 8  221  40 
 GUE  SZ I        10 2 27.23       173.9 0.10                           221  40 
 TOL  SZ EP   1   10 2 18.03                              61     0.4 6  226 213 
 TOL  SZ ES   2   10 2 42.54                              61     0.3 4  226 213 
 GRA  SZ EP       10 2 17.73                              61    -0.8 8  234  41 
 GRA  SZ I        10 3  3.85       596.3 0.31                           234  41 
 OCA  SZ EP   1   10 2 18.64                              61    -0.1 6  236  24 
 OCA  SZ I        10 3  4.07       242.2 0.65                           236  24 
 ANIL HZ EP   1   10 2 19.96                              61     0.7 6  239 214 
 ANIL HE ES   2   10 2 45.62                              61     0.4 4  239 214 
 ANIL HZ I        10 2 49.80       390.0 0.45                           239 214 
 PRA  HZ EP       10 2 25.88                              60     0.0 7  295 195 
 PRA  HZ I        10 3  1.57       120.1 0.30                           295 195 
 SDV  BZ EP   2   10 2 50.08                              60     0.3 2  487  54 
                                                                                
