 2015  324 1030 32.4 L   6.843 -73.153141.9  RSN  7 0.6 1.5LRSN                1
 GAP=133        1.46       5.8     6.3  9.2  0.4207E+01  0.1395E+02 -0.1116E+02E
 Epicentro: LOS SANTOS - SANTANDER                                             3
 ACTION:UPD 15-04-30 16:29 OP:nd   STATUS:               ID:20150324103032 L   I
 OLDACT:REG 15-03-24 20:31 OP:stll STATUS:               ID:20150324102735     3
 2015-03-24-1027-35M.COL___275                                                 6
 STAT SP IPHASW D HRMM SECON CODA AMPLIT PERI AZIMU VELO AIN AR TRES W  DIS CAZ7
 BAR2 EZ EP       1030 51.66                             168   -0.0310 27.9 187 
 BAR2 EZ ES       1031  6.59                             168   -0.1310 27.9 187 
 BAR2 EZ I        1031  8.27         6.1 0.22            171           27.9 187 
 BRR  HZ EP       1030 54.01                             153    1.0210 68.4 295 
 BRR  HE ES       1031 10.08                             153    1.0410 68.4 295 
 PAM  SZ EP       1030 54.60                             151    0.5510 74.3  42 
 PAM  SE ES       1031 10.10                             151   -0.8110 74.3  42 
 PAM  SZ I        1031 13.75         8.5 0.58            152           74.3  42 
 RUS  HZ EP       1030 55.72                             142   -0.4310  105 176 
 RUS  HN ES       1031 14.62                             142   -0.0410  105 176 
 RUS  HZ I        1031 15.89         3.0 0.34            145            105 176 
 PTB  HZ EP       1030 59.10                             131    0.00 9  148 257 
 PTB  HN ES       1031 19.53                             131   -0.37 9  148 257 
 PTB  HZ I        1031 22.64         3.6 0.12            132            148 257 
 ZAR  HZ EP       1031  4.48                             122    0.12 9  202 291 
 ZAR  HN ES       1031 28.35                             122   -0.93 9  202 291 
 ZAR  HZ I        1031 35.46         2.4 0.16            123            202 291 
 SML  HZ EP       1031  8.24                             117   -0.09 8  239 335 
 SML  HN ES       1031 36.04                             117   -0.30 8  239 335 
 SML  HZ I        1031 41.29         5.5 0.10            118            239 335 
                                                                                
