 2017  824 1542 38.0 L   6.818 -73.096146.0  RSN  6 0.4 1.7LRSN                1
 GAP=244        0.84       4.8     5.1  6.5  0.7813E+01  0.1304E+02  0.7794E+01E
 Epicentro: LOS SANTOS - SANTANDER                                             3
 OLDACT:UP  17-08-25 00:28 OP:edw  STATUS:               ID:20170824153744     3
 OLDACT:UP  17-08-25 00:25 OP:edw  STATUS:               ID:20170824153744     3
 OLDACT:UP  17-08-25 00:24 OP:edw  STATUS:               ID:20170824153744     3
 OLDACT:REG 17-08-24 21:19 OP:edw  STATUS:               ID:20170824153744     3
 ACTION:UPD 17-09-04 20:24 OP:rebc STATUS:               ID:20170824154238 L   I
 OLDACT:UP  17-08-25 00:34 OP:edw  STATUS:               ID:20170824153745d    3
 OLDACT:DUP 17-08-25 00:29 OP:edw  STATUS:               ID:20170824153745d    3
 OLDACT:UP  17-08-25 00:28 OP:edw  STATUS:               ID:20170824153744     3
 2017-08-24-1538-00M.COL___420                                                 6
 STAT SP IPHASW D HRMM SECON CODA AMPLIT PERI AZIMU VELO AIN AR TRES W  DIS CAZ7
 BAR2 EZ EP       1542 57.71                             169   -0.0410 26.8 201 
 BAR2 EZ ES       1543 12.83                             169   -0.3110 26.8 201 
 BAR2 EZ I        1543 15.45        10.8 0.42            166           26.8 201 
 BRR  HZ EP       1542 59.52                             151    0.1010 75.2 295 
 BRR  HN ES       1543 16.67                             151    0.5510 75.2 295 
 BRR  HZ I        1543 20.25        11.5 0.34            150           75.2 295 
 RUS  HZ EP       1543  1.73                             143   -0.2010  102 179 
 RUS  HN ES       1543 20.73                             143    0.1610  102 179 
 RUS  HZ I        1543 21.49         8.9 0.28            144            102 179 
 ZAR  HE ES       1543 36.07                             122   -0.53 8  208 291 
 NOR  HZ EP       1543 14.27                             118   -0.10 8  240 235 
 NOR  HE ES       1543 42.46                             118   -0.26 8  240 235 
 NOR  HZ I        1543 49.52         3.4 0.38            119            240 235 
 GUY2CHZ EP   2   1543 23.74                             112    1.46 4  307 235 
 GUY2CHN ES       1543 57.14                             112    0.34 7  307 235 
                                                                                
