 2017  524 1949  7.9 L   6.502 -73.634 90.0  RSN  4 0.2 1.3LRSN                1
 GAP=145        0.48       3.7     3.3  6.5 -0.6900E+00  0.2863E+01  0.4809E+01E
 Epicentro: SANTA HELENA DEL OPON - SANTANDER                                  3
 ACTION:UPD 17-06-16 13:38 OP:jn   STATUS:               ID:20170524194907 L   I
 OLDACT:REG 17-05-24 22:30 OP:dnl  STATUS:               ID:20170524194731     3
 2017-05-24-1948-00M.COL___344                                                 6
 STAT SP IPHASW D HRMM SECON CODA AMPLIT PERI AZIMU VELO AIN AR TRES W  DIS CAZ7
 BRR  HZ EP   2   1949 23.09                             139    0.02 5 67.4 353 
 BRR  HN ES       1949 34.82                             139   -0.1010 67.4 353 
 BRR  HZ I        1949 40.23        13.5 0.32            108           67.4 353 
 RUS  HZ EP   2   1949 26.17                             131    0.41 5 90.9 138 
 RUS  HZ I        1949 44.30         2.2 0.34             93           90.9 138 
 PTB  HZ EP   2   1949 24.88                             130   -0.26 5 91.1 273 
 PTB  HN ES       1949 38.53                             130   -0.0710 91.1 273 
 PTB  HZ I        1949 39.61         4.2 0.20            104           91.1 273 
 ZAR  HZ EP   2   1949 33.48                             112   -0.44 4  174 309 
 ZAR  HN ES       1949 54.51                             112    0.27 9  174 309 
 ZAR  HZ I        1949 58.54         3.0 0.44             93            174 309 
                                                                                
