 2016  124 1321 16.6 L   6.802 -73.163143.0  RSN 22 0.5 2.7LRSN                1
 GAP=134        0.97       2.9     3.5  4.9 -0.2274E+01  0.5088E+01  0.2450E+01E
 Epicentro: LOS SANTOS - SANTANDER                                             3
 ACTION:UPD 16-03-09 23:28 OP:cam  STATUS:               ID:20160124132116 L   I
 OLDACT:UP  16-02-23 20:55 OP:AR   STATUS:               ID:20160124132116 L   3
 OLDACT:UP  16-01-24 23:33 OP:mh   STATUS:               ID:20160124131748     3
 OLDACT:UP  16-01-24 23:31 OP:mh   STATUS:               ID:20160124131748     3
 OLDACT:REG 16-01-24 20:57 OP:mh   STATUS:               ID:20160124131748     3
 2016-01-24-1317-48M.COL___329                                                 6
 STAT SP IPHASW D HRMM SECON CODA AMPLIT PERI AZIMU VELO AIN AR TRES W  DIS CAZ7
 BAR2 EZ IP     D 1321 35.87                             170    0.0210 23.3 185 
 BAR2 EZ ES       1321 50.68                             170   -0.2210 23.3 185 
 BAR2 EZ I        1321 52.14        66.3 0.28            170           23.3 185 
 PAM  EZ EP       1321 38.68                             150    0.1410 78.4  41 
 PAM  EN ES       1321 55.97                             150    0.2910 78.4  41 
 PAM  EZ I        1321 57.94        79.7 0.64            153           78.4  41 
 RUS  HZ EP       1321 39.52                             143   -0.5410  101 175 
 RUS  HN ES       1321 58.57                             143    0.1710  101 175 
 RUS  HZ I        1321 59.48        55.2 0.48            145            101 175 
 PTB  HZ EP       1321 42.36                             132   -0.77 9  146 259 
 PTB  HE ES       1322  3.99                             132    0.13 9  146 259 
 PTB  HZ I        1322  6.37        59.3 0.12            131            146 259 
 OCA  HZ EP       1321 44.32                             129   -0.28 9  160 354 
 OCA  HN ES       1322  6.48                             129   -0.00 9  160 354 
 OCA  HZ I        1322 10.65       112.8 0.34            130            160 354 
 SPBC HZ EP       1321 44.74                             129   -0.01 9  162 218 
 SPBC HN ES       1322  6.49                             129   -0.25 9  162 218 
 SPBC HZ I        1322 14.19        68.2 0.22            129            162 218 
 ZAR  HZ EP   1   1321 48.53                             122   -0.09 6  202 292 
 ZAR  HN ES       1322 14.31                             122    0.67 9  202 292 
 ZAR  HZ I        1322 19.73        45.2 0.44            122            202 292 
 NOR  HZ EP       1321 51.76                             118   -0.21 8  233 234 
 NOR  HN ES       1322 19.87                             118    0.27 8  233 234 
 NOR  HZ I        1322 23.14        37.2 0.22            118            233 234 
 SML  HZ EP   4   1321 52.46                             117   -0.45 0  243 336 
 SML  HN ES   4   1322 20.98                             117   -0.29 0  243 336 
 SML  HZ I        1322 23.10        53.0 0.10            117            243 336 
 ROSC BZ EP   1   1321 54.95                             116    0.51 6  252 211 
 ROSC BN ES   4   1322 27.31                             116    3.32 0  252 211 
 HEL  HZ EP   1   1321 56.66                             114    0.23 6  270 256 
 HEL  HN ES       1322 26.92                             114   -0.61 8  270 256 
 HEL  HZ I        1322 34.57        30.4 0.40            115            270 256 
 URE  HZ EP   9   1321 55.99                             113   -1.29 0  282 292 
 URE  HN ES       1322 27.28                             113   -0.47 7  282 292 
 URE  HZ I        1322 34.63        28.2 0.16            113            282 292 
 GUY2CHZ EP       1322  0.65                             112    0.78 7  300 235 
 GUY2CHN ES   4   1322 37.17                             112    3.51 0  300 235 
 GUY2CHZ I        1322 42.55        26.1 0.76                           300 235 
 VIL  SZ EP       1322  0.25                             111    0.42 7  303 191 
 VIL  SN ES   4   1322 32.33                             111   -1.26 0  303 191 
 SOCV BZ EP   4   1321 57.56                             111   -2.08 0  303  57 
 SOCV BN ES   4   1322 29.05                             111   -4.20 0  303  57 
 LL6C HZ EP   4   1322  0.59                             110   -1.51 0  325 358 
 LL6C HN ES   4   1322 33.79                             110   -3.83 0  325 358 
 LL6C HZ I        1322 44.51        12.4 0.66            111            325 358 
 ELA  HZ EP   1   1322  2.26                             110   -0.88 5  328 229 
 ELA  HN ES   1   1322 39.98                             110    0.50 5  328 229 
 MON  HZ EP   4   1322  1.66                             108   -3.59 0  352 309 
 MON  HE ES   4   1322 41.78                             108   -1.46 0  352 309 
 MON  HZ I        1322 44.00         6.9 0.27            109            352 309 
 ANIL HZ EP       1322  6.82                             108    0.70 6  356 224 
 ANIL HE ES   4   1322 46.70                             108    1.92 0  356 224 
 ANIL HZ I        1322 51.54        36.6 0.32            109            356 224 
 PRA  HZ EP       1322  9.34                             106   -0.56 6  391 209 
 PRA  HN ES       1322 52.53                             106    1.03 6  391 209 
 PRA  HZ I        1322 55.27        12.2 0.22            107            391 209 
 ORTC HZ EP       1322 10.47                             106    0.20 6  395 216 
 ORTC HN ES       1322 51.35                             106   -0.82 6  395 216 
 ORTC HZ I        1322 58.97         8.5 0.42            107            395 216 
 ELOV BZ EP   4   1322  9.00                             105   -2.71 0  407  87 
 SJC  HZ EP   4   1322  9.66                             105   -2.21 0  408 327 
 SJC  HN ES   4   1322 50.85                             105   -4.17 0  408 327 
 SJC  HZ I        1322 56.97         8.4 0.30            106            408 327 
 SMAR HZ EP   4   1322 19.86                             102   -2.41 0  496 346 
 SMAR HN ES   4   1323  8.18                             102   -5.34 0  496 346 
 SMAR HZ I        1323 12.35         7.3 0.36            103            496 346 
                                                                                
