 2016 1124 1733 24.3 L   6.836 -73.141150.8  RSN  8 0.4 1.9LRSN                1
 GAP=148        1.01       4.3     4.7  6.0 -0.3469E+01  0.4010E+01  0.9361E+01E
 Epicentro: LOS SANTOS - SANTANDER                                             3
 ACTION:UPD 17-10-26 21:11 OP:lp   STATUS:               ID:20161124173324 L   I
 OLDACT:UP  16-11-24 23:54 OP:edw  STATUS:               ID:20161124172748     3
 OLDACT:REG 16-11-24 20:28 OP:edw  STATUS:               ID:20161124172748     3
 2016-11-24-1728-00M.COL___351                                                 6
 STAT SP IPHASW D HRMM SECON CODA AMPLIT PERI AZIMU VELO AIN AR TRES W  DIS CAZ7
 BAR2 EZ IP     C 1733 44.26                             169   -0.4010 27.3 190 
 BAR2 EZ ES       1733 59.68                             169   -0.8310 27.3 190 
 BAR2 EZ I        1734  0.63        14.5 0.09            168           27.3 190 
 BRR  HZ EP       1733 46.12                             154    0.1610 69.8 295 
 BRR  HN ES       1734  3.46                             154    0.6410 69.8 295 
 PAM  EZ EP       1733 47.20                             153    0.3010 74.1  41 
 PAM  EN ES       1734  4.68                             153    0.1810 74.1  41 
 PTB  HZ EP   9   1733 50.75                             133   -1.09 0  149 257 
 PTB  HN ES       1734 12.10                             133   -0.10 9  149 257 
 PTB  HZ I        1734 14.08        10.0 0.14            131            149 257 
 ZAR  HZ EP       1733 56.56                             123   -0.46 9  203 291 
 ZAR  HN ES       1734 22.22                             123   -0.28 9  203 291 
 ZAR  HZ I        1734 28.20         8.5 0.13            122            203 291 
 NOR  HZ EP       1734  0.76                             119    0.10 8  237 234 
 NOR  HN ES       1734 29.31                             119    0.33 8  237 234 
 NOR  HZ I        1734 31.72         5.3 0.18            118            237 234 
 CHI  HZ EP       1734  2.89                             118    0.14 8  253 195 
 CHI  HN ES       1734 33.32                             118    0.62 8  253 195 
 CHI  HZ I        1734 34.01         3.2 0.42            117            253 195 
 PRA  HZ EP       1734 18.29                             107   -0.18 6  396 209 
 PRA  HE ES       1735  0.11                             107   -0.58 6  396 209 
 PRA  HZ I        1735  4.04         2.6 0.26            107            396 209 
                                                                                
