 2015  824 1041 55.2 L   6.840 -73.053141.2  RSN  7 0.4 1.6LRSN                1
 GAP=193        1.03       3.5     6.1  6.5  0.3474E+01  0.7940E+01 -0.3980E+01E
 Epicentro: LOS SANTOS - SANTANDER                                             3
 ACTION:UPD 15-09-15 23:04 OP:cam  STATUS:               ID:20150824104155 L   I
 OLDACT:REG 15-08-24 22:07 OP:ak   STATUS:               ID:20150824103749     3
 2015-08-24-1037-49M.COL___340                                                 6
 STAT SP IPHASW D HRMM SECON CODA AMPLIT PERI AZIMU VELO AIN AR TRES W  DIS CAZ7
 BAR2 EZ EP       1042 14.44                             167   -0.0610 31.0 208 
 BAR2 EZ ES       1042 29.57                             167    0.0410 31.0 208 
 BAR2 EZ I        1042 30.62         7.5 0.34            170           31.0 208 
 BRR  HZ EP       1042 16.77                             149    0.4310 78.6 292 
 BRR  HN ES       1042 33.52                             149    0.7210 78.6 292 
 RUS  HZ EP       1042 19.23                             142    0.3710  105 182 
 RUS  HN ES       1042 36.65                             142   -0.6410  105 182 
 RUS  HZ I        1042 38.11         3.6 0.21            146            105 182 
 OCA  HZ EP       1042 22.72                             129   -0.20 9  157 349 
 OCA  HN ES       1042 44.27                             129   -0.25 9  157 349 
 OCA  HZ I        1042 52.51        12.9 0.48            129            157 349 
 ZAR  HZ EP       1042 28.47                             120    0.25 8  212 290 
 ZAR  HN ES       1042 53.64                             120   -0.31 8  212 290 
 ZAR  HZ I        1042 59.80         3.3 0.17            121            212 290 
 SML  HZ EP       1042 31.64                             116   -0.02 8  244 333 
 SML  HN ES       1042 59.52                             116   -0.55 8  244 333 
 SML  HZ I        1043  3.77         5.6 0.10            117            244 333 
 GUY2CHZ EP       1042 40.41                             111    0.53 7  312 235 
 GUY2CHN ES       1043 14.01                             111   -0.70 7  312 235 
 GUY2CHZ I        1043 22.30         1.4 0.30                           312 235 
                                                                                
