 2016 1024 1538 12.5 L   6.863 -73.317120.1  RSN 21 0.5 2.6LRSN                1
 GAP=101        0.95       3.4     3.6  5.0 -0.3373E+01  0.4575E+01  0.4820E+01E
 Epicentro: BETULIA - SANTANDER                                                3
 ACTION:UPD 16-11-09 19:22 OP:rebc STATUS:               ID:20161024153812 L   I
 OLDACT:UP  16-10-24 23:46 OP:edw  STATUS:               ID:20161024153742     3
 OLDACT:UP  16-10-24 23:45 OP:edw  STATUS:               ID:20161024153742     3
 OLDACT:UP  16-10-24 23:43 OP:edw  STATUS:               ID:20161024153742     3
 OLDACT:REG 16-10-24 21:16 OP:edw  STATUS:               ID:20161024153742     3
 2016-10-24-1538-00M.COL___361                                                 6
 STAT SP IPHASW D HRMM SECON CODA AMPLIT PERI AZIMU VELO AIN AR TRES W  DIS CAZ7
 BAR2 EZ IP       1538 29.30                             163   -0.0110 33.5 154 
 BAR2 EZ ES       1538 42.43                             163   -0.0210 33.5 154 
 BAR2 EZ I        1538 43.74       196.6 0.28            167           33.5 154 
 BRR  HZ EP       1538 29.70                             155   -0.0210 51.3 302 
 BRR  HN ES       1538 43.35                             155    0.1610 51.3 302 
 BRR  HZ I        1538 45.40       107.5 0.14            143           51.3 302 
 PAM  EZ EP       1538 32.72                             142    0.0710 86.2  52 
 PAM  EN ES       1538 48.62                             142    0.2310 86.2  52 
 PAM  EZ I        1538 51.14        71.6 0.26            133           86.2  52 
 RUS  HZ EP       1538 34.08                             135   -0.5310  110 166 
 RUS  HN ES       1538 51.80                             135   -0.0910  110 166 
 RUS  HZ I        1538 53.14        27.7 0.20            130            110 166 
 PTB  HZ IP   9 C 1538 34.63                             129   -1.20 0  131 254 
 PTB  HN ES       1538 52.90                             131    0.0410  131 254 
 PTB  HZ I        1538 57.06        52.8 0.16            120            131 254 
 SPBC HZ EP       1538 38.35                             123   -0.23 9  158 212 
 SPBC HN ES       1538 58.78                             123   -0.17 9  158 212 
 SPBC HZ I        1539  0.45        85.8 0.20            117            158 212 
 NOR  HZ EP       1538 45.60                             114   -0.03 8  224 230 
 NOR  HN ES       1539 11.60                             114    0.10 8  224 230 
 NOR  HZ I        1539 13.54        30.7 0.14            108            224 230 
 ROSC BZ EP   4   1538 51.78                             111    2.81 0  250 206 
 ROSC BN ES   2   1539 17.95                             111    0.50 4  250 206 
 ROSC BZ I        1539 23.56        17.9 0.40            107            250 206 
 CHI  HZ EP       1538 49.28                             111    0.11 8  251 191 
 CHI  HN ES       1539 17.72                             111   -0.08 8  251 191 
 CHI  HZ I        1539 22.44        13.3 0.42            107            251 191 
 HEL  HZ EP   2   1538 50.45                             111    0.84 4  256 253 
 HEL  HN ES   4   1539 20.09                             111    1.50 0  256 253 
 HEL  HZ I        1539 22.69        19.7 0.21            105            256 253 
 GUY2CHZ EP   4   1538 54.00                             108    0.27 0  290 231 
 GUY2CHN ES   4   1539 24.25                             108   -1.67 0  290 231 
 GUY2CHZ I        1539 33.22        19.2 0.36                           290 231 
 LL6C HZ EP   4   1538 36.34                             106   -20.0 0  318   1 
 LL6C HN ES   4   1539 10.44                             106   -20.1 0  318   1 
 CBOC HZ EP       1538 57.22                             106    0.62 7  318 250 
 CBOC HN ES       1539 31.03                             106    0.01 7  318 250 
 CBOC HZ I        1539 42.89         6.8 0.36            102            318 250 
 DBB  HZ EP   4   1538 56.22                             105   -0.52 0  320 273 
 DBB  HN ES   2   1539 28.82                             105   -2.45 3  320 273 
 ELA  HZ EP   4   1538 59.16                             106    1.91 0  320 226 
 ELA  HN ES   2   1539 31.16                             106   -1.03 3  320 226 
 ELA  HZ I        1539 41.11        14.6 0.26            102            320 226 
 PTGC HZ EP   2   1538 56.07                             105   -0.84 3  322 156 
 PTGC HN ES   4   1539 29.15                             105   -2.44 0  322 156 
 PTGC HZ I        1539 37.32        32.9 0.30            102            322 156 
 ARGC HZ EP   4   1539  1.33                             104    1.56 0  347 343 
 ARGC HN ES   4   1539 39.06                             104    2.40 0  347 343 
 ANIL HZ EP   4   1539  2.22                             104    1.75 0  349 221 
 ANIL HN ES   4   1539 39.36                             104    1.44 0  349 221 
 ANIL HZ I        1539 43.53        27.5 0.22            101            349 221 
 PRA  HZ EP       1539  5.32                             102    0.44 6  389 207 
 PRA  HN ES       1539 46.28                             102    0.51 6  389 207 
 PRA  HZ I        1539 51.23        15.3 0.40            100            389 207 
 ORTC HZ EP   2   1539  4.77                             102   -0.24 3  390 213 
 ORTC HN ES   2   1539 47.67                             102    1.67 3  390 213 
 ORTC HZ I        1539 51.61         6.9 0.20            100            390 213 
 SJC  HZ EP   4   1539  3.42                             102   -1.96 0  393 329 
 SJC  HN ES   4   1539 42.75                             102   -3.90 0  393 329 
 SJC  HZ I        1539 48.94         7.8 0.26             99            393 329 
 PAL  HZ EP   4   1539  5.36                             102   -0.04 0  393 237 
 PAL  HN ES   4   1539 44.82                             102   -1.88 0  393 237 
 PAL  HZ I        1539 51.47        10.9 0.30            100            393 237 
 CRJC HZ EP   9   1539 12.68                              99   -1.02 0  462   6 
 CRJC HN ES       1539 58.27                             102   -2.18 5  462   6 
 CRJC HZ I        1540  6.16        17.4 0.24             98            462   6 
                                                                                
