 2014  224 1745 51.5 L   6.815 -73.187146.3  RSN  4 0.1 1.3LRSN                1
 GAP=197        0.38       2.4     3.2  4.9  0.2501E+01  0.2426E+01 -0.4466E+01E
 Epicentro: ZAPATOCA - SANTANDER                                               3
 ACTION:UPD 14-03-10 08:12 OP:ep   STATUS:               ID:20140224174551 L   I
 OLDACT:UP  14-02-24 18:39 OP:cam  STATUS:               ID:20140224173820d    3
 OLDACT:DUP 14-02-24 18:37 OP:cam  STATUS:               ID:20140224173820d    3
 2014-02-24-1738-18M.COL___229                                                 6
 STAT SP IPHASW D HRMM SECON CODA AMPLIT PERI AZIMU VELO AIN AR TRES W  DIS CAZ7
 BAR2 SZ ES   1   1746 26.83                             170    0.19 8 24.6 179 
 RUS  HZ EP   1   1746 15.56                             143    0.07 7  103 174 
 RUS  HN ES       1746 34.02                             143   -0.1510  103 174 
 RUS  HZ I        1746 36.51         1.9 0.40            143            103 174 
 PTB  HZ EP   1   1746 18.31                             133    0.14 7  144 258 
 PTB  HE ES       1746 38.93                             133   -0.02 9  144 258 
 PTB  HZ I        1746 41.15         3.6 0.44            133            144 258 
 SML  HN ES       1746 56.06                             118   -0.08 8  240 336 
                                                                                
