 2014  724 1807 59.8 L   6.057 -73.711114.9  RSN 19 0.5 2.2LRSN                1
 GAP= 76        1.01       2.8     3.2  5.8 -0.1693E+01  0.3464E+01 -0.2783E+01E
 Epicentro: VELEZ - SANTANDER                                                  3
 ACTION:UPD 15-03-16 20:46 OP:nd   STATUS:               ID:20140724180759 L   I
 OLDACT:REG 14-07-24 21:21 OP:fm   STATUS:               ID:20140724175819     3
 2014-07-24-1758-19M.COL___271                                                 6
 STAT SP IPHASW D HRMM SECON CODA AMPLIT PERI AZIMU VELO AIN AR TRES W  DIS CAZ7
 SPBC HZ EP       18 8 17.20                             150    0.1210 60.0 222 
 SPBC HN ES       18 8 30.97                             150    0.3810 60.0 222 
 SPBC HZ I        18 8 32.42        49.6 0.24            132           60.0 222 
 RUS  HZ EP       18 8 18.42                             146    0.0110 71.9 105 
 RUS  HN ES   1   18 8 33.21                             146    0.24 7 71.9 105 
 BAR2 SZ EP       18 8 19.22                             142    0.3510 83.2  45 
 BAR2 SZ ES   1   18 8 33.46                             142   -0.33 7 83.2  45 
 BAR2 SZ I        18 8 34.86        63.1 0.12            130           83.2  45 
 PTB  HZ EP   1   18 8 18.41                             136   -1.35 7 98.2 303 
 PTB  HN ES       18 8 34.86                             136   -0.5110 98.2 303 
 PTB  HZ I        18 8 36.53        35.9 0.48            120           98.2 303 
 BRR  HZ EP       18 8 21.45                             131    0.1310  116 360 
 BRR  HN ES       18 8 38.23                             131    0.0910  116 360 
 BRR  HZ I        18 8 41.75        27.2 0.34            117            116 360 
 NOR  HZ EP   4   18 8 17.79                             126   -5.82 0  139 247 
 NOR  HN ES   1   18 8 42.85                             126    0.63 7  139 247 
 NOR  HZ I        18 8 46.30        31.2 0.18            110            139 247 
 CHI  HN ES   1   18 8 45.36                             122   -1.04 7  158 181 
 CHI  HZ I        18 8 48.48        15.4 0.34            108            158 181 
 PAM  SZ EP   1   18 8 28.62                             118    0.16 7  181  38 
 PAM  SN ES   1   18 8 51.13                             118    0.28 7  181  38 
 PAM  SZ I        18 8 55.91         8.3 0.18            107            181  38 
 HEL  HZ EP   1   18 8 31.31                             115    0.71 6  202 274 
 HEL  HN ES   1   18 8 54.19                             115   -0.47 6  202 274 
 HEL  HZ I        18 8 59.17        13.6 0.50            103            202 274 
 ZAR  HZ EP       18 8 30.02                             115   -0.28 9  203 321 
 ZAR  HN ES       18 8 54.37                             115    0.25 9  203 321 
 ZAR  HZ I        18 8 59.28        26.9 0.42            104            203 321 
 GUY2CHN ES   4   18 8 57.18                             115    1.62 0  205 243 
 GUY2CHZ I        18 9  2.89        14.7 0.72                           205 243 
 VIL  SE ES   4   18 8 56.80                             113    0.03 0  215 179 
 VIL  SZ I        18 9  1.92        22.2 0.28            102            215 179 
 RREF HZ EP   1   18 8 33.67                             113    0.49 6  222 235 
 RREF HN ES   4   18 9  0.47                             113    1.22 0  222 235 
 RREF HZ I        18 9  5.31         7.3 0.30            102            222 235 
 TOL  SZ EP   1   18 8 35.32                             111    0.30 6  241 228 
 TOL  SN ES   4   18 9  3.84                             111    1.31 0  241 228 
 TOL  SZ I        18 9 10.16        17.2 0.62            101            241 228 
 OCA  HN ES   1   18 9  2.75                             110   -0.14 6  245  10 
 CBOC HZ EP   1   18 8 37.29                             109    0.84 6  256 265 
 CBOC HZ I        18 9 29.78        34.4 0.10            100            256 265 
 URE  HN ES   4   18 9  6.71                             107   -2.01 0  275 313 
 PRA  HZ EP   1   18 8 39.49                             106   -0.79 5  290 207 
 PRA  HE ES   4   18 9 13.25                             106    1.36 0  290 207 
 PRA  HZ I        18 9 18.22         6.4 0.16             99            290 207 
 DBB  SZ EP   1   18 8 41.22                             106    0.18 5  296 291 
 DBB  SZ ES   4   18 9 14.76                             106    1.52 0  296 291 
 SML  HZ EP   1   18 8 41.58                             105   -0.53 5  306 353 
 SML  HN ES       18 9 15.05                             105   -0.09 7  306 353 
 SML  HZ I        18 9 20.50        16.8 0.24             98            306 353 
                                                                                
