 2016  824 1855 34.7 L   6.763 -73.048146.6  RSN 10 0.3 1.8LRSN                1
 GAP=127        0.93       3.6     3.3  4.6 -0.4544E+01  0.6812E+00  0.1650E+01E
 Epicentro: LOS SANTOS - SANTANDER                                             3
 ACTION:UPD 16-10-29 15:38 OP:rebc STATUS:               ID:20160824185534 L   I
 OLDACT:UP  16-08-25 00:41 OP:edw  STATUS:               ID:20160824184740     3
 OLDACT:REG 16-08-24 21:01 OP:ar   STATUS:               ID:20160824184740     3
 2016-08-24-1848-00M.COL___371                                                 6
 STAT SP IPHASW D HRMM SECON CODA AMPLIT PERI AZIMU VELO AIN AR TRES W  DIS CAZ7
 BAR2 EZ IP     C 1855 54.28                             170   -0.1910 24.0 218 
 BAR2 EZ ES       1856  9.96                             170    0.0910 24.0 218 
 BAR2 EZ I        1856 11.41        10.2 0.23                          24.0 218 
 PAM  EZ EP       1855 57.03                             152    0.1710 74.5  31 
 PAM  EN ES       1856 14.57                             152    0.4510 74.5  31 
 PAM  EZ I        1856 14.99         7.3 0.36                          74.5  31 
 BRR  HZ EP       1855 56.32                             149   -0.3310 82.6 297 
 BRR  HE ES       1856 13.55                             149   -0.1910 82.6 297 
 RUS  HZ EP       1855 58.23                             145   -0.0310 96.3 182 
 RUS  HN ES       1856 16.78                             145    0.1610 96.3 182 
 RUS  HZ I        1856 17.36         3.9 0.42                          96.3 182 
 PTB  HZ EP   9   1856  1.36                             130   -1.31 0  158 261 
 PTB  HN ES       1856 22.13                             130   -1.03 9  158 261 
 PTB  HZ I        1856 27.41         8.2 0.18                           158 261 
 ZAR  HZ EP       1856  8.62                             121    0.20 8  216 292 
 ZAR  HN ES       1856 35.04                             121    0.34 8  216 292 
 ZAR  HZ I        1856 38.97        15.1 0.52                           216 292 
 NOR  HZ EP       1856 10.68                             118   -0.53 8  241 237 
 NOR  HE ES       1856 39.12                             118   -0.55 8  241 237 
 NOR  HZ I        1856 43.72         8.8 0.16                           241 237 
 SOCV BZ EP       1856 16.93                             113   -0.13 7  295  55 
 SOCV BN ES       1856 49.73                             113   -0.35 7  295  55 
 GUY2CHZ EP       1856 19.12                             112    0.00 7  308 237 
 GUY2CHN ES       1856 53.92                             112    0.17 7  308 237 
 GUY2CHZ I        1857  1.71         5.1 0.40                           308 237 
 PRA  HZ EP       1856 28.71                             106    0.21 6  394 211 
 PRA  HN ES       1857 11.30                             106    0.85 6  394 211 
                                                                                
