 2012  224 1913 55.6 L   7.407 -73.238 29.8  RSN  6 0.4 1.3LRSN                1
 GAP=219        0.55       5.7     2.9  3.9 -0.4308E+01  0.1059E+01  0.7857E+01E
 ACTION:UP  12-03-07 16:33 OP:epov STATUS:               ID:20120224191355 L   I
 2012-02-24-1910-00M.COL___193                                                 6
 STAT SP IPHASW D HRMM SECON CODA AMPLIT PERI AZIMU VELO AIN AR TRES W  DIS CAZ7
 GIR2 SZ EP   2   1914  3.02                             124   -0.21 5 36.6 172 
 GIR2 SZ ES   2   1914  9.23                             124    0.08 5 36.6 172 
 PAM  SZ EP   2   1914  6.58                             110   -0.04 5 59.9  97 
 PAM  SN ES   2   1914 15.47                             110    0.29 5 59.9  97 
 BRR  HZ EP   2   1914  5.85                             108   -0.49 5 62.0 238 
 BRR  HN ES   2   1914 14.98                             108    0.29 5 62.0 238 
 BRR  HZ I        1914 22.96        10.2 0.45                          62.0 238 
 BAR2 SZ EP   2   1914  9.66                              61   -0.68 5 90.3 176 
 BAR2 SZ ES   2   1914 21.47                              61   -0.33 5 90.3 176 
 BAR2 SZ I        1914 26.02         7.7 0.22                          90.3 176 
 PTB  HN ES   2   1914 38.44                              61    0.41 5  165 235 
 RUS  HZ EP   2   1914 21.05                              61    0.65 5  168 174 
 RUS  HZ I        1914 21.44         4.9 0.20                           168 174 
 RUS  HN ES   2   1914 39.98                              61    0.27 5  168 174 
                                                                                
