 2017 1024 1411 44.6 L   6.703 -73.076145.5  RSN  4 0.3 1.1LRSN                1
 GAP=193        0.87       7.9     4.8  7.4 -0.1349E+02  0.1518E+02 -0.1080E+02E
 Epicentro: JORDAN - SANTANDER                                                 3
 ACTION:UPD 17-11-07 19:36 OP:rebc STATUS:               ID:20171024141144 L   I
 OLDACT:REG 17-10-24 20:13 OP:dhb  STATUS:               ID:20171024140738     3
 2017-10-24-1408-00M.COL___448                                                 6
 STAT SP IPHASW D HRMM SECON CODA AMPLIT PERI AZIMU VELO AIN AR TRES W  DIS CAZ7
 BAR2 EZ EP       1412  4.47                             173    0.3910 16.9 224 
 BAR2 EZ ES       1412 19.43                             173    0.1510 16.9 224 
 BAR2 EZ I        1412 20.72         4.7 0.60            174           16.9 224 
 PAM  EZ EP       1412  7.22                             149    0.1710 81.8  31 
 PAM  EN ES       1412 24.21                             149   -0.3510 81.8  31 
 PAM  EZ I        1412 28.45         1.7 0.46            150           81.8  31 
 PTB  HZ EP       1412 11.38                             131   -0.70 9  154 263 
 PTB  HN ES       1412 33.42                             131   -0.10 9  154 263 
 PTB  HZ I        1412 37.20         1.3 0.38            133            154 263 
 ZAR  HZ EP       1412 18.42                             121    0.22 8  215 294 
 ZAR  HN ES       1412 44.65                             121    0.25 8  215 294 
                                                                                
