 2012 1024 1020  9.3 L   6.800 -73.145148.0  RSN 24 0.5 4.2LRSN 4.1WRSN        1
 SPEC AVERAGE  MO 15.2 ST177.8 OM  4.0 f0 3.63 R0.4423 AL 2.62 WI 16.0 MW  4.1 3
 SPEC SD       MO  0.2 ST180.1 OM  0.5 f00.993 R0.1443 AL      WI      MW  0.1 3
 GAP= 65        0.93       3.0     2.9  4.9  0.5621E+00  0.3488E+01  0.6456E+01E
 Epicentro: LOS SANTOS - SANTANDER                                             3
 SPEC ZAR HH N MO 15.5 ST406.5 OM  3.7 f0 4.54 R0.3238 AL 1.94 WI 19.4 MW  4.3 3
 SPEC ZAR HH N T1021 5 K 0.000 GD  252 VS 4.20 DE 3.20 Q0230.0 QA 0.60 VS 4.20 3
 SPEC YOP SH N MO 15.3 ST 93.3 OM  3.5 f0 3.33 R0.4414 AL 2.76 WI 24.5 MW  4.1 3
 SPEC YOP SH N T1021 2 K 0.000 GD  232 VS 4.20 DE 3.20 Q0230.0 QA 0.60 VS 4.20 3
 SPEC PRA HH N MO 15.1 ST118.7 OM  3.1 f0 4.03 R0.3648 AL 2.31 WI 13.5 MW  4.0 3
 SPEC PRA HH N T102144 K 0.000 GD  419 VS 4.20 DE 3.20 Q0230.0 QA 0.60 VS 4.20 3
 SPEC ROSCBH Z MO 15.2 ST 38.7 OM  3.3 f0 2.68 R0.5485 AL 3.06 WI 24.4 MW  4.1 3
 SPEC ROSCBH Z T102113 K 0.000 GD  293 VS 4.20 DE 3.20 Q0230.0 QA 0.60 VS 4.20 3
 SPEC OCA HH N MO 15.4 ST504.2 OM  3.7 f0 5.12 R0.2871 AL 3.52 WI 13.2 MW  4.2 3
 SPEC OCA HH N T102058 K 0.000 GD  217 VS 4.20 DE 3.20 Q0230.0 QA 0.60 VS 4.20 3
 SPEC RUS HH N MO 14.9 ST 64.8 OM  3.3 f0 3.75 R0.3920 AL 2.43 WI  6.2 MW  3.9 3
 SPEC RUS HH N T102050 K 0.000 GD  179 VS 4.20 DE 3.20 Q0230.0 QA 0.60 VS 4.20 3
 SPEC PAM SH N MO 15.2 ST 18.0 OM  3.6 f0 1.99 R0.7387 AL 2.30 WI 10.6 MW  4.1 3
 SPEC PAM SH N T102048 K 0.000 GD  166 VS 4.20 DE 3.20 Q0230.0 QA 0.60 VS 4.20 3
 ACTION:UPD 12-11-22 17:05 OP:ep   STATUS:               ID:20121024102009 L   I
 2012-10-24-1020-00M.COL___234                                                 6
 STAT SP IPHASW D HRMM SECON CODA AMPLIT PERI AZIMU VELO AIN AR TRES W  DIS CAZ7
 BAR2 SZ IP       1020 29.25                             171    0.0710 23.3 190 
 BAR2 SZ ES   1   1020 44.18                             171   -0.52 7 23.3 190 
 BAR2 SZ I        1020 45.75      3337.1 0.25                          23.3 190 
 GIR2 SZ IP       1020 29.31                             167    0.0910 31.3 350 
 GIR2 SZ ES   1   1020 44.36                             167   -0.41 7 31.3 350 
 BRR  HZ IP     D 1020 31.10                             153    0.4210 71.2 299 
 BRR  HN ES       1020 48.12                             153    0.7610 71.2 299 
 BRR  HN I        1020 49.67      4572.1 0.17                          71.2 299 
 PAM  SZ EP   1   1020 32.04                             151    0.31 7 77.3  40 
 PAM  SN ES       1020 49.17                             151   -0.0810 77.3  40 
 PAM  SN I        1020 50.70      2427.4 0.53                          77.3  40 
 RUS  HZ IP     D 1020 33.10                             144   -0.1610  101 176 
 RUS  HN ES   2   1020 51.32                             144   -0.63 5  101 176 
 RUS  HN I        1020 53.65      3333.8 0.35                           101 176 
 TAM  HZ IP     D 1020 37.48                             131    0.34 9  155 105 
 TAM  HN ES       1020 58.59                             131   -0.27 9  155 105 
 OCA  HZ IP     C 1020 37.27                             130   -0.50 9  160 353 
 OCA  HN ES   2   1020 59.50                             130   -0.48 5  160 353 
 OCA  HN I        1021  3.59      3235.0 0.18                           160 353 
 YOP  SZ EP   1   1020 39.85                             127    0.36 7  179 153 
 YOP  SN ES   2   1021  3.97                             127    0.92 4  179 153 
 YOP  SN I        1021  5.11      1522.2 0.36                           179 153 
 ZAR  HZ EP   1   1020 41.44                             123   -0.44 6  204 292 
 ZAR  HE ES       1021  7.23                             123   -0.07 9  204 292 
 ZAR  HN I        1021 13.98      1547.4 0.27                           204 292 
 AGZ  SZ EP       1020 43.37                             121   -0.11 8  219 160 
 CHI  HZ EP       1020 47.00                             117   -0.11 8  249 195 
 CHI  HN ES       1021 16.19                             117   -0.42 8  249 195 
 CHI  HN I        1021 21.50      1211.6 0.49                           249 195 
 ROSC BZ IP     C 1020 48.71                             117    1.18 8  253 211 
 ROSC BE ES       1021 16.98                             117   -0.38 8  253 211 
 HEL  HZ EP   1   1020 49.58                             115   -0.03 6  272 256 
 HEL  HN ES       1021 20.33                             115   -0.74 8  272 256 
 GUY  SZ EP   1   1020 54.14                             112    0.88 5  304 235 
 RREF HZ EP   1   1020 55.39                             111   -0.14 5  322 229 
 RREF HZ I        1021 38.76       635.1 0.31                           322 229 
 DBB  SZ EP   1   1020 56.55                             110   -0.30 5  340 274 
 ANIL HZ EP   1   1020 59.45                             109    0.27 5  357 225 
 PRA  HZ EP   1   1021  2.04                             107   -0.84 4  392 210 
 PRA  HN ES       1021 45.68                             107    0.99 6  392 210 
 PRA  HN I        1021 49.31       297.6 0.57                           392 210 
 PAL  HZ EP   1   1021  4.91                             106    0.39 4  406 239 
 PAL  HN ES   2   1021 47.81                             106    0.20 3  406 239 
 YOT  HZ EP   1   1021 11.55                             103   -0.84 4  472 229 
 GUA  SZ EP   1   1021 11.52                             103   -0.98 3  474 173 
 GUA  SN ES   2   1022  1.33                             103   -0.48 2  474 173 
 HORQ SZ EP   1   1021 19.55                             102   -0.23 3  532 227 
 MARA HZ EP   1   1021 19.45                             101   -0.91 3  537 216 
 POP2 HZ EP   1   1021 28.65                             100   -0.69 2  613 220 
                                                                                
