 2012  424 1159  9.0 L   6.802 -73.166142.0  RSN  9 0.4 2.1LRSN                1
 GAP=134        0.83       3.8     3.9  6.1 -0.1220E+01  0.4677E+01  0.5293E+01E
 Epicentro: LOS SANTOS - SANTANDER                                             3
 ACTION:UPD 12-07-05 11:55 OP:tino STATUS:               ID:20120424115909 L   I
 2012-04-24-1156-43M.COL___168                                                 6
 STAT SP IPHASW D HRMM SECON CODA AMPLIT PERI AZIMU VELO AIN AR TRES W  DIS CAZ7
 BAR2 SZ EP       1159 28.04                             170    -0.210   23 184 
 BAR2 SZ ES   1   1159 43.19                             170     0.0 7   23 184 
 BAR2 SZ I        1159 45.71        20.6 0.27                            23 184 
 BRR  HZ EP       1159 29.84                             153     0.210   69 299 
 BRR  HN ES   1   1159 46.46                             153     0.7 7   69 299 
 BRR  HZ I        1159 50.67        29.5 0.13                            69 299 
 PAM  SZ EP       1159 30.78                             150    -0.110   79  41 
 PAM  SN ES   1   1159 47.78                             150    -0.2 7   79  41 
 RUS  HZ EP   1   1159 32.20                             143    -0.2 7  101 175 
 RUS  HN ES   1   1159 50.91                             143     0.2 7  101 175 
 RUS  HZ I        1159 52.67        22.6 0.29                           101 175 
 PTB  HZ EP   1   1159 34.80                             132    -0.7 7  146 259 
 PTB  HE ES       1159 55.60                             132    -0.5 9  146 259 
 PTB  HZ I        1159 58.54        12.7 0.16                           146 259 
 ZAR  HZ EP   1   1159 41.43                             122     0.4 6  202 292 
 ZAR  HN ES   1   12 0  6.20                             122     0.3 6  202 292 
 ZAR  HZ I        12 0 11.92        15.4 0.17                           202 292 
 NOR  SZ EP   1   1159 44.55                             118     0.2 6  233 234 
 NOR  SN ES   1   12 0 11.51                             118    -0.4 6  233 234 
 CHI  HZ EP   1   1159 46.54                             116     0.1 6  248 195 
 CHI  HN ES   1   12 0 16.03                             116     0.4 6  248 195 
 CHI  HZ I        12 0 19.57         8.3 0.49                           248 195 
 PRA  HZ EP   1   12 0  2.68                             106     0.4 4  391 209 
 PRA  HE ES   1   12 0 44.38                             106     0.5 4  391 209 
                                                                                
