 2011  424 1727  4.6 L   6.766 -73.100146.2  RSN 14 0.4 2.4LRSN                1
 GAP=144        0.79       3.0     4.8  5.2 -0.6341E+01  0.5870E+01  0.2625E+01E
 Epicentro: LOS SANTOS - SANTANDER                                             3
 ACTION:UP  11-06-22 15:33 OP:REBC STATUS:               ID:20110424172704 L   I
 2011-04-24-1720-00M.COL___140                                                 6
 STAT SP IPHASW D HRMM SECON CODA AMPLIT PERI AZIMU VELO SNR AR TRES W  DIS CAZ7
 BAR2 SZ EP   1   1727 24.31                             171     0.1 8   21 205 
 BAR2 SZ ES   1   1727 39.31                             171    -0.2 8   21 205 
 BTL  SZ EP   1   1727 23.55                             170    -0.7 8   25 312 
 PAM  SZ EP   1   1727 26.94                             151     0.1 8   77  35 
 PAM  SN ES   1   1727 44.32                             151     0.1 8   77  35 
 BRR  HZ EP   1   1727 26.07                             150    -0.1 8   77 299 
 BRR  HN ES   1   1727 43.50                             150     0.6 8   77 299 
 BRR  HZ I        1727 46.16        35.3 0.15                            77 299 
 RUS  HZ EP   1   1727 28.16                             145     0.1 8   97 179 
 RUS  HN ES   1   1727 46.54                             145     0.1 8   97 179 
 RUS  HZ I        1727 48.18        16.0 0.19                            97 179 
 BRI  SZ EP   1   1727 28.77                             141     0.1 8  110  18 
 BRI  SZ ES   1   1727 46.69                             141    -0.7 8  110  18 
 GRA  SZ IP       1727 30.12                             137     0.110  128  15 
 GRA  SZ ES   1   1727 49.70                             137    -0.2 7  128  15 
 GRA  SZ I        1727 50.94        23.5 0.29                           128  15 
 OCA  SZ EP   1   1727 33.91                             129     0.6 7  165 352 
 OCA  SZ ES   1   1727 56.00                             129     0.3 7  165 352 
 OCA  SZ I        1728  0.89        25.9 0.38                           165 352 
 NOR  SZ EP   1   1727 39.91                             118    -0.6 6  237 236 
 NOR  SN ES   1   1728  8.55                             118     0.0 6  237 236 
 CHI  HZ EP   1   1727 41.83                             117    -0.2 6  246 197 
 CHI  HN ES   1   1728 11.79                             117     0.5 6  246 197 
 CHI  HZ I        1728 19.92         9.8 0.34                           246 197 
 ROSC BZ EP       1727 42.92                             117     0.3 8  252 212 
 ROSC BZ I        1728 20.32        25.3 0.55                           252 212 
 HEL  HZ EP   1   1727 45.26                             114     0.0 6  276 257 
 HEL  HN ES   1   1728 16.66                             114    -0.3 6  276 257 
 HEL  HZ I        1728 22.69        11.0 0.29                           276 257 
 TOL  SZ EP   1   1727 53.14                             109     0.2 5  344 226 
 PRA  HZ EP   1   1727 57.44                             107    -0.6 5  391 210 
 PRA  HZ I        1728 49.88        28.2 0.25                           391 210 
                                                                                
