 2014 1024 1450 49.4 L   6.777 -73.159147.0  RSN  4 0.3 0.9LRSN                1
 GAP=136        0.69       4.6     3.9  6.8 -0.2355E+01 -0.2157E+01  0.7192E+01E
 Epicentro: LOS SANTOS - SANTANDER                                             3
 ACTION:UPD 14-11-29 23:56 OP:nd   STATUS:               ID:20141024145049 L   I
 OLDACT:ARG 14-10-27 17:43 OP:cam  STATUS:               ID:20141024144817     3
 2014-10-24-1448-17M.COL___274                                                 6
 STAT SP IPHASW D HRMM SECON CODA AMPLIT PERI AZIMU VELO AIN AR TRES W  DIS CAZ7
 BRR  HZ EP   1   1451 10.94                             153    0.28 7 71.1 301 
 BRR  HN ES       1451 27.65                             153    0.3910 71.1 301 
 PAM  SZ EP       1451 11.86                             150   -0.0410 80.3  39 
 PAM  SN ES   1   1451 29.01                             150   -0.46 7 80.3  39 
 PAM  SZ I        1451 30.28         2.4 0.36            152           80.3  39 
 RUS  HZ EP       1451 13.29                             145    0.2110 98.2 175 
 RUS  HE ES   1   1451 31.52                             145   -0.05 7 98.2 175 
 RUS  HZ I        1451 33.06         0.9 0.26            145           98.2 175 
 PTB  HZ EP       1451 16.13                             133   -0.14 9  146 260 
 PTB  HE ES       1451 36.89                             133   -0.36 9  146 260 
 PTB  HZ I        1451 39.23         1.1 0.22            134            146 260 
                                                                                
