 2016 1224 1634 51.5 L   6.778 -73.177149.1  RSN  4 0.3 1.1LRSN                1
 GAP=232        0.90       7.2     6.8  7.2  0.2406E+02  0.3867E+01  0.7342E+00E
 Epicentro: LOS SANTOS - SANTANDER                                             3
 ACTION:UPD 17-01-11 20:18 OP:rebc STATUS:               ID:20161224163451 L   I
 OLDACT:UP  16-12-25 01:34 OP:edw  STATUS:               ID:20161224162746     3
 OLDACT:REG 16-12-24 21:14 OP:edw  STATUS:               ID:20161224162746     3
 2016-12-24-1628-00M.COL___381                                                 6
 STAT SP IPHASW D HRMM SECON CODA AMPLIT PERI AZIMU VELO AIN AR TRES W  DIS CAZ7
 BAR2 EZ EP       1635 11.30                             172   -0.2010 20.5 182 
 BAR2 EZ ES       1635 26.61                             172   -0.4710 20.5 182 
 BAR2 EZ I        1635 27.39         4.9 0.32            171           20.5 182 
 BRR  HZ EP       1635 13.38                             154    0.4510 69.4 302 
 BRR  HN ES       1635 29.84                             154    0.2010 69.4 302 
 RUS  HZ EP       1635 15.18                             145   -0.2710 98.4 174 
 RUS  HN ES       1635 34.64                             145    0.5310 98.4 174 
 RUS  HZ I        1635 35.21         1.4 0.36            145           98.4 174 
 PTB  HZ EP       1635 18.32                             134   -0.10 9  144 260 
 PTB  HN ES       1635 39.22                             134   -0.18 9  144 260 
                                                                                
