 2010  924 1707 39.7 L   6.786 -73.108145.7  RSN  8 0.4 2.1LRSN                1
 GAP=163        1.09       4.2     8.3 10.0 -0.1286E+02 -0.2616E+01  0.8980E+01E
 Epicentro: LOS SANTOS - SANTANDER                                             3
 ACTION:UP  11-02-18 11:05 OP:tino STATUS:               ID:20100924170739 L   I
 2010-09-24-1704-36S.COL___122                                                 6
 STAT SP IPHASW D HRMM SECON CODA AMPLIT PERI AZIMU VELO SNR AR TRES W  DIS CAZ7
 BAR2 SZ EP       17 7 59.22                             171    -0.110   23 201 
 BAR2 SZ I        17 8 15.69        50.0 0.14                            23 201 
 BRR  HZ EP       17 8  1.10                             151     0.010   76 298 
 BRR  HN ES   1   17 8 18.43                             151     0.6 7   76 298 
 BRR  HZ I        17 8 20.67        28.8 0.33                            76 298 
 RUS  HZ EP       17 8  3.17                             144    -0.210   99 178 
 RUS  HE ES   1   17 8 21.91                             144     0.1 7   99 178 
 RUS  HZ I        17 8 23.03        15.1 0.18                            99 178 
 GUE  SZ EP       17 8  5.25                             139     0.710  117  10 
 GRA  SZ EP       17 8  5.07                             137     0.110  126  15 
 GRA  SZ ES   1   17 8 23.62                             137    -1.1 7  126  15 
 GRA  SZ I        17 8 25.75        10.5 0.35                           126  15 
 OCA  SZ EP   2   17 8  7.93                             129    -0.3 5  162 352 
 OCA  SZ ES   1   17 8 30.48                             129     0.0 7  162 352 
 OCA  SZ I        17 8 32.84        21.8 0.16                           162 352 
 NOR  SZ EP       17 8 15.56                             118    -0.2 8  237 235 
 NOR  SE ES   1   17 8 43.34                             118    -0.5 6  237 235 
 CHI  HZ EP       17 8 17.53                             117     0.1 8  248 196 
 CHI  HN ES   1   17 8 46.90                             117     0.1 6  248 196 
 CHI  HZ I        17 8 53.59         6.1 0.38                           248 196 
                                                                                
