 2011 1024 1602 11.7 L   6.767 -73.126149.8  RSN  7 0.3 1.9LRSN                1
 GAP=141        0.46       3.0     3.8  4.2  0.1279E+01  0.4135E+00  0.2015E+01E
 Epicentro: LOS SANTOS - SANTANDER                                             3
 ACTION:UPD 12-07-13 16:05 OP:ep   STATUS:               ID:20111024160211 L   I
 2011-10-24-1600-00M.COL___175                                                 6
 STAT SP IPHASW D HRMM SECON CODA AMPLIT PERI AZIMU VELO AIN AR TRES W  DIS CAZ7
 BAR2 SZ EP       16 2 31.71                             172   -0.0910 20.3 198 
 BAR2 SZ I        16 2 31.84        22.2 0.40                          20.3 198 
 BAR2 SZ ES   2   16 2 47.13                             172   -0.31 5 20.3 198 
 BTL  SZ ES   3   16 2 47.68                             171    0.15 2 22.9 317 
 GIR2 SZ ES   1   16 2 47.93                             166    0.13 7 35.3 348 
 BRR  HZ EP       16 2 33.63                             152    0.1010 74.9 300 
 BRR  HN ES   1   16 2 50.81                             152    0.28 7 74.9 300 
 BRR  HZ I        16 2 55.37        31.0 0.32                          74.9 300 
 PAM  SZ EP       16 2 34.62                             151    0.1410 78.9  37 
 PAM  SN ES   1   16 2 51.91                             151   -0.30 7 78.9  37 
 RUS  HZ EP       16 2 35.60                             146   -0.0310 96.8 177 
 RUS  HN ES   1   16 2 54.29                             146    0.03 7 96.8 177 
 RUS  HZ I        16 2 57.05         4.8 0.38                          96.8 177 
 ZAR  HZ EP   3   16 2 45.04                             123    0.24 2  207 293 
 ZAR  HE ES   2   16 3  9.77                             123   -0.82 4  207 293 
 ZAR  HZ I        16 3 20.33         8.1 0.46                           207 293 
                                                                                
