 2011 1124 1919 45.5 L   6.720 -73.123138.9  RSN  7 0.4 1.8LRSN                1
 GAP=143        0.79       4.7     6.0  7.3  0.1834E+00  0.7222E+01  0.5668E+01E
 Epicentro: JORDAN - SANTANDER                                                 3
 ACTION:UPD 12-07-13 16:12 OP:ep   STATUS:               ID:20111124191945 L   I
 2011-11-24-1916-40S.COL___178                                                 6
 STAT SP IPHASW D HRMM SECON CODA AMPLIT PERI AZIMU VELO AIN AR TRES W  DIS CAZ7
 BAR2 SZ EP   1   1920  4.10                             173   -0.05 7 15.6 205 
 BAR2 SZ ES   1   1920 18.88                             173    0.16 7 15.6 205 
 BAR2 SZ I        1920 20.66        18.5 0.31                          15.6 205 
 BRR  HZ EP       1920  6.24                             149   -0.0610 77.9 303 
 BRR  HZ I        1920  6.55        37.9 0.17                          77.9 303 
 BRR  HN ES   1   1920 23.27                             149    0.73 7 77.9 303 
 PAM  SZ EP   1   1920  7.15                             148   -0.18 7 83.0  34 
 PAM  SN ES   1   1920 23.97                             148   -0.40 7 83.0  34 
 RUS  HZ EP   1   1920  8.19                             145    0.27 7 91.6 177 
 RUS  HE ES   1   1920 25.00                             145   -0.42 7 91.6 177 
 RUS  HZ I        1920 28.24         5.3 0.25                          91.6 177 
 ZAR  HN ES   2   1920 42.80                             120   -0.74 4  210 294 
 ZAR  HZ I        1920 48.47         5.3 0.02                           210 294 
 NOR  SN ES   2   1920 47.10                             117   -0.72 4  232 237 
 CHI  HZ EP   1   1920 22.63                             116    0.68 6  241 196 
 CHI  HZ I        1920 33.45         1.9 0.22                           241 196 
                                                                                
