 2014  324 1220 49.0 L   6.798 -73.187142.1  RSN 12 0.4 2.0LRSN                1
 GAP=132        0.93       2.6     4.0  6.3 -0.1439E+01  0.8403E+01 -0.7103E+00E
 Epicentro: LOS SANTOS - SANTANDER                                             3
 OLDACT:REG 14-03-24 14:50 OP:mh   STATUS:               ID:20140324121813     3
 ACTION:UPD 14-04-09 23:20 OP:nd   STATUS:               ID:20140324122049 L   I
 OLDACT:UP  14-03-24 16:35 OP:mh   STATUS:               ID:20140324121813     3
 2014-03-24-1218-13M.COL___234                                                 6
 STAT SP IPHASW D HRMM SECON CODA AMPLIT PERI AZIMU VELO AIN AR TRES W  DIS CAZ7
 BAR2 SZ EP       1221  8.47                             170    0.2610 22.8 179 
 BAR2 SZ ES       1221 22.91                             170   -0.2710 22.8 179 
 BAR2 SZ I        1221 24.36        36.5 0.26            165           22.8 179 
 PAM  SZ EP       1221 11.38                             149    0.3310 80.5  42 
 PAM  SN ES       1221 28.16                             149   -0.0710 80.5  42 
 PAM  SZ I        1221 30.23        13.4 0.62            147           80.5  42 
 RUS  HZ EP       1221 12.52                             143    0.0810  101 173 
 RUS  HN ES       1221 30.38                             143   -0.3210  101 173 
 RUS  SZ I        1221 32.86         7.5 0.26            136            101 173 
 PTB  HZ EP       1221 15.19                             132   -0.10 9  143 259 
 PTB  HN ES       1221 35.60                             132   -0.18 9  143 259 
 PTB  SZ I        1221 38.91         7.3 1.78            128            143 259 
 OCA  HN ES       1221 39.35                             129    0.47 9  160 355 
 SPBC HN ES   2   1221 38.76                             129    0.00 5  160 218 
 ZAR  HN ES   1   1221 46.63                             122    1.03 6  200 293 
 NOR  HN ES       1221 51.61                             118    0.09 8  231 234 
 SML  HZ EP       1221 24.17                             117   -1.10 8  242 336 
 SML  HE ES       1221 53.30                             117   -0.24 8  242 336 
 SML  SZ I        1222  0.56         9.1 0.08            114            242 336 
 CHI  HZ EP       1221 26.57                             116    0.19 8  247 194 
 CHI  HN ES       1221 55.83                             116    0.32 8  247 194 
 CHI  SZ I        1222 20.62         6.0 3.16            112            247 194 
 HEL  HN ES   2   1221 58.78                             114   -0.62 4  268 256 
 SJC  HZ EP   4   1221 40.28                             105   -3.93 0  407 327 
 SJC  HN ES   4   1222 22.25                             105   -4.99 0  407 327 
 SJC  SZ I        1222 28.94        12.3 1.98            102            407 327 
                                                                                
