 2014 1124 1020 58.9 L   6.806 -73.166147.3  RSN 20 0.5 2.2LRSN                1
 GAP=134        1.19       2.9     3.7  5.3 -0.1220E+01  0.7794E+01  0.1556E+01E
 Epicentro: LOS SANTOS - SANTANDER                                             3
 ACTION:UPD 14-12-19 15:46 OP:nd   STATUS:               ID:20141124102058 L   I
 OLDACT:REG 14-11-24 21:00 OP:fm   STATUS:               ID:20141124101746     3
 2014-11-24-1017-46M.COL___300                                                 6
 STAT SP IPHASW D HRMM SECON CODA AMPLIT PERI AZIMU VELO AIN AR TRES W  DIS CAZ7
 BAR2 SZ EP       1021 18.71                             170   -0.0010 23.7 184 
 BAR2 SZ ES       1021 34.38                             170    0.2110 23.7 184 
 BAR2 SZ I        1021 34.93        52.0 0.18            168           23.7 184 
 BRR  HZ EP     D 1021 20.64                             154    0.5610 68.9 299 
 BRR  HN ES       1021 37.84                             154    1.2310 68.9 299 
 BRR  HZ I        1021 38.75        25.1 0.52            151           68.9 299 
 PAM  SZ EP       1021 21.64                             151    0.3110 78.4  41 
 PAM  SN ES       1021 38.22                             151   -0.6110 78.4  41 
 PAM  SZ I        1021 42.64        19.3 0.78            157           78.4  41 
 RUS  HZ EP       1021 22.61                             144   -0.2410  101 175 
 RUS  HE ES       1021 41.17                             144   -0.3710  101 175 
 RUS  HZ I        1021 42.39        19.1 0.32            146            101 175 
 PTB  HZ EP       1021 25.72                             133   -0.07 9  146 258 
 PTB  HE ES       1021 46.27                             133   -0.51 9  146 258 
 PTB  HZ I        1021 53.93        19.1 0.36            132            146 258 
 OCA  HZ EP       1021 27.45                             130    0.21 9  159 354 
 OCA  HN ES       1021 49.03                             130   -0.32 9  159 354 
 OCA  HZ I        1021 52.29        22.0 0.18            133            159 354 
 SPBC HZ EP     C 1021 27.63                             130    0.21 9  162 218 
 SPBC HE ES       1021 49.09                             130   -0.58 9  162 218 
 SPBC HZ I        1021 54.69        28.3 0.14            130            162 218 
 ZAR  HZ EP       1021 31.60                             123    0.40 9  202 292 
 ZAR  HN ES       1021 56.79                             123    0.40 9  202 292 
 ZAR  HZ I        1022  2.85        16.8 0.38            124            202 292 
 NOR  HZ EP       1021 34.69                             119    0.14 8  233 234 
 NOR  HN ES       1022  2.41                             119    0.05 8  233 234 
 NOR  HZ I        1022 10.27        13.9 0.50            120            233 234 
 CHI  HZ EP       1021 36.38                             117   -0.30 8  249 195 
 CHI  HN ES       1022  5.65                             117   -0.50 8  249 195 
 CHI  HZ I        1022 11.48         7.7 0.22            119            249 195 
 HEL  HZ EP       1021 39.29                             115    0.34 8  270 256 
 HEL  HN ES       1022 10.34                             115    0.14 8  270 256 
 HEL  HZ I        1022 17.32         9.0 0.24            116            270 256 
 URE  HZ EP       1021 39.29                             114   -0.48 7  281 292 
 URE  HN ES       1022 10.51                             114   -1.15 7  281 292 
 URE  HZ I        1022 22.29         7.2 0.18            115            281 292 
 GUY2CHZ EP       1021 43.23                             113    0.83 7  300 234 
 GUY2CHN ES       1022 16.65                             113    0.31 7  300 234 
 GUY2CHZ I        1022 25.15        10.1 0.64                           300 234 
 RREF HZ EP       1021 45.15                             111    0.20 7  320 229 
 RREF HE ES       1022 21.07                             111    0.20 7  320 229 
 RREF HZ I        1022 29.65         9.2 0.26            112            320 229 
 CBOC HZ EP       1021 46.02                             110    0.38 7  332 252 
 CBOC HN ES       1022 21.72                             110   -0.39 7  332 252 
 CBOC HZ I        1022 30.75         3.1 0.32            111            332 252 
 DBB  SZ EP       1021 46.59                             110    0.43 7  337 274 
 DBB  SZ ES       1022 23.20                             110    0.17 7  337 274 
 DBB  SZ I        1022 25.50        16.0 0.54            111            337 274 
 TOL  SZ EP       1021 48.04                             110    0.96 7  342 224 
 TOL  SN ES       1022 23.96                             110   -0.70 7  342 224 
 TOL  SZ I        1022 32.57        16.9 0.26            111            342 224 
 MON  HZ EP       1021 46.06                             109   -1.64 6  352 309 
 MON  HN ES       1022 24.94                             109   -0.83 6  352 309 
 MON  HZ I        1022 27.69         2.9 0.44            110            352 309 
 ORTC HZ EP       1021 53.33                             107    0.57 6  395 216 
 ORTC HN ES       1022 34.84                             107    0.05 6  395 216 
 ORTC HZ I        1022 42.36         6.3 0.28            108            395 216 
 PAL  HZ EP       1021 53.54                             106   -0.37 6  404 239 
 PAL  HN ES       1022 36.91                             106    0.09 6  404 239 
 PAL  HZ I        1022 43.08         3.3 0.36            107            404 239 
                                                                                
