 2012 1024 1211 41.0 L   6.651 -73.062132.0  RSN  4 0.4 1.9LRSN                1
 GAP=216        0.74      12.9     7.0 13.1 -0.5290E+01  0.4102E+02  0.8783E+02E
 Epicentro: CURITI - SANTANDER                                                 3
 ACTION:UPD 12-11-22 17:05 OP:ep   STATUS:               ID:20121024121141 L   I
 2012-10-24-1210-00M.COL___234                                                 6
 STAT SP IPHASW D HRMM SECON CODA AMPLIT PERI AZIMU VELO AIN AR TRES W  DIS CAZ7
 BAR2 SZ EP   1   1211 59.12                             173    0.31 7 14.8 244 
 BAR2 SZ I        1212 18.04        13.9 0.38                          14.8 244 
 PAM  SZ EP   1   1212  2.00                             146   -0.34 7 86.0  28 
 PAM  SN ES       1212 19.15                             146    0.1610 86.0  28 
 PAM  SN I        1212 20.63         8.1 0.27                          86.0  28 
 BRR  HZ EP   1   1212  1.12                             145   -0.65 7 87.7 305 
 BRR  HN ES   2   1212 17.92                             145   -0.05 5 87.7 305 
 BRR  HN I        1212 18.55        51.3 0.18                          87.7 305 
 ZAR  HZ EP   1   1212 14.79                             118    0.59 6  219 295 
 ZAR  HN ES   2   1212 40.13                             118    0.03 4  219 295 
 ZAR  HN I        1212 41.66         7.8 0.07                           219 295 
                                                                                
