 2010  924 1715 55.5 L   6.781 -73.046139.0  RSN  4 0.6 1.7LRSN                1
 GAP=170        1.44       8.8    16.3 19.6 -0.1633E+02 -0.1104E+03 -0.4370E+02E
 Epicentro: LOS SANTOS - SANTANDER                                             3
 ACTION:UP  11-02-18 11:05 OP:tino STATUS:               ID:20100924171555 L   I
 2010-09-24-1714-36S.COL___122                                                 6
 STAT SP IPHASW D HRMM SECON CODA AMPLIT PERI AZIMU VELO SNR AR TRES W  DIS CAZ7
 BRR  HZ EP       1716 16.04                             148    -0.510   82 296 
 BRR  HZ I        1716 16.36        16.4 0.10                            82 296 
 BRR  HE ES   1   1716 33.30                             148     0.3 7   82 296 
 RUS  HZ EP   2   1716 17.57                             143    -0.8 5   98 182 
 RUS  HE ES   1   1716 36.49                             143     0.2 7   98 182 
 RUS  HZ I        1716 38.01         5.1 0.48                            98 182 
 GUE  SZ EP       1716 20.43                             137     0.810  117   7 
 GRA  SZ EP       1716 20.14                             135     0.110  125  12 
 GRA  SZ ES   1   1716 38.45                             135    -0.8 7  125  12 
 GRA  SZ I        1716 40.74         6.0 0.38                           125  12 
                                                                                
