 2012 1224 1001 29.6 L   6.771 -73.143149.6  RSN  6 0.3 1.8LRSN                1
 GAP=183        0.72       4.0     5.7  6.2  0.3362E+01 -0.2341E+01 -0.3107E+01E
 Epicentro: LOS SANTOS - SANTANDER                                             3
 ACTION:UPD 13-01-04 14:30 OP:ep   STATUS:               ID:20121224100129 L   I
 2012-12-24-1000-00M.COL___243                                                 6
 STAT SP IPHASW D HRMM SECON CODA AMPLIT PERI AZIMU VELO AIN AR TRES W  DIS CAZ7
 BAR2 SZ EP       10 1 49.59                             172   -0.0810 20.3 192 
 BAR2 SZ ES   1   10 2  5.15                             172   -0.15 7 20.3 192 
 BAR2 SZ I        10 2  5.94        14.6 0.30                          20.3 192 
 GIR2 SZ EP   1   10 1 50.12                             166    0.27 7 34.5 351 
 BRR  HZ EP       10 1 51.87                             153    0.5710 73.0 301 
 BRR  HN ES       10 2  8.46                             153    0.2610 73.0 301 
 BRR  HZ I        10 2 13.09        10.8 0.12                          73.0 301 
 RUS  HZ EP   1   10 1 53.56                             145    0.02 7 97.4 176 
 RUS  HE ES   1   10 2 12.05                             145   -0.14 7 97.4 176 
 RUS  HE I        10 2 13.91        10.3 0.39                          97.4 176 
 PTB  HZ EP       10 1 56.64                             133   -0.25 9  147 260 
 PTB  HE ES   1   10 2 17.83                             133   -0.32 7  147 260 
 PTB  HZ I        10 2 20.93         4.4 0.14                           147 260 
 OCA  HZ EP   1   10 1 58.35                             130   -0.19 7  163 353 
 OCA  HZ IP   1   10 1 58.48                                            163 353 
 OCA  HE ES   1   10 2 20.51                             130   -0.58 7  163 353 
 OCA  HZ I        10 2 27.44         8.3 0.37                           163 353 
                                                                                
