 2012  224 1741 13.6 L   6.878 -73.142136.5  RSN  6 0.4 1.7LRSN                1
 GAP=191        0.71       6.2     8.0  7.3  0.1252E+02  0.1341E+02  0.1097E+02E
 ACTION:UP  12-03-07 16:33 OP:epov STATUS:               ID:20120224174113 L   I
 2012-02-24-1740-00M.COL___193                                                 6
 STAT SP IPHASW D HRMM SECON CODA AMPLIT PERI AZIMU VELO AIN AR TRES W  DIS CAZ7
 GIR2 SZ EP   1   1741 31.92                             170   -0.06 7 22.9 346 
 GIR2 SZ ES   2   1741 46.62                             170    0.31 5 22.9 346 
 BAR2 SZ EP   2   1741 31.87                             166   -0.48 5 31.9 188 
 BAR2 SZ ES   1   1741 47.04                             166    0.07 7 31.9 188 
 BAR2 SZ I        1741 48.53        18.2 0.31                          31.9 188 
 BRR  HZ EP   1   1741 34.35                             152    0.77 7 67.9 292 
 BRR  HN ES   2   1741 48.35                             152   -0.80 5 67.9 292 
 BRR  HZ I        1741 54.49        17.4 0.49                          67.9 292 
 RUS  HZ EP   1   1741 37.20                             140    0.07 7  109 177 
 RUS  HE ES   2   1741 55.23                             140   -0.24 5  109 177 
 RUS  HZ I        1741 56.39         5.7 0.67                           109 177 
 PTB  HZ EP   1   1741 39.57                             129   -0.49 7  150 256 
 PTB  HE ES   2   1742  1.00                             129    0.31 5  150 256 
 CHI  HZ EP   2   1741 51.30                             114   -0.45 4  257 195 
 CHI  HN ES   2   1742 21.92                             114    0.42 4  257 195 
 CHI  HZ I        1742 28.03         2.6 0.53                           257 195 
                                                                                
