 2011 1024 1234 57.8 L   7.343 -73.200132.0  RSN  8 0.4 1.9LRSN                1
 GAP= 98        0.70       5.3     4.7  6.6  0.8057E+00  0.5175E+01 -0.1606E+02E
 Epicentro: RIONEGRO - SANTANDER                                               3
 ACTION:UPD 12-07-13 16:05 OP:ep   STATUS:               ID:20111024123457 L   I
 2011-10-24-1220-00M.COL___175                                                 6
 STAT SP IPHASW D HRMM SECON CODA AMPLIT PERI AZIMU VELO AIN AR TRES W  DIS CAZ7
 GIR2 SZ EP       1235 15.69                             165   -0.0510 29.2 179 
 GIR2 SZ ES   1   1235 29.47                             165   -0.30 7 29.2 179 
 BTL  SZ EP       1235 16.65                             158    0.1110 47.5 189 
 PAM  SZ EP       1235 17.18                             156   -0.0810 55.2  90 
 PAM  SN ES   2   1235 32.40                             156   -0.08 5 55.2  90 
 BRR  HZ EP       1235 16.83                             153   -0.0910 62.3 245 
 BRR  HN ES   1   1235 31.92                             153    0.06 7 62.3 245 
 BRR  HZ I        1235 33.24        21.9 0.16                          62.3 245 
 BAR2 SZ EP       1235 19.01                             145    0.4710 83.1 179 
 BAR2 SZ ES   1   1235 35.25                             145    0.49 7 83.1 179 
 BAR2 SZ I        1235 36.12        12.6 0.40                          83.1 179 
 OCA  SZ EP       1235 19.48                             141   -0.1810 99.9 352 
 OCA  SZ I        1235 50.20        21.3 0.33                          99.9 352 
 RUS  HE ES   3   1235 44.76                             126   -2.46 2  161 175 
 ZAR  HZ EP       1235 26.98                             122   -0.23 9  184 275 
 ZAR  HN ES   2   1235 50.21                             122    0.02 4  184 275 
                                                                                
