 2016  724 1611 56.7 L   6.795 -73.103147.4  RSN 14 0.4 2.3LRSN                1
 GAP=142        0.96       3.5     3.9  5.1 -0.1574E+01  0.5889E+01  0.4018E+01E
 Epicentro: LOS SANTOS - SANTANDER                                             3
 ACTION:UPD 17-03-29 16:54 OP:lp   STATUS:               ID:20160724161156 L   I
 OLDACT:REG 16-07-24 21:25 OP:lv   STATUS:               ID:20160724160759     3
 2016-07-24-1607-59S.COL___334                                                 6
 STAT SP IPHASW D HRMM SECON CODA AMPLIT PERI AZIMU VELO AIN AR TRES W  DIS CAZ7
 BAR2 EZ IP     D 1612 16.35                             170   -0.2010 24.1 201 
 BAR2 EZ ES       1612 31.48                             170   -0.5510 24.1 201 
 PAM  EZ EP       1612 19.23                             152    0.2710 74.9  36 
 PAM  EE ES       1612 36.56                             152    0.2510 74.9  36 
 PAM  EZ I        1612 38.90        26.9 0.56            157           74.9  36 
 BRR  HZ EP       1612 18.24                             151   -0.0510 75.7 297 
 BRR  HE ES       1612 35.80                             151    0.6710 75.7 297 
 BRR  HZ I        1612 38.75        29.2 0.16            150           75.7 297 
 RUS  HZ EP       1612 20.15                             144   -0.4210 99.8 179 
 RUS  HE ES       1612 39.37                             144    0.2010 99.8 179 
 RUS  HZ I        1612 40.60        16.2 0.18            144           99.8 179 
 SPBC HZ EP       1612 25.26                             129   -0.32 9  166 220 
 SPBC HN ES       1612 47.97                             129   -0.13 9  166 220 
 SPBC HZ I        1612 50.81        47.3 0.12            129            166 220 
 ZAR  HZ EP       1612 29.01                             122   -0.73 8  209 292 
 ZAR  HN ES       1612 55.08                             122   -0.42 8  209 292 
 ZAR  HZ I        1613  0.03        26.6 0.31            123            209 292 
 CHI  HZ EP       1612 34.60                             117    0.02 8  249 196 
 CHI  HE ES   2   1613  4.25                             117    0.13 4  249 196 
 CHI  HZ I        1613  9.66         7.2 0.18            118            249 196 
 ROSC BZ EP       1612 35.93                             117    0.79 8  255 212 
 ROSC BN ES   4   1613  3.33                             117   -1.78 0  255 212 
 ROSC BZ I        1613 14.10        16.4 0.40            117            255 212 
 HEL  HZ EP       1612 37.73                             115    0.23 7  277 256 
 HEL  HN ES       1613  9.37                             115    0.05 7  277 256 
 HEL  HZ I        1613 14.70        17.6 0.34            115            277 256 
 GUY2CHZ EP       1612 41.15                             112    0.35 7  305 235 
 GUY2CHE ES       1613 15.63                             112    0.44 7  305 235 
 GUY2CHZ I        1613 21.35        11.4 0.29                           305 235 
 ELA  HZ EP   9   1612 46.43                             110    2.43 0  332 230 
 ELA  HN ES       1613 24.30                                    0.98 7  332 230 
 ELA  HZ I        1613 28.97         8.1 0.46            111            332 230 
 PRA  HZ EP       1612 50.65                             107    0.14 6  394 210 
 PRA  HN ES       1613 32.19                             107   -0.28 6  394 210 
 PRA  HZ I        1613 36.48         9.2 0.42            108            394 210 
 PAL  HZ EP   9   1612 51.39                             106   -0.98 0  409 239 
 PAL  HE ES       1613 34.95                                    0.15 6  409 239 
 PAL  HZ I        1613 38.20         3.6 0.21            107            409 239 
 SJC  HZ EP   4   1612 50.58                             106   -2.11 0  412 326 
 SJC  HN ES   4   1613 32.92                             106   -3.43 0  412 326 
 SJC  HZ I        1613 36.67         5.0 0.13            107            412 326 
                                                                                
