 2017  424 1306 45.3 L   6.786 -73.136146.3  RSN  9 0.4 1.9LRSN                1
 GAP=121        1.00       4.1     4.2  6.1 -0.1599E+01  0.2114E+01  0.7704E+01E
 Epicentro: LOS SANTOS - SANTANDER                                             3
 ACTION:UPD 17-05-30 21:15 OP:jn   STATUS:               ID:20170424130645 L   I
 OLDACT:UP  17-04-24 22:41 OP:and  STATUS:               ID:20170424125740     3
 OLDACT:UP  17-04-24 22:41 OP:and  STATUS:               ID:20170424125740     3
 OLDACT:UP  17-04-24 22:39 OP:and  STATUS:               ID:20170424125740     3
 OLDACT:UP  17-04-24 22:38 OP:and  STATUS:               ID:20170424125740     3
 OLDACT:UP  17-04-24 22:37 OP:and  STATUS:               ID:20170424125740     3
 OLDACT:REG 17-04-24 20:28 OP:and  STATUS:               ID:20170424125740     3
 2017-04-24-1258-00M.COL___371                                                 6
 STAT SP IPHASW D HRMM SECON CODA AMPLIT PERI AZIMU VELO AIN AR TRES W  DIS CAZ7
 BAR2 EZ IP     C 13 7  4.95                             171   -0.0610 22.0 194 
 BAR2 EZ ES       13 7 20.16                             171   -0.1910 22.0 194 
 BAR2 EZ I        13 7 21.52        29.1 0.28            169           22.0 194 
 BRR  HZ IP     D 13 7  6.76                             152    0.1210 72.9 299 
 BRR  HN ES       13 7 23.91                             152    0.6510 72.9 299 
 BRR  HZ I        13 7 26.39        15.3 0.16            152           72.9 299 
 PAM  EZ IP     D 13 7  7.79                             151    0.1510 77.9  38 
 PAM  EN ES       13 7 24.90                             151   -0.1410 77.9  38 
 PAM  EZ I        13 7 27.46         5.7 0.44            156           77.9  38 
 PTB  HZ EP       13 7 12.18                             132   -0.24 9  149 259 
 PTB  HN ES       13 7 32.59                             132   -0.96 9  149 259 
 PTB  HZ I        13 7 39.41         6.3 0.36            132            149 259 
 SPBC HZ EP   2   13 7 14.05                             129    0.22 5  163 220 
 SPBC HE ES       13 7 36.37                             129    0.31 9  163 220 
 SPBC HZ I        13 7 40.84        12.6 0.21            130            163 220 
 ZAR  HZ EP       13 7 18.49                             122    0.51 8  206 292 
 ZAR  HE ES       13 7 43.11                             122   -0.33 8  206 292 
 ZAR  HZ I        13 7 48.20         8.3 0.18            123            206 292 
 NOR  HZ EP   2   13 7 21.10                             119    0.00 4  235 235 
 NOR  HN ES   2   13 7 49.37                             119    0.38 4  235 235 
 NOR  HZ I        13 7 51.86         5.5 0.18            119            235 235 
 CHI  HZ EP       13 7 23.24                             117    0.31 8  247 196 
 CHI  HN ES       13 7 52.66                             117    0.40 8  247 196 
 CHI  HZ I        13 7 57.78         3.7 0.30            119            247 196 
 PTGC HZ IP     D 13 7 28.15                             112   -0.86 7  307 159 
                                                                                
