 2016  624 1238 48.0 L   6.772 -73.145143.2  RSN  8 0.5 2.1LRSN                1
 GAP=138        1.08       4.3     4.4  6.8 -0.2376E+01  0.8678E+01  0.9176E+00E
 Epicentro: LOS SANTOS - SANTANDER                                             3
 ACTION:UPD 16-07-21 22:22 OP:rebc STATUS:               ID:20160624123848 L   I
 OLDACT:REG 16-06-24 22:05 OP:dnl  STATUS:               ID:20160624123747     3
 2016-06-24-1237-47M.COL___328                                                 6
 STAT SP IPHASW D HRMM SECON CODA AMPLIT PERI AZIMU VELO AIN AR TRES W  DIS CAZ7
 BAR2 EZ EP       1239  7.17                             172   -0.1310 20.3 192 
 BAR2 EZ ES       1239 21.91                             172   -0.4110 20.3 192 
 BAR2 EZ I        1239 23.26        40.5 0.22                          20.3 192 
 BRR  HZ EP       1239  9.09                             152    0.0910 72.7 301 
 BRR  HN ES       1239 26.15                             152    0.8110 72.7 301 
 BRR  HZ I        1239 27.17        33.8 0.20                          72.7 301 
 PAM  EZ EP       1239 10.12                             150   -0.0010 79.8  38 
 PAM  EN ES       1239 27.09                             150   -0.2610 79.8  38 
 PAM  EZ I        1239 28.93        22.0 0.76                          79.8  38 
 RUS  HZ EP       1239 11.67                             144    0.3610 97.5 176 
 RUS  HE ES       1239 29.87                             144    0.4110 97.5 176 
 RUS  HZ I        1239 30.61         9.4 0.20                          97.5 176 
 PTB  HZ EP       1239 13.87                             132   -0.87 9  147 260 
 PTB  HN ES       1239 35.19                             132   -0.39 9  147 260 
 PTB  HZ I        1239 36.48        15.3 0.22                           147 260 
 SPBC HZ EP       1239 15.96                             129   -0.15 9  161 220 
 SPBC HN ES       1239 38.09                             129    0.08 9  161 220 
 SPBC HZ I        1239 44.16        19.5 0.30                           161 220 
 ZAR  HZ EP       1239 20.74                             122    0.30 8  205 293 
 ZAR  HN ES       1239 45.88                             122    0.17 8  205 293 
 ZAR  HZ I        1239 48.14        14.0 0.22                           205 293 
 NOR  HZ EP   2   1239 24.78                             118    1.35 4  233 235 
 NOR  HN ES       1239 50.61                             118   -0.42 8  233 235 
 NOR  HZ I        1239 54.24        11.7 0.16                           233 235 
                                                                                
