 2014 1124 1216 45.0 L   5.957 -73.780112.6  RSN 25 0.5 2.5LRSN                1
 GAP= 82        1.10       1.9     2.2  4.8 -0.1248E+01  0.1742E+01 -0.4838E+00E
 Epicentro: BOLIVAR - SANTANDER                                                3
 ACTION:UPD 14-12-19 15:46 OP:nd   STATUS:               ID:20141124121645 L   I
 OLDACT:DUP 14-11-24 22:29 OP:fm   STATUS:               ID:20141124120748d    3
 OLDACT:REG 14-11-24 21:06 OP:fm   STATUS:               ID:20141124120747     3
 2014-11-24-1207-47M.COL___293                                                 6
 STAT SP IPHASW D HRMM SECON CODA AMPLIT PERI AZIMU VELO AIN AR TRES W  DIS CAZ7
 SPBC HZ EP     D 1217  1.43                             156    0.1010 46.8 224 
 SPBC HE ES       1217 13.96                             156   -0.1210 46.8 224 
 SPBC HZ I        1217 15.71       172.9 0.34            155           46.8 224 
 RUS  HZ EP     D 1217  4.05                             143    0.2410 77.5  95 
 RUS  HE ES       1217 18.24                             143   -0.2510 77.5  95 
 RUS  HZ I        1217 19.99        59.8 0.24            139           77.5  95 
 BAR2 SZ IP     C 1217  5.60                             136    0.6610 96.4  43 
 BAR2 SZ ES       1217 20.77                             136    0.2610 96.4  43 
 PTB  HZ EP     D 1217  4.07                             136   -0.7610 98.7 311 
 PTB  HN ES       1217 20.23                             136   -0.0810 98.7 311 
 PTB  HZ I        1217 21.95        49.6 0.18            132           98.7 311 
 BRR  HZ IP     D 1217  7.77                             128    0.3510  127   3 
 BRR  HE ES       1217 25.28                             128    0.3510  127   3 
 BRR  HZ I        1217 28.95        97.1 0.34            124            127   3 
 NOR  HZ EP       1217  7.22                             127   -0.3610  128 250 
 NOR  HE ES       1217 24.88                             127   -0.3410  128 250 
 NOR  HZ I        1217 27.24       122.2 0.16            125            128 250 
 ROSC BZ EP       1217  8.76                             126   -0.16 9  137 206 
 ROSC BN ES       1217 28.51                             126    0.92 9  137 206 
 ROSC BZ I        1217 33.29        43.9 0.35            123            137 206 
 CHI  HZ EP     C 1217  9.88                             124   -0.03 9  147 178 
 CHI  HN ES       1217 28.62                             124   -0.74 9  147 178 
 CHI  HZ I        1217 31.97        21.5 0.48            121            147 178 
 GUY2CHZ EP       1217 15.52                             116    0.59 9  193 245 
 GUY2CHN ES       1217 38.83                             116    0.54 9  193 245 
 GUY2CHZ I        1217 44.20        20.3 0.50                           193 245 
 PAM  SZ EP       1217 14.23                             116   -0.78 9  194  38 
 PAM  SE ES       1217 38.34                             116   -0.09 9  194  38 
 PAM  SZ I        1217 44.80        27.6 0.46            113            194  38 
 HEL  HZ EP       1217 15.47                             115    0.47 9  195 278 
 HEL  HN ES       1217 37.97                             115   -0.45 9  195 278 
 HEL  HZ I        1217 43.99        26.7 0.26            113            195 278 
 VIL  SZ EP       1217 15.84                             114    0.15 9  204 177 
 VIL  SN ES       1217 39.10                             114   -0.55 9  204 177 
 VIL  SZ I        1217 45.07        45.5 0.34            112            204 177 
 ZAR  HZ EP       1217 15.64                             113   -0.24 8  207 325 
 ZAR  HN ES       1217 39.72                             113   -0.27 8  207 325 
 ZAR  HZ I        1217 42.64        56.5 0.36            111            207 325 
 RREF HZ EP       1217 16.83                             114   -0.07 8  209 236 
 RREF HN ES       1217 41.59                             114   -0.20 8  209 236 
 RREF HZ I        1217 45.54        32.3 0.24            112            209 236 
 TAM  HZ EP       1217 18.29                             111    0.23 8  226  76 
 TAM  HZ I        1217 43.00        24.2 0.42            109            226  76 
 TAM  HN ES       1217 43.49                             111   -0.37 8  226  76 
 TOL  SZ EP       1217 18.92                             111    0.25 8  228 228 
 TOL  SE ES       1217 45.05                             111    0.10 8  228 228 
 TOL  SZ I        1217 51.27        56.8 0.50            110            228 228 
 ANIL HE EP       1217 20.85                             110    0.66 8  242 228 
 ANIL HN ES       1217 47.83                             110    0.18 8  242 228 
 ANIL HE I        1217 51.20        17.2 0.40            109            242 228 
 OCA  HZ EP       1217 22.65                             108    0.89 8  257  11 
 OCA  HN ES       1217 50.80                             108    0.35 8  257  11 
 OCA  HZ I        1217 58.11        36.6 0.26            107            257  11 
 PTGC HZ EP   4   1217 21.08                             107   -1.57 0  267 137 
 PTGC HN ES   4   1217 50.38                             107   -1.66 0  267 137 
 PTGC HZ I        1217 57.41        21.4 0.40            106            267 137 
 URE  HZ EP   4   1217 21.57                             107   -2.33 0  277 316 
 URE  HN ES   4   1217 51.83                             107   -2.44 0  277 316 
 URE  HZ I        1218  4.78        22.2 0.16            106            277 316 
 ORTC HZ EP       1217 23.82                             106   -0.29 7  279 216 
 ORTC HN ES       1217 54.63                             106   -0.01 7  279 216 
 ORTC HZ I        1217 59.29        19.0 0.20            106            279 216 
 DBB  SZ EP       1217 25.80                             105   -0.06 7  293 294 
 DBB  SZ ES       1217 58.04                             105    0.30 7  293 294 
 DBB  SZ I        1218  3.33        25.6 0.34            105            293 294 
 MON  HZ EP       1217 34.00                             101   -1.46 6  375 326 
 MON  HN ES       1218 14.11                             101   -0.73 6  375 326 
 MON  HZ I        1218 31.64         5.0 0.34            101            375 326 
 MACC HZ EP   4   1217 39.35                              99   -1.74 0  422 181 
 MACC HE ES   4   1218 21.20                              99   -3.66 0  422 181 
 MACC HZ I        1218 24.55         5.3 0.14            100            422 181 
 SJC  HZ EP   4   1217 43.49                              97   -2.55 0  462 341 
 SJC  HE ES   4   1218 30.02                              97   -3.65 0  462 341 
 SJC  HZ I        1218 36.00         5.0 0.24             99            462 341 
                                                                                
