 2014  724 1009 57.1 L   6.859 -73.095146.0  RSN  6 0.5 1.3LRSN                1
 GAP=249        0.74       6.2     5.7  9.4  0.1312E+02 -0.2625E+01 -0.8094E+01E
 Epicentro: LOS SANTOS - SANTANDER                                             3
 ACTION:UPD 15-03-16 20:46 OP:nd   STATUS:               ID:20140724100957 L   I
 OLDACT:DUP 14-07-24 22:16 OP:fm   STATUS:               ID:20140724100821d    3
 2014-07-24-1008-19M.COL___263                                                 6
 STAT SP IPHASW D HRMM SECON CODA AMPLIT PERI AZIMU VELO AIN AR TRES W  DIS CAZ7
 RUS  HZ EP       1010 21.36                             142    0.0410  107 179 
 RUS  HE ES   1   1010 40.08                             142   -0.15 7  107 179 
 RUS  HZ I        1010 41.68         1.9 0.30            146            107 179 
 PTB  HZ EP   1   1010 24.62                             130   -0.08 7  155 257 
 PTB  HN ES   1   1010 45.91                             130   -0.33 7  155 257 
 PTB  HZ I        1010 53.96         2.8 0.26            132            155 257 
 SPBC HZ EP       1010 26.59                             127    0.17 9  172 219 
 SPBC HN ES       1010 49.52                             127    0.21 9  172 219 
 SPBC HZ I        1010 57.24         2.8 0.32            130            172 219 
 ZAR  HE ES   1   1010 55.28                             122   -0.11 6  207 290 
 ZAR  HZ I        1011  0.93         2.3 0.40            124            207 290 
 GUY2CHN ES   1   1011 17.20                             111    0.79 5  310 234 
 GUY2CHZ I        1011 24.07         1.1 0.60                           310 234 
 PRA  HZ EP   1   1010 51.78                             106    0.18 4  400 210 
 PRA  HE ES   1   1011 32.63                             106   -1.50 4  400 210 
                                                                                
