 2010  124 1912 14.6 L   6.143 -73.717107.0  RSN 10 0.4 2.2LRSN                1
 GAP= 81        0.88       3.5     4.2  8.7 -0.2892E+01  0.2449E+02  0.2783E+01E
 Epicentro: LANDAZURI - SANTANDER                                              3
 ACTION:UP  10-08-24 09:45 OP:vdl  STATUS:               ID:20100124191214 L   I
 2010-01-24-1908-21S.COL___095                                                 6
 STAT SP IPHASW D HRMM SECON CODA AMPLIT PERI AZIMU VELO SNR AR TRES W  DIS CAZ7
 RUS  BZ IP       1912 32.69                             143     0.010   75 111 
 RUS  BZ I        1912 33.16        50.5 0.11                            75 111 
 RUS  BE ES   1   1912 46.52                             143    -0.3 7   75 111 
 BAR2 SZ IP       1912 32.73                             142     0.310   77  50 
 BAR2 SZ ES       1912 46.29                             142    -0.110   77  50 
 CHI  HZ IP       1912 41.19                             118    -0.1 9  167 181 
 CHI  HZ I        1912 42.42        10.9 0.11                           167 181 
 CHI  HN ES   1   1913  2.13                             118     0.0 7  167 181 
 HEL  HZ IP       1912 44.78                             113    -0.1 9  201 272 
 HEL  HE ES   1   1913  8.08                             113    -0.5 6  201 272 
 HEL  HZ I        1913 12.98        11.6 0.21                           201 272 
 GUY  HZ EP   2   1912 46.11                             112     0.1 4  209 241 
 RREF BZ IP       1912 48.03                             110    -0.2 8  227 233 
 RREF BE ES       1913 15.43                             110     1.0 8  227 233 
 RREF BZ I        1913 19.22        19.4 0.29                           227 233 
 OCA  SZ EP   1   1912 48.98                             109     0.3 6  236  11 
 OCA  SZ ES   2   1913 16.23                             109     1.0 4  236  11 
 OCA  SZ I        1913 19.75        23.6 0.34                           236  11 
 ANIL BZ IP       1912 51.76                             106     0.0 8  261 226 
 ANIL BZ I        1913 32.09        22.7 0.41                           261 226 
 DBB  SZ EP   1   1912 54.49                             104    -0.6 5  292 289 
 DBB  SZ ES   2   1913 26.23                             104    -0.6 4  292 289 
 PRA  HZ IP       1912 55.48                             104    -0.3 7  298 206 
 PRA  HE ES   2   1913 27.94                             104     0.0 4  298 206 
 PRA  HZ I        1913 35.52         4.9 0.17                           298 206 
                                                                                
