 2010  624 1002  8.8 L   6.961 -73.373163.5  RSN  5 0.2 1.4LRSN                1
 GAP=129        0.45       4.9     8.9  8.0 -0.2451E+02 -0.3341E+02  0.2137E+02E
 Epicentro: SAN VICENTE DE CHUCURI - SANTANDER                                 3
 ACTION:UP  10-08-24 10:12 OP:vdl  STATUS:               ID:20100624100208 L   I
 2010-06-24-0957-41S.COL___118                                                 6
 STAT SP IPHASW D HRMM SECON CODA AMPLIT PERI AZIMU VELO SNR AR TRES W  DIS CAZ7
 BRR  HZ EP   1   10 2 30.71                             165     0.0 8   41 293 
 BRR  HN ES   2   10 2 47.68                             165     0.0 5   41 293 
 BRR  HZ I        10 2 50.18         4.5 0.24                            41 293 
 BRI  SZ EP   1   10 2 34.17                             146     0.0 8  105  37 
 GUE  SZ EP   1   10 2 34.32                             145    -0.3 8  108  27 
 GUE  SZ ES   2   10 2 54.98                             145     0.2 5  108  27 
 GRA  SZ EP   1   10 2 35.58                             142     0.3 8  120  32 
 GRA  SZ ES   2   10 2 55.68                             142    -0.2 5  120  32 
 RUS  HZ EP       10 2 35.93                             142     0.010  122 165 
 RUS  HZ I        10 2 53.04         3.3 0.44                           122 165 
                                                                                
