 2010 1124 1159 53.1 L   6.305 -73.597106.0  RSN  5 0.4 1.7LRSN                1
 GAP= 85        0.88       4.8     7.6 12.4  0.1428E+02  0.6512E+02  0.2998E+02E
 Epicentro: SANTA HELENA DEL OPON - SANTANDER                                  3
 ACTION:UP  10-12-17 16:54 OP:REBC STATUS:               ID:20101124115953 L   I
 2010-11-24-1157-45S.COL___129                                                 6
 STAT SP IPHASW D HRMM SECON CODA AMPLIT PERI AZIMU VELO SNR AR TRES W  DIS CAZ7
 BAR2 SZ EP   1   12 0  9.31                             151    -0.1 7   56  55 
 BAR2 SZ ES   1   12 0 22.53                             151     0.4 7   56  55 
 BAR2 SZ I        12 0 23.91        33.6 0.54                            56  55 
 RUS  HZ IP     C 12 0 10.77                             144    -0.110   73 129 
 RUS  HE ES   1   12 0 24.96                             144     0.1 7   73 129 
 RUS  HZ I        12 0 26.61         7.5 0.26                            73 129 
 BRR  HZ EP   1   12 0 11.02                             137    -0.5 7   90 352 
 BRR  HZ I        12 0 11.52        13.6 0.33                            90 352 
 BRR  HE ES   1   12 0 25.82                             137    -0.1 7   90 352 
 CHI  HZ EP   1   12 0 22.38                             115     0.6 7  186 185 
 CHI  HE ES   1   12 0 43.50                             115    -0.6 7  186 185 
 CHI  HZ I        12 0 48.79         3.6 0.46                           186 185 
 HEL  HZ EP   1   12 0 25.31                             111     0.4 6  214 267 
 HEL  HN ES   2   12 0 49.84                             111     0.2 4  214 267 
 HEL  HZ I        12 0 55.85         4.3 0.27                           214 267 
                                                                                
