 2013  424 1548 59.6 L   6.802 -73.171142.0  RSN  6 0.5 1.8LRSN                1
 GAP=133        1.02       5.1     6.3  7.6  0.1664E+01  0.6630E+01 -0.1016E+02E
 Epicentro: LOS SANTOS - SANTANDER                                             3
 ACTION:UPD 13-05-22 14:40 OP:EP   STATUS:               ID:20130424154859 L   I
 2013-04-24-1547-40M.COL___216                                                 6
 STAT SP IPHASW D HRMM SECON CODA AMPLIT PERI AZIMU VELO AIN AR TRES W  DIS CAZ7
 BAR2 SZ EP   1   1549 17.88                             170   -0.85 7 23.2 183 
 BAR2 SZ ES       1549 33.49                             170   -0.2010 23.2 183 
 BAR2 SZ I        1549 34.99        10.3 0.20            172           23.2 183 
 BRR  HZ EP       1549 20.85                             153    0.7010 68.6 300 
 BRR  HN ES   1   1549 36.62                             153    0.40 7 68.6 300 
 BRR  HZ I        1549 48.72        15.1 0.54            148           68.6 300 
 PAM  SZ EP       1549 21.89                             150    0.4210 79.1  41 
 PAM  SN ES   1   1549 38.38                             150   -0.19 7 79.1  41 
 PAM  SZ I        1549 40.77        16.4 0.44            152           79.1  41 
 RUS  HZ EP       1549 22.74                             143   -0.2310  101 174 
 RUS  HN ES   1   1549 41.45                             143    0.22 7  101 174 
 RUS  HZ I        1549 42.83         3.7 0.30            153            101 174 
 PTB  HZ EP   1   1549 26.40                             132    0.43 7  145 259 
 PTB  HN ES   1   1549 46.10                             132   -0.47 7  145 259 
 PTB  HZ I        1549 49.88         5.2 0.18            133            145 259 
 SML  HZ EP       1549 35.30                             117   -0.53 8  242 336 
 SML  HN ES   1   1550  3.85                             117   -0.27 6  242 336 
 SML  HZ I        1550 13.73         9.0 0.10            119            242 336 
                                                                                
