 2016  624 1533 55.2 L   6.822 -73.129150.0  RSN  7 0.2 2.0LRSN                1
 GAP=241        0.61       3.3     4.0  4.3  0.5209E+01  0.6694E+01  0.4306E+01E
 Epicentro: LOS SANTOS - SANTANDER                                             3
 ACTION:UPD 16-07-21 22:22 OP:rebc STATUS:               ID:20160624153355 L   I
 OLDACT:REG 16-06-24 23:20 OP:dnl  STATUS:               ID:20160624152744     3
 2016-06-24-1527-44M.COL___331                                                 6
 STAT SP IPHASW D HRMM SECON CODA AMPLIT PERI AZIMU VELO AIN AR TRES W  DIS CAZ7
 BAR2 EZ EP       1534 15.45                             170    0.0410 26.1 193 
 BAR2 EZ ES       1534 30.76                             170   -0.4010 26.1 193 
 BAR2 EZ I        1534 32.08        26.7 0.20                          26.1 193 
 BRR  HZ EP       1534 16.94                             153    0.0910 71.7 296 
 BRR  HN ES       1534 34.13                             153    0.4010 71.7 296 
 BRR  HZ I        1534 36.98        14.7 0.28                          71.7 296 
 RUS  HZ EP       1534 19.49                             144   -0.0610  103 177 
 RUS  HE ES       1534 38.75                             144    0.2210  103 177 
 RUS  HZ I        1534 39.68         6.8 0.40                           103 177 
 PTB  HZ EP       1534 22.30                             132   -0.44 9  150 258 
 PTB  HZ ES   4   1534 42.33                             132   -1.87 0  150 258 
 PTB  HZ I        1534 50.49        11.8 0.44                           150 258 
 ZAR  HZ EP   2   1534 28.41                             123    0.39 4  205 291 
 ZAR  HN ES       1534 53.46                             123   -0.15 9  205 291 
 ZAR  HZ I        1534 58.68        11.1 0.28                           205 291 
 NOR  HZ EP       1534 31.60                             119    0.10 8  238 234 
 NOR  HN ES       1534 59.81                             119    0.00 8  238 234 
 NOR  HZ I        1535  5.04         6.6 0.22                           238 234 
 PRA  HZ EP       1534 49.39                             107    0.16 6  395 210 
 PRA  HN ES       1535 31.41                             107    0.04 6  395 210 
 PRA  HZ I        1535 37.56         6.4 0.72                           395 210 
                                                                                
