 2012  224 1816 18.2 L   6.778 -73.158147.8  RSN  9 0.3 1.9LRSN                1
 GAP=136        0.43       3.0     3.0  4.1 -0.2796E+01  0.5996E+00  0.4616E+01E
 ACTION:UP  12-03-07 16:33 OP:epov STATUS:               ID:20120224181618 L   I
 2012-02-24-1810-00M.COL___193                                                 6
 STAT SP IPHASW D HRMM SECON CODA AMPLIT PERI AZIMU VELO AIN AR TRES W  DIS CAZ7
 BAR2 SZ EP   1   1816 37.91                             172   -0.08 7 20.7 187 
 BAR2 SZ ES   2   1816 53.20                             172   -0.25 5 20.7 187 
 BAR2 SZ I        1816 54.99        23.2 0.33                          20.7 187 
 GIR2 SZ EP   1   1816 37.99                             167   -0.15 7 33.5 353 
 GIR2 SZ ES   2   1816 53.58                             167   -0.13 5 33.5 353 
 BRR  HZ EP   1   1816 39.86                             153    0.33 7 71.2 301 
 BRR  HN ES   2   1816 56.91                             153    0.72 5 71.2 301 
 BRR  HZ I        1817  1.67        28.5 0.14                          71.2 301 
 PAM  SZ EP   1   1816 40.72                             150   -0.04 7 80.2  39 
 PAM  SN ES   2   1816 58.04                             150   -0.34 5 80.2  39 
 RUS  HZ EP   1   1816 42.12                             145    0.17 7 98.3 175 
 RUS  HE ES   2   1817  0.93                             145    0.43 5 98.3 175 
 RUS  HZ I        1817  2.17        12.0 0.31                          98.3 175 
 PTB  HZ EP   1   1816 44.98                             133   -0.15 7  146 260 
 PTB  HN ES   1   1817  5.92                             133   -0.24 7  146 260 
 NOR  SZ EP   1   1816 53.84                             119    0.10 6  232 235 
 NOR  SN ES   1   1817 21.32                             119   -0.16 6  232 235 
 CHI  HZ EP   1   1816 55.68                             118    0.00 6  246 195 
 CHI  HZ I        1816 56.30         3.3 0.20                           246 195 
 CHI  HN ES   2   1817 24.72                             118   -0.22 4  246 195 
 PRA  HZ EP   1   1817 11.46                             107    0.04 4  389 210 
 PRA  HN ES   2   1817 52.94                             107   -0.03 3  389 210 
                                                                                
