 2015 1224 1944 46.7 L   6.811 -73.166137.5  RSN  9 0.4 1.9LRSN                1
 GAP=133        0.88       2.5     3.8  5.6 -0.1107E+01  0.9443E+01 -0.8710E+00E
 Epicentro: LOS SANTOS - SANTANDER                                             3
 ACTION:UPD 16-02-04 15:07 OP:cam  STATUS:               ID:20151224194446 L   I
 OLDACT:REG 15-12-24 21:14 OP:cara STATUS:               ID:20151224193747     3
 2015-12-24-1937-47M.COL___337                                                 6
 STAT SP IPHASW D HRMM SECON CODA AMPLIT PERI AZIMU VELO AIN AR TRES W  DIS CAZ7
 BAR2 EZ EP       1945  5.30                             169   -0.1010 24.3 184 
 BAR2 EZ ES       1945 19.87                             169   -0.0910 24.3 184 
 BAR2 EZ I        1945 21.27        12.6 0.14            170           24.3 184 
 PAM  EZ IP       1945  8.51                             149    0.3910 77.9  41 
 PAM  EN ES       1945 25.08                             149    0.2810 77.9  41 
 PAM  EZ I        1945 27.33        21.9 0.50            153           77.9  41 
 RUS  HN ES       1945 27.87                             142    0.0910  102 175 
 RUS  HZ I        1945 29.62        10.3 0.40            145            102 175 
 PTB  HZ EP       1945 12.58                             130   -0.29 9  146 258 
 PTB  HN ES       1945 33.16                             130   -0.09 9  146 258 
 PTB  HZ I        1945 36.35         8.2 0.22            130            146 258 
 OCA  HN ES       1945 35.27                             128   -0.50 9  159 354 
 OCA  HZ I        1945 39.61        17.1 0.18            129            159 354 
 ZAR  HZ EP       1945 19.11                             121    0.71 9  202 292 
 ZAR  HN ES       1945 43.58                             121    0.49 9  202 292 
 ZAR  HZ I        1945 51.43         7.9 0.10            121            202 292 
 NOR  HZ IP       1945 22.27                             117    0.38 8  234 234 
 NOR  HE ES       1945 49.19                             117   -0.11 8  234 234 
 NOR  HZ I        1945 56.75         5.8 0.16            118            234 234 
 SML  HZ EP       1945 22.22                             116   -0.48 8  242 336 
 SML  HN ES       1945 50.37                             116   -0.37 8  242 336 
 SML  HZ I        1945 56.28        10.4 0.26            117            242 336 
 CHI  HZ IP       1945 24.11                             115    0.05 8  249 195 
 CHI  HN ES       1945 52.60                             115   -0.57 8  249 195 
 CHI  HZ I        1945 56.36         2.9 0.54            117            249 195 
                                                                                
