 2015  824 1839 26.5 L   6.813 -73.111150.0  RSN  9 0.3 1.9LRSN                1
 GAP=160        0.49       2.2     4.0  4.4 -0.4988E+01  0.1041E+02 -0.2566E+01E
 Epicentro: LOS SANTOS - SANTANDER                                             3
 ACTION:UPD 15-09-15 23:04 OP:cam  STATUS:               ID:20150824183926 L   I
 OLDACT:REG 15-08-24 23:01 OP:ak   STATUS:               ID:20150824183750     3
 2015-08-24-1837-50M.COL___328                                                 6
 STAT SP IPHASW D HRMM SECON CODA AMPLIT PERI AZIMU VELO AIN AR TRES W  DIS CAZ7
 BAR2 EZ EP       1839 46.58                             170   -0.1310 25.7 198 
 BAR2 EZ ES       1840  2.55                             170    0.0910 25.7 198 
 BAR2 EZ I        1840  5.48         8.9 0.18            166           25.7 198 
 PAM  EE ES       1840  6.61                             153    0.1010 73.9  38 
 PAM  EZ I        1840  8.48         5.7 0.50            160           73.9  38 
 OCA  HE ES       1840 17.43                             131    0.08 9  159 352 
 SPBC HZ EP       1839 55.53                             130   -0.15 9  167 220 
 SPBC HE ES       1840 18.29                             130   -0.14 9  167 220 
 SPBC HZ I        1840 27.72        16.8 0.20            131            167 220 
 ZAR  HZ EP   2   1839 59.39                             123   -0.17 4  207 291 
 ZAR  HE ES   2   1840 24.85                             123   -0.47 4  207 291 
 ZAR  HZ I        1840 30.57         7.1 0.68            124            207 291 
 NOR  HE ES       1840 31.62                             119    0.30 8  239 235 
 NOR  HZ I        1840 34.12         5.6 0.22            121            239 235 
 SML  HZ EP       1840  3.16                             119   -0.26 8  244 334 
 SML  HN ES   2   1840 32.66                             119    0.45 4  244 334 
 SML  HZ I        1840 33.70         7.9 0.28            121            244 334 
 GUY2CHZ EP   2   1840 11.65                             113    0.87 4  305 235 
 GUY2CHN ES   2   1840 45.41                             113    0.12 4  305 235 
 GUY2CHZ I        1840 53.30         4.1 0.72                           305 235 
 TOL  SN ES   4   1840 55.38                             110    1.89 0  347 225 
 TOL  SZ I        1840 58.16         2.4 0.40            112            347 225 
                                                                                
