 2010  924 1510 43.0 L   6.808 -73.107146.0  RSN  6 0.4 1.7LRSN                1
 GAP=168        1.08       5.6    11.6 12.3 -0.3383E+01 -0.3717E+02  0.7818E+01E
 Epicentro: LOS SANTOS - SANTANDER                                             3
 ACTION:UP  11-02-18 11:05 OP:tino STATUS:               ID:20100924151043 L   I
 2010-09-24-1507-43S.COL___122                                                 6
 STAT SP IPHASW D HRMM SECON CODA AMPLIT PERI AZIMU VELO SNR AR TRES W  DIS CAZ7
 BAR2 SZ EP       1511  2.80                             170     0.110   25 200 
 BAR2 SZ I        1511 18.71        14.5 0.30                            25 200 
 BRR  HZ IP     D 1511  4.64                             151     0.210   75 296 
 BRR  HN ES   1   1511 21.32                             151     0.2 7   75 296 
 BRR  HZ I        1511 22.32        16.4 0.12                            75 296 
 RUS  HZ EP       1511  7.33                             143     0.510  101 179 
 RUS  HZ I        1511  8.12         5.2 0.15                           101 179 
 RUS  HN ES   1   1511 25.12                             143    -0.3 7  101 179 
 GUE  SZ EP       1511  7.12                             140    -0.510  115  10 
 NOR  SN ES   2   1511 46.47                             118    -1.0 4  239 235 
 CHI  HZ EP       1511 21.35                             117     0.4 8  251 196 
 CHI  HN ES   1   1511 49.89                             117    -0.7 6  251 196 
 CHI  HZ I        1511 57.77         3.0 0.80                           251 196 
                                                                                
