 2017 1024 1623 37.5 L   5.748 -73.896100.4  RSN 22 0.6 2.5LRSN                1
 GAP= 69        1.40       2.4     2.9  6.0 -0.1441E+01  0.2212E+01 -0.1376E+01E
 Epicentro: ALBANIA - SANTANDER                                                3
 ACTION:UPD 17-11-07 19:36 OP:rebc STATUS:               ID:20171024162337 L   I
 OLDACT:UP  17-10-24 22:31 OP:dhb  STATUS:               ID:20171024161220     3
 OLDACT:REG 17-10-24 20:26 OP:dhb  STATUS:               ID:20171024161220     3
 2017-10-24-1618-00M.COL___453                                                 6
 STAT SP IPHASW D HRMM SECON CODA AMPLIT PERI AZIMU VELO AIN AR TRES W  DIS CAZ7
 SPBC HZ IP     C 1623 51.42                             168   -0.0210 22.2 241 
 SPBC HN ES       1624  2.91                             168    0.5910 22.2 241 
 SPBC HZ I        1624  5.04       235.3 0.14            167           22.2 241 
 TABC EZ IP     D 1623 56.56                             138    0.5610 88.3 203 
 TABC EZ ES       1624 10.40                             138   -0.0410 88.3 203 
 TABC EZ I        1624 15.30        99.1 0.32            140           88.3 203 
 RUS  HZ EP       1623 56.14                             137   -0.1610 91.4  80 
 RUS  HN ES       1624 11.21                             137    0.2310 91.4  80 
 RUS  HZ I        1624 13.01        33.3 0.24            139           91.4  80 
 PTB  HZ IP     C 1623 55.90                             132   -1.2010  107 325 
 PTB  HN ES       1624 13.34                             132    0.9410  107 325 
 PTB  HZ I        1624 15.46        60.9 0.12            133            107 325 
 NOR  HZ EP       1623 56.59                             131   -0.7910  110 259 
 NOR  HN ES       1624 12.82                             131   -0.0810  110 259 
 NOR  HZ I        1624 14.05        92.2 0.18            132            110 259 
 ROSC BZ EP       1623 58.58                             131    0.6310  111 205 
 ROSC BE ES       1624 14.76                             131    0.8510  111 205 
 ROSC BZ I        1624 19.33        59.7 0.60            132            111 205 
 BAR2 EZ IP     C 1623 58.91                             128    0.0510  122  40 
 BAR2 EZ ES       1624 15.87                             128    0.3410  122  40 
 BAR2 EZ I        1624 18.06        84.3 0.48            129            122  40 
 CHI  HZ IP       1623 58.74                             127   -0.6310  125 172 
 CHI  HE ES       1624 15.75                             127   -0.6910  125 172 
 CHI  HZ I        1624 20.64        25.8 0.42            129            125 172 
 BRR  HZ IP     C 1624  1.32                             121   -0.28 9  152   8 
 BRR  HE ES       1624 21.37                             121    0.96 9  152   8 
 BRR  HZ I        1624 27.20        78.2 0.23            122            152   8 
 YPLC HZ IP     D 1624  3.91                             117   -0.05 9  172 103 
 YPLC HE ES       1624 25.40                             117    0.78 9  172 103 
 YPLC HZ I        1624 27.29        68.2 0.28            119            172 103 
 GUY2CHZ EP       1624  4.08                             118   -0.43 9  173 250 
 GUY2CHE ES   2   1624 26.85                             118    1.25 4  173 250 
 GUY2CHZ I        1624 30.05        26.7 0.24                           173 250 
 VIL  EZ EP       1624  4.32                             116   -0.82 9  182 173 
 VIL  EE ES       1624 26.95                             116    0.23 9  182 173 
 VIL  EZ I        1624 29.36        49.9 0.44            117            182 173 
 ELA  HZ EP       1624  7.41                             114    0.51 9  193 240 
 ELA  HE ES       1624 30.13                             114    0.28 9  193 240 
 ELA  HZ I        1624 36.60        15.7 0.56            116            193 240 
 ANIL HZ EP       1624  9.18                             111   -0.15 8  217 230 
 ANIL HE ES       1624 33.74                             111   -0.44 8  217 230 
 ANIL HZ I        1624 41.78        54.8 0.22            113            217 230 
 PAM  EZ EP       1624  9.16                             111   -0.75 8  220  37 
 PAM  EE ES       1624 35.31                             111    0.11 8  220  37 
 PAM  EZ I        1624 44.82        20.1 0.40            113            220  37 
 ZAR  HZ EP   3   1624  8.08                             111   -1.23 2  220 331 
 ZAR  HN ES       1624 33.94                             111   -0.20 8  220 331 
 ZAR  HZ I        1624 38.74        66.2 0.24            112            220 331 
 PRA  HZ EP   2   1624 11.56                             108   -1.31 4  250 206 
 PRA  HE ES       1624 39.57                             108   -0.90 8  250 206 
 PRA  HZ I        1624 43.53        30.0 0.22            109            250 206 
 ORTC HZ EP       1624 12.37                             108   -0.75 8  253 216 
 ORTC HN ES       1624 41.29                             108    0.36 8  253 216 
 ORTC HZ I        1624 46.05        21.2 0.68            109            253 216 
 URE  HZ EP   9   1624 13.89                             105   -3.17 0  286 321 
 URE  HE ES       1624 45.38                                    0.62 7  286 321 
 DBB  EN ES       1624 49.39                             104    0.06 7  292 299 
 DBB  EZ I        1624 53.07        14.3 0.09            106            292 299 
 APAC HZ EP       1624 28.70                              99    0.33 6  380 309 
 APAC HE ES       1625  8.12                              99    0.06 6  380 309 
 APAC HZ I        1625 11.30        20.5 0.36            101            380 309 
 SJC  HZ EP       1624 37.33                              97            480 343 
 SJC  HE ES       1625 25.16                              97            480 343 
 SJC  HZ I        1625 29.70         4.0 0.38             97            480 343 
                                                                                
