 2012 1024 1625 13.3 L   6.791 -73.144151.9  RSN  7 0.4 2.5LRSN                1
 GAP=137        0.62       3.4     5.3  7.5  0.6252E+00  0.3647E+01 -0.2286E+00E
 Epicentro: LOS SANTOS - SANTANDER                                             3
 ACTION:UPD 12-11-22 17:05 OP:ep   STATUS:               ID:20121024162513 L   I
 2012-10-24-1620-00M.COL___236                                                 6
 STAT SP IPHASW D HRMM SECON CODA AMPLIT PERI AZIMU VELO AIN AR TRES W  DIS CAZ7
 BAR2 SZ EP   1   1625 33.66                             171    0.04 8 22.4 191 
 BAR2 SZ ES   2   1625 49.05                             171   -0.45 5 22.4 191 
 BRR  HZ EP   1   1625 35.55                             153    0.43 8 71.8 299 
 BRR  HN ES   2   1625 52.91                             153    0.75 5 71.8 299 
 BRR  HN I        1625 55.35        53.1 0.17                          71.8 299 
 PAM  SZ EP   1   1625 36.44                             152    0.25 8 78.1  39 
 PAM  SN I        1625 37.42        34.6 0.22                          78.1  39 
 PAM  SN ES   2   1625 53.66                             152   -0.40 5 78.1  39 
 RUS  HZ EP   1   1625 37.64                             145    0.08 8 99.6 176 
 RUS  HE ES   2   1625 56.41                             145   -0.10 5 99.6 176 
 RUS  HE I        1625 57.76        28.0 0.19                          99.6 176 
 OCA  HZ EP   1   1625 41.75                             131   -0.41 7  161 353 
 OCA  HN ES       1626  4.61                             131   -0.0810  161 353 
 OCA  HN I        1626  7.67        75.9 0.38                           161 353 
 ZAR  HN ES   2   1626 11.79                             124   -0.05 5  205 292 
 HEL  HN ES   2   1626 24.50                             116   -0.90 4  272 256 
                                                                                
