 2010  924 1256  8.8 L   6.789 -73.072141.1  RSN 12 0.5 2.5LRSN                1
 GAP=167        1.16       4.3     8.4  7.1 -0.9919E+01  0.1447E+02 -0.1034E+01E
 Epicentro: LOS SANTOS - SANTANDER                                             3
 ACTION:UP  11-02-18 11:05 OP:tino STATUS:               ID:20100924125608 L   I
 2010-09-24-1253-45S.COL___119                                                 6
 STAT SP IPHASW D HRMM SECON CODA AMPLIT PERI AZIMU VELO SNR AR TRES W  DIS CAZ7
 BAR2 SZ IP       1256 28.10                             169     0.210   25 209 
 BAR2 SZ ES       1256 42.46                             169    -0.410   25 209 
 BAR2 SZ I        1256 43.83       112.6 0.09                            25 209 
 BRR  HZ IP     D 1256 30.01                             149     0.110   79 297 
 BRR  HN ES   1   1256 47.02                             149     0.6 7   79 297 
 BRR  HZ I        1256 48.12       111.7 0.17                            79 297 
 RUS  HZ EP       1256 32.07                             143     0.110   99 181 
 RUS  HN ES   1   1256 49.93                             143    -0.2 7   99 181 
 RUS  HZ I        1256 52.12        45.6 0.36                            99 181 
 GUE  SZ EP       1256 32.23                             138    -0.910  116   8 
 GRA  SZ IP       1256 34.12                             136     0.510  125  14 
 GRA  SZ ES   1   1256 53.65                             136     0.8 7  125  14 
 GRA  SZ I        1256 54.93        38.8 0.28                           125  14 
 OCA  SZ EP       1256 36.76                             128    -0.2 9  163 350 
 OCA  SZ ES   1   1256 58.35                             128    -0.6 7  163 350 
 OCA  SZ I        1257  6.22        45.7 0.46                           163 350 
 NOR  SZ EP   3   1256 44.48                             117    -0.5 2  241 236 
 NOR  SE ES   2   1257 12.54                             117    -0.6 4  241 236 
 CHI  HZ EP       1256 46.67                             116     0.3 8  250 197 
 CHI  HE ES   2   1257 15.46                             116    -0.2 4  250 197 
 CHI  HZ I        1257 19.07        11.6 0.81                           250 197 
 HEL  HZ EP       1256 50.21                             113     0.6 7  280 256 
 HEL  HZ I        1257 27.40        21.8 0.24                           280 256 
 RREF HZ EP   1   1256 55.73                             109     0.3 5  327 230 
 RREF HZ I        1257 36.00        14.6 0.28                           327 230 
 TOL  SZ EP   1   1256 57.77                             108     0.3 5  348 226 
 DBB  SZ EP       1256 56.49                             108    -0.6 6  348 274 
                                                                                
