 2012 1124 1824 44.6 L   6.787 -73.171138.9  RSN  6 0.2 2.1LRSN                1
 GAP=134        0.57       2.8     2.8  4.0 -0.7188E+00  0.3608E+01 -0.1181E+00E
 Epicentro: LOS SANTOS - SANTANDER                                             3
 ACTION:UPD 12-12-05 15:35 OP:}ep  STATUS:               ID:20121124182444 L   I
 2012-11-24-1820-00M.COL___234                                                 6
 STAT SP IPHASW D HRMM SECON CODA AMPLIT PERI AZIMU VELO AIN AR TRES W  DIS CAZ7
 BAR2 SZ EP       1825  3.31                             171   -0.0310 21.6 183 
 BAR2 SZ ES       1825 17.69                             171   -0.2910 21.6 183 
 BAR2 SZ I        1825 19.68        20.4 0.18                          21.6 183 
 GIR2 SZ EP       1825  3.35                             166   -0.1110 32.3 356 
 GIR2 SZ ES       1825 18.58                             166    0.3910 32.3 356 
 PAM  SZ EP       1825  6.19                             149   -0.0510 80.3  40 
 PAM  SZ I        1825  6.46        49.5 0.20                          80.3  40 
 PAM  SN ES       1825 23.00                             149   -0.1410 80.3  40 
 RUS  HZ EP       1825  7.85                             143    0.2810 99.4 174 
 RUS  HN ES       1825 25.58                             143    0.0810 99.4 174 
 RUS  HN I        1825 27.47        13.4 0.31                          99.4 174 
 PTB  HZ EP       1825 10.43                             131   -0.28 9  145 259 
 PTB  HE ES       1825 30.98                             131   -0.11 9  145 259 
 PTB  HE I        1825 34.13        16.0 0.34                           145 259 
 ZAR  HZ EP   1   1825 16.56                             121    0.20 6  202 293 
 ZAR  HE ES   1   1825 41.43                             121    0.27 6  202 293 
 ZAR  HZ I        1825 47.05         8.2 0.26                           202 293 
                                                                                
