 2012  624 1937 11.3 L   7.234 -73.419111.8  RSN  6 0.5 1.5LRSN                1
 GAP=161        0.92       6.7     4.3  8.6  0.2629E+01  0.8149E+01 -0.7471E+00E
 Epicentro: SABANA DE TORRES - SANTANDER                                       3
 ACTION:UPD 12-08-06 17:52 OP:ep   STATUS:               ID:20120624193711 L   I
 2012-06-24-1930-00M.COL___199                                                 6
 STAT SP IPHASW D HRMM SECON CODA AMPLIT PERI AZIMU VELO AIN AR TRES W  DIS CAZ7
 BRR  HN ES   1   1937 38.93                             161   -0.13 7 35.3 247 
 BAR2 SZ EP   1   1937 30.11                             143    0.57 7 75.6 160 
 BAR2 SZ I        1937 30.32        12.7 0.10                          75.6 160 
 BAR2 SZ ES   1   1937 43.89                             143    0.11 7 75.6 160 
 PAM  SZ EP   1   1937 30.31                             142    0.08 7 80.2  82 
 PAM  SN ES   1   1937 44.73                             142   -0.28 7 80.2  82 
 PTB  HZ EP   1   1937 34.79                             125    0.05 7  138 236 
 PTB  HN ES   1   1937 52.48                             125   -0.56 7  138 236 
 PTB  HZ I        1937 57.62         3.3 0.30                           138 236 
 RUS  HZ EP   1   1937 36.96                             122    0.08 7  153 166 
 RUS  HN ES   2   1937 56.82                             122   -0.02 5  153 166 
 ZAR  HZ EP   1   1937 36.19                             120   -0.95 7  161 280 
 ZAR  HN ES   1   1937 58.28                             120    0.98 7  161 280 
 ZAR  HZ I        1938  0.28         4.8 0.27                           161 280 
                                                                                
