 2013  124 1224 26.5 L   6.762 -73.212149.0  RSN  4 0.3 1.2LRSN                1
 GAP=226        0.63       6.7     6.6  7.7  0.2161E+02 -0.3299E+01 -0.8375E+00E
 Epicentro: VILLANUEVA - SANTANDER                                             3
 ACTION:UPD 13-02-15 09:16 OP:ep   STATUS:               ID:20130124122426 L   I
 2013-01-24-1220-00M.COL___241                                                 6
 STAT SP IPHASW D HRMM SECON CODA AMPLIT PERI AZIMU VELO AIN AR TRES W  DIS CAZ7
 BAR2 SZ EP   1   1224 46.28                             172   -0.20 7 19.1 170 
 BAR2 SZ ES   1   1225  1.58                             172   -0.46 7 19.1 170 
 BAR2 SZ I        1225  2.27         5.8 0.40            169           19.1 170 
 BRR  HZ EP   1   1224 47.77                             154   -0.05 7 67.1 305 
 BRR  HN ES   1   1225  4.89                             154    0.47 7 67.1 305 
 RUS  HZ EP   1   1224 50.52                             145    0.15 7 97.2 172 
 RUS  HN ES   1   1225  9.25                             145    0.29 7 97.2 172 
 RUS  HZ I        1225 11.00         1.5 0.22            144           97.2 172 
 PTB  HE ES   1   1225 13.54                             134   -0.22 7  140 260 
                                                                                
