 2010  724 1720  7.8 L   6.752 -73.111145.1  RSN  4 0.4 1.7LRSN                1
 GAP=189        0.83      10.1    12.0 10.4 -0.1066E+02 -0.2355E+02 -0.2649E+02E
 Epicentro: LOS SANTOS - SANTANDER                                             3
 ACTION:UPD 10-12-01 15:19 OP:pat  STATUS:               ID:20100724172007 L   I
 2010-07-24-1716-17S.COL___123                                                 6
 STAT SP IPHASW D HRMM SECON CODA AMPLIT PERI AZIMU VELO AIN AR TRES W  DIS CAZ7
 BAR2 SZ EP   1   1720 26.93                             173    -0.3 7   19 204 
 BAR2 SZ ES   1   1720 42.69                             173     0.2 7   19 204 
 BAR2 SZ I        1720 43.21         9.8 0.25                            19 204 
 BRR  HZ IP     D 1720 28.95                             151    -0.310   77 301 
 BRR  HN ES   1   1720 46.11                             151     0.2 7   77 301 
 BRR  HZ I        1720 48.64        17.2 0.52                            77 301 
 GUE  SZ EP   2   1720 33.62                             138     0.8 5  121  10 
 GRA  SZ EP   2   1720 33.82                             136     0.5 5  130  15 
 GRA  SZ ES   2   1720 52.66                             136    -0.5 5  130  15 
 GRA  SZ I        1720 53.51         4.1 0.29                           130  15 
                                                                                
