 2013  624 1655 21.4 L   6.799 -73.121149.5  RSN  9 0.5 2.2LRSN                1
 GAP=203        0.99       4.2     6.5  7.0  0.4750E+01  0.8417E+01 -0.1490E+01E
 Epicentro: LOS SANTOS - SANTANDER                                             3
 ACTION:UPD 14-01-08 09:56 OP:ep   STATUS:               ID:20130624165521 L   I
 OLDACT:REG 13-06-24 18:00 OP:carl STATUS:               ID:20130624164959     3
 2013-06-24-1649-59M.COL___267                                                 6
 STAT SP IPHASW D HRMM SECON CODA AMPLIT PERI AZIMU VELO AIN AR TRES W  DIS CAZ7
 BAR2 SZ EP       1655 41.68                             171    0.1810 23.9 197 
 BAR2 SZ ES   1   1655 56.13                             171   -1.04 7 23.9 197 
 BAR2 SZ I        1656  1.82        16.7 0.24            167           23.9 197 
 BRR  HZ EP       1655 43.59                             152    0.4910 73.7 298 
 BRR  HN ES   1   1656  1.05                             152    1.03 7 73.7 298 
 BRR  HN I        1656  1.98        67.0 0.22            151           73.7 298 
 RUS  HZ EP       1655 45.61                             145    0.0910  100 178 
 RUS  HN ES   1   1656  4.35                             145    0.03 7  100 178 
 RUS  HZ I        1656  7.29         6.7 0.24            146            100 178 
 PTB  HZ EP   1   1655 48.50                             132   -0.43 7  150 259 
 PTB  HE ES   1   1656 10.46                             132    0.07 7  150 259 
 PTB  HZ I        1656 16.77        22.7 0.40            132            150 259 
 ZAR  HZ EP       1655 54.22                             123   -0.15 8  207 292 
 ZAR  HE ES   2   1656 20.30                             123    0.23 4  207 292 
 ZAR  HZ I        1656 25.88        14.3 0.64            124            207 292 
 NOR  HZ EP   1   1655 57.35                             119   -0.24 6  237 235 
 NOR  HN ES   1   1656 24.80                             119   -1.01 6  237 235 
 NOR  HZ I        1656 29.31        12.5 0.24            120            237 235 
 SML  HZ EP       1655 58.03                             118   -0.35 8  245 335 
 SML  HE ES   1   1656 26.67                             118   -0.55 6  245 335 
 SML  HZ I        1656 31.21        27.5 0.20            121            245 335 
 CHI  HZ EP   1   1655 59.32                             118   -0.07 6  249 196 
 CHI  HN ES   1   1656 29.19                             118    0.18 6  249 196 
 CHI  HZ I        1656 38.44         3.7 0.76            120            249 196 
 GUY2CHZ EP       1656  5.92                             113    0.48 7  303 235 
 GUY2CHN ES   2   1656 40.28                             113    0.50 4  303 235 
 GUY2CHZ I        1656 48.45        10.1 0.78                           303 235 
                                                                                
