 2015  824 1248  4.0 L   7.380 -73.315100.0  RSN 10 0.3 2.2LRSN                1
 GAP=164        0.69       1.9     3.0  4.0  0.5806E+00  0.7068E+00 -0.6890E+00E
 Epicentro: EL PLAYON - SANTANDER                                              3
 ACTION:UPD 15-09-15 23:04 OP:cam  STATUS:               ID:20150824124804 L   I
 OLDACT:REG 15-08-24 22:37 OP:ak   STATUS:               ID:20150824123750     3
 2015-08-24-1237-50M.COL___334                                                 6
 STAT SP IPHASW D HRMM SECON CODA AMPLIT PERI AZIMU VELO AIN AR TRES W  DIS CAZ7
 BRR  HZ IP     D 1248 18.89                             150   -0.2710 53.2 235 
 BRR  HN ES       1248 31.15                             150    0.1410 53.2 235 
 BRR  HZ I        1248 31.75        21.3 0.14            148           53.2 235 
 BAR2 EZ EP       1248 22.20                             135    0.0710 88.3 170 
 BAR2 EZ ES       1248 36.40                             135    0.1010 88.3 170 
 BAR2 EZ I        1248 37.63        90.7 0.34            137           88.3 170 
 RUS  HZ EP       1248 30.29                             116   -0.01 9  166 171 
 RUS  HN ES   4   1248 49.45                             116   -1.39 0  166 171 
 RUS  HZ I        1248 51.55         9.9 0.38            117            166 171 
 ZAR  HZ EP       1248 29.74                             115   -0.41 9  171 274 
 ZAR  HN ES       1248 50.86                             115    0.27 9  171 274 
 ZAR  HZ I        1248 56.15        22.2 0.29            114            171 274 
 SML  HZ EP       1248 30.69                             114   -0.24 9  178 332 
 SML  HN ES       1248 51.72                             114   -0.24 9  178 332 
 SML  HZ I        1248 57.14        41.4 0.09            114            178 332 
 HEL  HZ EP   2   1248 43.17                             103    0.19 4  278 242 
 HEL  HN ES       1249 14.05                             103    0.62 7  278 242 
 CHI  HZ EP       1248 46.40                             101   -0.20 7  308 189 
 CHI  HN ES       1249 19.78                             101   -0.08 7  308 189 
 GUY2CHZ EP       1248 49.07                             100   -0.17 7  329 224 
 GUY2CHN ES       1249 23.89                             100   -0.68 7  329 224 
 GUY2CHZ I        1249 28.91         6.3 0.64                           329 224 
 TOL  SZ EP       1248 55.74                              97    0.46 6  381 216 
 TOL  SN ES       1249 35.51                              97    0.19 6  381 216 
 TOL  SZ I        1249 41.54         4.6 0.45             98            381 216 
 CRJC HZ EP       1248 58.59                              95    0.59 6  405   7 
 CRJC HN ES       1249 40.74                              95    0.58 6  405   7 
                                                                                
