 2012  324 1615 15.9 L   6.789 -73.126143.0  RSN  7 0.3 1.8LRSN                1
 GAP=140        0.83       5.1     4.8  7.2  0.3644E+01  0.5425E+01  0.7889E+01E
 ACTION:UP  12-03-31 23:22 OP:EP   STATUS:               ID:20120324161515 L   I
 2012-03-24-1610-00M.COL___196                                                 6
 STAT SP IPHASW D HRMM SECON CODA AMPLIT PERI AZIMU VELO SNR AR TRES W  DIS CAZ7
 BAR2 SZ EP       1615 35.36                             171     0.210   23 196 
 BAR2 SZ ES   1   1615 50.03                             171    -0.2 7   23 196 
 BAR2 SZ I        1615 51.82        15.1 0.13                            23 196 
 BRR  HZ EP   1   1615 37.18                             151     0.3 7   74 299 
 BRR  HZ I        1615 37.42        22.3 0.28                            74 299 
 BRR  HE ES   1   1615 53.92                             151     0.7 7   74 299 
 PAM  SZ EP   1   1615 37.75                             150     0.0 7   77  38 
 PAM  SN ES   1   1615 54.43                             150    -0.4 7   77  38 
 RUS  HZ EP       1615 39.28                             144     0.010   99 177 
 RUS  HZ I        1615 40.53         4.7 0.21                            99 177 
 RUS  HE ES   1   1615 57.49                             144     0.0 7   99 177 
 PTB  HZ EP   1   1615 42.22                             131    -0.6 7  150 259 
 PTB  HE ES   1   1616  3.41                             131    -0.4 7  150 259 
 PTB  HZ I        1616 10.70         6.5 0.22                           150 259 
 ZAR  HN ES   1   1616 13.68                             121    -0.1 6  207 292 
 ZAR  HZ I        1616 18.64         8.3 0.43                           207 292 
 CHI  HZ EP   1   1615 53.64                             117     0.3 6  248 196 
 CHI  HZ I        1616 29.05         3.5 0.38                           248 196 
                                                                                
