 2010  324 1631 21.7 L   6.869 -72.894146.3  RSN  5 0.4 1.7LRSN                1
 GAP=265        0.67       7.4    15.3  8.6  0.4931E+02 -0.1322E+02  0.1262E+02E
 Epicentro: GUACA - SANTANDER                                                  3
 ACTION:UP  10-08-24 09:55 OP:vdl  STATUS:               ID:20100324163121 L   I
 2010-03-24-1630-03S.COL___098                                                 6
 STAT SP IPHASW D HRMM SECON CODA AMPLIT PERI AZIMU VELO SNR AR TRES W  DIS CAZ7
 BAR2 SZ EP   1   1631 42.53                             163     0.5 7   44 226 
 BAR2 SZ ES   2   1631 58.07                             163     0.2 5   44 226 
 BRR  HZ EP   1   1631 44.53                             146     0.1 7   94 286 
 BRR  HN ES   2   1632  1.68                             146    -0.4 5   94 286 
 RUS  HZ EP   1   1631 45.77                             142    -0.5 7  110 191 
 RUS  HE ES   2   1632  5.09                             142    -0.3 5  110 191 
 RUS  HZ I        1632  7.58         5.1 0.35                           110 191 
 CHI  HZ EP   1   1632  1.22                             116     0.0 6  264 201 
 CHI  HN ES   2   1632 32.54                             116     0.6 4  264 201 
 CHI  HZ I        1632 33.66         2.9 0.46                           264 201 
 PRA  HZ EP   1   1632 17.40                             106    -0.3 4  413 212 
 PRA  HZ I        1632 45.37         2.1 0.47                           413 212 
                                                                                
