 2014  824 1928  5.9 L   6.748 -73.161144.1  RSN 11 0.5 1.9LRSN                1
 GAP=137        1.15       3.7     4.7  6.0  0.5910E-01  0.8199E+01 -0.4077E-01E
 Epicentro: LOS SANTOS - SANTANDER                                             3
 ACTION:UPD 14-09-15 21:52 OP:nd   STATUS:               ID:20140824192805 L   I
 OLDACT:UP  14-08-24 23:41 OP:cam  STATUS:               ID:20140824192000     3
 OLDACT:REG 14-08-24 20:52 OP:cam  STATUS:               ID:20140824192000     3
 2014-08-24-1920-00M.COL___288                                                 6
 STAT SP IPHASW D HRMM SECON CODA AMPLIT PERI AZIMU VELO AIN AR TRES W  DIS CAZ7
 BAR2 SZ EP       1928 25.22                             173   -0.0410 17.4 188 
 BAR2 SZ ES       1928 40.76                             173    0.4210 17.4 188 
 BAR2 SZ I        1928 42.24        21.8 0.44            173           17.4 188 
 BRR  HZ EP       1928 27.27                             152    0.2810 72.7 303 
 BRR  HN ES       1928 44.13                             152    0.7110 72.7 303 
 BRR  HZ I        1928 48.59        15.7 0.40            150           72.7 303 
 PAM  SZ EP       1928 28.48                             149    0.1610 82.9  38 
 PAM  SN ES       1928 45.46                             149   -0.3110 82.9  38 
 PAM  SZ I        1928 48.50         8.7 0.40            152           82.9  38 
 RUS  HZ EP       1928 28.96                             145   -0.1710 95.0 175 
 RUS  HN ES       1928 47.12                             145   -0.1010 95.0 175 
 RUS  HZ I        1928 48.66         4.5 0.24            149           95.0 175 
 PTB  HZ EP       1928 31.95                             132   -0.58 9  145 261 
 PTB  HN ES       1928 52.64                             132   -0.63 9  145 261 
 PTB  HZ I        1928 56.97        11.8 0.10            133            145 261 
 SPBC HZ EP       1928 34.02                             130    0.23 9  158 220 
 SPBC HN ES       1928 54.84                             130   -0.68 9  158 220 
 SPBC HZ I        1928 58.87        12.2 0.16            132            158 220 
 ZAR  HZ EP       1928 38.74                             122    0.39 9  205 294 
 ZAR  HN ES       1929  3.83                             122    0.20 9  205 294 
 ZAR  HZ I        1929 10.29        12.9 0.30            123            205 294 
 CHI  HZ EP       1928 42.99                             117    0.09 8  243 195 
 SML  HZ EP       1928 42.41                             117   -0.55 8  248 336 
 SML  HN ES       1929 11.14                             117   -0.70 8  248 336 
 SML  HZ I        1929 17.11        10.5 0.24            118            248 336 
 HEL  HZ EP       1928 46.81                             115    1.07 8  269 257 
 GUY2CHZ EP       1928 49.25                             112    0.30 7  297 235 
                                                                                
