 2011 1224 1802 42.7 L   6.764 -73.142143.7  RSN  7 0.3 2.0LRSN                1
 GAP=139        0.65       4.1     3.8  5.5  0.9001E+00  0.4459E+01  0.1479E+01E
 Epicentro: LOS SANTOS - SANTANDER                                             3
 ACTION:UPD 12-07-13 16:18 OP:ep   STATUS:               ID:20111224180242 L   I
 2011-12-24-1800-00M.COL___189                                                 6
 STAT SP IPHASW D HRMM SECON CODA AMPLIT PERI AZIMU VELO AIN AR TRES W  DIS CAZ7
 BAR2 SZ EP   1   18 3  1.97                             172   -0.01 7 19.5 193 
 BAR2 SZ ES   1   18 3 16.77                             172   -0.27 7 19.5 193 
 BAR2 SZ I        18 3 18.38        18.3 0.34                          19.5 193 
 GIR2 SZ EP   1   18 3  2.11                             165   -0.10 7 35.3 351 
 GIR2 SZ ES   1   18 3 17.42                             165   -0.03 7 35.3 351 
 BRR  HZ EP       18 3  3.89                             151    0.1610 73.5 301 
 BRR  HZ I        18 3  4.25        21.9 0.10                          73.5 301 
 BRR  HE ES   1   18 3 20.75                             151    0.59 7 73.5 301 
 PAM  SZ EP   1   18 3  5.01                             149    0.17 7 80.3  37 
 PAM  SZ I        18 3  5.14        14.9 0.16                          80.3  37 
 PAM  SN ES   1   18 3 21.73                             149   -0.41 7 80.3  37 
 RUS  HZ EP   1   18 3  6.07                             144    0.14 7 96.5 176 
 RUS  HN ES   1   18 3 24.37                             144    0.30 7 96.5 176 
 PTB  HZ EP   1   18 3  9.02                             132   -0.42 7  147 260 
 PTB  HN ES   1   18 3 29.78                             132   -0.54 7  147 260 
 ZAR  HN ES   1   18 3 40.78                             122    0.24 6  206 293 
 ZAR  HZ I        18 3 46.01        10.7 0.28                           206 293 
                                                                                
