 2014  824 1226  4.9 L   6.806 -73.154149.7  RSN 10 0.4 1.9LRSN                1
 GAP=135        0.95       3.0     3.8  5.1 -0.6949E+00  0.4901E+01 -0.1524E+00E
 Epicentro: LOS SANTOS - SANTANDER                                             3
 ACTION:UPD 14-09-15 21:52 OP:nd   STATUS:               ID:20140824122604 L   I
 OLDACT:REG 14-08-24 20:37 OP:cam  STATUS:               ID:20140824122000     3
 2014-08-24-1220-00M.COL___288                                                 6
 STAT SP IPHASW D HRMM SECON CODA AMPLIT PERI AZIMU VELO AIN AR TRES W  DIS CAZ7
 BAR2 SZ EP     C 1226 25.13                             171    0.0910 23.9 188 
 BAR2 SZ ES       1226 40.46                             171   -0.2610 23.9 188 
 BAR2 SZ I        1226 42.79        22.4 0.28            169           23.9 188 
 BRR  HZ EP       1226 26.98                             154    0.5510 70.1 298 
 BRR  HN ES       1226 43.75                             154    0.5410 70.1 298 
 BRR  HZ I        1226 47.95         9.3 0.50            150           70.1 298 
 PAM  SZ EP     C 1226 27.94                             151    0.3810 77.4  40 
 PAM  SN ES       1226 45.23                             151    0.0110 77.4  40 
 PAM  SZ I        1226 47.24         9.4 0.48            156           77.4  40 
 RUS  HZ EP       1226 29.08                             144   -0.0410  101 176 
 RUS  HE ES       1226 47.25                             144   -0.7410  101 176 
 RUS  HZ I        1226 48.90         5.0 0.40            148            101 176 
 PTB  HZ EP       1226 32.12                             133   -0.02 9  147 258 
 PTB  HN ES       1226 53.10                             133   -0.28 9  147 258 
 PTB  HZ I        1227  0.47         9.1 0.34            133            147 258 
 SPBC HZ EP       1226 34.06                             130    0.34 9  163 219 
 SPBC HN ES       1226 56.63                             130    0.44 9  163 219 
 SPBC HZ I        1227  1.16        11.9 0.40            131            163 219 
 ZAR  HZ EP       1226 36.86                             123   -0.65 9  203 292 
 ZAR  HE ES       1227  2.63                             123   -0.30 9  203 292 
 ZAR  HZ I        1227 13.99         6.5 0.36            124            203 292 
 NOR  HZ EP       1226 40.72                             119   -0.13 8  234 234 
 NOR  HN ES       1227  9.24                             119    0.37 8  234 234 
 NOR  HZ I        1227 12.93         5.1 0.26            121            234 234 
 SML  HZ EP       1226 41.43                             118   -0.23 8  243 335 
 SML  HN ES       1227 10.02                             118   -0.29 8  243 335 
 SML  HZ I        1227 13.40        13.8 0.24            120            243 335 
 CHI  HZ EP       1226 42.79                             118   -0.10 8  249 195 
 GUY2CHZ EP   4   1226 50.44                             113    1.77 0  301 235 
                                                                                
