 2010  224 1019 13.0 L   6.834 -72.990140.0  RSN  5 0.4 1.9LRSN                1
 GAP=199        0.76       5.4    15.5 10.3  0.4417E+02 -0.6642E+02 -0.2713E+02E
 Epicentro: CEPITA - SANTANDER                                                 3
 ACTION:UP  10-08-24 09:50 OP:vdl  STATUS:               ID:20100224101913 L   I
 2010-02-24-1018-40S.COL___094                                                 6
 STAT SP IPHASW D HRMM SECON CODA AMPLIT PERI AZIMU VELO SNR AR TRES W  DIS CAZ7
 BAR2 SZ EP       1019 32.48                             167     0.210   34 219 
 BAR2 SZ ES   2   1019 47.51                             167     0.3 5   34 219 
 GIR2 SZ EP       1019 32.29                             166     0.110   35 320 
 GIR2 SZ ES   3   1019 45.15                             166    -1.9 2   35 320 
 BRR  HZ EP       1019 34.23                             148    -0.210   85 291 
 BRR  HZ I        1019 34.59        21.5 0.16                            85 291 
 BRR  HE ES   2   1019 51.48                             148     0.3 5   85 291 
 RUS  BZ EP       1019 36.45                             142    -0.110  105 186 
 RUS  BN ES   1   1019 54.87                             142     0.0 7  105 186 
 RUS  BZ I        1019 56.50         4.9 0.52                           105 186 
 OCA  SZ EP       1019 40.57                             129    -0.3 9  160 347 
 OCA  SZ ES   2   1020  3.32                             129     0.8 5  160 347 
 OCA  SZ I        1020  6.14        22.0 0.19                           160 347 
                                                                                
