 2014  824 1321 31.8 L   6.797 -73.171143.7  RSN 16 0.4 2.5LRSN                1
 GAP=133        1.06       3.0     3.9  5.2 -0.9781E-01  0.6885E+01  0.9875E+00E
 Epicentro: LOS SANTOS - SANTANDER                                             3
 ACTION:UPD 14-09-15 21:52 OP:nd   STATUS:               ID:20140824132131 L   I
 OLDACT:UP  14-08-24 21:48 OP:cam  STATUS:               ID:20140824132000     3
 OLDACT:UP  14-08-24 21:43 OP:cam  STATUS:               ID:20140824132000     3
 OLDACT:UP  14-08-24 21:43 OP:cam  STATUS:               ID:20140824132000     3
 OLDACT:UP  14-08-24 21:42 OP:cam  STATUS:               ID:20140824132000     3
 OLDACT:UP  14-08-24 21:41 OP:cam  STATUS:               ID:20140824132000     3
 OLDACT:REG 14-08-24 20:41 OP:cam  STATUS:               ID:20140824132000     3
 2014-08-24-1320-00M.COL___288                                                 6
 STAT SP IPHASW D HRMM SECON CODA AMPLIT PERI AZIMU VELO AIN AR TRES W  DIS CAZ7
 BAR2 SZ EP     D 1321 51.22                             171    0.0510 22.7 183 
 BAR2 SZ ES       1322  6.43                             171    0.1510 22.7 183 
 BAR2 SZ I        1322  7.55        79.8 0.16            171           22.7 183 
 BRR  HZ EP       1321 52.63                             153    0.0410 68.9 300 
 BRR  HN ES       1322  9.65                             153    0.8310 68.9 300 
 BRR  HZ I        1322 13.45        80.4 0.38            148           68.9 300 
 PAM  SZ EP       1321 53.96                             150    0.0410 79.4  41 
 PAM  SN ES       1322 11.09                             150   -0.0810 79.4  41 
 PAM  SZ I        1322 13.38        36.6 0.38            147           79.4  41 
 RUS  HZ EP       1321 55.31                             143   -0.0310  101 174 
 RUS  HE ES       1322 13.25                             143   -0.4610  101 174 
 RUS  HZ I        1322 15.25        24.1 0.26            141            101 174 
 PTB  HZ EP       1321 58.09                             132   -0.25 9  145 259 
 PTB  HN ES       1322 18.18                             132   -0.87 9  145 259 
 PTB  HZ I        1322 20.96        47.0 0.64            128            145 259 
 SPBC HZ EP       1322  0.27                             129    0.32 9  161 218 
 SPBC HN ES       1322 21.70                             129   -0.21 9  161 218 
 SPBC HZ I        1322 28.16        41.2 0.22            125            161 218 
 ZAR  HZ EP       1322  4.16                             122    0.31 9  202 293 
 ZAR  HN ES       1322 29.05                             122    0.20 9  202 293 
 ZAR  HZ I        1322 34.68        52.4 0.58            118            202 293 
 NOR  HZ EP       1322  7.59                             118    0.45 8  232 234 
 NOR  HN ES       1322 35.56                             118    0.85 8  232 234 
 NOR  HZ I        1322 41.26        24.3 0.16            115            232 234 
 SML  HZ EP       1322  7.61                             117   -0.60 8  243 336 
 SML  HN ES       1322 36.33                             117   -0.28 8  243 336 
 SML  HZ I        1322 39.42        51.5 0.10            113            243 336 
 CHI  HZ EP       1322  9.52                             117    0.25 8  248 195 
 CHI  HN ES       1322 37.90                             117   -0.60 8  248 195 
 CHI  HZ I        1322 46.08        15.6 0.48            114            248 195 
 ROSC BZ EP   4   1322 11.15                             116    1.53 0  251 211 
 HEL  HZ EP       1322 11.43                             115   -0.16 8  269 256 
 HEL  HN ES   4   1322 41.09                             115   -1.55 0  269 256 
 HEL  HZ I        1322 50.25        16.6 0.54            111            269 256 
 URE  HZ EP   4   1322 16.03                             113    3.54 0  281 292 
 URE  HN ES   4   1322 42.14                             113   -2.09 0  281 292 
 URE  HZ I        1322 46.70        25.0 0.12            110            281 292 
 GUY2CHZ EP       1322 15.81                             112    0.78 7  299 235 
 GUY2CHN ES   4   1322 50.56                             112    1.80 0  299 235 
 GUY2CHZ I        1322 59.16         9.5 0.24                           299 235 
 DBB  SZ EP       1322 18.61                             109   -0.26 7  337 274 
 DBB  SZ ES       1322 54.75                             109   -0.84 7  337 274 
 PRA  HZ EP       1322 25.26                             106    0.21 6  390 209 
 SJC  HZ EP   4   1322 25.13                             105   -2.01 0  408 327 
 SJC  HZ I        1323 10.85         6.1 0.62            103            408 327 
                                                                                
