 2017 1124 1101 41.7 L   6.798 -73.149133.2  RSN  8 0.3 1.6LRSN                1
 GAP=136        0.87       3.6     3.8  6.9 -0.3170E+01  0.1040E+02  0.8270E+00E
 Epicentro: LOS SANTOS - SANTANDER                                             3
 ACTION:UPD 17-12-12 19:59 OP:rebc STATUS:               ID:20171124110141 L   I
 OLDACT:DUP 17-11-24 22:38 OP:dhb  STATUS:               ID:20171124105743d    3
 OLDACT:REG 17-11-24 20:05 OP:edw  STATUS:               ID:20171124105742     3
 2017-11-24-1058-00M.COL___483                                                 6
 STAT SP IPHASW D HRMM SECON CODA AMPLIT PERI AZIMU VELO AIN AR TRES W  DIS CAZ7
 BAR2 EZ EP       11 1 59.72                             170   -0.0910 23.1 189 
 BAR2 EZ ES       11 2 13.48                             170   -0.4610 23.1 189 
 BAR2 EZ I        11 2 16.74        23.9 0.26            167           23.1 189 
 PAM  EZ IP     D 11 2  2.79                             148    0.1810 77.8  40 
 PAM  EE ES       11 2 19.21                             148    0.2810 77.8  40 
 PAM  EZ I        11 2 21.21         4.6 0.20            153           77.8  40 
 RUS  HZ EP       11 2  3.81                             141   -0.4110  100 176 
 RUS  HN ES       11 2 22.18                             141    0.3910  100 176 
 RUS  HZ I        11 2 23.74         6.8 0.22            143            100 176 
 PTB  HZ EP       11 2  7.15                             129   -0.48 9  147 259 
 PTB  HN ES       11 2 27.52                             129   -0.34 9  147 259 
 PTB  HZ I        11 2 33.61         3.0 0.26            128            147 259 
 SPBC HN ES       11 2 30.97                             126    0.28 9  163 219 
 SPBC HZ I        11 2 37.65         7.8 0.12            127            163 219 
 ZAR  HN ES       11 2 38.42                             119    0.42 9  204 292 
 ZAR  HZ I        11 2 45.88         6.1 0.30            120            204 292 
 NOR  HE ES       11 2 44.28                             116    0.31 8  234 234 
 NOR  HZ I        11 2 50.43         3.5 0.30            117            234 234 
 PRA  HE ES       11 3 16.40                             104    0.24 6  392 210 
 PRA  HZ I        11 3 23.02         1.2 0.42            106            392 210 
                                                                                
