 2011  624 1359 59.7 L   6.770 -73.088142.0  RSN  4 0.1 1.6LRSN                1
 GAP=194        0.36       4.5     5.3  4.8  0.5052E+00 -0.1230E+02 -0.5126E+01E
 Epicentro: LOS SANTOS - SANTANDER                                             3
 ACTION:UP  11-07-14 19:07 OP:ep   STATUS:               ID:20110624135959 L   I
 2011-06-24-1356-58S.COL___140                                                 6
 STAT SP IPHASW D HRMM SECON CODA AMPLIT PERI AZIMU VELO SNR AR TRES W  DIS CAZ7
 BAR2 SZ EP       14 0 18.76                             171    -0.110   22 208 
 BAR2 SZ I        14 0 19.17         8.4 0.03                            22 208 
 BAR2 SZ ES   2   14 0 33.69                             171    -0.1 5   22 208 
 BTL  SZ EP       14 0 19.05                             169     0.110   26 310 
 BTL  SZ ES   2   14 0 34.07                             169     0.2 5   26 310 
 BRR  HZ EP       14 0 20.76                             150    -0.110   78 298 
 BRR  HZ I        14 0 21.09        11.6 0.12                            78 298 
 BRR  HN ES   1   14 0 37.32                             150     0.0 7   78 298 
 GRA  SZ EP       14 0 24.78                             136     0.110  127  14 
 GRA  SZ ES   3   14 0 43.80                             136    -0.4 2  127  14 
 GRA  SZ I        14 0 45.48         4.6 0.37                           127  14 
                                                                                
