 2014  724 1041  8.5 L   6.829 -73.132148.1  RSN 24 0.5 2.8LRSN                1
 GAP= 71        1.06       2.4     3.0  5.5 -0.1067E+01  0.5575E+01  0.1363E+01E
 Epicentro: LOS SANTOS - SANTANDER                                             3
 ACTION:UPD 15-03-16 20:46 OP:nd   STATUS:               ID:20140724104108 L   I
 OLDACT:REG 14-07-24 20:57 OP:fm   STATUS:               ID:20140724103819     3
 2014-07-24-1038-19M.COL___263                                                 6
 STAT SP IPHASW D HRMM SECON CODA AMPLIT PERI AZIMU VELO AIN AR TRES W  DIS CAZ7
 BAR2 SZ EP       1041 28.44                             169   -0.0510 26.8 192 
 BAR2 SZ ES   1   1041 43.88                             169   -0.20 7 26.8 192 
 BAR2 SZ I        1041 44.81        79.6 0.34            165           26.8 192 
 PAM  SZ EP     C 1041 31.12                             152    0.3510 73.9  40 
 PAM  SN ES       1041 48.50                             152    0.3610 73.9  40 
 PAM  SZ I        1041 50.77        48.7 0.48            159           73.9  40 
 RUS  HZ EP       1041 32.62                             143   -0.1010  104 177 
 RUS  HN ES       1041 51.33                             143   -0.2710  104 177 
 RUS  HZ I        1041 53.86        35.1 0.40            144            104 177 
 PTB  HZ EP       1041 35.11                             132   -0.74 9  150 258 
 PTB  HN ES       1041 56.38                             132   -0.80 9  150 258 
 PTB  HZ I        1042  3.63        78.9 0.58            130            150 258 
 TAM  HZ EP       1041 36.55                             131    0.23 9  155 106 
 TAM  HE ES       1041 58.06                             131    0.04 9  155 106 
 OCA  HZ EP       1041 36.34                             131   -0.38 9  157 352 
 OCA  HN ES       1041 59.09                             131    0.37 9  157 352 
 OCA  HZ I        1042  2.48        84.1 0.18            133            157 352 
 SPBC HZ EP       1041 37.32                             129   -0.19 9  167 219 
 SPBC HN ES       1041 59.79                             129   -0.34 9  167 219 
 SPBC HZ I        1042  6.69        61.1 0.20            128            167 219 
 ZAR  HZ EP       1041 41.02                             123   -0.10 9  204 291 
 ZAR  HN ES       1042  7.02                             123    0.46 9  204 291 
 ZAR  HZ I        1042 12.83        72.7 0.24            123            204 291 
 NOR  HZ EP   4   1041 43.63                             119   -1.07 0  238 234 
 NOR  HE ES       1042 12.72                             119   -0.21 8  238 234 
 NOR  HZ I        1042 21.09        29.0 0.16            119            238 234 
 SML  HZ EP       1041 44.67                             118   -0.34 8  241 335 
 SML  HN ES       1042 13.81                             118    0.32 8  241 335 
 SML  HZ I        1042 15.70        66.1 0.32            120            241 335 
 CHI  HZ EP   1   1041 46.07                             117   -0.65 6  252 195 
 CHI  HN ES       1042 16.76                             117    0.24 8  252 195 
 CHI  HZ I        1042 25.57        23.3 0.32            118            252 195 
 ROSC BZ EP       1041 47.96                             117    0.82 8  256 211 
 ROSC BN ES       1042 18.03                             117    0.76 8  256 211 
 ROSC BZ I        1042 25.94        34.4 0.35            118            256 211 
 HEL  HZ EP   4   1041 50.36                             115    1.27 0  274 255 
 HEL  HE ES   4   1042 23.75                             115    3.01 0  274 255 
 HEL  HZ I        1042 28.17        25.5 0.52            115            274 255 
 URE  HE ES   4   1042 19.35                             114   -2.49 0  284 291 
 URE  HZ I    4   1042 33.89        32.6 0.46            115            284 291 
 GUY2CHZ EP       1041 53.06                             112    0.49 7  304 234 
 GUY2CHN ES       1042 27.39                             112    0.45 7  304 234 
 GUY2CHZ I        1042 37.20        30.9 0.50                           304 234 
 VIL  SZ EP   1   1041 50.35                             112   -2.08 5  307 192 
 VIL  SN ES   1   1042 26.97                             112    0.29 5  307 192 
 VIL  SZ I        1042 37.58        34.3 0.42            114            307 192 
 PTGC HZ EP   4   1041 51.48                             112   -1.27 0  311 159 
 PTGC HN ES   4   1042 24.75                             112   -2.51 0  311 159 
 PTGC HZ I        1042 25.99        33.8 0.42            114            311 159 
 RREF HZ EP   4   1041 56.18                             111    1.06 0  325 229 
 RREF HN ES   4   1042 35.45                             111    3.98 0  325 229 
 RREF HZ I        1042 37.99        26.2 0.28            112            325 229 
 CBOC HZ EP   1   1041 55.27                             110   -0.52 5  336 252 
 CBOC HN ES   4   1042 30.44                             110   -2.24 0  336 252 
 CBOC HZ I        1042 48.12         9.5 0.66            111            336 252 
 DBB  SZ EP       1041 55.95                             110   -0.27 7  341 274 
 DBB  SZ ES   1   1042 33.08                             110   -0.35 5  341 274 
 DBB  SZ I        1042 51.90        46.7 0.68            110            341 274 
 TOL  SZ EP       1041 58.17                             109    0.93 6  347 224 
 TOL  SN ES   1   1042 35.85                             109    0.60 5  347 224 
 TOL  SZ I        1042 41.66        43.8 0.58            110            347 224 
 ANIL HZ EP   4   1041 59.94                             109    1.15 0  361 224 
 ANIL HE ES       1042 38.45                             109    0.44 6  361 224 
 ANIL HZ I        1042 49.70        57.6 0.38            110            361 224 
 PRA  HZ EP       1042  2.35                             107   -0.17 6  396 210 
 PRA  HN ES       1042 44.48                             107   -0.18 6  396 210 
 PRA  HZ I        1042 48.21        25.0 0.38            108            396 210 
 ORTC HZ EP   4   1042  1.61                             106   -1.31 0  399 216 
 ORTC HN ES       1042 45.81                             106    0.46 6  399 216 
 ORTC HZ I        1042 49.17        14.3 0.62            108            399 216 
 SJC  HN ES   4   1042 43.02                             106   -4.12 0  407 327 
 MACC HE ES   4   1043  6.81                             102   -4.83 0  524 189 
 MACC HZ I        1043  9.12         4.2 0.52            103            524 189 
                                                                                
