 2013  324 1035 30.4 L   6.754 -73.135150.6  RSN 11 0.5 1.9LRSN                1
 GAP=140        1.19       3.8     5.4  9.5  0.1467E+01  0.1917E+02  0.3807E+01E
 Epicentro: LOS SANTOS - SANTANDER                                             3
 ACTION:UPD 13-04-09 14:04 OP:ep   STATUS:               ID:20130324103530 L   I
 2013-03-24-1030-00M.COL___245                                                 6
 STAT SP IPHASW D HRMM SECON CODA AMPLIT PERI AZIMU VELO AIN AR TRES W  DIS CAZ7
 BAR2 SZ EP       1035 50.85                             173    0.2810 18.7 196 
 BAR2 SZ I        1036 11.79        10.0 0.36            174           18.7 196 
 BRR  HZ EP       1035 52.68                             152    0.3610 74.8 301 
 BRR  HN ES       1036  9.85                             152    0.4710 74.8 301 
 BRR  HN I        1036 13.50        22.6 0.20            148           74.8 301 
 PAM  SN ES       1036 10.25                             151   -0.9910 80.6  37 
 PAM  SN I        1036 11.81         8.6 0.46            145           80.6  37 
 RUS  HZ EP       1035 54.52                             146    0.2010 95.5 177 
 RUS  HN ES       1036 13.34                             146    0.4010 95.5 177 
 RUS  HN I        1036 15.47         5.3 0.14            143           95.5 177 
 PTB  HZ EP       1035 57.60                             133   -0.24 9  148 261 
 PTB  HN ES       1036 18.89                             133   -0.31 9  148 261 
 PTB  HN I        1036 23.94        19.8 0.36            128            148 261 
 OCA  HN ES       1036 23.02                             130    0.66 9  165 353 
 OCA  HN I        1036 31.34        18.8 0.24            124            165 353 
 ZAR  HZ EP       1036  3.50                             123   -0.02 8  207 293 
 ZAR  HN ES       1036 28.73                             123   -0.59 8  207 293 
 ZAR  HN I        1036 34.73        11.2 0.40            118            207 293 
 CHI  HN ES       1036 36.52                             119   -0.64 8  244 196 
 CHI  HN I        1036 42.42         4.7 0.30            114            244 196 
 SML  HN ES       1036 36.89                             118   -0.21 8  249 336 
 SML  HN I        1036 52.76        12.0 0.10            113            249 336 
 HEL  HN ES       1036 42.81                             116    0.35 8  272 257 
 HEL  HN I        1036 51.67         2.5 0.46            112            272 257 
 PRA  HZ EP   4   1036 25.15                             107    1.46 0  388 210 
 PRA  HN ES   4   1037  6.77                             107    1.54 0  388 210 
 PRA  HN I        1037 11.41         2.1 0.76            104            388 210 
                                                                                
