 2017 1124 1945 57.4 L   6.864 -73.267143.0  RSN  4 0.3 1.0LRSN                1
 GAP=155        0.74       4.6     4.2  6.4 -0.5991E+01  0.7304E+01 -0.3047E+01E
 Epicentro: BETULIA - SANTANDER                                                3
 ACTION:UPD 17-12-12 19:59 OP:rebc STATUS:               ID:20171124194557 L   I
 OLDACT:REG 17-11-24 21:14 OP:edw  STATUS:               ID:20171124192751     3
 2017-11-24-1938-00M.COL___491                                                 6
 STAT SP IPHASW D HRMM SECON CODA AMPLIT PERI AZIMU VELO AIN AR TRES W  DIS CAZ7
 BAR2 EZ EP       1946 16.77                             167   -0.0710 31.5 163 
 BAR2 EZ ES       1946 31.98                             167   -0.0710 31.5 163 
 BAR2 EZ I        1946 34.48         5.1 0.38            168           31.5 163 
 PAM  EZ EP       1946 19.64                             149    0.1010 81.8  50 
 PAM  EN ES       1946 36.85                             149   -0.0010 81.8  50 
 PAM  EZ I        1946 38.56         3.1 0.60            152           81.8  50 
 RUS  HZ EP       1946 20.99                             141   -0.5010  109 169 
 RUS  HN ES       1946 40.65                             141    0.3310  109 169 
 RUS  HZ I        1946 42.14         0.9 0.56            143            109 169 
 PTB  HZ EP       1946 23.50                             134    0.44 9  136 255 
 PTB  HN ES       1946 42.90                             134   -0.21 9  136 255 
 PTB  HZ I        1946 45.86         1.0 0.38            136            136 255 
                                                                                
