 2013  924 1738 46.1 L   6.365 -73.635106.9  RSN  5 0.3 1.2LRSN                1
 GAP=122        0.82       4.3     3.2  6.8 -0.1772E+01  0.1803E+01 -0.6053E+01E
 Epicentro: SANTA HELENA DEL OPON - SANTANDER                                  3
 ACTION:UPD 13-10-22 09:24 OP:ep   STATUS:               ID:20130924173846 L   I
 OLDACT:DUP 13-09-24 19:48 OP:stll STATUS:               ID:20130924172852d    3
 2013-09-24-1728-50M.COL___244                                                 6
 STAT SP IPHASW D HRMM SECON CODA AMPLIT PERI AZIMU VELO AIN AR TRES W  DIS CAZ7
 BAR2 SZ EP       1739  3.05                             150    0.4910 56.0  63 
 BAR2 SZ ES       1739 15.65                             150    0.2610 56.0  63 
 RUS  HZ EP       1739  4.59                             141   -0.0210 80.4 131 
 RUS  HN ES       1739 18.53                             141   -0.5110 80.4 131 
 RUS  HZ I        1739 19.90         3.6 0.34            145           80.4 131 
 SPBC HZ EP       1739  5.25                             136    0.2010 92.5 212 
 SPBC HN ES       1739 20.02                             136    0.2110 92.5 212 
 SPBC HZ I        1739 24.13         4.7 0.48            137           92.5 212 
 PTB  HZ EP       1739  4.86                             136   -0.1110 92.9 282 
 PTB  HN ES       1739 19.42                             136   -0.2610 92.9 282 
 PTB  HZ I        1739 24.12         2.5 0.28            137           92.9 282 
 PAM  SZ EP       1739 10.71                             121   -0.31 9  149  44 
                                                                                
