 2011  724 1009 27.1 L   6.697 -73.123156.0  RSN  7 0.3 1.6LRSN                1
 GAP=144        0.64       4.3     6.3  9.7 -0.8490E+01  0.2407E+01 -0.1728E+02E
 Epicentro: JORDAN - SANTANDER                                                 3
 ACTION:UPD 12-07-25 14:03 OP:epov STATUS:               ID:20110724100927 L   I
 2011-07-24-1000-00M.COL___138                                                 6
 STAT SP IPHASW D HRMM SECON CODA AMPLIT PERI AZIMU VELO AIN AR TRES W  DIS CAZ7
 GIR2 SZ EP   1   10 9 48.50                             164    0.18 7 42.9 350 
 BRR  HZ EP   1   10 9 49.31                             152   -0.49 7 79.3 305 
 BRR  HN ES   2   1010  7.17                             152   -0.35 5 79.3 305 
 PAM  SZ EP   1   10 9 50.79                             150   -0.06 7 85.1  33 
 PAM  SZ I        1010 19.25         5.3 0.39                          85.1  33 
 RUS  HN ES   1   1010  9.81                             149   -0.02 7 89.1 177 
 BRI  SZ EP   1   10 9 53.06                             141    0.35 7  118  18 
 OCA  SZ EP   1   10 9 56.85                             130   -0.43 7  172 353 
 OCA  SZ ES   1   1010 21.23                             130    0.40 7  172 353 
 OCA  SZ I        1010 26.34         4.3 0.25                           172 353 
 NOR  SN ES   1   1010 31.34                             121    0.37 6  230 237 
                                                                                
