 2016  424 1239 15.8 L   6.802 -73.158147.8  RSN  7 0.2 2.0LRSN                1
 GAP=135        0.60       2.1     2.7  4.1 -0.1061E+01  0.3600E+01 -0.1446E+01E
 Epicentro: LOS SANTOS - SANTANDER                                             3
 ACTION:UPD 16-05-05 14:23 OP:rebc STATUS:               ID:20160424123915 L   I
 OLDACT:REG 16-04-24 21:22 OP:ar   STATUS:               ID:20160424123747     3
 2016-04-24-1237-47M.COL___304                                                 6
 STAT SP IPHASW D HRMM SECON CODA AMPLIT PERI AZIMU VELO AIN AR TRES W  DIS CAZ7
 BAR2 EZ EP       1239 35.71                             171    0.0110 23.3 187 
 BAR2 EZ ES       1239 51.27                             171    0.0710 23.3 187 
 BAR2 EZ I        1239 52.67        14.7 0.18            172           23.3 187 
 PAM  EZ EP       1239 38.51                             151    0.2110 78.1  40 
 PAM  EN ES       1239 55.78                             151   -0.0510 78.1  40 
 PAM  EZ I        1239 57.71         8.4 0.44            154           78.1  40 
 RUS  HZ EP       1239 39.81                             144    0.0210  101 175 
 RUS  HN ES       1239 58.52                             144    0.0310  101 175 
 RUS  HZ I        1239 59.49         8.1 0.28            149            101 175 
 PTB  HZ EP       1239 42.32                             133   -0.52 9  146 259 
 PTB  HN ES       1240  3.66                             133   -0.26 9  146 259 
 PTB  HZ I        1240  8.26        12.3 0.30            133            146 259 
 OCA  HZ EP       1239 44.11                             130   -0.15 9  160 354 
 OCA  HN ES       1240  6.29                             130   -0.15 9  160 354 
 OCA  HZ I        1240 11.60        28.3 0.22            131            160 354 
 SPBC HZ EP       1239 44.65                             130    0.24 9  162 219 
 SPBC HN ES       1240  6.68                             130   -0.03 9  162 219 
 SPBC HZ I        1240  9.46        16.5 0.28            132            162 219 
 ZAR  HZ EP       1239 48.43                             123    0.16 9  203 292 
 ZAR  HE ES       1240 14.06                             123    0.48 9  203 292 
 ZAR  HZ I        1240 20.64        17.4 0.38            124            203 292 
                                                                                
