 2012  824 1941  5.6 L   6.780 -73.141141.5  RSN  7 0.4 2.2LRSN                1
 GAP=154        0.91       5.2     4.9  7.3 -0.4943E+01  0.7224E+01  0.1096E+02E
 Epicentro: LOS SANTOS - SANTANDER                                             3
 ACTION:UPD 12-09-10 11:58 OP:ep   STATUS:               ID:20120824194105 L   I
 2012-08-24-1940-00M.COL___218                                                 6
 STAT SP IPHASW D HRMM SECON CODA AMPLIT PERI AZIMU VELO AIN AR TRES W  DIS CAZ7
 BAR2 SZ EP       1941 24.73                             171    0.0210 21.3 192 
 BAR2 SZ ES   1   1941 39.05                             171   -0.55 7 21.3 192 
 BAR2 SZ I        1941 41.28        60.4 0.22                          21.3 192 
 BRR  HZ EP       1941 26.52                             151    0.1110 72.7 300 
 BRR  HN ES   1   1941 43.50                             151    0.88 7 72.7 300 
 BRR  HZ I        1941 47.63        44.4 0.16                          72.7 300 
 PAM  SZ EP       1941 27.61                             149    0.1210 78.8  38 
 PAM  SN ES   1   1941 44.46                             149   -0.07 7 78.8  38 
 PAM  SZ I        1941 46.68        22.9 0.48                          78.8  38 
 PTB  HZ EP       1941 31.62                             131   -0.64 9  148 260 
 PTB  HN ES   1   1941 52.57                             131   -0.47 7  148 260 
 PTB  HZ I        1941 55.21        13.8 0.22                           148 260 
 ZAR  HZ EP   1   1941 38.36                             121    0.42 6  205 293 
 ZAR  HN ES   1   1942  2.64                             121   -0.50 6  205 293 
 ZAR  HZ I        1942  8.48        15.7 0.16                           205 293 
 NOR  SZ EP       1941 41.16                             118    0.13 8  234 235 
 NOR  SN ES   1   1942  9.44                             118    0.81 6  234 235 
 NOR  SZ I        1942 14.95        10.3 0.29                           234 235 
 CHI  HZ EP   1   1941 42.78                             116   -0.10 6  247 195 
 CHI  HN ES   1   1942 12.15                             116    0.21 6  247 195 
 CHI  HZ I        1942 19.50         6.8 0.52                           247 195 
                                                                                
