 2014  524 1058 51.6 L   6.725 -73.185146.8  RSN  4 0.4 1.4LRSN                1
 GAP=290        0.96       8.1    10.0 10.2 -0.3094E+02 -0.1649E+02  0.2080E+02E
 Epicentro: VILLANUEVA - SANTANDER                                             3
 ACTION:UPD 15-03-16 17:00 OP:nd   STATUS:               ID:20140524105851 L   I
 OLDACT:DUP 14-05-25 03:39 OP:carl STATUS:               ID:20140524105814d    3
 2014-05-24-1058-13M.COL___227                                                 6
 STAT SP IPHASW D HRMM SECON CODA AMPLIT PERI AZIMU VELO AIN AR TRES W  DIS CAZ7
 BRR  HZ EP       1059 12.69                             153   -0.2510 71.9 306 
 BRR  HE ES       1059 29.90                             153    0.3510 71.9 306 
 PTB  HZ EP       1059 17.93                             133   -0.25 9  142 262 
 PTB  HN ES       1059 38.24                             133   -0.64 9  142 262 
 PTB  HZ I        1059 40.97         3.9 0.18            124            142 262 
 ZAR  HZ EP       1059 24.44                             123    0.36 9  203 295 
 ZAR  HE ES       1059 49.40                             123    0.03 9  203 295 
 ZAR  HZ I        1059 57.92         2.5 0.22            115            203 295 
 NOR  HN ES       1059 54.35                             120    0.59 8  226 236 
 NOR  HZ I        1059 56.96         1.9 0.14            114            226 236 
                                                                                
