 2010  924 1325 12.1 L   6.798 -73.065144.4  RSN  7 0.4 2.0LRSN                1
 GAP=184        1.09       6.6    11.9  9.5 -0.4394E+02 -0.1181E+02  0.1102E+02E
 Epicentro: LOS SANTOS - SANTANDER                                             3
 ACTION:UP  11-02-18 11:05 OP:tino STATUS:               ID:20100924132512 L   I
 2010-09-24-1323-23S.COL___119                                                 6
 STAT SP IPHASW D HRMM SECON CODA AMPLIT PERI AZIMU VELO SNR AR TRES W  DIS CAZ7
 BAR2 SZ EP       1325 32.01                             169     0.410   26 210 
 BAR2 SZ ES   1   1325 46.70                             169    -0.2 7   26 210 
 BAR2 SZ I        1325 50.32        14.6 0.44                            26 210 
 BRR  HZ EP       1325 33.74                             150     0.110   79 296 
 BRR  HZ I        1325 34.02        36.9 0.19                            79 296 
 BRR  HE ES   1   1325 50.52                             150     0.2 7   79 296 
 GUE  SZ EP       1325 35.99                             139    -0.610  115   8 
 GRA  SZ EP       1325 37.77                             137     0.710  124  14 
 GRA  SZ ES   1   1325 56.06                             137    -0.5 7  124  14 
 GRA  SZ I        1325 58.44        10.8 0.29                           124  14 
 OCA  SZ EP   3   1325 40.63                             129     0.2 2  162 350 
 OCA  SZ I        1326  6.25        12.1 0.37                           162 350 
 NOR  SZ EP       1325 48.15                             117    -0.4 8  242 236 
 CHI  HZ EP   2   1325 49.75                             117    -0.2 4  251 197 
 CHI  HN ES   1   1326 19.53                             117     0.0 6  251 197 
 CHI  HZ I        1326 23.92         5.4 0.69                           251 197 
                                                                                
