 2011  624 1432  3.1 L   6.778 -73.126145.3  RSN 19 0.5 2.9LRSN                1
 GAP= 67        0.88       3.2     4.6  5.2 -0.5112E+01  0.5594E+01  0.4556E+01E
 Epicentro: LOS SANTOS - SANTANDER                                             3
 ACTION:UP  11-07-14 19:07 OP:ep   STATUS:               ID:20110624143203 L   I
 2011-06-24-1430-29S.COL___140                                                 6
 STAT SP IPHASW D HRMM SECON CODA AMPLIT PERI AZIMU VELO SNR AR TRES W  DIS CAZ7
 SAN  SZ ES   3   1432 38.31                             177     0.9 2    6 104 
 BTL  SZ ES   3   1432 39.19                             171     1.3 2   22 315 
 BAR2 SZ IP       1432 22.59                             171     0.010   22 197 
 BAR2 SZ I        1432 22.92       182.3 0.10                            22 197 
 BAR2 SZ ES   1   1432 37.35                             171    -0.5 7   22 197 
 GIR2 SZ ES   3   1432 37.87                             166    -0.3 2   34 347 
 BRR  HZ IP     C 1432 24.50                             151     0.110   74 299 
 BRR  HZ I        1432 24.87       180.2 0.11                            74 299 
 BRR  HN ES   1   1432 41.62                             151     0.7 7   74 299 
 PAM  SZ EP       1432 25.64                             150     0.310   78  37 
 PAM  SN ES   1   1432 42.56                             150     0.0 7   78  37 
 RUS  HZ IP     C 1432 26.52                             144    -0.110   98 177 
 RUS  HZ I        1432 27.22        48.1 0.18                            98 177 
 RUS  HN ES   2   1432 44.62                             144    -0.4 5   98 177 
 BRI  SZ EP       1432 27.29                             141     0.210  110  19 
 BRI  SZ ES   1   1432 45.81                             141     0.1 7  110  19 
 GRA  SZ IP       1432 28.50                             136     0.110  127  16 
 GRA  SZ ES   1   1432 47.62                             136    -0.6 7  127  16 
 GRA  SZ I        1432 49.21       101.5 0.30                           127  16 
 OCA  SZ EP       1432 31.07                             129    -0.5 9  163 352 
 OCA  SZ ES   2   1432 53.33                             129    -0.5 5  163 352 
 OCA  SZ I        1433  0.92        83.0 0.35                           163 352 
 YOP  SZ EP       1432 33.15                             127     0.4 9  176 154 
 YOP  SN ES   3   1432 56.18                             127     0.2 2  176 154 
 NOR  SZ EP       1432 38.33                             118    -0.5 8  235 235 
 NOR  SN ES   1   1433  6.46                             118    -0.3 6  235 235 
 CHI  HZ EP       1432 40.73                             117     0.2 8  247 196 
 CHI  HN ES   2   1433  9.00                             117    -0.8 4  247 196 
 CHI  HZ I        1433 16.06        30.7 0.30                           247 196 
 HEL  HZ EP   1   1432 42.98                             114    -0.5 6  274 256 
 HEL  HN ES   3   1433 15.25                             114     0.3 2  274 256 
 HEL  HZ I        1433 22.50        28.7 0.30                           274 256 
 RREF HZ EP       1432 49.27                             111     0.0 7  322 230 
 RREF HN ES   2   1433 24.87                             111    -0.3 3  322 230 
 RREF HZ I        1433 36.14        38.2 0.27                           322 230 
 DBB  SZ EP       1432 51.60                             109     0.8 7  342 275 
 TOL  SZ EP       1432 51.91                             109     0.6 7  343 225 
 PRA  HZ EP       1432 55.89                             106    -0.6 6  391 210 
 PRA  HN ES   2   1433 39.27                             106     1.1 3  391 210 
 PRA  HZ I        1433 40.78        47.1 0.27                           391 210 
 SJA  SZ EP   3   1432 56.60                             106    -0.8 1  398 193 
 SJA  SZ I        1433 52.74        44.2 0.52                           398 193 
                                                                                
