 2014  824 1933 33.0 L   6.790 -73.128150.9  RSN  5 0.4 1.5LRSN                1
 GAP=139        0.96       3.7     6.1  8.2 -0.2481E+01  0.7754E+01  0.1201E+01E
 Epicentro: LOS SANTOS - SANTANDER                                             3
 ACTION:UPD 14-09-15 21:52 OP:nd   STATUS:               ID:20140824193333 L   I
 OLDACT:REG 14-08-24 20:53 OP:cam  STATUS:               ID:20140824193000     3
 2014-08-24-1930-00M.COL___288                                                 6
 STAT SP IPHASW D HRMM SECON CODA AMPLIT PERI AZIMU VELO AIN AR TRES W  DIS CAZ7
 BRR  HZ EP       1933 55.05                             153    0.2110 73.4 299 
 BRR  HE ES       1934 12.48                             153    0.6210 73.4 299 
 BRR  HZ I        1934 15.99         8.4 0.46            150           73.4 299 
 PAM  SZ EP       1933 56.02                             152    0.2710 77.1  38 
 PAM  SN ES       1934 13.24                             152   -0.2510 77.1  38 
 PAM  SZ I        1934 15.52         2.1 0.20            159           77.1  38 
 RUS  HZ EP       1933 57.14                             145   -0.0410 99.3 177 
 RUS  HN ES       1934 15.84                             145   -0.1910 99.3 177 
 RUS  HZ I        1934 16.70         3.0 0.22            146           99.3 177 
 SPBC HZ EP       1934  2.19                             130    0.25 9  164 220 
 SPBC HN ES       1934 24.06                             130   -0.44 9  164 220 
 SPBC HZ I        1934 36.33        10.1 0.10            130            164 220 
 SML  HN ES       1934 38.33                             118   -0.74 8  246 335 
                                                                                
