 2013  524 1306 12.4 L   6.780 -73.161149.1  RSN  7 0.4 1.4LRSN                1
 GAP=136        0.83       5.4     7.1  8.8  0.1476E+02 -0.1594E+02 -0.1914E+02E
 Epicentro: LOS SANTOS - SANTANDER                                             3
 ACTION:UPD 13-06-20 09:53 OP:ep   STATUS:               ID:20130524130612 L   I
 2013-05-24-1300-00M.COL___259                                                 6
 STAT SP IPHASW D HRMM SECON CODA AMPLIT PERI AZIMU VELO AIN AR TRES W  DIS CAZ7
 BAR2 SZ EP       13 6 32.50                             172    0.1510 20.9 187 
 BAR2 SZ ES       13 6 47.77                             172   -0.1710 20.9 187 
 BAR2 SZ I        13 6 48.80         5.3 0.36            173           20.9 187 
 GIR2 SZ EP   1   13 6 32.44                             167   -0.05 7 33.2 354 
 BRR  HN ES   1   13 6 51.44                             153    0.82 7 70.9 301 
 PAM  SZ EP   1   13 6 34.88                             150   -0.22 7 80.1  39 
 PAM  SZ I        13 6 48.71         3.9 0.16            140           80.1  39 
 RUS  HZ EP   1   13 6 36.85                             145    0.55 7 98.5 175 
 RUS  HN ES       13 6 54.73                             145   -0.2410 98.5 175 
 RUS  HZ I        13 6 55.92         3.2 0.48            143           98.5 175 
 PTB  HE ES   1   13 7  0.12                             133   -0.41 7  146 260 
 PTB  HZ I        13 7  3.06         4.6 0.19            131            146 260 
 SML  HE ES   1   13 7 17.67                             118   -0.48 6  245 336 
                                                                                
