 2016  624 1039 22.0 L   6.806 -73.094144.5  RSN  8 0.5 1.8LRSN                1
 GAP=243        0.87       4.4     5.4  6.7  0.7360E+01  0.1117E+02  0.4268E+01E
 Epicentro: LOS SANTOS - SANTANDER                                             3
 ACTION:UPD 16-07-21 22:22 OP:rebc STATUS:               ID:20160624103922 L   I
 OLDACT:REG 16-06-24 21:53 OP:dnl  STATUS:               ID:20160624103739     3
 2016-06-24-1037-39M.COL___322                                                 6
 STAT SP IPHASW D HRMM SECON CODA AMPLIT PERI AZIMU VELO AIN AR TRES W  DIS CAZ7
 BAR2 EZ EP       1039 41.55                             169    0.0110 25.6 203 
 BAR2 EZ ES       1039 56.31                             169   -0.4610 25.6 203 
 BAR2 EZ I        1039 57.47        23.6 0.12                          25.6 203 
 BRR  HZ EP       1039 43.51                             151    0.2110 76.0 296 
 BRR  HN ES       1040  0.36                             151    0.4510 76.0 296 
 BRR  HZ I        1040  3.53         8.8 0.36                          76.0 296 
 RUS  HZ EP       1039 45.61                             143   -0.0610  101 179 
 RUS  HE ES       1040  4.44                             143    0.3110  101 179 
 RUS  HZ I        1040  5.03        10.1 0.22                           101 179 
 PTB  HZ EP   2   1039 48.53                             130   -0.87 5  154 259 
 PTB  HN ES   4   1040  8.96                             130   -1.82 0  154 259 
 PTB  HZ I        1040 14.81         6.7 0.28                           154 259 
 SPBC HZ EP   2   1039 50.30                             128   -0.51 5  167 220 
 SPBC HE ES       1040 12.94                             128   -0.34 9  167 220 
 SPBC HZ I        1040 15.10         9.0 0.15                           167 220 
 ZAR  HZ EP   2   1039 55.54                             121    0.64 4  209 291 
 ZAR  HN ES       1040 20.05                             121   -0.50 8  209 291 
 ZAR  HZ I        1040 28.12         5.4 0.38                           209 291 
 GUY2CHZ EP   3   1040  6.53                             112    0.39 2  306 235 
 GUY2CHE ES       1040 41.36                             112    0.80 7  306 235 
 GUY2CHZ I        1040 46.61         2.8 0.28                           306 235 
 PRA  HZ EP   2   1040 15.90                             106    0.01 3  395 210 
 PRA  HN ES   2   1040 57.22                             106   -0.70 3  395 210 
 PRA  HZ I        1041  3.02         2.0 0.40                           395 210 
                                                                                
