 2017  424 1706 53.3 L   6.815 -73.081146.5  RSN 19 0.5 2.3LRSN                1
 GAP=118        0.97       3.6     3.3  4.8 -0.1568E+01  0.1434E+01  0.5413E+01E
 Epicentro: LOS SANTOS - SANTANDER                                             3
 ACTION:UPD 17-05-30 21:15 OP:jn   STATUS:               ID:20170424170653 L   I
 OLDACT:UP  17-04-25 00:13 OP:and  STATUS:               ID:20170424165723     3
 OLDACT:UP  17-04-25 00:13 OP:and  STATUS:               ID:20170424165723     3
 OLDACT:UP  17-04-25 00:12 OP:and  STATUS:               ID:20170424165723     3
 OLDACT:UP  17-04-25 00:11 OP:and  STATUS:               ID:20170424165723     3
 OLDACT:UP  17-04-25 00:11 OP:and  STATUS:               ID:20170424165723     3
 OLDACT:UP  17-04-25 00:09 OP:and  STATUS:               ID:20170424165723     3
 OLDACT:UP  17-04-25 00:09 OP:and  STATUS:               ID:20170424165723     3
 OLDACT:UP  17-04-25 00:08 OP:and  STATUS:               ID:20170424165723     3
 OLDACT:UP  17-04-25 00:06 OP:and  STATUS:               ID:20170424165723     3
 OLDACT:UP  17-04-25 00:05 OP:and  STATUS:               ID:20170424165723     3
 OLDACT:REG 17-04-24 20:48 OP:and  STATUS:               ID:20170424165723     3
 2017-04-24-1658-00M.COL___371                                                 6
 STAT SP IPHASW D HRMM SECON CODA AMPLIT PERI AZIMU VELO AIN AR TRES W  DIS CAZ7
 BAR2 EZ IP     C 17 7 12.87                             169   -0.1910 27.0 205 
 BAR2 EZ ES       17 7 27.87                             169   -0.6310 27.0 205 
 BAR2 EZ I        17 7 29.25        68.3 0.20            163           27.0 205 
 PAM  EZ EP       17 7 15.62                             153    0.3910 71.7  36 
 PAM  EN ES       17 7 32.67                             153    0.3210 71.7  36 
 PAM  EZ I        17 7 34.69        16.9 0.36            159           71.7  36 
 BRR  HZ EP       17 7 14.62                             151   -0.2010 76.9 295 
 BRR  HN ES       17 7 31.76                             151    0.1310 76.9 295 
 BRR  HZ I        17 7 32.86        22.7 0.18            147           76.9 295 
 PTB  HZ EP   9   17 7 19.58                             131   -1.38 0  155 259 
 PTB  HN ES       17 7 40.53                             131   -0.65 9  155 259 
 PTB  HZ I        17 7 48.23        18.1 0.30            128            155 259 
 SPBC HZ EP       17 7 21.98                             128   -0.39 9  169 221 
 SPBC HN ES       17 7 44.53                             128   -0.55 9  169 221 
 SPBC HZ I        17 7 51.02        27.1 0.24            126            169 221 
 YPLC HZ IP     C 17 7 23.24                             127    0.32 9  175 154 
 YPLC HN ES       17 7 46.69                             127    0.63 9  175 154 
 YPLC HZ I        17 7 48.04        11.1 0.26            127            175 154 
 ZAR  HZ EP       17 7 26.35                             122   -0.04 8  210 291 
 ZAR  HE ES   3   17 7 51.17                             122   -1.05 2  210 291 
 ZAR  HZ I        17 7 56.53        17.5 0.51            121            210 291 
 TABC EZ EP   3   17 7 30.87                             119    1.27 2  235 212 
 TABC EZ ES   4   17 8  0.59                             119    2.65 0  235 212 
 TABC EZ I        17 8  4.48        30.7 0.58            118            235 212 
 NOR  HZ EP   2   17 7 29.40                             118   -0.37 4  242 235 
 NOR  HE ES       17 7 59.00                             118    0.76 8  242 235 
 NOR  HZ I        17 8  2.75        13.7 0.19            116            242 235 
 CHI  HZ EP       17 7 31.12                             117   -0.26 8  252 197 
 CHI  HN ES   2   17 8  0.97                             117   -0.15 4  252 197 
 CHI  HZ I        17 8  7.38         9.4 0.46            116            252 197 
 ROSC BZ EP   9   17 7 33.60                             116    1.62 0  258 212 
 ROSC BN ES       17 8  4.28                             115    0.48 8  258 212 
 ROSC BZ I        17 8  6.81        19.0 0.50            115            258 212 
 HEL  HZ EP   2   17 7 35.18                             114    0.85 4  279 256 
 HEL  HN ES       17 8  6.59                             114    0.23 7  279 256 
 HEL  HZ I        17 8 13.30         7.2 0.24            113            279 256 
 PTGC HZ EP       17 7 36.36                             112   -0.67 7  308 160 
 ELA  HZ EP   9   17 7 43.60                             110    2.71 0  336 230 
 ELA  HN ES       17 8 21.55                             109    0.80 7  336 230 
 ELA  HZ I        17 8 29.94         7.8 0.42            109            336 230 
 CBOC HZ EP       17 7 41.33                             109    0.28 7  341 252 
 CBOC HN ES       17 8 18.61                             109    0.29 7  341 252 
 CBOC HZ I        17 8 34.02         2.8 0.38            109            341 252 
 ANIL HZ EP   4   17 7 45.02                             108    1.20 0  364 225 
 ANIL HE ES   4   17 8 25.39                             108    2.15 0  364 225 
 PRA  HZ EP       17 7 46.62                             106   -0.77 6  397 210 
 PRA  HN ES       17 8 29.42                             106   -0.19 6  397 210 
 PRA  HZ I        17 8 34.88         8.9 0.24            106            397 210 
 ORTC HZ EP       17 7 47.92                             106    0.06 6  401 217 
 ORTC HN ES   2   17 8 32.02                             106    1.57 3  401 217 
 ORTC HZ I        17 8 37.16         9.2 0.36            106            401 217 
 SJC  HZ EP   4   17 7 47.19                             106   -1.97 0  412 326 
 SJC  HN ES   4   17 8 28.07                             106   -4.68 0  412 326 
 SJC  HZ I        17 8 34.14         2.5 0.45            106            412 326 
 PAL  HZ EP   2   17 7 48.88                             106   -0.39 3  413 239 
                                                                                
