 2016  624 1856 14.6 L   6.769 -73.154141.1  RSN 10 0.4 2.2LRSN                1
 GAP= 97        0.88       3.3     2.6  4.9 -0.4437E+00  0.2187E+01  0.1893E+01E
 Epicentro: LOS SANTOS - SANTANDER                                             3
 ACTION:UPD 16-07-21 22:22 OP:rebc STATUS:               ID:20160624185614 L   I
 OLDACT:REG 16-06-24 23:28 OP:dnl  STATUS:               ID:20160624184744     3
 2016-06-24-1847-44M.COL___331                                                 6
 STAT SP IPHASW D HRMM SECON CODA AMPLIT PERI AZIMU VELO AIN AR TRES W  DIS CAZ7
 BAR2 EZ EP     C 1856 33.53                             172   -0.1010 19.8 189 
 BAR2 EZ ES       1856 48.25                             172   -0.2010 19.8 189 
 BAR2 EZ I        1856 50.73        39.0 0.44                          19.8 189 
 BRR  HZ EP       1856 35.49                             151    0.1610 72.1 301 
 BRR  HN ES       1856 51.83                             151    0.3610 72.1 301 
 BRR  HZ I        1856 55.30        29.2 0.56                          72.1 301 
 PAM  EZ EP       1856 36.45                             149   -0.0910 80.6  38 
 PAM  EE ES       1856 53.62                             149   -0.0210 80.6  38 
 PAM  EZ I        1856 55.87        14.8 0.62                          80.6  38 
 RUS  HZ EP       1856 37.97                             144    0.2910 97.3 175 
 RUS  HN ES       1856 55.81                             144    0.1510 97.3 175 
 RUS  HZ I        1856 57.59        21.0 0.44                          97.3 175 
 PTB  HZ EP       1856 40.74                             131   -0.34 9  146 260 
 PTB  HE ES       1857  0.85                             131   -0.86 9  146 260 
 PTB  HZ I        1857  5.76        19.5 0.12                           146 260 
 TAM  HZ EP       1856 41.92                             129   -0.02 9  155 104 
 TAM  HN ES       1857  3.10                             129   -0.15 9  155 104 
 TAM  HZ I        1857  3.98        21.4 0.54                           155 104 
 SPBC HZ EP       1856 42.64                             129    0.18 9  160 220 
 SPBC HN ES       1857  4.52                             129    0.34 9  160 220 
 SPBC HZ I        1857  7.68        23.4 0.28                           160 220 
 ZAR  HZ EP       1856 46.27                             121   -0.55 9  205 293 
 ZAR  HN ES       1857 12.73                             121    0.80 9  205 293 
 ZAR  HZ I        1857 20.27        13.8 0.44                           205 293 
 NOR  HZ EP       1856 50.15                             118    0.35 8  232 235 
 NOR  HN ES       1857 16.88                             118   -0.35 8  232 235 
 NOR  HZ I        1857 21.53        11.0 0.16                           232 235 
 CHI  HZ EP   2   1856 51.81                             116    0.13 4  245 195 
 CHI  HN ES   2   1857 20.69                             116    0.10 4  245 195 
                                                                                
