 2015  224 1540 34.4 L   6.825 -73.147143.2  RSN 19 0.5 2.8LRSN                1
 GAP= 70        1.22       2.9     3.4  5.4 -0.1966E+01  0.5627E+01  0.2473E+01E
 Epicentro: LOS SANTOS - SANTANDER                                             3
 ACTION:UPD 15-04-30 21:29 OP:nd   STATUS:               ID:20150224154034 L   I
 OLDACT:REG 15-02-24 20:46 OP:carl STATUS:               ID:20150224153746     3
 2015-02-24-1537-46M.COL___296                                                 6
 STAT SP IPHASW D HRMM SECON CODA AMPLIT PERI AZIMU VELO AIN AR TRES W  DIS CAZ7
 BAR2 EZ IP     D 1540 53.78                             169    0.0210 26.1 189 
 BAR2 EZ ES       1541  8.31                             169   -0.5710 26.1 189 
 BAR2 EZ I        1541 10.65       108.3 0.30            169           26.1 189 
 BRR  HZ EP       1540 55.67                             153    0.5010 69.7 297 
 BRR  HE ES       1541 12.48                             153    1.1010 69.7 297 
 BRR  HZ I        1541 16.74       112.6 0.10            152           69.7 297 
 PAM  SZ EP       1540 56.71                             151    0.5010 75.4  41 
 PAM  SN ES       1541 13.51                             151    0.2910 75.4  41 
 PAM  SZ I        1541 15.60       251.7 0.54            154           75.4  41 
 RUS  HZ EP       1540 57.80                             142   -0.2910  103 176 
 RUS  HN ES       1541 16.24                             142   -0.3410  103 176 
 RUS  HZ I        1541 17.90        77.4 0.38            144            103 176 
 PTB  HZ EP       1541  0.74                             131   -0.44 9  148 258 
 PTB  HN ES       1541 22.39                             131    0.31 9  148 258 
 PTB  HZ I        1541 24.58        85.3 0.16            132            148 258 
 TAM  HZ EP       1541  2.15                             130    0.20 9  156 106 
 TAM  HN ES       1541 23.85                             130    0.41 9  156 106 
 TAM  HZ I        1541 24.18        44.2 0.28            133            156 106 
 OCA  HZ EP       1541  1.15                             130   -1.08 9  157 353 
 OCA  HN ES       1541 23.68                             130   -0.27 9  157 353 
 OCA  HZ I        1541 27.68        88.2 0.18            131            157 353 
 SPBC HZ EP       1541  2.97                             128    0.08 9  165 218 
 SPBC HN ES       1541 24.67                             128   -0.45 9  165 218 
 SPBC HZ I        1541 30.30       113.6 0.24            129            165 218 
 NOR  HZ EP       1541 10.40                             118    0.27 8  236 234 
 NOR  HN ES       1541 37.49                             118   -0.52 8  236 234 
 NOR  HZ I        1541 39.77        42.6 0.12            119            236 234 
 SML  HZ EP       1541 10.13                             117   -0.45 8  241 335 
 SML  HN ES       1541 38.03                             117   -0.78 8  241 335 
 SML  HZ I        1541 46.25        75.6 0.26            119            241 335 
 CHI  HZ EP       1541 11.95                             116   -0.28 8  251 195 
 CHI  HN ES       1541 40.73                             116   -1.02 8  251 195 
 CHI  HZ I        1541 45.61        21.7 0.46            118            251 195 
 URE  HZ EP   4   1541 13.76                             113   -1.43 0  283 291 
 URE  HN ES   4   1541 45.45                             113   -1.57 0  283 291 
 GUY2CHZ EP       1541 19.06                             112    1.02 7  303 234 
 GUY2CHN ES       1541 52.25                             112    0.16 7  303 234 
 GUY2CHZ I        1542  1.17        31.4 0.56                           303 234 
 RREF HZ EP       1541 21.24                             110    0.63 7  323 229 
 RREF HE ES       1541 56.90                             110    0.23 7  323 229 
 RREF HZ I        1542  5.98        22.9 0.24            111            323 229 
 CBOC HZ EP       1541 21.92                             109    0.65 7  334 252 
 CBOC HN ES       1541 57.97                             109    0.12 7  334 252 
 CBOC HZ I        1542  2.55        13.0 0.42            110            334 252 
 DBB  SZ EP       1541 21.96                             109    0.25 7  339 274 
 DBB  SZ ES       1541 58.13                             109   -0.50 7  339 274 
 TOL  SZ EP       1541 23.79                             109    1.03 6  345 224 
 TOL  SN ES       1542  0.27                             109   -0.21 6  345 224 
 TOL  SZ I        1542  9.17        22.0 0.68            110            345 224 
 ANIL HZ EP       1541 24.84                             108    0.53 6  359 224 
 ANIL HN ES       1542  3.57                             108    0.32 6  359 224 
 PRA  HZ EP       1541 27.57                             106   -0.52 6  394 209 
 PRA  HN ES       1542  9.51                             106   -0.48 6  394 209 
 PRA  HZ I        1542 19.92        17.0 0.56            107            394 209 
 ORTC HZ EP       1541 27.99                             106   -0.48 6  398 216 
 ORTC HN ES       1542 11.15                             106    0.49 6  398 216 
 ORTC HZ I        1542 16.86        17.2 0.38            107            398 216 
                                                                                
