 2012  724 1932 21.8 L   6.805 -73.165143.4  RSN  6 0.5 1.9LRSN                1
 GAP=134        1.10       7.1     6.1  9.7  0.1112E+01  0.1279E+02 -0.7203E+01E
 Epicentro: LOS SANTOS - SANTANDER                                             3
 ACTION:UPD 12-08-14 11:45 OP:ep   STATUS:               ID:20120724193221 L   I
 2012-07-24-1930-00M.COL___215                                                 6
 STAT SP IPHASW D HRMM SECON CODA AMPLIT PERI AZIMU VELO AIN AR TRES W  DIS CAZ7
 BAR2 SZ ES   1   1932 55.81                             170    -0.4 7   24 185 
 BAR2 SZ I        1932 57.34        26.3 0.36            172             24 185 
 BRR  HZ EP   1   1932 42.90                             153     0.4 7   69 299 
 BRR  HN ES   1   1932 59.66                             153     0.9 7   69 299 
 BRR  HZ I        1933  4.44        22.4 0.27            150             69 299 
 PAM  SZ EP       1932 44.09                             150     0.310   78  41 
 PAM  SN ES   1   1933  0.21                             150    -0.7 7   78  41 
 RUS  HZ EP   1   1932 45.42                             143     0.1 7  101 175 
 RUS  HN ES   1   1933  3.84                             143     0.1 7  101 175 
 RUS  HZ I        1933  4.82         6.9 0.30            148            101 175 
 PTB  HZ EP   1   1932 47.97                             132    -0.4 7  146 258 
 PTB  HN ES   1   1933  8.78                             132    -0.3 7  146 258 
 PTB  HZ I        1933 11.04         7.3 0.08            133            146 258 
 ZAR  HZ EP   1   1932 53.51                             122    -0.3 6  202 292 
 ZAR  HN ES   1   1933 18.58                             122    -0.2 6  202 292 
 ZAR  HZ I        1933 25.42         8.3 0.49            123            202 292 
