 2016 1224 1508 12.4 L   6.818 -73.121152.0  RSN 23 0.5 2.7LRSN                1
 GAP= 67        1.14       3.3     3.2  5.3  0.2707E+00  0.4946E+01  0.1099E+01E
 Epicentro: LOS SANTOS - SANTANDER                                             3
 ACTION:UPD 17-01-11 20:18 OP:rebc STATUS:               ID:20161224150812 L   I
 OLDACT:UP  16-12-25 01:18 OP:edw  STATUS:               ID:20161224150743     3
 OLDACT:REG 16-12-24 20:51 OP:edw  STATUS:               ID:20161224150743     3
 2016-12-24-1508-00M.COL___381                                                 6
 STAT SP IPHASW D HRMM SECON CODA AMPLIT PERI AZIMU VELO AIN AR TRES W  DIS CAZ7
 BAR2 EZ IP     C 15 8 32.85                             170   -0.0110 25.8 195 
 BAR2 EZ ES       15 8 48.67                             170   -0.1210 25.8 195 
 BAR2 EZ I        15 8 49.80        92.6 0.32            169           25.8 195 
 BRR  HZ IP     C 15 8 34.72                             153    0.3810 72.7 296 
 BRR  HN ES       15 8 52.25                             153    0.8310 72.7 296 
 BRR  HZ I        15 8 56.21        66.8 0.12            151           72.7 296 
 PAM  EZ EP     C 15 8 35.67                             153    0.5410 74.2  39 
 PAM  EN ES       15 8 53.04                             153    0.2110 74.2  39 
 PAM  EZ I        15 8 55.12        60.4 0.54            151           74.2  39 
 RUS  HZ EP     C 15 8 36.68                             145   -0.2510  102 178 
 RUS  HN ES       15 8 55.39                             145   -0.6410  102 178 
 RUS  HZ I        15 8 56.55        70.1 0.36            142            102 178 
 PTB  HZ EP       15 8 39.49                             133   -0.70 9  151 258 
 PTB  HN ES       15 9  1.13                             133   -0.70 9  151 258 
 PTB  HZ I        15 9  5.49        73.4 0.30            130            151 258 
 TAM  HZ IP     C 15 8 41.02                             132    0.60 9  153 106 
 TAM  HZ I        15 9  2.05        25.2 0.25            130            153 106 
 TAM  HN ES       15 9  2.06                             132   -0.19 9  153 106 
 ZAR  HZ EP       15 8 45.34                             123   -0.13 8  206 291 
 ZAR  HE ES       15 9 10.83                             123   -0.41 8  206 291 
 ZAR  HZ I        15 9 18.01       101.0 0.28            121            206 291 
 NOR  HZ EP       15 8 48.78                             119   -0.11 8  238 234 
 NOR  HN ES       15 9 17.46                             119    0.14 8  238 234 
 NOR  HZ I        15 9 24.77        44.9 0.26            117            238 234 
 CHI  HZ EP       15 8 50.93                             118    0.17 8  251 196 
 CHI  HN ES       15 9 20.53                             118   -0.13 8  251 196 
 CHI  HZ I        15 9 26.15        24.6 0.28            116            251 196 
 ROSC BZ EP   4   15 8 49.78                             118   -1.45 0  256 211 
 ROSC BN ES   4   15 9 23.71                             118    2.22 0  256 211 
 ROSC BZ I        15 9 26.48        53.0 0.50            115            256 211 
 URE  HZ EP       15 8 53.56                             115   -0.45 7  286 291 
 URE  HE ES   4   15 9 24.59                             115   -1.85 0  286 291 
 URE  HZ I        15 9 37.03        53.1 0.28            112            286 291 
 GUY2CHZ EP       15 8 57.45                             113    0.74 7  305 235 
 GUY2CHN ES       15 9 32.22                             113    0.98 7  305 235 
 GUY2CHZ I        15 9 40.86        21.9 0.44                           305 235 
 PTGC HZ EP       15 8 55.84                             113   -0.83 7  310 159 
 PTGC HN ES   4   15 9 28.83                             113   -2.35 0  310 159 
 PTGC HZ I        15 9 35.29        33.4 0.28            111            310 159 
 LL6C HZ EP   4   15 8 37.95                             112   -20.2 0  323 357 
 LL6C HE ES   4   15 9 14.46                             112   -19.4 0  323 357 
 ELA  HZ EP   4   15 9  3.75                             111    3.82 0  332 230 
 ELA  HE ES   4   15 9 40.36                             111    3.38 0  332 230 
 ELA  HZ I        15 9 45.37        25.1 0.46            109            332 230 
 CBOC HZ EP   4   15 9  1.32                             111    1.34 0  337 252 
 CBOC HN ES       15 9 37.41                             111    0.35 7  337 252 
 CBOC HZ I        15 9 42.06         8.9 0.46            109            337 252 
 DBB  EZ EP       15 9  1.20                             110    0.74 7  342 274 
 DBB  EN ES   4   15 9 36.29                             110   -1.63 0  342 274 
 DBB  EZ I        15 9 41.21        13.7 0.16            108            342 274 
 ARGC HZ EP   4   15 9  3.02                             109    0.79 0  358 340 
 ARGC HE ES       15 9 41.36                             109    0.29 6  358 340 
 ARGC HZ I        15 9 47.56         6.3 0.17            108            358 340 
 ANIL HZ EP   4   15 9  4.30                             109    1.44 0  361 225 
 ANIL HN ES   4   15 9 43.98                             109    1.78 0  361 225 
 ANIL HZ I        15 9 49.67        52.8 0.28            107            361 225 
 ORTC HZ EP   4   15 9  8.00                             107    1.06 0  399 216 
 ORTC HN ES       15 9 49.66                             107    0.20 6  399 216 
 ORTC HZ I        15 9 54.32        10.2 0.22            105            399 216 
 SJC  HZ EP       15 9  7.06                             107   -1.13 6  409 326 
 SJC  HN ES       15 9 50.81                             107   -0.87 6  409 326 
 SJC  HZ I        15 9 52.90         7.7 0.54            105            409 326 
 PAL  HZ EP       15 9  8.31                             107    0.11 6  409 239 
 PAL  HN ES   4   15 9 49.80                             107   -1.89 0  409 239 
 PAL  HZ I        15 9 58.08         8.1 0.20            105            409 239 
 CRJC HZ EP   4   15 9 13.21                             104   -1.66 0  466   3 
 CRJC HE ES   4   1510  0.09                             104   -3.47 0  466   3 
 CRJC HZ I        1510  5.28        13.4 0.44            103            466   3 
 SMAR HZ EP   2   15 9 18.26                             103   -0.07 2  496 346 
 SMAR HN ES   4   1510  6.20                             103   -3.52 0  496 346 
 MACC HZ EP   4   15 9 19.51                             102   -2.07 0  523 189 
 MACC HN ES   4   1510 11.01                             102   -4.51 0  523 189 
                                                                                
