 2013  624 1613 55.6 L   6.776 -73.134150.5  RSN  7 0.3 1.8LRSN                1
 GAP=188        0.74       3.8     5.3  5.6  0.1840E+01  0.4851E+01 -0.2993E+01E
 Epicentro: LOS SANTOS - SANTANDER                                             3
 ACTION:UPD 14-01-08 09:56 OP:ep   STATUS:               ID:20130624161355 L   I
 OLDACT:REG 13-06-24 17:54 OP:carl STATUS:               ID:20130624160959     3
 2013-06-24-1609-59M.COL___267                                                 6
 STAT SP IPHASW D HRMM SECON CODA AMPLIT PERI AZIMU VELO AIN AR TRES W  DIS CAZ7
 BAR2 SZ EP   1   1614 16.10                             172    0.37 7 21.1 195 
 BAR2 SZ ES   1   1614 31.29                             172   -0.16 7 21.1 195 
 BAR2 SZ I        1614 33.85        10.1 0.36            172           21.1 195 
 GIR2 SZ EP   1   1614 15.97                             167    0.09 7 34.1 349 
 GIR2 SZ ES   1   1614 31.62                             167   -0.10 7 34.1 349 
 BRR  HZ EP       1614 17.93                             152    0.5610 73.6 300 
 BRR  HN ES   1   1614 34.68                             152    0.32 7 73.6 300 
 RUS  HZ EP       1614 19.25                             146   -0.3510 97.9 177 
 RUS  HN ES   1   1614 38.27                             146   -0.07 7 97.9 177 
 RUS  HZ I        1614 39.18         4.4 0.32            149           97.9 177 
 PTB  HZ EP       1614 23.13                             133    0.13 9  149 260 
 PTB  HN ES   1   1614 43.87                             133   -0.52 7  149 260 
 PTB  HZ I        1614 48.98         6.7 0.12            133            149 260 
 NOR  HE ES   1   1614 59.79                             120    0.21 6  234 235 
 SML  HZ EP       1614 32.33                             118   -0.45 8  247 335 
 SML  HN ES   1   1615  1.50                             118   -0.30 6  247 335 
 SML  HZ I        1615  8.07        13.2 0.24            119            247 335 
                                                                                
