 2017  324 1841 19.6 L   6.760 -73.133146.8  RSN  5 0.3 1.7LRSN                1
 GAP=160        0.82       6.9     4.0  6.5 -0.6035E+01  0.5570E+01  0.1154E+01E
 Epicentro: LOS SANTOS - SANTANDER                                             3
 ACTION:UPD 17-05-25 18:44 OP:jn   STATUS:               ID:20170324184119 L   I
 OLDACT:REG 17-03-24 21:14 OP:lv   STATUS:               ID:20170324182346d    3
 2017-03-24-1838-00M.COL___380                                                 6
 STAT SP IPHASW D HRMM SECON CODA AMPLIT PERI AZIMU VELO AIN AR TRES W  DIS CAZ7
 BAR2 EZ EP       1841 39.55                             172    0.3010 19.3 196 
 BAR2 EZ ES       1841 54.55                             172   -0.0410 19.3 196 
 BAR2 EZ I        1841 55.95         7.0 0.18            174           19.3 196 
 BRR  HZ EP       1841 41.12                             152    0.1010 74.6 301 
 BRR  HN ES       1841 58.32                             152    0.5710 74.6 301 
 BRR  HZ I        1842  1.83         8.9 0.18            149           74.6 301 
 PAM  EZ EP       1841 42.14                             150    0.0910 80.0  37 
 PAM  EN ES       1841 59.12                             150   -0.4610 80.0  37 
 PAM  EZ I        1842  1.39         6.7 0.52            149           80.0  37 
 PTB  HZ EP       1841 46.53                             132   -0.14 9  148 261 
 PTB  HN ES       1842  7.41                             132   -0.40 9  148 261 
 ZAR  HZ EP   4   1841 53.99                             122    1.60 0  207 293 
 ZAR  HN ES       1842 17.88                             122   -0.11 8  207 293 
 ZAR  HZ I        1842 23.08         7.0 0.26            122            207 293 
                                                                                
