 2011  824 1641 29.4 L   6.761 -73.063150.7  RSN  4 0.3 1.6LRSN                1
 GAP=204        0.62       6.5    12.8  6.7  0.5213E+02 -0.1609E+02 -0.2656E+01E
 Epicentro: LOS SANTOS - SANTANDER                                             3
 ACTION:UPD 12-07-13 15:53 OP:ep   STATUS:               ID:20110824164129 L   I
 2011-08-24-1638-50S.COL___167                                                 6
 STAT SP IPHASW D HRMM SECON CODA AMPLIT PERI AZIMU VELO AIN AR TRES W  DIS CAZ7
 BAR2 SZ EP   1   1641 49.63                             171    0.05 7 22.8 215 
 BAR2 SZ I        1641 50.20         7.5 0.15                          22.8 215 
 BAR2 SZ ES   1   1642  4.74                             171   -0.62 7 22.8 215 
 GIR2 SZ EP   1   1641 49.91                             165    0.09 7 38.0 338 
 GIR2 SZ ES   1   1642  6.05                             165    0.27 7 38.0 338 
 BRR  HZ EP   1   1641 51.60                             150   -0.04 7 81.3 298 
 BRR  HZ I        1641 52.05        18.6 0.10                          81.3 298 
 BRR  HN ES   1   1642  9.08                             150    0.07 7 81.3 298 
 RUS  HZ EP   1   1641 53.07                             146   -0.22 7 96.0 181 
 RUS  HE ES   1   1642 12.37                             146    0.41 7 96.0 181 
 RUS  HZ I        1642 13.53         3.3 0.20                          96.0 181 
                                                                                
