 2017  624 1224 33.5 L   6.723 -73.144148.0  RSN  5 0.5 1.5LRSN                1
 GAP=252        0.83       6.5     5.4  7.5  0.7460E+00  0.1170E+02  0.6562E+01E
 Epicentro: JORDAN - SANTANDER                                                 3
 ACTION:UPD 17-09-14 16:54 OP:jn   STATUS:               ID:20170624122433 L   I
 OLDACT:UP  17-06-24 23:52 OP:dani STATUS:               ID:20170624121743     3
 OLDACT:REG 17-06-24 22:00 OP:dani STATUS:               ID:20170624121743     3
 2017-06-24-1218-00M.COL___367                                                 6
 STAT SP IPHASW D HRMM SECON CODA AMPLIT PERI AZIMU VELO AIN AR TRES W  DIS CAZ7
 BAR2 EZ EP     D 1224 53.10                             174   -0.2010 15.1 196 
 BAR2 EZ ES       1225  8.89                             174    0.1810 15.1 196 
 BAR2 EZ I        1225 11.41         6.2 0.28            174           15.1 196 
 BRR  HZ EP       1224 55.15                             152   -0.0410 75.8 304 
 BRR  HN ES       1225 12.43                             152    0.3510 75.8 304 
 BRR  HZ I        1225 17.82         9.2 0.26            153           75.8 304 
 PTB  HZ EP       1225  0.18                             133   -0.39 9  147 262 
 PTB  HN ES       1225 21.19                             133   -0.48 9  147 262 
 PTB  HZ I        1225 23.97         2.5 0.14            136            147 262 
 ZAR  HE ES       1225 32.30                             123    0.10 8  208 294 
 NOR  HZ EP   3   1225 10.93                             120    2.04 2  230 236 
 NOR  HN ES       1225 36.93                             120    0.46 8  230 236 
 NOR  HZ I        1225 38.93         3.3 0.24            123            230 236 
                                                                                
