 2016  724 1721 37.9 L   6.806 -73.262138.7  RSN  4 0.1 1.4LRSN                1
 GAP=124        0.33       1.8     2.0  3.9  0.4330E+00  0.2929E+01 -0.2640E+00E
 Epicentro: ZAPATOCA - SANTANDER                                               3
 ACTION:UPD 17-03-29 16:54 OP:lp   STATUS:               ID:20160724172137 L   I
 OLDACT:DUP 16-07-24 22:41 OP:dnl  STATUS:               ID:20160724171760d    3
 2016-07-24-1717-59S.COL___334                                                 6
 STAT SP IPHASW D HRMM SECON CODA AMPLIT PERI AZIMU VELO AIN AR TRES W  DIS CAZ7
 BAR2 EZ EP   2   1721 56.79                             169    0.12 5 25.2 160 
 BAR2 EZ ES   2   1722 11.53                             169    0.18 5 25.2 160 
 PAM  EZ EP       1721 59.79                             147   -0.0610 85.7  46 
 PAM  EN ES       1722 17.03                             147    0.0210 85.7  46 
 PAM  EZ I        1722 19.16         3.8 0.52            152           85.7  46 
 RUS  HZ EP       1722  1.09                             142    0.0010  103 169 
 RUS  HN ES       1722 19.16                             142   -0.0510  103 169 
 RUS  HZ I        1722 21.22         3.8 0.44            147            103 169 
 ZAR  HZ EP   2   1722  9.00                             122    0.41 4  192 293 
 ZAR  HN ES       1722 32.48                             122   -0.09 9  192 293 
 ZAR  HZ I        1722 41.26         4.0 0.32            123            192 293 
                                                                                
