 2017  424 1808 38.8 L   6.755 -73.109149.8  RSN  4 0.1 1.5LRSN                1
 GAP=169        0.39       4.0     2.8  3.5 -0.1452E+01  0.2140E+00 -0.4013E+00E
 Epicentro: LOS SANTOS - SANTANDER                                             3
 ACTION:UPD 17-05-30 21:15 OP:jn   STATUS:               ID:20170424180838 L   I
 OLDACT:UP  17-04-25 00:55 OP:and  STATUS:               ID:20170424175741d    3
 OLDACT:UP  17-04-25 00:55 OP:and  STATUS:               ID:20170424175741d    3
 OLDACT:DUP 17-04-25 00:53 OP:and  STATUS:               ID:20170424175741d    3
 2017-04-24-1758-00M.COL___371                                                 6
 STAT SP IPHASW D HRMM SECON CODA AMPLIT PERI AZIMU VELO AIN AR TRES W  DIS CAZ7
 BAR2 EZ EP       18 8 58.81                             172   -0.0710 19.7 204 
 BAR2 EZ ES       18 9 14.62                             172    0.1010 19.7 204 
 BAR2 EZ I        18 9 15.01         6.7 0.28            172           19.7 204 
 BRR  HZ EP       18 9  0.62                             151   -0.1310 77.1 300 
 BRR  HN ES       18 9 17.83                             151   -0.0210 77.1 300 
 PAM  EZ IP     D 18 9  1.74                             151    0.1810 78.9  35 
 PAM  EN ES       18 9 19.20                             151   -0.1010 78.9  35 
 PAM  EZ I        18 9 20.97         6.8 0.48            149           78.9  35 
 ZAR  HZ EP   4   18 9 14.63                             122    2.52 0  210 293 
 ZAR  HN ES   2   18 9 38.28                             122    0.20 4  210 293 
 ZAR  HZ I        18 9 43.42         2.5 0.26            121            210 293 
                                                                                
