 2012  324 1000 40.8 L   6.771 -73.185144.1  RSN  5 0.3 1.4LRSN                1
 GAP=133        0.69       4.7     4.4  6.0 -0.4065E+00  0.3685E+01  0.2677E+01E
 ACTION:UP  12-03-31 23:22 OP:EP   STATUS:               ID:20120324100040 L   I
 2012-03-24-1000-00M.COL___196                                                 6
 STAT SP IPHASW D HRMM SECON CODA AMPLIT PERI AZIMU VELO SNR AR TRES W  DIS CAZ7
 BAR2 SZ EP   2   10 1  0.09                             172    -0.1 5   20 179 
 BAR2 SZ ES   1   10 1 15.69                             172     0.4 7   20 179 
 BAR2 SZ I        10 1 16.98         5.9 0.26                            20 179 
 BRR  HZ EP       10 1  2.08                             153     0.410   69 303 
 BRR  HE ES       10 1 17.77                             153    -0.110   69 303 
 BRR  HZ I        10 1 19.07         6.3 0.31                            69 303 
 PAM  SZ EP   1   10 1  3.09                             149     0.0 7   83  40 
 PAM  SN ES   1   10 1 20.26                             149    -0.3 7   83  40 
 RUS  HZ EP   1   10 1  4.14                             144     0.0 7   98 173 
 RUS  HE ES   1   10 1 22.25                             144    -0.2 7   98 173 
 RUS  HZ I        10 1 24.96         3.6 0.22                            98 173 
 PTB  HZ EP       10 1  7.00                             133    -0.2 9  143 260 
 PTB  HN ES   1   10 1 27.59                             133    -0.2 7  143 260 
 PTB  HZ I        10 1 33.88         1.9 0.12                           143 260 
                                                                                
