 2012  824 1806 20.4 L   6.786 -73.158153.3  RSN  8 0.4 2.0LRSN                1
 GAP=136        0.83       4.3     4.9  6.2 -0.4700E+00  0.6262E+01  0.6598E+01E
 Epicentro: LOS SANTOS - SANTANDER                                             3
 ACTION:UPD 12-09-10 11:58 OP:ep   STATUS:               ID:20120824180620 L   I
 2012-08-24-1800-00M.COL___218                                                 6
 STAT SP IPHASW D HRMM SECON CODA AMPLIT PERI AZIMU VELO AIN AR TRES W  DIS CAZ7
 BAR2 SZ EP       18 6 40.84                             172   -0.0310 21.6 187 
 BAR2 SZ ES   1   18 6 56.50                             172   -0.36 7 21.6 187 
 BAR2 SZ I        18 6 59.44        34.1 0.21                          21.6 187 
 BRR  HZ EP       18 6 42.75                             154    0.4410 70.7 300 
 BRR  HN ES   1   18 7  0.24                             154    0.81 7 70.7 300 
 BRR  HZ I        18 7  2.50        25.6 0.16                          70.7 300 
 PAM  SZ EP       18 6 43.66                             151    0.1510 79.5  40 
 PAM  SZ I        18 6 44.01        21.0 0.21                          79.5  40 
 PAM  SN ES   1   18 7  0.96                             151   -0.60 7 79.5  40 
 RUS  HZ EP       18 6 44.79                             146    0.0310 99.1 175 
 RUS  HN ES   1   18 7  3.85                             146    0.06 7 99.1 175 
 RUS  HZ I        18 7  6.00        10.4 0.26                          99.1 175 
 PTB  HZ EP       18 6 47.44                             134   -0.37 9  146 259 
 PTB  HN ES   1   18 7  8.71                             134   -0.51 7  146 259 
 PTB  HZ I        18 7 12.25         9.7 0.14                           146 259 
 ZAR  HZ EP   2   18 6 52.82                             124   -0.42 4  203 293 
 ZAR  HN ES   2   18 7 19.20                             124    0.32 4  203 293 
 ZAR  HZ I        18 7 26.56        10.2 0.18                           203 293 
 NOR  SZ EP       18 6 55.92                             120   -0.40 8  233 235 
 CHI  HZ EP       18 6 58.56                             119    0.27 8  247 195 
 CHI  HN ES   1   18 7 28.26                             119    0.39 6  247 195 
 CHI  HZ I        18 7 36.30         4.7 0.34                           247 195 
                                                                                
