 2012  924 1202 34.0 L   6.777 -73.138148.8  RSN  7 0.4 1.8LRSN                1
 GAP=139        0.89       6.1     5.3  9.7  0.3589E+01  0.6242E+01 -0.5086E+00E
 Epicentro: LOS SANTOS - SANTANDER                                             3
 ACTION:UPD 12-10-22 14:20 OP:ep   STATUS:               ID:20120924120234 L   I
 2012-09-24-1200-00M.COL___221                                                 6
 STAT SP IPHASW D HRMM SECON CODA AMPLIT PERI AZIMU VELO AIN AR TRES W  DIS CAZ7
 BAR2 SZ EP       12 2 54.09                             172    0.1510 21.1 194 
 BAR2 SZ I        12 3 15.10        12.6 0.40                          21.1 194 
 GIR2 SZ EP   1   12 2 54.12                             167    0.03 7 33.9 350 
 BRR  HZ EP   1   12 2 56.02                             152    0.44 7 73.2 300 
 BRR  HE ES   1   12 3 13.18                             152    0.76 7 73.2 300 
 PAM  SZ EP   1   12 2 56.93                             151    0.32 7 78.8  38 
 PAM  SN I        12 2 57.77         7.1 0.20                          78.8  38 
 PAM  SN ES   1   12 3 13.47                             151   -0.78 7 78.8  38 
 RUS  HZ EP   1   12 2 57.73                             145   -0.13 7 98.0 176 
 RUS  HN ES   1   12 3 16.53                             145    0.05 7 98.0 176 
 PTB  HN ES   1   12 3 21.82                             133   -0.68 7  148 260 
 PTB  HN I        12 3 27.29         8.7 0.46                           148 260 
 ZAR  HZ EP   1   12 3  6.37                             123   -0.45 6  206 293 
 ZAR  HN ES   1   12 3 32.37                             123   -0.05 6  206 293 
 ZAR  HN I        12 3 41.81         9.0 0.16                           206 293 
                                                                                
