 2010  624 1244  4.6 L   6.443 -73.489118.4  RSN  5 0.2 1.6LRSN                1
 GAP=120        0.46       4.0     5.3  6.1  0.4606E+01  0.1484E+02  0.5434E+00E
 Epicentro: SIMACOTA - SANTANDER                                               3
 ACTION:UP  10-08-24 10:12 OP:vdl  STATUS:               ID:20100624124404 L   I
 2010-06-24-1240-26S.COL___118                                                 6
 STAT SP IPHASW D HRMM SECON CODA AMPLIT PERI AZIMU VELO SNR AR TRES W  DIS CAZ7
 BAR2 SZ IP       1244 21.63                             161     0.310   38  64 
 BAR2 SZ ES   2   1244 34.19                             161    -0.3 5   38  64 
 RUS  HZ EP   1   1244 23.75                             145    -0.1 7   76 144 
 RUS  HN ES   2   1244 38.86                             145     0.0 5   76 144 
 RUS  HZ I        1244 40.28         5.9 0.19                            76 144 
 BRR  HZ EP   1   1244 23.01                             144    -0.3 7   78 341 
 BRR  HN ES   2   1244 38.05                             144     0.2 5   78 341 
 GUE  SZ EP   1   1244 31.62                             122    -0.1 7  166  22 
 HEL  HZ EP   1   1244 38.43                             113     0.0 6  227 263 
 HEL  HZ I        1245  7.48         4.6 0.25                           227 263 
                                                                                
