 2017 1024 1910 38.6 L   6.774 -73.121138.0  RSN 10 0.5 1.9LRSN                1
 GAP=141        1.26       4.6     5.0  7.2 -0.3579E+01  0.1148E+02  0.5855E+01E
 Epicentro: LOS SANTOS - SANTANDER                                             3
 ACTION:UPD 17-11-07 19:36 OP:rebc STATUS:               ID:20171024191038 L   I
 OLDACT:UP  17-10-24 23:38 OP:dhb  STATUS:               ID:20171024190738     3
 OLDACT:REG 17-10-24 20:47 OP:dhb  STATUS:               ID:20171024190738     3
 2017-10-24-1908-00M.COL___456                                                 6
 STAT SP IPHASW D HRMM SECON CODA AMPLIT PERI AZIMU VELO AIN AR TRES W  DIS CAZ7
 BAR2 EZ IP     C 1910 57.11                             171   -0.1710 21.2 199 
 BAR2 EZ ES       1911 11.40                             171   -0.4310 21.2 199 
 BAR2 EZ I        1911 12.84        22.8 0.26            170           21.2 199 
 BRR  HZ IP     C 1910 59.05                             150   -0.1110 75.0 299 
 BRR  HN ES       1911 16.31                             150    1.1210 75.0 299 
 BRR  HZ I        1911 20.48        14.7 0.14            148           75.0 299 
 PAM  EZ EP       1911  0.05                             149   -0.0010 78.0  37 
 PAM  EN ES       1911 16.93                             149    0.1610 78.0  37 
 PAM  EZ I        1911 19.33        16.6 0.58            153           78.0  37 
 RUS  HZ EP       1911  1.15                             143   -0.2510 97.6 178 
 RUS  HN ES       1911 19.42                             143    0.2610 97.6 178 
 RUS  HZ I        1911 20.42         8.7 0.28            146           97.6 178 
 PTB  HZ EP       1911  3.97                             130   -1.20 9  150 260 
 PTB  HN ES       1911 25.53                             130   -0.35 9  150 260 
 PTB  HZ I        1911 28.56         9.0 0.10            130            150 260 
 SPBC HZ EP       1911  6.37                             127   -0.12 9  163 220 
 SPBC HN ES       1911 27.99                             127   -0.24 9  163 220 
 SPBC HZ I        1911 31.78         8.6 0.10            129            163 220 
 ZAR  HZ EP       1911 11.54                             120    0.59 8  208 293 
 ZAR  HN ES       1911 35.64                             120   -0.53 8  208 293 
 ZAR  HZ I        1911 44.02        11.4 0.28            121            208 293 
 NOR  HZ EP       1911 13.83                             117   -0.15 8  235 235 
 NOR  HN ES       1911 41.83                             117    0.28 8  235 235 
 NOR  HZ I        1911 46.59         4.9 0.23            118            235 235 
 GUY2CHZ EP   2   1911 23.05                             111    1.10 4  302 236 
 GUY2CHE ES       1911 56.24                             111    0.49 7  302 236 
 GUY2CHZ I        1912  4.32         3.5 0.50                           302 236 
 PRA  HZ EP       1911 32.78                             105    1.03 6  391 210 
 PRA  HE ES       1912 13.72                             105    0.53 6  391 210 
 PRA  HZ I        1912 18.99         2.4 0.42            107            391 210 
                                                                                
