 2011  924 1128 15.9 L   6.801 -73.151144.0  RSN 15 0.3 2.6LRSN                1
 GAP= 75        0.63       3.2     3.6  4.4 -0.3077E+01  0.2954E+01  0.3065E+01E
 Epicentro: LOS SANTOS - SANTANDER                                             3
 ACTION:UPD 12-07-13 15:59 OP:ep   STATUS:               ID:20110924112816 L   I
 2011-09-24-1120-00M.COL___167                                                 6
 STAT SP IPHASW D HRMM SECON CODA AMPLIT PERI AZIMU VELO AIN AR TRES W  DIS CAZ7
 SAN  SZ EP       1128 35.60                             176    0.5110 9.43 115 
 SAN  SZ ES   2   1128 50.50                             176    0.46 5 9.43 115 
 BTL  SZ EP       1128 35.25                             172   -0.0110 18.3 315 
 BAR2 SZ IP     C 1128 35.14                             170   -0.2110 23.4 189 
 BAR2 SZ ES   2   1128 50.17                             170   -0.32 5 23.4 189 
 BAR2 SZ I        1128 51.12        86.9 0.34                          23.4 189 
 GIR2 SZ EP       1128 35.07                             167   -0.3210 31.1 351 
 GIR2 SZ ES   2   1128 49.99                             167   -0.57 5 31.1 351 
 BRR  HZ IP     C 1128 36.83                             152   -0.0310 70.6 299 
 BRR  HN ES   1   1128 53.68                             152    0.50 7 70.6 299 
 BRR  HZ I        1128 54.60       165.0 0.14                          70.6 299 
 PAM  SZ EP       1128 38.03                             150    0.0610 77.6  40 
 PAM  SE ES   2   1128 54.93                             150   -0.24 5 77.6  40 
 RUS  HZ EP       1128 39.28                             143   -0.2410  101 176 
 BRI  SZ EP       1128 39.63                             141   -0.0310  109  21 
 OCA  SZ EP       1128 44.23                             129    0.15 9  160 353 
 OCA  SZ I        1129 10.36        49.7 0.30                           160 353 
 ZAR  HZ EP   2   1128 47.47                             122   -0.73 4  203 292 
 ZAR  HN ES   2   1129 13.01                             122   -0.36 4  203 292 
 NOR  SZ EP   2   1128 51.13                             118   -0.38 4  234 234 
 NOR  SN ES   2   1129 18.66                             118   -0.61 4  234 234 
 CHI  HZ EP       1128 53.50                             117   -0.03 8  249 195 
 CHI  HN ES   2   1129 23.32                             117    0.47 4  249 195 
 HEL  HZ EP       1128 56.03                             114    0.04 8  272 256 
 HEL  HN ES   2   1129 27.02                             114   -0.23 4  272 256 
 HEL  HZ I        1129 32.78        18.4 0.36                           272 256 
 GUY  SZ EP       1129  0.27                             112    0.60 7  303 235 
 GUY  SN ES   2   1129 33.87                             112    0.07 4  303 235 
 GUY  SZ I        1129 42.99        19.8 0.50                           303 235 
 RREF HZ EP   3   1129  2.76                             110    0.81 2  321 229 
 RREF HZ I        1129 47.03        13.2 0.26                           321 229 
                                                                                
