 2014 1224 1527 46.4 L   6.829 -73.150146.8  RSN 20 0.5 2.8LRSN                1
 GAP= 70        1.10       2.5     2.8  4.8 -0.6685E+00  0.2960E+01  0.1294E+01E
 Epicentro: LOS SANTOS - SANTANDER                                             3
 ACTION:UPD 15-02-10 17:06 OP:nd   STATUS:               ID:20141224152746 L   I
 OLDACT:REG 14-12-24 22:36 OP:carl STATUS:               ID:20141224151750     3
 2014-12-24-1517-50M.COL___289                                                 6
 STAT SP IPHASW D HRMM SECON CODA AMPLIT PERI AZIMU VELO AIN AR TRES W  DIS CAZ7
 BAR2 EZ IP     D 1528  6.15                             169   -0.0710 26.4 188 
 BAR2 EZ ES       1528 21.73                             169    0.0510 26.4 188 
 BAR2 EZ I        1528 23.90       121.2 0.24            169           26.4 188 
 BRR  HZ EP       1528  7.90                             153    0.3410 69.3 296 
 BRR  HN ES       1528 25.06                             153    1.0010 69.3 296 
 BRR  HZ I        1528 28.09        91.1 0.30            153           69.3 296 
 PAM  SZ IP     D 1528  9.15                             152    0.5410 75.3  41 
 PAM  SN ES       1528 26.03                             152    0.1010 75.3  41 
 PAM  SZ I        1528 26.88        85.6 0.18            151           75.3  41 
 RUS  HZ EP       1528 10.13                             143   -0.3610  104 176 
 RUS  HN ES       1528 28.99                             143   -0.2910  104 176 
 RUS  HZ I        1528 30.41        48.5 0.44            142            104 176 
 PTB  HZ EP       1528 12.81                             132   -0.66 9  148 258 
 PTB  HN ES       1528 33.99                             132   -0.59 9  148 258 
 PTB  HZ I        1528 35.82        74.0 0.10            131            148 258 
 TAM  HZ IP       1528 14.63                             130    0.34 9  156 106 
 TAM  HZ I        1528 35.63        41.6 0.28            129            156 106 
 TAM  HN ES       1528 36.33                             130    0.29 9  156 106 
 OCA  HZ EP       1528 14.34                             130   -0.15 9  157 353 
 OCA  HN ES       1528 36.04                             130   -0.36 9  157 353 
 OCA  HZ I        1528 44.58        81.2 0.20            129            157 353 
 SPBC HZ EP       1528 15.12                             129   -0.07 9  165 218 
 SPBC HN ES       1528 37.21                             129   -0.43 9  165 218 
 SPBC HZ I        1528 44.25        91.9 0.58            128            165 218 
 ZAR  HZ EP       1528 19.62                             123    0.88 9  202 291 
 ZAR  HN ES       1528 43.77                             123   -0.20 9  202 291 
 ZAR  HZ I        1528 51.27        63.3 0.22            122            202 291 
 NOR  HZ EP       1528 22.29                             119   -0.06 8  236 234 
 NOR  HN ES       1528 50.05                             119   -0.33 8  236 234 
 NOR  HZ I        1528 57.60        34.9 0.26            117            236 234 
 SML  HZ EP       1528 22.24                             118   -0.51 8  241 335 
 SML  HN ES       1528 50.42                             118   -0.68 8  241 335 
 SML  HZ I        1529  0.80        87.3 0.10            117            241 335 
 CHI  HZ EP       1528 24.28                             117   -0.20 8  252 195 
 CHI  HN ES       1528 53.89                             117   -0.29 8  252 195 
 CHI  HZ I        1528 58.99        43.6 0.30            116            252 195 
 ROSC BZ EP   4   1528 25.73                             117    0.88 0  255 211 
 ROSC BN ES   4   1528 56.06                             117    1.22 0  255 211 
 ROSC BZ I        1529  0.83       110.5 0.40            116            255 211 
 HEL  HZ EP       1528 27.54                             115    0.84 8  272 255 
 HEL  HN ES       1528 58.20                             115    0.07 8  272 255 
 HEL  HZ I        1529  4.76        33.3 0.24            114            272 255 
 URE  HN ES   4   1528 56.57                             114   -2.70 0  282 291 
 VIL  SZ EP       1528 30.08                             112   -0.13 7  306 191 
 VIL  SN ES       1529  3.75                             112   -0.63 7  306 191 
 VIL  SZ I        1529  6.91        60.3 0.38            111            306 191 
 DBB  SZ EP       1528 34.19                             110    0.35 7  339 274 
 DBB  SZ ES       1529 10.46                             110   -0.37 7  339 274 
 DBB  SZ I        1529 12.42        83.8 0.52            109            339 274 
 TOL  SZ EP       1528 35.11                             109    0.19 6  345 224 
 TOL  SN ES       1529 13.78                             109    1.02 6  345 224 
 TOL  SZ I        1529 22.22        67.3 0.50            108            345 224 
 MON  HZ EP   4   1528 33.18                             109   -1.99 0  351 308 
 MON  HN ES   4   1529 11.76                             109   -1.45 0  351 308 
 MON  HZ I        1529 13.87        16.0 0.34            108            351 308 
 ANIL HZ EP       1528 37.05                             109    0.58 6  359 224 
 SDV  BZ EP       1528 35.69                             108   -0.60 6  359  51 
 ANIL HN ES       1529 16.16                             109    0.64 6  359 224 
 ANIL HZ I        1529 26.24        11.7 0.30            108            359 224 
 SDV  BN ES   4   1529 13.26                             108   -1.95 0  359  51 
                                                                                
