 2016  924 1731 22.5 L   6.782 -73.162144.5  RSN 14 0.4 2.4LRSN                1
 GAP= 71        1.05       3.4     3.0  5.9 -0.8010E+00  0.3551E+01  0.2046E+01E
 Epicentro: LOS SANTOS - SANTANDER                                             3
 ACTION:UPD 17-08-17 21:15 OP:lp   STATUS:               ID:20160924173122 L   I
 OLDACT:UP  16-09-25 00:05 OP:ar   STATUS:               ID:20160924172745     3
 OLDACT:UP  16-09-25 00:04 OP:ar   STATUS:               ID:20160924172745     3
 OLDACT:REG 16-09-24 20:48 OP:ar   STATUS:               ID:20160924172745     3
 2016-09-24-1728-00M.COL___330                                                 6
 STAT SP IPHASW D HRMM SECON CODA AMPLIT PERI AZIMU VELO AIN AR TRES W  DIS CAZ7
 BAR2 EZ EP       1731 41.75                             171   -0.2010 21.1 186 
 BAR2 EZ ES       1731 56.52                             171   -0.5910 21.1 186 
 BAR2 EZ I        1731 58.40       106.9 0.16            167           21.1 186 
 BRR  HZ IP     C 1731 43.56                             152    0.0610 70.6 301 
 BRR  HN ES       1732  0.56                             152    0.7010 70.6 301 
 BRR  HZ I        1732  3.84        48.4 0.30            149           70.6 301 
 PAM  EZ EP       1731 44.71                             150   -0.0510 80.0  40 
 PAM  EN ES       1732  1.87                             150   -0.2410 80.0  40 
 PAM  EZ I        1732  3.94        71.4 0.52            155           80.0  40 
 RUS  HZ EP       1731 45.75                             144   -0.2610 98.7 175 
 RUS  HN ES       1732  4.65                             144    0.3110 98.7 175 
 RUS  HZ I        1732  5.52        15.7 0.26            144           98.7 175 
 PTB  HZ EP       1731 49.63                             132    0.44 9  146 259 
 PTB  HN ES       1732  9.07                             132   -0.92 9  146 259 
 PTB  HZ I        1732 18.22        14.3 0.14            130            146 259 
 TAM  HZ EP       1731 50.13                             130   -0.08 9  156 104 
 TAM  HN ES       1732 11.94                             130    0.13 9  156 104 
 SPBC HZ EP       1731 50.63                             129   -0.04 9  161 219 
 SPBC HN ES       1732 13.06                             129    0.44 9  161 219 
 SPBC HZ I        1732 17.57        55.9 0.24            128            161 219 
 OCA  HN ES       1732 13.61                             129    0.57 9  162 354 
 ZAR  HZ EP       1731 54.40                             122   -0.39 9  203 293 
 ZAR  HN ES       1732 19.71                             122   -0.25 9  203 293 
 ZAR  HZ I        1732 26.53        36.0 0.40            121            203 293 
 NOR  HZ EP       1731 57.94                             118    0.05 8  232 235 
 NOR  HN ES       1732 26.10                             118    0.61 8  232 235 
 NOR  HZ I        1732 33.31        16.7 0.12            118            232 235 
 ROSC BZ EP   4   1732  2.30                             117    2.02 0  250 211 
 ROSC BN ES   4   1732 32.16                             117    2.42 0  250 211 
 ROSC BZ I        1732 37.94        22.9 0.35            116            250 211 
 HEL  HZ EP   4   1732  5.42                             115    3.00 0  270 256 
 HEL  HN ES       1732 33.32                             115   -0.22 8  270 256 
 HEL  HZ I        1732 42.64         7.1 0.22            114            270 256 
 ELA  HZ EP   4   1732 12.27                             110    3.26 0  326 230 
 ELA  HN ES   4   1732 49.57                             110    4.29 0  326 230 
 ELA  HZ I        1732 54.31         8.6 0.50            110            326 230 
 CRJC HZ EP   4   1732 22.10                             103   -3.13 0  470   4 
 CRJC HN ES   4   1733  8.59                             103   -5.56 0  470   4 
 CRJC HZ I        1733 16.74         8.9 0.20            104            470   4 
                                                                                
