 2016  524 1220 28.3 L   6.568 -73.529110.0  RSN 23 0.5 2.5LRSN                1
 GAP= 52        1.23       2.6     2.5  5.3 -0.9125E+00  0.4241E+01  0.3878E+00E
 Epicentro: EL CARMEN - SANTANDER                                              3
 ACTION:UPD 16-08-18 17:49 OP:cam  STATUS:               ID:20160524122028 L   I
 OLDACT:UP  16-06-01 05:06 OP:dnl  STATUS:               ID:20160524122028 L   3
 OLDACT:UP  16-05-24 23:00 OP:ar   STATUS:               ID:20160524121747     3
 OLDACT:REG 16-05-24 20:12 OP:ar   STATUS:               ID:20160524121747     3
 2016-05-24-1217-47M.COL___301                                                 6
 STAT SP IPHASW D HRMM SECON CODA AMPLIT PERI AZIMU VELO AIN AR TRES W  DIS CAZ7
 BAR2 EZ IP     D 1220 44.43                             160    0.2410 38.4  86 
 BAR2 EZ ES       1220 57.10                             160    0.5210 38.4  86 
 BRR  HZ EP       1220 45.26                             148    0.0810 63.0 341 
 BRR  HN ES       1220 59.06                             148    0.7310 63.0 341 
 BRR  HZ I        1221  5.78        51.6 0.14            145           63.0 341 
 RUS  HZ EP       1220 47.52                             139   -0.3010 89.5 147 
 RUS  HE ES       1221  2.99                             139   -0.0410 89.5 147 
 RUS  HZ I        1221  4.65        24.2 0.32            133           89.5 147 
 PTB  HZ EP       1220 47.33                             134   -0.9510  103 268 
 PTB  HE ES       1221  2.97                             134   -0.8810  103 268 
 PTB  HZ I        1221  7.33        49.7 0.36            131            103 268 
 SPBC HZ EP       1220 49.57                             130   -0.2010  118 211 
 SPBC HN ES       1221  6.26                             130   -0.2410  118 211 
 SPBC HZ I        1221 11.63       110.5 0.64            126            118 211 
 PAM  EZ EP       1220 51.28                             128    0.2710  125  47 
 PAM  EN ES       1221  8.64                             128   -0.0810  125  47 
 PAM  EZ I        1221  9.68        57.4 0.18            123            125  47 
 ZAR  HZ EP       1220 55.99                             117    0.05 9  179 305 
 ZAR  HN ES       1221 18.50                             117    1.02 9  179 305 
 ZAR  HZ I        1221 21.20        53.6 0.32            114            179 305 
 NOR  HZ EP       1220 56.18                             116   -0.51 9  185 233 
 NOR  HN ES       1221 18.17                             116   -0.66 9  185 233 
 NOR  HZ I        1221 20.41        56.5 0.18            113            185 233 
 OCA  HZ EP       1220 56.51                             116   -0.42 9  186   7 
 OCA  HN ES       1221 19.24                             116   -0.00 9  186   7 
 OCA  HZ I        1221 23.41        89.6 0.24            113            186   7 
 TAM  HZ EP       1220 57.22                             115   -0.28 9  193  94 
 TAM  HZ I        1221 19.07        23.4 0.52            111            193  94 
 TAM  HN ES       1221 19.60                             115   -0.67 9  193  94 
 ROSC BZ EP   9   1221  2.01                             113    2.12 0  210 205 
 ROSC BN ES       1221 27.38                             113    0.74 8  210 205 
 ROSC BZ I        1221 31.80        36.9 0.40            110            210 205 
 CHI  HZ EP   4   1221  2.95                             112    2.43 0  215 186 
 CHI  HN ES       1221 26.54                             112    0.90 8  215 186 
 CHI  HZ I        1221 30.83        17.4 0.52            110            215 186 
 HEL  HZ EP       1221  2.07                             111    0.51 8  225 259 
 HEL  HN ES       1221 27.81                             111    0.33 8  225 259 
 HEL  HZ I        1221 33.11        19.9 0.24            109            225 259 
 URE  HZ EP       1221  4.28                             108   -0.52 8  257 301 
 URE  HN ES       1221 32.74                             108   -0.51 8  257 301 
 URE  HZ I        1221 39.19        31.6 0.24            106            257 301 
 CBOC HZ EP       1221  9.45                             106    1.13 7  286 254 
 CBOC HN ES       1221 39.18                             106   -0.35 7  286 254 
 CBOC HZ I        1221 42.76         7.1 0.32            105            286 254 
 DBB  SZ EP       1221 10.12                             104    0.15 7  300 280 
 DBB  SZ ES       1221 42.46                             104    0.01 7  300 280 
 DBB  SZ I        1221 48.06        21.2 0.26            104            300 280 
 PTGC HZ EP   4   1221  9.01                             104   -1.29 0  304 149 
 PTGC HN ES   4   1221 40.77                             104   -2.28 0  304 149 
 PTGC HZ I        1222  6.09        27.8 0.36            103            304 149 
 ORTC HZ EP       1221 16.73                             102    0.90 6  350 213 
 ORTC HN ES       1221 53.73                             102    0.84 6  350 213 
 ORTC HZ I        1222  1.28         9.7 0.46            101            350 213 
 PRA  HZ EP       1221 15.93                             102    0.17 6  350 206 
 PRA  HN ES       1221 52.81                             102    0.05 6  350 206 
 PRA  HZ I        1221 57.86        16.3 0.32            101            350 206 
 PAL  HZ EP       1221 16.87                             101    0.30 6  356 239 
 PAL  HN ES       1221 53.80                             101   -0.41 6  356 239 
 PAL  HZ I        1221 58.90        10.4 0.26            101            356 239 
 ARGC HZ EP   9   1221 24.47                             100    6.04 0  372 348 
 ARGC HN ES       1222  3.77                              99    0.21 6  372 348 
 ARGC HZ I        1222 10.70        12.9 0.30            101            372 348 
 SDV  BN ES   4   1222  0.72                              99   -5.19 0  409  51 
 SJC  HZ EP       1221 23.03                              99   -0.08 6  411 334 
 SJC  HN ES   4   1222  3.13                              99   -2.72 0  411 334 
 SJC  HZ I        1222 23.69         5.7 0.28            100            411 334 
 CRJC HZ EP       1221 34.20                              96    0.53 4  498   8 
 CRJC HN ES   4   1222 23.12                              96   -1.52 0  498   8 
 CRJC HZ I        1222 26.84        17.0 0.18             98            498   8 
                                                                                
