 2017 1224 1630  3.9 L   6.841 -73.152141.7  RSN  9 0.5 1.9LRSN                1
 GAP=145        1.20       4.4     5.6  7.5 -0.9734E+01  0.1361E+02  0.2396E+01E
 Epicentro: LOS SANTOS - SANTANDER                                             3
 ACTION:UPD 18-01-04 13:23 OP:rebc STATUS:               ID:20171224163003 L   I
 OLDACT:UP  17-12-25 00:34 OP:dhb  STATUS:               ID:20171224162742     3
 OLDACT:REG 17-12-24 21:51 OP:osc  STATUS:               ID:20171224162742     3
 2017-12-24-1628-00M.COL___475                                                 6
 STAT SP IPHASW D HRMM SECON CODA AMPLIT PERI AZIMU VELO AIN AR TRES W  DIS CAZ7
 BAR2 EZ EP       1630 22.89                             168   -0.2310 27.7 187 
 BAR2 EZ ES       1630 37.97                             168   -0.1510 27.7 187 
 BAR2 EZ I        1630 39.64        10.4 0.40            170           27.7 187 
 PAM  EZ EP       1630 25.68                             151    0.1910 74.4  42 
 PAM  EN ES       1630 43.06                             151    0.7210 74.4  42 
 PAM  EZ I        1630 45.07         7.0 0.20            154           74.4  42 
 PTB  HZ EP       1630 29.89                             131   -0.65 9  148 257 
 PTB  HN ES       1630 51.11                             131   -0.22 9  148 257 
 PTB  HZ I        1630 56.86         5.4 0.54            132            148 257 
 OCA  HZ EP       1630 31.73                             130    0.29 9  156 353 
 OCA  HN ES       1630 51.98                             130   -0.96 9  156 353 
 OCA  HZ I        1631  1.93        15.5 0.28            131            156 353 
 SPBC HZ EP       1630 31.72                             127   -0.65 9  166 218 
 SPBC HN ES       1630 54.43                             127   -0.15 9  166 218 
 SPBC HZ I        1631  1.05        12.6 0.22            130            166 218 
 ZAR  HZ EP       1630 35.93                             122    0.11 9  202 291 
 ZAR  HE ES       1631  1.52                             122    0.79 9  202 291 
 ZAR  HZ I        1631  7.26         7.4 0.32            123            202 291 
 NOR  HZ EP       1630 39.70                             117    0.10 8  237 233 
 NOR  HN ES       1631  7.81                             117    0.35 8  237 233 
 GUY2CHZ EP       1630 48.41                             111    0.88 7  303 234 
 GUY2CHN ES   4   1631 24.86                             111    3.28 0  303 234 
 GUY2CHZ I        1631 29.73         4.8 0.74                           303 234 
 PRA  HZ EP       1630 57.34                             106   -0.34 6  396 209 
 PRA  HN ES       1631 40.15                             106    0.50 6  396 209 
 PRA  HZ I        1631 44.75         2.8 0.30            108            396 209 
                                                                                
