 2017  924 1650 59.1 L   6.791 -73.131139.6  RSN  7 0.4 1.7LRSN                1
 GAP=139        1.00       4.3     4.5  7.1 -0.1682E+01  0.1249E+02  0.1242E+01E
 Epicentro: LOS SANTOS - SANTANDER                                             3
 ACTION:UPD 17-10-05 19:15 OP:rebc STATUS:               ID:20170924165059 L   I
 OLDACT:REG 17-09-24 20:20 OP:lv   STATUS:               ID:20170924164745     3
 2017-09-24-1648-00M.COL___408                                                 6
 STAT SP IPHASW D HRMM SECON CODA AMPLIT PERI AZIMU VELO AIN AR TRES W  DIS CAZ7
 BAR2 EZ EP       1651 17.72                             170   -0.2210 22.7 195 
 BAR2 EZ ES       1651 32.52                             170   -0.1410 22.7 195 
 BAR2 EZ I        1651 33.64        19.6 0.32            170           22.7 195 
 BRR  HZ IP     D 1651 19.51                             151   -0.1510 73.1 299 
 BRR  HN ES       1651 36.15                             151    0.4210 73.1 299 
 BRR  HZ I        1651 40.33         8.2 0.14            150           73.1 299 
 PAM  EZ EP       1651 20.55                             150   -0.0610 77.1  38 
 PAM  EN ES       1651 37.60                             150    0.1910 77.1  38 
 PAM  EZ I        1651 39.60        13.5 0.50            154           77.1  38 
 RUS  HZ EP       1651 21.80                             143   -0.3310 99.5 177 
 RUS  HN ES       1651 40.22                             143    0.1010 99.5 177 
 RUS  HZ I        1651 42.24         4.0 0.30            145           99.5 177 
 ZAR  HZ EP       1651 32.18                             121    0.87 8  206 292 
 ZAR  HE ES       1651 55.53                             121   -0.94 8  206 292 
 ZAR  HZ I        1652  0.80         6.8 0.10            122            206 292 
 NOR  HN ES       1652  2.44                             117    0.26 8  235 235 
 NOR  HZ I        1652  7.87         3.0 0.16            119            235 235 
 GUY2CHN ES       1652 16.47                             111    0.13 7  302 235 
                                                                                
