 2011  524 1520 59.5 L   7.363 -73.100117.2  RSN  4 0.3 1.8LRSN                1
 GAP=142        0.65       8.8     8.5 10.1 -0.4575E+02 -0.6104E+01  0.3176E+02E
 Epicentro: MATANZA - SANTANDER                                                3
 ACTION:UP  11-06-29 08:55 OP:tino STATUS:               ID:20110524152059 L   I
 2011-05-24-1517-28S.COL___141                                                 6
 STAT SP IPHASW D HRMM SECON CODA AMPLIT PERI AZIMU VELO SNR AR TRES W  DIS CAZ7
 PAM  SZ EP       1521 16.80                             158    -0.110   44  93 
 PAM  SN ES   2   1521 29.89                             158    -0.5 5   44  93 
 BTL  SZ EP       1521 17.19                             154     0.310   53 201 
 GRA  SZ EP   1   1521 17.37                             149    -0.2 7   66  30 
 GRA  SZ ES   1   1521 31.92                             149     0.3 7   66  30 
 GRA  SZ I        1521 34.65        25.0 0.24                            66  30 
 BRR  HZ EP   2   1521 17.25                             146    -0.6 5   73 247 
 BRR  HN ES   2   1521 32.03                             146     0.0 5   73 247 
 BRR  HZ I        1521 33.46        11.7 0.12                            73 247 
                                                                                
