 2011  624 1525  8.9 L   6.809 -73.141147.5  RSN 32 0.5 4.0LRSN                1
 GAP= 73        0.97       2.8     4.1  4.5 -0.3293E+01  0.4722E+01  0.2826E+01E
 Epicentro: LOS SANTOS - SANTANDER                                             3
 ACTION:UP  11-07-14 19:07 OP:ep   STATUS:               ID:20110624152508 L   I
 2011-06-24-1523-35S.COL___140                                                 6
 STAT SP IPHASW D HRMM SECON CODA AMPLIT PERI AZIMU VELO SNR AR TRES W  DIS CAZ7
 SAN  SZ IP       1525 29.26                             176     0.810    9 123 
 SAN  SZ ES   1   1525 43.95                             176     0.2 7    9 123 
 BTL  SZ IP       1525 28.87                             173     0.210   19 311 
 BTL  SZ ES   1   1525 43.45                             173    -0.6 7   19 311 
 BAR2 SZ IP       1525 28.75                             170     0.010   24 191 
 BAR2 SZ ES   2   1525 43.67                             170    -0.6 5   24 191 
 BAR2 SZ I        1525 44.89      1944.1 0.32                            24 191 
 GIR2 SZ EP       1525 28.81                             168     0.010   30 349 
 BRR  HZ IP     C 1525 30.61                             153     0.410   71 298 
 BRR  HN ES   1   1525 47.60                             153     0.7 7   71 298 
 BRR  HZ I        1525 51.72      1600.6 0.15                            71 298 
 PAM  SZ IP       1525 31.72                             151     0.510   76  40 
 PAM  SN ES   1   1525 48.19                             151    -0.5 7   76  40 
 RUS  HZ IP     C 1525 32.67                             144    -0.210  102 176 
 RUS  HN ES   1   1525 51.25                             144    -0.4 7  102 176 
 BRI  SZ IP       1525 33.27                             142     0.410  107  21 
 BRI  SZ ES   1   1525 51.63                             142     0.0 7  107  21 
 GRA  SZ IP       1525 34.55                             137     0.310  125  17 
 GRA  SZ ES   1   1525 53.35                             137    -0.6 7  125  17 
 GRA  SZ I        1525 56.90      1025.2 0.43                           125  17 
 OCA  SZ IP       1525 37.26                             130     0.0 9  159 353 
 OCA  SZ ES   1   1525 58.84                             130    -0.6 7  159 353 
 OCA  SZ I        1526  2.42      1582.4 0.22                           159 353 
 YOP  SZ IP       1525 39.55                             126     0.4 9  180 154 
 YOP  SN ES   1   1526  3.34                             126     0.6 7  180 154 
 NOR  SZ EP       1525 44.59                             119    -0.3 8  236 234 
 NOR  SN ES   1   1526 12.20                             119    -0.7 6  236 234 
 CHI  HZ EP       1525 46.67                             117    -0.2 8  250 195 
 CHI  HN ES   1   1526 16.12                             117    -0.3 6  250 195 
 CHI  HZ I        1526 19.83       406.6 0.64                           250 195 
 ROSC BZ EP   3   1525 48.67                             117     1.4 2  254 211 
 ROSC BN ES   2   1526 17.45                             117     0.3 4  254 211 
 ROSC BZ I        1526 22.69       977.9 0.52                           254 211 
 HEL  HZ EP       1525 48.65                             115    -0.7 8  273 256 
 HEL  HN ES   2   1526 21.54                             115     0.7 4  273 256 
 HEL  HZ I        1526 27.91       486.2 0.48                           273 256 
 VIL  SZ EP       1525 51.94                             112    -0.6 7  304 192 
 VIL  SZ I        1526 36.61       309.6 0.42                           304 192 
 GUY  SZ EP   1   1525 52.84                             112    -0.2 5  305 235 
 GUY  SN ES   2   1526 27.07                             112    -0.3 4  305 235 
 GUY  SZ I        1526 34.45       606.0 0.36                           305 235 
 RREF HZ EP       1525 54.94                             111    -0.3 7  323 229 
 RREF HZ I        1526 37.22       386.1 0.30                           323 229 
 DBB  SZ EP       1525 57.07                             110     0.5 7  340 274 
 TOL  SZ EP       1525 57.43                             110     0.1 7  345 225 
 MON  HZ EP   4   1525 56.07                             109    -1.9 0  353 308 
 SDV  BZ EP       1525 58.33                             108    -0.6 6  359  50 
 PRA  HZ EP       1526  2.08                             107    -0.6 6  393 210 
 PRA  HN ES   1   1526 44.45                             107    -0.1 4  393 210 
 PRA  HZ I        1526 46.59       585.7 0.29                           393 210 
 SJA  SZ EP   2   1526  2.81                             106    -0.9 3  401 193 
 SJA  SZ I        1526 56.63       680.0 0.37                           401 193 
 SJC  HZ IP   2 C 1526  2.57                             106    -1.9 3  409 327 
 SJC  HZ I        1526 48.62       191.0 0.43                           409 327 
 GUA  SZ EP   3   1526 11.59                             103    -0.6 1  475 173 
 MARA HZ EP   2   1526 19.25                             101    -0.9 2  538 216 
 URI  HZ EP   3   1526 19.49                             101    -2.3 1  556  13 
 MAL  SZ EP   2   1526 23.14                             101     1.0 2  558 237 
 PCON HZ EP   1   1526 30.16                             100     0.7 2  613 216 
 POP2 HZ EP   2   1526 28.62                             100    -0.5 1  614 220 
 SOTA HZ EP   1   1526 33.73                              99     0.6 2  644 217 
 CRU  SZ EP   1   1526 43.67                              98     1.9 1  717 216 
                                                                                
