 2011  324 1637 56.5 L   6.815 -73.116141.1  RSN  6 0.4 1.8LRSN                1
 GAP=159        0.87       7.0     8.5  8.0 -0.3421E+02  0.7857E+01  0.1053E+02E
 Epicentro: LOS SANTOS - SANTANDER                                             3
 ACTION:UP  11-06-16 14:35 OP:jfem STATUS:               ID:20110324163756 L   I
 2011-03-24-1638-12S.COL___138                                                 6
 STAT SP IPHASW D HRMM SECON CODA AMPLIT PERI AZIMU VELO SNR AR TRES W  DIS CAZ7
 BAR2 SZ EP       1638 15.63                             169     0.010   26 197 
 BAR2 SZ ES   1   1638 30.04                             169    -0.5 7   26 197 
 BAR2 SZ I        1638 31.73        15.9 0.25                            26 197 
 BRR  HZ EP       1638 17.38                             151     0.110   73 296 
 BRR  HN ES   1   1638 33.94                             151     0.5 7   73 296 
 BRR  HZ I        1638 37.65        20.9 0.16                            73 296 
 PAM  SZ EP   2   1638 18.50                             151     0.5 5   74  38 
 PAM  SN ES   1   1638 35.28                             151     0.5 7   74  38 
 PAM  SZ I        1638 36.87         4.5 0.29                            74  38 
 GRA  SZ EP   1   1638 20.98                             137    -0.1 7  123  16 
 GRA  SZ ES   1   1638 39.52                             137    -0.8 7  123  16 
 GRA  SZ I        1638 42.02         9.4 0.33                           123  16 
 NOR  SZ EP   1   1638 31.98                             117    -0.4 6  238 235 
 NOR  SN ES   2   1638 59.90                             117    -0.4 4  238 235 
 PRA  HZ EP   2   1638 50.42                             106     0.2 3  395 210 
 PRA  HN ES   2   1639 32.73                             106     0.6 3  395 210 
                                                                                
