 2017 1124 1331 42.5 L   6.793 -73.153142.0  RSN  5 0.3 1.9LRSN                1
 GAP=136        0.84       4.4     3.9  6.6 -0.1752E+00  0.9799E+01 -0.4505E+01E
 Epicentro: LOS SANTOS - SANTANDER                                             3
 ACTION:UPD 17-12-12 19:59 OP:rebc STATUS:               ID:20171124133142 L   I
 OLDACT:REG 17-11-24 20:27 OP:edw  STATUS:               ID:20171124132741     3
 2017-11-24-1328-00M.COL___492                                                 6
 STAT SP IPHASW D HRMM SECON CODA AMPLIT PERI AZIMU VELO AIN AR TRES W  DIS CAZ7
 BAR2 EZ IP     C 1332  1.69                             170   -0.0010 22.4 188 
 BAR2 EZ ES       1332 16.81                             170    0.1810 22.4 188 
 BAR2 EZ I        1332 18.38        34.1 0.32            170           22.4 188 
 PAM  EZ IP     C 1332  4.66                             150    0.2410 78.6  40 
 PAM  EN ES       1332 21.12                             150   -0.3710 78.6  40 
 PAM  EZ I        1332 23.86        15.5 0.48            155           78.6  40 
 RUS  HE EP       1332  5.99                             143    0.1310 99.8 176 
 RUS  HZ ES       1332 24.21                             143    0.1610 99.8 176 
 RUS  HE I        1332 28.71         7.5 0.70            146           99.8 176 
 PTB  HZ EP       1332  8.38                             131   -0.72 9  147 259 
 PTB  HN ES       1332 29.59                             131   -0.24 9  147 259 
 PTB  HZ I        1332 35.10         5.9 0.72            132            147 259 
 ZAR  HZ EP       1332 14.98                             122    0.30 9  204 292 
 ZAR  HN ES       1332 40.17                             122    0.41 9  204 292 
 ZAR  HZ I        1332 46.43         9.6 0.40            123            204 292 
                                                                                
