 2011  224 1304 30.9 L   6.794 -73.056136.0  RSN  5 0.2 1.3LRSN                1
 GAP=169        0.42       4.0    18.9  7.3 -0.2920E+02 -0.9082E+02  0.8395E+00E
 Epicentro: LOS SANTOS - SANTANDER                                             3
 ACTION:UP  11-03-28 15:10 OP:jfem STATUS:               ID:20110224130430 L   I
 2011-02-24-1302-24S.COL___137                                                 6
 STAT SP IPHASW D HRMM SECON CODA AMPLIT PERI AZIMU VELO SNR AR TRES W  DIS CAZ7
 BAR2 SZ EP   1   13 4 49.36                             167     0.0 7   27 212 
 BAR2 SZ ES   1   13 5  3.73                             167    -0.1 7   27 212 
 BAR2 SZ I        13 5  6.04         7.1 0.40                            27 212 
 BTL  SZ IP       13 4 49.54                             167     0.110   27 300 
 GIR2 SZ EP   3   13 4 48.90                             164    -0.6 2   35 334 
 RUS  HZ EP       13 4 53.54                             142    -0.110  100 182 
 RUS  HN ES   3   13 5 12.01                             142     0.7 2  100 182 
 RUS  HZ I        13 5 13.06         1.9 0.34                           100 182 
 GRA  SZ EP       13 4 55.04                             135     0.010  124  13 
 GRA  SZ I        13 5  2.17         3.5 0.28                           124  13 
                                                                                
