 2015  224 1753  5.9 L   6.801 -73.163143.6  RSN  8 0.4 2.2LRSN                1
 GAP=134        1.09       5.0     4.9  6.6 -0.8949E+01  0.8247E+01  0.5260E+01E
 Epicentro: LOS SANTOS - SANTANDER                                             3
 ACTION:UPD 15-04-30 21:29 OP:nd   STATUS:               ID:20150224175305 L   I
 OLDACT:DUP 15-02-24 21:59 OP:carl STATUS:               ID:20150224174746d    3
 2015-02-24-1747-45M.COL___299                                                 6
 STAT SP IPHASW D HRMM SECON CODA AMPLIT PERI AZIMU VELO AIN AR TRES W  DIS CAZ7
 BAR2 EZ EP       1753 25.07                             170   -0.1910 23.2 185 
 BAR2 EZ ES       1753 40.03                             170   -0.3410 23.2 185 
 BAR2 EZ I        1753 41.55        30.8 0.44            170           23.2 185 
 BRR  HZ EP       1753 26.89                             153    0.1810 69.5 299 
 BRR  HN ES       1753 43.79                             153    0.8410 69.5 299 
 BRR  HZ I        1753 44.49        30.2 0.12            154           69.5 299 
 PAM  SZ EP       1753 27.98                             150    0.0310 78.5  41 
 PAM  SN ES       1753 44.95                             150   -0.2010 78.5  41 
 PAM  SZ I        1753 46.91        30.8 0.46            152           78.5  41 
 RUS  HZ EP       1753 29.43                             143   -0.0210  101 175 
 RUS  HN ES       1753 48.00                             143    0.1810  101 175 
 RUS  HZ I        1753 49.45        25.7 0.30            144            101 175 
 PTB  HZ EP       1753 31.91                             132   -0.61 9  146 259 
 PTB  HN ES       1753 52.64                             132   -0.64 9  146 259 
 PTB  HZ I        1753 54.83        20.0 0.20            133            146 259 
 SPBC HZ EP       1753 34.07                             129   -0.05 9  162 218 
 SPBC HN ES       1753 56.72                             129    0.58 9  162 218 
 SPBC HZ I        1753 58.55        25.7 0.18            130            162 218 
 NOR  HZ EP       1753 41.65                             118    0.32 8  233 234 
 NOR  HN ES       1754  8.25                             118   -0.73 8  233 234 
 NOR  HZ I        1754 10.81         9.4 0.20            119            233 234 
 GUY2CHZ EP       1753 49.81                             112    0.58 7  300 235 
 GUY2CHN ES       1754 23.31                             112    0.27 7  300 235 
 GUY2CHZ I        1754 30.17         4.4 0.34                           300 235 
                                                                                
