 2017 1224 1641 42.5 L   6.796 -73.156143.4  RSN  5 0.3 1.5LRSN                1
 GAP=147        0.67       3.8     3.4  5.3 -0.4358E+01  0.6863E+01 -0.1872E+01E
 Epicentro: LOS SANTOS - SANTANDER                                             3
 ACTION:UPD 18-01-04 13:23 OP:rebc STATUS:               ID:20171224164142 L   I
 OLDACT:REG 17-12-24 21:52 OP:osc  STATUS:               ID:20171224163739     3
 2017-12-24-1638-00M.COL___475                                                 6
 STAT SP IPHASW D HRMM SECON CODA AMPLIT PERI AZIMU VELO AIN AR TRES W  DIS CAZ7
 BAR2 EZ EP       1642  1.57                             171   -0.2310 22.7 187 
 BAR2 EZ ES       1642 16.80                             171   -0.0810 22.7 187 
 BAR2 EZ I        1642 19.41         9.0 0.30            169           22.7 187 
 PAM  EZ IP     D 1642  4.63                             150    0.1310 78.5  40 
 PAM  EN ES       1642 21.77                             150    0.0910 78.5  40 
 PAM  EZ I        1642 24.87         4.8 0.38            155           78.5  40 
 PTB  HZ EP       1642  8.76                             132   -0.38 9  147 259 
 PTB  HN ES       1642 29.59                             132   -0.34 9  147 259 
 PTB  HZ I        1642 32.63         2.2 0.36            133            147 259 
 SPBC HZ EP       1642 10.69                             129    0.00 9  162 219 
 SPBC HN ES       1642 33.17                             129    0.48 9  162 219 
 SPBC HZ I        1642 40.50         8.8 0.46            131            162 219 
 ZAR  HZ EP       1642 14.87                             122    0.20 9  203 292 
 ZAR  HN ES       1642 40.03                             122    0.24 9  203 292 
 ZAR  HZ I        1642 44.62         3.0 0.26            124            203 292 
                                                                                
