 2012  224 1042 30.6 L   6.735 -73.158146.7  RSN  7 0.5 1.7LRSN                1
 GAP=181        0.89       6.0     8.0  7.6  0.8654E+01  0.1834E+02  0.1693E+02E
 ACTION:UP  12-03-07 16:33 OP:epov STATUS:               ID:20120224104230 L   I
 2012-02-24-1040-00M.COL___192                                                 6
 STAT SP IPHASW D HRMM SECON CODA AMPLIT PERI AZIMU VELO AIN AR TRES W  DIS CAZ7
 BAR2 SZ EP   1   1042 49.95                             173   -0.25 7 16.0 190 
 BAR2 SZ ES   1   1043  5.67                             173    0.17 7 16.0 190 
 BAR2 SZ I        1043  6.76        12.2 0.26                          16.0 190 
 GIR2 SZ EP   1   1042 50.31                             165   -0.26 7 38.2 354 
 GIR2 SZ ES   1   1043  5.75                             165   -0.41 7 38.2 354 
 BRR  HZ EP   1   1042 52.18                             152    0.20 7 73.8 304 
 BRR  HE ES   1   1043  9.38                             152    0.71 7 73.8 304 
 BRR  HZ I        1043 12.03        15.3 0.32                          73.8 304 
 RUS  HZ EP   1   1042 53.93                             146    0.00 7 93.5 175 
 RUS  HE ES   1   1043 12.33                             146    0.19 7 93.5 175 
 RUS  HZ I        1043 13.80         6.1 0.28                          93.5 175 
 PTB  HZ EP   1   1042 57.04                             133   -0.36 7  145 262 
 PTB  HN ES   2   1043 16.77                             133   -1.54 5  145 262 
 NOR  SZ EP   1   1043  6.36                             119    0.55 6  229 236 
 NOR  SN ES   2   1043 34.26                             119    0.98 4  229 236 
 CHI  HZ EP   1   1043  7.76                             118    0.21 6  241 195 
 CHI  HN ES   2   1043 35.61                             118   -0.76 4  241 195 
 CHI  HZ I        1043 40.34         2.0 0.78                           241 195 
                                                                                
