 2011 1124 1827 17.1 L   6.779 -73.152146.5  RSN 14 0.5 2.7LRSN                1
 GAP=114        0.92       3.8     4.6  6.3 -0.2352E+01  0.8718E+01  0.5042E+01E
 Epicentro: LOS SANTOS - SANTANDER                                             3
 ACTION:UPD 12-07-13 16:12 OP:ep   STATUS:               ID:20111124182717 L   I
 2011-11-24-1824-16S.COL___178                                                 6
 STAT SP IPHASW D HRMM SECON CODA AMPLIT PERI AZIMU VELO AIN AR TRES W  DIS CAZ7
 BAR2 SZ EP       1827 36.84                             171    0.0310 20.9 189 
 BAR2 SZ ES   1   1827 51.95                             171   -0.21 7 20.9 189 
 BAR2 SZ I        1827 54.78       111.6 0.17                          20.9 189 
 BRR  HZ EP       1827 38.78                             152    0.3810 71.7 300 
 BRR  HN ES   1   1827 56.00                             152    1.02 7 71.7 300 
 BRR  HZ I        1827 59.29        84.2 0.17                          71.7 300 
 PAM  SZ EP       1827 39.64                             150    0.0710 79.6  39 
 PAM  SN ES   1   1827 56.68                             150   -0.38 7 79.6  39 
 RUS  HZ EP   1   1827 40.62                             145   -0.18 7 98.3 176 
 RUS  HN ES   1   1827 59.29                             145    0.03 7 98.3 176 
 RUS  HZ I        1828  0.66        49.6 0.25                          98.3 176 
 OCA  SZ EP   1   1827 44.91                             129   -0.80 7  162 353 
 OCA  SZ I        1828 12.84        31.1 0.18                           162 353 
 YOP  SZ EP   2   1827 46.97                             127   -0.09 4  177 153 
 YOP  SZ I        1828 12.10        30.3 0.32                           177 153 
 ZAR  HZ EP   1   1827 49.16                             123   -0.49 6  204 293 
 ZAR  HE ES   1   1828 14.36                             123   -0.66 6  204 293 
 ZAR  HZ I        1828 21.66        55.6 0.39                           204 293 
 NOR  SZ EP   1   1827 52.59                             119   -0.12 6  233 235 
 NOR  SN ES   1   1828 20.28                             119   -0.17 6  233 235 
 CHI  HZ EP   1   1827 54.75                             118    0.13 6  246 195 
 CHI  HN ES   1   1828 23.46                             118   -0.39 6  246 195 
 CHI  HZ I        1828 29.52        25.0 0.33                           246 195 
 CVER SZ EP   1   1827 57.79                             115    0.52 6  270 202 
 HEL  HZ EP   1   1827 58.21                             115    0.96 6  271 256 
 HEL  HN ES   1   1828 27.77                             115   -0.77 6  271 256 
 HEL  HZ I        1828 35.02        26.2 0.28                           271 256 
 GUY  SZ EP   1   1828  1.60                             112    0.77 5  302 235 
 GUY  SZ I        1828 43.22        44.7 0.34                           302 235 
 RREF HE ES   1   1828 39.51                             111    0.59 5  320 230 
 RREF HZ I        1828 47.79        25.9 0.15                           320 230 
 PRA  HZ EP   1   1828 10.51                             107    0.10 4  390 210 
 PRA  HN ES   1   1828 50.91                             107   -1.05 4  390 210 
                                                                                
