 2011  924 1840 22.6 L   6.832 -73.025152.8  RSN  4 0.2 1.5LRSN                1
 GAP=252        0.52       9.5    19.4 13.8  0.1462E+03 -0.8213E+02 -0.4809E+02E
 Epicentro: CEPITA - SANTANDER                                                 3
 ACTION:UPD 12-07-13 15:59 OP:ep   STATUS:               ID:20110924184022 L   I
 2011-09-24-1837-13S.COL___165                                                 6
 STAT SP IPHASW D HRMM SECON CODA AMPLIT PERI AZIMU VELO AIN AR TRES W  DIS CAZ7
 BTL  SZ EP       1840 43.45                             169    0.2610 28.5 290 
 BAR2 SZ EP       1840 42.97                             168   -0.2910 31.7 213 
 BAR2 SZ I        1840 59.82         4.7 0.48                          31.7 213 
 BRR  HZ EP       1840 45.04                             151   -0.0810 81.8 292 
 BRR  HZ I        1840 45.18         6.6 0.16                          81.8 292 
 BRR  HE ES   3   1841  2.94                             151    0.25 2 81.8 292 
 RUS  HZ EP       1840 47.41                             144    0.1210  104 184 
 RUS  HN ES   2   1841  6.45                             144   -0.10 5  104 184 
                                                                                
