 2010  724 1518  9.3 L   6.737 -73.037149.3  RSN  4 0.4 1.3LRSN                1
 GAP=177        0.75      11.2    18.7 13.3  0.1266E+03 -0.1021E+03 -0.7744E+02E
 Epicentro: ARATOCA - SANTANDER                                                3
 ACTION:UPD 10-12-01 15:19 OP:pat  STATUS:               ID:20100724151809 L   I
 2010-07-24-1514-26S.COL___123                                                 6
 STAT SP IPHASW D HRMM SECON CODA AMPLIT PERI AZIMU VELO AIN AR TRES W  DIS CAZ7
 BAR2 SZ EP   1   1518 29.44                             171     0.1 7   23 225 
 BAR2 SZ I        1518 29.99         6.6 0.25                            23 225 
 BAR2 SZ ES   2   1518 44.42                             171    -0.6 5   23 225 
 BRR  HZ EP       1518 31.67                             149     0.010   85 299 
 BRR  HZ I        1518 31.77         7.6 0.16                            85 299 
 BRR  HE ES   2   1518 49.16                             149     0.1 5   85 299 
 RUS  HZ EP   2   1518 32.20                             146    -0.7 5   94 183 
 RUS  HZ I        1518 34.76         1.8 0.11                            94 183 
 RUS  HN ES   2   1518 52.01                             146     0.7 5   94 183 
 GUE  SZ EP   2   1518 34.97                             139     0.2 5  122   6 
 GUE  SZ I        1518 37.06         1.2 0.09                           122   6 
                                                                                
