 2015  424 1757 58.3 L   6.783 -73.172144.7  RSN  5 0.3 1.7LRSN                1
 GAP=242        0.73       5.4     4.6  6.2  0.1444E+01  0.8992E+01  0.4130E+01E
 Epicentro: LOS SANTOS - SANTANDER                                             3
 ACTION:UPD 15-06-03 16:57 OP:cam  STATUS:               ID:20150424175758 L   I
 OLDACT:UP  15-04-25 00:07 OP:ak   STATUS:               ID:20150424174752d    3
 OLDACT:DUP 15-04-25 00:06 OP:ak   STATUS:               ID:20150424174752d    3
 2015-04-24-1747-48M.COL___251                                                 6
 STAT SP IPHASW D HRMM SECON CODA AMPLIT PERI AZIMU VELO AIN AR TRES W  DIS CAZ7
 BAR2 EZ EP       1758 17.67                             171   -0.0610 21.1 183 
 BAR2 EZ ES       1758 33.13                             171    0.2210 21.1 183 
 BAR2 EZ I        1758 34.05         9.1 0.11            170           21.1 183 
 BRR  HZ EP       1758 19.51                             153    0.3010 69.6 301 
 BRR  HN ES       1758 35.18                             153   -0.3710 69.6 301 
 PTB  HZ EP       1758 24.54                             132   -0.32 9  145 259 
 PTB  HN ES       1758 45.30                             132   -0.30 9  145 259 
 PTB  HZ I        1758 47.72         8.2 0.10            130            145 259 
 ZAR  HZ EP   2   1758 30.47                             122    0.03 4  202 293 
 ZAR  HN ES       1758 55.94                             122    0.41 9  202 293 
 ZAR  HZ I        1759  2.74         5.8 0.12            121            202 293 
 NOR  HZ EP   2   1758 32.98                             119   -0.58 4  231 234 
 NOR  HN ES       1759  1.45                             119    0.35 8  231 234 
 NOR  HZ I        1759  5.50         2.6 0.18            118            231 234 
                                                                                
