 2012  724 1100 41.6 L   6.701 -73.227144.3  RSN  5 0.3 1.1LRSN                1
 GAP=208        0.81      10.0     7.2  8.9  0.3664E+02  0.1066E+02  0.1730E+02E
 Epicentro: VILLANUEVA - SANTANDER                                             3
 ACTION:UPD 12-08-14 11:45 OP:ep   STATUS:               ID:20120724110041 L   I
 2012-07-24-1100-00M.COL___215                                                 6
 STAT SP IPHASW D HRMM SECON CODA AMPLIT PERI AZIMU VELO AIN AR TRES W  DIS CAZ7
 BAR2 SZ EP   1   11 1  0.34                             175    -0.6 7   13 158 
 BAR2 SZ ES   1   11 1 15.86                             175    -0.1 7   13 158 
 BAR2 SZ I        11 1 16.78         3.4 0.24            177             13 158 
 BRR  HZ EP       11 1  2.53                             153     0.010   70 310 
 BRR  HN ES   1   11 1 19.07                             153     0.2 7   70 310 
 RUS  HZ EP   1   11 1  5.17                             146     0.6 7   91 170 
 PTB  HZ EP   1   11 1  7.20                             134    -0.3 7  137 263 
 PTB  HN ES   1   11 1 27.57                             134    -0.1 7  137 263 
 PTB  HZ I        11 1 29.12         1.4 0.31            133            137 263 
 ZAR  HN ES   1   11 1 38.75                             123     0.2 6  200 296 
 ZAR  HZ I        11 1 42.84         1.5 0.16            122            200 296 
