 2015  924 1620 35.5 L   6.821 -73.159144.0  RSN 18 0.5 2.9LRSN                1
 GAP=134        1.08       2.6     3.9  5.2 -0.1792E+01  0.5706E+01 -0.2633E+00E
 Epicentro: LOS SANTOS - SANTANDER                                             3
 ACTION:UPD 15-10-28 16:28 OP:cam  STATUS:               ID:20150924162035 L   I
 OLDACT:UP  15-09-24 21:26 OP:mh   STATUS:               ID:20150924161750     3
 OLDACT:UP  15-09-24 21:24 OP:mh   STATUS:               ID:20150924161750     3
 OLDACT:UP  15-09-24 21:19 OP:mh   STATUS:               ID:20150924161750     3
 OLDACT:REG 15-09-24 18:55 OP:mh   STATUS:               ID:20150924161750     3
 2015-09-24-1617-50M.COL___355                                                 6
 STAT SP IPHASW D HRMM SECON CODA AMPLIT PERI AZIMU VELO AIN AR TRES W  DIS CAZ7
 BAR2 EZ EP       1620 55.06                             170    0.1110 25.4 186 
 BAR2 EZ ES       1621  9.73                             170   -0.4010 25.4 186 
 BAR2 EZ I        1621 11.50       164.6 0.20            170           25.4 186 
 BRR  HZ EP   1   1620 56.12                             153   -0.19 7 68.8 297 
 BRR  HN ES       1621 13.29                             153    0.7410 68.8 297 
 BRR  HZ I        1621 17.62       161.6 0.48            148           68.8 297 
 PAM  EZ EP       1620 57.98                             151    0.5210 76.6  41 
 PAM  EN ES       1621 14.75                             151    0.1410 76.6  41 
 PAM  EZ I        1621 17.09       244.6 0.50            153           76.6  41 
 RUS  HZ EP       1620 59.11                             143   -0.1310  103 175 
 RUS  HN ES       1621 18.21                             143    0.4410  103 175 
 RUS  HZ I        1621 18.42        69.6 0.28            146            103 175 
 PTB  HZ EP       1621  2.12                             132   -0.10 9  147 258 
 PTB  HN ES       1621 22.74                             132   -0.33 9  147 258 
 PTB  HZ I        1621 29.75        48.5 0.44            130            147 258 
 OCA  HZ EP       1621  2.49                             130   -0.94 9  158 354 
 OCA  HN ES       1621 24.58                             130   -0.64 9  158 354 
 OCA  HZ I        1621 29.67       156.8 0.54            129            158 354 
 SPBC HZ EP       1621  3.83                             128   -0.10 9  164 218 
 SPBC HN ES       1621 25.87                             128   -0.25 9  164 218 
 SPBC HZ I        1621 28.28        97.6 0.36            129            164 218 
 ZAR  HZ EP       1621  8.17                             122    0.58 9  202 292 
 ZAR  HN ES       1621 32.96                             122    0.34 9  202 292 
 ZAR  HZ I        1621 38.97        71.7 0.54            121            202 292 
 NOR  HZ EP   1   1621 10.81                             118   -0.32 6  235 234 
 NOR  HN ES       1621 38.44                             118   -0.49 8  235 234 
 NOR  HZ I        1621 44.61        45.0 0.34            118            235 234 
 SML  HZ EP       1621 11.18                             117   -0.54 8  241 335 
 SML  HN ES       1621 40.05                             117    0.07 8  241 335 
 SML  HZ I        1621 43.17       100.2 0.28            117            241 335 
 CHI  HZ EP       1621 13.26                             117   -0.03 8  250 195 
 CHI  HN ES       1621 42.33                             117   -0.44 8  250 195 
 CHI  HZ I        1621 45.72        52.9 0.46            118            250 195 
 ROSC BZ EP   4   1621 15.30                             116    1.66 0  254 210 
 ROSC BN ES       1621 43.88                             116    0.47 8  254 210 
 ROSC BZ I        1621 48.46        87.3 0.40            117            254 210 
 HEL  HZ EP       1621 16.25                             114    0.74 8  271 255 
 HEL  HN ES       1621 46.63                             114   -0.11 8  271 255 
 HEL  HZ I        1621 52.66        30.1 0.28            114            271 255 
 URE  HZ EP   4   1621 15.61                             113   -0.61 0  282 292 
 URE  HN ES   4   1621 49.34                             113    1.35 0  282 292 
 URE  HZ I        1621 57.91        43.7 0.18            113            282 292 
 GUY2CHZ EP       1621 19.06                             112    0.03 7  301 234 
 GUY2CHN ES   4   1621 56.16                             112    3.17 0  301 234 
 GUY2CHZ I        1621 58.81        26.7 0.36                           301 234 
 PTGC HZ EP   4   1621 17.97                             111   -1.60 0  311 159 
 PTGC HN ES   4   1621 51.17                             111   -2.78 0  311 159 
 PTGC HZ I        1621 56.17        55.6 0.32            113            311 159 
 ARGC HZ EP       1621 25.70                             108    0.94 6  357 340 
 ARGC HN ES   4   1622  1.98                             108   -1.22 0  357 340 
 ARGC HZ I        1622 20.79        17.6 0.34            108            357 340 
 ANIL HE ES   4   1622  6.37                             108    2.23 0  358 224 
 SJC  HZ EP   4   1621 29.22                             105   -1.45 0  406 327 
 SJC  HN ES   4   1622 10.28                             105   -3.43 0  406 327 
 SJC  HZ I        1622 17.98        13.4 0.50            106            406 327 
                                                                                
