 2012  724 1014 21.6 L   6.739 -73.189146.4  RSN  5 0.3 1.2LRSN                1
 GAP=228        0.65       7.4     6.1  7.1  0.2671E+02  0.7249E+01  0.5632E+01E
 Epicentro: VILLANUEVA - SANTANDER                                             3
 ACTION:UPD 12-08-14 11:45 OP:ep   STATUS:               ID:20120724101421 L   I
 2012-07-24-1010-00M.COL___215                                                 6
 STAT SP IPHASW D HRMM SECON CODA AMPLIT PERI AZIMU VELO AIN AR TRES W  DIS CAZ7
 BAR2 SZ EP   1   1014 40.87                             173    -0.3 7   16 177 
 BAR2 SZ ES   1   1014 56.09                             173    -0.3 7   16 177 
 BAR2 SZ I        1014 57.69         4.5 0.28            169             16 177 
 BRR  HZ EP   1   1014 42.93                             153     0.2 7   71 305 
 BRR  HE ES   1   1014 59.70                             153     0.4 7   71 305 
 RUS  HZ EP   1   1014 45.27                             146     0.3 7   94 173 
 RUS  HN ES   2   1015  3.25                             146     0.1 5   94 173 
 RUS  HZ I        1015  4.76         2.2 0.36            145             94 173 
 PTB  HZ EP   1   1014 47.87                             133    -0.2 7  142 261 
 PTB  HN ES   1   1015  8.81                             133     0.1 7  142 261 
 PTB  HZ I        1015 12.33         2.0 0.21            131            142 261 
 ZAR  HN ES   1   1015 18.81                             123    -0.3 6  202 294 
 ZAR  HZ I        1015 25.33         2.1 0.18            122            202 294 
