 2012  624 1105 24.1 L   6.041 -73.646114.1  RSN  8 0.3 1.4LRSN                1
 GAP= 79        0.65       2.7     3.6  6.9  0.2135E+01  0.9869E+01  0.5143E+01E
 Epicentro: CHIPATA - SANTANDER                                                3
 ACTION:UPD 12-08-06 17:52 OP:ep   STATUS:               ID:20120624110524 L   I
 2012-06-24-1100-00M.COL___199                                                 6
 STAT SP IPHASW D HRMM SECON CODA AMPLIT PERI AZIMU VELO AIN AR TRES W  DIS CAZ7
 RUS  HZ EP   1   11 5 42.15                             149   -0.02 7 64.4 105 
 RUS  HZ I        11 5 42.71         4.0 0.28                          64.4 105 
 RUS  HN ES   1   11 5 55.65                             149   -0.63 7 64.4 105 
 BAR2 SZ EP   1   11 5 43.07                             143    0.21 7 79.7  40 
 BAR2 SZ ES   1   11 5 57.70                             143    0.20 7 79.7  40 
 BAR2 SZ I        11 5 59.40        11.2 0.48                          79.7  40 
 PTB  HZ EP   2   11 5 44.34                             134   -0.29 5  105 302 
 PTB  HE ES   1   11 6  0.46                             134   -0.19 7  105 302 
 PTB  HZ I        11 6  1.78         4.2 0.22                           105 302 
 BRR  HZ EP   1   11 5 45.57                             130   -0.20 7  118 356 
 BRR  HN ES   1   11 6  3.27                             130    0.59 7  118 356 
 BRR  HZ I        11 6  4.88         7.3 0.16                           118 356 
 NOR  SN ES   2   11 6  7.56                             124    0.04 5  145 249 
 CHI  HZ EP   1   11 5 49.81                             122   -0.27 7  156 183 
 CHI  HZ I        11 5 50.17         2.6 0.28                           156 183 
 CHI  HN ES   1   11 6 10.97                             122    0.62 7  156 183 
 ZAR  HZ EP   2   11 5 55.23                             114   -0.02 4  209 320 
 ZAR  HN ES   1   11 6 19.36                             114   -0.20 6  209 320 
 PRA  HZ EP   1   11 6  4.81                             106    0.03 5  292 208 
                                                                                
