 2015  424 1233 28.4 L   6.821 -73.185139.2  RSN 15 0.5 2.4LRSN                1
 GAP=131        1.07       3.2     4.2  5.5 -0.3306E+01  0.6440E+01  0.2403E+01E
 Epicentro: ZAPATOCA - SANTANDER                                               3
 ACTION:UPD 15-06-03 16:57 OP:cam  STATUS:               ID:20150424123328 L   I
 OLDACT:REG 15-04-24 20:35 OP:ak   STATUS:               ID:20150424122746     3
 2015-04-24-1227-46M.COL___253                                                 6
 STAT SP IPHASW D HRMM SECON CODA AMPLIT PERI AZIMU VELO AIN AR TRES W  DIS CAZ7
 BAR2 EZ IP     C 1233 47.28                             169    0.0210 25.3 179 
 BAR2 EZ ES       1234  1.37                             169   -0.6110 25.3 179 
 BAR2 EZ I        1234  4.85        56.8 0.23            169           25.3 179 
 BRR  HZ EP       1233 49.19                             153    0.6510 66.3 299 
 BRR  HN ES       1234  4.87                             153    0.6110 66.3 299 
 BRR  HZ I        1234  9.20        37.2 0.16            151           66.3 299 
 PAM  SZ IP     C 1233 50.31                             149    0.3510 78.5  43 
 PAM  SN ES       1234  7.19                             149    0.3910 78.5  43 
 PAM  SZ I        1234  9.32        27.1 0.34            155           78.5  43 
 RUS  HZ EP       1233 51.20                             142   -0.4910  103 174 
 RUS  HE ES   2   1234  9.51                             142   -0.36 5  103 174 
 RUS  HZ I        1234 11.04        14.8 0.42            145            103 174 
 PTB  HZ EP       1233 53.95                             131   -0.52 9  144 258 
 PTB  HN ES       1234 14.51                             131   -0.31 9  144 258 
 PTB  HZ I        1234 21.44        25.9 0.16            131            144 258 
 SPBC HZ EP       1233 56.26                             128   -0.04 9  162 217 
 SPBC HN ES       1234 17.98                             128   -0.09 9  162 217 
 SPBC HZ I        1234 24.37        39.4 0.20            129            162 217 
 ZAR  HZ EP       1234  0.11                             122    0.22 9  199 292 
 ZAR  HN ES   4   1234 25.84                             122    1.37 0  199 292 
 NOR  HZ EP       1234  3.36                             117   -0.14 8  233 233 
 NOR  HN ES       1234 30.99                             117    0.09 8  233 233 
 NOR  HZ I        1234 36.30        28.3 0.26            119            233 233 
 SML  HZ EP       1234  3.93                             116   -0.28 8  240 336 
 SML  HE ES       1234 31.33                             116   -0.84 8  240 336 
 SML  HZ I        1234 40.31        28.4 0.10            119            240 336 
 CHI  HZ EP       1234  5.03                             116   -0.81 8  250 194 
 CHI  HN ES   1   1234 34.62                             116   -0.45 6  250 194 
 CHI  HZ I        1234 40.69        14.8 0.24            118            250 194 
 ROSC BZ EP       1234  6.95                             115    0.83 8  253 210 
 ROSC BN ES       1234 36.30                             115    0.73 8  253 210 
 HEL  HZ EP       1234  8.25                             114    0.39 8  268 255 
 HEL  HE ES       1234 38.28                             114   -0.38 8  268 255 
 HEL  HZ I        1234 47.05        13.5 0.36            115            268 255 
 GUY2CHZ EP       1234 11.70                             111    0.26 7  299 234 
 GUY2CHN ES   3   1234 45.05                             111    0.02 2  299 234 
 GUY2CHZ I        1234 53.91        19.3 0.44                           299 234 
 ORTC HZ EP   2   1234 21.99                             105   -0.01 3  395 215 
 ORTC HN ES       1235  4.26                             105    0.43 6  395 215 
 ORTC HZ I        1235 11.48        11.8 0.44            107            395 215 
 SJC  HZ EP   4   1234 21.49                             105   -1.73 0  405 327 
 SJC  HE ES   4   1235  2.74                             105   -3.26 0  405 327 
 SJC  HZ I        1235  7.41         8.4 0.52            107            405 327 
                                                                                
