 2015 1224 1633 55.0 L   6.831 -73.149139.9  RSN 13 0.4 2.2LRSN                1
 GAP=135        0.97       2.4     3.6  5.4 -0.1855E+01  0.7729E+01 -0.6967E+00E
 Epicentro: LOS SANTOS - SANTANDER                                             3
 ACTION:UPD 16-02-04 15:07 OP:cam  STATUS:               ID:20151224163355 L   I
 OLDACT:UP  15-12-24 22:49 OP:cara STATUS:               ID:20151224162748     3
 OLDACT:REG 15-12-24 20:35 OP:cara STATUS:               ID:20151224162748     3
 2015-12-24-1627-48M.COL___337                                                 6
 STAT SP IPHASW D HRMM SECON CODA AMPLIT PERI AZIMU VELO AIN AR TRES W  DIS CAZ7
 BAR2 EZ IP       1634 14.14                             169    0.1310 26.7 188 
 BAR2 EZ ES       1634 28.76                             169   -0.0710 26.7 188 
 BAR2 EZ I        1634 30.41        47.0 0.22            168           26.7 188 
 BRR  HZ IP     C 1634 15.83                             152    0.4110 69.3 296 
 PAM  EZ IP       1634 16.97                             150    0.5110 75.0  41 
 PAM  EN ES       1634 33.63                             150    0.4410 75.0  41 
 PAM  EZ I        1634 35.98        12.5 0.30            155           75.0  41 
 RUS  HZ EP       1634 18.28                             141   -0.1710  104 176 
 RUS  HE ES       1634 36.71                             141   -0.0210  104 176 
 RUS  HZ I        1634 38.60        19.3 0.34            145            104 176 
 PTB  HZ EP       1634 20.87                             131   -0.67 9  148 258 
 PTB  HN ES       1634 41.63                             131   -0.60 9  148 258 
 PTB  HZ I        1634 44.38        28.9 0.24            131            148 258 
 OCA  HZ EP       1634 22.01                             129   -0.53 9  157 353 
 OCA  HN ES       1634 43.62                             129   -0.40 9  157 353 
 OCA  HZ I        1634 48.46        50.2 0.32            132            157 353 
 SPBC HZ EP       1634 23.17                             127   -0.13 9  166 218 
 SPBC HN ES       1634 45.02                             127   -0.35 9  166 218 
 SPBC HZ I        1634 52.17        25.6 0.16            129            166 218 
 ZAR  HZ EP       1634 27.31                             121    0.40 9  202 291 
 ZAR  HE ES       1634 52.27                             121    0.47 9  202 291 
 ZAR  HZ I        1634 59.08        21.9 0.32            123            202 291 
 NOR  HZ IP       1634 30.55                             117   -0.04 8  236 234 
 NOR  HN ES       1634 58.37                             117    0.02 8  236 234 
 NOR  HZ I        1635  6.27        10.8 0.14            119            236 234 
 SML  HZ EP       1634 30.35                             116   -0.61 8  240 335 
 SML  HE ES       1634 58.85                             116   -0.15 8  240 335 
 SML  HZ I        1635  2.38        22.8 0.10            119            240 335 
 CHI  HZ EP       1634 32.53                             115   -0.21 8  252 195 
 CHI  HN ES       1635  2.02                             115   -0.15 8  252 195 
 CHI  HZ I        1635  5.44         4.5 0.22            118            252 195 
 HEL  HZ EP       1634 35.77                             113    0.78 8  273 255 
 HEL  HN ES       1635  6.49                             113    0.32 8  273 255 
 HEL  HZ I        1635 12.78        13.6 0.34            115            273 255 
 GUY2CHZ EP       1634 39.11                             111    0.56 7  303 234 
 GUY2CHE ES       1635 12.91                             111    0.41 7  303 234 
 GUY2CHZ I        1635 20.69         7.7 0.50                           303 234 
                                                                                
