 2014 1124 1525 39.5 L   5.749 -74.017100.0  RSN 13 0.4 1.8LRSN                1
 GAP= 84        1.01       2.4     2.4  5.5 -0.1551E+01  0.2314E+01 -0.9884E+00E
 Epicentro: FLORIAN - SANTANDER                                                3
 ACTION:UPD 14-12-19 15:47 OP:nd   STATUS:               ID:20141124152539 L   I
 OLDACT:DUP 14-11-25 00:38 OP:fm   STATUS:               ID:20141124151751d    3
 2014-11-24-1517-50M.COL___296                                                 6
 STAT SP IPHASW D HRMM SECON CODA AMPLIT PERI AZIMU VELO AIN AR TRES W  DIS CAZ7
 SPBC HZ EP       1525 53.10                             172   -0.0610 12.3 210 
 SPBC HN ES       1526  3.89                             172    0.0610 12.3 210 
 SPBC HZ I        1526  5.14        46.2 0.10            172           12.3 210 
 NOR  HZ EP       1525 57.73                             132   -0.3910 96.5 258 
 NOR  HN ES       1526 13.36                             132    0.7010 96.5 258 
 NOR  HZ I        1526 14.56        35.8 0.16            133           96.5 258 
 PTB  HZ EP     C 1525 57.77                             131   -0.6110  100 331 
 PTB  HE ES       1526 12.62                             131   -0.5110  100 331 
 PTB  HZ I        1526 17.86         8.0 0.30            132            100 331 
 RUS  HZ EP       1525 59.35                             130   -0.1010  105  81 
 RUS  HN ES       1526 14.75                             130   -0.2910  105  81 
 RUS  HZ I        1526 15.85         6.9 0.20            134            105  81 
 CHI  HZ EP       1526  1.27                             124   -0.3310  128 166 
 CHI  HN ES       1526 18.66                             124   -0.2010  128 166 
 CHI  HZ I        1526 21.56         5.2 0.20            128            128 166 
 BAR2 SZ EP       1526  1.90                             123    0.1610  131  45 
 BAR2 SZ ES       1526 19.99                             123    0.8910  131  45 
 BRR  HZ EP       1526  3.86                             118    0.04 9  154  13 
 BRR  HE ES       1526 22.99                             118    0.18 9  154  13 
 BRR  HZ I        1526 26.09        13.6 0.42            120            154  13 
 GUY2CHZ EP       1526  5.28                             117    0.18 9  160 249 
 GUY2CHN ES       1526 25.35                             117    0.25 9  160 249 
 GUY2CHZ I        1526 29.05         6.7 0.50                           160 249 
 HEL  HZ EP       1526  7.20                             114    0.68 9  174 286 
 HEL  HN ES       1526 27.39                             114   -0.23 9  174 286 
 HEL  HZ I        1526 33.60        10.1 0.30            116            174 286 
 RREF HZ EP       1526  6.91                             115    0.01 9  175 238 
 RREF HN ES       1526 28.47                             115    0.17 9  175 238 
 RREF HZ I        1526 33.85         8.4 0.48            117            175 238 
 TOL  SZ EP       1526  8.71                             112    0.09 9  193 228 
 TOL  SE ES       1526 31.11                             112   -0.25 9  193 228 
 TOL  SZ I        1526 34.37        14.9 0.38            114            193 228 
 ZAR  HZ EP       1526 10.93                             109    0.36 8  214 334 
 ZAR  HN ES       1526 34.18                             109   -0.65 8  214 334 
 ZAR  HZ I        1526 41.68        11.1 0.40            111            214 334 
 SJC  HZ EP   4   1526 40.51                               0   -1.61 0  476 344 
 SJC  HE ES   4   1527 26.15                               0   -4.83 0  476 344 
 SJC  HZ I        1527 29.82         1.0 0.50             95            476 344 
                                                                                
