 2015  424 1221 42.1 L   6.388 -73.658101.6  RSN 10 0.5 1.9LRSN                1
 GAP= 71        1.05       2.9     3.2  7.2  0.7010E-01  0.1012E+02  0.8224E+00E
 Epicentro: SANTA HELENA DEL OPON - SANTANDER                                  3
 ACTION:UPD 15-06-03 16:57 OP:cam  STATUS:               ID:20150424122142 L   I
 OLDACT:REG 15-04-24 20:35 OP:ak   STATUS:               ID:20150424121748     3
 2015-04-24-1217-48M.COL___253                                                 6
 STAT SP IPHASW D HRMM SECON CODA AMPLIT PERI AZIMU VELO AIN AR TRES W  DIS CAZ7
 BAR2 EZ IP     D 1221 58.49                             148    0.4510 57.3  67 
 BAR2 EZ ES       1222 10.71                             148    0.2110 57.3  67 
 BAR2 EZ I        1222 12.55        61.6 0.16            143           57.3  67 
 BRR  HZ EP       1221 58.89                             138   -0.4510 79.7 356 
 BRR  HZ I        1222 12.62        13.2 0.18            133           79.7 356 
 BRR  HN ES       1222 13.33                             138    0.5210 79.7 356 
 RUS  HZ EP       1222  0.34                             137   -0.0310 84.0 131 
 RUS  HE ES       1222 14.37                             137   -0.2710 84.0 131 
 RUS  HZ I        1222 18.28         8.7 0.45            134           84.0 131 
 PTB  HZ IP     D 1221 59.48                             135   -0.7310 89.9 281 
 PTB  HN ES       1222 13.75                             135   -0.6110 89.9 281 
 PTB  HZ I        1222 16.22        29.2 0.12            131           89.9 281 
 NOR  HZ EP   2   1222  6.87                             117   -0.60 5  162 236 
 NOR  HN ES       1222 26.93                             117   -0.34 9  162 236 
 NOR  HZ I        1222 29.70         9.1 0.22            115            162 236 
 ZAR  HZ EP       1222  9.58                             114    0.18 9  180 313 
 ZAR  HE ES       1222 31.35                             114    0.63 9  180 313 
 ZAR  HZ I        1222 35.74        18.7 0.30            111            180 313 
 CHI  HZ EP   2   1222 11.41                             112   -0.12 4  195 182 
 CHI  HN ES   1   1222 35.04                             112    0.53 6  195 182 
 CHI  HZ I        1222 37.70         3.1 0.38            111            195 182 
 HEL  HZ EP   2   1222 13.50                             110    0.49 4  208 264 
 HEL  HN ES       1222 37.37                             110    0.22 8  208 264 
 HEL  HZ I        1222 43.66         6.0 0.38            109            208 264 
 GUY2CHZ EP   2   1222 15.58                             108    0.07 4  229 236 
 GUY2CHN ES       1222 42.38                             108    0.78 8  229 236 
 GUY2CHZ I        1222 47.84         3.3 0.21                           229 236 
 SML  HZ EP   1   1222 19.75                             104   -0.09 6  271 350 
 SML  HE ES       1222 48.82                             104   -0.48 8  271 350 
 SML  HZ I        1222 58.72        10.1 0.10            103            271 350 
                                                                                
