 2012  224 1102 51.1 L   6.804 -73.099151.0  RSN  8 0.3 1.7LRSN                1
 GAP=198        0.58       3.7     4.9  4.9  0.1120E+01  0.4872E+01  0.5997E+01E
 ACTION:UP  12-03-07 16:33 OP:epov STATUS:               ID:20120224110251 L   I
 2012-02-24-1100-00M.COL___192                                                 6
 STAT SP IPHASW D HRMM SECON CODA AMPLIT PERI AZIMU VELO AIN AR TRES W  DIS CAZ7
 BAR2 SZ EP   1   11 3 11.50                             170    0.10 7 25.2 201 
 BAR2 SZ ES   1   11 3 27.07                             170   -0.17 7 25.2 201 
 BAR2 SZ I        11 3 28.07         8.9 0.25                          25.2 201 
 GIR2 SZ EP   1   11 3 11.54                             167    0.12 7 32.1 341 
 GIR2 SZ ES   2   11 3 27.15                             167   -0.12 5 32.1 341 
 BRR  HZ EP   1   11 3 13.36                             152    0.29 7 75.6 296 
 BRR  HE ES   1   11 3 30.45                             152    0.25 7 75.6 296 
 BRR  HZ I        11 3 33.52        12.3 0.20                          75.6 296 
 RUS  HZ EP   1   11 3 15.31                             145   -0.08 7  101 179 
 RUS  HN ES   1   11 3 34.35                             145    0.02 7  101 179 
 RUS  HZ I        11 3 36.08         8.5 0.33                           101 179 
 PTB  HZ EP   1   11 3 18.15                             132   -0.81 7  153 259 
 PTB  HN ES   2   11 3 40.13                             132   -0.57 5  153 259 
 NOR  SZ EP   2   11 3 27.35                             119   -0.27 4  239 235 
 NOR  SE ES   1   11 3 56.65                             119    0.55 6  239 235 
 CHI  HZ EP   1   11 3 29.50                             118    0.21 6  250 196 
 CHI  HZ I        11 3 31.47         3.2 0.68                           250 196 
 CHI  HE ES   1   11 3 58.92                             118   -0.16 6  250 196 
 PRA  HZ EP   1   11 3 45.35                             107    0.20 4  395 210 
 PRA  HN ES   2   11 4 27.70                             107    0.39 3  395 210 
                                                                                
