 2015 1224 1644 44.0 L   6.646 -73.381118.0  RSN  5 0.3 1.7LRSN                1
 GAP=141        0.83       5.1     4.7  6.2  0.1452E+02  0.1029E+02  0.3314E+01E
 Epicentro: GALAN - SANTANDER                                                  3
 ACTION:UPD 16-02-04 15:07 OP:cam  STATUS:               ID:20151224164444 L   I
 OLDACT:REG 15-12-24 20:36 OP:cara STATUS:               ID:20151224163748     3
 2015-12-24-1637-48M.COL___331                                                 6
 STAT SP IPHASW D HRMM SECON CODA AMPLIT PERI AZIMU VELO AIN AR TRES W  DIS CAZ7
 BAR2 EZ IP       1645  0.20                             168   -0.0610 22.8 105 
 BAR2 EZ ES       1645 13.15                             168    0.1810 22.8 105 
 BAR2 EZ I        1645 13.92        11.9 0.30            171           22.8 105 
 BRR  HZ EP       1645  0.98                             150   -0.6710 62.7 324 
 BRR  HN ES       1645 15.45                             150    0.0010 62.7 324 
 BRR  HZ I        1645 16.08        15.4 0.38            150           62.7 324 
 RUS  HZ EP       1645  4.28                             141    0.0510 89.6 158 
 RUS  HE ES       1645 20.18                             141    0.1510 89.6 158 
 RUS  HZ I        1645 21.54         7.7 0.22            142           89.6 158 
 PTB  HZ IP       1645  6.09                             131   -0.0210  120 264 
 PTB  HN ES       1645 23.06                             131   -0.3310  120 264 
 PTB  HZ I        1645 25.46         7.3 0.10            131            120 264 
 ZAR  HZ EP       1645 13.44                             118    0.41 9  188 300 
 ZAR  HN ES       1645 36.18                             118    0.48 9  188 300 
 ZAR  HZ I        1645 39.75         8.7 0.30            118            188 300 
                                                                                
