 2012  924 1636 29.0 L   6.801 -73.131142.3  RSN 15 0.4 3.0LRSN                1
 GAP= 72        0.66       2.7     2.5  4.6 -0.7065E+00  0.3062E+01  0.2576E+01E
 Epicentro: LOS SANTOS - SANTANDER                                             3
 ACTION:UPD 12-10-22 14:20 OP:ep   STATUS:               ID:20120924163629 L   I
 2012-09-24-1630-00M.COL___220                                                 6
 STAT SP IPHASW D HRMM SECON CODA AMPLIT PERI AZIMU VELO AIN AR TRES W  DIS CAZ7
 BAR2 SZ IP       1636 48.15                             170   -0.0610 23.7 194 
 BAR2 SZ ES   1   1637  2.66                             170   -0.54 7 23.7 194 
 BAR2 SZ I        1637  4.52       258.8 0.22                          23.7 194 
 GIR2 SZ IP       1636 48.11                             167   -0.1510 31.5 347 
 BRR  HZ IP     C 1636 49.90                             151    0.0610 72.5 298 
 BRR  HN ES   1   1637  6.67                             151    0.57 7 72.5 298 
 BRR  HN I        1637 10.68       496.0 0.18                          72.5 298 
 PAM  SZ EP       1636 50.82                             150    0.0510 76.3  39 
 PAM  SZ I        1636 51.27       342.2 0.20                          76.3  39 
 PAM  SE ES   1   1637  7.84                             150    0.08 7 76.3  39 
 RUS  HZ EP   1   1636 52.24                             143   -0.16 7  101 177 
 RUS  HN ES   1   1637 10.33                             143   -0.33 7  101 177 
 RUS  HZ I        1637 12.28        82.2 0.26                           101 177 
 PTB  HE ES   2   1637 16.37                             131   -0.37 5  149 259 
 PTB  HN I        1637 22.24        76.9 0.36                           149 259 
 TAM  HZ EP   1   1636 56.56                             130    0.30 7  154 105 
 TAM  HN ES   1   1637 18.00                             130    0.48 7  154 105 
 TAM  HN I        1637 18.90       108.0 0.70                           154 105 
 ZAR  HZ EP   1   1637  0.73                             121   -0.63 6  205 292 
 ZAR  HN ES   1   1637 26.54                             121   -0.07 6  205 292 
 ZAR  HN I        1637 34.78       160.6 0.14                           205 292 
 NOR  SN ES   1   1637 32.46                             117   -0.03 6  236 235 
 CHI  HZ EP   1   1637  6.61                             116    0.06 6  249 196 
 CHI  HN ES   1   1637 35.73                             116   -0.12 6  249 196 
 CHI  HN I        1637 44.63        52.2 0.56                           249 196 
 ROSC BN ES   1   1637 36.88                             116    0.20 6  254 211 
 ROSC BZ I        1637 43.74        45.3 0.35                           254 211 
 HEL  HZ EP   1   1637  9.43                             114    0.23 6  274 256 
 HEL  HE ES   1   1637 41.51                             114    0.95 6  274 256 
 HEL  HN I        1637 48.48        32.8 0.36                           274 256 
 RREF HN ES   1   1637 51.63                             110    0.52 5  323 230 
 RREF HZ I        1638  0.53        22.2 0.58                           323 230 
 DBB  SZ EP   1   1637 15.81                             109   -0.70 5  341 274 
 PRA  HZ EP   1   1637 22.32                             106   -0.17 4  393 210 
 PRA  HN ES   1   1638  4.02                             106   -0.20 4  393 210 
 PRA  HN I        1638  9.38        25.7 0.36                           393 210 
                                                                                
