 2015 1224 1743 17.9 L   6.799 -73.125144.2  RSN  8 0.3 1.8LRSN                1
 GAP=245        0.73       3.9     3.7  5.3  0.3579E+01  0.5586E+01  0.4082E+01E
 Epicentro: LOS SANTOS - SANTANDER                                             3
 ACTION:UPD 16-02-04 15:07 OP:cam  STATUS:               ID:20151224174317 L   I
 OLDACT:REG 15-12-24 20:49 OP:cara STATUS:               ID:20151224173748     3
 2015-12-24-1737-48M.COL___322                                                 6
 STAT SP IPHASW D HRMM SECON CODA AMPLIT PERI AZIMU VELO AIN AR TRES W  DIS CAZ7
 BAR2 EZ IP       1743 37.55                             170    0.2410 23.7 195 
 BAR2 EZ ES       1743 52.89                             170    0.4110 23.7 195 
 BAR2 EZ I        1743 54.14         8.4 0.26            167           23.7 195 
 RUS  HZ EP       1743 41.43                             144   -0.0110  100 177 
 RUS  HE ES       1743 59.19                             144   -0.6410  100 177 
 RUS  HZ I        1744 10.33         6.4 0.18            145            100 177 
 PTB  HN ES       1744  5.63                             131   -0.36 9  150 259 
 PTB  HZ I        1744 11.41         8.4 0.60            134            150 259 
 SPBC HZ EP       1743 46.36                             128   -0.01 9  164 220 
 SPBC HN ES       1744  8.89                             128    0.29 9  164 220 
 SPBC HZ I        1744 15.55        16.1 0.42            131            164 220 
 ZAR  HE ES       1744 15.67                             122   -0.15 8  206 292 
 ZAR  HZ I        1744 22.01         8.8 0.42            126            206 292 
 NOR  HZ EP       1743 53.59                             118   -0.10 8  236 235 
 NOR  HN ES       1744 21.81                             118    0.18 8  236 235 
 NOR  HZ I        1744 25.23         4.7 0.24            121            236 235 
 CHI  HZ EP       1743 55.44                             117   -0.09 8  249 196 
 CHI  HN ES       1744 25.07                             117    0.17 8  249 196 
 CHI  HZ I        1744 28.86         3.0 0.44            120            249 196 
 GUY2CHZ EP   4   1744  3.03                             112    1.43 0  303 235 
 GUY2CHN ES       1744 35.85                             112    0.14 7  303 235 
 GUY2CHZ I        1744 44.52         3.7 0.36                           303 235 
                                                                                
