 2014  924 1028  8.2 L   6.929 -73.158138.1  RSN  7 0.4 1.2LRSN                1
 GAP=202        0.84       3.9     4.7  6.2  0.7035E+01  0.1453E+00 -0.5547E+01E
 Epicentro: PIEDECUESTA - SANTANDER                                            3
 ACTION:UPD 14-10-03 23:08 OP:nd   STATUS:               ID:20140924102808 L   I
 OLDACT:REG 14-09-24 19:02 OP:spq  STATUS:               ID:20140924101818     3
 2014-09-24-1018-18M.COL___284                                                 6
 STAT SP IPHASW D HRMM SECON CODA AMPLIT PERI AZIMU VELO AIN AR TRES W  DIS CAZ7
 BAR2 SZ EP       1028 27.39                             164    0.1110 37.3 184 
 BAR2 SZ ES   1   1028 41.76                             164   -0.41 7 37.3 184 
 BAR2 SZ I        1028 42.75         3.2 0.18            168           37.3 184 
 BRR  HZ EP       1028 28.34                             154    0.2210 64.3 288 
 BRR  HN ES       1028 44.21                             154    0.5410 64.3 288 
 BRR  HZ I        1028 49.28         6.1 0.29            152           64.3 288 
 RUS  HZ EP       1028 32.75                             138    0.4410  115 176 
 RUS  HE ES       1028 50.66                             138   -0.4610  115 176 
 RUS  HZ I        1028 53.10         0.9 0.25            143            115 176 
 PTB  HN ES       1028 55.17                             130   -0.27 9  150 253 
 PTB  HZ I        1028 59.05         3.3 0.18            132            150 253 
 ZAR  HZ EP   1   1028 39.20                             121   -0.29 6  198 288 
 ZAR  HE ES       1029  3.71                             121   -0.20 9  198 288 
 ZAR  HZ I        1029  9.38         2.1 0.28            123            198 288 
 SML  HZ EP       1028 42.90                             117   -0.03 8  230 334 
 SML  HN ES   1   1029  9.64                             117   -0.38 6  230 334 
 SML  HZ I        1029 15.89         1.6 0.08            119            230 334 
 GUY2CHZ EP   1   1028 51.80                             110   -0.49 5  309 232 
 GUY2CHN ES   1   1029 27.34                             110    0.65 5  309 232 
 GUY2CHZ I        1029 35.74         0.5 0.40                           309 232 
                                                                                
