 2010  924 1920 30.4 L   6.206 -72.843  3.8  RSN  8 0.7 1.5LRSN                1
 GAP=208        1.38       5.4    14.9 19.9 -0.1252E+02  0.1210E+03  0.5997E+01E
 Epicentro: ONZAGA - SANTANDER                                                 3
 ACTION:UP  11-02-18 11:05 OP:tino STATUS:               ID:20100924192030 L   I
 2010-09-24-1917-31S.COL___122                                                 6
 STAT SP IPHASW D HRMM SECON CODA AMPLIT PERI AZIMU VELO SNR AR TRES W  DIS CAZ7
 RUS  HZ EP   1   1920 37.29                              47    -0.8 8   44 217 
 RUS  HE ES   2   1920 44.17                              47     0.0 5   44 217 
 BAR2 SZ EP   1   1920 39.16                              47    -0.7 8   57 319 
 BAR2 SZ ES   2   1920 47.00                              47    -0.3 5   57 319 
 BAR2 SZ I        1920 48.18        19.8 0.50                            57 319 
 BTL  SZ EP   1   1920 45.04                              47    -0.1 8   92 329 
 GIR2 SZ EP   2   1920 46.06                              47    -0.8 5  104 338 
 GIR2 SZ ES   3   1920 59.04                              47    -0.7 3  104 338 
 BRR  HZ IP     C 1920 53.13                              47     1.210  138 316 
 BRR  HZ I        1920 53.38         9.2 0.08                           138 316 
 GUE  SZ EP   1   1920 58.16                              37    -0.4 7  180 357 
 GRA  SZ EP   1   1920 59.37                              37     0.3 7  186   1 
 CHI  HZ EP   1   1921  1.73                              37     0.5 7  200 210 
 CHI  HZ I        1921 31.83         5.4 0.69                           200 210 
                                                                                
