 2011  924 1541  6.9 L   6.320 -73.556115.9  RSN  6 0.2 1.9LRSN                1
 GAP=108        0.47       3.2     4.1  7.6  0.3014E+01  0.1572E+02  0.9828E+01E
 Epicentro: CONTRATACION - SANTANDER                                           3
 ACTION:UPD 12-07-13 15:59 OP:ep   STATUS:               ID:20110924154106 L   I
 2011-09-24-1540-28S.COL___165                                                 6
 STAT SP IPHASW D HRMM SECON CODA AMPLIT PERI AZIMU VELO AIN AR TRES W  DIS CAZ7
 BAR2 SZ IP       1541 24.26                             154    0.1610 51.2  54 
 BAR2 SZ ES   3   1541 37.48                             154    0.01 2 51.2  54 
 BAR2 SZ I        1541 38.25        18.8 0.20                          51.2  54 
 RUS  HZ EP       1541 25.59                             146   -0.0310 70.5 132 
 RUS  HE ES   2   1541 39.97                             146   -0.21 5 70.5 132 
 BTL  SZ EP       1541 25.69                             145    0.2310 73.5  26 
 BRR  HZ EP       1541 25.92                             139   -0.3310 88.7 349 
 BRR  HN ES   1   1541 41.28                             139   -0.03 7 88.7 349 
 BRR  HZ I        1541 52.19        16.4 0.42                          88.7 349 
 NOR  SZ EP       1541 33.76                             120   -0.01 9  168 240 
 NOR  SE ES   3   1541 54.63                             120   -0.06 2  168 240 
 ZAR  HE ES   3   1542  0.45                             116    0.90 2  194 312 
 ZAR  HZ I        1542  3.41         8.2 0.30                           194 312 
                                                                                
