 2017  624 1122 35.2 L   6.750 -73.156140.9  RSN 10 0.6 2.3LRSN                1
 GAP=160        1.04       5.1     4.3  6.6  0.3408E+01  0.4060E+01  0.5416E+01E
 Epicentro: LOS SANTOS - SANTANDER                                             3
 ACTION:UPD 17-09-14 16:54 OP:jn   STATUS:               ID:20170624112235 L   I
 OLDACT:UP  17-06-24 23:43 OP:dani STATUS:               ID:20170624111743     3
 OLDACT:UP  17-06-24 23:43 OP:dani STATUS:               ID:20170624111743     3
 OLDACT:REG 17-06-24 21:52 OP:dani STATUS:               ID:20170624111743     3
 2017-06-24-1118-00M.COL___364                                                 6
 STAT SP IPHASW D HRMM SECON CODA AMPLIT PERI AZIMU VELO AIN AR TRES W  DIS CAZ7
 BAR2 EZ IP     C 1122 53.98                             173   -0.1510 17.7 189 
 BAR2 EZ ES       1123  8.60                             173   -0.3010 17.7 189 
 BAR2 EZ I        1123  9.57        79.2 0.36            168           17.7 189 
 BRR  HZ IP     C 1122 55.90                             151   -0.0210 73.0 303 
 BRR  HN ES       1123 12.70                             151    0.6110 73.0 303 
 BRR  HZ I        1123 16.78        34.8 0.12            150           73.0 303 
 PTB  HZ EP   3   1123  0.65                             131   -0.92 2  146 261 
 PTB  HN ES       1123 21.34                             131   -0.80 9  146 261 
 PTB  HZ I        1123 23.96        27.4 0.18            130            146 261 
 TAM  HZ EP       1123  2.42                             129   -0.05 9  155 103 
 ZAR  HZ EP       1123  7.25                             121   -0.18 9  205 294 
 ZAR  HE ES       1123 33.35                             121    0.77 9  205 294 
 ZAR  HZ I        1123 37.42        20.1 0.68            121            205 294 
 NOR  HZ EP       1123 10.09                             118   -0.10 8  231 235 
 NOR  HN ES       1123 37.70                             118    0.21 8  231 235 
 NOR  HZ I        1123 43.63        14.7 0.26            118            231 235 
 CHI  HZ EP   3   1123 13.39                             117    1.39 2  243 195 
 CHI  HN ES       1123 41.00                             117    0.28 8  243 195 
 CHI  HZ I        1123 48.15         6.3 0.33            117            243 195 
 GUY2CHZ EP   4   1123 20.65                             112    2.54 0  297 236 
 GUY2CHN ES   3   1123 53.51                             112    1.93 2  297 236 
 GUY2CHZ I        1123 59.40        11.2 0.26                           297 236 
 DBB  EZ EP       1123 22.98                             109    0.59 7  339 275 
 DBB  EE ES       1123 58.29                             109   -0.92 7  339 275 
 DBB  EZ I        1124  2.66         7.1 0.33            109            339 275 
 SJC  HZ EP   4   1123 28.78                             105   -2.29 0  413 328 
 SJC  HN ES   4   1124  9.85                             105   -4.81 0  413 328 
 SJC  HZ I        1124 14.31         4.5 0.58            106            413 328 
                                                                                
