 2013  424 1142  0.8 L   6.777 -73.172153.0  RSN  5 0.4 1.7LRSN                1
 GAP=198        1.02       6.9     7.5  8.1  0.1675E+02 -0.1617E+01 -0.1828E+02E
 Epicentro: LOS SANTOS - SANTANDER                                             3
 ACTION:UPD 13-05-22 14:40 OP:EP   STATUS:               ID:20130424114200 L   I
 2013-04-24-1140-00M.COL___250                                                 6
 STAT SP IPHASW D HRMM SECON CODA AMPLIT PERI AZIMU VELO AIN AR TRES W  DIS CAZ7
 BAR2 SZ IP     C 1142 21.18                             172   -0.1110 20.4 183 
 BAR2 SZ ES       1142 36.63                             172   -0.6010 20.4 183 
 BAR2 SZ I        1142 38.71         6.0 0.38            176           20.4 183 
 BRR  HZ EP       1142 23.30                             154    0.5910 70.0 302 
 BRR  HN ES   1   1142 40.49                             154    0.73 7 70.0 302 
 RUS  HZ IP     C 1142 25.53                             146    0.3910 98.2 174 
 RUS  HN ES   1   1142 44.19                             146    0.09 7 98.2 174 
 RUS  HZ I        1142 46.40         5.0 0.48            150           98.2 174 
 PTB  HZ EP       1142 27.82                             134   -0.29 9  144 260 
 PTB  HN ES       1142 49.21                             134   -0.17 9  144 260 
 PTB  HZ I        1142 51.47         6.6 0.16            136            144 260 
 ZAR  HZ EP   4   1142 26.20                             124   -7.39 0  202 293 
 ZAR  HN ES   4   1142 59.79                             124    0.65 0  202 293 
 SML  HZ EP       1142 37.48                             119   -0.52 8  245 336 
 SML  HN ES   2   1143  7.03                             119    0.04 4  245 336 
 SML  HZ I        1143 13.79         7.7 0.24            119            245 336 
                                                                                
