 2012 1224 1455 34.2 L   6.772 -73.117139.1  RSN  7 0.4 2.2LRSN                1
 GAP=192        1.00       5.7     6.9  6.9  0.1818E+02  0.8990E+01  0.4620E+01E
 Epicentro: LOS SANTOS - SANTANDER                                             3
 ACTION:UPD 13-01-04 14:30 OP:ep   STATUS:               ID:20121224145534 L   I
 2012-12-24-1450-00M.COL___242                                                 6
 STAT SP IPHASW D HRMM SECON CODA AMPLIT PERI AZIMU VELO AIN AR TRES W  DIS CAZ7
 BAR2 SZ IP       1455 53.18                             171    0.1610 21.1 200 
 BAR2 SZ I        1455 53.72        63.0 0.13                          21.1 200 
 BAR2 SZ ES       1456  7.04                             171   -0.6310 21.1 200 
 GIR2 SZ EP       1455 53.18                             165   -0.0410 35.0 346 
 BRR  HZ IP     C 1455 54.98                             150    0.0610 75.5 299 
 BRR  HZ I        1455 55.25        48.8 0.22                          75.5 299 
 BRR  HN ES       1456 11.70                             150    0.6410 75.5 299 
 RUS  HZ EP     C 1455 57.23                             143    0.1410 97.3 178 
 RUS  HN ES   1   1456 15.12                             143    0.20 7 97.3 178 
 RUS  HN I        1456 18.24        21.5 0.15                          97.3 178 
 PTB  HZ EP       1456  0.00                             130   -0.90 9  150 260 
 PTB  HE ES   1   1456 21.51                             130   -0.19 7  150 260 
 PTB  HZ I        1456 23.81        22.3 0.11                           150 260 
 ZAR  HZ EP       1456  6.93                             120    0.25 8  208 293 
 ZAR  HN ES   1   1456 31.94                             120   -0.05 6  208 293 
 ZAR  HZ I        1456 37.29        27.4 0.74                           208 293 
 CHI  HZ EP   1   1456 11.49                             116    0.16 6  246 196 
 CHI  HN ES   1   1456 40.85                             116    0.58 6  246 196 
 CHI  HZ I        1456 45.51         4.8 0.38                           246 196 
 MON  HZ EP   4   1456 20.49                             107   -3.01 0  358 308 
                                                                                
