 2017  824 1213 33.5 L   6.788 -73.136149.7  RSN  7 0.3 1.6LRSN                1
 GAP=138        0.81       3.2     3.9  5.5  0.1212E-01  0.7558E+01  0.2328E+01E
 Epicentro: LOS SANTOS - SANTANDER                                             3
 ACTION:UPD 17-09-04 20:24 OP:rebc STATUS:               ID:20170824121333 L   I
 OLDACT:UP  17-08-24 22:19 OP:edw  STATUS:               ID:20170824120451     3
 OLDACT:UP  17-08-24 22:18 OP:edw  STATUS:               ID:20170824120451     3
 OLDACT:REG 17-08-24 21:03 OP:edw  STATUS:               ID:20170824120451     3
 2017-08-24-1208-00M.COL___420                                                 6
 STAT SP IPHASW D HRMM SECON CODA AMPLIT PERI AZIMU VELO AIN AR TRES W  DIS CAZ7
 BAR2 EZ EP       1213 53.39                             171   -0.1710 22.2 193 
 BAR2 EZ ES       1214  8.88                             171   -0.3410 22.2 193 
 BAR2 EZ I        1214  9.41        12.3 0.36            171           22.2 193 
 BRR  HZ EP       1213 55.46                             153    0.3210 72.8 299 
 BRR  HN ES       1214 12.28                             153    0.2410 72.8 299 
 PAM  EZ EP     D 1213 56.37                             151    0.2310 77.8  38 
 PAM  EE ES       1214 13.92                             151    0.1110 77.8  38 
 PAM  EZ I        1214 15.53        10.4 0.56            153           77.8  38 
 RUS  HZ EP       1213 57.57                             145    0.0510 99.1 177 
 RUS  HN ES       1214 16.22                             145   -0.0510 99.1 177 
 RUS  HZ I        1214 17.01         2.8 0.22            146           99.1 177 
 ZAR  HZ EP       1214  5.78                             123   -0.56 8  206 292 
 ZAR  HN ES       1214 31.55                             123   -0.41 8  206 292 
 ZAR  HZ I        1214 38.14         5.3 0.36            122            206 292 
 NOR  HZ EP       1214  9.58                             119    0.13 8  235 235 
 NOR  HN ES       1214 38.20                             119    0.70 8  235 235 
 NOR  HZ I        1214 38.80         2.1 0.28            119            235 235 
 CHI  HE ES       1214 40.40                             118   -0.38 8  248 195 
 CHI  HZ I        1214 44.35         3.3 0.52            118            248 195 
                                                                                
