 2012  724 1529 42.9 L   6.779 -73.161144.2  RSN  6 0.4 1.9LRSN                1
 GAP=136        1.06       6.9     6.0  9.0  0.8116E+01  0.5997E+01 -0.6346E+01E
 Epicentro: LOS SANTOS - SANTANDER                                             3
 ACTION:UPD 12-08-14 11:45 OP:ep   STATUS:               ID:20120724152942 L   I
 2012-07-24-1530-00M.COL___215                                                 6
 STAT SP IPHASW D HRMM SECON CODA AMPLIT PERI AZIMU VELO AIN AR TRES W  DIS CAZ7
 BAR2 SZ EP       1530  2.27                             172     0.010   21 186 
 BAR2 SZ ES   1   1530 16.84                             172    -0.6 7   21 186 
 BAR2 SZ I        1530 18.20        27.8 0.32            167             21 186 
 BRR  HZ EP       1530  4.03                             152     0.210   71 301 
 BRR  HN ES   1   1530 21.01                             152     0.8 7   71 301 
 BRR  HZ I        1530 21.78        34.2 0.14            149             71 301 
 PAM  SZ EP       1530  5.20                             149     0.110   80  39 
 PAM  SN ES   2   1530 21.81                             149    -0.6 5   80  39 
 RUS  HZ EP       1530  6.33                             144     0.010   98 175 
 RUS  HN ES   1   1530 25.21                             144     0.6 7   98 175 
 RUS  HZ I        1530 26.66         7.3 0.33            144             98 175 
 PTB  HZ EP       1530  9.08                             132    -0.5 9  146 260 
 PTB  HN ES   1   1530 29.78                             132    -0.5 7  146 260 
 PTB  HZ I        1530 36.17         6.2 0.10            130            146 260 
 ZAR  HZ EP   1   1530 15.59                             122     0.4 6  203 293 
 ZAR  HN ES   1   1530 40.24                             122    -0.1 6  203 293 
 ZAR  HZ I        1530 46.53         9.1 0.37            121            203 293 
