 2011  224 1024 40.1 L   6.779 -73.096145.7  RSN  9 0.3 2.2LRSN                1
 GAP=164        0.57       2.4     6.2  4.3 -0.4231E+01  0.5327E+01  0.4869E+00E
 Epicentro: LOS SANTOS - SANTANDER                                             3
 ACTION:UP  11-03-28 15:10 OP:jfem STATUS:               ID:20110224102440 L   I
 2011-02-24-1022-14S.COL___137                                                 6
 STAT SP IPHASW D HRMM SECON CODA AMPLIT PERI AZIMU VELO SNR AR TRES W  DIS CAZ7
 BAR2 SZ IP       1024 59.68                             171     0.010   23 205 
 BAR2 SZ ES   1   1025 14.85                             171    -0.1 7   23 205 
 BAR2 SZ I        1025 16.56        34.1 0.30                            23 205 
 BTL  SZ EP       1024 59.84                             170     0.110   24 309 
 GIR2 SZ EP       1024 59.79                             166    -0.110   35 342 
 GIR2 SZ ES   1   1025 15.71                             166     0.4 7   35 342 
 RUS  HZ EP       1025  3.59                             144    -0.110   98 179 
 RUS  HN ES   1   1025 21.75                             144    -0.3 7   98 179 
 RUS  HZ I        1025 23.59        17.6 0.24                            98 179 
 GRA  SZ IP       1025  5.53                             137     0.110  126  15 
 GRA  SZ ES   1   1025 25.20                             137     0.1 7  126  15 
 GRA  SZ I        1025 26.24        25.1 0.24                           126  15 
 OCA  SZ EP   1   1025  8.42                             129    -0.3 7  163 351 
 OCA  SZ ES   1   1025 30.67                             129    -0.3 7  163 351 
 OCA  SZ I        1025 34.80        17.8 0.42                           163 351 
 CHI  HZ EP       1025 17.67                             117     0.0 8  248 197 
 CHI  HZ I        1025 20.44         7.5 0.48                           248 197 
 CHI  HN ES   2   1025 47.76                             117     0.7 4  248 197 
 HEL  HZ EP   2   1025 21.51                             114     0.7 4  277 257 
 HEL  HN ES   2   1025 52.18                             114    -0.4 4  277 257 
 RREF HZ EP   2   1025 26.74                             111     0.2 3  324 230 
 RREF HZ I        1026 11.74         7.9 0.23                           324 230 
                                                                                
