 2011 1224 1331 48.6 L   6.794 -73.184139.4  RSN 10 0.3 2.2LRSN                1
 GAP=132        0.66       3.1     4.2  5.1 -0.4095E+01  0.8735E+01 -0.9388E+00E
 Epicentro: LOS SANTOS - SANTANDER                                             3
 ACTION:UPD 12-07-13 16:18 OP:ep   STATUS:               ID:20111224133148 L   I
 2011-12-24-1330-00M.COL___189                                                 6
 STAT SP IPHASW D HRMM SECON CODA AMPLIT PERI AZIMU VELO AIN AR TRES W  DIS CAZ7
 BAR2 SZ IP       1332  7.51                             170    0.0510 22.3 180 
 BAR2 SZ ES   1   1332 22.07                             170   -0.08 7 22.3 180 
 BAR2 SZ I        1332 24.96        37.2 0.25                          22.3 180 
 GIR2 SZ EP   1   1332  7.65                             167    0.12 7 31.5 358 
 GIR2 SZ ES   1   1332 22.52                             167    0.23 7 31.5 358 
 BRR  HZ EP   1   1332  9.45                             152    0.57 7 67.8 301 
 BRR  HZ I        1332 27.35        37.7 0.13                          67.8 301 
 PAM  SZ EP   1   1332 10.50                             149    0.14 7 80.6  42 
 PAM  SE ES   1   1332 27.48                             149    0.17 7 80.6  42 
 PAM  SZ I        1332 29.45        28.7 0.54                          80.6  42 
 RUS  HZ EP   1   1332 11.49                             142   -0.24 7  100 174 
 RUS  HN ES   1   1332 29.57                             142   -0.18 7  100 174 
 RUS  HZ I        1332 31.02        23.1 0.29                           100 174 
 PTB  HZ EP   1   1332 14.07                             131   -0.61 7  144 259 
 PTB  HN ES   1   1332 34.92                             131   -0.08 7  144 259 
 OCA  SZ EP   1   1332 16.15                             128   -0.30 7  160 355 
 OCA  SZ ES   1   1332 37.49                             128   -0.68 7  160 355 
 ZAR  HZ EP   1   1332 20.96                             121    0.69 6  200 293 
 NOR  SZ EP   1   1332 23.73                             117    0.16 6  231 234 
 NOR  SN ES   1   1332 50.84                             117    0.00 6  231 234 
 PRA  HZ EP   1   1332 41.57                             105   -0.05 4  389 209 
                                                                                
