 2017  424 1650 18.2 L   6.688 -73.188154.9  RSN  4 0.3 1.5LRSN                1
 GAP=228        0.56       7.0     4.3  5.8  0.1304E+02  0.6700E+01  0.2778E+00E
 Epicentro: VILLANUEVA - SANTANDER                                             3
 ACTION:UPD 17-05-30 21:15 OP:jn   STATUS:               ID:20170424165018 L   I
 OLDACT:UP  17-04-24 23:39 OP:and  STATUS:               ID:20170424164746d    3
 OLDACT:DUP 17-04-24 23:38 OP:and  STATUS:               ID:20170424164746d    3
 2017-04-24-1648-00M.COL___371                                                 6
 STAT SP IPHASW D HRMM SECON CODA AMPLIT PERI AZIMU VELO AIN AR TRES W  DIS CAZ7
 BAR2 EZ IP     D 1650 39.00                             176    0.2710 10.6 177 
 BAR2 EZ ES       1650 54.52                             176   -0.2410 10.6 177 
 BAR2 EZ I        1650 55.02         6.4 0.24            166           10.6 177 
 BRR  HZ EP   2   1650 40.55                             153    0.06 5 74.2 309 
 BRR  HN ES       1650 57.99                             153    0.1110 74.2 309 
 PTB  HZ EP   2   1650 45.69                             135    0.35 5  141 263 
 PTB  HN ES       1651  6.45                             135   -0.07 9  141 263 
 PTB  HZ I        1651 12.54         4.8 0.66            131            141 263 
 ZAR  HZ EP   2   1650 50.47                             124   -0.85 4  205 296 
 ZAR  HN ES       1651 17.14                             124   -0.02 9  205 296 
 ZAR  HZ I        1651 18.96         2.5 0.21            123            205 296 
                                                                                
