 2016  824 1627 20.0 L   6.852 -73.298124.7  RSN  6 0.4 1.4LRSN                1
 GAP=109        1.09       5.4     4.7  8.7  0.6169E+01  0.1399E+02  0.8557E+01E
 Epicentro: ZAPATOCA - SANTANDER                                               3
 ACTION:UPD 16-10-29 15:38 OP:rebc STATUS:               ID:20160824162720 L   I
 OLDACT:REG 16-08-24 20:50 OP:ar   STATUS:               ID:20160824161735     3
 2016-08-24-1618-00M.COL___374                                                 6
 STAT SP IPHASW D HRMM SECON CODA AMPLIT PERI AZIMU VELO AIN AR TRES W  DIS CAZ7
 BAR2 EZ EP       1627 37.76                             165    0.4010 31.4 156 
 BAR2 EZ ES       1627 50.47                             165   -0.4010 31.4 156 
 BAR2 EZ I        1627 52.12        17.7 0.30                          31.4 156 
 BRR  HZ EP       1627 38.17                             155    0.2410 53.7 302 
 BRR  HE ES       1627 52.32                             155    0.4210 53.7 302 
 PAM  HN ES       1627 56.33                             144   -0.3310 85.4  51 
 RUS  HZ EP       1627 42.83                             137    0.3910  109 167 
 RUS  HN ES       1628  0.02                             137    0.1010  109 167 
 RUS  HZ I        1628  1.31         2.7 0.20                           109 167 
 PTB  HZ EP       1627 42.98                             130   -0.9410  133 255 
 PTB  HE ES       1628  2.44                             130   -0.1110  133 255 
 PTB  HZ I        1628  7.69         3.5 0.16                           133 255 
 ZAR  HN ES       1628 12.29                             120    0.18 9  186 292 
 ZAR  HZ I        1628 16.99         2.9 0.15                           186 292 
                                                                                
