 2017  324 1248  1.9 L   6.795 -73.144147.4  RSN 14 0.4 2.6LRSN                1
 GAP=120        1.00       3.4     4.1  5.4 -0.1188E+01  0.3800E+01  0.5338E+01E
 Epicentro: LOS SANTOS - SANTANDER                                             3
 ACTION:UPD 17-05-25 18:44 OP:jn   STATUS:               ID:20170324124801 L   I
 OLDACT:DUP 17-03-24 23:26 OP:lv   STATUS:               ID:20170324123745d    3
 2017-03-24-1238-00M.COL___393                                                 6
 STAT SP IPHASW D HRMM SECON CODA AMPLIT PERI AZIMU VELO AIN AR TRES W  DIS CAZ7
 BAR2 EZ IP     C 1248 21.68                             171   -0.0410 22.8 191 
 BAR2 EZ ES       1248 36.70                             171   -0.4710 22.8 191 
 BAR2 EZ I        1248 37.95       101.3 0.06            164           22.8 191 
 BRR  HZ IP     C 1248 23.56                             153    0.3110 71.7 299 
 BRR  HN ES       1248 40.60                             153    0.6910 71.7 299 
 PAM  EZ EP       1248 24.59                             151    0.2810 77.7  39 
 PAM  EN ES       1248 41.67                             151   -0.1110 77.7  39 
 PTB  HZ EP       1248 28.32                             132   -0.69 9  148 259 
 PTB  HN ES       1248 49.64                             132   -0.52 9  148 259 
 PTB  HZ I        1248 52.70        33.5 0.22            129            148 259 
 SPBC HZ EP       1248 30.62                             129    0.12 9  163 219 
 SPBC HN ES       1248 52.92                             129    0.12 9  163 219 
 SPBC HZ I        1248 59.84        58.2 0.20            126            163 219 
 ZAR  HZ EP       1248 34.74                             123    0.24 9  204 292 
 ZAR  HN ES       1248 59.77                             123   -0.15 9  204 292 
 ZAR  HZ I        1249  5.82        34.0 0.15            121            204 292 
 CHI  HZ EP       1248 40.02                             117    0.38 8  248 195 
 CHI  HN ES       1249  9.31                             117    0.24 8  248 195 
 ROSC BZ EP   4   1248 41.79                             117    1.72 0  252 211 
 ROSC BN ES       1249 10.20                             117    0.36 8  252 211 
 ROSC BZ I        1249 19.34        29.6 0.35            116            252 211 
 URE  HZ EP       1248 42.30                             114   -0.80 7  284 292 
 URE  HN ES   4   1249 13.90                             114   -1.33 0  284 292 
 URE  HZ I        1249 21.65        10.5 0.16            113            284 292 
 PTGC HZ EP       1248 45.10                             112   -0.66 7  308 159 
 PTGC HN ES   4   1249 17.60                             112   -2.37 0  308 159 
 ELA  HZ EP   4   1248 52.29                             111    3.49 0  329 230 
 ELA  HN ES   4   1249 26.92                             111    1.54 0  329 230 
 ELA  HZ I        1249 34.47        10.6 0.52            110            329 230 
 DBB  EZ EP       1248 50.14                             110    0.67 7  340 274 
 DBB  EN ES   4   1249 25.54                             110   -1.04 0  340 274 
 DBB  EZ I        1249 30.08         6.3 0.26            109            340 274 
 ANIL HN ES   4   1249 32.48                             109    1.87 0  357 225 
 ANIL HZ I        1249 39.58        26.8 0.40            108            357 225 
 PRA  HZ EP       1248 55.69                             107    0.26 6  392 210 
 PRA  HN ES       1249 36.88                             107   -0.31 6  392 210 
 PRA  HZ I        1249 44.23        12.0 0.34            106            392 210 
                                                                                
