 2016  224 1022 33.2 L   6.752 -73.171147.8  RSN  5 0.3 1.4LRSN                1
 GAP=231        0.70       3.9     5.0  5.1  0.9190E+01  0.5837E+01  0.4659E+00E
 Epicentro: LOS SANTOS - SANTANDER                                             3
 ACTION:UPD 16-03-04 21:29 OP:rebc STATUS:               ID:20160224102233 L   I
 OLDACT:REG 16-02-24 20:12 OP:drio STATUS:               ID:20160224101746     3
 2016-02-24-1017-46M.COL___327                                                 6
 STAT SP IPHASW D HRMM SECON CODA AMPLIT PERI AZIMU VELO AIN AR TRES W  DIS CAZ7
 BAR2 EZ EP       1022 52.72                             173   -0.2410 17.7 184 
 BAR2 EZ ES       1023  8.23                             173   -0.1510 17.7 184 
 BAR2 EZ I        1023  9.84         4.4 0.20            168           17.7 184 
 BRR  HZ EP       1022 54.47                             153   -0.1010 71.5 303 
 BRR  HN ES       1023 11.47                             153    0.2310 71.5 303 
 RUS  HZ EP       1022 56.59                             146   -0.2010 95.6 174 
 RUS  HN ES       1023 15.55                             146    0.3610 95.6 174 
 RUS  HZ I        1023 16.95         2.9 0.44            145           95.6 174 
 SPBC HZ EP       1023  1.37                             131    0.08 9  157 219 
 SPBC HN ES       1023 23.04                             131   -0.17 9  157 219 
 SPBC HZ I        1023 27.94         3.2 0.32            129            157 219 
 ZAR  HZ EP       1023  6.26                             123    0.55 9  203 294 
 ZAR  HN ES       1023 30.76                             123   -0.31 9  203 294 
 ZAR  HZ I        1023 36.61         2.4 0.30            122            203 294 
                                                                                
