 2017  724 1659  6.0 L   6.803 -73.135144.0  RSN 15 0.4 2.3LRSN                1
 GAP=101        1.10       4.0     3.8  5.3 -0.2950E+00  0.3063E+01  0.2845E+01E
 Epicentro: LOS SANTOS - SANTANDER                                             3
 ACTION:UPD 17-08-30 15:36 OP:rebc STATUS:               ID:20170724165906 L   I
 OLDACT:UP  17-07-25 00:47 OP:ar   STATUS:               ID:20170724165739     3
 OLDACT:UP  17-07-25 00:46 OP:ar   STATUS:               ID:20170724165739     3
 OLDACT:UP  17-07-25 00:42 OP:ar   STATUS:               ID:20170724165739     3
 OLDACT:REG 17-07-24 22:02 OP:ar   STATUS:               ID:20170724165739     3
 2017-07-24-1658-00M.COL___389                                                 6
 STAT SP IPHASW D HRMM SECON CODA AMPLIT PERI AZIMU VELO AIN AR TRES W  DIS CAZ7
 BAR2 EZ EP       1659 25.09                             170   -0.3110 23.9 193 
 BAR2 EZ ES       1659 40.40                             170   -0.1610 23.9 193 
 BAR2 EZ I        1659 41.16        50.0 0.36            167           23.9 193 
 BRR  HZ EP       1659 26.95                             152   -0.0310 72.0 298 
 BRR  HN ES       1659 44.03                             152    0.6710 72.0 298 
 BRR  HZ I        1659 47.92        32.9 0.30            151           72.0 298 
 PAM  EZ EP       1659 28.14                             151    0.2010 76.4  39 
 PAM  EN ES       1659 45.23                             151    0.1610 76.4  39 
 PAM  EZ I        1659 48.28        23.8 0.50            156           76.4  39 
 RUS  HZ EP       1659 29.30                             143   -0.2710  101 177 
 RUS  HE ES       1659 47.98                             143    0.0010  101 177 
 RUS  HZ I        1659 49.16        16.6 0.46            144            101 177 
 PTB  HZ EP       1659 31.96                             131   -0.94 9  149 259 
 PTB  HE ES       1659 53.64                             131   -0.27 9  149 259 
 PTB  HZ I        1659 59.06        14.9 0.20            131            149 259 
 TAM  HZ EP       1659 33.55                             130    0.13 9  154 105 
 SPBC HZ EP       1659 34.26                             129   -0.17 9  164 219 
 SPBC HN ES       1659 56.87                             129    0.24 9  164 219 
 SPBC HZ I        17 0  0.93        36.0 0.20            129            164 219 
 YPLC HZ EP       1659 35.55                             126   -0.07 9  177 152 
 YPLC HE ES   4   17 0  0.54                             126    1.80 0  177 152 
 YPLC HZ I        17 0  0.56         9.9 0.28            129            177 152 
 ZAR  HZ EP       1659 39.25                             122    0.85 9  205 292 
 ZAR  HN ES       17 0  3.10                             122   -0.59 9  205 292 
 ZAR  HZ I        17 0  8.07        25.8 0.38            123            205 292 
 NOR  HZ EP       1659 41.50                             118   -0.22 8  236 235 
 NOR  HN ES   4   17 0  7.91                             118   -1.70 0  236 235 
 NOR  HZ I        17 0 18.30        14.0 0.40            119            236 235 
 ROSC BZ EP   9   1659 45.84                             116    1.74 0  254 211 
 ROSC BN ES       17 0 16.38                             116    0.80 8  254 211 
 ROSC BZ I        17 0 19.75        36.3 0.45            117            254 211 
 GUY2CHZ EP       1659 50.42                             112    0.79 7  302 235 
 GUY2CHE ES   4   17 0 26.47                             112    2.79 0  302 235 
 GUY2CHZ I        17 0 31.28        13.6 0.32                           302 235 
 PTGC HZ EP   9   1659 48.29                             111   -1.45 0  309 159 
 PTGC HN ES       17 0 21.80                             111   -0.63 7  309 159 
 DBB  EZ EP       1659 53.10                             109   -0.40 7  341 274 
 DBB  EN ES   4   17 0 28.55                             109   -2.03 0  341 274 
 DBB  EZ I        17 0 30.45         6.3 0.32            110            341 274 
 ORTC HZ EP       17 0  0.25                             106    0.30 6  396 216 
 ORTC HN ES       17 0 42.94                             106    0.89 6  396 216 
 ORTC HZ I        17 0 46.45         7.6 0.24            107            396 216 
                                                                                
