 2012 1124 1217 54.5 L   6.797 -73.175135.6  RSN  6 0.2 1.9LRSN                1
 GAP=133        0.41       2.5     2.3  3.9 -0.1072E+01  0.3903E+01 -0.1308E+01E
 Epicentro: LOS SANTOS - SANTANDER                                             3
 ACTION:UPD 12-12-05 15:35 OP:}ep  STATUS:               ID:20121124121754 L   I
 2012-11-24-1210-00M.COL___234                                                 6
 STAT SP IPHASW D HRMM SECON CODA AMPLIT PERI AZIMU VELO AIN AR TRES W  DIS CAZ7
 BAR2 SZ EP   1   1218 12.97                             170    0.12 7 22.6 182 
 BAR2 SZ ES   1   1218 27.08                             170   -0.11 7 22.6 182 
 BAR2 SZ I        1218 29.37        39.0 0.21                          22.6 182 
 GIR2 SZ EP       1218 12.98                             166    0.0610 31.3 356 
 PAM  SZ EP       1218 15.85                             148    0.1010 79.8  41 
 PAM  SE ES       1218 32.28                             148   -0.0810 79.8  41 
 PAM  SZ I        1218 34.82        24.9 0.56                          79.8  41 
 RUS  HZ EP   1   1218 17.14                             142   -0.08 7  100 174 
 RUS  HN ES   1   1218 35.08                             142    0.12 7  100 174 
 RUS  HN I        1218 37.36         8.0 0.16                           100 174 
 PTB  HZ EP       1218 19.98                             130   -0.33 9  144 259 
 PTB  HN ES   1   1218 40.67                             130    0.20 7  144 259 
 PTB  HZ I        1218 42.63         7.3 0.10                           144 259 
 ZAR  HZ EP   1   1218 26.19                             120    0.23 6  201 293 
 ZAR  HN ES   1   1218 50.50                             120   -0.02 6  201 293 
 ZAR  HZ I        1218 57.66        11.0 0.18                           201 293 
                                                                                
