 2014  924 1651  8.2 L   6.844 -73.116148.0  RSN 10 0.4 1.7LRSN                1
 GAP=204        0.87       3.2     5.0  5.7  0.3699E+01  0.5828E+00  0.3258E+00E
 Epicentro: LOS SANTOS - SANTANDER                                             3
 ACTION:UPD 14-10-03 23:08 OP:nd   STATUS:               ID:20140924165108 L   I
 OLDACT:REG 14-09-24 19:42 OP:spq  STATUS:               ID:20140924164818     3
 2014-09-24-1648-18M.COL___284                                                 6
 STAT SP IPHASW D HRMM SECON CODA AMPLIT PERI AZIMU VELO AIN AR TRES W  DIS CAZ7
 BAR2 SZ EP       1651 28.36                             169    0.1510 28.7 195 
 BAR2 SZ ES   1   1651 43.47                             169   -0.36 7 28.7 195 
 BAR2 SZ I        1651 44.22         5.6 0.22            165           28.7 195 
 BRR  HZ EP       1651 29.87                             153    0.2410 72.0 294 
 BRR  HN ES       1651 47.08                             153    0.7310 72.0 294 
 BRR  HZ I        1651 48.03        13.8 0.44            151           72.0 294 
 RUS  HZ EP   1   1651 32.58                             143    0.08 7  105 178 
 RUS  HN ES   1   1651 51.10                             143   -0.36 7  105 178 
 RUS  HZ I        1651 52.51         3.4 0.46            141            105 178 
 PTB  HZ EP       1651 34.98                             132   -0.75 9  152 257 
 PTB  HE ES       1651 57.05                             132   -0.15 9  152 257 
 PTB  HZ I        1651 58.34         5.4 0.12            129            152 257 
 SPBC HZ EP       1651 37.42                             129    0.00 9  169 219 
 SPBC HN ES       1651 59.99                             129   -0.22 9  169 219 
 SPBC HZ I        1652  5.23         7.0 0.21            126            169 219 
 ZAR  HZ EP   1   1651 40.90                             123   -0.02 6  205 291 
 ZAR  HN ES       1652  6.63                             123    0.19 8  205 291 
 ZAR  HZ I        1652  9.03         4.9 0.30            122            205 291 
 SML  HZ EP   1   1651 44.95                             118    0.32 6  241 334 
 SML  HN ES       1652 12.41                             118   -0.63 8  241 334 
 SML  HZ I        1652 15.59         8.3 0.26            118            241 334 
 CHI  HZ EP   1   1651 46.59                             117   -0.03 6  254 196 
 CHI  HN ES   1   1652 17.18                             117    0.60 6  254 196 
 CHI  HZ I        1652 23.19         2.3 0.68            116            254 196 
 GUY2CHZ EP   4   1651 53.70                             112    1.18 0  307 234 
 GUY2CHN ES   1   1652 27.25                             112    0.15 5  307 234 
 GUY2CHZ I        1652 32.58         2.0 0.38                           307 234 
 PRA  HZ EP       1652  2.82                             107    0.35 6  398 210 
 PRA  HE ES   4   1652 44.36                             107   -0.45 0  398 210 
 PRA  HZ I        1652 52.05         2.1 0.32            106            398 210 
                                                                                
