 2012  124 1955 34.3 L   6.806 -73.146144.0  RSN  6 0.4 1.5LRSN                1
 GAP=136        0.92       7.3     8.3 12.6 -0.5035E+01  0.3788E+02  0.2514E+02E
 Epicentro: LOS SANTOS - SANTANDER                                             3
 ACTION:UP  12-02-03 08:20 OP:REBC STATUS:               ID:20120124195534 L   I
 2012-01-24-1950-00M.COL___187                                                 6
 STAT SP IPHASW D HRMM SECON CODA AMPLIT PERI AZIMU VELO SNR AR TRES W  DIS CAZ7
 BAR2 SZ EP       1955 53.43                             170    -0.310   24 190 
 GIR2 SZ EP   2   1955 53.57                             167    -0.2 5   31 350 
 BRR  HZ EP       1955 55.64                             152     0.410   71 298 
 BRR  HZ I        1955 56.91        12.2 0.46                            71 298 
 BRR  HN ES   2   1956 12.10                             152     0.5 5   71 298 
 PAM  SZ EP       1955 56.50                             150     0.210   77  40 
 PAM  SN ES   1   1956 12.99                             150    -0.5 7   77  40 
 RUS  HZ EP       1955 58.14                             143     0.210  101 176 
 RUS  HZ I        1955 59.05         2.9 0.12                           101 176 
 RUS  HN ES   2   1956 16.41                             143     0.1 5  101 176 
 PTB  HZ EP       1956  0.60                             131    -0.5 9  148 259 
 PTB  HZ I        1956 27.06         3.1 0.22                           148 259 
                                                                                
