 2015  124 1126 29.4 L   6.817 -73.141138.2  RSN  8 0.5 1.7LRSN                1
 GAP=136        1.27       5.1     5.7  7.6 -0.6859E+01  0.8248E+01  0.1067E+02E
 Epicentro: LOS SANTOS - SANTANDER                                             3
 ACTION:UPD 15-03-02 15:42 OP:nd   STATUS:               ID:20150124112629 L   I
 OLDACT:REG 15-01-24 20:32 OP:stll STATUS:               ID:20150124111742     3
 2015-01-24-1117-42M.COL___265                                                 6
 STAT SP IPHASW D HRMM SECON CODA AMPLIT PERI AZIMU VELO AIN AR TRES W  DIS CAZ7
 BAR2 EZ EP       1126 48.58                             169    0.3710 25.3 190 
 BAR2 EZ I        1126 48.75         7.0 0.34            167           25.3 190 
 BAR2 EZ ES       1127  2.55                             169   -0.3010 25.3 190 
 BRR  HZ EP       1126 50.03                             151    0.2810 70.7 297 
 BRR  HN ES       1127  5.56                             151   -0.0410 70.7 297 
 PAM  SZ EP       1126 51.08                             149    0.3310 75.6  40 
 PAM  SZ I        1126 51.33        19.9 0.18            152           75.6  40 
 PAM  SE ES       1127  7.71                             149    0.3410 75.6  40 
 RUS  HZ EP       1126 52.80                             142    0.2110  102 176 
 RUS  HZ I        1126 54.02         4.1 0.62            141            102 176 
 RUS  HN ES       1127 10.15                             142   -0.5110  102 176 
 PTB  HZ EP       1126 55.21                             130   -0.67 9  149 258 
 PTB  HN ES       1127 15.90                             130   -0.61 9  149 258 
 PTB  HZ I        1127 18.05         7.0 0.18            130            149 258 
 SPBC HZ EP       1126 57.44                             127   -0.10 9  165 219 
 SPBC HN ES       1127 19.71                             127    0.25 9  165 219 
 SPBC HZ I        1127 26.18         7.5 0.40            126            165 219 
 CHI  HZ EP       1127  6.23                             115   -0.71 8  251 195 
 CHI  HZ I        1127  8.88         2.5 0.46            115            251 195 
 CHI  HN ES       1127 36.67                             115    0.47 8  251 195 
 GUY2CHZ EP       1127 12.21                             111   -0.67 7  303 235 
 GUY2CHN ES       1127 48.31                             111    1.55 7  303 235 
 GUY2CHZ I        1127 56.49         3.4 0.46                           303 235 
                                                                                
