 2016  924 1819  9.9 L   6.761 -73.081145.5  RSN  5 0.2 1.4LRSN                1
 GAP=241        0.53       4.1     3.9  3.9  0.9961E+01  0.1295E+01 -0.2136E+01E
 Epicentro: LOS SANTOS - SANTANDER                                             3
 ACTION:UPD 17-08-17 21:15 OP:lp   STATUS:               ID:20160924181909 L   I
 OLDACT:UP  16-09-24 23:03 OP:edw  STATUS:               ID:20160924181743     3
 OLDACT:REG 16-09-24 20:50 OP:ar   STATUS:               ID:20160924181743     3
 2016-09-24-1818-00M.COL___330                                                 6
 STAT SP IPHASW D HRMM SECON CODA AMPLIT PERI AZIMU VELO AIN AR TRES W  DIS CAZ7
 BAR2 EZ EP       1819 29.42                             171   -0.0310 21.8 211 
 BAR2 EZ ES       1819 44.77                             171    0.0610 21.8 211 
 BAR2 EZ I        1819 45.79         7.6 0.16            164           21.8 211 
 BRR  HZ EP       1819 31.30                             150   -0.1910 79.5 299 
 BRR  HN ES       1819 48.34                             150   -0.0010 79.5 299 
 RUS  HZ EP       1819 33.58                             145    0.3010 96.1 180 
 RUS  HN ES       1819 51.41                             145   -0.1310 96.1 180 
 RUS  HZ I        1819 53.10         2.2 0.20            142           96.1 180 
 PTB  HZ EP       1819 37.02                             131   -0.38 9  154 261 
 PTB  HN ES       1819 58.98                             131    0.11 9  154 261 
 PTB  HZ I        1820  3.91         3.1 0.05            128            154 261 
 ZAR  HZ EP       1819 43.42                             121    0.26 8  212 292 
 ZAR  HN ES       1820  9.17                             121    0.05 8  212 292 
 ZAR  HZ I        1820 10.80         3.9 0.10            121            212 292 
                                                                                
