 2016  724 1004 42.5 L   6.907 -72.870146.3  RSN  5 0.3 1.7LRSN                1
 GAP=268        0.78       6.7     7.2  6.6  0.1697E+02  0.8051E+01  0.1249E+02E
 Epicentro: GUACA - SANTANDER                                                  3
 ACTION:UPD 17-03-29 16:54 OP:lp   STATUS:               ID:20160724100442 L   I
 OLDACT:REG 16-07-24 20:37 OP:lv   STATUS:               ID:20160724095759     3
 2016-07-24-0957-59S.COL___331                                                 6
 STAT SP IPHASW D HRMM SECON CODA AMPLIT PERI AZIMU VELO AIN AR TRES W  DIS CAZ7
 BAR2 EZ EP       10 5  3.24                             161    0.3010 49.0 225 
 BAR2 EZ ES       10 5 19.11                             161    0.2010 49.0 225 
 BAR2 EZ I        10 5 20.08        66.3 0.18            161           49.0 225 
 BRR  HE ES       10 5 22.72                             145   -0.2510 95.7 283 
 BRR  HZ I        10 5 24.82         4.5 0.48            145           95.7 283 
 RUS  HZ EP       10 5  7.46                             140    0.1410  115 192 
 RUS  HE ES       10 5 26.34                             140   -0.3710  115 192 
 RUS  HZ I        10 5 27.07         2.2 0.18            142            115 192 
 GUY2CHZ EP       10 5 29.16                             110   -0.55 7  333 236 
 GUY2CHN ES       10 6  7.06                             110    0.49 7  333 236 
 GUY2CHZ I        10 6 10.12         1.5 0.38                           333 236 
 BBGH B2 E        10 2 23.25                                           1613  64 
                                                                                
