 2012  224 1846 31.2 L   6.778 -73.156147.6  RSN  6 0.2 1.5LRSN                1
 GAP=182        0.39       4.0     3.9  5.6  0.1551E+01  0.2585E+01  0.5410E+01E
 ACTION:UP  12-03-07 16:33 OP:epov STATUS:               ID:20120224184631 L   I
 2012-02-24-1840-00M.COL___193                                                 6
 STAT SP IPHASW D HRMM SECON CODA AMPLIT PERI AZIMU VELO AIN AR TRES W  DIS CAZ7
 BAR2 SZ EP   1   1846 51.01                             172   -0.03 7 20.8 188 
 BAR2 SZ I        1846 51.60         7.2 0.13                          20.8 188 
 GIR2 SZ EP   2   1846 51.25                             166    0.07 5 33.5 353 
 GIR2 SZ ES   2   1847  6.72                             166   -0.02 5 33.5 353 
 BRR  HZ EP   1   1846 52.95                             153    0.36 7 71.4 301 
 BRR  HN ES   2   1847  9.13                             153   -0.12 5 71.4 301 
 BRR  HZ I        1847 13.07        11.2 0.24                          71.4 301 
 RUS  HZ EP   1   1846 54.83                             145   -0.17 7 98.3 175 
 RUS  HN ES   2   1847 13.64                             145    0.10 5 98.3 175 
 RUS  HZ I        1847 15.27         2.8 0.29                          98.3 175 
 PTB  HZ EP   1   1846 58.01                             133   -0.20 7  146 260 
 PTB  HE ES   2   1847 19.02                             133   -0.23 5  146 260 
 NOR  SN ES   2   1847 34.88                             119    0.30 4  232 235 
                                                                                
