 2013 1224 1935 59.3 L   6.574 -73.683 95.0  RSN  6 0.4 1.5LRSN                1
 GAP=115        0.90       4.9     5.1 10.2 -0.8709E+01  0.2772E+02  0.8304E+01E
 Epicentro: EL CARMEN DE CHUCURI - SANTANDER                                   3
 ACTION:UPD 14-01-13 10:20 OP:ep   STATUS:               ID:20131224193559 L   I
 OLDACT:REG 13-12-24 16:39 OP:jn   STATUS:               ID:20131224193000     3
 2013-12-24-1930-00M.COL___285                                                 6
 STAT SP IPHASW D HRMM SECON CODA AMPLIT PERI AZIMU VELO AIN AR TRES W  DIS CAZ7
 BAR2 SZ EP       1936 14.66                             148    0.2110 55.4  88 
 BAR2 SZ ES       1936 26.68                             148    0.4210 55.4  88 
 BRR  HZ EP       1936 14.14                             146   -0.2210 59.0 357 
 BRR  HN ES   1   1936 25.63                             146   -0.47 7 59.0 357 
 PTB  HZ I        1936 30.59         7.8 0.14            135           85.6 267 
 SPBC HZ EP       1936 18.72                             127   -0.2110  111 203 
 SPBC HN ES   1   1936 33.48                             127   -0.77 7  111 203 
 SPBC HZ I        1936 35.81         4.9 0.14            128            111 203 
 NOR  HZ EP   1   1936 25.32                             114   -0.15 7  172 230 
 NOR  HN ES       1936 46.19                             114    0.30 9  172 230 
 NOR  HZ I        1936 47.32         6.3 0.16            115            172 230 
 HEL  HZ EP   2   1936 29.92                             110   -0.08 4  209 258 
 HEL  HE ES   1   1936 54.75                             110    0.80 6  209 258 
 HEL  HZ I        1936 55.75         4.7 0.24            111            209 258 
                                                                                
