 2013  824 1030 27.4 L   7.597 -73.690 79.0  RSN  4 0.5 1.2LRSN                1
 GAP=171        1.25      10.9    28.0 19.7  0.2829E+03 -0.3810E+03 -0.1574E+03E
 Epicentro: SABANA DE TORRES - SANTANDER                                       3
 ACTION:UPD 14-01-14 09:06 OP:ep   STATUS:               ID:20130824103027 L   I
 OLDACT:REG 13-08-24 17:04 OP:stll STATUS:               ID:20130824102848     3
 2013-08-24-1028-48M.COL___223                                                 6
 STAT SP IPHASW D HRMM SECON CODA AMPLIT PERI AZIMU VELO AIN AR TRES W  DIS CAZ7
 BRR  HZ EP       1030 40.01                             142   -0.4710 54.2 183 
 BRR  HN ES       1030 51.03                             142    0.3210 54.2 183 
 BRR  HZ I        1030 51.22        10.0 0.12            146           54.2 183 
 BAR2 SZ ES       1031  3.50                             117    0.1410  124 153 
 BAR2 SZ I        1031  6.00         2.8 0.26            119            124 153 
 SML  HZ EP       1030 49.85                             114    0.88 9  140 343 
 SML  HN ES       1031  5.22                             114   -0.59 9  140 343 
 RUS  HN ES       1031 19.10                             106   -0.32 9  200 160 
                                                                                
