 2012  324 1458 25.0 L   6.203 -73.674116.1  RSN  4 0.3 1.1LRSN                1
 GAP=124        0.65       8.5     4.4 11.3 -0.1736E+02  0.1603E+01  0.4499E+02E
 ACTION:UP  12-03-31 23:22 OP:EP   STATUS:               ID:20120324145825 L   I
 2012-03-24-1450-00M.COL___196                                                 6
 STAT SP IPHASW D HRMM SECON CODA AMPLIT PERI AZIMU VELO SNR AR TRES W  DIS CAZ7
 BAR2 SZ EP   1   1458 43.42                             147     0.1 7   69  52 
 BAR2 SZ ES   1   1458 57.68                             147     0.2 7   69  52 
 BAR2 SZ I        1458 58.71         5.5 0.16                            69  52 
 RUS  HZ EP   1   1458 43.53                             146    -0.4 7   74 118 
 RUS  HZ I        1458 43.79         2.8 0.07                            74 118 
 PTB  HZ EP   1   1458 44.96                             138     0.1 7   94 293 
 PTB  HE ES   2   1458 59.61                             138    -0.6 5   94 293 
 PTB  HZ I        1459  2.60         2.4 0.15                            94 293 
 NOR  SZ EP   1   1458 50.08                             124     0.0 7  150 242 
 NOR  SN ES   1   1459  9.79                             124     0.2 7  150 242 
                                                                                
