 2013  724 1951 29.1 L   6.728 -73.254145.0  RSN  7 0.4 2.0LRSN                1
 GAP=203        0.95       7.6     6.6  8.7  0.2949E+02  0.1210E+02  0.2214E+01E
 Epicentro: VILLANUEVA - SANTANDER                                             3
 ACTION:UPD 13-08-12 10:39 OP:ep   STATUS:               ID:20130724195129 L   I
 OLDACT:REG 13-07-24 17:21 OP:mh   STATUS:               ID:20130724194959     3
 2013-07-24-1949-59M.COL___267                                                 6
 STAT SP IPHASW D HRMM SECON CODA AMPLIT PERI AZIMU VELO AIN AR TRES W  DIS CAZ7
 BAR2 SZ EP       1951 48.14                             173   -0.3910 16.9 152 
 BAR2 SZ ES   1   1952  3.35                             173   -0.33 7 16.9 152 
 BAR2 SZ I        1952  4.53        23.2 0.18            163           16.9 152 
 BRR  HZ EP   1   1951 49.98                             154    0.11 7 65.8 310 
 BRR  HN ES   1   1952  6.85                             154    0.78 7 65.8 310 
 BRR  HN I        1952 11.38        26.7 0.18            141           65.8 310 
 RUS  HZ EP   1   1951 51.98                             145   -0.35 7 94.3 168 
 RUS  HN ES       1952 10.78                             145    0.3310 94.3 168 
 RUS  HN I        1952 12.39        10.3 0.26            129           94.3 168 
 PTB  HZ EP   1   1951 54.97                             135    0.13 7  135 261 
 PTB  HN ES       1952 14.43                             135   -0.4810  135 261 
 PTB  HZ I        1952 17.48         6.2 0.46            118            135 261 
 ZAR  HE ES       1952 25.34                             123   -0.02 9  196 296 
 ZAR  HE I        1952 31.90        15.7 0.22            110            196 296 
 NOR  HZ EP   1   1952  4.11                             120    0.86 6  220 234 
 NOR  HN I        1952 37.43        11.1 0.42            107            220 234 
 GUY2CHZ EP   4   1952 13.38                             113    2.32 0  287 235 
 GUY2CHE ES   4   1952 48.43                             113    4.65 0  287 235 
 GUY2CHE I        1952 54.83         4.0 0.42                           287 235 
                                                                                
