 2015  524 1603  9.2 L   6.772 -73.065144.0  RSN 13 0.4 2.2LRSN                1
 GAP=165        0.87       3.1     4.5  5.6 -0.4258E+01  0.7789E+01  0.3236E+01E
 Epicentro: LOS SANTOS - SANTANDER                                             3
 ACTION:UPD 15-09-10 22:06 OP:cam  STATUS:               ID:20150524160309 L   I
 OLDACT:UP  15-05-24 22:45 OP:mh   STATUS:               ID:20150524155749     3
 OLDACT:UP  15-05-24 22:44 OP:mh   STATUS:               ID:20150524155749     3
 OLDACT:UP  15-05-24 22:43 OP:mh   STATUS:               ID:20150524155749     3
 OLDACT:UP  15-05-24 22:43 OP:mh   STATUS:               ID:20150524155749     3
 OLDACT:UP  15-05-24 22:42 OP:mh   STATUS:               ID:20150524155749     3
 OLDACT:UP  15-05-24 22:42 OP:mh   STATUS:               ID:20150524155749     3
 OLDACT:REG 15-05-24 21:01 OP:mh   STATUS:               ID:20150524155749     3
 2015-05-24-1557-49M.COL___297                                                 6
 STAT SP IPHASW D HRMM SECON CODA AMPLIT PERI AZIMU VELO AIN AR TRES W  DIS CAZ7
 BAR2 EZ EP       16 3 28.79                             170    0.1910 23.8 213 
 BAR2 EZ ES   1   16 3 43.41                             170   -0.35 7 23.8 213 
 BAR2 EZ I        16 3 44.63        32.4 0.42            167           23.8 213 
 PAM  SN ES       16 3 48.30                             151    0.2110 74.6  33 
 PAM  SZ I        16 3 49.07        15.0 0.22            154           74.6  33 
 BRR  HZ EP       16 3 30.59                             149   -0.1010 80.5 297 
 BRR  HN ES       16 3 47.79                             149    0.3210 80.5 297 
 BRR  HZ I        16 3 50.71        34.2 0.30            146           80.5 297 
 OCA  HZ EP   1   16 3 37.34                             128   -0.42 7  165 350 
 OCA  HN ES       16 3 59.71                             128   -0.34 9  165 350 
 OCA  HZ I        16 4  6.73        33.7 0.32            129            165 350 
 SPBC HZ EP       16 3 37.80                             128   -0.07 9  167 222 
 SPBC HN ES       16 4  0.12                             128   -0.14 9  167 222 
 SPBC HZ I        16 4  6.46        32.0 0.32            128            167 222 
 ZAR  HZ EP   1   16 3 42.24                             121   -0.25 6  213 292 
 ZAR  HN ES   1   16 4  8.70                             121    0.23 6  213 292 
 ZAR  HZ I        16 4 10.32        12.2 0.60            120            213 292 
 NOR  HZ EP   1   16 3 44.60                             117   -0.81 6  240 236 
 NOR  HN ES       16 4 12.86                             117   -0.81 8  240 236 
 NOR  HZ I        16 4 18.76        13.6 0.16            117            240 236 
 CHI  HZ EP   1   16 3 47.31                             117    0.58 6  248 197 
 CHI  HN ES       16 4 16.15                             117    0.13 8  248 197 
 CHI  HZ I        16 4 22.51         6.1 0.36            117            248 197 
 SML  HZ EP   1   16 3 46.54                             116    0.12 6  250 334 
 SML  HN ES   4   16 4 13.21                             116   -2.26 0  250 334 
 SML  HZ I        16 4 20.58        18.1 0.24            116            250 334 
 HEL  HZ EP   1   16 3 51.08                             114    0.90 6  280 257 
 HEL  HN ES       16 4 22.99                             114    0.82 7  280 257 
 HEL  HZ I        16 4 26.82         9.6 0.48            113            280 257 
 URE  HZ EP   4   16 3 49.16                             112   -2.06 0  293 292 
 URE  HN ES   4   16 4 21.18                             112   -2.83 0  293 292 
 URE  HZ I        16 4 29.42         8.6 0.28            112            293 292 
 GUY2CHZ EP       16 3 53.75                             112    0.41 7  307 236 
 GUY2CHN ES   4   16 4 29.64                             112    1.85 0  307 236 
 GUY2CHZ I        16 4 38.90         7.0 0.42                           307 236 
 CBOC HZ EP   1   16 3 56.36                             109   -0.53 5  341 253 
 CBOC HN ES   1   16 4 33.75                             109   -0.36 5  341 253 
 CBOC HZ I        16 4 43.99         2.1 0.26            109            341 253 
                                                                                
