 2011 1124 1914 49.0 L   6.742 -73.154141.5  RSN 10 0.3 2.3LRSN                1
 GAP=115        0.59       2.6     3.5  4.8  0.2000E+00  0.5319E+01  0.2102E+01E
 Epicentro: JORDAN - SANTANDER                                                 3
 ACTION:UPD 12-07-13 16:12 OP:ep   STATUS:               ID:20111124191449 L   I
 2011-11-24-1911-50S.COL___178                                                 6
 STAT SP IPHASW D HRMM SECON CODA AMPLIT PERI AZIMU VELO AIN AR TRES W  DIS CAZ7
 BAR2 SZ IP       1915  8.16                             173    0.1210 16.9 191 
 BAR2 SZ ES   1   1915 22.53                             173   -0.33 7 16.9 191 
 BAR2 SZ I        1915 24.50        75.5 0.22                          16.9 191 
 BRR  HZ IP     C 1915  9.99                             151    0.1210 73.7 303 
 BRR  HN ES   1   1915 26.57                             151    0.44 7 73.7 303 
 BRR  HZ I        1915 31.06        65.6 0.17                          73.7 303 
 PAM  SZ EP   1   1915 10.94                             148   -0.20 7 82.9  37 
 PAM  SN ES   1   1915 27.89                             148   -0.50 7 82.9  37 
 RUS  HZ EP   1   1915 12.23                             145    0.32 7 94.3 175 
 RUS  HN ES   1   1915 29.81                             145    0.05 7 94.3 175 
 RUS  HZ I        1915 31.47        23.9 0.18                          94.3 175 
 OCA  SZ ES   1   1915 40.12                             127    0.21 7  166 354 
 OCA  SZ I        1915 43.80        30.4 0.19                           166 354 
 YOP  SZ EP   2   1915 18.82                             126    0.57 4  174 152 
 YOP  SZ I        1915 43.72        12.7 0.29                           174 152 
 ZAR  HZ EP   1   1915 20.96                             121   -0.42 6  206 294 
 ZAR  HE ES   1   1915 46.48                             121   -0.13 6  206 294 
 ZAR  HZ I        1915 56.85        26.4 0.39                           206 294 
 NOR  SZ EP   1   1915 24.34                             118    0.29 6  230 236 
 NOR  SN ES   1   1915 51.19                             118   -0.17 6  230 236 
 CHI  HN ES   2   1915 54.15                             117   -0.33 4  242 195 
 CHI  HZ I        1916  2.52        10.1 0.32                           242 195 
 PRA  HZ EP   1   1915 41.19                             106   -0.52 4  386 210 
                                                                                
