 2013 1024 1456 53.3 L   6.787 -73.148143.1  RSN  7 0.5 2.1LRSN                1
 GAP=236        1.20       6.0     6.4  7.7  0.1228E+02  0.1324E+02  0.3602E+01E
 Epicentro: LOS SANTOS - SANTANDER                                             3
 ACTION:UPD 13-11-25 09:23 OP:ep   STATUS:               ID:20131024145653 L   I
 OLDACT:REG 13-10-24 15:17 OP:cam  STATUS:               ID:20131024144849     3
 2013-10-24-1448-49M.COL___233                                                 6
 STAT SP IPHASW D HRMM SECON CODA AMPLIT PERI AZIMU VELO AIN AR TRES W  DIS CAZ7
 BAR2 SZ EP       1457 12.27                             171   -0.2610 21.9 190 
 BAR2 SZ ES       1457 27.53                             171   -0.0410 21.9 190 
 BAR2 SZ I        1457 30.98        20.5 0.22            166           21.9 190 
 BRR  HZ EP       1457 14.02                             152   -0.1210 71.7 300 
 BRR  HN ES       1457 31.02                             152    0.5910 71.7 300 
 BRR  HZ I        1457 34.81        28.4 0.24            151           71.7 300 
 RUS  HZ EP       1457 16.61                             144   -0.0310 99.2 176 
 RUS  HE ES       1457 34.87                             144   -0.0110 99.2 176 
 RUS  HZ I        1457 37.29        12.7 0.36            144           99.2 176 
 PTB  HZ EP       1457 19.12                             132   -0.84 9  147 259 
 PTB  HE ES       1457 40.15                             132   -0.64 9  147 259 
 PTB  HZ I        1457 42.85        18.7 0.10            131            147 259 
 SPBC HZ EP       1457 21.57                             129    0.14 9  162 219 
 SPBC HN ES   1   1457 44.14                             129    0.73 7  162 219 
 SPBC HZ I        1457 49.35        19.2 0.22            129            162 219 
 ZAR  HZ EP       1457 26.70                             122    1.14 9  204 293 
 ZAR  HN ES       1457 50.37                             122   -0.39 9  204 293 
 ZAR  HZ I        1457 55.63        18.2 0.40            123            204 293 
 NOR  HZ EP       1457 28.75                             118    0.03 8  234 235 
 NOR  HN ES       1457 56.62                             118    0.23 8  234 235 
 NOR  HZ I        1458  4.21         6.0 0.20            119            234 235 
                                                                                
