 2016  624 1131 55.7 L   6.782 -73.160143.9  RSN  8 0.5 1.9LRSN                1
 GAP=235        1.09       5.3     6.3  7.1  0.1344E+02  0.8671E+01  0.2675E+01E
 Epicentro: LOS SANTOS - SANTANDER                                             3
 ACTION:UPD 16-07-21 22:22 OP:rebc STATUS:               ID:20160624113155 L   I
 OLDACT:REG 16-06-24 21:58 OP:dnl  STATUS:               ID:20160624112745     3
 2016-06-24-1127-45M.COL___328                                                 6
 STAT SP IPHASW D HRMM SECON CODA AMPLIT PERI AZIMU VELO AIN AR TRES W  DIS CAZ7
 BAR2 EZ EP       1132 14.97                             171   -0.1110 21.2 187 
 BAR2 EZ ES       1132 29.84                             171   -0.3410 21.2 187 
 BAR2 EZ I        1132 31.52        17.8 0.26                          21.2 187 
 BRR  HZ EP       1132 16.77                             153    0.1310 70.8 301 
 BRR  HE ES       1132 33.97                             153    1.0110 70.8 301 
 BRR  HZ I        1132 37.68        16.7 0.50                          70.8 301 
 RUS  HZ EP       1132 19.00                             144   -0.1510 98.7 175 
 RUS  HN ES       1132 37.38                             144   -0.0510 98.7 175 
 RUS  HZ I        1132 39.12         8.1 0.24                          98.7 175 
 PTB  HZ EP       1132 21.74                             132   -0.62 9  146 259 
 PTB  HN ES       1132 42.34                             132   -0.80 9  146 259 
 PTB  HZ I        1132 44.94        10.4 0.14                           146 259 
 SPBC HZ EP       1132 23.99                             129    0.15 9  161 219 
 SPBC HE ES       1132 46.34                             129    0.57 9  161 219 
 SPBC HZ I        1132 53.02        18.7 0.36                           161 219 
 ZAR  HZ EP       1132 27.84                             122   -0.13 9  203 293 
 ZAR  HE ES       1132 53.10                             122   -0.03 9  203 293 
 CHI  HZ EP   2   1132 33.80                             117    0.74 4  246 195 
 CHI  HN ES   2   1133  2.73                             117    0.54 4  246 195 
 CHI  HZ I        1133  8.92         4.8 0.26                           246 195 
 PRA  HZ EP   2   1132 49.15                             107    0.26 3  390 210 
 PRA  HE ES   2   1133 30.75                             107    0.40 3  390 210 
 PRA  HZ I        1133 37.67         3.5 0.26                           390 210 
                                                                                
