 2011  824 1840  8.3 L   6.763 -73.080136.5  RSN  5 0.4 2.3LRSN                1
 GAP=242        0.83       7.9     8.2  8.4  0.1701E+02  0.2195E+02  0.2760E+02E
 Epicentro: LOS SANTOS - SANTANDER                                             3
 ACTION:UPD 12-07-13 15:53 OP:ep   STATUS:               ID:20110824184008 L   I
 2011-08-24-1835-41S.COL___166                                                 6
 STAT SP IPHASW D HRMM SECON CODA AMPLIT PERI AZIMU VELO AIN AR TRES W  DIS CAZ7
 BAR2 SZ EP       1840 26.95                             171    0.1410 22.0 211 
 BAR2 SZ ES   1   1840 40.53                             171   -0.70 7 22.0 211 
 BAR2 SZ I        1840 43.15        47.1 0.24                          22.0 211 
 BRR  HZ EP   1   1840 28.78                             148   -0.21 7 79.6 299 
 BRR  HN ES   1   1840 45.57                             148    0.45 7 79.6 299 
 BRR  HZ I        1840 49.27        35.9 0.14                          79.6 299 
 RUS  HZ EP       1840 31.09                             143    0.2410 96.2 180 
 RUS  HZ I        1840 48.62        36.2 0.65                          96.2 180 
 RUS  HN ES   2   1840 48.76                             143    0.34 5 96.2 180 
 NOR  SZ EP   1   1840 43.04                             116   -0.89 6  238 236 
 GUY  SZ EP   1   1840 52.45                             110    0.24 5  307 236 
 GUY  SN ES   1   1841 26.60                             110    0.16 5  307 236 
 GUY  SZ I        1841 31.91        11.9 0.26                           307 236 
                                                                                
