 2017  824 1158  0.3 L   6.565 -73.514113.0  RSN 18 0.5 2.4LRSN                1
 GAP= 66        1.05       2.6     2.9  5.5  0.2519E+00  0.6891E+01  0.4150E+01E
 Epicentro: EL CARMEN - SANTANDER                                              3
 ACTION:UPD 17-09-04 20:24 OP:rebc STATUS:               ID:20170824115800 L   I
 OLDACT:UP  17-08-24 22:14 OP:edw  STATUS:               ID:20170824115742     3
 OLDACT:UP  17-08-24 22:14 OP:edw  STATUS:               ID:20170824115742     3
 OLDACT:UP  17-08-24 22:12 OP:edw  STATUS:               ID:20170824115742     3
 OLDACT:REG 17-08-24 21:03 OP:edw  STATUS:               ID:20170824115742     3
 2017-08-24-1158-00M.COL___420                                                 6
 STAT SP IPHASW D HRMM SECON CODA AMPLIT PERI AZIMU VELO AIN AR TRES W  DIS CAZ7
 BAR2 EZ IP     D 1158 16.45                             161    0.0410 36.7  85 
 BAR2 EZ ES       1158 29.35                             161    0.3510 36.7  85 
 BRR  HZ EP     D 1158 17.38                             148   -0.1110 63.8 340 
 BRR  HE ES       1158 31.29                             148    0.3710 63.8 340 
 BRR  HZ I        1158 41.21        44.8 0.16            153           63.8 340 
 RUS  HZ EP     C 1158 19.37                             139   -0.5710 88.3 147 
 RUS  HN ES       1158 34.86                             139   -0.4310 88.3 147 
 SPBC HZ EP     D 1158 21.29                             130   -0.7110  118 212 
 SPBC HE ES       1158 38.39                             130   -0.5610  118 212 
 SPBC HZ I        1158 42.58        56.1 0.16            133            118 212 
 PAM  EZ EP       1158 23.29                             129    0.2110  124  46 
 PAM  EN ES       1158 41.21                             129    0.3310  124  46 
 PAM  EZ I        1158 42.57        20.0 0.20            136            124  46 
 YPLC HZ EP       1158 28.26                             117   -0.00 9  180 136 
 YPLC HE ES       1158 50.67                             117    0.57 9  180 136 
 YPLC HZ I        1158 51.38        66.3 0.30            123            180 136 
 ZAR  HZ EP       1158 28.44                             117    0.22 9  181 305 
 ZAR  HE ES       1158 49.90                             117   -0.12 9  181 305 
 ZAR  HZ I        1158 52.99        40.5 0.52            122            181 305 
 NOR  HZ EP   1 D 1158 28.00                             116   -0.93 7  186 234 
 NOR  HN ES   4   1158 48.40                             116   -2.89 0  186 234 
 NOR  HZ I        1158 53.02        23.6 0.52            120            186 234 
 CHI  HZ EP       1158 32.53                             113   -0.06 8  215 186 
 CHI  HN ES       1158 57.61                             113   -0.19 8  215 186 
 CHI  HZ I        1159  1.14         6.8 0.26            117            215 186 
 HEL  HZ EP       1158 33.96                             111    0.14 8  227 260 
 HEL  HN ES       1158 59.55                             111   -0.44 8  227 260 
 HEL  HZ I        1159  2.24        16.7 0.38            115            227 260 
 GUY2CHZ EP       1158 37.24                             109    0.29 8  253 234 
 GUY2CHN ES       1159  6.34                             109    0.77 8  253 234 
 GUY2CHZ I        1159  9.90        20.2 0.74                           253 234 
 URE  HZ EP       1158 36.54                             108   -0.50 8  259 301 
 URE  HN ES   4   1159  4.17                             108   -1.56 0  259 301 
 URE  HZ I        1159  7.56        20.9 0.26            112            259 301 
 VIL  EZ EP   2   1158 38.01                             107   -0.71 4  272 184 
 VIL  EE ES   4   1159 11.88                             107    3.16 0  272 184 
 VIL  EZ I        1159 17.02        18.4 0.38            111            272 184 
 ELA  HZ EP   4   1158 43.49                             107    3.17 0  281 228 
 ELA  HN ES   4   1159 14.61                             107    3.04 0  281 228 
 ELA  HZ I        1159 19.03        11.6 0.26            110            281 228 
 ANIL HZ EP       1158 44.29                             104    0.84 7  310 222 
 ANIL HN ES       1159 17.48                             104    0.35 7  310 222 
 ANIL HZ I        1159 24.24        15.6 0.18            108            310 222 
 PRA  HZ EP       1158 47.38                             102   -0.45 6  350 206 
 PRA  HN ES       1159 25.60                             102    0.67 6  350 206 
 PRA  HZ I        1159 29.22        14.1 0.26            106            350 206 
 ORTC HZ EP       1158 48.39                             102    0.46 6  351 213 
 ORTC HN ES       1159 25.95                             102    0.84 6  351 213 
 ORTC HZ I        1159 28.64         5.7 0.16            106            351 213 
 LL6C HZ EP   4   1158 47.89                             102   -0.08 0  352   4 
 LL6C HN ES   4   1159 27.94                             102    2.77 0  352   4 
 PAL  HZ EP   1   1158 47.80                             102   -0.95 5  357 239 
 PAL  HN ES   2   1159 27.29                             102    0.73 3  357 239 
 PAL  HZ I        1159 29.83         7.6 0.24            105            357 239 
                                                                                
