 2013  924 1551 55.2 L   6.774 -73.201150.0  RSN  6 0.5 1.7LRSN                1
 GAP=231        1.14       6.4     8.5  8.2 -0.6085E+00 -0.3219E+00  0.2114E+02E
 Epicentro: ZAPATOCA - SANTANDER                                               3
 ACTION:UPD 13-10-22 09:24 OP:ep   STATUS:               ID:20130924155155 L   I
 OLDACT:REG 13-09-24 16:01 OP:stll STATUS:               ID:20130924154848     3
 2013-09-24-1548-48M.COL___247                                                 6
 STAT SP IPHASW D HRMM SECON CODA AMPLIT PERI AZIMU VELO AIN AR TRES W  DIS CAZ7
 BAR2 SZ EP       1552 14.79                             172   -0.4810 20.2 174 
 BAR2 SZ I        1552 14.86         8.9 0.18            167           20.2 174 
 BAR2 SZ ES       1552 30.99                             172    0.0610 20.2 174 
 BRR  HZ EP       1552 16.71                             155    0.1210 67.4 303 
 BRR  HN ES       1552 33.86                             155    0.5810 67.4 303 
 PTB  HZ EP       1552 20.91                             135   -1.01 9  141 259 
 PTB  HN ES       1552 42.71                             135   -0.07 9  141 259 
 PTB  HZ I        1552 50.77         5.3 0.32            131            141 259 
 SPBC HZ EP       1552 23.65                             131    0.20 9  157 218 
 SPBC HN ES       1552 45.57                             131    0.07 9  157 218 
 SPBC HZ I        1552 49.41         8.7 0.36            129            157 218 
 CHI  HZ EP       1552 33.07                             119    0.41 8  244 194 
 CHI  HN ES       1553  1.66                             119   -0.23 8  244 194 
 CHI  HZ I        1553  5.80         2.4 0.68            118            244 194 
 PRA  HZ EP       1552 49.19                             108    0.97 6  386 209 
                                                                                
