 2017 1124 1520 40.8 L   6.763 -73.239146.8  RSN  4 0.2 1.2LRSN                1
 GAP=227        0.61       6.9     4.6  5.8  0.1661E+02  0.3541E+01 -0.5868E+01E
 Epicentro: ZAPATOCA - SANTANDER                                               3
 ACTION:UPD 17-12-12 19:59 OP:rebc STATUS:               ID:20171124152040 L   I
 OLDACT:UP  17-11-24 23:10 OP:edw  STATUS:               ID:20171124151740d    3
 OLDACT:DUP 17-11-24 23:06 OP:edw  STATUS:               ID:20171124151740d    3
 OLDACT:UP  17-11-24 23:06 OP:edw  STATUS:               ID:20171124151739     3
 OLDACT:UP  17-11-24 23:04 OP:edw  STATUS:               ID:20171124151739     3
 OLDACT:REG 17-11-24 20:38 OP:edw  STATUS:               ID:20171124151739     3
 2017-11-24-1518-00M.COL___494                                                 6
 STAT SP IPHASW D HRMM SECON CODA AMPLIT PERI AZIMU VELO AIN AR TRES W  DIS CAZ7
 BAR2 EZ EP       1521  0.37                             172   -0.0810 19.9 162 
 BAR2 EZ ES       1521 15.90                             172    0.0910 19.9 162 
 BAR2 EZ I        1521 16.80         7.7 0.42            171           19.9 162 
 RUS  HZ EP       1521  4.19                             145   -0.2310 97.8 170 
 RUS  HN ES       1521 22.89                             145    0.0210 97.8 170 
 RUS  HZ I        1521 23.81         1.5 0.22            145           97.8 170 
 PTB  HZ EP       1521  7.32                             134    0.47 9  137 260 
 PTB  HN ES       1521 27.02                             134   -0.17 9  137 260 
 PTB  HZ I        1521 29.98         2.2 0.18            134            137 260 
 ZAR  HE ES   2   1521 36.80                             124   -0.39 4  196 294 
                                                                                
