 2016 1124 1634  4.1 L   6.803 -73.146148.0  RSN  7 0.2 1.7LRSN                1
 GAP=150        0.56       3.5     2.7  3.6 -0.2359E+01  0.1673E+01  0.1977E+01E
 Epicentro: LOS SANTOS - SANTANDER                                             3
 ACTION:UPD 17-10-26 21:11 OP:lp   STATUS:               ID:20161124163404 L   I
 OLDACT:UP  16-11-24 23:21 OP:edw  STATUS:               ID:20161124162747     3
 OLDACT:REG 16-11-24 20:15 OP:edw  STATUS:               ID:20161124162747     3
 2016-11-24-1628-00M.COL___349                                                 6
 STAT SP IPHASW D HRMM SECON CODA AMPLIT PERI AZIMU VELO AIN AR TRES W  DIS CAZ7
 BAR2 EZ EP       1634 23.94                             171   -0.1010 23.6 190 
 BAR2 EZ ES       1634 39.45                             171   -0.1110 23.6 190 
 BAR2 EZ I        1634 41.84        18.0 0.27            169           23.6 190 
 BRR  HZ EP       1634 25.47                             153   -0.0510 71.1 298 
 BRR  HN ES       1634 42.62                             153    0.4210 71.1 298 
 PAM  EZ EP     C 1634 26.85                             151    0.2810 77.2  40 
 PAM  EN ES       1634 43.81                             151   -0.2710 77.2  40 
 PAM  EZ I        1634 47.09         5.7 0.54            155           77.2  40 
 PTB  HZ EP   9   1634 30.86                             132   -0.43 0  148 259 
 PTB  HN ES       1634 51.92                             133   -0.12 9  148 259 
 PTB  HZ I        1634 54.26         5.0 0.14            132            148 259 
 ZAR  HZ EP       1634 36.80                             123    0.09 9  204 292 
 ZAR  HN ES       1635  1.77                             123   -0.36 9  204 292 
 ZAR  HZ I        1635  7.18         4.8 0.12            123            204 292 
 NOR  HZ EP       1634 40.05                             119    0.04 8  235 234 
 NOR  HE ES       1635  8.02                             119    0.02 8  235 234 
 NOR  HZ I        1635 15.78         3.5 0.18            119            235 234 
 CHI  HZ EP   2   1634 41.88                             117   -0.11 4  249 195 
 CHI  HE ES   4   1635  8.24                             117   -3.27 0  249 195 
                                                                                
