 2017  824 1659 41.6 L   6.760 -73.156142.0  RSN  6 0.3 1.6LRSN                1
 GAP=137        0.72       3.0     3.6  5.2 -0.4219E+00  0.3627E+01  0.1438E+01E
 Epicentro: LOS SANTOS - SANTANDER                                             3
 ACTION:UPD 17-09-04 20:24 OP:rebc STATUS:               ID:20170824165941 L   I
 OLDACT:UP  17-08-25 00:58 OP:edw  STATUS:               ID:20170824165736     3
 OLDACT:REG 17-08-24 21:26 OP:edw  STATUS:               ID:20170824165736     3
 2017-08-24-1658-00M.COL___420                                                 6
 STAT SP IPHASW D HRMM SECON CODA AMPLIT PERI AZIMU VELO AIN AR TRES W  DIS CAZ7
 BAR2 EZ EP     C 17 0  0.62                             172   -0.1110 18.7 189 
 BAR2 EZ ES       17 0 15.37                             172   -0.2510 18.7 189 
 BAR2 EZ I        17 0 16.45        10.0 0.20            170           18.7 189 
 BRR  HZ EP       17 0  2.70                             151    0.2510 72.4 302 
 BRR  HN ES       17 0 19.22                             151    0.5410 72.4 302 
 PAM  EZ EP       17 0  3.64                             149   -0.0710 81.6  38 
 PAM  EN ES       17 0 20.85                             149   -0.0810 81.6  38 
 PAM  EZ I        17 0 22.58         8.5 0.42            151           81.6  38 
 RUS  HZ EP       17 0  4.68                             144   -0.0210 96.2 175 
 RUS  HN ES       17 0 22.66                             144   -0.0310 96.2 175 
 RUS  HZ I        17 0 24.74         6.9 0.42            144           96.2 175 
 SPBC HZ EP       17 0  9.74                             129    0.29 9  159 220 
 SPBC HN ES       17 0 31.07                             129   -0.07 9  159 220 
 SPBC HZ I        17 0 36.07         5.3 0.20            129            159 220 
 ZAR  HN ES       17 0 38.50                             121   -0.57 9  205 293 
                                                                                
