 2013  124 1216  5.6 L   6.778 -73.129139.6  RSN  8 0.4 1.7LRSN                1
 GAP=140        0.87       3.8     5.0  7.6  0.8010E+00  0.7326E+01  0.5696E+01E
 Epicentro: LOS SANTOS - SANTANDER                                             3
 ACTION:UPD 13-02-15 09:16 OP:ep   STATUS:               ID:20130124121605 L   I
 2013-01-24-1210-00M.COL___241                                                 6
 STAT SP IPHASW D HRMM SECON CODA AMPLIT PERI AZIMU VELO AIN AR TRES W  DIS CAZ7
 BAR2 SZ EP   1   1216 24.52                             171    0.08 7 21.4 196 
 BAR2 SZ ES   1   1216 38.64                             171   -0.50 7 21.4 196 
 BRR  HZ EP   1   1216 26.40                             150    0.16 7 74.0 300 
 BRR  HN ES   1   1216 43.09                             150    0.74 7 74.0 300 
 BRR  HZ I        1216 47.25        14.1 0.12            151           74.0 300 
 PAM  SZ EP   1   1216 27.54                             149    0.34 7 78.2  37 
 PAM  SN ES   1   1216 44.14                             149    0.08 7 78.2  37 
 PAM  SZ I        1216 44.89        10.9 0.38            153           78.2  37 
 RUS  HZ EP   1   1216 28.48                             143   -0.07 7 98.0 177 
 RUS  HN ES   1   1216 46.47                             143    0.01 7 98.0 177 
 RUS  HZ I        1216 47.73         5.8 0.22            146           98.0 177 
 PTB  HZ EP   1   1216 31.23                             130   -0.96 7  149 260 
 PTB  HN ES   1   1216 52.61                             130   -0.32 7  149 260 
 OCA  HE ES   1   1216 55.00                             128   -0.60 7  163 353 
 OCA  HZ I        1216 56.70         9.7 0.18            130            163 353 
 ZAR  HN ES   1   1217  3.63                             121    0.50 6  207 293 
 CHI  HZ EP   1   1216 43.24                             116    0.49 6  247 196 
 CHI  HN ES   1   1217 11.88                             116    0.15 6  247 196 
 CHI  HZ I        1217 12.36         2.3 0.62            119            247 196 
                                                                                
