 2013  624 1132 11.2 L   6.819 -73.126145.3  RSN  6 0.5 1.6LRSN                1
 GAP=203        1.23       5.9     8.2  9.9 -0.1753E+01  0.2160E+02 -0.1503E+02E
 Epicentro: LOS SANTOS - SANTANDER                                             3
 ACTION:UPD 14-01-08 09:56 OP:ep   STATUS:               ID:20130624113211 L   I
 OLDACT:REG 13-06-24 17:45 OP:carl STATUS:               ID:20130624112959     3
 2013-06-24-1129-59M.COL___267                                                 6
 STAT SP IPHASW D HRMM SECON CODA AMPLIT PERI AZIMU VELO AIN AR TRES W  DIS CAZ7
 BAR2 SZ EP       1132 30.72                             170   -0.0910 25.8 194 
 BAR2 SZ ES       1132 45.79                             170   -0.3310 25.8 194 
 BAR2 SZ I        1132 48.54         6.3 0.36            171           25.8 194 
 BRR  HZ EP       1132 32.91                             152    0.5810 72.1 296 
 BRR  HN ES       1132 49.52                             152    0.6910 72.1 296 
 RUS  HN ES   1   1132 53.61                             143   -0.02 7  103 177 
 RUS  HN I        1132 55.29         6.5 0.30            148            103 177 
 PTB  HZ EP       1132 37.88                             131   -0.46 9  150 258 
 PTB  HN ES       1132 58.67                             131   -0.85 9  150 258 
 PTB  HZ I        1133  6.16         6.6 0.46            132            150 258 
 NOR  HE ES       1133 16.01                             118    0.72 8  238 234 
 SML  HZ EP   1   1132 47.75                             117    0.07 6  243 335 
 SML  HN ES       1133 15.84                             117   -0.30 8  243 335 
 SML  HZ I        1133 24.52         4.3 0.10            118            243 335 
                                                                                
