 2012  124 1957 18.5 L   6.747 -73.141144.3  RSN 14 0.4 2.4LRSN                1
 GAP=140        1.08       5.0     6.4  6.8 -0.2049E-01  0.1612E+02  0.7823E+01E
 Epicentro: LOS SANTOS - SANTANDER                                             3
 ACTION:UP  12-02-03 08:20 OP:REBC STATUS:               ID:20120124195718 L   I
 2012-01-24-1950-00M.COL___187                                                 6
 STAT SP IPHASW D HRMM SECON CODA AMPLIT PERI AZIMU VELO SNR AR TRES W  DIS CAZ7
 BAR2 SZ EP       1957 37.89                             173     0.010   18 195 
 BAR2 SZ ES   1   1957 52.45                             173    -0.5 7   18 195 
 BAR2 SZ I        1957 53.80        74.1 0.16                            18 195 
 GIR2 SZ EP       1957 38.12                             165    -0.110   37 351 
 GIR2 SZ ES   1   1957 53.11                             165    -0.4 7   37 351 
 BRR  HZ IP     C 1957 39.92                             151     0.210   75 302 
 BRR  HN ES   1   1957 57.16                             151     0.9 7   75 302 
 BRR  HZ I        1957 58.08        59.5 0.16                            75 302 
 PAM  SZ EP       1957 40.82                             149     0.010   82  37 
 PAM  SN ES   1   1957 57.93                             149    -0.3 7   82  37 
 RUS  HZ EP       1957 41.70                             145     0.010   95 176 
 RUS  HN ES   1   1958  0.40                             145     0.6 7   95 176 
 RUS  HZ I        1958  1.63        36.8 0.26                            95 176 
 PTB  HZ EP       1957 44.46                             132    -0.9 9  147 261 
 PTB  HZ I        1958  8.02        34.5 0.14                           147 261 
 OCA  SZ EP       1957 47.75                             128     0.5 9  166 353 
 OCA  SZ I        1958 13.05        23.1 0.40                           166 353 
 ZAR  HZ EP   1   1957 51.01                             122    -0.1 6  207 294 
 ZAR  HN ES   1   1958 16.44                             122    -0.2 6  207 294 
 ZAR  HZ I        1958 21.70        34.0 0.62                           207 294 
 NOR  SZ EP       1957 53.61                             118    -0.2 8  232 236 
 CHI  HZ EP   1   1957 55.31                             117    -0.2 6  243 196 
 CHI  HZ I        1958 30.52         6.8 0.28                           243 196 
 HEL  HZ EP   3   1957 59.10                             114     0.5 2  271 257 
 HEL  HZ I        1958 38.09        12.8 0.24                           271 257 
 GUY  SZ EP   3   1958  1.89                             112    -0.1 2  301 236 
 GUY  SZ I        1958 43.40        19.6 0.38                           301 236 
 RREF HZ EP       1958  4.84                             111     0.6 7  318 230 
 PRA  HZ EP       1958 11.48                             106     0.1 6  387 210 
                                                                                
