 2010 1024 1632 13.0 L   6.824 -73.019143.1  RSN  4 0.1 1.5LRSN                1
 GAP=173        0.38       3.8     7.5  6.8  0.9718E+01 -0.2631E+02 -0.1094E+02E
 Epicentro: CEPITA - SANTANDER                                                 3
 ACTION:UP  11-02-18 11:11 OP:tino STATUS:               ID:20101024163213 L   I
 2010-10-24-1629-19S.COL___125                                                 6
 STAT SP IPHASW D HRMM SECON CODA AMPLIT PERI AZIMU VELO SNR AR TRES W  DIS CAZ7
 BAR2 SZ EP   1   1632 32.28                             167    -0.2 7   32 215 
 BAR2 SZ ES   2   1632 47.69                             167     0.0 5   32 215 
 BRR  HZ EP   1   1632 34.67                             148     0.1 7   83 292 
 BRR  HZ I        1632 38.85        12.7 0.38                            83 292 
 BRR  HN ES   2   1632 51.37                             148     0.0 5   83 292 
 RUS  HZ EP   1   1632 36.71                             142     0.0 7  103 184 
 RUS  HN ES   2   1632 55.39                             142     0.2 5  103 184 
 RUS  HZ I        1632 57.12         3.2 0.38                           103 184 
 GRA  SZ EP   1   1632 37.59                             138     0.1 7  120  11 
 GRA  SZ I        1632 38.88         4.6 0.22                           120  11 
                                                                                
