 2015  824 1416 47.1 L   6.803 -73.108145.2  RSN 14 0.5 2.3LRSN                1
 GAP=141        1.12       2.8     4.4  5.8 -0.2179E+01  0.9269E+01  0.1231E+01E
 Epicentro: LOS SANTOS - SANTANDER                                             3
 ACTION:UPD 15-09-15 23:04 OP:cam  STATUS:               ID:20150824141647 L   I
 OLDACT:REG 15-08-24 22:42 OP:ak   STATUS:               ID:20150824140749     3
 2015-08-24-1407-49M.COL___339                                                 6
 STAT SP IPHASW D HRMM SECON CODA AMPLIT PERI AZIMU VELO AIN AR TRES W  DIS CAZ7
 BAR2 EZ IP     C 1417  6.73                             170    0.0110 24.7 199 
 BAR2 EZ ES       1417 21.59                             170   -0.4110 24.7 199 
 BAR2 EZ I        1417 22.89        47.5 0.20            169           24.7 199 
 PAM  EZ EP       1417  9.54                             152    0.4210 74.6  37 
 PAM  EN ES       1417 26.62                             152    0.3510 74.6  37 
 PAM  EZ I        1417 29.04        14.9 0.20            155           74.6  37 
 BRR  HZ EP       1417  8.63                             151    0.2110 74.7 297 
 BRR  HN ES       1417 25.63                             151    0.6010 74.7 297 
 RUS  HZ EP       1417 10.80                             144   -0.0310  101 178 
 RUS  HN ES       1417 29.08                             144   -0.2410  101 178 
 RUS  HZ I        1417 30.50        19.9 0.34            145            101 178 
 OCA  HZ EP   1   1417 14.39                             129   -1.03 7  161 352 
 OCA  HN ES       1417 37.82                             129    0.33 9  161 352 
 OCA  HZ I        1417 40.09        45.7 0.20            131            161 352 
 SPBC HZ EP       1417 15.69                             128   -0.16 9  166 220 
 SPBC HN ES       1417 37.74                             128   -0.52 9  166 220 
 SPBC HZ I        1417 40.39        42.6 0.30            129            166 220 
 ZAR  HZ EP       1417 20.45                             122    0.53 8  208 292 
 ZAR  HN ES       1417 45.62                             122    0.12 8  208 292 
 ZAR  HZ I        1417 50.93        22.5 0.30            122            208 292 
 NOR  HZ EP       1417 22.85                             118   -0.35 8  238 235 
 NOR  HN ES       1417 50.62                             118   -0.72 8  238 235 
 NOR  HZ I        1417 55.96        15.0 0.20            119            238 235 
 SML  HZ EP       1417 23.07                             117   -0.81 8  245 334 
 SML  HN ES       1417 51.62                             117   -0.93 8  245 334 
 SML  HZ I        1417 55.21        22.1 0.09            118            245 334 
 CHI  HZ EP       1417 24.79                             117   -0.15 8  250 196 
 CHI  HN ES       1417 54.63                             117    0.19 8  250 196 
 CHI  HZ I        1417 59.66         7.7 0.24            118            250 196 
 HEL  HZ EP   1   1417 28.44                             114    0.68 6  276 256 
 HEL  HN ES       1417 59.19                             114   -0.27 7  276 256 
 HEL  HZ I        1418  5.71         8.8 0.36            115            276 256 
 GUY2CHZ EP       1417 31.70                             112    0.59 7  305 235 
 GUY2CHN ES       1418  5.74                             112    0.32 7  305 235 
 GUY2CHZ I        1418 13.12         7.7 0.34                           305 235 
 TOL  SZ EP       1417 36.54                             109    0.82 6  347 225 
 TOL  SN ES       1418 14.34                             109    0.72 6  347 225 
 TOL  SZ I        1418 18.35         6.1 0.22            110            347 225 
 SJC  HZ EP   4   1417 40.70                             105   -2.21 0  411 326 
 SJC  HN ES   4   1418 22.26                             105   -4.16 0  411 326 
 SJC  HZ I        1418 25.38         2.3 0.30            106            411 326 
                                                                                
