 2011 1124 1723 34.5 L   6.787 -73.133138.0  RSN 12 0.4 2.2LRSN                1
 GAP=115        0.70       2.5     3.8  5.0 -0.6986E+00  0.6686E+01  0.2264E+01E
 Epicentro: LOS SANTOS - SANTANDER                                             3
 ACTION:UPD 12-07-13 16:12 OP:ep   STATUS:               ID:20111124172334 L   I
 2011-11-24-1721-03S.COL___178                                                 6
 STAT SP IPHASW D HRMM SECON CODA AMPLIT PERI AZIMU VELO AIN AR TRES W  DIS CAZ7
 BAR2 SZ IP       1723 53.34                             170    0.1610 22.2 194 
 BAR2 SZ ES   1   1724  7.78                             170    0.03 7 22.2 194 
 BAR2 SZ I        1724  9.41        51.7 0.23                          22.2 194 
 BRR  HZ EP   1   1723 55.24                             150    0.30 7 73.2 299 
 BRR  HE ES   1   1724 11.53                             150    0.65 7 73.2 299 
 BRR  HZ I        1724 16.40        53.4 0.14                          73.2 299 
 PAM  SZ EP       1723 56.11                             149    0.1910 77.6  38 
 PAM  SN ES   1   1724 12.72                             149    0.10 7 77.6  38 
 RUS  HZ EP   1   1723 57.37                             143   -0.02 7 99.0 177 
 RUS  HE ES       1724 14.89                             143   -0.3510 99.0 177 
 OCA  SZ ES       1724 23.57                             127   -0.56 9  162 353 
 OCA  SZ I        1724 25.92        14.4 0.14                           162 353 
 YOP  SZ EP   2   1724  3.82                             125    0.01 4  177 154 
 YOP  SZ I        1724  7.50         8.7 0.51                           177 154 
 ZAR  HZ EP   1   1724  6.53                             120   -0.13 6  206 292 
 ZAR  HN ES   1   1724 31.59                             120   -0.15 6  206 292 
 ZAR  HZ I        1724 37.93        18.4 0.26                           206 292 
 NOR  SZ EP   1   1724  9.42                             117   -0.41 6  235 235 
 NOR  SE ES   1   1724 37.11                             117   -0.28 6  235 235 
 CHI  HZ EP   2   1724 11.86                             116    0.19 4  248 196 
 CHI  HZ I        1724 14.26         7.4 0.37                           248 196 
 GUY  SZ EP   1   1724 19.10                             111    1.03 5  304 235 
 GUY  SZ I        1725  0.25        14.2 0.37                           304 235 
 RREF HN ES   1   1724 55.92                             109   -0.17 5  322 230 
 PRA  HZ EP       1724 27.44                             105   -0.26 6  391 210 
 PRA  HE ES   1   1725  9.46                             105    0.26 4  391 210 
                                                                                
