 2014 1224 1221  4.5 L   6.775 -73.144141.5  RSN 14 0.4 2.5LRSN                1
 GAP= 72        1.06       3.3     3.4  5.3 -0.1499E+01  0.3785E+01  0.1706E+01E
 Epicentro: LOS SANTOS - SANTANDER                                             3
 ACTION:UPD 15-02-10 17:06 OP:nd   STATUS:               ID:20141224122104 L   I
 OLDACT:REG 14-12-24 22:32 OP:carl STATUS:               ID:20141224121748     3
 2014-12-24-1217-48M.COL___286                                                 6
 STAT SP IPHASW D HRMM SECON CODA AMPLIT PERI AZIMU VELO AIN AR TRES W  DIS CAZ7
 BAR2 EZ IP     C 1221 23.66                             171    0.0810 20.7 192 
 BAR2 EZ ES       1221 38.05                             171   -0.3910 20.7 192 
 BAR2 EZ I        1221 39.45        67.7 0.14            170           20.7 192 
 BRR  HZ IP     C 1221 25.56                             151    0.2710 72.7 300 
 BRR  HN ES       1221 41.87                             151    0.3810 72.7 300 
 BRR  HZ I        1221 46.91        50.2 0.12            149           72.7 300 
 PAM  SZ EP     C 1221 26.54                             149    0.1410 79.4  38 
 PAM  SN ES       1221 43.34                             149   -0.1310 79.4  38 
 PAM  SZ I        1221 45.58        97.5 0.50            153           79.4  38 
 RUS  HZ EP       1221 27.35                             144   -0.3010 97.8 176 
 RUS  HN ES       1221 46.10                             144    0.4110 97.8 176 
 RUS  HZ I        1221 47.17        52.6 0.36            146           97.8 176 
 PTB  HZ EP       1221 30.56                             131   -0.54 9  147 260 
 PTB  HN ES       1221 51.06                             131   -0.78 9  147 260 
 PTB  HZ I        1221 55.26        35.3 0.50            131            147 260 
 TAM  HZ IP     C 1221 32.02                             130    0.25 9  154 104 
 SPBC HZ EP       1221 32.72                             128    0.23 9  161 220 
 SPBC HN ES       1221 54.43                             128    0.11 9  161 220 
 SPBC HZ I        1221 57.95        63.8 0.28            129            161 220 
 OCA  HN ES   4   1221 53.52                             128   -1.26 0  163 353 
 OCA  HZ I        1221 57.03        30.1 0.20            130            163 353 
 ZAR  HZ EP       1221 37.05                             121    0.24 8  205 293 
 ZAR  HN ES       1222  2.77                             121    0.77 8  205 293 
 ZAR  HZ I        1222  9.87        31.3 0.20            122            205 293 
 NOR  HZ EP     C 1221 40.28                             118    0.44 8  233 235 
 NOR  HN ES       1222  7.06                             118   -0.34 8  233 235 
 NOR  HZ I        1222 14.97        20.2 0.20            119            233 235 
 SML  HZ EP       1221 39.96                             116   -1.22 8  246 336 
 SML  HN ES   4   1222  6.91                             116   -2.87 0  246 336 
 SML  HZ I        1222 11.14        45.9 0.24            117            246 336 
 CHI  HZ EP       1221 41.95                             116    0.26 8  246 195 
 CHI  HN ES       1222 10.33                             116   -0.36 8  246 195 
 CHI  HZ I        1222 14.34        11.5 0.26            118            246 195 
 HEL  HZ EP       1221 44.68                             114    0.22 8  272 256 
 HEL  HN ES       1222 15.93                             114    0.32 8  272 256 
 HEL  HZ I        1222 25.07        11.7 0.28            115            272 256 
 TOL  SZ EP   4   1221 53.67                             109    1.28 0  342 225 
 TOL  SN ES       1222 29.54                             109   -0.19 7  342 225 
 SDV  BZ EP   4   1221 53.06                             107   -1.52 0  362  50 
 SDV  BN ES   4   1222 30.43                             107   -3.21 0  362  50 
                                                                                
