 2017  224 1135 11.8 L   6.761 -73.095147.1  RSN  6 0.2 1.1LRSN                1
 GAP=145        0.63       3.2     2.9  4.7  0.7188E+00  0.2616E+01  0.7861E+00E
 Epicentro: LOS SANTOS - SANTANDER                                             3
 ACTION:UPD 17-05-24 15:40 OP:jn   STATUS:               ID:20170224113511 L   I
 OLDACT:REG 17-02-24 20:32 OP:lv   STATUS:               ID:20170224112743     3
 2017-02-24-1128-00M.COL___376                                                 6
 STAT SP IPHASW D HRMM SECON CODA AMPLIT PERI AZIMU VELO AIN AR TRES W  DIS CAZ7
 BAR2 EZ EP       1135 31.21                             171   -0.3110 21.0 207 
 BAR2 EZ ES       1135 47.24                             171    0.3210 21.0 207 
 BAR2 EZ I        1135 47.68         1.6 0.16            172           21.0 207 
 PAM  EZ EP       1135 34.23                             151    0.0910 77.5  34 
 PAM  EN ES       1135 51.54                             151   -0.0410 77.5  34 
 PAM  EZ I        1135 52.99         3.7 0.52            152           77.5  34 
 BRR  HN ES       1135 50.29                             150   -0.1110 78.2 299 
 RUS  HZ EP       1135 35.17                             145   -0.1710 96.0 179 
 RUS  HN ES       1135 53.70                             145   -0.0210 96.0 179 
 RUS  HZ I        1135 54.24         1.0 0.28            146           96.0 179 
 PTB  HZ EP       1135 39.79                             131    0.50 9  153 261 
 PTB  HN ES       1136  0.57                             131   -0.17 9  153 261 
 PTB  HZ I        1136  2.69         2.2 0.24            132            153 261 
 ZAR  HN ES       1136 10.88                             122   -0.06 8  211 293 
                                                                                
