 2015  324 1906  7.4 L   6.797 -73.181145.9  RSN  7 0.6 1.7LRSN                1
 GAP=132        1.55       6.6     7.6  9.7 -0.1191E+02  0.1344E+02 -0.4607E+01E
 Epicentro: LOS SANTOS - SANTANDER                                             3
 ACTION:UPD 15-04-30 16:29 OP:nd   STATUS:               ID:20150324190607 L   I
 OLDACT:DUP 15-03-24 23:53 OP:stll STATUS:               ID:20150324185750d    3
 2015-03-24-1857-49M.COL___270                                                 6
 STAT SP IPHASW D HRMM SECON CODA AMPLIT PERI AZIMU VELO AIN AR TRES W  DIS CAZ7
 BAR2 EZ EP       19 6 27.07                             171    0.0810 22.7 180 
 BAR2 EZ ES       19 6 42.31                             171    0.0110 22.7 180 
 BAR2 EZ I        19 6 43.56        11.3 0.14            168           22.7 180 
 BRR  HZ EP       19 6 29.01                             153    0.6710 68.0 300 
 BRR  HN ES       19 6 45.37                             153    0.6610 68.0 300 
 PAM  SZ IP     C 19 6 30.15                             150    0.4010 80.1  42 
 PAM  SZ I        19 6 30.26         6.7 0.18            153           80.1  42 
 PAM  SN ES       19 6 47.10                             150   -0.1210 80.1  42 
 RUS  HZ EP       19 6 31.09                             144   -0.0310  101 174 
 RUS  HN ES       19 6 48.69                             144   -0.9710  101 174 
 RUS  HZ I        19 6 51.54         3.8 0.22            142            101 174 
 PTB  HZ EP       19 6 34.01                             133    0.02 9  144 259 
 PTB  HN ES       19 6 53.76                             133   -1.00 9  144 259 
 PTB  HZ I        19 6 56.62         9.6 0.62            132            144 259 
 SPBC HZ EP       19 6 36.01                             130    0.40 9  161 218 
 SPBC HN ES       19 6 58.37                             130    0.71 9  161 218 
 SPBC HZ I        19 7  5.00        10.3 0.32            128            161 218 
 SML  HZ EP       19 6 42.66                             117   -1.19 8  242 336 
                                                                                
