 2016 1124 1340 14.7 L   6.769 -73.152148.6  RSN  8 0.4 1.9LRSN                1
 GAP=151        0.86       3.7     4.0  5.6 -0.7625E+00  0.4561E+01  0.7853E+01E
 Epicentro: LOS SANTOS - SANTANDER                                             3
 ACTION:UPD 17-10-26 21:11 OP:lp   STATUS:               ID:20161124134014 L   I
 OLDACT:UP  16-11-24 22:26 OP:edw  STATUS:               ID:20161124133748     3
 OLDACT:UP  16-11-24 22:25 OP:edw  STATUS:               ID:20161124133748     3
 OLDACT:REG 16-11-24 19:58 OP:edw  STATUS:               ID:20161124133748     3
 2016-11-24-1338-00M.COL___349                                                 6
 STAT SP IPHASW D HRMM SECON CODA AMPLIT PERI AZIMU VELO AIN AR TRES W  DIS CAZ7
 BAR2 EZ EP       1340 34.61                             172   -0.0310 19.8 190 
 BAR2 EZ ES       1340 49.94                             172   -0.2210 19.8 190 
 BAR2 EZ I        1340 50.85        44.2 0.84            169           19.8 190 
 BRR  HZ IP     D 1340 36.48                             153    0.2410 72.3 301 
 BRR  HN ES       1340 53.64                             153    0.6110 72.3 301 
 PAM  EZ EP     D 1340 37.50                             150    0.0710 80.5  38 
 PAM  EN ES       1340 54.85                             150   -0.2910 80.5  38 
 PAM  EZ I        1340 56.78        18.0 0.52            155           80.5  38 
 PTB  HZ EP       1340 42.00                             133    0.19 9  146 260 
 PTB  HN ES       1341  2.46                             133   -0.47 9  146 260 
 PTB  HZ I        1341  9.56         4.7 0.18            131            146 260 
 ZAR  HZ EP       1340 47.77                             123    0.34 9  205 293 
 ZAR  HN ES       1341 12.46                             123   -0.47 9  205 293 
 ZAR  HZ I        1341 19.61         4.8 0.09            122            205 293 
 NOR  HZ EP   4   1340 55.97                             119    5.62 0  232 235 
 NOR  HE ES   4   1341 19.83                             119    1.69 0  232 235 
 NOR  HZ I        1341 26.49         3.1 0.12            119            232 235 
 CHI  HZ EP       1340 51.86                             118   -0.35 8  245 195 
 CHI  HN ES       1341 21.85                             118    0.41 8  245 195 
 PRA  HZ EP       1341  7.40                             107   -0.56 6  389 210 
 PRA  HN ES       1341 49.80                             107    0.32 6  389 210 
 PRA  HZ I        1341 53.49         2.7 0.32            108            389 210 
                                                                                
