 2013 1124 1615 34.6 L   6.733 -73.204130.1  RSN  4 0.4 1.8LRSN                1
 GAP=225        0.84       9.1     5.8  7.2  0.1974E+02  0.1046E+02 -0.1103E+02E
 Epicentro: VILLANUEVA - SANTANDER                                             3
 ACTION:UPD 14-01-09 16:30 OP:ep   STATUS:               ID:20131124161534 L   I
 OLDACT:REG 13-11-24 17:50 OP:nd   STATUS:               ID:20131124161000     3
 2013-11-24-1610-00M.COL___282                                                 6
 STAT SP IPHASW D HRMM SECON CODA AMPLIT PERI AZIMU VELO AIN AR TRES W  DIS CAZ7
 BAR2 SZ EP       1615 52.11                             173   -0.1410 15.8 171 
 BAR2 SZ ES       1616  6.40                             173    0.4110 15.8 171 
 BAR2 SZ I        1616  8.26        25.5 0.16            173           15.8 171 
 BRR  HZ IP     C 1615 53.71                             150   -0.3210 69.7 306 
 BRR  HN ES       1616  8.84                             150   -0.3110 69.7 306 
 BRR  HZ I        1616 17.35         8.0 0.28            147           69.7 306 
 PTB  HZ EP   2   1615 59.07                             130   -0.59 5  140 261 
 PTB  HN ES       1616 19.02                             130   -0.15 9  140 261 
 PTB  HZ I        1616 25.02         6.1 0.22            132            140 261 
 ZAR  HZ EP       1616  6.36                             119    0.56 9  201 295 
 ZAR  HN ES       1616 30.39                             119    0.29 9  201 295 
 ZAR  HZ I        1616 36.97         8.5 0.22            121            201 295 
                                                                                
