 2013  624 1752 53.1 L   6.821 -73.139147.5  RSN 10 0.5 2.0LRSN                1
 GAP=184        1.11       3.8     6.6  7.7  0.3235E+01  0.1320E+02  0.7289E+01E
 Epicentro: LOS SANTOS - SANTANDER                                             3
 ACTION:UPD 14-01-08 09:56 OP:ep   STATUS:               ID:20130624175253 L   I
 OLDACT:REG 13-06-24 18:03 OP:carl STATUS:               ID:20130624174959     3
 2013-06-24-1749-59M.COL___267                                                 6
 STAT SP IPHASW D HRMM SECON CODA AMPLIT PERI AZIMU VELO AIN AR TRES W  DIS CAZ7
 BAR2 SZ EP   1   1753 13.26                             170    0.28 7 25.7 191 
 BAR2 SZ ES   1   1753 27.61                             170   -0.88 7 25.7 191 
 BAR2 SZ I        1753 29.63        23.4 0.20            167           25.7 191 
 GIR2 SZ EP       1753 13.19                             168    0.2810 29.2 348 
 GIR2 SZ ES   1   1753 28.46                             168    0.09 7 29.2 348 
 GIR2 SZ I        1753 29.98         5.9 0.18            167           29.2 348 
 BRR  HZ EP       1753 15.11                             153    0.7110 70.8 297 
 BRR  HN ES   1   1753 32.06                             153    1.04 7 70.8 297 
 BRR  HN I        1753 32.47        64.0 0.26            150           70.8 297 
 RUS  HZ EP       1753 17.20                             143    0.0310  103 177 
 RUS  HN ES   1   1753 36.03                             143    0.08 7  103 177 
 RUS  HZ I        1753 37.03        11.0 0.34            145            103 177 
 PTB  HZ EP       1753 19.77                             132   -0.53 9  149 258 
 PTB  HN ES   1   1753 40.76                             132   -0.77 7  149 258 
 PTB  HZ I        1753 48.24        10.8 0.38            131            149 258 
 OCA  HE ES       1753 42.89                             130   -0.47 9  158 353 
 OCA  HE I        1753 46.15        36.9 0.32            132            158 353 
 ZAR  HZ EP   1   1753 25.58                             123   -0.05 6  204 291 
 ZAR  HE ES   1   1753 51.67                             123    0.66 6  204 291 
 NOR  HZ EP       1753 29.05                             119   -0.07 8  237 234 
 NOR  HE ES   1   1753 57.40                             119    0.17 6  237 234 
 NOR  HZ I        1754  2.08         8.0 0.34            119            237 234 
 SML  HN ES   1   1753 57.24                             118   -0.87 6  242 335 
 CHI  HZ EP       1753 31.38                             117    0.24 8  251 195 
 CHI  HN ES       1754  0.44                             117   -0.38 8  251 195 
 CHI  HZ I        1754  4.06         4.9 0.38            118            251 195 
                                                                                
