 2014 1024 1207 48.9 L   5.860 -73.639124.6  RSN 15 0.4 2.0LRSN                1
 GAP= 54        0.85       2.3     2.7  4.6 -0.1953E+01  0.2629E+01  0.9184E+00E
 Epicentro: PUENTE NACIONAL - SANTANDER                                        3
 ACTION:UPD 14-11-29 23:56 OP:nd   STATUS:               ID:20141024120748 L   I
 OLDACT:REG 14-10-27 21:41 OP:spq  STATUS:               ID:20141024120648     3
 2014-10-24-1206-48M.COL___286                                                 6
 STAT SP IPHASW D HRMM SECON CODA AMPLIT PERI AZIMU VELO AIN AR TRES W  DIS CAZ7
 SPBC HZ EP       12 8  7.00                             155    0.1310 53.2 244 
 SPBC HN ES       12 8 20.89                             155   -0.0210 53.2 244 
 SPBC HZ I        12 8 22.79        48.3 0.53            153           53.2 244 
 RUS  HZ EP       12 8  8.00                             152    0.1010 61.6  87 
 RUS  HE ES       12 8 22.54                             152   -0.2110 61.6  87 
 RUS  HZ I        12 8 23.72         8.8 0.22            151           61.6  87 
 BAR2 SZ EP       12 8 10.02                             140    0.1810 95.4  32 
 BAR2 SZ ES   1   12 8 26.27                             140    0.07 7 95.4  32 
 BAR2 SZ I        12 8 27.68        35.5 0.36            140           95.4  32 
 PTB  HZ EP       12 8 11.12                             134   -0.2710  118 310 
 PTB  HN ES       12 8 28.49                             134   -0.4610  118 310 
 PTB  HZ I        12 8 33.59        23.4 0.10            133            118 310 
 CHI  HZ EP       12 8 13.51                             129   -0.14 9  136 184 
 CHI  HN ES   1   12 8 32.64                             129   -0.33 7  136 184 
 CHI  HZ I        12 8 36.83         7.3 0.26            126            136 184 
 ROSC BZ EP   1   12 8 14.45                             129    0.90 7  136 214 
 ROSC BN ES   4   12 8 30.08                             129   -2.72 0  136 214 
 ROSC BE ES   4   12 8 34.10                             129    1.30 0  136 214 
 BRR  HZ EP       12 8 13.39                             128    0.14 9  138 357 
 BRR  HN ES       12 8 32.43                             128    0.16 9  138 357 
 BRR  HZ I        12 8 36.07        18.7 0.09            128            138 357 
 PAM  SZ EP   1   12 8 19.43                             119   -0.12 6  194  32 
 PAM  SN ES   1   12 8 44.04                             119    0.56 6  194  32 
 PAM  SZ I        12 8 45.96         4.5 0.27            118            194  32 
 GUY2CHZ EP       12 8 20.44                             117   -0.16 9  204 250 
 GUY2CHN ES       12 8 46.05                             117    0.70 9  204 250 
 GUY2CHZ I        12 8 51.62         6.6 0.56                           204 250 
 HEL  HZ EP       12 8 22.20                             116    0.79 8  212 280 
 HEL  HN ES       12 8 46.43                             116   -0.35 8  212 280 
 HEL  HZ I        12 8 52.18        10.0 0.31            115            212 280 
 TOL  SZ EP       12 8 23.73                             114    0.02 8  234 233 
 TOL  SE ES       12 8 50.74                             114   -0.15 8  234 233 
 TOL  SZ I        12 8 53.98        11.1 0.56            112            234 233 
 PTGC HZ EP   2   12 8 24.23                             112   -0.68 4  248 138 
 PTGC HN ES   4   12 8 51.58                             112   -1.44 0  248 138 
 PTGC HZ I        12 8 54.32        20.1 0.37            110            248 138 
 PRA  HZ EP   1   12 8 27.82                             110   -0.17 6  275 210 
 PRA  HN ES   1   12 8 59.02                             110    0.52 6  275 210 
 PRA  HZ I        12 9  3.53         4.9 0.20            108            275 210 
 ORTC HZ EP   1   12 8 28.02                             109   -0.56 6  280 220 
 ORTC HE ES   1   12 8 58.80                             109   -0.74 6  280 220 
 ORTC HZ I        12 9  4.20         4.8 0.40            108            280 220 
 SML  HZ EP   1   12 8 33.38                             106   -0.83 5  329 352 
 SML  HN ES   1   12 9  9.01                             106   -0.55 5  329 352 
                                                                                
