 2013  524 1403  9.8 L   6.765 -73.146143.6  RSN 11 0.4 2.1LRSN                1
 GAP=138        0.91       3.6     4.2  5.4 -0.5855E+00  0.7682E+01  0.1680E+01E
 Epicentro: LOS SANTOS - SANTANDER                                             3
 ACTION:UPD 13-06-20 09:53 OP:ep   STATUS:               ID:20130524140309 L   I
 2013-05-24-1400-00M.COL___259                                                 6
 STAT SP IPHASW D HRMM SECON CODA AMPLIT PERI AZIMU VELO AIN AR TRES W  DIS CAZ7
 BAR2 SZ EP       14 3 29.14                             172    0.0710 19.5 192 
 BAR2 SZ ES       14 3 43.85                             172   -0.2710 19.5 192 
 BAR2 SZ I        14 3 45.15        39.9 0.14            167           19.5 192 
 GIR2 SZ EP       14 3 29.25                             166   -0.0510 35.1 351 
 GIR2 SZ ES       14 3 44.56                             166    0.0310 35.1 351 
 GIR2 SZ I        14 3 46.20        31.7 0.42            161           35.1 351 
 BRR  HZ EP       14 3 30.99                             151    0.1910 73.1 301 
 BRR  HN ES       14 3 47.84                             151    0.6410 73.1 301 
 BRR  HZ I        14 3 51.12        33.8 0.16            142           73.1 301 
 PAM  SZ EP       14 3 32.07                             150    0.1210 80.4  38 
 PAM  SN ES       14 3 48.87                             150   -0.3710 80.4  38 
 PAM  SZ I        14 3 50.78        25.9 0.72            146           80.4  38 
 RUS  HZ EP       14 3 33.09                             144    0.0510 96.7 176 
 RUS  HN ES       14 3 51.44                             144    0.2610 96.7 176 
 RUS  HZ I        14 3 52.67         9.6 0.20            137           96.7 176 
 PTB  HZ EP       14 3 35.69                             132   -0.81 9  147 260 
 PTB  HN ES   1   14 3 56.79                             132   -0.56 7  147 260 
 PTB  HZ I        14 3 59.17        20.4 0.14            122            147 260 
 ZAR  HZ EP   1   14 3 43.22                             122    0.98 6  206 293 
 ZAR  HE ES   1   14 4  7.59                             122    0.04 6  206 293 
 NOR  HE ES   1   14 4 12.62                             118   -0.10 6  232 235 
 NOR  HZ I        14 4 18.19        12.8 0.18            111            232 235 
 SML  HN ES   1   14 4 14.98                             117   -0.46 6  247 336 
 HEL  HZ EP   1   14 3 50.02                             114    0.24 6  271 257 
 HEL  HZ I        14 4 28.34         9.9 0.44            107            271 257 
 PRA  HE ES   1   14 4 44.30                             106    0.10 4  389 210 
 PRA  HZ I        14 4 50.40         3.9 0.30            101            389 210 
                                                                                
