 2017  624 1306 30.2 L   6.858 -73.158148.8  RSN 22 0.6 2.9LRSN                1
 GAP=103        1.18       3.5     3.7  5.5  0.1648E+01  0.1586E+01  0.1249E+01E
 Epicentro: LOS SANTOS - SANTANDER                                             3
 ACTION:UPD 17-09-14 16:54 OP:jn   STATUS:               ID:20170624130630 L   I
 OLDACT:UP  17-06-25 00:04 OP:dani STATUS:               ID:20170624125739     3
 OLDACT:UP  17-06-25 00:04 OP:dani STATUS:               ID:20170624125739     3
 OLDACT:REG 17-06-24 22:04 OP:dani STATUS:               ID:20170624125739     3
 2017-06-24-1258-00M.COL___361                                                 6
 STAT SP IPHASW D HRMM SECON CODA AMPLIT PERI AZIMU VELO AIN AR TRES W  DIS CAZ7
 BAR2 EZ EP     D 13 6 50.31                             168    0.0210 29.6 185 
 BAR2 EZ ES       13 7  5.51                             168   -0.4910 29.6 185 
 BAR2 EZ I        13 7  6.98       236.0 0.20            173           29.6 185 
 BRR  HZ EP       13 6 52.12                             154    0.7110 67.1 294 
 BRR  HN ES       13 7  8.97                             154    0.9810 67.1 294 
 BRR  HZ I        13 7 11.96       255.9 0.88            150           67.1 294 
 PTB  HZ EP       13 6 56.91                             133   -0.46 9  148 256 
 PTB  HN ES       13 7 18.12                             133   -0.49 9  148 256 
 PTB  HZ I        13 7 23.99        56.0 0.14            131            148 256 
 TAM  HZ IP     D 13 6 58.68                             131    0.32 9  158 107 
 SPBC HZ EP       13 6 59.28                             129   -0.01 9  167 217 
 SPBC HN ES       13 7 21.32                             129   -0.69 9  167 217 
 SPBC HZ I        13 7 26.18       182.4 0.24            129            167 217 
 YPLC HZ EP       13 7  0.44                             126   -0.35 9  183 152 
 YPLC HN ES       13 7 24.74                             126    0.06 9  183 152 
 YPLC HZ I        13 7 25.64       120.1 0.28            126            183 152 
 ZAR  HZ EP       13 7  2.80                             124    0.37 9  200 291 
 ZAR  HN ES       13 7 28.05                             124    0.45 9  200 291 
 ZAR  HZ I        13 7 35.36        59.3 0.32            120            200 291 
 TABC EZ EP       13 7  7.80                             119    1.20 8  235 210 
 TABC EZ ES       13 7 34.83                             119   -0.21 8  235 210 
 TABC EZ I        13 7 42.53        60.3 0.44            119            235 210 
 NOR  HZ EP       13 7  6.15                             119   -0.20 8  237 233 
 NOR  HN ES       13 7 34.22                             119   -0.36 8  237 233 
 NOR  HZ I        13 7 35.75        63.9 0.18            118            237 233 
 CHI  HZ EP       13 7  8.51                             117   -0.15 8  255 194 
 CHI  HN ES   3   13 7 37.85                             117   -0.84 2  255 194 
 CHI  HZ I        13 7 41.10        47.1 0.38            117            255 194 
 ROSC BZ EP   3   13 7 10.32                             117    1.35 2  258 210 
 ROSC BE ES       13 7 39.29                             117    0.04 8  258 210 
 ROSC BZ I        13 7 42.54        75.9 0.40            116            258 210 
 URE  HZ EP       13 7 10.14                             114   -0.83 7  280 291 
 URE  HN ES   3   13 7 41.29                             114   -1.51 2  280 291 
 URE  HZ I        13 7 57.33        42.3 0.16            112            280 291 
 GUY2CHZ EP       13 7 14.66                             113    0.46 7  304 234 
 GUY2CHN ES   3   13 7 50.55                             113    1.99 2  304 234 
 GUY2CHZ I        13 7 56.65        50.6 0.32                           304 234 
 VIL  EZ EP       13 7 14.16                             112   -0.23 7  309 191 
 VIL  EE ES       13 7 48.42                             112   -0.48 7  309 191 
 VIL  EZ I        13 7 50.98        70.0 0.44            111            309 191 
 LL6C HZ EP       13 7 14.91                             111   -0.33 7  318 358 
 LL6C HZ I        13 7 57.31        19.8 0.42            109            318 358 
 CBOC HZ EP       13 7 18.23                             110    0.95 7  334 251 
 CBOC HN ES       13 7 54.14                             110    0.10 7  334 251 
 CBOC HZ I        13 7 58.36        15.8 0.48            109            334 251 
 DBB  EZ EP       13 7 17.40                             110   -0.15 7  338 273 
 DBB  EN ES       13 7 53.26                             110   -1.26 7  338 273 
 DBB  EZ I        13 7 55.08        19.8 0.38            108            338 273 
 ORTC HZ EP       13 7 24.53                             107   -0.16 6  400 215 
 ORTC HN ES       13 8  8.24                             107    1.00 6  400 215 
 ORTC HZ I        13 8 14.18        31.3 0.50            106            400 215 
 SJC  HZ EP       13 7 24.22                             106   -0.87 6  403 327 
 SJC  HE ES   4   13 8  5.46                             106   -2.49 0  403 327 
 SJC  HZ I        13 8 12.51        13.5 0.42            104            403 327 
 PAL  HZ EP       13 7 25.86                             106    0.19 6  408 238 
 PAL  HE ES       13 8  9.87                             106    0.90 6  408 238 
 PAL  HZ I        13 8 11.97        16.6 0.22            105            408 238 
 CRJC HZ EP   9   13 7 30.58                             104   -1.40 0  461   4 
 CRJC HN ES       13 8 18.20                             104   -0.61 5  461   4 
 CRJC HZ I        13 8 22.74        25.3 0.16            102            461   4 
 YOT  HZ EP       13 7 32.84                             104   -0.83 5  475 228 
 MACC HZ EP   4   13 7 37.34                             102   -2.33 0  527 188 
                                                                                
