 2017 1024 1346  7.2 L   6.824 -73.149146.8  RSN 22 0.6 2.3LRSN                1
 GAP=111        1.12       2.7     3.5  4.9 -0.3120E+00  0.4061E+01  0.1893E+01E
 Epicentro: LOS SANTOS - SANTANDER                                             3
 ACTION:UPD 17-11-07 19:36 OP:rebc STATUS:               ID:20171024134607 L   I
 OLDACT:UP  17-10-24 21:38 OP:dhb  STATUS:               ID:20171024133738     3
 OLDACT:UP  17-10-24 21:37 OP:dhb  STATUS:               ID:20171024133738     3
 OLDACT:REG 17-10-24 20:11 OP:dhb  STATUS:               ID:20171024133738     3
 2017-10-24-1338-00M.COL___442                                                 6
 STAT SP IPHASW D HRMM SECON CODA AMPLIT PERI AZIMU VELO AIN AR TRES W  DIS CAZ7
 BAR2 EZ IP     C 1346 27.01                             170   -0.0310 25.9 188 
 BAR2 EZ ES       1346 42.13                             170   -0.3610 25.9 188 
 BAR2 EZ I        1346 43.21        55.2 0.30            168           25.9 188 
 BRR  HZ IP     C 1346 28.77                             153    0.3610 69.6 297 
 BRR  HN ES       1346 45.54                             153    0.6210 69.6 297 
 BRR  HZ I        1346 49.14        42.0 0.36            151           69.6 297 
 PAM  HZ IP     C 1346 29.98                             151    0.5210 75.6  41 
 PAM  EN ES       1346 47.01                             151    0.2310 75.6  41 
 PAM  HZ I        1346 49.11        38.4 0.52            156           75.6  41 
 RUS  HZ EP       1346 31.00                             143   -0.2810  103 176 
 RUS  HN ES       1346 49.90                             143   -0.1410  103 176 
 RUS  HZ I        1346 51.30        22.7 0.40            144            103 176 
 PTB  HZ EP       1346 33.72                             132   -0.58 9  148 258 
 PTB  HN ES       1346 54.99                             132   -0.42 9  148 258 
 PTB  HZ I        1346 56.88        11.7 0.02            131            148 258 
 SPBC HZ IP     C 1346 36.00                             129    0.01 9  165 218 
 SPBC HN ES       1346 58.53                             129    0.12 9  165 218 
 SPBC HZ I        1347  5.14        23.8 0.24            129            165 218 
 YPLC HZ IP     C 1346 37.48                             126    0.12 9  179 152 
 YPLC HE ES       1347  0.94                             126    0.09 9  179 152 
 YPLC HZ I        1347  4.31         8.3 0.24            129            179 152 
 ZAR  HZ EP       1346 41.09                             123    1.48 9  203 291 
 ZAR  HN ES       1347  4.80                             123   -0.05 9  203 291 
 ZAR  HZ I        1347 11.19        19.3 0.24            123            203 291 
 TABC EZ EP       1346 43.32                             119    0.05 8  232 210 
 TABC EZ ES       1347 11.13                             119   -0.25 8  232 210 
 TABC EZ I        1347 18.56        23.8 0.38            120            232 210 
 NOR  HZ EP       1346 43.13                             119   -0.03 8  236 234 
 NOR  HN ES       1347 11.21                             119    0.03 8  236 234 
 NOR  HZ I        1347 19.03        11.7 0.16            119            236 234 
 CHI  HZ EP       1346 45.33                             117    0.07 8  251 195 
 CHI  HE ES       1347 14.57                             117   -0.35 8  251 195 
 CHI  HZ I        1347 18.08        15.0 0.60            118            251 195 
 ROSC BZ EP   3   1346 47.51                             117    1.87 2  255 211 
 ROSC BE ES   2   1347 14.39                             117   -1.20 4  255 211 
 ROSC BZ I        1347 21.77        28.9 0.35            117            255 211 
 URE  HZ EP       1346 47.30                             114   -0.90 7  282 291 
 URE  HE ES   3   1347 17.61                             114   -2.54 2  282 291 
 URE  HZ I        1347 26.14         8.6 0.18            114            282 291 
 GUY2CHZ EP       1346 51.36                             112    0.33 7  302 234 
 GUY2CHE ES   4   1347 28.64                             112    3.45 0  302 234 
 GUY2CHZ I        1347 33.44         9.3 0.56                           302 234 
 PTGC HN EP   3   1346 50.18                             112   -1.26 2  311 159 
 PTGC HE ES   2   1347 23.71                             112   -2.21 3  311 159 
 LL6C HZ EP       1346 52.18                             111   -0.49 7  322 358 
 LL6C HN ES       1347 27.02                             111   -1.09 7  322 358 
 LL6C HZ I        1347 29.91         6.7 0.40            112            322 358 
 ELA  HZ EP       1346 55.20                             110    0.90 7  331 229 
 ELA  HE ES   4   1347 34.18                             110    3.18 0  331 229 
 ELA  HZ I        1347 39.77         8.8 0.56            111            331 229 
 DBB  EN ES   2   1347 29.85                             110   -1.84 3  339 274 
 DBB  EZ I        1347 31.70         5.0 0.30            110            339 274 
 ANIL HZ EP       1346 57.10                             108   -0.17 6  359 224 
 ANIL HE ES       1347 36.39                             108    0.10 6  359 224 
 PRA  HZ EP       1347  1.09                             107    0.05 6  394 209 
 PRA  HE ES       1347 43.57                             107    0.56 6  394 209 
 PRA  HZ I        1347 47.32         9.7 0.42            107            394 209 
 ORTC HZ EP       1347  1.54                             106    0.12 6  397 216 
 ORTC HN ES       1347 43.91                             106    0.23 6  397 216 
 ORTC HZ I        1347 48.47         5.5 0.22            107            397 216 
 SJC  HZ EP   9   1347  1.16                             106   -1.38 0  407 327 
 SJC  HN ES       1347 44.31                             106    0.01 6  407 327 
 SJC  HZ I        1347 57.07         2.9 0.42            107            407 327 
                                                                                
