 2017 1124 1742 12.5 L   6.803 -73.186140.2  RSN  6 0.4 1.3LRSN                1
 GAP=131        0.94       4.4     4.0  6.8 -0.2401E+01  0.1213E+02 -0.2208E+01E
 Epicentro: ZAPATOCA - SANTANDER                                               3
 ACTION:UPD 17-12-12 19:59 OP:rebc STATUS:               ID:20171124174212 L   I
 OLDACT:UP  17-11-25 00:42 OP:edw  STATUS:               ID:20171124173537     3
 OLDACT:REG 17-11-24 21:03 OP:edw  STATUS:               ID:20171124173537     3
 2017-11-24-1738-00M.COL___484                                                 6
 STAT SP IPHASW D HRMM SECON CODA AMPLIT PERI AZIMU VELO AIN AR TRES W  DIS CAZ7
 BAR2 EZ EP       1742 31.29                             170   -0.2010 23.3 179 
 BAR2 EZ ES       1742 45.97                             170   -0.3110 23.3 179 
 BAR2 EZ I        1742 48.52         5.3 0.44            170           23.3 179 
 PAM  EZ EP       1742 34.25                             149   -0.0710 80.0  42 
 PAM  EN ES       1742 51.46                             149    0.1510 80.0  42 
 PAM  EZ I        1742 53.57         5.7 0.62            154           80.0  42 
 RUS  HZ EP       1742 35.42                             142   -0.3810  101 174 
 RUS  HE ES       1742 54.64                             142    0.7010  101 174 
 RUS  HZ I        1742 54.76         2.2 0.32            146            101 174 
 PTB  HZ EP       1742 38.61                             132   -0.05 9  144 258 
 PTB  HE ES       1742 58.42                             132   -0.62 9  144 258 
 PTB  HZ I        1743  4.95         2.0 0.32            132            144 258 
 ZAR  HZ EP       1742 44.44                             122    0.25 9  200 293 
 ZAR  HN ES       1743  9.40                             122    0.53 9  200 293 
 ZAR  HZ I        1743 14.14         3.0 0.28            123            200 293 
 NOR  HZ EP       1742 47.58                             118   -0.00 8  231 234 
 NOR  HN ES       1743 15.13                             118    0.21 8  231 234 
 NOR  HZ I        1743 22.21         1.8 0.44            120            231 234 
                                                                                
