 2013  324 1927  1.0 L   6.790 -73.150144.3  RSN 10 0.4 2.4LRSN                1
 GAP=136        0.93       2.7     3.7  5.0 -0.1019E+01  0.4634E+01  0.2353E+01E
 Epicentro: LOS SANTOS - SANTANDER                                             3
 ACTION:UPD 13-04-09 14:04 OP:ep   STATUS:               ID:20130324192701 L   I
 2013-03-24-1920-00M.COL___245                                                 6
 STAT SP IPHASW D HRMM SECON CODA AMPLIT PERI AZIMU VELO AIN AR TRES W  DIS CAZ7
 BAR2 SZ EP       1927 20.51                             171    0.0310 22.2 189 
 BAR2 SZ ES       1927 35.13                             171   -0.5010 22.2 189 
 BAR2 SZ I        1927 36.81        37.6 0.22            168           22.2 189 
 BRR  HZ EP       1927 22.33                             152    0.2910 71.3 300 
 BRR  HN ES       1927 39.26                             152    0.8510 71.3 300 
 BRR  HN I        1927 42.84        66.1 0.16            150           71.3 300 
 PAM  SZ EP       1927 23.10                             150   -0.0810 78.6  39 
 PAM  SN ES       1927 40.14                             150   -0.2910 78.6  39 
 PAM  SN I        1927 42.39        22.4 0.52            155           78.6  39 
 RUS  HZ EP       1927 24.49                             144   -0.0910 99.5 176 
 RUS  HN ES       1927 43.39                             144    0.4610 99.5 176 
 RUS  HN I        1927 44.81        16.6 0.30            145           99.5 176 
 PTB  HZ EP       1927 27.13                             132   -0.70 9  147 259 
 PTB  HN ES       1927 48.41                             132   -0.31 9  147 259 
 PTB  HN I        1927 53.97        46.5 0.38            131            147 259 
 OCA  HZ EP       1927 29.41                             129    0.07 9  161 353 
 OCA  HN ES       1927 51.25                             129   -0.16 9  161 353 
 OCA  HN I        1927 54.23        47.5 0.16            131            161 353 
 ZAR  HZ EP       1927 33.24                             122   -0.15 9  204 292 
 ZAR  HN ES       1927 58.94                             122    0.32 9  204 292 
 ZAR  HN I        1928  5.98        37.4 0.30            122            204 292 
 NOR  HZ EP       1927 36.58                             118    0.00 8  234 235 
 NOR  HN ES       1928  3.93                             118   -0.36 8  234 235 
 NOR  HN I        1928 13.67        26.9 0.16            119            234 235 
 CHI  HZ EP       1927 38.78                             117    0.25 8  247 195 
 CHI  HN ES       1928  7.85                             117    0.08 8  247 195 
 CHI  HN I        1928 12.76        10.9 0.44            118            247 195 
 PRA  HZ EP       1927 55.06                             106    0.68 6  391 210 
 PRA  HN ES       1928 35.80                             106   -0.17 6  391 210 
 PRA  HN I        1928 41.89         5.2 0.64            107            391 210 
                                                                                
