 2014 1224 1450  0.2 L   6.800 -73.153145.0  RSN 16 0.5 2.7LRSN                1
 GAP= 71        1.19       3.2     3.1  5.6  0.2898E+00  0.5475E+01  0.6409E+00E
 Epicentro: LOS SANTOS - SANTANDER                                             3
 ACTION:UPD 15-02-10 17:06 OP:nd   STATUS:               ID:20141224145000 L   I
 OLDACT:REG 14-12-24 22:35 OP:carl STATUS:               ID:20141224144750     3
 2014-12-24-1447-50M.COL___289                                                 6
 STAT SP IPHASW D HRMM SECON CODA AMPLIT PERI AZIMU VELO AIN AR TRES W  DIS CAZ7
 BAR2 EZ IP     C 1450 19.71                             171    0.0110 23.2 188 
 BAR2 EZ ES       1450 34.75                             171   -0.1910 23.2 188 
 BAR2 EZ I        1450 35.59        99.3 0.32            172           23.2 188 
 BRR  HZ IP     C 1450 21.59                             153    0.4010 70.4 299 
 BRR  HN ES       1450 38.71                             153    1.1210 70.4 299 
 BRR  HZ I        1450 41.81        78.6 0.34            148           70.4 299 
 PAM  SZ IP     C 1450 22.53                             150    0.2010 77.9  40 
 PAM  SN ES       1450 39.61                             150   -0.0110 77.9  40 
 PAM  SZ I        1450 42.18        39.3 0.62            146           77.9  40 
 RUS  HZ EP       1450 23.60                             144   -0.2510  101 176 
 RUS  HE ES       1450 41.72                             144   -0.6010  101 176 
 RUS  HZ I        1450 42.88        41.1 0.44            142            101 176 
 PTB  HZ EP       1450 26.35                             132   -0.64 9  147 259 
 PTB  HN ES       1450 47.37                             132   -0.55 9  147 259 
 PTB  HZ I        1450 49.82        84.9 0.16            128            147 259 
 TAM  HZ EP       1450 28.06                             130    0.20 9  156 105 
 TAM  HZ I        1450 48.34        36.5 0.42            127            156 105 
 TAM  HN ES       1450 49.59                             130    0.13 9  156 105 
 OCA  HE ES   4   1450 50.26                             129   -0.17 0  160 353 
 SPBC HZ EP       1450 28.61                             129    0.06 9  163 219 
 SPBC HN ES       1450 50.43                             129   -0.27 9  163 219 
 SPBC HZ I        1450 52.32        74.2 0.26            126            163 219 
 ZAR  HZ EP       1450 32.52                             122    0.04 9  203 292 
 ZAR  HN ES       1450 58.05                             122    0.37 9  203 292 
 ZAR  HZ I        1451  3.80        91.4 0.30            118            203 292 
 NOR  HZ EP       1450 35.67                             118   -0.10 8  234 234 
 NOR  HN ES       1451  3.42                             118   -0.13 8  234 234 
 NOR  HZ I        1451  8.83        44.9 0.22            115            234 234 
 SML  HZ EP       1450 35.95                             117   -0.76 8  243 335 
 SML  HE ES       1451  4.66                             117   -0.55 8  243 335 
 SML  HZ I        1451 11.03        80.0 0.10            113            243 335 
 CHI  HZ EP       1450 38.08                             117    0.28 8  248 195 
 CHI  HE ES       1451  7.06                             117   -0.09 8  248 195 
 CHI  HZ I        1451 14.32        20.5 0.84            114            248 195 
 ROSC BN ES   4   1451 10.81                             117    2.95 0  252 211 
 HEL  HZ EP       1450 40.11                             115   -0.13 8  271 256 
 HEL  HN ES       1451 12.15                             115    0.64 8  271 256 
 HEL  HZ I        1451 20.10        26.1 0.34            111            271 256 
 URE  HZ EP       1450 40.62                             113   -0.49 7  283 292 
 URE  HN ES       1451 13.63                             113    0.59 7  283 292 
 URE  HZ I        1451 24.28        45.6 0.22            110            283 292 
 DBB  SZ EP       1450 47.63                             109    0.12 7  339 274 
 DBB  SZ ES       1451 23.75                             109   -0.69 7  339 274 
 DBB  SZ I        1451 39.18        55.1 0.52            106            339 274 
 TOL  SZ EP       1450 50.15                             109    1.83 7  343 225 
 TOL  SE ES       1451 25.76                             109   -0.12 7  343 225 
 TOL  SZ I        1451 33.17        33.8 0.28            106            343 225 
 MON  HZ EP   4   1450 47.30                             108   -1.76 0  353 308 
 MON  HN ES   4   1451 25.66                             108   -1.53 0  353 308 
 MON  HZ I        1451 42.89        12.8 0.38            105            353 308 
                                                                                
