 2012 1224 1146 15.7 L   6.735 -73.140144.6  RSN  6 0.3 1.7LRSN                1
 GAP=185        0.63       5.6     4.5  5.2  0.1306E+01  0.1462E+01 -0.7665E+01E
 Epicentro: JORDAN - SANTANDER                                                 3
 ACTION:UPD 13-01-04 14:30 OP:ep   STATUS:               ID:20121224114615 L   I
 2012-12-24-1140-00M.COL___243                                                 6
 STAT SP IPHASW D HRMM SECON CODA AMPLIT PERI AZIMU VELO AIN AR TRES W  DIS CAZ7
 BAR2 SZ EP       1146 35.32                             173    0.2310 16.5 197 
 BAR2 SZ ES       1146 49.87                             173   -0.3310 16.5 197 
 BAR2 SZ I        1146 51.87        13.7 0.20                          16.5 197 
 GIR2 SZ EP       1146 35.42                             164   -0.0510 38.5 351 
 BRR  HZ EP     D 1146 37.30                             151    0.3110 75.4 303 
 BRR  HZ I        1146 37.68         7.0 0.15                          75.4 303 
 BRR  HN ES       1146 53.79                             151    0.2110 75.4 303 
 RUS  HN ES   2   1146 56.88                             146    0.00 5 93.4 176 
 RUS  HN I        1146 58.79         6.6 0.33                          93.4 176 
 PTB  HZ EP     C 1146 42.55                             132    0.01 9  147 262 
 PTB  HE ES       1147  3.25                             132   -0.21 9  147 262 
 PTB  HZ I        1147  5.42         6.3 0.21                           147 262 
 SML  HZ EP   1   1146 52.46                             116   -0.56 6  251 336 
 SML  HZ I        1147 26.40         6.2 0.20                           251 336 
                                                                                
