 2012  524 1352 23.8 L   6.817 -73.167145.3  RSN  6 0.3 1.6LRSN                1
 GAP=133        0.68       5.2     4.2  7.9  0.5104E+00  0.8270E+01 -0.6349E+01E
 Epicentro: LOS SANTOS - SANTANDER                                             3
 ACTION:UP  12-07-05 12:07 OP:pat  STATUS:               ID:20120524135223 L   I
 2012-05-24-1350-00M.COL___200                                                 6
 STAT SP IPHASW D HRMM SECON CODA AMPLIT PERI AZIMU VELO SNR AR TRES W  DIS CAZ7
 BAR2 SZ EP   1   1352 43.36                             170     0.0 7   25 184 
 BAR2 SZ I        1352 43.68        10.1 0.09                            25 184 
 BAR2 SZ ES   1   1352 59.16                             170     0.5 7   25 184 
 PAM  SZ EP   1   1352 46.09                             151     0.2 7   77  42 
 PAM  SN ES   2   1353  2.78                             151    -0.4 5   77  42 
 RUS  HZ EP   1   1352 47.83                             143     0.2 7  103 175 
 RUS  HN ES   1   1353  5.71                             143    -0.5 7  103 175 
 RUS  HZ I        1353  7.26         4.9 0.34                           103 175 
 PTB  HZ EP   1   1352 50.38                             132    -0.1 7  146 258 
 PTB  HN ES   1   1353 11.40                             132     0.0 7  146 258 
 PTB  HZ I        1353 16.90         4.3 0.06                           146 258 
 ZAR  HN ES   1   1353 20.73                             123    -0.2 6  201 292 
 ZAR  HZ I        1353 27.44         6.7 0.33                           201 292 
 NOR  SE ES   2   1353 27.52                             118     0.4 4  234 234 
                                                                                
