 2015  724 1602 25.1 L   7.527 -73.115  4.0  RSN  6 0.5 2.0LRSN                1
 GAP=130        1.26       2.7     3.7  6.5  0.4250E+01  0.6233E+01  0.2427E+01E
 Epicentro: EL PLAYON - SANTANDER                                              3
 ACTION:UPD 15-09-08 21:50 OP:cam  STATUS:               ID:20150724160225 L   I
 OLDACT:UP  15-07-24 21:44 OP:ak   STATUS:               ID:20150724155747     3
 OLDACT:REG 15-07-24 20:48 OP:ak   STATUS:               ID:20150724155747     3
 2015-07-24-1557-47M.COL___343                                                 6
 STAT SP IPHASW D HRMM SECON CODA AMPLIT PERI AZIMU VELO AIN AR TRES W  DIS CAZ7
 PAM  EZ IP     D 16 2 34.36                              47    0.5810 50.3 114 
 PAM  EN ES       16 2 40.42                              47   -0.1610 50.3 114 
 PAM  EZ I        16 2 41.73       128.1 0.20             47           50.3 114 
 OCA  HZ EP       16 2 38.06                              47   -0.1710 81.9 344 
 OCA  HN ES       16 2 47.68                              47   -0.8210 81.9 344 
 OCA  HZ I        16 2 50.63        83.8 0.09             47           81.9 344 
 BAR2 EZ EP       16 2 41.53                              47   -0.0810  104 184 
 BAR2 EZ ES       16 2 53.71                              47   -0.7910  104 184 
 BAR2 EZ I        16 2 56.87        22.3 0.26             47            104 184 
 SML  HZ EP       16 2 52.95                              37    0.63 9  176 323 
 SML  HN ES       16 3 13.99                              37    0.42 9  176 323 
 RUS  HZ EP   1   16 2 53.71                              37    0.20 7  181 179 
 RUS  HN ES       16 3 15.99                              37    0.30 9  181 179 
 RUS  HZ I        16 3 21.63        12.7 0.19             37            181 179 
 ZAR  HZ EP   1   16 2 55.34                              37    0.95 7  192 269 
 ZAR  HN ES       16 3 17.11                              37   -0.15 9  192 269 
 ZAR  HZ I        16 3 19.07        13.9 0.11             37            192 269 
                                                                                
