 2013  924 1010  6.7 L   6.787 -73.124144.7  RSN  7 0.4 1.5LRSN                1
 GAP=185        1.01       4.0     6.1  9.5  0.2109E+01  0.5722E+01  0.1130E+00E
 Epicentro: LOS SANTOS - SANTANDER                                             3
 ACTION:UPD 13-10-22 09:24 OP:ep   STATUS:               ID:20130924101006 L   I
 OLDACT:REG 13-09-24 15:40 OP:stll STATUS:               ID:20130924100838     3
 2013-09-24-1008-38M.COL___244                                                 6
 STAT SP IPHASW D HRMM SECON CODA AMPLIT PERI AZIMU VELO AIN AR TRES W  DIS CAZ7
 BAR2 SZ EP       1010 26.49                             171    0.2710 22.5 197 
 BAR2 SZ I        1010 26.96         7.6 0.16            169           22.5 197 
 BRR  HZ EP       1010 28.42                             151    0.4910 74.0 299 
 BRR  HN ES       1010 45.04                             151    0.5810 74.0 299 
 RUS  HN ES       1010 48.32                             144   -0.3010 99.0 177 
 RUS  HZ I        1010 49.69         2.6 0.30            144           99.0 177 
 PTB  HZ EP       1010 33.51                             131   -0.30 9  150 260 
 PTB  HN ES       1010 54.57                             131   -0.35 9  150 260 
 PTB  HZ I        1010 56.50         3.9 0.16            131            150 260 
 OCA  HN ES       1010 56.57                             129   -0.69 9  162 352 
 SPBC HZ EP       1010 35.43                             129    0.23 9  164 220 
 SPBC HN ES       1010 57.22                             129   -0.17 9  164 220 
 SPBC HZ I        1010 59.44         5.9 0.18            129            164 220 
 ZAR  HN ES       1011  4.94                             122    0.07 8  207 292 
                                                                                
