 2013  924 1830 32.1 L   6.786 -73.162143.8  RSN 10 0.6 2.0LRSN                1
 GAP=135        1.36       4.7     5.7  7.6  0.5369E+00  0.1589E+02  0.5907E+01E
 Epicentro: LOS SANTOS - SANTANDER                                             3
 ACTION:UPD 13-10-22 09:24 OP:ep   STATUS:               ID:20130924183032 L   I
 OLDACT:REG 13-09-24 16:11 OP:stll STATUS:               ID:20130924182850     3
 2013-09-24-1828-50M.COL___244                                                 6
 STAT SP IPHASW D HRMM SECON CODA AMPLIT PERI AZIMU VELO AIN AR TRES W  DIS CAZ7
 BAR2 SZ EP       1830 51.61                             171    0.1210 21.5 186 
 BAR2 SZ ES       1831  6.54                             171   -0.0510 21.5 186 
 BAR2 SZ I        1831  7.82        28.1 0.24            175           21.5 186 
 BRR  HZ IP     C 1830 53.42                             152    0.4010 70.4 300 
 BRR  HZ I        1830 53.63        21.4 0.24            144           70.4 300 
 BRR  HN ES       1831  9.68                             152    0.3710 70.4 300 
 PAM  SN ES       1831 11.05                             150   -0.5110 79.8  40 
 RUS  HZ EP       1830 55.91                             144    0.3310 99.2 175 
 RUS  HN ES       1831 14.27                             144    0.3910 99.2 175 
 RUS  HZ I        1831 15.33        13.5 0.24            141           99.2 175 
 PTB  HZ EP       1830 58.10                             132   -0.64 9  146 259 
 PTB  HN ES       1831 19.39                             132   -0.11 9  146 259 
 PTB  HZ I        1831 21.14        15.7 0.60            125            146 259 
 ZAR  HZ EP       1831  5.50                             122    1.17 9  203 293 
 ZAR  HN ES       1831 29.25                             122   -0.20 9  203 293 
 ZAR  HZ I        1831 35.16        12.0 0.54            115            203 293 
 NOR  HZ EP       1831  7.67                             118    0.19 8  232 235 
 NOR  HN ES       1831 34.95                             118   -0.11 8  232 235 
 NOR  HZ I        1831 44.94         4.9 0.16            112            232 235 
 SML  HZ EP       1831  7.51                             117   -1.20 8  244 336 
 SML  HZ I        1831 41.66        11.1 0.26            109            244 336 
 CHI  HZ EP       1831  9.89                             117    0.39 8  247 195 
 CHI  HN ES       1831 37.43                             117   -1.22 8  247 195 
 CHI  HZ I        1831 42.37         7.4 0.38            111            247 195 
 GUY2CHZ EP       1831 15.99                             112    0.62 7  299 235 
 GUY2CHN ES       1831 48.70                             112   -0.40 7  299 235 
 GUY2CHZ I        1831 57.82         4.2 0.34                           299 235 
                                                                                
