 2016  224 1102 58.1 L   6.795 -73.131144.0  RSN 20 0.5 2.4LRSN                1
 GAP= 72        1.12       3.3     3.1  5.4 -0.1467E+01  0.3960E+01  0.2963E+01E
 Epicentro: LOS SANTOS - SANTANDER                                             3
 ACTION:UPD 16-03-04 21:29 OP:rebc STATUS:               ID:20160224110258 L   I
 OLDACT:UP  16-02-24 21:55 OP:drio STATUS:               ID:20160224105746     3
 OLDACT:UP  16-02-24 21:54 OP:drio STATUS:               ID:20160224105746     3
 OLDACT:REG 16-02-24 20:14 OP:drio STATUS:               ID:20160224105746     3
 2016-02-24-1057-46M.COL___327                                                 6
 STAT SP IPHASW D HRMM SECON CODA AMPLIT PERI AZIMU VELO AIN AR TRES W  DIS CAZ7
 BAR2 EZ IP     D 11 3 17.38                             170   -0.1410 23.1 194 
 BAR2 EZ ES       11 3 32.15                             170   -0.5110 23.1 194 
 BAR2 EZ I        11 3 33.64        52.0 0.22            169           23.1 194 
 BRR  HZ EP       11 3 19.32                             152    0.1610 72.9 298 
 BRR  HN ES       11 3 36.54                             152    0.9610 72.9 298 
 BRR  HZ I        11 3 40.06        36.3 0.10            149           72.9 298 
 PAM  EZ EP       11 3 20.32                             151    0.2310 76.8  38 
 PAM  EN ES       11 3 37.58                             151    0.3310 76.8  38 
 PAM  EZ I        11 3 39.70        38.5 0.68            152           76.8  38 
 RUS  HZ EP       11 3 21.50                             144   -0.1310 99.9 177 
 RUS  HN ES       11 3 39.93                             144   -0.0610 99.9 177 
 RUS  HZ I        11 3 40.47        24.5 0.40            143           99.9 177 
 PTB  HZ EP       11 3 24.20                             131   -0.86 9  149 259 
 PTB  HN ES       11 3 45.24                             131   -0.85 9  149 259 
 PTB  HZ I        11 3 47.64        26.5 0.44            129            149 259 
 TAM  HZ EP       11 3 25.45                             130   -0.03 9  153 105 
 TAM  HE ES       11 3 47.16                             130    0.33 9  153 105 
 TAM  HZ I        11 3 53.37        18.6 0.36            132            153 105 
 OCA  HZ EP       11 3 26.28                             129   -0.07 9  161 353 
 OCA  HE ES       11 3 47.62                             129   -0.76 9  161 353 
 OCA  HZ I        11 3 51.74        57.2 0.42            128            161 353 
 SPBC HZ EP       11 3 26.39                             128   -0.13 9  164 220 
 SPBC HN ES       11 3 48.34                             128   -0.35 9  164 220 
 SPBC HZ I        11 3 53.14        40.5 0.32            127            164 220 
 ZAR  HZ EP       11 3 30.78                             122    0.17 8  206 292 
 ZAR  HE ES       11 3 56.23                             122    0.26 8  206 292 
 ZAR  HZ I        11 4  1.71        36.1 0.44            120            206 292 
 NOR  HZ EP       11 3 34.00                             118    0.16 8  236 235 
 NOR  HE ES       11 4  2.33                             118    0.62 8  236 235 
 NOR  HZ I        11 4  8.00        23.1 0.18            117            236 235 
 CHI  HZ EP       11 3 35.54                             117   -0.15 8  249 196 
 CHI  HN ES   4   11 4  7.46                             117    2.45 0  249 196 
 CHI  HZ I        11 4 10.62        13.4 0.28            116            249 196 
 HEL  HZ EP   4   11 3 39.36                             114    0.98 0  274 256 
 HEL  HN ES       11 4 10.04                             114    0.23 8  274 256 
 HEL  HZ I        11 4 16.88         9.6 0.36            113            274 256 
 URE  HZ EP   4   11 3 37.72                             113   -1.56 0  286 292 
 URE  HE ES   4   11 4  9.74                             113   -1.66 0  286 292 
 URE  HZ I        11 4 22.95        18.5 0.18            112            286 292 
 GUY2CHZ EP       11 3 42.49                             112    0.75 7  302 235 
 GUY2CHE ES       11 4 16.64                             112    0.85 7  302 235 
 GUY2CHZ I        11 4 22.43        13.4 0.40                           302 235 
 PTGC HZ EP   4   11 3 40.44                             111   -1.31 0  308 159 
 ELA  HZ EP   4   11 3 46.40                             110    1.42 0  330 230 
 ELA  HN ES   4   11 4 23.97                             110    2.43 0  330 230 
 ELA  HZ I        11 4 29.77         8.8 0.32            109            330 230 
 MON  HZ EP   4   11 3 45.08                             108   -2.14 0  355 308 
 MON  HN ES   4   11 4 23.54                             108   -2.00 0  355 308 
 MON  HZ I        11 4 38.08         7.8 0.58            107            355 308 
 ANIL HZ EP   4   11 3 49.51                             108    1.59 0  358 225 
 ANIL HE ES   4   11 4 29.73                             108    2.94 0  358 225 
 ANIL HZ I        11 4 39.12        20.1 0.36            107            358 225 
 ORTC HZ EP       11 3 51.78                             106   -0.24 6  396 216 
 ORTC HN ES   4   11 4 35.91                             106    1.83 0  396 216 
 ORTC HZ I        11 4 41.26         7.1 0.56            105            396 216 
 PAL  HZ EP       11 3 53.37                             105    0.04 6  407 239 
 PAL  HE ES       11 4 36.00                             105   -0.41 6  407 239 
 PAL  HZ I        11 4 40.38         5.6 0.18            105            407 239 
 SJC  HZ EP   4   11 3 51.94                             105   -1.82 0  411 327 
 SJC  HN ES   4   11 4 32.81                             105   -4.37 0  411 327 
 SJC  HZ I        11 4 37.50         5.6 0.52            105            411 327 
 CRJC HZ EP   4   11 3 57.47                             103   -3.13 0  468   3 
 CRJC HN ES   4   11 4 44.05                             103   -5.31 0  468   3 
                                                                                
