 2011  224 1428  3.0 L   6.789 -73.117148.3  RSN 11 0.3 2.3LRSN                1
 GAP=104        0.75       2.6     5.2  4.7 -0.1440E+01  0.1689E+01  0.1354E+01E
 Epicentro: LOS SANTOS - SANTANDER                                             3
 ACTION:UP  11-03-28 15:10 OP:jfem STATUS:               ID:20110224142803 L   I
 2011-02-24-1426-23S.COL___137                                                 6
 STAT SP IPHASW D HRMM SECON CODA AMPLIT PERI AZIMU VELO SNR AR TRES W  DIS CAZ7
 BTL  SZ IP       1428 23.27                             171     0.310   22 311 
 BTL  SZ ES   1   1428 38.71                             171     0.3 7   22 311 
 BAR2 SZ IP       1428 22.92                             171     0.010   23 199 
 BAR2 SZ ES   1   1428 38.32                             171    -0.2 7   23 199 
 BAR2 SZ I        1428 40.84        68.0 0.28                            23 199 
 GIR2 SZ EP       1428 22.97                             167    -0.110   33 345 
 RUS  HZ IP       1428 26.78                             145    -0.110   99 178 
 RUS  HN ES   1   1428 45.38                             145    -0.2 7   99 178 
 RUS  HZ I        1428 46.77        16.9 0.31                            99 178 
 GRA  SZ IP       1428 28.74                             137     0.210  126  16 
 GRA  SZ ES   1   1428 48.43                             137     0.1 7  126  16 
 GRA  SZ I        1428 49.41        55.6 0.29                           126  16 
 OCA  SZ ES   1   1428 53.67                             130    -0.3 7  162 352 
 YOP  SZ EP       1428 33.30                             127     0.3 9  177 154 
 YOP  SZ I        1428 34.53        10.0 0.30                           177 154 
 YOP  SN ES   1   1428 56.21                             127    -0.2 7  177 154 
 CHI  HZ EP       1428 40.95                             118     0.1 8  248 196 
 CHI  HN ES   1   1429  9.99                             118    -0.3 6  248 196 
 CHI  HZ I        1429 20.20         9.1 0.72                           248 196 
 RREF HZ EP   1   1428 50.37                             111     0.9 5  323 230 
 RREF HN ES   2   1429 25.22                             111    -0.5 3  323 230 
 RREF HZ I        1429 34.61        18.4 0.45                           323 230 
 DBB  SZ EP       1428 50.44                             110    -0.5 7  343 274 
 SDV  BZ EP       1428 52.33                             109    -0.6 6  359  50 
                                                                                
