 2017 1224 1622  9.0 L   6.876 -73.330122.0  RSN 15 0.7 2.0LRSN                1
 GAP= 54        1.30       3.6     3.2  7.4  0.6208E+00  0.5795E+01 -0.1886E+01E
 Epicentro: BETULIA - SANTANDER                                                3
 ACTION:UPD 18-01-04 13:23 OP:rebc STATUS:               ID:20171224162209 L   I
 OLDACT:UP  17-12-25 00:29 OP:dhb  STATUS:               ID:20171224161742     3
 OLDACT:REG 17-12-24 21:51 OP:osc  STATUS:               ID:20171224161742     3
 2017-12-24-1618-00M.COL___475                                                 6
 STAT SP IPHASW D HRMM SECON CODA AMPLIT PERI AZIMU VELO AIN AR TRES W  DIS CAZ7
 BAR2 EZ IP     C 1622 26.27                             163    0.0810 35.4 152 
 BAR2 EZ ES       1622 39.07                             163   -0.4910 35.4 152 
 PAM  EZ EP       1622 29.32                             143   -0.1210 86.5  54 
 PAM  EN ES       1622 45.86                             143    0.5210 86.5  54 
 PAM  EZ I        1622 48.50        14.8 0.18            145           86.5  54 
 PTB  HZ EP       1622 31.65                             130   -0.8210  130 253 
 PTB  HN ES       1622 51.80                             130    1.0610  130 253 
 PTB  HZ I        1622 53.39        16.8 0.12            130            130 253 
 OCA  HZ EP       1622 34.48                             125   -0.18 9  151   0 
 OCA  HN ES       1622 54.36                             125   -0.28 9  151   0 
 SPBC HZ EP       1622 35.99                             124    0.65 9  158 211 
 SPBC HE ES       1622 55.39                             124   -0.46 9  158 211 
 SPBC HZ I        1622 57.30        20.3 0.38            124            158 211 
 TAM  HZ EP       1622 37.06                             121   -0.15 9  177 106 
 TAM  HN ES       1622 59.01                             121   -0.17 9  177 106 
 TAM  HZ I        1623  2.21         8.3 0.18            122            177 106 
 ZAR  HZ EP       1622 38.43                             120    0.75 9  182 292 
 ZAR  HN ES       1623  0.37                             120    0.35 9  182 292 
 ZAR  HZ I        1623  3.23        15.8 0.26            121            182 292 
 YPLC HZ EP       1622 39.14                             118    0.03 9  195 147 
 YPLC HE ES       1623  2.64                             118    0.07 9  195 147 
 YPLC HZ I        1623  5.15        18.3 0.40            119            195 147 
 URE  HZ EP       1622 45.69                             110   -0.84 8  262 292 
 URE  HN ES       1623 14.63                             110   -1.13 8  262 292 
 URE  HZ I        1623 16.92        11.1 0.14            111            262 292 
 DRL03HZ EP       1622 48.77                             109    0.33 7  279 357 
 DRL03HE ES   2   1623 20.44                             109    1.27 4  279 357 
 GUY2CHZ EP   2   1622 52.27                             108    1.91 4  290 231 
 GUY2CHE ES   2   1623 21.35                             108   -1.24 4  290 231 
 GUY2CHZ I        1623 28.40         3.9 0.48                           290 231 
 CBOC HZ EP   2   1622 54.94                             106    1.80 3  317 249 
 CBOC HE ES   2   1623 26.37                             106   -1.17 3  317 249 
 CBOC HZ I        1623 31.05         3.4 0.22            107            317 249 
 DBB  EZ EP   2   1622 53.99                             106    0.79 3  319 273 
 DBB  HN ES       1623 27.57                             106   -0.08 7  319 273 
 DBB  EZ I        1623 31.01         4.7 0.18            107            319 273 
 PRA  HZ EP   9   1623  3.48                             102    1.89 0  390 206 
 PRA  HE ES       1623 44.90                             101    0.43 6  390 206 
 PRA  HZ I        1623 50.14         5.4 0.88            103            390 206 
 SJC  HZ EP   2   1623  0.83                             102   -0.94 3  391 329 
 SJC  HN ES   4   1623 39.90                             102   -3.00 0  391 329 
 SJC  HZ I        1623 42.24         2.7 0.48            103            391 329 
                                                                                
