 2015  424 1207 30.5 L   6.828 -73.197136.0  RSN 16 0.5 2.5LRSN                1
 GAP=129        1.25       3.6     4.1  6.5 -0.2210E+00  0.9896E+01  0.1358E+01E
 Epicentro: ZAPATOCA - SANTANDER                                               3
 ACTION:UPD 15-06-03 16:57 OP:cam  STATUS:               ID:20150424120730 L   I
 OLDACT:DUP 15-04-24 22:11 OP:ak   STATUS:               ID:20150424115749d    3
 2015-04-24-1157-48M.COL___253                                                 6
 STAT SP IPHASW D HRMM SECON CODA AMPLIT PERI AZIMU VELO AIN AR TRES W  DIS CAZ7
 BAR2 EZ EP       12 7 49.03                             169    0.0510 26.1 177 
 BAR2 EZ ES       12 8  2.58                             169   -0.8510 26.1 177 
 BAR2 EZ I        12 8  4.97        76.4 0.21            169           26.1 177 
 BRR  HZ IP     C 12 7 50.73                             153    0.5410 64.8 299 
 BRR  HN ES       12 8  6.57                             153    0.9910 64.8 299 
 BRR  HZ I        12 8 11.68        57.4 0.12            152           64.8 299 
 PAM  SZ IP     D 12 7 51.84                             148    0.1010 78.8  44 
 PAM  SE ES       12 8  8.47                             148    0.1410 78.8  44 
 PAM  SZ I        12 8 11.34        83.1 0.48            153           78.8  44 
 RUS  HZ EP       12 7 53.22                             141   -0.3210  104 173 
 RUS  HE ES       12 8 11.52                             141   -0.0210  104 173 
 RUS  HZ I        12 8 13.88        18.0 0.34            144            104 173 
 PTB  HZ EP       12 7 55.71                             131   -0.48 9  143 257 
 PTB  HN ES       12 8 15.39                             131   -0.88 9  143 257 
 PTB  HZ I        12 8 18.55        50.5 0.14            132            143 257 
 SPBC HZ EP       12 7 58.08                             127   -0.05 9  162 217 
 SPBC HE ES       12 8 20.27                             127    0.56 9  162 217 
 SPBC HZ I        12 8 25.89        38.3 0.11            129            162 217 
 ZAR  HZ EP       12 8  1.96                             121    0.34 9  198 292 
 ZAR  HE ES       12 8 26.59                             121    0.67 9  198 292 
 ZAR  HZ I        12 8 33.54        40.2 0.23            123            198 292 
 NOR  HZ EP   2   12 8  5.76                             117    0.42 4  232 233 
 NOR  HN ES       12 8 33.05                             117    0.50 8  232 233 
 NOR  HZ I        12 8 36.80        28.3 0.38            119            232 233 
 SML  HZ EP       12 8  5.29                             116   -0.70 8  239 336 
 SML  HN ES   2   12 8 33.42                             116   -0.29 4  239 336 
 SML  HZ I        12 8 37.43        38.4 0.10            118            239 336 
 CHI  HZ EP       12 8  7.91                             115    0.10 8  250 194 
 CHI  HN ES       12 8 36.60                             115   -0.34 8  250 194 
 CHI  HZ I        12 8 42.23         7.9 0.26            118            250 194 
 HEL  HZ EP   4   12 8 10.99                             113    1.32 0  267 255 
 HEL  HN ES       12 8 39.65                             113   -0.60 8  267 255 
 HEL  HZ I        12 8 47.35        18.7 0.40            115            267 255 
 URE  HN ES       12 8 40.63                             112   -0.84 7  277 292 
 GUY2CHZ EP       12 8 14.05                             111    0.73 7  298 234 
 GUY2CHN ES       12 8 46.76                             111    0.01 7  298 234 
 GUY2CHZ I        12 8 55.35        18.4 0.54                           298 234 
 CBOC HZ EP       12 8 17.17                             108    0.69 7  329 251 
 CBOC HE ES   2   12 8 52.20                             108   -0.18 3  329 251 
 MON  HN ES   1   12 8 54.80                             107   -0.93 5  347 309 
 SJC  HZ EP   4   12 8 23.18                             104   -1.87 0  404 327 
 SJC  HN ES   4   12 9  3.68                             104   -3.95 0  404 327 
 SJC  HZ I        12 9  8.56         6.7 0.60            106            404 327 
                                                                                
