 2012  924 1650 43.9 L   6.801 -73.064150.3  RSN 11 0.5 2.5LRSN                1
 GAP=147        0.82       3.8     4.7  5.9 -0.1171E+00  0.9527E+01  0.7628E+01E
 Epicentro: LOS SANTOS - SANTANDER                                             3
 ACTION:UPD 12-10-22 14:20 OP:ep   STATUS:               ID:20120924165043 L   I
 2012-09-24-1650-00M.COL___221                                                 6
 STAT SP IPHASW D HRMM SECON CODA AMPLIT PERI AZIMU VELO AIN AR TRES W  DIS CAZ7
 BAR2 SZ EP       1651  4.04                             170   -0.0910 26.5 209 
 BAR2 SZ ES   1   1651 19.51                             170   -0.41 7 26.5 209 
 BAR2 SZ I        1651 20.72        46.1 0.38                          26.5 209 
 GIR2 SZ EP   1   1651  4.11                             167   -0.06 7 33.8 335 
 GIR2 SZ ES   1   1651 19.99                             167    0.01 7 33.8 335 
 PAM  SZ EP   1   1651  6.90                             153    0.63 7 71.9  34 
 PAM  SN ES   1   1651 24.21                             153    0.47 7 71.9  34 
 PAM  SZ I        1651 26.26        18.0 0.18                          71.9  34 
 BRR  HZ EP       1651  5.97                             151   -0.0110 79.2 295 
 BRR  HN ES   1   1651 23.53                             151    0.31 7 79.2 295 
 BRR  HN I        1651 24.70       162.7 0.16                          79.2 295 
 RUS  HZ EP       1651  7.92                             145   -0.1610  101 181 
 RUS  HZ I        1651  8.61        53.4 0.96                           101 181 
 RUS  HN ES   1   1651 26.41                             145   -0.54 7  101 181 
 ZAR  HZ EP   1   1651 16.63                             122   -0.85 6  212 291 
 ZAR  HN ES   1   1651 43.06                             122   -0.63 6  212 291 
 ZAR  HN I        1651 47.64        38.6 0.52                           212 291 
 CHI  HZ EP   1   1651 21.90                             118   -0.22 6  251 197 
 CHI  HN ES   1   1651 52.43                             118    0.48 6  251 197 
 CHI  HN I        1651 59.23        17.4 0.54                           251 197 
 ROSC BN ES   2   1651 53.86                             117    0.73 4  258 213 
 HEL  HZ EP   2   1651 25.66                             115    0.36 4  281 256 
 HEL  HN ES   1   1651 57.83                             115    0.23 6  281 256 
 HEL  HN I        1652  7.09        10.4 0.28                           281 256 
 RREF HZ EP   1   1651 31.91                             111    0.89 5  329 230 
 RREF HN ES   1   1652  8.71                             111    0.93 5  329 230 
 RREF HZ I        1652 12.53        12.9 0.24                           329 230 
 PRA  HZ EP   1   1651 37.54                             107   -0.57 4  397 211 
 PRA  HN ES   1   1652 20.06                             107   -0.34 4  397 211 
 PRA  HN I        1652 25.78         9.0 0.34                           397 211 
                                                                                
