 2016  324 1657 55.1 L   6.070 -73.714110.1  RSN  7 0.4 1.5LRSN                1
 GAP=115        0.66       4.3     3.0  7.0 -0.6690E+01  0.6326E+01  0.1156E+01E
 Epicentro: VELEZ - SANTANDER                                                  3
 ACTION:UPD 16-05-13 21:27 OP:cam  STATUS:               ID:20160324165755 L   I
 OLDACT:REG 16-03-24 22:19 OP:dnl  STATUS:               ID:20160324165742     3
 2016-03-24-1657-42M.COL___304                                                 6
 STAT SP IPHASW D HRMM SECON CODA AMPLIT PERI AZIMU VELO AIN AR TRES W  DIS CAZ7
 SPBC HZ EP   2   1658 11.96                             149   -0.05 5 60.9 221 
 SPBC HN ES   2   1658 25.11                             149   -0.05 5 60.9 221 
 SPBC HZ I        1658 27.47        16.8 0.12            152           60.9 221 
 RUS  HZ EP       1658 13.09                             145   -0.2710 72.5 106 
 RUS  HN ES   2   1658 26.92                             145   -0.65 5 72.5 106 
 RUS  HZ I        1658 29.17         2.7 0.24            151           72.5 106 
 BAR2 EZ EP       1658 13.86                             141    0.1310 82.4  45 
 BAR2 EZ ES       1658 28.59                             141    0.3510 82.4  45 
 BAR2 EZ I        1658 29.84         9.4 0.30            146           82.4  45 
 PTB  HZ EP   2   1658 13.92                             135   -0.72 5 97.2 302 
 PTB  HN ES   2   1658 29.94                             135    0.09 5 97.2 302 
 PTB  HZ I        1658 32.61         4.9 0.20            138           97.2 302 
 NOR  HZ EP       1658 18.73                             124    0.04 9  140 246 
 NOR  HN ES       1658 36.82                             124   -0.24 9  140 246 
 NOR  HZ I        1658 39.20         4.7 0.13            128            140 246 
 ZAR  HZ EP   2   1658 25.15                             114   -0.15 4  202 321 
 ZAR  HE ES   2   1658 48.21                             114   -0.61 4  202 321 
 ZAR  HZ I        1658 50.39         5.4 0.15            118            202 321 
 GUY2CHZ EP   2   1658 26.70                             113    0.41 4  205 243 
 GUY2CHN ES       1658 51.10                             113    0.51 8  205 243 
 GUY2CHZ I        1658 58.37         1.9 0.40                           205 243 
                                                                                
