 2016  724 1305 15.5 L   6.788 -73.131132.0  RSN  6 0.3 1.8LRSN                1
 GAP=139        0.80       3.4     3.8  5.3  0.5517E+00  0.8007E+01  0.1735E+01E
 Epicentro: LOS SANTOS - SANTANDER                                             3
 ACTION:UPD 17-03-29 16:54 OP:lp   STATUS:               ID:20160724130515 L   I
 OLDACT:REG 16-07-24 20:53 OP:lv   STATUS:               ID:20160724125759     3
 2016-07-24-1257-59S.COL___334                                                 6
 STAT SP IPHASW D HRMM SECON CODA AMPLIT PERI AZIMU VELO AIN AR TRES W  DIS CAZ7
 BAR2 EZ EP       13 5 33.05                             170   -0.4110 22.4 195 
 BAR2 EZ ES       13 5 47.39                             170   -0.0710 22.4 195 
 BRR  HZ EP       13 5 35.07                             149   -0.2410 73.2 299 
 BRR  HN ES       13 5 50.94                             149    0.1910 73.2 299 
 BRR  HZ I        13 5 56.11        11.7 0.14            148           73.2 299 
 PAM  EZ EP       13 5 36.05                             148   -0.2210 77.4  38 
 PAM  EE ES       13 5 52.96                             148    0.4910 77.4  38 
 PAM  EZ I        13 5 55.11        17.0 0.66            150           77.4  38 
 RUS  HZ EP       13 5 37.57                             141   -0.2510 99.2 177 
 RUS  HN ES       13 5 55.37                             141    0.1410 99.2 177 
 ZAR  HZ EP       13 5 47.51                             119    0.21 8  206 292 
 ZAR  HN ES       13 6 11.77                             119   -0.34 8  206 292 
 ZAR  HZ I        13 6 17.02         8.9 0.20            120            206 292 
 GUY2CHZ EP       13 5 59.26                             110    0.68 7  302 235 
 GUY2CHN ES       13 6 32.40                             110    0.22 7  302 235 
 GUY2CHZ I        13 6 39.86         2.2 0.47                           302 235 
                                                                                
