 2012  624 1222  9.6 L   6.685 -73.226144.1  RSN  4 0.3 1.2LRSN                1
 GAP=204        0.63       6.4     6.3  7.6  0.2017E+02 -0.6391E+00  0.2792E+00E
 Epicentro: BARICHARA - SANTANDER                                              3
 ACTION:UPD 12-08-06 17:52 OP:ep   STATUS:               ID:20120624122209 L   I
 2012-06-24-1220-00M.COL___199                                                 6
 STAT SP IPHASW D HRMM SECON CODA AMPLIT PERI AZIMU VELO AIN AR TRES W  DIS CAZ7
 BAR2 SZ EP   1   1222 28.31                             175   -0.53 7 11.3 155 
 BAR2 SZ ES   1   1222 44.11                             175    0.25 7 11.3 155 
 BAR2 SZ I        1222 44.41         5.1 0.16                          11.3 155 
 BRR  HZ EP   1   1222 30.62                             152    0.06 7 71.1 311 
 BRR  HN ES   1   1222 46.92                             152    0.00 7 71.1 311 
 RUS  HZ EP   1   1222 32.84                             147    0.46 7 89.0 170 
 RUS  HN ES   1   1222 49.92                             147   -0.23 7 89.0 170 
 RUS  HZ I        1222 52.06         2.5 0.40                          89.0 170 
 PTB  HN ES   1   1222 55.62                             134   -0.02 7  137 263 
 PTB  HZ I        1222 58.97         1.3 0.15                           137 263 
                                                                                
