 2013  424 1431 21.1 L   6.812 -73.216136.6  RSN  5 0.2 1.4LRSN                1
 GAP=127        0.60       4.0     3.9  6.0 -0.3728E+01  0.7355E+01 -0.3411E+01E
 Epicentro: ZAPATOCA - SANTANDER                                               3
 ACTION:UPD 13-05-22 14:40 OP:EP   STATUS:               ID:20130424143121 L   I
 2013-04-24-1430-00M.COL___249                                                 6
 STAT SP IPHASW D HRMM SECON CODA AMPLIT PERI AZIMU VELO AIN AR TRES W  DIS CAZ7
 BAR2 SZ EP       1431 39.46                             169   -0.2110 24.5 171 
 BAR2 SZ ES   1   1431 53.98                             169   -0.16 7 24.5 171 
 BAR2 SZ I        1431 55.47         6.6 0.32            172           24.5 171 
 BRR  HZ EP       1431 41.35                             153    0.4910 63.8 301 
 BRR  HN ES   4   1431 58.27                             153    2.02 0 63.8 301 
 BRR  HZ I        1432 11.15        13.2 0.30            149           63.8 301 
 PAM  SZ EP       1431 42.60                             148   -0.0410 81.7  44 
 PAM  SN ES   1   1431 59.35                             148   -0.07 7 81.7  44 
 PAM  SZ I        1432  1.48         6.3 0.44            153           81.7  44 
 RUS  HZ EP       1431 44.17                             141    0.0310  103 172 
 RUS  HN ES   1   1432  2.31                             141    0.22 7  103 172 
 RUS  HZ I        1432  3.93         1.5 0.61            154            103 172 
 PTB  HZ EP       1431 46.40                             131   -0.27 9  140 258 
 PTB  HN ES   1   1432  6.56                             131   -0.04 7  140 258 
 PTB  HZ I        1432  8.80         2.6 0.18            135            140 258 
                                                                                
