 2011  424 1322 45.8 L   6.772 -73.082145.6  RSN 11 0.3 1.8LRSN                1
 GAP=146        0.63       3.8     5.5  5.3 -0.9081E+01  0.5434E+01 -0.4780E+01E
 Epicentro: LOS SANTOS - SANTANDER                                             3
 ACTION:UP  11-06-22 15:33 OP:REBC STATUS:               ID:20110424132245 L   I
 2011-04-24-1320-00M.COL___140                                                 6
 STAT SP IPHASW D HRMM SECON CODA AMPLIT PERI AZIMU VELO SNR AR TRES W  DIS CAZ7
 BAR2 SZ EP   1   1323  5.41                             171     0.0 7   23 209 
 BAR2 SZ ES   1   1323 20.54                             171    -0.2 7   23 209 
 BAR2 SZ I        1323 21.54        15.3 0.11                            23 209 
 BTL  SZ EP   1   1323  5.54                             169     0.0 7   26 308 
 GIR2 SZ EP   1   1323  5.45                             165    -0.2 7   36 340 
 PAM  SZ EP   1   1323  7.93                             151     0.0 7   76  34 
 BRR  HZ EP   1   1323  7.20                             150    -0.2 7   79 298 
 BRR  HZ I        1323  9.26        26.6 0.11                            79 298 
 BRR  HN ES   1   1323 24.31                             150     0.1 7   79 298 
 RUS  HN ES   1   1323 27.99                             145     0.3 7   97 180 
 RUS  HZ I        1323 29.28         5.8 0.27                            97 180 
 BRI  SZ EP   1   1323  9.58                             141    -0.2 7  109  17 
 GRA  SZ EP   1   1323 11.14                             137     0.0 7  127  14 
 GRA  SZ ES   1   1323 30.88                             137     0.0 7  127  14 
 GRA  SZ I        1323 33.91         5.9 0.36                           127  14 
 OCA  SZ EP   1   1323 14.97                             129     0.5 7  164 351 
 NOR  SZ EP   1   1323 21.27                             118    -0.7 6  239 236 
 NOR  SN ES   2   1323 50.09                             118    -0.1 4  239 236 
 HEL  HZ EP   1   1323 27.43                             114     0.7 6  278 257 
                                                                                
