 2014 1124 1456  4.1 L   6.689 -73.213148.0  RSN  7 0.5 1.8LRSN                1
 GAP=212        1.15       8.1     7.7  8.0  0.3687E+02  0.1577E+02  0.3242E+01E
 Epicentro: VILLANUEVA - SANTANDER                                             3
 ACTION:UPD 14-12-19 15:47 OP:nd   STATUS:               ID:20141124145604 L   I
 OLDACT:REG 14-11-24 21:14 OP:fm   STATUS:               ID:20141124144747     3
 2014-11-24-1447-47M.COL___297                                                 6
 STAT SP IPHASW D HRMM SECON CODA AMPLIT PERI AZIMU VELO AIN AR TRES W  DIS CAZ7
 BAR2 SZ EP       1456 23.49                             175   -0.3610 11.2 162 
 BAR2 SZ ES       1456 38.74                             175   -0.4910 11.2 162 
 BAR2 SZ I        1456 39.48        16.8 0.34            175           11.2 162 
 BRR  HZ EP       1456 25.53                             152   -0.0310 72.0 310 
 BRR  HN ES       1456 42.42                             152    0.1410 72.0 310 
 BRR  HZ I        1456 46.85        17.1 0.32            151           72.0 310 
 RUS  HZ EP       1456 27.68                             147    0.3610 89.2 171 
 RUS  HN ES       1456 45.71                             147    0.3010 89.2 171 
 RUS  HZ I        1456 47.07         3.9 0.24            150           89.2 171 
 PTB  HZ EP       1456 30.51                             134    0.05 9  138 263 
 PTB  HN ES       1456 51.16                             134    0.17 9  138 263 
 PTB  HZ I        1456 53.33         7.9 0.16            134            138 263 
 ZAR  HZ EP       1456 37.43                             123    0.89 9  202 296 
 ZAR  HN ES       1457  1.48                             123   -0.34 9  202 296 
 ZAR  HZ I        1457  8.34         9.0 0.32            124            202 296 
 NOR  HZ EP   1   1456 37.23                             120   -1.36 6  222 236 
 SJC  HZ EP   4   1456 56.90                             106   -3.62 0  416 329 
 SJC  HN ES   4   1457 36.68                             106   -7.83 0  416 329 
 SJC  HZ I        1457 43.31         1.8 0.68            107            416 329 
                                                                                
