 2011  824 1202 42.5 L   6.787 -73.099145.9  RSN 14 0.5 3.2LRSN                1
 GAP=185        0.73       2.8     4.6  4.8 -0.1843E+01  0.5982E+01  0.2013E+01E
 Epicentro: LOS SANTOS - SANTANDER                                             3
 ACTION:UPD 12-07-13 15:53 OP:ep   STATUS:               ID:20110824120242 L   I
 2011-08-24-1201-04S.COL___166                                                 6
 STAT SP IPHASW D HRMM SECON CODA AMPLIT PERI AZIMU VELO AIN AR TRES W  DIS CAZ7
 BAR2 SZ IP     D 12 3  2.34                             171    0.1510 23.4 203 
 BAR2 SZ ES   1   12 3 16.97                             171   -0.55 7 23.4 203 
 BAR2 SZ I        12 3 19.91       278.1 0.32                          23.4 203 
 BRR  HZ EP       12 3  4.12                             151    0.1110 76.4 298 
 BRR  HN ES   1   12 3 20.83                             151    0.08 7 76.4 298 
 BRR  HZ I        12 3 24.93       232.2 0.20                          76.4 298 
 RUS  HZ EP       12 3  6.27                             144    0.0810 98.9 179 
 RUS  HN ES   1   12 3 24.57                             144   -0.06 7 98.9 179 
 RUS  HZ I        12 3 27.10       111.5 0.28                          98.9 179 
 OCA  SZ EP   1   12 3 11.15                             129    0.09 7  162 351 
 OCA  SZ ES   1   12 3 33.73                             129    0.42 7  162 351 
 OCA  SZ I        12 3 37.35       238.4 0.32                           162 351 
 NOR  SZ EP   1   12 3 18.35                             118   -0.29 6  238 235 
 NOR  SN ES   1   12 3 46.93                             118    0.13 6  238 235 
 CHI  HZ EP   1   12 3 20.40                             117    0.15 6  249 196 
 CHI  HN ES   1   12 3 49.62                             117   -0.04 6  249 196 
 CHI  HZ I        12 3 53.60        56.0 0.39                           249 196 
 ROSC BZ EP   1   12 3 21.66                             116    0.83 6  254 212 
 ROSC BZ I        12 3 59.16       102.3 0.56                           254 212 
 HEL  HZ EP   1   12 3 22.62                             114   -0.66 6  277 256 
 HEL  HN ES   1   12 3 54.68                             114   -0.37 6  277 256 
 HEL  HZ I        12 4  2.40        82.7 0.48                           277 256 
 GUY  SZ EP   1   12 3 27.51                             112    0.70 5  307 236 
 GUY  SN ES   2   12 4  2.07                             112    0.74 4  307 236 
 GUY  SZ I        12 4 11.09       159.5 0.33                           307 236 
 RREF HZ EP   1   12 3 29.36                             111    0.33 5  325 230 
 RREF HN ES   1   12 4  4.59                             111   -0.70 5  325 230 
 RREF HZ I        12 4 16.35        83.2 0.43                           325 230 
 DBB  SZ EP   1   12 3 30.50                             109   -0.13 5  345 274 
 COD  HZ EP   1   12 3 30.18                             109   -0.97 5  350 354 
 COD  HZ I        12 4 19.00        63.3 0.74                           350 354 
 PRA  HZ EP       12 3 35.75                             106   -0.47 6  393 210 
 PRA  HN ES   1   12 4 18.84                             106    0.75 4  393 210 
 PRA  HZ I        12 4 22.58       108.1 0.36                           393 210 
 SJA  SZ EP   1   12 3 36.27                             106   -0.80 4  400 194 
 SJA  SZ I        12 4 29.37        86.0 0.41                           400 194 
                                                                                
