 2015  324 1631  0.7 L   6.779 -73.164145.2  RSN  7 0.6 1.9LRSN                1
 GAP=135        1.50       5.4     7.2  9.3 -0.5091E+01  0.1400E+02 -0.6759E+01E
 Epicentro: LOS SANTOS - SANTANDER                                             3
 ACTION:UPD 15-04-30 16:29 OP:nd   STATUS:               ID:20150324163100 L   I
 OLDACT:DUP 15-03-24 23:35 OP:stll STATUS:               ID:20150324162751d    3
 2015-03-24-1627-50M.COL___272                                                 6
 STAT SP IPHASW D HRMM SECON CODA AMPLIT PERI AZIMU VELO AIN AR TRES W  DIS CAZ7
 BAR2 EZ EP       1631 20.44                             171    0.2710 20.8 186 
 BAR2 EZ ES       1631 35.88                             171    0.4910 20.8 186 
 BAR2 EZ I        1631 37.15        16.4 0.30            170           20.8 186 
 BRR  HZ EP       1631 22.42                             152    0.7110 70.6 301 
 BRR  HZ I        1631 22.64        14.9 0.22            151           70.6 301 
 BRR  HN ES       1631 38.92                             152    0.7910 70.6 301 
 PAM  SZ EP       1631 23.27                             150    0.2810 80.4  40 
 PAM  SN ES       1631 39.82                             150   -0.6010 80.4  40 
 PAM  SZ I        1631 42.58         7.4 0.22            154           80.4  40 
 RUS  HZ EP       1631 24.38                             144    0.1810 98.4 175 
 RUS  HE ES       1631 41.67                             144   -0.8910 98.4 175 
 RUS  HZ I        1631 45.94         5.8 0.50            146           98.4 175 
 PTB  HZ EP       1631 27.34                             132   -0.02 9  145 260 
 PTB  HN ES       1631 47.85                             132   -0.34 9  145 260 
 PTB  HZ I        1631 54.42        12.5 0.62            132            145 260 
 SPBC HZ EP       1631 29.50                             129    0.68 9  160 219 
 SPBC HN ES       1631 50.08                             129   -0.71 9  160 219 
 SPBC HZ I        1631 58.57        22.9 0.32            130            160 219 
 SML  HZ EP       1631 36.96                             117   -0.43 8  245 336 
 SML  HN ES       1632  5.04                             117   -1.00 8  245 336 
 SML  HZ I        1632 10.15        16.1 0.46            119            245 336 
                                                                                
