 2012  124 1021 48.7 L   6.649 -73.192152.0  RSN  4 0.5 1.2LRSN                1
 GAP=172        0.83       9.6     9.6 10.7  0.2132E+02  0.5616E+00  0.1106E+02E
 Epicentro: BARICHARA - SANTANDER                                              3
 ACTION:UP  12-02-03 08:20 OP:REBC STATUS:               ID:20120124102148 L   I
 2012-01-24-1020-00M.COL___187                                                 6
 STAT SP IPHASW D HRMM SECON CODA AMPLIT PERI AZIMU VELO SNR AR TRES W  DIS CAZ7
 GIR2 SZ ES   3   1022 24.22                             162    -1.8 2   48 360 
 BRR  HZ EP       1022 10.61                             152    -0.210   77 311 
 BRR  HZ I        1022 12.65         4.8 0.32                            77 311 
 BRR  HN ES   1   1022 28.72                             152     0.6 7   77 311 
 RUS  HZ EP   2   1022 12.20                             150     0.2 5   85 172 
 RUS  HN ES   2   1022 30.41                             150     0.2 5   85 172 
 PTB  HZ EP       1022 15.62                             135     0.1 9  140 265 
 PTB  HN ES   1   1022 36.24                             135    -0.2 7  140 265 
 PTB  HZ I        1022 38.55         1.1 0.38                           140 265 
                                                                                
