 2012  624 1612 37.8 L   7.346 -73.180134.5  RSN  5 0.1 1.6LRSN                1
 GAP=176        0.35       3.6     2.1  3.7 -0.8005E+00  0.2867E+01 -0.3117E+01E
 Epicentro: RIONEGRO - SANTANDER                                               3
 ACTION:UPD 12-08-06 17:52 OP:ep   STATUS:               ID:20120624161237 L   I
 2012-06-24-1610-00M.COL___199                                                 6
 STAT SP IPHASW D HRMM SECON CODA AMPLIT PERI AZIMU VELO AIN AR TRES W  DIS CAZ7
 PAM  SZ EP   1   1612 57.40                             157   -0.12 7 53.1  91 
 PAM  SN ES   1   1613 12.88                             157    0.01 7 53.1  91 
 BRR  HZ EP   1   1612 57.29                             153   -0.10 7 64.4 246 
 BRR  HN ES   1   1613 12.68                             153    0.04 7 64.4 246 
 BRR  HZ I        1613 13.56        12.2 0.15                          64.4 246 
 BAR2 SZ EP   1   1612 58.89                             146   -0.01 7 83.4 180 
 BAR2 SZ ES   1   1613 15.45                             146    0.12 7 83.4 180 
 BAR2 SZ I        1613 16.91         7.1 0.19                          83.4 180 
 PTB  HZ EP   1   1613  5.69                             126   -0.07 7  167 238 
 PTB  HN ES   1   1613 27.44                             126   -0.11 7  167 238 
 PTB  HZ I        1613 29.36         2.3 0.17                           167 238 
 ZAR  HZ EP   1   1613  8.05                             122    0.37 7  186 275 
 ZAR  HN ES   1   1613 30.85                             122   -0.11 7  186 275 
 ZAR  HZ I        1613 31.98         4.9 0.09                           186 275 
                                                                                
