 2017  724 1714 27.8 L   6.390 -73.617106.2  RSN 10 0.5 2.0LRSN                1
 GAP= 79        1.24       3.9     3.4  7.1  0.2221E+01  0.7921E+01  0.4529E+01E
 Epicentro: SANTA HELENA DEL OPON - SANTANDER                                  3
 ACTION:UPD 17-08-30 15:36 OP:rebc STATUS:               ID:20170724171427 L   I
 OLDACT:UP  17-07-25 00:55 OP:ar   STATUS:               ID:20170724170738     3
 OLDACT:UP  17-07-25 00:55 OP:ar   STATUS:               ID:20170724170738     3
 OLDACT:REG 17-07-24 22:02 OP:ar   STATUS:               ID:20170724170738     3
 2017-07-24-1708-00M.COL___389                                                 6
 STAT SP IPHASW D HRMM SECON CODA AMPLIT PERI AZIMU VELO AIN AR TRES W  DIS CAZ7
 BAR2 EZ EP       1714 43.97                             151   -0.0110 53.0  65 
 BAR2 EZ ES       1714 56.84                             151    0.2310 53.0  65 
 BAR2 EZ I        1714 58.22        54.1 0.52            152           53.0  65 
 BRR  HZ EP       1714 45.02                             139   -0.4810 79.9 352 
 BRR  HE ES       1714 59.43                             139    0.1210 79.9 352 
 RUS  HZ EP       1714 45.89                             140   -0.3610 80.8 133 
 RUS  HE ES       1715  0.75                             140    0.1110 80.8 133 
 PTB  HZ EP   9   1714 45.04                             135   -1.66 0 94.2 280 
 PTB  HE ES       1714 59.19                             134   -0.6010 94.2 280 
 PTB  HZ I        1715  1.54        13.4 0.16            135           94.2 280 
 SPBC HZ EP       1714 46.18                             134   -0.7710 95.9 212 
 SPBC HE ES       1715  1.42                             134   -0.4610 95.9 212 
 SPBC HZ I        1715  3.09        30.6 0.32            135           95.9 212 
 NOR  HZ EP       1714 53.37                             117   -0.49 9  166 237 
 NOR  HE ES       1715 14.50                             117    0.31 9  166 237 
 NOR  HZ I        1715 15.71        13.0 0.14            118            166 237 
 YPLC HZ EP       1714 55.20                             116    0.27 9  176 129 
 YPLC HN ES       1715 16.82                             116    0.72 9  176 129 
 YPLC HZ I        1715 18.79        18.5 0.26            116            176 129 
 ZAR  HZ EP       1714 55.23                             114   -0.48 9  183 312 
 ZAR  HN ES       1715 18.23                             114    0.75 9  183 312 
 ZAR  HZ I        1715 21.03        16.6 0.26            115            183 312 
 HEL  HZ EP       1714 59.18                             111   -0.26 8  213 264 
 HEL  HN ES       1715 24.70                             111    0.57 8  213 264 
 HEL  HZ I        1715 25.90         7.2 0.32            111            213 264 
 GUY2CHZ EP       1715  2.72                             109    0.86 8  233 236 
 GUY2CHN ES   4   1715 30.10                             109    1.67 0  233 236 
 GUY2CHZ I        1715 31.90         5.7 0.42                           233 236 
                                                                                
