 2014  324 1901 18.6 L   7.472 -73.244136.0  RSN  4 0.1 1.8LRSN                1
 GAP=135        0.35       3.3     2.6  5.2 -0.3717E+01  0.7676E+01 -0.1663E+01E
 Epicentro: EL PLAYON - SANTANDER                                              3
 ACTION:UPD 14-04-09 23:20 OP:nd   STATUS:               ID:20140324190118 L   I
 OLDACT:REG 14-03-24 15:25 OP:mh   STATUS:               ID:20140324185810     3
 2014-03-24-1858-10M.COL___252                                                 6
 STAT SP IPHASW D HRMM SECON CODA AMPLIT PERI AZIMU VELO AIN AR TRES W  DIS CAZ7
 PAM  SZ EP       19 1 39.04                             154    0.1010 61.9 104 
 PAM  SN ES       19 1 54.70                             154   -0.0610 61.9 104 
 PAM  SZ I        19 1 56.63         2.6 0.22            160           61.9 104 
 PTB  HZ EP   1   19 1 46.69                             125   -0.20 7  169 232 
 PTB  HN ES       19 2  8.96                             125    0.04 9  169 232 
 PTB  HZ I        19 2 13.29        30.4 0.04            124            169 232 
 SML  HE ES   2   19 2  9.58                             125    0.01 4  173 328 
 SML  HZ I        19 2 13.49        11.1 0.08            125            173 328 
 NOR  HN ES   2   19 2 29.78                             112    0.10 4  277 221 
 NOR  HZ I        19 2 39.47         2.4 0.17            112            277 221 
                                                                                
