 2014 1224 2110  7.1 L   6.798 -73.134142.1  RSN 23 0.5 2.2LRSN                1
 GAP= 55        1.26       2.7     3.2  5.6 -0.7316E+00  0.3101E+01  0.2102E+01E
 Epicentro: LOS SANTOS - SANTANDER                                             3
 ACTION:UPD 15-02-10 17:06 OP:nd   STATUS:               ID:20141224211007 L   I
 OLDACT:REG 14-12-25 02:51 OP:fm   STATUS:               ID:20141224210750     3
 2014-12-24-2107-50M.COL___295                                                 6
 STAT SP IPHASW D HRMM SECON CODA AMPLIT PERI AZIMU VELO AIN AR TRES W  DIS CAZ7
 BAR2 EZ EP       2110 26.89                             170    0.5610 23.3 193 
 BAR2 EZ ES       2110 41.46                             170    0.1610 23.3 193 
 BAR2 EZ I        2110 43.35        39.7 0.16            169           23.3 193 
 BRR  HZ EP       2110 28.65                             151    0.6810 72.5 298 
 BRR  HE ES       2110 44.39                             151    0.1810 72.5 298 
 BRR  HZ I        2110 46.46        29.4 0.32            151           72.5 298 
 PAM  SZ EP       2110 29.82                             150    0.8910 76.8  39 
 PAM  SE ES       2110 46.15                             150    0.2310 76.8  39 
 PAM  SZ I        2110 48.81        23.7 0.52            154           76.8  39 
 RUS  HZ EP       2110 30.90                             143    0.3910  100 177 
 RUS  HN ES       2110 48.67                             143   -0.0610  100 177 
 RUS  HZ I        2110 51.37        13.3 0.30            144            100 177 
 PTB  HZ EP       2110 33.67                             131   -0.26 9  149 259 
 PTB  HE ES       2110 54.18                             131   -0.64 9  149 259 
 PTB  HZ I        2110 56.05        19.5 0.12            131            149 259 
 TAM  HZ EP       2110 35.15                             130    0.74 9  154 105 
 TAM  HE ES       2110 54.82                             130   -0.85 9  154 105 
 TAM  HZ I        2110 55.88        13.8 0.32            133            154 105 
 OCA  HZ EP       2110 34.27                             129   -0.94 9  161 353 
 OCA  HE ES       2110 56.86                             129   -0.24 9  161 353 
 OCA  HZ I        2110 59.90        26.7 0.22            130            161 353 
 SPBC HZ EP       2110 35.30                             128   -0.12 9  164 219 
 SPBC HN ES       2110 56.80                             128   -0.68 9  164 219 
 SPBC HZ I        2111  5.51        29.6 0.18            128            164 219 
 ZAR  HZ EP       2110 40.25                             121    0.76 8  205 292 
 ZAR  HN ES       2111  4.65                             121   -0.07 8  205 292 
 ZAR  HZ I        2111 10.66        28.4 0.66            122            205 292 
 NOR  HZ EP       2110 43.30                             118    0.54 8  236 235 
 NOR  HE ES       2111 10.74                             118    0.20 8  236 235 
 NOR  HZ I        2111 13.34        14.5 0.32            118            236 235 
 SML  HZ EP       2110 42.71                             117   -0.94 8  244 335 
 SML  HN ES       2111 11.29                             117   -0.84 8  244 335 
 SML  HZ I        2111 20.03        31.3 0.10            118            244 335 
 CHI  HZ EP       2110 45.28                             116    0.63 8  249 195 
 CHI  HE ES       2111 13.58                             116   -0.33 8  249 195 
 CHI  HZ I        2111 18.43        12.0 0.84            117            249 195 
 ROSC BZ EP       2110 45.07                             116   -0.05 8  253 211 
 ROSC BN ES       2111 14.62                             116   -0.11 8  253 211 
 ROSC BZ I        2111 21.55        14.6 0.45            116            253 211 
 HEL  HZ EP       2110 47.60                             114    0.29 8  273 256 
 HEL  HN ES       2111 18.99                             114    0.36 8  273 256 
 HEL  HZ I        2111 25.21        10.6 0.32            114            273 256 
 URE  HE ES   4   2111 17.26                             113   -2.94 0  285 292 
 URE  HZ I        2111 22.22        10.9 0.34            113            285 292 
 VIL  SN ES       2111 23.56                             111   -0.58 7  303 192 
 VIL  SZ I        2111 31.73        10.5 0.46            112            303 192 
 PTGC HN ES       2111 24.01                             111   -0.77 7  308 159 
 TOL  SZ EP       2110 55.47                             109    0.13 7  344 225 
 TOL  SN ES       2111 33.00                             109    0.07 7  344 225 
 MON  HN ES   4   2111 32.20                             108   -2.16 0  355 308 
 MON  HZ I        2111 35.02         4.5 0.48            109            355 308 
 ANIL HE ES   4   2111 37.25                             108    1.55 0  358 225 
 ANIL HZ I        2111 41.76         2.2 0.32            108            358 225 
 SDV  BZ EP       2110 56.49                             108   -0.46 6  360  50 
 SDV  BE ES   4   2111 32.35                             108   -3.45 0  360  50 
 SDV  BZ I        2111 35.60         3.0 0.45            109            360  50 
 ORTC HN ES       2111 42.93                             106   -0.09 6  396 216 
 ORTC HZ I        2111 51.24         6.9 0.22            106            396 216 
 SJC  HN ES   4   2111 40.85                             105   -5.18 0  410 327 
 SJC  HZ I        2111 46.51         3.4 0.48            106            410 327 
                                                                                
