 2010  524 2300 12.0 L   6.787 -73.106148.1  RSN 12 0.5 2.6LRSN                1
 GAP=147        0.94       4.3     7.6  7.1 -0.1785E+02  0.1106E+02  0.5557E+01E
 Epicentro: LOS SANTOS - SANTANDER                                             3
 ACTION:UP  10-08-24 10:06 OP:vdl  STATUS:               ID:20100524230012 L   I
 2010-05-24-2257-01S.COL___108                                                 6
 STAT SP IPHASW D HRMM SECON CODA AMPLIT PERI AZIMU VELO SNR AR TRES W  DIS CAZ7
 BAR2 SZ EP       23 0 31.75                             170    -0.110   23 202 
 BAR2 SZ ES   1   23 0 46.73                             170    -0.7 7   23 202 
 GUE  SZ EP       23 0 37.75                             140     0.810  117  10 
 GUE  SZ ES   3   23 0 57.27                             140     0.9 2  117  10 
 GRA  SZ EP       23 0 37.61                             138     0.210  126  15 
 GRA  SZ ES   1   23 0 57.31                             138     0.0 7  126  15 
 OCA  SZ EP       23 0 40.19                             130    -0.4 9  162 352 
 OCA  SZ ES   1   23 1  3.10                             130     0.1 7  162 352 
 OCA  SZ I        23 1  8.11        75.5 0.36                           162 352 
 CHI  HZ EP       23 0 49.82                             118     0.0 8  248 196 
 CHI  HZ I        23 0 52.46        14.9 0.36                           248 196 
 CHI  HN ES   3   23 1 19.71                             118     0.4 2  248 196 
 ROSC BZ EP       23 0 50.94                             117     0.6 8  254 212 
 ROSC BN ES   2   23 1 20.84                             117     0.6 4  254 212 
 ROSC BZ I        23 1 29.53        22.6 0.42                           254 212 
 CVER SZ EP       23 0 52.57                             115     0.1 8  273 203 
 HEL  HZ EP       23 0 52.74                             115     0.0 7  276 256 
 HEL  HN ES   3   23 1 24.09                             115    -0.4 2  276 256 
 HEL  HZ I        23 1 30.47        22.3 0.19                           276 256 
 RREF BZ EP       23 0 58.21                             111    -0.3 7  324 230 
 RREF BE ES   2   23 1 35.12                             111     0.4 3  324 230 
 RREF BZ I        23 1 40.81        17.8 0.26                           324 230 
 DBB  SZ EP       23 0 59.54                             110    -0.5 7  344 274 
 SDV  BZ EP       23 1  1.04                             109    -0.8 6  358  50 
 PRA  HZ EP       23 1  5.34                             107    -0.3 6  393 210 
 PRA  HN ES   3   23 1 47.00                             107    -0.6 1  393 210 
 PRA  HZ I        23 1 52.24        10.6 0.42                           393 210 
                                                                                
