 2016  424 2308 36.6 L   7.305 -73.202124.0  RSN 11 0.4 1.8LRSN                1
 GAP= 93        0.85       2.6     3.5  5.9 -0.7121E+00  0.1110E+02  0.1337E+01E
 Epicentro: RIONEGRO - SANTANDER                                               3
 ACTION:UPD 16-05-05 14:23 OP:rebc STATUS:               ID:20160424230837dL   I
 OLDACT:REG 16-04-25 03:58 OP:ak   STATUS:               ID:20160424230746     3
 2016-04-24-2307-46M.COL___284                                                 6
 STAT SP IPHASW D HRMM SECON CODA AMPLIT PERI AZIMU VELO AIN AR TRES W  DIS CAZ7
 PAM  EZ EP       23 8 55.41                             155    0.1810 55.6  86 
 PAM  EE ES       23 9 10.10                             155    0.3310 55.6  86 
 PAM  EZ I        23 9 12.48        14.7 0.42            151           55.6  86 
 BAR2 EZ EP       23 8 56.10                             146   -0.1910 78.9 178 
 BAR2 EZ ES       23 9 11.84                             146    0.1910 78.9 178 
 BAR2 EZ I        23 9 12.96        11.5 0.24            141           78.9 178 
 OCA  HZ EP       23 8 57.83                             138   -0.2610  104 353 
 OCA  HN ES       23 9 14.70                             138   -0.1610  104 353 
 OCA  HZ I        23 9 17.13        20.0 0.14            129            104 353 
 RUS  HZ EP       23 9  3.12                             125   -0.29 9  157 175 
 RUS  HE ES       23 9 24.11                             125   -0.21 9  157 175 
 PTB  HZ EP       23 9  2.89                             124   -0.46 9  162 239 
 PTB  HN ES       23 9 23.65                             124   -0.57 9  162 239 
 PTB  HZ I        23 9 26.01         5.4 0.16            117            162 239 
 ZAR  HZ EP       23 9  5.31                             120   -0.26 9  184 277 
 ZAR  HN ES       23 9 28.55                             120    0.37 9  184 277 
 ZAR  HZ I        23 9 32.64         7.8 0.36            113            184 277 
 SPBC HZ EP   2   23 9  8.63                             117    0.52 4  207 208 
 SPBC HN ES       23 9 33.14                             117    0.46 8  207 208 
 URE  HZ EP       23 9 15.13                             111    0.94 8  262 281 
 URE  HN ES   4   23 9 40.33                             111   -3.18 0  262 281 
 URE  HZ I        23 9 50.77         6.0 0.20            104            262 281 
 NOR  HZ EP   2   23 9 15.38                             111    0.60 4  267 224 
 NOR  HE ES       23 9 44.93                             111    0.37 8  267 224 
 HEL  HZ EP   1   23 9 17.33                             109    0.02 6  285 245 
 HEL  HZ I        23 9 56.03         2.9 0.50            103            285 245 
 GUY2CHZ EP       23 9 22.61                             106   -0.28 7  332 226 
 GUY2CHN ES       23 9 58.86                             106   -0.14 7  332 226 
 GUY2CHZ I        2310  9.44         2.4 0.40                           332 226 
                                                                                
