 2015  424 2140 41.8 L   6.830 -73.158144.4  RSN  7 0.4 1.8LRSN                1
 GAP=144        1.06       4.2     5.0  7.6 -0.7287E+01  0.1453E+02 -0.4491E+01E
 Epicentro: LOS SANTOS - SANTANDER                                             3
 ACTION:UPD 15-06-03 16:57 OP:cam  STATUS:               ID:20150424214041 L   I
 OLDACT:REG 15-04-25 03:54 OP:drio STATUS:               ID:20150424213748     3
 2015-04-24-2137-48M.COL___268                                                 6
 STAT SP IPHASW D HRMM SECON CODA AMPLIT PERI AZIMU VELO AIN AR TRES W  DIS CAZ7
 BAR2 EZ EP       2141  1.13                             169   -0.2510 26.4 186 
 BAR2 EZ ES       2141 15.88                             169   -0.7310 26.4 186 
 BAR2 EZ I        2141 19.80        12.5 0.40            169           26.4 186 
 PAM  SZ EP       2141  4.33                             151    0.5110 75.8  42 
 PAM  SN ES       2141 21.50                             151    0.5410 75.8  42 
 PAM  SZ I        2141 22.44         6.7 0.16            156           75.8  42 
 PTB  HZ EP       2141  8.28                             132   -0.36 9  147 257 
 PTB  HN ES       2141 29.41                             132   -0.13 9  147 257 
 PTB  HZ I        2141 36.75         9.6 0.50            133            147 257 
 SPBC HZ EP       2141 10.33                             128   -0.07 9  165 218 
 SPBC HN ES       2141 33.12                             128    0.44 9  165 218 
 ZAR  HE ES       2141 39.51                             122    0.52 9  202 291 
 ZAR  HZ I        2141 45.74         7.3 0.36            124            202 291 
 NOR  HZ EP       2141 17.80                             118    0.22 8  236 234 
 NOR  HN ES       2141 45.59                             118    0.13 8  236 234 
 NOR  HZ I        2141 50.68         6.5 0.30            120            236 234 
 SML  HZ EP       2141 17.37                             117   -0.64 8  240 335 
 SML  HN ES       2141 45.99                             117   -0.23 8  240 335 
                                                                                
