 2011 1124 2116  5.1 L   6.700 -73.084148.0  RSN  6 0.3 1.8LRSN                1
 GAP=149        0.60       5.5     4.0 10.3 -0.1621E+01  0.2174E+01  0.3406E+02E
 Epicentro: JORDAN - SANTANDER                                                 3
 ACTION:UPD 12-07-13 16:12 OP:ep   STATUS:               ID:20111124211605 L   I
 2011-11-24-2114-23S.COL___178                                                 6
 STAT SP IPHASW D HRMM SECON CODA AMPLIT PERI AZIMU VELO AIN AR TRES W  DIS CAZ7
 BAR2 SZ EP   1   2116 25.29                             173    0.41 7 16.1 223 
 BAR2 SZ I        2116 25.72         9.6 0.11                          16.1 223 
 PAM  SZ EP   1   2116 28.12                             150    0.26 7 82.5  31 
 PAM  SE ES   1   2116 45.28                             150   -0.34 7 82.5  31 
 BRR  HZ EP   1   2116 27.27                             149    0.09 7 82.8 303 
 BRR  HZ I        2116 27.55        18.2 0.17                          82.8 303 
 BRR  HN ES   1   2116 44.66                             149    0.26 7 82.8 303 
 RUS  HZ EP       2116 28.06                             147   -0.2410 89.3 180 
 ZAR  HN ES   1   2117  4.67                             121   -0.41 6  215 294 
 NOR  SN ES   1   2117  8.88                             119    0.04 6  234 238 
                                                                                
