 2017  924 2253 42.5 L   6.740 -73.146147.1  RSN  4 0.3 1.4LRSN                1
 GAP=139        0.61       3.5     5.3  6.0  0.2388E+01  0.3814E+01  0.4246E+01E
 Epicentro: LOS SANTOS - SANTANDER                                             3
 ACTION:UPD 17-10-05 19:15 OP:rebc STATUS:               ID:20170924225342 L   I
 OLDACT:UP  17-09-25 05:27 OP:mg   STATUS:               ID:20170924224745     3
 OLDACT:UP  17-09-25 05:27 OP:mg   STATUS:               ID:20170924224745     3
 OLDACT:UP  17-09-25 05:26 OP:mg   STATUS:               ID:20170924224745     3
 OLDACT:UP  17-09-25 05:26 OP:mg   STATUS:               ID:20170924224745     3
 OLDACT:UP  17-09-25 05:26 OP:mg   STATUS:               ID:20170924224745     3
 OLDACT:REG 17-09-25 04:19 OP:mg   STATUS:               ID:20170924224745     3
 2017-09-24-2248-00M.COL___411                                                 6
 STAT SP IPHASW D HRMM SECON CODA AMPLIT PERI AZIMU VELO AIN AR TRES W  DIS CAZ7
 BAR2 EZ EP   1   2254  1.62                             173   -0.60 7 16.8 194 
 BAR2 EZ ES   1   2254 17.29                             173   -0.28 7 16.8 194 
 BAR2 EZ I        2254 18.40         7.6 0.24            174           16.8 194 
 BRR  HZ EP       2254  4.01                             152   -0.0210 74.6 303 
 BRR  HN ES       2254 20.91                             152    0.1310 74.6 303 
 BRR  HZ I        2254 22.96         8.3 0.38            153           74.6 303 
 PAM  EZ EP   4   2254  5.05                             149   -0.17 0 82.6  37 
 PAM  EN ES       2254 22.99                             149    0.0910 82.6  37 
 PAM  EZ I        2254 24.77         3.5 0.27            151           82.6  37 
 RUS  HZ EP       2254  6.19                             146    0.2310 94.0 176 
 RUS  HN ES       2254 24.30                             146    0.0710 94.0 176 
 RUS  HZ I        2254 25.98         1.8 0.32            148           94.0 176 
                                                                                
