 2013  124 2123 34.4 L   6.024 -73.766108.5  RSN 16 0.4 2.5LRSN                1
 GAP= 77        0.91       2.3     2.7  6.5 -0.1974E+01  0.4907E+01 -0.9745E-02E
 Epicentro: BOLIVAR - SANTANDER                                                3
 ACTION:UPD 13-02-15 09:16 OP:ep   STATUS:               ID:20130124212334 L   I
 2013-01-24-2120-00M.COL___241                                                 6
 STAT SP IPHASW D HRMM SECON CODA AMPLIT PERI AZIMU VELO AIN AR TRES W  DIS CAZ7
 RUS  HZ IP     D 2123 52.80                             142   -0.0310 77.0 101 
 RUS  HN ES   1   2124  6.85                             142   -0.32 7 77.0 101 
 BAR2 SZ EP       2123 53.76                             137    0.2510 90.1  46 
 BAR2 SZ ES   1   2124  8.74                             137    0.37 7 90.1  46 
 BAR2 SZ I        2124 10.28       529.6 0.34            142           90.1  46 
 PTB  HZ EP       2123 52.83                             135   -0.8110 95.2 307 
 PTB  HN ES   1   2124  8.62                             135    0.02 7 95.2 307 
 PTB  HZ I        2124  9.50       101.0 0.24            138           95.2 307 
 BRR  HZ EP       2123 55.90                             128    0.0410  120   3 
 BRR  HE ES   1   2124 13.21                             128    0.65 7  120   3 
 BRR  HZ I        2124 16.00        72.2 0.14            132            120   3 
 CTAB SZ EP   4   2123 57.72                             128    1.03 0  122 203 
 NOR  HZ EP       2123 57.16                             125    0.0110  132 247 
 NOR  HN ES   1   2124 15.12                             125    0.26 7  132 247 
 NOR  HZ I        2124 17.67       114.3 0.14            127            132 247 
 ROSC BN ES   1   2124 17.90                             123    0.04 7  145 205 
 ROSC BZ I        2124 25.12        44.2 0.35            125            145 205 
 CHI  HZ EP     C 2123 59.60                             121   -0.27 9  154 179 
 CHI  HN ES   1   2124 19.02                             121   -0.68 7  154 179 
 CHI  HZ I        2124 24.07        24.2 0.26            123            154 179 
 PAM  SZ EP       2124  3.50                             115   -0.01 9  187  39 
 PAM  SE ES   1   2124 26.14                             115   -0.04 7  187  39 
 PAM  SZ I        2124 30.48        24.1 0.52            119            187  39 
 HEL  HZ EP       2124  5.10                             114    0.78 9  196 275 
 HEL  HN ES   1   2124 27.08                             114   -0.55 6  196 275 
 HEL  HZ I        2124 32.67        25.1 0.26            116            196 275 
 ZAR  HZ EP       2124  4.06                             113   -0.51 9  202 323 
 ZAR  HN ES   1   2124 27.42                             113   -0.65 6  202 323 
 ZAR  HZ I        2124 30.31        56.1 0.18            116            202 323 
 VIL  SE ES   2   2124 30.95                             112    0.72 4  212 178 
 VIL  SZ I        2124 33.10        38.0 0.38            114            212 178 
 RREF HZ EP       2124  7.00                             112    0.23 8  215 235 
 RREF HN ES   1   2124 31.97                             112   -0.02 6  215 235 
 RREF HZ I        2124 39.47        29.6 0.22            114            215 235 
 TOL  SZ EP       2124  9.08                             109    0.43 8  235 227 
 TOL  SZ ES   1   2124 35.93                             109    0.60 6  235 227 
 TOL  SZ I        2124 40.56        14.4 0.60            112            235 227 
 ANIL HZ EP   1   2124  9.31                             108   -0.88 6  248 227 
 ANIL HE ES   1   2124 38.67                             108    0.59 6  248 227 
 ANIL HZ I        2124 42.50        15.4 0.52            110            248 227 
 OCA  HZ EP   1   2124 10.28                             108    0.09 6  250  11 
 OCA  HN ES   1   2124 38.51                             108    0.44 6  250  11 
 OCA  HZ I        2124 45.73        30.2 0.18            111            250  11 
 URE  HN ES   4   2124 40.09                             106   -2.51 0  273 314 
 DBB  SZ EP   2   2124 14.65                             104   -0.36 4  292 292 
 DBB  SZ ES   2   2124 47.11                             104    0.46 4  292 292 
 DBB  SZ I        2124 51.11        18.7 0.26            107            292 292 
 SJA  SZ EP   4   2124 17.87                             104    1.26 0  305 184 
 SJA  SZ ES   4   2124 51.69                             104    2.19 0  305 184 
                                                                                
