 2016  324 2311 32.1 L   7.193 -73.316122.0  RSN  8 0.4 2.2LRSN                1
 GAP= 91        0.94       3.6     3.9  7.6 -0.4042E+01  0.1512E+02 -0.7265E+00E
 Epicentro: LEBRIJA - SANTANDER                                                3
 ACTION:UPD 16-05-13 21:27 OP:cam  STATUS:               ID:20160324231132 L   I
 OLDACT:UP  16-03-25 11:05 OP:mh   STATUS:               ID:20160324230744     3
 OLDACT:REG 16-03-25 04:18 OP:mh   STATUS:               ID:20160324230744     3
 2016-03-24-2307-44M.COL___304                                                 6
 STAT SP IPHASW D HRMM SECON CODA AMPLIT PERI AZIMU VELO AIN AR TRES W  DIS CAZ7
 BAR2 EZ EP       2311 50.76                             149   -0.1110 68.0 167 
 BAR2 EZ ES       2312  5.62                             149    0.1010 68.0 167 
 BAR2 EZ I        2312  6.96       112.2 0.50            152           68.0 167 
 PAM  EZ EP       2311 51.43                             148    0.0810 70.0  77 
 PAM  EN ES       2312  6.74                             148    0.3610 70.0  77 
 OCA  HZ EP       2311 54.23                             134   -0.1810  116 360 
 OCA  HN ES       2312 11.24                             134   -0.5810  116 360 
 PTB  HZ EP       2311 56.79                             126   -0.20 9  145 240 
 PTB  HN ES       2312 16.11                             126   -0.30 9  145 240 
 ZAR  HZ EP   1   2312  0.42                             121    0.58 7  173 281 
 ZAR  HN ES       2312 22.19                             121    0.71 9  173 281 
 ZAR  HZ I        2312 26.88        19.2 0.24            122            173 281 
 NOR  HZ EP       2312  8.67                             111    0.50 8  249 224 
 NOR  HE ES       2312 35.61                             111   -0.71 8  249 224 
 URE  HZ EP   4   2312  9.93                             111    1.42 0  252 284 
 URE  HN ES   4   2312 34.48                             111   -2.43 0  252 284 
 HEL  HZ EP   1   2312 10.85                             110    0.04 6  269 246 
 HEL  HN ES   1   2312 41.02                             110    0.01 6  269 246 
 HEL  HZ I        2312 46.73         5.5 0.24            111            269 246 
 GUY2CHZ EP   4   2312 17.77                             106    1.53 0  314 226 
 GUY2CHN ES   4   2312 54.09                             106    3.41 0  314 226 
 GUY2CHZ I        2313  0.87         5.0 0.61                           314 226 
                                                                                
