 2011 1024 2232 10.6 L   6.768 -73.108144.7  RSN  4 0.2 1.7LRSN                1
 GAP=143        0.52       3.8     5.5  5.6  0.1814E+01  0.2926E+01  0.9652E+00E
 Epicentro: LOS SANTOS - SANTANDER                                             3
 ACTION:UPD 12-07-13 16:05 OP:ep   STATUS:               ID:20111024223210 L   I
 2011-10-24-2229-48S.COL___172                                                 6
 STAT SP IPHASW D HRMM SECON CODA AMPLIT PERI AZIMU VELO AIN AR TRES W  DIS CAZ7
 BAR2 SZ EP   1   2232 29.87                             171   -0.23 7 21.1 203 
 BAR2 SZ ES   1   2232 44.82                             171   -0.45 7 21.1 203 
 BAR2 SZ I        2232 46.86        11.3 0.20                          21.1 203 
 BRR  HZ EP       2232 32.06                             151    0.0810 76.5 299 
 BRR  HZ I        2232 32.26        17.7 0.18                          76.5 299 
 BRR  HN ES   1   2232 48.74                             151    0.11 7 76.5 299 
 PAM  SZ EP   2   2232 32.64                             150   -0.11 5 77.6  36 
 PAM  SN ES   1   2232 50.18                             150    0.18 7 77.6  36 
 RUS  HZ EP   1   2232 33.96                             145   -0.06 7 96.9 178 
 RUS  HN ES   1   2232 52.61                             145    0.35 7 96.9 178 
 RUS  HZ I        2232 53.97         3.4 0.30                          96.9 178 
                                                                                
