 2013  624 2127 33.0 L   6.801 -73.129148.0  RSN  4 0.3 1.4LRSN                1
 GAP=239        0.68       7.4     6.9  9.1  0.1977E+02 -0.5370E+00 -0.3168E+02E
 Epicentro: LOS SANTOS - SANTANDER                                             3
 ACTION:UPD 14-01-08 09:56 OP:ep   STATUS:               ID:20130624212733 L   I
 OLDACT:DUP 13-06-24 22:17 OP:ca   STATUS:               ID:20130624211960d    3
 2013-06-24-2119-59M.COL___266                                                 6
 STAT SP IPHASW D HRMM SECON CODA AMPLIT PERI AZIMU VELO AIN AR TRES W  DIS CAZ7
 BAR2 SZ EP       2127 52.64                             170   -0.2210 23.8 194 
 BAR2 SZ ES   1   2128  8.06                             170   -0.33 7 23.8 194 
 BRR  HZ EP       2127 54.82                             152    0.3910 72.7 298 
 RUS  HZ EP   1   2127 57.03                             144    0.10 7  101 177 
 RUS  HN ES       2128 15.73                             144    0.1110  101 177 
 RUS  HZ I        2128 16.36         2.4 0.28            143            101 177 
 PTB  HZ EP   2   2127 59.46                             132   -0.81 5  150 259 
 PTB  HN ES   1   2128 21.63                             132    0.06 7  150 259 
 PTB  HZ I        2128 22.83         5.8 0.26            131            150 259 
                                                                                
