 2012 1224 2005 11.4 L   6.785 -73.163143.5  RSN 10 0.5 2.2LRSN                1
 GAP=181        1.18       3.6     5.6  7.2  0.2865E+01  0.9846E+01  0.4368E+01E
 Epicentro: LOS SANTOS - SANTANDER                                             3
 ACTION:UPD 13-01-04 14:30 OP:ep   STATUS:               ID:20121224200511 L   I
 2012-12-24-2000-00M.COL___242                                                 6
 STAT SP IPHASW D HRMM SECON CODA AMPLIT PERI AZIMU VELO AIN AR TRES W  DIS CAZ7
 BAR2 SZ EP       20 5 30.92                             171    0.1910 21.5 186 
 BAR2 SZ ES       20 5 45.00                             171   -0.8010 21.5 186 
 BAR2 SZ I        20 5 47.31        25.4 0.16                          21.5 186 
 GIR2 SZ EP       20 5 31.08                             167    0.2310 32.6 354 
 GIR2 SZ ES       20 5 46.70                             167    0.6810 32.6 354 
 BRR  HZ EP       20 5 32.81                             152    0.5410 70.4 300 
 BRR  HN ES       20 5 49.25                             152    0.7110 70.4 300 
 BRR  HN I        20 5 50.34        27.7 0.26                          70.4 300 
 RUS  HZ EP       20 5 34.88                             144    0.0510 99.1 175 
 RUS  HN ES       20 5 52.70                             144   -0.4010 99.1 175 
 PTB  HZ EP       20 5 37.85                             132   -0.15 9  146 259 
 PTB  HN ES       20 5 58.79                             132    0.05 9  146 259 
 PTB  HN I        20 6  3.89        12.1 0.52                           146 259 
 OCA  HN ES       20 6  1.08                             129   -0.65 9  162 354 
 ZAR  HN ES       20 6  8.26                             122   -0.44 9  203 293 
 ZAR  HN I        20 6 16.27        11.5 0.36                           203 293 
 NOR  HE ES       20 6 14.29                             118   -0.01 8  232 235 
 NOR  HE I        20 6 20.11        19.5 0.18                           232 235 
 SML  HN ES       20 6 16.01                             117   -0.51 8  244 336 
 SML  HN I        20 6 18.96        24.1 0.10                           244 336 
 CHI  HZ EP       20 5 49.17                             117    0.41 8  247 195 
 CHI  HN ES       20 6 17.57                             117   -0.32 8  247 195 
 CHI  HN I        20 6 20.86         8.3 0.42                           247 195 
                                                                                
