 2011  724 2219 45.4 L   6.804 -73.058147.7  RSN  6 0.3 1.6LRSN                1
 GAP=166        0.62       3.0     7.4  5.7 -0.1569E+01 -0.6399E+01  0.2503E+01E
 Epicentro: LOS SANTOS - SANTANDER                                             3
 ACTION:UPD 12-07-25 14:03 OP:epov STATUS:               ID:20110724221945 L   I
 2011-07-24-2217-41S.COL___119                                                 6
 STAT SP IPHASW D HRMM SECON CODA AMPLIT PERI AZIMU VELO AIN AR TRES W  DIS CAZ7
 GIR2 SZ EP   1   2220  5.30                             166   -0.06 7 33.9 334 
 GIR2 SZ ES   1   2220 21.10                             166    0.16 7 33.9 334 
 BRR  HZ EP   1   2220  6.72                             150   -0.51 7 79.7 295 
 BRR  HZ I        2220 10.77         9.1 0.09                          79.7 295 
 BRR  HE ES   1   2220 24.48                             150    0.20 7 79.7 295 
 RUS  HZ EP   1   2220  9.40                             144    0.06 7  101 182 
 RUS  HE ES   1   2220 28.10                             144    0.07 7  101 182 
 RUS  HZ I        2220 28.81         4.9 0.30                           101 182 
 BRI  SZ EP   1   2220  9.66                             143    0.46 7  105  16 
 BRI  SZ ES   1   2220 27.31                             143   -0.47 7  105  16 
 BRI  SZ I        2220 31.55         5.0 0.24                           105  16 
 OCA  SZ EP   1   2220 14.33                             130    0.39 7  161 350 
 OCA  SZ ES   1   2220 36.11                             130   -0.11 7  161 350 
 OCA  SZ I        2220 40.76         7.0 0.25                           161 350 
 CHI  HZ EP   1   2220 23.27                             117   -0.25 6  252 197 
 CHI  HZ I        2221  0.85         3.1 0.45                           252 197 
                                                                                
