 2012 1124 2225  7.8 L   5.983 -74.173 70.9  RSN  4 0.4 1.2LRSN                1
 GAP=122        0.93       6.0     3.4 14.7  0.1061E+02  0.1618E+02  0.6126E+02E
 Epicentro: LA BELLEZA - SANTANDER                                             3
 ACTION:UPD 12-12-05 15:35 OP:}ep  STATUS:               ID:20121124222507 L   I
 2012-11-24-2220-00M.COL___233                                                 6
 STAT SP IPHASW D HRMM SECON CODA AMPLIT PERI AZIMU VELO AIN AR TRES W  DIS CAZ7
 PTB  HZ EP       2225 21.71                             131    0.2210 69.0 333 
 PTB  HE ES       2225 32.48                             131    0.3310 69.0 333 
 PTB  HN I        2225 35.40         6.8 0.30                          69.0 333 
 RUS  HZ EP       2225 27.68                             115    0.1210  121  95 
 RUS  HE ES       2225 42.36                             115   -0.5810  121  95 
 RUS  HN I        2225 43.10         5.2 0.38                           121  95 
 HEL  HZ EP       2225 30.88                             109   -0.06 9  152 279 
 HEL  HZ I        2225 31.17         2.9 0.26                           152 279 
 HEL  HE ES       2225 48.38                             109   -0.58 9  152 279 
 CHI  HZ EP       2225 32.10                             108    0.45 9  157 162 
 CHI  HZ I        2225 32.73         2.0 0.26                           157 162 
 CHI  HE ES   1   2225 50.35                             108    0.12 7  157 162 
                                                                                
