 2010  724 2119 13.6 L   6.743 -73.229152.4  RSN  4 0.2 1.8LRSN                1
 GAP=148        0.66       5.8    12.4  9.5  0.5030E+02 -0.8074E+02 -0.3273E+02E
 Epicentro: VILLANUEVA - SANTANDER                                             3
 ACTION:UPD 10-12-01 15:19 OP:pat  STATUS:               ID:20100724211913 L   I
 2010-07-24-2115-22S.COL___123                                                 6
 STAT SP IPHASW D HRMM SECON CODA AMPLIT PERI AZIMU VELO AIN AR TRES W  DIS CAZ7
 BAR2 SZ EP       2119 33.59                             173    -0.410   18 163 
 BAR2 SZ I        2119 33.98        19.4 0.40                            18 163 
 BRR  HZ EP       2119 35.26                             155     0.010   67 307 
 BRR  HN ES       2119 52.23                             155     0.110   67 307 
 BRR  HZ I        2119 55.69        27.8 0.04                            67 307 
 RUS  HZ EP       2119 37.90                             147     0.210   95 170 
 RUS  HN ES       2119 56.50                             147     0.010   95 170 
 RUS  HZ I        2119 58.55         7.2 0.34                            95 170 
 GUE  SZ EP       2119 39.75                             139     0.110  125  16 
 GUE  SZ I        2119 49.00         3.4 0.23                           125  16 
                                                                                
