 2015 1024 2327 51.5 L   6.821 -73.127148.7  RSN  9 0.3 1.7LRSN                1
 GAP=138        0.76       2.3     3.5  4.8 -0.1387E+01  0.7596E+01 -0.4363E+00E
 Epicentro: LOS SANTOS - SANTANDER                                             3
 ACTION:UPD 15-12-22 20:42 OP:cam  STATUS:               ID:20151024232751 L   I
 OLDACT:REG 15-10-25 04:54 OP:ak   STATUS:               ID:20151024231748     3
 2015-10-24-2317-48M.COL___310                                                 6
 STAT SP IPHASW D HRMM SECON CODA AMPLIT PERI AZIMU VELO AIN AR TRES W  DIS CAZ7
 BAR2 EZ EP       2328 11.52                             170    0.0310 26.0 194 
 BAR2 EZ ES       2328 27.16                             170    0.0410 26.0 194 
 BAR2 EZ I        2328 28.40         7.3 0.13            168           26.0 194 
 PAM  EZ EP       2328 14.32                             152    0.5210 74.3  39 
 PAM  EN ES       2328 31.36                             152    0.1310 74.3  39 
 PAM  EZ I        2328 33.80         7.4 0.23            157           74.3  39 
 RUS  HZ EP       2328 15.54                             144   -0.1110  103 177 
 RUS  HN ES       2328 33.69                             144   -0.8310  103 177 
 RUS  HZ I        2328 35.65         3.7 0.40            145            103 177 
 SPBC HZ EP       2328 20.53                             129    0.06 9  166 219 
 SPBC HN ES       2328 43.27                             129    0.17 9  166 219 
 SPBC HZ I        2328 48.45        12.7 0.19            130            166 219 
 ZAR  HZ EP   1   2328 23.69                             123   -0.50 6  205 291 
 ZAR  HN ES       2328 49.67                             123   -0.06 9  205 291 
 ZAR  HZ I        2328 55.99         6.4 0.38            124            205 291 
 NOR  HZ EP       2328 27.76                             119    0.09 8  238 234 
 NOR  HE ES       2328 56.26                             119    0.33 8  238 234 
 NOR  HZ I        2328 59.27         5.1 0.32            120            238 234 
 SML  HZ EP       2328 27.93                             118   -0.18 8  242 335 
 SML  HN ES       2328 56.61                             118   -0.09 8  242 335 
 CHI  HZ EP       2328 29.52                             117   -0.09 8  251 195 
 CHI  HN ES       2328 59.80                             117    0.42 8  251 195 
 CHI  HZ I        2329  6.80         1.5 0.43            119            251 195 
 GUY2CHZ EP       2328 35.45                             112   -0.08 7  304 235 
 GUY2CHN ES       2329  9.93                             112    0.01 7  304 235 
 GUY2CHZ I        2329 18.45         5.6 0.76                           304 235 
                                                                                
