 2016  824 2020 31.9 L   6.813 -73.156143.7  RSN  8 0.3 1.8LRSN                1
 GAP=135        0.78       3.1     3.4  4.9 -0.1821E+01  0.6770E+01  0.9767E+00E
 Epicentro: LOS SANTOS - SANTANDER                                             3
 ACTION:UPD 16-10-29 15:39 OP:rebc STATUS:               ID:20160824202031 L   I
 OLDACT:REG 16-08-25 03:47 OP:lv   STATUS:               ID:20160824201739     3
 2016-08-24-2018-00M.COL___371                                                 6
 STAT SP IPHASW D HRMM SECON CODA AMPLIT PERI AZIMU VELO AIN AR TRES W  DIS CAZ7
 BAR2 EZ EP       2020 51.32                             170   -0.0210 24.5 187 
 BAR2 EZ ES       2021  6.32                             170   -0.1510 24.5 187 
 BAR2 EZ I        2021  7.80        12.9 0.21                          24.5 187 
 PAM  EZ EP       2020 54.06                             150    0.1510 77.1  41 
 PAM  EN ES       2021 11.32                             150    0.2710 77.1  41 
 PAM  EZ I        2021 13.48         7.5 0.29                          77.1  41 
 RUS  HZ EP       2020 55.32                             143   -0.2710  102 175 
 RUS  HN ES       2021 14.12                             143    0.0910  102 175 
 RUS  HZ I        2021 15.41         8.7 0.26                           102 175 
 PTB  HZ EP       2020 58.10                             132   -0.55 9  147 258 
 PTB  HN ES       2021 19.12                             132   -0.37 9  147 258 
 PTB  HZ I        2021 22.48         6.7 0.14                           147 258 
 SPBC HZ EP       2021  0.22                             128   -0.08 9  164 218 
 SPBC HN ES       2021 22.39                             128   -0.04 9  164 218 
 SPBC HZ I        2021 25.00        15.6 0.09                           164 218 
 ZAR  HZ EP       2021  3.67                             122   -0.41 9  202 292 
 ZAR  HN ES       2021 29.69                             122    0.55 9  202 292 
 ZAR  HZ I        2021 36.03         4.3 0.17                           202 292 
 GUY2CHZ EP       2021 15.74                             112    0.31 7  301 234 
 GUY2CHN ES       2021 49.91                             112    0.56 7  301 234 
 GUY2CHZ I        2021 57.83         3.6 0.33                           301 234 
 PRA  HZ EP       2021 25.72                             106    0.26 6  393 209 
 PRA  HE ES       2022  7.77                             106    0.57 6  393 209 
 PRA  HZ I        2022 13.87         4.6 0.52                           393 209 
                                                                                
