 2012  924 2015 19.5 L   6.751 -73.106145.2  RSN  7 0.3 2.0LRSN                1
 GAP=144        0.71       3.8     4.1  5.4 -0.1564E+01 -0.2550E+01  0.3582E+01E
 Epicentro: LOS SANTOS - SANTANDER                                             3
 ACTION:UPD 12-10-22 14:20 OP:ep   STATUS:               ID:20120924201519 L   I
 2012-09-24-2010-00M.COL___220                                                 6
 STAT SP IPHASW D HRMM SECON CODA AMPLIT PERI AZIMU VELO AIN AR TRES W  DIS CAZ7
 BAR2 SZ EP       2015 39.10                             172    0.0610 19.5 206 
 BAR2 SZ ES       2015 54.23                             172   -0.0210 19.5 206 
 BAR2 SZ I        2015 56.00        37.5 0.18                          19.5 206 
 GIR2 SZ EP       2015 39.39                             165    0.0510 37.5 345 
 BRR  HZ EP       2015 41.11                             150    0.0910 77.7 300 
 BRR  HZ I        2015 41.39        40.6 0.14                          77.7 300 
 BRR  HN ES       2015 58.30                             150    0.5410 77.7 300 
 PAM  SZ EP       2015 41.67                             150   -0.1310 79.0  35 
 PAM  SN ES   1   2015 58.66                             150   -0.50 7 79.0  35 
 PAM  SZ I        2016  1.80        10.5 0.68                          79.0  35 
 RUS  HZ EP       2015 43.04                             145    0.1910 95.0 178 
 RUS  HN ES   1   2016  0.97                             145   -0.05 7 95.0 178 
 RUS  HZ I        2016  3.08        10.0 0.33                          95.0 178 
 PTB  HE ES       2016  7.46                             131   -0.56 9  151 261 
 CHI  HZ EP   1   2015 56.74                             117   -0.04 6  245 197 
 CHI  HN ES   2   2016 25.98                             117    0.16 4  245 197 
 CHI  HZ I        2016 32.40         4.6 0.30                           245 197 
                                                                                
