 2011  624 2250 29.9 L   6.790 -73.125141.4  RSN 10 0.4 2.3LRSN                1
 GAP=116        0.93       5.2     6.5  6.4 -0.1759E+02  0.2828E+01  0.3952E+01E
 Epicentro: LOS SANTOS - SANTANDER                                             3
 ACTION:UP  11-07-14 19:07 OP:ep   STATUS:               ID:20110624225029 L   I
 2011-06-24-2249-22S.COL___140                                                 6
 STAT SP IPHASW D HRMM SECON CODA AMPLIT PERI AZIMU VELO SNR AR TRES W  DIS CAZ7
 BAR2 SZ EP       2250 48.96                             170    -0.110   23 196 
 BAR2 SZ ES   1   2251  3.65                             170    -0.3 7   23 196 
 BAR2 SZ I        2251  5.39        72.0 0.22                            23 196 
 GIR2 SZ EP   1   2250 49.07                             166    -0.1 7   33 347 
 GIR2 SZ ES   1   2251  4.14                             166     0.0 7   33 347 
 BRR  HZ EP       2250 50.83                             151     0.110   74 298 
 BRR  HN ES   1   2251  7.78                             151     0.8 7   74 298 
 BRR  HZ I        2251 11.02        49.6 0.14                            74 298 
 PAM  SZ EP       2250 51.90                             150     0.210   77  38 
 PAM  SN ES   1   2251  8.52                             150    -0.1 7   77  38 
 BRI  SZ EP   1   2250 53.58                             140     0.1 7  109  19 
 BRI  SZ ES   1   2251 11.80                             140     0.0 7  109  19 
 BRI  SZ I        2251 18.51        41.9 0.42                           109  19 
 GRA  SZ EP       2250 54.83                             136     0.010  126  16 
 GRA  SZ ES   1   2251 14.38                             136     0.1 7  126  16 
 GRA  SZ I        2251 16.17        35.3 0.47                           126  16 
 OCA  SZ EP   1   2250 57.70                             128    -0.3 7  162 352 
 OCA  SZ ES   1   2251 19.06                             128    -0.9 7  162 352 
 OCA  SZ I        2251 23.57        23.9 0.17                           162 352 
 YOP  SZ EP   2   2250 59.45                             126     0.0 4  177 154 
 YOP  SZ I        2251 24.29        18.4 0.64                           177 154 
 NOR  SZ EP   2   2251  5.30                             117    -0.3 4  236 235 
 NOR  SN ES   1   2251 32.49                             117    -0.8 6  236 235 
 HEL  HZ EP   1   2251 11.12                             114     1.0 6  274 256 
 HEL  HZ I        2251 48.79         6.3 0.50                           274 256 
                                                                                
