 2016  624 2003 55.4 L   6.787 -73.195149.6  RSN  8 0.4 1.6LRSN                1
 GAP=231        1.07       6.1     6.6  9.6  0.1670E+02 -0.3579E+01 -0.5827E+00E
 Epicentro: ZAPATOCA - SANTANDER                                               3
 ACTION:UPD 16-07-21 22:22 OP:rebc STATUS:               ID:20160624200356 L   I
 OLDACT:UP  16-06-25 03:47 OP:dani STATUS:               ID:20160624195746     3
 OLDACT:UP  16-06-25 03:46 OP:dani STATUS:               ID:20160624195746     3
 OLDACT:UP  16-06-25 03:38 OP:dani STATUS:               ID:20160624195746     3
 OLDACT:UP  16-06-25 03:38 OP:dani STATUS:               ID:20160624195746     3
 OLDACT:UP  16-06-25 03:38 OP:dani STATUS:               ID:20160624195746     3
 OLDACT:UP  16-06-25 03:38 OP:dani STATUS:               ID:20160624195746     3
 OLDACT:REG 16-06-25 02:59 OP:dani STATUS:               ID:20160624195746     3
 2016-06-24-1957-46M.COL___334                                                 6
 STAT SP IPHASW D HRMM SECON CODA AMPLIT PERI AZIMU VELO AIN AR TRES W  DIS CAZ7
 BAR2 EZ EP       20 4 15.21                             171   -0.2910 21.5 176 
 BAR2 EZ I        20 4 31.61         7.5 0.22                          21.5 176 
 BRR  HZ EP       20 4 17.18                             154    0.3910 67.3 302 
 BRR  HN ES       20 4 33.89                             154    0.4410 67.3 302 
 BRR  HZ I        20 4 38.69        12.4 0.27                          67.3 302 
 PAM  EZ I        20 5  8.12         4.0 0.14                          82.0  42 
 RUS  HZ EP       20 4 19.36                             145   -0.1410 99.6 173 
 RUS  HE ES       20 4 37.93                             145   -0.3410 99.6 173 
 RUS  HZ I        20 4 39.80         3.2 0.22                          99.6 173 
 PTB  HZ EP       20 4 21.98                             134   -0.25 9  142 259 
 PTB  HN ES       20 4 42.43                             134   -0.69 9  142 259 
 PTB  HZ I        20 4 45.56         4.1 0.22                           142 259 
 SPBC HZ EP       20 4 24.24                             131    0.42 9  159 218 
 SPBC HN ES       20 4 46.62                             131    0.67 9  159 218 
 SPBC HZ I        20 4 52.62         6.2 0.28                           159 218 
 ZAR  HZ EP   4   20 4 30.02                             124    2.33 0  200 293 
 ZAR  HN ES       20 4 52.64                             124   -0.20 9  200 293 
 ZAR  HZ I        20 4 59.79         4.2 0.12                           200 293 
 PRA  HZ EP   4   20 4 50.46                             107    1.82 0  388 209 
 PRA  HZ I        20 5 36.49         2.9 0.66                           388 209 
                                                                                
