 2013 1024 2056 13.6 L   6.508 -73.875 98.0  RSN 16 0.5 2.4LRSN                1
 GAP= 48        1.01       2.3     2.6  5.7 -0.1728E+01  0.2154E+01  0.1047E+01E
 Epicentro: PUERTO PARRA - SANTANDER                                           3
 ACTION:UPD 13-11-25 09:23 OP:ep   STATUS:               ID:20131024205613 L   I
 OLDACT:UP  13-10-24 23:32 OP:mh   STATUS:               ID:20131024204847     3
 OLDACT:UP  13-10-24 23:01 OP:mh   STATUS:               ID:20131024204847     3
 OLDACT:UP  13-10-24 23:01 OP:mh   STATUS:               ID:20131024204847     3
 OLDACT:REG 13-10-24 22:27 OP:mh   STATUS:               ID:20131024204847     3
 2013-10-24-2048-47M.COL___236                                                 6
 STAT SP IPHASW D HRMM SECON CODA AMPLIT PERI AZIMU VELO AIN AR TRES W  DIS CAZ7
 PTB  HZ IP     C 2056 29.21                             145   -0.2010 64.4 273 
 PTB  HN ES   1   2056 41.41                             145   -0.30 7 64.4 273 
 PTB  HZ I        2056 43.61        78.7 0.10            146           64.4 273 
 BRR  HZ EP   1   2056 29.88                             143    0.18 7 68.6  15 
 BRR  HN ES       2056 43.12                             143    0.9010 68.6  15 
 BRR  HZ I        2056 44.49       102.8 0.10            144           68.6  15 
 BAR2 SZ EP   1   2056 30.76                             140    0.06 7 77.2  83 
 BAR2 SZ ES   1   2056 43.50                             140   -0.50 7 77.2  83 
 BAR2 SZ I        2056 45.63       141.5 0.21            140           77.2  83 
 SPBC HZ EP       2056 32.67                             132    0.4510 97.1 193 
 SPBC HN ES       2056 47.26                             132    0.5410 97.1 193 
 SPBC HZ I        2056 50.12        98.3 0.19            133           97.1 193 
 RUS  HZ EP       2056 33.81                             129   -0.2610  111 128 
 RUS  HN ES   1   2056 49.57                             129   -0.43 7  111 128 
 RUS  HZ I        2056 51.94        25.5 0.10            129            111 128 
 NOR  HZ EP   1   2056 37.73                             119    0.03 7  152 227 
 NOR  HN ES       2056 56.19                             119   -0.27 9  152 227 
 NOR  HZ I        2056 58.58        47.3 0.25            119            152 227 
 ZAR  HZ EP   1   2056 37.91                             119    0.05 7  154 315 
 ZAR  HN ES       2056 56.54                             119   -0.20 9  154 315 
 ZAR  HZ I        2057  0.50        38.3 0.12            119            154 315 
 PAM  SZ EP   1   2056 38.75                             118   -0.31 7  159  55 
 PAM  SN ES       2056 58.43                             118   -0.46 9  159  55 
 PAM  SZ I        2057  4.09        30.7 0.26            118            159  55 
 HEL  HZ EP       2056 42.44                             114    0.51 9  186 259 
 HEL  HN ES       2057  3.93                             114   -0.07 9  186 259 
 HEL  HZ I        2057  6.99        24.0 0.20            114            186 259 
 OCA  HZ EP       2056 42.90                             112   -0.43 9  201  18 
 OCA  HN ES   1   2057  6.80                             112    0.31 6  201  18 
 OCA  HZ I        2057 11.06        28.5 0.28            112            201  18 
 CHI  HZ EP       2056 44.72                             111    0.21 8  208 176 
 CHI  HN ES   2   2057  9.56                             111    0.98 4  208 176 
 CHI  HZ E      C 2057 15.21                                            208 176 
 CHI  HZ I        2057 15.22         9.6 0.35            111            208 176 
 GUY2CHZ EP       2056 45.89                             110    0.23 8  218 229 
 GUY2CHE ES   1   2057  9.73                             110   -0.91 6  218 229 
 GUY2CHZ I        2057 16.74        16.4 0.27                           218 229 
 RREF HZ EP       2056 48.94                             108    0.33 8  241 223 
 RREF HN ES       2057 14.92                             108   -0.96 8  241 223 
 RREF HZ I        2057 23.00        14.5 0.17            107            241 223 
 SML  HZ EP   1   2056 48.61                             107   -0.76 6  254 355 
 SML  HN ES   1   2057 17.64                             107    0.40 6  254 355 
 SML  HZ I        2057 18.61        39.3 0.11            106            254 355 
 VIL  SN ES   4   2057 21.22                             106    1.30 0  266 176 
 TOL  SZ EP   1   2056 51.67                             106    0.49 6  266 217 
 VIL  SZ EP   1   2056 51.14                             106    0.26 6  266 176 
                                                                                
