 2012 1224 2333 33.4 L   6.727 -73.191151.5  RSN  4 0.1 1.5LRSN                1
 GAP=226        0.33       2.7     2.9  3.7  0.4638E+01  0.1742E+01 -0.1099E+01E
 Epicentro: VILLANUEVA - SANTANDER                                             3
 ACTION:UPD 13-01-04 14:30 OP:ep   STATUS:               ID:20121224233333 L   I
 2012-12-24-2330-00M.COL___242                                                 6
 STAT SP IPHASW D HRMM SECON CODA AMPLIT PERI AZIMU VELO AIN AR TRES W  DIS CAZ7
 BRR  HZ EP       2333 55.28                             153    0.0710 71.2 306 
 BRR  HN ES       2334 12.21                             153    0.0110 71.2 306 
 BRR  HN I        2334 14.21         8.2 0.16                          71.2 306 
 RUS  HN ES       2334 15.77                             147   -0.0510 93.1 173 
 RUS  HN I        2334 19.23         2.7 0.40                          93.1 173 
 PTB  HZ EP       2334  0.31                             135   -0.01 9  141 262 
 PTB  HN ES       2334 21.38                             135    0.08 9  141 262 
 PTB  HN I        2334 22.64         5.6 0.24                           141 262 
 ZAR  HE ES       2334 31.50                             124   -0.11 9  203 295 
                                                                                
