 2013  424 2229 42.3 L   6.800 -73.143139.0  RSN 16 0.6 3.0LRSN 3.4WRSN        1
 SPEC AVERAGE  MO 14.1 ST  8.3 OM  2.3 f0 3.40 R0.5600 AL 2.18 WI 29.9 MW  3.4 3
 SPEC SD       MO  0.3 ST 11.3 OM  0.5 f00.761 R0.1154 AL      WI      MW  0.2 3
 GAP= 71        1.37       3.7     4.2  6.3 -0.3339E+01  0.8489E+01  0.2202E+01E
 Epicentro: LOS SANTOS - SANTANDER                                             3
 SPEC PRA HH N MO 13.8 ST0.951 OM  1.5 f0 2.76 R0.6594 AL 2.11 WI 24.5 MW  3.1 3
 SPEC PRA HH N T223115 K 0.050 GD  415 VS 5.20 DE 3.20 Q0750.0 QA 1.50 VS 5.20 3
 SPEC ROSCBH Z MO 14.0 ST  1.1 OM  1.9 f0 2.43 R0.7490 AL 2.18 WI 35.4 MW  3.3 3
 SPEC ROSCBH Z T223045 K 0.050 GD  288 VS 5.20 DE 3.20 Q0750.0 QA 1.50 VS 5.20 3
 SPEC PTB HH N MO 14.2 ST  4.3 OM  2.2 f0 3.38 R0.5385 AL 1.30 WI 33.6 MW  3.4 3
 SPEC PTB HH N T223027 K 0.050 GD  203 VS 5.20 DE 3.20 Q0750.0 QA 1.50 VS 5.20 3
 SPEC RUS HH N MO 13.7 ST  2.1 OM  1.8 f0 3.84 R0.4740 AL 2.30 WI 17.8 MW  3.1 3
 SPEC RUS HH N T223022 K 0.050 GD  171 VS 5.20 DE 3.20 Q0750.0 QA 1.50 VS 5.20 3
 SPEC PAM SH N MO 14.1 ST  2.7 OM  2.2 f0 3.16 R0.5759 AL 2.27 WI 25.1 MW  3.3 3
 SPEC PAM SH N T223020 K 0.050 GD  158 VS 5.20 DE 3.20 Q0750.0 QA 1.50 VS 5.20 3
 SPEC HEL HH N MO 13.9 ST  1.2 OM  1.7 f0 2.82 R0.6454 AL 1.83 WI 38.7 MW  3.2 3
 SPEC HEL HH N T223052 K 0.050 GD  305 VS 5.20 DE 3.20 Q0750.0 QA 1.50 VS 5.20 3
 SPEC OCA HH N MO 14.7 ST 20.8 OM  2.7 f0 3.85 R0.4727 AL 2.38 WI 33.9 MW  3.7 3
 SPEC OCA HH N T223029 K 0.050 GD  211 VS 5.20 DE 3.20 Q0750.0 QA 1.50 VS 5.20 3
 SPEC BRR HH N MO 14.6 ST 33.3 OM  2.7 f0 4.98 R0.3655 AL 3.04 WI 30.4 MW  3.7 3
 SPEC BRR HH N T223018 K 0.050 GD  156 VS 5.20 DE 3.20 Q0750.0 QA 1.50 VS 5.20 3
 ACTION:UPD 13-05-22 14:40 OP:EP   STATUS:               ID:20130424222942 L   I
 2013-04-24-2228-36M.COL___218                                                 6
 STAT SP IPHASW D HRMM SECON CODA AMPLIT PERI AZIMU VELO AIN AR TRES W  DIS CAZ7
 BAR2 SZ EP       2230  1.17                             170    0.0610 23.4 191 
 BAR2 SZ ES       2230 15.98                             170    0.1810 23.4 191 
 BAR2 SZ I        2230 17.17       126.3 0.18            168           23.4 191 
 GIR2 SZ EP       2230  1.35                             167    0.1810 31.3 350 
 GIR2 SZ ES       2230 15.92                             167    0.0310 31.3 350 
 BRR  HZ EP       2230  3.04                             151    0.3110 71.4 298 
 BRR  HN ES       2230 19.73                             151    1.0610 71.4 298 
 BRR  HN I        2230 20.25       450.1 0.22            150           71.4 298 
 PAM  SZ IP     C 2230  4.11                             150    0.3310 77.2  39 
 PAM  SN ES       2230 20.85                             150    0.3110 77.2  39 
 PAM  SN I        2230 22.33       179.4 0.38            153           77.2  39 
 RUS  HZ IP     D 2230  5.15                             143   -0.2410  101 176 
 RUS  HN ES       2230 22.77                             143   -0.6310  101 176 
 PTB  HZ EP       2230  8.01                             130   -0.74 9  148 259 
 PTB  HN ES       2230 28.53                             130   -0.85 9  148 259 
 PTB  HN I        2230 34.36       198.0 0.28            130            148 259 
 CAPV BZ IP     C 2230  9.47                             130    0.34 9  149  38 
 TAM  HN ES       2230 29.98                             129   -0.59 9  155 105 
 OCA  HN ES       2230 31.76                             128   -0.01 9  160 353 
 OCA  HN I        2230 35.39       404.3 0.20            129            160 353 
 NOR  HZ EP       2230 17.29                             117   -0.38 8  235 234 
 NOR  HE ES       2230 44.64                             117   -0.62 8  235 234 
 NOR  HN I        2230 49.82        96.9 0.16            117            235 234 
 SML  HZ EP       2230 17.58                             116   -0.98 8  244 335 
 SML  HN ES       2230 45.95                             116   -0.90 8  244 335 
 ROSC BN ES       2230 50.38                             115    0.84 8  253 211 
 ROSC BZ I        2230 57.47        70.8 0.40            116            253 211 
 HEL  HZ EP       2230 23.55                             113    1.35 8  272 256 
 HEL  HN ES       2230 53.13                             113   -0.20 8  272 256 
 HEL  HN I        2230 59.11        30.3 0.36            114            272 256 
 GUY  HZ EP       2230 26.62                             111    0.73 7  304 235 
 GUY  HN ES       2231  0.16                             111    0.26 7  304 235 
 GUY  HN I        2231  4.81        24.1 0.46            111            304 235 
 DBB  SZ EP       2230 29.91                             108    0.37 7  340 274 
 PRA  HZ EP       2230 35.68                             105    0.07 6  392 210 
 PRA  HE ES       2231 17.18                             105   -0.01 6  392 210 
 PRA  HN I        2231 22.42        27.2 0.38            106            392 210 
                                                                                
