 2011  924 2017 45.7 L   6.775 -73.116139.3  RSN  5 0.1 1.6LRSN                1
 GAP=142        0.30       3.0     3.0  4.0  0.2844E+01 -0.5036E+00  0.4178E+00E
 Epicentro: LOS SANTOS - SANTANDER                                             3
 ACTION:UPD 12-07-13 15:59 OP:ep   STATUS:               ID:20110924201745 L   I
 2011-09-24-2013-09S.COL___165                                                 6
 STAT SP IPHASW D HRMM SECON CODA AMPLIT PERI AZIMU VELO AIN AR TRES W  DIS CAZ7
 BAR2 SZ ES   2   2018 19.05                             171   -0.15 5 21.6 200 
 BAR2 SZ I        2018 21.48        13.0 0.37                          21.6 200 
 BRR  HZ EP   1   2018  6.31                             150   -0.10 7 75.4 299 
 BRR  HZ I        2018  6.66        12.9 0.11                          75.4 299 
 BRR  HN ES       2018 22.64                             150    0.0810 75.4 299 
 PAM  SZ EP   2   2018  7.36                             150    0.12 5 77.5  36 
 PAM  SN ES   2   2018 23.98                             150   -0.06 5 77.5  36 
 RUS  HZ EP   2   2018  8.72                             143    0.10 5 97.7 178 
 RUS  HN ES   2   2018 26.49                             143    0.01 5 97.7 178 
 RUS  HZ I        2018 28.38         3.1 0.47                          97.7 178 
 ZAR  HN ES   2   2018 43.36                             120   -0.13 4  208 292 
 ZAR  HZ I        2018 49.25         5.0 0.37                           208 292 
                                                                                
