 2011 1124 2220 56.0 L   6.873 -73.333115.7  RSN  9 0.4 2.0LRSN                1
 GAP= 98        0.76       3.2     3.5  5.9 -0.1326E+01  0.9426E+01  0.1240E+01E
 Epicentro: BETULIA - SANTANDER                                                3
 ACTION:UPD 12-07-13 16:12 OP:ep   STATUS:               ID:20111124222056 L   I
 2011-11-24-2219-52S.COL___178                                                 6
 STAT SP IPHASW D HRMM SECON CODA AMPLIT PERI AZIMU VELO AIN AR TRES W  DIS CAZ7
 BAR2 SZ IP       2221 12.74                             162    0.3010 35.2 152 
 BAR2 SZ I        2221 12.99        80.2 0.12                          35.2 152 
 BAR2 SZ ES   1   2221 24.76                             162   -0.48 7 35.2 152 
 BRR  HZ EP   1   2221 12.67                             155   -0.05 7 49.2 302 
 BRR  HZ I        2221 12.92        46.5 0.12                          49.2 302 
 BRR  HN ES   1   2221 26.01                             155    0.29 7 49.2 302 
 PAM  SZ EP   1   2221 16.42                             141    0.55 7 87.0  54 
 PAM  SN ES   1   2221 31.62                             141    0.28 7 87.0  54 
 PAM  SZ I        2221 34.76        10.3 0.18                          87.0  54 
 RUS  HZ EP   1   2221 17.73                             133   -0.22 7  112 166 
 RUS  HN ES   1   2221 34.77                             133   -0.27 7  112 166 
 RUS  HZ I        2221 36.16         9.6 0.17                           112 166 
 OCA  SZ EP   1   2221 20.72                             123   -0.54 7  151   1 
 OCA  SZ ES   2   2221 40.28                             123   -0.66 5  151   1 
 OCA  SZ I        2221 48.00        18.5 0.29                           151   1 
 ZAR  HZ EP   1   2221 24.50                             118    0.21 7  182 292 
 ZAR  HN ES   1   2221 46.26                             118   -0.07 7  182 292 
 ZAR  HZ I        2221 48.68         9.8 0.11                           182 292 
 NOR  SZ EP   1   2221 28.60                             112   -0.32 6  223 230 
 NOR  SN ES   1   2221 53.98                             112   -0.60 6  223 230 
 HEL  HZ EP   1   2221 32.46                             109   -0.39 6  254 253 
 HEL  HN ES   1   2222  1.81                             109    0.25 6  254 253 
 HEL  HZ I        2222  5.42        15.4 0.33                           254 253 
 RREF HZ EP   1   2221 40.35                             105    0.46 5  312 226 
 RREF HN ES   1   2222 15.04                             105    0.94 5  312 226 
 RREF HZ I        2222 19.61         5.1 0.25                           312 226 
                                                                                
