 2012 1024 2152 48.4 L   6.773 -73.119148.9  RSN  9 0.3 2.1LRSN                1
 GAP= 74        0.57       3.5     3.1  4.6 -0.4455E+00  0.2359E+01  0.2317E+01E
 Epicentro: LOS SANTOS - SANTANDER                                             3
 ACTION:UPD 12-11-22 17:05 OP:ep   STATUS:               ID:20121024215248 L   I
 2012-10-24-2150-00M.COL___234                                                 6
 STAT SP IPHASW D HRMM SECON CODA AMPLIT PERI AZIMU VELO AIN AR TRES W  DIS CAZ7
 BAR2 SZ EP   1   2153  7.96                             171   -0.39 7 21.2 199 
 BAR2 SZ I        2153  8.74        16.1 0.11                          21.2 199 
 BAR2 SZ ES   1   2153 23.65                             171   -0.27 7 21.2 199 
 GIR2 SZ EP   1   2153  8.67                             166    0.15 7 34.8 346 
 BRR  HZ EP   1   2153 10.10                             152    0.00 7 75.3 299 
 BRR  HN ES   1   2153 27.59                             152    0.55 7 75.3 299 
 PAM  SZ EP   1   2153 10.96                             151    0.00 7 77.9  36 
 PAM  SZ I        2153 11.28        30.1 0.24                          77.9  36 
 PAM  SN ES   1   2153 28.22                             151   -0.35 7 77.9  36 
 PAM  SN I        2153 29.58        27.0 0.25                          77.9  36 
 RUS  HZ EP   1   2153 12.30                             145    0.08 7 97.4 178 
 RUS  HE ES   1   2153 31.14                             145    0.32 7 97.4 178 
 RUS  HE I        2153 32.05        19.2 0.20                          97.4 178 
 TAM  HZ EP   1   2153 16.22                             132    0.24 7  151 104 
 TAM  HZ I        2153 16.43        12.4 0.12                           151 104 
 ZAR  HN ES   1   2153 47.14                             123   -0.07 6  208 293 
 NOR  HZ EP   1   2153 24.09                             119   -0.28 6  235 235 
 NOR  HN ES   1   2153 52.15                             119   -0.30 6  235 235 
 NOR  HZ I        2153 56.40         8.7 0.20                           235 235 
 HEL  HZ EP   1   2153 29.23                             115    0.23 6  274 257 
                                                                                
