 2017  424 2246 45.4 L   6.813 -73.152148.2  RSN 18 0.4 2.3LRSN                1
 GAP=111        0.89       2.8     2.8  4.4 -0.3974E+00  0.2457E+01  0.3316E+01E
 Epicentro: LOS SANTOS - SANTANDER                                             3
 ACTION:UPD 17-05-30 21:15 OP:jn   STATUS:               ID:20170424224645 L   I
 OLDACT:REG 17-04-25 03:13 OP:lv   STATUS:               ID:20170424223743     3
 2017-04-24-2238-00M.COL___374                                                 6
 STAT SP IPHASW D HRMM SECON CODA AMPLIT PERI AZIMU VELO AIN AR TRES W  DIS CAZ7
 BAR2 EZ EP       2247  5.09                             170   -0.2410 24.6 188 
 BAR2 EZ ES       2247 20.62                             170   -0.2710 24.6 188 
 BAR2 EZ I        2247 21.55        31.0 0.13            166           24.6 188 
 BRR  HZ EP       2247  7.07                             153    0.3410 69.9 298 
 BRR  HN ES       2247 24.18                             153    0.8110 69.9 298 
 BRR  HZ I        2247 26.01        28.6 0.05            150           69.9 298 
 PAM  EZ EP       2247  8.11                             151    0.2910 76.7  41 
 PAM  EN ES       2247 25.21                             151   -0.1110 76.7  41 
 PAM  EZ I        2247 27.69        50.6 0.46            152           76.7  41 
 PTB  HZ EP       2247 11.71                             133   -0.81 9  147 258 
 PTB  HN ES       2247 33.05                             133   -0.63 9  147 258 
 PTB  HZ I        2247 38.78        16.7 0.09            128            147 258 
 SPBC HZ EP       2247 14.18                             129    0.04 9  164 218 
 SPBC HN ES       2247 36.28                             129   -0.28 9  164 218 
 SPBC HZ I        2247 38.97        31.3 0.09            125            164 218 
 YPLC HZ EP       2247 15.25                             127   -0.26 9  178 151 
 YPLC HN ES       2247 38.95                             127   -0.06 9  178 151 
 YPLC HZ I        2247 40.59        30.1 0.20            124            178 151 
 ZAR  HZ EP       2247 17.87                             123   -0.00 9  203 292 
 ZAR  HN ES       2247 42.82                             123   -0.39 9  203 292 
 ZAR  HZ I        2247 48.93        16.8 0.30            120            203 292 
 TABC EZ EP   4   2247 22.71                             120    1.34 0  231 210 
 TABC EZ ES       2247 49.98                             120    0.54 8  231 210 
 TABC EZ I        2247 56.06        13.7 0.33            116            231 210 
 NOR  HZ EP       2247 21.60                             119    0.31 8  235 234 
 NOR  HN ES       2247 49.88                             119    0.59 8  235 234 
 NOR  HZ I        2247 54.04        12.7 0.28            116            235 234 
 CHI  HZ EP       2247 23.49                             117    0.14 8  250 195 
 CHI  HE ES       2247 53.11                             117    0.15 8  250 195 
 CHI  HZ I        2247 56.28        13.0 0.16            114            250 195 
 ROSC BZ EP   9   2247 25.59                             117    1.86 0  254 211 
 ROSC BN ES       2247 55.77                                    0.27 8  254 211 
 ROSC BZ I        2247 59.12         7.7 0.26            114            254 211 
 HEL  HZ EP   4   2247 28.30                             115    2.61 0  272 255 
 HEL  HN ES       2247 57.25                             115    0.13 8  272 255 
 HEL  HZ I        2248  3.41         9.1 0.25            112            272 255 
 PTGC HZ EP   4   2247 28.45                             112   -1.08 0  310 159 
 PTGC HN ES   4   2248  0.11                             112   -3.85 0  310 159 
 ELA  HZ EP   4   2247 34.86                             111    2.47 0  330 229 
 ELA  HN ES   4   2248  7.46                             111   -1.59 0  330 229 
 ELA  HZ I        2248 19.75         7.2 0.44            108            330 229 
 DBB  EZ EP       2247 32.85                             110   -0.02 7  339 274 
 DBB  EN ES   4   2248  8.45                             110   -1.46 0  339 274 
 DBB  EZ I        2248 10.08         4.8 0.17            107            339 274 
 ANIL HZ EP   9   2247 37.10                             109    1.75 0  358 224 
 ANIL HN ES       2248 15.58                                   -0.49 6  358 224 
 ANIL HZ I        2248 19.81        17.9 0.24            106            358 224 
 PRA  HZ EP       2247 39.31                             107    0.21 6  393 209 
 PRA  HN ES       2248 20.59                             107   -0.40 6  393 209 
 PRA  HZ I        2248 25.37         6.7 0.27            105            393 209 
 ORTC HZ EP       2247 39.57                             107    0.09 6  396 216 
 ORTC HZ I        2248 26.67         8.5 0.46            104            396 216 
 PAL  HZ EP       2247 40.72                             106    0.07 6  406 239 
 PAL  HN ES       2248 23.65                             106   -0.10 6  406 239 
                                                                                
