 2017  624 2054 47.6 L   6.780 -73.148146.3  RSN 10 0.6 2.1LRSN                1
 GAP=137        0.97       6.0     4.4  6.5  0.3444E+01 -0.2768E+00  0.1028E+02E
 Epicentro: LOS SANTOS - SANTANDER                                             3
 ACTION:UPD 17-09-14 16:55 OP:jn   STATUS:               ID:20170624205447 L   I
 OLDACT:UP  17-06-25 03:30 OP:dani STATUS:               ID:20170624204740     3
 OLDACT:UP  17-06-25 03:29 OP:dani STATUS:               ID:20170624204740     3
 OLDACT:UP  17-06-25 03:29 OP:dani STATUS:               ID:20170624204740     3
 OLDACT:UP  17-06-25 03:28 OP:dani STATUS:               ID:20170624204740     3
 OLDACT:REG 17-06-25 03:00 OP:dani STATUS:               ID:20170624204740     3
 2017-06-24-2048-00M.COL___349                                                 6
 STAT SP IPHASW D HRMM SECON CODA AMPLIT PERI AZIMU VELO AIN AR TRES W  DIS CAZ7
 BAR2 EZ EP       2055  6.91                             172   -0.3010 21.1 190 
 BAR2 EZ ES       2055 22.21                             172   -0.3310 21.1 190 
 BAR2 EZ I        2055 24.63        32.3 0.26            151           21.1 190 
 BRR  HZ EP       2055  8.75                             152   -0.0710 72.1 300 
 BRR  HE ES       2055 26.36                             152    0.9610 72.1 300 
 BRR  HZ I        2055 29.86        19.5 0.16            145           72.1 300 
 PTB  HZ EP   3   2055 13.38                             132   -1.13 2  147 260 
 PTB  HN ES       2055 34.91                             132   -0.62 9  147 260 
 PTB  HZ I        2055 36.06        10.1 0.44            117            147 260 
 TAM  HZ EP       2055 15.20                             131   -0.05 9  155 104 
 ZAR  HZ EP       2055 20.23                             122    0.12 9  205 293 
 ZAR  HE ES       2055 45.26                             122   -0.23 9  205 293 
 ZAR  HZ I        2055 51.29        10.6 0.32            112            205 293 
 TABC EZ EP   3   2055 24.56                             120    1.44 2  228 211 
 TABC EZ I        2056  0.91        12.4 0.70            106            228 211 
 NOR  HZ EP       2055 23.51                             119    0.35 8  233 235 
 NOR  HE ES       2055 50.86                             119   -0.07 8  233 235 
 NOR  HZ I        2055 56.58        13.4 0.38            107            233 235 
 CHI  HZ EP       2055 25.37                             117    0.32 8  246 195 
 CHI  HN ES   3   2055 53.89                             117   -0.39 2  246 195 
 CHI  HZ I        2056  3.45         4.9 0.29            105            246 195 
 ROSC BZ EP   3   2055 27.21                             117    1.72 2  251 211 
 ROSC BZ I        2056  2.97        16.6 0.40            105            251 211 
 SJC  HZ EP   3   2055 41.48                             106   -1.87 1  411 327 
 SJC  HN ES   4   2056 22.59                             106   -4.27 0  411 327 
 SJC  HZ I        2056 30.64         2.7 0.49            100            411 327 
                                                                                
