 2012  724 2326 44.1 L   6.729 -73.202153.7  RSN  4 0.2 1.6LRSN                1
 GAP=225        0.66       5.9     5.4  6.8  0.1447E+02  0.1003E+01 -0.6739E+01E
 Epicentro: VILLANUEVA - SANTANDER                                             3
 ACTION:UPD 12-08-14 11:45 OP:ep   STATUS:               ID:20120724232644 L   I
 2012-07-24-2320-00M.COL___215                                                 6
 STAT SP IPHASW D HRMM SECON CODA AMPLIT PERI AZIMU VELO AIN AR TRES W  DIS CAZ7
 BAR2 SZ EP   1   2327  4.22                             174    -0.4 7   15 172 
 BAR2 SZ ES   1   2327 20.21                             174    -0.3 7   15 172 
 BAR2 SZ I        2327 21.03        11.0 0.11            168             15 172 
 BRR  HZ EP       2327  6.15                             154     0.110   70 307 
 BRR  HZ I        2327  6.40        20.8 0.12            151             70 307 
 BRR  HE ES   1   2327 23.58                             154     0.4 7   70 307 
 RUS  HZ EP   1   2327  8.51                             147     0.3 7   93 172 
 RUS  HN ES       2327 27.03                             147     0.110   93 172 
 RUS  HZ I        2327 28.12         3.0 0.43            145             93 172 
 PTB  HZ EP   1   2327 10.95                             135    -0.2 7  140 261 
 PTB  HN ES       2327 32.08                             135    -0.1 9  140 261 
 PTB  HZ I        2327 38.08         3.9 0.23            132            140 261 
