 2014  524 2253 43.8 L   6.780 -73.153146.9  RSN  6 0.5 1.5LRSN                1
 GAP=200        1.33       5.8     8.0 10.6  0.1449E+02  0.8588E+01 -0.3694E+01E
 Epicentro: LOS SANTOS - SANTANDER                                             3
 ACTION:UPD 15-03-16 17:00 OP:nd   STATUS:               ID:20140524225343 L   I
 OLDACT:REG 14-05-25 04:59 OP:carl STATUS:               ID:20140524224820     3
 2014-05-24-2248-20M.COL___211                                                 6
 STAT SP IPHASW D HRMM SECON CODA AMPLIT PERI AZIMU VELO AIN AR TRES W  DIS CAZ7
 BRR  HZ EP       2254  5.49                             153    0.3510 71.6 300 
 BRR  HN ES       2254 22.12                             153    0.3710 71.6 300 
 RUS  HZ EP       2254  7.44                             145   -0.1110 98.5 176 
 RUS  HN ES       2254 26.11                             145    0.0610 98.5 176 
 RUS  HZ I        2254 28.16         3.1 0.28            146           98.5 176 
 PTB  HZ EP       2254  9.96                             133   -0.84 9  147 260 
 PTB  HN ES       2254 30.84                             133   -0.98 9  147 260 
 PTB  HZ I        2254 36.76         5.5 0.24            131            147 260 
 ZAR  HZ EP       2254 17.07                             123    0.70 9  204 293 
 ZAR  HN ES       2254 42.28                             123    0.53 9  204 293 
 ZAR  HZ I        2254 51.02         4.5 0.32            123            204 293 
 NOR  HZ EP       2254 19.60                             119    0.17 8  233 235 
 NOR  HN ES       2254 47.68                             119    0.48 8  233 235 
 NOR  HZ I        2254 51.65         2.7 0.36            119            233 235 
 SML  HN ES       2254 48.84                             117   -0.63 8  245 336 
                                                                                
