 2017  824 2355  1.3 L   7.474 -73.172130.3  RSN 16 0.5 2.5LRSN                1
 GAP=145        1.01       4.4     4.0  5.8  0.3109E+01  0.6851E+01  0.5392E+01E
 Epicentro: EL PLAYON - SANTANDER                                              3
 ACTION:UPD 17-09-04 20:24 OP:rebc STATUS:               ID:20170824235501 L   I
 OLDACT:UP  17-08-25 04:26 OP:dnl  STATUS:               ID:20170824234744     3
 OLDACT:UP  17-08-25 04:25 OP:dnl  STATUS:               ID:20170824234744     3
 OLDACT:UP  17-08-25 04:24 OP:dnl  STATUS:               ID:20170824234744     3
 OLDACT:REG 17-08-25 03:37 OP:dnl  STATUS:               ID:20170824234744     3
 2017-08-24-2348-00M.COL___411                                                 6
 STAT SP IPHASW D HRMM SECON CODA AMPLIT PERI AZIMU VELO AIN AR TRES W  DIS CAZ7
 PAM  EZ EP       2355 21.06                             156    0.5010 54.2 106 
 PAM  EN ES       2355 36.16                             156    0.5810 54.2 106 
 PAM  EZ I        2355 37.54        91.4 0.44            156           54.2 106 
 BRR  HZ IP     C 2355 20.85                             149    0.0010 72.1 236 
 BRR  HN ES       2355 35.92                             149   -0.1810 72.1 236 
 BRR  HZ I        2355 40.10        48.5 0.28            142           72.1 236 
 BAR2 EZ EP       2355 22.67                             141   -0.2910 97.5 181 
 BAR2 EZ ES       2355 38.92                             141   -0.9410 97.5 181 
 BAR2 EZ I        2355 40.88        80.6 0.24            135           97.5 181 
 RUS  HZ EP       2355 30.02                             123   -0.36 9  175 177 
 RUS  HE ES   4   2355 52.05                             123   -1.03 0  175 177 
 ZAR  HZ EP       2355 30.98                             121    0.09 9  186 271 
 ZAR  HN ES       2355 54.30                             121    0.33 9  186 271 
 ZAR  HZ I        2355 58.79        40.1 0.36            116            186 271 
 SPBC HZ EP   2   2355 35.34                             116    0.22 4  225 206 
 SPBC HE ES       2356  2.07                             116    0.56 8  225 206 
 SPBC HZ I        2356  7.64        25.0 0.14            111            225 206 
 YPLC HZ EP       2355 37.39                             114   -0.05 8  246 159 
 YPLC HN ES       2356  5.37                             114   -0.26 8  246 159 
 YPLC HZ I        2356  8.82        29.4 0.34            110            246 159 
 URE  HZ EP   4   2355 40.93                             112    1.72 0  262 277 
 URE  HN ES   4   2356  6.46                             112   -2.33 0  262 277 
 URE  HZ I        2356 11.24        23.1 0.18            108            262 277 
 NOR  HZ EP       2355 41.48                             110   -0.09 7  283 222 
 NOR  HN ES       2356 12.71                             110   -0.27 7  283 222 
 NOR  HZ I        2356 18.66        20.2 0.16            106            283 222 
 HEL  HZ EP   4   2355 44.93                             109    1.36 0  297 242 
 HEL  HN ES   4   2356 15.49                             109   -1.06 0  297 242 
 HEL  HZ I        2356 24.47        17.1 0.44            105            297 242 
 CHI  HZ EP   2   2355 46.88                             108    0.49 3  321 191 
 CHI  HN ES       2356 22.51                             108    0.94 7  321 191 
 CHI  HZ I        2356 30.26         5.6 0.38            104            321 191 
 DBB  EZ EP       2355 47.79                             106   -0.37 7  339 262 
 DBB  EN ES   4   2356 22.31                             106   -2.41 0  339 262 
 DBB  EZ I        2356 24.87        12.5 0.24            103            339 262 
 GUY2CHZ EP   4   2355 51.23                             106    1.62 0  347 224 
 GUY2CHN ES   4   2356 26.44                             106   -0.86 0  347 224 
 GUY2CHZ I        2356 38.62        13.7 0.42                           347 224 
 SJC  HZ EP   2   2355 48.81                             106   -0.27 3  347 321 
 SJC  HN ES   4   2356 23.36                             106   -2.99 0  347 321 
 SJC  HZ I        2356 29.28         4.2 0.42            103            347 321 
 ANIL HE ES   4   2356 43.81                             103    3.34 0  412 217 
 PAL  HZ EP       2356  0.09                             102   -0.73 5  446 231 
 PAL  HZ I        2356 54.06         4.6 0.56             98            446 231 
 PRA  HZ EP   4   2356  0.49                             101   -1.58 0  457 205 
 PRA  HE ES       2356 50.07                             101    0.59 5  457 205 
 PRA  HZ I        2357  0.56         7.7 0.56             98            457 205 
                                                                                
