 2014  924 2246 54.9 L   6.814 -73.132146.4  RSN 11 0.4 2.1LRSN                1
 GAP=138        1.06       3.1     4.5  5.8  0.1887E+00  0.6087E+01  0.9864E+00E
 Epicentro: LOS SANTOS - SANTANDER                                             3
 ACTION:UPD 14-10-03 23:08 OP:nd   STATUS:               ID:20140924224654 L   I
 OLDACT:REG 14-09-25 08:04 OP:carl STATUS:               ID:20140924223818     3
 2014-09-24-2238-18M.COL___281                                                 6
 STAT SP IPHASW D HRMM SECON CODA AMPLIT PERI AZIMU VELO AIN AR TRES W  DIS CAZ7
 BAR2 SZ IP       2247 14.81                             170    0.2010 25.1 193 
 BAR2 SZ ES       2247 29.81                             170   -0.2010 25.1 193 
 BAR2 SZ I        2247 31.18        39.1 0.16            170           25.1 193 
 BRR  HZ IP       2247 16.57                             152    0.4510 71.8 297 
 BRR  HN ES       2247 33.49                             152    0.7910 71.8 297 
 BRR  HZ I        2247 36.97        26.4 0.16            151           71.8 297 
 PAM  SZ EP       2247 17.06                             152    0.0310 75.2  39 
 PAM  SN ES       2247 34.53                             152    0.2310 75.2  39 
 PAM  SZ I        2247 36.64        20.0 0.46            153           75.2  39 
 RUS  HZ EP       2247 18.86                             144    0.0710  102 177 
 RUS  HE ES       2247 36.52                             144   -0.9210  102 177 
 RUS  HZ I        2247 38.51         8.6 0.44            145            102 177 
 PTB  HZ EP       2247 21.59                             132   -0.46 9  150 258 
 PTB  HE ES       2247 43.20                             132   -0.05 9  150 258 
 PTB  HZ I        2247 44.64        14.1 0.36            131            150 258 
 SPBC HN ES       2247 45.72                             129   -0.33 9  165 219 
 ZAR  HZ EP       2247 27.25                             122   -0.20 9  205 292 
 ZAR  HN ES       2247 52.82                             122   -0.03 9  205 292 
 ZAR  HZ I        2247 58.50        18.5 0.60            122            205 292 
 SML  HZ EP       2247 30.94                             118   -0.51 8  243 335 
 SML  HN ES       2247 59.53                             118   -0.45 8  243 335 
 SML  HZ I        2248  7.04        15.5 0.10            118            243 335 
 CHI  HZ EP       2247 33.33                             117    0.52 8  251 195 
 CHI  HN ES       2248  3.06                             117    0.66 8  251 195 
 CHI  HZ I        2248  7.59         4.6 0.34            118            251 195 
 GUY2CHZ EP   4   2247 40.47                             112    1.72 0  303 235 
 GUY2CHN ES   4   2248 14.71                             112    1.73 0  303 235 
 GUY2CHZ I        2248 22.74         6.0 0.64                           303 235 
 MON  HZ EP   4   2247 41.84                             109   -2.09 0  354 308 
 MON  HN ES   4   2248 19.79                             109   -2.40 0  354 308 
 PRA  HZ EP       2247 48.83                             106    0.17 6  394 210 
 PRA  HN ES       2248 30.78                             106    0.17 6  394 210 
 PRA  HZ I        2248 34.96         5.5 0.26            107            394 210 
                                                                                
