 2014 1224 2042 54.7 L   6.721 -73.153141.6  RSN 11 0.4 1.7LRSN                1
 GAP=139        1.01       3.2     3.9  5.6 -0.1937E+01  0.5603E+01  0.2364E+01E
 Epicentro: VILLANUEVA - SANTANDER                                             3
 ACTION:UPD 15-02-10 17:06 OP:nd   STATUS:               ID:20141224204254 L   I
 OLDACT:REG 14-12-25 02:49 OP:fm   STATUS:               ID:20141224203749     3
 2014-12-24-2037-49M.COL___295                                                 6
 STAT SP IPHASW D HRMM SECON CODA AMPLIT PERI AZIMU VELO AIN AR TRES W  DIS CAZ7
 BAR2 EZ EP       2043 13.75                             174    0.0510 14.6 193 
 BAR2 EZ ES       2043 28.48                             174   -0.0310 14.6 193 
 BAR2 EZ I        2043 30.19        12.0 0.20            171           14.6 193 
 BRR  HZ EP       2043 16.19                             150    0.5410 75.1 305 
 BRR  HN ES       2043 32.63                             150    0.6610 75.1 305 
 BRR  HZ I        2043 33.76        10.5 0.44            150           75.1 305 
 PAM  SZ EP       2043 17.08                             148    0.1210 84.8  36 
 PAM  SN ES       2043 34.01                             148   -0.3010 84.8  36 
 PAM  SZ I        2043 36.50         6.0 0.36            151           84.8  36 
 RUS  HZ EP       2043 17.71                             145    0.2610 91.9 175 
 RUS  HE ES       2043 35.27                             145    0.1010 91.9 175 
 RUS  HZ I        2043 37.69         4.1 0.34            146           91.9 175 
 PTB  HZ EP       2043 20.74                             132   -0.41 9  145 262 
 PTB  HN ES       2043 41.01                             132   -0.74 9  145 262 
 PTB  HZ I        2043 42.75         5.9 0.12            131            145 262 
 SPBC HZ EP       2043 22.04                             129   -0.18 9  156 221 
 SPBC HN ES       2043 43.31                             129   -0.35 9  156 221 
 SPBC HZ I        2043 47.08         6.9 0.14            129            156 221 
 OCA  HZ EP   1   2043 22.60                             127   -0.94 7  169 354 
 ZAR  HZ EP       2043 27.72                             121    0.54 8  207 294 
 ZAR  HE ES       2043 52.25                             121   -0.25 8  207 294 
 ZAR  HZ I        2043 58.69         7.6 0.32            122            207 294 
 NOR  HZ EP       2043 30.11                             118    0.51 8  229 236 
 NOR  HE ES       2043 57.05                             118    0.24 8  229 236 
 NOR  HZ I        2044  2.95         4.9 0.30            119            229 236 
 CHI  HZ EP       2043 30.73                             117   -0.52 8  240 196 
 CHI  HE ES       2043 59.79                             117    0.05 8  240 196 
 CHI  HZ I        2044  5.10         1.2 0.46            118            240 196 
 TOL  SN ES       2044 19.11                             109    0.18 7  337 226 
 TOL  SZ I        2044 26.64         4.0 0.42            109            337 226 
                                                                                
