 2010  524 2046 28.9 L   6.763 -73.050147.5  RSN 11 0.5 2.5LRSN                1
 GAP=149        0.93       5.4     8.2  8.0 -0.2956E+02  0.1148E+02  0.5874E+01E
 Epicentro: LOS SANTOS - SANTANDER                                             3
 ACTION:UP  10-08-24 10:06 OP:vdl  STATUS:               ID:20100524204628 L   I
 2010-05-24-2044-54S.COL___108                                                 6
 STAT SP IPHASW D HRMM SECON CODA AMPLIT PERI AZIMU VELO SNR AR TRES W  DIS CAZ7
 BAR2 SZ EP       2046 48.92                             170     0.210   24 218 
 BAR2 SZ ES   2   2047  4.16                             170    -0.1 5   24 218 
 GUE  SZ EP       2046 53.90                             139     0.010  119   7 
 GUE  SZ ES   1   2047 13.53                             139     0.0 7  119   7 
 GRA  SZ EP       2046 54.70                             137     0.310  127  12 
 GRA  SZ ES   1   2047 14.10                             137    -0.2 7  127  12 
 OCA  SZ EP       2046 57.69                             129    -0.2 9  166 350 
 OCA  SZ I        2047 25.21        33.3 0.44                           166 350 
 CHI  HZ EP   2   2047  6.45                             118    -0.1 4  248 198 
 CHI  HE ES   2   2047 35.52                             118    -0.5 4  248 198 
 ROSC BE ES   2   2047 36.14                             117    -1.2 4  255 214 
 ROSC BZ I        2047 46.68        24.7 0.48                           255 214 
 HEL  HZ EP       2047 10.52                             114     0.3 7  281 257 
 HEL  HZ I        2047 47.79        12.7 0.30                           281 257 
 RREF BZ EP       2047 16.88                             111     1.1 7  327 231 
 RREF BE ES   2   2047 52.36                             111     0.1 3  327 231 
 RREF BZ I        2047 57.41        17.5 0.25                           327 231 
 DBB  SZ EP       2047 16.75                             109    -0.9 6  350 275 
 SDV  BZ EP       2047 18.30                             109    -0.1 6  355  49 
 SDV  BZ I        2047 19.39         8.3 0.35                           355  49 
 SDV  BN ES   2   2047 56.04                             109    -0.9 3  355  49 
 PRA  HZ EP       2047 22.47                             107    -0.2 6  394 211 
 PRA  HN ES   2   2048  4.51                             107    -0.1 3  394 211 
 PRA  HZ I        2048 10.71        16.3 0.72                           394 211 
                                                                                
