 2010 1124 2351 39.2 L   6.722 -73.177152.9  RSN  4 0.3 1.6LRSN                1
 GAP=156        0.57       4.7    10.1 10.3  0.7664E+00 -0.3068E+02 -0.4057E+01E
 Epicentro: VILLANUEVA - SANTANDER                                             3
 ACTION:UP  10-12-17 16:54 OP:REBC STATUS:               ID:20101124235139 L   I
 2010-11-24-2348-11S.COL___132                                                 6
 STAT SP IPHASW D HRMM SECON CODA AMPLIT PERI AZIMU VELO SNR AR TRES W  DIS CAZ7
 BAR2 SZ EP   1   2351 59.18                             174    -0.3 7   14 183 
 BRR  HZ EP   1   2352  1.10                             153    -0.1 7   73 306 
 BRR  HE ES   2   2352 18.52                             153     0.2 5   73 306 
 BRR  HZ I        2352 20.78        11.0 0.20                            73 306 
 RUS  HZ EP   1   2352  3.05                             148     0.0 7   92 174 
 RUS  HZ I        2352  4.20         2.5 0.35                            92 174 
 RUS  HN ES   2   2352 22.00                             148     0.3 5   92 174 
 GRA  SZ EP   1   2352  6.21                             136     0.4 7  135  18 
 GRA  SZ ES   2   2352 26.35                             136    -0.3 5  135  18 
 GRA  SZ I        2352 27.26         6.7 0.28                           135  18 
                                                                                
