 2016  824 2306 33.8 L   6.763 -73.109145.3  RSN 13 0.4 2.1LRSN                1
 GAP=124        0.94       2.8     3.2  5.5 -0.1132E+00  0.2140E+01  0.4824E+01E
 Epicentro: LOS SANTOS - SANTANDER                                             3
 ACTION:UPD 16-10-29 15:39 OP:rebc STATUS:               ID:20160824230633 L   I
 OLDACT:REG 16-08-25 03:57 OP:lv   STATUS:               ID:20160824224956     3
 2016-08-24-2258-00M.COL___374                                                 6
 STAT SP IPHASW D HRMM SECON CODA AMPLIT PERI AZIMU VELO AIN AR TRES W  DIS CAZ7
 BRR  HZ EP       23 6 55.38                             151    0.1210 76.8 300 
 BRR  HE ES       23 7 12.24                             151    0.2710 76.8 300 
 BRR  HZ I        23 7 17.36        35.0 0.05                          76.8 300 
 PAM  EZ EP       23 6 56.32                             150    0.2710 78.1  35 
 PAM  EN ES       23 7 13.46                             150    0.0910 78.1  35 
 RUS  HN EP       23 6 57.59                             145    0.3510 96.3 178 
 RUS  HE ES       23 7 15.55                             145    0.0610 96.3 178 
 RUS  HN I        23 7 18.27        14.0 0.24                          96.3 178 
 PTB  HZ EP       23 7  0.23                             131   -0.84 9  151 261 
 PTB  HN ES       23 7 21.86                             131   -0.45 9  151 261 
 PTB  HZ I        23 7 24.20        12.2 0.18                           151 261 
 SPBC HZ EP       23 7  2.46                             129    0.21 9  163 221 
 SPBC HN ES       23 7 24.06                             129   -0.35 9  163 221 
 SPBC HZ I        23 7 30.99        14.7 0.10                           163 221 
 OCA  HE ES       23 7 24.74                             129   -0.19 9  165 352 
 OCA  HZ I        23 7 28.37        33.4 0.16                           165 352 
 ZAR  HZ EP       23 7  6.88                             122    0.08 8  209 293 
 ZAR  HN ES       23 7 32.16                             122   -0.36 8  209 293 
 ZAR  HZ I        23 7 37.96         9.8 0.17                           209 293 
 NOR  HZ EP       23 7  9.99                             118    0.34 8  236 236 
 NOR  HE ES       23 7 38.03                             118    0.45 8  236 236 
 NOR  HZ I        23 7 39.72         8.4 0.12                           236 236 
 HEL  HZ EP       23 7 14.81                             114    0.45 8  275 257 
 HEL  HN ES       23 7 45.90                             114   -0.07 8  275 257 
 HEL  HZ I        23 7 52.99         5.1 0.48                           275 257 
 GUY2CHZ EP   9   23 7 20.50                             112    2.96 0  302 236 
 GUY2CHN ES       23 7 54.62                                    0.03 7  302 236 
 GUY2CHZ I        23 8  0.35         4.2 0.26                           302 236 
 PTGC HZ EP       23 7 16.56                             112   -0.51 7  303 159 
 PTGC HE ES       23 7 50.15                             112   -0.64 7  303 159 
 PRA  HZ EP       23 7 27.22                             106    0.06 6  391 210 
 PRA  HN ES       23 8  9.45                             106    0.69 6  391 210 
 PRA  HZ I        23 8 16.13         5.2 0.40                           391 210 
 SJC  HZ EP   9   23 7 27.74                             105   -2.31 0  415 327 
 SJC  HE ES       23 8 10.29                                   -1.29 6  415 327 
 SJC  HZ I        23 8 12.87         2.9 0.36                           415 327 
                                                                                
