 2015  824 2047  5.4 L   6.819 -73.135145.7  RSN 18 0.4 2.9LRSN                1
 GAP= 71        0.97       2.3     3.0  4.6 -0.7957E+00  0.3865E+01  0.1567E+01E
 Epicentro: LOS SANTOS - SANTANDER                                             3
 ACTION:UPD 15-09-15 23:04 OP:cam  STATUS:               ID:20150824204705 L   I
 OLDACT:UP  15-08-25 05:39 OP:ar   STATUS:               ID:20150824203750     3
 OLDACT:REG 15-08-25 04:07 OP:ar   STATUS:               ID:20150824203750     3
 2015-08-24-2037-50M.COL___337                                                 6
 STAT SP IPHASW D HRMM SECON CODA AMPLIT PERI AZIMU VELO AIN AR TRES W  DIS CAZ7
 BAR2 EZ IP       2047 24.67                             170   -0.3810 25.6 192 
 BAR2 EZ ES       2047 40.45                             170    0.0610 25.6 192 
 BAR2 EZ I        2047 42.02       139.1 0.22            169           25.6 192 
 BRR  HZ IP     C 2047 26.47                             152   -0.0510 71.3 297 
 BRR  HN ES       2047 43.62                             152    0.6010 71.3 297 
 BRR  HZ I        2047 47.54       155.4 0.12            150           71.3 297 
 PAM  EZ EP       2047 27.53                             151    0.0910 75.0  40 
 PAM  EN ES       2047 44.85                             151    0.2010 75.0  40 
 PAM  EZ I        2047 47.12        61.0 0.40            154           75.0  40 
 RUS  HZ EP       2047 28.64                             143   -0.6210  103 177 
 RUS  HN ES       2047 47.61                             143   -0.2910  103 177 
 RUS  HZ I        2047 49.15        59.0 0.32            146            103 177 
 TAM  HZ EP       2047 33.16                             131    0.17 9  154 106 
 TAM  HN ES       2047 54.65                             131    0.13 9  154 106 
 OCA  HZ EP       2047 33.64                             130    0.14 9  158 353 
 OCA  HN ES       2047 55.39                             130   -0.05 9  158 353 
 OCA  HZ I        2047 59.76       115.3 0.32            131            158 353 
 SPBC HZ EP       2047 33.59                             129   -0.51 9  166 219 
 SPBC HE ES       2047 56.20                             129   -0.30 9  166 219 
 SPBC HZ I        2047 59.81       102.1 0.24            130            166 219 
 ZAR  HZ EP       2047 38.28                             122    0.42 9  204 291 
 ZAR  HN ES       2048  2.65                             122   -0.54 9  204 291 
 NOR  HZ EP       2047 40.78                             118   -0.56 8  237 234 
 NOR  HE ES       2048  9.17                             118   -0.22 8  237 234 
 NOR  HZ I        2048 12.16        35.8 0.16            119            237 234 
 SML  HZ EP       2047 41.39                             117   -0.46 8  242 335 
 SML  HN ES   2   2048  9.77                             117   -0.53 4  242 335 
 SML  HZ I        2048 18.58        77.0 0.24            119            242 335 
 CHI  HZ EP       2047 42.99                             117   -0.33 8  251 195 
 CHI  HN ES       2048 12.61                             117   -0.31 8  251 195 
 CHI  HZ I        2048 14.61        59.1 0.32            119            251 195 
 ROSC BZ EP       2047 44.52                             116    0.76 8  255 211 
 ROSC BN ES       2048 13.85                             116    0.16 8  255 211 
 ROSC BZ I        2048 20.74        85.7 0.40            118            255 211 
 HEL  HZ EP       2047 46.62                             114    0.85 8  274 255 
 HEL  HE ES   2   2048 18.20                             114    0.92 4  274 255 
 HEL  HZ I        2048 24.24        38.4 0.30            115            274 255 
 GUY2CHZ EP       2047 49.75                             112    0.52 7  303 235 
 GUY2CHE ES   4   2048 25.36                             112    1.92 0  303 235 
 GUY2CHZ I        2048 32.48        40.7 0.26                           303 235 
 VIL  SE ES       2048 23.93                             112    0.82 7  306 192 
 DBB  SZ ES   4   2048 28.02                             109   -2.08 0  341 274 
 DBB  SZ I        2048 29.52        76.6 0.62            110            341 274 
 TOL  SZ EP       2047 54.37                             109    0.47 6  346 225 
 TOL  SN ES       2048 31.84                             109    0.09 6  346 225 
 TOL  SZ I        2048 39.92        28.6 0.26            110            346 225 
 CRJC HZ EP   4   2048  4.82                             103   -2.80 0  465   3 
 CRJC HE ES   4   2048 52.92                             103   -3.25 0  465   3 
 CRJC HZ I        2048 57.06        15.3 0.50            105            465   3 
                                                                                
