 2014  524 2032 20.3 L   6.472 -73.698 96.0  RSN  5 0.4 1.7LRSN                1
 GAP=218        0.92       5.8     3.5  8.1  0.3568E+01  0.5389E+01  0.7947E+00E
 Epicentro: SANTA HELENA DEL OPON - SANTANDER                                  3
 ACTION:UPD 15-03-16 17:00 OP:nd   STATUS:               ID:20140524203220 L   I
 OLDACT:REG 14-05-25 05:06 OP:carl STATUS:               ID:20140524202948     3
 2014-05-24-2029-48M.COL___319                                                 6
 STAT SP IPHASW D HRMM SECON CODA AMPLIT PERI AZIMU VELO AIN AR TRES W  DIS CAZ7
 PTB  HZ EP       2032 37.42                             136   -0.0710 84.2 275 
 PTB  HN ES       2032 50.99                             136    0.1210 84.2 275 
 PTB  HZ I        2032 52.50        19.0 0.36            138           84.2 275 
 RUS  HZ EP       2032 38.92                             133   -0.0310 93.4 133 
 RUS  HE ES       2032 53.61                             133    0.1410 93.4 133 
 RUS  HZ I        2032 54.97         6.1 0.20            135           93.4 133 
 SPBC HZ EP       2032 38.33                             131   -0.6510 99.7 205 
 SPBC HN ES       2032 53.78                             131    0.2510 99.7 205 
 SPBC HZ I        2032 56.53        13.2 0.20            131           99.7 205 
 NOR  HZ EP       2032 45.60                             116   -0.02 9  164 232 
 NOR  HN ES       2033  4.86                             116   -0.49 9  164 232 
 NOR  HZ I        2033  8.44         7.2 0.18            117            164 232 
 GUY2CHZ EP       2032 54.52                             109    0.76 8  230 233 
 GUY2CHN ES       2033 20.09                             109    0.25 8  230 233 
 GUY2CHZ I        2033 26.97         4.3 0.70                           230 233 
                                                                                
