 2017  524 2031 31.1 L   6.827 -73.128144.9  RSN  7 0.3 2.2LRSN                1
 GAP=246        0.82       5.3     5.4  7.9  0.1485E+02 -0.4733E+01 -0.7501E+01E
 Epicentro: LOS SANTOS - SANTANDER                                             3
 ACTION:UPD 17-06-16 13:38 OP:jn   STATUS:               ID:20170524203131 L   I
 OLDACT:UP  17-05-25 06:25 OP:cog  STATUS:               ID:20170524202733     3
 OLDACT:REG 17-05-25 05:52 OP:cog  STATUS:               ID:20170524202733     3
 2017-05-24-2028-00M.COL___350                                                 6
 STAT SP IPHASW D HRMM SECON CODA AMPLIT PERI AZIMU VELO AIN AR TRES W  DIS CAZ7
 RUS  HZ EP       2031 54.82                             143   -0.1110  103 177 
 RUS  HN ES       2032 13.85                             143    0.3010  103 177 
 RUS  HZ I        2032 16.38        12.1 0.18            137            103 177 
 PTB  HZ EP       2031 57.88                             131   -0.30 9  150 258 
 PTB  HN ES       2032 18.77                             131   -0.57 9  150 258 
 PTB  HZ I        2032 22.16        14.7 0.44            127            150 258 
 SPBC HZ EP       2031 59.89                             128    0.07 9  167 219 
 SPBC HN ES       2032 22.34                             128    0.08 9  167 219 
 SPBC HZ I        2032 24.53        39.1 0.32            123            167 219 
 ZAR  HZ EP   4   2032  3.62                             122    0.10 0  205 291 
 ZAR  HN ES       2032 29.08                             122    0.24 9  205 291 
 NOR  HZ EP       2032  7.57                             118    0.48 8  238 234 
 NOR  HN ES       2032 35.69                             118    0.49 8  238 234 
 NOR  HZ I        2032 42.28        12.7 0.18            115            238 234 
 CHI  HZ EP       2032  9.00                             117   -0.07 8  252 195 
 CHI  HN ES       2032 38.21                             117   -0.52 8  252 195 
 CHI  HZ I        2032 41.58         8.6 0.52            114            252 195 
 ROSC BN ES   4   2032 42.34                             116    2.83 0  256 211 
 ROSC BZ I        2032 49.37        19.8 0.50            113            256 211 
                                                                                
