 2016  624 2329 26.8 L   6.846 -73.120148.0  RSN  8 0.4 1.8LRSN                1
 GAP=244        1.23       6.6     7.9  8.8  0.2172E+02 -0.5870E+01 -0.3129E+01E
 Epicentro: LOS SANTOS - SANTANDER                                             3
 ACTION:UPD 16-07-21 22:22 OP:rebc STATUS:               ID:20160624232926 L   I
 OLDACT:UP  16-06-25 04:54 OP:dani STATUS:               ID:20160624232748     3
 OLDACT:UP  16-06-25 04:53 OP:dani STATUS:               ID:20160624232748     3
 OLDACT:UP  16-06-25 04:53 OP:dani STATUS:               ID:20160624232748     3
 OLDACT:UP  16-06-25 04:52 OP:dani STATUS:               ID:20160624232748     3
 OLDACT:UP  16-06-25 04:51 OP:dani STATUS:               ID:20160624232748     3
 OLDACT:REG 16-06-25 03:32 OP:dani STATUS:               ID:20160624232748     3
 2016-06-24-2327-48M.COL___334                                                 6
 STAT SP IPHASW D HRMM SECON CODA AMPLIT PERI AZIMU VELO AIN AR TRES W  DIS CAZ7
 BRR  HZ EP       2329 48.90                             153    0.6710 71.5 294 
 BRR  HE ES       2330  5.17                             153    0.2410 71.5 294 
 BRR  HZ I        2330 14.22         9.5 0.38                          71.5 294 
 RUS  HZ EP       2329 51.36                             143    0.2110  106 178 
 RUS  HN ES       2330  9.82                             143   -0.3010  106 178 
 RUS  HZ I        2330 12.26         4.5 0.46                           106 178 
 PTB  HZ EP       2329 53.87                             132   -0.45 9  152 257 
 PTB  HN ES       2330 14.98                             132   -0.79 9  152 257 
 PTB  HZ I        2330 18.47         5.7 0.12                           152 257 
 SPBC HZ EP       2329 55.70                             129   -0.33 9  169 219 
 SPBC HE ES       2330 19.34                             129    0.52 9  169 219 
 SPBC HZ I        2330 25.11        10.0 0.16                           169 219 
 ZAR  HZ EP       2329 59.50                             123    0.01 9  205 291 
 ZAR  HE ES       2330 24.99                             123    0.01 9  205 291 
 ZAR  HZ I        2330 30.56         7.3 0.46                           205 291 
 NOR  HZ EP       2330  3.17                             119   -0.07 8  240 234 
 NOR  HN ES   4   2330 30.14                             119   -1.52 0  240 234 
 NOR  HZ I        2330 38.24         4.4 0.32                           240 234 
 GUY2CHZ EP   9   2330 14.21                             113    3.08 0  306 234 
 GUY2CHE ES       2330 50.20                             111    1.43 7  306 234 
 GUY2CHZ I        2330 54.01         2.9 0.44                           306 234 
 PTGC HZ EP   4   2330  9.88                             112   -1.32 0  312 159 
 PRA  HZ EP       2330 21.45                             107    0.35 6  398 210 
 PRA  HE ES   4   2331  5.88                             107    2.45 0  398 210 
 PRA  HZ I        2331  8.86         2.6 0.56                           398 210 
                                                                                
