 2011  424 2255 24.8 L   6.443 -73.693 96.8  RSN  4 0.2 1.3LRSN                1
 GAP=130        0.46       4.1     4.0 10.0  0.5174E+01  0.2312E+02  0.1525E+02E
 Epicentro: SANTA HELENA DEL OPON - SANTANDER                                  3
 ACTION:UP  11-06-22 15:33 OP:REBC STATUS:               ID:20110424225524 L   I
 2011-04-24-2253-00S.COL___134                                                 6
 STAT SP IPHASW D HRMM SECON CODA AMPLIT PERI AZIMU VELO SNR AR TRES W  DIS CAZ7
 BTL  SZ EP   1   2255 41.45                             141     0.2 7   71  42 
 BRR  HZ EP   1   2255 40.83                             140    -0.3 7   73 358 
 BRR  HZ I        2255 41.15         5.4 0.09                            73 358 
 BRR  HN ES   2   2255 53.87                             140     0.0 5   73 358 
 RUS  HZ EP   1   2255 43.10                             134    -0.1 7   91 132 
 RUS  HZ I        2255 43.72         3.4 0.08                            91 132 
 RUS  HN ES   2   2255 57.72                             134     0.1 5   91 132 
 HEL  HZ EP   1   2255 55.33                             111     0.2 6  205 262 
 HEL  HE ES   2   2256 18.76                             111    -0.1 4  205 262 
 HEL  HZ I        2256 23.18         2.8 0.44                           205 262 
                                                                                
