 2014  924 2022 10.9 L   6.806 -73.152143.9  RSN 13 0.5 2.4LRSN                1
 GAP= 71        1.22       3.1     3.7  6.0  0.3581E+00  0.4805E+01  0.2064E+01E
 Epicentro: LOS SANTOS - SANTANDER                                             3
 ACTION:UPD 14-10-03 23:08 OP:nd   STATUS:               ID:20140924202210 L   I
 OLDACT:DUP 14-09-25 08:14 OP:carl STATUS:               ID:20140924201819d    3
 2014-09-24-2018-18M.COL___284                                                 6
 STAT SP IPHASW D HRMM SECON CODA AMPLIT PERI AZIMU VELO AIN AR TRES W  DIS CAZ7
 BAR2 SZ EP       2022 30.41                             170    0.1110 23.9 188 
 BAR2 SZ ES       2022 45.07                             170   -0.3710 23.9 188 
 BAR2 SZ I        2022 46.32        85.0 0.18            170           23.9 188 
 BRR  HZ EP       2022 32.66                             152    0.8810 70.3 298 
 BRR  HN ES       2022 49.10                             152    1.0310 70.3 298 
 BRR  HZ I        2022 53.50        39.2 0.10            151           70.3 298 
 PAM  SZ IP     C 2022 33.21                             150    0.3110 77.3  40 
 PAM  SN ES       2022 50.19                             150    0.1210 77.3  40 
 PAM  SZ I        2022 52.45        61.1 0.58            153           77.3  40 
 RUS  HZ EP       2022 34.54                             143    0.0410  101 176 
 RUS  HN ES       2022 52.64                             143   -0.2910  101 176 
 RUS  HZ I        2022 53.97        27.1 0.22            145            101 176 
 PTB  HZ EP       2022 37.24                             132   -0.41 9  147 259 
 PTB  HN ES       2022 57.67                             132   -0.85 9  147 259 
 PTB  HZ I        2023  0.85        26.7 0.58            132            147 259 
 TAM  HZ EP       2022 38.77                             130    0.28 9  156 105 
 TAM  HE ES       2022 59.97                             130   -0.06 9  156 105 
 OCA  HZ EP       2022 38.27                             129   -0.71 9  160 353 
 OCA  HN ES       2023  0.30                             129   -0.59 9  160 353 
 OCA  HZ I        2023  3.56        38.1 0.40            130            160 353 
 ZAR  HZ EP       2022 43.57                             122    0.46 9  203 292 
 ZAR  HN ES       2023  8.79                             122    0.54 9  203 292 
 ZAR  HZ I        2023 14.43        32.8 0.32            123            203 292 
 SML  HZ EP       2022 47.21                             117   -0.09 8  243 335 
 SML  HE ES       2023 14.89                             117   -0.82 8  243 335 
 SML  HZ I        2023 22.61        25.1 0.10            118            243 335 
 CHI  HZ EP       2022 48.55                             117    0.02 8  249 195 
 CHI  HN ES       2023 17.61                             117   -0.28 8  249 195 
 CHI  HZ I        2023 24.62         5.0 0.26            118            249 195 
 GUY2CHZ EP       2022 54.62                             112    0.24 7  301 235 
 GUY2CHN ES       2023 28.55                             112    0.24 7  301 235 
 GUY2CHZ I        2023 37.95         6.8 0.62                           301 235 
 MON  HZ EP   4   2022 58.17                             108   -1.53 0  353 308 
 MON  HN ES   4   2023 33.79                             108   -3.98 0  353 308 
 MON  HZ I        2023 37.40         8.0 0.20            109            353 308 
 PRA  HZ EP       2023  4.61                             106    0.24 6  392 209 
 PRA  HN ES       2023 45.63                             106   -0.45 6  392 209 
 PRA  HZ I        2023 52.28         8.2 0.24            107            392 209 
                                                                                
