 2011  924 2031  0.5 L   6.771 -73.146151.2  RSN  7 0.3 2.0LRSN                1
 GAP=138        0.45       3.9     4.1  6.1 -0.4759E+00  0.2111E+01  0.1076E+01E
 Epicentro: LOS SANTOS - SANTANDER                                             3
 ACTION:UPD 12-07-13 15:59 OP:ep   STATUS:               ID:20110924203100 L   I
 2011-09-24-2025-37S.COL___165                                                 6
 STAT SP IPHASW D HRMM SECON CODA AMPLIT PERI AZIMU VELO AIN AR TRES W  DIS CAZ7
 BAR2 SZ EP   1   2031 20.57                             172   -0.16 7 20.1 191 
 BAR2 SZ ES   2   2031 36.43                             172   -0.08 5 20.1 191 
 BAR2 SZ I        2031 38.54        18.1 0.48                          20.1 191 
 BTL  SZ EP   2   2031 20.98                             172    0.23 5 21.1 321 
 BRR  HZ EP   1   2031 22.57                             153    0.24 7 72.7 301 
 BRR  HZ I        2031 22.82        23.5 0.30                          72.7 301 
 BRR  HN ES   2   2031 39.84                             153    0.49 5 72.7 301 
 PAM  SZ EP   1   2031 23.49                             151    0.04 7 80.0  38 
 PAM  SN ES   2   2031 40.87                             151   -0.48 5 80.0  38 
 RUS  HZ EP   1   2031 24.57                             146    0.00 7 97.3 176 
 RUS  HN ES   2   2031 43.48                             146    0.14 5 97.3 176 
 ZAR  HN ES   2   2031 58.63                             123   -0.48 4  205 293 
 ZAR  HZ I        2032  5.80         8.9 0.38                           205 293 
 NOR  SN ES   2   2032  3.97                             120   -0.34 4  233 235 
                                                                                
