 2012  524 2050 39.6 L   6.468 -73.598105.5  RSN  4 0.2 1.7LRSN                1
 GAP=137        0.47       5.3     3.5  6.2  0.9020E+01  0.1089E+02  0.5585E+01E
 Epicentro: SANTA HELENA DEL OPON - SANTANDER                                  3
 ACTION:UP  12-07-05 12:07 OP:pat  STATUS:               ID:20120524205039 L   I
 2012-05-24-2050-00M.COL___200                                                 6
 STAT SP IPHASW D HRMM SECON CODA AMPLIT PERI AZIMU VELO SNR AR TRES W  DIS CAZ7
 BAR2 SZ EP       2050 55.58                             153     0.110   48  73 
 BAR2 SZ ES   1   2051  7.73                             153    -0.1 7   48  73 
 BAR2 SZ I        2051  9.32        41.8 0.38                            48  73 
 RUS  HZ EP       2050 58.46                             138     0.110   85 138 
 RUS  HE ES   2   2051 13.20                             138     0.2 5   85 138 
 PTB  HZ EP       2050 58.35                             134    -0.210   95 275 
 PTB  HZ I        2050 58.46         6.0 0.24                            95 275 
 PTB  HN ES   2   2051 13.34                             134     0.0 5   95 275 
 ZAR  HZ EP   1   2051  7.10                             115     0.0 7  179 309 
 ZAR  HN ES   3   2051 29.57                             115     1.1 2  179 309 
 ZAR  HZ I        2051 33.44         4.2 0.28                           179 309 
                                                                                
