 2014  324 2103 23.1 L   6.724 -73.142145.0  RSN  5 0.3 1.4LRSN                1
 GAP=140        0.58       4.3     4.4  9.4  0.1426E+01  0.1241E+02  0.4911E+01E
 Epicentro: JORDAN - SANTANDER                                                 3
 OLDACT:REG 14-03-24 21:31 OP:fm   STATUS:               ID:20140324205818     3
 ACTION:UPD 14-04-09 23:20 OP:nd   STATUS:               ID:20140324210323 L   I
 OLDACT:UP  14-03-25 00:09 OP:fm   STATUS:               ID:20140324205818     3
 2014-03-24-2058-18M.COL___252                                                 6
 STAT SP IPHASW D HRMM SECON CODA AMPLIT PERI AZIMU VELO AIN AR TRES W  DIS CAZ7
 BRR  HZ EP   1   21 3 44.52                             151    0.07 7 75.9 304 
 BRR  HN ES   2   21 4  1.89                             151    0.79 5 75.9 304 
 BRR  HZ I        21 4  7.12         7.8 4.54            148           75.9 304 
 PAM  SN ES   1   21 4  2.96                             148   -0.25 7 83.7  36 
 RUS  HZ EP   1   21 3 46.45                             146    0.25 7 92.2 176 
 RUS  HZ I        21 4  2.76         3.0 1.34            133           92.2 176 
 RUS  HN ES   1   21 4  4.11                             146   -0.10 7 92.2 176 
 PTB  HN ES   1   21 4 10.57                             132   -0.28 7  147 262 
 ZAR  HE ES   2   21 4 21.23                             121   -0.23 4  208 294 
                                                                                
