 2012 1224 2211 27.0 L   6.330 -73.613110.1  RSN 15 0.5 2.8LRSN 3.0WRSN        1
 SPEC AVERAGE  MO 13.6 ST  7.4 OM  2.6 f0 3.87 R0.4423 AL 2.97 WI 18.9 MW  3.0 3
 SPEC SD       MO  0.2 ST  9.2 OM  0.7 f0 1.41 R0.1855 AL      WI      MW  0.1 3
 GAP= 71        1.20       2.3     3.4  6.3 -0.3657E+00  0.7467E+01  0.9481E+00E
 Epicentro: SANTA HELENA DEL OPON - SANTANDER                                  3
 SPEC PTB HH N MO 13.5 ST  1.2 OM  1.9 f0 3.13 R0.4696 AL 1.79 WI 18.8 MW  2.9 3
 SPEC PTB HH N T221159 K 0.000 GD  146 VS 4.20 DE 3.20 Q0300.0 QA 0.60 VS 4.20 3
 SPEC RUS HH N MO 13.6 ST0.343 OM  2.1 f0 1.81 R0.8122 AL 1.48 WI 14.5 MW  3.0 3
 SPEC RUS HH N T221157 K 0.000 GD  133 VS 4.20 DE 3.20 Q0300.0 QA 0.60 VS 4.20 3
 SPEC HEL HH N MO 13.5 ST  1.8 OM  1.7 f0 3.49 R0.4212 AL 2.47 WI 25.0 MW  2.9 3
 SPEC HEL HH N T221222 K 0.000 GD  239 VS 4.20 DE 3.20 Q0300.0 QA 0.60 VS 4.20 3
 SPEC NOR HH N MO 14.0 ST 25.1 OM  2.3 f0 5.71 R0.2574 AL 4.27 WI 22.7 MW  3.3 3
 SPEC NOR HH N T221211 K 0.000 GD  196 VS 4.20 DE 3.20 Q0300.0 QA 0.60 VS 4.20 3
 SPEC CHI HH N MO 13.5 ST  1.8 OM  1.8 f0 3.37 R0.4362 AL 2.86 WI 11.0 MW  3.0 3
 SPEC CHI HH N T221218 K 0.000 GD  218 VS 4.20 DE 3.20 Q0300.0 QA 0.60 VS 4.20 3
 SPEC BRR HH N MO 13.7 ST 14.2 OM  2.2 f0 5.71 R0.2574 AL 4.95 WI 21.1 MW  3.1 3
 SPEC BRR HH N T221159 K 0.000 GD  140 VS 4.20 DE 3.20 Q0300.0 QA 0.60 VS 4.20 3
 ACTION:UPD 13-01-04 14:30 OP:ep   STATUS:               ID:20121224221127 L   I
 2012-12-24-2210-00M.COL___242                                                 6
 STAT SP IPHASW D HRMM SECON CODA AMPLIT PERI AZIMU VELO AIN AR TRES W  DIS CAZ7
 BAR2 SZ IP       2211 44.06                             151    0.3210 55.7  59 
 BAR2 SZ ES       2211 56.91                             151    0.0910 55.7  59 
 RUS  HZ EP       2211 45.32                             143   -0.1210 76.0 130 
 RUS  HN ES       2211 59.14                             143   -0.7110 76.0 130 
 RUS  HN I        2212  0.41       103.0 0.22                          76.0 130 
 BRR  HZ EP     D 2211 45.61                             139    0.0510 86.6 353 
 BRR  HN ES       2212  0.57                             139    0.5010 86.6 353 
 BRR  HN I        2212  1.00       139.0 0.16                          86.6 353 
 GIR2 SZ EP       2211 46.64                             136    0.2010 94.8  29 
 GIR2 SZ ES       2212  1.79                             136    0.1610 94.8  29 
 GIR2 SZ I        2212  2.69        40.2 0.14                          94.8  29 
 PTB  HZ EP       2211 45.80                             135   -0.5810 96.2 284 
 PTB  HN ES       2212  0.82                             135   -0.7010 96.2 284 
 PTB  HN I        2212  3.68       160.2 0.10                          96.2 284 
 NOR  HZ EP       2211 52.43                             119   -0.51 9  163 239 
 NOR  HN ES       2212 12.94                             119   -0.25 9  163 239 
 NOR  HN I        2212 18.83       111.3 0.16                           163 239 
 ROSC BN ES       2212 18.33                             116    0.61 9  182 205 
 ZAR  HZ EP       2211 55.60                             115   -0.02 9  188 313 
 ZAR  HN ES       2212 18.76                             115    0.79 9  188 313 
 ZAR  HN I        2212 23.60        92.8 0.12                           188 313 
 CHI  HZ EP       2211 56.27                             115    0.10 9  189 184 
 CHI  HN ES       2212 19.00                             115    0.05 9  189 184 
 CHI  HN I        2212 23.33        38.8 0.22                           189 184 
 HEL  HZ EP       2211 59.57                             112    0.77 8  213 266 
 HEL  HN ES       2212 24.13                             112    0.51 8  213 266 
 HEL  HN I        2212 30.55        20.4 0.20                           213 266 
 OCA  HZ EP       2211 59.41                             112    0.78 8  214   9 
 OCA  HN ES       2212 23.22                             112   -0.10 8  214   9 
 OCA  HN I        2212 29.40       160.5 0.20                           214   9 
 VIL  SZ EP       2212  2.21                             109   -0.04 8  245 182 
 VIL  SN ES       2212 29.89                             109    0.12 8  245 182 
 VIL  SN I        2212 39.08        63.6 0.74                           245 182 
 URE  HZ EP   4   2212  2.68                             107   -1.57 0  264 307 
 URE  HE I        2212 42.02        64.1 0.26                           264 307 
 SML  HZ EP       2212  4.94                             106   -0.91 7  278 350 
 SML  HN ES       2212 35.78                             106   -0.40 7  278 350 
 SML  HN I        2212 42.07        70.6 0.10                           278 350 
 MON  HZ EP   4   2212 13.36                             101   -1.40 0  353 320 
 MON  HN ES       2212 50.90                             101   -1.13 6  353 320 
                                                                                
