 2017 1224 2349 46.2 L   6.806 -73.164136.9  RSN  4 0.2 0.9LRSN                1
 GAP=217        0.52       3.7     2.8  5.4 -0.4752E+01  0.4217E+01  0.9745E+00E
 Epicentro: LOS SANTOS - SANTANDER                                             3
 ACTION:UPD 18-01-04 13:24 OP:rebc STATUS:               ID:20171224234946 L   I
 OLDACT:REG 17-12-25 04:41 OP:lv   STATUS:               ID:20171224234702     3
 2017-12-24-2348-00M.COL___454                                                 6
 STAT SP IPHASW D HRMM SECON CODA AMPLIT PERI AZIMU VELO AIN AR TRES W  DIS CAZ7
 PAM  EZ EP       2350  7.75                             149    0.1910 78.2  41 
 PAM  EN ES       2350 24.20                             149    0.0010 78.2  41 
 PAM  EZ I        2350 25.29         1.5 0.32            152           78.2  41 
 PTB  HZ EP       2350 12.37                             130    0.06 9  146 258 
 PTB  HE ES       2350 32.45                             130   -0.21 9  146 258 
 PTB  HZ I        2350 35.41         1.1 0.18            132            146 258 
 OCA  HZ EP       2350 13.71                             128   -0.06 9  159 354 
 OCA  HN ES       2350 35.11                             128   -0.15 9  159 354 
 ZAR  HZ EP       2350 17.65                             121   -0.23 9  202 292 
 ZAR  HE ES       2350 42.95                             121    0.38 9  202 292 
                                                                                
