 2011  924 2202 42.3 L   6.786 -73.044146.8  RSN 10 0.3 2.0LRSN                1
 GAP=151        0.47       3.4     3.6  5.6 -0.1997E+01  0.3370E+01  0.6213E+01E
 Epicentro: LOS SANTOS - SANTANDER                                             3
 ACTION:UPD 12-07-13 15:59 OP:ep   STATUS:               ID:20110924220242 L   I
 2011-09-24-2159-13S.COL___165                                                 6
 STAT SP IPHASW D HRMM SECON CODA AMPLIT PERI AZIMU VELO AIN AR TRES W  DIS CAZ7
 BAR2 SZ EP   1   22 3  1.93                             169   -0.22 7 26.3 215 
 BAR2 SZ ES   2   22 3 17.13                             169   -0.48 5 26.3 215 
 BAR2 SZ I        22 3 18.67        39.0 0.17                          26.3 215 
 BTL  SZ EP   1   22 3  2.28                             168    0.08 7 28.7 301 
 PAM  SZ EP   1   22 3  4.68                             153    0.33 7 72.1  32 
 PAM  SN ES   2   22 3 21.84                             153    0.32 5 72.1  32 
 BRR  HZ EP   3   22 3  4.15                             149   -0.07 2 81.9 296 
 BRR  HZ I        22 3  6.06        19.7 0.41                          81.9 296 
 BRR  HE ES   2   22 3 21.12                             149   -0.18 5 81.9 296 
 RUS  HZ EP   1   22 3  5.79                             144   -0.27 7 98.9 182 
 RUS  HE ES   2   22 3 24.84                             144    0.27 5 98.9 182 
 RUS  HZ I        22 3 25.82        10.4 0.28                          98.9 182 
 ZAR  HN ES   2   22 3 41.94                             121   -0.28 4  215 291 
 ZAR  HZ I        22 3 45.84         7.1 0.29                           215 291 
 NOR  SZ EP   2   22 3 19.15                             118    0.14 4  243 236 
 NOR  SE ES   2   22 3 48.14                             118    0.51 4  243 236 
 CHI  HZ EP   1   22 3 19.92                             117   -0.35 6  250 198 
 CHI  HN ES   2   22 3 50.29                             117    0.43 4  250 198 
 CHI  HZ I        22 3 58.79         4.1 0.60                           250 198 
 HEL  HE ES   2   22 3 56.14                             114    0.06 4  283 257 
 HEL  HZ I        22 3 59.53         3.9 0.61                           283 257 
 RREF HE ES   2   22 4  6.61                             110    0.52 3  329 231 
 RREF HZ I        22 4 12.74         5.7 0.22                           329 231 
                                                                                
