 2012  224 2024 50.3 L   6.374 -73.692102.9  RSN  6 0.4 1.8LRSN                1
 GAP=107        0.82       4.5     3.7  8.9  0.4327E+00  0.9081E+01  0.9989E+01E
 ACTION:UP  12-03-07 16:33 OP:epov STATUS:               ID:20120224202450 L   I
 2012-02-24-2020-00M.COL___193                                                 6
 STAT SP IPHASW D HRMM SECON CODA AMPLIT PERI AZIMU VELO AIN AR TRES W  DIS CAZ7
 BAR2 SZ EP   1   2025  6.93                             147    0.25 7 61.3  67 
 BAR2 SZ ES   1   2025 19.67                             147    0.23 7 61.3  67 
 BAR2 SZ I        2025 20.67        46.8 0.10                          61.3  67 
 BRR  HZ EP       2025  7.85                             138    0.0410 81.1 358 
 BRR  HZ I        2025 16.26        13.2 0.19                          81.1 358 
 BRR  HN ES   1   2025 21.88                             138    0.43 7 81.1 358 
 RUS  HZ EP       2025  8.69                             137   -0.2010 85.9 128 
 RUS  HZ I        2025  8.87         9.3 0.22                          85.9 128 
 RUS  HE ES   1   2025 23.12                             137   -0.25 7 85.9 128 
 PTB  HZ EP       2025  7.88                             136   -0.4010 86.5 282 
 PTB  HE ES   1   2025 21.68                             136   -0.61 7 86.5 282 
 GIR2 SZ EP   2   2025  9.26                             134    0.04 5 95.4  35 
 NOR  SZ EP   1   2025 15.61                             118    0.25 7  158 236 
 NOR  SN ES   1   2025 35.75                             118    0.86 7  158 236 
                                                                                
