 2016 1024 2141 13.8 L   6.803 -73.125139.7  RSN 14 0.5 2.4LRSN                1
 GAP=101        1.13       4.3     4.0  6.0 -0.5368E+01  0.1666E+01  0.6999E+01E
 Epicentro: LOS SANTOS - SANTANDER                                             3
 ACTION:UPD 16-11-09 19:22 OP:rebc STATUS:               ID:20161024214113 L   I
 OLDACT:UP  16-10-25 08:17 OP:ar   STATUS:               ID:20161024213747     3
 OLDACT:UP  16-10-25 08:14 OP:ar   STATUS:               ID:20161024213747     3
 OLDACT:UP  16-10-25 08:10 OP:ar   STATUS:               ID:20161024213747     3
 OLDACT:REG 16-10-25 03:37 OP:ar   STATUS:               ID:20161024213747     3
 2016-10-24-2138-00M.COL___361                                                 6
 STAT SP IPHASW D HRMM SECON CODA AMPLIT PERI AZIMU VELO AIN AR TRES W  DIS CAZ7
 BAR2 EZ IP     C 2141 32.30                             170   -0.3910 24.1 195 
 BAR2 EZ ES       2141 46.88                             170   -0.5610 24.1 195 
 BAR2 EZ I        2141 48.07        71.6 0.32            167           24.1 195 
 BRR  HZ EP       2141 34.18                             151   -0.2010 73.0 297 
 BRR  HN ES       2141 50.90                             151    0.4510 73.0 297 
 BRR  HZ I        2141 53.91        70.2 0.28            150           73.0 297 
 PAM  EZ EP       2141 35.12                             150   -0.1210 75.7  38 
 PAM  EE ES       2141 52.09                             150    0.1010 75.7  38 
 PAM  EZ I        2141 54.03        73.8 0.48            154           75.7  38 
 RUS  HZ EP       2141 36.34                             143   -0.6010  101 177 
 RUS  HN ES       2141 55.46                             143    0.4410  101 177 
 RUS  HZ I        2141 56.20        15.2 0.38            142            101 177 
 PTB  HZ EP   9   2141 38.92                             130   -1.54 0  150 259 
 PTB  HN ES       2141 59.91                             130    0.17 9  150 259 
 PTB  HZ I        2142  1.25        27.5 0.18            129            150 259 
 TAM  HZ IP     C 2141 40.72                             130   -0.06 9  153 105 
 TAM  HE ES       2142  2.72                             130    0.88 9  153 105 
 SPBC HZ EP       2141 41.26                             127   -0.71 9  165 220 
 SPBC HN ES       2142  3.79                             127   -0.18 9  165 220 
 SPBC HZ I        2142 10.26        31.8 0.20            126            165 220 
 CHI  HZ EP       2141 50.78                             116   -0.46 8  250 196 
 CHI  HE ES       2142 20.38                             116   -0.08 8  250 196 
 CHI  HZ I        2142 23.56         7.5 0.60            116            250 196 
 ROSC BZ EP   2   2141 52.47                             115    0.74 4  254 211 
 ROSC BN ES       2142 21.50                             115    0.17 8  254 211 
 ROSC BZ I        2142 27.75        19.3 0.40            115            254 211 
 HEL  HZ EP       2141 54.36                             113    0.42 8  274 256 
 HEL  HN ES   4   2142 26.35                             113    1.09 0  274 256 
 HEL  HZ I        2142 30.43        16.1 0.40            113            274 256 
 GUY2CHZ EP       2141 57.93                             111    0.59 7  303 235 
 GUY2CHN ES       2142 32.30                             111    0.98 7  303 235 
 GUY2CHZ I        2142 36.76         8.3 0.32                           303 235 
 ELA  HZ EP   4   2141 57.55                             109   -3.05 0  331 230 
 ELA  HN ES   4   2142 39.22                             109    2.10 0  331 230 
 ELA  HZ I        2142 46.58         7.4 0.40            109            331 230 
 PRA  HZ EP   4   2142  3.67                             105   -3.58 0  393 210 
 PRA  HN ES   4   2142 46.11                             105   -2.86 0  393 210 
 PRA  HZ I        2142 52.85         9.5 0.46            106            393 210 
 SJC  HZ EP   4   2142  6.43                             105   -2.83 0  410 327 
 SJC  HN ES   4   2142 47.44                             105   -5.09 0  410 327 
 SJC  HZ I        2142 51.67         8.9 0.54            105            410 327 
                                                                                
