 2015  324 2216 26.2 L   6.931 -73.224155.7  RSN  4 0.5 1.5LRSN                1
 GAP=200        1.31      17.2     7.3 13.8 -0.5904E+02  0.7549E+00  0.7353E+02E
 Epicentro: BETULIA - SANTANDER                                                3
 ACTION:UPD 15-04-30 16:29 OP:nd   STATUS:               ID:20150324221626 L   I
 OLDACT:UP  15-03-25 04:53 OP:cam  STATUS:               ID:20150324220748     3
 OLDACT:REG 15-03-25 02:23 OP:cam  STATUS:               ID:20150324220748     3
 2015-03-24-2207-48M.COL___281                                                 6
 STAT SP IPHASW D HRMM SECON CODA AMPLIT PERI AZIMU VELO AIN AR TRES W  DIS CAZ7
 BRR  HE ES       2217  5.41                             159    0.8510 57.3 290 
 PAM  SZ EP       2216 49.66                             154    0.4010 73.5  52 
 PAM  SN ES       2217  6.60                             154   -0.6510 73.5  52 
 PAM  SZ I        2217  8.83         5.8 0.46            152           73.5  52 
 PTB  HZ EP       2216 53.63                             135    0.06 9  143 252 
 PTB  HN ES       2217 14.47                             135   -0.46 9  143 252 
 PTB  HZ I        2217 15.94         3.3 0.32            134            143 252 
 ZAR  HN ES       2217 22.48                             126   -0.32 9  191 289 
 ZAR  HZ I        2217 26.87         3.6 0.66            125            191 289 
                                                                                
