 2016 1024 2018 45.7 L   6.783 -73.148144.9  RSN  8 0.4 1.9LRSN                1
 GAP= 99        0.93       4.0     4.2  5.9 -0.2242E+01 -0.1488E+01  0.6264E+01E
 Epicentro: LOS SANTOS - SANTANDER                                             3
 ACTION:UPD 16-11-09 19:22 OP:rebc STATUS:               ID:20161024201845 L   I
 OLDACT:DUP 16-10-25 04:22 OP:ar   STATUS:               ID:20161024200745d    3
 2016-10-24-2008-00M.COL___365                                                 6
 STAT SP IPHASW D HRMM SECON CODA AMPLIT PERI AZIMU VELO AIN AR TRES W  DIS CAZ7
 BAR2 EZ EP       2019  4.53                             171   -0.6410 21.4 190 
 BAR2 EZ ES       2019 20.11                             171   -0.2510 21.4 190 
 BAR2 EZ I        2019 21.66        32.9 0.32            169           21.4 190 
 BRR  HZ EP       2019  6.75                             152   -0.0310 71.9 300 
 BRR  HE ES       2019 23.89                             152    0.6610 71.9 300 
 BRR  HZ I        2019 24.54        29.3 0.26            152           71.9 300 
 PAM  EZ EP       2019  8.01                             150    0.1110 79.0  39 
 PAM  EE ES       2019 25.15                             150   -0.0810 79.0  39 
 PAM  EZ I        2019 27.02        29.2 0.50            154           79.0  39 
 RUS  HZ EP       2019  8.96                             144   -0.2510 98.7 176 
 RUS  HN ES       2019 27.84                             144    0.2810 98.7 176 
 RUS  HZ I        2019 29.48         7.3 0.28            144           98.7 176 
 PTB  HZ EP       2019 12.84                             132    0.32 9  147 260 
 PTB  HN ES       2019 32.91                             132   -0.54 9  147 260 
 PTB  HZ I        2019 39.89         7.4 0.20            132            147 260 
 TAM  HZ EP       2019 13.46                             130    0.19 9  155 104 
 CHI  HZ EP       2019 23.23                             117    0.11 8  247 195 
 CHI  HN ES       2019 52.60                             117    0.27 8  247 195 
 CHI  HZ I        2019 57.23         4.3 0.42            118            247 195 
 GUY2CHZ EP   4   2019 30.98                             112    1.88 0  300 235 
 GUY2CHN ES   4   2020  7.18                             112    4.21 0  300 235 
 GUY2CHZ I        2020 11.25         2.9 0.32                           300 235 
                                                                                
