 2014  424 2331 18.1 L   6.867 -73.173142.0  RSN 10 0.3 1.9LRSN                1
 GAP=130        0.72       2.2     3.0  4.6 -0.1317E+01  0.3512E+01  0.8737E+00E
 Epicentro: ZAPATOCA - SANTANDER                                               3
 ACTION:UPD 14-05-13 23:11 OP:nd   STATUS:               ID:20140424233118 L   I
 OLDACT:REG 14-04-25 04:57 OP:stll STATUS:               ID:20140424232805     3
 2014-04-24-2328-05M.COL___248                                                 6
 STAT SP IPHASW D HRMM SECON CODA AMPLIT PERI AZIMU VELO AIN AR TRES W  DIS CAZ7
 BRR  HZ EP       2331 38.81                             154    0.3210 65.2 294 
 BRR  HZ I        2331 41.08         8.8 0.22            151           65.2 294 
 BRR  HN ES       2331 54.82                             154    0.4110 65.2 294 
 PAM  SZ EP       2331 40.01                             151    0.3310 73.9  45 
 PAM  SN ES       2331 56.47                             151   -0.0710 73.9  45 
 PAM  SZ I        2331 58.88        18.3 0.48            156           73.9  45 
 RUS  HZ EP   2   2331 41.86                             141   -0.17 5  108 175 
 RUS  HN ES   1   2332  0.22                             141   -0.50 7  108 175 
 PTB  HZ EP       2331 44.32                             131   -0.30 9  146 256 
 PTB  HE ES       2332  5.24                             131   -0.09 9  146 256 
 PTB  HZ I        2332 12.64         7.4 0.32            132            146 256 
 SPBC HZ EP       2331 46.88                             127    0.20 9  167 217 
 SPBC HN ES       2332  8.86                             127   -0.13 9  167 217 
 SPBC HZ I        2332 16.11         7.1 0.28            130            167 217 
 ZAR  HZ EP       2331 50.16                             122    0.45 9  199 290 
 ZAR  HN ES       2332 14.27                             122   -0.12 9  199 290 
 ZAR  HZ I        2332 20.58         8.9 0.32            123            199 290 
 SML  HZ EP       2331 53.13                             118   -0.50 8  236 335 
 SML  HE ES       2332 20.80                             118   -0.55 8  236 335 
 SML  HZ I        2332 30.00         9.9 0.10            119            236 335 
 NOR  HZ EP       2331 53.90                             117    0.09 8  237 233 
 NOR  HE ES       2332 21.58                             117   -0.10 8  237 233 
 NOR  HZ I        2332 28.28         6.5 0.18            119            237 233 
 CHI  HN ES       2332 25.86                             116   -0.21 8  255 194 
 GUY2CHZ EP       2332  2.04                             111    0.31 7  303 233 
 GUY2CHE ES       2332 35.82                             111    0.03 7  303 233 
 GUY2CHZ I        2332 46.00         4.4 0.32                           303 233 
                                                                                
