 2017  724 2325 11.1 L   7.210 -73.078153.1  RSN 12 0.4 2.4LRSN                1
 GAP=109        0.96       4.3     3.2  5.2  0.1535E+01  0.2491E+01  0.2000E+01E
 Epicentro: RIONEGRO - SANTANDER                                               3
 ACTION:UPD 17-08-30 15:36 OP:rebc STATUS:               ID:20170724232511 L   I
 OLDACT:UP  17-07-25 06:10 OP:dnl  STATUS:               ID:20170724231737     3
 OLDACT:REG 17-07-25 03:17 OP:dnl  STATUS:               ID:20170724231737     3
 2017-07-24-2318-00M.COL___392                                                 6
 STAT SP IPHASW D HRMM SECON CODA AMPLIT PERI AZIMU VELO AIN AR TRES W  DIS CAZ7
 PAM  EZ IP     D 2325 32.75                             163    0.2210 44.2  71 
 PAM  EN ES       2325 49.29                             163    0.0310 44.2  71 
 PAM  EZ I        2325 50.88        62.9 0.22            167           44.2  71 
 BAR2 EZ IP     D 2325 33.19                             155   -0.0710 69.2 190 
 BAR2 EZ ES       2325 50.40                             155   -0.1710 69.2 190 
 BAR2 EZ I        2325 51.96        97.8 0.40            152           69.2 190 
 BRR  HZ EP       2325 33.34                             154    0.3410 70.9 261 
 BRR  HN ES       2325 50.49                             154    0.3810 70.9 261 
 BRR  HZ I        2325 53.63        51.6 0.68            151           70.9 261 
 RUS  HZ EP       2325 38.54                             135   -0.57 9  146 180 
 RUS  HN ES       2326  0.35                             135   -0.63 9  146 180 
 RUS  HZ I        2326  3.34        13.8 0.30            134            146 180 
 TAM  HZ EP       2325 40.57                             130    0.23 9  166 121 
 TAM  HN ES       2326  3.56                             130    0.39 9  166 121 
 TAM  HZ I        2326  4.60        14.4 0.30            132            166 121 
 PTB  HZ IP     C 2325 40.11                             130   -0.51 9  169 244 
 PTB  HE ES       2326  3.32                             130   -0.35 9  169 244 
 PTB  HZ I        2326  6.70        27.7 0.28            128            169 244 
 YPLC HZ IP     D 2325 45.31                             123    0.12 8  215 159 
 YPLC HN ES       2326 11.84                             123    0.03 8  215 159 
 YPLC HZ I        2326 13.55        18.8 0.26            123            215 159 
 HEL  HZ EP       2325 54.96                             114    0.94 7  293 248 
 HEL  HN ES       2326 27.92                             114    0.39 7  293 248 
 HEL  HZ I        2326 37.35        13.5 0.38            114            293 248 
 GUY2CHZ EP   4   2326  0.07                             111    1.23 0  335 229 
 GUY2CHN ES   4   2326 34.85                             111   -1.25 0  335 229 
 GUY2CHZ I        2326 46.37        10.4 0.42                           335 229 
 SJC  HZ EP       2326  2.04                             108   -1.05 6  377 322 
 SJC  HN ES   4   2326 40.55                             108   -3.12 0  377 322 
 SJC  HZ I        2326 44.02        11.3 0.28            109            377 322 
 PRA  HZ EP   2   2326 10.04                             106    0.12 3  435 207 
 PRA  HN ES       2326 56.06                             106    0.24 5  435 207 
 PRA  HZ I        2327  3.82         7.9 0.36            106            435 207 
 ORTC HZ EP   2   2326 10.54                             106    0.44 3  437 213 
 ORTC HN ES   4   2326 58.14                             106    2.01 0  437 213 
 ORTC HZ I        2327  2.54         7.2 0.48            106            437 213 
                                                                                
