 2016  424 2246 59.5 L   6.764 -73.192137.0  RSN  6 0.4 1.3LRSN                1
 GAP=178        0.98       3.9     5.2  8.5  0.2216E+01  0.1341E+02 -0.6979E+01E
 Epicentro: LOS SANTOS - SANTANDER                                             3
 ACTION:UPD 16-05-05 14:23 OP:rebc STATUS:               ID:20160424224659 L   I
 OLDACT:REG 16-04-25 03:56 OP:ak   STATUS:               ID:20160424223750     3
 2016-04-24-2237-50M.COL___286                                                 6
 STAT SP IPHASW D HRMM SECON CODA AMPLIT PERI AZIMU VELO AIN AR TRES W  DIS CAZ7
 BAR2 EZ EP       2247 17.54                             172   -0.4510 19.0 177 
 BAR2 EZ ES       2247 32.15                             172   -0.2610 19.0 177 
 BAR2 EZ I        2247 33.69         8.3 0.28            169           19.0 177 
 RUS  HZ EP       2247 22.08                             143   -0.0610 97.1 173 
 RUS  HN ES       2247 40.27                             143    0.4810 97.1 173 
 RUS  HZ I        2247 42.30         2.0 0.20            145           97.1 173 
 PTB  HZ EP   1   2247 24.52                             131   -0.71 7  142 260 
 PTB  HN ES       2247 44.76                             131   -0.54 9  142 260 
 PTB  HZ I        2247 51.21         2.4 0.12            130            142 260 
 SPBC HZ EP   2   2247 26.61                             128   -0.12 5  157 218 
 SPBC HN ES       2247 48.41                             128    0.44 9  157 218 
 SPBC HZ I        2247 51.37         3.2 0.13            129            157 218 
 OCA  HE ES       2247 49.58                             127    0.28 9  164 355 
 ZAR  HZ EP       2247 31.44                             121    0.38 9  201 294 
 ZAR  HE ES       2247 56.04                             121    0.36 9  201 294 
 ZAR  HZ I        2248  1.39         2.3 0.09            121            201 294 
                                                                                
