 2012 1124 2351 20.6 L   6.009 -74.173 74.9  RSN  4 0.5 1.3LRSN                1
 GAP=124        1.20       6.8     4.3 17.1  0.1483E+02  0.1981E+02  0.7247E+02E
 Epicentro: LA BELLEZA - SANTANDER                                             3
 ACTION:UPD 12-12-05 15:36 OP:}ep  STATUS:               ID:20121124235120 L   I
 2012-11-24-2350-00M.COL___233                                                 6
 STAT SP IPHASW D HRMM SECON CODA AMPLIT PERI AZIMU VELO AIN AR TRES W  DIS CAZ7
 PTB  HZ EP   1   2351 32.98                             134   -1.36 7 66.5 332 
 PTB  HN ES       2351 45.48                             134    0.3910 66.5 332 
 PTB  HN I        2351 50.14         4.7 0.12                          66.5 332 
 RUS  HZ EP       2351 41.05                             116    0.5210  121  96 
 RUS  HN ES       2351 55.85                             116   -0.2610  121  96 
 HEL  HZ EP       2351 44.19                             110    0.39 9  151 278 
 HEL  HN ES       2352  1.74                             110   -0.18 9  151 278 
 HEL  HN I        2352  3.65         3.7 0.68                           151 278 
 CHI  HZ EP   1   2351 44.78                             109   -0.08 7  160 162 
 CHI  HE ES       2352  3.80                             109   -0.01 9  160 162 
 CHI  HN I        2352  9.68         3.9 0.44                           160 162 
                                                                                
