 2012  424 2056  3.0 L   6.779 -73.140133.6  RSN  5 0.2 1.6LRSN                1
 GAP=138        0.54       3.4     3.6  5.4  0.1780E+01  0.1852E+01 -0.2209E+01E
 Epicentro: LOS SANTOS - SANTANDER                                             3
 ACTION:UPD 12-07-05 11:55 OP:tino STATUS:               ID:20120424205603 L   I
 2012-04-24-2050-00M.COL___186                                                 6
 STAT SP IPHASW D HRMM SECON CODA AMPLIT PERI AZIMU VELO AIN AR TRES W  DIS CAZ7
 BAR2 SZ ES   1   2056 35.21                             171    -0.1 7   21 193 
 BAR2 SZ I        2056 36.80        10.3 0.30                            21 193 
 BRR  HZ EP       2056 23.20                             150     0.210   73 300 
 BRR  HZ I        2056 25.01        16.3 0.28                            73 300 
 BRR  HN ES   1   2056 38.60                             150     0.1 7   73 300 
 PAM  SZ EP       2056 24.14                             148     0.110   79  38 
 PAM  SN ES   1   2056 40.32                             148    -0.1 7   79  38 
 RUS  HZ EP   1   2056 25.06                             142    -0.4 7   98 176 
 RUS  HE ES   1   2056 43.06                             142     0.2 7   98 176 
 RUS  HZ I        2056 44.49         2.9 0.34                            98 176 
 ZAR  HN ES   1   2056 59.49                             119    -0.2 6  206 293 
 ZAR  HZ I        2057  4.92         4.7 0.24                           206 293 
                                                                                
