 2012  824 2350 40.7 L   6.779 -73.146146.8  RSN  5 0.3 1.6LRSN                1
 GAP=137        0.74       5.1     4.7  7.6 -0.2434E+01 -0.2745E+01  0.5893E+01E
 Epicentro: LOS SANTOS - SANTANDER                                             3
 ACTION:UPD 12-09-10 11:58 OP:ep   STATUS:               ID:20120824235040 L   I
 2012-08-24-2350-00M.COL___218                                                 6
 STAT SP IPHASW D HRMM SECON CODA AMPLIT PERI AZIMU VELO AIN AR TRES W  DIS CAZ7
 BAR2 SZ EP   1   2350 59.96                             171   -0.42 7 21.1 191 
 BAR2 SZ I        2351 16.61        10.9 0.14                          21.1 191 
 BRR  HZ EP       2351  2.27                             152    0.2810 72.3 300 
 BRR  HZ I        2351  3.33         9.2 0.47                          72.3 300 
 BRR  HN ES       2351 18.89                             152    0.2710 72.3 300 
 PAM  SZ EP       2351  3.24                             150    0.1410 79.2  38 
 PAM  SZ I        2351  3.44         6.5 0.24                          79.2  38 
 PAM  SN ES   1   2351 20.14                             150   -0.46 7 79.2  38 
 RUS  HZ EP   1   2351  4.72                             145    0.36 7 98.3 176 
 RUS  HE ES   1   2351 22.86                             145    0.02 7 98.3 176 
 RUS  HZ I        2351 24.62         3.2 0.44                          98.3 176 
 PTB  HZ EP   1   2351  7.11                             132   -0.57 7  147 260 
 PTB  HE ES   1   2351 28.49                             132   -0.26 7  147 260 
                                                                                
