 2010  424 2254 19.0 L   6.699 -73.100157.2  RSN  5 0.4 2.0LRSN                1
 GAP=201        1.10      11.9    13.7 12.7 -0.6582E+02 -0.9386E+02  0.2144E+02E
 Epicentro: JORDAN - SANTANDER                                                 3
 ACTION:UPD 10-08-24 10:00 OP:vdl  STATUS:               ID:20100424225430 L   I
 2010-04-24-2253-18S.COL___104                                                 6
 STAT SP IPHASW D HRMM SECON CODA AMPLIT PERI AZIMU VELO AIN AR TRES W  DIS CAZ7
 BAR2 SZ EP       2254 39.83                             174     0.010   15 218 
 BAR2 SZ ES   2   2254 55.97                             174    -0.2 5   15 218 
 BRR  HZ EP       2254 42.31                             151     0.310   81 304 
 BRR  HN ES       2254 59.74                             151    -0.110   81 304 
 BRR  HZ I        2255  3.47        16.6 0.28                            81 304 
 BRI  SZ EP       2254 45.39                             141     0.710  117  17 
 BRI  SZ ES   1   2255  4.96                             141     0.3 7  117  17 
 GUE  SZ EP       2254 44.92                             139    -0.710  127   9 
 GRA  SZ EP       2254 45.65                             137    -0.410  135  14 
                                                                                
