 2012  724 2117  5.7 L   6.762 -73.183144.8  RSN  5 0.4 1.6LRSN                1
 GAP=230        1.01       9.7     8.6 11.0  0.5203E+02  0.1972E+02  0.1050E+01E
 Epicentro: VILLANUEVA - SANTANDER                                             3
 ACTION:UPD 12-08-14 11:45 OP:ep   STATUS:               ID:20120724211705 L   I
 2012-07-24-2110-00M.COL___215                                                 6
 STAT SP IPHASW D HRMM SECON CODA AMPLIT PERI AZIMU VELO AIN AR TRES W  DIS CAZ7
 BAR2 SZ ES   1   2117 39.48                             172    -0.8 8   19 180 
 BRR  HZ EP   1   2117 26.67                             153     0.0 8   70 303 
 BRR  HN ES   1   2117 43.68                             153     0.6 8   70 303 
 BRR  HZ I        2117 47.47        15.1 0.34            155             70 303 
 RUS  HZ EP   1   2117 29.33                             145     0.2 8   97 173 
 RUS  HN ES   1   2117 47.78                             145     0.4 8   97 173 
 RUS  HZ I        2117 49.51         4.1 0.21            149             97 173 
 PTB  HZ EP   1   2117 31.77                             133    -0.4 7  143 260 
 PTB  HN ES       2117 52.73                             133    -0.110  143 260 
 PTB  HZ I        2117 55.04         3.4 0.12            137            143 260 
 ZAR  HN ES       2118  3.00                             122     0.0 9  202 294 
