 2010  824 2008 20.9 L   6.772 -73.084144.3  RSN  9 0.4 2.6LRSN                1
 GAP=242        0.70       4.5     6.3  5.4  0.7642E+01  0.1353E+02  0.9694E+01E
 Epicentro: LOS SANTOS - SANTANDER                                             3
 ACTION:UP  10-09-07 10:57 OP:vdl  STATUS:               ID:20100824200820 L   I
 2010-08-24-2005-30S.COL___121                                                 6
 STAT SP IPHASW D HRMM SECON CODA AMPLIT PERI AZIMU VELO SNR AR TRES W  DIS CAZ7
 BAR2 SZ EP       20 8 40.23                             170    -0.210   23 209 
 BAR2 SZ ES   1   20 8 55.38                             170    -0.2 7   23 209 
 BRR  HZ IP     C 20 8 42.14                             150    -0.210   79 298 
 BRR  HN ES   1   20 8 59.48                             150     0.4 7   79 298 
 BRR  HZ I        20 9  1.96        45.2 0.27                            79 298 
 RUS  HZ EP       20 8 44.26                             144    -0.110   97 180 
 RUS  HN ES   1   20 9  2.78                             144     0.2 7   97 180 
 RUS  HZ I        20 9  4.89        56.5 0.53                            97 180 
 CHI  HZ EP       20 8 58.39                             117     0.0 8  247 197 
 CHI  HE ES   1   20 9 27.97                             117     0.3 6  247 197 
 CHI  HZ I        20 9 31.07        17.0 0.61                           247 197 
 HEL  HZ EP   1   20 9  1.90                             114     0.2 6  278 257 
 HEL  HN ES   2   20 9 32.92                             114    -0.6 4  278 257 
 HEL  HZ I        20 9 39.17        16.0 0.39                           278 257 
 GUY  SZ EP       20 9  5.34                             112     0.4 7  305 236 
 GUY  SN ES   2   20 9 38.91                             112    -0.3 4  305 236 
 GUY  SZ I        20 9 46.61        48.9 0.35                           305 236 
 TOL  SZ EP   1   20 9  9.82                             109     0.4 5  346 226 
 ANIL HZ EP   1   20 9 11.77                                     0.8 5  360 226 
 ANIL HE ES   3   20 9 50.32                                     0.3 2  360 226 
 ANIL HZ I        20 9 54.52        30.7 0.40                           360 226 
 PRA  HZ EP       20 9 13.88                             106    -0.6 6  393 211 
 PRA  HE ES   2   20 9 55.54                             106    -0.7 3  393 211 
 PRA  HZ I        2010  2.34        12.2 0.30                           393 211 
                                                                                
