 2010  224 2157 48.6 L   6.825 -73.043132.7  RSN  7 0.3 2.5LRSN                1
 GAP=193        0.56       3.2     6.9  5.9  0.6337E+00  0.9313E+01  0.2190E+01E
 Epicentro: LOS SANTOS - SANTANDER                                             3
 ACTION:UP  10-08-24 09:50 OP:vdl  STATUS:               ID:20100224215748 L   I
 2010-02-24-2153-41S.COL___094                                                 6
 STAT SP IPHASW D HRMM SECON CODA AMPLIT PERI AZIMU VELO SNR AR TRES W  DIS CAZ7
 BAR2 SZ EP   1   2158  6.95                             167     0.1 7   30 211 
 BAR2 SZ ES   2   2158 21.20                             167     0.1 5   30 211 
 BRR  HZ EP   1   2158  8.84                             147    -0.1 7   80 293 
 BRR  HN ES   2   2158 25.18                             147     0.3 5   80 293 
 BRR  HZ I        2158 29.95        99.2 0.14                            80 293 
 RUS  BZ EP   1   2158 11.49                             140     0.2 7  103 182 
 RUS  BE ES   2   2158 28.66                             140    -0.4 5  103 182 
 OCA  SZ EP   1   2158 15.65                             127    -0.2 7  159 349 
 OCA  SZ ES   2   2158 37.11                             127     0.0 5  159 349 
 OCA  SZ I        2158 40.31        81.6 0.31                           159 349 
 CHI  HZ EP   1   2158 26.93                             114     0.6 6  254 197 
 CHI  HN ES   2   2158 54.79                             114    -0.9 4  254 197 
 CHI  HZ I        2158 59.04         8.2 0.64                           254 197 
 HEL  HZ EP   1   2158 29.50                             111    -0.1 6  284 256 
 RREF BZ EP   1   2158 35.50                             108     0.0 5  332 230 
 RREF BN ES   2   2159 11.93                             108    -0.1 3  332 230 
 RREF BZ I        2159 18.65        12.1 0.24                           332 230 
                                                                                
