 2011  724 2016 37.6 L   6.761 -73.135148.8  RSN  8 0.2 2.0LRSN                1
 GAP=140        0.52       2.5     4.3  4.8 -0.3093E+01 -0.7757E+00  0.1363E+01E
 Epicentro: LOS SANTOS - SANTANDER                                             3
 ACTION:UPD 12-07-25 14:03 OP:epov STATUS:               ID:20110724201637 L   I
 2011-07-24-2015-14S.COL___143                                                 6
 STAT SP IPHASW D HRMM SECON CODA AMPLIT PERI AZIMU VELO AIN AR TRES W  DIS CAZ7
 BAR2 SZ EP   1   2016 57.30                             172   -0.19 7 19.3 196 
 BAR2 SZ ES   1   2017 12.56                             172   -0.47 7 19.3 196 
 BAR2 SZ I        2017 15.24        33.2 0.27                          19.3 196 
 BRR  HZ EP   1   2016 59.21                             152   -0.01 7 74.4 301 
 BRR  HE ES   1   2017 16.36                             152    0.25 7 74.4 301 
 BRR  HZ I        2017 18.56        20.5 0.13                          74.4 301 
 PAM  SZ EP   1   2017  0.22                             150   -0.05 7 80.1  37 
 RUS  HZ EP   1   2017  1.24                             146   -0.07 7 96.2 177 
 RUS  HE ES   1   2017 20.08                             146    0.25 7 96.2 177 
 RUS  HZ I        2017 21.27        12.5 0.25                          96.2 177 
 BRI  SZ EP   1   2017  1.91                             141   -0.12 7  112  19 
 BRI  SZ ES   1   2017 21.56                             141    0.46 7  112  19 
 BRI  SZ I        2017 25.74         7.9 0.51                           112  19 
 OCA  SZ ES   1   2017 28.88                             129   -0.24 7  165 353 
 OCA  SZ I        2017 32.57         9.1 0.25                           165 353 
 NOR  SN ES   1   2017 41.19                             119    0.00 6  233 235 
 CHI  HZ EP   1   2017 15.27                             118    0.25 6  245 196 
                                                                                
