 2015 1024 2252 19.6 L   6.758 -73.092144.6  RSN 11 0.4 1.9LRSN                1
 GAP=145        0.88       2.9     3.6  4.9 -0.1486E+01  0.6252E+01  0.1718E+01E
 Epicentro: LOS SANTOS - SANTANDER                                             3
 ACTION:UPD 15-12-22 20:42 OP:cam  STATUS:               ID:20151024225219 L   I
 OLDACT:REG 15-10-25 04:53 OP:ak   STATUS:               ID:20151024224750     3
 2015-10-24-2247-50M.COL___310                                                 6
 STAT SP IPHASW D HRMM SECON CODA AMPLIT PERI AZIMU VELO AIN AR TRES W  DIS CAZ7
 BAR2 EZ EP       2252 39.12                             171    0.0310 20.9 208 
 BAR2 EZ ES       2252 54.07                             171   -0.1910 20.9 208 
 BAR2 EZ I        2252 56.91        69.7 0.04            169           20.9 208 
 PAM  EZ EP       2252 41.93                             150    0.1910 77.5  34 
 PAM  EN ES       2252 59.12                             150    0.1310 77.5  34 
 PAM  EZ I        2253  1.87         7.3 0.62            156           77.5  34 
 BRR  HZ EP       2252 40.71                             150   -0.3910 78.6 299 
 BRR  HN ES       2252 58.11                             150    0.2610 78.6 299 
 BRR  HZ I        2253  2.67         9.6 0.12            150           78.6 299 
 RUS  HZ EP       2252 43.15                             145    0.2110 95.8 179 
 RUS  HN ES       2253  1.22                             145    0.1110 95.8 179 
 RUS  HZ I        2253  3.01         7.4 0.24            147           95.8 179 
 SPBC HZ EP       2252 47.74                             129   -0.34 9  163 222 
 SPBC HN ES       2253  9.96                             129   -0.31 9  163 222 
 SPBC HZ I        2253 17.37        15.7 0.14            130            163 222 
 ZAR  HZ EP       2252 53.26                             121    0.50 8  211 293 
 ZAR  HN ES       2253 18.51                             121   -0.09 8  211 293 
 ZAR  HZ I        2253 24.33         7.6 0.25            123            211 293 
 NOR  HZ EP       2252 55.68                             118    0.13 8  237 236 
 NOR  HE ES       2253 22.72                             118   -0.83 8  237 236 
 NOR  HZ I        2253 28.56         6.9 0.15            120            237 236 
 CHI  HZ EP       2252 56.96                             117   -0.01 8  246 197 
 CHI  HN ES       2253 26.06                             117   -0.03 8  246 197 
 CHI  HZ I        2253 32.17         2.8 0.26            120            246 197 
 SML  HZ EP   1   2252 56.01                             116   -0.92 6  250 335 
 SML  HN ES   4   2253 23.74                             116   -2.27 0  250 335 
 HEL  HZ EP   1   2252 59.96                             114   -0.35 6  277 257 
 HEL  HN ES       2253 32.24                             114    0.20 7  277 257 
 GUY2CHZ EP   1   2253  4.32                             112    0.87 5  303 236 
 GUY2CHN ES       2253 38.51                             112    0.88 7  303 236 
 GUY2CHZ I        2253 47.10         4.6 0.64                           303 236 
                                                                                
