 2010  724 2127  7.7 L   6.760 -73.114140.5  RSN  5 0.3 1.6LRSN                1
 GAP=168        0.82       6.4    11.7  9.5  0.3763E+02 -0.5820E+02 -0.2744E+02E
 Epicentro: LOS SANTOS - SANTANDER                                             3
 ACTION:UPD 10-12-01 15:19 OP:pat  STATUS:               ID:20100724212707 L   I
 2010-07-24-2121-35S.COL___123                                                 6
 STAT SP IPHASW D HRMM SECON CODA AMPLIT PERI AZIMU VELO AIN AR TRES W  DIS CAZ7
 BAR2 SZ ES   1   2127 41.00                             172    -0.4 7   20 202 
 BRR  HZ EP       2127 28.16                             150    -0.410   76 300 
 BRR  HN ES       2127 45.02                             150     0.210   76 300 
 BRR  HZ I        2127 50.39        11.7 0.84                            76 300 
 RUS  HZ EP   1   2127 30.47                             144    -0.1 7   96 178 
 RUS  HN ES   1   2127 48.65                             144     0.2 7   96 178 
 RUS  HZ I        2127 50.01         5.3 0.04                            96 178 
 GUE  SZ EP       2127 32.50                             137     0.310  120  10 
 GUE  SZ I        2127 33.26         2.6 0.07                           120  10 
 CHI  HZ I        2127 46.44         5.7 0.18                           245 196 
 CHI  HN ES   3   2128 14.45                             117     0.8 2  245 196 
                                                                                
