 2010  424 2328 38.0 L   6.757 -72.944138.4  RSN  7 0.5 2.1LRSN                1
 GAP=206        1.33      11.6    14.5 15.9 -0.1105E+03 -0.8050E+02  0.1009E+03E
 Epicentro: CEPITA - SANTANDER                                                 3
 ACTION:UPD 10-08-24 10:00 OP:vdl  STATUS:               ID:20100424232838 L   I
 2010-04-24-2326-42S.COL___104                                                 6
 STAT SP IPHASW D HRMM SECON CODA AMPLIT PERI AZIMU VELO AIN AR TRES W  DIS CAZ7
 BAR2 SZ EP       2328 56.38                             166    -0.510   32 236 
 BRR  HZ EP       2329  0.20                             145     0.410   93 295 
 BRR  HZ I        2329  3.44        19.2 0.14                            93 295 
 BRR  HN ES   1   2329 17.07                             145     0.3 7   93 295 
 GUE  SZ EP       2329  2.06                             138    -0.110  119   1 
 GUE  SZ ES       2329 20.43                             138    -0.610  119   1 
 GRA  SZ EP       2329  3.23                             136     0.710  126   7 
 GRA  SZ ES       2329 22.28                             136     0.610  126   7 
 OCA  SZ EP       2329  5.87                             127    -0.7 9  169 346 
 OCA  SZ I        2329 33.06        24.7 0.23                           169 346 
 HEL  HZ EP   3   2329 20.60                             112     0.5 2  293 258 
 HEL  HE ES   2   2329 52.53                             112    -0.5 4  293 258 
 HEL  HZ I        2329 56.99         5.9 0.28                           293 258 
 PRA  HZ EP   1   2329 32.69                             105     0.6 4  399 213 
                                                                                
