 2016 1124 2203 37.2 L   6.856 -73.294121.9  RSN 29 0.4 3.2LRSN                1
 GAP= 55        0.85       2.3     2.3  3.8  0.4302E-01  0.2670E+01  0.2193E+01E
 Epicentro: BETULIA - SANTANDER                                                3
 ACTION:UPD 17-10-26 21:11 OP:lp   STATUS:               ID:20161124220337 L   I
 OLDACT:UP  16-11-25 05:00 OP:and  STATUS:               ID:20161124215746     3
 OLDACT:UP  16-11-25 04:57 OP:and  STATUS:               ID:20161124215746     3
 OLDACT:UP  16-11-25 04:49 OP:and  STATUS:               ID:20161124215746     3
 OLDACT:UP  16-11-25 04:37 OP:and  STATUS:               ID:20161124215746     3
 OLDACT:UP  16-11-25 04:34 OP:and  STATUS:               ID:20161124215746     3
 OLDACT:UP  16-11-25 04:30 OP:and  STATUS:               ID:20161124215746     3
 OLDACT:REG 16-11-25 02:41 OP:and  STATUS:               ID:20161124215746     3
 2016-11-24-2158-00M.COL___355                                                 6
 STAT SP IPHASW D HRMM SECON CODA AMPLIT PERI AZIMU VELO AIN AR TRES W  DIS CAZ7
 BAR2 EZ IP     D 22 3 53.94                             164   -0.2510 31.7 157 
 BAR2 HN ES       22 4  7.44                             164   -0.0110 31.7 157 
 BAR2 EZ I        22 4  8.48      1361.0 0.23            160           31.7 157 
 BRR  HZ IP     D 22 3 54.43                             154   -0.3510 53.9 301 
 BRR  HN ES       22 4  8.53                             154    0.0210 53.9 301 
 BRR  HZ I        22 4  9.37       357.5 0.10            154           53.9 301 
 PAM  EZ EP       22 3 57.07                             143   -0.3610 84.6  51 
 PAM  EN ES       22 4 13.14                             143   -0.0810 84.6  51 
 PAM  EZ I        22 4 16.12       438.6 0.29            143           84.6  51 
 PTB  HZ IP   9 C 22 3 59.34                             129   -1.57 0  133 255 
 PTB  HN ES       22 4 16.94                             129   -0.9110  133 255 
 PTB  HZ I        22 4 21.67       354.9 0.15            126            133 255 
 TAM  HZ IP     D 22 4  4.89                             121    0.02 9  173 106 
 TAM  HZ I        22 4 25.99       129.0 0.18            119            173 106 
 TAM  HE ES       22 4 27.07                             121    0.60 9  173 106 
 ZAR  HZ EP       22 4  5.60                             119   -0.71 9  187 292 
 ZAR  HN ES       22 4 29.70                             119    0.68 9  187 292 
 ZAR  HZ I        22 4 34.13       261.7 0.28            117            187 292 
 NOR  HZ EP   4   22 4  9.28                             114   -1.34 0  225 231 
 NOR  HN ES       22 4 36.73                             114    0.04 8  225 231 
 NOR  HZ I        22 4 41.36       135.5 0.17            111            225 231 
 ROSC BZ EP       22 4 14.35                             111    0.51 8  250 207 
 ROSC BN ES   3   22 4 44.03                             111    1.61 2  250 207 
 ROSC BZ I        22 4 50.59        96.8 0.55            109            250 207 
 CHI  HZ IP     C 22 4 13.74                             111   -0.20 8  251 191 
 CHI  HN ES       22 4 42.19                             111   -0.43 8  251 191 
 CHI  HZ I        22 4 48.17        89.0 0.25            108            251 191 
 URE  HZ EP   4   22 4 13.35                             110   -1.84 0  266 292 
 URE  HN ES   4   22 4 41.89                             110   -2.95 0  266 292 
 URE  HZ I        22 4 51.76       198.2 0.20            108            266 292 
 LL1C HZ EP   9   22 4 20.14                             107    1.28 0  298 354 
 LL1C HE ES       22 4 53.29                             108    0.64 7  298 354 
 LL6C HZ EP   9   22 4  0.27                             106   -20.9 0  318   0 
 LL6C HN ES   4   22 4 36.72                                    2.11 0  318   0 
 LL6C HZ I        22 4 46.16        67.8 0.28            104            318   0 
 CBOC HZ EP       22 4 21.66                             106    0.02 7  320 250 
 CBOC HN ES       22 4 56.58                             106    0.27 7  320 250 
 CBOC HZ I        22 5  1.99        44.0 0.28            104            320 250 
 PTGC HZ EP   9   22 4 20.04                             106   -1.45 0  321 156 
 PTGC HN ES       22 4 54.19                             106   -0.41 7  321 156 
 PTGC HZ I        22 4 56.69       129.4 0.23            103            321 156 
 ELA  HZ EP       22 4 22.27                             106    0.07 7  321 227 
 ELA  HN ES   4   22 4 59.27                             106    1.96 0  321 227 
 ELA  HZ I        22 5  9.46        73.4 0.43            104            321 227 
 ARGC HZ EP       22 4 25.37                             104    0.65 6  348 343 
 ARGC HE ES       22 5  2.00                             104    0.20 6  348 343 
 ARGC HZ I        22 5  2.96        51.8 0.34            103            348 343 
 ANIL HZ EP       22 4 25.80                             104    0.41 6  351 222 
 ANIL HN ES   4   22 5  5.54                             104    2.55 0  351 222 
 ANIL HZ I        22 5 11.75       179.7 0.29            102            351 222 
 PRA  HZ EP       22 4 29.40                             102   -0.31 6  390 207 
 PRA  HN ES       22 5 11.29                             102    0.60 6  390 207 
 PRA  HZ I        22 5 17.78        80.7 0.32            100            390 207 
 ORTC HZ EP       22 4 29.58                             102   -0.30 6  391 214 
 ORTC HN ES   4   22 5 12.60                             102    1.61 0  391 214 
 ORTC HZ I        22 5 17.12        59.4 0.41            100            391 214 
 SJC  HZ EP   4   22 4 28.03                             102   -2.36 0  395 328 
 SJC  HN ES   4   22 5  7.83                             102   -4.06 0  395 328 
 SJC  HZ I        22 5 20.03        62.5 0.32            100            395 328 
 PAL  HZ EP       22 4 29.94                             102   -0.45 6  395 237 
 PAL  HN ES   4   22 5  7.50                             102   -4.39 0  395 237 
 PAL  HZ I        22 5 16.26        61.8 0.31            100            395 237 
 LCBC HZ EP       22 4 30.93                             101   -0.52 6  405 303 
 LCBC HN ES       22 5 13.79                             101    0.02 6  405 303 
 LCBC HZ I        22 5 16.70        49.4 0.40            100            405 303 
 CRJC HZ EP   9   22 4 35.95                              99   -2.57 0  463   6 
 CRJC HE ES       22 5 23.57                                   -0.22 5  463   6 
 YOT  HZ EP   4   22 4 37.51                              99   -1.19 0  464 227 
 YOT  HN ES   4   22 5 30.56                              99    3.87 0  464 227 
 MARO HZ EP       22 4 47.00                              97   -0.23 4  533 214 
 MARO HN ES       22 5 43.00                              97    1.14 4  533 214 
 MARO HZ I        22 5 50.78         9.8 0.38             95            533 214 
 MAL  EZ EP   4   22 4 50.44                              97    1.85 0  547 235 
 URI  HZ EP   9   22 4 46.28                              97   -3.21 0  555  15 
 URI  HN ES       22 5 42.20                              97   -0.47 4  555  15 
 URI  HZ I        22 5 49.12        12.3 0.30             95            555  15 
 CONO HZ EP       22 4 57.09                              96    0.46 3  608 215 
 FLO2 HZ EP       22 4 59.07                              95   -0.72 2  639 204 
 FLO2 HN ES       22 6  5.17                              95    0.94 2  639 204 
 FLO2 HZ I        22 6 11.41         4.5 0.44             94            639 204 
 SOTO HZ EP       22 5  0.68                              95    0.39 2  639 215 
 BBAC HZ EP       22 5  5.90                              94   -0.48 2  692 220 
 BBAC HN ES       22 6 15.28                              94   -0.67 2  692 220 
 BBAC HZ I        22 6 18.49         3.4 0.30             93            692 220 
                                                                                
