 2010  324 2139 25.1 L   6.867 -72.936151.6  RSN  6 0.3 2.0LRSN                1
 GAP=204        0.58       3.7    10.0  6.4  0.1220E+02 -0.1370E+02  0.8353E+00E
 Epicentro: GUACA - SANTANDER                                                  3
 ACTION:UP  10-08-24 09:55 OP:vdl  STATUS:               ID:20100324213925 L   I
 2010-03-24-2135-39S.COL___098                                                 6
 STAT SP IPHASW D HRMM SECON CODA AMPLIT PERI AZIMU VELO SNR AR TRES W  DIS CAZ7
 BAR2 SZ ES   2   2140  2.43                             164     0.3 5   41 222 
 BRR  HZ IP       2139 48.31                             147     0.310   90 287 
 BRR  HZ I        2139 48.57        23.6 0.15                            90 287 
 BRR  HN ES   1   2140  5.93                             147     0.0 7   90 287 
 RUS  HZ EP   1   2139 50.27                             143     0.2 7  109 189 
 RUS  HE ES   1   2140  9.19                             143    -0.3 7  109 189 
 OCA  SZ EP   2   2139 53.27                             131    -0.4 5  157 344 
 OCA  SZ ES   2   2140 15.36                             131    -0.5 5  157 344 
 OCA  SZ I        2140 22.11        21.4 0.36                           157 344 
 CHI  HZ EP   1   2140  4.42                             117    -0.3 6  263 200 
 CHI  HN ES   2   2140 35.60                             117     0.1 4  263 200 
 CHI  HZ I        2140 37.38         3.3 0.61                           263 200 
 PRA  HZ EP   2   2140 21.22                             106     0.2 3  410 212 
 PRA  HE ES   2   2141  3.79                             106    -0.8 3  410 212 
 PRA  HZ I        2141  6.27         2.5 0.33                           410 212 
                                                                                
