 2012  524 2046 34.6 L   6.841 -73.139142.1  RSN  4 0.1 1.4LRSN                1
 GAP=184        0.36       6.0     4.6  5.4  0.1410E+02  0.1102E+01 -0.1279E+02E
 Epicentro: LOS SANTOS - SANTANDER                                             3
 ACTION:UP  12-07-05 12:07 OP:pat  STATUS:               ID:20120524204634 L   I
 2012-05-24-2040-00M.COL___201                                                 6
 STAT SP IPHASW D HRMM SECON CODA AMPLIT PERI AZIMU VELO SNR AR TRES W  DIS CAZ7
 BAR2 SZ EP   2   2046 53.93                             169     0.1 5   28 190 
 BAR2 SZ ES   2   2047  8.93                             169     0.0 5   28 190 
 BAR2 SZ I        2047 10.97         7.3 0.38                            28 190 
 RUS  HZ EP       2046 58.38                             142     0.110  105 177 
 RUS  HZ I        2046 59.71         2.5 0.46                           105 177 
 RUS  HN ES   1   2047 16.61                             142    -0.2 7  105 177 
 PTB  HZ EP       2047  1.27                             131    -0.1 9  149 257 
 PTB  HN ES   2   2047 22.45                             131     0.2 5  149 257 
 PTB  HZ I        2047 29.49         3.6 0.44                           149 257 
 OCA  HZ EP   3   2047  2.14                             129     0.0 2  156 353 
                                                                                
