 2012 1024 2113 51.6 L   6.778 -73.141148.0  RSN  7 0.3 2.2LRSN                1
 GAP=138        0.64       4.3     4.6  5.5  0.3329E+01  0.6575E+01  0.3078E+01E
 Epicentro: LOS SANTOS - SANTANDER                                             3
 ACTION:UPD 12-11-22 17:05 OP:ep   STATUS:               ID:20121024211351 L   I
 2012-10-24-2110-00M.COL___234                                                 6
 STAT SP IPHASW D HRMM SECON CODA AMPLIT PERI AZIMU VELO AIN AR TRES W  DIS CAZ7
 BAR2 SZ EP   1   2114 11.22                             172   -0.24 7 21.1 193 
 BAR2 SZ ES   1   2114 26.75                             172   -0.19 7 21.1 193 
 BAR2 SZ I        2114 28.31        51.3 0.36                          21.1 193 
 GIR2 SZ EP   1   2114 11.56                             167   -0.05 7 33.7 350 
 GIR2 SZ ES   1   2114 27.03                             167   -0.18 7 33.7 350 
 BRR  HZ EP   1   2114 13.26                             152    0.18 7 72.9 300 
 BRR  HZ I        2114 13.51        46.2 0.14                          72.9 300 
 BRR  HN ES   1   2114 30.55                             152    0.71 7 72.9 300 
 PAM  SZ EP   1   2114 14.22                             151    0.08 7 78.9  38 
 PAM  SN ES   1   2114 31.73                             151    0.00 7 78.9  38 
 PAM  SN I        2114 32.71        30.5 0.24                          78.9  38 
 RUS  HZ EP   1   2114 15.30                             145   -0.10 7 98.1 176 
 RUS  HN ES   1   2114 34.05                             145    0.09 7 98.1 176 
 RUS  HZ I        2114 35.73        13.8 0.38                          98.1 176 
 ZAR  HN ES   1   2114 49.18                             123   -0.69 6  205 293 
 HEL  HZ EP   1   2114 32.27                             115    0.35 6  272 256 
                                                                                
