 2016  924 2237 50.8 L   6.814 -73.171145.2  RSN 18 0.4 2.6LRSN                1
 GAP= 63        0.90       2.5     2.5  4.4 -0.6976E+00  0.2577E+01  0.1296E+01E
 Epicentro: LOS SANTOS - SANTANDER                                             3
 ACTION:UPD 17-08-17 21:15 OP:lp   STATUS:               ID:20160924223750 L   I
 OLDACT:REG 16-09-25 04:34 OP:lv   STATUS:               ID:20160924223345     3
 2016-09-24-2234-00M.COL___330                                                 6
 STAT SP IPHASW D HRMM SECON CODA AMPLIT PERI AZIMU VELO AIN AR TRES W  DIS CAZ7
 BAR2 EZ EP       2238 10.36                             170   -0.0710 24.6 183 
 BAR2 EZ ES       2238 25.45                             170   -0.2610 24.6 183 
 BAR2 EZ I        2238 28.22       119.5 0.30            169           24.6 183 
 BRR  HZ IP     C 2238 12.18                             153    0.4310 67.9 299 
 BRR  HN ES       2238 28.72                             153    0.6610 67.9 299 
 BRR  HZ I        2238 33.36        57.9 0.19            151           67.9 299 
 PAM  EZ EP       2238 13.33                             150    0.2910 78.0  42 
 PAM  EE ES       2238 30.56                             150    0.2110 78.0  42 
 PAM  EZ I        2238 32.56        72.5 0.52            154           78.0  42 
 RUS  HZ EP       2238 14.34                             143   -0.3310  102 175 
 RUS  HE ES       2238 33.13                             143   -0.1310  102 175 
 RUS  HZ I        2238 34.45        67.0 0.32            144            102 175 
 PTB  HZ EP       2238 17.26                             132   -0.28 9  145 258 
 PTB  HN ES       2238 38.15                             132   -0.21 9  145 258 
 PTB  HZ I        2238 43.29        30.0 0.16            131            145 258 
 TAM  HZ IP     C 2238 18.74                             130   -0.03 9  158 105 
 TAM  HN ES       2238 40.55                             130   -0.01 9  158 105 
 OCA  HZ EP       2238 18.50                             130   -0.43 9  158 354 
 OCA  HN ES       2238 40.34                             130   -0.50 9  158 354 
 OCA  HZ I        2238 50.20        64.0 0.24            130            158 354 
 SPBC HZ EP       2238 19.27                             129    0.02 9  163 218 
 SPBC HN ES       2238 41.10                             129   -0.30 9  163 218 
 SPBC HZ I        2238 44.16        62.0 0.27            128            163 218 
 ZAR  HZ EP       2238 22.86                             123   -0.06 9  201 292 
 ZAR  HN ES       2238 48.09                             123    0.15 9  201 292 
 ZAR  HZ I        2238 54.20        28.4 0.34            122            201 292 
 NOR  HZ EP       2238 26.45                             118    0.06 8  233 234 
 NOR  HE ES       2238 54.29                             118    0.17 8  233 234 
 NOR  HZ I        2239  0.02        36.1 0.19            118            233 234 
 CHI  HZ EP       2238 28.66                             117    0.06 8  249 194 
 CHI  HN ES       2238 58.79                             117    0.75 8  249 194 
 CHI  HZ I        2239  7.81        19.2 0.38            117            249 194 
 ROSC BZ EP   4   2238 30.57                             117    1.65 0  253 210 
 ROSC BN ES   4   2239  1.93                             117    3.31 0  253 210 
 ROSC BZ I        2239  5.07        34.9 0.40            117            253 210 
 HEL  HZ EP       2238 31.62                             115    0.86 8  270 255 
 HEL  HE ES       2239  1.19                             115   -0.71 8  270 255 
 HEL  HZ I        2239  9.42        17.8 0.40            115            270 255 
 GUY2CHZ EP       2238 34.21                             112   -0.06 7  300 234 
 GUY2CHN ES       2239  7.94                             112   -0.20 7  300 234 
 GUY2CHZ I        2239 16.36        21.2 0.38                           300 234 
 PTGC HZ EP   9   2238 33.55                             111   -1.41 0  311 158 
 PTGC HN ES       2239  7.26                                   -0.70 7  311 158 
 PTGC HZ I        2239 14.63        23.6 0.29            112            311 158 
 ELA  HZ EP   4   2238 39.82                             110    2.28 0  328 229 
 ELA  HN ES   4   2239 12.86                             110   -1.10 0  328 229 
 ELA  HZ I        2239 29.66        18.0 0.44            110            328 229 
 SJC  HZ EP   4   2238 44.83                             106   -1.22 0  406 327 
 SJC  HN ES   4   2239 25.52                             106   -3.59 0  406 327 
 SJC  HZ I        2239 40.50         5.0 0.29            106            406 327 
 CRJC HZ EP   4   2238 50.86                             103   -2.30 0  466   4 
 CRJC HN ES   4   2239 37.70                             103   -4.07 0  466   4 
 CRJC HZ I        2239 40.33         8.1 0.31            104            466   4 
                                                                                
