 2011  624 2128  7.3 L   6.780 -73.103146.0  RSN 10 0.4 2.0LRSN                1
 GAP=143        0.76       3.7     5.3  5.8 -0.8271E+01  0.8999E+01  0.3623E+01E
 Epicentro: LOS SANTOS - SANTANDER                                             3
 ACTION:UP  11-07-14 19:07 OP:ep   STATUS:               ID:20110624212807 L   I
 2011-06-24-2124-40S.COL___140                                                 6
 STAT SP IPHASW D HRMM SECON CODA AMPLIT PERI AZIMU VELO SNR AR TRES W  DIS CAZ7
 BAR2 SZ EP   1   2128 26.64                             171    -0.3 7   23 203 
 BAR2 SZ ES   1   2128 42.52                             171     0.3 7   23 203 
 BAR2 SZ I        2128 43.86        19.6 0.38                            23 203 
 BTL  SZ EP   1   2128 26.96                             170     0.0 7   24 310 
 BRR  HZ EP       2128 28.64                             151    -0.110   76 298 
 BRR  HN ES   1   2128 45.43                             151    -0.1 7   76 298 
 BRR  HZ I        2128 47.88        22.3 0.16                            76 298 
 PAM  SZ EP   1   2128 29.60                             151     0.1 7   76  36 
 PAM  SN ES   1   2128 46.95                             151     0.2 7   76  36 
 RUS  HZ EP   1   2128 30.59                             145    -0.3 7   98 179 
 RUS  HN ES   1   2128 49.50                             145     0.2 7   98 179 
 RUS  HZ I        2128 50.55        11.8 0.43                            98 179 
 BRI  SZ EP   1   2128 31.36                             141     0.1 7  109  18 
 BRI  SZ ES   1   2128 49.76                             141    -0.2 7  109  18 
 NOR  SZ EP   1   2128 42.91                             118    -0.4 6  237 236 
 NOR  SN ES   1   2129 10.72                             118    -0.7 6  237 236 
 CHI  HZ EP   1   2128 44.63                             117    -0.3 6  248 196 
 CHI  HE ES   1   2129 14.21                             117     0.0 6  248 196 
 CHI  HZ I        2129 20.02         5.5 0.26                           248 196 
 HEL  HZ EP   1   2128 48.91                             114     0.9 6  276 257 
 HEL  HZ I        2129 25.74         5.7 0.39                           276 257 
 RREF HZ EP   1   2128 54.30                             111     0.6 5  324 230 
 RREF HN ES   1   2129 30.59                             111     0.7 5  324 230 
 RREF HZ I        2129 38.31         7.1 0.15                           324 230 
                                                                                
