 2011  324 2305 33.9 L   6.746 -73.069146.0  RSN  5 0.2 2.0LRSN                1
 GAP=258        0.39       4.1     6.9  4.9  0.5616E+01  0.1209E+02  0.8468E+01E
 Epicentro: JORDAN - SANTANDER                                                 3
 ACTION:UP  11-06-16 14:35 OP:jfem STATUS:               ID:20110324230533 L   I
 2011-03-24-2302-58S.COL___120                                                 6
 STAT SP IPHASW D HRMM SECON CODA AMPLIT PERI AZIMU VELO SNR AR TRES W  DIS CAZ7
 BAR2 SZ ES   1   23 6  8.73                             171    -0.1 7   21 217 
 BAR2 SZ I        23 6 10.11        32.7 0.18                            21 217 
 BRR  HZ EP   1   23 5 55.45                             149    -0.2 7   82 299 
 BRR  HE ES   1   23 6 12.81                             149     0.2 7   82 299 
 BRR  HZ I        23 6 15.79        15.5 0.16                            82 299 
 NOR  SZ EP   2   23 6  9.97                             118     0.0 4  238 237 
 NOR  SN ES   2   23 6 37.98                             118    -0.2 4  238 237 
 CHI  HZ EP   2   23 6 11.39                             118     0.2 4  245 197 
 CHI  HE ES   2   23 6 40.56                             118     0.2 4  245 197 
 CHI  HZ I        23 6 43.26         4.6 0.34                           245 197 
 HEL  HZ EP   2   23 6 15.12                             114     0.3 4  279 257 
 HEL  HZ I        23 6 36.27         4.1 0.54                           279 257 
                                                                                
