 2016  424 2301 50.9 L   6.829 -73.140145.5  RSN 22 0.5 2.5LRSN                1
 GAP=119        0.96       2.6     3.0  4.9 -0.2746E+01  0.4507E+01  0.9175E+00E
 Epicentro: LOS SANTOS - SANTANDER                                             3
 ACTION:UPD 16-05-05 14:23 OP:rebc STATUS:               ID:20160424230150 L   I
 OLDACT:DUP 16-04-25 06:50 OP:ak   STATUS:               ID:20160424225749d    3
 2016-04-24-2257-48M.COL___284                                                 6
 STAT SP IPHASW D HRMM SECON CODA AMPLIT PERI AZIMU VELO AIN AR TRES W  DIS CAZ7
 BAR2 EZ IP     D 23 2 10.55                             169    0.0110 26.6 190 
 BAR2 EZ ES       23 2 25.87                             169   -0.0110 26.6 190 
 BAR2 EZ I        23 2 27.33                             171           26.6 190 
 PAM  EZ EP       23 2 13.52                             152    0.6310 74.5  41 
 PAM  EN ES       23 2 30.72                             152    0.6610 74.5  41 
 PAM  EZ I        23 2 32.74        54.2 0.52            146           74.5  41 
 RUS  HZ EP       23 2 14.50                             143   -0.3210  104 177 
 RUS  HN ES       23 2 33.58                             143    0.0710  104 177 
 RUS  HZ I        23 2 34.25        26.2 0.18            142            104 177 
 PTB  HZ EP       23 2 17.14                             132   -0.79 9  149 258 
 PTB  HN ES       23 2 38.37                             132   -0.66 9  149 258 
 PTB  HZ I        23 2 40.42        34.7 0.18            127            149 258 
 OCA  HZ EP       23 2 18.48                             130   -0.38 9  157 353 
 OCA  HN ES       23 2 40.70                             130   -0.00 9  157 353 
 OCA  HZ I        23 2 43.87        66.0 0.26            124            157 353 
 SPBC HZ EP       23 2 19.55                             128   -0.07 9  166 218 
 SPBC HN ES       23 2 41.82                             128   -0.23 9  166 218 
 SPBC HZ I        23 2 44.85        54.8 0.18            125            166 218 
 ZAR  HZ EP       23 2 23.96                             122    0.73 9  203 291 
 ZAR  HE ES       23 2 48.48                             122    0.01 9  203 291 
 ZAR  HZ I        23 2 53.81        38.2 0.32            117            203 291 
 NOR  HZ EP   2   23 2 26.97                             118    0.14 4  237 234 
 NOR  HE ES       23 2 54.67                             118   -0.22 8  237 234 
 NOR  HZ I        23 3  4.17        25.2 0.42            114            237 234 
 CHI  HZ EP       23 2 28.91                             117    0.00 8  252 195 
 CHI  HN ES       23 2 58.37                             117   -0.21 8  252 195 
 CHI  HZ I        23 3  1.89        24.4 0.50            113            252 195 
 ROSC BZ EP   1   23 2 30.11                             116    0.80 6  256 211 
 ROSC BE ES       23 2 59.17                             116   -0.12 8  256 211 
 ROSC BZ I        23 3  5.05        57.2 0.40            113            256 211 
 HEL  HZ EP   2   23 2 32.03                             115    0.81 4  273 255 
 HEL  HN ES       23 3  2.80                             115    0.11 8  273 255 
 HEL  HZ I        23 3  8.66        19.4 0.28            111            273 255 
 URE  HZ EP   2   23 2 31.32                             114   -0.53 4  283 291 
 URE  HN ES   4   23 3  1.42                             114   -2.40 0  283 291 
 URE  HZ I        23 3  9.70        16.1 0.16            109            283 291 
 SOCV BZ EP   4   23 2 31.68                             112   -1.97 0  299  57 
 SOCV BN ES       23 3  6.27                             112   -0.75 7  299  57 
 GUY2CHZ EP       23 2 35.16                             112    0.43 7  304 234 
 GUY2CHE ES       23 3  8.83                             112   -0.11 7  304 234 
 GUY2CHZ I        23 3 16.84        20.3 0.34                           304 234 
 LL6C HZ EP   4   23 2 34.76                             111   -1.43 0  322 357 
 LL6C HZ I        23 3 16.60         9.9 0.44            106            322 357 
 ELA  HZ EP   2   23 2 38.81                             110    0.81 3  332 229 
 ELA  HN ES       23 3 15.67                             110    0.91 7  332 229 
 ELA  HZ I        23 3 23.31        15.8 0.52            107            332 229 
 CBOC HZ EP       23 2 38.17                             110    0.22 7  335 252 
 CBOC HE ES       23 3 14.36                             110   -0.31 7  335 252 
 CBOC HZ I        23 3 19.03         3.8 0.30            106            335 252 
 ANIL HZ EP   2   23 2 41.23                             108    0.25 3  360 224 
 ANIL HN ES       23 3 20.99                             108    0.93 6  360 224 
 ORTC HZ EP       23 2 44.43                             106   -0.69 6  398 216 
 ORTC HN ES       23 3 27.14                             106   -0.30 6  398 216 
 ORTC HZ I        23 3 31.97        13.3 0.24            103            398 216 
 SJC  HZ EP   9   23 2 44.13                             106   -2.01 0  407 327 
 SJC  HN ES       23 3 26.31                                   -0.93 6  407 327 
 SJC  HZ I        23 3 37.98         4.1 0.44            102            407 327 
 PAL  HZ EP       23 2 46.11                             106   -0.16 6  408 239 
 PAL  HE ES       23 3 29.31                             106   -0.18 6  408 239 
 PAL  HZ I        23 3 33.51         5.5 0.25            103            408 239 
 CRJC HZ EP   9   23 2 51.08                             103   -1.89 0  464   3 
 CRJC HE ES       23 3 39.09                                   -0.43 5  464   3 
 CRJC HZ I        23 3 41.63         9.6 0.40            100            464   3 
 MACC HZ EP   4   23 2 58.18                             101   -1.78 0  524 189 
 MACC HE ES   4   23 3 49.55                             101   -4.30 0  524 189 
                                                                                
