 2012  224 2221 24.1 L   6.798 -73.126143.3  RSN 15 0.4 2.6LRSN                1
 GAP=104        0.78       3.2     3.9  5.0 -0.1539E+01  0.3732E+01  0.1401E+01E
 ACTION:UP  12-03-07 16:33 OP:epov STATUS:               ID:20120224222124 L   I
 2012-02-24-2220-00M.COL___192                                                 6
 STAT SP IPHASW D HRMM SECON CODA AMPLIT PERI AZIMU VELO AIN AR TRES W  DIS CAZ7
 BAR2 SZ EP   1   2221 42.65                             170   -0.80 7 23.5 195 
 BAR2 SZ ES   1   2221 57.95                             170   -0.58 7 23.5 195 
 BAR2 SZ I        2221 59.34       103.3 0.35                          23.5 195 
 GIR2 SZ EP       2221 43.66                             167    0.1510 32.0 347 
 BRR  HZ IP     C 2221 45.48                             151    0.3710 73.2 298 
 BRR  HE ES   1   2222  1.69                             151    0.20 7 73.2 298 
 BRR  HZ I        2222  6.49       177.0 0.13                          73.2 298 
 PAM  SZ EP       2221 46.40                             151    0.4010 76.3  38 
 PAM  SN ES   1   2222  3.20                             151    0.13 7 76.3  38 
 RUS  HZ EP   1   2221 47.70                             143    0.11 7  100 177 
 RUS  HN ES   1   2222  6.20                             143    0.29 7  100 177 
 PTB  HZ EP   1   2221 50.22                             131   -0.85 7  150 259 
 OCA  SZ EP       2221 52.21                             129   -0.07 9  161 352 
 YOP  SZ EP   1   2221 53.66                             126   -0.20 7  178 154 
 ZAR  HZ EP   1   2221 55.98                             121   -0.63 6  206 292 
 ZAR  HN ES   1   2222 21.98                             121    0.02 6  206 292 
 ZAR  HZ I        2222 27.47        76.3 0.39                           206 292 
 NOR  SZ EP   1   2222  0.08                             118    0.21 6  236 235 
 NOR  SE ES   1   2222 27.78                             118    0.02 6  236 235 
 CHI  HZ EP   1   2222  2.12                             117    0.41 6  249 196 
 CHI  HN ES   1   2222 30.90                             117   -0.13 6  249 196 
 CHI  HZ I        2222 37.83         9.6 0.44                           249 196 
 HEL  HZ EP   1   2222  4.98                             114    0.56 6  274 256 
 HEL  HZ I        2222 42.19        22.5 0.46                           274 256 
 RREF HZ EP   1   2222 10.43                             110    0.12 5  323 230 
 RREF HZ I        2222 54.12        18.4 0.58                           323 230 
 SDV  BZ EP   1   2222 13.42                             108   -0.47 5  359  50 
 SDV  BZ I        2222 52.53        13.5 0.54                           359  50 
 PRA  HZ EP   1   2222 17.45                             106   -0.19 4  393 210 
                                                                                
