 2017  324 2351 14.4 L   6.192 -73.595116.0  RSN  5 0.3 1.5LRSN                1
 GAP=124        0.77       4.1     3.1  7.7  0.1796E+01  0.1104E+02  0.4601E+01E
 Epicentro: LA PAZ - SANTANDER                                                 3
 ACTION:UPD 17-05-25 18:44 OP:jn   STATUS:               ID:20170324235114 L   I
 OLDACT:UP  17-05-02 12:59 OP:nlst STATUS:               ID:20170324235114 L   3
 OLDACT:UP  17-03-25 00:56 OP:dani STATUS:               ID:20170324234745     3
 OLDACT:UP  17-03-25 00:56 OP:dani STATUS:               ID:20170324234745     3
 OLDACT:UP  17-03-25 00:56 OP:dani STATUS:               ID:20170324234745     3
 OLDACT:REG 17-03-25 00:25 OP:dani STATUS:               ID:20170324234745     3
 2017-03-24-2348-00M.COL___394                                                 6
 STAT SP IPHASW D HRMM SECON CODA AMPLIT PERI AZIMU VELO AIN AR TRES W  DIS CAZ7
 BAR2 EZ EP       2351 32.40                             149    0.1010 63.6  46 
 BAR2 EZ ES       2351 46.68                             149    0.4410 63.6  46 
 BAR2 EZ I        2351 47.74        11.1 0.42            152           63.6  46 
 RUS  HZ EP       2351 32.47                             149   -0.3210 65.6 120 
 RUS  HN ES       2351 46.88                             149   -0.2310 65.6 120 
 RUS  HZ I        2351 47.80         4.0 0.19            152           65.6 120 
 PTB  HZ EP   3   2351 33.82                             135   -1.09 2  103 292 
 PTB  HN ES       2351 50.53                             135   -0.3610  103 292 
 PTB  HZ I        2351 52.85         5.6 0.12            137            103 292 
 NOR  HZ EP       2351 40.46                             122    0.29 9  157 244 
 NOR  HN ES       2352  0.53                             122    0.29 9  157 244 
 NOR  HZ I        2352  1.39         7.1 0.20            124            157 244 
 ZAR  HE ES       2352  8.28                             115   -0.08 9  200 316 
                                                                                
