 2010  824 2217 17.1 L   6.775 -73.063150.3  RSN 13 0.4 3.8LRSN                1
 GAP=132        0.89       3.2     5.6  5.0 -0.3102E+01  0.2737E+01  0.1919E+01E
 Epicentro: LOS SANTOS - SANTANDER                                             3
 ACTION:UP  10-09-07 10:57 OP:vdl  STATUS:               ID:20100824221717 L   I
 2010-08-24-2214-31S.COL___121                                                 6
 STAT SP IPHASW D HRMM SECON CODA AMPLIT PERI AZIMU VELO SNR AR TRES W  DIS CAZ7
 BAR2 SZ EP       2217 37.39                             170     0.010   24 213 
 BAR2 SZ ES   1   2217 52.46                             170    -0.6 7   24 213 
 BAR2 SZ I        2217 54.40       756.8 0.25                            24 213 
 BRR  HZ IP     C 2217 39.36                             150     0.010   81 297 
 BRR  HZ I        2217 39.70       838.2 0.15                            81 297 
 BRR  HE ES       2217 56.92                             150     0.310   81 297 
 RUS  HZ EP       2217 41.28                             146     0.110   98 181 
 RUS  HE ES       2218  0.20                             146     0.310   98 181 
 RUS  HZ I        2218  1.61       644.7 0.42                            98 181 
 OCA  SZ EP       2217 46.05                             130    -0.1 9  164 350 
 OCA  SZ ES   1   2218  8.69                             130    -0.1 7  164 350 
 OCA  SZ I        2218 12.90      1361.6 0.43                           164 350 
 CHI  HZ EP       2217 55.05                             118     0.0 8  249 197 
 CHI  HN ES   1   2218 23.78                             118    -0.9 6  249 197 
 CHI  HZ I        2218 33.20       316.8 0.46                           249 197 
 CVER SZ EP   1   2217 57.71                             116    -0.2 6  273 204 
 CVER SZ I        2218 36.47       383.9 0.28                           273 204 
 GUY  SZ EP   1   2218  2.08                             113     0.4 5  307 236 
 GUY  SN ES   1   2218 36.20                             113    -0.2 5  307 236 
 GUY  SZ I        2218 43.21      1284.7 0.47                           307 236 
 TOL  SZ EP       2218  6.86                             110     0.7 6  348 226 
 DBB  SZ IP       2218  5.20                             110    -0.7 6  349 275 
 DBB  SZ I        2218 43.92        73.6 0.39                           349 275 
 SDV  BZ EP       2218  6.71                             109    -0.1 6  355  49 
 SDV  BZ I        2218 46.32       137.3 0.53                           355  49 
 ANIL HZ EP       2218  8.06                             109     0.4 6  362 226 
 ANIL HN ES   1   2218 47.08                             109     0.0 5  362 226 
 ANIL HZ I        2218 55.28       552.8 0.34                           362 226 
 PRA  HZ EP   1   2218 10.61                             107    -0.5 4  394 211 
 PRA  HN ES   1   2218 52.82                             107    -0.3 4  394 211 
 PRA  HZ I        2218 58.56       292.0 0.29                           394 211 
 HORQ SZ EP   1   2218 28.04                             102    -0.2 3  537 227 
 HORQ SZ I        2219 31.00        23.0 0.49                           537 227 
                                                                                
