 2017  124 2240 43.5 L   6.720 -73.105144.8  RSN  6 0.3 1.4LRSN                1
 GAP=145        1.13       5.8     6.0  8.1  0.6496E+01 -0.2256E+01 -0.3865E+01E
 Epicentro: JORDAN - SANTANDER                                                 3
 ACTION:UPD 17-05-22 16:03 OP:jn   STATUS:               ID:20170124224043 L   I
 OLDACT:REG 17-01-25 03:28 OP:cara STATUS:               ID:20170124223745     3
 2017-01-24-2238-00M.COL___352                                                 6
 STAT SP IPHASW D HRMM SECON CODA AMPLIT PERI AZIMU VELO AIN AR TRES W  DIS CAZ7
 BAR2 EZ EP       2241  2.40                             174   -0.5210 16.5 211 
 BAR2 EZ ES       2241 18.60                             174    0.5510 16.5 211 
 BAR2 EZ I        2241 20.17         6.9 0.24            172           16.5 211 
 BRR  HZ EP       2241  5.02                             150   -0.0510 79.5 303 
 BRR  HN ES       2241 22.09                             150    0.2210 79.5 303 
 PAM  EZ EP       2241  5.93                             149    0.0210 81.8  33 
 PAM  EN ES       2241 23.25                             149   -0.1210 81.8  33 
 PAM  EZ I        2241 25.55         5.5 0.44            152           81.8  33 
 RUS  HZ EP       2241  6.74                             146    0.1910 91.6 178 
 RUS  HN ES       2241 24.35                             146   -0.1610 91.6 178 
 RUS  HZ I        2241 27.60         3.5 0.40            147           91.6 178 
 PTB  HZ EP   9   2241 10.48                             131   -0.21 0  151 262 
 PTB  HN ES       2241 30.56                             131   -1.11 9  151 262 
 PTB  HZ I        2241 34.74         2.7 0.14            132            151 262 
 ZAR  HZ EP   4   2241 18.37                             121    1.67 0  212 294 
 ZAR  HN ES       2241 42.39                             121   -0.18 8  212 294 
 ZAR  HZ I        2241 44.86         3.0 0.10            122            212 294 
                                                                                
