 2017 1224 2339 24.9 L   6.798 -73.168143.4  RSN 22 0.4 2.6LRSN                1
 GAP= 64        1.00       2.4     2.8  5.1 -0.7611E+00  0.3004E+01  0.1510E+01E
 Epicentro: LOS SANTOS - SANTANDER                                             3
 ACTION:UPD 18-01-04 13:24 OP:rebc STATUS:               ID:20171224233924 L   I
 OLDACT:UP  17-12-25 07:54 OP:lv   STATUS:               ID:20171224233429     3
 OLDACT:REG 17-12-25 04:40 OP:lv   STATUS:               ID:20171224233429     3
 2017-12-24-2338-00M.COL___457                                                 6
 STAT SP IPHASW D HRMM SECON CODA AMPLIT PERI AZIMU VELO AIN AR TRES W  DIS CAZ7
 BAR2 EZ IP     C 2339 44.10                             171   -0.1210 22.8 184 
 BAR2 EZ ES       2339 59.13                             171   -0.1710 22.8 184 
 BAR2 EZ I        2340  0.87       104.9 0.30            168           22.8 184 
 PAM  EZ IP     C 2339 46.91                             150   -0.0410 79.1  41 
 PAM  EN ES       2340  4.38                             150    0.2110 79.1  41 
 PAM  EZ I        2340  5.47        27.1 0.18            153           79.1  41 
 PTB  HZ EP       2339 50.84                             132   -0.60 9  145 259 
 PTB  HN ES       2340 12.27                             132    0.12 9  145 259 
 PTB  HZ I        2340 17.82        35.4 0.58            130            145 259 
 TAM  HZ EP       2339 52.32                             130   -0.27 9  157 105 
 TAM  HN ES       2340 14.08                             130   -0.12 9  157 105 
 TAM  HZ I        2340 15.42        20.6 0.48            132            157 105 
 OCA  HZ EP   4   2339 52.27                             129   -0.73 0  160 354 
 OCA  HN ES       2340 15.79                             129    0.85 9  160 354 
 OCA  HZ I        2340 17.25        98.5 0.30            130            160 354 
 SPBC HZ EP       2339 53.10                             129    0.06 9  161 218 
 SPBC HN ES       2340 15.12                             129    0.12 9  161 218 
 SPBC HZ I        2340 17.94        91.4 0.30            128            161 218 
 YPLC HZ IP     D 2339 54.29                             126   -0.31 9  178 151 
 YPLC HE ES       2340 18.31                             126    0.53 9  178 151 
 YPLC HZ I        2340 20.49        23.9 0.26            127            178 151 
 ZAR  HZ EP       2339 56.67                             122   -0.28 9  202 292 
 ZAR  HN ES       2340 21.46                             122   -0.50 9  202 292 
 ZAR  HZ I        2340 29.20        78.7 0.32            121            202 292 
 NOR  HZ EP   4   2340  1.85                             118    1.60 0  233 234 
 NOR  HN ES       2340 28.13                             118    0.30 8  233 234 
 CVER HZ EP       2340  5.08                             114    0.08 8  271 202 
 CVER HN ES       2340 35.95                             114   -0.34 8  271 202 
 CVER HZ I        2340 41.57        16.6 0.26            114            271 202 
 URE  HZ EP   4   2340  4.59                             113   -1.00 0  282 292 
 URE  HN ES   4   2340 35.25                             113   -2.10 0  282 292 
 URE  HZ I        2340 45.36        24.2 0.30            113            282 292 
 DRL03HZ EP       2340  6.45                             113    0.08 7  289 353 
 DRL03HN ES       2340 38.00                             113   -0.73 7  289 353 
 GUY2CHZ EP   9   2340  9.23                             112    1.09 0  299 235 
 GUY2CHN ES       2340 42.60                             112   -0.37 7  299 235 
 GUY2CHZ I        2340 51.52        15.1 0.28                           299 235 
 VIL  EZ EP   9   2340  7.31                             112   -0.80 0  303 191 
 VIL  EN ES       2340 40.46                                   -0.57 7  303 191 
 VIL  EZ I        2340 48.76        12.0 0.32            112            303 191 
 PTGC HZ IP   9 D 2340  6.94                             111   -1.77 0  309 158 
 PTGC HN ES       2340 40.06                                   -1.07 7  309 158 
 PTGC HZ I        2340 42.93        11.7 0.40            112            309 158 
 LL6C HZ EP   4   2340  8.79                             110   -1.71 0  325 358 
 ELA  HZ EP       2340 11.74                             110    0.34 7  327 229 
 ELA  HN ES   4   2340 50.98                             110    3.29 0  327 229 
 ELA  HZ I        2340 56.59        13.4 0.32            110            327 229 
 ANIL HZ EP   4   2340 15.70                             108    1.32 0  355 224 
 ANIL HN ES   4   2340 51.66                             108   -1.33 0  355 224 
 ANIL HZ I        2341  1.47        24.6 0.22            108            355 224 
 PRA  HZ EP       2340 17.57                             106   -0.59 6  391 209 
 PRA  HN ES       2340 59.46                             106   -0.25 6  391 209 
 PRA  HZ I        2341  5.83        11.7 0.28            106            391 209 
 ORTC HZ EP       2340 19.25                             106    0.72 6  394 216 
 ORTC HN ES       2341  1.38                             106    1.00 6  394 216 
 ORTC HZ I        2341  7.58         9.7 0.32            106            394 216 
 SJC  HZ EP   4   2340 18.30                             105   -1.93 0  408 327 
 SJC  HN ES   4   2340 59.75                             105   -3.66 0  408 327 
 SJC  HZ I        2341  6.24         5.8 0.24            106            408 327 
 VALLCHZ EP   4   2340 18.16                             105   -2.31 0  410 359 
 VALLCHN ES   4   2341  0.56                             105   -3.26 0  410 359 
 CRJC HZ EP   4   2340 24.27                             103   -3.09 0  468   4 
 CRJC HE ES   4   2341 11.49                             103   -4.60 0  468   4 
 CRJC HZ I        2341 17.47        12.1 0.50            104            468   4 
 YOT  HZ EP       2340 28.72                             103    1.10 5  470 229 
                                                                                
