 2014 1124 2038  5.5 L   6.784 -73.148144.5  RSN 10 0.4 1.9LRSN                1
 GAP= 99        0.99       4.0     3.8  5.5 -0.4871E+01  0.1489E+01  0.6022E+01E
 Epicentro: LOS SANTOS - SANTANDER                                             3
 ACTION:UPD 14-12-19 15:47 OP:nd   STATUS:               ID:20141124203805 L   I
 OLDACT:REG 14-11-25 05:04 OP:stll STATUS:               ID:20141124202746     3
 2014-11-24-2027-46M.COL___300                                                 6
 STAT SP IPHASW D HRMM SECON CODA AMPLIT PERI AZIMU VELO AIN AR TRES W  DIS CAZ7
 BAR2 SZ EP       2038 24.91                             171   -0.0510 21.5 190 
 BAR2 SZ ES       2038 40.25                             171    0.1310 21.5 190 
 BAR2 SZ I        2038 41.67        17.4 0.26            169           21.5 190 
 BRR  HZ EP       2038 27.07                             152    0.5110 71.8 300 
 BRR  HN ES       2038 43.65                             152    0.6710 71.8 300 
 BRR  HZ I        2038 45.78         7.2 0.42            152           71.8 300 
 PAM  SZ EP       2038 27.76                             150    0.0710 79.0  39 
 PAM  SN ES       2038 44.37                             150   -0.6110 79.0  39 
 PAM  SZ I        2038 47.15        14.6 0.48            155           79.0  39 
 RUS  HZ EP       2038 28.95                             144   -0.0610 98.8 176 
 RUS  HN ES       2038 47.33                             144   -0.0110 98.8 176 
 RUS  HZ I        2038 48.64         6.0 0.30            145           98.8 176 
 PTB  HZ EP       2038 32.07                             132   -0.25 9  147 260 
 PTB  HN ES       2038 52.32                             132   -0.91 9  147 260 
 PTB  HZ I        2039  0.50        11.7 0.30            132            147 260 
 TAM  HZ EP       2038 33.29                             130    0.21 9  155 104 
 SPBC HZ EP       2038 33.91                             129    0.14 9  162 219 
 SPBC HN ES       2038 56.05                             129    0.25 9  162 219 
 SPBC HZ I        2039  1.81        17.4 0.22            130            162 219 
 NOR  HZ EP       2038 40.35                             118   -0.69 8  233 235 
 NOR  HN ES       2039  8.84                             118    0.10 8  233 235 
 NOR  HZ I        2039 11.59         5.3 0.38            120            233 235 
 CHI  HZ EP       2038 43.09                             117    0.14 8  247 195 
 CHI  HN ES       2039 11.87                             117   -0.27 8  247 195 
 CHI  HZ I        2039 18.03         3.6 0.50            119            247 195 
 GUY2CHZ EP       2038 49.16                             112    0.24 7  300 235 
 GUY2CHN ES       2039 23.16                             112    0.38 7  300 235 
 GUY2CHZ I        2039 31.64         5.6 0.34                           300 235 
                                                                                
