 2014  524 2320  6.7 L   6.822 -73.156144.1  RSN 11 0.5 2.1LRSN                1
 GAP=182        1.21       3.2     5.8  7.5 -0.2602E+00  0.3321E+01  0.2805E+01E
 Epicentro: LOS SANTOS - SANTANDER                                             3
 ACTION:UPD 15-03-16 17:00 OP:nd   STATUS:               ID:20140524232006 L   I
 OLDACT:REG 14-05-25 05:00 OP:carl STATUS:               ID:20140524231808     3
 2014-05-24-2318-08M.COL___227                                                 6
 STAT SP IPHASW D HRMM SECON CODA AMPLIT PERI AZIMU VELO AIN AR TRES W  DIS CAZ7
 BRR  HZ EP       2320 28.07                             153    0.5310 69.1 297 
 BRR  HN ES       2320 44.77                             153    0.9710 69.1 297 
 BRR  HZ I        2320 48.35        18.6 0.12            150           69.1 297 
 RUS  HZ EP       2320 30.28                             143   -0.1810  103 176 
 RUS  HN ES       2320 48.79                             143   -0.2010  103 176 
 RUS  HZ I        2320 50.31        14.0 0.24            146            103 176 
 PTB  HZ EP       2320 32.85                             132   -0.62 9  147 258 
 PTB  HN ES       2320 53.99                             132   -0.36 9  147 258 
 PTB  HZ I        2321  1.34        15.3 0.34            132            147 258 
 OCA  HN ES       2320 56.11                             130   -0.32 9  158 353 
 OCA  HZ I        2321  1.03        15.1 0.18            133            158 353 
 SPBC HZ EP       2320 35.38                             128    0.21 9  164 218 
 SPBC HE ES       2320 57.02                             128   -0.37 9  164 218 
 SPBC HZ I        2321  4.28        22.6 0.42            130            164 218 
 ZAR  HZ EP       2320 38.04                             122   -0.79 9  202 292 
 ZAR  HN ES       2321  3.82                             122   -0.08 9  202 292 
 ZAR  HZ I        2321 12.74        11.2 0.42            123            202 292 
 NOR  HZ EP       2320 42.56                             118    0.18 8  235 234 
 NOR  HN ES       2321 10.11                             118   -0.10 8  235 234 
 NOR  HZ I        2321 15.27         8.3 0.16            120            235 234 
 SML  HZ EP       2320 42.87                             117   -0.07 8  241 335 
 SML  HN ES       2321 11.01                             117   -0.20 8  241 335 
 SML  HZ I        2321 13.25        13.7 0.42            120            241 335 
 CHI  HZ EP       2320 44.58                             117    0.06 8  251 195 
 CHI  HN ES       2321 13.64                             117   -0.38 8  251 195 
 CHI  HZ I        2321 20.83         7.1 0.54            119            251 195 
 GUY2CHZ EP       2320 50.82                             112    0.54 7  302 234 
 GUY2CHN ES       2321 24.39                             112    0.12 7  302 234 
 GUY2CHZ I        2321 32.66         7.8 0.28                           302 234 
 RREF HZ EP       2320 54.58                             110    1.73 7  322 229 
 RREF HN ES       2321 28.75                             110   -0.09 7  322 229 
 RREF HZ I        2321 38.47         6.2 0.26            112            322 229 
                                                                                
