 2016 1224 2301 25.3 L   6.793 -73.114142.0  RSN  6 0.3 1.4LRSN                1
 GAP=141        0.66       2.7     3.3  5.2  0.6726E+00  0.5123E+00  0.2363E+01E
 Epicentro: LOS SANTOS - SANTANDER                                             3
 ACTION:UPD 17-01-11 20:18 OP:rebc STATUS:               ID:20161224230125 L   I
 OLDACT:UP  16-12-25 06:04 OP:and  STATUS:               ID:20161224225743     3
 OLDACT:UP  16-12-25 06:03 OP:and  STATUS:               ID:20161224225743     3
 OLDACT:UP  16-12-25 06:02 OP:and  STATUS:               ID:20161224225743     3
 OLDACT:REG 16-12-25 04:32 OP:and  STATUS:               ID:20161224225743     3
 2016-12-24-2258-00M.COL___381                                                 6
 STAT SP IPHASW D HRMM SECON CODA AMPLIT PERI AZIMU VELO AIN AR TRES W  DIS CAZ7
 BRR  HZ EP       23 1 45.99                             151   -0.2110 74.7 298 
 BRR  HE ES       23 2  3.01                             151    0.4710 74.7 298 
 PAM  EZ EP       23 1 46.94                             151   -0.0310 75.8  37 
 PAM  EN ES       23 2  3.94                             151    0.0210 75.8  37 
 PAM  EZ I        23 2  5.95         3.7 0.52            153           75.8  37 
 RUS  HZ EP       23 1 48.38                             143   -0.1810 99.6 178 
 RUS  HE ES       23 2  6.71                             143   -0.0310 99.6 178 
 RUS  HZ I        23 2  7.56         3.6 0.17            145           99.6 178 
 PTB  HZ EP   9   23 1 50.77                             130   -1.45 0  151 259 
 PTB  HN ES       23 2 11.81                                    0.00 9  151 259 
 PTB  HZ I        23 2 17.34         2.7 0.16            131            151 259 
 ZAR  HZ EP   2   23 1 58.65                             121    0.82 4  208 292 
 ZAR  HE ES       23 2 22.80                             121   -0.43 8  208 292 
 ZAR  HZ I        23 2 24.94         2.8 0.11            122            208 292 
 CHI  HZ EP   3   23 2  3.70                             116    0.94 2  249 196 
 CHI  HN ES       23 2 32.15                             116    0.13 8  249 196 
                                                                                
