 2014  624 2139  4.2 L   5.815 -73.685121.6  RSN 12 0.4 2.1LRSN                1
 GAP=127        0.89       3.4     3.4  5.9 -0.5836E+01  0.7365E+01 -0.6027E+00E
 Epicentro: PUENTE NACIONAL - SANTANDER                                        3
 ACTION:UPD 14-07-01 22:56 OP:nd   STATUS:               ID:20140624213904 L   I
 OLDACT:UP  14-06-25 04:14 OP:mh   STATUS:               ID:20140624213813     3
 OLDACT:REG 14-06-25 02:48 OP:mh   STATUS:               ID:20140624213813     3
 2014-06-24-2138-13M.COL___265                                                 6
 STAT SP IPHASW D HRMM SECON CODA AMPLIT PERI AZIMU VELO AIN AR TRES W  DIS CAZ7
 SPBC HZ EP     C 2139 21.54                             158   -0.0110 46.5 247 
 SPBC HN ES   1   2139 34.57                             158   -0.50 7 46.5 247 
 SPBC HZ I        2139 36.10        32.0 0.32            156           46.5 247 
 RUS  HZ EP       2139 23.76                             149    0.5010 67.2  83 
 RUS  HN ES       2139 37.99                             149   -0.1210 67.2  83 
 RUS  HZ I        2139 39.93        16.6 0.20            151           67.2  83 
 BAR2 SZ EP     C 2139 25.81                             137    0.3410  102  33 
 BAR2 SZ ES   1   2139 41.63                             137   -0.42 7  102  33 
 BAR2 SZ I        2139 43.58        54.5 0.28            134            102  33 
 PTB  HZ EP   4   2139 24.94                             133   -1.49 0  117 313 
 PTB  HN ES   4   2139 41.39                             133   -2.37 0  117 313 
 PTB  HZ I        2139 43.55        14.7 0.56            128            117 313 
 ROSC BN ES   4   2139 48.02                             130    1.46 0  129 213 
 NOR  HZ EP       2139 27.43                             129   -0.6210  134 258 
 NOR  HN ES       2139 46.67                             129    0.0310  134 258 
 NOR  HZ I        2139 50.02        29.7 0.26            128            134 258 
 BRR  HZ EP       2139 28.49                             127   -0.34 9  143 359 
 BRR  HN ES       2139 48.57                             127    0.54 9  143 359 
 BRR  HZ I        2140 23.61        23.3 0.13            123            143 359 
 GUY2CHZ EP       2139 35.00                             118   -0.07 9  197 251 
 GUY2CHN ES       2139 59.71                             118    0.57 9  197 251 
 GUY2CHZ I        2140  5.31         8.7 0.52                           197 251 
 HEL  HZ EP       2139 35.93                             116   -0.21 8  208 282 
 HEL  HN ES   4   2139 59.81                             116   -1.23 0  208 282 
 HEL  HZ I        2140  4.68        19.6 0.05            115            208 282 
 RREF HZ EP   1   2139 36.66                             116   -0.02 6  210 241 
 RREF HN ES   1   2140  2.69                             116    0.69 6  210 241 
 RREF HZ I        2140  5.94         8.6 0.26            117            210 241 
 ZAR  HZ EP   1   2139 37.75                             114    0.08 6  226 325 
 ZAR  HE ES   1   2140  3.11                             114   -0.66 6  226 325 
 ZAR  HZ I        2140  7.80         6.9 0.24            112            226 325 
 TOL  SZ EP       2139 38.39                             114    0.27 8  227 233 
 TOL  SN ES   1   2140  4.67                             114    0.11 6  227 233 
 TOL  SZ I        2140  8.07        21.5 0.40            115            227 233 
 PRA  HZ EP   1   2139 41.84                             110   -0.58 6  268 210 
 PRA  HN ES   1   2140 11.79                             110   -0.42 6  268 210 
 PRA  HZ I        2140 18.23         8.3 0.28            112            268 210 
                                                                                
