 2012 1124 2320 27.7 L   5.963 -74.213 76.0  RSN  4 0.2 1.1LRSN                1
 GAP=120        0.59       3.2     2.8  9.0  0.4012E+01  0.5742E+00  0.1614E+02E
 Epicentro: LA BELLEZA - SANTANDER                                             3
 ACTION:UPD 12-12-05 15:36 OP:}ep  STATUS:               ID:20121124232027 L   I
 2012-11-24-2320-00M.COL___233                                                 6
 STAT SP IPHASW D HRMM SECON CODA AMPLIT PERI AZIMU VELO AIN AR TRES W  DIS CAZ7
 PTB  HZ EP       2320 41.90                             134    0.1410 69.2 337 
 PTB  HE ES       2320 52.83                             134    0.0710 69.2 337 
 PTB  HN I        2320 56.07         3.7 0.16                          69.2 337 
 RUS  HZ EP       2320 47.83                             116   -0.3010  125  93 
 HEL  HZ EP   1   2320 50.76                             112    0.25 7  148 280 
 HEL  HN ES       2321  8.06                             112   -0.27 9  148 280 
 HEL  HN I        2321 16.39         3.2 0.34                           148 280 
 CHI  HZ EP   1   2320 52.04                             110    0.44 7  157 160 
 CHI  HE ES       2321 10.25                             110   -0.03 9  157 160 
 CHI  HN I        2321 16.33         2.6 0.50                           157 160 
                                                                                
