 2011  224 2055  6.0 L   6.836 -73.013151.0  RSN  5 0.4 2.3LRSN                1
 GAP=271        0.86      10.6     8.7  9.8 -0.9934E+01  0.4797E+02 -0.2377E+02E
 Epicentro: CEPITA - SANTANDER                                                 3
 ACTION:UP  11-03-28 15:11 OP:jfem STATUS:               ID:20110224205506 L   I
 2011-02-24-2053-28S.COL___136                                                 6
 STAT SP IPHASW D HRMM SECON CODA AMPLIT PERI AZIMU VELO SNR AR TRES W  DIS CAZ7
 BAR2 SZ IP       2055 26.69                             168     0.210   33 215 
 BAR2 SZ ES   1   2055 42.63                             168     0.2 7   33 215 
 BAR2 SZ I        2055 43.26        65.6 0.26                            33 215 
 RUS  HZ EP   1   2055 30.54                             144     0.0 7  105 184 
 RUS  HE ES   1   2055 49.05                             144    -0.6 7  105 184 
 RUS  HZ I        2055 50.40        14.2 0.32                           105 184 
 HEL  HZ EP   1   2055 48.20                             114     0.1 5  287 256 
 HEL  HN ES   1   2056 20.95                             114    -0.1 5  287 256 
 HEL  HZ I        2056 27.25         9.9 0.34                           287 256 
 RREF HZ EP   1   2055 54.51                             111     0.6 5  336 231 
 RREF HN ES   1   2056 31.73                             111     0.4 5  336 231 
 RREF HZ I        2056 37.47        11.0 0.22                           336 231 
 DBB  SZ EP   1   2055 54.40                             109    -0.9 5  354 273 
                                                                                
