 2014 1124 2010 28.9 L   6.791 -73.173136.6  RSN 16 0.7 2.3LRSN                1
 GAP= 70        1.51       4.0     4.5  7.0 -0.4004E+01  0.8304E+01  0.4873E+01E
 Epicentro: LOS SANTOS - SANTANDER                                             3
 ACTION:UPD 14-12-19 15:47 OP:nd   STATUS:               ID:20141124201028 L   I
 OLDACT:REG 14-11-25 05:03 OP:stll STATUS:               ID:20141124200745     3
 2014-11-24-2007-45M.COL___300                                                 6
 STAT SP IPHASW D HRMM SECON CODA AMPLIT PERI AZIMU VELO AIN AR TRES W  DIS CAZ7
 BAR2 SZ EP       2010 47.67                             170    0.2510 22.0 183 
 BAR2 SZ ES       2011  1.85                             170   -0.0010 22.0 183 
 BAR2 SZ I        2011  3.30        51.9 0.20            170           22.0 183 
 BRR  HZ IP     C 2010 49.45                             152    0.4910 69.0 300 
 BRR  HZ I        2010 49.69        54.9 0.22            150           69.0 300 
 BRR  HN ES       2011  5.42                             152    0.8310 69.0 300 
 PAM  SZ EP       2010 50.58                             148    0.2410 80.1  41 
 PAM  SN ES       2011  6.99                             148   -0.0710 80.1  41 
 PAM  SZ I        2011  9.77        38.9 0.50            152           80.1  41 
 RUS  HZ EP       2010 51.68                             142   -0.0410 99.8 174 
 RUS  HN ES       2011  9.43                             142   -0.0810 99.8 174 
 RUS  HZ I        2011 12.37        20.3 0.34            144           99.8 174 
 PTB  HZ EP       2010 54.26                             130   -0.60 9  145 259 
 PTB  HE ES       2011 14.29                             130   -0.80 9  145 259 
 PTB  HZ I        2011 17.03        25.6 0.46            130            145 259 
 TAM  HZ EP       2010 56.04                             128   -0.11 9  158 104 
 TAM  HZ I        2010 56.48        23.8 0.44            132            158 104 
 SPBC HZ EP       2010 56.73                             127    0.26 9  160 218 
 SPBC HN ES       2011 18.25                             127    0.30 9  160 218 
 SPBC HZ I        2011 25.33        25.6 0.10            128            160 218 
 OCA  HZ EP       2010 56.00                             127   -0.60 9  161 354 
 OCA  HN ES       2011 16.99                             127   -1.20 9  161 354 
 OCA  HZ I        2011 20.75        19.8 0.28            129            161 354 
 ZAR  HZ EP       2011  1.83                             121    1.30 9  202 293 
 ZAR  HN ES       2011 26.00                             121    0.82 9  202 293 
 ZAR  HZ I        2011 32.30        29.4 0.30            121            202 293 
 NOR  HZ EP       2011  3.37                             117   -0.43 8  232 234 
 NOR  HN ES       2011 30.57                             117   -0.43 8  232 234 
 NOR  HZ I        2011 35.41        19.7 0.44            118            232 234 
 CHI  HZ EP       2011  5.61                             115   -0.32 8  247 195 
 CHI  HE ES       2011 34.58                             115   -0.22 8  247 195 
 HEL  HZ EP       2011  9.43                             113    1.11 8  269 256 
 HEL  HN ES       2011 38.88                             113   -0.17 8  269 256 
 HEL  HZ I        2011 45.91        11.2 0.28            114            269 256 
 GUY2CHZ EP       2011 12.10                             111    0.33 7  298 235 
 GUY2CHN ES       2011 44.48                             111   -0.71 7  298 235 
 GUY2CHZ I        2011 53.87        13.2 0.42                           298 235 
 RREF HZ EP       2011 13.64                             109   -0.69 7  319 229 
 RREF HE ES       2011 49.54                             109   -0.22 7  319 229 
 RREF HZ I        2011 55.02         9.6 0.30            110            319 229 
 CBOC HZ EP       2011 14.73                             108   -0.37 7  330 252 
 CBOC HN ES       2011 49.57                             108   -1.54 7  330 252 
 CBOC HZ I        2012  4.19         3.1 0.30            109            330 252 
 TOL  SZ EP       2011 17.69                             108    1.20 7  341 224 
 TOL  SN ES       2011 54.79                             108    1.20 7  341 224 
                                                                                
