 2011  924 2201 38.1 L   6.728 -73.075144.4  RSN 11 0.3 2.2LRSN                1
 GAP=149        0.47       2.7     3.3  4.7 -0.2023E+01  0.4280E+01  0.6845E+00E
 Epicentro: JORDAN - SANTANDER                                                 3
 ACTION:UPD 12-07-13 15:59 OP:ep   STATUS:               ID:20110924220138 L   I
 2011-09-24-2159-13S.COL___165                                                 6
 STAT SP IPHASW D HRMM SECON CODA AMPLIT PERI AZIMU VELO AIN AR TRES W  DIS CAZ7
 BAR2 SZ IP       22 1 57.43                             172   -0.0610 19.1 218 
 BAR2 SZ ES   2   22 2 12.00                             172   -0.61 5 19.1 218 
 BAR2 SZ I        22 2 14.48        34.1 0.51                          19.1 218 
 BTL  SZ EP   2   22 1 57.87                             168    0.15 5 29.9 315 
 PAM  SZ IP       22 2  0.63                             150    0.3410 79.3  32 
 PAM  SN ES   2   22 2 17.72                             150    0.13 5 79.3  32 
 BRR  HZ EP   2   22 1 59.77                             149    0.03 5 81.9 301 
 BRR  HZ I        22 2  1.54        37.5 0.09                          81.9 301 
 BRR  HN ES   2   22 2 16.99                             149    0.36 5 81.9 301 
 RUS  HZ EP       22 2  1.17                             146    0.0310 92.4 181 
 RUS  HZ I        22 2  2.38        19.9 0.22                          92.4 181 
 RUS  HN ES   2   22 2 18.89                             146   -0.22 5 92.4 181 
 OCA  SZ EP   1   22 2  6.66                             128   -0.50 7  169 351 
 OCA  SZ I        22 2 38.67        17.9 0.35                           169 351 
 ZAR  HZ EP   2   22 2 11.39                             121   -0.13 4  214 293 
 ZAR  HE ES   2   22 2 37.27                             121   -0.32 4  214 293 
 ZAR  HZ I        22 2 41.61        23.9 0.32                           214 293 
 NOR  SZ EP   1   22 2 13.61                             118   -0.35 6  237 237 
 NOR  SE ES   2   22 2 42.10                             118    0.17 4  237 237 
 CHI  HZ EP   2   22 2 15.08                             117   -0.05 4  243 197 
 CHI  HN ES   2   22 2 44.11                             117    0.10 4  243 197 
 CHI  HZ I        22 2 50.79         5.9 0.64                           243 197 
 HEL  HZ EP   2   22 2 18.97                             114    0.09 4  278 258 
 HEL  HN ES   2   22 2 51.33                             114    0.64 4  278 258 
 HEL  HZ I        22 2 56.06        12.6 0.41                           278 258 
 RREF HZ EP   2   22 2 24.25                             110   -0.04 3  323 231 
 RREF HN ES   2   22 3  0.56                             110    0.25 3  323 231 
 RREF HZ I        22 3  6.43        10.7 0.64                           323 231 
                                                                                
