 2017  924 2001 24.7 L   6.756 -73.133149.5  RSN  5 0.2 1.5LRSN                1
 GAP=235        0.49       3.9     7.8  5.1  0.1786E+02 -0.4933E+01  0.2394E+01E
 Epicentro: LOS SANTOS - SANTANDER                                             3
 ACTION:UPD 17-10-05 19:15 OP:rebc STATUS:               ID:20170924200124 L   I
 OLDACT:DUP 17-09-25 04:31 OP:mg   STATUS:               ID:20170924195024d    3
 2017-09-24-1958-00M.COL___405                                                 6
 STAT SP IPHASW D HRMM SECON CODA AMPLIT PERI AZIMU VELO AIN AR TRES W  DIS CAZ7
 BAR2 EZ EP   1   20 1 44.52                             172   -0.22 7 18.9 197 
 BAR2 EZ ES   1   20 2  0.02                             172   -0.32 7 18.9 197 
 BAR2 EZ I        20 2  2.58         8.4 0.30            166           18.9 197 
 BRR  HZ EP     D 20 1 46.55                             152    0.0510 74.8 301 
 BRR  HN ES       20 2  3.53                             152    0.0610 74.8 301 
 BRR  HZ I        20 2  4.24         4.5 0.13            151           74.8 301 
 RUS  HZ EP       20 1 48.59                             146    0.0710 95.6 177 
 RUS  HN ES   1   20 2  7.40                             146    0.34 7 95.6 177 
 RUS  HZ I        20 2  8.86         3.5 0.29            143           95.6 177 
 CHI  HZ EP   4   20 1 59.48                             118   -2.70 0  244 196 
 CHI  HN ES   1   20 2 31.15                             118   -0.23 6  244 196 
 CHI  HZ I        20 2 36.07         2.0 0.34            118            244 196 
 GUY2CHZ EP   4   20 2 10.06                             113    1.72 0  300 236 
 GUY2CHN ES   4   20 2 46.98                             113    4.64 0  300 236 
 GUY2CHZ I        20 2 50.85         2.0 0.27                           300 236 
                                                                                
