 2017 1224 2158 54.1 L   6.789 -73.154145.1  RSN  4 0.2 1.8LRSN                1
 GAP=220        0.61       4.6     3.4  6.3 -0.7008E+01  0.5166E+01  0.2094E+01E
 Epicentro: LOS SANTOS - SANTANDER                                             3
 ACTION:UPD 18-01-04 13:24 OP:rebc STATUS:               ID:20171224215854 L   I
 OLDACT:REG 17-12-25 04:36 OP:lv   STATUS:               ID:20171224214400     3
 2017-12-24-2148-00M.COL___457                                                 6
 STAT SP IPHASW D HRMM SECON CODA AMPLIT PERI AZIMU VELO AIN AR TRES W  DIS CAZ7
 PAM  EZ EP       2159 16.47                             150    0.1310 78.9  40 
 PAM  EN ES       2159 33.74                             150    0.0610 78.9  40 
 PAM  EZ I        2159 35.82         8.9 0.56            154           78.9  40 
 PTB  HZ EP       2159 20.71                             132   -0.20 9  147 259 
 PTB  HN ES       2159 41.73                             132   -0.09 9  147 259 
 PTB  HZ I        2159 47.49         5.7 0.28            134            147 259 
 OCA  HZ EP       2159 22.08                             129   -0.38 9  161 354 
 OCA  HN ES       2159 44.55                             129   -0.03 9  161 354 
 OCA  HZ I        2159 49.21        16.7 0.38            132            161 354 
 ZAR  HZ EP       2159 26.97                             122    0.51 9  204 293 
 ZAR  HN ES       2159 51.75                             122    0.05 9  204 293 
 ZAR  HZ I        2159 57.37         5.1 0.18            124            204 293 
                                                                                
