 2010 1224 2332 46.5 L   6.815 -73.152139.5  RSN 10 0.3 1.8LRSN                1
 GAP=158        0.65       3.0     6.6  5.4 -0.1029E+02  0.8469E+01  0.1641E+01E
 Epicentro: LOS SANTOS - SANTANDER                                             3
 ACTION:UP  11-01-14 15:27 OP:pat  STATUS:               ID:20101224233246 L   I
 2010-12-24-2331-12S.COL___136                                                 6
 STAT SP IPHASW D HRMM SECON CODA AMPLIT PERI AZIMU VELO SNR AR TRES W  DIS CAZ7
 BTL  SZ EP       2333  5.80                             173     0.510   17 312 
 BTL  SZ ES   1   2333 20.14                             173     0.2 7   17 312 
 BAR2 SZ EP       2333  5.41                             169     0.010   25 188 
 BAR2 SZ ES   2   2333 20.06                             169    -0.2 5   25 188 
 BAR2 SZ I        2333 21.73        12.7 0.31                            25 188 
 RUS  HZ EP       2333  9.54                             142    -0.310  102 176 
 RUS  HZ I        2333 10.70         7.1 0.18                           102 176 
 GRA  SZ EP       2333 11.14                             136     0.010  124  18 
 GRA  SZ ES   1   2333 30.23                             136    -0.1 7  124  18 
 GRA  SZ I        2333 32.83         6.3 0.33                           124  18 
 OCA  SZ EP       2333 14.34                             129     0.1 9  159 353 
 OCA  SZ ES   1   2333 35.16                             129    -0.6 7  159 353 
 OCA  SZ I        2333 41.08         9.1 0.20                           159 353 
 NOR  SZ EP       2333 21.95                             117     0.0 8  235 234 
 NOR  SN ES   2   2333 49.50                             117    -0.1 4  235 234 
 CHI  HZ EP   2   2333 23.69                             116    -0.4 4  250 195 
 CHI  HN ES   1   2333 53.43                             116     0.1 6  250 195 
 CHI  HZ I        2334  1.05         3.0 0.62                           250 195 
 HEL  HZ EP   3   2333 26.72                             114     0.3 2  272 255 
 HEL  HZ I        2334  5.17         4.4 0.63                           272 255 
 RREF HZ EP   2   2333 33.16                             110     0.7 3  322 229 
 RREF HN ES   2   2334  8.18                             110    -0.1 3  322 229 
 RREF HZ I        2334 17.30         4.0 0.31                           322 229 
 PRA  HZ EP   2   2333 40.14                             105     0.2 3  393 209 
 PRA  HN ES   2   2334 20.87                             105    -0.8 3  393 209 
                                                                                
