 2016  824 2217 12.3 L   6.816 -73.169146.5  RSN  4 0.2 1.3LRSN                1
 GAP=133        0.56       3.0     2.7  5.5 -0.1235E-01  0.5613E+01 -0.1498E+01E
 Epicentro: LOS SANTOS - SANTANDER                                             3
 ACTION:UPD 16-10-29 15:39 OP:rebc STATUS:               ID:20160824221712 L   I
 OLDACT:REG 16-08-25 03:55 OP:lv   STATUS:               ID:20160824220738     3
 2016-08-24-2208-00M.COL___374                                                 6
 STAT SP IPHASW D HRMM SECON CODA AMPLIT PERI AZIMU VELO AIN AR TRES W  DIS CAZ7
 PAM  EZ EP       2217 34.61                             151   -0.0310 77.7  42 
 PAM  EE ES       2217 51.99                             151   -0.0610 77.7  42 
 PAM  EZ I        2217 52.30         3.4 0.24                          77.7  42 
 RUS  HZ EP       2217 36.22                             143   -0.0710  103 175 
 RUS  HN ES       2217 55.18                             143    0.2010  103 175 
 RUS  HZ I        2217 55.83         2.1 0.20                           103 175 
 PTB  HZ EP       2217 38.81                             133   -0.35 9  146 258 
 PTB  HN ES       2217 59.95                             133   -0.13 9  146 258 
 PTB  HZ I        2218  1.77         5.2 0.11                           146 258 
 ZAR  HZ EP       2217 44.92                             123    0.42 9  201 292 
 ZAR  HE ES       2218  9.71                             123    0.10 9  201 292 
                                                                                
