 2015  724 2343 56.1 L   6.814 -73.157145.6  RSN  5 0.2 1.5LRSN                1
 GAP=134        0.45       2.7     4.0  5.1  0.4061E+01  0.9923E+01  0.7319E+00E
 Epicentro: LOS SANTOS - SANTANDER                                             3
 ACTION:UPD 15-09-08 21:50 OP:cam  STATUS:               ID:20150724234356 L   I
 OLDACT:REG 15-07-25 05:05 OP:spq  STATUS:               ID:20150724233749     3
 2015-07-24-2337-49M.COL___337                                                 6
 STAT SP IPHASW D HRMM SECON CODA AMPLIT PERI AZIMU VELO AIN AR TRES W  DIS CAZ7
 BAR2 EZ EP       2344 15.57                             170   -0.1410 24.7 186 
 BAR2 EZ ES   1   2344 31.33                             170    0.30 7 24.7 186 
 BAR2 EZ I        2344 31.85         6.5 0.30            171           24.7 186 
 PAM  EN ES   1   2344 35.38                             151   -0.16 7 77.0  41 
 PAM  EZ I        2344 37.67         5.0 0.54            154           77.0  41 
 RUS  HZ EP       2344 20.00                             143    0.0710  102 175 
 RUS  HN ES   1   2344 38.43                             143   -0.10 7  102 175 
 RUS  HZ I        2344 39.14         2.3 0.28            147            102 175 
 ZAR  HZ EP   1   2344 28.54                             123    0.22 6  202 292 
 ZAR  HN ES   1   2344 53.20                             123   -0.28 6  202 292 
 ZAR  HZ I        2344 59.35         3.5 0.15            123            202 292 
 SML  HE ES   1   2345  1.05                             118    0.18 6  242 335 
 SML  HZ I        2345  3.70         3.3 0.15            119            242 335 
                                                                                
