 2012  124 2336 26.4 L   6.016 -74.173  6.2  RSN 13 0.4 2.3LRSN                1
 GAP=103        0.89       2.2     2.2  4.8 -0.1681E+01 -0.2911E+00  0.2608E+01E
 Epicentro: LA BELLEZA - SANTANDER                                             3
 ACTION:UP  12-02-03 08:20 OP:REBC STATUS:               ID:20120124233626 L   I
 2012-01-24-2330-00M.COL___189                                                 6
 STAT SP IPHASW D HRMM SECON CODA AMPLIT PERI AZIMU VELO SNR AR TRES W  DIS CAZ7
 PTB  HZ IP     D 2336 37.29                              92     0.310   66 332 
 PTB  HN ES   1   2336 45.91                              92     0.6 7   66 332 
 NOR  SZ EP   1   2336 41.21                              91     0.2 7   92 237 
 NOR  SE ES   2   2336 52.40                              91     0.0 5   92 237 
 BAR2 SZ EP       2336 45.83                              91    -0.610  127  60 
 BAR2 SZ ES   2   2337  1.90                              91    -0.2 5  127  60 
 BAR2 SZ I        2337  2.80        63.1 0.50                           127  60 
 BRR  HZ EP       2336 46.70                              91    -0.210  131  23 
 BRR  HZ I        2336 46.94        86.1 0.12                           131  23 
 BRR  HN ES   1   2337  3.06                              91     0.3 7  131  23 
 HEL  HZ EP       2336 50.06                              91    -0.3 9  151 277 
 HEL  HN ES   1   2337  8.23                              91    -0.7 7  151 277 
 HEL  HZ I        2337  9.05       111.7 0.19                           151 277 
 GIR2 SZ EP       2336 51.20                              91    -0.2 9  160  43 
 CHI  HZ EP       2336 52.20                              91     0.4 9  161 162 
 CHI  HE ES   2   2337 11.16                              91    -0.5 5  161 162 
 CHI  HZ I        2337 16.65        27.0 0.39                           161 162 
 GUY  SZ EP   1   2336 52.28                              91     0.4 7  161 237 
 GUY  SZ I        2337 14.73        33.9 0.32                           161 237 
 RREF HZ EP   1   2336 54.57                              56    -0.1 7  179 227 
 RREF HN ES   1   2337 16.38                              56    -0.3 7  179 227 
 RREF HZ I        2337 18.89        21.4 0.29                           179 227 
 ZAR  HZ EP   2   2336 53.81                              56    -0.2 4  180 335 
 ZAR  HN ES   2   2337 14.94                              56    -0.6 4  180 335 
 ZAR  HZ I        2337 19.05        33.7 0.30                           180 335 
 TOL  SZ EP   1   2336 57.25                              56     0.0 6  203 219 
 TOL  SZ ES   1   2337 21.40                              56     0.1 6  203 219 
 PAM  SZ EP       2336 59.90                              56     0.4 8  219  48 
 PAM  SN ES   1   2337 25.38                              56     0.2 6  219  48 
 PRA  HZ EP   1   2337  5.65                              56     0.8 6  267 197 
                                                                                
