 2013  424 2046 56.2 L   6.784 -73.175143.1  RSN  7 0.3 2.2LRSN                1
 GAP= 77        0.78       4.0     3.5  5.2 -0.1034E+01 -0.1313E+01  0.1075E+01E
 Epicentro: LOS SANTOS - SANTANDER                                             3
 ACTION:UPD 13-05-22 14:40 OP:EP   STATUS:               ID:20130424204656 L   I
 2013-04-24-2038-51M.COL___217                                                 6
 STAT SP IPHASW D HRMM SECON CODA AMPLIT PERI AZIMU VELO AIN AR TRES W  DIS CAZ7
 BAR2 SZ ES       2047 30.10                             171   -0.3710 21.2 182 
 BAR2 SZ I        2047 31.31        23.2 0.32            170           21.2 182 
 GIR2 SZ EP       2047 15.70                             166    0.1410 32.7 356 
 BRR  HZ EP       2047 17.19                             153    0.2710 69.3 301 
 BRR  HN ES       2047 33.60                             153    0.4910 69.3 301 
 BRR  HN I        2047 34.80        91.2 0.22            152           69.3 301 
 PAM  SZ IP     D 2047 18.38                             149    0.0610 80.9  41 
 PAM  SN ES       2047 35.28                             149   -0.3110 80.9  41 
 PAM  SN I        2047 36.22        45.0 0.46            152           80.9  41 
 RUS  HZ EP       2047 19.62                             144    0.0710 99.1 174 
 RUS  HN ES       2047 38.05                             144    0.2610 99.1 174 
 RUS  HN I        2047 39.57        12.6 0.22            144           99.1 174 
 PTB  HZ EP       2047 22.12                             132   -0.48 9  144 259 
 PTB  HN ES       2047 42.98                             132   -0.23 9  144 259 
 PTB  HN I        2047 47.99        23.1 0.24            132            144 259 
 TAM  HZ IP     C 2047 23.90                             129    0.01 9  158 104 
                                                                                
