 2015  624 2013 23.0 L   6.809 -73.160150.6  RSN  6 0.3 2.2LRSN                1
 GAP=134        0.83       3.7     4.7  5.9  0.5298E+01  0.3127E+01 -0.4871E+01E
 Epicentro: LOS SANTOS - SANTANDER                                             3
 ACTION:UPD 15-09-10 22:14 OP:cam  STATUS:               ID:20150624201323 L   I
 OLDACT:REG 15-06-25 03:56 OP:stll STATUS:               ID:20150624200748     3
 2015-06-24-2007-48M.COL___322                                                 6
 STAT SP IPHASW D HRMM SECON CODA AMPLIT PERI AZIMU VELO AIN AR TRES W  DIS CAZ7
 BAR2 EZ EP       2013 43.24                             171    0.0410 24.1 186 
 BAR2 EZ ES       2013 58.76                             171   -0.2210 24.1 186 
 BAR2 EZ I        2013 59.62        31.6 0.22            169           24.1 186 
 BRR  HZ EP       2013 45.12                             154    0.5810 69.3 298 
 BRR  HZ I        2013 46.86        22.4 0.32            150           69.3 298 
 BRR  HN ES       2014  1.35                             154   -0.0210 69.3 298 
 PAM  SZ EP       2013 45.91                             152    0.1910 77.7  41 
 PAM  SZ I        2013 46.16        39.6 0.22            153           77.7  41 
 PAM  SN ES       2014  3.67                             152    0.2010 77.7  41 
 RUS  HZ EP       2013 46.98                             144   -0.3010  102 175 
 RUS  HZ ES       2014  6.09                             144   -0.1510  102 175 
 RUS  HZ I        2014  6.93        16.5 0.32            145            102 175 
 ZAR  HN ES       2014 21.27                             124    0.31 9  202 292 
 ZAR  HZ I        2014 27.02         9.2 0.36            122            202 292 
 SML  HZ EP       2013 59.57                             119   -0.14 8  242 336 
 SML  HN ES       2014 27.61                             119   -0.75 8  242 336 
 SML  HZ I        2014 32.32        12.1 0.10            118            242 336 
                                                                                
