 2015  424 2108  6.9 L   6.196 -73.796105.0  RSN  6 0.5 1.7LRSN                1
 GAP=150        1.15       4.7     4.0  8.8 -0.7482E+01  0.2898E+01 -0.1140E+02E
 Epicentro: LANDAZURI - SANTANDER                                              3
 ACTION:UPD 15-06-03 16:57 OP:cam  STATUS:               ID:20150424210806 L   I
 OLDACT:REG 15-04-25 03:40 OP:drio STATUS:               ID:20150424205748     3
 2015-04-24-2057-48M.COL___271                                                 6
 STAT SP IPHASW D HRMM SECON CODA AMPLIT PERI AZIMU VELO AIN AR TRES W  DIS CAZ7
 SPBC HZ EP       21 8 23.84                             145    0.1610 67.4 207 
 SPBC HN ES       21 8 36.50                             145   -0.2710 67.4 207 
 SPBC HZ I        21 8 37.79        21.6 0.20            146           67.4 207 
 BAR2 EZ EP       21 8 25.23                             139    0.3510 80.8  57 
 BAR2 EZ ES       21 8 38.95                             139    0.0310 80.8  57 
 BAR2 EZ I        21 8 39.35        22.5 0.32            142           80.8  57 
 PTB  HZ EP       21 8 24.20                             139   -0.5010 82.4 298 
 PTB  HN ES       21 8 38.36                             139   -0.2310 82.4 298 
 PTB  HZ I        21 8 41.63         8.2 0.14            139           82.4 298 
 NOR  HZ EP       21 8 29.87                             123   -0.05 9  138 240 
 NOR  HN ES       21 8 48.42                             123    0.54 9  138 240 
 NOR  HZ I        21 8 52.35        10.1 0.18            124            138 240 
 PAM  SZ EP       21 8 34.78                             116    0.34 9  175  44 
 PAM  SN ES       21 8 55.75                             116   -0.19 9  175  44 
 PAM  SZ I        21 8 57.62         4.2 0.42            118            175  44 
 ZAR  HZ EP       21 8 33.98                             114   -0.97 9  185 321 
 ZAR  HN ES       21 8 57.69                             114    0.85 9  185 321 
                                                                                
