 2011  824 2300 23.5 L   6.376 -73.190170.0  RSN 12 0.3 2.9LRSN                1
 GAP=165        0.69       3.1     4.3  4.4 -0.3981E+01  0.7291E+01 -0.3973E+00E
 Epicentro: PARAMO - SANTANDER                                                 3
 ACTION:UPD 12-07-13 15:53 OP:ep   STATUS:               ID:20110824230023 L   I
 2011-08-24-2257-17S.COL___167                                                 6
 STAT SP IPHASW D HRMM SECON CODA AMPLIT PERI AZIMU VELO AIN AR TRES W  DIS CAZ7
 BAR2 SZ IP       23 0 45.81                             172   -0.2410 23.9   2 
 BAR2 SZ I        23 0 46.10        85.4 0.05                          23.9   2 
 BAR2 SZ ES       23 1  4.00                             172    0.3510 23.9   2 
 RUS  HZ IP       23 0 47.59                             162    0.2810 54.7 167 
 RUS  HE ES       23 1  5.53                             162   -0.3510 54.7 167 
 RUS  HZ I        23 1  8.10       197.3 0.23                          54.7 167 
 GIR2 SZ EP       23 0 47.57                             154   -0.2810 77.7 360 
 BRR  HZ IP     C 23 0 49.18                             148    0.2710 99.3 325 
 BRR  HZ I        23 0 50.17       253.2 0.10                          99.3 325 
 BRR  HN ES   1   23 1  9.03                             148    0.30 7 99.3 325 
 CHI  HZ EP   1   23 0 58.48                             128    0.49 6  202 197 
 CHI  HE ES   1   23 1 25.00                             128    0.10 6  202 197 
 CHI  HZ I        23 1 29.51        36.6 0.33                           202 197 
 NOR  SZ EP   1   23 0 57.64                             127   -0.28 6  206 244 
 NOR  SE ES   1   23 1 24.70                             127   -0.07 6  206 244 
 OCA  SZ EP       23 0 57.54                             127   -0.52 8  207 356 
 OCA  SZ I        23 1 27.82       150.9 0.47                           207 356 
 HEL  HZ EP   1   23 1  4.06                             121    0.33 6  260 266 
 HEL  HE ES   1   23 1 34.72                             121   -0.39 6  260 266 
 HEL  HZ I        23 1 39.90        38.5 0.23                           260 266 
 RREF HZ EP       23 1  7.44                             118    0.20 7  289 236 
 RREF HN ES   1   23 1 41.00                             118   -0.36 5  289 236 
 RREF HZ I        23 1 52.53        25.6 0.30                           289 236 
 TOL  SZ EP   1   23 1  9.24                             116    0.34 5  308 230 
 DBB  SZ EP   1   23 1 12.61                             113    0.36 5  341 282 
 PRA  HZ EP   1   23 1 13.30                             113    0.20 5  349 213 
 PRA  HN ES   1   23 1 51.21                             113   -0.58 5  349 213 
                                                                                
