 2011 1224 2140 47.6 L   6.777 -73.119142.3  RSN  9 0.5 1.6LRSN                1
 GAP=141        0.95       5.6     5.3  8.0 -0.2141E+01  0.1132E+02  0.1893E+01E
 Epicentro: LOS SANTOS - SANTANDER                                             3
 ACTION:UPD 12-07-13 16:18 OP:ep   STATUS:               ID:20111224214047 L   I
 2011-12-24-2140-00M.COL___189                                                 6
 STAT SP IPHASW D HRMM SECON CODA AMPLIT PERI AZIMU VELO AIN AR TRES W  DIS CAZ7
 BAR2 SZ ES       2141 21.15                             171   -0.6310 21.6 199 
 GIR2 SZ EP   1   2141  6.90                             166   -0.09 7 34.4 346 
 BRR  HZ EP   1   2141  8.64                             151    0.00 7 75.0 299 
 BRR  HZ I        2141 10.86         9.2 0.11                          75.0 299 
 BRR  HN ES   1   2141 25.99                             151    0.97 7 75.0 299 
 PAM  SZ EP   1   2141  9.57                             150    0.07 7 77.6  37 
 PAM  SN ES   1   2141 26.76                             150    0.21 7 77.6  37 
 RUS  HZ EP   1   2141 10.72                             144   -0.14 7 97.9 178 
 RUS  HN ES   1   2141 29.51                             144    0.54 7 97.9 178 
 RUS  HZ I        2141 32.24         4.6 0.34                          97.9 178 
 PTB  HZ EP   1   2141 14.20                             131   -0.35 7  150 260 
 PTB  HN ES   1   2141 34.92                             131   -0.62 7  150 260 
 ZAR  HN ES   1   2141 45.51                             121   -0.17 6  208 292 
 NOR  SN ES   1   2141 51.78                             118    0.72 6  236 235 
 CHI  HZ EP   2   2141 25.12                             117    0.15 4  247 196 
                                                                                
