 2013  424 2320 47.5 L   6.731 -73.142153.6  RSN  6 0.3 1.4LRSN                1
 GAP=140        0.91       6.9     6.1  9.1  0.8514E+01 -0.1407E+02 -0.2831E+02E
 Epicentro: JORDAN - SANTANDER                                                 3
 ACTION:UPD 13-05-22 14:40 OP:EP   STATUS:               ID:20130424232047 L   I
 2013-04-24-2318-48M.COL___208                                                 6
 STAT SP IPHASW D HRMM SECON CODA AMPLIT PERI AZIMU VELO AIN AR TRES W  DIS CAZ7
 BAR2 SZ EP       2321  7.98                             174    0.0610 16.0 196 
 BAR2 SZ ES       2321 23.45                             174   -0.4210 16.0 196 
 BAR2 SZ I        2321 25.88         5.4 0.28            175           16.0 196 
 GIR2 SZ EP       2321  7.74                             165   -0.5510 38.9 352 
 BRR  HZ EP       2321  9.95                             152    0.2510 75.4 303 
 BRR  HE ES       2321 27.48                             152    0.4410 75.4 303 
 PAM  SZ EP       2321 11.01                             150    0.1510 83.2  36 
 RUS  HN ES       2321 30.52                             147    0.3110 93.0 176 
 PTB  HN ES       2321 36.22                             134   -0.26 9  147 262 
                                                                                
