 2017  124 2159 51.5 L   6.774 -73.117144.9  RSN  8 0.3 1.9LRSN                1
 GAP=141        0.86       3.2     3.8  4.9 -0.1562E+00  0.3851E+01  0.2909E+01E
 Epicentro: LOS SANTOS - SANTANDER                                             3
 ACTION:UPD 17-05-22 16:03 OP:jn   STATUS:               ID:20170124215951 L   I
 OLDACT:UP  17-01-25 03:34 OP:edw  STATUS:               ID:20170124215618     3
 OLDACT:REG 17-01-25 03:26 OP:cara STATUS:               ID:20170124215618     3
 2017-01-24-2158-00M.COL___358                                                 6
 STAT SP IPHASW D HRMM SECON CODA AMPLIT PERI AZIMU VELO AIN AR TRES W  DIS CAZ7
 BAR2 EZ IP     C 22 0 10.84                             171   -0.1110 21.3 200 
 BAR2 EZ ES       22 0 25.83                             171   -0.3210 21.3 200 
 BAR2 EZ I        22 0 26.86        20.8 0.38            169           21.3 200 
 BRR  HZ EP       22 0 12.75                             151   -0.0110 75.4 299 
 BRR  HN ES       22 0 29.82                             151    0.4510 75.4 299 
 BRR  HZ I        22 0 30.76        18.5 0.18            149           75.4 299 
 PAM  EZ IP     D 22 0 13.64                             150    0.0310 77.7  36 
 PAM  EN ES       22 0 30.71                             150   -0.1710 77.7  36 
 PAM  EZ I        22 0 33.24         7.6 0.30            152           77.7  36 
 RUS  HZ EP       22 0 14.76                             144   -0.1510 97.5 178 
 RUS  HN ES       22 0 33.45                             144    0.2610 97.5 178 
 RUS  HZ I        22 0 34.28        16.9 0.28            145           97.5 178 
 PTB  HZ EP   9   22 0 17.84                             131   -0.75 0  150 260 
 PTB  HN ES       22 0 38.19                             131   -0.81 9  150 260 
 PTB  HZ I        22 0 41.56         8.9 0.14            130            150 260 
 ZAR  HZ EP       22 0 24.92                             121    0.65 8  208 293 
 ZAR  HN ES       22 0 49.47                             121   -0.39 8  208 293 
 ZAR  HZ I        22 0 55.94        11.3 0.30            121            208 293 
 NOR  HZ EP       22 0 27.26                             118    0.02 8  236 235 
 NOR  HN ES       22 0 55.03                             118   -0.12 8  236 235 
 NOR  HZ I        22 1  1.91         6.0 0.34            118            236 235 
 CHI  HZ EP       22 0 28.67                             117   -0.23 8  247 196 
 CHI  HN ES       22 0 58.17                             117    0.07 8  247 196 
 CHI  HZ I        22 1  1.32         2.8 0.32            117            247 196 
                                                                                
