 2011 1124 2054 43.1 L   6.775 -73.140141.1  RSN  7 0.4 1.9LRSN                1
 GAP=138        0.81       4.3     5.7  7.2  0.2848E+01  0.1102E+02  0.9154E+01E
 Epicentro: LOS SANTOS - SANTANDER                                             3
 ACTION:UPD 12-07-13 16:12 OP:ep   STATUS:               ID:20111124205443 L   I
 2011-11-24-2053-30S.COL___178                                                 6
 STAT SP IPHASW D HRMM SECON CODA AMPLIT PERI AZIMU VELO AIN AR TRES W  DIS CAZ7
 BAR2 SZ EP   1   2055  2.11                             171    0.02 7 20.7 193 
 BAR2 SZ ES   1   2055 16.01                             171   -0.92 7 20.7 193 
 BAR2 SZ I        2055 18.95        28.3 0.29                          20.7 193 
 BRR  HZ EP   1   2055  4.11                             151    0.28 7 73.1 300 
 BRR  HZ I        2055  6.11        12.5 0.12                          73.1 300 
 BRR  HN ES   1   2055 20.72                             151    0.69 7 73.1 300 
 PAM  SZ EP   1   2055  5.04                             149    0.13 7 79.2  38 
 PAM  SE ES   1   2055 21.77                             149   -0.16 7 79.2  38 
 RUS  HZ EP   1   2055  6.24                             144    0.08 7 97.7 176 
 RUS  HN ES   1   2055 24.58                             144    0.41 7 97.7 176 
 RUS  HZ I        2055 26.24         7.8 0.41                          97.7 176 
 ZAR  HN ES   1   2055 40.20                             121   -0.40 6  206 293 
 NOR  SZ EP   1   2055 18.14                             117   -0.28 6  234 235 
 CHI  HZ EP   1   2055 19.98                             116   -0.26 6  246 195 
 CHI  HN ES   1   2055 49.40                             116    0.17 6  246 195 
 CHI  HZ I        2055 53.54         5.0 0.33                           246 195 
                                                                                
