 2016  324 2300 39.3 L   6.808 -73.193138.0  RSN  8 0.4 1.8LRSN                1
 GAP=130        0.86       3.7     4.4  6.4 -0.6972E+01  0.1053E+02 -0.3177E+01E
 Epicentro: ZAPATOCA - SANTANDER                                               3
 ACTION:UPD 16-05-13 21:27 OP:cam  STATUS:               ID:20160324230039 L   I
 OLDACT:UP  16-03-25 09:20 OP:mh   STATUS:               ID:20160324225751     3
 OLDACT:UP  16-03-25 09:18 OP:mh   STATUS:               ID:20160324225751     3
 OLDACT:REG 16-03-25 04:18 OP:mh   STATUS:               ID:20160324225751     3
 2016-03-24-2257-51M.COL___304                                                 6
 STAT SP IPHASW D HRMM SECON CODA AMPLIT PERI AZIMU VELO AIN AR TRES W  DIS CAZ7
 BAR2 EZ EP       23 0 57.44                             170   -0.5810 23.9 177 
 BAR2 EZ ES       23 1 12.53                             170   -0.0810 23.9 177 
 BAR2 EZ I        23 1 14.47        10.7 0.20            170           23.9 177 
 PAM  EE EP     C 23 1  0.84                             149   -0.0410 80.1  43 
 PAM  EZ ES       23 1 18.07                             149    0.3710 80.1  43 
 PAM  EE I        23 1 19.55        26.8 0.56            152           80.1  43 
 RUS  HZ EP       23 1  2.24                             142   -0.1710  102 173 
 RUS  HN ES       23 1 20.71                             142    0.2810  102 173 
 RUS  HZ I        23 1 21.99         8.7 0.09            143            102 173 
 PTB  HZ EP       23 1  4.87                             131   -0.33 9  143 258 
 PTB  HN ES       23 1 25.29                             131   -0.10 9  143 258 
 PTB  HZ I        23 1 27.09         5.2 0.16            132            143 258 
 OCA  HZ EP   1   23 1  7.01                             128    0.13 7  159 355 
 OCA  HN ES   1   23 1 28.47                             128    0.08 7  159 355 
 SPBC HZ EP   1   23 1  6.73                             128   -0.25 7  161 217 
 SPBC HN ES   1   23 1 28.39                             128   -0.17 7  161 217 
 SPBC HZ I        23 1 30.04        11.0 0.14            129            161 217 
 NOR  HN ES       23 1 41.88                             117    0.47 8  231 234 
 NOR  HZ I        23 1 47.16         4.0 0.16            118            231 234 
 HEL  HZ EP   4   23 1 18.35                             114   -0.25 0  267 255 
 HEL  HN ES   4   23 1 51.28                             114    2.04 0  267 255 
 GUY2CHE EP   1   23 1 23.46                             111    1.31 5  297 234 
 GUY2CHE I        23 2  3.67         4.0 0.58                           297 234 
                                                                                
