 2016  624 2210 49.2 L   6.790 -73.164140.6  RSN 20 0.4 2.7LRSN                1
 GAP=100        0.87       2.6     2.4  4.0 -0.4639E+00  0.2855E+01  0.2145E+01E
 Epicentro: LOS SANTOS - SANTANDER                                             3
 ACTION:UPD 16-07-21 22:22 OP:rebc STATUS:               ID:20160624221049 L   I
 OLDACT:UP  16-06-25 04:11 OP:dani STATUS:               ID:20160624220744     3
 OLDACT:REG 16-06-25 03:24 OP:dani STATUS:               ID:20160624220744     3
 2016-06-24-2207-44M.COL___334                                                 6
 STAT SP IPHASW D HRMM SECON CODA AMPLIT PERI AZIMU VELO AIN AR TRES W  DIS CAZ7
 BAR2 EZ IP     C 2211  8.02                             171   -0.1410 22.0 185 
 BAR2 EZ ES       2211 23.00                             171    0.0410 22.0 185 
 BAR2 EZ I        2211 24.90        63.3 0.16                          22.0 185 
 BRR  HZ IP     C 2211  9.89                             152    0.1910 69.9 300 
 BRR  HN ES       2211 26.09                             152    0.3910 69.9 300 
 BRR  HZ I        2211 30.06        85.2 0.26                          69.9 300 
 PAM  EZ EP       2211 10.90                             149   -0.0810 79.5  40 
 PAM  EN ES       2211 27.96                             149   -0.0210 79.5  40 
 PAM  EZ I        2211 28.57        68.9 0.18                          79.5  40 
 RUS  HZ EP       2211 12.02                             143   -0.3410 99.6 175 
 RUS  HE ES       2211 30.64                             143    0.2110 99.6 175 
 RUS  HZ I        2211 32.62        42.6 0.32                          99.6 175 
 PTB  HZ EP       2211 15.08                             131   -0.44 9  146 259 
 PTB  HN ES       2211 35.74                             131   -0.33 9  146 259 
 PTB  HZ I        2211 36.67        56.2 0.30                           146 259 
 TAM  HZ EP       2211 16.39                             129   -0.22 9  157 104 
 TAM  HE ES       2211 38.18                             129    0.17 9  157 104 
 TAM  HZ I        2211 38.57        61.3 0.58                           157 104 
 SPBC HZ EP       2211 17.12                             128    0.04 9  161 219 
 SPBC HN ES       2211 38.11                             128   -0.73 9  161 219 
 SPBC HZ I        2211 41.71       116.7 0.60                           161 219 
 ZAR  HZ EP       2211 20.87                             121   -0.27 9  203 293 
 ZAR  HN ES       2211 46.39                             121    0.33 9  203 293 
 ZAR  HZ I        2211 51.95        80.9 0.26                           203 293 
 NOR  HZ EP       2211 24.60                             118    0.24 8  232 234 
 NOR  HN ES       2211 51.08                             118   -0.72 8  232 234 
 NOR  HZ I        2211 58.86        46.5 0.20                           232 234 
 CHI  HZ EP   4   2211 27.74                             116    1.32 0  247 195 
 CHI  HN ES       2211 55.32                             116   -0.15 8  247 195 
 CHI  HZ I        2212  3.26        20.1 0.30                           247 195 
 ROSC BZ EP   4   2211 28.51                             116    1.71 0  251 211 
 ROSC BN ES       2211 57.01                             116    0.86 8  251 211 
 ROSC BZ I        2212  5.70        59.2 0.40                           251 211 
 HEL  HZ EP       2211 28.86                             114   -0.02 8  270 256 
 HEL  HE ES       2212  0.73                             114    0.88 8  270 256 
 HEL  HZ I        2212  6.38        41.6 0.30                           270 256 
 GUY2CHZ EP       2211 32.53                             111    0.24 7  299 235 
 GUY2CHN ES       2212  5.63                             111   -0.28 7  299 235 
 GUY2CHZ I        2212 14.69        26.1 0.30                           299 235 
 VIL  SE ES       2212  6.17                             111    0.42 7  302 191 
 CBOC HZ EP       2211 35.39                             109   -0.23 7  331 252 
 CBOC HE ES   4   2212  6.50                             109   -5.34 0  331 252 
 CBOC HZ I        2212 24.72        11.0 0.58                           331 252 
 DBB  SZ EP       2211 35.90                             109   -0.32 7  338 274 
 DBB  SZ I        2212 29.02        52.7 0.66                           338 274 
 ANIL HZ EP       2211 39.26                             108    0.73 6  355 224 
 ANIL HN ES   4   2212 13.75                             108   -3.27 0  355 224 
 ANIL HZ I        2212 26.14        59.6 0.32                           355 224 
 PRA  HZ EP       2211 42.54                             106    0.25 6  390 209 
 PRA  HE ES   4   2212 25.03                             106    1.31 0  390 209 
 PRA  HZ I        2212 29.92        23.8 0.36                           390 209 
 ORTC HZ EP       2211 42.73                             106    0.05 6  393 216 
 ORTC HN ES   4   2212 26.02                             106    1.61 0  393 216 
 ORTC HZ I        2212 31.06        12.2 0.38                           393 216 
 PAL  HZ EP       2211 44.06                             105    0.16 6  403 239 
 PAL  HN ES   4   2212 29.38                             105    2.80 0  403 239 
 PAL  HZ I        2212 32.09         7.8 0.22                           403 239 
                                                                                
