 2017 1224 2300 57.4 L   6.817 -73.188139.6  RSN 24 0.5 2.5LRSN                1
 GAP= 62        1.24       2.5     2.9  5.7 -0.6855E+00  0.4677E+01 -0.2736E+00E
 Epicentro: ZAPATOCA - SANTANDER                                               3
 ACTION:UPD 18-01-04 13:24 OP:rebc STATUS:               ID:20171224230057 L   I
 OLDACT:REG 17-12-25 04:39 OP:lv   STATUS:               ID:20171224225204     3
 2017-12-24-2258-00M.COL___457                                                 6
 STAT SP IPHASW D HRMM SECON CODA AMPLIT PERI AZIMU VELO AIN AR TRES W  DIS CAZ7
 BAR2 EZ EP       23 1 16.39                             169    0.1110 24.9 179 
 BAR2 EZ ES       23 1 30.91                             169   -0.1310 24.9 179 
 BAR2 EZ I        23 1 33.01        89.8 0.18            168           24.9 179 
 PAM  EZ EP       23 1 19.20                             149    0.1810 79.0  43 
 PAM  EN ES       23 1 36.37                             149    0.4510 79.0  43 
 PAM  EZ I        23 1 38.58        55.4 0.48            153           79.0  43 
 PTB  HZ EP       23 1 22.90                             131   -0.54 9  144 258 
 PTB  HN ES       23 1 43.79                             131   -0.01 9  144 258 
 PTB  HZ I        23 1 45.17        28.6 0.18            132            144 258 
 OCA  HZ EP       23 1 24.95                             129   -0.01 9  158 355 
 OCA  HN ES       23 1 46.57                             129    0.07 9  158 355 
 OCA  HZ I        23 1 51.55        78.2 0.14            131            158 355 
 TAM  HZ IP     C 23 1 24.82                             128   -0.21 9  160 105 
 TAM  HN ES       23 1 45.82                             128   -0.79 9  160 105 
 TAM  HZ I        23 1 47.32        12.2 0.52            132            160 105 
 SPBC HZ EP       23 1 25.34                             128    0.08 9  162 217 
 SPBC HN ES       23 1 46.36                             128   -0.66 9  162 217 
 SPBC HZ I        23 1 50.00        60.1 0.34            128            162 217 
 YPLC HZ EP       23 1 27.09                             124   -0.01 9  181 150 
 YPLC HN IS       23 1 50.91                             124    0.60 9  181 150 
 YPLC HZ I        23 1 51.79        60.9 0.26            127            181 150 
 ZAR  HZ EP       23 1 28.92                             122    0.04 9  199 292 
 ZAR  HN ES       23 1 54.02                             122    0.55 9  199 292 
 ZAR  HZ I        23 1 59.92        31.8 0.36            123            199 292 
 NOR  HZ EP       23 1 32.97                             117    0.52 8  232 233 
 NOR  HN ES       23 2  0.75                             117    0.93 8  232 233 
 ROSC BZ EP   9   23 1 35.98                             115    0.91 0  252 210 
 ROSC BN ES       23 2  6.59                                    1.19 8  252 210 
 ROSC BZ I        23 2 12.64        25.4 0.30            117            252 210 
 CVER HZ EP       23 1 38.07                             113    0.66 8  272 201 
 CVER HN ES   4   23 2 10.42                             113    1.76 0  272 201 
 CVER HZ I        23 2 15.96        48.7 0.98            115            272 201 
 URE  HZ EP       23 1 36.78                             113   -0.79 7  279 292 
 URE  HN ES       23 2  8.53                             113   -0.40 7  279 292 
 URE  HZ I        23 2 18.99        17.0 0.22            114            279 292 
 DRL03HZ EP       23 1 38.50                             112    0.10 7  286 354 
 DRL03HN ES       23 2 10.28                             112   -0.13 7  286 354 
 GUY2CHZ EP   4   23 1 41.80                             111    1.42 0  299 234 
 GUY2CHN ES       23 2 13.62                             111   -0.32 7  299 234 
 GUY2CHZ I        23 2 21.62        16.6 0.56                           299 234 
 VIL  EZ EP       23 1 40.43                             111   -0.18 7  304 191 
 VIL  EN ES       23 2 14.05                             111   -0.30 7  304 191 
 VIL  EZ I        23 2 17.77         8.3 0.20            112            304 191 
 PTGC HZ EP   9   23 1 39.62                             110   -1.72 0  312 158 
 PTGC HN ES       23 2 13.02                                   -0.91 7  312 158 
 PTGC HZ I        23 2 14.78        17.6 0.26            112            312 158 
 LL6C HZ EP       23 1 41.78                             109   -0.78 7  323 358 
 ELA  HZ EP       23 1 45.09                             109    1.40 7  327 229 
 ELA  HN ES       23 2 19.31                             109   -0.53 7  327 229 
 ELA  HZ I        23 2 35.88        14.1 0.44            110            327 229 
 CBOC HZ EP       23 1 44.36                             109    0.78 7  330 252 
 CBOC HN ES       23 2 18.90                             109   -0.74 7  330 252 
 CBOC HZ I        23 2 24.35         7.0 0.48            110            330 252 
 DBB  HZ EP       23 1 44.73                             109    0.69 7  335 274 
 DBB  HN ES       23 2 19.63                             109   -0.82 7  335 274 
 DBB  HZ I        23 2 21.99        11.4 0.26            110            335 274 
 ANIL HZ EP   9   23 1 47.95                             107    1.24 0  355 224 
 ANIL HN ES       23 2 27.61                                    1.16 6  355 224 
 ARGC HZ EP       23 1 46.20                             107   -0.19 6  356 341 
 ARGC HN ES       23 2 25.58                             107    0.94 6  356 341 
 PRA  HZ EP       23 1 50.16                             105   -0.44 6  391 209 
 PRA  HN ES       23 2 31.70                             105   -0.43 6  391 209 
 PRA  HZ I        23 2 38.05        11.4 0.26            107            391 209 
 CRJC HZ EP   9   23 1 56.97                             102   -2.52 0  466   4 
 CRJC HN ES       23 2 44.89                                   -0.55 5  466   4 
 CRJC HZ I        23 2 48.78         8.4 0.50            104            466   4 
                                                                                
