 2012  824 2120 38.2 L   6.721 -73.159146.0  RSN  6 0.3 1.5LRSN                1
 GAP=138        0.56       4.3     4.4  6.2  0.3877E+01 -0.2908E+01  0.1183E+01E
 Epicentro: VILLANUEVA - SANTANDER                                             3
 ACTION:UPD 12-09-10 11:58 OP:ep   STATUS:               ID:20120824212038 L   I
 2012-08-24-2120-00M.COL___218                                                 6
 STAT SP IPHASW D HRMM SECON CODA AMPLIT PERI AZIMU VELO AIN AR TRES W  DIS CAZ7
 BAR2 SZ EP   1   2120 57.61                             174   -0.05 8 14.5 190 
 BRR  HZ EP   1   2120 59.75                             152    0.24 8 74.5 305 
 BRR  HZ I        2121  0.04        11.5 0.09                          74.5 305 
 BRR  HE ES   1   2121 16.56                             152    0.38 8 74.5 305 
 PAM  SZ EP   1   2121  0.51                             149   -0.36 8 85.1  37 
 PAM  SZ I        2121 19.69         7.4 0.45                          85.1  37 
 RUS  HZ EP   1   2121  1.60                             146    0.27 8 92.0 175 
 RUS  HE ES   1   2121 19.27                             146   -0.13 8 92.0 175 
 RUS  HZ I        2121 22.25         3.3 0.33                          92.0 175 
 PTB  HZ EP       2121  4.67                             133   -0.2010  145 262 
 PTB  HN ES   1   2121 25.47                             133   -0.25 7  145 262 
 PTB  HZ I        2121 33.21         2.9 0.43                           145 262 
 CHI  HZ EP   1   2121 15.20                             118    0.29 6  240 195 
 CHI  HZ I        2122  5.97         2.0 0.64                           240 195 
                                                                                
