 2016  424 2338 56.3 L   6.840 -73.167134.0  RSN  5 0.4 1.3LRSN                1
 GAP=141        0.84       5.9     4.3  7.3 -0.1015E+02  0.1511E+02 -0.3797E+01E
 Epicentro: ZAPATOCA - SANTANDER                                               3
 ACTION:UPD 16-05-05 14:23 OP:rebc STATUS:               ID:20160424233856 L   I
 OLDACT:REG 16-04-25 03:59 OP:ak   STATUS:               ID:20160424232744     3
 2016-04-24-2327-44M.COL___284                                                 6
 STAT SP IPHASW D HRMM SECON CODA AMPLIT PERI AZIMU VELO AIN AR TRES W  DIS CAZ7
 BAR2 EZ EP       2339 14.38                             168   -0.2510 27.4 184 
 BAR2 EZ ES       2339 28.98                             168    0.0710 27.4 184 
 BAR2 EZ I        2339 31.18         2.8 0.18            172           27.4 184 
 PAM  EZ EP       2339 17.19                             149    0.0110 75.6  43 
 PAM  EN ES       2339 33.66                             149    0.2110 75.6  43 
 PAM  EZ I        2339 36.31         5.3 0.42            151           75.6  43 
 PTB  HZ EP       2339 21.51                             130   -0.71 9  146 257 
 PTB  HE ES       2339 42.32                             130   -0.11 9  146 257 
 PTB  HZ I        2339 44.89         2.1 0.10            131            146 257 
 ZAR  HZ EP   1   2339 28.12                             120    0.50 6  200 291 
 ZAR  HN ES       2339 52.07                             120    0.03 9  200 291 
 ZAR  HZ I        2339 57.48         3.9 0.26            122            200 291 
 GUY2CHZ EP   2   2339 40.23                             110    0.75 4  302 234 
 GUY2CHN ES       2340 13.82                             110    0.67 7  302 234 
 GUY2CHZ I        2340 25.45         0.9 0.28                           302 234 
                                                                                
