 2016  824 2334 40.5 L   6.767 -73.133143.4  RSN  8 0.2 1.6LRSN                1
 GAP=140        0.48       2.2     2.2  3.0 -0.1683E+01  0.1093E+01  0.7611E+00E
 Epicentro: LOS SANTOS - SANTANDER                                             3
 ACTION:UPD 16-10-29 15:39 OP:rebc STATUS:               ID:20160824233440 L   I
 OLDACT:REG 16-08-25 03:59 OP:lv   STATUS:               ID:20160824232728     3
 2016-08-24-2328-00M.COL___374                                                 6
 STAT SP IPHASW D HRMM SECON CODA AMPLIT PERI AZIMU VELO AIN AR TRES W  DIS CAZ7
 BAR2 EZ EP       2334 59.82                             172    0.0610 20.1 196 
 BAR2 EZ ES       2335 14.60                             172   -0.2010 20.1 196 
 BAR2 EZ I        2335 16.33        10.7 0.24                          20.1 196 
 BRR  HZ EP       2335  1.48                             151   -0.0710 74.2 300 
 BRR  HN ES       2335 18.22                             151    0.2510 74.2 300 
 BRR  HZ I        2335 24.88         8.6 0.25                          74.2 300 
 PAM  EZ EP       2335  2.66                             150    0.0910 79.4  37 
 PAM  HN ES       2335 19.70                             150   -0.0910 79.4  37 
 PAM  EZ I        2335 20.43         4.4 0.22                          79.4  37 
 RUS  HZ EP       2335  3.47                             144   -0.2610 96.9 177 
 RUS  HN ES       2335 22.05                             144    0.1910 96.9 177 
 RUS  HZ I        2335 23.87         2.7 0.34                          96.9 177 
 PTB  HZ EP       2335  7.15                             131   -0.17 9  148 260 
 PTB  HE ES       2335 28.16                             131   -0.09 9  148 260 
 PTB  HZ I        2335 35.21         4.2 0.14                           148 260 
 SPBC HZ EP       2335  8.77                             129    0.16 9  161 220 
 SPBC HE ES       2335 30.63                             129    0.08 9  161 220 
 SPBC HZ I        2335 32.69         6.4 0.07                           161 220 
 NOR  HZ EP       2335 16.18                             118    0.21 8  234 235 
 NOR  HE ES       2335 43.50                             118   -0.15 8  234 235 
 NOR  HZ I        2335 49.27         2.9 0.18                           234 235 
 GUY2CHZ EP   9   2335 26.65                             112    2.78 0  300 235 
 GUY2CHN ES       2336  0.13                                   -0.36 7  300 235 
 GUY2CHZ I        2336  6.15         2.3 0.40                           300 235 
                                                                                
