 2012  724 2106  4.5 L   6.774 -73.081157.2  RSN  6 0.4 2.1LRSN                1
 GAP=146        0.82       5.9     5.7  7.4  0.4975E+01  0.1115E+02 -0.1068E+01E
 Epicentro: LOS SANTOS - SANTANDER                                             3
 ACTION:UPD 12-08-14 11:45 OP:ep   STATUS:               ID:20120724210604 L   I
 2012-07-24-2100-00M.COL___215                                                 6
 STAT SP IPHASW D HRMM SECON CODA AMPLIT PERI AZIMU VELO AIN AR TRES W  DIS CAZ7
 BAR2 SZ EP   1   21 6 25.44                             171    -0.1 7   23 209 
 BAR2 SZ ES   1   21 6 41.45                             171    -0.5 7   23 209 
 BAR2 SZ I        21 6 43.73        14.6 0.11            168             23 209 
 PAM  SZ EP   1   21 6 28.40                             153     0.5 7   75  34 
 PAM  SN ES   1   21 6 45.73                             153    -0.3 7   75  34 
 BRR  HZ EP   1   21 6 27.49                             152     0.1 7   79 298 
 BRR  HZ I        21 6 28.98        32.2 0.12            149             79 298 
 BRR  HN ES   1   21 6 45.42                             152     0.3 7   79 298 
 RUS  HZ EP   1   21 6 29.31                             147     0.1 7   98 180 
 RUS  HN ES   1   21 6 48.86                             147     0.4 7   98 180 
 PTB  HZ EP   1   21 6 32.40                             133    -0.6 7  154 260 
 PTB  HN ES   2   21 6 55.07                             133    -0.2 5  154 260 
 PTB  HZ I        21 6 59.35        10.0 0.26            132            154 260 
 ZAR  HZ EP   1   21 6 38.21                             124    -0.3 6  212 292 
 ZAR  HN ES   1   21 7  5.48                             124     0.4 6  212 292 
 ZAR  HZ I        21 7  9.92        15.7 0.27            123            212 292 
