 2016 1224 2227 53.5 L   6.810 -73.113150.2  RSN 14 0.6 2.1LRSN                1
 GAP=121        1.01       3.7     4.0  5.4  0.3097E+01  0.3463E+01  0.5793E+01E
 Epicentro: LOS SANTOS - SANTANDER                                             3
 ACTION:UPD 17-01-11 20:18 OP:rebc STATUS:               ID:20161224222753 L   I
 OLDACT:UP  16-12-25 05:41 OP:and  STATUS:               ID:20161224221744     3
 OLDACT:UP  16-12-25 05:30 OP:and  STATUS:               ID:20161224221744     3
 OLDACT:UP  16-12-25 05:30 OP:and  STATUS:               ID:20161224221744     3
 OLDACT:UP  16-12-25 05:29 OP:and  STATUS:               ID:20161224221744     3
 OLDACT:REG 16-12-25 04:30 OP:and  STATUS:               ID:20161224221744     3
 2016-12-24-2218-00M.COL___381                                                 6
 STAT SP IPHASW D HRMM SECON CODA AMPLIT PERI AZIMU VELO AIN AR TRES W  DIS CAZ7
 BAR2 EZ EP       2228 13.78                             170    0.0410 25.3 198 
 BAR2 EZ ES       2228 29.21                             170   -0.2910 25.3 198 
 BAR2 EZ I        2228 32.41        18.2 0.28            166           25.3 198 
 BRR  HZ EP     C 2228 15.47                             152    0.1510 73.9 296 
 BRR  HE ES       2228 32.44                             152    0.1310 73.9 296 
 BRR  HZ I        2228 35.39        18.3 0.20            151           73.9 296 
 PAM  EZ IP     C 2228 16.59                             153    0.5510 74.2  38 
 PAM  EE ES       2228 33.56                             153   -0.0410 74.2  38 
 PAM  EZ I        2228 35.44        19.3 0.48            158           74.2  38 
 RUS  HZ EP       2228 17.81                             144    0.0110  102 178 
 RUS  HE ES       2228 36.99                             144    0.2710  102 178 
 RUS  HZ I        2228 38.72         6.4 0.32            144            102 178 
 PTB  HZ EP       2228 20.61                             132   -0.60 9  152 259 
 PTB  HE ES       2228 42.28                             132   -0.52 9  152 259 
 PTB  HZ I        2228 44.20        18.8 0.25            131            152 259 
 ZAR  HZ EP   3   2228 28.15                             123    1.57 2  207 291 
 ZAR  HE ES       2228 52.44                             123    0.09 8  207 291 
 ZAR  HZ I        2228 57.52        18.0 0.17            123            207 291 
 NOR  HZ EP       2228 30.25                             119    0.33 8  238 235 
 NOR  HN ES   3   2228 59.70                             119    1.41 2  238 235 
 NOR  HZ I        2229  1.71         9.0 0.25            119            238 235 
 CHI  HZ EP       2228 32.24                             118    0.53 8  251 196 
 CHI  HN ES       2229  1.80                             118    0.31 8  251 196 
 CHI  HZ I        2229  9.74         4.8 0.30            118            251 196 
 URE  HZ EP       2228 34.48                             114   -0.68 7  287 291 
 URE  HN ES   3   2229  6.35                             114   -1.27 2  287 291 
 URE  HZ I        2229 11.06         8.1 0.12            115            287 291 
 GUY2CHZ EP   9   2228 40.54                             113    2.77 0  305 235 
 GUY2CHN ES       2229 15.44                                    0.40 7  305 235 
 GUY2CHZ I        2229 22.26         6.6 0.36                           305 235 
 PTGC HZ EP       2228 37.39                             112   -0.18 7  308 159 
 PTGC HN ES       2229 10.61                             112   -1.31 7  308 159 
 ELA  HN ES   4   2229 22.89                             111    4.90 0  333 230 
 ELA  HZ I        2229 25.82         5.3 0.40            111            333 230 
 ORTC HZ EP       2228 48.99                             107    1.01 6  399 216 
 ORTC HN ES   3   2229 32.43                             107    2.00 1  399 216 
 ORTC HZ I        2229 36.59         4.8 0.48            107            399 216 
 SJC  HZ EP   3   2228 48.00                             106   -1.37 1  410 326 
 SJC  HN ES   4   2229 29.02                             106   -3.90 0  410 326 
 SJC  HZ I        2229 32.16         2.4 0.24            107            410 326 
                                                                                
