 2017  424 2010 24.2 L   6.803 -73.128143.2  RSN 10 0.2 1.8LRSN                1
 GAP=113        0.54       2.3     2.1  3.5  0.6130E+00  0.7935E+00  0.3137E+01E
 Epicentro: LOS SANTOS - SANTANDER                                             3
 ACTION:UPD 17-05-30 21:15 OP:jn   STATUS:               ID:20170424201024 L   I
 OLDACT:REG 17-04-25 03:02 OP:lv   STATUS:               ID:20170424200742     3
 2017-04-24-2008-00M.COL___371                                                 6
 STAT SP IPHASW D HRMM SECON CODA AMPLIT PERI AZIMU VELO AIN AR TRES W  DIS CAZ7
 BAR2 EZ EP       2010 43.47                             170   -0.0710 24.0 194 
 BAR2 EZ ES       2010 58.68                             170    0.0510 24.0 194 
 BRR  HZ EP       2010 45.25                             152    0.0810 72.8 298 
 BRR  HN ES       2011  1.77                             152    0.2510 72.8 298 
 PAM  EZ EP       2010 46.09                             151    0.0310 75.9  39 
 PAM  EN ES       2011  3.03                             151   -0.0810 75.9  39 
 PAM  EZ I        2011  5.34         8.2 0.34            156           75.9  39 
 PTB  HZ EP       2010 50.84                             131   -0.31 9  150 259 
 PTB  HN ES       2011 11.81                             131   -0.35 9  150 259 
 PTB  HZ I        2011 13.92         7.7 0.10            131            150 259 
 SPBC HZ EP       2010 52.66                             128    0.01 9  165 219 
 SPBC HE ES       2011 15.12                             128    0.28 9  165 219 
 SPBC HZ I        2011 22.76         7.2 0.06            128            165 219 
 YPLC HZ EP       2010 54.02                             126    0.27 9  176 152 
 YPLC HN ES       2011 16.44                             126   -0.35 9  176 152 
 YPLC HZ I        2011 22.05         5.9 0.16            127            176 152 
 ZAR  HE ES       2011 21.96                             122   -0.02 8  206 292 
 ZAR  HZ I        2011 27.01        11.4 0.24            123            206 292 
 CHI  HZ EP       2011  2.12                             116    0.27 8  249 196 
 CHI  HN ES   4   2011 32.64                             116    1.43 0  249 196 
 CHI  HZ I        2011 37.39         3.7 0.15            117            249 196 
 PRA  HZ EP       2011 17.72                             106   -0.06 6  393 210 
 PRA  HN ES   4   2011 58.31                             106   -1.26 0  393 210 
 PRA  HZ I        2012  4.95         3.9 0.34            107            393 210 
 SJC  HZ EP   4   2011 17.48                             105   -2.30 0  410 327 
 SJC  HN ES   4   2011 58.82                             105   -4.31 0  410 327 
 SJC  HZ I        2012  3.07         1.4 0.20            107            410 327 
                                                                                
