 2013  324 2045  9.3 L   6.767 -73.149142.0  RSN  7 0.5 2.0LRSN                1
 GAP=138        1.02       5.8     5.4  7.5  0.1057E+01  0.7696E+01 -0.6533E+01E
 Epicentro: LOS SANTOS - SANTANDER                                             3
 ACTION:UPD 13-04-09 14:04 OP:ep   STATUS:               ID:20130324204509 L   I
 2013-03-24-2040-00M.COL___244                                                 6
 STAT SP IPHASW D HRMM SECON CODA AMPLIT PERI AZIMU VELO AIN AR TRES W  DIS CAZ7
 BAR2 SZ EP       2045 28.74                             172    0.2910 19.6 191 
 BAR2 SZ ES       2045 42.62                             172   -0.7310 19.6 191 
 BAR2 SZ I        2045 44.41        47.2 0.34            172           19.6 191 
 BRR  HZ EP   1   2045 30.37                             151    0.20 7 72.7 301 
 BRR  HN ES   1   2045 47.36                             151    0.95 7 72.7 301 
 PAM  SZ IP     C 2045 31.45                             149    0.1010 80.5  38 
 PAM  SN ES   1   2045 48.41                             149   -0.10 7 80.5  38 
 PAM  SZ I        2045 49.90        16.3 0.38            151           80.5  38 
 RUS  HZ EP       2045 32.58                             144    0.1210 96.9 176 
 RUS  HN ES   1   2045 50.99                             144    0.50 7 96.9 176 
 RUS  HZ I        2045 52.86         5.5 0.32            146           96.9 176 
 PTB  HZ EP       2045 35.36                             131   -0.54 9  147 260 
 PTB  HN ES   1   2045 56.37                             131   -0.25 7  147 260 
 PTB  HZ I        2045 59.25        13.0 0.10            131            147 260 
 OCA  HZ EP   1   2045 37.16                             128   -0.54 7  164 353 
 OCA  HN ES   4   2045 58.45                             128   -1.38 0  164 353 
 OCA  HZ I        2046  1.52        17.3 0.24            129            164 353 
 ZAR  HZ EP   1   2045 42.09                             121    0.44 6  205 293 
 ZAR  HN ES   1   2046  6.88                             121    0.03 6  205 293 
 ZAR  HZ I        2046 12.46         7.5 0.20            122            205 293 
                                                                                
