 2012 1024 2017 28.1 L   6.768 -73.104149.8  RSN  4 0.1 1.6LRSN                1
 GAP=143        0.39       3.9     6.5  5.2  0.1306E+02 -0.1593E+02 -0.7648E+01E
 Epicentro: LOS SANTOS - SANTANDER                                             3
 ACTION:UPD 12-11-22 17:05 OP:ep   STATUS:               ID:20121024201728 L   I
 2012-10-24-2010-00M.COL___234                                                 6
 STAT SP IPHASW D HRMM SECON CODA AMPLIT PERI AZIMU VELO AIN AR TRES W  DIS CAZ7
 BAR2 SZ EP   1   2017 47.99                             172   -0.14 7 21.3 204 
 BAR2 SZ ES   1   2018  3.59                             172   -0.21 7 21.3 204 
 BAR2 SZ I        2018  5.27         8.1 0.28                          21.3 204 
 BRR  HZ EP   1   2017 49.82                             151   -0.15 7 76.9 299 
 BRR  HZ I        2017 50.47         8.4 0.14                          76.9 299 
 BRR  HN ES   1   2018  7.24                             151    0.18 7 76.9 299 
 PAM  SZ EP   1   2017 50.84                             151    0.14 7 77.4  35 
 PAM  SZ I        2017 50.98         6.9 0.20                          77.4  35 
 RUS  HZ EP   1   2017 52.00                             146    0.05 7 96.8 179 
 RUS  HN ES   1   2018 10.71                             146    0.13 7 96.8 179 
 RUS  HN I        2018 10.93         4.6 0.28                          96.8 179 
                                                                                
