 2017  624 2348 52.3 L   6.869 -73.124149.6  RSN  4 0.4 1.6LRSN                1
 GAP=301        0.63       7.8     6.6  5.9  0.3169E+01 -0.1219E+02  0.1268E+02E
 Epicentro: LOS SANTOS - SANTANDER                                             3
 ACTION:UPD 17-09-14 16:55 OP:jn   STATUS:               ID:20170624234852 L   I
 OLDACT:UP  17-06-25 05:03 OP:dani STATUS:               ID:20170624234742     3
 OLDACT:UP  17-06-25 05:02 OP:dani STATUS:               ID:20170624234742     3
 OLDACT:UP  17-06-25 05:02 OP:dani STATUS:               ID:20170624234742     3
 OLDACT:UP  17-06-25 05:01 OP:dani STATUS:               ID:20170624234742     3
 OLDACT:REG 17-06-25 03:20 OP:dani STATUS:               ID:20170624234742     3
 2017-06-24-2348-00M.COL___355                                                 6
 STAT SP IPHASW D HRMM SECON CODA AMPLIT PERI AZIMU VELO AIN AR TRES W  DIS CAZ7
 BRR  HZ EP       2349 13.60                             154   -0.2210 70.1 292 
 BRR  HN ES       2349 30.74                             154    0.1410 70.1 292 
 BRR  HZ I        2349 39.98         7.9 0.40            161           70.1 292 
 PTB  HZ EP   9   2349 18.32                             132   -1.64 0  152 256 
 PTB  HN ES       2349 39.67                             133   -0.22 9  152 256 
 PTB  HZ I        2349 47.12         3.7 0.28            139            152 256 
 ZAR  HZ EP       2349 24.76                             123   -0.21 9  204 290 
 ZAR  HN ES       2349 50.51                             123    0.07 9  204 290 
 NOR  HZ EP       2349 29.35                             118    0.39 8  241 233 
 NOR  HN ES   3   2349 55.91                             118   -1.64 2  241 233 
 NOR  HZ I        2350  1.97         2.7 0.20            125            241 233 
 GUY2CHE ES   4   2350 14.40                             112    2.85 0  308 234 
                                                                                
