 2010  824 2104 39.6 L   6.792 -73.078140.6  RSN  4 0.2 2.1LRSN                1
 GAP=244        0.58       5.8    10.8  6.1  0.3681E+02  0.1091E+02  0.5066E+01E
 Epicentro: LOS SANTOS - SANTANDER                                             3
 ACTION:UP  10-09-07 10:57 OP:vdl  STATUS:               ID:20100824210439 L   I
 2010-08-24-2101-06S.COL___121                                                 6
 STAT SP IPHASW D HRMM SECON CODA AMPLIT PERI AZIMU VELO SNR AR TRES W  DIS CAZ7
 BAR2 SZ EP   1   21 4 58.81                             170     0.2 7   25 208 
 BAR2 SZ ES   1   21 5 13.30                                    -0.2 7   25 208 
 BAR2 SZ I        21 5 14.68        38.5 0.28                            25 208 
 BRR  HZ IP     D 21 5  0.37                             150    -0.210   78 296 
 BRR  HZ I        21 5  0.56        39.0 0.11                            78 296 
 BRR  HE ES   1   21 5 17.33                             150     0.3 7   78 296 
 RUS  HZ EP   2   21 5  3.26                             143     0.5 5   99 180 
 RUS  HE ES   1   21 5 20.81                             143     0.0 7   99 180 
 RUS  HZ I        21 5 23.40        10.4 0.37                            99 180 
 PRA  HZ EP   1   21 5 33.14                             106    -0.2 4  395 211 
 PRA  HE ES   2   21 6 15.22                             106     0.0 3  395 211 
 PRA  HZ I        21 6 21.51         3.6 0.39                           395 211 
                                                                                
