 2016  824 2124 14.9 L   6.761 -73.146134.0  RSN 10 0.4 1.6LRSN                1
 GAP=138        0.93       3.3     3.6  5.2 -0.1809E+01  0.6193E+01  0.3180E+01E
 Epicentro: LOS SANTOS - SANTANDER                                             3
 ACTION:UPD 16-10-29 15:39 OP:rebc STATUS:               ID:20160824212414 L   I
 OLDACT:REG 16-08-25 03:50 OP:lv   STATUS:               ID:20160824211734     3
 2016-08-24-2118-00M.COL___380                                                 6
 STAT SP IPHASW D HRMM SECON CODA AMPLIT PERI AZIMU VELO AIN AR TRES W  DIS CAZ7
 BAR2 EZ EP       2124 32.84                             171   -0.1610 19.1 192 
 BAR2 EZ ES       2124 46.73                             171   -0.4110 19.1 192 
 BAR2 EZ I        2124 48.47         8.3 0.28                          19.1 192 
 BRR  HZ EP       2124 34.76                             150   -0.1310 73.3 302 
 BRR  HN ES       2124 51.11                             150    0.6010 73.3 302 
 BRR  HZ I        2124 52.05        15.0 0.32                          73.3 302 
 PAM  EZ EP       2124 35.94                             148   -0.1310 80.8  38 
 PAM  EN ES       2124 52.80                             148    0.2010 80.8  38 
 PAM  EZ I        2124 54.26         4.6 0.26                          80.8  38 
 RUS  HZ EP       2124 37.12                             143   -0.0410 96.3 176 
 RUS  HE ES       2124 54.91                             143    0.3710 96.3 176 
 RUS  HZ I        2124 56.06         3.9 0.26                          96.3 176 
 PTB  HZ EP       2124 39.93                             129   -0.90 9  147 260 
 PTB  HN ES       2125  0.88                             129   -0.20 9  147 260 
 PTB  HZ I        2125  4.20         4.3 0.10                           147 260 
 SPBC HZ EP       2124 42.09                             127   -0.07 9  160 220 
 SPBC HN ES       2125  3.38                             127   -0.07 9  160 220 
 SPBC HZ I        2125  8.31         6.7 0.20                           160 220 
 ZAR  HZ EP       2124 47.26                             119    0.51 8  206 293 
 ZAR  HN ES       2125 11.55                             119   -0.07 8  206 293 
 ZAR  HZ I        2125 16.18         4.0 0.12                           206 293 
 NOR  HZ EP       2124 49.17                             116   -0.50 8  232 235 
 NOR  HN ES       2125 16.92                             116    0.11 8  232 235 
 NOR  HZ I        2125 22.20         4.0 0.16                           232 235 
 GUY2CHZ EP       2124 58.47                             110    0.80 7  299 235 
 GUY2CHE ES       2125 31.20                             110    0.14 7  299 235 
 GUY2CHZ I        2125 38.18         2.6 0.24                           299 235 
 PRA  HZ EP       2125  7.93                             105    0.37 6  388 210 
 PRA  HE ES       2125 48.95                             105    0.29 6  388 210 
 PRA  HZ I        2125 51.25         2.2 0.28                           388 210 
                                                                                
