 2014  224 2246 24.8 L   6.830 -73.181147.5  RSN 11 0.5 2.1LRSN                1
 GAP=131        1.23       3.4     4.8  7.2 -0.1626E+01  0.6955E+01  0.3652E+01E
 Epicentro: ZAPATOCA - SANTANDER                                               3
 ACTION:UPD 14-03-10 08:12 OP:ep   STATUS:               ID:20140224224624 L   I
 OLDACT:REG 14-02-25 04:00 OP:carl STATUS:               ID:20140224223948     3
 2014-02-24-2239-48M.COL___236                                                 6
 STAT SP IPHASW D HRMM SECON CODA AMPLIT PERI AZIMU VELO AIN AR TRES W  DIS CAZ7
 BRR  HZ EP       2246 46.29                             154    0.4110 66.1 298 
 BRR  HN ES       2247  2.18                             154   -0.1310 66.1 298 
 PAM  SZ EP       2246 47.62                             151    0.4010 77.5  43 
 PAM  SN ES       2247  4.69                             151   -0.0110 77.5  43 
 PAM  SZ I        2247  6.73        25.1 0.54            156           77.5  43 
 RUS  HZ EP       2246 48.89                             143   -0.1210  104 174 
 RUS  HN ES       2247  7.64                             143   -0.2310  104 174 
 RUS  HZ I        2247  9.47        13.8 0.36            144            104 174 
 PTB  HZ EP       2246 51.65                             133    0.01 9  145 257 
 PTB  HN ES       2247 12.18                             133   -0.39 9  145 257 
 SPBC HZ EP       2246 53.91                             129    0.44 9  163 217 
 SPBC HN ES       2247 16.05                             129    0.23 9  163 217 
 SPBC HZ I        2247 23.33        21.2 0.32            130            163 217 
 ZAR  HZ EP       2246 57.50                             123    0.63 9  199 292 
 ZAR  HN ES       2247 22.99                             123    1.11 9  199 292 
 ZAR  HZ I        2247 29.51         9.8 0.32            124            199 292 
 NOR  HZ EP       2246 59.34                             119   -1.18 8  233 233 
 NOR  HE ES       2247 27.58                             119   -0.79 8  233 233 
 NOR  HZ I        2247 33.95        11.7 0.30            120            233 233 
 SML  HZ EP       2247  0.24                             118   -0.80 8  239 336 
 SML  HN ES       2247 28.49                             118   -0.79 8  239 336 
 SML  HZ I        2247 32.04        19.9 0.28            120            239 336 
 CHI  HZ EP       2247  3.20                             117    0.34 8  251 194 
 CHI  HN ES       2247 32.63                             117    0.10 8  251 194 
 CHI  HZ I        2247 36.40         4.8 0.60            119            251 194 
 GUY2CHZ EP   4   2247  9.71                             113    1.34 0  300 234 
 GUY2CHN ES       2247 42.67                             113    0.34 7  300 234 
 PRA  HZ EP       2247 18.81                             107    0.29 6  393 209 
 PRA  HE ES       2248  0.23                             107   -0.17 6  393 209 
 PRA  HZ I        2248  7.59         4.6 0.34            108            393 209 
                                                                                
