 2016  224 2220 18.7 L   7.008 -73.170152.4  RSN  6 0.3 1.7LRSN                1
 GAP=129        0.77       4.1     3.4  5.2  0.1774E+01  0.4183E+01 -0.5180E+00E
 Epicentro: GIRON - SANTANDER                                                  3
 ACTION:UPD 16-03-04 21:29 OP:rebc STATUS:               ID:20160224222018 L   I
 OLDACT:REG 16-02-25 05:16 OP:cara STATUS:               ID:20160224221750     3
 2016-02-24-2217-50M.COL___340                                                 6
 STAT SP IPHASW D HRMM SECON CODA AMPLIT PERI AZIMU VELO AIN AR TRES W  DIS CAZ7
 BAR2 EZ EP       2220 40.11                             162    0.3010 46.0 182 
 BAR2 EZ ES       2220 55.86                             162   -0.3810 46.0 182 
 BAR2 EZ I        2220 57.66        17.8 0.50            166           46.0 182 
 BRR  HZ EP       2220 40.46                             157    0.3810 60.9 280 
 BRR  HN ES       2220 57.18                             157    0.4510 60.9 280 
 BRR  HZ I        2221  4.48         9.9 0.40            155           60.9 280 
 PAM  EZ EP       2220 40.80                             156   -0.1310 63.6  55 
 PAM  EE ES       2220 58.01                             156   -0.2310 63.6  55 
 PAM  EZ I        2220 59.64         4.5 0.40            160           63.6  55 
 RUS  HZ EP       2220 44.92                             139    0.0310  124 176 
 RUS  HE ES       2221  5.48                             139    0.2010  124 176 
 PTB  HZ EP       2220 46.42                             133   -0.16 9  151 250 
 PTB  HN ES       2221  7.88                             133   -0.41 9  151 250 
 PTB  HZ I        2221 10.31         5.0 0.54            134            151 250 
 ZAR  HZ EP       2220 50.32                             125   -0.29 9  194 286 
 ZAR  HN ES       2221 15.59                             125    0.12 9  194 286 
 ZAR  HZ I        2221 21.39         4.2 0.18            127            194 286 
                                                                                
