 2011 1024 2141 39.2 L   6.828 -73.133144.0  RSN 18 0.4 3.7LRSN                1
 GAP=114        0.86       3.1     3.6  4.8  0.4952E+00  0.5938E+01  0.4870E+01E
 Epicentro: LOS SANTOS - SANTANDER                                             3
 ACTION:UPD 12-07-13 16:05 OP:ep   STATUS:               ID:20111024214139 L   I
 2011-10-24-2140-21S.COL___172                                                 6
 STAT SP IPHASW D HRMM SECON CODA AMPLIT PERI AZIMU VELO AIN AR TRES W  DIS CAZ7
 BTL  SZ EP       2141 59.03                             173    0.4710 17.9 304 
 BTL  SZ ES   1   2142 14.04                             173    0.41 7 17.9 304 
 BAR2 SZ IP     D 2141 58.70                             169   -0.0310 26.7 192 
 BAR2 SZ ES   1   2142 13.49                             169   -0.44 7 26.7 192 
 BAR2 SZ I        2142 14.63      1012.1 0.35                          26.7 192 
 BRR  HZ IP     C 2142  0.51                             152    0.3310 71.0 296 
 BRR  HN ES   1   2142 17.10                             152    0.57 7 71.0 296 
 BRR  HZ I        2142 20.92       798.7 0.12                          71.0 296 
 PAM  SZ IP     D 2142  1.47                             151    0.4010 74.1  40 
 PAM  SN ES   1   2142 17.74                             151   -0.36 7 74.1  40 
 PAM  SZ I        2142 20.67       711.8 0.42                          74.1  40 
 RUS  HZ IP     D 2142  2.77                             143   -0.2710  104 177 
 RUS  HN ES   1   2142 20.73                             143   -0.87 7  104 177 
 RUS  HZ I        2142 23.11       865.2 0.39                           104 177 
 OCA  SZ EP   1   2142  6.91                             130   -0.22 7  157 352 
 OCA  SZ ES   1   2142 28.37                             130   -0.52 7  157 352 
 OCA  SZ I        2142 33.37       434.4 0.35                           157 352 
 YOP  SZ EP       2142  9.54                             125    0.17 9  181 154 
 YOP  SE ES   1   2142 33.18                             125    0.31 7  181 154 
 YOP  SZ I        2142 34.31       501.5 0.28                           181 154 
 ZAR  HZ EP   1   2142 11.52                             122   -0.06 6  204 291 
 ZAR  HN ES   1   2142 36.69                             122   -0.12 6  204 291 
 ZAR  HZ I        2142 43.17       588.8 0.32                           204 291 
 NOR  SZ EP   1   2142 14.60                             118   -0.58 6  238 234 
 NOR  SE ES   1   2142 42.74                             118   -0.48 6  238 234 
 ROSC BZ EP       2142 18.45                             116    0.82 8  256 211 
 ROSC BZ I        2142 52.65       340.6 0.34                           256 211 
 HEL  HZ EP       2142 19.37                             114   -0.23 8  274 255 
 HEL  HE ES   1   2142 50.61                             114   -0.47 6  274 255 
 HEL  HZ I        2142 57.41       285.0 0.46                           274 255 
 GUY  SZ EP   1   2142 23.32                             111   -0.04 5  306 235 
 GUY  SN ES   1   2142 58.36                             111    0.58 5  306 235 
 GUY  SZ I        2143  5.61       430.4 0.30                           306 235 
 VIL  SZ EP   1   2142 22.19                             111   -0.76 5  307 192 
 VIL  SZ I        2143  8.16       137.9 0.25                           307 192 
 RREF HZ EP       2142 25.24                             110   -0.42 7  325 229 
 RREF HN ES   2   2143  2.15                             110    0.28 3  325 229 
 RREF HZ I        2143 11.06       190.4 0.36                           325 229 
 DBB  SZ EP   1   2142 26.80                             109    0.03 5  341 274 
 TOL  SZ EP   1   2142 27.90                             109    0.11 5  347 224 
 ANIL HZ EP   1   2142 29.63                             108    0.29 5  361 224 
 ANIL HZ I        2143 16.35       361.6 0.31                           361 224 
 PRA  HZ EP   1   2142 32.17                             106   -0.92 4  395 210 
 PRA  HN ES   1   2143 15.61                             106    0.50 4  395 210 
                                                                                
