 2017 1224 2130 28.3 L   6.798 -73.161138.8  RSN  8 0.5 1.8LRSN                1
 GAP=145        1.09       4.0     5.1  7.0 -0.8103E+01  0.1202E+02  0.1403E+01E
 Epicentro: LOS SANTOS - SANTANDER                                             3
 ACTION:UPD 18-01-04 13:23 OP:rebc STATUS:               ID:20171224213028 L   I
 OLDACT:UP  17-12-25 05:25 OP:lv   STATUS:               ID:20171224212128     3
 OLDACT:REG 17-12-25 04:34 OP:lv   STATUS:               ID:20171224212128     3
 2017-12-24-2128-00M.COL___454                                                 6
 STAT SP IPHASW D HRMM SECON CODA AMPLIT PERI AZIMU VELO AIN AR TRES W  DIS CAZ7
 BAR2 EZ EP       2130 46.85                             170   -0.2010 22.8 186 
 BAR2 EZ ES       2131  1.65                             170   -0.0410 22.8 186 
 BAR2 EZ I        2131  3.46        19.9 0.60            171           22.8 186 
 PAM  EZ EP       2130 49.64                             149   -0.1910 78.7  40 
 PAM  EE ES       2131  6.79                             149    0.1510 78.7  40 
 PAM  EZ I        2131  9.04         8.8 0.52            151           78.7  40 
 PTB  HZ EP       2130 53.78                             131   -0.73 9  146 259 
 PTB  HN ES       2131 14.49                             131   -0.49 9  146 259 
 PTB  HZ I        2131 16.56         4.2 0.48            131            146 259 
 OCA  HZ EP       2130 55.69                             128   -0.36 9  160 354 
 OCA  HN ES       2131 18.47                             128    0.75 9  160 354 
 OCA  HZ I        2131 21.64        11.4 0.26            129            160 354 
 SPBC HZ EP       2130 55.94                             128   -0.18 9  162 219 
 SPBC HE ES       2131 18.21                             128    0.38 9  162 219 
 SPBC HZ I        2131 20.48        11.4 0.34            129            162 219 
 ZAR  HZ EP       2131  0.73                             121    0.62 9  203 292 
 ZAR  HE ES       2131 24.57                             121   -0.38 9  203 292 
 ZAR  HZ I        2131 30.24         5.9 0.30            122            203 292 
 GUY2CHZ EP       2131 11.96                             111    0.57 7  300 235 
 GUY2CHN ES       2131 45.84                             111    0.83 7  300 235 
 GUY2CHZ I        2131 52.94         2.4 0.28                           300 235 
 PRA  HZ EP       2131 20.88                             105   -0.55 6  391 209 
 PRA  HN ES       2132  3.36                             105    0.47 6  391 209 
 PRA  HZ I        2132  8.82         3.3 0.44            107            391 209 
 SJC  HZ EP   4   2131 21.33                             105   -2.20 0  409 327 
 SJC  HN ES   4   2132  2.46                             105   -4.17 0  409 327 
                                                                                
