 2014  524 2136 21.8 L   6.779 -73.150158.0  RSN  6 0.4 1.7LRSN                1
 GAP=137        0.99       3.9     5.1  7.5 -0.2714E+01  0.4895E+01 -0.5562E+01E
 Epicentro: LOS SANTOS - SANTANDER                                             3
 ACTION:UPD 15-03-16 17:00 OP:nd   STATUS:               ID:20140524213621 L   I
 OLDACT:REG 14-05-25 04:58 OP:carl STATUS:               ID:20140524212818     3
 2014-05-24-2128-18M.COL___199                                                 6
 STAT SP IPHASW D HRMM SECON CODA AMPLIT PERI AZIMU VELO AIN AR TRES W  DIS CAZ7
 BRR  HZ EP       2136 44.97                             154    0.6710 71.9 300 
 BRR  HE ES       2137  2.32                             154    0.4610 71.9 300 
 BRR  HZ I        2137  7.19         7.2 0.12            154           71.9 300 
 PAM  SZ EP       2136 45.69                             152    0.2710 79.5  39 
 PAM  SN ES       2137  3.48                             152   -0.3910 79.5  39 
 PAM  SZ I        2137  6.71         3.8 0.28            154           79.5  39 
 RUS  HZ EP       2136 46.77                             147    0.1810 98.3 176 
 RUS  HN ES       2137  5.68                             147   -0.2710 98.3 176 
 RUS  HZ I        2137  6.78         6.1 0.30            151           98.3 176 
 PTB  HZ EP       2136 49.77                             135    0.08 9  147 260 
 PTB  HE ES       2137 11.29                             135   -0.17 9  147 260 
 PTB  HZ I        2137 14.47         6.3 0.10            137            147 260 
 SPBC HN ES       2137 13.59                             132   -0.29 9  161 219 
 SML  HZ EP       2136 58.58                             120   -0.74 8  246 336 
 SML  HN ES       2137 28.38                             120   -0.23 8  246 336 
 SML  HZ I        2137 30.78         9.0 0.10            122            246 336 
                                                                                
