 2017  724 2041 54.5 L   6.007 -74.086 84.7  RSN  9 0.5 1.8LRSN                1
 GAP= 81        1.07       3.2     2.7  7.2 -0.9067E+00  0.2398E+01 -0.4448E+01E
 Epicentro: LA BELLEZA - SANTANDER                                             3
 ACTION:UPD 17-08-30 15:36 OP:rebc STATUS:               ID:20170724204154 L   I
 OLDACT:REG 17-07-25 03:09 OP:dnl  STATUS:               ID:20170724203742     3
 2017-07-24-2038-00M.COL___392                                                 6
 STAT SP IPHASW D HRMM SECON CODA AMPLIT PERI AZIMU VELO AIN AR TRES W  DIS CAZ7
 SPBC HZ IP     D 2042  7.41                             154    0.0910 39.2 178 
 SPBC HE ES       2042 17.68                             154    0.3410 39.2 178 
 SPBC HZ I        2042 18.42        42.6 0.22            152           39.2 178 
 PTB  HZ IP     C 2042  8.88                             136   -0.6710 71.8 325 
 PTB  HN ES       2042 20.88                             136   -0.4410 71.8 325 
 PTB  HZ I        2042 24.47         9.8 0.10            135           71.8 325 
 RUS  HZ EP       2042 14.07                             123    0.0610  112  96 
 RUS  HN ES       2042 28.89                             123   -0.3710  112  96 
 BAR2 EZ EP       2042 14.58                             121    0.1310  119  57 
 BAR2 EZ ES       2042 30.43                             121    0.3910  119  57 
 BRR  HZ EP       2042 14.82                             119   -0.3310  129  19 
 BRR  HN ES       2042 31.67                             119    0.3810  129  19 
 BRR  HZ I        2042 32.97        24.5 0.44            119            129  19 
 HEL  HZ EP   2   2042 19.00                             113   -0.23 5  161 277 
 HEL  HN ES       2042 39.42                             113    0.87 9  161 277 
 HEL  HZ I        2042 41.91         9.3 0.62            112            161 277 
 GUY2CHZ EP   2   2042 20.51                             113    0.57 5  166 239 
 GUY2CHN ES       2042 39.10                             113   -0.71 9  166 239 
 GUY2CHZ I        2042 45.68         5.7 0.36                           166 239 
 ZAR  HZ EP       2042 21.23                             110   -0.33 9  185 333 
 ZAR  HE ES       2042 43.19                             110    0.49 9  185 333 
 ZAR  HZ I        2042 45.73        12.8 0.14            109            185 333 
 PRA  HZ EP   2   2042 32.10                             103    0.58 4  269 199 
 PRA  HN ES   2   2043  0.72                             103    0.29 4  269 199 
 PRA  HZ I        2043  8.27         3.3 0.68            102            269 199 
                                                                                
