 2010 1124 2347 25.5 L   6.771 -73.141150.1  RSN  4 0.4 1.4LRSN                1
 GAP=159        0.81       6.4    13.9 14.5 -0.7076E+01 -0.7277E+02 -0.1128E+02E
 Epicentro: LOS SANTOS - SANTANDER                                             3
 ACTION:UP  10-12-17 16:54 OP:REBC STATUS:               ID:20101124234725 L   I
 2010-11-24-2344-30S.COL___132                                                 6
 STAT SP IPHASW D HRMM SECON CODA AMPLIT PERI AZIMU VELO SNR AR TRES W  DIS CAZ7
 BRR  HZ EP   1   2347 47.36                             152     0.2 7   73 301 
 BRR  HZ I        2347 47.70        14.4 0.09                            73 301 
 BRR  HN ES   2   2348  4.03                             152    -0.1 5   73 301 
 RUS  HZ EP   1   2347 49.80                             145     0.4 7   97 176 
 RUS  HN ES   2   2348  7.61                             145    -0.5 5   97 176 
 RUS  HZ I        2348 12.34         1.4 0.44                            97 176 
 GUE  SZ EP   1   2347 50.98                             139     0.2 7  120  11 
 GRA  SZ EP   1   2347 50.65                             137    -0.7 7  129  17 
 GRA  SZ ES   2   2348 12.09                             137     0.6 5  129  17 
                                                                                
