 2011  824 2139 17.0 L   6.606 -73.396117.9  RSN  5 0.2 1.5LRSN                1
 GAP=138        0.47       4.1     8.2  5.0  0.2175E+02  0.5104E+01  0.3456E+01E
 Epicentro: HATO - SANTANDER                                                   3
 ACTION:UPD 12-07-13 15:53 OP:ep   STATUS:               ID:20110824213917 L   I
 2011-08-24-2137-30S.COL___167                                                 6
 STAT SP IPHASW D HRMM SECON CODA AMPLIT PERI AZIMU VELO AIN AR TRES W  DIS CAZ7
 BAR2 SZ EP       2139 33.16                             168   -0.1610 23.7  94 
 BAR2 SZ ES   1   2139 46.33                             168    0.30 7 23.7  94 
 BAR2 SZ I        2139 47.85        10.3 0.23                          23.7  94 
 GIR2 SZ EP       2139 34.65                             152    0.1010 56.9  23 
 BRR  HZ EP   2   2139 34.78                             149   -0.08 5 65.4 328 
 BRR  HZ I        2139 39.86        10.7 0.35                          65.4 328 
 BRR  HE ES   1   2139 48.66                             149   -0.11 7 65.4 328 
 RUS  HZ EP   1   2139 36.93                             142   -0.07 7 86.2 156 
 RUS  HE ES   1   2139 52.40                             142   -0.18 7 86.2 156 
 RUS  HZ I        2139 53.59         5.5 0.26                          86.2 156 
 CHI  HZ EP   2   2139 50.92                             114    0.63 4  222 190 
 CHI  HZ I        2139 53.56         2.4 0.33                           222 190 
                                                                                
