 2014  724 2034 55.0 L   6.878 -73.025112.0  RSN  7 0.5 1.7LRSN                1
 GAP=138        2.83      12.5    11.5 19.8  0.2056E+02 -0.3002E+02 -0.9382E+02E
 Epicentro: PIEDECUESTA - SANTANDER                                            3
 ACTION:UPD 15-03-16 20:46 OP:nd   STATUS:               ID:20140724203454 L   I
 OLDACT:UP  14-07-29 06:39 OP:FM   STATUS:               ID:20140724203454 L   3
 OLDACT:DUP 14-07-25 03:37 OP:stll STATUS:               ID:20140724202818d    3
 2014-07-24-2028-17M.COL___272                                                 6
 STAT SP IPHASW D HRMM SECON CODA AMPLIT PERI AZIMU VELO AIN AR TRES W  DIS CAZ7
 BAR2 SZ EP   9   2035 13.72                             166    2.76 0 36.1 209 
 BAR2 SZ I        2035 13.84        10.9 0.42            166           36.1 209 
 BAR2 SZ ES       2035 28.21                                    2.0010 36.1 209 
 BRR  HZ EP   9   2035 15.85                             147    2.64 0 80.0 288 
 BRR  HE ES       2035 32.74                                    2.6510 80.0 288 
 RUS  HZ EP   4   2035 14.41                             139   -1.91 0  109 183 
 RUS  HE ES       2035 33.37                             139    0.3910  109 183 
 RUS  HZ I        2035 36.97         7.2 0.24            141            109 183 
 TAM  HZ EP       2035 19.50                             129    0.34 9  145 110 
 TAM  HN ES   1   2035 38.03                             129   -0.01 7  145 110 
 PTB  HZ EP       2035 20.64                             126   -0.31 9  163 257 
 PTB  HN ES       2035 40.42                             126   -0.80 9  163 257 
 PTB  HZ I        2035 44.36         5.5 0.12            127            163 257 
 SPBC HZ EP       2035 22.66                             124   -0.07 9  178 221 
 SPBC HN ES       2035 44.27                             124   -0.12 9  178 221 
 SPBC HZ I        2035 46.95         5.2 0.22            125            178 221 
 SML  HZ EP       2035 30.72                             114    1.00 8  242 332 
 SML  HN ES       2035 56.47                             114   -0.37 8  242 332 
 SML  HZ I        2036  1.30         7.2 0.24            115            242 332 
                                                                                
