 2013  824 2202 25.9 L   6.800 -73.163144.5  RSN  9 0.5 1.9LRSN                1
 GAP=134        1.19       4.8     5.3  9.1 -0.1268E+01  0.9366E+01 -0.2605E+01E
 Epicentro: LOS SANTOS - SANTANDER                                             3
 ACTION:UPD 14-01-14 09:06 OP:ep   STATUS:               ID:20130824220225 L   I
 OLDACT:DUP 13-08-24 21:50 OP:jn   STATUS:               ID:20130824215960d    3
 OLDACT:REG 13-08-24 21:27 OP:jn   STATUS:               ID:20130824215959     3
 2013-08-24-2159-59M.COL___270                                                 6
 STAT SP IPHASW D HRMM SECON CODA AMPLIT PERI AZIMU VELO AIN AR TRES W  DIS CAZ7
 BAR2 SZ ES       22 3  0.60                             170    0.0410 23.1 185 
 BRR  HZ EP       22 2 47.33                             153    0.5110 69.5 299 
 BRR  HN ES       22 3  3.77                             153    0.6410 69.5 299 
 BRR  HZ I        22 3  8.75        13.8 0.14            151           69.5 299 
 PAM  SZ EP       22 2 48.23                             150    0.1810 78.6  41 
 PAM  SN ES       22 3  4.81                             150   -0.5310 78.6  41 
 PAM  SZ I        22 3  7.42        20.9 0.52            154           78.6  41 
 RUS  HZ EP       22 2 49.61                             143    0.0710  101 175 
 RUS  HE ES   1   22 3  8.09                             143    0.11 7  101 175 
 RUS  HZ I        22 3  9.31         5.2 0.28            148            101 175 
 PTB  HZ EP   1   22 2 51.73                             132   -0.86 7  146 259 
 PTB  HN ES       22 3 12.40                             132   -1.02 9  146 259 
 PTB  HZ I        22 3 18.72         8.1 0.38            133            146 259 
 OCA  HN ES   1   22 3 15.64                             129   -0.44 7  160 354 
 OCA  HZ I        22 3 18.48        14.5 0.12            131            160 354 
 SPBC HE ES   1   22 3 16.69                             129    0.44 7  162 218 
 ZAR  HN ES       22 3 23.54                             122    0.36 9  202 292 
 ZAR  HZ I        22 3 29.80        11.4 0.46            123            202 292 
 SML  HE ES   1   22 3 31.03                             117    0.22 6  243 336 
                                                                                
