 2011  624 2200 39.8 L   6.793 -73.067142.3  RSN  4 0.1 1.7LRSN                1
 GAP=239        0.42       6.7    12.0  5.9  0.6752E+02 -0.3714E+02 -0.1918E+02E
 Epicentro: LOS SANTOS - SANTANDER                                             3
 ACTION:UP  11-07-14 19:07 OP:ep   STATUS:               ID:20110624220039 L   I
 2011-06-24-2155-47S.COL___140                                                 6
 STAT SP IPHASW D HRMM SECON CODA AMPLIT PERI AZIMU VELO SNR AR TRES W  DIS CAZ7
 BAR2 SZ EP   1   22 0 59.10                             169     0.1 7   26 210 
 BTL  SZ EP   1   22 0 59.23                             169     0.2 7   26 302 
 BAR2 SZ ES   1   22 1 13.87                             169    -0.2 7   26 210 
 BAR2 SZ I        22 1 16.78        12.7 0.26                            26 210 
 BRR  HZ EP   1   22 1  0.91                             149    -0.1 7   79 296 
 BRR  HN ES   1   22 1 17.67                             149     0.1 7   79 296 
 BRR  HZ I        22 1 20.24        15.9 0.22                            79 296 
 RUS  HZ EP   1   22 1  2.94                             143    -0.2 7  100 181 
 RUS  HN ES   1   22 1 21.44                             143     0.1 7  100 181 
 RUS  HZ I        22 1 22.46         6.3 0.23                           100 181 
                                                                                
