 2011  524 2148 19.4 L   6.801 -73.171139.7  RSN 16 0.4 3.2LRSN                1
 GAP=133        0.93       3.6     6.4  5.3 -0.1157E+02  0.1674E+02 -0.7981E+00E
 Epicentro: LOS SANTOS - SANTANDER                                             3
 ACTION:UP  11-06-29 08:56 OP:tino STATUS:               ID:20110524214819 L   I
 2011-05-24-2146-40S.COL___140                                                 6
 STAT SP IPHASW D HRMM SECON CODA AMPLIT PERI AZIMU VELO SNR AR TRES W  DIS CAZ7
 BTL  SZ IP       2148 38.59                             173     0.410   17 321 
 BTL  SZ ES   1   2148 52.91                             173     0.1 7   17 321 
 BAR2 SZ IP       2148 38.33                             170     0.010   23 183 
 BAR2 SZ ES   1   2148 52.90                             170    -0.1 7   23 183 
 BAR2 SZ I        2148 54.20       447.1 0.24                            23 183 
 GIR2 SZ IP       2148 38.41                             167     0.110   31 355 
 GIR2 SZ ES   1   2148 53.00                             167    -0.1 7   31 355 
 BRR  HZ IP   3 C 2148 40.20                             152     0.4 2   69 300 
 BRR  HZ I        2148 40.57       630.9 0.13                            69 300 
 BRR  HN ES   3   2148 56.64                             152     1.0 2   69 300 
 PAM  SZ IP       2148 41.18                             149     0.110   79  41 
 PAM  SN ES   1   2148 57.76                             149    -0.2 7   79  41 
 RUS  HZ IP     C 2148 42.30                             142    -0.310  101 174 
 RUS  HN ES   1   2149  0.20                             142    -0.5 7  101 174 
 RUS  HZ I        2149  1.62       128.6 0.21                           101 174 
 BRI  SZ IP       2148 42.93                             140     0.110  109  22 
 BRI  SZ ES   1   2149  1.59                             140     0.5 7  109  22 
 BRI  SZ I        2149  3.29       201.2 0.29                           109  22 
 GRA  SZ IP       2148 44.23                             135     0.010  127  19 
 GRA  SZ ES   1   2149  3.48                             135     0.0 7  127  19 
 GRA  SZ I        2149  4.91       159.9 0.39                           127  19 
 OCA  SZ EP       2148 46.80                             128    -0.4 9  160 354 
 OCA  SZ ES   1   2149  8.57                             128    -0.3 7  160 354 
 OCA  SZ I        2149 14.87       209.3 0.18                           160 354 
 NOR  SZ EP       2148 54.25                             117    -0.3 8  232 234 
 NOR  SN ES   2   2149 22.19                             117     0.2 4  232 234 
 ROSC BZ EP   1   2148 58.52                             115     1.5 6  251 210 
 ROSC BN ES   2   2149 26.65                             115     0.2 4  251 210 
 HEL  HZ EP       2148 58.65                             114    -0.4 8  269 256 
 HEL  HZ I        2149 37.40        69.9 0.46                           269 256 
 GUY  SZ EP       2149  3.06                             111     0.3 7  301 235 
 GUY  SZ I        2149 44.72        75.1 0.31                           301 235 
 DBB  SZ EP       2149  5.88                             108    -0.4 7  337 274 
 TOL  SZ EP       2149  7.81                             108     0.6 7  342 224 
 PRA  HZ EP       2149 11.95                             105    -0.6 6  391 209 
 PRA  HZ I        2149 58.33       104.9 0.18                           391 209 
 SJC  HZ EP   4   2149 12.71                             105    -1.9 0  408 327 
                                                                                
