 2013  524 2123 53.6 L   6.793 -73.150145.2  RSN  9 0.5 1.8LRSN                1
 GAP=136        1.10       4.8     5.5  8.7 -0.7965E+01  0.1358E+02 -0.4177E-01E
 Epicentro: LOS SANTOS - SANTANDER                                             3
 ACTION:UPD 13-06-20 09:53 OP:ep   STATUS:               ID:20130524212353 L   I
 2013-05-24-2120-00M.COL___261                                                 6
 STAT SP IPHASW D HRMM SECON CODA AMPLIT PERI AZIMU VELO AIN AR TRES W  DIS CAZ7
 BAR2 SZ EP   1   2124 12.93                             171   -0.23 7 22.5 189 
 BAR2 SZ ES   1   2124 28.14                             171   -0.26 7 22.5 189 
 BAR2 SZ I        2124 29.64        17.9 0.34            173           22.5 189 
 GIR2 SZ EP   1   2124 13.28                             167    0.04 7 32.0 351 
 GIR2 SZ ES   1   2124 28.76                             167    0.22 7 32.0 351 
 GIR2 SZ I        2124 29.99        14.7 0.42            166           32.0 351 
 BRR  HZ EP   1   2124 15.15                             153    0.45 7 71.2 299 
 BRR  HN ES   1   2124 32.27                             153    1.12 7 71.2 299 
 BRR  HZ I        2124 38.14        18.8 0.44            153           71.2 299 
 PAM  SZ EP       2124 16.08                             150    0.2610 78.3  39 
 PAM  SN ES   1   2124 33.03                             150   -0.11 7 78.3  39 
 PAM  SZ I        2124 35.14        19.9 0.54            154           78.3  39 
 RUS  HZ EP   1   2124 17.14                             144   -0.11 7 99.8 176 
 RUS  HN ES   1   2124 35.43                             144   -0.26 7 99.8 176 
 RUS  HZ I        2124 36.82         8.1 0.32            149           99.8 176 
 PTB  HZ EP   1   2124 20.35                             132   -0.13 7  147 259 
 PTB  HN ES       2124 40.78                             132   -0.66 9  147 259 
 PTB  HZ I        2124 43.26         8.9 0.44            135            147 259 
 NOR  HN ES       2124 56.55                             118   -0.45 8  234 235 
 SML  HN ES       2124 58.24                             117   -0.62 8  244 335 
 GUY2CHZ EP   4   2124 39.07                             112    1.96 0  300 235 
 GUY2CHN ES       2125 12.18                             112    1.15 7  300 235 
 GUY2CHZ I        2125 18.07         2.1 0.20                           300 235 
                                                                                
