 2013 1024 2036 48.4 L   6.793 -73.127148.0  RSN  9 0.4 2.3LRSN                1
 GAP=139        0.70       2.9     4.3  5.0 -0.2031E+01  0.8425E+01 -0.1585E+01E
 Epicentro: LOS SANTOS - SANTANDER                                             3
 ACTION:UPD 13-11-25 09:23 OP:ep   STATUS:               ID:20131024203648 L   I
 OLDACT:UP  13-10-24 22:48 OP:mh   STATUS:               ID:20131024202848d    3
 OLDACT:UP  13-10-24 22:48 OP:mh   STATUS:               ID:20131024202848d    3
 OLDACT:DUP 13-10-24 22:39 OP:mh   STATUS:               ID:20131024202848d    3
 2013-10-24-2028-47M.COL___236                                                 6
 STAT SP IPHASW D HRMM SECON CODA AMPLIT PERI AZIMU VELO AIN AR TRES W  DIS CAZ7
 BAR2 SZ EP       2037  8.33                             171    0.0110 23.0 195 
 BAR2 SZ ES   1   2037 23.71                             171   -0.12 7 23.0 195 
 BAR2 SZ I        2037 25.13        67.8 0.09            169           23.0 195 
 BRR  HZ EP   1   2037 10.09                             152    0.15 7 73.4 298 
 BRR  HN ES   1   2037 27.20                             152    0.48 7 73.4 298 
 BRR  HZ I        2037 30.64        28.1 0.10            151           73.4 298 
 PAM  SZ EP       2037 11.09                             151    0.2510 76.7  38 
 PAM  SN ES   1   2037 28.08                             151   -0.24 7 76.7  38 
 PAM  SZ I        2037 30.55        44.8 0.12            156           76.7  38 
 RUS  HZ EP   1   2037 12.21                             144   -0.12 7 99.6 177 
 RUS  HN ES       2037 30.95                             144   -0.0310 99.6 177 
 RUS  HZ I        2037 32.55         9.5 0.16            147           99.6 177 
 SPBC HZ EP       2037 17.25                             129    0.09 9  164 220 
 SPBC HN ES   1   2037 39.40                             129   -0.17 7  164 220 
 SPBC HZ I        2037 44.51        45.2 0.23            131            164 220 
 ZAR  HZ EP   1   2037 20.99                             122   -0.25 6  206 292 
 ZAR  HN ES   2   2037 47.54                             122    0.70 4  206 292 
 NOR  HZ EP   1   2037 24.18                             119   -0.23 6  236 235 
 NOR  HN ES   1   2037 51.76                             119   -0.72 6  236 235 
 NOR  HZ I        2037 56.31        17.6 0.24            121            236 235 
 SML  HZ EP   1   2037 24.73                             118   -0.62 6  245 335 
 SML  HN ES   1   2037 53.76                             118   -0.39 6  245 335 
 GUY2CHZ EP       2037 33.01                             113    0.74 7  302 235 
 GUY2CHE ES   4   2038  9.29                             113    2.81 0  302 235 
 GUY2CHZ I        2038 15.21        14.6 0.33                           302 235 
                                                                                
