 2014  424 2103 47.8 L   6.827 -73.194131.0  RSN  5 0.5 1.8LRSN                1
 GAP=129        1.22       6.2     6.6 12.5 -0.1644E+02  0.2737E+02 -0.1765E+01E
 Epicentro: ZAPATOCA - SANTANDER                                               3
 ACTION:UPD 14-05-13 23:11 OP:nd   STATUS:               ID:20140424210347 L   I
 OLDACT:REG 14-04-25 04:51 OP:stll STATUS:               ID:20140424205815     3
 2014-04-24-2058-15M.COL___248                                                 6
 STAT SP IPHASW D HRMM SECON CODA AMPLIT PERI AZIMU VELO AIN AR TRES W  DIS CAZ7
 BRR  HZ EP   1   21 4  8.25                             152    1.26 7 65.1 298 
 BRR  HZ I        21 4 25.42        18.0 0.44            141           65.1 298 
 PAM  SZ EP       21 4  8.56                             147    0.0310 78.7  44 
 PAM  SZ I        21 4  8.73        18.8 0.22            142           78.7  44 
 PAM  SN ES       21 4 24.40                             147   -0.3110 78.7  44 
 RUS  HZ EP       21 4  9.82                             139   -0.5610  104 173 
 RUS  HN ES       21 4 28.51                             139    0.5010  104 173 
 PTB  HZ EP       21 4 13.47                             129    0.32 9  143 257 
 PTB  HN ES       21 4 32.43                             129   -0.51 9  143 257 
 PTB  HZ I        21 4 36.14         6.3 0.24            125            143 257 
 SPBC HZ EP       21 4 14.85                             126   -0.25 9  162 217 
 SPBC HZ I        21 4 15.04         7.6 0.20            125            162 217 
 SPBC HN ES       21 4 36.40                             126   -0.01 9  162 217 
                                                                                
