 2014 1224 2252 18.3 L   6.789 -73.156146.5  RSN 12 0.5 1.8LRSN                1
 GAP=136        1.25       3.3     4.9  6.8  0.8483E+00  0.1031E+02 -0.1791E+01E
 Epicentro: LOS SANTOS - SANTANDER                                             3
 ACTION:UPD 15-02-10 17:07 OP:nd   STATUS:               ID:20141224225218 L   I
 OLDACT:REG 14-12-25 03:05 OP:fm   STATUS:               ID:20141224224748     3
 2014-12-24-2247-48M.COL___292                                                 6
 STAT SP IPHASW D HRMM SECON CODA AMPLIT PERI AZIMU VELO AIN AR TRES W  DIS CAZ7
 BAR2 EZ EP       2252 38.48                             171    0.5310 21.9 188 
 BAR2 EZ ES       2252 53.66                             171    0.3510 21.9 188 
 BAR2 EZ I        2252 54.44        15.3 0.18            170           21.9 188 
 BRR  HZ EP       2252 39.65                             153    0.1910 70.8 300 
 BRR  HN ES       2252 56.68                             153    0.6810 70.8 300 
 BRR  HZ I        2253  2.13        16.2 0.14            149           70.8 300 
 PAM  SZ EP       2252 41.53                             150    0.8810 79.1  40 
 PAM  SE ES       2252 57.49                             150   -0.6310 79.1  40 
 PAM  SZ I        2253  2.55         4.4 0.48            153           79.1  40 
 RUS  HZ EP       2252 41.57                             144   -0.4310 99.4 175 
 RUS  HE ES       2252 59.84                             144   -0.6710 99.4 175 
 RUS  HZ I        2253  1.45         6.0 0.44            147           99.4 175 
 PTB  HZ EP       2252 45.39                             132    0.23 9  146 259 
 PTB  HE ES       2253  5.73                             132   -0.41 9  146 259 
 PTB  HZ I        2253  8.61         6.4 0.34            131            146 259 
 OCA  HE ES       2253  8.57                             129   -0.37 9  161 354 
 OCA  HZ I        2253 13.37         7.9 0.12            129            161 354 
 ZAR  HZ EP       2252 51.59                             122    0.90 9  203 293 
 ZAR  HN ES       2253 16.03                             122    0.05 9  203 293 
 ZAR  HZ I        2253 25.34         8.2 0.14            121            203 293 
 NOR  HN ES       2253 21.66                             119    0.05 8  233 235 
 NOR  HZ I        2253 25.88         3.4 0.40            119            233 235 
 SML  HZ EP       2252 55.20                             117    0.20 8  244 336 
 SML  HE ES       2253 22.80                             117   -0.85 8  244 336 
 SML  HZ I        2253 31.54        13.7 0.10            117            244 336 
 CHI  HZ EP       2252 55.72                             117   -0.12 8  247 195 
 CHI  HN ES       2253 24.78                             117   -0.36 8  247 195 
 CHI  HZ I        2253 35.87         2.0 0.30            118            247 195 
 MON  HN ES       2253 45.26                             109   -0.24 6  354 309 
 MON  HZ I        2254  6.59         1.9 0.40            109            354 309 
 SJC  HZ EP       2253 13.40                             106   -0.49 6  410 327 
 SJC  HN ES       2253 56.67                             106   -0.62 6  410 327 
 SJC  HZ I        2253 58.84         2.6 0.68            106            410 327 
                                                                                
