 2013  424 2215  6.1 L   6.849 -73.143145.4  RSN 15 0.6 2.5LRSN                1
 GAP= 69        1.40       3.9     3.8  6.1 -0.4010E+01  0.4174E+01  0.2517E+01E
 Epicentro: LOS SANTOS - SANTANDER                                             3
 ACTION:UPD 13-05-22 14:40 OP:EP   STATUS:               ID:20130424221506 L   I
 2013-04-24-2208-37M.COL___217                                                 6
 STAT SP IPHASW D HRMM SECON CODA AMPLIT PERI AZIMU VELO AIN AR TRES W  DIS CAZ7
 GIR2 SZ EP       2215 25.91                             169    0.2710 26.0 348 
 GIR2 SZ ES       2215 40.77                             169   -0.0910 26.0 348 
 BAR2 SZ EP       2215 25.86                             168    0.0110 28.7 189 
 BAR2 SZ ES       2215 40.91                             168   -0.3210 28.7 189 
 BAR2 SZ I        2215 43.65        44.8 0.24            166           28.7 189 
 BRR  HZ EP       2215 27.70                             153    0.5710 69.0 294 
 BRR  HN ES       2215 44.72                             153    1.2110 69.0 294 
 BRR  HN I        2215 45.53        68.5 0.18            150           69.0 294 
 PAM  SZ EP       2215 28.58                             152    0.5110 73.1  42 
 PAM  SN ES       2215 45.63                             152    0.4510 73.1  42 
 RUS  HZ EP       2215 29.93                             142   -0.3210  106 176 
 RUS  HN ES       2215 48.62                             142   -0.4410  106 176 
 RUS  HN I        2215 50.48        71.6 0.32            142            106 176 
 CAPV BZ IP       2215 33.51                             133    0.40 9  145  39 
 CAPV BZ ES       2215 53.72                             133   -0.43 9  145  39 
 PTB  HZ EP       2215 32.65                             132   -0.56 9  149 257 
 PTB  HN ES       2215 53.43                             132   -0.89 9  149 257 
 PTB  HN I        2215 56.00        43.8 0.24            130            149 257 
 OCA  HN ES       2215 55.10                             131   -0.50 9  155 353 
 OCA  HN I        2215 59.07        90.8 0.32            131            155 353 
 TAM  HZ IP     D 2215 34.06                             130    0.15 9  156 107 
 TAM  HZ I        2215 34.16        60.2 0.34            132            156 107 
 TAM  HN ES       2215 55.59                             130    0.03 9  156 107 
 NOR  HZ EP       2215 41.96                             118   -0.25 8  238 233 
 NOR  HE ES       2216  9.85                             118   -0.50 8  238 233 
 NOR  HN I        2216 17.11        42.0 0.16            117            238 233 
 SML  HZ EP       2215 42.11                             118   -0.12 8  239 335 
 SML  HN ES       2216  9.18                             118   -1.20 8  239 335 
 HEL  HZ EP       2215 47.69                             115    1.17 8  274 255 
 HEL  HE ES       2216 18.79                             115    0.78 8  274 255 
 HEL  HN I        2216 31.28        10.6 0.24            114            274 255 
 GUY  HZ EP       2215 51.28                             112    0.91 7  307 234 
 GUY  HE ES       2216 25.01                             112    0.14 7  307 234 
 GUY  HN I        2216 33.86        11.1 0.54            111            307 234 
 SDV  BZ EP       2215 54.98                             108   -0.77 6  357  51 
 PRA  HZ EP       2215 60.00                             106   -0.21 6  397 209 
 PRA  HN ES       2216 41.77                             106   -0.62 6  397 209 
 PRA  HN I        2216 46.75         5.7 0.38            106            397 209 
                                                                                
