 2016  424 2157 38.5 L   6.807 -73.162147.5  RSN 11 0.4 1.9LRSN                1
 GAP=134        0.89       3.7     3.4  6.3 -0.2174E+01  0.8755E+01 -0.4606E+01E
 Epicentro: LOS SANTOS - SANTANDER                                             3
 ACTION:UPD 16-05-05 14:23 OP:rebc STATUS:               ID:20160424215738 L   I
 OLDACT:DUP 16-04-25 06:09 OP:ak   STATUS:               ID:20160424214743d    3
 2016-04-24-2147-42M.COL___301                                                 6
 STAT SP IPHASW D HRMM SECON CODA AMPLIT PERI AZIMU VELO AIN AR TRES W  DIS CAZ7
 BAR2 EZ EP       2157 58.65                             170    0.3310 23.8 185 
 BAR2 EZ ES       2158 13.75                             170   -0.0510 23.8 185 
 BAR2 EZ I        2158 14.52        25.3 0.34            169           23.8 185 
 PAM  EZ EP       2158  1.17                             151    0.2610 78.0  41 
 PAM  EN ES       2158 18.44                             151    0.0310 78.0  41 
 PAM  EZ I        2158 20.45        25.0 0.52            155           78.0  41 
 RUS  HZ EP       2158  2.74                             144    0.2810  101 175 
 RUS  HN ES       2158 20.61                             144   -0.5610  101 175 
 RUS  HZ I        2158 23.21         4.7 0.18            145            101 175 
 PTB  HZ EP       2158  5.04                             133   -0.39 9  146 258 
 PTB  HN ES       2158 26.28                             133   -0.18 9  146 258 
 PTB  HZ I        2158 27.95         9.1 0.06            132            146 258 
 SPBC HZ EP   2   2158  6.18                             129   -0.87 5  163 218 
 SPBC HN ES       2158 29.30                             129   -0.04 9  163 218 
 SPBC HZ I        2158 35.71         7.1 0.25            129            163 218 
 ZAR  HZ EP   2   2158 10.03                             123   -0.80 4  202 292 
 ZAR  HN ES       2158 36.61                             123    0.55 9  202 292 
 ZAR  HZ I        2158 43.23        11.3 0.49            123            202 292 
 NOR  HZ EP   2   2158 14.21                             119    0.02 4  234 234 
 NOR  HE ES       2158 42.75                             119    0.70 8  234 234 
 NOR  HZ I        2158 48.50         4.2 0.28            119            234 234 
 HEL  HZ EP   2   2158 19.55                             115    0.95 4  270 256 
 HEL  HN ES   1   2158 49.93                             115    0.04 6  270 256 
 HEL  HZ I        2158 56.94         4.3 0.36            115            270 256 
 URE  HZ EP   2   2158 19.49                             114    0.09 4  282 292 
 URE  HE ES       2158 50.70                             114   -0.63 7  282 292 
 URE  HZ I        2158 55.79         6.9 0.12            114            282 292 
 GUY2CHZ EP   9   2158 24.54                             113    2.50 0  300 234 
 GUY2CHN ES       2158 59.07                                    0.55 7  300 234 
 GUY2CHZ I        2159  5.46         2.7 0.44                           300 234 
 SJC  HZ EP   1   2158 33.32                             106   -0.58 4  408 327 
 SJC  HN ES   4   2159 14.39                             106   -2.74 0  408 327 
 SJC  HZ I        2159 18.12         3.0 0.52            107            408 327 
                                                                                
