 2012  824 2032 15.7 L   6.707 -73.115144.1  RSN  5 0.3 1.5LRSN                1
 GAP=144        0.66       4.8     6.9  8.2  0.1133E+02 -0.1085E+02 -0.1455E+02E
 Epicentro: JORDAN - SANTANDER                                                 3
 ACTION:UPD 12-09-10 11:58 OP:ep   STATUS:               ID:20120824203215 L   I
 2012-08-24-2030-00M.COL___218                                                 6
 STAT SP IPHASW D HRMM SECON CODA AMPLIT PERI AZIMU VELO AIN AR TRES W  DIS CAZ7
 BAR2 SZ EP   1   2032 34.70                             174   -0.27 7 14.6 210 
 BAR2 SZ I        2032 51.88         9.7 0.27                          14.6 210 
 BRR  HZ EP       2032 37.34                             149    0.2010 79.4 304 
 BRR  HZ I        2032 38.02         9.7 0.11                          79.4 304 
 BRR  HE ES   1   2032 53.99                             149    0.11 7 79.4 304 
 PAM  SZ EP       2032 37.96                             148   -0.1610 83.7  33 
 PAM  SZ I        2032 38.58         4.9 0.25                          83.7  33 
 RUS  HZ EP       2032 38.95                             146    0.4110 90.1 178 
 RUS  HE ES       2032 56.21                             146   -0.1510 90.1 178 
 PTB  HZ EP   1   2032 42.23                             131   -0.44 7  149 263 
 PTB  HZ I        2033  8.00         2.4 0.11                           149 263 
                                                                                
