 2013  324 2306 26.9 L   6.803 -73.118154.7  RSN  4 0.3 1.7LRSN                1
 GAP=159        0.76       8.4     5.9  7.7 -0.6193E+01  0.2504E+02 -0.1219E+02E
 Epicentro: LOS SANTOS - SANTANDER                                             3
 ACTION:UPD 13-04-09 14:04 OP:ep   STATUS:               ID:20130324230626 L   I
 2013-03-24-2300-00M.COL___244                                                 6
 STAT SP IPHASW D HRMM SECON CODA AMPLIT PERI AZIMU VELO AIN AR TRES W  DIS CAZ7
 BAR2 SZ EP       23 6 48.07                             170    0.4710 24.4 197 
 BAR2 SZ ES       23 7  3.59                             170   -0.1710 24.4 197 
 BAR2 SZ I        23 7  4.74        11.6 0.34            172           24.4 197 
 PAM  SN ES   1   23 7  7.83                             153   -0.07 7 75.2  38 
 PTB  HZ EP       23 6 54.82                             133   -0.04 9  151 259 
 PTB  HN ES   1   23 7 16.53                             133   -0.15 7  151 259 
 PTB  HZ I        23 7 18.24         6.1 0.12            133            151 259 
 ZAR  HZ EP       23 6 59.70                             124   -0.49 8  207 292 
 ZAR  HN ES   1   23 7 26.68                             124    0.50 6  207 292 
 ZAR  HZ I        23 7 31.84         2.8 0.38            123            207 292 
                                                                                
