 2012 1224 2257  8.3 L   6.784 -73.152148.1  RSN 11 0.4 2.3LRSN                1
 GAP=182        1.08       3.2     4.8  7.8  0.8910E+00  0.2537E+01  0.2126E+01E
 Epicentro: LOS SANTOS - SANTANDER                                             3
 ACTION:UPD 13-01-04 14:30 OP:ep   STATUS:               ID:20121224225708 L   I
 2012-12-24-2250-00M.COL___242                                                 6
 STAT SP IPHASW D HRMM SECON CODA AMPLIT PERI AZIMU VELO AIN AR TRES W  DIS CAZ7
 BAR2 SZ EP       2257 28.39                             171    0.1810 21.5 189 
 BAR2 SZ I        2257 45.15        23.4 0.28                          21.5 189 
 GIR2 SZ EP       2257 28.59                             167    0.2610 32.9 352 
 BRR  HZ EP       2257 30.38                             153    0.6310 71.5 300 
 BRR  HN ES       2257 47.16                             153    0.7010 71.5 300 
 BRR  HN I        2257 48.74        35.6 0.18                          71.5 300 
 RUS  HZ EP       2257 32.42                             145    0.2210 98.9 176 
 RUS  HN ES       2257 50.28                             145   -0.5310 98.9 176 
 PTB  HZ EP       2257 35.22                             133   -0.18 9  147 259 
 PTB  HN ES       2257 56.49                             133   -0.03 9  147 259 
 PTB  HN I        2258  1.07        28.1 0.20                           147 259 
 OCA  HN ES       2257 58.60                             130   -0.72 9  162 353 
 OCA  HN I        2258  6.44        45.6 0.28                           162 353 
 ZAR  HN ES       2258  6.38                             123    0.02 9  204 293 
 ZAR  HN I        2258 11.48        18.3 0.32                           204 293 
 NOR  HZ EP       2257 43.82                             119   -0.21 8  233 235 
 NOR  HN ES       2258 11.79                             119   -0.09 8  233 235 
 NOR  HN I        2258 17.08        25.5 0.20                           233 235 
 SML  HZ EP       2257 45.37                             118    0.14 8  245 336 
 SML  HN ES       2258 13.26                             118   -0.75 8  245 336 
 SML  HN I        2258 20.31        20.4 0.10                           245 336 
 CHI  HZ EP       2257 46.47                             118    0.51 8  247 195 
 CHI  HN ES       2258 14.60                             118   -0.71 8  247 195 
 CHI  HN I        2258 19.83        10.8 0.24                           247 195 
 HEL  HN ES       2258 19.94                             115    0.03 8  271 256 
 HEL  HN I        2258 28.67         7.7 0.44                           271 256 
                                                                                
