 2013  324 2307 17.3 L   6.738 -73.148149.4  RSN  5 0.4 2.1LRSN                1
 GAP=157        0.84       8.8     5.0  7.5 -0.9257E+01  0.7744E+01  0.1416E+01E
 Epicentro: JORDAN - SANTANDER                                                 3
 ACTION:UPD 13-04-09 14:04 OP:ep   STATUS:               ID:20130324230717 L   I
 2013-03-24-2300-00M.COL___244                                                 6
 STAT SP IPHASW D HRMM SECON CODA AMPLIT PERI AZIMU VELO AIN AR TRES W  DIS CAZ7
 BAR2 SZ IP       23 7 37.46                             173    0.1610 16.6 193 
 BAR2 SZ ES   1   23 7 52.76                             173   -0.10 7 16.6 193 
 BAR2 SZ I        23 7 54.20        33.1 0.36            171           16.6 193 
 BRR  HZ IP     C 23 7 39.32                             152    0.2410 74.5 303 
 BRR  HN ES   1   23 7 56.89                             152    0.87 7 74.5 303 
 BRR  HZ I        23 7 59.79        16.2 0.28            149           74.5 303 
 PAM  SZ EP       23 7 40.33                             150    0.0510 82.9  37 
 PAM  SN ES   1   23 7 57.51                             150   -0.65 7 82.9  37 
 PAM  SZ I        23 7 59.68        27.1 0.54            153           82.9  37 
 PTB  HZ EP       23 7 44.36                             133   -0.13 9  146 261 
 PTB  HN ES   1   23 8  5.13                             133   -0.53 7  146 261 
 PTB  HZ I        23 8 12.77        15.3 0.30            133            146 261 
 ZAR  HZ EP   1   23 7 50.26                             123   -0.03 6  207 294 
 ZAR  HN ES   1   23 8 15.63                             123   -0.35 6  207 294 
 ZAR  HZ I        23 8 21.02        10.5 0.30            123            207 294 
                                                                                
