 2012  724 2228 46.7 L   6.788 -73.145147.6  RSN  6 0.4 1.7LRSN                1
 GAP=137        1.03       6.0     6.1 10.1  0.6303E+01  0.2132E+02  0.1032E+02E
 Epicentro: LOS SANTOS - SANTANDER                                             3
 ACTION:UPD 12-08-14 11:45 OP:ep   STATUS:               ID:20120724222846 L   I
 2012-07-24-2227-40M.COL___199                                                 6
 STAT SP IPHASW D HRMM SECON CODA AMPLIT PERI AZIMU VELO AIN AR TRES W  DIS CAZ7
 BAR2 SZ EP   1   2229  6.47                             171     0.0 7   22 191 
 BAR2 SZ ES   1   2229 21.35                             171    -0.6 7   22 191 
 BAR2 SZ I        2229 23.00        11.8 0.13            168             22 191 
 BRR  HZ EP   1   2229  8.34                             153     0.3 7   72 299 
 BRR  HZ I        2229  8.74        12.7 0.10            152             72 299 
 BRR  HN ES       2229 25.15                             153     0.410   72 299 
 PAM  SN ES       2229 26.41                             151    -0.310   78  39 
 RUS  HZ EP   1   2229 10.53                             144     0.0 7   99 176 
 RUS  HN ES       2229 29.52                             144     0.410   99 176 
 RUS  HZ I        2229 30.95         6.7 0.28            144             99 176 
 PTB  HZ EP   1   2229 13.33                             132    -0.4 7  148 259 
 PTB  HN ES   1   2229 34.24                             132    -0.7 7  148 259 
 PTB  HZ I        2229 39.00         4.3 0.14            132            148 259 
 ZAR  HN ES   1   2229 45.14                             123     0.4 6  205 292 
