 2011 1224 2316 57.0 L   6.764 -73.108143.4  RSN  8 0.2 1.6LRSN                1
 GAP=143        0.42       3.0     3.4  4.2  0.1755E+01  0.3249E+01  0.9990E+00E
 Epicentro: LOS SANTOS - SANTANDER                                             3
 ACTION:UPD 12-07-13 16:18 OP:ep   STATUS:               ID:20111224231657 L   I
 2011-12-24-2310-00M.COL___189                                                 6
 STAT SP IPHASW D HRMM SECON CODA AMPLIT PERI AZIMU VELO AIN AR TRES W  DIS CAZ7
 BAR2 SZ EP   1   2317 16.10                             171   -0.16 7 20.7 203 
 BAR2 SZ I        2317 16.63        11.6 0.11                          20.7 203 
 BAR2 SZ ES   1   2317 31.06                             171   -0.24 7 20.7 203 
 GIR2 SZ EP   1   2317 16.45                             165   -0.04 7 36.0 345 
 GIR2 SZ ES   2   2317 31.71                             165   -0.01 5 36.0 345 
 BRR  HZ EP       2317 18.21                             150    0.0310 76.8 300 
 BRR  HZ I        2317 18.60        16.9 0.10                          76.8 300 
 BRR  HE ES   1   2317 34.90                             150    0.17 7 76.8 300 
 PAM  SN ES   2   2317 36.30                             150    0.19 5 78.0  35 
 RUS  HZ EP   1   2317 20.35                             144    0.17 7 96.4 178 
 RUS  HE ES   1   2317 38.41                             144    0.12 7 96.4 178 
 RUS  HZ I        2317 39.81         3.0 0.46                          96.4 178 
 PTB  HZ EP   2   2317 23.53                             131   -0.52 5  151 261 
 PTB  HN ES   2   2317 44.72                             131   -0.46 5  151 261 
 ZAR  HE ES   2   2317 55.77                             121    0.33 4  209 293 
 NOR  SE ES   2   2318  0.99                             118    0.44 4  236 236 
                                                                                
