 2012  524 2047 16.3 L   6.882 -73.143148.0  RSN  4 0.2 1.6LRSN                1
 GAP=247        0.48       9.2     5.9  7.4  0.2735E+02  0.2913E+01 -0.1433E+02E
 Epicentro: LOS SANTOS - SANTANDER                                             3
 ACTION:UP  12-07-05 12:07 OP:pat  STATUS:               ID:20120524204716 L   I
 2012-05-24-2040-00M.COL___201                                                 6
 STAT SP IPHASW D HRMM SECON CODA AMPLIT PERI AZIMU VELO SNR AR TRES W  DIS CAZ7
 BAR2 SZ EP       2047 36.30                             167    -0.110   32 188 
 BAR2 SZ ES   2   2047 52.36                             167     0.2 5   32 188 
 RUS  HZ EP       2047 41.18                             142     0.210  110 177 
 RUS  HN ES   2   2047 59.82                             142    -0.4 5  110 177 
 RUS  HZ I        2048  0.81         3.8 0.42                           110 177 
 PTB  HZ EP       2047 43.61                             132    -0.1 9  150 255 
 PTB  HE ES   2   2048  5.04                             132     0.0 5  150 255 
 PTB  HZ I        2048 10.54         4.4 0.42                           150 255 
 ZAR  HN ES   3   2048 14.17                             123     0.4 2  201 290 
 ZAR  HZ I        2048 21.28         7.0 0.34                           201 290 
                                                                                
