 2016  824 2038 24.3 L   6.808 -73.152145.6  RSN  7 0.3 1.7LRSN                1
 GAP=166        0.67       3.7     4.8  4.8 -0.9814E+01  0.1030E+02  0.5137E+00E
 Epicentro: LOS SANTOS - SANTANDER                                             3
 ACTION:UPD 16-10-29 15:39 OP:rebc STATUS:               ID:20160824203824 L   I
 OLDACT:REG 16-08-25 03:48 OP:lv   STATUS:               ID:20160824203732     3
 2016-08-24-2038-00M.COL___377                                                 6
 STAT SP IPHASW D HRMM SECON CODA AMPLIT PERI AZIMU VELO AIN AR TRES W  DIS CAZ7
 BAR2 EZ EP       2038 43.78                             170   -0.1810 24.1 188 
 BAR2 EZ ES       2038 58.73                             170   -0.5410 24.1 188 
 BAR2 EZ I        2039  0.23         8.6 0.12                          24.1 188 
 PAM  EZ EP       2038 46.81                             151    0.2910 77.2  40 
 PAM  EE ES       2039  3.89                             151    0.0710 77.2  40 
 PAM  EZ I        2039  6.08         9.7 0.44                          77.2  40 
 RUS  HZ EP       2038 48.16                             143    0.0210  102 176 
 RUS  HE ES       2039  7.03                             143    0.3310  102 176 
 RUS  HZ I        2039  7.64         6.4 0.26                           102 176 
 NOR  HZ EP       2039  0.18                             118    0.14 8  235 234 
 NOR  HE ES       2039 28.32                             118    0.42 8  235 234 
 NOR  HZ I        2039 30.87         4.4 0.16                           235 234 
 CHI  HZ EP       2039  2.13                             117    0.03 8  249 195 
 CHI  HN ES       2039 31.49                             117   -0.06 8  249 195 
 CHI  HZ I        2039 35.03         1.7 0.13                           249 195 
 GUY2CHZ EP       2039  7.50                             112   -0.42 7  301 235 
 GUY2CHN ES       2039 42.05                             112    0.13 7  301 235 
 GUY2CHZ I        2039 50.05         2.3 0.27                           301 235 
 PRA  HZ EP       2039 17.48                             106   -0.42 6  392 209 
 PRA  HE ES       2039 59.52                             106   -0.16 6  392 209 
 PRA  HZ I        2040  3.99         2.2 0.26                           392 209 
                                                                                
