 2014  224 2314 48.8 L   6.904 -73.411110.5  RSN  9 0.5 1.6LRSN                1
 GAP= 85        1.13       3.0     4.5  6.7  0.2770E+01  0.1024E+02  0.1531E+01E
 Epicentro: SAN VICENTE DE CHUCURI - SANTANDER                                 3
 ACTION:UPD 14-03-10 08:13 OP:ep   STATUS:               ID:20140224231448 L   I
 OLDACT:DUP 14-02-25 04:47 OP:carl STATUS:               ID:20140224230952d    3
 2014-02-24-2309-51M.COL___236                                                 6
 STAT SP IPHASW D HRMM SECON CODA AMPLIT PERI AZIMU VELO AIN AR TRES W  DIS CAZ7
 BRR  HZ EP       2315  4.96                             159    0.5010 40.1 304 
 BRR  HE ES       2315 16.72                             159    0.0510 40.1 304 
 BRR  HZ I        2315 18.82        10.0 0.16            158           40.1 304 
 BAR2 SZ EP       2315  4.54                             157   -0.3910 42.7 144 
 BAR2 SZ ES       2315 17.65                             157    0.1410 42.7 144 
 BAR2 SZ I        2315 18.88        25.8 0.42            158           42.7 144 
 PAM  SZ EP       2315  8.93                             138    0.3610 92.2  58 
 PAM  SE ES       2315 23.58                             138   -0.4110 92.2  58 
 PAM  SZ I        2315 26.32         3.5 0.32            141           92.2  58 
 RUS  HZ EP       2315 10.49                             130   -0.3210  118 162 
 RUS  HN ES       2315 28.28                             130    0.3110  118 162 
 RUS  HZ I        2315 31.35         2.4 0.40            130            118 162 
 PTB  HZ EP       2315  9.79                             128   -0.8310  122 251 
 PTB  HN ES   4   2315 25.75                             128   -1.90 0  122 251 
 PTB  HZ I        2315 31.97         8.4 0.20            127            122 251 
 OCA  HN ES       2315 32.77                             123    0.25 9  148   4 
 ZAR  HZ EP       2315 16.36                             118    0.61 9  173 292 
 ZAR  HE ES       2315 36.88                             118    0.10 9  173 292 
 ZAR  HZ I        2315 39.85         7.1 0.28            118            173 292 
 SML  HZ EP       2315 21.77                             111    0.53 8  222 341 
 SML  HE ES       2315 45.61                             111   -0.94 8  222 341 
 SML  HZ I        2315 51.02        11.1 0.10            112            222 341 
 CHI  HZ EP       2315 25.69                             108    0.27 8  254 188 
 CHI  HN ES       2315 53.77                             108   -0.23 8  254 188 
 CHI  HZ I        2316  3.03         1.6 0.36            109            254 188 
                                                                                
