 2012  424 2251 42.4 L   6.779 -73.140143.1  RSN 11 0.3 2.4LRSN                1
 GAP=138        0.85       3.6     3.6  5.2 -0.1766E+01  0.6854E+01  0.4600E+01E
 Epicentro: LOS SANTOS - SANTANDER                                             3
 ACTION:UPD 12-07-05 11:55 OP:tino STATUS:               ID:20120424225142 L   I
 2012-04-24-2250-00M.COL___186                                                 6
 STAT SP IPHASW D HRMM SECON CODA AMPLIT PERI AZIMU VELO AIN AR TRES W  DIS CAZ7
 BAR2 SZ EP       2252  1.93                             171     0.310   21 193 
 BAR2 SZ ES   1   2252 16.57                             171    -0.1 7   21 193 
 BAR2 SZ I        2252 17.74        29.1 0.05                            21 193 
 BRR  HZ EP       2252  3.53                             151     0.210   73 300 
 BRR  HE ES       2252 20.32                             151     0.610   73 300 
 BRR  HZ I        2252 22.84        50.6 0.20                            73 300 
 PAM  SZ EP       2252  4.49                             150     0.110   79  38 
 PAM  SE ES       2252 21.08                             150    -0.510   79  38 
 RUS  HZ EP       2252  5.99                             144     0.310   98 176 
 RUS  HN ES       2252 23.73                             144    -0.210   98 176 
 PTB  HZ EP       2252  8.42                             131    -0.7 9  148 260 
 PTB  HE ES   1   2252 29.69                             131    -0.3 7  148 260 
 ZAR  HZ EP   1   2252 14.62                             122    -0.2 6  206 293 
 ZAR  HN ES   1   2252 39.90                             122    -0.2 6  206 293 
 ZAR  HZ I        2252 46.75        35.4 0.68                           206 293 
 NOR  SZ EP       2252 17.85                             118     0.0 8  234 235 
 NOR  SN ES       2252 45.31                             118    -0.2 8  234 235 
 HEL  HZ EP       2252 22.70                             114     0.2 8  272 256 
 HEL  HE ES   1   2252 53.55                             114    -0.2 6  272 256 
 HEL  HZ I        2253  2.17        10.7 0.57                           272 256 
 RREF HZ EP   1   2252 28.15                             110    -0.1 5  321 230 
 RREF HN ES   1   2253  4.64                             110     0.5 5  321 230 
 RREF HZ I        2253 13.61        12.6 0.34                           321 230 
 TOL  SZ EP   1   2252 30.69                             109     0.3 5  342 225 
 PRA  HZ EP       2252 35.58                             106     0.0 6  390 210 
 PRA  HE ES   1   2253 17.06                             106    -0.1 4  390 210 
                                                                                
