 2016  724 2056 32.4 L   6.792 -73.120145.1  RSN  7 0.2 1.6LRSN                1
 GAP=140        0.56       2.3     2.8  3.9 -0.2381E-01  0.3300E+01  0.1066E+01E
 Epicentro: LOS SANTOS - SANTANDER                                             3
 *RUS-BAR2                                                                     3
 ACTION:UPD 17-03-29 16:54 OP:lp   STATUS:               ID:20160724205632 L   I
 OLDACT:UP  16-07-25 04:30 OP:dani STATUS:               ID:20160724204760d    3
 OLDACT:UP  16-07-25 04:30 OP:dani STATUS:               ID:20160724204760d    3
 OLDACT:UP  16-07-25 04:30 OP:dani STATUS:               ID:20160724204760d    3
 OLDACT:UP  16-07-25 04:30 OP:dani STATUS:               ID:20160724204760d    3
 OLDACT:UP  16-07-25 04:29 OP:dani STATUS:               ID:20160724204760d    3
 OLDACT:UP  16-07-25 04:27 OP:dani STATUS:               ID:20160724204760d    3
 OLDACT:DUP 16-07-25 04:18 OP:dani STATUS:               ID:20160724204760d    3
 2016-07-24-2047-59S.COL___337                                                 6
 STAT SP IPHASW D HRMM SECON CODA AMPLIT PERI AZIMU VELO AIN AR TRES W  DIS CAZ7
 BAR2 EZ EP       2056 51.83                             170   -0.1210 23.2 197 
 BAR2 HE ES   2   2057  7.13                             170   -0.06 5 23.2 197 
 BRR  HZ EP       2056 53.60                             151   -0.0410 74.1 298 
 BRR  HN ES       2057 10.61                             151    0.4010 74.1 298 
 BRR  HZ I        2057 11.38        10.8 0.46            150           74.1 298 
 PAM  EZ EP       2056 54.80                             151    0.3210 76.3  37 
 PAM  EE ES       2057 11.49                             151   -0.2110 76.3  37 
 PAM  EZ I        2057 13.46         4.2 0.16            156           76.3  37 
 RUS  HZ EP       2056 55.90                             144   -0.1110 99.6 178 
 RUS  HE ES       2057 14.34                             144   -0.0910 99.6 178 
 RUS  HZ I        2057 16.88         4.3 0.28            145           99.6 178 
 SPBC HZ EP       2057  1.01                             129    0.05 9  164 220 
 SPBC HN ES       2057 23.30                             129    0.07 9  164 220 
 SPBC HZ I        2057 29.96         7.1 0.14            129            164 220 
 ZAR  HZ EP       2057  5.06                             122   -0.05 8  207 292 
 ZAR  HE ES       2057 30.21                             122   -0.41 8  207 292 
 ZAR  HZ I        2057 37.60         4.2 0.22            123            207 292 
 NOR  HE ES   4   2057 38.53                             118    2.25 0  237 235 
 CHI  HN ES   4   2057 41.31                             117    1.88 0  249 196 
 GUY2CHZ EP       2057 16.40                             112    0.21 7  303 235 
 GUY2CHE ES   4   2057 53.95                             112    3.61 0  303 235 
 GUY2CHZ I        2057 57.84         2.1 0.58                           303 235 
                                                                                
