 2013 1124 2251  5.3 L   6.853 -73.173144.4  RSN  7 0.6 1.7LRSN                1
 GAP=138        1.50       5.6     7.3  9.0 -0.9134E+01  0.1621E+02  0.6345E+01E
 Epicentro: ZAPATOCA - SANTANDER                                               3
 ACTION:UPD 14-01-09 16:30 OP:ep   STATUS:               ID:20131124225105 L   I
 OLDACT:REG 13-11-25 00:03 OP:stll STATUS:               ID:20131124224809     3
 2013-11-24-2248-09M.COL___250                                                 6
 STAT SP IPHASW D HRMM SECON CODA AMPLIT PERI AZIMU VELO AIN AR TRES W  DIS CAZ7
 BAR2 SZ EP       2251 24.86                             168   -0.0210 28.9 182 
 BAR2 SZ ES       2251 39.57                             168   -0.5810 28.9 182 
 BAR2 SZ I        2251 40.57        15.2 0.24            171           28.9 182 
 BRR  HZ EP       2251 26.42                             154    0.4310 65.8 295 
 BRR  HZ I        2251 26.65        12.0 0.16            153           65.8 295 
 BRR  HN ES       2251 42.89                             154    0.7510 65.8 295 
 PAM  SZ EP       2251 27.38                             151    0.1710 75.0  44 
 PAM  SN ES       2251 44.55                             151    0.2410 75.0  44 
 PAM  SZ I        2251 46.56         5.6 0.56            151           75.0  44 
 PTB  HZ EP       2251 30.89                             132   -1.10 9  146 256 
 PTB  HN ES       2251 52.36                             132   -0.45 9  146 256 
 PTB  HZ I        2251 54.59         6.3 0.20            132            146 256 
 SML  HZ EP       2251 40.76                             118   -0.36 8  237 335 
 SML  HN ES       2252  8.72                             118   -0.35 8  237 335 
 SML  HZ I        2252 13.98         8.0 0.20            117            237 335 
 CHI  HZ EP       2251 42.94                             116   -0.51 8  254 194 
 CHI  HZ I        2251 43.08         1.5 0.18            117            254 194 
 CHI  HN ES       2252 13.35                             116    0.14 8  254 194 
 GUY2CHZ EP       2251 50.70                             112    1.75 7  302 234 
 GUY2CHN ES       2252 23.31                             112    0.31 7  302 234 
 GUY2CHZ I        2252 29.87         2.3 0.30                           302 234 
                                                                                
