 2010 1224 2242  2.6 L   6.821 -72.914138.7  RSN  5 0.3 1.6LRSN                1
 GAP=184        0.84       4.7    25.7 12.7  0.3677E+02 -0.2090E+03 -0.3091E+02E
 Epicentro: SAN ANDRES - SANTANDER                                             3
 ACTION:UP  11-01-14 15:27 OP:pat  STATUS:               ID:20101224224202 L   I
 2010-12-24-2240-00M.COL___136                                                 6
 STAT SP IPHASW D HRMM SECON CODA AMPLIT PERI AZIMU VELO SNR AR TRES W  DIS CAZ7
 BAR2 SZ EP       2242 21.77                             163    -0.110   39 230 
 BAR2 SZ ES   1   2242 36.61                             163    -0.3 7   39 230 
 BAR2 SZ I        2242 37.97        16.8 0.26                            39 230 
 BTL  SZ IP       2242 22.25                             163     0.310   41 285 
 RUS  HZ EP       2242 26.21                             141     0.210  104 190 
 RUS  HZ I        2242 27.32         3.2 0.25                           104 190 
 RUS  HN ES   1   2242 44.11                             141    -0.1 7  104 190 
 GRA  SZ EP       2242 26.66                             137     0.010  118   6 
 GRA  SZ I        2242 51.27         6.0 0.66                           118   6 
 OCA  SZ EP       2242 30.17                             127    -0.5 9  163 344 
 OCA  SZ ES   1   2242 52.98                             127     0.4 7  163 344 
 OCA  SZ I        2242 56.71         8.9 0.34                           163 344 
                                                                                
