 2013  424 2006 32.8 L   6.779 -73.146146.9  RSN  6 0.4 1.9LRSN                1
 GAP=138        1.04       5.4     5.4  6.8 -0.3370E+01  0.4099E+01  0.4280E+01E
 Epicentro: LOS SANTOS - SANTANDER                                             3
 ACTION:UPD 13-05-22 14:40 OP:EP   STATUS:               ID:20130424200632 L   I
 2013-04-24-1958-40M.COL___210                                                 6
 STAT SP IPHASW D HRMM SECON CODA AMPLIT PERI AZIMU VELO AIN AR TRES W  DIS CAZ7
 BAR2 SZ EP       20 6 52.60                             171    0.0510 21.0 191 
 BAR2 SZ ES       20 7  7.95                             171    0.0110 21.0 191 
 BAR2 SZ I        20 7  9.31        11.8 0.26            169           21.0 191 
 GIR2 SZ EP       20 6 52.04                             166   -0.6610 33.6 351 
 GIR2 SZ ES       20 7  7.72                             166   -0.4810 33.6 351 
 BRR  HZ EP       20 6 54.48                             152    0.3110 72.4 300 
 BRR  HZ I        20 6 54.77        25.3 0.24            151           72.4 300 
 BRR  HN ES       20 7 11.63                             152    0.8210 72.4 300 
 PAM  SZ EP       20 6 55.50                             150    0.2210 79.2  38 
 PAM  SZ I        20 6 55.61        13.2 0.22            154           79.2  38 
 PAM  SN ES       20 7 12.71                             150   -0.0710 79.2  38 
 RUS  HZ EP       20 6 56.88                             145    0.3510 98.2 176 
 RUS  HN ES       20 7 15.00                             145   -0.0110 98.2 176 
 RUS  HN I        20 7 16.88         9.3 0.18            144           98.2 176 
 PTB  HZ EP       20 6 59.59                             132   -0.26 9  147 260 
 PTB  HN ES       20 7 20.58                             132   -0.35 9  147 260 
 PTB  HN I        20 7 25.72        21.2 0.32            131            147 260 
                                                                                
