 2012  824 2028 26.3 L   6.778 -73.146144.7  RSN  7 0.4 2.1LRSN                1
 GAP=138        0.85       4.3     4.3  6.3  0.4930E+00  0.3538E+01  0.3978E+01E
 Epicentro: LOS SANTOS - SANTANDER                                             3
 ACTION:UPD 12-09-10 11:58 OP:ep   STATUS:               ID:20120824202826 L   I
 2012-08-24-2020-00M.COL___218                                                 6
 STAT SP IPHASW D HRMM SECON CODA AMPLIT PERI AZIMU VELO AIN AR TRES W  DIS CAZ7
 BAR2 SZ EP       2028 45.79                             171    0.0610 20.9 191 
 BAR2 SZ ES       2029  1.23                             171    0.3210 20.9 191 
 BAR2 SZ I        2029  2.29        46.0 0.22                          20.9 191 
 BRR  HZ EP       2028 47.57                             152    0.1910 72.4 300 
 BRR  HN ES   1   2029  4.47                             152    0.63 7 72.4 300 
 BRR  HZ I        2029  5.53        25.0 0.12                          72.4 300 
 PAM  SZ EP       2028 48.69                             150    0.2010 79.3  38 
 PAM  SN ES   1   2029  4.98                             150   -0.85 7 79.3  38 
 PAM  SZ I        2029  6.41        17.1 0.25                          79.3  38 
 RUS  HZ EP       2028 49.83                             144    0.0910 98.1 176 
 RUS  HZ I        2028 50.99        12.1 0.17                          98.1 176 
 RUS  HN ES   1   2029  7.78                             144   -0.27 7 98.1 176 
 PTB  HZ EP       2028 52.72                             132   -0.39 9  147 260 
 PTB  HN ES       2029 13.56                             132   -0.49 9  147 260 
 PTB  HZ I        2029 17.15        11.6 0.15                           147 260 
 ZAR  HE ES   1   2029 24.11                             122    0.04 6  205 293 
 ZAR  HZ I        2029 29.52        21.5 0.27                           205 293 
 CHI  HZ EP   1   2029  4.07                             117    0.42 6  246 195 
 CHI  HE ES   1   2029 32.84                             117    0.03 6  246 195 
 CHI  HZ I        2029 38.68         5.3 0.36                           246 195 
                                                                                
