 2016  724 2335 12.4 L   7.481 -73.182130.9  RSN 22 0.5 2.5LRSN                1
 GAP=101        1.09       2.8     3.5  5.3 -0.1252E+00  0.4923E+01 -0.1981E+01E
 Epicentro: EL PLAYON - SANTANDER                                              3
 ACTION:UPD 17-03-29 16:54 OP:lp   STATUS:               ID:20160724233512 L   I
 OLDACT:UP  16-07-25 05:41 OP:dani STATUS:               ID:20160724232744     3
 OLDACT:UP  16-07-25 05:40 OP:dani STATUS:               ID:20160724232744     3
 OLDACT:UP  16-07-25 05:36 OP:dani STATUS:               ID:20160724232744     3
 OLDACT:REG 16-07-25 05:27 OP:dani STATUS:               ID:20160724232744     3
 2016-07-24-2327-59M.COL___338                                                 6
 STAT SP IPHASW D HRMM SECON CODA AMPLIT PERI AZIMU VELO AIN AR TRES W  DIS CAZ7
 PAM  EZ EP       2335 32.35                             156    0.6010 55.5 106 
 PAM  EE ES       2335 47.28                             156    0.4110 55.5 106 
 PAM  EZ I        2335 49.21        22.0 0.14            159           55.5 106 
 BRR  HZ EP     C 2335 31.99                             150    0.0510 71.6 235 
 BRR  HN ES       2335 47.32                             150    0.1110 71.6 235 
 BRR  HZ I        2335 47.74        79.9 0.12            145           71.6 235 
 BAR2 EZ EP     C 2335 33.87                             141   -0.2710 98.2 180 
 BAR2 EZ ES       2335 50.26                             141   -0.8610 98.2 180 
 RUS  HZ EP       2335 41.12                             123   -0.45 9  176 176 
 RUS  HN ES       2336  3.35                             123   -1.01 9  176 176 
 ZAR  HZ EP     D 2335 42.07                             122    0.21 9  185 271 
 ZAR  HE ES       2336  5.23                             122    0.35 9  185 271 
 ZAR  HZ I        2336  9.85        59.6 0.18            120            185 271 
 TAM  HZ EP       2335 42.72                             121    0.05 9  192 127 
 TAM  HE ES       2336  6.46                             121    0.14 9  192 127 
 TAM  HZ I        2336  7.39        19.3 0.28            121            192 127 
 SPBC HZ EP       2335 46.32                             116    0.09 8  225 206 
 SPBC HN ES       2336 12.72                             116    0.06 8  225 206 
 SPBC HZ I        2336 19.38        29.4 0.13            115            225 206 
 LL6C HZ EP       2335 48.87                             113    0.02 8  250 358 
 LL6C HN ES       2336 17.58                             113    0.27 8  250 358 
 LL6C HZ I        2336 22.50        11.1 0.54            114            250 358 
 URE  HZ EP       2335 49.75                             112   -0.41 8  261 277 
 URE  HN ES   4   2336 17.79                             112   -1.86 0  261 277 
 URE  HZ I        2336 22.89        24.4 0.14            111            261 277 
 NOR  HZ EP     D 2335 52.44                             111   -0.19 7  282 221 
 NOR  HE ES       2336 24.09                             111    0.05 7  282 221 
 NOR  HZ I        2336 30.86        20.5 0.26            109            282 221 
 HEL  HZ EP       2335 53.94                             110   -0.64 7  296 241 
 HEL  HN ES   4   2336 32.38                             110    4.86 0  296 241 
 HEL  HZ I        2336 36.76        10.2 0.50            108            296 241 
 ROSC BZ EP   9   2335 58.56                             108    1.41 0  318 203 
 ROSC BE ES       2336 33.66                             108    0.16 7  318 203 
 ROSC BZ I        2336 42.43        15.6 0.43            107            318 203 
 CHI  HZ EP       2335 58.47                             108    0.93 7  321 191 
 CHI  HN ES       2336 33.69                             108    0.91 7  321 191 
 CHI  HZ I        2336 39.33         6.8 0.60            107            321 191 
 SJC  HZ EP       2335 59.59                             106   -0.41 6  346 321 
 GUY2CHZ EP       2336  1.66                             106    0.99 6  347 224 
 GUY2CHE ES   4   2336 40.86                             106    2.51 0  347 224 
 GUY2CHZ I        2336 47.24        13.4 0.46                           347 224 
 CBOC HZ EP       2336  2.09                             105    0.26 6  360 240 
 VIL  EE ES       2336 44.16                             105    0.39 6  377 189 
 ELA  HZ EP   4   2336  7.05                             105    2.50 0  380 220 
 ELA  HN ES   4   2336 42.49                             105   -2.77 0  380 220 
 ELA  HZ I        2336 54.77         9.7 0.28            104            380 220 
 CRJC HZ EP       2336  4.60                             104   -0.96 6  393   5 
 CRJC HE ES   4   2336 45.33                             104   -1.73 0  393   5 
 CRJC HZ I        2336 48.00        17.1 0.26            104            393   5 
 ANIL HZ EP   4   2336 11.30                             103    3.22 0  412 217 
 ANIL HN ES   4   2336 55.94                             103    4.39 0  412 217 
 ANIL HZ I        2336 59.38        23.7 0.28            102            412 217 
 PAL  HZ EP       2336 12.08                             102    0.23 5  446 230 
 PRA  HZ EP       2336 12.51                             101   -0.66 5  457 204 
 PRA  HN ES   4   2336 58.31                             101   -2.30 0  457 204 
 PRA  HZ I        2337  7.55        10.0 0.32            101            457 204 
                                                                                
