 2016  224 2200 32.4 L   6.812 -73.118149.8  RSN  7 0.3 1.6LRSN                1
 GAP=139        0.71       2.9     3.2  4.7 -0.5057E+00  0.5534E+01  0.1470E+01E
 Epicentro: LOS SANTOS - SANTANDER                                             3
 ACTION:UPD 16-03-04 21:29 OP:rebc STATUS:               ID:20160224220032 L   I
 OLDACT:REG 16-02-25 05:13 OP:cara STATUS:               ID:20160224215748     3
 2016-02-24-2157-48M.COL___334                                                 6
 STAT SP IPHASW D HRMM SECON CODA AMPLIT PERI AZIMU VELO AIN AR TRES W  DIS CAZ7
 BAR2 EZ EP       22 0 52.16                             170   -0.3510 25.3 196 
 BAR2 EZ ES       22 1  8.47                             170    0.2510 25.3 196 
 BAR2 EZ I        22 1 10.61         8.6 0.26            168           25.3 196 
 PAM  EZ EP       22 0 55.27                             152    0.4410 74.4  38 
 PAM  EN ES       22 1 12.23                             152   -0.1210 74.4  38 
 PAM  EZ I        22 1 14.78         4.5 0.50            157           74.4  38 
 RUS  HZ EP       22 0 56.08                             144   -0.5010  102 178 
 RUS  HE ES       22 1 15.54                             144    0.0610  102 178 
 RUS  HZ I        22 1 15.88         2.8 0.40            146            102 178 
 PTB  HZ EP       22 0 59.58                             132   -0.36 9  151 259 
 PTB  HE ES       22 1 21.30                             132   -0.16 9  151 259 
 PTB  HZ I        22 1 26.38         6.0 0.22            132            151 259 
 ZAR  HZ EP       22 1  5.55                             123    0.25 8  206 291 
 ZAR  HE ES       22 1 31.05                             123    0.05 8  206 291 
 ZAR  HZ I        22 1 36.89         5.8 0.30            124            206 291 
 NOR  HZ EP       22 1  8.78                             119    0.11 8  238 235 
 NOR  HN ES       22 1 37.15                             119    0.16 8  238 235 
 NOR  HZ I        22 1 40.21         4.9 0.18            120            238 235 
 CHI  HZ EP       22 1 10.77                             118    0.26 8  251 196 
 CHI  HN ES       22 1 40.47                             118    0.21 8  251 196 
 CHI  HZ I        22 1 48.56         1.7 0.62            119            251 196 
                                                                                
