 2012 1124 2237  5.2 L   6.840 -73.161146.0  RSN 20 0.6 2.9LRSN 3.2WRSN        1
 SPEC AVERAGE  MO 13.9 ST  5.0 OM  2.1 f0 3.21 R0.4781 AL 2.22 WI 19.6 MW  3.2 3
 SPEC SD       MO  0.3 ST  4.8 OM  0.3 f00.608 R0.1067 AL      WI      MW  0.2 3
 GAP= 69        1.36       3.1     4.3  5.8 -0.2796E+00  0.8156E+01  0.1906E+01E
 Epicentro: LOS SANTOS - SANTANDER                                             3
 SPEC RREFHH Z MO 13.7 ST  2.5 OM  1.8 f0 3.17 R0.4637 AL 2.50 WI  9.1 MW  3.1 3
 SPEC RREFHH Z T223830 K 0.000 GD  354 VS 4.20 DE 3.20 Q0300.0 QA 0.60 VS 4.20 3
 SPEC TAM HH E MO 13.8 ST0.709 OM  2.1 f0 2.01 R0.7313 AL 1.72 WI 16.0 MW  3.1 3
 SPEC TAM HH E T223754 K 0.000 GD  215 VS 4.20 DE 3.00 Q0230.0 QA 0.60 VS 4.20 3
 SPEC RREFHH Z MO 14.2 ST 14.0 OM  1.5 f0 4.03 R0.3648 AL 2.74 WI 36.3 MW  3.4 3
 SPEC RREFHH Z T223751 K 0.000 GD  354 VP 7.60 DE 3.00 Q0230.0 QA 0.60 VS 4.20 3
 SPEC PTB HH N MO 14.2 ST  3.9 OM  2.5 f0 2.64 R0.5568 AL 1.41 WI 36.4 MW  3.4 3
 SPEC PTB HH N T223751 K 0.000 GD  207 VS 4.20 DE 3.00 Q0230.0 QA 0.60 VS 4.20 3
 SPEC RUS HH N MO 13.6 ST  1.4 OM  2.0 f0 2.90 R0.5069 AL 2.10 WI 18.4 MW  3.0 3
 SPEC RUS HH N T223747 K 0.000 GD  179 VS 4.20 DE 3.00 Q0230.0 QA 0.60 VS 4.20 3
 SPEC PRA HH N MO 14.0 ST  4.9 OM  2.0 f0 3.31 R0.4441 AL 1.74 WI 24.4 MW  3.3 3
 SPEC PRA HH N T223840 K 0.000 GD  421 VS 4.20 DE 3.00 Q0230.0 QA 0.60 VS 4.20 3
 SPEC HEL HH N MO 13.5 ST  1.5 OM  1.6 f0 3.29 R0.4468 AL 2.74 WI 10.3 MW  2.9 3
 SPEC HEL HH N T223819 K 0.000 GD  308 VS 4.20 DE 3.20 Q0300.0 QA 0.60 VS 4.20 3
 SPEC PAM SH Z MO 14.2 ST 13.2 OM  1.8 f0 4.06 R0.3621 AL 2.82 WI 17.0 MW  3.4 3
 SPEC PAM SH Z T223727 K 0.000 GD  164 VP 7.60 DE 3.00 Q0230.0 QA 0.60 VS 4.20 3
 SPEC CHI HH N MO 13.7 ST  2.6 OM  1.8 f0 3.45 R0.4261 AL 2.24 WI  8.4 MW  3.1 3
 SPEC CHI HH N T223812 K 0.000 GD  291 VS 4.20 DE 3.20 Q0300.0 QA 0.60 VS 4.20 3
 ACTION:UPD 12-12-05 15:35 OP:}ep  STATUS:               ID:20121124223705 L   I
 2012-11-24-2230-00M.COL___233                                                 6
 STAT SP IPHASW D HRMM SECON CODA AMPLIT PERI AZIMU VELO AIN AR TRES W  DIS CAZ7
 GIR2 SZ IP       2237 25.10                             169    0.3610 26.6 352 
 GIR2 SZ ES       2237 40.72                             169    0.7010 26.6 352 
 BAR2 SZ IP       2237 25.03                             169    0.1210 27.5 185 
 BAR2 SZ ES       2237 40.12                             169   -0.1910 27.5 185 
 BAR2 SZ I        2237 41.14       208.6 0.26                          27.5 185 
 PAM  SZ IP       2237 27.78                             151    0.5210 75.1  43 
 PAM  SZ I        2237 28.11       165.6 0.24                          75.1  43 
 PAM  SN ES       2237 45.02                             151    0.5110 75.1  43 
 RUS  HZ IP     D 2237 28.99                             142   -0.2710  105 175 
 RUS  HN ES       2237 47.33                             142   -0.7410  105 175 
 RUS  HN I        2237 49.22        83.3 0.42                           105 175 
 PTB  HZ EP       2237 31.66                             132   -0.42 9  147 257 
 PTB  HN ES       2237 52.20                             132   -0.87 9  147 257 
 PTB  HN I        2237 58.66       171.7 0.48                           147 257 
 OCA  HZ EP       2237 33.14                             130    0.09 9  156 354 
 OCA  HN ES       2237 53.92                             130   -0.89 9  156 354 
 TAM  HZ EP       2237 33.02                             130   -0.09 9  158 106 
 TAM  HE ES       2237 54.73                             130   -0.19 9  158 106 
 TAM  HN I        2237 55.57       140.0 0.44                           158 106 
 ZAR  HZ EP       2237 37.97                             123    0.68 9  201 291 
 ZAR  HN ES       2238  3.38                             123    1.03 9  201 291 
 ZAR  HN I        2238 10.81        69.5 0.14                           201 291 
 SML  HZ EP       2237 41.15                             118   -0.13 8  239 335 
 SML  HN ES       2238  8.74                             118   -0.72 8  239 335 
 SML  HN I        2238 17.38        89.1 0.28                           239 335 
 CHI  HZ EP       2237 43.11                             117   -0.18 8  252 195 
 CHI  HZ I        2237 43.86        19.0 0.72                           252 195 
 CHI  HN ES       2238 12.83                             117   -0.20 8  252 195 
 ROSC BZ EP       2237 44.60                             116    0.99 8  256 210 
 ROSC BZ I        2238 22.78        43.1 0.40                           256 210 
 HEL  HZ EP       2237 46.34                             115    1.02 8  272 255 
 HEL  HN I        2238 24.74        26.4 0.36                           272 255 
 VIL  SZ EP       2237 49.46                             112    0.42 7  307 191 
 VIL  SZ I        2237 55.20        21.2 0.34                           307 191 
 RREF HZ EP       2237 52.29                             111    0.80 7  323 229 
 RREF HN ES       2238 26.95                             111   -0.69 7  323 229 
 RREF HZ I        2238 36.89        33.9 0.28                           323 229 
 COD  HZ EP       2237 52.29                             109   -0.72 7  344 355 
 COD  HN ES   1   2238 29.69                             109   -0.65 5  344 355 
 COD  HN I        2238 36.06        20.1 0.48                           344 355 
 TOL  SZ EP       2237 54.54                             109    0.89 6  346 224 
 TOL  SZ I        2238 36.75        11.9 0.40                           346 224 
 ANIL HZ EP       2237 55.18                             108   -0.02 6  359 224 
 ANIL HN I        2238 48.02        43.2 0.38                           359 224 
 PRA  HZ EP       2237 58.49                             106   -0.55 6  395 209 
 PRA  HZ I        2238  0.72        18.0 0.20                           395 209 
 PRA  HN ES       2238 40.41                             106   -0.66 6  395 209 
 SJC  HN EP       2237 58.95                             106   -1.23 6  405 327 
 SJC  HN I        2238 43.95        25.8 0.36                           405 327 
 SMAR HZ EP   1   2238 10.47                             102    0.00 3  492 346 
                                                                                
