 2011  324 2127 51.7 L   6.793 -73.123151.3  RSN  9 0.2 2.7LRSN                1
 GAP=104        0.45       1.8     3.2  4.0 -0.1052E+01 -0.8322E+00  0.2319E+01E
 Epicentro: LOS SANTOS - SANTANDER                                             3
 ACTION:UP  11-06-16 14:35 OP:jfem STATUS:               ID:20110324212751 L   I
 2011-03-24-2124-39S.COL___120                                                 6
 STAT SP IPHASW D HRMM SECON CODA AMPLIT PERI AZIMU VELO SNR AR TRES W  DIS CAZ7
 BAR2 SZ EP   1   2128 11.69                             171    -0.3 8   23 197 
 BAR2 SZ ES   2   2128 27.55                             171    -0.2 5   23 197 
 BAR2 SZ I        2128 30.25       103.0 0.33                            23 197 
 BRR  HZ EP   1   2128 13.57                             153     0.0 8   74 298 
 BRR  HN ES   1   2128 30.95                             153     0.3 8   74 298 
 BRR  HZ I        2128 33.25       201.6 0.13                            74 298 
 GRA  SZ IP       2128 17.45                             138     0.010  126  16 
 GRA  SZ ES   1   2128 37.29                             138    -0.2 7  126  16 
 GRA  SZ I        2128 38.14       117.1 0.31                           126  16 
 OCA  SZ EP   1   2128 20.63                             131     0.1 7  161 352 
 OCA  SZ ES   1   2128 43.01                             131     0.0 7  161 352 
 OCA  SZ I        2128 48.09       114.1 0.27                           161 352 
 YOP  SZ EP   1   2128 22.27                             128     0.3 7  177 154 
 YOP  SN ES   1   2128 45.63                             128     0.1 7  177 154 
 YOP  SZ I        2128 49.44        25.0 0.21                           177 154 
 NOR  SZ EP   1   2128 27.73                             119    -0.2 6  236 235 
 NOR  SN ES   2   2128 55.82                             119    -0.3 4  236 235 
 CHI  HZ EP   1   2128 29.86                             118     0.2 6  249 196 
 CHI  HN ES   1   2128 59.15                             118    -0.2 6  249 196 
 CHI  HZ I        2129  8.87        29.0 0.44                           249 196 
 SDV  BZ EP   2   2128 41.17                             109    -0.6 3  359  50 
 SDV  BZ I        2128 41.77         7.4 0.17                           359  50 
 PRA  HZ EP   1   2128 45.56                             107     0.1 5  393 210 
 PRA  HN ES   1   2129 27.32                             107    -0.1 5  393 210 
                                                                                
