 2016  224 2339 41.7 L   6.786 -73.104150.0  RSN 12 0.3 2.5LRSN                1
 GAP=143        0.77       2.3     3.4  4.9 -0.1393E+01  0.4106E+01  0.2967E+01E
 Epicentro: LOS SANTOS - SANTANDER                                             3
 ACTION:UPD 16-03-04 21:29 OP:rebc STATUS:               ID:20160224233941 L   I
 OLDACT:REG 16-02-25 05:29 OP:cara STATUS:               ID:20160224233751     3
 2016-02-24-2337-51M.COL___340                                                 6
 STAT SP IPHASW D HRMM SECON CODA AMPLIT PERI AZIMU VELO AIN AR TRES W  DIS CAZ7
 PAM  EZ EP       2340  4.40                             152    0.1610 75.8  36 
 PAM  EN ES       2340 21.77                             152   -0.0810 75.8  36 
 PAM  EZ I        2340 23.92        33.1 0.46            157           75.8  36 
 BRR  HZ IP       2340  3.50                             152   -0.0510 76.0 298 
 BRR  HE ES       2340 21.10                             152    0.4910 76.0 298 
 BRR  HZ I        2340 25.04        39.0 0.12            150           76.0 298 
 RUS  HZ EP       2340  5.57                             145   -0.1410 98.8 179 
 RUS  HN ES       2340 24.19                             145   -0.2810 98.8 179 
 RUS  HZ I        2340 25.37        25.7 0.42            148           98.8 179 
 PTB  HZ EP       2340  8.84                             132   -0.52 9  152 260 
 PTB  HN ES   4   2340 29.72                             132   -1.25 0  152 260 
 PTB  HZ I        2340 37.24        26.4 0.38            132            152 260 
 OCA  HZ EP   4   2340  9.64                             130   -0.87 0  162 352 
 OCA  HE ES       2340 33.09                             130    0.08 9  162 352 
 OCA  HZ I        2340 37.58        72.5 0.18            133            162 352 
 SPBC HZ IP       2340 10.62                             130   -0.04 9  165 221 
 SPBC HE ES       2340 33.71                             130    0.44 9  165 221 
 SPBC HZ I        2340 39.65        39.8 0.32            131            165 221 
 ZAR  HZ EP       2340 14.99                             123    0.10 8  209 292 
 ZAR  HN ES       2340 40.45                             123   -0.35 8  209 292 
 ZAR  HZ I        2340 45.92        41.5 0.24            124            209 292 
 NOR  HZ EP       2340 17.91                             119   -0.04 8  238 235 
 NOR  HN ES       2340 45.57                             119   -0.68 8  238 235 
 NOR  HZ I        2340 49.73        24.2 0.18            121            238 235 
 CHI  HZ EP       2340 19.59                             118    0.01 8  248 196 
 CHI  HN ES       2340 49.12                             118   -0.02 8  248 196 
 CHI  HZ I        2340 52.99        10.5 0.40            121            248 196 
 GUY2CHZ EP   9   2340 27.51                             113    1.71 0  304 236 
 GUY2CHN ES       2341  1.78                                   -0.15 7  304 236 
 GUY2CHZ I        2341  6.50        13.6 0.34                           304 236 
 ANIL HN ES       2341 11.65                             109    0.60 6  359 225 
 ANIL HZ I        2341 15.64        32.4 0.28            111            359 225 
 ORTC HZ EP       2340 36.36                             107    0.45 6  397 217 
 ORTC HN ES       2341 18.84                             107    0.63 6  397 217 
 ORTC HZ I        2341 22.92         6.0 0.18            109            397 217 
                                                                                
