 2012  824 2223 42.0 L   6.768 -73.113150.3  RSN  4 0.4 1.7LRSN                1
 GAP=142        0.80       6.0     5.8  9.4 -0.3904E+01  0.5104E+01  0.6870E+01E
 Epicentro: LOS SANTOS - SANTANDER                                             3
 ACTION:UPD 12-09-10 11:58 OP:ep   STATUS:               ID:20120824222342 L   I
 2012-08-24-2220-00M.COL___218                                                 6
 STAT SP IPHASW D HRMM SECON CODA AMPLIT PERI AZIMU VELO AIN AR TRES W  DIS CAZ7
 BRR  HZ EP   1   2224  4.16                             152    0.28 7 76.0 300 
 BRR  HE ES   1   2224 21.56                             152    0.58 7 76.0 300 
 BRR  HZ I        2224 26.10        23.9 0.37                          76.0 300 
 PAM  SZ EP   1   2224  5.03                             151    0.33 7 78.0  36 
 PAM  SZ I        2224  5.24         5.4 0.22                          78.0  36 
 PAM  SN ES   1   2224 21.81                             151   -0.62 7 78.0  36 
 RUS  HZ EP   1   2224  5.95                             146    0.04 7 96.9 178 
 RUS  HE ES   1   2224 24.71                             146    0.12 7 96.9 178 
 PTB  HZ EP   1   2224  9.17                             132   -0.40 7  151 260 
 PTB  HN ES   1   2224 30.66                             132   -0.44 7  151 260 
 PTB  HZ I        2224 36.15         3.0 0.37                           151 260 
                                                                                
