 2013 1124 2242  9.9 L   6.817 -73.125141.4  RSN 16 0.6 2.2LRSN 2.7WRSN        1
 SPEC AVERAGE  MO 13.1 ST148.2 OM  1.3 f0 17.1 R0.1795 AL 0.00 WI 20.0 MW  2.7 3
 SPEC SD       MO  0.1 ST270.8 OM  0.3 f0 11.6 R0.1332 AL      WI      MW  0.1 3
 GAP=138        1.36       3.2     4.3  6.4 -0.4669E+01  0.7041E+01  0.1420E+01E
 Epicentro: LOS SANTOS - SANTANDER                                             3
 SPEC BAR2SH Z MO 13.4 ST 29.5 OM  1.6 f0 12.1 R0.1590 AL-0.00 WI 20.0 MW  2.9 3
 SPEC BAR2SH Z T224242 K 0.050 GD  143 VS 5.20 DE 3.20 Q0750.0 QA 1.50 VS 5.20 3
 SPEC BRR HH Z MO 13.1 ST 24.7 OM  1.2 f0 15.0 R0.1283 AL-0.00 WI 20.0 MW  2.7 3
 SPEC BRR HH Z T224245 K 0.050 GD  158 VS 5.20 DE 3.20 Q0750.0 QA 1.50 VS 5.20 3
 SPEC PAM SH Z MO 13.0 ST  4.0 OM  1.1 f0 8.79 R0.2189 AL-0.00 WI 20.0 MW  2.6 3
 SPEC PAM SH Z T224246 K 0.050 GD  159 VS 5.20 DE 3.20 Q0750.0 QA 1.50 VS 5.20 3
 SPEC OCA HH Z MO 13.2 ST 10.4 OM  1.2 f0 10.2 R0.1886 AL-0.00 WI 20.0 MW  2.7 3
 SPEC OCA HH Z T224258 K 0.050 GD  212 VS 5.20 DE 3.20 Q0750.0 QA 1.50 VS 5.20 3
 SPEC SPBCHH Z MO 13.1 ST266.8 OM  1.1 f0 32.2 R0.0598 AL-0.00 WI 20.0 MW  2.7 3
 SPEC SPBCHH Z T224258 K 0.050 GD  218 VS 5.20 DE 3.20 Q0750.0 QA 1.50 VS 5.20 3
 SPEC NOR HH Z MO 13.0 ST 19.5 OM  0.9 f0 14.5 R0.1327 AL-0.00 WI 20.0 MW  2.6 3
 SPEC NOR HH Z T224311 K 0.050 GD  276 VS 5.20 DE 3.20 Q0750.0 QA 1.50 VS 5.20 3
 SPEC SML HH Z MO 13.3 ST830.1 OM  1.2 f0 40.0 R0.0481 AL-0.00 WI 20.0 MW  2.8 3
 SPEC SML HH Z T224312 K 0.050 GD  281 VS 5.20 DE 3.20 Q0750.0 QA 1.50 VS 5.20 3
 SPEC CHI HH Z MO 13.0 ST0.377 OM  0.9 f0 3.84 R0.5010 AL-0.00 WI 20.0 MW  2.6 3
 SPEC CHI HH Z T224315 K 0.050 GD  288 VS 5.20 DE 3.20 Q0750.0 QA 1.50 VS 5.20 3
 SPECGUY2CHH Z MO 13.2 ST  0.3 OM  1.0 f0 2.88 R 0.669 AL-0.00 WI 20.0 MW  2.8 3
 SPECGUY2CHH Z T224327 K 0.050 GD335.3 VS 5.20 DE 3.20 Q0750.0 QA 1.50 VS 5.20 3
 OLDACT:REG 13-11-25 00:03 OP:stll STATUS:               ID:20131124223809     3
 ACTION:UPD 14-01-09 16:30 OP:ep   STATUS:               ID:20131124224209 L   I
 OLDACT:UP  13-11-25 02:17 OP:stll STATUS:               ID:20131124223809     3
 2013-11-24-2238-09M.COL___250                                                 6
 STAT SP IPHASW D HRMM SECON CODA AMPLIT PERI AZIMU VELO AIN AR TRES W  DIS CAZ7
 BAR2 SZ EP       2242 29.25                             169    0.2210 25.7 194 
 BAR2 SZ ES       2242 43.98                             169    0.0010 25.7 194 
 BAR2 SZ I        2242 45.82        63.0 0.18            169           25.7 194 
 BRR  HZ IP     C 2242 31.07                             151    0.4510 72.3 296 
 BRR  HN ES       2242 46.79                             151   -0.0110 72.3 296 
 BRR  SZ I        2242 53.19        19.9 0.12            149           72.3 296 
 PAM  SZ IP     C 2242 31.98                             151    0.5310 74.5  39 
 PAM  SN ES       2242 48.31                             151    0.0210 74.5  39 
 PAM  SZ I        2242 51.15        23.5 0.46            155           74.5  39 
 RUS  HZ EP       2242 33.22                             142   -0.1110  102 177 
 RUS  HN ES       2242 51.53                             142   -0.1010  102 177 
 CAPV BZ IP     C 2242 37.12                             131    0.47 9  146  38 
 CAPV BZ ES       2242 57.76                             131    0.22 9  146  38 
 PTB  HZ EP       2242 35.94                             130   -0.79 9  150 258 
 PTB  HN ES       2242 56.88                             130   -0.80 9  150 258 
 PTB  SZ I        2243  4.16        22.2 0.42            131            150 258 
 OCA  HZ EP       2242 37.33                             129   -0.37 9  159 352 
 OCA  HN ES       2242 59.57                             129    0.17 9  159 352 
 OCA  SZ I        2243  6.02        17.4 0.24            131            159 352 
 SPBC HZ EP       2242 38.16                             127   -0.16 9  166 219 
 SPBC HN ES       2243  0.20                             127   -0.31 9  166 219 
 SPBC SZ I        2243  1.55        23.2 0.18            130            166 219 
 ZAR  HZ EP       2242 42.39                             121    0.20 8  205 291 
 ZAR  HE ES       2243  7.47                             121    0.08 8  205 291 
 ZAR  SZ I        2243 17.16        11.5 0.14            122            205 291 
 NOR  HZ EP       2242 45.06                             117   -0.61 8  238 234 
 NOR  HN ES       2243 12.87                             117   -0.73 8  238 234 
 NOR  SZ I        2243 18.58        11.9 0.36            119            238 234 
 SML  HZ EP       2242 45.33                             117   -0.85 8  243 335 
 SML  HN ES       2243 13.70                             117   -0.79 8  243 335 
 SML  SZ I        2243 16.91        34.8 0.10            118            243 335 
 CHI  HZ EP       2242 47.41                             116   -0.19 8  251 196 
 CHI  HN ES       2243 16.86                             116   -0.17 8  251 196 
 CHI  SZ I        2243 22.30         6.0 0.28            119            251 196 
 HEL  HN ES       2243 23.73                             114    2.14 8  275 256 
 GUY2CHZ EP       2242 54.01                             111    0.39 7  304 235 
 GUY2CHN ES       2243 28.81                             111    1.07 7  304 235 
 GUY2CSZ I        2243 35.51         6.5 0.48                           304 235 
 RREF HZ EP       2242 56.66                             110    0.49 7  325 229 
 RREF HE ES       2243 33.21                             110    0.93 7  325 229 
 ORTC HZ EP       2243  3.64                             105   -0.34 6  398 216 
 ORTC HN ES       2243 45.52                             105   -0.67 6  398 216 
 ORTC SZ I        2243 52.78         5.3 0.46            107            398 216 
                                                                                
