 2016 1224 2353 56.7 L   6.045 -73.697113.7  RSN 11 0.3 1.8LRSN                1
 GAP= 78        0.76       2.1     2.2  5.2 -0.9495E+00  0.2966E+01  0.1628E+01E
 Epicentro: VELEZ - SANTANDER                                                  3
 ACTION:UPD 17-01-11 20:18 OP:rebc STATUS:               ID:20161224235356 L   I
 OLDACT:UP  16-12-25 06:22 OP:and  STATUS:               ID:20161224234744     3
 OLDACT:UP  16-12-25 06:22 OP:and  STATUS:               ID:20161224234744     3
 OLDACT:UP  16-12-25 06:20 OP:and  STATUS:               ID:20161224234744     3
 OLDACT:UP  16-12-25 06:18 OP:and  STATUS:               ID:20161224234744     3
 OLDACT:REG 16-12-25 04:36 OP:and  STATUS:               ID:20161224234744     3
 2016-12-24-2348-00M.COL___381                                                 6
 STAT SP IPHASW D HRMM SECON CODA AMPLIT PERI AZIMU VELO AIN AR TRES W  DIS CAZ7
 RUS  HZ IP     C 2354 15.09                             146   -0.0510 70.0 104 
 RUS  HN ES       2354 29.44                             146   -0.0610 70.0 104 
 RUS  HZ I        2354 30.85        13.7 0.28            148           70.0 104 
 BAR2 EZ IP     C 2354 15.90                             141    0.1710 83.1  43 
 BAR2 EZ ES       2354 30.34                             141   -0.2010 83.1  43 
 BAR2 EZ I        2354 31.55        41.2 0.12            144           83.1  43 
 PTB  HZ EP       2354 15.95                             135   -0.8610  100 303 
 PTB  HN ES   4   2354 30.98                             135   -1.48 0  100 303 
 PTB  HZ I        2354 33.34        10.0 0.14            137            100 303 
 BRR  HZ IP     C 2354 18.10                             130   -0.2210  117 359 
 BRR  HN ES       2354 35.62                             130    0.4610  117 359 
 BRR  HZ I        2354 38.39         8.2 0.15            133            117 359 
 NOR  HZ EP       2354 20.63                             125    0.03 9  140 248 
 NOR  HN ES       2354 39.41                             125    0.20 9  140 248 
 NOR  HZ I        2354 41.07        14.5 0.23            126            140 248 
 CHI  HZ IP     D 2354 22.52                             122   -0.21 9  157 181 
 CHI  HN ES       2354 43.03                             122    0.03 9  157 181 
 CHI  HZ I        2354 49.03         4.2 0.34            123            157 181 
 PAM  EZ EP       2354 25.30                             118   -0.08 9  181  38 
 ZAR  HN ES       2354 51.56                             114    0.17 9  205 321 
 ZAR  HZ I        2354 55.61         9.4 0.35            116            205 321 
 GUY2CHZ EP       2354 28.52                             114    0.41 8  206 244 
 GUY2CHN ES   4   2354 54.84                             114    2.25 0  206 244 
 GUY2CHZ I        2354 57.34         6.7 0.30                           206 244 
 TAM  HZ EP       2354 28.69                             113    0.07 8  215  78 
 TAM  HE ES       2354 53.80                             113    0.32 8  215  78 
 TAM  HZ I        2354 57.74         6.4 0.24            114            215  78 
 ORTC HZ EP       2354 37.42                             106   -0.03 7  292 216 
 ORTC HN ES       2355  9.40                             106    0.19 7  292 216 
 ORTC HZ I        2355 15.03         4.2 0.18            107            292 216 
                                                                                
