 2010 1124 2108 58.9 L   6.767 -73.106141.9  RSN 11 0.4 2.2LRSN                1
 GAP=163        0.77       3.6     6.9  6.5 -0.8971E+01  0.6015E+01  0.2168E+01E
 Epicentro: LOS SANTOS - SANTANDER                                             3
 ACTION:UP  10-12-17 16:54 OP:REBC STATUS:               ID:20101124210858 L   I
 2010-11-24-2108-01S.COL___132                                                 6
 STAT SP IPHASW D HRMM SECON CODA AMPLIT PERI AZIMU VELO SNR AR TRES W  DIS CAZ7
 BAR2 SZ EP   1   21 9 17.78                             172    -0.2 7   21 204 
 BAR2 SZ ES   2   21 9 32.68                             172    -0.2 5   21 204 
 BAR2 SZ I        21 9 34.06        41.8 0.30                            21 204 
 BTL  SZ EP   1   21 9 17.96                             170    -0.1 7   24 313 
 BTL  SZ ES   2   21 9 33.00                             170     0.0 5   24 313 
 BRR  HZ IP     C 21 9 19.59                             150    -0.310   77 299 
 BRR  HE ES   2   21 9 36.50                             150     0.1 5   77 299 
 BRR  HZ I        21 9 38.10        37.1 0.15                            77 299 
 RUS  HZ IP     C 21 9 21.79                             144    -0.210   97 178 
 RUS  HN ES   2   21 9 40.16                             144     0.2 5   97 178 
 GUE  SZ EP   1   21 9 24.07                             138     0.6 7  119  10 
 GRA  SZ IP     D 21 9 24.50                             135     0.510  128  15 
 GRA  SZ ES   2   21 9 44.20                             135     0.7 5  128  15 
 GRA  SZ I        21 9 45.16        13.6 0.43                           128  15 
 OCA  SZ EP   1   21 9 26.84                             128    -0.4 7  164 352 
 OCA  SZ ES   2   21 9 48.89                             128    -0.5 5  164 352 
 OCA  SZ I        21 9 51.19        23.7 0.20                           164 352 
 NOR  SZ EP   1   21 9 34.20                             118    -0.4 6  236 236 
 NOR  SN ES   2   2110  2.77                             118     0.4 4  236 236 
 CHI  HZ EP   1   21 9 36.06                             117     0.0 6  246 196 
 CHI  HE ES   2   2110  5.40                             117     0.3 4  246 196 
 CHI  HZ I        2110 12.56         8.3 0.20                           246 196 
 HEL  HZ EP   1   21 9 39.50                             114     0.2 6  275 257 
 HEL  HZ I        2110 18.37         9.0 0.21                           275 257 
 PRA  HZ EP   1   21 9 51.44                             106    -0.7 4  391 210 
 PRA  HE ES   2   2110 34.54                             106     0.8 3  391 210 
                                                                                
