 2012 1024 2253 57.8 L   6.819 -73.146143.9  RSN 14 0.4 2.8LRSN 3.2WRSN        1
 SPEC AVERAGE  MO 13.9 ST 18.6 OM  2.7 f0 5.12 R0.2912 AL 3.50 WI 13.5 MW  3.2 3
 SPEC SD       MO  0.2 ST 14.8 OM  0.7 f00.617 R0.0360 AL      WI      MW  0.1 3
 GAP= 65        0.81       3.0     3.4  5.1  0.1065E+01  0.3702E+01  0.4635E+01E
 Epicentro: LOS SANTOS - SANTANDER                                             3
 SPEC PRA HH N MO 13.7 ST 12.0 OM  1.7 f0 5.50 R0.2673 AL 3.53 WI 13.9 MW  3.1 3
 SPEC PRA HH N T225531 K 0.000 GD  419 VS 4.20 DE 3.20 Q0230.0 QA 0.60 VS 4.20 3
 SPEC OCA HH N MO 14.1 ST 38.1 OM  2.4 f0 5.91 R0.2487 AL 4.27 WI 17.7 MW  3.4 3
 SPEC OCA HH N T225446 K 0.000 GD  213 VS 4.20 DE 3.20 Q0230.0 QA 0.60 VS 4.20 3
 SPEC RUS HH N MO 13.6 ST  6.8 OM  2.0 f0 4.82 R0.3050 AL 3.77 WI  7.0 MW  3.0 3
 SPEC RUS HH N T225438 K 0.000 GD  176 VS 4.20 DE 3.20 Q0230.0 QA 0.60 VS 4.20 3
 SPEC HEL HH N MO 13.7 ST  6.5 OM  1.8 f0 4.59 R0.3203 AL 3.04 WI 18.9 MW  3.1 3
 SPEC HEL HH N T2255 7 K 0.000 GD  308 VS 4.20 DE 3.20 Q0230.0 QA 0.60 VS 4.20 3
 SPEC CHI HH N MO 13.9 ST  7.5 OM  2.0 f0 4.22 R0.3483 AL 3.10 WI 14.0 MW  3.2 3
 SPEC CHI HH N T2255 2 K 0.000 GD  289 VS 4.20 DE 3.20 Q0230.0 QA 0.60 VS 4.20 3
 SPEC BRR HH N MO 14.2 ST 40.6 OM  2.6 f0 5.70 R0.2579 AL 3.30 WI  9.6 MW  3.4 3
 SPEC BRR HH N T225435 K 0.000 GD  160 VS 4.20 DE 3.20 Q0230.0 QA 0.60 VS 4.20 3
 ACTION:UPD 12-11-22 17:05 OP:ep   STATUS:               ID:20121024225357 L   I
 2012-10-24-2250-00M.COL___234                                                 6
 STAT SP IPHASW D HRMM SECON CODA AMPLIT PERI AZIMU VELO AIN AR TRES W  DIS CAZ7
 BAR2 SZ EP       2254 17.16                             169   -0.0610 25.4 189 
 BAR2 SZ ES   1   2254 32.42                             169    0.04 7 25.4 189 
 BAR2 SZ I        2254 33.39       199.2 0.24                          25.4 189 
 GIR2 SZ EP   1   2254 17.38                             168    0.22 7 29.2 350 
 GIR2 SZ ES   1   2254 31.64                             168   -0.64 7 29.2 350 
 BRR  HZ EP   1   2254 18.95                             152    0.30 7 70.2 297 
 BRR  HZ I        2254 19.14       188.8 0.14                          70.2 297 
 BRR  HN ES   1   2254 35.88                             152    0.94 7 70.2 297 
 PAM  SZ EP   1   2254 20.19                             151    0.50 7 75.8  41 
 PAM  SZ I        2254 20.38        86.8 0.18                          75.8  41 
 PAM  SN ES   1   2254 36.42                             151   -0.36 7 75.8  41 
 RUS  HZ EP   1   2254 21.20                             143   -0.29 7  103 176 
 RUS  HN ES   1   2254 39.83                             143   -0.16 7  103 176 
 RUS  HN I        2254 40.69       103.7 0.26                           103 176 
 TAM  HZ EP   1   2254 25.60                             130    0.25 7  156 106 
 TAM  HZ I        2254 25.93        37.6 0.22                           156 106 
 TAM  HN ES   1   2254 46.76                             130   -0.11 7  156 106 
 TAM  HN I        2254 47.90        69.4 0.38                           156 106 
 OCA  HZ EP   1   2254 25.54                             130   -0.19 7  158 353 
 OCA  HN ES   1   2254 47.10                             130   -0.44 7  158 353 
 YOP  SZ EP   1   2254 27.69                             125   -0.18 7  181 154 
 YOP  SN ES   1   2254 52.19                             125    0.85 7  181 154 
 YOP  SZ I        2254 54.00        44.5 0.26                           181 154 
 ZAR  HN ES   1   2254 54.99                             122   -0.16 6  203 292 
 NOR  HZ EP   1   2254 33.01                             118   -0.51 6  236 234 
 NOR  HN ES   1   2255  1.30                             118   -0.10 6  236 234 
 NOR  HZ I        2255  5.93        33.2 0.20                           236 234 
 CHI  HZ EP   1   2254 35.41                             116   -0.18 6  251 195 
 CHI  HN ES   1   2255  4.70                             116   -0.38 6  251 195 
 CHI  HN I        2255  7.21        78.9 0.40                           251 195 
 HEL  HZ EP   1   2254 38.95                             114    1.01 6  273 255 
 HEL  HN I        2255 15.08        24.9 0.24                           273 255 
 GUY  SZ EP   1   2254 41.56                             112   -0.13 5  305 235 
 PRA  HZ EP   1   2254 51.10                             106   -0.34 4  394 209 
 PRA  HN ES   2   2255 32.72                             106   -0.58 3  394 209 
 PRA  HZ I        2255 37.77        24.7 0.60                           394 209 
                                                                                
