 2012  724 2047 12.1 L   6.509 -73.590113.8  RSN  5 0.4 1.7LRSN                1
 GAP=132        0.95       9.1     4.7 11.5 -0.1155E+02 -0.3006E+01  0.2858E+02E
 Epicentro: SANTA HELENA DEL OPON - SANTANDER                                  3
 ACTION:UPD 12-08-14 11:45 OP:ep   STATUS:               ID:20120724204712 L   I
 2012-07-24-2040-00M.COL___215                                                 6
 STAT SP IPHASW D HRMM SECON CODA AMPLIT PERI AZIMU VELO AIN AR TRES W  DIS CAZ7
 BAR2 SZ EP       2047 29.00                             156     0.310   46  78 
 BAR2 SZ ES   1   2047 41.74                             156     0.0 7   46  78 
 BAR2 SZ I        2047 42.61        29.4 0.08            112             46  78 
 BRR  HZ EP   1   2047 29.90                             147     0.3 7   68 348 
 BRR  HN ES   2   2047 44.16                             147     0.8 5   68 348 
 BRR  HZ I        2047 50.06        19.7 0.25            102             68 348 
 RUS  HZ EP   1   2047 31.88                             139     0.0 7   88 141 
 RUS  HZ I        2047 47.89         5.4 0.16                            88 141 
 PTB  HZ EP       2047 31.82                             137     0.010   96 272 
 PTB  HN ES       2047 46.85                             137    -0.310   96 272 
 PTB  HZ I        2047 48.06         7.8 0.12             96             96 272 
 PAM  SE ES   1   2047 53.85                             127    -0.8 7  135  47 
