 2011  624 2059 41.9 L   6.757 -73.119141.0  RSN  5 0.1 1.7LRSN                1
 GAP=142        0.34       2.5     3.8  3.7  0.1421E+01  0.2340E+01  0.7388E+00E
 Epicentro: LOS SANTOS - SANTANDER                                             3
 ACTION:UP  11-07-14 19:07 OP:ep   STATUS:               ID:20110624205941 L   I
 2011-06-24-2056-00S.COL___140                                                 6
 STAT SP IPHASW D HRMM SECON CODA AMPLIT PERI AZIMU VELO SNR AR TRES W  DIS CAZ7
 BAR2 SZ EP   1   21 0  0.88                             172     0.0 7   20 201 
 BAR2 SZ ES   1   21 0 15.53                             172    -0.2 7   20 201 
 BAR2 SZ I        21 0 18.18        15.7 0.20                            20 201 
 BTL  SZ EP   1   21 0  1.09                             170     0.1 7   24 317 
 BRR  HZ EP       21 0  2.84                             150     0.010   76 301 
 BRR  HN ES   1   21 0 19.25                             150     0.1 7   76 301 
 BRR  HZ I        21 0 22.26        14.0 0.11                            76 301 
 PAM  SN ES   1   21 0 20.83                             149     0.0 7   79  36 
 RUS  HZ EP   1   21 0  4.77                             144    -0.1 7   96 178 
 RUS  HE ES   1   21 0 22.89                             144     0.2 7   96 178 
 RUS  HZ I        21 0 24.22         4.9 0.30                            96 178 
                                                                                
