 2016  424 2308 36.3 L   7.315 -73.203125.6  RSN 10 0.4 1.8LRSN                1
 GAP= 94        0.90       2.8     3.9  6.9 -0.1296E+01  0.1474E+02  0.1756E+01E
 Epicentro: RIONEGRO - SANTANDER                                               3
 ACTION:UPD 16-05-05 14:23 OP:rebc STATUS:               ID:20160424230836 L   I
 OLDACT:DUP 16-04-25 07:07 OP:ak   STATUS:               ID:20160424225750d    3
 OLDACT:DUP 16-04-25 06:50 OP:ak   STATUS:               ID:20160424225749d    3
 2016-04-24-2257-48M.COL___284                                                 6
 STAT SP IPHASW D HRMM SECON CODA AMPLIT PERI AZIMU VELO AIN AR TRES W  DIS CAZ7
 PAM  EZ EP       23 8 55.32                             155    0.2110 55.7  87 
 PAM  EE ES       23 9  9.85                             155    0.0710 55.7  87 
 PAM  EZ I        23 9 12.49        14.7 0.42            149           55.7  87 
 BAR2 EZ EP       23 8 56.22                             146    0.0010 79.9 178 
 BAR2 EZ ES       23 9 11.76                             146    0.0010 79.9 178 
 BAR2 EZ I        23 9 13.09        11.0 0.22            138           79.9 178 
 OCA  HZ EP       23 8 57.89                             138    0.0510  103 353 
 OCA  HN ES       23 9 14.69                             138    0.0410  103 353 
 OCA  HZ I        23 9 17.16        19.8 0.25            128            103 353 
 RUS  HZ EP   2   23 9  3.17                             125   -0.14 5  158 175 
 RUS  HE ES       23 9 24.13                             125   -0.26 9  158 175 
 PTB  HZ EP       23 9  2.66                             124   -0.53 9  163 238 
 PTB  HN ES       23 9 23.26                             124   -0.91 9  163 238 
 PTB  HZ I        23 9 27.40         6.5 0.38            115            163 238 
 ZAR  HZ EP       23 9  5.12                             120   -0.22 9  184 276 
 ZAR  HN ES       23 9 28.39                             120    0.40 9  184 276 
 ZAR  HZ I        23 9 32.69         8.0 0.33            112            184 276 
 SPBC HN ES       23 9 33.24                             117    0.54 8  207 208 
 NOR  HZ EP   2   23 9 14.83                             111    0.22 4  267 224 
 NOR  HN ES       23 9 45.33                             111    0.82 8  267 224 
 NOR  HZ I        23 9 49.86         5.4 0.06            105            267 224 
 HEL  HZ EP   2   23 9 17.83                             109    0.73 4  286 244 
 HEL  HZ I        23 9 56.03         2.9 0.50            104            286 244 
 GUY2CHZ EP       23 9 22.44                             106   -0.27 7  333 226 
 GUY2CHN ES       23 9 59.05                             106    0.13 7  333 226 
 GUY2CHZ I        2310  9.40         2.4 0.40                           333 226 
 SJC  HZ EP   4   23 9 23.97                             104   -1.32 0  359 323 
 SJC  HN ES   4   2310  0.25                             104   -3.26 0  359 323 
                                                                                
