 2016  924 2126 39.6 L   6.835 -73.301122.6  RSN  8 0.2 1.8LRSN                1
 GAP=106        0.51       1.9     1.9  3.3 -0.3017E+00  0.1379E+01 -0.4402E-01E
 Epicentro: ZAPATOCA - SANTANDER                                               3
 ACTION:UPD 17-08-17 21:15 OP:lp   STATUS:               ID:20160924212639 L   I
 OLDACT:DUP 16-09-25 03:48 OP:lv   STATUS:               ID:20160924211744d    3
 2016-09-24-2118-00M.COL___330                                                 6
 STAT SP IPHASW D HRMM SECON CODA AMPLIT PERI AZIMU VELO AIN AR TRES W  DIS CAZ7
 BAR2 EZ EP       2126 56.79                             165    0.1210 29.8 154 
 BAR2 EZ ES       2127  9.73                             165   -0.2210 29.8 154 
 BAR2 EZ I        2127 11.20        49.9 0.25            166           29.8 154 
 BRR  HZ EP       2126 57.18                             154   -0.1810 54.5 304 
 BRR  HN ES       2127 11.34                             154    0.1710 54.5 304 
 BRR  HZ I        2127 12.23        22.6 0.14            153           54.5 304 
 PAM  EZ EP       2127  0.18                             143    0.0610 86.7  50 
 PAM  EN ES       2127 15.95                             143   -0.1310 86.7  50 
 PAM  EZ I        2127 18.91        11.5 0.40            144           86.7  50 
 RUS  HZ EP       2127  1.86                             136    0.1410  107 167 
 RUS  HE ES       2127 19.21                             136    0.2810  107 167 
 RUS  HZ I        2127 20.36         5.5 0.20            137            107 167 
 PTB  HZ EP   9   2127  2.16                             130   -1.14 0  132 256 
 PTB  HE ES       2127 20.56                                   -0.0510  132 256 
 PTB  HZ I        2127 23.82         7.0 0.14            128            132 256 
 SPBC HN ES       2127 25.83                             124   -0.31 9  156 213 
 ZAR  HZ EP       2127  8.63                             119   -0.20 9  187 293 
 ZAR  HN ES       2127 31.85                             119    0.25 9  187 293 
 ZAR  HZ I        2127 35.48         6.8 0.14            119            187 293 
 NOR  HN ES       2127 38.79                             114   -0.01 8  223 231 
 NOR  HZ I        2127 46.58         4.0 0.23            114            223 231 
                                                                                
