 2011  724 2158 27.4 L   6.786 -73.129149.4  RSN  9 0.3 2.1LRSN                1
 GAP=157        0.59       2.8     5.8  4.7 -0.3031E+01  0.5047E+00  0.2904E+01E
 Epicentro: LOS SANTOS - SANTANDER                                             3
 ACTION:UPD 12-07-25 14:03 OP:epov STATUS:               ID:20110724215827 L   I
 2011-07-24-2155-06S.COL___143                                                 6
 STAT SP IPHASW D HRMM SECON CODA AMPLIT PERI AZIMU VELO AIN AR TRES W  DIS CAZ7
 BAR2 SZ EP   1   2158 47.31                             171   -0.10 7 22.2 195 
 BAR2 SZ ES   1   2159  2.77                             171   -0.28 7 22.2 195 
 BAR2 SZ I        2159  4.10        26.4 0.37                          22.2 195 
 GIR2 SZ EP   1   2158 47.55                             167    0.03 7 33.1 348 
 GIR2 SZ ES   1   2159  3.22                             167   -0.02 7 33.1 348 
 BRR  HZ EP   1   2158 49.21                             152    0.17 7 73.6 299 
 BRR  HZ I        2158 49.52        67.9 0.16                          73.6 299 
 BRR  HN ES   1   2159  6.38                             152    0.43 7 73.6 299 
 RUS  HZ EP   1   2158 51.53                             145    0.17 7 98.9 177 
 RUS  HN ES   1   2159 10.13                             145    0.05 7 98.9 177 
 RUS  HZ I        2159 11.22        11.1 0.25                          98.9 177 
 BRI  SZ EP   1   2158 51.90                             142    0.23 7  109  20 
 BRI  SZ ES   1   2159 10.77                             142    0.15 7  109  20 
 BRI  SZ I        2159 15.36        11.3 0.38                           109  20 
 OCA  SZ ES   1   2159 17.93                             130   -0.63 7  162 353 
 OCA  SZ I        2159 23.81        21.7 0.26                           162 353 
 NOR  SE ES   2   2159 31.08                             119   -0.39 4  235 235 
 CHI  HZ EP   1   2159  4.61                             118   -0.55 6  248 196 
 CHI  HZ I        2159  8.02         3.6 0.37                           248 196 
 PRA  HZ EP   1   2159 21.48                             107    0.51 4  392 210 
                                                                                
