 2016 1124 2102  6.3 L   6.780 -73.140139.1  RSN  5 0.1 1.6LRSN                1
 GAP=155        0.32       2.8     1.7  2.8 -0.1663E+01  0.2228E+01 -0.2021E+01E
 Epicentro: LOS SANTOS - SANTANDER                                             3
 ACTION:UPD 17-10-26 21:11 OP:lp   STATUS:               ID:20161124210206 L   I
 OLDACT:UP  16-11-25 03:34 OP:and  STATUS:               ID:20161124205744     3
 OLDACT:REG 16-11-25 02:36 OP:and  STATUS:               ID:20161124205744     3
 2016-11-24-2058-00M.COL___352                                                 6
 STAT SP IPHASW D HRMM SECON CODA AMPLIT PERI AZIMU VELO AIN AR TRES W  DIS CAZ7
 BAR2 EZ EP       21 2 25.05                             171   -0.0710 21.3 193 
 BAR2 EZ ES       21 2 39.82                             171    0.0410 21.3 193 
 BAR2 EZ I        21 2 41.25         9.5 0.19            173           21.3 193 
 BRR  HZ EP       21 2 27.01                             151    0.1410 72.9 300 
 PAM  EZ EP       21 2 27.87                             149   -0.0610 78.7  38 
 PAM  EN ES       21 2 44.76                             149   -0.0110 78.7  38 
 PAM  EZ I        21 2 47.37         6.1 0.43            148           78.7  38 
 PTB  HZ EP       21 2 32.90                             130    0.11 9  148 260 
 PTB  HN ES       21 2 53.31                             130   -0.11 9  148 260 
 ZAR  HZ EP       21 2 38.42                             121   -0.09 8  206 293 
 ZAR  HN ES       21 3  3.62                             121    0.02 8  206 293 
 ZAR  HZ I        21 3 12.02         5.0 0.32            121            206 293 
                                                                                
