 2016 1124 2029 27.4 L   5.852 -74.003113.8  RSN  7 0.2 1.7LRSN                1
 GAP=155        0.43       1.9     2.3  3.9 -0.2746E+01 -0.3625E+01  0.3795E+01E
 Epicentro: LA BELLEZA - SANTANDER                                             3
 ACTION:UPD 17-10-26 21:11 OP:lp   STATUS:               ID:20161124202927 L   I
 OLDACT:UP  16-11-25 03:26 OP:and  STATUS:               ID:20161124202747     3
 OLDACT:UP  16-11-25 03:21 OP:and  STATUS:               ID:20161124202747     3
 OLDACT:UP  16-11-25 03:15 OP:and  STATUS:               ID:20161124202747     3
 OLDACT:UP  16-11-25 03:14 OP:and  STATUS:               ID:20161124202747     3
 OLDACT:REG 16-11-25 02:32 OP:and  STATUS:               ID:20161124202747     3
 2016-11-24-2028-00M.COL___349                                                 6
 STAT SP IPHASW D HRMM SECON CODA AMPLIT PERI AZIMU VELO AIN AR TRES W  DIS CAZ7
 PTB  HZ EP       2029 46.61                             138   -0.1110 91.1 327 
 PTB  HN ES       2030  1.62                             138   -0.1710 91.1 327 
 PTB  HZ I        2030  6.56         7.7 0.14            134           91.1 327 
 NOR  HZ EP       2029 47.64                             135    0.0310  101 252 
 NOR  HN ES       2030  3.48                             135    0.1110  101 252 
 NOR  HZ I        2030  4.59        14.7 0.12            131            101 252 
 BAR2 EZ EP       2029 49.68                             130   -0.0810  122  48 
 BAR2 EZ ES       2030  7.31                             130    0.1110  122  48 
 BRR  HZ EP   4   2029 52.34                             125    0.92 0  143  13 
 BRR  HN ES   4   2030 12.30                             125    2.15 0  143  13 
 ZAR  HZ EP       2029 58.20                             114    0.16 9  205 333 
 ZAR  HN ES   4   2030 23.28                             114    1.33 0  205 333 
 ZAR  HZ I        2030 28.02         8.5 0.23            112            205 333 
 PAM  EZ EP       2030  0.35                             113    0.12 8  219  41 
 ORTC HZ EP       2030  3.95                             109    0.11 8  255 213 
 ORTC HN ES       2030 32.50                             109    0.24 8  255 213 
 ORTC HZ I        2030 39.22         3.3 0.24            107            255 213 
 PRA  HZ EP       2030  3.51                             109   -0.40 8  256 203 
 PRA  HN ES       2030 32.30                             109   -0.10 8  256 203 
 PRA  HZ I        2030 37.93         3.0 0.26            108            256 203 
                                                                                
