 2012  724 2337 24.7 L   6.785 -73.133147.1  RSN  8 0.4 2.2LRSN                1
 GAP=139        0.93       4.6     5.5  6.8 -0.2322E+01  0.1079E+02 -0.2804E+01E
 Epicentro: LOS SANTOS - SANTANDER                                             3
 ACTION:UPD 12-08-14 11:45 OP:ep   STATUS:               ID:20120724233724 L   I
 2012-07-24-2330-00M.COL___215                                                 6
 STAT SP IPHASW D HRMM SECON CODA AMPLIT PERI AZIMU VELO AIN AR TRES W  DIS CAZ7
 BAR2 SZ EP   1   2337 44.41                             171     0.0 7   22 194 
 BAR2 SZ I        2337 44.76        37.3 0.07            166             22 194 
 BAR2 SZ ES   1   2337 59.41                             171    -0.5 7   22 194 
 BRR  HZ EP       2337 46.22                             152     0.110   73 299 
 BRR  HZ I        2337 46.39        48.6 0.14            137             73 299 
 BRR  HN ES       2338  3.20                             152     0.410   73 299 
 PAM  SZ EP   1   2337 47.33                             151     0.3 7   78  38 
 PAM  SN ES       2338  4.47                             151    -0.110   78  38 
 RUS  HZ EP   1   2337 48.44                             145     0.0 7   99 177 
 RUS  HE ES       2338  7.15                             145     0.210   99 177 
 RUS  HZ I        2338  7.99        15.7 0.24            136             99 177 
 PTB  HZ EP   1   2337 51.27                             132    -0.6 7  149 260 
 PTB  HN ES   1   2338 12.50                             132    -0.6 7  149 260 
 PTB  HZ I        2338 14.50        11.2 0.20            118            149 260 
 OCA  HZ EP   1   2337 52.59                             130    -0.7 7  162 353 
 OCA  HN ES   2   2338 15.63                             130     0.1 5  162 353 
 OCA  HZ I        2338 19.48        31.0 0.21            117            162 353 
 ZAR  HZ EP   1   2337 57.99                             122     0.6 6  206 292 
 ZAR  HZ I        2338 28.31        19.3 0.31            110            206 292 
 HEL  HZ EP   1   2338  5.59                             115     0.5 6  273 256 
