 2017  924 2203 11.7 L   6.787 -73.097150.0  RSN  9 0.3 1.8LRSN                1
 GAP=124        0.61       2.7     3.0  4.2  0.3399E+00  0.2410E+01  0.3737E+01E
 Epicentro: LOS SANTOS - SANTANDER                                             3
 ACTION:UPD 17-10-05 19:15 OP:rebc STATUS:               ID:20170924220311 L   I
 OLDACT:UP  17-09-25 05:11 OP:mg   STATUS:               ID:20170924215740     3
 OLDACT:UP  17-09-25 05:10 OP:mg   STATUS:               ID:20170924215740     3
 OLDACT:REG 17-09-25 04:12 OP:mg   STATUS:               ID:20170924215740     3
 2017-09-24-2158-00M.COL___411                                                 6
 STAT SP IPHASW D HRMM SECON CODA AMPLIT PERI AZIMU VELO AIN AR TRES W  DIS CAZ7
 BAR2 EZ EP   1   22 3 31.15                             171   -0.65 7 23.5 204 
 BAR2 EZ ES   1   22 3 47.12                             171   -0.39 7 23.5 204 
 BAR2 EZ I        22 3 49.67        13.7 0.19            168           23.5 204 
 PAM  EZ EP       22 3 34.21                             152    0.0110 75.2  36 
 PAM  EN ES       22 3 51.88                             152    0.1010 75.2  36 
 PAM  EZ I        22 3 54.43         8.3 0.20            156           75.2  36 
 BRR  HZ EP       22 3 33.68                             151    0.1110 76.7 298 
 BRR  HN ES       22 3 50.78                             151    0.1110 76.7 298 
 BRR  HZ I        22 3 54.02        14.8 0.29            150           76.7 298 
 RUS  HZ EP       22 3 36.02                             145    0.3110 98.9 179 
 RUS  HN ES       22 3 54.66                             145    0.1910 98.9 179 
 RUS  HZ I        22 3 55.80         8.0 0.30            146           98.9 179 
 ZAR  HZ EP   2   22 3 45.14                             122    0.19 4  210 292 
 ZAR  HN ES   1   22 4 10.45                             122   -0.47 6  210 292 
 ZAR  HZ I        22 4 15.69         3.7 0.22            123            210 292 
 NOR  HZ EP       22 3 48.19                             119    0.17 8  238 236 
 NOR  HE ES       22 4 16.31                             119   -0.07 8  238 236 
 NOR  HZ I        22 4 22.66         3.5 0.24            119            238 236 
 GUY2CHZ EP   9   22 3 57.93                             113    2.06 0  305 236 
 GUY2CHN ES   4   22 4 32.68                             113    0.26 0  305 236 
 GUY2CHZ I        22 4 41.27         2.6 0.28                           305 236 
 PTGC HZ EP   1   22 3 55.13                             113   -0.20 5  305 160 
 PTGC HN ES   1   22 4 28.89                             113   -0.51 5  305 160 
 PTGC HZ I        22 4 30.31         7.0 0.26            114            305 160 
 PRA  HZ EP   1   22 4  5.39                             107   -0.10 4  393 210 
 PRA  HN ES   2   22 4 48.35                             107    0.86 3  393 210 
 PRA  HZ I        22 4 53.70         2.4 0.31            108            393 210 
                                                                                
