 2011  624 2355 56.2 L   6.775 -73.116139.9  RSN  7 0.2 2.0LRSN                1
 GAP=162        0.42       1.9     3.1  3.6 -0.2311E+01  0.1570E+01 -0.7113E+00E
 Epicentro: LOS SANTOS - SANTANDER                                             3
 ACTION:UP  11-07-14 19:07 OP:ep   STATUS:               ID:20110624235556 L   I
 2011-06-24-2354-21S.COL___140                                                 6
 STAT SP IPHASW D HRMM SECON CODA AMPLIT PERI AZIMU VELO SNR AR TRES W  DIS CAZ7
 BAR2 SZ EP       2356 15.13                             171     0.010   22 200 
 BAR2 SZ ES   1   2356 29.48                             171    -0.4 7   22 200 
 BAR2 SZ I        2356 32.23        30.5 0.30                            22 200 
 BTL  SZ EP   1   2356 15.34                             170     0.2 7   23 313 
 BRR  HZ EP       2356 17.08                             150     0.110   75 299 
 BRR  HN ES   1   2356 33.32                             150     0.1 7   75 299 
 BRR  HZ I        2356 38.47        29.0 0.16                            75 299 
 RUS  HZ EP   1   2356 19.12                             143    -0.1 7   98 178 
 RUS  HE ES   1   2356 37.30                             143     0.2 7   98 178 
 RUS  HZ I        2356 39.25        11.8 0.52                            98 178 
 GRA  SZ EP       2356 21.14                             135     0.010  127  16 
 GRA  SZ ES   1   2356 40.55                             135     0.0 7  127  16 
 GRA  SZ I        2356 41.64        11.5 0.24                           127  16 
 OCA  SZ EP   1   2356 24.31                             128    -0.1 7  163 352 
 OCA  SZ ES   1   2356 46.23                             128    -0.1 7  163 352 
 OCA  SZ I        2356 49.08         7.5 0.24                           163 352 
 NOR  SZ EP   1   2356 31.47                             117    -0.3 6  236 235 
 NOR  SN ES       2356 59.51                             117     0.1 8  236 235 
                                                                                
