 2011  524 2209 40.6 L   6.779 -73.112144.7  RSN  7 0.2 1.8LRSN                1
 GAP=142        0.68       3.8     6.5  5.1  0.5470E+00 -0.1531E+01 -0.2030E+01E
 Epicentro: LOS SANTOS - SANTANDER                                             3
 ACTION:UP  11-06-29 08:56 OP:tino STATUS:               ID:20110524220940 L   I
 2011-05-24-2207-14S.COL___140                                                 6
 STAT SP IPHASW D HRMM SECON CODA AMPLIT PERI AZIMU VELO SNR AR TRES W  DIS CAZ7
 BAR2 SZ EP       22 9 59.99                             171    -0.110   22 201 
 BAR2 SZ ES   1   2210 14.63                             171    -0.7 7   22 201 
 BAR2 SZ I        2210 16.27        11.1 0.35                            22 201 
 BTL  SZ EP       2210  0.40                             171     0.310   23 312 
 GIR2 SZ EP       2210  0.07                             166    -0.210   34 345 
 GIR2 SZ ES   1   2210 15.67                             166     0.1 7   34 345 
 BRR  HZ EP       2210  1.75                             151    -0.210   76 299 
 BRR  HN ES   1   2210 18.86                             151     0.4 7   76 299 
 BRR  HZ I        2210 22.47        18.8 0.16                            76 299 
 PAM  SZ EP       2210  2.75                             151     0.110   77  36 
 PAM  SN ES   1   2210 20.06                             151     0.2 7   77  36 
 RUS  HZ EP       2210  4.21                             144     0.110   98 178 
 RUS  HN ES   1   2210 22.55                             144     0.2 7   98 178 
 RUS  HZ I        2210 24.92         6.1 0.20                            98 178 
 OCA  SZ EP       2210  8.97                             129    -0.1 9  163 352 
 OCA  SZ I        2210 35.13        12.2 0.38                           163 352 
                                                                                
