 2012  424 2154 31.0 L   6.740 -73.976  4.1  RSN  4 0.2 1.3LRSN                1
 GAP=148        0.47       1.6     1.3  3.3 -0.9459E+00  0.9702E-01 -0.4960E+00E
 Epicentro: PUERTO PARRA - SANTANDER                                           3
 ACTION:UPD 12-07-05 11:55 OP:tino STATUS:               ID:20120424215431 L   I
 2012-04-24-2150-00M.COL___186                                                 6
 STAT SP IPHASW D HRMM SECON CODA AMPLIT PERI AZIMU VELO AIN AR TRES W  DIS CAZ7
 BRR  HZ EP       2154 39.24                              47     0.110   50  36 
 BRR  HE ES       2154 45.37                              47    -0.110   50  36 
 BRR  HZ I        2154 46.85        19.3 0.27                            50  36 
 PTB  HZ EP       2154 40.18                              47    -0.110   58 247 
 PTB  HN ES       2154 47.56                              47     0.010   58 247 
 RUS  HZ EP       2154 52.92                              47     0.2 9  136 133 
 RUS  HN ES   1   2155  9.37                              47    -0.3 7  136 133 
 PAM  SZ EP   1   2154 55.90                              47     0.2 7  156  65 
 PAM  SE ES   1   2155 14.80                              47    -0.1 7  156  65 
                                                                                
