 2017  324 2132  7.3 L   6.811 -73.147143.7  RSN 10 0.3 2.1LRSN                1
 GAP=136        0.81       2.8     3.3  4.7 -0.7650E+00  0.4414E+01  0.2608E+01E
 Epicentro: LOS SANTOS - SANTANDER                                             3
 ACTION:UPD 17-05-25 18:44 OP:jn   STATUS:               ID:20170324213207 L   I
 OLDACT:UP  17-03-24 23:41 OP:dani STATUS:               ID:20170324212748d    3
 OLDACT:DUP 17-03-24 23:37 OP:dani STATUS:               ID:20170324212748d    3
 OLDACT:UP  17-03-24 23:31 OP:dani STATUS:               ID:20170324212747     3
 OLDACT:REG 17-03-24 23:01 OP:dani STATUS:               ID:20170324212747     3
 2017-03-24-2128-00M.COL___418                                                 6
 STAT SP IPHASW D HRMM SECON CODA AMPLIT PERI AZIMU VELO AIN AR TRES W  DIS CAZ7
 BAR2 EZ EP     C 2132 26.67                             170   -0.0610 24.5 189 
 BAR2 EZ ES       2132 41.66                             170   -0.2110 24.5 189 
 BAR2 EZ I        2132 46.28        21.9 0.30            168           24.5 189 
 BRR  HZ EP       2132 28.46                             152    0.2510 70.5 298 
 BRR  HE ES       2132 44.79                             152    0.2810 70.5 298 
 BRR  HZ I        2132 46.15        25.1 0.16            152           70.5 298 
 PAM  EZ EP       2132 29.43                             151    0.1610 76.6  40 
 PAM  EN ES       2132 46.57                             151    0.1810 76.6  40 
 PAM  EZ I        2132 47.18        21.1 0.20            156           76.6  40 
 RUS  HZ EP       2132 30.71                             143   -0.2510  102 176 
 RUS  HE ES       2132 49.32                             143   -0.0810  102 176 
 RUS  HZ I        2132 50.73         9.7 0.28            144            102 176 
 PTB  HZ EP       2132 33.50                             131   -0.64 9  148 258 
 PTB  HN ES       2132 54.48                             131   -0.57 9  148 258 
 PTB  HZ I        2132 56.26        16.1 0.22            132            148 258 
 SPBC HZ EP       2132 35.74                             128   -0.01 9  164 219 
 SPBC HE ES       2132 57.71                             128   -0.21 9  164 219 
 SPBC HZ I        2133  3.92        18.3 0.24            129            164 219 
 ZAR  HZ EP       2132 39.25                             122   -0.33 9  203 292 
 ZAR  HE ES       2133  5.10                             122    0.36 9  203 292 
 ZAR  HZ I        2133 10.46        24.0 0.56            123            203 292 
 NOR  HZ EP       2132 42.98                             118   -0.02 8  235 234 
 NOR  HN ES       2133 11.46                             118    0.64 8  235 234 
 NOR  HZ I        2133 17.04        11.0 0.28            119            235 234 
 CHI  HN ES       2133 14.79                             116    0.35 8  250 195 
 PRA  HZ EP       2133  1.29                             106    0.40 6  393 209 
 PRA  HN ES       2133 43.19                             106    0.52 6  393 209 
 PRA  HZ I        2133 47.33         5.3 0.40            108            393 209 
                                                                                
