 2017  625 0846 44.1 L   6.792 -73.174141.9  RSN  9 0.4 1.5LRSN                1
 GAP=210        0.95       3.9     4.4  5.9  0.4099E+01  0.5632E+01  0.4969E+01E
 Epicentro: LOS SANTOS - SANTANDER                                             3
 ACTION:UPD 17-09-14 16:55 OP:jn   STATUS:               ID:20170625084644 L   I
 OLDACT:DUP 17-06-25 17:54 OP:lv   STATUS:               ID:20170625083743d    3
 2017-06-25-0838-00M.COL___349                                                 6
 STAT SP IPHASW D HRMM SECON CODA AMPLIT PERI AZIMU VELO AIN AR TRES W  DIS CAZ7
 BAR2 EZ EP        847  2.92                             171   -0.3110 22.1 182 
 BAR2 EZ ES        847 17.67                             171   -0.4910 22.1 182 
 BAR2 EZ I         847 20.77         8.3 0.25            168           22.1 182 
 BRR  HZ EP        847  4.73                             153    0.0410 68.9 300 
 BRR  HN ES        847 21.17                             153    0.4110 68.9 300 
 BRR  HZ I         847 22.59         6.4 0.25            154           68.9 300 
 PTB  HZ EP   9    847  9.40                             132   -1.05 0  144 259 
 PTB  HN ES        847 29.95                                   -0.01 9  144 259 
 PTB  HZ I         847 32.39         1.4 0.12            132            144 259 
 SPBC HZ EP        847 12.14                             129    0.10 9  160 218 
 SPBC HN ES        847 33.83                             129   -0.01 9  160 218 
 SPBC HZ I         847 36.61         5.5 0.07            129            160 218 
 YPLC HN ES        847 37.32                             126    0.56 9  178 150 
 ZAR  HZ EP        847 16.00                             122   -0.02 9  201 293 
 ZAR  HN ES        847 41.27                             122    0.35 9  201 293 
 NOR  HZ EP        847 18.40                             118   -0.86 8  232 234 
 NOR  HN ES        847 46.11                             118   -0.59 8  232 234 
 NOR  HZ I         847 51.76         3.4 0.20            119            232 234 
 CHI  HZ EP   4    847 20.05                             116   -1.34 0  247 195 
 CHI  HN ES        847 50.65                             116    0.16 8  247 195 
 CHI  HZ I         847 55.94         2.1 0.39            117            247 195 
 GUY2CHZ EP        847 27.47                             112    0.30 7  298 235 
 GUY2CHN ES        848  1.37                             112    0.60 7  298 235 
 PTGC HN ES   4    848  0.15                             111   -1.77 0  309 158 
 SJC  HZ EP   4    847 37.46                             105   -1.95 0  408 327 
 SJC  HN ES   4    848 18.00                             105   -4.57 0  408 327 
                                                                                
