 2013  425 0402 23.3 L   6.779 -73.162148.5  RSN 10 0.4 1.9LRSN                1
 GAP=135        0.64       3.4     4.1  6.8  0.1634E+01  0.1635E+01 -0.4066E+01E
 Epicentro: LOS SANTOS - SANTANDER                                             3
 ACTION:UPD 13-05-22 14:40 OP:EP   STATUS:               ID:20130425040223 L   I
 2013-04-25-0358-38M.COL___181                                                 6
 STAT SP IPHASW D HRMM SECON CODA AMPLIT PERI AZIMU VELO AIN AR TRES W  DIS CAZ7
 BAR2 SZ EP        4 2 43.25                             172    0.0110 20.8 186 
 GIR2 SZ EP   2    4 2 43.24                             167   -0.14 5 33.3 354 
 BRR  HZ EP     C  4 2 45.10                             153    0.3510 70.8 301 
 BRR  HN ES   1    4 3  1.98                             153    0.52 7 70.8 301 
 BRR  HN I         4 3  3.33        14.3 0.18            146           70.8 301 
 PAM  SZ EP        4 2 46.05                             150    0.0410 80.3  39 
 PAM  SN ES   2    4 3  2.86                             150   -0.84 5 80.3  39 
 PAM  SN I         4 3  4.52         5.4 0.20            154           80.3  39 
 RUS  HZ EP   1    4 2 47.55                             145    0.35 7 98.4 175 
 RUS  HN ES   1    4 3  5.52                             145   -0.30 7 98.4 175 
 RUS  HN I         4 3  7.41         5.4 0.16            147           98.4 175 
 PTB  HZ EP   1    4 2 49.95                             133   -0.38 7  146 260 
 PTB  HN ES   2    4 3 11.18                             133   -0.20 5  146 260 
 PTB  HN I         4 3 16.20         8.7 0.44            129            146 260 
 OCA  HN ES   2    4 3 14.35                             130   -0.10 5  162 354 
 OCA  HN I         4 3 17.04        25.1 0.40            129            162 354 
 ZAR  HN ES   2    4 3 21.35                             123    0.09 4  203 293 
 ZAR  HN I         4 3 30.29         9.2 0.14            120            203 293 
 SML  HZ EP   1    4 3  0.22                             118   -0.04 6  245 336 
 SML  HE ES   1    4 3 28.76                             118   -0.30 6  245 336 
 SML  HE I         4 3 37.48        13.5 0.10            117            245 336 
 HEL  HE ES   2    4 3 33.91                             115   -0.80 4  270 256 
 HEL  HE I         4 3 44.65         2.5 0.44            114            270 256 
                                                                                
