 2014 1025 0344 11.9 L   6.758 -73.154153.8  RSN  4 0.2 1.3LRSN                1
 GAP=199        0.54       3.0     4.5  5.1  0.6160E+01 -0.5440E+01 -0.5994E+01E
 Epicentro: LOS SANTOS - SANTANDER                                             3
 ACTION:UPD 14-11-29 23:56 OP:nd   STATUS:               ID:20141025034411 L   I
 OLDACT:UP  14-10-28 15:33 OP:cam  STATUS:               ID:20141025033812     3
 OLDACT:UP  14-10-28 15:33 OP:cam  STATUS:               ID:20141025033812     3
 OLDACT:UP  14-10-28 15:33 OP:cam  STATUS:               ID:20141025033812     3
 OLDACT:REG 14-10-28 13:33 OP:cam  STATUS:               ID:20141025033812     3
 2014-10-25-0338-12M.COL___289                                                 6
 STAT SP IPHASW D HRMM SECON CODA AMPLIT PERI AZIMU VELO AIN AR TRES W  DIS CAZ7
 BRR  HZ EP     C  344 34.38                             153    0.3410 72.7 302 
 BRR  HN ES        344 51.45                             153    0.1610 72.7 302 
 BRR  HN I         344 52.62         6.9 0.20            149           72.7 302 
 RUS  HZ EP        344 36.07                             147   -0.1110 96.1 175 
 RUS  HE ES        344 54.94                             147   -0.1510 96.1 175 
 RUS  HZ I         344 56.67         1.4 0.18            144           96.1 175 
 PTB  HZ EP        344 39.54                             134    0.12 9  146 261 
 PTB  HN ES        345  0.69                             134   -0.16 9  146 261 
 PTB  HZ I         345  7.75         3.8 0.30            130            146 261 
 SML  HZ EP        344 49.42                             119   -0.01 8  248 336 
 SML  HE ES        345 18.35                             119   -0.33 8  248 336 
                                                                                
