 2011 1225 0912 54.7 L   6.733 -73.182151.6  RSN  6 0.3 1.5LRSN                1
 GAP=178        0.60       5.1     4.5  5.2  0.6897E+01  0.3560E+01 -0.9448E+01E
 Epicentro: VILLANUEVA - SANTANDER                                             3
 ACTION:UPD 12-07-13 16:18 OP:ep   STATUS:               ID:20111225091254 L   I
 2011-12-25-0910-00M.COL___186                                                 6
 STAT SP IPHASW D HRMM SECON CODA AMPLIT PERI AZIMU VELO AIN AR TRES W  DIS CAZ7
 BAR2 SZ EP        913 14.79                             174   -0.1610 15.5 180 
 BAR2 SZ ES        913 30.65                             174   -0.0610 15.5 180 
 BAR2 SZ I         913 31.71         4.3 0.17                          15.5 180 
 BRR  HZ EP        913 16.66                             153    0.1110 71.7 305 
 BRR  HZ I         913 17.03        10.9 0.20                          71.7 305 
 BRR  HE ES   1    913 33.99                             153    0.43 7 71.7 305 
 RUS  HE ES   1    913 37.25                             147    0.06 7 93.5 173 
 PTB  HZ EP        913 21.84                             134    0.11 9  142 261 
 PTB  HE ES   1    913 42.46                             134   -0.32 7  142 261 
 OCA  SZ EP   1    913 23.82                             130   -0.34 7  167 355 
 ZAR  HZ EP   1    913 28.03                             124    0.53 6  203 295 
 ZAR  HE ES   1    913 52.65                             124   -0.39 6  203 295 
 ZAR  HZ I         914  0.03         2.9 0.27                           203 295 
                                                                                
