 2015  725 0843 33.6 L   6.818 -73.135147.1  RSN 24 0.5 2.9LRSN                1
 GAP= 72        1.08       2.5     3.4  5.1 -0.1456E+01  0.6422E+01  0.9913E+00E
 Epicentro: LOS SANTOS - SANTANDER                                             3
 ACTION:UPD 15-09-08 21:50 OP:cam  STATUS:               ID:20150725084333 L   I
 OLDACT:REG 15-07-25 12:55 OP:ak   STATUS:               ID:20150725083745     3
 2015-07-25-0837-45M.COL___334                                                 6
 STAT SP IPHASW D HRMM SECON CODA AMPLIT PERI AZIMU VELO AIN AR TRES W  DIS CAZ7
 BAR2 EZ IP     C  843 53.67                             170    0.2310 25.5 192 
 BAR2 EZ ES        844  8.16                             170   -0.7510 25.5 192 
 BAR2 EZ I         844 11.02       132.7 0.14            168           25.5 192 
 PAM  EZ EP        843 56.68                             152    0.8610 75.1  40 
 PAM  EN ES        844 13.40                             152    0.2510 75.1  40 
 PAM  EZ I         844 15.63       100.5 0.50            151           75.1  40 
 RUS  HZ EP        843 57.66                             144    0.0410  103 177 
 RUS  HE ES        844 16.55                             144    0.1910  103 177 
 RUS  HZ I         844 18.14        82.9 0.28            142            103 177 
 OCA  HZ EP        844  1.68                             130   -0.16 9  158 353 
 OCA  HN ES        844 23.23                             130   -0.63 9  158 353 
 OCA  HZ I         844 28.41       207.8 0.26            126            158 353 
 ZAR  HZ EP        844  6.05                             123   -0.11 9  204 291 
 ZAR  HN ES        844 32.23                             123    0.67 9  204 291 
 ZAR  HZ I         844 38.11        64.1 0.26            118            204 291 
 NOR  HZ EP        844  9.60                             118   -0.03 8  237 234 
 NOR  HE ES        844 37.71                             118   -0.03 8  237 234 
 NOR  HZ I         844 42.77        74.3 0.21            115            237 234 
 SML  HZ EP        844 10.11                             118   -0.04 8  242 335 
 SML  HE ES        844 39.39                             118    0.72 8  242 335 
 SML  HZ I         844 44.56        87.4 0.10            114            242 335 
 CHI  HZ EP        844 11.96                             117    0.34 8  251 195 
 CHI  HN ES        844 41.21                             117   -0.06 8  251 195 
 CHI  HZ I         844 45.02        27.4 0.46            115            251 195 
 ROSC BZ EP   4    844 13.53                             117    1.48 0  255 211 
 ROSC BE ES   4    844 44.32                             117    2.29 0  255 211 
 ROSC BZ I         844 48.36        49.8 0.35            114            255 211 
 HEL  HZ EP   1    844 14.55                             115    0.49 6  274 255 
 HEL  HE ES        844 44.92                             115   -0.70 8  274 255 
 HEL  HZ I         844 52.53        42.2 0.37            111            274 255 
 URE  HZ EP        844 13.75                             114   -1.02 7  284 291 
 URE  HE ES   4    844 45.22                             114   -1.66 0  284 291 
 URE  HZ I         844 58.00        42.6 0.08            110            284 291 
 GUY2CHZ EP   1    844 18.12                             112    0.61 5  303 235 
 GUY2CHE ES        844 51.81                             112    0.05 7  303 235 
 GUY2CHZ I         845  1.95        32.8 0.54                           303 235 
 PTGC HZ IP     C  844 16.99                             112   -0.69 7  310 159 
 PTGC HE ES   4    844 50.15                             112   -1.92 0  310 159 
 PTGC HZ I         844 52.96        29.6 0.27            110            310 159 
 CBOC HZ EP        844 21.57                             110    0.80 7  335 252 
 CBOC HN ES        844 57.41                             110   -0.15 7  335 252 
 CBOC HZ I         845  7.50        11.9 0.31            107            335 252 
 DBB  SZ EP        844 21.43                             110    0.18 7  340 274 
 DBB  SZ ES        844 58.03                             110   -0.38 7  340 274 
 DBB  SZ I         845  7.08        65.8 0.37            107            340 274 
 TOL  SZ EP        844 23.12                             109    0.95 6  346 225 
 TOL  SN ES        845  0.18                             109    0.13 6  346 225 
 TOL  SZ I         845  8.26        19.1 0.46            107            346 225 
 MON  HZ EP   4    844 20.97                             109   -1.64 0  353 308 
 MON  HN ES   4    844 59.52                             109   -1.32 0  353 308 
 ANIL HZ EP        844 24.60                             108    0.88 6  360 224 
 ANIL HE ES        845  2.10                             108   -0.71 6  360 224 
 ANIL HZ I         845 17.33        55.7 0.47            106            360 224 
 ORTC HZ EP        844 27.73                             106   -0.11 6  398 216 
 ORTC HN ES        845 10.57                             106    0.43 6  398 216 
 ORTC HZ I         845 16.20        14.7 0.49            104            398 216 
 ELOV BZ EP        844 27.51                             106   -1.01 6  404  87 
 ELOV BN ES   4    845  9.60                             106   -1.76 0  404  87 
 SJC  HZ EP        844 28.13                             106   -0.95 6  408 327 
 SJC  HN ES   4    845  8.94                             106   -3.41 0  408 327 
 SJC  HZ I         845 12.26         9.9 0.49            103            408 327 
 PAL  HZ EP        844 29.48                             106    0.44 6  408 239 
 PAL  HE ES        845 11.84                             106   -0.45 6  408 239 
 PAL  HZ I         845 18.08        13.0 0.37            103            408 239 
 YOT  HZ EP        844 36.63                             103   -0.31 5  474 229 
 YOT  HN ES        845 25.58                             103   -0.77 5  474 229 
 GUA  SZ EP        844 36.76                             103   -0.25 5  476 173 
 GUA  SE ES   4    845 24.24                             103   -2.23 0  476 173 
 GUA  SZ I         845 29.54        25.3 0.12            101            476 173 
 SMAR HZ EP        844 38.71                             103   -0.59 4  495 346 
 SMAR HE ES   4    845 26.98                             103   -3.57 0  495 346 
 MACC HZ EP   4    844 40.68                             102   -1.92 0  523 189 
 MACC HE ES   4    845 31.76                             102   -4.66 0  523 189 
                                                                                
