 2010  425 0657 16.4 L   6.472 -73.683104.0  RSN  6 0.3 1.5LRSN                1
 GAP=281        0.54       4.9     6.9  6.6  0.4672E+01 -0.5617E+01 -0.3371E+01E
 Epicentro: SANTA HELENA DEL OPON - SANTANDER                                  3
 ACTION:UPD 10-08-24 10:01 OP:vdl  STATUS:               ID:20100425065724 L   I
 2010-04-25-0656-05S.COL___104                                                 6
 STAT SP IPHASW D HRMM SECON CODA AMPLIT PERI AZIMU VELO AIN AR TRES W  DIS CAZ7
 BAR2 SZ IP        657 32.57                             150     0.010   57  76 
 BAR2 SZ ES   2    657 45.26                             150     0.1 5   57  76 
 BRR  HZ IP     C  657 33.11                             142     0.010   70 357 
 BRR  HN ES   1    657 46.24                             142     0.0 7   70 357 
 BRR  HZ I         657 46.46         9.3 0.07                            70 357 
 BRI  SZ EP   2    657 43.35                             116     0.6 5  169  35 
 GUE  SZ EP   1    657 42.95                             116    -0.4 7  172  29 
 GUE  SZ ES   2    658  3.56                             116    -0.8 4  172  29 
 GRA  SZ ES   2    658  6.84                             114     0.5 4  184  32 
 OCA  SZ EP   2    657 46.39                             112     0.2 4  199  12 
 OCA  SZ ES   2    658  9.62                             112     0.2 4  199  12 
                                                                                
