 2010 1125 0013  3.1 L   5.744 -73.896109.2  RSN 13 0.4 2.2LRSN                1
 GAP= 90        0.87       2.7     3.0  7.6 -0.2891E+01  0.5256E+01 -0.1574E+01E
 Epicentro: ALBANIA - SANTANDER                                                3
 ACTION:UP  10-12-17 16:54 OP:REBC STATUS:               ID:20101125001303 L   I
 2010-11-25-0011-03S.COL___129                                                 6
 STAT SP IPHASW D HRMM SECON CODA AMPLIT PERI AZIMU VELO SNR AR TRES W  DIS CAZ7
 RUS  HZ IP     D  013 22.66                             137     0.010   92  80 
 RUS  HN ES   1    013 37.59                             137    -0.4 7   92  80 
 RUS  HZ I         013 38.57        19.8 0.30                            92  80 
 NOR  SZ EP   1    013 23.33                             131    -0.4 7  110 260 
 NOR  SE ES   1    013 39.58                             131    -0.2 7  110 260 
 NOR  SZ I         013 41.22        14.8 0.23                           110 260 
 ROSC BN ES   1    013 41.48                             131     0.8 7  110 205 
 ROSC BZ I         013 49.66        41.1 0.33                           110 205 
 BAR2 SZ EP        013 25.37                             127     0.210  123  40 
 BAR2 SZ ES   1    013 42.47                             127     0.2 7  123  40 
 CHI  HZ EP   1    013 25.62                             127     0.1 7  125 172 
 CHI  HN ES   1    013 42.50                             127    -0.6 7  125 172 
 CHI  HZ I         013 48.53        41.1 0.60                           125 172 
 BRR  HZ EP   1    013 27.59                             121    -0.2 7  152   8 
 BRR  HN ES   1    013 47.38                             121     0.3 7  152   8 
 GUY  SZ EP   1    013 30.83                             117     0.2 7  173 251 
 GUY  SZ I         013 59.37        30.6 0.32                           173 251 
 VIL  SZ EP   1    013 31.20                             115    -0.1 7  183 170 
 VIL  SE ES   1    013 53.36                             115     0.1 7  183 170 
 VIL  SZ I         013 56.52        30.0 0.25                           183 170 
 RREF HZ EP   1    013 32.18                             115     0.0 7  186 240 
 RREF HN ES   1    013 54.86                             115    -0.1 7  186 240 
 RREF HZ I         013 59.21        23.7 0.26                           186 240 
 HEL  HZ EP   1    013 31.55                             115    -0.5 7  187 285 
 HEL  HN ES   1    013 54.16                             115    -0.5 7  187 285 
 HEL  HZ I         013 58.54        13.6 0.44                           187 285 
 TOL  SZ EP   1    013 34.06                             113     0.3 6  203 231 
 TOL  SZ ES   1    013 58.69                             113     1.0 6  203 231 
 PRA  HZ EP   1    013 38.37                             108    -0.4 6  250 206 
 PRA  HN ES   1    014  6.22                             108    -0.3 6  250 206 
 OCA  SZ EP   1    013 43.17                             105     0.4 6  283  13 
 OCA  SZ I         014 21.62        23.9 0.35                           283  13 
                                                                                
