 2011  525 0826 12.2 L   6.731 -73.075148.8  RSN  6 0.3 1.7LRSN                1
 GAP=186        0.68      18.4    20.3 13.2 -0.3341E+03  0.8496E+02 -0.3591E+02E
 Epicentro: JORDAN - SANTANDER                                                 3
 ACTION:UP  11-06-29 08:56 OP:tino STATUS:               ID:20110525082612 L   I
 2011-05-25-0824-46S.COL___141                                                 6
 STAT SP IPHASW D HRMM SECON CODA AMPLIT PERI AZIMU VELO SNR AR TRES W  DIS CAZ7
 BAR2 SZ EP   1    826 31.75                             172    -0.4 7   19 218 
 BAR2 SZ I         826 33.05        10.7 0.19                            19 218 
 BTL  SZ EP   1    826 32.68                             168     0.3 7   30 314 
 GIR2 SZ EP   1    826 32.64                             164     0.1 7   41 341 
 PAM  SZ EP   1    826 35.31                             151     0.4 7   79  32 
 PAM  SN ES   1    826 52.46                             151    -0.1 7   79  32 
 GRA  SZ EP   1    826 37.82                             136    -0.4 7  131  13 
 GRA  SZ I         826 59.21         8.5 0.41                           131  13 
 NOR  SN ES   2    827 16.60                             119     0.0 4  237 237 
                                                                                
