 2010  825 0719 37.8 L   6.778 -73.075146.7  RSN  9 0.2 1.9LRSN                1
 GAP=167        0.40       2.1     4.7  3.7 -0.2940E+01 -0.3937E+01  0.1230E+01E
 Epicentro: LOS SANTOS - SANTANDER                                             3
 ACTION:UP  10-09-07 10:58 OP:vdl  STATUS:               ID:20100825071937 L   I
 2010-08-25-0715-28S.COL___121                                                 6
 STAT SP IPHASW D HRMM SECON CODA AMPLIT PERI AZIMU VELO SNR AR TRES W  DIS CAZ7
 BAR2 SZ EP   1    719 57.49                             170     0.0 7   24 210 
 BAR2 SZ ES   2    720 12.62                             170    -0.3 5   24 210 
 BAR2 SZ I         720 14.53        22.2 0.33                            24 210 
 BTL  SZ EP   2    719 57.65                             169     0.1 5   26 306 
 BTL  SZ ES   2    720 12.63                             169    -0.4 5   26 306 
 GIR2 SZ EP   2    719 57.63                             166     0.0 5   36 339 
 BRR  HZ EP        719 59.38                                    -0.110   79 297 
 BRR  HZ I         719 59.64        27.7 0.13                            79 297 
 BRR  HE ES   1    720 16.72                             150     0.3 7   79 297 
 RUS  HZ EP   2    720  1.66                             145     0.2 5   98 181 
 RUS  HN ES   2    720 20.17                             145     0.3 5   98 181 
 RUS  HZ I         720 21.83        10.9 0.45                            98 181 
 GRA  SZ IP        720  3.21                             137     0.110  126  14 
 GRA  SZ ES   1    720 22.88                             137     0.0 7  126  14 
 GRA  SZ I         720 24.17         8.7 0.36                           126  14 
 OCA  SZ EP   1    720  6.39                             129    -0.1 7  164 351 
 OCA  SZ ES   2    720 28.89                             129     0.0 5  164 351 
 OCA  SZ I         720 34.78         8.8 0.35                           164 351 
 CHI  HZ EP   1    720 15.56                             117     0.1 6  248 197 
 CHI  HE ES   2    720 44.71                             117    -0.2 4  248 197 
 CHI  HZ I         720 54.09         4.3 0.66                           248 197 
 PRA  HZ EP   2    720 31.18                             107    -0.3 3  394 211 
 PRA  HZ I         721 17.15         3.1 0.46                           394 211 
                                                                                
