 2014  825 0601 51.8 L   6.742 -73.168154.0  RSN  5 0.3 1.4LRSN                1
 GAP=230        0.66       4.3     5.2  7.1  0.2283E+01 -0.7073E+01  0.2395E+01E
 Epicentro: LOS SANTOS - SANTANDER                                             3
 ACTION:UPD 14-09-15 21:53 OP:nd   STATUS:               ID:20140825060151 L   I
 OLDACT:REG 14-08-25 13:36 OP:fm   STATUS:               ID:20140825055811     3
 2014-08-25-0558-11M.COL___257                                                 6
 STAT SP IPHASW D HRMM SECON CODA AMPLIT PERI AZIMU VELO AIN AR TRES W  DIS CAZ7
 BAR2 SZ EP   1    6 2 12.15                             174   -0.18 7 16.6 185 
 BAR2 SZ I         6 2 29.04        10.3 0.16            173           16.6 185 
 BRR  HZ EP        6 2 14.15                             154    0.2210 72.4 304 
 BRR  HN ES        6 2 31.33                             154    0.1610 72.4 304 
 BRR  HZ I         6 2 35.05         5.4 0.14            156           72.4 304 
 RUS  HZ EP   1    6 2 15.87                             147   -0.10 7 94.4 174 
 RUS  HN ES   1    6 2 34.56                             147   -0.24 7 94.4 174 
 RUS  HZ I         6 2 37.43         1.4 0.50            148           94.4 174 
 PTB  HZ EP   1    6 2 19.07                             135   -0.09 7  144 261 
 PTB  HN ES        6 2 40.01                             135   -0.47 9  144 261 
 PTB  HZ I         6 2 45.56         3.2 0.48            138            144 261 
 SPBC HZ EP   1    6 2 20.36                             132   -0.01 7  157 220 
 SPBC HE ES        6 2 43.08                             132    0.45 9  157 220 
 SPBC HZ I         6 2 46.90         2.1 0.36            135            157 220 
                                                                                
