 2012  125 0937 47.7 L   6.728 -73.079142.0  RSN  4 0.4 1.3LRSN                1
 GAP=149        0.73       5.6     8.8  9.4  0.8958E+01 -0.1837E+02 -0.4722E+01E
 Epicentro: JORDAN - SANTANDER                                                 3
 ACTION:UP  12-02-03 08:20 OP:REBC STATUS:               ID:20120125093747 L   I
 2012-01-25-0930-00M.COL___187                                                 6
 STAT SP IPHASW D HRMM SECON CODA AMPLIT PERI AZIMU VELO SNR AR TRES W  DIS CAZ7
 BAR2 SZ EP   1    938  6.93                             172     0.1 7   19 217 
 BAR2 SZ ES   2    938 20.76                             172    -0.9 5   19 217 
 BAR2 SZ I         938 27.38         6.5 0.50                            19 217 
 PAM  SZ EP   1    938  9.81                             149     0.1 7   80  32 
 PAM  SE ES   2    938 26.83                             149     0.0 5   80  32 
 BRR  HZ EP   1    938  8.93                             148    -0.2 7   82 301 
 BRR  HZ I         938  9.92         4.5 0.35                            82 301 
 BRR  HN ES   1    938 25.98                             148     0.2 7   82 301 
 RUS  HZ EP   1    938 10.22                             145    -0.3 7   92 180 
 RUS  HE ES   1    938 28.67                             145     0.4 7   92 180 
 RUS  HZ I         938 31.14         2.3 0.35                            92 180 
                                                                                
