 2016 1125 0955 54.6 L   6.802 -73.163150.0  RSN  9 0.4 1.7LRSN                1
 GAP=145        0.84       4.0     4.0  5.0 -0.4108E+01  0.2720E+01  0.5200E+01E
 Epicentro: LOS SANTOS - SANTANDER                                             3
 ACTION:UPD 17-10-26 21:11 OP:lp   STATUS:               ID:20161125095554 L   I
 OLDACT:UP  16-11-25 18:40 OP:edw  STATUS:               ID:20161125094743     3
 OLDACT:UP  16-11-25 18:39 OP:edw  STATUS:               ID:20161125094743     3
 OLDACT:REG 16-11-25 13:22 OP:edw  STATUS:               ID:20161125094743     3
 2016-11-25-0948-00M.COL___340                                                 6
 STAT SP IPHASW D HRMM SECON CODA AMPLIT PERI AZIMU VELO AIN AR TRES W  DIS CAZ7
 BAR2 EZ EP        956 14.80                             171    0.0710 23.3 185 
 BAR2 EZ ES        956 30.10                             171   -0.3410 23.3 185 
 BAR2 EZ I         956 30.78        10.4 0.32            170           23.3 185 
 BRR  HZ EP        956 16.52                             154    0.4210 69.4 299 
 BRR  HN ES        956 33.07                             154    0.1910 69.4 299 
 BRR  HZ I         956 36.02         7.3 0.28            152           69.4 299 
 PAM  EZ EP        956 17.69                             151    0.3710 78.4  41 
 PAM  EN ES        956 34.78                             151   -0.2710 78.4  41 
 PAM  EZ I         956 36.90         4.1 0.33            153           78.4  41 
 PTB  HZ EP   9    956 21.42                             133   -0.33 0  146 259 
 PTB  HN ES        956 42.30                             134   -0.30 9  146 259 
 PTB  HZ I         956 44.40         5.5 0.40            132            146 259 
 ZAR  HZ EP   2    956 27.35                             123    0.22 4  202 292 
 ZAR  HN ES        956 52.43                             123   -0.08 9  202 292 
 ZAR  HZ I         956 57.87         4.7 0.32            123            202 292 
 NOR  HZ EP        956 30.08                             119   -0.34 8  233 234 
 NOR  HN ES        956 58.71                             119    0.34 8  233 234 
 CHI  HZ EP   2    956 32.56                             118    0.06 4  248 195 
 CHI  HN ES   2    957  1.21                             118   -0.86 4  248 195 
 CHI  HZ I         957  5.55         2.8 0.28            118            248 195 
 PRA  HZ EP        956 48.72                             107    0.54 6  391 209 
 PRA  HN ES        957 29.71                             107   -0.27 6  391 209 
 PRA  HZ I         957 34.95         2.7 0.50            107            391 209 
 SJC  HZ EP        956 48.92                             106   -1.23 6  408 327 
 SJC  HN ES   4    957 31.28                             106   -2.20 0  408 327 
                                                                                
