 2017  925 0256 44.7 L   6.826 -73.139144.1  RSN 20 0.6 2.2LRSN                1
 GAP=104        1.25       3.8     3.3  6.2  0.1099E+01  0.7422E+01  0.6960E+01E
 Epicentro: LOS SANTOS - SANTANDER                                             3
 ACTION:UPD 17-10-05 19:15 OP:rebc STATUS:               ID:20170925025644 L   I
 OLDACT:UP  17-09-25 14:56 OP:edw  STATUS:               ID:20170925024737     3
 OLDACT:UP  17-09-25 14:54 OP:edw  STATUS:               ID:20170925024737     3
 OLDACT:UP  17-09-25 14:53 OP:edw  STATUS:               ID:20170925024737     3
 OLDACT:REG 17-09-25 12:49 OP:edw  STATUS:               ID:20170925024737     3
 2017-09-25-0248-00M.COL___411                                                 6
 STAT SP IPHASW D HRMM SECON CODA AMPLIT PERI AZIMU VELO AIN AR TRES W  DIS CAZ7
 BAR2 EZ IP     C  257  3.98                             169   -0.2610 26.3 190 
 BAR2 EZ ES        257 18.84                             169   -0.6010 26.3 190 
 BAR2 EZ I         257 19.87        47.2 0.26            166           26.3 190 
 BRR  HZ EP        257  5.74                             152    0.0710 70.5 296 
 BRR  HE ES        257 22.84                             152    0.8410 70.5 296 
 BRR  HZ I         257 26.19        31.1 0.18            152           70.5 296 
 PAM  EZ EP        257  6.91                             151    0.2910 74.7  41 
 PAM  EN ES        257 23.73                             151    0.0510 74.7  41 
 PAM  EZ I         257 25.80        39.3 0.48            156           74.7  41 
 RUS  HZ EP        257  8.08                             143   -0.4610  103 177 
 RUS  HN ES        257 26.38                             143   -0.7210  103 177 
 RUS  HZ I         257 28.53        29.0 0.16            142            103 177 
 TAM  HZ EP     C  257 12.37                             130    0.08 9  155 106 
 TAM  HN ES        257 34.04                             130    0.26 9  155 106 
 YPLC HZ IP     C  257 14.54                             126   -0.09 9  179 152 
 YPLC HN ES        257 38.35                             126    0.41 9  179 152 
 YPLC HZ I         257 41.35         7.6 0.34            127            179 152 
 ZAR  HZ EP        257 16.96                             122   -0.08 9  204 291 
 ZAR  HN ES        257 42.22                             122   -0.01 9  204 291 
 ZAR  HZ I         257 47.59        20.4 0.28            123            204 291 
 NOR  HZ EP        257 20.50                             118   -0.12 8  237 234 
 NOR  HN ES        257 48.43                             118   -0.18 8  237 234 
 NOR  HZ I         257 54.05        10.6 0.24            118            237 234 
 CHI  HZ EP        257 22.48                             116   -0.19 8  252 195 
 CHI  HN ES        257 51.80                             116   -0.46 8  252 195 
 CHI  HZ I         257 56.99         7.8 0.20            117            252 195 
 ROSC BZ EP        257 23.97                             116    0.89 8  256 211 
 ROSC BN ES        257 53.24                             116    0.25 8  256 211 
 ROSC BZ I         257 58.77        15.7 0.40            116            256 211 
 HEL  HZ EP        257 26.02                             114    0.99 8  274 255 
 HEL  HN ES        257 57.15                             114    0.70 8  274 255 
 HEL  HZ I         258  3.10         7.6 0.22            115            274 255 
 GUY2CHZ EP   4    257 29.65                             112    1.12 0  303 234 
 GUY2CHN ES        258  3.78                             112    1.09 7  303 234 
 GUY2CHZ I         258 12.29         7.4 0.62                           303 234 
 PTGC HZ EP   4    257 27.39                             111   -1.41 0  311 159 
 PTGC HN ES   4    258  1.08                             111   -2.08 0  311 159 
 PTGC HZ I         258  7.03         7.4 0.32            112            311 159 
 LL6C HZ EP   4    257 28.33                             110   -1.71 0  322 357 
 LL6C HN ES   4    258  6.36                             110    0.98 0  322 357 
 ELA  HZ EP   4    257 33.64                             110    1.84 0  332 229 
 ELA  HN ES   4    258 14.39                             110    5.88 0  332 229 
 ELA  HZ I         258 15.95         4.8 0.64            110            332 229 
 CBOC HZ EP   4    257 32.78                             109    1.01 0  335 252 
 CBOC HE ES        258  8.05                             109   -0.40 7  335 252 
 CBOC HZ I         258 17.40         2.7 0.62            110            335 252 
 DBB  EZ EP        257 31.28                             109   -0.93 7  340 274 
 DBB  EN ES        258  7.58                             109   -1.66 7  340 274 
 DBB  EZ I         258 11.24         5.8 0.16            110            340 274 
 PRA  HZ EP        257 37.89                             106   -0.65 6  395 209 
 PRA  HN ES        258 20.20                             106   -0.30 6  395 209 
 PRA  HZ I         258 26.64         8.3 0.26            107            395 209 
 ORTC HZ EP        257 38.85                             106   -0.08 6  398 216 
 ORTC HN ES        258 22.18                             106    0.99 6  398 216 
 ORTC HZ I         258 26.76         5.6 0.24            107            398 216 
 SJC  HZ EP   4    257 38.24                             105   -1.77 0  407 327 
 SJC  HN ES   4    258 17.52                             105   -5.60 0  407 327 
 SJC  HZ I         258 23.52         5.1 0.52            107            407 327 
 PAL  HZ EP        257 40.12                             105    0.03 6  408 239 
 PAL  HN ES   4    258 20.99                             105   -2.28 0  408 239 
 PAL  HZ I         258 24.02         2.4 0.48            106            408 239 
                                                                                
