 2016  325 0648 32.4 L   6.067 -73.722114.5  RSN  4 0.4 0.8LRSN                1
 GAP=115        0.97       5.8     4.1  8.9 -0.7258E+00  0.2646E+01 -0.8037E+01E
 Epicentro: VELEZ - SANTANDER                                                  3
 ACTION:UPD 16-05-13 21:27 OP:cam  STATUS:               ID:20160325064832 L   I
 OLDACT:UP  16-03-25 17:23 OP:ak   STATUS:               ID:20160325063745     3
 OLDACT:REG 16-03-25 14:27 OP:ak   STATUS:               ID:20160325063745     3
 2016-03-25-0637-45M.COL___294                                                 6
 STAT SP IPHASW D HRMM SECON CODA AMPLIT PERI AZIMU VELO AIN AR TRES W  DIS CAZ7
 SPBC HZ EP        648 49.77                             150    0.1210 60.1 220 
 SPBC HN ES        649  3.51                             150    0.3710 60.1 220 
 SPBC HZ I         649  5.35         2.9 0.11            153           60.1 220 
 RUS  HZ EP        648 51.10                             145    0.0210 73.3 105 
 RUS  HE ES        649  5.07                             145   -0.6110 73.3 105 
 RUS  HZ I         649 10.43         0.8 0.36            148           73.3 105 
 BAR2 EZ EP        648 51.90                             142    0.4610 83.3  46 
 BAR2 EZ ES        649  6.60                             142    0.2710 83.3  46 
 BAR2 EZ I         649  7.81         2.2 0.18            145           83.3  46 
 PTB  HZ EP        648 51.71                             137   -0.4910 96.6 303 
 PTB  HN ES        649  7.54                             137   -0.1310 96.6 303 
 PTB  HZ I         649  9.07         1.5 0.44            142           96.6 303 
                                                                                
