 2010  625 0934 18.4 L   6.882 -73.038142.0  RSN 11 0.5 2.2LRSN                1
 GAP=167        0.99       4.1     7.9  8.2 -0.1442E+02  0.7686E+01  0.8784E+01E
 Epicentro: PIEDECUESTA - SANTANDER                                            3
 ACTION:UP  10-08-24 10:13 OP:vdl  STATUS:               ID:20100625093418 L   I
 2010-06-25-0932-19S.COL___118                                                 6
 STAT SP IPHASW D HRMM SECON CODA AMPLIT PERI AZIMU VELO SNR AR TRES W  DIS CAZ7
 BAR2 SZ EP   1    934 37.76                             165    -0.1 7   36 207 
 BRR  HZ EP        934 39.27                             149    -0.310   79 289 
 BRR  HZ I         934 41.14        42.9 0.09                            79 289 
 BRR  HN ES   1    934 56.01                             149    -0.1 7   79 289 
 BRI  SZ IP        934 41.69                             144     0.710   96  16 
 BRI  SZ ES   1    934 58.93                             144     0.3 7   96  16 
 RUS  HZ EP   1    934 42.25                             140    -0.2 7  109 183 
 RUS  HE ES   1    935  1.41                             140     0.2 7  109 183 
 RUS  HZ I         935  2.35        14.7 0.22                           109 183 
 GRA  SZ IP        934 41.89                             139    -0.410  114  13 
 GRA  SZ ES   1    935  0.66                             139    -0.3 7  114  13 
 OCA  SZ EP        934 45.47                             130    -0.3 9  153 348 
 OCA  SZ ES   1    935  7.22                             130     0.1 7  153 348 
 OCA  SZ I         935  8.47         8.9 0.22                           153 348 
 CHI  HZ EP   2    934 56.26                             115    -0.9 4  261 197 
 CHI  HE ES   2    935 27.11                             115    -0.3 4  261 197 
 CHI  HZ I         935 30.27         5.7 0.61                           261 197 
 ROSC BZ EP   1    934 58.63                             114     0.8 6  267 212 
 ROSC BZ I         935 37.48        11.7 0.47                           267 212 
 HEL  HZ EP   2    935  0.15                             113     0.2 4  286 255 
 HEL  HZ I         935 36.63        10.2 0.41                           286 255 
 RREF HZ IP     D  935  6.66                             109     0.6 7  337 230 
 RREF HN ES   1    935 43.70                             109     0.4 5  337 230 
 RREF HZ I         935 50.72         8.3 0.17                           337 230 
 PRA  HZ EP   2    935 12.70                             105    -0.7 3  406 210 
 PRA  HN ES   1    935 55.35                             105    -0.9 4  406 210 
 PRA  HZ I         936  0.55         8.3 0.37                           406 210 
                                                                                
