 2012  325 0831  5.2 L   6.751 -73.146137.9  RSN  5 0.2 1.4LRSN                1
 GAP=139        0.44       3.9     4.0  5.7 -0.1287E+01  0.6504E+00  0.6840E+00E
 ACTION:UP  12-03-31 23:22 OP:EP   STATUS:               ID:20120325083105 L   I
 2012-03-25-0830-00M.COL___196                                                 6
 STAT SP IPHASW D HRMM SECON CODA AMPLIT PERI AZIMU VELO SNR AR TRES W  DIS CAZ7
 BAR2 SZ EP   1    831 23.74                             172     0.0 7   18 193 
 BAR2 SZ ES   2    831 37.82                             172    -0.5 5   18 193 
 BAR2 SZ I         831 41.49         8.9 0.43                            18 193 
 BRR  HZ EP   1    831 25.67                             150     0.0 7   74 302 
 BRR  HZ I         831 25.78         7.3 0.28                            74 302 
 BRR  HN ES   2    831 41.95                             150     0.3 5   74 302 
 PAM  SZ EP   1    831 26.68                             148    -0.2 7   82  37 
 PAM  SE ES   2    831 43.99                             148     0.2 5   82  37 
 RUS  HZ EP   1    831 27.99                             144     0.2 7   95 176 
 RUS  HE ES   2    831 45.47                             144     0.1 5   95 176 
 RUS  HZ I         831 47.45         2.7 0.32                            95 176 
 PTB  HZ EP   2    831 31.32                             130    -0.1 5  147 261 
 PTB  HN ES   2    831 51.83                             130    -0.1 5  147 261 
 PTB  HZ I         831 57.51         3.1 0.26                           147 261 
                                                                                
