 2014  725 0557  2.8 L   7.114 -73.946 14.7  RSN 10 0.5 1.4LRSN                1
 GAP= 63        1.19       2.5     2.1  3.8 -0.9632E+00  0.2616E+01 -0.2319E+01E
 Epicentro: BARRANCABERMEJA - SANTANDER                                        3
 ACTION:UPD 15-03-16 20:46 OP:nd   STATUS:               ID:20140725055702 L   I
 OLDACT:REG 14-07-25 13:04 OP:spq  STATUS:               ID:20140725054818     3
 2014-07-25-0548-18M.COL___269                                                 6
 STAT SP IPHASW D HRMM SECON CODA AMPLIT PERI AZIMU VELO AIN AR TRES W  DIS CAZ7
 BRR  HZ IP     D  557  8.03                             115    0.3510 25.8  92 
 BRR  HN ES        557 11.45                             115   -0.0410 25.8  92 
 BRR  HZ I         557 13.01        17.9 0.14             47           25.8  92 
 PTB  HZ IP     D  557 16.83                              98    0.4410 84.9 222 
 PTB  HE ES        557 26.63                              98   -0.3610 84.9 222 
 PTB  HZ I         557 27.55        20.4 0.22             47           84.9 222 
 BAR2 SZ EP        557 19.53                              96    0.3110  102 124 
 BAR2 SZ ES   1    557 31.49                              96   -0.53 7  102 124 
 BAR2 SZ I         557 32.18         7.9 0.16             47            102 124 
 ZAR  HZ EP     C  557 20.71                              96    0.7010  109 293 
 ZAR  HN ES        557 32.55                              96   -0.8910  109 293 
 ZAR  HZ I         557 34.56        11.6 0.07             47            109 293 
 PAM  SZ EP        557 25.67                              95    0.51 9  140  80 
 PAM  SN ES        557 41.84                              95   -0.76 9  140  80 
 PAM  SZ I         557 44.98         7.5 0.18             47            140  80 
 OCA  HZ EP        557 25.30                              56    0.18 9  142  29 
 OCA  HN ES        557 42.01                              56   -0.52 9  142  29 
 OCA  HZ I         557 44.30        10.4 0.30             47            142  29 
 SPBC HZ EP        557 27.66                              56    0.13 9  162 185 
 SPBC HN ES        557 46.99                              56    0.18 9  162 185 
 SPBC HZ I         557 49.72         2.6 0.20             47            162 185 
 SML  HZ EP   1    557 31.00                              56    0.47 7  187 356 
 SML  HN ES        557 52.33                              56    0.18 9  187 356 
 SML  HZ I         557 57.35         9.6 0.10             37            187 356 
 URE  HN ES   1    557 53.26                              56    0.68 7  189 292 
 URE  HZ I         557 58.14         3.9 0.26             37            189 292 
 HEL  HZ EP   1    557 32.28                              56   -0.63 6  203 240 
 HEL  HE ES        557 55.98                              56   -0.42 9  203 240 
 HEL  HZ I         557 58.39         1.6 0.34             37            203 240 
                                                                                
