 2016 1225 0148 53.0 L   6.788 -73.179143.8  RSN 10 0.5 2.2LRSN                1
 GAP=100        1.11       4.7     3.3  7.3  0.1069E+01  0.3710E+01  0.8613E+01E
 Epicentro: LOS SANTOS - SANTANDER                                             3
 ACTION:UPD 17-01-11 20:18 OP:rebc STATUS:               ID:20161225014853 L   I
 OLDACT:UP  16-12-25 13:52 OP:cog  STATUS:               ID:20161225014741     3
 OLDACT:REG 16-12-25 12:38 OP:cog  STATUS:               ID:20161225014741     3
 2016-12-25-0148-00M.COL___381                                                 6
 STAT SP IPHASW D HRMM SECON CODA AMPLIT PERI AZIMU VELO AIN AR TRES W  DIS CAZ7
 BRR  HZ EP        149 14.14                             153    0.4010 68.6 301 
 BRR  HN ES        149 30.70                             153    0.7510 68.6 301 
 BRR  HZ I         149 31.76        32.4 0.12            154           68.6 301 
 PAM  EZ EP        149 15.13                             149   -0.0310 80.7  41 
 PAM  EE ES        149 32.10                             149   -0.3810 80.7  41 
 PAM  EZ I         149 34.40        46.1 0.52            154           80.7  41 
 RUS  HZ EP        149 16.22                             144   -0.2210 99.6 174 
 RUS  HN ES        149 34.98                             144    0.2310 99.6 174 
 RUS  HZ I         149 36.15        19.1 0.28            143           99.6 174 
 PTB  HZ EP        149 19.11                             132   -0.30 9  144 259 
 PTB  HN ES        149 38.93                             132   -1.11 9  144 259 
 PTB  HZ I         149 42.67         9.7 0.21            133            144 259 
 TAM  HZ EP        149 20.83                             129    0.06 9  158 104 
 TAM  HE ES        149 42.38                             129   -0.09 9  158 104 
 ZAR  HZ EP        149 25.25                             122    0.28 9  201 293 
 ZAR  HN ES        149 49.50                             122   -0.44 9  201 293 
 NOR  HZ EP        149 28.95                             118    0.79 8  231 234 
 NOR  HN ES        149 55.81                             118    0.18 8  231 234 
 NOR  HZ I         150  4.07        10.6 0.16            119            231 234 
 CHI  HZ EP        149 30.38                             117    0.08 8  246 194 
 CHI  HN ES   3    150  0.27                             117    0.84 2  246 194 
 CHI  HZ I         150  3.48         8.5 0.54            117            246 194 
 GUY2CHZ EP   4    149 37.83                             112    1.78 0  297 235 
 GUY2CHN ES   4    150 11.79                             112    2.13 0  297 235 
 GUY2CHZ I         150 18.55         7.3 0.32                           297 235 
 PTGC HZ EP   3    149 35.40                             111   -1.34 2  309 158 
 PTGC HN ES   3    150  8.97                             111   -1.92 2  309 158 
 PTGC HZ I         150 13.64        10.3 0.32            112            309 158 
                                                                                
