 2016  825 0631 30.3 L   6.721 -73.219147.2  RSN  4 0.1 1.1LRSN                1
 GAP=223        0.39       2.5     3.1  3.7  0.2462E+01  0.1324E+01  0.9500E+00E
 Epicentro: VILLANUEVA - SANTANDER                                             3
 ACTION:UPD 16-10-29 15:39 OP:rebc STATUS:               ID:20160825063130 L   I
 OLDACT:REG 16-08-25 12:39 OP:ak   STATUS:               ID:20160825062737     3
 2016-08-25-0628-00M.COL___372                                                 6
 STAT SP IPHASW D HRMM SECON CODA AMPLIT PERI AZIMU VELO AIN AR TRES W  DIS CAZ7
 BRR  HZ EP   1    631 51.28                             153   -0.24 7 69.2 308 
 BRR  HN ES        632  8.11                             153    0.0610 69.2 308 
 BRR  HZ I         632 12.13         3.1 0.17                          69.2 308 
 RUS  HZ EP   2    631 54.09                             146    0.41 5 92.9 171 
 RUS  HE ES        632 11.85                             146   -0.0410 92.9 171 
 RUS  HZ I         632 12.56         1.9 0.24                          92.9 171 
 PTB  HZ EP        631 56.48                             134   -0.09 9  138 262 
 PTB  HN ES        632 17.12                             134    0.08 9  138 262 
 PTB  HZ I         632 20.44         1.2 0.14                           138 262 
 SPBC HZ EP        631 57.92                             132    0.09 9  151 219 
 SPBC HN ES        632 19.23                             132   -0.06 9  151 219 
 SPBC HZ I         632 22.41         2.1 0.11                           151 219 
                                                                                
