 2011  125 0834 16.1 L   6.767 -73.234144.4  RSN  5 0.3 1.4LRSN                1
 GAP=143        0.63       3.5     9.9  7.0 -0.1099E+02  0.2661E+02 -0.3573E+01E
 Epicentro: ZAPATOCA - SANTANDER                                               3
 ACTION:UP  11-02-08 08:42 OP:pat  STATUS:               ID:20110125083416 L   I
 2011-01-25-0829-25S.COL___138                                                 6
 STAT SP IPHASW D HRMM SECON CODA AMPLIT PERI AZIMU VELO SNR AR TRES W  DIS CAZ7
 BAR2 SZ EP   1    834 35.22                             172    -0.3 7   20 164 
 BAR2 SZ ES   1    834 50.51                             172    -0.2 7   20 164 
 BAR2 SZ I         834 51.97         8.9 0.25                            20 164 
 RUS  HZ EP   1    834 39.16                             144    -0.4 7   98 170 
 RUS  HE ES   1    834 58.19                             144     0.3 7   98 170 
 RUS  HZ I         834 59.01         2.2 0.25                            98 170 
 GRA  SZ EP   1    834 41.98                             135     0.1 7  132  21 
 GRA  SZ ES   1    835  2.05                             135     0.2 7  132  21 
 GRA  SZ I         835  2.88         4.6 0.43                           132  21 
 CHI  HZ EP   1    834 53.34                             117     0.2 6  243 193 
 CHI  HE ES   2    835 22.36                             117     0.4 4  243 193 
 CHI  HZ I         835 26.10         1.9 0.60                           243 193 
 MON  HE ES   2    835 42.24                             109     0.1 3  348 310 
                                                                                
