 2015  225 0950 49.6 L   6.270 -73.675112.6  RSN  4 0.3 1.4LRSN                1
 GAP=103        0.90       4.5     4.5  9.3  0.2961E+00  0.1741E+02 -0.1220E+02E
 Epicentro: SANTA HELENA DEL OPON - SANTANDER                                  3
 ACTION:UPD 15-04-30 21:29 OP:nd   STATUS:               ID:20150225095049 L   I
 OLDACT:REG 15-02-25 13:52 OP:mh   STATUS:               ID:20150225094744     3
 2015-02-25-0947-44M.COL___287                                                 6
 STAT SP IPHASW D HRMM SECON CODA AMPLIT PERI AZIMU VELO AIN AR TRES W  DIS CAZ7
 BAR2 EZ EP        951  7.77                             148    0.5610 65.1  57 
 BAR2 EZ ES        951 21.02                             148    0.0710 65.1  57 
 BAR2 EZ I         951 21.83        10.3 0.11            153           65.1  57 
 RUS  HZ EP        951  8.45                             143    0.0110 77.7 122 
 RUS  HN ES        951 22.61                             143   -0.5210 77.7 122 
 RUS  HZ I         951 26.26         2.5 0.32            148           77.7 122 
 SPBC HZ EP        951  7.83                             142   -0.3110 81.2 213 
 SPBC HE ES        951 22.99                             142    0.4010 81.2 213 
 SPBC HZ I         951 25.59         7.0 0.08            144           81.2 213 
 ZAR  HZ EP   1    951 18.39                             116    0.03 7  188 316 
 ZAR  HN ES        951 40.51                             116   -0.28 9  188 316 
 ZAR  HZ I         951 44.27         3.6 0.34            119            188 316 
                                                                                
