 2016 1225 0931 55.8 L   6.781 -73.187147.4  RSN  7 0.4 1.3LRSN                1
 GAP=231        0.92       4.9     5.9  6.1  0.1600E+02  0.8084E+01  0.5247E+01E
 Epicentro: LOS SANTOS - SANTANDER                                             3
 ACTION:UPD 17-01-11 20:18 OP:rebc STATUS:               ID:20161225093155 L   I
 OLDACT:REG 16-12-25 13:32 OP:cog  STATUS:               ID:20161225092742     3
 2016-12-25-0928-00M.COL___366                                                 6
 STAT SP IPHASW D HRMM SECON CODA AMPLIT PERI AZIMU VELO AIN AR TRES W  DIS CAZ7
 BAR2 EZ EP        932 15.44                             172   -0.1910 20.9 178 
 BAR2 EZ ES        932 30.98                             172   -0.0710 20.9 178 
 BAR2 EZ I         932 32.85         4.0 0.28            169           20.9 178 
 BRR  HZ EP        932 17.23                             154    0.2210 68.3 302 
 BRR  HE ES        932 34.00                             154    0.4810 68.3 302 
 BRR  HZ I         932 34.59         3.2 0.12            152           68.3 302 
 RUS  HZ EP        932 19.92                             145    0.2810 98.9 173 
 RUS  HE ES        932 37.78                             145   -0.4210 98.9 173 
 RUS  HZ I         932 39.88         3.3 0.42            144           98.9 173 
 PTB  HZ EP        932 22.24                             133   -0.27 9  143 259 
 PTB  HE ES        932 42.83                             133   -0.47 9  143 259 
 PTB  HZ I         932 44.72         2.3 0.28            132            143 259 
 ZAR  HZ EP        932 27.49                             123   -0.55 9  201 293 
 ZAR  HE ES        932 53.52                             123    0.36 9  201 293 
 ZAR  HZ I         932 59.05         1.9 0.60            123            201 293 
 CHI  HZ EP        932 33.52                             118    0.23 8  245 194 
 CHI  HE ES        933  3.04                             118    0.55 8  245 194 
 CHI  HZ I         933  6.37         0.7 0.42            118            245 194 
 GUY2CHZ EP   4    932 40.40                             113    1.43 0  296 235 
 GUY2CHN ES   4    933 15.09                             113    2.48 0  296 235 
 GUY2CHZ I         933 21.13         1.2 0.58                           296 235 
                                                                                
