 2013  825 0720 53.1 L   6.792 -73.153147.0  RSN  6 0.5 1.3LRSN                1
 GAP=136        1.32       6.2     6.6  9.0 -0.1031E+02  0.7843E+01  0.6027E+01E
 Epicentro: LOS SANTOS - SANTANDER                                             3
 ACTION:UPD 14-01-14 09:06 OP:ep   STATUS:               ID:20130825072053 L   I
 OLDACT:UP  13-08-25 11:12 OP:stll STATUS:               ID:20130825071851d    3
 OLDACT:DUP 13-08-25 11:02 OP:stll STATUS:               ID:20130825071851d    3
 2013-08-25-0718-50M.COL___232                                                 6
 STAT SP IPHASW D HRMM SECON CODA AMPLIT PERI AZIMU VELO AIN AR TRES W  DIS CAZ7
 BAR2 SZ EP        721 13.00                             171    0.1010 22.3 188 
 BAR2 SZ ES        721 28.59                             171    0.2810 22.3 188 
 BAR2 SZ I         721 30.18         4.2 0.20            168           22.3 188 
 BRR  HZ EP        721 14.93                             153    0.5310 70.9 299 
 BRR  HN ES        721 31.75                             153    0.7610 70.9 299 
 BRR  HZ I         721 32.72         2.6 0.30            151           70.9 299 
 PAM  SZ EP        721 15.86                             151    0.3010 78.6  40 
 PAM  SZ I         721 15.98         4.9 0.20            156           78.6  40 
 PAM  SN ES        721 32.16                             151   -0.8910 78.6  40 
 RUS  HZ EP        721 17.13                             144    0.1810 99.8 176 
 RUS  HN ES        721 35.31                             144   -0.2210 99.8 176 
 RUS  HZ I         721 36.56         2.5 0.22            144           99.8 176 
 PTB  HZ EP        721 19.61                             132   -0.51 9  147 259 
 PTB  HN ES        721 40.27                             132   -0.89 9  147 259 
 PTB  HZ I         721 47.66         2.5 0.30            131            147 259 
 SPBC HZ EP        721 21.54                             129   -0.08 9  162 219 
 SPBC HN ES        721 44.13                             129    0.30 9  162 219 
 SPBC HZ I         721 50.86         2.8 0.28            129            162 219 
                                                                                
