 2015  925 0858  5.0 L   6.735 -73.092149.8  RSN  6 0.4 1.6LRSN                1
 GAP=221        0.97       4.4     6.6  6.7 -0.8138E+01  0.4387E+01 -0.2901E+01E
 Epicentro: JORDAN - SANTANDER                                                 3
 ACTION:UPD 15-10-28 16:28 OP:cam  STATUS:               ID:20150925085805 L   I
 OLDACT:UP  15-09-25 18:18 OP:mh   STATUS:               ID:20150925085548     3
 OLDACT:REG 15-09-25 18:08 OP:mh   STATUS:               ID:20150925085548     3
 2015-09-25-0855-48M.COL___349                                                 6
 STAT SP IPHASW D HRMM SECON CODA AMPLIT PERI AZIMU VELO AIN AR TRES W  DIS CAZ7
 BAR2 EZ ES        858 40.45                             173   -0.1910 18.7 212 
 BAR2 EZ I         858 43.60         5.1 0.19            168           18.7 212 
 BRR  HZ EP        858 27.25                             150    0.1810 79.9 301 
 BRR  HN ES        858 44.51                             150    0.2110 79.9 301 
 BRR  HZ I         858 49.24         5.2 0.26            147           79.9 301 
 PTB  HZ EP        858 32.27                             132   -0.43 9  152 262 
 PTB  HN ES        858 53.69                             132   -0.63 9  152 262 
 PTB  HZ I         858 59.01         4.0 0.22            131            152 262 
 SPBC HZ EP        858 33.46                             130   -0.19 9  162 222 
 SPBC HN ES        858 56.66                             130    0.66 9  162 222 
 SPBC HZ I         859  1.19         6.1 0.12            131            162 222 
 OCA  HZ EP     C  858 34.02                             129   -0.33 9  168 351 
 OCA  HN ES        858 57.43                             129    0.18 9  168 351 
 OCA  HZ I         858 59.74        10.0 0.20            131            168 351 
 ZAR  HZ EP        858 39.18                             122    0.64 8  212 293 
 ZAR  HN ES        859  4.71                             122   -0.00 8  212 293 
 ZAR  HZ I         859 13.22         3.3 0.48            123            212 293 
                                                                                
