 2011 1125 0352 42.2 L   6.740 -73.073143.5  RSN  4 0.2 1.6LRSN                1
 GAP=149        0.56       3.9     5.5  6.9 -0.7871E+00 -0.1373E+01  0.8782E+00E
 Epicentro: JORDAN - SANTANDER                                                 3
 ACTION:UPD 12-07-13 16:12 OP:ep   STATUS:               ID:20111125035242 L   I
 2011-11-25-0350-11S.COL___178                                                 6
 STAT SP IPHASW D HRMM SECON CODA AMPLIT PERI AZIMU VELO AIN AR TRES W  DIS CAZ7
 BAR2 SZ EP   1    353  1.65                             172    0.10 7 20.4 217 
 BAR2 SZ I         353 18.35         8.8 0.21                          20.4 217 
 PAM  SZ EP        353  4.47                             150    0.2110 78.0  32 
 PAM  SE ES   1    353 21.21                             150   -0.22 7 78.0  32 
 BRR  HZ EP        353  3.43                             149   -0.3410 81.5 300 
 BRR  HZ I         353  3.71        19.5 0.16                          81.5 300 
 BRR  HN ES   1    353 20.87                             149    0.31 7 81.5 300 
 RUS  HZ EP   1    353  5.42                             145    0.13 7 93.7 181 
 RUS  HN ES   1    353 23.17                             145   -0.09 7 93.7 181 
 RUS  HZ I         353 25.43         3.2 0.31                          93.7 181 
                                                                                
