 2011  925 0203 43.1 L   6.758 -73.117140.4  RSN  7 0.1 1.6LRSN                1
 GAP=142        0.34       1.9     2.3  2.9  0.6801E+00 -0.2852E+00 -0.7129E+00E
 Epicentro: LOS SANTOS - SANTANDER                                             3
 ACTION:UPD 12-07-13 15:59 OP:ep   STATUS:               ID:20110925020343 L   I
 2011-09-25-0200-25S.COL___165                                                 6
 STAT SP IPHASW D HRMM SECON CODA AMPLIT PERI AZIMU VELO AIN AR TRES W  DIS CAZ7
 BAR2 SZ EP        2 4  1.87                             172   -0.1410 19.7 202 
 BAR2 SZ ES   1    2 4 16.87                             172    0.10 7 19.7 202 
 BAR2 SZ I         2 4 17.94        10.2 0.28                          19.7 202 
 BTL  SZ EP   1    2 4  2.35                             170    0.24 7 24.3 317 
 BRR  HZ EP        2 4  4.09                             150    0.1210 76.3 300 
 BRR  HE ES        2 4 20.25                             150   -0.0110 76.3 300 
 BRR  HZ I         2 4 22.42         9.9 0.07                          76.3 300 
 PAM  SZ EP   1    2 4  4.91                             149    0.06 7 79.1  36 
 PAM  SE ES   1    2 4 21.75                             149   -0.07 7 79.1  36 
 PAM  SZ I         2 4 24.36         3.7 0.35                          79.1  36 
 RUS  HZ EP   1    2 4  6.06                             144    0.09 7 95.8 178 
 RUS  HN ES   2    2 4 23.54                             144   -0.28 5 95.8 178 
 RUS  HZ I         2 4 26.27         3.9 0.37                          95.8 178 
 OCA  SZ EP        2 4 11.36                             127   -0.12 9  165 352 
 OCA  SZ ES   1    2 4 33.64                             127    0.03 7  165 352 
 OCA  SZ I         2 4 37.71         6.1 0.36                           165 352 
 ZAR  HN ES   1    2 4 40.99                             120   -0.13 6  209 293 
 ZAR  HZ I         2 4 47.46         5.1 0.50                           209 293 
                                                                                
