 2017 1125 0344 48.3 L   6.621 -73.439117.7  RSN 36 0.8 2.9LRSN                1
 GAP= 45        1.70       2.8     3.2  6.9 -0.1823E+01  0.6277E+01 -0.1695E+01E
 Epicentro: EL CARMEN - SANTANDER                                              3
 ACTION:UPD 17-12-12 19:59 OP:rebc STATUS:               ID:20171125034448 L   I
 OLDACT:UP  17-11-25 15:52 OP:oscs STATUS:               ID:20171125033739     3
 OLDACT:REG 17-11-25 13:15 OP:osc  STATUS:               ID:20171125033739     3
 2017-11-25-0338-00M.COL___488                                                 6
 STAT SP IPHASW D HRMM SECON CODA AMPLIT PERI AZIMU VELO AIN AR TRES W  DIS CAZ7
 BAR2 EZ EP     D  345  4.85                             165    0.1110 28.6  96 
 BAR2 EZ ES        345 17.81                             165    0.2710 28.6  96 
 BAR2 EZ I         345 18.95       359.9 0.14            168           28.6  96 
 RUS  HZ IP     D  345  8.12                             140   -0.4410 89.6 154 
 RUS  HN ES        345 24.06                             140   -0.2810 89.6 154 
 RUS  HZ I         345 26.71       117.7 0.26            142           89.6 154 
 PTB  HZ IP     D  345  8.69                             133   -1.1510  113 265 
 PTB  HN ES        345 24.59                             133   -2.0410  113 265 
 PTB  HZ I         345 28.70       110.8 0.10            133            113 265 
 PAM  EZ EP        345 10.93                             132    0.3410  114  46 
 PAM  EE ES        345 28.44                             132    0.4810  114  46 
 PAM  EZ I         345 30.32        98.9 0.18            135            114  46 
 SPBC HZ EP     D  345 10.87                             129   -0.4710  128 213 
 SPBC HN ES        345 28.52                             129   -0.7710  128 213 
 SPBC HZ I         345 35.18       187.6 0.10            130            128 213 
 OCA  HZ EP        345 16.90                             118    0.27 9  179   4 
 OCA  HE ES        345 40.08                             118    1.37 9  179   4 
 OCA  HZ I         345 45.14       232.1 0.32            120            179   4 
 YPLC HZ IP     C  345 16.35                             118   -0.14 9  179 139 
 YPLC HN ES        345 38.83                             118    0.37 9  179 139 
 YPLC HZ I         345 40.22       297.8 0.30            121            179 139 
 TAM  HZ EP        345 16.71                             118   -0.20 9  183  96 
 TAM  HN ES        345 38.89                             118   -0.32 9  183  96 
 TAM  HZ I         345 46.20        58.1 0.26            120            183  96 
 ZAR  HZ EP        345 17.34                             118    0.41 9  184 302 
 ZAR  HN ES        345 39.79                             118    0.54 9  184 302 
 ZAR  HZ I         345 46.30       115.7 0.33            119            184 302 
 TABC EZ EP        345 19.77                             116    0.83 9  197 206 
 TABC EZ ES        345 44.12                             116    1.31 9  197 206 
 TABC EZ I         345 48.87        71.2 0.40            117            197 206 
 NOR  HZ EP        345 17.54                             116   -0.84 9  197 234 
 NOR  HN ES        345 40.62                             116   -1.19 9  197 234 
 NOR  HZ I         345 43.69        80.6 0.28            117            197 234 
 ROSC BZ EP        345 22.48                             113    1.13 8  220 206 
 ROSC BN ES        345 47.31                             113    0.21 8  220 206 
 ROSC BZ I         345 55.85        59.9 0.45            115            220 206 
 CHI  HZ EP        345 21.52                             113   -0.17 8  223 188 
 CHI  HE ES        345 47.88                             113    0.17 8  223 188 
 CHI  HZ I         345 51.16        37.2 0.44            114            223 188 
 HEL  HZ EP        345 22.98                             111   -0.17 8  236 258 
 HEL  HE ES        345 49.97                             111   -0.33 8  236 258 
 HEL  HZ I         345 54.88        51.8 0.36            112            236 258 
 URE  HZ EP   9    345 24.49                             109   -1.28 0  263 299 
 URE  HN ES        345 53.61                             109   -0.08 8  263 299 
 URE  HZ I         346  2.17        55.4 0.18            110            263 299 
 GUY2CHZ EP        345 26.71                             109    0.32 8  263 234 
 GUY2CHN ES        345 57.68                             109    1.59 8  263 234 
 GUY2CHZ I         346  3.83        47.7 0.30                           263 234 
 VIL  EZ EP        345 27.47                             107   -0.29 7  279 186 
 VIL  EN ES        345 58.05                             107   -0.47 7  279 186 
 VIL  EZ I         346  6.36        68.1 0.34            109            279 186 
 RECRCHE ES   4    346  0.79                             107    1.02 0  280 229 
 ELA  HZ EP   4    345 30.92                             107    1.17 0  292 228 
 ELA  HE ES        346  1.84                             107   -0.22 7  292 228 
 ELA  HZ I         346 13.16        47.6 0.54            108            292 228 
 CBOC HZ EP        345 30.11                             106    0.21 7  297 254 
 CBOC HN ES        346  1.98                             106   -0.35 7  297 254 
 CBOC HZ I         346 11.48        18.0 0.42            107            297 254 
 PTGC HZ EP   4    345 29.02                             105   -1.56 0  304 152 
 PTGC HN ES   4    346  1.14                             105   -2.39 0  304 152 
 PTGC HZ I         346  4.70        27.0 0.42            107            304 152 
 DRL03HZ EP        345 31.72                             105    0.91 7  306 359 
 DRL03HE ES        346  3.44                             105   -0.51 7  306 359 
 DBB  HZ EP        345 31.24                             105   -0.03 7  309 278 
 DBB  HN ES        346  4.47                             105   -0.29 7  309 278 
 DBB  HZ I         346  6.99        33.3 0.18            106            309 278 
 ANIL HZ EP        345 33.46                             105    0.61 7  321 223 
 ANIL HE ES        346  9.37                             105    1.79 7  321 223 
 ANIL HZ I         346 13.18        87.9 0.56            106            321 223 
 PRA  HZ EP        345 36.64                             102   -0.47 6  359 207 
 PRA  HN ES        346 13.87                             102   -1.29 6  359 207 
 PRA  HZ I         346 21.86        29.9 0.26            103            359 207 
 ORTC HZ EP        345 37.26                             102   -0.01 6  361 214 
 ORTC HE ES        346 16.57                             102    1.13 6  361 214 
 ORTC HZ I         346 19.10        21.7 0.28            103            361 214 
 PAL  HZ EP        345 37.91                             102   -0.24 6  368 239 
 PAL  HN ES        346 17.56                             102    0.55 6  368 239 
 PAL  HZ I         346 19.24        15.3 0.18            103            368 239 
 ARGC HZ EP        345 38.41                             102    0.20 6  369 346 
 ARGC HN ES        346 18.91                             102    1.79 6  369 346 
 ARGC HZ I         346 29.18        19.8 0.32            103            369 346 
 APAC HZ EP   4    345 31.57                             102   -7.31 0  375 292 
 APAC HN ES        346 19.65                             102    1.33 6  375 292 
 APAC HZ I         346 22.39        29.9 0.46            103            375 292 
 SDV  BZ EP        345 41.49                             100   -0.46 6  398  51 
 SDV  B1 ES   4    346 22.33                             100   -1.44 0  398  51 
 SDV  BZ I         346 25.69        16.3 0.45            102            398  51 
 SJC  HZ EP   4    345 41.69                             100   -1.50 0  410 332 
 SJC  HE ES   4    346 23.48                             100   -2.50 0  410 332 
 SJC  HZ I         346 26.08        15.6 0.30            101            410 332 
 YOT  HZ EP        345 45.36                              99   -0.86 5  434 228 
 CAP2 HZ EP   4    345 50.20                              97   -2.22 0  487 298 
 CAP2 HN ES   4    346 36.85                              97   -5.56 0  487 298 
 CAP2 HZ I         346 42.01        12.6 0.50             98            487 298 
 CRJC HZ EP        345 52.04                              97   -0.89 4  490   7 
 CRJC HE ES        346 42.30                              97   -1.01 4  490   7 
 CRJC HZ I         346 47.50        20.6 0.28             98            490   7 
 MACC HZ EP   4    346 36.33                              97   42.71 0  497 185 
 MACC HN ES   4    347 24.44                              97   39.89 0  497 185 
 MARO HE ES        346 46.41                              97    0.11 4  502 214 
 SMAR HZ EP        345 54.39                              97   -0.77 4  510 350 
 SMAR HE ES        346 45.25                              97   -2.03 4  510 350 
 URI  HZ EP        346  3.39                              95   -0.75 3  584  16 
 URI  HE ES        347  1.06                              95   -2.21 3  584  16 
 URI  HZ I         347 23.89         3.9 0.40             96            584  16 
                                                                                
