 2013  525 0919 40.1 L   6.794 -73.180151.4  RSN  6 0.3 1.2LRSN                1
 GAP=176        0.69       5.4     4.5  5.6  0.8080E+01  0.5345E+01  0.1293E+01E
 Epicentro: LOS SANTOS - SANTANDER                                             3
 ACTION:UPD 13-06-20 09:53 OP:ep   STATUS:               ID:20130525091941dL   I
 2013-05-25-0918-49M.COL___211                                                 6
 STAT SP IPHASW D HRMM SECON CODA AMPLIT PERI AZIMU VELO AIN AR TRES W  DIS CAZ7
 BAR2 SZ EP        920  0.21                             171   -0.1410 22.4 181 
 BAR2 SZ ES        920 15.84                             171   -0.3410 22.4 181 
 BAR2 SZ I         920 16.89         7.3 0.22            169           22.4 181 
 GIR2 SZ EP   1    920  0.60                             168    0.19 7 31.5 357 
 GIR2 SZ ES   1    920 16.02                             168   -0.26 7 31.5 357 
 BRR  HZ EP        920  1.70                             154    0.0410 68.2 301 
 BRR  HN ES   1    920 19.32                             154    0.81 7 68.2 301 
 RUS  HZ EP   1    920  4.49                             145    0.14 7  100 174 
 RUS  HE ES   1    920 23.57                             145    0.27 7  100 174 
 RUS  HZ I         920 24.56         1.1 0.68            144            100 174 
 PTB  HZ EP        920  7.10                             134   -0.05 9  144 259 
 PTB  HN ES        920 28.25                             134   -0.03 9  144 259 
 PTB  HZ I         920 30.52         2.5 0.18            133            144 259 
 ZAR  HN ES   1    920 37.52                             124   -0.36 6  201 293 
                                                                                
