 2017 1225 0308 27.3 L   6.322 -73.742104.2  RSN 12 0.5 1.8LRSN                1
 GAP= 82        1.11       3.1     2.7  6.4 -0.1205E+01 -0.8311E-02 -0.4343E+01E
 Epicentro: LANDAZURI - SANTANDER                                              3
 ACTION:UPD 18-01-04 13:24 OP:rebc STATUS:               ID:20171225030827 L   I
 OLDACT:REG 17-12-25 12:14 OP:osc  STATUS:               ID:20171225030255     3
 2017-12-25-0308-00M.COL___472                                                 6
 STAT SP IPHASW D HRMM SECON CODA AMPLIT PERI AZIMU VELO AIN AR TRES W  DIS CAZ7
 BAR2 EZ EP        3 8 44.26                             144   -0.0310 68.7  64 
 BAR2 EZ ES        3 8 57.49                             144   -0.0710 68.7  64 
 PTB  HZ EP        3 8 44.38                             138   -0.6610 82.6 287 
 PTB  HN ES        3 8 58.00                             138   -0.8910 82.6 287 
 PTB  HZ I         3 8 58.85         7.0 0.28            133           82.6 287 
 SPBC HZ EP        3 8 44.86                             138   -0.2810 82.6 206 
 SPBC HN ES        3 8 59.91                             138    0.8410 82.6 206 
 SPBC HZ I         3 9  2.56        18.7 0.22            129           82.6 206 
 NOR  HZ EP        3 8 51.78                             120    0.22 9  150 236 
 NOR  HN ES        3 9 10.73                             120    0.23 9  150 236 
 PAM  EZ EP        3 8 53.44                             118    0.17 9  161  46 
 PAM  EN ES        3 9 13.32                             118   -0.21 9  161  46 
 PAM  EZ I         3 9 14.41         6.5 0.14            112            161  46 
 ZAR  HZ EP        3 8 55.08                             115    0.50 9  179 316 
 ZAR  HN ES   2    3 9 17.14                             115    1.27 4  179 316 
 ZAR  HZ I         3 9 21.06        14.0 0.26            110            179 316 
 YPLC HZ EP        3 8 54.60                             114   -0.45 9  182 124 
 YPLC HE ES        3 9 17.03                             114    0.32 9  182 124 
 YPLC HZ I         3 9 24.24         4.1 0.34            108            182 124 
 TAM  HZ EP        3 8 58.44                             110   -0.40 8  216  87 
 TAM  HZ I         3 9 23.98         6.5 0.28            105            216  87 
 OCA  HZ EP        3 8 59.19                             110    0.10 8  217  12 
 OCA  HE ES        3 9 24.42                             110    0.53 8  217  12 
 OCA  HZ I         3 9 31.15        12.8 0.20            106            217  12 
 GUY2CHZ EP        3 8 59.56                             110    0.09 8  217 236 
 GUY2CHE ES   4    3 9 27.15                             110    2.58 0  217 236 
 GUY2CHZ I         3 9 36.39         3.0 0.58                           217 236 
 URE  HZ EP        3 9  2.53                             106   -0.58 8  253 309 
 URE  HN ES        3 9 31.24                             106    0.19 8  253 309 
 URE  HZ I         3 9 31.84         6.7 0.20            103            253 309 
 DRL03HZ EP        3 9 13.84                             100    0.37 7  341   5 
 DRL03HE ES   3    3 9 51.32                             100    1.82 2  341   5 
                                                                                
