 2012  725 0851 20.0 L   6.605 -73.606102.0  RSN  5 0.3 1.3LRSN                1
 GAP=122        0.47       5.9     5.2  7.7 -0.5726E+01  0.8843E+01  0.1764E+02E
 Epicentro: EL CARMEN DE CHUCURI - SANTANDER                                   3
 ACTION:UPD 12-08-14 11:45 OP:ep   STATUS:               ID:20120725085120 L   I
 2012-07-25-0850-00M.COL___215                                                 6
 STAT SP IPHASW D HRMM SECON CODA AMPLIT PERI AZIMU VELO AIN AR TRES W  DIS CAZ7
 BAR2 SZ ES   3    851 47.58                             154     0.2 2   47  92 
 BAR2 SZ I         851 48.77         6.0 0.10            172             47  92 
 BRR  HZ EP        851 35.50                             149    -0.110   57 348 
 BRR  HZ I         851 35.93         8.6 0.30            149             57 348 
 BRR  HN ES   1    851 47.86                             149     0.1 7   57 348 
 PTB  HZ EP        851 38.50                             134     0.010   94 266 
 PTB  HN ES   2    851 52.95                             134    -0.1 5   94 266 
 PTB  HZ I         851 59.56         3.5 0.26            133             94 266 
 RUS  HN ES   3    851 55.34                             133     0.6 2   98 144 
 ZAR  HZ EP   3    851 46.88                             116     0.7 2  170 305 
 ZAR  HN ES   3    852  7.57                             116     1.0 2  170 305 
 ZAR  HZ I         852 14.48         2.3 0.60            119            170 305 
