 2010  425 0653 46.3 L   6.701 -73.015147.7  RSN  7 0.3 1.9LRSN                1
 GAP=200        0.60       5.1     8.3  7.6 -0.2609E+02 -0.3348E+02  0.1507E+02E
 Epicentro: ARATOCA - SANTANDER                                                3
 ACTION:UPD 10-08-24 10:01 OP:vdl  STATUS:               ID:20100425065354 L   I
 2010-04-25-0651-18S.COL___104                                                 6
 STAT SP IPHASW D HRMM SECON CODA AMPLIT PERI AZIMU VELO AIN AR TRES W  DIS CAZ7
 BAR2 SZ EP   2    654  6.52                             171     0.4 5   22 237 
 BAR2 SZ ES   2    654 21.66                             171     0.0 5   22 237 
 BRR  HZ IP     C  654  8.89                             148     0.110   89 300 
 BRR  HZ I         654  9.23        17.0 0.12                            89 300 
 BRR  HN ES   1    654 26.22                             148    -0.1 7   89 300 
 BRI  SZ IP        654 11.08                             141     0.210  115  12 
 GUE  SZ IP        654 11.52                             138    -0.410  125   5 
 GRA  SZ IP        654 12.32                             136     0.010  133  10 
 OCA  SZ EP   2    654 16.15                             128     0.1 4  173 349 
 OCA  SZ ES   2    654 39.49                             128     0.3 4  173 349 
 OCA  SZ I         654 42.07         8.4 0.23                           173 349 
 PRA  HZ EP   1    654 40.27                             107     0.6 4  390 212 
 PRA  HN ES   1    655 20.73                             107    -0.6 4  390 212 
 PRA  HZ I         655 28.20         2.2 0.70                           390 212 
                                                                                
