 2017  225 0151 39.2 L   6.747 -73.147148.4  RSN  9 0.5 1.6LRSN                1
 GAP= 95        1.10       5.0     4.4  6.5 -0.2904E+01  0.2017E+01  0.4632E+01E
 Epicentro: LOS SANTOS - SANTANDER                                             3
 ACTION:UPD 17-05-24 15:40 OP:jn   STATUS:               ID:20170225015139 L   I
 OLDACT:UP  17-02-25 15:28 OP:dani STATUS:               ID:20170225014742     3
 OLDACT:UP  17-02-25 15:28 OP:dani STATUS:               ID:20170225014742     3
 OLDACT:REG 17-02-25 12:20 OP:dani STATUS:               ID:20170225014742     3
 2017-02-25-0148-00M.COL___385                                                 6
 STAT SP IPHASW D HRMM SECON CODA AMPLIT PERI AZIMU VELO AIN AR TRES W  DIS CAZ7
 BAR2 EZ EP        151 58.99                             173   -0.0610 17.6 193 
 BAR2 EZ ES        152 14.16                             173   -0.3710 17.6 193 
 BAR2 EZ I         152 15.14        10.5 0.17            173           17.6 193 
 BRR  HZ EP     D  152  1.18                             152    0.3810 74.0 303 
 BRR  HE ES        152 18.37                             152    0.7310 74.0 303 
 BRR  HZ I         152 22.81         7.9 0.14            149           74.0 303 
 PAM  EZ EP     D  152  2.18                             150    0.2010 82.1  37 
 PAM  EE ES        152 19.24                             150   -0.5110 82.1  37 
 PAM  EZ I         152 21.49         6.9 0.48            151           82.1  37 
 RUS  HZ EP        152  3.00                             146    0.1910 94.8 176 
 RUS  HE ES        152 21.48                             146    0.2610 94.8 176 
 RUS  HZ I         152 22.50         7.2 0.28            150           94.8 176 
 PTB  HZ EP        152  5.60                             133   -0.68 9  147 261 
 PTB  HN ES        152 26.79                             133   -0.61 9  147 261 
 PTB  HZ I         152 33.38         3.6 0.36            132            147 261 
 TAM  HZ EP     D  152  7.40                             131    0.42 9  154 103 
 ZAR  HZ EP        152 12.01                             123   -0.03 8  206 294 
 ZAR  HN ES   3    152 38.79                             123    1.14 2  206 294 
 ZAR  HZ I         152 43.76         6.0 0.22            122            206 294 
 NOR  HN ES        152 42.74                             119    0.32 8  231 236 
 CHI  HZ EP        152 15.83                             118   -0.61 8  243 195 
 CHI  HN ES   3    152 47.51                             118    2.03 2  243 195 
                                                                                
