 2011  325 0709 24.4 L   6.810 -73.089146.6  RSN  4 0.3 1.6LRSN                1
 GAP=189        0.58       5.2     9.3  8.0 -0.9665E+01 -0.1155E+02 -0.9495E+01E
 Epicentro: LOS SANTOS - SANTANDER                                             3
 ACTION:UP  11-06-16 14:35 OP:jfem STATUS:               ID:20110325070924 L   I
 2011-03-25-0705-25S.COL___120                                                 6
 STAT SP IPHASW D HRMM SECON CODA AMPLIT PERI AZIMU VELO SNR AR TRES W  DIS CAZ7
 BAR2 SZ EP        7 9 43.99                             170    -0.210   26 203 
 BAR2 SZ I         7 9 46.15         6.1 0.61                            26 203 
 BAR2 SZ ES   2    7 9 59.85                             170     0.2 5   26 203 
 BRR  HZ EP        7 9 45.80                             151    -0.110   76 296 
 BRR  HZ I         7 9 51.35         6.8 0.06                            76 296 
 BRR  HN ES   2    710  3.03                             151     0.3 5   76 296 
 GRA  SZ EP   1    7 9 49.67                             138     0.2 7  123  15 
 GRA  SZ ES   2    710  9.06                             138     0.0 5  123  15 
 GRA  SZ I         710 12.19         4.9 0.39                           123  15 
 OCA  SZ EP        7 9 52.94                             130     0.2 9  160 351 
 OCA  SZ ES   2    710 14.24                             130    -0.6 5  160 351 
 OCA  SZ I         710 20.26         6.3 0.33                           160 351 
                                                                                
