 2017  125 0504  7.2 L   6.576 -73.342134.5  RSN  5 0.1 0.8LRSN                1
 GAP=109        0.44       2.6     2.4  3.3  0.1570E+01  0.6703E-01 -0.8660E+00E
 Epicentro: HATO - SANTANDER                                                   3
 ACTION:UPD 17-05-22 16:03 OP:jn   STATUS:               ID:20170125050407 L   I
 OLDACT:DUP 17-01-25 15:18 OP:lv   STATUS:               ID:20170125045644d    3
 2017-01-25-0457-00M.COL___355                                                 6
 STAT SP IPHASW D HRMM SECON CODA AMPLIT PERI AZIMU VELO AIN AR TRES W  DIS CAZ7
 BAR2 EZ EP        5 4 25.37                             172    0.0110 17.8  84 
 BAR2 EZ ES        5 4 39.40                             172   -0.1310 17.8  84 
 BAR2 EZ I         5 4 41.74         1.9 0.17            173           17.8  84 
 BRR  HZ EP        5 4 27.42                             150    0.2610 71.6 325 
 BRR  HN ES        5 4 42.79                             150    0.0610 71.6 325 
 RUS  HZ EP        5 4 28.56                             147    0.1110 80.8 159 
 RUS  HN ES        5 4 45.06                             147    0.0410 80.8 159 
 RUS  HZ I         5 4 46.54         1.2 0.32            148           80.8 159 
 PAM  EZ EP        5 4 30.50                             139   -0.1210  110  40 
 PTB  HZ EP        5 4 30.80                             135   -0.2510  123 268 
 PTB  HE ES        5 4 49.67                             135    0.0210  123 268 
 PTB  HZ I         5 4 50.68         0.8 0.16            137            123 268 
                                                                                
