 2016 1225 0724 53.4 L   6.739 -73.179137.5  RSN  5 0.3 0.9LRSN                1
 GAP=229        0.77       5.7     5.3  6.2  0.1889E+02  0.6174E+01  0.1121E+01E
 Epicentro: VILLANUEVA - SANTANDER                                             3
 ACTION:UPD 17-01-11 20:18 OP:rebc STATUS:               ID:20161225072453 L   I
 OLDACT:DUP 16-12-25 16:22 OP:cog  STATUS:               ID:20161225071746d    3
 2016-12-25-0718-00M.COL___369                                                 6
 STAT SP IPHASW D HRMM SECON CODA AMPLIT PERI AZIMU VELO AIN AR TRES W  DIS CAZ7
 BAR2 EZ EP        725 11.78                             173   -0.1810 16.2 181 
 BAR2 EZ ES        725 25.97                             173   -0.4210 16.2 181 
 BAR2 EZ I         725 28.08         3.7 0.54            172           16.2 181 
 BRR  HZ EP        725 14.24                             151    0.5110 71.6 305 
 BRR  HN ES        725 29.76                             151    0.2010 71.6 305 
 BRR  HZ I         725 33.74         1.7 0.22            150           71.6 305 
 RUS  HZ EP        725 15.82                             144   -0.1010 94.2 174 
 RUS  HN ES        725 33.78                             144    0.3210 94.2 174 
 RUS  HZ I         725 35.05         0.5 0.52            147           94.2 174 
 PTB  HZ EP        725 19.05                             131   -0.26 9  143 261 
 PTB  HN ES        725 39.54                             131    0.06 9  143 261 
 PTB  HZ I         725 43.35         1.2 0.62            131            143 261 
 ZAR  HE ES        725 49.92                             121   -0.21 9  203 294 
 ZAR  HZ I         725 54.32         1.4 0.24            122            203 294 
                                                                                
