 2012  325 0817  4.0 L   6.763 -73.099150.0  RSN  5 0.2 1.2LRSN                1
 GAP=144        0.46       5.3     5.3  6.6  0.1379E+01  0.1188E+02  0.5248E+01E
 ACTION:UP  12-03-31 23:22 OP:EP   STATUS:               ID:20120325081704 L   I
 2012-03-25-0810-00M.COL___196                                                 6
 STAT SP IPHASW D HRMM SECON CODA AMPLIT PERI AZIMU VELO SNR AR TRES W  DIS CAZ7
 BAR2 SZ EP   2    817 24.21                             172     0.1 5   21 206 
 BAR2 SZ ES   2    817 39.39                             172    -0.4 5   21 206 
 PAM  SN ES   2    817 44.27                             151    -0.1 5   78  35 
 BRR  HZ EP   2    817 26.37                             151     0.4 5   78 299 
 BRR  HZ I         817 26.78         5.4 0.08                            78 299 
 BRR  HE ES   2    817 43.47                             151     0.3 5   78 299 
 RUS  HZ EP   2    817 27.85                             146    -0.1 5   96 179 
 RUS  HE ES   2    817 46.83                             146     0.3 5   96 179 
 RUS  HZ I         817 47.56         1.2 0.41                            96 179 
 PTB  HZ EP   1    817 31.56                             132    -0.2 7  152 261 
 PTB  HN ES   2    817 53.24                             132    -0.1 5  152 261 
 PTB  HZ I         817 57.22         1.5 0.29                           152 261 
                                                                                
