 2013  725 0901 14.9 L   5.921 -73.839105.8  RSN  4 0.1 1.2LRSN                1
 GAP=223        0.36       4.4     2.0  5.0  0.3837E+01  0.2499E+01  0.8349E+01E
 Epicentro: SUCRE - SANTANDER                                                  3
 ACTION:UPD 13-08-12 10:40 OP:ep   STATUS:               ID:20130725090114 L   I
 OLDACT:REG 13-07-25 10:21 OP:cam  STATUS:               ID:20130725085959     3
 2013-07-25-0859-59M.COL___267                                                 6
 STAT SP IPHASW D HRMM SECON CODA AMPLIT PERI AZIMU VELO AIN AR TRES W  DIS CAZ7
 RUS  HZ EP   1    9 1 33.67                             139    0.10 7 83.7  92 
 PTB  HZ EP   1    9 1 34.11                             134    0.11 7 96.6 315 
 PTB  HN ES        9 1 48.82                             134   -0.0710 96.6 315 
 PTB  HZ I         9 1 50.18         2.0 0.14            137           96.6 315 
 BAR2 SZ EP   1    9 1 34.90                             132   -0.04 7  104  44 
 BAR2 SZ ES        9 1 50.55                             132   -0.0110  104  44 
 BAR2 SZ I         9 1 52.57         6.0 0.24            134            104  44 
 ZAR  HZ EP   1    9 1 45.21                             112   -0.25 6  207 327 
 ZAR  HE ES   1    9 2  9.49                             112    0.21 6  207 327 
                                                                                
