 2017  925 0319  8.8 L   6.816 -73.123135.5  RSN  5 0.4 1.4LRSN                1
 GAP=139        1.03       5.1     5.4  7.4  0.6086E+01  0.9933E+01 -0.1465E+01E
 Epicentro: LOS SANTOS - SANTANDER                                             3
 ACTION:UPD 17-10-05 19:15 OP:rebc STATUS:               ID:20170925031908 L   I
 OLDACT:UP  17-09-25 15:06 OP:edw  STATUS:               ID:20170925031740     3
 OLDACT:REG 17-09-25 12:51 OP:edw  STATUS:               ID:20170925031740     3
 2017-09-25-0318-00M.COL___411                                                 6
 STAT SP IPHASW D HRMM SECON CODA AMPLIT PERI AZIMU VELO AIN AR TRES W  DIS CAZ7
 BAR2 EZ EP        319 27.23                             169   -0.0210 25.6 195 
 BAR2 EZ ES        319 42.05                             169    0.4110 25.6 195 
 BAR2 EZ I         319 45.01         4.3 0.22            170           25.6 195 
 BRR  HZ EP     D  319 28.95                             150    0.0110 72.6 296 
 BRR  HN ES        319 44.99                             150    0.3510 72.6 296 
 PAM  EZ EP        319 30.07                             150    0.3210 74.4  39 
 PAM  EN ES        319 45.62                             150   -0.4610 74.4  39 
 PAM  EZ I         319 49.73         4.6 0.22            153           74.4  39 
 RUS  HZ EP        319 31.40                             141   -0.2810  102 178 
 RUS  HN ES        319 49.34                             141   -0.1910  102 178 
 RUS  HZ I         319 51.24         4.1 0.24            145            102 178 
 ZAR  HZ EP        319 41.39                             120    0.61 8  206 291 
 ZAR  HN ES        320  4.92                             120   -0.80 8  206 291 
 ZAR  HZ I         320 13.37         4.0 0.30            121            206 291 
                                                                                
