 2012 1125 0544 13.1 L   6.779 -73.158141.6  RSN  6 0.1 1.9LRSN                1
 GAP=158        0.36       2.3     4.3  2.7 -0.5124E+01 -0.1903E+01  0.9388E+00E
 Epicentro: LOS SANTOS - SANTANDER                                             3
 ACTION:UPD 12-12-05 15:36 OP:}ep  STATUS:               ID:20121125054413 L   I
 2012-11-25-0540-00M.COL___233                                                 6
 STAT SP IPHASW D HRMM SECON CODA AMPLIT PERI AZIMU VELO AIN AR TRES W  DIS CAZ7
 BAR2 SZ EP        544 32.01                             171   -0.1310 20.8 187 
 BAR2 SZ ES        544 47.08                             171    0.0610 20.8 187 
 BAR2 SZ I         544 48.42        47.6 0.29                          20.8 187 
 GIR2 SZ EP   1    544 32.22                             166   -0.08 7 33.4 353 
 PAM  SZ EP        544 35.02                             149    0.0210 80.1  39 
 PAM  SZ I         544 35.33        17.0 0.24                          80.1  39 
 PAM  SN ES        544 52.16                             149    0.0510 80.1  39 
 RUS  HZ EP        544 36.13                             144   -0.1110 98.4 175 
 RUS  HE ES        544 54.33                             144    0.0110 98.4 175 
 RUS  HE I         544 56.66        14.3 0.29                          98.4 175 
 TAM  HZ EP        544 40.50                             129    0.02 9  156 104 
 CHI  HZ EP   1    544 50.62                             116    0.37 6  246 195 
 CHI  HZ I         545 25.42         2.1 0.23                           246 195 
                                                                                
