 2016  725 0747 16.0 L   5.752 -73.914109.2  RSN  5 0.3 2.0LRSN                1
 GAP=157        0.83       4.5     3.9  6.7  0.5603E+00  0.3252E+01 -0.1458E+02E
 Epicentro: ALBANIA - SANTANDER                                                3
 ACTION:UPD 17-03-29 16:54 OP:lp   STATUS:               ID:20160725074716 L   I
 OLDACT:DUP 16-07-25 18:12 OP:drio STATUS:               ID:20160725073760d    3
 2016-07-25-0737-59S.COL___331                                                 6
 STAT SP IPHASW D HRMM SECON CODA AMPLIT PERI AZIMU VELO AIN AR TRES W  DIS CAZ7
 SPBC HZ EP        747 31.06                             168    0.0910 20.7 238 
 SPBC HE ES        747 42.70                             168    0.0610 20.7 238 
 SPBC HZ I         747 43.70        78.3 0.16            168           20.7 238 
 RUS  HZ EP        747 35.80                             137    0.0510 93.3  80 
 RUS  HE ES        747 50.94                             137   -0.2210 93.3  80 
 BAR2 EZ EP        747 38.44                             128    0.3210  123  41 
 BAR2 EZ ES        747 54.88                             128   -0.4810  123  41 
 BRR  HZ EP        747 40.82                             121    0.18 9  152   8 
 BRR  HN ES        748  0.47                             121    0.61 9  152   8 
 BRR  HZ I         748  3.40         7.6 0.16            122            152   8 
 ZAR  HZ EP        747 47.60                             111   -0.45 8  219 332 
 ZAR  HN ES        748 12.75                             111   -0.29 8  219 332 
 ZAR  HZ I         748 17.27         6.5 0.22            112            219 332 
                                                                                
