 2016  925 0438 30.7 L   6.825 -73.132146.7  RSN  7 0.4 1.6LRSN                1
 GAP=185        0.96       3.7     5.2  7.1  0.3573E+01  0.5301E+01  0.1285E+01E
 Epicentro: LOS SANTOS - SANTANDER                                             3
 ACTION:UPD 17-08-17 21:16 OP:lp   STATUS:               ID:20160925043830 L   I
 OLDACT:UP  16-09-25 15:09 OP:ar   STATUS:               ID:20160925043744     3
 OLDACT:REG 16-09-25 13:14 OP:ar   STATUS:               ID:20160925043744     3
 2016-09-25-0438-00M.COL___327                                                 6
 STAT SP IPHASW D HRMM SECON CODA AMPLIT PERI AZIMU VELO AIN AR TRES W  DIS CAZ7
 BAR2 EZ EP        438 50.79                             169    0.3010 26.4 192 
 BAR2 EZ ES        439  5.65                             169   -0.2810 26.4 192 
 BAR2 EZ I         439  6.86        10.1 0.22            163           26.4 192 
 BRR  HZ EP        438 52.41                             153    0.4710 71.3 296 
 BRR  HN ES        439  8.91                             153    0.4010 71.3 296 
 BRR  HZ I         439 13.42         7.1 0.34            146           71.3 296 
 RUS  HZ EP        438 54.41                             143   -0.3110  103 177 
 RUS  HN ES        439 13.46                             143   -0.0110  103 177 
 RUS  HZ I         439 14.36         5.4 0.26            144            103 177 
 PTB  HZ EP        438 57.54                             132   -0.37 9  150 258 
 PTB  HE ES        439 18.43                             132   -0.72 9  150 258 
 PTB  HZ I         439 25.21         4.5 0.42            128            150 258 
 OCA  HE ES        439 20.50                             130   -0.27 9  158 352 
 SPBC HZ EP        438 59.62                             129    0.07 9  166 219 
 SPBC HN ES        439 22.54                             129    0.47 9  166 219 
 SPBC HZ I         439 28.66         8.9 0.24            127            166 219 
 ZAR  HZ EP   4    439  7.31                             122    4.08 0  204 291 
 ZAR  HN ES        439 28.83                             122    0.21 9  204 291 
 ZAR  HZ I         439 39.01         4.0 0.24            121            204 291 
                                                                                
