 2013  925 0823 54.1 L   6.817 -73.132137.6  RSN 20 0.6 2.3LRSN                1
 GAP=137        1.25       2.9     4.5  6.2 -0.3734E+01  0.9436E+01 -0.1419E+01E
 Epicentro: LOS SANTOS - SANTANDER                                             3
 ACTION:UPD 13-10-22 09:24 OP:ep   STATUS:               ID:20130925082354 L   I
 OLDACT:REG 13-09-25 08:12 OP:nd   STATUS:               ID:20130925082000     3
 2013-09-25-0820-00M.COL___269                                                 6
 STAT SP IPHASW D HRMM SECON CODA AMPLIT PERI AZIMU VELO AIN AR TRES W  DIS CAZ7
 BAR2 SZ IP     C  824 13.20                             169    0.3710 25.5 193 
 BAR2 SZ ES        824 26.75                             169   -0.6710 25.5 193 
 BAR2 SZ I         824 29.57        32.3 0.38            166           25.5 193 
 BRR  HZ IP     D  824 15.03                             151    0.5910 71.7 297 
 BRR  HN ES   2    824 30.46                             151    0.19 5 71.7 297 
 BRR  HZ I         824 32.75        45.4 0.11            146           71.7 297 
 PAM  SZ EP        824 15.99                             150    0.6510 75.0  40 
 PAM  SN ES        824 32.62                             150    0.7410 75.0  40 
 PAM  SZ I         824 35.16        32.7 0.52            154           75.0  40 
 RUS  HZ EP        824 17.21                             141   -0.0110  102 177 
 RUS  HN ES        824 34.98                             141   -0.2510  102 177 
 RUS  HZ I         824 36.83        17.6 0.24            144            102 177 
 PTB  HZ EP        824 19.78                             130   -0.85 9  150 258 
 PTB  HN ES        824 40.78                             130   -0.51 9  150 258 
 PTB  HZ I         824 47.08        26.6 0.20            128            150 258 
 OCA  HZ EP        824 21.72                             128    0.06 9  159 353 
 OCA  HN ES        824 42.58                             128   -0.56 9  159 353 
 OCA  HZ I         824 47.87        26.3 0.54            129            159 353 
 SPBC HZ EP        824 22.12                             127   -0.13 9  166 219 
 SPBC HE ES        824 44.22                             127    0.03 9  166 219 
 SPBC HZ I         824 51.35        26.0 0.34            126            166 219 
 ZAR  HZ EP        824 25.71                             120   -0.43 9  205 291 
 ZAR  HE ES        824 51.65                             120    0.54 9  205 291 
 ZAR  HZ I         824 57.78        30.5 0.32            119            205 291 
 NOR  HZ EP        824 29.81                             116    0.15 8  237 234 
 NOR  HN ES        824 57.48                             116    0.11 8  237 234 
 NOR  HZ I         825  2.33        13.9 0.16            116            237 234 
 SML  HZ EP        824 29.61                             116   -0.59 8  243 335 
 SML  HN ES        824 57.51                             116   -0.83 8  243 335 
 SML  HZ I         825  7.18        33.6 0.10            116            243 335 
 CHI  HZ EP        824 31.62                             115   -0.01 8  251 195 
 CHI  HN ES   4    825  0.64                             115   -0.25 0  251 195 
 CHI  HZ I         825  8.40         5.7 0.26            116            251 195 
 ROSC BZ EP   4    824 33.48                             115    1.40 0  255 211 
 ROSC BN ES        825  1.75                             115    0.06 8  255 211 
 HEL  HZ EP        824 35.13                             113    0.97 8  274 256 
 HEL  HN ES        825  5.89                             113    0.50 8  274 256 
 HEL  HZ I         825 11.70        12.8 0.34            113            274 256 
 URE  HZ EP   4    824 33.26                             112   -1.64 0  285 291 
 URE  HN ES   4    825  3.93                             112   -2.78 0  285 291 
 GUY2CHZ EP   4    824 38.84                             110    1.20 0  304 235 
 GUY2CHN ES        825 12.42                             110    0.84 7  304 235 
 GUY2CHZ I         825 23.76         9.2 0.58                           304 235 
 RREF HZ EP   4    824 42.66                             109    2.45 0  324 229 
 RREF HN ES   4    825 15.89                             109   -0.26 0  324 229 
 RREF HZ I         825 25.29         8.9 0.26            110            324 229 
 CBOC HZ EP   4    824 41.45                             108    0.49 0  336 252 
 CBOC HN ES   4    825 17.28                             108   -0.20 0  336 252 
 CBOC HZ I         825 34.61         3.8 0.52            108            336 252 
 COD  HZ EP        824 41.19                             107   -0.81 6  347 354 
 COD  HN ES        825 20.18                             107    0.84 6  347 354 
 ARGC HZ EP   4    824 43.68                             107    0.33 0  358 340 
 ARGC HN ES   4    825 20.59                             107   -1.15 0  358 340 
 ARGC HZ I         825 33.06         4.5 0.28            108            358 340 
 PRA  HZ EP        824 46.93                             105   -0.73 6  394 210 
 PRA  HN ES        825 28.55                             105   -0.87 6  394 210 
 PRA  HZ I         825 33.69         8.6 0.26            106            394 210 
 ORTC HZ EP        824 48.37                             105    0.30 6  398 216 
 ORTC HN ES   4    825 30.00                             105   -0.14 0  398 216 
 ORTC HZ I         825 35.60         7.2 0.42            106            398 216 
                                                                                
