 2017 1225 0935 30.0 L   6.606 -73.741 99.5  RSN  4 0.3 1.0LRSN                1
 GAP=150        0.85       7.5     4.2  7.2 -0.2305E+02  0.2025E+01  0.4652E+01E
 Epicentro: EL CARMEN - SANTANDER                                              3
 ACTION:UPD 18-01-04 13:24 OP:rebc STATUS:               ID:20171225093530 L   I
 OLDACT:REG 17-12-25 12:53 OP:osc  STATUS:               ID:20171225092521     3
 2017-12-25-0928-00M.COL___451                                                 6
 STAT SP IPHASW D HRMM SECON CODA AMPLIT PERI AZIMU VELO AIN AR TRES W  DIS CAZ7
 BAR2 EZ EP        935 45.60                             146   -0.4710 61.8  91 
 BAR2 EZ ES        935 58.60                             146    0.0110 61.8  91 
 BAR2 EZ I         935 59.62         8.3 0.16            147           61.8  91 
 PTB  HZ EP        935 46.71                             139   -0.3910 79.5 265 
 PTB  HN ES        936  0.46                             139    0.0410 79.5 265 
 PTB  HZ I         936  1.83         1.1 0.12            139           79.5 265 
 PAM  EZ EP        935 53.62                             122    0.06 9  141  55 
 PAM  EE ES        936 12.39                             122    0.47 9  141  55 
 PAM  EZ I         936 14.14         1.4 0.18            122            141  55 
 GUY2CHZ EP        936  4.18                             109   -0.05 8  236 230 
 GUY2CHE ES        936 31.51                             109    0.59 8  236 230 
                                                                                
