 2017  225 0059 23.6 L   6.686 -73.359137.8  RSN  4 0.3 1.2LRSN                1
 GAP=201        0.83       6.1     6.0  7.2  0.2381E+02  0.2774E+01 -0.2489E+01E
 Epicentro: GALAN - SANTANDER                                                  3
 ACTION:UPD 17-05-24 15:40 OP:jn   STATUS:               ID:20170225005923 L   I
 OLDACT:UP  17-02-25 14:36 OP:dani STATUS:               ID:20170225005634     3
 OLDACT:REG 17-02-25 12:16 OP:dani STATUS:               ID:20170225005634     3
 2017-02-25-0058-00M.COL___385                                                 6
 STAT SP IPHASW D HRMM SECON CODA AMPLIT PERI AZIMU VELO AIN AR TRES W  DIS CAZ7
 BRR  HZ EP        059 43.39                             155    0.1110 60.8 320 
 BRR  HE ES        059 58.84                             155    0.1910 60.8 320 
 BRR  HZ I         1 0  1.76         7.1 0.37            153           60.8 320 
 RUS  HZ EP        059 45.84                             144   -0.1310 92.9 161 
 RUS  HE ES        1 0  3.25                             144   -0.2010 92.9 161 
 RUS  HZ I         1 0  4.70         0.9 0.25            148           92.9 161 
 PTB  HZ EP        059 47.78                             136    0.1510  122 262 
 PTB  HN ES        1 0  6.69                             136    0.2910  122 262 
 PTB  HZ I         1 0 10.26         1.9 0.12            136            122 262 
 ZAR  HZ EP        059 54.15                             123    0.30 9  188 298 
 ZAR  HE ES        1 0 16.68                             123   -0.79 9  188 298 
 ZAR  HZ I         1 0 24.64         2.2 0.30            124            188 298 
                                                                                
