 2016  725 0748 48.2 L   6.828 -73.107150.0  RSN 21 0.5 2.8LRSN                1
 GAP= 72        1.12       2.9     3.4  5.1 -0.1231E+01  0.5671E+01  0.9561E+00E
 Epicentro: LOS SANTOS - SANTANDER                                             3
 ACTION:UPD 17-03-29 16:54 OP:lp   STATUS:               ID:20160725074848 L   I
 OLDACT:UP  16-07-25 18:14 OP:ar   STATUS:               ID:20160725074701d    3
 OLDACT:DUP 16-07-25 18:02 OP:ar   STATUS:               ID:20160725074701d    3
 2016-07-25-0747-59S.COL___331                                                 6
 STAT SP IPHASW D HRMM SECON CODA AMPLIT PERI AZIMU VELO AIN AR TRES W  DIS CAZ7
 BAR2 EZ IP     C  749  8.21                             169   -0.2210 27.4 198 
 BAR2 EZ ES        749 23.99                             169   -0.2110 27.4 198 
 PAM  EZ EP        749 11.17                             153    0.5910 72.3  39 
 PAM  EN ES        749 28.25                             153    0.2110 72.3  39 
 PAM  EZ I         749 29.01        72.5 0.32            148           72.3  39 
 BRR  HZ IP     C  749 10.15                             152    0.2010 73.6 295 
 BRR  HN ES        749 27.28                             152    0.3810 73.6 295 
 BRR  HZ I         749 30.70       131.9 0.22            147           73.6 295 
 RUS  HZ IP     C  749 12.06                             144   -0.5210  103 179 
 RUS  HN ES        749 30.79                             144   -0.8010  103 179 
 RUS  HZ I         749 31.55        57.1 0.18            138            103 179 
 TAM  HZ EP        749 16.14                             132    0.21 9  152 107 
 TAM  HZ I         749 36.95        55.1 0.34            126            152 107 
 TAM  HN ES        749 37.98                             132    0.43 9  152 107 
 SPBC HZ EP        749 17.05                             129   -0.46 9  168 219 
 SPBC HN ES        749 40.05                             129   -0.32 9  168 219 
 SPBC HZ I         749 46.18       126.7 0.42            122            168 219 
 ZAR  HZ EP        749 20.95                             123   -0.27 8  207 291 
 ZAR  HN ES        749 47.25                             123    0.29 8  207 291 
 ZAR  HZ I         749 53.16       120.1 0.42            116            207 291 
 NOR  HZ EP        749 24.65                             119   -0.09 8  240 234 
 NOR  HZ I         750  0.43        64.3 0.18            113            240 234 
 CHI  HZ EP        749 26.31                             117   -0.28 8  253 196 
 CHI  HN ES        749 56.18                             117   -0.34 8  253 196 
 CHI  HZ I         750  0.81        27.8 0.24            112            253 196 
 ROSC BZ EP        749 27.84                             117    0.75 8  258 211 
 ROSC BN ES        749 58.35                             117    0.94 8  258 211 
 ROSC BZ I         750  5.84        83.5 0.35            111            258 211 
 HEL  HZ EP        749 29.35                             115    0.17 7  277 255 
 HEL  HN ES        750  1.35                             115    0.22 7  277 255 
 HEL  HZ I         750  8.88        41.0 0.30            109            277 255 
 GUY2CHZ EP        749 32.41                             113   -0.19 7  306 235 
 GUY2CHN ES   4    750 10.16                             113    2.93 0  306 235 
 GUY2CHZ I         750 14.61        55.3 0.52                           306 235 
 PTGC HZ IP   4    749 31.11                             112   -1.30 0  310 160 
 PTGC HN ES   4    750  4.06                             112   -2.83 0  310 160 
 PTGC HZ I         750 11.89        20.8 0.38            107            310 160 
 LL6C HZ EP        749 32.86                             111   -0.90 7  322 357 
 LL6C HN ES        750  8.42                             111   -0.87 7  322 357 
 LL6C HZ I         750 11.38         8.6 0.36            106            322 357 
 ELA  HZ EP   4    749 37.31                             111    1.47 0  334 230 
 ELA  HN ES   4    750 16.22                             111    3.23 0  334 230 
 ELA  HZ I         750 19.74        36.3 0.32            105            334 230 
 CBOC HZ EP        749 36.76                             110    0.89 7  339 252 
 CBOC HN ES        750 12.40                             110   -0.65 7  339 252 
 CBOC HZ I         750 24.63        15.5 0.52            105            339 252 
 ARGC HZ EP   4    749 39.15                             109    1.29 0  358 340 
 ARGC HN ES        750 17.11                             109    0.53 6  358 340 
 ARGC HZ I         750 30.25         9.1 0.22            104            358 340 
 ANIL HZ EP        749 39.63                             109    0.86 6  363 225 
 ANIL HN ES        750 18.18                             109   -0.04 6  363 225 
 ANIL HZ I         750 27.58        68.8 0.36            104            363 225 
 PRA  HZ EP        749 41.64                             107   -0.79 6  397 210 
 PRA  HN ES        750 25.56                             107    0.83 6  397 210 
 PRA  HZ I         750 28.69        27.3 0.72            102            397 210 
 PAL  HZ EP        749 43.81                             106   -0.31 6  411 239 
 PAL  HN ES   4    750 26.28                             106   -1.45 0  411 239 
 PAL  HZ I         750 32.41        17.0 0.34            102            411 239 
 CRJC HZ EP   4    749 48.89                             104   -1.54 0  464   3 
 CRJC HN ES   4    750 37.15                             104   -1.82 0  464   3 
 CRJC HZ I         750 46.85         9.5 0.40            100            464   3 
                                                                                
