 2012 1025 0418 22.6 L   6.790 -73.111149.8  RSN  5 0.5 1.8LRSN                1
 GAP=141        0.94       4.6    13.0 12.0  0.1222E+02 -0.6964E+01 -0.1090E+02E
 Epicentro: LOS SANTOS - SANTANDER                                             3
 ACTION:UPD 12-11-22 17:05 OP:ep   STATUS:               ID:20121025041822 L   I
 2012-10-25-0410-00M.COL___234                                                 6
 STAT SP IPHASW D HRMM SECON CODA AMPLIT PERI AZIMU VELO AIN AR TRES W  DIS CAZ7
 BAR2 SZ EP   1    418 42.82                             171    0.16 7 23.3 200 
 BAR2 SZ ES   2    418 58.84                             171    0.49 5 23.3 200 
 BAR2 SZ I         418 59.56        28.4 0.19                          23.3 200 
 BRR  HZ EP   1    418 44.71                             152    0.36 7 75.1 298 
 BRR  HN ES   2    419  2.00                             152    0.64 5 75.1 298 
 PAM  SZ EP   1    418 45.65                             152    0.55 7 75.8  37 
 PAM  SN ES   2    419  3.17                             152    0.48 5 75.8  37 
 PAM  SN I         419  3.57         8.7 0.42                          75.8  37 
 RUS  HZ EP   1    418 46.70                             144    0.09 7 99.3 178 
 RUS  HN ES        419  4.88                             144   -0.4910 99.3 178 
 RUS  HN I         419  6.34         4.7 0.25                          99.3 178 
 OCA  HE ES        419 13.09                             130   -0.67 9  162 352 
                                                                                
