 2017 1225 0254  9.4 L   6.729 -73.126143.4  RSN  4 0.2 1.3LRSN                1
 GAP=227        0.47       3.6     2.6  4.9 -0.4482E+01  0.2970E+01  0.1598E+01E
 Epicentro: JORDAN - SANTANDER                                                 3
 ACTION:UPD 18-01-04 13:24 OP:rebc STATUS:               ID:20171225025409 L   I
 OLDACT:DUP 17-12-25 14:14 OP:dhb  STATUS:               ID:20171225024705d    3
 OLDACT:REG 17-12-25 12:13 OP:osc  STATUS:               ID:20171225024704     3
 2017-12-25-0248-00M.COL___472                                                 6
 STAT SP IPHASW D HRMM SECON CODA AMPLIT PERI AZIMU VELO AIN AR TRES W  DIS CAZ7
 PAM  EZ EP        254 31.75                             149    0.1110 82.3  35 
 PAM  EE ES        254 49.06                             149    0.0610 82.3  35 
 PAM  EZ I         254 58.57         3.6 0.14            152           82.3  35 
 PTB  HZ EP        254 35.93                             131   -0.30 9  149 262 
 PTB  HN ES        254 57.16                             131   -0.01 9  149 262 
 PTB  HZ I         255  1.51         1.7 0.18            139            149 262 
 OCA  HZ EP        254 38.22                             128   -0.05 9  168 353 
 OCA  HE ES        255  0.61                             128   -0.19 9  168 353 
 OCA  HZ I         255  8.34         4.4 0.50            133            168 353 
 ZAR  HZ EP        254 42.46                             121    0.27 8  209 294 
 ZAR  HN ES        255  7.94                             121    0.15 8  209 294 
 ZAR  HZ I         255 13.66         1.6 0.44            128            209 294 
                                                                                
