 2013  525 0631 39.0 L   6.803 -73.154143.8  RSN  7 0.5 1.6LRSN                1
 GAP=135        1.27       6.5     6.5  8.5 -0.5147E+01  0.6834E+01  0.6527E+01E
 Epicentro: LOS SANTOS - SANTANDER                                             3
 ACTION:UPD 13-06-20 09:53 OP:ep   STATUS:               ID:20130525063139 L   I
 2013-05-25-0628-51M.COL___211                                                 6
 STAT SP IPHASW D HRMM SECON CODA AMPLIT PERI AZIMU VELO AIN AR TRES W  DIS CAZ7
 BAR2 SZ EP        631 58.33                             170   -0.0710 23.5 188 
 BAR2 SZ ES        632 13.71                             170    0.1810 23.5 188 
 GIR2 SZ EP        631 58.39                             167   -0.0410 30.8 352 
 GIR2 SZ I         631 58.43         5.4 0.22            169           30.8 352 
 BRR  HZ IP     C  632  0.10                             153    0.2110 70.2 299 
 BRR  HN ES        632 17.12                             153    0.9510 70.2 299 
 PAM  SZ EP        632  1.31                             150    0.2710 77.8  40 
 PAM  SN ES        632 17.50                             150   -0.7210 77.8  40 
 PAM  SN I         632 20.18         8.1 0.30            145           77.8  40 
 RUS  HZ EP        632  2.84                             143    0.2510  101 176 
 RUS  HN ES        632 20.88                             143   -0.1010  101 176 
 RUS  HN I         632 22.49         6.7 0.24            129            101 176 
 PTB  HZ EP        632  5.03                             132   -0.71 9  147 259 
 PTB  HN ES        632 25.91                             132   -0.67 9  147 259 
 PTB  HN I         632 31.27         9.3 0.24            119            147 259 
 PRA  HZ EP        632 33.24                             106    0.80 6  392 209 
 PRA  HN I         633 19.46         1.4 0.68             97            392 209 
                                                                                
