 2011  125 0909 33.5 L   6.874 -73.211116.4  RSN  4 0.3 1.2LRSN                1
 GAP=151        0.66       5.9    11.2 10.2  0.1311E+02  0.2205E+01 -0.3433E+02E
 Epicentro: ZAPATOCA - SANTANDER                                               3
 ACTION:UP  11-02-08 08:42 OP:pat  STATUS:               ID:20110125090933 L   I
 2011-01-25-0904-38S.COL___138                                                 6
 STAT SP IPHASW D HRMM SECON CODA AMPLIT PERI AZIMU VELO SNR AR TRES W  DIS CAZ7
 BAR2 SZ EP   2    9 9 50.00                             164     0.1 5   31 175 
 BAR2 SZ ES   1    910  2.37                             164    -0.2 7   31 175 
 BAR2 SZ I         910  6.50         8.0 0.71                            31 175 
 RUS  HZ EP   2    9 9 54.59                             134    -0.7 5  109 173 
 RUS  HN ES   1    910 12.57                             134     0.3 7  109 173 
 RUS  HZ I         910 13.68         2.2 0.32                           109 173 
 GRA  SZ EP   1    9 9 55.92                             130     0.1 7  120  22 
 GRA  SZ I         9 9 57.47         3.0 0.27                           120  22 
 MON  HN ES   2    910 56.86                             103     0.2 3  342 308 
                                                                                
