 2013  625 0741 51.7 L   6.805 -73.213139.5  RSN  9 0.4 1.7LRSN                1
 GAP=128        0.79       3.5     4.7  6.9  0.1279E+01  0.1228E+02 -0.3988E+01E
 Epicentro: ZAPATOCA - SANTANDER                                               3
 ACTION:UPD 14-01-08 09:57 OP:ep   STATUS:               ID:20130625074151 L   I
 OLDACT:DUP 13-06-25 12:59 OP:jn   STATUS:               ID:20130625073960d    3
 OLDACT:REG 13-06-25 06:46 OP:jn   STATUS:               ID:20130625073959     3
 2013-06-25-0739-59M.COL___267                                                 6
 STAT SP IPHASW D HRMM SECON CODA AMPLIT PERI AZIMU VELO AIN AR TRES W  DIS CAZ7
 BAR2 SZ EP        742 10.69                             170    0.1310 23.7 172 
 BAR2 SZ ES        742 25.10                             170   -0.1910 23.7 172 
 BAR2 SZ I         742 28.07        13.2 0.76            170           23.7 172 
 GIR2 SZ EP        742 10.77                             167    0.2010 30.4   4 
 BRR  HZ EP     D  742 12.50                             154    0.7410 64.5 301 
 BRR  HE ES   4    742 29.73                             154    2.29 0 64.5 301 
 BRR  HZ I         742 32.61        10.7 0.32            151           64.5 301 
 PAM  SN ES   1    742 30.55                             148    0.00 7 82.0  44 
 PAM  SZ I         742 32.71        14.3 0.48            156           82.0  44 
 RUS  HZ EP        742 14.67                             142   -0.2410  102 172 
 RUS  HN ES   1    742 32.81                             142   -0.22 7  102 172 
 RUS  HZ I         742 34.73         7.8 0.26            148            102 172 
 PTB  HZ EP        742 17.53                             132    0.06 9  141 258 
 PTB  HN ES   1    742 37.29                             132   -0.31 7  141 258 
 PTB  HZ I         742 44.64         4.9 0.26            133            141 258 
 OCA  HN ES   1    742 40.81                             128   -0.19 7  159 356 
 OCA  HZ I         742 43.83         5.3 0.26            133            159 356 
 ZAR  HE ES   1    742 47.56                             122    0.17 6  197 293 
 ZAR  HZ I         742 54.66         8.0 0.40            124            197 293 
 SML  HZ EP   1    742 26.72                             116   -0.85 6  240 337 
 SML  HN ES   1    742 55.29                             116   -0.28 6  240 337 
                                                                                
