 2013 1225 0840  0.6 L   6.802 -73.148142.6  RSN 12 0.4 2.1LRSN                1
 GAP= 71        0.87       2.7     2.8  5.8 -0.7090E+00  0.4368E+01  0.5321E+00E
 Epicentro: LOS SANTOS - SANTANDER                                             3
 ACTION:UPD 14-01-13 10:20 OP:ep   STATUS:               ID:20131225084000 L   I
 OLDACT:UP  13-12-25 13:48 OP:mh   STATUS:               ID:20131225083742d    3
 OLDACT:DUP 13-12-25 13:43 OP:mh   STATUS:               ID:20131225083742d    3
 OLDACT:UP  13-12-25 13:42 OP:mh   STATUS:               ID:20131225083741     3
 OLDACT:REG 13-12-25 13:14 OP:mh   STATUS:               ID:20131225083741     3
 2013-12-25-0837-41M.COL___235                                                 6
 STAT SP IPHASW D HRMM SECON CODA AMPLIT PERI AZIMU VELO AIN AR TRES W  DIS CAZ7
 BAR2 SZ EP        840 20.13                             170    0.3210 23.5 189 
 BAR2 SZ ES   1    840 34.95                             170    0.13 7 23.5 189 
 BAR2 SZ I         840 36.67        85.9 0.22            170           23.5 189 
 PAM  SZ EP        840 22.89                             150    0.4510 77.4  40 
 PAM  SN ES        840 39.48                             150   -0.0210 77.4  40 
 PAM  SZ I         840 42.40        15.7 0.59            154           77.4  40 
 RUS  HZ EP        840 24.14                             143    0.1310  101 176 
 RUS  HN ES   1    840 42.04                             143   -0.27 7  101 176 
 RUS  HZ I         840 43.64        16.1 0.25            145            101 176 
 PTB  HZ EP        840 26.42                             131   -0.83 9  148 259 
 PTB  HN ES   1    840 47.49                             131   -0.58 7  148 259 
 PTB  HZ I         840 55.30        12.5 0.23            133            148 259 
 TAM  HZ EP        840 27.75                             130   -0.26 9  155 105 
 TAM  HN ES        840 49.52                             130    0.09 9  155 105 
 TAM  HZ I         840 54.84         6.8 0.48            133            155 105 
 OCA  HZ EP   1    840 27.91                             129   -0.69 7  160 353 
 OCA  HN ES        840 50.65                             129    0.18 9  160 353 
 OCA  HZ I         840 54.93        20.3 0.25            132            160 353 
 SPBC HZ EP        840 29.20                             128    0.38 9  163 219 
 SPBC HN ES        840 50.47                             128   -0.38 9  163 219 
 SPBC HZ I         840 57.54        12.9 0.24            130            163 219 
 ZAR  HN ES   1    840 58.27                             122    0.38 6  204 292 
 SML  HZ EP        840 36.64                             117   -0.34 8  243 335 
 SML  HN ES   1    841  5.42                             117    0.04 6  243 335 
 SML  HZ I         841  9.80        22.6 0.07            120            243 335 
 CHI  HZ EP        840 38.36                             116    0.26 8  249 195 
 CHI  HN ES   2    841  7.45                             116    0.07 4  249 195 
 CHI  HZ I         841 15.21         6.7 0.41            119            249 195 
 HEL  HN ES   1    841 12.13                             114    0.32 6  272 256 
 CBOC HN ES        841 24.47                             109    0.67 7  333 252 
 SJC  HZ EP   4    840 54.33                             105   -1.65 0  409 327 
 SJC  HN ES   4    841 35.90                             105   -3.31 0  409 327 
                                                                                
