 2015  325 0409 38.0 L   6.820 -73.104147.6  RSN 10 0.4 1.6LRSN                1
 GAP=141        0.91       3.5     4.9  6.4  0.2487E+01  0.6737E+01 -0.1709E+01E
 Epicentro: LOS SANTOS - SANTANDER                                             3
 ACTION:UPD 15-04-30 16:29 OP:nd   STATUS:               ID:20150325040938 L   I
 OLDACT:REG 15-03-25 12:52 OP:fm   STATUS:               ID:20150325040746     3
 2015-03-25-0407-46M.COL___278                                                 6
 STAT SP IPHASW D HRMM SECON CODA AMPLIT PERI AZIMU VELO AIN AR TRES W  DIS CAZ7
 BAR2 EZ EP        4 9 57.83                             169   -0.0710 26.7 199 
 BAR2 EZ ES   1    410 13.23                             169   -0.21 7 26.7 199 
 BAR2 EZ I         410 13.72         5.6 0.36            173           26.7 199 
 PAM  SZ EP        410  0.82                             153    0.7010 72.7  38 
 PAM  SN ES        410 17.46                             153    0.0610 72.7  38 
 PAM  SZ I         410 19.85        10.5 0.54            152           72.7  38 
 BRR  HZ EP        4 9 59.79                             152    0.2910 74.3 295 
 BRR  HN ES        410 16.69                             152    0.4010 74.3 295 
 BRR  HZ I         410 17.17         5.0 0.30            151           74.3 295 
 RUS  HZ EP        410  1.81                             144   -0.2510  103 179 
 RUS  HN ES        410 20.69                             144   -0.1510  103 179 
 RUS  HZ I         410 21.42         4.4 0.28            147            103 179 
 PTB  HZ EP        410  5.26                             131   -0.29 9  153 258 
 PTB  HN ES   4    410 25.39                             131   -1.66 0  153 258 
 PTB  HZ I         410 27.55         3.5 0.62            133            153 258 
 OCA  HZ EP   1    410  6.25                             130   -0.03 7  159 351 
 OCA  HN ES        410 27.50                             130   -0.86 9  159 351 
 OCA  HZ I         410 35.16        10.5 0.38            130            159 351 
 ZAR  HE ES        410 36.69                             122    0.12 8  207 291 
 ZAR  HZ I         410 41.63         4.3 0.40            123            207 291 
 SML  HZ EP   1    410 14.74                             118    0.04 6  244 334 
 SML  HN ES   1    410 43.39                             118    0.05 6  244 334 
 SML  HZ I         410 46.91         5.7 0.10            118            244 334 
 GUY2CHZ EP   4    410 24.12                             112    1.88 0  306 235 
 GUY2CHN ES   4    410 54.94                             112   -1.83 0  306 235 
 GUY2CHZ I         411  2.59         1.5 0.27                           306 235 
 MON  HN ES   4    411  3.84                             109   -1.95 0  356 308 
 MON  HZ I         411  4.83         0.9 0.18            109            356 308 
                                                                                
