 2017  225 0818  3.9 L   5.919 -73.664122.6  RSN  4 0.4 0.8LRSN                1
 GAP=216        0.94       6.9     5.4  9.3  0.1536E+02  0.1751E+02  0.9161E+01E
 Epicentro: PUENTE NACIONAL - SANTANDER                                        3
 ACTION:UPD 17-05-24 15:40 OP:jn   STATUS:               ID:20170225081803 L   I
 OLDACT:UP  17-02-25 18:48 OP:dani STATUS:               ID:20170225080728     3
 OLDACT:UP  17-02-25 18:47 OP:dani STATUS:               ID:20170225080728     3
 OLDACT:REG 17-02-25 13:03 OP:dani STATUS:               ID:20170225080728     3
 2017-02-25-0808-00M.COL___364                                                 6
 STAT SP IPHASW D HRMM SECON CODA AMPLIT PERI AZIMU VELO AIN AR TRES W  DIS CAZ7
 RUS  HZ EP        818 22.85                             151   -0.0610 64.4  93 
 RUS  HN ES        818 37.45                             151   -0.2710 64.4  93 
 RUS  HZ I         818 38.33         0.8 0.31            156           64.4  93 
 BAR2 EZ EP        818 24.80                             141    0.3910 91.6  36 
 BAR2 EZ ES        818 40.77                             141    0.3810 91.6  36 
 BAR2 EZ I         818 41.32         2.5 0.20            143           91.6  36 
 PTB  HZ EP        818 25.35                             135   -0.3710  111 308 
 PTB  HN ES        818 43.09                             135    0.3710  111 308 
 PTB  HZ I         818 47.15         0.6 0.17            135            111 308 
 BRR  HZ EP        818 27.66                             130    0.1410  132 358 
 BRR  HE ES        818 45.32                             130   -0.6110  132 358 
 BRR  HZ I         818 50.16         3.0 0.29            131            132 358 
                                                                                
