 2010  725 0249 53.0 L   6.805 -73.092145.3  RSN 10 0.3 1.9LRSN                1
 GAP=165        0.66       2.7     6.3  4.9 -0.5208E+01  0.1096E+01  0.6992E+00E
 Epicentro: LOS SANTOS - SANTANDER                                             3
 ACTION:UPD 10-12-01 15:20 OP:pat  STATUS:               ID:20100725024953 L   I
 2010-07-25-0248-20S.COL___123                                                 6
 STAT SP IPHASW D HRMM SECON CODA AMPLIT PERI AZIMU VELO AIN AR TRES W  DIS CAZ7
 BAR2 SZ EP   1    250 12.60                             170     0.0 7   26 203 
 BAR2 SZ ES   1    250 27.89                             170    -0.1 7   26 203 
 BAR2 SZ I         250 28.78        19.5 0.32                            26 203 
 BRR  HZ IP     D  250 14.38                             151     0.010   76 296 
 BRR  HE ES   1    250 31.18                             151     0.1 7   76 296 
 BRR  HZ I         250 33.57        20.7 0.18                            76 296 
 RUS  HZ EP   1    250 16.58                             144    -0.2 7  101 179 
 RUS  HE ES   1    250 35.47                             144     0.2 7  101 179 
 RUS  HZ I         250 36.39         7.7 0.20                           101 179 
 GUE  SZ EP        250 17.61                             140     0.110  115   9 
 GUE  SZ I         250 42.29         4.0 0.09                           115   9 
 GRA  SZ EP        250 18.38                             137     0.310  124  15 
 GRA  SZ ES   1    250 37.58                             137     0.0 7  124  15 
 GRA  SZ I         250 40.98        10.9 0.25                           124  15 
 OCA  SZ EP   1    250 20.86                             129    -0.5 7  161 351 
 OCA  SZ ES   1    250 43.10                             129    -0.3 7  161 351 
 OCA  SZ I         250 46.26        13.6 0.54                           161 351 
 CHI  HZ EP   1    250 30.34                             117    -0.6 6  251 196 
 CHI  HE ES   2    251  0.28                             117    -0.2 4  251 196 
 CHI  HZ I         251  3.84         3.6 0.55                           251 196 
 HEL  HZ EP   2    250 34.08                             114     0.2 4  278 256 
 HEL  HZ I         251 11.73         7.8 0.74                           278 256 
 RREF HZ EP   1    250 40.48                             110     0.8 5  327 230 
 RREF HZ I         251 23.10         3.0 0.28                           327 230 
 PRA  HZ EP   1    250 47.03                             106     0.1 4  395 210 
 PRA  HE ES   2    251 28.59                             106    -0.4 3  395 210 
 PRA  HZ I         251 35.14         5.0 0.18                           395 210 
                                                                                
