 2015  825 0000 12.1 L   6.807 -73.105144.3  RSN  7 0.5 1.7LRSN                1
 GAP=141        1.13       4.3     5.8  7.4  0.2437E+01  0.1708E+02 -0.4460E-01E
 Epicentro: LOS SANTOS - SANTANDER                                             3
 ACTION:UPD 15-09-15 23:04 OP:cam  STATUS:               ID:20150825000012 L   I
 OLDACT:UP  15-08-25 17:47 OP:ak   STATUS:               ID:20150825000005     3
 OLDACT:UP  15-08-25 17:45 OP:ak   STATUS:               ID:20150825000005     3
 OLDACT:REG 15-08-25 12:29 OP:ak   STATUS:               ID:20150825000005     3
 2015-08-25-0000-05M.COL___343                                                 6
 STAT SP IPHASW D HRMM SECON CODA AMPLIT PERI AZIMU VELO AIN AR TRES W  DIS CAZ7
 BAR2 EZ EP        0 0 32.23                             170    0.6010 25.2 200 
 BAR2 EZ ES        0 0 46.86                             170    0.0210 25.2 200 
 BAR2 EZ I         0 0 49.10         6.9 0.23            171           25.2 200 
 PAM  EZ EP   1    0 0 33.48                             152   -0.51 7 74.0  37 
 PAM  EN ES        0 0 50.63                             152   -0.4210 74.0  37 
 PAM  EZ I         0 0 55.31        10.1 0.50            153           74.0  37 
 BRR  HZ EP        0 0 34.04                             151    0.7010 74.8 296 
 BRR  HN ES        0 0 50.27                             151    0.3910 74.8 296 
 RUS  HZ EP        0 0 35.92                             143    0.1410  101 179 
 RUS  HN ES        0 0 53.82                             143   -0.4110  101 179 
 RUS  HZ I         0 0 57.19         5.7 0.56            145            101 179 
 ZAR  HZ EP   1    0 0 44.28                             121   -0.61 6  208 291 
 ZAR  HN ES        0 1 10.34                             121   -0.09 8  208 291 
 ZAR  HZ I         0 1 12.07        10.3 0.09            124            208 291 
 SML  HZ EP   1    0 0 48.61                             117   -0.20 6  245 334 
 SML  HN ES        0 1 17.10                             117   -0.32 8  245 334 
 GUY2CHZ EP        0 0 56.77                             112    0.63 7  305 235 
 GUY2CHN ES        0 1 29.50                             112   -0.96 7  305 235 
 GUY2CHZ I         0 1 38.78         2.5 0.36                           305 235 
                                                                                
