 2013  725 0555 42.5 L   6.734 -73.180157.5  RSN  4 0.5 1.4LRSN                1
 GAP=197        0.99       7.3    11.6 11.0  0.2558E+02 -0.1440E+02 -0.2961E+02E
 Epicentro: ZAPATOCA - SANTANDER                                               3
 ACTION:UP  13-08-12 10:39 OP:ep   STATUS:               ID:20130725055543 L   I
 OLDACT:UPD 13-08-12 09:29 OP:ep   STATUS:               ID:20130725055543 L   3
 OLDACT:UP  13-07-25 12:12 OP:cam  STATUS:               ID:20130725054959     3
 OLDACT:UP  13-07-25 12:12 OP:cam  STATUS:               ID:20130725054959     3
 OLDACT:REG 13-07-25 09:55 OP:cam  STATUS:               ID:20130725054959     3
 2013-07-25-0549-59M.COL___266                                                 6
 STAT SP IPHASW D HRMM SECON CODA AMPLIT PERI AZIMU VELO AIN AR TRES W  DIS CAZ7
 BRR  HZ EP     C  556  5.39                             154    0.4310 71.9 305 
 BRR  HZ I         556  5.67         5.2 0.24            146           71.9 305 
 BRR  HN ES        556 22.81                             154    0.3410 71.9 305 
 RUS  HN ES   1    556 25.49                             148   -0.54 7 93.7 173 
 RUS  HZ  IAML     556 27.29         1.9 0.30                          93.7 173 
 PTB  HZ EP   1    556 10.47                             136    0.45 7  143 261 
 PTB  HE ES   1    556 30.85                             136   -0.63 7  143 261 
 PTB  HZ I         556 35.49         2.5 0.16            129            143 261 
 SML  HZ EP   1    556 19.89                             119   -0.46 6  249 337 
 SML  HN ES   1    556 49.26                             119   -0.62 6  249 337 
 SML  HZ I         556 53.44         2.4 0.10            116            249 337 
                                                                                
