 2011 1225 0307 38.8 L   6.713 -73.202143.5  RSN  5 0.2 1.9LRSN                1
 GAP=170        0.42       3.7     3.6  4.3  0.4928E+01  0.1796E+00 -0.1834E+01E
 Epicentro: VILLANUEVA - SANTANDER                                             3
 ACTION:UPD 12-07-13 16:18 OP:ep   STATUS:               ID:20111225030738 L   I
 2011-12-25-0300-00M.COL___189                                                 6
 STAT SP IPHASW D HRMM SECON CODA AMPLIT PERI AZIMU VELO AIN AR TRES W  DIS CAZ7
 BAR2 SZ EP        3 7 57.97                             174   -0.0310 13.6 171 
 BAR2 SZ ES   1    3 8 12.77                             174   -0.21 7 13.6 171 
 BAR2 SZ I         3 8 13.82         9.2 0.23                          13.6 171 
 GIR2 SZ EP   1    3 7 58.22                             163   -0.27 7 40.4   1 
 BRR  HZ EP        3 7 59.89                             152    0.1810 71.2 308 
 BRR  HN ES   1    3 8 16.23                             152    0.21 7 71.2 308 
 BRR  HN I         3 8 17.16        38.2 0.28                          71.2 308 
 RUS  HZ EP   1    3 8  1.80                             146    0.09 7 91.7 172 
 RUS  HE ES   1    3 8 19.71                             146    0.14 7 91.7 172 
 PTB  HZ EP   1    3 8  4.81                             133   -0.09 7  140 262 
 PTB  HN ES   1    3 8 25.09                             133   -0.16 7  140 262 
                                                                                
