 2016  125 0533  0.6 L   6.816 -73.129141.0  RSN 19 0.4 2.7LRSN                1
 GAP=138        1.00       2.5     3.5  5.0 -0.1487E+01  0.7653E+01 -0.2354E+00E
 Epicentro: LOS SANTOS - SANTANDER                                             3
 ACTION:UPD 16-03-09 23:28 OP:cam  STATUS:               ID:20160125053300 L   I
 OLDACT:REG 16-01-25 14:52 OP:cara STATUS:               ID:20160125052742     3
 2016-01-25-0527-42M.COL___330                                                 6
 STAT SP IPHASW D HRMM SECON CODA AMPLIT PERI AZIMU VELO AIN AR TRES W  DIS CAZ7
 BAR2 EZ IP     C  533 19.84                             169    0.1610 25.4 193 
 BAR2 EZ ES        533 34.22                             169   -0.3710 25.4 193 
 BAR2 EZ I         533 36.82        74.5 0.22            167           25.4 193 
 PAM  EZ EP     D  533 22.70                             151    0.5610 74.9  39 
 PAM  EN ES        533 39.64                             151    0.6810 74.9  39 
 PAM  EZ I         533 41.10        62.1 0.24            156           74.9  39 
 RUS  HZ EP        533 23.62                             142   -0.3710  102 177 
 RUS  HN ES        533 42.08                             142   -0.1610  102 177 
 RUS  HZ I         533 43.34        37.0 0.34            144            102 177 
 PTB  HZ EP        533 26.49                             130   -0.87 9  150 258 
 PTB  HE ES        533 48.66                             130    0.41 9  150 258 
 PTB  HZ I         533 50.39        98.4 0.12            130            150 258 
 OCA  HZ EP        533 28.02                             129   -0.37 9  159 352 
 OCA  HN ES        533 49.74                             129   -0.33 9  159 352 
 OCA  HZ I         533 51.19       119.4 0.30            131            159 352 
 SPBC HZ EP        533 28.80                             127   -0.16 9  166 219 
 SPBC HN ES        533 51.21                             127    0.12 9  166 219 
 SPBC HZ I         533 53.94        78.4 0.16            128            166 219 
 ZAR  HZ EP        533 33.23                             121    0.40 9  205 292 
 ZAR  HN ES        533 58.31                             121    0.33 9  205 292 
 ZAR  HZ I         534  6.08        46.9 0.52            122            205 292 
 NOR  HZ EP        533 35.81                             117   -0.49 8  237 234 
 NOR  HE ES        534  4.02                             117   -0.15 8  237 234 
 NOR  HZ I         534  9.29        41.5 0.26            118            237 234 
 SML  HZ EP        533 36.00                             116   -0.86 8  243 335 
 SML  HE ES        534  4.87                             116   -0.28 8  243 335 
 SML  HZ I         534  8.32        41.1 0.26            118            243 335 
 CHI  HZ EP        533 38.25                             116   -0.00 8  251 195 
 CHI  HN ES        534  7.38                             116   -0.26 8  251 195 
 CHI  HZ I         534 15.73        10.6 0.58            117            251 195 
 ROSC BZ EP   4    533 40.19                             115    1.48 0  255 211 
 ROSC BE ES   4    534 12.14                             115    3.69 0  255 211 
 ROSC BZ I         534 16.70        48.3 0.40            117            255 211 
 HEL  HZ EP        533 41.51                             114    0.71 8  274 256 
 HEL  HN ES        534 11.73                             114   -0.44 8  274 256 
 HEL  HZ I         534 18.91        35.1 0.32            114            274 256 
 URE  HZ EP        533 42.20                             112    0.66 7  285 291 
 URE  HN ES   4    534 12.37                             112   -1.12 0  285 291 
 URE  HZ I         534 18.92        23.7 0.12            114            285 291 
 GUY2CHZ EP        533 44.58                             111    0.33 7  304 235 
 GUY2CHN ES   4    534 20.45                             111    2.14 0  304 235 
 GUY2CHZ I         534 27.37        31.9 0.72                           304 235 
 CBOC HZ EP        533 48.08                             109    0.52 7  336 252 
 CBOC HN ES        534 24.51                             109    0.31 7  336 252 
 CBOC HZ I         534 27.70        14.0 0.28            110            336 252 
 DBB  SZ EP        533 47.89                             108   -0.17 7  341 274 
 DBB  SZ ES        534 24.69                             108   -0.40 7  341 274 
 ANIL HZ EP        533 51.01                             107    0.52 6  360 225 
 ANIL HN ES        534 29.75                             107    0.32 6  360 225 
 ANIL HZ I         534 37.21        55.3 0.30            109            360 225 
 ORTC HZ EP        533 55.01                             105    0.38 6  398 216 
 ORTC HN ES   4    534 35.47                             105   -1.31 0  398 216 
 ORTC HZ I         534 43.16        14.5 0.38            107            398 216 
 PAL  HZ EP        533 55.95                             105    0.08 6  408 239 
 PAL  HN ES   4    534 37.23                             105   -1.77 0  408 239 
 PAL  HZ I         534 40.95        12.0 0.60            106            408 239 
                                                                                
