 2013  425 0509 16.9 L   6.783 -73.162142.0  RSN 10 0.4 1.9LRSN                1
 GAP=135        0.75       3.3     4.8  5.9 -0.3078E+01  0.1030E+02 -0.1019E+00E
 Epicentro: LOS SANTOS - SANTANDER                                             3
 ACTION:UPD 13-05-22 14:40 OP:EP   STATUS:               ID:20130425050916 L   I
 2013-04-25-0508-40M.COL___196                                                 6
 STAT SP IPHASW D HRMM SECON CODA AMPLIT PERI AZIMU VELO AIN AR TRES W  DIS CAZ7
 BAR2 SZ EP        5 9 36.10                             171    0.1010 21.3 186 
 BAR2 SZ ES   1    5 9 50.97                             171    0.05 7 21.3 186 
 BAR2 SZ I         5 9 52.50        10.6 0.42            167           21.3 186 
 GIR2 SZ EP        5 9 36.15                             166    0.0210 32.8 354 
 GIR2 SZ ES   2    5 9 51.21                             166    0.05 5 32.8 354 
 GIR2 SZ I         5 9 51.74         5.8 0.32            161           32.8 354 
 BRR  HZ EP     D  5 9 37.91                             152    0.3410 70.5 301 
 BRR  HN ES   2    5 9 54.72                             152    1.00 5 70.5 301 
 BRR  HZ I         5 9 58.73         7.8 0.24            145           70.5 301 
 PAM  SZ EP   1    5 9 39.10                             149    0.27 7 79.9  40 
 PAM  SN ES   1    5 9 55.65                             149   -0.32 7 79.9  40 
 PAM  SN I         5 9 56.87        21.6 0.44            153           79.9  40 
 RUS  HZ EP   1    5 9 40.22                             143    0.10 7 98.9 175 
 RUS  HN ES   1    5 9 57.70                             143   -0.56 7 98.9 175 
 RUS  HN I         5 9 59.79         9.5 0.26            146           98.9 175 
 PTB  HZ EP   1    5 9 42.74                             131   -0.59 7  146 259 
 PTB  HN ES   1    510  3.44                             131   -0.54 7  146 259 
 PTB  HN I         510  8.66        16.2 0.44            128            146 259 
 NOR  HZ EP   1    5 9 52.46                             118    0.36 6  232 235 
 NOR  HN ES   2    510 19.40                             118   -0.19 4  232 235 
 NOR  HN I         510 25.61        11.3 0.16            117            232 235 
 SML  HZ EP   1    5 9 52.69                             116   -0.69 6  245 336 
 SML  HN ES   1    510 21.93                             116    0.07 6  245 336 
 SML  HN I         510 31.17        12.8 0.10            116            245 336 
 HEL  HN ES   4    510 31.55                             114    3.88 0  270 256 
 HEL  HN I         510 33.79         3.7 0.40            113            270 256 
 PRA  HZ EP   2    510 10.09                             106    0.13 3  390 209 
 PRA  HN ES        510 51.96                             106    0.58 6  390 209 
 PRA  HN I         510 56.47         1.5 0.24            107            390 209 
                                                                                
