 2011  625 0348 16.3 L   6.782 -73.046157.1  RSN  5 0.2 1.6LRSN                1
 GAP=167        0.41       3.0     5.2  5.4 -0.2589E+01 -0.6655E+01 -0.3843E+01E
 Epicentro: LOS SANTOS - SANTANDER                                             3
 ACTION:UP  11-07-14 19:07 OP:ep   STATUS:               ID:20110625034816 L   I
 2011-06-25-0342-39S.COL___140                                                 6
 STAT SP IPHASW D HRMM SECON CODA AMPLIT PERI AZIMU VELO SNR AR TRES W  DIS CAZ7
 BTL  SZ EP        348 37.52                             169     0.110   29 302 
 BTL  SZ ES   3    348 53.90                             169     0.0 2   29 302 
 BRR  HZ EP        348 39.10                             151    -0.210   82 296 
 BRR  HN ES   1    348 57.37                             151     0.1 7   82 296 
 BRR  HZ I         349  0.04         7.4 0.11                            82 296 
 RUS  HN ES   1    349  0.30                             147     0.0 7   98 182 
 BRI  SZ EP   2    348 41.50                             144     0.3 5  107  15 
 GRA  SZ EP        348 42.57                             140     0.110  125  12 
 GRA  SZ ES   1    349  2.79                             140    -0.2 7  125  12 
 GRA  SZ I         349  5.17         3.8 0.35                           125  12 
                                                                                
