 2015  725 0000 58.4 L   6.859 -73.142137.9  RSN 16 0.5 2.5LRSN                1
 GAP=134        1.12       2.7     4.6  6.6 -0.1983E+01  0.1680E+02  0.1563E+01E
 Epicentro: LOS SANTOS - SANTANDER                                             3
 ACTION:UPD 15-09-08 21:50 OP:cam  STATUS:               ID:20150725000058 L   I
 OLDACT:UP  15-07-25 13:16 OP:ak   STATUS:               ID:20150725000004     3
 OLDACT:REG 15-07-25 12:18 OP:ak   STATUS:               ID:20150725000004     3
 2015-07-25-0000-04M.COL___340                                                 6
 STAT SP IPHASW D HRMM SECON CODA AMPLIT PERI AZIMU VELO AIN AR TRES W  DIS CAZ7
 BAR2 EZ IP     C  0 1 17.27                             167    0.0810 29.8 189 
 BAR2 EZ ES        0 1 32.42                             167    0.5310 29.8 189 
 BAR2 EZ I         0 1 33.32        44.1 0.13            166           29.8 189 
 PAM  EZ EP        0 1 19.78                             151    0.3610 72.2  43 
 PAM  EN ES        0 1 35.97                             151    0.1210 72.2  43 
 PAM  EZ I         0 1 39.00        36.1 0.34            156           72.2  43 
 RUS  HZ EP        0 1 21.52                             140   -0.3110  107 177 
 RUS  HN ES        0 1 39.96                             140   -0.1810  107 177 
 RUS  HZ I         0 1 41.69        25.2 0.26            143            107 177 
 OCA  HN ES        0 1 46.28                             129   -0.31 9  154 353 
 OCA  HZ I         0 1 50.89        89.1 0.22            131            154 353 
 ZAR  HZ EP        0 1 30.77                             121    0.68 9  202 290 
 ZAR  HN ES        0 1 55.32                             121    0.48 9  202 290 
 ZAR  HZ I         0 2  0.57        53.7 0.38            122            202 290 
 SML  HZ EP        0 1 33.07                             116   -0.85 8  238 335 
 SML  HN ES        0 2  0.77                             116   -0.90 8  238 335 
 SML  HZ I         0 2 10.25        36.8 0.10            118            238 335 
 NOR  HZ EP        0 1 33.89                             116   -0.20 8  239 233 
 NOR  HN ES        0 2  1.29                             116   -0.68 8  239 233 
 NOR  HZ I         0 2  7.58        20.0 0.25            118            239 233 
 CHI  HZ EP        0 1 35.82                             115   -0.51 8  255 195 
 CHI  HN ES        0 2  5.57                             115   -0.38 8  255 195 
 CHI  HZ I         0 2 13.23        10.9 0.51            117            255 195 
 ROSC BZ EP   1    0 1 37.59                             114    0.89 6  259 210 
 ROSC BN ES        0 2  5.72                             114   -0.89 8  259 210 
 ROSC BZ I         0 2 13.93        22.7 0.70            116            259 210 
 HEL  HZ EP   1    0 1 38.45                             113    0.04 6  274 255 
 HEL  HE ES        0 2  9.15                             113   -0.50 8  274 255 
 HEL  HZ I         0 2 17.35        12.4 0.46            114            274 255 
 URE  HZ EP        0 1 39.65                             112    0.82 7  282 291 
 URE  HN ES   4    0 2  7.76                             112   -2.64 0  282 291 
 URE  HZ I         0 2 13.15        19.7 0.10            113            282 291 
 GUY2CHZ EP        0 1 42.81                             110    0.73 7  305 234 
 GUY2CHN ES        0 2 16.88                             110    0.69 7  305 234 
 GUY2CHZ I         0 2 25.55        16.4 0.38                           305 234 
 TOL  SZ EP        0 1 47.16                             107    0.28 6  348 224 
 TOL  SE ES        0 2 24.73                             107    0.00 6  348 224 
 TOL  SZ I         0 2 28.70         7.6 0.45            109            348 224 
 MON  HZ EP   4    0 1 44.23                             107   -2.40 0  350 308 
 MON  HE ES   4    0 2 22.77                             107   -1.52 0  350 308 
 ANIL HN ES        0 2 27.71                             107    0.20 6  362 224 
 ANIL HZ I         0 2 36.19        28.7 0.31            108            362 224 
 ORTC HZ EP        0 1 53.38                             105    0.72 6  401 216 
 ORTC HE ES        0 2 35.41                             105    0.39 6  401 216 
 ORTC HZ I         0 2 40.93         6.8 0.52            106            401 216 
 PAL  HZ EP   1    0 1 53.59                             104   -0.11 4  409 238 
 PAL  HE ES        0 2 36.40                             104   -0.47 6  409 238 
                                                                                
