 2014  225 0048 32.8 L   6.818 -73.156142.3  RSN 15 0.5 2.3LRSN                1
 GAP=134        1.03       2.7     4.0  5.8 -0.2023E+01  0.7655E+01 -0.1302E+01E
 Epicentro: LOS SANTOS - SANTANDER                                             3
 OLDACT:REG 14-02-25 07:57 OP:fm   STATUS:               ID:20140225004814     3
 ACTION:UPD 14-03-10 08:13 OP:ep   STATUS:               ID:20140225004832 L   I
 OLDACT:UP  14-02-25 09:46 OP:fm   STATUS:               ID:20140225004814     3
 2014-02-25-0048-14M.COL___239                                                 6
 STAT SP IPHASW D HRMM SECON CODA AMPLIT PERI AZIMU VELO AIN AR TRES W  DIS CAZ7
 BAR2 SZ EP        048 51.98                             170   -0.0310 25.2 187 
 BAR2 SZ ES        049  6.81                             170   -0.2110 25.2 187 
 BAR2 SZ I         049  8.12       106.7 0.34            170           25.2 187 
 PAM  SZ EP        048 54.91                             150    0.3610 76.6  41 
 PAM  SN ES        049 11.49                             150   -0.0610 76.6  41 
 PAM  SZ I         049 13.35        38.3 0.58            150           76.6  41 
 RUS  HZ EP     C  048 56.03                             142   -0.2910  103 175 
 RUS  HN ES        049 14.93                             142    0.2310  103 175 
 RUS  SZ I         049 16.11         7.6 0.26            144            103 175 
 PTB  HZ EP        048 58.80                             131   -0.57 9  147 258 
 PTB  HN ES        049 19.43                             131   -0.71 9  147 258 
 PTB  SZ I         049 25.78        22.7 0.18            129            147 258 
 OCA  HZ EP        049  0.11                             129   -0.48 9  158 353 
 OCA  HN ES        049 22.62                             129    0.32 9  158 353 
 OCA  SZ I         049 27.34        25.8 0.24            127            158 353 
 OCA  HZ I         049 27.51        23.8 0.16                           158 353 
 SPBC HZ EP   1    049  1.01                             128   -0.06 7  164 218 
 SPBC HE ES        049 23.09                             128   -0.07 9  164 218 
 SPBC SZ I         049 31.19        23.2 0.28            127            164 218 
 ZAR  HZ EP        049  5.62                             122    0.84 9  202 292 
 ZAR  HN ES        049 30.62                             122    0.85 9  202 292 
 ZAR  SZ I         049 36.23        28.9 0.26            119            202 292 
 NOR  HZ EP        049  8.30                             118   -0.01 8  235 234 
 NOR  HN ES        049 36.80                             118    0.75 8  235 234 
 NOR  SZ I         049 37.91        12.4 0.18            116            235 234 
 SML  HZ EP   1    049  8.44                             117   -0.49 6  241 335 
 SML  HN ES   2    049 36.30                             117   -0.85 4  241 335 
 SML  SZ I         049 40.84        22.6 0.08            115            241 335 
 CHI  HZ EP        049 10.37                             116   -0.07 8  250 195 
 CHI  HN ES        049 39.95                             116    0.11 8  250 195 
 CHI  SZ I         049 42.77         7.0 0.34            116            250 195 
 CHI  HZ I         049 44.04         6.7 0.68                           250 195 
 ROSC BZ EP   4    049 12.50                             116    1.69 0  254 211 
 ROSC BN ES   4    049 42.45                             116    1.95 0  254 211 
 URE  HN ES   1    049 44.36                             113   -0.84 6  282 292 
 GUY2CHZ EP   4    049 17.82                             112    1.59 0  301 234 
 GUY2CHN ES   4    049 55.67                             112    5.53 0  301 234 
 GUY2CSZ I         049 59.56         8.8 0.32                           301 234 
 COD  HZ EP   1    049 20.11                             108   -0.64 5  346 355 
 COD  HN ES   1    049 59.14                             108    0.96 5  346 355 
 COD  SZ I         050 22.75         7.0 1.74            107            346 355 
 PRA  HZ EP   1    049 26.80                             106    0.50 4  393 209 
 PRA  HN ES   1    050  8.09                             106    0.03 4  393 209 
 PRA  SZ I         050 15.24         9.2 0.44            105            393 209 
 ORTC HZ EP   4    049 27.81                             106    1.14 0  396 216 
 ORTC HN ES   4    050 10.65                             106    1.93 0  396 216 
 ORTC SZ I         050 19.67         7.0 0.90            105            396 216 
 SJC  HZ EP   4    049 26.49                             105   -1.44 0  407 327 
 SJC  HN ES   4    050  8.54                             105   -2.42 0  407 327 
                                                                                
