 2013  125 0322 12.4 L   6.746 -73.181146.3  RSN  5 0.2 1.1LRSN                1
 GAP=229        0.50       5.1     4.7  5.3  0.1489E+02  0.3694E+01  0.2541E+00E
 Epicentro: VILLANUEVA - SANTANDER                                             3
 ACTION:UPD 13-02-15 09:16 OP:ep   STATUS:               ID:20130125032212 L   I
 2013-01-25-0320-00M.COL___241                                                 6
 STAT SP IPHASW D HRMM SECON CODA AMPLIT PERI AZIMU VELO AIN AR TRES W  DIS CAZ7
 BAR2 SZ EP   1    322 31.95                             173   -0.06 7 17.0 181 
 BAR2 SZ ES   1    322 46.83                             173   -0.45 7 17.0 181 
 BRR  HZ EP   1    322 33.74                             153    0.12 7 71.0 304 
 BRR  HN ES   1    322 50.51                             153    0.36 7 71.0 304 
 RUS  HZ EP   1    322 35.92                             145    0.08 7 95.0 173 
 RUS  HN ES   1    322 54.32                             145    0.22 7 95.0 173 
 RUS  HZ I         322 56.37         1.6 0.30            142           95.0 173 
 PTB  HZ EP   1    322 38.81                             133   -0.20 7  143 261 
 PTB  HN ES   1    322 59.72                             133   -0.01 7  143 261 
 PTB  HZ I         323  2.96         2.6 0.40            131            143 261 
 ZAR  HE ES   1    323  9.90                             123   -0.12 6  203 294 
                                                                                
