 2017 1025 0420 43.1 L   6.789 -73.157140.2  RSN  7 0.2 1.4LRSN                1
 GAP=111        0.44       1.9     1.8  2.9 -0.9071E-01  0.1182E+01  0.4918E-01E
 Epicentro: LOS SANTOS - SANTANDER                                             3
 ACTION:UPD 17-11-07 19:36 OP:rebc STATUS:               ID:20171025042043 L   I
 OLDACT:REG 17-10-25 12:53 OP:dani STATUS:               ID:20171025041611     3
 2017-10-25-0418-00M.COL___446                                                 6
 STAT SP IPHASW D HRMM SECON CODA AMPLIT PERI AZIMU VELO AIN AR TRES W  DIS CAZ7
 BAR2 EZ EP        421  2.04                             171    0.0110 21.9 187 
 BAR2 EZ ES        421 16.81                             171    0.0210 21.9 187 
 BAR2 EZ I         421 18.34         9.6 0.40            169           21.9 187 
 PAM  EZ EP        421  4.76                             149   -0.0710 79.1  40 
 PAM  EE ES        421 21.72                             149   -0.0610 79.1  40 
 PAM  EZ I         421 23.82         4.4 0.40            154           79.1  40 
 RUS  HZ EP        421  6.31                             143    0.0810 99.5 175 
 RUS  HN ES        421 24.41                             143    0.1510 99.5 175 
 RUS  HZ I         421 25.95         4.8 0.26            145           99.5 175 
 PTB  HZ EP   1    421  9.59                             131    0.11 7  146 259 
 PTB  HE ES        421 30.19                             131    0.13 9  146 259 
 PTB  HZ I         421 35.11         1.6 0.31            131            146 259 
 SPBC HZ EP        421 11.20                             128    0.19 9  161 219 
 SPBC HN ES        421 32.33                             128   -0.45 9  161 219 
 SPBC HZ I         421 41.09         3.4 0.16            129            161 219 
 YPLC HZ EP        421 12.42                             125   -0.03 9  176 151 
 ZAR  HZ EP        421 14.96                             121   -0.15 9  203 293 
 ZAR  HN ES        421 40.15                             121    0.07 9  203 293 
 ZAR  HZ I         421 45.34         2.8 0.22            122            203 293 
                                                                                
