 2013  525 0847  7.4 L   6.713 -73.168145.3  RSN  6 0.4 2.0LRSN                1
 GAP=137        0.98       5.0     5.0  6.5 -0.2760E+01  0.3678E+01  0.3322E+01E
 Epicentro: VILLANUEVA - SANTANDER                                             3
 ACTION:UPD 13-06-20 09:53 OP:ep   STATUS:               ID:20130525084707 L   I
 2013-05-25-0838-50M.COL___210                                                 6
 STAT SP IPHASW D HRMM SECON CODA AMPLIT PERI AZIMU VELO AIN AR TRES W  DIS CAZ7
 BAR2 SZ EP        847 27.01                             174    0.1910 13.4 187 
 BAR2 SZ ES        847 41.89                             174   -0.0710 13.4 187 
 BAR2 SZ I         847 42.89        16.8 0.20            175           13.4 187 
 GIR2 SZ EP        847 27.28                             164   -0.0310 40.6 356 
 GIR2 SZ I         847 27.82        13.8 0.10            164           40.6 356 
 GIR2 SZ ES        847 42.63                             164   -0.2010 40.6 356 
 BRR  HZ IP     C  847 29.07                             151    0.3910 74.3 306 
 BRR  HN ES        847 46.05                             151    0.7810 74.3 306 
 BRR  HN I         847 46.73        41.4 0.20            152           74.3 306 
 PAM  SZ EP        847 30.11                             148   -0.0310 86.5  37 
 PAM  SN ES        847 47.42                             148   -0.4510 86.5  37 
 PAM  SN I         847 49.67        15.8 0.48            149           86.5  37 
 RUS  HZ EP        847 30.36                             146   -0.0910 91.2 174 
 RUS  HN ES        847 48.64                             146    0.2110 91.2 174 
 RUS  HN I         847 49.64        24.1 0.30            148           91.2 174 
 PTB  HZ EP        847 33.91                             133   -0.06 9  144 262 
 PTB  HN ES        847 53.96                             133   -0.74 9  144 262 
 PTB  HN I         847 55.34        17.7 0.38            134            144 262 
                                                                                
