 2017 1125 0456 36.7 L   6.888 -73.171149.2  RSN 27 0.7 2.5LRSN                1
 GAP= 56        1.53       3.4     3.4  6.8 -0.8516E+00  0.7715E+01 -0.1314E+01E
 Epicentro: BETULIA - SANTANDER                                                3
 ACTION:UPD 17-12-12 19:59 OP:rebc STATUS:               ID:20171125045637dL   I
 OLDACT:REG 17-11-25 13:21 OP:osc  STATUS:               ID:20171125044742     3
 2017-11-25-0448-00M.COL___488                                                 6
 STAT SP IPHASW D HRMM SECON CODA AMPLIT PERI AZIMU VELO AIN AR TRES W  DIS CAZ7
 BAR2 EZ EP        456 56.91                             167   -0.0710 32.7 182 
 BAR2 EZ ES        457 12.30                             167   -0.4910 32.7 182 
 BAR2 EZ I         457 13.50       110.2 0.20            167           32.7 182 
 PAM  EZ EP        456 59.89                             153    0.8910 72.1  46 
 PAM  EE ES        457 17.18                             153    0.8010 72.1  46 
 PAM  EZ I         457 19.37        45.3 0.66            157           72.1  46 
 RUS  HZ EP        457  0.90                             142   -0.6310  110 175 
 RUS  HN ES        457 20.05                             142   -0.8410  110 175 
 RUS  HZ I         457 20.72        35.3 0.24            144            110 175 
 PTB  HZ EP        457  3.32                             133   -0.60 9  147 255 
 PTB  HN ES        457 25.08                             133   -0.06 9  147 255 
 PTB  HZ I         457 26.78        27.6 0.58            133            147 255 
 OCA  HZ EP        457  5.46                             132    1.08 9  150 354 
 OCA  HE ES   4    457 28.29                             132    2.33 0  150 354 
 OCA  HZ I         457 33.33        64.8 0.26            134            150 354 
 TAM  HZ IP     C  457  5.36                             130    0.19 9  161 108 
 TAM  HE ES        457 27.39                             130    0.03 9  161 108 
 TAM  HZ I         457 28.98        12.1 0.52            135            161 108 
 SPBC HZ EP        457  5.90                             129   -0.15 9  169 216 
 SPBC HE ES        457 28.75                             129   -0.18 9  169 216 
 SPBC HZ I         457 35.02        56.6 0.14            130            169 216 
 YPLC HZ EP        457  7.53                             126   -0.20 9  187 152 
 YPLC HN ES        457 31.66                             126   -0.26 9  187 152 
 YPLC HZ I         457 32.34        52.0 0.28            129            187 152 
 ZAR  HZ EP        457  9.41                             124    0.64 9  198 290 
 ZAR  HN ES        457 34.79                             124    1.02 9  198 290 
 ZAR  HZ I         457 40.41        34.6 0.40            125            198 290 
 TABC EZ EP        457 14.43                             119    1.01 8  237 209 
 TABC EZ ES        457 43.17                             119    1.12 8  237 209 
 TABC EZ I         457 48.43        32.1 0.46            121            237 209 
 NOR  HZ EP        457 12.78                             119   -0.25 8  238 232 
 NOR  HE ES        457 41.47                             119    0.12 8  238 232 
 NOR  HZ I         457 48.77        25.7 0.20            120            238 232 
 CHI  HZ EP        457 15.19                             117   -0.36 8  257 194 
 CHI  HE ES        457 45.07                             117   -0.77 8  257 194 
 CHI  HZ I         457 46.84        17.4 0.38            119            257 194 
 ROSC BZ EP        457 16.75                             117    0.96 8  260 209 
 ROSC BE ES   4    457 49.44                             117    3.18 0  260 209 
 ROSC BZ I         457 53.11        26.6 0.30            118            260 209 
 URE  HZ EP        457 16.80                             115   -0.48 7  278 290 
 URE  HE ES        457 48.21                             115   -0.71 7  278 290 
 URE  HZ I         457 52.55        19.2 0.16            116            278 290 
 GUY2CHZ EP        457 22.11                             113    1.23 7  305 233 
 GUY2CHE ES        457 54.74                             113   -0.58 7  305 233 
 GUY2CHZ I         458  2.17        14.8 0.58                           305 233 
 VIL  EE ES        457 55.69                             112   -0.40 7  312 191 
 ELA  HZ EP   9    457 26.96                             111    2.75 0  333 228 
 ELA  HE ES        458  4.00                                   -0.00 7  333 228 
 ELA  HZ I         458 16.18        10.7 0.46            112            333 228 
 CBOC HZ EP        457 24.65                             110    0.82 7  334 250 
 CBOC HE ES        458  0.64                             110    0.06 7  334 250 
 CBOC HZ I         458 18.01         6.5 0.56            111            334 250 
 DBB  EZ EP        457 23.29                             110   -0.66 7  336 273 
 DBB  HN ES        458  0.05                             110   -0.74 7  336 273 
 DBB  EZ I         458  2.50        11.0 0.28            111            336 273 
 ARGC HZ EP        457 24.53                             109   -0.81 6  349 340 
 SDV  B2 ES        458  4.34                             109   -0.87 6  356  52 
 ANIL HZ EP        457 28.31                             109    1.07 6  362 223 
 ANIL HE ES        458  8.64                             109    1.99 6  362 223 
 APAC HE ES        458 11.89                             107   -0.34 6  393 287 
 PRA  HZ EP        457 30.85                             107   -0.34 6  399 209 
 PRA  HN ES        458 12.16                             107   -1.52 6  399 209 
 PRA  HZ I         458 16.98        11.4 0.28            108            399 209 
 SJC  HZ EP        457 30.96                             107   -0.31 6  400 327 
 SJC  HN ES        458 12.36                             107   -1.45 6  400 327 
 SJC  HZ I         458 19.74         4.3 0.32            108            400 327 
 ORTC HZ EP        457 31.12                             107   -0.37 6  402 215 
 ORTC HE ES        458 14.24                             107    0.03 6  402 215 
 ORTC HZ I         458 20.93         7.0 0.22            108            402 215 
 PAL  HZ EP        457 31.73                             106   -0.58 6  408 238 
 PAL  HE ES        458 15.10                             106   -0.57 6  408 238 
 PAL  HZ I         458 18.89         5.4 0.24            107            408 238 
                                                                                
