 2010 1225 0832  8.0 L   6.769 -73.202145.0  RSN  6 0.4 1.4LRSN                1
 GAP=153        0.92       6.4    10.8 11.1 -0.1441E+02  0.3278E+02 -0.3623E+02E
 Epicentro: VILLANUEVA - SANTANDER                                             3
 ACTION:UP  11-01-14 15:27 OP:pat  STATUS:               ID:20101225083208 L   I
 2010-12-25-0830-19S.COL___136                                                 6
 STAT SP IPHASW D HRMM SECON CODA AMPLIT PERI AZIMU VELO SNR AR TRES W  DIS CAZ7
 BTL  SZ EP        832 27.63                             173     0.210   18 336 
 BAR2 SZ EP   1    832 27.25                             172    -0.2 7   20 174 
 BAR2 SZ ES   1    832 42.51                             172    -0.1 7   20 174 
 BAR2 SZ I         832 44.06        13.2 0.32                            20 174 
 RUS  HZ EP   1    832 31.26                             144    -0.2 7   98 172 
 RUS  HE ES   1    832 49.79                             144     0.0 7   98 172 
 RUS  HZ I         832 51.12         2.5 0.30                            98 172 
 GRA  SZ IP        832 34.19                             135     0.610  131  20 
 GRA  SZ I         832 55.98         2.7 0.45                           131  20 
 OCA  SZ EP   1    832 35.64                             129    -0.9 7  163 355 
 OCA  SZ ES   2    832 58.63                             129    -0.1 5  163 355 
 OCA  SZ I         833  4.14         3.2 0.46                           163 355 
 HEL  HZ EP   2    832 47.43                             115     0.0 4  265 256 
 HEL  HN ES   2    833 18.48                             115     0.3 4  265 256 
 HEL  HZ I         833 25.93         1.6 0.18                           265 256 
                                                                                
