 2016  625 0726 44.9 L   6.791 -73.156143.5  RSN 19 0.3 2.3LRSN                1
 GAP=119        0.84       2.7     2.8  4.7 -0.8512E+00  0.2703E+01  0.4000E+01E
 Epicentro: LOS SANTOS - SANTANDER                                             3
 ACTION:UPD 16-07-21 22:22 OP:rebc STATUS:               ID:20160625072644 L   I
 OLDACT:DUP 16-06-25 16:46 OP:ak   STATUS:               ID:20160625071746d    3
 2016-06-25-0717-45M.COL___321                                                 6
 STAT SP IPHASW D HRMM SECON CODA AMPLIT PERI AZIMU VELO AIN AR TRES W  DIS CAZ7
 BRR  HZ EP        727  5.92                             152    0.1210 70.6 300 
 BRR  HN ES        727 22.39                             152    0.3110 70.6 300 
 BRR  HZ I         727 27.33        24.6 0.26                          70.6 300 
 PAM  EZ EP        727  7.14                             150    0.1510 78.9  40 
 PAM  EE ES        727 24.30                             150    0.1010 78.9  40 
 PAM  EZ I         727 26.31        43.4 0.50                          78.9  40 
 RUS  HZ EP        727  8.51                             144    0.1210 99.7 175 
 RUS  HN ES        727 26.44                             144   -0.2510 99.7 175 
 RUS  HZ I         727 27.96        14.6 0.20                          99.7 175 
 PTB  HZ EP        727 10.79                             132   -0.79 9  146 259 
 PTB  HN ES        727 32.28                             132   -0.10 9  146 259 
 PTB  HZ I         727 35.68        15.7 0.18                           146 259 
 SPBC HZ EP        727 12.99                             129   -0.12 9  162 219 
 SPBC HN ES        727 34.96                             129   -0.13 9  162 219 
 SPBC HZ I         727 39.80        27.0 0.06                           162 219 
 ZAR  HZ EP   4    727 11.88                             122   -5.27 0  203 293 
 ZAR  HE ES        727 42.09                             122   -0.19 9  203 293 
 ZAR  HZ I         727 48.74        19.3 0.28                           203 293 
 NOR  HZ EP        727 20.05                             118   -0.31 8  233 234 
 NOR  HN ES        727 47.35                             118   -0.65 8  233 234 
 NOR  HZ I         727 53.74        17.1 0.16                           233 234 
 CHI  HZ EP        727 22.36                             117   -0.00 8  247 195 
 CHI  HN ES        727 51.92                             117    0.36 8  247 195 
 CHI  HZ I         727 55.20        11.9 0.58                           247 195 
 ROSC BZ EP   4    727 24.39                             116    1.63 0  251 211 
 ROSC BN ES        727 53.02                             116    0.74 8  251 211 
 ROSC BZ I         727 58.00        19.5 0.40                           251 211 
 HEL  HZ EP   2    727 25.21                             114    0.34 4  271 256 
 HEL  HN ES        727 55.92                             114   -0.10 8  271 256 
 HEL  HZ I         728  3.15        11.3 0.42                           271 256 
 URE  HZ EP   9    727 23.96                             113   -1.84 0  283 292 
 URE  HN ES        727 56.38                                    0.53 7  283 292 
 URE  HZ I         728  5.15         9.3 0.38                           283 292 
 GUY2CHZ EP   9    727 29.55                             112    1.29 0  300 235 
 GUY2CHE ES        728  3.74                                    0.39 7  300 235 
 GUY2CHZ I         728 10.33         8.2 0.26                           300 235 
 PTGC HZ EP   9    727 26.96                             111   -1.67 0  308 158 
 PTGC HE ES        728  0.36                                   -0.69 7  308 158 
 PTGC HZ I         728  2.14        10.9 0.27                           308 158 
 CBOC HZ EP        727 31.35                             110   -0.23 7  332 252 
 CBOC HE ES        728  8.75                             110    0.78 7  332 252 
 CBOC HZ I         728 14.25         3.2 0.24                           332 252 
 ANIL HZ EP   4    727 37.75                             108    3.29 0  356 224 
 ANIL HN ES   4    728 14.83                             108    1.72 0  356 224 
 ANIL HZ I         728 18.81        24.5 0.38                           356 224 
 PRA  HZ EP        727 38.34                             106    0.14 6  391 209 
 PRA  HN ES        728 19.90                             106    0.15 6  391 209 
 PRA  HZ I         728 28.51         8.0 0.50                           391 209 
 ORTC HZ EP        727 39.05                             106    0.46 6  394 216 
 ORTC HN ES        728 20.34                             106   -0.12 6  394 216 
 ORTC HZ I         728 25.51         5.7 0.30                           394 216 
 PAL  HZ EP        727 39.91                             106    0.08 6  404 239 
 PAL  HN ES        728 22.84                             106    0.18 6  404 239 
 PAL  HZ I         728 25.79         3.1 0.29                           404 239 
 CRJC HZ EP   9    727 44.49                             103   -2.99 0  469   4 
 CRJC HN ES        728 32.24                                   -1.05 5  469   4 
 CRJC HZ I         728 39.48         4.1 0.22                           469   4 
                                                                                
