 2015  325 0109 24.1 L   6.818 -73.175139.4  RSN 12 0.4 1.7LRSN                1
 GAP=132        1.02       3.0     3.9  6.7 -0.2404E+01  0.8756E+01 -0.2866E+01E
 Epicentro: ZAPATOCA - SANTANDER                                               3
 ACTION:UPD 15-04-30 16:29 OP:nd   STATUS:               ID:20150325010924 L   I
 OLDACT:UP  15-03-25 16:34 OP:fm   STATUS:               ID:20150325010740     3
 OLDACT:REG 15-03-25 12:42 OP:fm   STATUS:               ID:20150325010740     3
 2015-03-25-0107-40M.COL___278                                                 6
 STAT SP IPHASW D HRMM SECON CODA AMPLIT PERI AZIMU VELO AIN AR TRES W  DIS CAZ7
 BAR2 EZ ES   1    1 9 58.12                             169    0.37 7 24.9 182 
 BAR2 EZ I         1 9 59.07        11.9 0.34            169           24.9 182 
 BRR  HZ IP     C  1 9 44.98                             153    0.6310 67.4 298 
 BRR  HN ES        110  0.38                             153    0.2310 67.4 298 
 BRR  HZ I         110  4.91        11.2 0.28            149           67.4 298 
 PAM  SZ EP        1 9 46.08                             149    0.4010 78.0  42 
 PAM  SN ES        110  2.09                             149   -0.4310 78.0  42 
 PAM  SZ I         110  5.07         7.3 0.48            154           78.0  42 
 RUS  HZ EP        1 9 47.43                             142    0.0310  103 174 
 RUS  HN ES        110  4.85                             142   -0.7210  103 174 
 RUS  HZ I         110  7.29         3.6 0.22            145            103 174 
 PTB  HN ES        110 10.61                             131   -0.13 9  145 258 
 PTB  HZ I         110 15.85         8.4 0.14            130            145 258 
 OCA  HE ES        110 13.58                             128    0.34 9  158 354 
 SPBC HE ES        110 14.40                             128    0.51 9  163 218 
 SPBC HZ I         110 21.40         6.0 0.26            128            163 218 
 ZAR  HZ EP        1 9 55.46                             121   -0.29 9  200 292 
 ZAR  HN ES        110 20.41                             121   -0.03 9  200 292 
 ZAR  HZ I         110 28.91         4.9 0.12            121            200 292 
 NOR  HZ EP   4    1 9 56.63                             117   -2.68 0  233 234 
 NOR  HN ES        110 26.33                             117   -0.44 8  233 234 
 NOR  HZ I         110 33.05         3.4 0.16            118            233 234 
 SML  HZ EP        1 9 59.91                             116   -0.13 8  241 336 
 SML  HE ES        110 27.28                             116   -0.79 8  241 336 
 SML  HZ I         110 36.86         7.4 0.24            117            241 336 
 HEL  HN ES        110 34.65                             114    0.06 8  269 255 
 HEL  HZ I         110 41.88         4.3 0.34            114            269 255 
 GUY2CHZ EP   1    110  7.69                             111    0.44 5  300 234 
 GUY2CHE ES   4    110 43.99                             111    3.08 0  300 234 
 SJC  HN ES   4    110 56.95                             105   -4.98 0  406 327 
                                                                                
