 2015  325 0720 25.6 L   6.870 -73.135128.0  RSN  4 0.1 0.9LRSN                1
 GAP=244        0.36       3.4     3.3  3.8  0.8849E+01  0.1244E+01  0.1214E+01E
 Epicentro: LOS SANTOS - SANTANDER                                             3
 ACTION:UPD 15-04-30 16:29 OP:nd   STATUS:               ID:20150325072025 L   I
 OLDACT:REG 15-03-25 13:25 OP:fm   STATUS:               ID:20150325071747     3
 2015-03-25-0717-47M.COL___269                                                 6
 STAT SP IPHASW D HRMM SECON CODA AMPLIT PERI AZIMU VELO AIN AR TRES W  DIS CAZ7
 BRR  HN ES        720 59.61                             150   -0.0210 68.9 292 
 BRR  HZ I         721  3.95         2.6 0.46            147           68.9 292 
 RUS  HZ EP        720 48.14                             138   -0.1210  108 177 
 RUS  HN ES        721  6.03                             138    0.0910  108 177 
 RUS  HZ I         721  8.77         0.8 0.26            139            108 177 
 PTB  HZ EP        720 51.55                             127    0.10 9  151 256 
 PTB  HN ES        721 11.52                             127   -0.09 9  151 256 
 PTB  HZ I         721 17.52         1.1 0.50            127            151 256 
 ZAR  HN ES        721 21.14                             118    0.06 9  202 290 
 ZAR  HZ I         721 28.38         1.3 0.28            119            202 290 
                                                                                
