 2013  925 0323 51.8 L   6.860 -73.379125.2  RSN  7 0.5 1.6LRSN                1
 GAP=141        1.19       4.0     5.9  7.7  0.4386E+01  0.4736E+01 -0.9177E+01E
 Epicentro: SAN VICENTE DE CHUCURI - SANTANDER                                 3
 ACTION:UPD 13-10-22 09:24 OP:ep   STATUS:               ID:20130925032351 L   I
 OLDACT:REG 13-09-25 07:46 OP:nd   STATUS:               ID:20130925031959     3
 2013-09-25-0319-59M.COL___269                                                 6
 STAT SP IPHASW D HRMM SECON CODA AMPLIT PERI AZIMU VELO AIN AR TRES W  DIS CAZ7
 BAR2 SZ EP        324  9.57                             163    0.2210 36.7 144 
 BAR2 SZ ES        324 23.04                             163   -0.0110 36.7 144 
 BAR2 SZ I         324 23.94        13.3 0.34            170           36.7 144 
 BRR  HZ EP        324  9.94                             159    0.5810 45.8 307 
 BRR  HN ES        324 23.83                             159    0.7510 45.8 307 
 BRR  HZ I         324 24.95         9.2 0.13            155           45.8 307 
 RUS  HZ EP        324 14.72                             136    0.2210  112 163 
 RUS  HN ES        324 31.74                             136   -0.4910  112 163 
 RUS  HZ I         324 33.24         3.1 0.26            141            112 163 
 PTB  HZ EP        324 14.81                             132   -0.1310  124 254 
 PTB  HN ES        324 32.29                             132   -0.7210  124 254 
 PTB  HZ I         324 37.13         3.9 0.20            133            124 254 
 OCA  HZ EP        324 18.04                             126    0.22 9  153   2 
 OCA  HN ES        324 37.16                             126   -0.97 9  153   2 
 OCA  HZ I         324 45.91         4.0 0.30            126            153   2 
 ZAR  HZ EP        324 20.23                             121    0.05 9  178 293 
 ZAR  HN ES   2    324 43.05                             121    0.73 4  178 293 
 ZAR  HZ I         324 48.01         5.8 0.36            122            178 293 
 SML  HZ EP        324 25.68                             114    0.11 8  228 340 
 SML  HN ES        324 51.78                             114   -0.15 8  228 340 
 SML  HZ I         325  1.61         5.5 0.07            115            228 340 
                                                                                
