 2011  625 0834 57.3 L   6.817 -73.092147.9  RSN  6 0.2 1.5LRSN                1
 GAP=164        0.58       5.4     8.1  6.7  0.4893E+01 -0.1122E+02  0.1436E+02E
 Epicentro: LOS SANTOS - SANTANDER                                             3
 ACTION:UP  11-07-14 19:07 OP:ep   STATUS:               ID:20110625083457 L   I
 2011-06-25-0820-00M.COL___124                                                 6
 STAT SP IPHASW D HRMM SECON CODA AMPLIT PERI AZIMU VELO SNR AR TRES W  DIS CAZ7
 BTL  SZ EP        835 17.61                             171     0.410   22 300 
 BAR2 SZ EP        835 17.15                             169    -0.210   27 202 
 BAR2 SZ I         835 18.08         6.4 0.86                            27 202 
 BAR2 SZ ES   2    835 32.77                             169    -0.1 5   27 202 
 GIR2 SZ EP        835 17.44                             167     0.210   31 339 
 GIR2 SZ ES   1    835 32.84                             167     0.0 7   31 339 
 BRR  HZ EP        835 18.89                             151    -0.110   76 295 
 BRR  HN ES   1    835 35.68                             151    -0.2 7   76 295 
 BRR  HZ I         835 39.55        11.4 0.17                            76 295 
 RUS  HZ EP        835 21.32                             144    -0.110  102 179 
 RUS  HZ I         835 41.20         2.9 0.28                           102 179 
 GRA  SZ EP   3    835 21.79                             138    -0.7 2  122  15 
 GRA  SZ ES   2    835 41.84                             138    -0.3 5  122  15 
 GRA  SZ I         835 43.03         3.0 0.39                           122  15 
                                                                                
