 2013 1125 0156 48.5 L   6.842 -73.124157.2  RSN  8 0.5 1.8LRSN                1
 GAP=155        1.10       3.8     5.6  8.1 -0.3982E+01  0.4853E+01  0.2834E+01E
 Epicentro: LOS SANTOS - SANTANDER                                             3
 ACTION:UPD 14-01-09 16:30 OP:ep   STATUS:               ID:20131125015648 L   I
 OLDACT:REG 13-11-25 07:55 OP:mh   STATUS:               ID:20131125015000     3
 2013-11-25-0150-00M.COL___282                                                 6
 STAT SP IPHASW D HRMM SECON CODA AMPLIT PERI AZIMU VELO AIN AR TRES W  DIS CAZ7
 BRR  HZ EP        157 11.62                             154    0.7310 71.3 294 
 BRR  HN ES   1    157 28.56                             154    0.20 7 71.3 294 
 PAM  SZ EP        157 12.34                             154    0.6810 72.3  40 
 PAM  SN ES        157 29.30                             154   -0.4310 72.3  40 
 PAM  SZ I         157 31.71         3.9 0.19            152           72.3  40 
 PTB  HZ EP        157 16.14                             134   -0.56 9  151 257 
 PTB  HN ES   1    157 39.21                             134    0.51 7  151 257 
 PTB  HZ I         157 42.30         5.2 0.12            132            151 257 
 OCA  HZ EP        157 17.67                             133    0.35 9  156 352 
 OCA  HZ I         157 27.22        13.6 0.45            130            156 352 
 OCA  HN ES   2    157 39.28                             133   -0.54 5  156 352 
 SPBC HZ EP   1    157 18.49                             131    0.13 7  168 219 
 SPBC HN ES        157 41.44                             131   -0.22 9  168 219 
 SPBC HZ I         157 43.67        19.8 0.04            129            168 219 
 ZAR  HZ EP   1    157 21.55                             125   -0.20 6  205 291 
 ZAR  HN ES        157 47.97                             125    0.27 9  205 291 
 SML  HZ EP        157 24.74                             120   -0.70 8  241 334 
 SML  HN ES        157 53.75                             120   -0.52 8  241 334 
 SML  HZ I         158  4.66         8.9 0.09            118            241 334 
 CHI  HZ EP        157 27.55                             119    0.16 8  254 195 
 CHI  HN ES        157 57.15                             119   -0.58 8  254 195 
 CHI  HZ I         158  3.22         1.0 0.20            118            254 195 
 GUY2CHZ EP   4    157 34.97                             114    1.81 0  306 234 
 GUY2CHN ES   4    158  9.97                             114    1.96 0  306 234 
                                                                                
