 2011 1225 0442 34.1 L   6.755 -73.130149.5  RSN  9 0.4 1.8LRSN                1
 GAP=184        0.93       4.4     5.6  6.3  0.2372E+01  0.3114E+01  0.5247E+00E
 Epicentro: LOS SANTOS - SANTANDER                                             3
 ACTION:UPD 12-07-13 16:18 OP:ep   STATUS:               ID:20111225044234 L   I
 2011-12-25-0440-00M.COL___186                                                 6
 STAT SP IPHASW D HRMM SECON CODA AMPLIT PERI AZIMU VELO AIN AR TRES W  DIS CAZ7
 BAR2 SZ EP        442 53.99                             172   -0.1310 18.9 198 
 BAR2 SZ ES        443  9.56                             172   -0.1610 18.9 198 
 BAR2 SZ I         443 10.74        12.1 0.32                          18.9 198 
 GIR2 SZ EP   1    442 54.18                             166   -0.20 7 36.5 349 
 BRR  HZ EP        442 55.96                             152    0.0710 75.2 301 
 BRR  HN ES        443 13.66                             152    0.7810 75.2 301 
 BRR  HZ I         443 15.16        11.3 0.13                          75.2 301 
 RUS  HZ EP   1    442 57.81                             146   -0.07 7 95.5 177 
 RUS  HE ES   1    443 16.15                             146   -0.27 7 95.5 177 
 RUS  HZ I         443 17.85         7.0 0.38                          95.5 177 
 PTB  HZ EP        443  0.87                             133   -0.60 9  149 261 
 PTB  HE ES   1    443 22.21                             133   -0.59 7  149 261 
 OCA  SZ EP        443  3.38                             130    0.18 9  165 353 
 OCA  SZ I         443 36.20         6.3 0.25                           165 353 
 ZAR  HE ES   1    443 32.31                             123   -0.64 6  208 293 
 ZAR  HZ I         443 38.88         9.0 0.18                           208 293 
 NOR  SZ EP   1    443 10.18                             120    0.26 6  233 236 
 NOR  SE ES   1    443 38.51                             120    0.67 6  233 236 
 CHI  HZ EP   1    443 11.95                             118    0.39 6  244 196 
 CHI  HN ES   1    443 41.28                             118    0.51 6  244 196 
 CHI  HZ I         443 47.33         3.9 0.55                           244 196 
                                                                                
