 2013  625 0814 25.1 L   6.746 -73.184145.6  RSN  4 0.2 0.8LRSN                1
 GAP=229        0.45       6.0     5.4  5.7  0.2042E+02  0.1063E+02  0.1134E+02E
 Epicentro: VILLANUEVA - SANTANDER                                             3
 ACTION:UPD 14-01-08 09:57 OP:ep   STATUS:               ID:20130625081425 L   I
 OLDACT:REG 13-06-25 06:48 OP:jn   STATUS:               ID:20130625080960d    3
 2013-06-25-0809-59M.COL___267                                                 6
 STAT SP IPHASW D HRMM SECON CODA AMPLIT PERI AZIMU VELO AIN AR TRES W  DIS CAZ7
 BAR2 SZ ES   1    814 59.66                             173   -0.19 7 17.1 179 
 BRR  HE ES   1    815  2.84                             153    0.15 7 70.6 304 
 BRR  HZ I         815  7.01         1.2 0.19            152           70.6 304 
 RUS  HZ EP   1    814 48.29                             145   -0.20 7 95.1 173 
 RUS  HN ES   1    815  6.93                             145    0.24 7 95.1 173 
 RUS  HZ I         815  7.84         1.1 0.32            150           95.1 173 
 PTB  HZ EP   1    814 51.80                             133    0.18 7  142 261 
 PTB  HN ES   1    815 12.10                             133   -0.17 7  142 261 
 PTB  HZ I         815 14.26         1.0 0.40            135            142 261 
                                                                                
