 2013  925 0520 51.0 L   6.808 -73.160146.2  RSN  9 0.4 1.8LRSN                1
 GAP=134        0.90       3.4     3.7  5.2 -0.1855E+01  0.5473E+01 -0.9923E+00E
 Epicentro: LOS SANTOS - SANTANDER                                             3
 ACTION:UPD 13-10-22 09:24 OP:ep   STATUS:               ID:20130925052051 L   I
 OLDACT:REG 13-09-25 07:52 OP:nd   STATUS:               ID:20130925051959     3
 2013-09-25-0519-59M.COL___269                                                 6
 STAT SP IPHASW D HRMM SECON CODA AMPLIT PERI AZIMU VELO AIN AR TRES W  DIS CAZ7
 BAR2 SZ EP        521 10.69                             170    0.0110 24.0 186 
 BAR2 SZ ES        521 26.05                             170    0.0110 24.0 186 
 BAR2 SZ I         521 27.97         8.0 0.26            174           24.0 186 
 BRR  HZ EP        521 12.42                             153    0.3510 69.3 299 
 BRR  HN ES        521 29.27                             153    0.7510 69.3 299 
 BRR  HZ I         521 33.57         6.7 0.14            145           69.3 299 
 PAM  SZ EP        521 13.40                             151    0.1410 77.7  41 
 PAM  SN ES        521 30.25                             151   -0.3910 77.7  41 
 PAM  SZ I         521 32.48        12.9 0.52            144           77.7  41 
 RUS  HZ EP        521 15.05                             144    0.2010  102 175 
 RUS  HN ES        521 33.33                             144   -0.1310  102 175 
 RUS  HZ I         521 35.07         7.9 0.30            144            102 175 
 PTB  HZ EP        521 17.35                             132   -0.51 9  146 258 
 PTB  HN ES        521 38.16                             132   -0.66 9  146 258 
 PTB  HZ I         521 41.05         6.9 0.12            127            146 258 
 SPBC HZ EP        521 19.55                             129    0.07 9  163 218 
 SPBC HN ES        521 41.54                             129   -0.18 9  163 218 
 SPBC HZ I         521 48.95        10.0 0.24            126            163 218 
 ZAR  HZ EP        521 23.42                             123    0.16 9  202 292 
 ZAR  HN ES        521 48.43                             123   -0.02 9  202 292 
 ZAR  HZ I         521 55.94         5.0 0.12            116            202 292 
 NOR  HZ EP        521 27.08                             119    0.43 8  234 234 
 NOR  HN ES        521 54.62                             119    0.15 8  234 234 
 NOR  HZ I         522  0.21         5.0 0.24            114            234 234 
 SML  HZ EP        521 26.99                             118   -0.48 8  242 336 
 SML  HZ I         522  1.43         8.3 0.10            112            242 336 
                                                                                
