 2017  125 0613 15.9 L   6.218 -73.956 88.0  RSN  9 0.3 1.6LRSN                1
 GAP=108        0.87       2.5     2.6  6.7 -0.2121E+01 -0.2514E+01  0.6451E+01E
 Epicentro: CIMITARRA - SANTANDER                                              3
 ACTION:UPD 17-05-22 16:03 OP:jn   STATUS:               ID:20170125061315 L   I
 OLDACT:UP  17-01-25 16:19 OP:lv   STATUS:               ID:20170125060742d    3
 OLDACT:DUP 17-01-25 15:57 OP:lv   STATUS:               ID:20170125060742d    3
 2017-01-25-0608-00M.COL___355                                                 6
 STAT SP IPHASW D HRMM SECON CODA AMPLIT PERI AZIMU VELO AIN AR TRES W  DIS CAZ7
 PTB  HZ EP        613 30.22                             140   -0.6210 65.8 303 
 PTB  HN ES        613 42.43                             140   -0.0310 65.8 303 
 PTB  HZ I         613 45.67         8.4 0.10            146           65.8 303 
 BAR2 EZ EP        613 33.72                             129   -0.0010 95.0  64 
 BAR2 EZ ES        613 47.70                             129    0.1110 95.0  64 
 BAR2 EZ I         613 48.85        12.5 0.26            134           95.0  64 
 BRR  HZ IP     D  613 33.83                             127   -0.2510  102  15 
 BRR  HN ES        613 48.75                             127    0.5310  102  15 
 BRR  HZ I         613 49.43        20.7 0.14            133            102  15 
 NOR  HZ EP        613 36.39                             121   -0.0610  124 234 
 NOR  HN ES        613 52.09                             121   -0.3610  124 234 
 NOR  HZ I         613 54.42         9.3 0.15            124            124 234 
 ZAR  HE ES        614  2.31                             112    0.44 9  173 325 
 ZAR  HZ I         614  3.70         8.1 0.16            116            173 325 
 CHI  HZ EP        613 42.84                             112    0.05 9  177 172 
 CHI  HE ES        614  4.14                             112    0.40 9  177 172 
 CHI  HZ I         614 12.27         2.1 0.35            114            177 172 
 PAM  EZ EP        613 43.58                             111   -0.32 9  186  48 
 PAM  EN ES        614  5.38                             111   -0.33 9  186  48 
 PAM  EZ I         614  7.80         3.5 0.23            114            186  48 
 CBOC HZ EP        613 49.23                             106    0.47 8  231 260 
 CBOC HE ES   4    614 10.91                             106   -3.45 0  231 260 
 ORTC HZ EP        613 56.25                             102    0.27 7  293 209 
 ORTC HE ES   4    614 29.99                             102    2.78 0  293 209 
 ORTC HZ I         614 33.60         3.0 0.46            104            293 209 
                                                                                
