 2011  625 0258 16.2 L   6.797 -73.130139.0  RSN 15 0.4 2.5LRSN                1
 GAP=115        0.85       2.7     4.4  6.5 -0.1840E+01  0.1329E+02  0.4242E+01E
 Epicentro: LOS SANTOS - SANTANDER                                             3
 ACTION:UP  11-07-14 19:07 OP:ep   STATUS:               ID:20110625025816 L   I
 2011-06-25-0257-56S.COL___140                                                 6
 STAT SP IPHASW D HRMM SECON CODA AMPLIT PERI AZIMU VELO SNR AR TRES W  DIS CAZ7
 BAR2 SZ IP        258 34.93                             170    -0.110   23 194 
 BAR2 SZ I         258 50.77        86.7 0.26                            23 194 
 BRR  HZ IP     D  258 36.84                             151     0.110   73 298 
 BRR  HN ES   2    258 53.85                             151     1.1 5   73 298 
 BRR  HZ I         258 58.21       101.4 0.21                            73 298 
 PAM  SZ IP        258 37.97                             150     0.310   77  38 
 PAM  SN ES   1    258 54.58                             150     0.2 7   77  38 
 RUS  HZ EP        258 38.88                             142    -0.410  100 177 
 RUS  HN ES   1    258 57.01                             142    -0.2 7  100 177 
 RUS  HZ I         258 59.20        32.3 0.50                           100 177 
 BRI  SZ IP        258 39.63                             140     0.210  108  20 
 BRI  SZ ES   1    258 57.31                             140    -0.2 7  108  20 
 GRA  SZ IP        258 40.93                             135     0.110  126  17 
 GRA  SZ I         258 42.22        54.8 0.34                           126  17 
 GRA  SZ ES   1    259  0.06                             135     0.0 7  126  17 
 OCA  SZ EP        258 43.80                             128    -0.2 9  161 353 
 OCA  SZ ES   1    259  4.90                             128    -0.9 7  161 353 
 OCA  SZ I         259 11.80        56.3 0.24                           161 353 
 YOP  SZ EP        258 45.69                             125     0.0 9  178 154 
 YOP  SN ES   1    259  8.75                             125     0.1 7  178 154 
 NOR  SZ EP        258 51.39                             117    -0.3 8  236 235 
 NOR  SN ES   2    259 18.59                             117    -0.8 4  236 235 
 HEL  HZ EP   1    258 56.54                             113     0.3 6  274 256 
 HEL  HN ES   2    259 27.54                             113     0.0 4  274 256 
 HEL  HZ I         259 32.09        11.1 0.45                           274 256 
 GUY  SZ EP   2    259  1.43                             111     1.5 4  305 235 
 GUY  SN ES   3    259 34.57                             111     0.6 2  305 235 
 GUY  SZ I         259 39.07        14.8 0.51                           305 235 
 RREF HZ EP   1    259  3.10                             109     0.9 5  323 230 
 RREF HN ES   2    259 37.97                             109    -0.1 3  323 230 
 RREF HZ I         259 47.05        12.1 0.20                           323 230 
 DBB  SZ EP        259  3.60                             108     0.0 7  341 274 
 TOL  SZ EP        259  3.90                             108    -0.4 7  345 225 
 PRA  HZ EP        259  9.44                             105    -0.1 6  393 210 
 PRA  HN ES   1    259 51.46                             105     0.3 4  393 210 
 PRA  HZ I         259 53.44        22.9 0.34                           393 210 
                                                                                
