 2017  725 0705 12.7 L   6.812 -73.140138.5  RSN 13 0.5 1.5LRSN                1
 GAP=112        0.92       3.2     3.2  5.3  0.7961E+00  0.5189E+01  0.4655E+01E
 Epicentro: LOS SANTOS - SANTANDER                                             3
 ACTION:UPD 17-08-30 15:36 OP:rebc STATUS:               ID:20170725070512 L   I
 OLDACT:UP  17-07-25 15:56 OP:and  STATUS:               ID:20170725065735     3
 OLDACT:UP  17-07-25 15:56 OP:and  STATUS:               ID:20170725065735     3
 OLDACT:UP  17-07-25 15:52 OP:and  STATUS:               ID:20170725065735     3
 OLDACT:UP  17-07-25 15:51 OP:and  STATUS:               ID:20170725065735     3
 OLDACT:UP  17-07-25 15:51 OP:and  STATUS:               ID:20170725065735     3
 OLDACT:REG 17-07-25 12:48 OP:and  STATUS:               ID:20170725065735     3
 2017-07-25-0658-00M.COL___386                                                 6
 STAT SP IPHASW D HRMM SECON CODA AMPLIT PERI AZIMU VELO AIN AR TRES W  DIS CAZ7
 BAR2 EZ EP        7 5 31.32                             169   -0.1610 24.8 191 
 BAR2 EZ ES        7 5 46.25                             169    0.1110 24.8 191 
 BAR2 EZ I         7 5 47.24         6.6 0.18            168           24.8 191 
 BRR  HZ EP        7 5 33.22                             151    0.1710 71.1 297 
 BRR  HN ES        7 5 49.29                             151    0.3610 71.1 297 
 BRR  HZ I         7 5 53.64         4.2 0.10            151           71.1 297 
 PAM  EZ EP        7 5 34.35                             150    0.3010 76.0  40 
 PAM  EN ES        7 5 50.51                             150   -0.2010 76.0  40 
 PAM  EZ I         7 5 52.95        10.1 0.44            154           76.0  40 
 RUS  HZ EP        7 5 35.75                             142   -0.0810  102 176 
 RUS  HN ES        7 5 53.61                             142   -0.2810  102 176 
 RUS  HZ I         7 5 55.55         6.6 0.26            143            102 176 
 PTB  HZ EP        7 5 38.19                             130   -0.96 9  149 258 
 PTB  HN ES   2    7 5 58.97                             130   -0.82 5  149 258 
 PTB  HZ I         7 6  1.95         3.6 0.16            131            149 258 
 SPBC HZ EP        7 5 40.64                             127   -0.14 9  165 219 
 SPBC HN ES        7 6  2.30                             127   -0.39 9  165 219 
 SPBC HZ I         7 6  7.15         4.2 0.10            128            165 219 
 YPLC HZ IP     D  7 5 42.05                             125   -0.01 9  178 152 
 YPLC HN ES        7 6  5.48                             125    0.51 9  178 152 
 YPLC HZ I         7 6  8.30         6.1 0.32            127            178 152 
 ZAR  HZ EP   2    7 5 45.30                             121    0.62 4  204 292 
 ZAR  HN ES        7 6  9.93                             121    0.31 9  204 292 
 ZAR  HZ I         7 6 13.53         3.3 0.28            122            204 292 
 NOR  HZ EP        7 5 48.42                             117    0.27 8  236 234 
 NOR  HN ES        7 6 15.42                             117   -0.38 8  236 234 
 NOR  HZ I         7 6 20.92         2.2 0.22            118            236 234 
 GUY2CHZ EP   3    7 5 57.68                             111    1.56 2  302 235 
 GUY2CHN ES   2    7 6 30.79                             111    0.80 4  302 235 
 CBOC HZ EP   2    7 6  0.36                             108    0.93 3  335 252 
 CBOC HN ES        7 6 36.13                             108    0.25 7  335 252 
 CBOC HZ I         7 6 39.67         0.8 0.36            110            335 252 
 PRA  HZ EP   2    7 6  5.11                             105   -1.03 3  393 210 
 PRA  HN ES        7 6 48.84                             105    1.00 6  393 210 
 PRA  HZ I         7 6 54.11         1.1 0.28            106            393 210 
 SJC  HZ EP   3    7 6  5.90                             104   -2.02 1  408 327 
 SJC  HN ES   4    7 6 47.56                             104   -3.45 0  408 327 
                                                                                
