 2012  125 0438 37.5 L   6.746 -73.099144.0  RSN  5 0.2 1.4LRSN                1
 GAP=145        0.47       5.3     5.9  5.4  0.2610E+01 -0.1159E+02  0.6115E+01E
 Epicentro: JORDAN - SANTANDER                                                 3
 ACTION:UP  12-02-03 08:20 OP:REBC STATUS:               ID:20120125043837 L   I
 2012-01-25-0430-00M.COL___188                                                 6
 STAT SP IPHASW D HRMM SECON CODA AMPLIT PERI AZIMU VELO SNR AR TRES W  DIS CAZ7
 BAR2 SZ EP   1    438 56.91                             172     0.1 7   19 208 
 BAR2 SZ ES   2    439 11.60                             172    -0.3 5   19 208 
 BAR2 SZ I         439 14.17         5.2 0.40                            19 208 
 GIR2 SZ EP        438 56.98                             165    -0.210   38 344 
 GIR2 SZ ES   1    439 12.57                             165     0.1 7   38 344 
 BRR  HZ EP        438 58.72                             150    -0.210   79 301 
 BRR  HZ I         439 13.13         8.3 0.36                            79 301 
 BRR  HE ES   1    439 15.80                             150     0.2 7   79 301 
 PAM  SZ EP        438 59.69                             150     0.110   79  34 
 RUS  HZ EP   1    439  0.76                             145     0.1 7   94 179 
 RUS  HZ I         439 23.21         2.0 0.62                            94 179 
                                                                                
