 2015  125 0452 54.1 L   6.816 -73.145149.6  RSN 23 0.4 2.4LRSN                1
 GAP= 71        0.87       2.3     2.3  4.2 -0.6824E+00  0.2676E+01  0.1058E+01E
 Epicentro: LOS SANTOS - SANTANDER                                             3
 ACTION:UPD 15-03-02 15:42 OP:nd   STATUS:               ID:20150125045254 L   I
 OLDACT:REG 15-01-25 12:34 OP:spq  STATUS:               ID:20150125044743     3
 2015-01-25-0447-43M.COL___271                                                 6
 STAT SP IPHASW D HRMM SECON CODA AMPLIT PERI AZIMU VELO AIN AR TRES W  DIS CAZ7
 BAR2 EZ EP        453 14.12                             170   -0.1010 25.1 190 
 BAR2 EZ ES   1    453 30.10                             170    0.19 7 25.1 190 
 BAR2 EZ I         453 32.54        64.2 0.30            168           25.1 190 
 BRR  HZ EP     C  453 15.96                             153    0.3410 70.5 297 
 BRR  HE ES        453 33.21                             153    0.8110 70.5 297 
 BRR  HZ I         453 37.69        36.4 0.32            154           70.5 297 
 PAM  SZ IP     C  453 16.84                             152    0.2010 76.0  40 
 PAM  SN ES        453 34.18                             152   -0.0410 76.0  40 
 PAM  SZ I         453 38.76        25.8 0.34            157           76.0  40 
 RUS  HZ EP     D  453 17.96                             144   -0.3910  102 176 
 RUS  HE ES        453 37.08                             144   -0.1810  102 176 
 RUS  HZ I         453 39.58        30.8 0.40            146            102 176 
 PTB  HZ EP        453 20.70                             133   -0.72 9  148 258 
 PTB  HN ES        453 42.09                             133   -0.63 9  148 258 
 PTB  HZ I         453 49.31        53.4 0.34            134            148 258 
 TAM  HZ EP     C  453 22.26                             131    0.15 9  155 106 
 TAM  HN ES        453 43.92                             131   -0.04 9  155 106 
 TAM  HZ I         453 50.47        12.3 0.36            136            155 106 
 OCA  HZ EP        453 22.04                             131   -0.50 9  159 353 
 OCA  HN ES        453 44.46                             131   -0.27 9  159 353 
 OCA  HZ I         453 49.53        21.6 0.52            135            159 353 
 SPBC HZ EP        453 22.91                             130   -0.11 9  165 219 
 SPBC HN ES        453 45.51                             130   -0.07 9  165 219 
 SPBC HZ I         453 53.12        51.9 0.34            131            165 219 
 ZAR  HZ EP        453 26.64                             123   -0.09 9  203 292 
 ZAR  HE ES        453 52.45                             123    0.26 9  203 292 
 ZAR  HZ I         453 58.25        27.5 0.25            126            203 292 
 NOR  HZ EP        453 29.92                             119   -0.24 8  236 234 
 NOR  HN ES        453 57.95                             119   -0.35 8  236 234 
 NOR  HZ I         454  3.68        27.2 0.30            121            236 234 
 SML  HZ EP        453 30.50                             118   -0.27 8  242 335 
 SML  HE ES   1    453 59.82                             118    0.44 6  242 335 
 SML  HZ I         454  5.62        35.7 0.10            122            242 335 
 CHI  HZ EP        453 32.40                             118    0.21 8  250 195 
 CHI  HN ES   1    454  2.42                             118    0.51 6  250 195 
 CHI  HZ I         454 11.24        13.0 0.34            120            250 195 
 ROSC BZ EP   4    453 33.94                             117    1.35 0  254 211 
 ROSC BN ES   4    454  3.73                             117    1.11 0  254 211 
 ROSC BZ I         454 10.00        26.8 0.45            119            254 211 
 HEL  HZ EP   4    453 36.05                             115    1.49 0  273 255 
 HEL  HE ES   1    454  6.86                             115    0.73 6  273 255 
 HEL  HZ I         454 13.14        15.8 0.38            118            273 255 
 GUY2CHZ EP   4    453 39.02                             113    1.02 0  302 235 
 GUY2CHE ES   1    454 12.31                             113    0.06 5  302 235 
 GUY2CHZ I         454 22.89        18.2 0.48                           302 235 
 PTGC HZ EP   4    453 36.95                             112   -1.35 0  310 159 
 PTGC HN ES   4    454 10.47                             112   -2.32 0  310 159 
 PTGC HZ I         454 13.71        12.0 0.22            115            310 159 
 RREF HZ EP        453 41.14                             111    0.60 7  323 229 
 RREF HN ES        454 17.08                             111    0.31 7  323 229 
 RREF HZ I         454 24.25        16.5 0.30            114            323 229 
 CBOC HZ EP        453 42.01                             111    0.77 7  334 252 
 CBOC HN ES   1    454 17.80                             111   -0.22 5  334 252 
 CBOC HZ I         454 23.30         6.5 0.46            113            334 252 
 DBB  SZ EP   1    453 41.80                             110    0.07 5  339 274 
 DBB  SZ ES   1    454 18.73                             110   -0.15 5  339 274 
 MON  HZ EP   4    453 41.29                             109   -1.84 0  353 308 
 MON  HN ES   4    454 20.01                             109   -1.37 0  353 308 
 MON  HZ I         454 24.53         3.4 0.47            112            353 308 
 ANIL HZ EP   4    453 45.87                             109    1.67 0  359 224 
 ANIL HE ES   4    454 25.30                             109    2.02 0  359 224 
 ANIL HZ I         454 30.26         3.4 0.38            111            359 224 
 ORTC HZ EP        453 49.02                             107    0.70 6  397 216 
 ORTC HN ES   4    454 31.78                             107    1.17 0  397 216 
 ORTC HZ I         454 37.79         8.9 0.44            109            397 216 
 PAL  HZ EP   1    453 49.82                             106    0.32 4  407 239 
 PAL  HN ES        454 32.29                             106   -0.42 6  407 239 
 PAL  HZ I         454 38.68         5.4 0.77            108            407 239 
                                                                                
