 2017  725 0606 22.6 L   6.818 -73.101144.5  RSN  4 0.4 1.2LRSN                1
 GAP=162        0.56       7.8     8.1  7.0 -0.3958E+02  0.3877E+02 -0.1846E+02E
 Epicentro: LOS SANTOS - SANTANDER                                             3
 ACTION:UPD 17-08-30 15:36 OP:rebc STATUS:               ID:20170725060622 L   I
 OLDACT:UP  17-07-25 15:31 OP:and  STATUS:               ID:20170725055744d    3
 OLDACT:UP  17-07-25 15:31 OP:and  STATUS:               ID:20170725055744d    3
 OLDACT:DUP 17-07-25 15:29 OP:and  STATUS:               ID:20170725055744d    3
 OLDACT:UP  17-07-25 15:28 OP:and  STATUS:               ID:20170725055743     3
 OLDACT:UP  17-07-25 15:27 OP:and  STATUS:               ID:20170725055743     3
 OLDACT:REG 17-07-25 12:44 OP:and  STATUS:               ID:20170725055743     3
 2017-07-25-0558-00M.COL___386                                                 6
 STAT SP IPHASW D HRMM SECON CODA AMPLIT PERI AZIMU VELO AIN AR TRES W  DIS CAZ7
 BAR2 EZ EP   2    6 6 42.36                             169    0.21 5 26.6 200 
 BAR2 EZ ES        6 6 57.34                             169   -0.0610 26.6 200 
 BAR2 EZ I         6 6 57.74         4.0 0.26            172           26.6 200 
 PAM  EN ES        6 7  1.27                             152   -0.1510 72.7  38 
 PAM  EZ I         6 7  3.81         4.1 0.60            151           72.7  38 
 BRR  HZ EP        6 6 43.94                             150    0.1210 74.7 295 
 BRR  HE ES   2    6 7  1.04                             150    0.67 5 74.7 295 
 PTB  HZ EP        6 6 49.90                             130   -0.05 9  153 258 
 PTB  HN ES   3    6 7  9.93                             130   -1.36 2  153 258 
 PTB  HZ I         6 7 11.92         1.3 0.12            131            153 258 
                                                                                
