 2012  425 0402 56.8 L   6.784 -73.141148.1  RSN  5 0.5 1.6LRSN                1
 GAP=237        1.10       7.7    10.0 10.2  0.2664E+02  0.8789E+01  0.1436E+02E
 Epicentro: LOS SANTOS - SANTANDER                                             3
 ACTION:UPD 12-07-05 11:55 OP:tino STATUS:               ID:20120425040256 L   I
 2012-04-25-0400-00M.COL___186                                                 6
 STAT SP IPHASW D HRMM SECON CODA AMPLIT PERI AZIMU VELO AIN AR TRES W  DIS CAZ7
 BAR2 SZ EP        4 3 16.38                             171    -0.310   22 192 
 BAR2 SZ ES   1    4 3 31.95                             171    -0.2 7   22 192 
 BAR2 SZ I         4 3 34.02         9.2 0.27                            22 192 
 BRR  HZ EP        4 3 18.33                             152     0.110   72 300 
 BRR  HE ES   1    4 3 35.84                             152     0.9 7   72 300 
 BRR  HZ I         4 3 38.02        11.5 0.06                            72 300 
 RUS  HZ EP   1    4 3 20.31                             145    -0.3 7   99 176 
 RUS  HN ES   1    4 3 39.10                             145    -0.1 7   99 176 
 RUS  HZ I         4 3 40.27         3.7 0.41                            99 176 
 PTB  HZ EP   1    4 3 23.57                             132    -0.4 7  148 260 
 PTB  HN ES   1    4 3 44.48                             132    -0.6 7  148 260 
 PTB  HZ I         4 3 50.34         5.6 0.29                           148 260 
 CHI  HZ EP   1    4 3 35.35                             118     0.9 6  247 195 
 CHI  HN ES   1    4 4  4.18                             118     0.4 6  247 195 
                                                                                
