 2014 1125 0600 50.7 L   6.821 -73.159149.3  RSN  5 0.4 1.6LRSN                1
 GAP=134        0.90       3.8     5.1  9.2 -0.1299E+01  0.1979E+02 -0.1444E+01E
 Epicentro: LOS SANTOS - SANTANDER                                             3
 ACTION:UPD 14-12-19 15:47 OP:nd   STATUS:               ID:20141125060050 L   I
 OLDACT:UP  14-11-25 17:16 OP:mh   STATUS:               ID:20141125055746     3
 OLDACT:REG 14-11-25 13:07 OP:mh   STATUS:               ID:20141125055746     3
 2014-11-25-0557-46M.COL___303                                                 6
 STAT SP IPHASW D HRMM SECON CODA AMPLIT PERI AZIMU VELO AIN AR TRES W  DIS CAZ7
 PAM  SN ES        6 1 30.67                             151   -0.1410 76.5  42 
 RUS  HZ EP        6 1 15.13                             144    0.1710  103 175 
 RUS  HN ES        6 1 33.92                             144    0.0210  103 175 
 RUS  HZ I         6 1 35.54         5.7 0.28            148            103 175 
 PTB  HZ EP        6 1 18.32                             133    0.46 9  147 258 
 PTB  HN ES        6 1 38.60                             133   -0.45 9  147 258 
 PTB  HZ I         6 1 42.53         4.2 0.40            135            147 258 
 OCA  HZ EP   1    6 1 18.82                             131   -0.22 7  158 354 
 OCA  HN ES        6 1 41.32                             131    0.17 9  158 354 
 OCA  HZ I         6 1 46.89         5.5 0.36            132            158 354 
 ZAR  HZ EP   1    6 1 22.20                             123   -0.93 6  202 292 
 ZAR  HN ES   1    6 1 49.13                             123    0.69 6  202 292 
                                                                                
