 2017  625 0653 36.4 L   6.697 -73.212144.0  RSN  5 0.5 1.5LRSN                1
 GAP=215        1.17       6.8     7.5  8.6  0.6630E+01  0.1482E+02  0.2822E+01E
 Epicentro: VILLANUEVA - SANTANDER                                             3
 ACTION:UPD 17-09-14 16:55 OP:jn   STATUS:               ID:20170625065336 L   I
 OLDACT:REG 17-06-25 13:18 OP:lv   STATUS:               ID:20170625064744     3
 2017-06-25-0648-00M.COL___349                                                 6
 STAT SP IPHASW D HRMM SECON CODA AMPLIT PERI AZIMU VELO AIN AR TRES W  DIS CAZ7
 BAR2 EZ EP        653 55.14                             175   -0.4910 12.1 164 
 BAR2 EZ ES        654 10.60                             175   -0.0410 12.1 164 
 BAR2 EZ I         654 11.17         7.7 0.16            170           12.1 164 
 BRR  HZ EP        653 57.14                             152   -0.2210 71.4 309 
 BRR  HN ES        654 14.35                             152    0.6310 71.4 309 
 BRR  HZ I         654 16.60         8.0 0.05            153           71.4 309 
 PTB  HZ EP        654  2.30                             134   -0.10 9  139 263 
 PTB  HN ES        654 21.81                             134   -0.88 9  139 263 
 PTB  HZ I         654 25.11         3.1 0.17            133            139 263 
 SPBC HZ EP        654  3.71                             131    0.21 9  150 220 
 SPBC HN ES        654 25.17                             131    0.53 9  150 220 
 SPBC HZ I         654 32.16         3.1 0.13            130            150 220 
 ZAR  HZ EP        654  9.08                             122    0.57 9  202 296 
 ZAR  HN ES        654 33.50                             122   -0.06 9  202 296 
                                                                                
