 2013 1225 0152 51.5 L   6.794 -73.151151.9  RSN  6 0.5 1.4LRSN                1
 GAP=200        0.99       5.1     8.2  7.3  0.9453E+01  0.5611E+01 -0.3494E+01E
 Epicentro: LOS SANTOS - SANTANDER                                             3
 ACTION:UPD 14-01-13 10:20 OP:ep   STATUS:               ID:20131225015251 L   I
 OLDACT:REG 13-12-25 08:10 OP:mh   STATUS:               ID:20131225015000     3
 2013-12-25-0150-00M.COL___285                                                 6
 STAT SP IPHASW D HRMM SECON CODA AMPLIT PERI AZIMU VELO AIN AR TRES W  DIS CAZ7
 BAR2 SZ EP   1    153 11.77                             171   -0.04 7 22.6 189 
 BAR2 SZ ES        153 27.19                             171   -0.4910 22.6 189 
 BAR2 SZ I         153 28.75         8.3 0.17            171           22.6 189 
 BRR  HZ EP        153 13.41                             153    0.1510 71.0 299 
 BRR  HN ES        153 31.10                             153    0.8410 71.0 299 
 BRR  HZ I         153 34.56         3.5 0.14            151           71.0 299 
 RUS  HZ EP   1    153 15.94                             145    0.17 7  100 176 
 RUS  HN ES   1    153 34.55                             145   -0.19 7  100 176 
 PTB  HZ EP   1    153 19.08                             133    0.21 7  147 259 
 PTB  HN ES   1    153 39.61                             133   -0.64 7  147 259 
 PTB  HZ I         153 43.43         2.4 0.09            133            147 259 
 SPBC HZ EP        153 20.65                             130    0.30 9  162 219 
 SPBC HN ES   1    153 42.60                             130   -0.29 7  162 219 
 SML  HZ EP   1    153 28.33                             118   -0.14 6  244 335 
 SML  HN ES   1    153 56.46                             118   -0.88 6  244 335 
                                                                                
