 2017 1225 0623 46.7 L   6.869 -73.207137.8  RSN 13 0.7 1.7LRSN                1
 GAP=128        1.36       3.9     5.3  7.7 -0.6065E+01  0.1696E+02 -0.4519E+01E
 Epicentro: ZAPATOCA - SANTANDER                                               3
 ACTION:UPD 18-01-04 13:24 OP:rebc STATUS:               ID:20171225062346 L   I
 OLDACT:DUP 17-12-25 15:23 OP:dhb  STATUS:               ID:20171225060516d    3
 2017-12-25-0618-00M.COL___466                                                 6
 STAT SP IPHASW D HRMM SECON CODA AMPLIT PERI AZIMU VELO AIN AR TRES W  DIS CAZ7
 BAR2 EZ IP     C  624  5.00                             167   -0.5610 30.7 175 
 BAR2 EZ ES        624 19.63                             167   -0.6410 30.7 175 
 BAR2 EZ I         624 21.45        14.6 0.18            166           30.7 175 
 PAM  HZ EP        624  7.90                             150   -0.1310 76.5  47 
 PAM  EN ES        624 24.91                             150    0.2610 76.5  47 
 PAM  HZ I         624 25.58         3.9 0.18            157           76.5  47 
 PTB  HZ EP        624 11.85                             131   -0.73 9  143 255 
 PTB  HN ES        624 33.47                             131    0.70 9  143 255 
 PTB  HZ I         624 40.18         2.5 0.30            130            143 255 
 OCA  HZ EP        624 13.13                             129   -0.50 9  152 355 
 OCA  HN ES        624 35.29                             129    0.67 9  152 355 
 OCA  HZ I         624 39.51        14.9 0.26            132            152 355 
 SPBC HZ EP        624 14.36                             127   -0.44 9  165 216 
 SPBC HE ES        624 36.90                             127    0.19 9  165 216 
 SPBC HZ I         624 41.21         9.8 0.26            128            165 216 
 ZAR  HZ EP        624 17.89                             122    0.19 9  195 291 
 ZAR  HE ES        624 42.53                             122    0.66 9  195 291 
 ZAR  HZ I         624 49.16         5.0 0.36            122            195 291 
 ROSC BZ EP        624 25.50                             115    0.74 8  256 209 
 ROSC BE ES   3    624 56.24                             115    1.80 2  256 209 
 ROSC BZ I         625  1.78         4.3 0.35            116            256 209 
 URE  HZ EP        624 25.83                             113   -0.55 8  275 291 
 URE  HE ES        624 56.49                             113   -0.83 8  275 291 
 URE  HZ I         625  3.17         3.3 0.16            114            275 291 
 DRL03HZ EP        624 27.76                             112    0.75 7  281 354 
 DRL03HE ES        624 59.25                             112    0.81 7  281 354 
 GUY2CHZ EP   2    624 30.59                             111    0.74 4  300 233 
 GUY2CHE ES   4    625  7.28                             111    3.78 0  300 233 
 GUY2CHZ I         625 14.00         1.9 0.42                           300 233 
 CBOC HZ EP        624 33.57                             109    0.73 7  330 250 
 CBOC HN ES        625  8.77                             109   -0.06 7  330 250 
 CBOC HZ I         625 20.60         0.6 0.38            110            330 250 
 PRA  HZ EP   2    624 39.60                             105   -0.76 3  395 208 
 PRA  HE ES     C  625 23.15                             105    0.94 6  395 208 
 PRA  HZ I         625 27.18         2.7 0.24            107            395 208 
 SJC  HZ EP        624 39.32                             105   -1.51 6  399 327 
 SJC  HN ES        625 22.32                             105   -0.73 6  399 327 
 SJC  HZ I         625 29.20         1.3 0.76            107            399 327 
                                                                                
