 2013  825 0738 41.3 L   6.540 -73.613  4.0  RSN  4 0.5 1.0LRSN                1
 GAP=129        1.38       4.1     3.1  9.6  0.3527E+01 -0.1707E+01 -0.8306E+01E
 Epicentro: EL CARMEN DE CHUCURI - SANTANDER                                   3
 ACTION:UPD 14-01-14 09:06 OP:ep   STATUS:               ID:20130825073841 L   I
 OLDACT:DUP 13-08-25 11:31 OP:stll STATUS:               ID:20130825072848d    3
 2013-08-25-0728-45M.COL___232                                                 6
 STAT SP IPHASW D HRMM SECON CODA AMPLIT PERI AZIMU VELO AIN AR TRES W  DIS CAZ7
 BAR2 SZ EP        738 49.82                              47    0.4710 47.9  83 
 BAR2 SZ I         738 50.00         8.5 0.10            125           47.9  83 
 BAR2 SZ ES        738 55.76                              47    0.0910 47.9  83 
 BRR  HN ES        738 58.96                              47   -0.5110 63.6 350 
 BRR  HN I         739  0.39         5.6 0.16             61           63.6 350 
 RUS  HZ EP        738 56.87                              47    0.5010 92.5 141 
 RUS  HN ES        739  7.30                              47   -0.8710 92.5 141 
 PTB  HZ EP        738 56.63                              47    0.6310 93.3 270 
 PTB  HN ES        739  7.20                              47   -0.3010 93.3 270 
 PTB  HN I         739  9.40         6.3 0.12             61           93.3 270 
                                                                                
