 2012  225 0557 35.9 L   6.798 -73.159145.0  RSN  9 0.4 1.9LRSN                1
 GAP=135        0.76       4.1     4.2  5.6 -0.3208E+01  0.6259E+01  0.6907E+01E
 ACTION:DUP 12-03-07 16:34 OP:epov STATUS:               ID:20120225055735 L   I
 2012-02-25-0550-00M.COL___192                                                 6
 STAT SP IPHASW D HRMM SECON CODA AMPLIT PERI AZIMU VELO AIN AR TRES W  DIS CAZ7
 BAR2 SZ EP   1    557 55.31                             171   -0.11 7 22.9 186 
 BAR2 SZ I         557 55.61        22.2 0.09                          22.9 186 
 BAR2 SZ ES   1    558 10.01                             171   -0.64 7 22.9 186 
 GIR2 SZ EP   1    557 55.32                             167   -0.15 7 31.3 353 
 GIR2 SZ ES   1    558 11.16                             167    0.41 7 31.3 353 
 BRR  HZ EP   1    557 57.08                             153    0.19 7 70.0 299 
 BRR  HZ I         557 57.55        24.0 0.12                          70.0 299 
 BRR  HN ES   1    558 13.95                             153    0.68 7 70.0 299 
 PAM  SZ EP   1    557 58.22                             150    0.13 7 78.5  40 
 PAM  SZ I         557 58.37        12.3 0.13                          78.5  40 
 PAM  SN ES   1    558 15.22                             150   -0.19 7 78.5  40 
 RUS  HZ EP   1    557 59.34                             144   -0.22 7  100 175 
 RUS  HE ES   1    558 18.33                             144    0.31 7  100 175 
 RUS  HZ I         558 19.49         7.3 0.42                           100 175 
 PTB  HZ EP   1    558  2.07                             132   -0.59 7  146 259 
 PTB  HN ES   1    558 22.73                             132   -0.81 7  146 259 
 NOR  SZ EP   1    558 11.76                             118    0.33 6  233 234 
 NOR  SN ES   1    558 39.29                             118    0.14 6  233 234 
 CHI  HZ EP   1    558 13.64                             117    0.16 6  248 195 
 CHI  HE ES   1    558 43.05                             117    0.25 6  248 195 
 CHI  HZ I         558 46.84         3.5 0.25                           248 195 
 HEL  HZ EP   1    558 16.00                             115    0.10 6  271 256 
 HEL  HN ES   1    558 47.40                             115    0.30 6  271 256 
                                                                                
