 2013  125 0924 25.9 L   6.184 -73.858 92.1  RSN  5 0.4 1.0LRSN                1
 GAP=190        0.87       6.9     5.4 11.2  0.2236E+02  0.1929E+01 -0.4928E+01E
 Epicentro: LANDAZURI - SANTANDER                                              3
 ACTION:UPD 13-02-15 09:16 OP:ep   STATUS:               ID:20130125092425 L   I
 2013-01-25-0920-00M.COL___241                                                 6
 STAT SP IPHASW D HRMM SECON CODA AMPLIT PERI AZIMU VELO AIN AR TRES W  DIS CAZ7
 PTB  HZ EP   1    924 41.60                             137   -0.51 7 76.9 301 
 PTB  HN ES   1    924 54.66                             137   -0.08 7 76.9 301 
 PTB  HZ I         924 56.36         6.4 0.46            164           76.9 301 
 BAR2 SZ EP   1    924 43.25                             133   -0.07 7 87.3  59 
 RUS  HZ EP   1    924 44.60                             132    0.54 7 91.7 111 
 RUS  HN ES   1    924 58.27                             132    0.06 7 91.7 111 
 RUS  HZ I         925 24.00         1.0 0.26            136           91.7 111 
 BRR  HZ EP   1    924 44.04                             128   -0.46 7  103   9 
 BRR  HE ES   1    924 58.88                             128   -0.11 7  103   9 
 ZAR  HZ EP   1    924 52.76                             112   -0.22 7  182 323 
 ZAR  HE ES   1    925 15.11                             112    1.02 7  182 323 
 ZAR  HZ I         925 16.74         1.8 0.34            132            182 323 
                                                                                
