 2017  325 0913 43.6 L   6.813 -73.165138.0  RSN  5 0.4 1.0LRSN                1
 GAP=133        0.77       3.8     3.6  7.8 -0.2041E+00  0.1009E+02  0.3393E+01E
 Epicentro: LOS SANTOS - SANTANDER                                             3
 ACTION:UPD 17-05-25 18:45 OP:jn   STATUS:               ID:20170325091343 L   I
 OLDACT:UP  17-03-25 15:51 OP:dani STATUS:               ID:20170325090745     3
 OLDACT:UP  17-03-25 15:51 OP:dani STATUS:               ID:20170325090745     3
 OLDACT:REG 17-03-25 12:51 OP:dani STATUS:               ID:20170325090745     3
 2017-03-25-0908-00M.COL___352                                                 6
 STAT SP IPHASW D HRMM SECON CODA AMPLIT PERI AZIMU VELO AIN AR TRES W  DIS CAZ7
 PAM  EZ EP        914  5.05                             149    0.0610 77.7  41 
 PAM  EE ES        914 21.74                             149    0.0510 77.7  41 
 PAM  EZ I         914 22.43         3.0 0.22            156           77.7  41 
 RUS  HZ EP        914  7.00                             141    0.3110  102 175 
 RUS  HN ES        914 24.44                             141   -0.2810  102 175 
 RUS  HZ I         914 26.45         0.6 0.11            142            102 175 
 PTB  HZ EP        914  9.10                             130   -0.65 9  146 258 
 PTB  HN ES        914 30.26                             130    0.10 9  146 258 
 PTB  HZ I         914 32.61         1.4 0.16            132            146 258 
 SPBC HZ EP        914 11.75                             127    0.28 9  163 218 
 SPBC HN ES   3    914 34.55                             127    1.33 2  163 218 
 SPBC HZ I         914 41.06         2.4 0.13            128            163 218 
 ZAR  HN ES        914 40.01                             121    0.04 9  202 292 
                                                                                
