 2016 1125 0136 19.4 L   6.797 -73.178147.4  RSN  7 0.2 1.3LRSN                1
 GAP=140        0.63       3.1     3.2  4.4 -0.9700E+00  0.6226E-02  0.4407E+01E
 Epicentro: LOS SANTOS - SANTANDER                                             3
 ACTION:UPD 17-10-26 21:11 OP:lp   STATUS:               ID:20161125013619 L   I
 OLDACT:UP  16-11-25 14:53 OP:edw  STATUS:               ID:20161125012748     3
 OLDACT:UP  16-11-25 14:52 OP:edw  STATUS:               ID:20161125012748     3
 OLDACT:REG 16-11-25 12:17 OP:edw  STATUS:               ID:20161125012748     3
 2016-11-25-0128-00M.COL___355                                                 6
 STAT SP IPHASW D HRMM SECON CODA AMPLIT PERI AZIMU VELO AIN AR TRES W  DIS CAZ7
 BAR2 EZ EP        136 38.98                             171   -0.2810 22.7 181 
 BAR2 EZ ES        136 54.58                             171   -0.1410 22.7 181 
 BAR2 EZ I         136 55.40         4.2 0.09            172           22.7 181 
 BRR  HZ EP        136 40.79                             153    0.1810 68.2 300 
 BRR  HN ES        136 57.32                             153    0.2010 68.2 300 
 PAM  EZ EP        136 41.92                             150   -0.0710 80.0  41 
 PAM  EN ES        136 59.61                             150    0.0310 80.0  41 
 PTB  HZ EP   9    136 45.84                             133   -0.38 0  144 259 
 PTB  HN ES        137  6.12                             133   -0.61 9  144 259 
 PTB  HZ I         137  7.65         2.0 0.16            131            144 259 
 ZAR  HZ EP   4    136 47.24                             123   -4.43 0  201 293 
 ZAR  HE ES        137 16.78                             123   -0.02 9  201 293 
 ZAR  HZ I         137 22.60         2.4 0.26            121            201 293 
 NOR  HE ES   2    137 23.13                             119    0.51 4  232 234 
 CHI  HZ EP        136 57.06                             117   -0.04 8  247 194 
 CHI  HN ES        137 26.53                             117    0.05 8  247 194 
                                                                                
