 2017  525 0501 15.9 L   6.769 -73.211153.0  RSN  5 0.3 1.7LRSN                1
 GAP=228        0.82       4.9     5.6  7.4  0.1296E+02 -0.1066E+01  0.1135E+00E
 Epicentro: ZAPATOCA - SANTANDER                                               3
 ACTION:UPD 17-06-16 13:38 OP:jn   STATUS:               ID:20170525050115 L   I
 OLDACT:UP  17-05-25 15:41 OP:ar   STATUS:               ID:20170525045638     3
 OLDACT:REG 17-05-25 12:48 OP:ar   STATUS:               ID:20170525045638     3
 2017-05-25-0457-00M.COL___338                                                 6
 STAT SP IPHASW D HRMM SECON CODA AMPLIT PERI AZIMU VELO AIN AR TRES W  DIS CAZ7
 BRR  HZ EP        5 1 37.63                             155   -0.0110 66.8 304 
 BRR  HN ES        5 1 54.89                             155    0.3210 66.8 304 
 BRR  HZ I         5 1 55.62         6.3 0.12            155           66.8 304 
 RUS  HZ EP        5 1 40.29                             146    0.0710 97.9 172 
 RUS  HN ES        5 1 58.82                             146   -0.3510 97.9 172 
 RUS  HZ I         5 1 59.33         4.9 0.26            146           97.9 172 
 PTB  HZ EP        5 1 42.43                             135   -0.39 9  140 260 
 PTB  HN ES        5 2  3.35                             135   -0.45 9  140 260 
 PTB  HZ I         5 2  5.36         4.9 0.36            135            140 260 
 SPBC HZ EP        5 1 44.68                             132    0.34 9  156 218 
 SPBC HN ES        5 2  6.96                             132    0.46 9  156 218 
 SPBC HZ I         5 2  9.21        13.7 0.38            132            156 218 
 ZAR  HZ EP   4    5 1 56.26                             125    7.94 0  199 294 
 ZAR  HE ES        5 2 13.63                             125    0.04 9  199 294 
                                                                                
