 2016  225 0054 20.8 L   6.841 -73.127149.0  RSN  8 0.4 1.5LRSN                1
 GAP=243        1.10       5.5     6.2  7.0  0.3986E+01  0.6180E+01  0.9202E+01E
 Epicentro: LOS SANTOS - SANTANDER                                             3
 ACTION:UPD 16-03-04 21:29 OP:rebc STATUS:               ID:20160225005420 L   I
 OLDACT:REG 16-02-25 12:32 OP:mh   STATUS:               ID:20160225004749     3
 2016-02-25-0047-49M.COL___340                                                 6
 STAT SP IPHASW D HRMM SECON CODA AMPLIT PERI AZIMU VELO AIN AR TRES W  DIS CAZ7
 BAR2 EZ EP     D  054 41.19                             169    0.2410 28.1 193 
 BAR2 EZ ES        054 56.16                             169   -0.4810 28.1 193 
 BAR2 EZ I         054 57.02         8.5 0.40            165           28.1 193 
 BRR  HZ EP        054 42.71                             153    0.3910 71.0 295 
 BRR  HN ES        054 59.57                             153    0.4910 71.0 295 
 BRR  HZ I         055  3.37         5.6 0.60            151           71.0 295 
 RUS  HZ EP        054 44.99                             143   -0.2210  105 177 
 RUS  HN ES        055  4.18                             143   -0.0510  105 177 
 RUS  HZ I         055  5.03         3.1 0.38            143            105 177 
 PTB  HZ EP        054 47.72                             132   -0.60 9  151 257 
 PTB  HE ES        055  9.01                             132   -0.76 9  151 257 
 PTB  HZ I         055 10.38         3.0 0.42            131            151 257 
 SPBC HZ EP        054 50.02                             129   -0.01 9  168 219 
 SPBC HN ES        055 13.73                             129    0.93 9  168 219 
 SPBC HZ I         055 18.99         5.3 0.22            128            168 219 
 NOR  HE ES        055 25.61                             119    0.03 8  239 234 
 NOR  HZ I         055 30.77         2.3 0.19            119            239 234 
 CHI  HZ EP        054 59.27                             117    0.04 8  253 195 
 CHI  HN ES        055 29.04                             117   -0.15 8  253 195 
 CHI  HZ I         055 31.97         1.2 0.30            118            253 195 
 GUY2CHZ EP        055  5.25                             113    0.18 7  305 234 
 GUY2CHN ES   4    055 43.09                             113    3.52 0  305 234 
 GUY2CHZ I         055 50.87         1.1 0.46                           305 234 
                                                                                
