 2015  525 0407 35.6 L   6.778 -73.125151.7  RSN  6 0.3 1.6LRSN                1
 GAP=185        0.67       2.7     5.1  6.6  0.4433E+01 -0.5977E+00 -0.2141E+01E
 Epicentro: LOS SANTOS - SANTANDER                                             3
 ACTION:UPD 15-09-10 22:06 OP:cam  STATUS:               ID:20150525040735 L   I
 OLDACT:DUP 15-05-25 17:15 OP:spq  STATUS:               ID:20150525035751d    3
 2015-05-25-0357-49M.COL___294                                                 6
 STAT SP IPHASW D HRMM SECON CODA AMPLIT PERI AZIMU VELO AIN AR TRES W  DIS CAZ7
 BRR  HN ES        4 8 14.76                             153    0.1010 74.3 299 
 BRR  HZ I         4 8 18.21         6.9 0.14            151           74.3 299 
 RUS  HZ EP        4 7 59.83                             146    0.1010 98.0 177 
 RUS  HE ES        4 8 18.30                             146   -0.2810 98.0 177 
 RUS  HZ I         4 8 19.81         3.4 0.24            148           98.0 177 
 SPBC HZ EP   1    4 8  4.92                             130    0.43 7  163 220 
 SPBC HE ES   1    4 8 27.02                             130   -0.02 7  163 220 
 SPBC HZ I         4 8 30.73         4.8 0.16            131            163 220 
 OCA  HN ES        4 8 27.61                             130    0.38 9  163 352 
 OCA  HZ I         4 8 30.31         9.2 0.20            132            163 352 
 ZAR  HN ES        4 8 34.48                             123   -0.08 8  207 293 
 ZAR  HZ I         4 8 39.18         4.1 0.33            124            207 293 
 SML  HZ EP   1    4 8 12.56                             118   -0.31 6  247 335 
 SML  HN ES   1    4 8 41.24                             118   -0.72 6  247 335 
                                                                                
