 2014 1125 0526 38.1 L   6.823 -73.136144.6  RSN  9 0.5 1.6LRSN                1
 GAP=137        1.17       5.3     4.7  7.4 -0.2653E+01  0.1125E+02  0.2333E+01E
 Epicentro: LOS SANTOS - SANTANDER                                             3
 ACTION:UPD 14-12-19 15:47 OP:nd   STATUS:               ID:20141125052638 L   I
 OLDACT:DUP 14-11-25 16:56 OP:mh   STATUS:               ID:20141125051749d    3
 OLDACT:UP  14-11-25 16:46 OP:mh   STATUS:               ID:20141125051748     3
 OLDACT:REG 14-11-25 12:44 OP:mh   STATUS:               ID:20141125051748     3
 2014-11-25-0517-48M.COL___303                                                 6
 STAT SP IPHASW D HRMM SECON CODA AMPLIT PERI AZIMU VELO AIN AR TRES W  DIS CAZ7
 BAR2 SZ EP   1    526 57.31                             169   -0.30 7 26.0 191 
 BAR2 SZ ES        527 13.18                             169    0.3210 26.0 191 
 BAR2 SZ I         527 14.09         7.3 0.06            166           26.0 191 
 BRR  HZ EP   1    526 58.95                             152   -0.12 7 71.0 296 
 BRR  HN ES        527 16.06                             152    0.6010 71.0 296 
 BRR  HZ I         527 19.46         6.1 0.56            150           71.0 296 
 PAM  SZ EP        526 59.97                             151   -0.0310 74.7  40 
 PAM  SN ES        527 16.62                             151   -0.4910 74.7  40 
 PAM  SZ I         527 18.90         6.8 0.38            157           74.7  40 
 RUS  HZ EP        527  2.51                             143    0.6410  103 177 
 RUS  HN ES   1    527 20.21                             143   -0.24 7  103 177 
 PTB  HZ EP   1    527  4.35                             131   -0.73 7  149 258 
 PTB  HN ES        527 25.59                             131   -0.56 9  149 258 
 PTB  HZ I         527 28.55         5.0 0.36            131            149 258 
 SPBC HZ EP   1    527  7.02                             128    0.30 7  166 219 
 SPBC HN ES        527 28.73                             128   -0.35 9  166 219 
 SPBC HZ I         527 37.70         5.4 0.42            128            166 219 
 ZAR  HZ EP        527 11.26                             122    0.82 9  204 291 
 ZAR  HN ES        527 35.40                             122   -0.29 9  204 291 
 ZAR  HZ I         527 41.20         6.0 0.54            122            204 291 
 HEL  HZ EP        527 17.65                             114   -0.75 8  274 255 
 HEL  HN ES        527 50.48                             114    0.62 8  274 255 
 HEL  HZ I         528  0.40         3.2 0.05            115            274 255 
 GUY2CHZ EP   4    527 22.03                             112    0.15 0  304 235 
 GUY2CHN ES   4    527 56.88                             112    0.82 0  304 235 
 GUY2CHZ I         528  7.03                                            304 235 
                                                                                
