 2010  525 0344 38.7 L   6.899 -73.318124.1  RSN  7 0.4 2.2LRSN                1
 GAP=103        0.98       4.7     6.3  7.9 -0.9034E+01  0.2069E+02 -0.1274E+02E
 Epicentro: BETULIA - SANTANDER                                                3
 ACTION:UP  10-08-24 10:06 OP:vdl  STATUS:               ID:20100525034438 L   I
 2010-05-25-0342-05S.COL___108                                                 6
 STAT SP IPHASW D HRMM SECON CODA AMPLIT PERI AZIMU VELO SNR AR TRES W  DIS CAZ7
 BAR2 SZ IP        344 56.13                             162     0.010   37 156 
 BAR2 SZ ES        345  9.44                             162    -0.310   37 156 
 GUE  SZ EP        345  1.14                             135     0.010  112  23 
 OCA  SZ EP        345  4.55                             126     0.3 9  148 360 
 OCA  SZ ES   1    345 24.57                             126     0.4 7  148 360 
 OCA  SZ I         345 27.49        33.7 0.51                           148 360 
 CHI  HZ EP   1    345 16.16                             111     0.1 6  255 190 
 CHI  HE ES   2    345 45.25                             111     0.1 4  255 190 
 CHI  HZ I         345 49.33         6.2 0.36                           255 190 
 HEL  HZ EP        345 16.83                             111     0.7 8  257 252 
 HEL  HN ES   1    345 45.61                             111     0.2 6  257 252 
 HEL  HZ I         345 49.40        12.3 0.27                           257 252 
 MON  HZ EP        345 23.36                             105    -1.0 7  331 309 
 MON  HE ES   2    345 59.29                             105    -0.7 3  331 309 
 MON  HZ I         346 12.06         5.0 0.32                           331 309 
 SDV  BZ EP        345 28.72                             104    -0.3 6  369  53 
 SDV  BZ I         346  8.59         6.5 0.31                           369  53 
                                                                                
