 2012 1025 0449 10.0 L   6.783 -73.120144.0  RSN  8 0.4 2.1LRSN                1
 GAP=141        0.74       3.6     6.4  6.8 -0.1675E+01  0.1395E+02  0.2396E+01E
 Epicentro: LOS SANTOS - SANTANDER                                             3
 ACTION:UPD 12-11-22 17:05 OP:ep   STATUS:               ID:20121025044910 L   I
 2012-10-25-0446-39M.COL___195                                                 6
 STAT SP IPHASW D HRMM SECON CODA AMPLIT PERI AZIMU VELO AIN AR TRES W  DIS CAZ7
 BAR2 SZ EP   1    449 29.30                             171   -0.07 7 22.2 198 
 BAR2 SZ ES   1    449 44.58                             171    0.08 7 22.2 198 
 BAR2 SZ I         449 47.11        22.5 0.23                          22.2 198 
 GIR2 SZ EP   1    449 29.21                             166   -0.29 7 33.7 346 
 BRR  HZ EP   1    449 31.06                             151   -0.06 7 74.6 299 
 BRR  HN ES   2    449 48.36                             151    0.74 5 74.6 299 
 BRR  HN I         449 48.69        38.7 0.22                          74.6 299 
 PAM  SZ EP   1    449 32.00                             151    0.02 7 77.1  37 
 PAM  SN ES        449 49.37                             151    0.2210 77.1  37 
 PAM  SN I         449 50.18        20.9 0.72                          77.1  37 
 RUS  HZ EP   1    449 33.11                             144   -0.29 7 98.6 178 
 RUS  HN ES   2    449 51.32                             144   -0.36 5 98.6 178 
 RUS  HZ I         449 52.95         5.7 0.32                          98.6 178 
 OCA  HZ EP   1    449 39.29                             129    0.94 7  162 352 
 OCA  HN ES        449 59.93                             129   -0.56 9  162 352 
 OCA  HN I         450  2.77        47.4 0.18                           162 352 
 ZAR  HN ES   2    450  8.11                             121   -0.02 4  207 292 
 ZAR  HN I         450 13.39         9.5 0.20                           207 292 
 PRA  HZ EP   1    450  3.64                             106    0.23 4  392 210 
 PRA  HN ES   2    450 45.32                             106    0.23 3  392 210 
 PRA  HN I         450 50.85         5.7 0.82                           392 210 
                                                                                
