 2013 1225 0313 41.0 L   6.779 -73.206151.6  RSN  5 0.1 1.3LRSN                1
 GAP=195        0.41       2.5     4.0  4.8  0.5330E+01 -0.3763E+01 -0.5710E+01E
 Epicentro: ZAPATOCA - SANTANDER                                               3
 ACTION:UPD 14-01-13 10:20 OP:ep   STATUS:               ID:20131225031341 L   I
 OLDACT:REG 13-12-25 08:12 OP:mh   STATUS:               ID:20131225031000     3
 2013-12-25-0310-00M.COL___285                                                 6
 STAT SP IPHASW D HRMM SECON CODA AMPLIT PERI AZIMU VELO AIN AR TRES W  DIS CAZ7
 BAR2 SZ EP   1    314  1.03                             172   -0.23 7 20.8 173 
 BRR  HZ EP        314  2.83                             155    0.3210 66.6 303 
 BRR  HN ES   1    314 19.30                             155   -0.02 7 66.6 303 
 BRR  HZ I         314 20.56         4.5 0.20            152           66.6 303 
 RUS  HZ EP   1    314  5.19                             145    0.00 7 99.0 172 
 RUS  HN ES        314 24.05                             145   -0.0310 99.0 172 
 RUS  HZ I         314 26.28         1.9 0.34            144           99.0 172 
 PTB  HZ EP   1    314  7.75                             135   -0.06 7  141 259 
 PTB  HN ES   1    314 28.67                             135   -0.07 7  141 259 
 PTB  HZ I         314 33.80         3.4 0.11            132            141 259 
 SML  HZ EP   1    314 17.76                             119   -0.11 6  243 337 
 SML  HN ES        314 46.57                             119   -0.08 8  243 337 
                                                                                
