 2011  825 0549 28.6 L   6.829 -73.069147.9  RSN 12 0.4 2.1LRSN                1
 GAP=188        0.55       2.7     4.9  3.9  0.9326E-01  0.5241E+01  0.1824E+01E
 Epicentro: LOS SANTOS - SANTANDER                                             3
 ACTION:UPD 12-07-13 15:53 OP:ep   STATUS:               ID:20110825054928 L   I
 2011-08-25-0540-00M.COL___156                                                 6
 STAT SP IPHASW D HRMM SECON CODA AMPLIT PERI AZIMU VELO AIN AR TRES W  DIS CAZ7
 BAR2 SZ IP        549 48.63                             168    0.0010 29.0 206 
 BAR2 SZ ES   1    550  3.88                             168   -0.36 7 29.0 206 
 BAR2 SZ I         550  6.31        21.2 0.46                          29.0 206 
 GIR2 SZ EP   1    549 48.61                             168    0.08 7 30.9 334 
 GIR2 SZ ES   1    550  4.50                             168    0.43 7 30.9 334 
 BRR  HZ IP     D  549 50.40                             151    0.0510 77.4 293 
 BRR  HZ I         549 50.79        20.7 0.13                          77.4 293 
 BRR  HN ES   1    550  7.51                             151    0.20 7 77.4 293 
 RUS  HZ EP   1    549 52.73                             143   -0.06 7  104 181 
 RUS  HZ I         549 53.96        12.2 0.11                           104 181 
 RUS  HE ES   1    550 11.63                             143   -0.01 7  104 181 
 OCA  SZ EP   2    549 57.74                             130    0.82 5  158 350 
 OCA  SZ ES   1    550 18.41                             130   -0.58 7  158 350 
 OCA  SZ I         550 24.83        14.4 0.31                           158 350 
 NOR  SZ EP   1    550  5.14                             118   -0.27 6  243 235 
 NOR  SN ES   2    550 33.38                             118   -0.72 4  243 235 
 CHI  HZ EP   1    550  6.94                             117   -0.07 6  254 197 
 CHI  HZ I         550 43.45         5.7 0.46                           254 197 
 HEL  HZ EP   1    550 10.15                             114    0.22 6  281 256 
 HEL  HE ES   2    550 42.29                             114    0.13 4  281 256 
 GUY  SZ EP   2    550 14.24                             112    0.67 3  312 235 
 GUY  SZ I         550 54.29        10.4 0.43                           312 235 
 COD  HZ EP   2    550 16.30                             109   -0.52 3  346 353 
 PRA  HZ EP   1    550 23.36                             106    0.34 4  399 210 
 PRA  HN ES   2    551  5.28                             106   -0.18 3  399 210 
 SJC  HZ EP   2    550 24.07                             106   -0.42 3  411 326 
 SJC  HZ I         551  8.48         3.0 0.51                           411 326 
                                                                                
