 2012  625 0211 51.7 L   6.756 -73.144145.0  RSN  5 0.3 1.2LRSN                1
 GAP=234        0.66       6.8     6.2  7.0  0.2639E+02  0.5943E+01 -0.4213E+00E
 Epicentro: LOS SANTOS - SANTANDER                                             3
 ACTION:UPD 12-08-06 17:52 OP:ep   STATUS:               ID:20120625021151 L   I
 2012-06-25-0210-00M.COL___198                                                 6
 STAT SP IPHASW D HRMM SECON CODA AMPLIT PERI AZIMU VELO AIN AR TRES W  DIS CAZ7
 BAR2 SZ EP   1    212 11.08                             172   -0.09 7 18.6 193 
 BAR2 SZ I         212 11.90         4.4 0.15                          18.6 193 
 BAR2 SZ ES   1    212 25.92                             172   -0.42 7 18.6 193 
 BRR  HZ EP   1    212 13.02                             151    0.09 7 73.8 302 
 BRR  HN ES   1    212 29.59                             151    0.11 7 73.8 302 
 RUS  HZ EP   1    212 15.06                             145    0.01 7 95.7 176 
 RUS  HZ I         212 16.61         2.5 0.16                          95.7 176 
 RUS  HN ES   1    212 33.75                             145    0.51 7 95.7 176 
 PTB  HZ EP   1    212 18.20                             132   -0.36 7  147 261 
 PTB  HE ES   1    212 39.16                             132   -0.33 7  147 261 
 PTB  HZ I         212 42.21         2.1 0.14                           147 261 
 ZAR  HE ES   1    212 50.30                             122    0.55 6  206 293 
                                                                                
