 2011 1225 0822 11.3 L   6.786 -73.079145.1  RSN 11 0.4 1.9LRSN                1
 GAP=190        0.77       3.4     5.4  4.8 -0.2230E+01  0.5278E+01  0.2180E+01E
 Epicentro: LOS SANTOS - SANTANDER                                             3
 ACTION:UPD 12-07-13 16:18 OP:ep   STATUS:               ID:20111225082211 L   I
 2011-12-25-0820-00M.COL___186                                                 6
 STAT SP IPHASW D HRMM SECON CODA AMPLIT PERI AZIMU VELO AIN AR TRES W  DIS CAZ7
 BAR2 SZ EP        822 30.96                             170    0.1010 24.3 208 
 BAR2 SZ ES        822 45.60                             170   -0.5210 24.3 208 
 BAR2 SZ I         822 48.99        25.4 0.39                          24.3 208 
 GIR2 SZ EP        822 31.06                             166    0.0810 34.8 339 
 BRR  HZ EP        822 32.89                             150    0.0910 78.5 297 
 BRR  HN ES        822 50.06                             150    0.4910 78.5 297 
 BRR  HZ I         822 54.14        17.7 0.14                          78.5 297 
 RUS  HZ EP        822 34.88                             144    0.0310 98.8 180 
 RUS  HN ES   1    822 53.34                             144    0.12 7 98.8 180 
 RUS  HZ I         822 54.86         7.0 0.23                          98.8 180 
 PTB  HZ EP   1    822 37.83                             130   -1.02 7  155 260 
 OCA  SZ EP        822 39.88                             129    0.08 9  163 351 
 OCA  SZ I         823  6.63        11.7 0.39                           163 351 
 NOR  SZ EP   1    822 47.08                             118   -0.46 6  240 236 
 NOR  SE ES   1    823 15.63                             118   -0.18 6  240 236 
 CHI  HZ EP   1    822 49.01                             117    0.00 6  249 197 
 CHI  HE ES   1    823 18.92                             117    0.49 6  249 197 
 CHI  HZ I         823 27.05         4.4 0.55                           249 197 
 HEL  HZ EP   1    822 52.14                             114   -0.09 6  279 256 
 HEL  HZ I         823 29.38         4.6 0.33                           279 256 
 RREF HZ EP   1    822 58.11                             110    0.17 5  326 230 
 RREF HN ES   1    823 34.06                             110   -0.26 5  326 230 
 RREF HZ I         823 42.50         7.0 0.43                           326 230 
 PRA  HZ EP   1    823  5.25                             106    0.18 4  394 211 
 PRA  HN ES   1    823 47.82                             106    0.81 4  394 211 
                                                                                
