 2011  725 0715 24.1 L   6.746 -73.118148.7  RSN 14 0.3 2.6LRSN                1
 GAP=159        0.63       2.5     4.0  3.8 -0.4930E+01  0.3009E+01  0.1149E+01E
 Epicentro: JORDAN - SANTANDER                                                 3
 ACTION:UPD 12-07-25 14:03 OP:epov STATUS:               ID:20110725071524 L   I
 2011-07-25-0714-20S.COL___143                                                 6
 STAT SP IPHASW D HRMM SECON CODA AMPLIT PERI AZIMU VELO AIN AR TRES W  DIS CAZ7
 BAR2 SZ IP        715 43.82                             173   -0.2210 18.5 203 
 BAR2 SZ ES   1    715 59.03                             173   -0.53 7 18.5 203 
 BAR2 SZ I         716  0.65       160.8 0.41                          18.5 203 
 BTL  SZ EP        715 44.47                             170    0.3110 25.2 319 
 BTL  SZ ES   2    716  0.11                             170    0.33 5 25.2 319 
 GIR2 SZ EP        715 44.27                             165   -0.0810 37.7 347 
 GIR2 SZ ES   1    715 59.88                             165   -0.23 7 37.7 347 
 BRR  HZ IP     C  715 45.70                             151   -0.2310 76.9 301 
 BRR  HZ I         715 45.98       209.1 0.17                          76.9 301 
 BRR  HN ES   1    716  3.30                             151    0.37 7 76.9 301 
 RUS  HZ EP   1    715 47.72                             146   -0.03 7 94.5 178 
 RUS  HN ES   1    716  6.42                             146    0.24 7 94.5 178 
 RUS  HZ I         716  7.72        28.0 0.38                          94.5 178 
 BRI  SZ IP        715 48.37                             141   -0.2810  113  18 
 BRI  SZ ES   1    716  7.56                             141   -0.22 7  113  18 
 GRA  SZ IP        715 50.57                             136    0.5310  131  15 
 GRA  SZ ES   1    716 10.90                             136    0.65 7  131  15 
 GRA  SZ I         716 11.85        35.8 0.32                           131  15 
 OCA  SZ EP   1    715 52.76                             129   -0.51 7  167 352 
 OCA  SZ ES   1    716 15.80                             129   -0.19 7  167 352 
 OCA  SZ I         716 20.80        40.8 0.31                           167 352 
 NOR  SZ EP   1    715 59.67                             119   -0.28 6  234 236 
 NOR  SE ES   1    716 27.77                             119   -0.12 6  234 236 
 CHI  HZ EP   1    716  1.78                             118    0.30 6  244 196 
 CHI  HN ES   2    716 30.99                             118    0.39 4  244 196 
 CHI  HZ I         716 40.71        15.4 0.53                           244 196 
 ROSC BZ EP   2    716  2.06                             118    0.01 4  249 212 
 ROSC BN ES   2    716 31.15                             118   -0.47 4  249 212 
 ROSC BZ I         716 41.94        30.1 0.51                           249 212 
 HEL  HZ EP        716  4.88                             115    0.20 8  274 257 
 HEL  HN ES   2    716 36.45                             115    0.14 4  274 257 
 RREF HZ EP   1    716 10.05                             111   -0.20 5  320 231 
 RREF HN ES   1    716 46.54                             111    0.33 5  320 231 
 RREF HZ I         716 56.35        21.1 0.30                           320 231 
 PRA  HZ EP   1    716 17.32                             107   -0.02 4  388 210 
 PRA  HE ES   2    716 58.93                             107    0.09 3  388 210 
                                                                                
