 2010 1025 0040 40.1 L   6.841 -72.947138.0  RSN  4 0.3 1.5LRSN                1
 GAP=203        0.62       6.0    16.1 11.0  0.5432E+02 -0.8724E+02 -0.2632E+02E
 Epicentro: CEPITA - SANTANDER                                                 3
 ACTION:UP  11-02-18 11:11 OP:tino STATUS:               ID:20101025004040 L   I
 2010-10-25-0036-34S.COL___124                                                 6
 STAT SP IPHASW D HRMM SECON CODA AMPLIT PERI AZIMU VELO SNR AR TRES W  DIS CAZ7
 BAR2 SZ EP   2    040 59.33                             164     0.1 5   38 224 
 BAR2 SZ ES   2    041 13.96                             164    -0.1 5   38 224 
 BAR2 SZ I         041 16.37         7.5 0.35                            38 224 
 BRR  HZ EP   1    041  1.22                             145    -0.4 7   90 289 
 BRR  HN ES   2    041 18.83                             145     0.5 5   90 289 
 BRR  HZ I         041 22.84         9.8 0.11                            90 289 
 RUS  HZ EP   1    041  3.51                             141     0.0 7  106 188 
 RUS  HE ES   2    041 21.83                             141     0.1 5  106 188 
 RUS  HZ I         041 23.65         4.0 0.56                           106 188 
 OCA  SZ EP   2    041  8.45                             128     0.7 5  160 345 
 OCA  SZ ES   2    041 29.05                             128    -0.3 5  160 345 
 OCA  SZ I         041 37.72         4.0 0.49                           160 345 
                                                                                
