 2010  625 0443 26.1 L   5.732 -73.884 94.2  RSN  8 0.5 1.6LRSN                1
 GAP= 93        1.15       4.9     7.3 17.2 -0.1595E+02  0.6264E+02 -0.1620E+02E
 Epicentro: ALBANIA - SANTANDER                                                3
 ACTION:UP  10-08-24 10:12 OP:vdl  STATUS:               ID:20100625044326 L   I
 2010-06-25-0441-44S.COL___118                                                 6
 STAT SP IPHASW D HRMM SECON CODA AMPLIT PERI AZIMU VELO SNR AR TRES W  DIS CAZ7
 RUS  HZ EP        443 44.19                             134    -0.110   90  79 
 RUS  HZ I         443 44.47         5.2 0.07                            90  79 
 RUS  HN ES   1    443 58.21                             134    -0.2 7   90  79 
 ROSC BZ EP        443 46.72                             127     0.810  110 206 
 ROSC BZ I         444  6.31         6.9 0.19                           110 206 
 CHI  HZ EP   1    443 46.92                             124    -0.4 7  123 172 
 BAR2 SZ EP        443 46.94                             124    -0.110  123  39 
 BAR2 SZ ES   2    444  3.52                             124     0.1 5  123  39 
 CHI  HZ I         444  9.81         5.0 0.45                           123 172 
 BRR  HZ EP        443 49.38                             117    -0.6 9  153   7 
 BRR  HZ I         443 50.49        31.2 0.14                           153   7 
 BRR  HN ES   1    444  9.28                             117     0.6 7  153   7 
 HEL  HZ EP   2    443 55.00                             112     0.5 4  189 286 
 HEL  HN ES   2    444 15.85                             112    -0.8 4  189 286 
 HEL  HZ I         444 17.28         2.4 0.56                           189 286 
 PRA  HE ES   1    444 27.78                             106    -0.7 6  249 207 
 PRA  HZ I         444 34.72         3.0 0.24                           249 207 
 GRA  SZ EP        444  3.62                             105     0.4 8  266  27 
 GRA  SZ ES   2    444 32.15                             105    -0.1 4  266  27 
                                                                                
