 2016  925 0007 53.9 L   6.795 -73.142151.0  RSN 18 0.5 2.4LRSN                1
 GAP= 66        1.03       3.0     3.0  5.2 -0.9471E+00  0.3464E+01  0.2252E+01E
 Epicentro: LOS SANTOS - SANTANDER                                             3
 ACTION:UPD 17-08-17 21:16 OP:lp   STATUS:               ID:20160925000753 L   I
 OLDACT:UP  16-09-25 14:04 OP:ar   STATUS:               ID:20160925000000     3
 OLDACT:UP  16-09-25 13:55 OP:ar   STATUS:               ID:20160925000000     3
 OLDACT:UP  16-09-25 13:55 OP:ar   STATUS:               ID:20160925000000     3
 OLDACT:UP  16-09-25 13:49 OP:ar   STATUS:               ID:20160925000000     3
 OLDACT:REG 16-09-25 12:53 OP:ar   STATUS:               ID:20160925000000     3
 2016-09-25-0000-15M.COL___330                                                 6
 STAT SP IPHASW D HRMM SECON CODA AMPLIT PERI AZIMU VELO AIN AR TRES W  DIS CAZ7
 BAR2 EZ EP        0 8 14.12                             171   -0.0010 22.8 191 
 BAR2 EZ ES        0 8 29.92                             171    0.0110 22.8 191 
 BAR2 EZ I         0 8 32.56        38.2 0.44            169           22.8 191 
 BRR  HZ IP     C  0 8 16.06                             153    0.4410 71.8 299 
 BRR  HE ES        0 8 33.35                             153    0.7710 71.8 299 
 BRR  HZ I         0 8 38.48        23.9 0.14            151           71.8 299 
 PAM  EZ EP        0 8 17.01                             152    0.3510 77.6  39 
 PAM  EE ES        0 8 34.15                             152   -0.2810 77.6  39 
 PAM  EZ I         0 8 35.38        34.8 0.16            154           77.6  39 
 RUS  HZ EP        0 8 18.24                             145    0.1410  100 176 
 RUS  HN ES        0 8 36.49                             145   -0.5110  100 176 
 RUS  HZ I         0 8 38.35        13.7 0.20            145            100 176 
 PTB  HZ EP        0 8 20.69                             133   -0.61 9  148 259 
 PTB  HE ES        0 8 42.51                             133   -0.17 9  148 259 
 PTB  HZ I         0 8 43.66        29.7 0.18            132            148 259 
 TAM  HZ EP   2    0 8 22.33                             132    0.40 5  155 105 
 TAM  HN ES        0 8 44.11                             132    0.31 9  155 105 
 OCA  HZ EP        0 8 22.97                             131    0.32 9  161 353 
 OCA  HE ES        0 8 44.33                             131   -0.76 9  161 353 
 OCA  HZ I         0 8 50.05        58.1 0.20            131            161 353 
 SPBC HZ EP        0 8 23.15                             130    0.39 9  163 219 
 SPBC HN ES        0 8 45.19                             130   -0.10 9  163 219 
 SPBC HZ I         0 8 48.14        55.9 0.22            129            163 219 
 ZAR  HZ EP   4    0 8 28.11                             123    1.39 0  205 292 
 ZAR  HN ES        0 8 52.31                             123   -0.03 9  205 292 
 ZAR  HZ I         0 8 59.23        36.4 0.30            123            205 292 
 NOR  HZ EP        0 8 29.98                             120    0.07 8  235 235 
 NOR  HE ES        0 8 57.44                             120   -0.58 8  235 235 
 NOR  HZ I         0 9  2.28        21.9 0.22            119            235 235 
 CHI  HZ EP   2    0 8 32.37                             118    0.55 4  248 195 
 CHI  HN ES        0 9  1.50                             118    0.08 8  248 195 
 ROSC BZ EP   4    0 8 33.72                             118    1.47 0  252 211 
 ROSC BN ES   4    0 9  5.09                             118    2.90 0  252 211 
 ROSC BZ I         0 9 10.03        21.1 0.45            117            252 211 
 HEL  HZ EP   2    0 8 35.43                             116    1.05 4  272 256 
 HEL  HN ES        0 9  6.28                             116    0.30 8  272 256 
 HEL  HZ I         0 9 13.44        12.6 0.26            115            272 256 
 URE  HZ EP        0 8 34.48                             114   -0.79 7  284 292 
 URE  HN ES   4    0 9  5.55                             114   -2.00 0  284 292 
 URE  HZ I         0 9 17.49        16.1 0.20            114            284 292 
 GUY2CHZ EP   4    0 8 39.66                             113    1.93 0  301 235 
 GUY2CHN ES        0 9 12.38                             113    0.45 7  301 235 
 GUY2CHZ I         0 9 20.67        12.8 0.32                           301 235 
 PTGC HZ EP        0 8 36.96                             113   -0.94 7  308 159 
 PTGC HN ES   4    0 9 10.27                             113   -1.96 0  308 159 
 PTGC HZ I         0 9 26.15         6.1 0.32            113            308 159 
 ELA  HZ EP        0 8 41.19                             111    0.25 7  329 230 
 ELA  HE ES   4    0 9 21.81                             111    4.16 0  329 230 
 ELA  HZ I         0 9 25.79         8.7 0.74            111            329 230 
 CBOC HZ EP   4    0 8 38.44                             111   -2.59 0  334 252 
 CBOC HE ES   4    0 9 11.67                             111   -6.14 0  334 252 
 CBOC HZ I         0 9 20.94        14.3 0.24            110            334 252 
                                                                                
