 2012 1225 0051 18.4 L   6.824 -73.149146.1  RSN 10 0.5 1.7LRSN                1
 GAP=183        0.91       3.4     6.0  7.0  0.3795E+01  0.1212E+02  0.4036E+01E
 Epicentro: LOS SANTOS - SANTANDER                                             3
 ACTION:UPD 13-01-04 14:30 OP:ep   STATUS:               ID:20121225005118 L   I
 2012-12-25-0050-00M.COL___242                                                 6
 STAT SP IPHASW D HRMM SECON CODA AMPLIT PERI AZIMU VELO AIN AR TRES W  DIS CAZ7
 BAR2 SZ EP   1    051 38.13                             169   -0.01 7 25.8 188 
 BAR2 SZ ES   1    051 53.67                             169    0.15 7 25.8 188 
 BAR2 SZ I         051 55.51        18.5 0.22                          25.8 188 
 GIR2 SZ ES   1    051 53.09                             168   -0.29 7 28.6 350 
 GIR2 SZ I         052  1.39         5.8 0.46                          28.6 350 
 BRR  HZ EP        051 40.15                             153    0.6410 69.6 297 
 BRR  HN ES   1    051 56.26                             153    0.29 7 69.6 297 
 BRR  HZ I         052  0.33         6.5 0.30                          69.6 297 
 RUS  HZ EP   1    051 42.30                             143   -0.09 7  103 176 
 RUS  HE ES   1    052  1.14                             143    0.05 7  103 176 
 RUS  HZ I         052  2.36         7.6 0.44                           103 176 
 PTB  HZ EP   1    051 45.08                             132   -0.34 7  148 258 
 PTB  HN ES   1    052  5.99                             132   -0.50 7  148 258 
 PTB  HZ I         052 11.37         7.5 0.18                           148 258 
 OCA  HE ES   1    052  8.39                             130   -0.02 7  158 353 
 OCA  HZ I         052 19.16         5.7 0.40                           158 353 
 ZAR  HE ES   1    052 16.83                             123    0.87 6  203 292 
 ZAR  HZ I         052 22.35         6.0 0.48                           203 292 
 NOR  HZ EP   1    051 54.78                             118    0.49 6  236 234 
 NOR  HE ES   1    052 21.85                             118   -0.43 6  236 234 
 NOR  HZ I         052 26.78         6.4 0.12                           236 234 
 SML  HN ES        052 22.31                             118   -0.84 8  241 335 
 CHI  HZ EP   1    051 56.63                             117    0.24 6  251 195 
 CHI  HE ES   1    052 25.45                             117   -0.57 6  251 195 
 CHI  HZ I         052 30.10         2.5 0.36                           251 195 
                                                                                
