 2014  225 0125 44.7 L   6.797 -73.180142.6  RSN  6 0.3 1.5LRSN                1
 GAP=132        0.67       3.6     3.9  5.9 -0.2704E+01  0.5571E+01 -0.1341E+01E
 Epicentro: LOS SANTOS - SANTANDER                                             3
 ACTION:UPD 14-03-10 08:13 OP:ep   STATUS:               ID:20140225012544 L   I
 OLDACT:REG 14-02-25 07:58 OP:fm   STATUS:               ID:20140225011809     3
 2014-02-25-0118-09M.COL___239                                                 6
 STAT SP IPHASW D HRMM SECON CODA AMPLIT PERI AZIMU VELO AIN AR TRES W  DIS CAZ7
 BAR2 SZ EP     D  126  3.96                             171    0.0710 22.6 181 
 BAR2 SZ ES   1    126 19.14                             171    0.25 7 22.6 181 
 BAR2 SZ I         126 19.87        13.0 0.16            170           22.6 181 
 PAM  SZ EP     C  126  7.07                             149    0.3710 80.1  41 
 PAM  SN ES   1    126 23.82                             149   -0.07 7 80.1  41 
 PAM  SZ I         126 27.95         3.5 0.26            136           80.1  41 
 RUS  HZ EP        126  7.75                             143   -0.3410  101 174 
 RUS  HN ES        126 26.04                             143   -0.3310  101 174 
 RUS  HZ I         126 27.22         5.5 0.32            139            101 174 
 PTB  HZ EP        126 10.88                             132   -0.14 9  144 259 
 PTB  HN ES        126 31.66                             132    0.08 9  144 259 
 PTB  HZ I         126 35.94         4.3 0.48            118            144 259 
 ZAR  HZ EP   2    126 16.17                             122   -0.37 4  201 293 
 ZAR  HZ I         126 49.10         7.6 0.28            110            201 293 
 CHI  HZ EP   2    126 22.10                             117    0.06 4  247 194 
 CHI  HN ES   1    126 51.89                             117    0.70 6  247 194 
 CHI  HZ I         126 55.96         1.1 0.40            109            247 194 
                                                                                
