 2010 1225 0731 35.3 L   6.778 -73.163143.6  RSN 13 0.4 2.3LRSN                1
 GAP=134        0.95       3.6     6.2  7.6 -0.1047E+02  0.1803E+02  0.3657E-01E
 Epicentro: LOS SANTOS - SANTANDER                                             3
 ACTION:UP  11-01-14 15:27 OP:pat  STATUS:               ID:20101225073135 L   I
 2010-12-25-0727-08S.COL___136                                                 6
 STAT SP IPHASW D HRMM SECON CODA AMPLIT PERI AZIMU VELO SNR AR TRES W  DIS CAZ7
 BTL  SZ EP        731 55.15                             172     0.510   19 323 
 BAR2 SZ IP        731 54.52                             171    -0.110   21 186 
 BAR2 SZ ES   1    732  9.30                             171    -0.4 7   21 186 
 BAR2 SZ I         732 11.15        59.0 0.18                            21 186 
 GIR2 SZ EP   1    731 54.60                             166    -0.2 7   33 354 
 RUS  HZ EP   1    731 58.31                             144    -0.4 7   98 175 
 RUS  HE ES   1    732 17.17                             144     0.2 7   98 175 
 RUS  HZ I         732 18.86        19.9 0.39                            98 175 
 GRA  SZ IP        732  1.28                             136     0.710  129  18 
 GRA  SZ ES   1    732 20.49                             136     0.1 7  129  18 
 GRA  SZ I         732 24.03        18.1 0.49                           129  18 
 OCA  SZ EP   1    732  2.94                             129    -0.7 7  162 354 
 OCA  SZ ES   1    732 25.43                             129    -0.4 7  162 354 
 OCA  SZ I         732 28.01        17.8 0.31                           162 354 
 YOP  SZ EP   2    732  4.67                             126    -0.4 4  178 152 
 YOP  SZ I         732  6.44        10.1 0.27                           178 152 
 NOR  SZ EP   1    732 10.27                             118    -0.4 6  232 235 
 NOR  SE ES   1    732 38.45                             118     0.3 6  232 235 
 CHI  HZ EP   1    732 12.16                             117    -0.4 6  246 195 
 CHI  HN ES   1    732 41.85                             117     0.2 6  246 195 
 CHI  HZ I         732 45.69        12.8 0.46                           246 195 
 ROSC BZ EP   1    732 13.17                             116     0.2 6  250 211 
 ROSC BN ES   1    732 42.09                             116    -0.3 6  250 211 
 ROSC BZ I         732 49.09        31.8 0.29                           250 211 
 HEL  HZ EP   1    732 15.57                             114     0.4 6  270 256 
 HEL  HE ES   1    732 45.71                             114    -0.5 6  270 256 
 HEL  HZ I         732 52.67        11.4 0.43                           270 256 
 RREF HZ EP   1    732 20.64                             111    -0.4 5  319 229 
 RREF HN ES   1    732 57.70                             111     1.0 5  319 229 
 RREF HZ I         733  6.59        13.5 0.48                           319 229 
 PRA  HZ EP   1    732 28.48                             106     0.1 4  389 210 
 PRA  HN ES   1    733  9.75                             106    -0.1 4  389 210 
                                                                                
