 2010 1225 0145 53.8 L   6.781 -73.116149.1  RSN 18 0.5 2.9LRSN                1
 GAP=104        1.01       3.1     5.0  6.6 -0.4899E+01  0.7802E+01  0.1546E+01E
 Epicentro: LOS SANTOS - SANTANDER                                             3
 ACTION:UP  11-01-14 15:27 OP:pat  STATUS:               ID:20101225014553 L   I
 2010-12-25-0144-08S.COL___136                                                 6
 STAT SP IPHASW D HRMM SECON CODA AMPLIT PERI AZIMU VELO SNR AR TRES W  DIS CAZ7
 BAR2 SZ IP        146 13.85                             171     0.010   22 200 
 BAR2 SZ ES   1    146 29.03                             171    -0.4 7   22 200 
 BAR2 SZ I         146 30.67       257.7 0.26                            22 200 
 BTL  SZ IP        146 14.02                             171     0.210   23 312 
 GIR2 SZ IP        146 13.94                             167    -0.110   34 345 
 RUS  HZ IP     D  146 17.70                             145    -0.110   98 178 
 RUS  HE ES   1    146 36.08                             145    -0.3 7   98 178 
 RUS  HZ I         146 37.73       100.9 0.32                            98 178 
 GRA  SZ IP        146 19.67                             137     0.210  127  16 
 GRA  SZ I         146 20.79       152.6 0.39                           127  16 
 GRA  SZ ES   1    146 39.37                             137    -0.1 7  127  16 
 OCA  SZ IP        146 22.18                             130    -0.5 9  163 352 
 OCA  SZ ES   1    146 45.83                             130     0.7 7  163 352 
 OCA  SZ I         146 50.72       120.5 0.16                           163 352 
 YOP  SZ IP        146 24.30                             127     0.5 9  176 154 
 YOP  SZ I         146 25.07        34.0 0.45                           176 154 
 YOP  SN ES   1    146 47.85                             127     0.7 7  176 154 
 NOR  SZ EP   1    146 29.62                             119    -0.3 6  236 235 
 NOR  SN ES   1    146 57.63                             119    -0.5 6  236 235 
 CHI  HZ EP   1    146 31.39                             118    -0.2 6  247 196 
 CHI  HN ES   1    147  1.44                             118     0.4 6  247 196 
 CHI  HZ I         147  9.01        32.9 0.36                           247 196 
 ROSC BZ EP   1    146 33.06                             117     0.9 6  253 212 
 ROSC BN ES   1    147  1.43                             117    -0.6 6  253 212 
 ROSC BZ I         147 12.00        92.1 0.31                           253 212 
 HEL  HZ EP   1    146 34.99                             115     0.5 6  275 256 
 HEL  HE ES   1    147  6.12                             115    -0.1 6  275 256 
 HEL  HZ I         147 12.22        46.9 0.37                           275 256 
 VIL  SN ES   2    147 10.92                             113     0.2 4  300 191 
 VIL  SZ I         147 22.34        33.5 0.67                           300 191 
 RREF HZ EP        146 40.67                             111     0.4 7  323 230 
 RREF HE ES   1    147 16.51                             111     0.0 5  323 230 
 RREF HZ I         147 22.31        48.4 0.26                           323 230 
 DBB  SZ EP   2    146 42.56                             110     0.7 3  343 275 
 DBB  SZ I         147 27.88         5.4 0.53                           343 275 
 TOL  SZ EP   1    146 42.93                             110     0.6 5  344 225 
 SDV  BZ EP        146 43.02                             109    -0.9 6  359  50 
 SDV  BZ I         146 44.36        14.4 0.29                           359  50 
 PRA  HZ EP        146 46.85                             107    -0.6 6  392 210 
 PRA  HE ES   1    147 29.29                             107     0.0 4  392 210 
 PRA  HZ I         147 32.69        93.8 0.28                           392 210 
 SJA  SZ EP   1    146 47.14                             107    -1.2 4  399 193 
 SJA  SZ I         147 41.66        72.8 0.37                           399 193 
                                                                                
