 2016 1125 0445  3.1 L   6.865 -73.133147.7  RSN 10 0.4 1.8LRSN                1
 GAP=148        0.94       4.6     4.1  5.3 -0.4647E+01  0.4498E+01  0.5876E+01E
 Epicentro: LOS SANTOS - SANTANDER                                             3
 ACTION:UPD 17-10-26 21:11 OP:lp   STATUS:               ID:20161125044503 L   I
 OLDACT:UP  16-11-25 16:51 OP:edw  STATUS:               ID:20161125043743     3
 OLDACT:REG 16-11-25 12:46 OP:edw  STATUS:               ID:20161125043743     3
 2016-11-25-0438-00M.COL___355                                                 6
 STAT SP IPHASW D HRMM SECON CODA AMPLIT PERI AZIMU VELO AIN AR TRES W  DIS CAZ7
 BAR2 EZ EP        445 22.88                             168   -0.2010 30.6 190 
 BAR2 EZ ES        445 38.40                             168   -0.3010 30.6 190 
 BAR2 EZ I         445 40.65         5.8 0.08            165           30.6 190 
 BRR  HZ EP        445 24.60                             153    0.3010 69.3 293 
 BRR  HN ES        445 41.26                             153    0.3910 69.3 293 
 BRR  HZ I         445 45.00        13.5 0.32            152           69.3 293 
 PAM  EZ EP     C  445 25.63                             153    0.5210 71.1  42 
 PAM  EN ES        445 41.98                             153   -0.3310 71.1  42 
 PAM  EZ I         445 44.46        13.2 0.46            158           71.1  42 
 PTB  HZ EP   9    445 29.17                             132   -1.26 0  151 256 
 PTB  HN ES        445 50.83                             132    0.30 9  151 256 
 PTB  HZ I         445 53.92        11.2 0.11            131            151 256 
 ZAR  HZ EP        445 35.67                             123    0.19 9  203 290 
 ZAR  HN ES        446  0.82                             123    0.04 9  203 290 
 ZAR  HZ I         446  6.10        10.3 0.48            124            203 290 
 NOR  HZ EP        445 39.58                             118    0.12 8  240 233 
 NOR  HN ES        446  7.45                             118   -0.41 8  240 233 
 NOR  HZ I         446 12.40         3.8 0.26            119            240 233 
 CHI  HZ EP        445 41.60                             117   -0.05 8  256 195 
 CHI  HN ES   4    446 11.05                             117   -0.70 0  256 195 
 CHI  HZ I         446 16.36         2.3 0.28            118            256 195 
 URE  HN ES   4    446 14.08                             114   -1.97 0  282 290 
 LL6C HZ EP   4    445 27.90                             111   -20.1 0  318 357 
 LL6C HE ES   4    446  4.65                             111   -18.4 0  318 357 
 CBOC HZ EP   4    445 51.36                             110    0.91 0  337 251 
 CBOC HN ES        446 26.77                             110   -0.65 7  337 251 
 CBOC HZ I         446 35.00         0.9 0.31            111            337 251 
 ORTC HZ EP        445 58.53                             106    0.72 6  402 216 
 ORTC HE ES        446 40.94                             106    0.42 6  402 216 
 ORTC HZ I         446 45.95         2.6 0.48            107            402 216 
 SJC  HZ EP        445 56.79                             106   -1.27 6  404 326 
 SJC  HN ES   4    446 36.91                             106   -4.06 0  404 326 
                                                                                
