 2017  925 0746 15.9 L   6.828 -73.117151.9  RSN 13 0.4 1.7LRSN                1
 GAP=186        0.95       4.1     4.5  5.2  0.9050E+01  0.5851E+01  0.3446E+01E
 Epicentro: LOS SANTOS - SANTANDER                                             3
 ACTION:UPD 17-10-05 19:16 OP:rebc STATUS:               ID:20170925074615 L   I
 OLDACT:UP  17-09-25 17:59 OP:edw  STATUS:               ID:20170925073739d    3
 OLDACT:UP  17-09-25 17:58 OP:edw  STATUS:               ID:20170925073739d    3
 OLDACT:DUP 17-09-25 17:52 OP:edw  STATUS:               ID:20170925073739d    3
 2017-09-25-0738-00M.COL___393                                                 6
 STAT SP IPHASW D HRMM SECON CODA AMPLIT PERI AZIMU VELO AIN AR TRES W  DIS CAZ7
 BAR2 EZ EP        746 36.53                             170    0.1510 27.1 196 
 BAR2 EZ ES        746 51.87                             170   -0.4510 27.1 196 
 BAR2 EZ I         746 52.53        14.8 0.32            165           27.1 196 
 BRR  HZ IP     C  746 38.22                             153    0.3910 72.7 295 
 BRR  HN ES        746 55.38                             153    0.4810 72.7 295 
 BRR  HZ I         746 57.84         8.1 0.30            149           72.7 295 
 RUS  HZ EP        746 40.29                             144   -0.2110  104 178 
 RUS  HN ES        746 59.35                             144   -0.3110  104 178 
 RUS  HZ I         747  0.23        10.6 0.26            143            104 178 
 YPLC HN ES        747 10.43                             128    0.45 9  178 153 
 ZAR  HZ EP        746 49.47                             123    0.49 8  206 291 
 ZAR  HN ES        747 14.22                             123   -0.53 8  206 291 
 ZAR  HZ I         747 19.59         4.5 0.18            122            206 291 
 NOR  HZ EP        746 53.19                             119    0.69 8  239 234 
 NOR  HN ES        747 21.21                             119    0.20 8  239 234 
 NOR  HZ I         747 25.18         3.3 0.14            118            239 234 
 CHI  HZ EP        746 54.29                             118   -0.10 8  252 196 
 CHI  HN ES        747 24.07                             118   -0.32 8  252 196 
 CHI  HZ I         747 29.11         4.5 0.34            117            252 196 
 HEL  HZ EP        746 56.57                             116   -0.32 7  276 255 
 HEL  HN ES        747 28.62                             116   -0.22 7  276 255 
 HEL  HZ I         747 33.90         2.6 0.36            114            276 255 
 URE  HZ EP   4    746 59.68                             114    2.16 0  286 291 
 URE  HN ES   4    747 27.79                             114   -2.16 0  286 291 
 URE  HZ I         747 35.50         3.0 0.16            114            286 291 
 GUY2CHZ EP   4    747  1.83                             113    1.50 0  306 235 
 GUY2CHN ES   4    747 36.53                             113    1.58 0  306 235 
 GUY2CHZ I         747 42.71         2.1 0.34                           306 235 
 PTGC HZ EP        746 59.73                             112   -0.54 7  310 159 
 PTGC HN ES   4    747 32.93                             112   -1.92 0  310 159 
 PRA  HZ EP        747 10.53                             107    0.36 6  396 210 
 PRA  HN ES   4    747 50.74                             107   -1.74 0  396 210 
 PRA  HZ I         747 58.10         2.2 0.34            107            396 210 
 SJC  HZ EP        747 10.82                             107   -0.79 6  408 326 
 SJC  HN ES   4    747 51.10                             107   -3.93 0  408 326 
 SJC  HZ I         747 55.90         1.0 0.38            107            408 326 
                                                                                
