 2016  425 0408 34.5 L   6.805 -73.158144.8  RSN  7 0.3 1.6LRSN                1
 GAP=135        0.71       2.5     3.2  4.9 -0.1485E+01  0.5191E+01 -0.2045E+01E
 Epicentro: LOS SANTOS - SANTANDER                                             3
 ACTION:UPD 16-05-05 14:24 OP:rebc STATUS:               ID:20160425040834 L   I
 OLDACT:REG 16-04-25 12:56 OP:cara STATUS:               ID:20160425040742     3
 2016-04-25-0407-42M.COL___270                                                 6
 STAT SP IPHASW D HRMM SECON CODA AMPLIT PERI AZIMU VELO AIN AR TRES W  DIS CAZ7
 BAR2 EZ IP        4 8 54.08                             170    0.1110 23.7 186 
 BAR2 EZ ES        4 9  9.08                             170   -0.1210 23.7 186 
 BAR2 EZ I         4 9 11.62         6.6 0.26            171           23.7 186 
 PAM  EZ IP        4 8 56.94                             150    0.3510 77.8  41 
 PAM  EN ES        4 9 14.04                             150    0.1810 77.8  41 
 PAM  EZ I         4 9 16.03         7.7 0.62            154           77.8  41 
 RUS  HZ EP        4 8 57.86                             143   -0.3010  101 175 
 RUS  HE ES        4 9 16.66                             143    0.0110  101 175 
 RUS  HZ I         4 9 17.36         3.4 0.24            148            101 175 
 PTB  HZ IP        4 9  1.52                             132    0.29 9  147 259 
 PTB  HN ES        4 9 21.63                             132   -0.48 9  147 259 
 PTB  HZ I         4 9 25.44         4.4 0.10            133            147 259 
 OCA  HZ EP        4 9  2.20                             129   -0.42 9  160 354 
 OCA  HN ES        4 9 24.38                             129   -0.21 9  160 354 
 OCA  HZ I         4 9 29.87         8.1 0.18            131            160 354 
 SPBC HZ EP        4 9  2.76                             129   -0.08 9  163 218 
 SPBC HN ES        4 9 25.22                             129    0.24 9  163 218 
 SPBC HZ I         4 9 30.00         6.1 0.46            131            163 218 
 ZAR  HZ EP        4 9  6.70                             122    0.02 9  203 292 
 ZAR  HN ES        4 9 32.24                             122    0.42 9  203 292 
 ZAR  HZ I         4 9 37.92         6.0 0.62            124            203 292 
                                                                                
