 2017 1125 0933 18.8 L   6.674 -73.251137.0  RSN  4 0.4 0.9LRSN                1
 GAP=203        0.71       9.8     5.1  7.0  0.2499E+02  0.9229E+01  0.8017E+01E
 Epicentro: BARICHARA - SANTANDER                                              3
 ACTION:UPD 17-12-12 19:59 OP:rebc STATUS:               ID:20171125093318 L   I
 OLDACT:UP  17-11-25 15:17 OP:y    STATUS:               ID:20171125092360d    3
 OLDACT:UP  17-11-25 15:17 OP:y    STATUS:               ID:20171125092360d    3
 OLDACT:UP  17-11-25 15:17 OP:y    STATUS:               ID:20171125092360d    3
 OLDACT:DUP 17-11-25 15:15 OP:y    STATUS:               ID:20171125092360d    3
 OLDACT:UP  17-11-25 15:13 OP:y    STATUS:               ID:20171125092359     3
 OLDACT:UP  17-11-25 15:11 OP:dani STATUS:               ID:20171125092359     3
 OLDACT:REG 17-11-25 13:45 OP:osc  STATUS:               ID:20171125092359     3
 2017-11-25-0928-00M.COL___471                                                 6
 STAT SP IPHASW D HRMM SECON CODA AMPLIT PERI AZIMU VELO AIN AR TRES W  DIS CAZ7
 BAR2 EZ EP        933 37.34                             175    0.1810 11.8 140 
 BAR2 EZ ES        933 51.30                             175   -0.2010 11.8 140 
 BAR2 EZ I         933 52.73         3.7 0.26            167           11.8 140 
 RUS  HZ EP        933 40.78                             145   -0.0210 88.4 168 
 RUS  HN ES   2    933 58.82                             145    0.85 5 88.4 168 
 RUS  HZ I         933 59.88         1.0 0.25            143           88.4 168 
 PTB  HZ EP        933 43.55                             133   -0.2510  134 264 
 PTB  HN ES        934  3.19                             133   -0.1210  134 264 
 PTB  HZ I         934 10.67         0.7 0.56            130            134 264 
 ZAR  HN ES   2    934 15.53                             121    0.89 4  199 297 
                                                                                
