 2010  825 0656 56.2 L   6.783 -73.058146.0  RSN 10 0.3 1.8LRSN                1
 GAP=169        0.59       2.9     7.7  5.4 -0.6788E+01 -0.3829E+01  0.5620E+00E
 Epicentro: LOS SANTOS - SANTANDER                                             3
 ACTION:UP  10-09-07 10:58 OP:vdl  STATUS:               ID:20100825065656 L   I
 2010-08-25-0654-08S.COL___121                                                 6
 STAT SP IPHASW D HRMM SECON CODA AMPLIT PERI AZIMU VELO SNR AR TRES W  DIS CAZ7
 BAR2 SZ IP        657 15.79                             170    -0.110   25 213 
 BAR2 SZ ES   2    657 31.00                             170    -0.2 5   25 213 
 BAR2 SZ I         657 33.31         9.6 0.35                            25 213 
 BTL  SZ ES   2    657 31.34                             170     0.0 5   28 303 
 GIR2 SZ EP   2    657 15.82                             166    -0.2 5   36 335 
 BRR  HZ IP     C  657 17.62                             150    -0.310   81 296 
 BRR  HN ES   2    657 35.16                                     0.3 5   81 296 
 BRR  HZ I         657 38.82        15.6 0.13                            81 296 
 RUS  HZ EP   2    657 20.03                             145     0.2 5   99 182 
 RUS  HE ES   2    657 38.35                             145     0.1 5   99 182 
 RUS  HZ I         657 39.28         5.8 0.35                            99 182 
 GUE  SZ EP   2    657 20.68                             139    -0.2 5  117   7 
 GRA  SZ IP        657 21.59                             137     0.210  125  13 
 GRA  SZ ES   2    657 40.47                             137    -0.5 5  125  13 
 GRA  SZ I         657 44.03         7.4 0.35                           125  13 
 OCA  SZ EP        657 24.80                             129     0.0 9  164 350 
 OCA  SZ ES   1    657 47.44                             129     0.3 7  164 350 
 OCA  SZ I         657 52.56         8.2 0.34                           164 350 
 CHI  HZ EP   2    657 33.28                             117    -0.7 4  250 197 
 CHI  HE ES   2    658  4.26                                     0.8 4  250 197 
 CHI  HZ I         658 13.15         2.5 0.24                           250 197 
 PRA  HZ EP   1    657 50.33                             107     0.3 4  395 211 
 PRA  HN ES   2    658 31.75                             107    -0.4 3  395 211 
 PRA  HZ I         658 52.10         3.5 0.53                           395 211 
                                                                                
