 2012  125 0026 59.3 L   6.757 -73.195143.4  RSN  4 0.4 1.7LRSN                1
 GAP=132        0.79       7.6     5.8 10.3 -0.1389E+02  0.4360E+00  0.1892E+02E
 Epicentro: VILLANUEVA - SANTANDER                                             3
 ACTION:UP  12-02-03 08:20 OP:REBC STATUS:               ID:20120125002659 L   I
 2012-01-25-0020-00M.COL___188                                                 6
 STAT SP IPHASW D HRMM SECON CODA AMPLIT PERI AZIMU VELO SNR AR TRES W  DIS CAZ7
 BRR  HZ EP   1    027 20.51                             153     0.4 7   69 304 
 BRR  HZ I         027 29.71        10.3 0.15                            69 304 
 BRR  HE ES   1    027 36.82                             153     0.5 7   69 304 
 PAM  SZ EP   1    027 21.54                             148    -0.2 7   85  40 
 PAM  SE ES   1    027 38.84                             148    -0.4 7   85  40 
 RUS  HZ EP   2    027 22.68                             145     0.2 5   96 173 
 RUS  HE ES   2    027 40.78                             145     0.2 5   96 173 
 PTB  HZ EP   1    027 25.49                             133     0.0 7  142 260 
 PTB  HN ES   1    027 45.28                             133    -0.7 7  142 260 
                                                                                
