 2016  425 0850 10.5 L   6.766 -73.154146.4  RSN  5 0.1 1.2LRSN                1
 GAP=137        0.36       2.1     1.7  3.9  0.2828E+00  0.1575E+01 -0.1728E+01E
 Epicentro: LOS SANTOS - SANTANDER                                             3
 ACTION:UPD 16-05-05 14:24 OP:rebc STATUS:               ID:20160425085010 L   I
 OLDACT:UP  16-04-25 18:12 OP:mh   STATUS:               ID:20160425084745     3
 OLDACT:UP  16-04-25 18:12 OP:mh   STATUS:               ID:20160425084745     3
 OLDACT:UP  16-04-25 18:12 OP:mh   STATUS:               ID:20160425084745     3
 OLDACT:REG 16-04-25 14:00 OP:y    STATUS:               ID:20160425084745     3
 2016-04-25-0847-45M.COL___265                                                 6
 STAT SP IPHASW D HRMM SECON CODA AMPLIT PERI AZIMU VELO AIN AR TRES W  DIS CAZ7
 BAR2 EZ EP        850 30.18                             172    0.0310 19.5 189 
 BAR2 EZ I         850 46.50         3.2 0.25            173           19.5 189 
 PAM  EZ EP        850 32.96                             150   -0.0410 80.8  38 
 PAM  EN ES   1    850 50.48                             150   -0.06 7 80.8  38 
 PAM  EZ I         850 52.30         4.5 0.69            147           80.8  38 
 RUS  HZ EP        850 34.19                             145    0.1210 96.9 175 
 RUS  HN ES        850 52.46                             145    0.0210 96.9 175 
 RUS  HZ I         850 54.53         1.2 0.26            144           96.9 175 
 PTB  HZ EP        850 37.21                             132   -0.18 9  146 260 
 PTB  HN ES        850 58.24                             132   -0.11 9  146 260 
 PTB  HZ I         850 59.44         3.0 0.08            131            146 260 
 ZAR  HZ EP   1    850 43.07                             122    0.01 6  205 293 
 ZAR  HN ES        851  8.65                             122    0.20 9  205 293 
 ZAR  HZ I         851 14.88         2.1 0.38            121            205 293 
                                                                                
