 2013  925 0221 59.3 L   6.787 -73.169144.1  RSN 11 0.4 1.8LRSN                1
 GAP=134        1.10       3.1     4.3  5.7 -0.7625E+00  0.6469E+01  0.1642E+01E
 Epicentro: LOS SANTOS - SANTANDER                                             3
 ACTION:UPD 13-10-22 09:24 OP:ep   STATUS:               ID:20130925022159 L   I
 OLDACT:REG 13-09-25 07:44 OP:nd   STATUS:               ID:20130925021959     3
 2013-09-25-0219-59M.COL___269                                                 6
 STAT SP IPHASW D HRMM SECON CODA AMPLIT PERI AZIMU VELO AIN AR TRES W  DIS CAZ7
 BAR2 SZ EP        222 18.70                             171    0.0210 21.6 184 
 BAR2 SZ ES        222 33.37                             171   -0.4410 21.6 184 
 BAR2 SZ I         222 36.46         9.7 0.24            168           21.6 184 
 BRR  HZ EP        222 20.43                             153    0.2610 69.6 301 
 BRR  HN ES        222 37.70                             153    1.2510 69.6 301 
 BRR  HZ I         222 41.41        10.3 0.14            152           69.6 301 
 PAM  SZ IP     D  222 21.64                             150    0.1510 80.1  40 
 PAM  SN ES        222 38.62                             150   -0.1910 80.1  40 
 PAM  SZ I         222 40.82        12.1 0.52            156           80.1  40 
 RUS  HZ EP        222 23.06                             144    0.2710 99.4 175 
 RUS  HN ES        222 40.76                             144   -0.3610 99.4 175 
 RUS  HZ I         222 42.77         7.1 0.28            145           99.4 175 
 PTB  HZ EP        222 25.40                             132   -0.47 9  145 259 
 PTB  HN ES        222 46.08                             132   -0.51 9  145 259 
 PTB  HZ I         222 49.11         6.6 0.12            132            145 259 
 SPBC HZ EP        222 27.64                             129    0.24 9  160 219 
 SPBC HN ES        222 49.33                             129   -0.00 9  160 219 
 SPBC HZ I         222 55.93        10.0 0.24            130            160 219 
 ZAR  HZ EP        222 30.78                             122   -0.65 9  202 293 
 ZAR  HN ES        222 56.67                             122    0.17 9  202 293 
 ZAR  HZ I         223  2.31         8.0 0.34            123            202 293 
 NOR  HZ EP        222 35.17                             118    0.56 8  232 234 
 NOR  HN ES        223  2.13                             118   -0.03 8  232 234 
 NOR  HZ I         223 10.58         4.1 0.18            119            232 234 
 SML  HZ EP        222 35.68                             117   -0.16 8  244 336 
 SML  HE ES        223  3.80                             117   -0.55 8  244 336 
 SML  HZ I         223  5.86        13.5 0.10            119            244 336 
 CHI  HZ EP        222 37.19                             117    0.51 8  247 195 
 CHI  HN ES        223  5.73                             117   -0.11 8  247 195 
 CHI  HZ I         223 12.47         3.7 0.36            119            247 195 
 PRA  HZ EP     D  222 52.65                             106    0.19 6  390 209 
 PRA  HN ES        223 33.50                             106   -0.44 6  390 209 
 PRA  HZ I         223 41.22         3.3 0.28            108            390 209 
                                                                                
