 2016 1125 0422 36.0 L   6.722 -73.182149.6  RSN  4 0.2 1.0LRSN                1
 GAP=234        0.61       7.7     4.9  4.9  0.4390E+01  0.5409E+01 -0.2844E+01E
 Epicentro: VILLANUEVA - SANTANDER                                             3
 ACTION:UPD 17-10-26 21:11 OP:lp   STATUS:               ID:20161125042236 L   I
 OLDACT:REG 16-11-25 12:44 OP:edw  STATUS:               ID:20161125041748     3
 2016-11-25-0418-00M.COL___355                                                 6
 STAT SP IPHASW D HRMM SECON CODA AMPLIT PERI AZIMU VELO AIN AR TRES W  DIS CAZ7
 BAR2 EZ EP        422 55.82                             174   -0.1010 14.3 180 
 BAR2 EZ ES        423 11.41                             174   -0.0710 14.3 180 
 BAR2 EZ I         423 12.20         2.6 0.10            168           14.3 180 
 BRR  HZ EP        422 57.67                             153    0.0610 72.5 306 
 BRR  HN ES        423 14.63                             153    0.1510 72.5 306 
 PTB  HZ EP        423  3.20                             134    0.42 9  142 262 
 PTB  HN ES        423 23.51                             134   -0.17 9  142 262 
 PTB  HZ I         423 27.99         1.0 0.11            132            142 262 
 ZAR  HZ EP        423  8.28                             123   -0.37 9  204 295 
                                                                                
