 2014 1125 0014 52.6 L   6.785 -73.159145.0  RSN  6 0.4 1.7LRSN                1
 GAP=235        1.03       5.4     6.3  8.9  0.1555E+02  0.5272E+01  0.7998E+01E
 Epicentro: LOS SANTOS - SANTANDER                                             3
 ACTION:UPD 14-12-19 15:47 OP:nd   STATUS:               ID:20141125001452 L   I
 OLDACT:REG 14-11-25 12:14 OP:mh   STATUS:               ID:20141125000742     3
 2014-11-25-0007-42M.COL___303                                                 6
 STAT SP IPHASW D HRMM SECON CODA AMPLIT PERI AZIMU VELO AIN AR TRES W  DIS CAZ7
 BRR  HZ EP        015 14.05                             153    0.4410 70.7 300 
 BRR  HN ES   1    015 30.54                             153    0.52 7 70.7 300 
 BRR  HZ I         015 34.33        14.4 0.46            152           70.7 300 
 RUS  HZ EP        015 16.20                             144    0.0610 99.1 175 
 RUS  HN ES        015 34.25                             144   -0.2710 99.1 175 
 RUS  HZ I         015 35.92         5.9 0.26            145           99.1 175 
 PTB  HZ EP        015 18.99                             132   -0.33 9  146 259 
 PTB  HN ES        015 39.56                             132   -0.62 9  146 259 
 PTB  HZ I         015 41.86         6.7 0.14            132            146 259 
 ZAR  HN ES        015 49.92                             122   -0.18 9  203 293 
 ZAR  HZ I         015 52.55         5.1 0.28            124            203 293 
 NOR  HZ EP        015 27.68                             119   -0.35 8  233 235 
 NOR  HN ES        015 56.67                             119    0.99 8  233 235 
 NOR  HZ I         016  2.11         4.8 0.20            120            233 235 
 CHI  HZ EP        015 30.09                             117    0.07 8  247 195 
 CHI  HN ES        015 59.20                             117   -0.02 8  247 195 
 CHI  HZ I         016  3.78         3.6 0.66            119            247 195 
                                                                                
