 2017 1025 0707 13.3 L   6.795 -73.172142.0  RSN 14 0.5 2.3LRSN                1
 GAP=110        1.15       3.9     4.2  5.8 -0.4786E+00  0.5512E+01  0.6195E+01E
 Epicentro: LOS SANTOS - SANTANDER                                             3
 ACTION:UPD 17-11-07 19:36 OP:rebc STATUS:               ID:20171025070714dL   I
 OLDACT:UP  17-10-25 16:46 OP:dani STATUS:               ID:20171025065914     3
 OLDACT:REG 17-10-25 13:20 OP:dani STATUS:               ID:20171025065914     3
 2017-10-25-0707-00M.COL___428                                                 6
 STAT SP IPHASW D HRMM SECON CODA AMPLIT PERI AZIMU VELO AIN AR TRES W  DIS CAZ7
 BAR2 EZ IP     D  7 7 32.35                             171   -0.0710 22.5 183 
 BAR2 EZ ES        7 7 47.15                             171   -0.2210 22.5 183 
 BAR2 EZ I         7 7 48.16        82.4 0.20            168           22.5 183 
 BRR  HZ EP        7 7 34.31                             153    0.4310 69.0 300 
 BRR  HE ES        7 7 51.23                             153    1.2710 69.0 300 
 BRR  HZ I         7 7 52.86        29.3 0.18            153           69.0 300 
 PAM  EZ EP     D  7 7 35.26                             150    0.0410 79.6  41 
 PAM  EN ES        7 7 52.01                             150   -0.3310 79.6  41 
 PAM  EZ I         7 7 54.33        33.7 0.44            155           79.6  41 
 RUS  HZ EP        7 7 36.30                             143   -0.3310  100 174 
 RUS  HN ES        7 7 54.61                             143   -0.2410  100 174 
 RUS  HZ I         7 7 56.43        30.2 0.42            143            100 174 
 PTB  HZ EP        7 7 39.11                             132   -0.55 9  145 259 
 PTB  HN ES        7 7 59.52                             132   -0.73 9  145 259 
 PTB  HZ I         7 8  3.16        16.0 0.16            132            145 259 
 SPBC HZ EP        7 7 41.27                             129    0.00 9  161 218 
 SPBC HE ES        7 8  3.56                             129    0.45 9  161 218 
 SPBC HZ I         7 8  7.41        34.1 0.76            128            161 218 
 YPLC HZ EP     D  7 7 42.83                             126   -0.05 9  178 150 
 YPLC HN ES        7 8  6.37                             126    0.39 9  178 150 
 YPLC HZ I         7 8  9.25        27.5 0.30            127            178 150 
 NOR  HZ EP        7 7 47.88                             118   -0.61 8  232 234 
 NOR  HE ES        7 8 16.02                             118    0.05 8  232 234 
 NOR  HZ I         7 8 23.64        11.5 0.22            119            232 234 
 CHI  HZ EP        7 7 51.06                             117    0.44 8  247 195 
 CHI  HE ES        7 8 19.45                             117   -0.31 8  247 195 
 CHI  HZ I         7 8 23.20         7.7 0.50            117            247 195 
 URE  HZ EP        7 7 53.07                             113   -0.81 7  281 292 
 URE  HN ES   4    7 8 23.26                             113   -2.30 0  281 292 
 GUY2CHZ EP   3    7 7 57.46                             112    1.06 2  299 235 
 GUY2CHE ES   4    7 8 34.14                             112    4.09 0  299 235 
 GUY2CHZ I         7 8 36.65         5.7 0.30                           299 235 
 PRA  HZ EP        7 8  7.04                             106    0.60 6  390 209 
 PRA  HN ES        7 8 48.05                             106    0.14 6  390 209 
 PRA  HZ I         7 8 54.05         6.2 0.24            107            390 209 
 ORTC HZ EP        7 8  7.34                             106    0.53 6  393 216 
 ORTC HE ES   3    7 8 47.32                             106   -1.25 1  393 216 
 ORTC HZ I         7 8 56.95         5.4 0.47            107            393 216 
 PAL  HZ EP        7 8  8.63                             105    0.65 6  403 239 
                                                                                
