 2011  725 0445  2.3 L   6.811 -73.049145.8  RSN  4 0.1 1.4LRSN                1
 GAP=169        0.37       2.3     4.5  4.3 -0.6051E+00 -0.2843E+01 -0.2117E+01E
 Epicentro: LOS SANTOS - SANTANDER                                             3
 ACTION:UPD 12-07-25 14:03 OP:epov STATUS:               ID:20110725044502 L   I
 2011-07-25-0440-00S.COL___143                                                 6
 STAT SP IPHASW D HRMM SECON CODA AMPLIT PERI AZIMU VELO AIN AR TRES W  DIS CAZ7
 BAR2 SZ EP   1    445 22.26                             168    0.22 7 28.3 211 
 BAR2 SZ ES   1    445 37.63                             168    0.19 7 28.3 211 
 BAR2 SZ I         445 40.10         5.9 0.27                          28.3 211 
 BRR  HZ EP        445 24.03                             149    0.0510 80.2 294 
 BRR  HZ I         445 40.20         5.3 0.49                          80.2 294 
 BRR  HE ES   1    445 40.76                             149   -0.14 7 80.2 294 
 RUS  HZ EP   2    445 26.03                             143   -0.09 5  102 182 
 RUS  HN ES   1    445 44.52                             143   -0.19 7  102 182 
 RUS  HZ I         445 46.19         3.7 0.27                           102 182 
 GRA  SZ EP   1    445 27.12                             138   -0.09 7  122  13 
 GRA  SZ ES   1    445 46.60                             138   -0.05 7  122  13 
 GRA  SZ I         445 47.23         2.5 0.31                           122  13 
                                                                                
