 2015  225 0812 49.5 L   6.384 -73.711 98.0  RSN  8 0.3 1.6LRSN                1
 GAP= 78        0.81       3.0     2.8  5.6 -0.2952E+01  0.1137E+01  0.7517E+00E
 Epicentro: SANTA HELENA DEL OPON - SANTANDER                                  3
 ACTION:UPD 15-04-30 21:29 OP:nd   STATUS:               ID:20150225081249 L   I
 OLDACT:UP  15-02-25 18:24 OP:mher STATUS:               ID:20150225080738     3
 OLDACT:REG 15-02-25 13:50 OP:mh   STATUS:               ID:20150225080738     3
 2015-02-25-0807-38M.COL___284                                                 6
 STAT SP IPHASW D HRMM SECON CODA AMPLIT PERI AZIMU VELO AIN AR TRES W  DIS CAZ7
 BAR2 EZ EP        813  5.91                             145    0.4110 62.8  69 
 BAR2 EZ ES        813 18.33                             145    0.3710 62.8  69 
 BRR  HZ EP        813  6.71                             138    0.2210 79.9 360 
 BRR  HN ES   1    813 20.14                             138    0.43 7 79.9 360 
 BRR  HZ I         813 21.53        10.5 0.12            134           79.9 360 
 PTB  HZ EP        813  6.72                             136   -0.1510 84.2 282 
 PTB  HN ES        813 19.98                             136   -0.4110 84.2 282 
 RUS  HZ EP        813  7.55                             136   -0.3210 88.2 128 
 RUS  HN ES   1    813 21.79                             136   -0.37 7 88.2 128 
 RUS  HZ I         813 24.61         9.5 0.50            128           88.2 128 
 SPBC HZ EP        813  7.43                             134   -0.0710 90.3 206 
 SPBC HN ES        813 21.69                             134    0.1710 90.3 206 
 SPBC HZ I         813 23.59        16.9 0.30            125           90.3 206 
 PAM  SZ EP        813 14.26                             119   -0.11 9  154  47 
 PAM  SN ES        813 33.25                             119   -0.49 9  154  47 
 PAM  SZ I         813 38.86         4.0 0.36            114            154  47 
 GUY2CHZ EP        813 22.33                             110    0.08 8  224 235 
 GUY2CHN ES   4    813 50.26                             110    2.49 0  224 235 
 GUY2CHZ I         813 54.51         5.3 0.26                           224 235 
 TOL  SZ EP   1    813 27.84                             106    0.65 6  267 222 
 TOL  SN ES   4    813 59.76                             106    3.19 0  267 222 
 TOL  SZ I         814 18.42         3.7 0.26            102            267 222 
                                                                                
