 2017  625 0618 55.5 L   6.686 -73.036185.9  RSN  5 0.2 1.6LRSN                1
 GAP=295        0.52       5.8     3.6  4.2  0.1721E+01  0.3098E+01  0.9417E+00E
 Epicentro: ARATOCA - SANTANDER                                                3
 ACTION:UPD 17-09-14 16:55 OP:jn   STATUS:               ID:20170625061855 L   I
 OLDACT:REG 17-06-25 13:07 OP:lv   STATUS:               ID:20170625061739     3
 2017-06-25-0618-00M.COL___349                                                 6
 STAT SP IPHASW D HRMM SECON CODA AMPLIT PERI AZIMU VELO AIN AR TRES W  DIS CAZ7
 BAR2 EZ EP        619 19.89                             174   -0.0510 19.2 237 
 BAR2 EZ ES        619 38.74                             174   -0.2410 19.2 237 
 BAR2 EZ I         619 40.97        12.0 0.52            171           19.2 237 
 BRR  HZ EP        619 22.27                             153    0.3010 88.0 302 
 BRR  HN ES        619 42.79                             153    0.2010 88.0 302 
 BRR  HZ I         619 46.01         8.3 0.05            154           88.0 302 
 PTB  HZ EP        619 26.88                             138    0.04 9  158 264 
 PTB  HN ES        619 51.32                             138    0.07 9  158 264 
 PTB  HZ I         619 53.36         2.6 0.13            138            158 264 
 ZAR  HZ EP        619 32.14                             128   -0.26 8  220 294 
 ZAR  HE ES        620  0.93                             128   -0.23 8  220 294 
 CBOC HZ EP   4    619 46.91                             116    1.65 0  342 255 
 CBOC HN ES        620 24.11                             116    0.07 7  342 255 
 CBOC HZ I         620 29.21         0.8 0.25            117            342 255 
                                                                                
