 2017 1125 0913 18.8 L   6.843 -73.158139.9  RSN 16 0.8 1.9LRSN                1
 GAP= 64        1.81       4.5     4.9  9.1 -0.1074E-02  0.1512E+02 -0.8400E+00E
 Epicentro: LOS SANTOS - SANTANDER                                             3
 ACTION:UPD 17-12-12 19:59 OP:rebc STATUS:               ID:20171125091318 L   I
 OLDACT:UP  17-11-25 15:49 OP:y    STATUS:               ID:20171125090738     3
 OLDACT:REG 17-11-25 13:42 OP:osc  STATUS:               ID:20171125090738     3
 2017-11-25-0908-00M.COL___480                                                 6
 STAT SP IPHASW D HRMM SECON CODA AMPLIT PERI AZIMU VELO AIN AR TRES W  DIS CAZ7
 BAR2 EZ EP     C  913 37.95                             168    0.1010 27.9 185 
 BAR2 EZ ES        913 52.78                             168    0.0810 27.9 185 
 BAR2 EZ I         913 53.94        34.7 0.14            169           27.9 185 
 PAM  EZ EP     C  913 40.78                             150    0.5310 74.7  43 
 PAM  EN ES        913 57.93                             150    0.9610 74.7  43 
 PAM  EZ I         913 58.87         6.9 0.16            153           74.7  43 
 RUS  HZ EP        913 41.94                             141   -0.4310  105 175 
 RUS  HN ES        914  0.07                             141   -0.6610  105 175 
 RUS  HZ I         914  1.56        14.7 0.30            143            105 175 
 PTB  HZ EP        913 44.52                             131   -0.76 9  147 257 
 PTB  HN ES        914  4.85                             131   -1.07 9  147 257 
 PTB  HZ I         914  6.53         7.7 0.46            131            147 257 
 OCA  HZ EP        913 46.27                             129    0.06 9  155 353 
 OCA  HN ES        914  8.04                             129    0.46 9  155 353 
 OCA  HZ I         914 13.10        15.7 0.18            131            155 353 
 TAM  HZ EP        913 46.26                             128   -0.03 9  158 107 
 SPBC HZ EP        913 45.98                             127   -1.17 9  166 218 
 SPBC HN ES        914  8.42                             127   -0.84 9  166 218 
 SPBC HZ I         914 14.73        15.0 0.40            128            166 218 
 YPLC HZ EP        913 48.33                             124   -0.35 9  182 152 
 YPLC HN ES        914 12.13                             124    0.15 9  182 152 
 YPLC HZ I         914 20.18         4.4 0.34            127            182 152 
 ZAR  HZ EP        913 50.97                             121    0.40 9  201 291 
 ZAR  HN ES        914 15.87                             121    0.54 9  201 291 
 ZAR  HZ I         914 24.76        10.0 0.32            122            201 291 
 NOR  HZ EP        913 54.47                             117    0.07 8  236 233 
 NOR  HN ES        914 21.95                             117   -0.20 8  236 233 
 NOR  HZ I         914 28.25         5.6 0.46            118            236 233 
 CHI  HZ EP   1    913 56.00                             115   -0.67 6  253 195 
 CHI  HE ES   1    914 27.05                             115    0.86 6  253 195 
 CHI  HZ I         914 29.23         3.1 0.32            117            253 195 
 HEL  HZ EP        913 59.15                             113    0.43 8  272 255 
 HEL  HN ES        914 29.99                             113    0.14 8  272 255 
 HEL  HZ I         914 36.99         4.2 0.28            115            272 255 
 URE  HZ EP        913 59.22                             112   -0.04 7  281 291 
 URE  HE ES        914 29.95                             112   -0.86 7  281 291 
 URE  HZ I         914 41.64         5.4 0.16            114            281 291 
 GUY2CHZ EP        914  4.30                             111    1.95 7  303 234 
 GUY2CHN ES        914 38.30                             111    2.00 7  303 234 
 GUY2CHZ I         914 42.97         2.8 0.28                           303 234 
 CBOC HZ EP        914  6.91                             109    1.40 7  334 251 
 CBOC HN ES        914 42.52                             109    0.58 7  334 251 
 CBOC HZ I         914 43.83         1.3 0.18            110            334 251 
 SJC  HZ EP        914 12.85                             105   -0.78 6  404 327 
 SJC  HN ES        914 54.02                             105   -2.36 6  404 327 
                                                                                
