 2012  225 0754 45.0 L   6.764 -73.158145.0  RSN  6 0.3 1.7LRSN                1
 GAP=181        0.65       3.9     6.8  6.5  0.5119E+01  0.7409E+01  0.2073E+01E
 ACTION:UP  12-03-07 16:34 OP:epov STATUS:               ID:20120225075445 L   I
 2012-02-25-0750-00M.COL___192                                                 6
 STAT SP IPHASW D HRMM SECON CODA AMPLIT PERI AZIMU VELO AIN AR TRES W  DIS CAZ7
 BAR2 SZ ES   1    755 19.26                             172   -0.44 7 19.1 188 
 BAR2 SZ I         755 20.50        11.8 0.24                          19.1 188 
 GIR2 SZ EP   1    755  4.57                             166   -0.17 7 35.1 354 
 GIR2 SZ ES   1    755 20.37                             166    0.27 7 35.1 354 
 BRR  HE ES   1    755 23.12                             152    0.48 7 72.0 302 
 BRR  HZ I         755 27.77        16.3 0.17                          72.0 302 
 RUS  HZ EP   1    755  8.77                             145    0.32 7 96.7 175 
 RUS  HN ES   1    755 26.64                             145   -0.06 7 96.7 175 
 RUS  HZ I         755 28.17         3.6 0.45                          96.7 175 
 PTB  HZ EP   1    755 11.86                             132    0.09 7  146 260 
 PTB  HE ES   2    755 32.00                             132   -0.61 5  146 260 
 OCA  SZ ES   1    755 35.69                             129   -0.30 7  164 354 
                                                                                
