 2016 1025 0952 53.6 L   6.766 -73.089138.5  RSN  4 0.3 1.1LRSN                1
 GAP=145        0.80       4.1     6.1  6.5 -0.6031E+00 -0.2797E+01  0.8999E+00E
 Epicentro: LOS SANTOS - SANTANDER                                             3
 ACTION:UPD 16-11-09 19:22 OP:rebc STATUS:               ID:20161025095253 L   I
 OLDACT:REG 16-10-25 14:00 OP:cara STATUS:               ID:20161025094738     3
 2016-10-25-0948-00M.COL___343                                                 6
 STAT SP IPHASW D HRMM SECON CODA AMPLIT PERI AZIMU VELO AIN AR TRES W  DIS CAZ7
 BAR2 EZ EP        953 12.14                             171   -0.1910 21.8 208 
 BAR2 EZ ES        953 26.43                             171   -0.5110 21.8 208 
 BAR2 EZ I         953 30.29         4.9 0.52            171           21.8 208 
 PAM  EZ EP        953 15.01                             150    0.0010 76.7  34 
 PAM  EN ES        953 31.87                             150    0.1710 76.7  34 
 PAM  EZ I         953 32.48         3.1 0.34            152           76.7  34 
 BRR  HZ EP        953 14.10                             149   -0.3210 78.5 299 
 BRR  HN ES        953 31.05                             149    0.3910 78.5 299 
 RUS  HZ EP        953 16.60                             143    0.2510 96.5 180 
 RUS  HE ES        953 34.31                             143    0.2110 96.5 180 
 RUS  HZ I         953 35.30         1.4 0.24            145           96.5 180 
                                                                                
