 2017  125 0459 45.8 L   6.785 -73.134143.8  RSN 10 0.4 1.8LRSN                1
 GAP=121        1.15       4.4     4.9  6.6  0.1455E+01  0.2718E+01  0.8089E+01E
 Epicentro: LOS SANTOS - SANTANDER                                             3
 ACTION:UPD 17-05-22 16:03 OP:jn   STATUS:               ID:20170125045945 L   I
 OLDACT:REG 17-01-25 12:48 OP:lv   STATUS:               ID:20170125045642     3
 2017-01-25-0457-00M.COL___355                                                 6
 STAT SP IPHASW D HRMM SECON CODA AMPLIT PERI AZIMU VELO AIN AR TRES W  DIS CAZ7
 BAR2 EZ EP        5 0  5.27                             170    0.0810 22.0 194 
 BAR2 EZ ES        5 0 20.15                             170   -0.1510 22.0 194 
 BAR2 EZ I         5 0 23.21        23.6 0.31            169           22.0 194 
 BRR  HZ EP        5 0  7.01                             152    0.1410 73.1 299 
 BRR  HN ES        5 0 23.62                             152    0.3310 73.1 299 
 BRR  HZ I         5 0 28.33        11.3 0.24            153           73.1 299 
 PAM  EZ EP        5 0  8.18                             151    0.3210 77.9  38 
 PAM  EN ES        5 0 24.91                             151   -0.1410 77.9  38 
 PAM  EZ I         5 0 28.32         6.8 0.32            155           77.9  38 
 RUS  HZ EP        5 0  9.50                             144    0.2410 98.9 177 
 RUS  HN ES        5 0 27.22                             144   -0.3210 98.9 177 
 RUS  HZ I         5 0 29.26         7.0 0.32            144           98.9 177 
 PTB  HZ EP        5 0 12.31                             131   -0.41 9  149 260 
 PTB  HN ES        5 0 33.33                             131   -0.37 9  149 260 
 PTB  HZ I         5 0 35.56         6.5 0.22            133            149 260 
 ZAR  HE ES        5 0 43.57                             122   -0.11 8  206 292 
 CHI  HZ IP     D  5 0 23.55                             117    0.27 8  247 196 
 CHI  HN ES        5 0 53.11                             117    0.62 8  247 196 
 CHI  HZ I         5 0 56.57         3.3 0.72            118            247 196 
 ROSC BZ EP   9    5 0 25.45                             116    1.69 0  252 211 
 ROSC BE ES        5 0 56.55                                    1.51 8  252 211 
 ROSC BZ I         5 0 59.92        10.7 0.45            118            252 211 
 PTGC HZ IP     D  5 0 28.47                             111   -0.90 7  307 159 
 PTGC HN ES   4    5 1  1.98                             111   -1.35 0  307 159 
 ORTC HZ EP        5 0 40.02                             106    0.41 6  395 216 
 ORTC HN ES   4    5 1 22.44                             106    0.88 0  395 216 
 ORTC HZ I         5 1 26.64         1.6 0.24            108            395 216 
 SJC  HZ EP   4    5 0 39.44                             105   -2.13 0  411 327 
 SJC  HN ES   4    5 1 20.55                             105   -4.49 0  411 327 
                                                                                
