 2011 1125 0642 38.5 L   6.782 -73.091145.2  RSN  6 0.2 1.7LRSN                1
 GAP=145        0.45       2.1     4.1  3.3 -0.6176E+00  0.1096E+01  0.2721E+00E
 Epicentro: LOS SANTOS - SANTANDER                                             3
 ACTION:UPD 12-07-13 16:12 OP:ep   STATUS:               ID:20111125064238 L   I
 2011-11-25-0639-02S.COL___178                                                 6
 STAT SP IPHASW D HRMM SECON CODA AMPLIT PERI AZIMU VELO AIN AR TRES W  DIS CAZ7
 BAR2 SZ EP        642 58.03                             170   -0.0810 23.3 206 
 BAR2 SZ ES        643 13.21                             170   -0.1610 23.3 206 
 BAR2 SZ I         643 16.62        11.7 0.82                          23.3 206 
 PAM  SZ EP        643  0.87                             151    0.2910 75.3  35 
 PAM  SN ES   1    643 17.73                             151   -0.04 7 75.3  35 
 BRR  HZ EP        643  0.07                             150    0.0610 77.5 298 
 BRR  HE ES   1    643 16.86                             150    0.12 7 77.5 298 
 BRR  HZ I         643 21.03         8.2 0.18                          77.5 298 
 RUS  HZ EP        643  1.89                             144   -0.1910 98.3 180 
 RUS  HE ES   1    643 20.64                             144    0.20 7 98.3 180 
 OCA  SZ EP   1    643  6.78                             129   -0.30 7  163 351 
 OCA  SZ ES   1    643 29.31                             129   -0.03 7  163 351 
 OCA  SZ I         643 32.82         4.8 0.24                           163 351 
 CTAU SZ EP        643 11.72                             122    0.11 9  204 211 
                                                                                
