 2016  825 0130  0.1 L   6.796 -73.113146.0  RSN  8 0.5 1.5LRSN                1
 GAP=241        1.20       5.8     7.7  9.0  0.2048E+02  0.1013E+02  0.1154E+02E
 Epicentro: LOS SANTOS - SANTANDER                                             3
 ACTION:UPD 16-10-29 15:39 OP:rebc STATUS:               ID:20160825013000 L   I
 OLDACT:REG 16-08-25 12:22 OP:ak   STATUS:               ID:20160825012726     3
 2016-08-25-0128-00M.COL___380                                                 6
 STAT SP IPHASW D HRMM SECON CODA AMPLIT PERI AZIMU VELO AIN AR TRES W  DIS CAZ7
 BAR2 EZ EP        130 19.52                             170   -0.2510 23.8 199 
 BRR  HZ EP        130 21.31                             152   -0.1610 74.6 297 
 BRR  HE ES        130 39.04                             152    0.9010 74.6 297 
 BRR  HZ I         130 41.78         5.0 0.20                          74.6 297 
 RUS  HZ EP        130 23.29                             144   -0.5410100.0 178 
 RUS  HE ES        130 42.37                             144    0.0310100.0 178 
 RUS  HZ I         130 43.09         2.1 0.36                         100.0 178 
 PTB  HZ EP   2    130 26.45                             132   -0.96 5  151 259 
 PTB  HE ES        130 48.38                             132   -0.32 9  151 259 
 PTB  HZ I         130 52.13         3.5 0.18                           151 259 
 ZAR  HZ EP        130 33.79                             122    0.86 8  208 292 
 ZAR  HN ES        130 57.64                             122   -0.89 8  208 292 
 ZAR  HZ I         131  3.83         3.8 0.06                           208 292 
 CHI  HZ EP   2    130 37.93                             117    0.06 4  249 196 
 CHI  HN ES        131  7.57                             117    0.23 8  249 196 
 GUY2CHZ EP        130 44.24                             112    0.21 7  304 235 
 GUY2CHN ES   4    131 21.26                             112    2.96 0  304 235 
 GUY2CHZ I         131 25.94         2.3 0.42                           304 235 
 PRA  HZ EP        130 54.24                             107    0.44 6  393 210 
 PRA  HN ES        131 36.03                             107    0.35 6  393 210 
 PRA  HZ I         131 40.35         1.5 0.26                           393 210 
                                                                                
