 2014  525 0838 31.6 L   6.816 -73.122149.6  RSN 12 0.5 2.0LRSN                1
 GAP= 72        1.06       2.8     3.4  6.3 -0.1634E+01  0.7073E-01  0.2182E+00E
 Epicentro: LOS SANTOS - SANTANDER                                             3
 ACTION:UPD 15-03-16 17:00 OP:nd   STATUS:               ID:20140525083832 L   I
 OLDACT:UP  14-05-25 18:51 OP:nlst STATUS:               ID:20140525083832 L   3
 OLDACT:REG 14-05-25 14:32 OP:stll STATUS:               ID:20140525083811     3
 2014-05-25-0838-11M.COL___227                                                 6
 STAT SP IPHASW D HRMM SECON CODA AMPLIT PERI AZIMU VELO AIN AR TRES W  DIS CAZ7
 BRR  HZ EP        838 53.77                             153    0.4910 72.7 296 
 BRR  HN ES        839 10.90                             153    0.7410 72.7 296 
 RUS  HZ EP   2    838 56.22                             144    0.34 5  102 178 
 RUS  HN ES        839 14.78                             144   -0.0110  102 178 
 PTB  HZ EP        838 58.50                             132   -0.68 9  151 258 
 PTB  HN ES        839 20.05                             132   -0.61 9  151 258 
 PTB  HZ I         839 25.64        12.0 0.22            134            151 258 
 TAM  HZ IP     D  838 59.96                             132    0.53 9  153 106 
 TAM  HZ I         839  0.09        12.7 0.18            136            153 106 
 TAM  HN ES        839 21.03                             132   -0.08 9  153 106 
 OCA  HZ EP        838 59.85                             131   -0.26 9  159 352 
 OCA  HN ES        839 21.68                             131   -0.64 9  159 352 
 OCA  HZ I         839 30.19         7.9 0.36            132            159 352 
 SPBC HZ EP        839  0.77                             129    0.05 9  166 219 
 SPBC HN ES        839 23.39                             129   -0.01 9  166 219 
 SPBC HZ I         839 27.85        14.4 0.42            132            166 219 
 NOR  HZ EP        839  8.03                             119    0.10 8  238 234 
 NOR  HN ES        839 36.09                             119   -0.14 8  238 234 
 NOR  HZ I         839 42.93         7.2 0.28            121            238 234 
 SML  HZ EP        839  8.07                             118   -0.35 8  243 335 
 SML  HN ES        839 37.61                             118    0.49 8  243 335 
 SML  HZ I         839 40.37        13.7 0.10            120            243 335 
 CHI  HZ EP        839  9.93                             118    0.12 8  251 196 
 CHI  HZ I         839 10.73         3.2 0.42            120            251 196 
 CHI  HN ES        839 39.00                             118   -0.58 8  251 196 
 SOCV BZ EP        839 14.09                             113   -0.42 7  298  57 
 GUY2CHZ EP        839 16.94                             113    1.16 7  304 235 
 GUY2CHN ES        839 50.17                             113   -0.04 7  304 235 
 GUY2CHZ I         839 58.64         7.5 0.74                           304 235 
 RREF HZ EP   2    839 18.75                             111    0.45 3  325 229 
 RREF HN ES        839 54.66                             111   -0.04 7  325 229 
                                                                                
