 2015 1225 0753 14.7 L   6.788 -73.237133.8  RSN  4 0.5 1.0LRSN                1
 GAP=221        0.75      10.1     7.3  7.0  0.4905E+02  0.2032E+02  0.1442E+02E
 Epicentro: ZAPATOCA - SANTANDER                                               3
 ACTION:UPD 16-02-04 15:07 OP:cam  STATUS:               ID:20151225075314 L   I
 OLDACT:DUP 15-12-25 16:19 OP:dnl  STATUS:               ID:20151225074751d    3
 OLDACT:DUP 15-12-25 16:11 OP:dnl  STATUS:               ID:20151225074750d    3
 OLDACT:UP  15-12-25 16:07 OP:dnl  STATUS:               ID:20151225074749     3
 OLDACT:REG 15-12-25 13:06 OP:dnl  STATUS:               ID:20151225074749     3
 2015-12-25-0747-49M.COL___334                                                 6
 STAT SP IPHASW D HRMM SECON CODA AMPLIT PERI AZIMU VELO AIN AR TRES W  DIS CAZ7
 BAR2 EZ EP        753 32.86                             170   -0.0510 22.4 164 
 BAR2 EZ ES        753 47.03                             170   -0.0510 22.4 164 
 BAR2 EZ I         753 49.80         2.0 0.07            168           22.4 164 
 BRR  HZ EP        753 34.44                             153    0.2910 63.3 304 
 BRR  HN ES        753 49.28                             153   -0.0110 63.3 304 
 BRR  HZ I         753 52.73         1.9 0.17            151           63.3 304 
 PTB  HZ EP        753 39.57                             131   -0.24 9  138 259 
 PTB  HN ES   2    754  0.17                             131    0.80 5  138 259 
 PTB  HZ I         754  3.63         1.2 0.27            131            138 259 
 ZAR  HZ EP   3    753 47.74                             121    2.23 2  195 294 
 ZAR  HN ES        754  9.19                             121   -0.32 9  195 294 
 ZAR  HZ I         754 14.90         2.3 0.04            122            195 294 
                                                                                
