 2017 1225 0250 39.7 L   6.754 -73.162140.2  RSN  5 0.2 1.4LRSN                1
 GAP=149        0.57       3.3     2.9  4.5 -0.3328E+01  0.5197E+01 -0.4227E+01E
 Epicentro: LOS SANTOS - SANTANDER                                             3
 ACTION:UPD 18-01-04 13:24 OP:rebc STATUS:               ID:20171225025039 L   I
 OLDACT:REG 17-12-25 12:13 OP:osc  STATUS:               ID:20171225024704     3
 2017-12-25-0248-00M.COL___472                                                 6
 STAT SP IPHASW D HRMM SECON CODA AMPLIT PERI AZIMU VELO AIN AR TRES W  DIS CAZ7
 BAR2 EZ EP        250 58.94                             172    0.3710 18.0 187 
 BAR2 EZ ES        251 13.42                             172    0.1510 18.0 187 
 BAR2 EZ I         251 14.52         4.5 0.28            174           18.0 187 
 PAM  EZ EP        251  1.47                             148   -0.1810 82.5  38 
 PAM  EN ES        251 18.48                             148   -0.2910 82.5  38 
 PAM  EZ I         251 20.39         4.1 0.52            150           82.5  38 
 PTB  HZ EP        251  5.76                             131   -0.21 9  145 261 
 PTB  HN ES        251 26.31                             131   -0.15 9  145 261 
 PTB  HZ I         251 29.00         1.7 0.12            132            145 261 
 OCA  HZ EP        251  8.09                             127    0.03 9  165 354 
 OCA  HN ES        251 30.41                             127    0.23 9  165 354 
 OCA  HZ I         251 32.33         7.1 0.20            128            165 354 
 ZAR  HZ EP        251 11.93                             121    0.10 9  204 294 
 ZAR  HN ES        251 36.86                             121   -0.02 9  204 294 
 ZAR  HZ I         251 42.65         3.0 0.34            122            204 294 
                                                                                
