 2010 1225 0638 18.9 L   6.755 -73.340120.0  RSN  9 0.4 1.8LRSN                1
 GAP=111        0.88       3.4     7.9  7.3 -0.8991E+01  0.3009E+02 -0.2699E+01E
 Epicentro: ZAPATOCA - SANTANDER                                               3
 ACTION:UP  11-01-14 15:27 OP:pat  STATUS:               ID:20101225063818 L   I
 2010-12-25-0637-48S.COL___136                                                 6
 STAT SP IPHASW D HRMM SECON CODA AMPLIT PERI AZIMU VELO SNR AR TRES W  DIS CAZ7
 BTL  SZ EP        638 35.45                             170     0.110   20  24 
 BTL  SZ ES   1    638 48.27                             170     0.0 7   20  24 
 BAR2 SZ EP        638 35.50                             167     0.010   25 136 
 BAR2 SZ I         638 35.71        36.5 0.30                            25 136 
 BAR2 SZ ES   1    638 48.57                             167     0.1 7   25 136 
 RUS  HZ EP   1    638 39.71                             138    -0.4 7  100 163 
 RUS  HZ I         638 40.65         9.9 0.11                           100 163 
 RUS  HE ES   1    638 56.81                             138     0.1 7  100 163 
 GRA  SZ EP   1    638 44.00                             127     0.8 7  138  25 
 GRA  SZ ES   1    639  2.43                             127     0.3 7  138  25 
 GRA  SZ I         639  6.50         7.3 0.52                           138  25 
 OCA  SZ EP   1    638 45.09                             122    -0.7 7  164   1 
 OCA  SZ ES   1    639  6.10                             122    -0.6 7  164   1 
 OCA  SZ I         639  9.77        10.2 0.25                           164   1 
 NOR  SZ EP   2    638 50.34                             115    -0.7 4  215 232 
 CHI  HZ EP   2    638 54.32                             112     0.1 4  239 190 
 CHI  HE ES   1    639 21.34                             112    -0.5 6  239 190 
 CHI  HZ I         639 30.26         2.7 0.45                           239 190 
 HEL  HZ EP   1    638 55.97                             111     0.5 6  250 256 
 HEL  HN ES   2    639 23.92                             111     0.0 4  250 256 
 HEL  HZ I         639 29.39         6.3 0.38                           250 256 
 PRA  HZ EP   1    639 10.26                             102     0.3 5  377 207 
 PRA  HN ES   2    639 50.78                             102     1.0 3  377 207 
                                                                                
