 2014  125 0026 39.8 L   6.755 -73.098  4.0  RSN  9 0.5 1.7LRSN                1
 GAP=145        1.11       1.8     2.9  5.2 -0.1072E+01  0.3237E+01 -0.5854E+00E
 Epicentro: LOS SANTOS - SANTANDER                                             3
 ACTION:UPD 14-03-13 09:58 OP:ep   STATUS:               ID:20140125002639 L   I
 OLDACT:REG 14-01-25 08:08 OP:nd   STATUS:               ID:20140125002000     3
 2014-01-25-0020-00M.COL___285                                                 6
 STAT SP IPHASW D HRMM SECON CODA AMPLIT PERI AZIMU VELO AIN AR TRES W  DIS CAZ7
 BAR2 SZ EP     D  026 43.40                              47   -0.2610 20.3 207 
 BAR2 SZ ES        026 46.41                              47   -0.3010 20.3 207 
 BAR2 SZ I         026 47.67       191.4 0.70             96           20.3 207 
 BRR  HZ EP        026 52.26                              47    0.0710 78.2 300 
 BRR  HN ES        027  1.44                              47   -0.4510 78.2 300 
 BRR  HZ I         027  2.43        28.2 0.28             47           78.2 300 
 PAM  SZ EP        026 52.69                              47   -0.0110 78.2  34 
 PAM  SN ES        027  2.16                              47   -0.6410 78.2  34 
 PAM  SZ I         027  3.20        39.5 0.20             47           78.2  34 
 RUS  HZ EP     C  026 55.87                              47    0.5610 95.4 179 
 RUS  HN ES        027  7.17                              47   -0.2710 95.4 179 
 RUS  HZ I         027 13.45         7.0 0.20             47           95.4 179 
 PTB  HZ EP        027  3.68                              47    0.28 9  152 261 
 PTB  HN ES        027 21.50                              47   -0.34 9  152 261 
 PTB  HZ I         027 23.83        12.3 0.14             47            152 261 
 OCA  HZ EP        027  6.59                              47    0.95 9  166 352 
 OCA  HN ES        027 25.48                              47   -0.35 9  166 352 
 OCA  HZ I         027 31.49        15.7 0.36             47            166 352 
 CHI  HZ EP   4    027 20.41                              37    4.24 0  245 197 
 CHI  HN ES   2    027 45.51                              37    0.94 4  245 197 
 CHI  HZ I         027 56.23         2.4 0.42             37            245 197 
 SML  HZ EP   2    027 16.46                              37    0.16 4  250 335 
 SML  HN ES        027 45.66                              37    0.85 8  250 335 
 SML  HZ I         027 51.64         6.8 0.24             37            250 335 
 GUY2CHZ EP   2    027 23.68                              36    0.27 4  303 236 
 GUY2CHN ES        027 57.74                              36    0.29 7  303 236 
 GUY2CHZ I         028 12.36         1.9 0.32                           303 236 
                                                                                
