 2015  525 0201 58.0 L   6.773 -73.158151.2  RSN  4 0.2 1.2LRSN                1
 GAP=234        0.48       6.2     7.7  4.4  0.4090E+02  0.5564E+00 -0.1355E+01E
 Epicentro: LOS SANTOS - SANTANDER                                             3
 ACTION:UPD 15-09-10 22:06 OP:cam  STATUS:               ID:20150525020158 L   I
 OLDACT:REG 15-05-25 12:30 OP:spq  STATUS:               ID:20150525015748     3
 2015-05-25-0157-48M.COL___297                                                 6
 STAT SP IPHASW D HRMM SECON CODA AMPLIT PERI AZIMU VELO AIN AR TRES W  DIS CAZ7
 BAR2 EZ EP   1    2 2 18.19                             172   -0.06 7 20.1 188 
 BAR2 EZ ES   1    2 2 33.63                             172   -0.39 7 20.1 188 
 BAR2 EZ I         2 2 34.16         3.6 0.22            169           20.1 188 
 BRR  HZ EP   1    2 2 19.86                             153    0.08 7 71.5 301 
 BRR  HE ES        2 2 36.96                             153    0.2210 71.5 301 
 BRR  HZ I         2 2 40.88         3.7 0.33            150           71.5 301 
 RUS  HZ EP        2 2 22.25                             146    0.1410 97.7 175 
 RUS  HE ES        2 2 40.91                             146    0.0110 97.7 175 
 RUS  HZ I         2 2 41.87         2.0 0.30            147           97.7 175 
 ZAR  HZ EP   1    2 2 30.51                             124   -0.31 6  204 293 
 ZAR  HE ES   1    2 2 56.29                             124   -0.10 6  204 293 
 ZAR  HZ I         2 2 59.89         1.3 0.24            123            204 293 
                                                                                
