 2015  125 0047 53.2 L   6.777 -73.132150.9  RSN 12 0.3 1.7LRSN                1
 GAP= 73        0.75       2.9     2.8  4.9 -0.1156E+01  0.4726E+00  0.1304E+01E
 Epicentro: LOS SANTOS - SANTANDER                                             3
 ACTION:UPD 15-03-02 15:42 OP:nd   STATUS:               ID:20150125004753 L   I
 OLDACT:REG 15-01-25 12:16 OP:spq  STATUS:               ID:20150125003740     3
 2015-01-25-0037-40M.COL___271                                                 6
 STAT SP IPHASW D HRMM SECON CODA AMPLIT PERI AZIMU VELO AIN AR TRES W  DIS CAZ7
 BAR2 EZ EP        048 13.18                             172   -0.1910 21.2 195 
 BAR2 EZ ES   1    048 28.76                             172   -0.37 7 21.2 195 
 BAR2 EZ I         048 30.05         8.9 0.40            171           21.2 195 
 BRR  HZ EP        048 15.14                             153    0.1310 73.7 300 
 BRR  HN ES        048 32.53                             153    0.4810 73.7 300 
 BRR  HZ I         048 35.39        12.0 0.56            150           73.7 300 
 PAM  SZ EP        048 16.06                             151    0.0710 78.4  38 
 PAM  SN ES        048 33.83                             151    0.0410 78.4  38 
 PAM  SZ I         048 35.43         6.6 0.60            153           78.4  38 
 RUS  HZ EP        048 17.13                             146   -0.1110 98.0 177 
 RUS  HN ES   1    048 36.07                             146    0.05 7 98.0 177 
 RUS  HZ I         048 37.48         3.4 0.38            147           98.0 177 
 PTB  HZ EP   1    048 19.95                             133   -0.69 7  149 260 
 PTB  HN ES        048 41.39                             133   -0.69 9  149 260 
 PTB  HZ I         048 44.61         5.4 0.22            132            149 260 
 TAM  HZ EP        048 21.28                             132    0.22 9  153 104 
 SPBC HZ EP   1    048 21.93                             130   -0.04 7  162 220 
 SPBC HE ES        048 44.50                             130    0.07 9  162 220 
 SPBC HZ I         048 46.41        10.2 0.74            131            162 220 
 ZAR  HN ES        048 52.19                             123    0.25 8  206 293 
 ZAR  HZ I         048 57.72         5.8 0.48            123            206 293 
 NOR  HE ES   1    048 57.56                             120    0.30 6  234 235 
 NOR  HZ I         049  4.49         4.1 0.16            120            234 235 
 SML  HZ EP   1    048 30.17                             118   -0.22 6  247 335 
 SML  HE ES   1    048 59.15                             118   -0.28 6  247 335 
 SML  HZ I         049  3.00         6.1 0.10            119            247 335 
 GUY2CHZ EP   1    048 37.48                             113    0.49 5  301 235 
 GUY2CHE ES   1    049 11.87                             113    0.70 5  301 235 
 GUY2CHZ I         049 20.20         2.0 0.36                           301 235 
 MON  HN ES   4    049 19.33                             109   -1.98 0  356 309 
 MON  HZ I         049 23.04         1.0 0.38            110            356 309 
                                                                                
