 2016  525 0239 18.3 L   6.801 -73.155144.7  RSN 14 0.4 2.0LRSN                1
 GAP=135        1.00       2.8     3.7  5.1 -0.1518E+01  0.5134E+01  0.3120E+01E
 Epicentro: LOS SANTOS - SANTANDER                                             3
 ACTION:UPD 16-08-18 17:49 OP:cam  STATUS:               ID:20160525023918 L   I
 OLDACT:UP  16-05-25 15:41 OP:mh   STATUS:               ID:20160525023745     3
 OLDACT:UP  16-05-25 14:47 OP:mh   STATUS:               ID:20160525023745     3
 OLDACT:UP  16-05-25 14:47 OP:mh   STATUS:               ID:20160525023745     3
 OLDACT:UP  16-05-25 14:46 OP:mh   STATUS:               ID:20160525023745     3
 OLDACT:UP  16-05-25 14:46 OP:mh   STATUS:               ID:20160525023745     3
 OLDACT:UP  16-05-25 14:44 OP:mh   STATUS:               ID:20160525023745     3
 OLDACT:REG 16-05-25 12:34 OP:mh   STATUS:               ID:20160525023745     3
 2016-05-25-0237-45M.COL___319                                                 6
 STAT SP IPHASW D HRMM SECON CODA AMPLIT PERI AZIMU VELO AIN AR TRES W  DIS CAZ7
 BAR2 EZ EP        239 37.80                             170    0.0510 23.3 187 
 BAR2 EZ ES        239 52.93                             170   -0.0310 23.3 187 
 BAR2 EZ I         239 55.59        20.7 0.13            168           23.3 187 
 BRR  HZ EP        239 39.52                             153    0.2910 70.2 299 
 BRR  HN ES        239 56.43                             153    0.8410 70.2 299 
 BRR  HZ I         240  0.37        16.5 0.36            151           70.2 299 
 PAM  EZ EP        239 40.54                             150    0.1510 77.9  40 
 PAM  EN ES        239 57.70                             150    0.0510 77.9  40 
 PAM  EZ I         240  0.37        17.5 0.50            157           77.9  40 
 RUS  HZ EP        239 41.74                             144   -0.1710  101 175 
 RUS  HN ES        240  0.37                             144   -0.0010  101 175 
 RUS  HZ I         240  1.65        13.3 0.31            145            101 175 
 PTB  HZ EP   1    239 44.26                             132   -0.78 7  147 259 
 PTB  HN ES        240  5.26                             132   -0.68 9  147 259 
 PTB  HZ I         240 12.19         7.6 0.42            132            147 259 
 OCA  HZ EP   1    239 46.20                             129   -0.25 7  160 354 
 OCA  HN ES        240  7.71                             129   -0.74 9  160 354 
 OCA  HZ I         240 11.41        28.1 0.18            133            160 354 
 SPBC HZ EP        239 46.63                             129    0.01 9  163 219 
 SPBC HN ES        240  8.62                             129   -0.12 9  163 219 
 SPBC HZ I         240 15.38        16.9 0.24            130            163 219 
 ZAR  HZ EP        239 51.17                             122    0.65 9  203 292 
 ZAR  HN ES        240 15.60                             122   -0.09 9  203 292 
 ZAR  HZ I         240 21.12        10.7 0.28            123            203 292 
 NOR  HZ EP        239 53.84                             118    0.01 8  234 234 
 NOR  HN ES        240 21.82                             118    0.23 8  234 234 
 NOR  HZ I         240 26.94         7.4 0.16            119            234 234 
 CHI  HZ EP        239 55.82                             117   -0.05 8  249 195 
 CHI  HN ES        240 24.89                             117   -0.33 8  249 195 
 CHI  HZ I         240 31.27         4.7 0.40            119            249 195 
 ROSC BZ EP   4    239 57.71                             116    1.44 0  252 211 
 ROSC BN ES   4    240 28.82                             116    2.90 0  252 211 
 ROSC BZ I         240 32.19        11.7 0.40            118            252 211 
 HEL  HZ EP        239 59.21                             115    0.91 8  271 256 
 HEL  HN ES        240 28.98                             115   -0.56 8  271 256 
 HEL  HZ I         240 37.70         4.8 0.40            116            271 256 
 PRA  HZ EP        240 11.37                             106   -0.32 6  392 209 
 PRA  HN ES        240 53.53                             106    0.16 6  392 209 
 PRA  HZ I         240 59.60         5.4 0.48            108            392 209 
 ORTC HZ EP        240 11.70                             106   -0.37 6  395 216 
 ORTC HN ES        240 54.89                             106    0.83 6  395 216 
 ORTC HZ I         241  1.13         3.2 0.32            108            395 216 
                                                                                
