 2011  125 0523 33.5 L   6.837 -73.251130.6  RSN  4 0.2 1.4LRSN                1
 GAP=191        0.40       3.8    17.2  5.3 -0.5035E+02  0.3538E+02 -0.8202E+01E
 Epicentro: ZAPATOCA - SANTANDER                                               3
 ACTION:UP  11-02-08 08:42 OP:pat  STATUS:               ID:20110125052333 L   I
 2011-01-25-0520-00M.COL___140                                                 6
 STAT SP IPHASW D HRMM SECON CODA AMPLIT PERI AZIMU VELO SNR AR TRES W  DIS CAZ7
 BAR2 SZ EP   1    523 51.69                             167     0.2 7   28 165 
 BAR2 SZ ES   1    524  5.37                             167    -0.1 7   28 165 
 BAR2 SZ I         524  7.28         6.0 0.36                            28 165 
 RUS  HZ EP   2    523 56.50                             139     0.2 5  106 170 
 RUS  HN ES   1    524 13.93                             139    -0.1 7  106 170 
 RUS  HZ I         524 15.87         3.7 0.31                           106 170 
 GRA  SZ EP   1    523 57.48                             133     0.0 7  126  23 
 GRA  SZ ES   1    524 16.10                             133    -0.1 7  126  23 
 GRA  SZ I         524 18.18         4.7 0.43                           126  23 
 CHI  HZ EP   2    524 10.25                             113    -0.3 4  250 192 
                                                                                
