 2014  125 0512 32.3 L   6.785 -73.219137.3  RSN  4 0.1 1.4LRSN                1
 GAP=192        0.39       2.1     2.7  3.5  0.1625E+01  0.1033E+01 -0.3288E+01E
 Epicentro: ZAPATOCA - SANTANDER                                               3
 ACTION:UPD 14-03-13 09:58 OP:ep   STATUS:               ID:20140125051232 L   I
 OLDACT:DUP 14-01-25 09:47 OP:nd   STATUS:               ID:20140125051001d    3
 2014-01-25-0510-00M.COL___285                                                 6
 STAT SP IPHASW D HRMM SECON CODA AMPLIT PERI AZIMU VELO AIN AR TRES W  DIS CAZ7
 BAR2 SZ EP        512 51.06                             171    0.1510 21.7 169 
 BAR2 SZ ES        513  5.29                             171   -0.1110 21.7 169 
 BAR2 SZ I         513  7.03        11.5 0.44            176           21.7 169 
 RUS  HZ EP        512 55.22                             142    0.0210 99.8 171 
 RUS  HN ES        513 13.05                             142    0.0110 99.8 171 
 RUS  HZ I         513 14.71         2.4 0.32            148           99.8 171 
 PTB  HZ EP        512 57.87                             132    0.01 9  140 259 
 PTB  HN ES        513 17.76                             132   -0.01 9  140 259 
 PTB  HZ I         513 21.14         3.0 0.12            134            140 259 
 SML  HZ EP        513  8.03                             116   -0.28 8  242 337 
 SML  HN ES        513 36.54                             116    0.17 8  242 337 
 SML  HZ I         513 45.44         2.8 0.28            117            242 337 
                                                                                
