 2010  425 0811  4.9 L   6.806 -73.058144.1  RSN 15 0.5 2.8LRSN                1
 GAP=148        0.98       4.5     7.1  6.7 -0.1903E+02 -0.3984E+01  0.7700E+01E
 Epicentro: LOS SANTOS - SANTANDER                                             3
 ACTION:UPD 10-08-24 10:01 OP:vdl  STATUS:               ID:20100425081111 L   I
 2010-04-25-0807-59S.COL___104                                                 6
 STAT SP IPHASW D HRMM SECON CODA AMPLIT PERI AZIMU VELO AIN AR TRES W  DIS CAZ7
 BAR2 SZ IP        811 24.44                             169     0.010   27 210 
 BAR2 SZ ES   1    811 38.97                             169    -0.7 7   27 210 
 BRR  HZ IP     C  811 26.66                             150     0.310   80 295 
 BRR  HE ES   1    811 43.52                             150     0.4 7   80 295 
 BRR  HZ I         811 47.13        95.6 0.33                            80 295 
 BRI  SZ ES   2    811 46.57                             142    -0.1 5  105  16 
 GUE  SZ IP        811 29.16                             140    -0.110  114   7 
 GRA  SZ IP        811 30.08                             137     0.310  123  13 
 GRA  SZ ES   1    811 49.37                             137     0.3 7  123  13 
 OCA  SZ IP        811 32.60                             129    -0.6 9  161 350 
 OCA  SZ ES   1    811 55.31                             129     0.1 7  161 350 
 OCA  SZ I         811 57.68       157.8 0.22                           161 350 
 CHI  HZ EP   2    811 42.72                             116    -0.2 4  252 197 
 CHI  HE ES   2    812 12.04                             116    -0.5 4  252 197 
 CHI  HZ I         812 19.27        21.5 0.49                           252 197 
 ROSC BZ EP   1    811 44.52                             116     0.9 6  258 213 
 ROSC BE ES   1    812 14.41                             116     0.7 6  258 213 
 ROSC BZ I         812 21.18        27.9 0.57                           258 213 
 HEL  HZ EP   1    811 46.40                             114     0.3 6  282 256 
 HEL  HE ES   2    812 17.03                             114    -1.2 4  282 256 
 HEL  HZ I         812 23.84        20.1 0.35                           282 256 
 RREF BZ EP   2    811 51.74                             110    -0.1 3  330 230 
 RREF BN ES   2    812 28.91                             110     0.4 3  330 230 
 RREF BZ I         812 36.55        23.9 0.33                           330 230 
 DBB  SZ EP   1    811 52.61                             109    -0.8 5  349 274 
 TOL  SZ EP   2    811 55.12                             109     1.2 3  351 226 
 SDV  BZ IP     C  811 53.92                             108    -0.1 6  353  49 
 SDV  BZ I         811 54.89        13.8 0.37                           353  49 
 ANIL BZ EP   2    811 55.93                             108     0.4 3  365 226 
 ANIL BZ I         812 42.47        46.1 0.25                           365 226 
 PRA  HZ EP   1    811 58.20                             106    -0.8 4  397 211 
 PRA  HE ES   1    812 40.35                             106    -0.9 4  397 211 
 PRA  HZ I         812 48.17        26.6 0.52                           397 211 
                                                                                
