 2016  325 0854 15.8 L   6.835 -73.161151.5  RSN  4 0.4 1.1LRSN                1
 GAP=278        0.92       8.7     6.2  8.3  0.2334E+01  0.7039E+01 -0.3999E+01E
 Epicentro: LOS SANTOS - SANTANDER                                             3
 ACTION:UPD 16-05-13 21:27 OP:cam  STATUS:               ID:20160325085415 L   I
 OLDACT:UP  16-03-25 18:34 OP:ak   STATUS:               ID:20160325084744d    3
 OLDACT:DUP 16-03-25 18:32 OP:ak   STATUS:               ID:20160325084744d    3
 OLDACT:REG 16-03-25 14:36 OP:ak   STATUS:               ID:20160325084743     3
 2016-03-25-0847-43M.COL___294                                                 6
 STAT SP IPHASW D HRMM SECON CODA AMPLIT PERI AZIMU VELO AIN AR TRES W  DIS CAZ7
 BAR2 EZ EP        854 36.75                             169    0.5510 26.9 185 
 BAR2 EZ ES        854 51.78                             169   -0.3310 26.9 185 
 BAR2 EZ I         854 53.44         3.8 0.26            167           26.9 185 
 RUS  HZ EP        854 40.45                             144    0.0510  105 175 
 RUS  HE ES        854 59.58                             144   -0.0110  105 175 
 RUS  HZ I         855  0.49         0.8 0.34            143            105 175 
 PTB  HZ EP   2    854 43.16                             133   -0.01 5  147 257 
 PTB  HN ES        855  4.52                             133    0.00 9  147 257 
 PTB  HZ I         855  5.86                             133            147 257 
 SPBC HZ EP        854 44.23                             130   -0.70 9  165 218 
 SPBC HN ES        855  8.03                             130    0.38 9  165 218 
 SPBC HZ I         855 11.06         3.1 0.05            130            165 218 
                                                                                
