 2011  225 0506 19.8 L   7.054 -73.581103.1  RSN  5 0.3 1.6LRSN                1
 GAP=126        0.67       3.3     4.6 11.0 -0.6949E+01  0.3020E+02 -0.1255E+02E
 Epicentro: SAN VICENTE DE CHUCURI - SANTANDER                                 3
 ACTION:UP  11-03-28 15:11 OP:jfem STATUS:               ID:20110225050621 L   I
 2011-02-25-0504-27S.COL___137                                                 6
 STAT SP IPHASW D HRMM SECON CODA AMPLIT PERI AZIMU VELO SNR AR TRES W  DIS CAZ7
 BAR2 SZ EP   1    5 6 37.16                             144     0.6 9   67 139 
 BAR2 SZ I         5 6 37.47        21.0 0.12                            67 139 
 BAR2 SZ ES   1    5 6 49.74                             144     0.0 9   67 139 
 GRA  SZ EP   1    5 6 41.71                             125     0.1 9  126  43 
 GRA  SZ ES   1    5 6 58.71                             125     0.1 9  126  43 
 GRA  SZ I         5 7  1.47        11.4 0.29                           126  43 
 OCA  SZ EP   1    5 6 42.34                             123    -0.1 9  134  12 
 OCA  SZ ES   1    5 6 59.85                             123    -0.3 9  134  12 
 OCA  SZ I         5 7  3.41         6.1 0.19                           134  12 
 RUS  HZ EP   2    5 6 43.08                             122    -0.4 6  140 157 
 RUS  HN ES   2    5 7  1.38                             122    -0.6 6  140 157 
 RUS  HZ I         5 7  3.08         4.6 0.28                           140 157 
 HEL  HE ES        5 7 20.58                             108     0.010  236 246 
 HEL  HZ I         5 7 28.69         1.3 0.49                           236 246 
                                                                                
