 2010 1025 0416 57.1 L   6.792 -73.070139.3  RSN  5 0.3 1.8LRSN                1
 GAP=167        0.67       3.9     7.9  7.1 -0.2475E+01 -0.1026E+02 -0.6155E+01E
 Epicentro: LOS SANTOS - SANTANDER                                             3
 ACTION:UP  11-02-18 11:12 OP:tino STATUS:               ID:20101025041657 L   I
 2010-10-25-0415-23S.COL___124                                                 6
 STAT SP IPHASW D HRMM SECON CODA AMPLIT PERI AZIMU VELO SNR AR TRES W  DIS CAZ7
 BAR2 SZ EP   1    417 16.04                             169     0.1 7   25 210 
 BAR2 SZ ES   1    417 30.22                             169    -0.5 7   25 210 
 BAR2 SZ I         417 31.81        15.2 0.21                            25 210 
 BRR  HZ IP     C  417 17.83                             149    -0.210   79 296 
 BRR  HZ I         417 18.11        13.3 0.19                            79 296 
 BRR  HN ES   1    417 34.69                             149     0.4 7   79 296 
 RUS  HZ EP   2    417 20.52                             143     0.4 5   99 181 
 RUS  HN ES   2    417 38.34                             143     0.3 5   99 181 
 GRA  SZ EP   1    417 21.84                             136     0.2 7  124  14 
 GRA  SZ ES   1    417 40.94                             136     0.2 7  124  14 
 GRA  SZ I         417 43.52         8.4 0.33                           124  14 
 OCA  SZ EP   1    417 24.68                             128    -0.4 7  162 350 
 OCA  SZ ES   1    417 46.96                             128     0.0 7  162 350 
 OCA  SZ I         417 49.45         6.9 0.38                           162 350 
                                                                                
