 2016  625 0912 12.3 L   6.809 -73.170146.0  RSN 16 0.5 2.0LRSN                1
 GAP=117        1.06       3.3     3.6  5.9 -0.9127E+00  0.5757E+01  0.4373E+01E
 Epicentro: LOS SANTOS - SANTANDER                                             3
 ACTION:UPD 16-07-21 22:22 OP:rebc STATUS:               ID:20160625091212 L   I
 OLDACT:REG 16-06-25 12:41 OP:ak   STATUS:               ID:20160625090747     3
 2016-06-25-0907-47M.COL___321                                                 6
 STAT SP IPHASW D HRMM SECON CODA AMPLIT PERI AZIMU VELO AIN AR TRES W  DIS CAZ7
 BRR  HZ IP     C  912 33.58                             154    0.3110 68.4 299 
 BRR  HE ES        912 50.54                             154    0.8810 68.4 299 
 BRR  HZ I         912 53.34        16.2 0.34                          68.4 299 
 PAM  EZ EP        912 34.85                             151    0.3010 78.3  42 
 PAM  EN ES        912 51.74                             151   -0.2010 78.3  42 
 PAM  EZ I         912 54.04        11.3 0.50                          78.3  42 
 RUS  HZ EP        912 36.02                             144   -0.0910  102 175 
 RUS  HE ES        912 54.43                             144   -0.3010  102 175 
 RUS  HZ I         912 55.58        12.3 0.26                           102 175 
 PTB  HZ EP        912 38.34                             133   -0.68 9  145 258 
 PTB  HN ES        912 59.17                             133   -0.73 9  145 258 
 PTB  HZ I         913  6.57        14.1 0.42                           145 258 
 SPBC HZ EP        912 40.62                             129   -0.07 9  162 218 
 SPBC HE ES        913  3.23                             129    0.36 9  162 218 
 SPBC HZ I         913  5.59        13.3 0.12                           162 218 
 ZAR  HZ EP        912 43.90                             123   -0.52 9  201 292 
 ZAR  HN ES        913  9.39                             123   -0.12 9  201 292 
 ZAR  HZ I         913 15.00         9.4 0.13                           201 292 
 NOR  HZ EP        912 47.54                             119   -0.29 8  233 234 
 NOR  HN ES        913 15.65                             119    0.07 8  233 234 
 NOR  HZ I         913 23.84         9.3 0.17                           233 234 
 CHI  HZ EP        912 49.94                             117   -0.06 8  249 195 
 CHI  HN ES        913 18.88                             117   -0.56 8  249 195 
 CHI  HZ I         913 21.72         9.6 0.32                           249 195 
 ROSC BZ EP   9    912 51.90                             117    1.57 0  252 210 
 ROSC BE ES        913 21.94                                    0.34 8  252 210 
 ROSC BZ I         913 26.52        16.6 0.35                           252 210 
 HEL  HZ EP   2    912 53.02                             115    0.80 4  270 255 
 HEL  HE ES        913 23.94                             115    0.55 8  270 255 
 HEL  HZ I         913 29.98         5.4 0.34                           270 255 
 GUY2CHZ EP   4    912 56.92                             113    1.23 0  300 234 
 GUY2CHE ES        913 30.19                             113    0.61 7  300 234 
 GUY2CHZ I         913 36.99         4.1 0.22                           300 234 
 PTGC HZ EP   9    912 54.87                             112   -1.47 0  311 158 
 PTGC HE ES        913 28.87                                   -0.39 7  311 158 
 PTGC HZ I         913 30.21         6.9 0.26                           311 158 
 CBOC HZ EP   2    912 59.60                             110    0.68 3  331 252 
 CBOC HN ES        913 34.68                             110   -0.65 7  331 252 
 CBOC HZ I         913 41.58         1.7 0.30                           331 252 
 DBB  SZ EP   2    913  0.25                             110    0.83 3  337 274 
 DBB  SZ ES        913 35.57                             110   -0.65 7  337 274 
 PRA  HZ EP        913  6.69                             107    0.96 6  392 209 
 PRA  HE ES        913 47.57                             107    0.12 6  392 209 
 PRA  HZ I         913 53.34         4.3 0.24                           392 209 
 ORTC HZ EP        913  6.27                             106    0.18 6  395 216 
 ORTC HN ES        913 49.01                             106    0.92 6  395 216 
 ORTC HZ I         913 55.52         3.0 0.58                           395 216 
                                                                                
