 2016 1125 0333 23.5 L   6.774 -73.155145.5  RSN  8 0.3 1.5LRSN                1
 GAP=150        0.78       3.4     3.6  5.2 -0.1414E+01  0.4632E+01  0.5204E+01E
 Epicentro: LOS SANTOS - SANTANDER                                             3
 ACTION:UPD 17-10-26 21:11 OP:lp   STATUS:               ID:20161125033323 L   I
 OLDACT:UP  16-11-25 15:46 OP:edw  STATUS:               ID:20161125032747     3
 OLDACT:REG 16-11-25 12:34 OP:edw  STATUS:               ID:20161125032747     3
 2016-11-25-0328-00M.COL___355                                                 6
 STAT SP IPHASW D HRMM SECON CODA AMPLIT PERI AZIMU VELO AIN AR TRES W  DIS CAZ7
 BAR2 EZ EP        333 42.87                             172   -0.1410 20.3 189 
 BAR2 EZ ES        333 58.76                             172    0.5110 20.3 189 
 BAR2 EZ I         334  0.72         9.6 0.34            171           20.3 189 
 BRR  HZ EP        333 44.69                             152    0.0710 71.8 301 
 BRR  HN ES        334  1.19                             152    0.0810 71.8 301 
 PAM  EZ EP     C  333 45.91                             150    0.0910 80.2  39 
 PAM  EN ES        334  2.98                             150   -0.2810 80.2  39 
 PAM  EZ I         334  6.14         2.7 0.48            152           80.2  39 
 PTB  HZ EP        333 49.95                             132   -0.32 9  146 260 
 PTB  HN ES        334 10.60                             132   -0.59 9  146 260 
 PTB  HZ I         334 13.30         2.5 0.12            133            146 260 
 ZAR  HZ EP        333 56.20                             122    0.29 9  204 293 
 ZAR  HZ E         333 56.86                                            204 293 
 ZAR  HN ES        334 21.33                             122    0.11 9  204 293 
 ZAR  HZ I         334 26.14         2.6 0.26            123            204 293 
 NOR  HE ES   2    334 27.42                             119    0.86 4  232 235 
 CHI  HN ES        334 29.63                             117   -0.32 8  246 195 
 PRA  HZ EP        334 17.05                             107    0.42 6  389 210 
 PRA  HE ES        334 58.35                             107    0.26 6  389 210 
 PRA  HZ I         335  5.25         2.1 0.36            107            389 210 
                                                                                
