 2011 1225 0604 16.6 L   6.738 -73.190145.3  RSN  5 0.2 1.6LRSN                1
 GAP=173        0.42       4.0     3.6  3.7  0.5372E+01  0.3914E+00  0.9011E+00E
 Epicentro: VILLANUEVA - SANTANDER                                             3
 ACTION:UPD 12-07-13 16:18 OP:ep   STATUS:               ID:20111225060416 L   I
 2011-12-25-0600-00M.COL___186                                                 6
 STAT SP IPHASW D HRMM SECON CODA AMPLIT PERI AZIMU VELO AIN AR TRES W  DIS CAZ7
 BAR2 SZ EP        6 4 36.09                             173    0.0010 16.2 177 
 BAR2 SZ ES        6 4 51.22                             173   -0.0410 16.2 177 
 BAR2 SZ I         6 4 52.92         5.7 0.31                          16.2 177 
 GIR2 SZ EP   1    6 4 36.17                             165   -0.28 7 37.6 359 
 BRR  HZ EP        6 4 37.93                             153    0.2210 70.7 305 
 BRR  HZ I         6 4 38.24        12.1 0.15                          70.7 305 
 BRR  HE ES        6 4 54.17                             153    0.0310 70.7 305 
 RUS  HZ EP   1    6 4 39.76                             146   -0.14 7 94.3 173 
 RUS  HN ES   2    6 4 58.38                             146    0.34 5 94.3 173 
 PTB  HZ EP   1    6 4 43.10                             133    0.07 7  142 261 
 PTB  HN ES   1    6 5  3.44                             133   -0.18 7  142 261 
                                                                                
