 2017 1025 0138 10.5 L   6.769 -73.144145.6  RSN 11 0.4 1.5LRSN                1
 GAP=138        0.98       3.3     3.9  5.4 -0.9851E+00  0.5272E+01  0.4268E+01E
 Epicentro: LOS SANTOS - SANTANDER                                             3
 ACTION:UPD 17-11-07 19:36 OP:rebc STATUS:               ID:20171025013810 L   I
 OLDACT:UP  17-10-25 18:00 OP:edw  STATUS:               ID:20171025012238d    3
 OLDACT:UP  17-10-25 17:58 OP:edw  STATUS:               ID:20171025012238d    3
 OLDACT:DUP 17-10-25 17:32 OP:edw  STATUS:               ID:20171025012238d    3
 2017-10-25-0128-00M.COL___442                                                 6
 STAT SP IPHASW D HRMM SECON CODA AMPLIT PERI AZIMU VELO AIN AR TRES W  DIS CAZ7
 BAR2 EZ EP        138 29.92                             172   -0.1210 20.1 192 
 BAR2 EZ ES        138 44.75                             172   -0.5410 20.1 192 
 BAR2 EZ I         138 46.44        20.1 0.18            170           20.1 192 
 BRR  HZ EP        138 31.82                             152    0.0910 73.1 301 
 BRR  HN ES        138 49.17                             152    0.8710 73.1 301 
 BRR  HZ I         138 50.13         6.5 0.14            151           73.1 301 
 PAM  EZ EP        138 32.82                             150   -0.0210 79.9  38 
 PAM  EN ES        138 50.35                             150    0.0810 79.9  38 
 PAM  EZ I         138 52.50         3.5 0.40            154           79.9  38 
 RUS  HZ EP        138 33.89                             145   -0.1010 97.2 176 
 RUS  HN ES        138 52.58                             145    0.2710 97.2 176 
 RUS  HZ I         138 53.76         3.4 0.24            145           97.2 176 
 PTB  HZ EP        138 36.58                             132   -0.83 9  147 260 
 PTB  HN ES        138 57.88                             132   -0.53 9  147 260 
 PTB  HZ I         139  0.74         2.5 0.20            132            147 260 
 SPBC HZ EP        138 38.90                             129    0.15 9  161 220 
 SPBC HN ES        139  0.59                             129   -0.19 9  161 220 
 SPBC HZ I         139  6.93         7.2 0.22            130            161 220 
 ZAR  HZ EP        138 42.77                             122   -0.31 8  206 293 
 ZAR  HN ES        139  8.58                             122    0.08 8  206 293 
 ZAR  HZ I         139 13.41         2.4 0.22            123            206 293 
 NOR  HZ EP        138 46.30                             119    0.28 8  233 235 
 NOR  HN ES        139 14.22                             119    0.48 8  233 235 
 NOR  HZ I         139 17.49         2.3 0.68            119            233 235 
 CHI  HZ EP        138 48.07                             117    0.24 8  245 195 
 CHI  HE ES        139 16.82                             117   -0.14 8  245 195 
 CHI  HZ I         139 20.05         1.6 0.22            118            245 195 
 GUY2CHZ EP   4    138 55.54                             112    1.64 0  299 235 
 GUY2CHN ES   4    139 29.13                             112    1.38 0  299 235 
 GUY2CHZ I         139 39.19         1.7 0.60                           299 235 
 PRA  HZ EP        139  4.29                             107    0.61 6  389 210 
 PRA  HE ES        139 45.40                             107    0.24 6  389 210 
 PRA  HZ I         139 51.59         2.3 0.42            108            389 210 
                                                                                
