 2017  225 0544 34.6 L   6.792 -73.179143.8  RSN  6 0.4 1.7LRSN                1
 GAP=133        1.03       4.4     5.2  6.9 -0.2353E+01  0.3759E+01  0.8095E+01E
 Epicentro: LOS SANTOS - SANTANDER                                             3
 ACTION:UPD 17-05-24 15:40 OP:jn   STATUS:               ID:20170225054434 L   I
 OLDACT:UP  17-02-25 16:46 OP:dani STATUS:               ID:20170225053745d    3
 OLDACT:UP  17-02-25 16:41 OP:dani STATUS:               ID:20170225053745d    3
 OLDACT:DUP 17-02-25 16:38 OP:dani STATUS:               ID:20170225053745d    3
 2017-02-25-0538-00M.COL___376                                                 6
 STAT SP IPHASW D HRMM SECON CODA AMPLIT PERI AZIMU VELO AIN AR TRES W  DIS CAZ7
 BAR2 EZ EP        544 53.96                             171   -0.0510 22.1 181 
 BAR2 EZ ES        545  8.75                             171   -0.3710 22.1 181 
 BAR2 EZ I         545 10.19        21.6 0.30            170           22.1 181 
 BRR  HZ IP     C  544 55.75                             153    0.3210 68.4 301 
 BRR  HN ES        545 12.33                             153    0.7010 68.4 301 
 BRR  HZ I         545 15.95         8.3 0.28            151           68.4 301 
 PAM  EZ EP        544 56.94                             149    0.1010 80.5  41 
 PAM  EN ES        545 14.08                             149   -0.0710 80.5  41 
 PAM  EZ I         545 16.41         8.6 0.68            154           80.5  41 
 RUS  HZ EP        544 57.85                             144   -0.3110  100 174 
 RUS  HN ES        545 16.43                             144   -0.0710  100 174 
 RUS  HZ I         545 17.60         4.5 0.22            146            100 174 
 PTB  HZ EP        545  0.49                             132   -0.62 9  144 259 
 PTB  HE ES        545 21.33                             132   -0.42 9  144 259 
 PTB  HZ I         545 29.05         5.8 0.18            132            144 259 
 CHI  HZ EP        545 12.34                             117    0.30 8  247 194 
 CHI  HN ES        545 41.94                             117    0.74 8  247 194 
 CHI  HZ I         545 43.83         2.5 0.33            119            247 194 
                                                                                
