 2010  225 0632 17.3 L   6.867 -73.137154.5  RSN  9 0.5 2.0LRSN                1
 GAP=184        0.88       6.0    10.8  9.8  0.2792E+02  0.4636E+02  0.1015E+02E
 Epicentro: LOS SANTOS - SANTANDER                                             3
 ACTION:UP  10-08-24 09:50 OP:vdl  STATUS:               ID:20100225063217 L   I
 2010-02-25-0620-00S.COL___097                                                 6
 STAT SP IPHASW D HRMM SECON CODA AMPLIT PERI AZIMU VELO SNR AR TRES W  DIS CAZ7
 GIR2 SZ ES   3    632 54.42                             171     0.5 2   24 345 
 BAR2 SZ IP        632 38.40                             168     0.210   31 190 
 BRR  HN ES   2    632 56.66                             154     0.2 5   69 293 
 RUS  BZ EP        632 42.34                             143    -0.110  108 177 
 RUS  BN ES   2    633  1.24                             143    -0.8 5  108 177 
 RUS  BZ I         633  2.72         6.8 0.52                           108 177 
 OCA  SZ EP   1    632 45.68                             133     0.0 7  153 352 
 OCA  SZ I         633 11.98        17.4 0.29                           153 352 
 CHI  HZ EP        632 56.27                             118     0.0 8  256 195 
 CHI  HZ I         633 29.58         7.2 0.57                           256 195 
 DBB  SZ EP        633  6.07                             111     0.8 7  340 273 
 MON  HZ EP        633  5.54                             110    -0.7 6  349 307 
 MON  HN ES   2    633 43.43                             110    -0.9 3  349 307 
 MON  HZ I         633 59.33         2.1 0.49                           349 307 
 PRA  HZ EP        633 12.27                             107     0.3 6  399 209 
 PRA  HN ES   2    633 54.21                             107    -0.4 3  399 209 
 PRA  HZ I         634  0.90         6.0 0.33                           399 209 
                                                                                
