 2017 1025 0429 36.9 L   6.799 -73.148148.4  RSN  5 0.3 1.0LRSN                1
 GAP=251        0.70       5.5     4.8  6.3  0.5332E+01  0.6731E+01 -0.9806E-01E
 Epicentro: LOS SANTOS - SANTANDER                                             3
 ACTION:UPD 17-11-07 19:36 OP:rebc STATUS:               ID:20171025042936 L   I
 OLDACT:REG 17-10-25 12:55 OP:dani STATUS:               ID:20171025041648     3
 2017-10-25-0428-00M.COL___437                                                 6
 STAT SP IPHASW D HRMM SECON CODA AMPLIT PERI AZIMU VELO AIN AR TRES W  DIS CAZ7
 BAR2 EZ EP        429 56.43                             171   -0.4410 23.1 189 
 BAR2 EZ ES        430 12.45                             171    0.0210 23.1 189 
 BAR2 EZ I         430 15.24         1.8 0.34            176           23.1 189 
 BRR  HZ EP        429 58.58                             153    0.2310 71.0 299 
 BRR  HN ES        430 15.27                             153    0.2010 71.0 299 
 BRR  HZ I         430 22.79         2.9 0.57            154           71.0 299 
 PTB  HZ EP        430  4.39                             133    0.31 9  147 259 
 PTB  HE ES        430 24.97                             133   -0.30 9  147 259 
 PTB  HZ I         430 27.16         0.9 0.16            137            147 259 
 SPBC HE ES   1    430 28.24                             130    0.27 7  163 219 
 ZAR  HN ES        430 34.76                             123   -0.19 9  204 292 
                                                                                
