 2017 1025 0059 21.3 L   6.528 -73.484138.5  RSN  4 0.4 1.0LRSN                1
 GAP=191        0.96       5.4     8.5  9.2  0.1108E+02  0.1402E+02  0.6355E+01E
 Epicentro: SIMACOTA - SANTANDER                                               3
 ACTION:UPD 17-11-07 19:36 OP:rebc STATUS:               ID:20171025005921 L   I
 OLDACT:UP  17-10-25 17:27 OP:edw  STATUS:               ID:20171025005021     3
 OLDACT:REG 17-10-25 12:38 OP:dani STATUS:               ID:20171025005021     3
 2017-10-25-0058-00M.COL___440                                                 6
 STAT SP IPHASW D HRMM SECON CODA AMPLIT PERI AZIMU VELO AIN AR TRES W  DIS CAZ7
 BAR2 EZ EP        059 39.88                             165   -0.4210 34.1  78 
 BAR2 EZ ES        059 54.86                             165   -0.2910 34.1  78 
 BAR2 EZ I         059 55.91         3.9 0.18            153           34.1  78 
 BRR  HZ EP        059 41.12                             152   -0.3710 68.8 339 
 BRR  HN ES        059 57.66                             152    0.3910 68.8 339 
 RUS  HZ EP        059 43.66                             148    0.5810 83.1 148 
 RUS  HN ES        1 0  0.05                             148   -0.0410 83.1 148 
 RUS  HZ I         1 0  5.30         1.0 0.44            142           83.1 148 
 PAM  EZ EP   4    059 42.84                             136   -3.40 0  125  44 
 PAM  EE ES        1 0  5.90                             136    0.1710  125  44 
 PAM  EZ I         1 0 13.85         2.0 0.44            130            125  44 
                                                                                
