 2013  325 0210 58.1 L   6.755 -73.148146.6  RSN  5 0.4 1.0LRSN                1
 GAP=138        0.73       5.6     5.5  9.0  0.6201E+01  0.3868E+01  0.4763E+00E
 Epicentro: LOS SANTOS - SANTANDER                                             3
 ACTION:UPD 13-04-09 14:04 OP:ep   STATUS:               ID:20130325021058 L   I
 2013-03-25-0210-00M.COL___244                                                 6
 STAT SP IPHASW D HRMM SECON CODA AMPLIT PERI AZIMU VELO AIN AR TRES W  DIS CAZ7
 BRR  HZ EP        211 19.65                             152    0.1610 73.5 302 
 BRR  HE ES   1    211 36.60                             152    0.44 7 73.5 302 
 PAM  SZ EP   2    211 20.50                             149   -0.17 5 81.5  37 
 PAM  SN ES   2    211 37.58                             149   -0.68 5 81.5  37 
 RUS  HZ EP   1    211 21.77                             145    0.16 7 95.6 176 
 RUS  HN ES   1    211 40.03                             145    0.11 7 95.6 176 
 RUS  HZ I         211 41.74         1.0 0.24            145           95.6 176 
 PTB  HZ EP   1    211 24.98                             132   -0.07 7  147 261 
 PTB  HN ES   1    211 45.25                             132   -0.81 7  147 261 
 PTB  HZ I         211 50.99         2.2 0.24            131            147 261 
 ZAR  HN ES   2    211 56.73                             122    0.45 4  206 293 
                                                                                
