 2016 1125 0107 41.9 L   6.775 -73.094150.4  RSN 10 0.4 1.8LRSN                1
 GAP=125        0.85       3.5     3.8  5.0 -0.1748E+01  0.1009E+01  0.7619E+01E
 Epicentro: LOS SANTOS - SANTANDER                                             3
 ACTION:UPD 17-10-26 21:11 OP:lp   STATUS:               ID:20161125010741 L   I
 OLDACT:UP  16-11-25 14:23 OP:edw  STATUS:               ID:20161125005744     3
 OLDACT:UP  16-11-25 14:22 OP:edw  STATUS:               ID:20161125005744     3
 OLDACT:REG 16-11-25 12:15 OP:edw  STATUS:               ID:20161125005744     3
 2016-11-25-0058-00M.COL___355                                                 6
 STAT SP IPHASW D HRMM SECON CODA AMPLIT PERI AZIMU VELO AIN AR TRES W  DIS CAZ7
 BAR2 EZ EP        1 8  1.93                             171   -0.1110 22.5 206 
 BAR2 EZ ES        1 8 17.36                             171   -0.4110 22.5 206 
 BAR2 EZ I         1 8 19.91        12.3 0.22            168           22.5 206 
 PAM  EZ EP        1 8  4.80                             152    0.2910 76.1  35 
 PAM  EN ES        1 8 22.24                             152    0.0810 76.1  35 
 PAM  EZ I         1 8 24.16        11.8 0.56            157           76.1  35 
 BRR  HZ EP     C  1 8  3.78                             151   -0.1010 77.5 298 
 BRR  HN ES        1 8 21.46                             151    0.4110 77.5 298 
 PTB  HZ EP   9    1 8  8.83                             132   -0.85 0  153 260 
 PTB  HN ES        1 8 30.12                             132   -0.40 9  153 260 
 PTB  HZ I         1 8 37.22        13.8 0.34            132            153 260 
 ZAR  HZ EP        1 8 14.56                             122   -0.71 8  210 292 
 ZAR  HE ES        1 8 41.41                             122    0.09 8  210 292 
 ZAR  HZ I         1 8 45.71         6.5 0.20            124            210 292 
 NOR  HZ EP        1 8 18.35                             119    0.15 8  238 236 
 NOR  HN ES        1 8 46.36                             119   -0.18 8  238 236 
 NOR  HZ I         1 8 49.60         4.1 0.20            120            238 236 
 CHI  HZ EP        1 8 20.10                             118    0.39 8  248 197 
 CHI  HN ES        1 8 49.68                             118    0.45 8  248 197 
 CHI  HZ I         1 8 57.05         2.0 0.23            119            248 197 
 URE  HZ EP   4    1 8 26.03                             114    2.16 0  290 292 
 URE  HN ES   4    1 8 54.38                             114   -2.25 0  290 292 
 URE  HZ I         1 8 57.21         3.5 0.14            115            290 292 
 PTGC HZ EP        1 8 24.71                             113   -0.71 7  304 159 
 PTGC HN ES   4    1 8 57.44                             113   -1.94 0  304 159 
 ELA  HZ EP   4    1 8 30.79                             111    1.57 0  332 230 
 ELA  HN ES   4    1 9 10.85                             111    4.70 0  332 230 
 CBOC HE ES   4    1 9  4.89                             110   -1.78 0  338 253 
 PRA  HZ EP        1 8 36.00                             107    0.39 6  392 210 
 PRA  HN ES        1 9 17.55                             107    0.02 6  392 210 
 PRA  HZ I         1 9 21.77         1.8 0.50            108            392 210 
 SJC  HZ EP   4    1 8 36.23                             106   -2.00 0  415 327 
 SJC  HN ES   4    1 9 18.45                             106   -3.73 0  415 327 
                                                                                
