 2015 1125 0428 27.0 L   6.823 -73.108145.1  RSN  7 0.5 1.8LRSN                1
 GAP=140        1.26       3.9     6.2  8.6 -0.4694E+01  0.7556E+01 -0.3165E+01E
 Epicentro: LOS SANTOS - SANTANDER                                             3
 ACTION:UPD 15-12-28 16:13 OP:cam  STATUS:               ID:20151125042827 L   I
 OLDACT:REG 15-11-25 12:48 OP:drio STATUS:               ID:20151125041736     3
 2015-11-25-0417-36M.COL___212                                                 6
 STAT SP IPHASW D HRMM SECON CODA AMPLIT PERI AZIMU VELO AIN AR TRES W  DIS CAZ7
 PAM  EZ EP        428 48.02                             152   -0.8610 72.8  38 
 PAM  EE ES        429  5.53                             152   -0.4110 72.8  38 
 BRR  HZ EP        428 49.08                             151    0.8610 73.8 295 
 BRR  HN ES        429  5.24                             151    0.4610 73.8 295 
 RUS  HZ EP        428 50.85                             143   -0.0010  103 178 
 RUS  HE ES        429  9.84                             143    0.3810  103 178 
 RUS  HZ I         429 11.17         3.6 0.30            147            103 178 
 PTB  HZ EP        428 53.95                             131   -0.38 9  152 258 
 PTB  HN ES        429 14.88                             131   -0.77 9  152 258 
 PTB  HZ I         429 20.06         4.8 0.12            132            152 258 
 OCA  HZ EP        428 55.24                             130    0.16 9  158 352 
 OCA  HN ES        429 17.30                             130    0.32 9  158 352 
 OCA  HZ I         429 25.48        11.4 0.46            131            158 352 
 SPBC HZ EP        428 56.37                             128    0.49 9  168 220 
 SPBC HN ES        429 18.13                             128   -0.28 9  168 220 
 SPBC HZ I         429 22.40         8.2 0.36            130            168 220 
 SML  HZ EP        429  3.69                             117    0.15 8  243 334 
 SML  HN ES        429 31.85                             117   -0.18 8  243 334 
 SML  HZ I         429 36.25         6.5 0.22            119            243 334 
                                                                                
