 2015  525 0055 51.7 L   6.787 -73.101148.0  RSN 12 0.4 1.9LRSN                1
 GAP=143        0.98       3.1     4.4  6.0 -0.1971E+01  0.6428E+01  0.8604E+00E
 Epicentro: LOS SANTOS - SANTANDER                                             3
 ACTION:UPD 15-09-10 22:06 OP:cam  STATUS:               ID:20150525005551 L   I
 OLDACT:DUP 15-05-25 14:08 OP:spq  STATUS:               ID:20150525004738d    3
 2015-05-25-0047-36M.COL___297                                                 6
 STAT SP IPHASW D HRMM SECON CODA AMPLIT PERI AZIMU VELO AIN AR TRES W  DIS CAZ7
 BAR2 EZ EP   1    056 11.33                             171   -0.27 7 23.4 203 
 BAR2 EZ ES   1    056 26.95                             171   -0.17 7 23.4 203 
 BAR2 EZ I         056 29.42        11.4 0.36            169           23.4 203 
 PAM  SZ EP        056 14.87                             152    0.8210 75.5  36 
 PAM  SN ES   1    056 31.22                             152   -0.25 7 75.5  36 
 PAM  SZ I         056 33.59         5.9 0.18            155           75.5  36 
 BRR  HZ EP        056 13.34                             151   -0.0410 76.2 298 
 BRR  HN ES        056 31.05                             151    0.7610 76.2 298 
 BRR  HZ I         056 32.94        10.3 0.18            151           76.2 298 
 RUS  HZ EP        056 15.25                             145   -0.3110 99.0 179 
 RUS  HE ES        056 33.96                             145   -0.2110 99.0 179 
 RUS  HZ I         056 35.15         5.0 0.42            146           99.0 179 
 OCA  HZ EP        056 20.58                             130    0.20 9  162 351 
 OCA  HE ES        056 42.29                             130   -0.46 9  162 351 
 OCA  HZ I         056 46.30        21.5 0.24            132            162 351 
 SPBC HZ EP        056 20.32                             129   -0.25 9  165 221 
 SPBC HN ES        056 43.16                             129    0.08 9  165 221 
 SPBC HZ I         056 45.78        14.8 0.07            130            165 221 
 ZAR  HZ EP        056 24.03                             122   -0.79 8  209 292 
 ZAR  HN ES        056 50.29                             122   -0.35 8  209 292 
 ZAR  HZ I         056 55.77        10.3 0.16            123            209 292 
 NOR  HZ EP   1    056 27.43                             119   -0.48 6  238 235 
 NOR  HE ES        056 56.33                             119    0.19 8  238 235 
 NOR  HZ I         056 59.04        10.9 0.16            120            238 235 
 CHI  HZ EP   1    056 30.02                             118    0.50 6  249 196 
 CHI  HN ES   1    056 58.98                             118   -0.04 6  249 196 
 CHI  HZ I         057  6.48         2.9 0.36            119            249 196 
 HEL  HZ EP   1    056 32.99                             115    0.47 6  276 256 
 HEL  HN ES   1    057  4.74                             115    0.38 6  276 256 
 HEL  HZ I         057  9.49         3.5 0.28            116            276 256 
 GUY2CHZ EP   1    056 36.33                             113    0.55 5  304 236 
 GUY2CHN ES   4    057 11.76                             113    1.60 0  304 236 
 GUY2CHZ I         057 18.56         5.2 0.30                           304 236 
 MON  HE ES   4    057 17.07                             109   -2.98 0  358 308 
 MON  HZ I         057 19.70         2.2 0.44            110            358 308 
                                                                                
