 2017  925 0910 28.8 L   6.899 -73.048143.0  RSN  4 0.4 1.2LRSN                1
 GAP=275        0.89       6.9     7.0  7.0  0.1153E+02  0.1650E+02  0.4964E+01E
 Epicentro: PIEDECUESTA - SANTANDER                                            3
 ACTION:UPD 17-10-05 19:16 OP:rebc STATUS:               ID:20170925091028 L   I
 OLDACT:UP  17-09-25 18:30 OP:dhb  STATUS:               ID:20170925090740d    3
 OLDACT:DUP 17-09-25 18:26 OP:dhb  STATUS:               ID:20170925090740d    3
 OLDACT:UP  17-09-25 18:24 OP:dhb  STATUS:               ID:20170925090739     3
 OLDACT:REG 17-09-25 13:20 OP:edw  STATUS:               ID:20170925090739     3
 2017-09-25-0908-00M.COL___393                                                 6
 STAT SP IPHASW D HRMM SECON CODA AMPLIT PERI AZIMU VELO AIN AR TRES W  DIS CAZ7
 BAR2 EZ IP     D  910 48.19                             165   -0.2510 37.1 204 
 BAR2 EZ ES        911  3.60                             165   -0.1810 37.1 204 
 BAR2 EZ I         911  4.79         3.6 0.18            161           37.1 204 
 BRR  HZ EP        910 50.17                             150    0.2010 76.8 287 
 BRR  HN ES        911  6.89                             150    0.4010 76.8 287 
 BRR  HZ I         911 10.86         1.7 0.14            148           76.8 287 
 ZAR  HZ EP        911  2.13                             121    0.42 8  210 288 
 ZAR  HE ES        911 26.65                             121   -0.74 8  210 288 
 NOR  HZ EP        911  5.80                             116   -0.20 8  250 234 
 NOR  HN ES        911 35.31                             116    0.28 8  250 234 
 NOR  HZ I         911 39.97         1.3 0.24            117            250 234 
                                                                                
