 2016  225 0610  2.4 L   6.825 -73.224146.0  RSN  8 0.5 1.5LRSN                1
 GAP=124        1.07       3.5     4.9  7.6 -0.2195E+01  0.9907E+01  0.1780E+01E
 Epicentro: ZAPATOCA - SANTANDER                                               3
 ACTION:UPD 16-03-04 21:29 OP:rebc STATUS:               ID:20160225061002 L   I
 OLDACT:UP  16-02-25 17:04 OP:mh   STATUS:               ID:20160225060748     3
 OLDACT:UP  16-02-25 17:04 OP:mh   STATUS:               ID:20160225060748     3
 OLDACT:UP  16-02-25 17:03 OP:mh   STATUS:               ID:20160225060748     3
 OLDACT:UP  16-02-25 17:03 OP:mh   STATUS:               ID:20160225060748     3
 OLDACT:UP  16-02-25 16:46 OP:mh   STATUS:               ID:20160225060748     3
 OLDACT:REG 16-02-25 13:16 OP:mh   STATUS:               ID:20160225060748     3
 2016-02-25-0607-48M.COL___333                                                 6
 STAT SP IPHASW D HRMM SECON CODA AMPLIT PERI AZIMU VELO AIN AR TRES W  DIS CAZ7
 BAR2 EZ EP   1    610 22.05                             169   -0.08 7 26.1 170 
 BAR2 EZ ES        610 37.16                             169   -0.3510 26.1 170 
 BAR2 EZ I         610 38.30         7.7 0.20            169           26.1 170 
 PAM  EZ EP   1    610 25.06                             150    0.18 7 81.2  45 
 PAM  EN ES        610 42.47                             150    0.0610 81.2  45 
 PAM  EZ I         610 44.63         3.6 0.48            152           81.2  45 
 RUS  HZ EP   1    610 26.23                             143   -0.22 7  104 171 
 RUS  HN ES        610 44.82                             143   -0.3810  104 171 
 RUS  HZ I         610 46.28         3.2 0.54            143            104 171 
 PTB  HZ EP   1    610 28.61                             134   -0.08 7  140 257 
 PTB  HN ES        610 49.57                             134    0.38 9  140 257 
 PTB  HZ I         610 51.94         3.6 0.26            134            140 257 
 OCA  HZ EP   1    610 30.05                             130   -0.36 7  157 356 
 OCA  HN ES        610 52.93                             130    0.68 9  157 356 
 OCA  HZ I         610 55.50         4.5 0.24            132            157 356 
 SPBC HZ EP        610 30.80                             130    0.16 9  160 216 
 SPBC HE ES        610 53.53                             130    0.88 9  160 216 
 SPBC HZ I         610 58.77         5.2 0.20            130            160 216 
 SPBC HE I         611  0.76         6.3 0.14                           160 216 
 ZAR  HN ES        610 57.55                             124   -0.99 9  195 292 
 CHI  HZ EP        610 40.18                             117   -0.00 8  249 193 
 CHI  HN ES   1    611  9.37                             117   -0.27 6  249 193 
 CHI  HZ I         611 14.90         1.8 0.36            118            249 193 
                                                                                
