 2012  725 0225 33.5 L   6.730 -73.166150.0  RSN  6 0.3 1.7LRSN                1
 GAP=137        0.71       5.7     4.7  8.6  0.4078E+01  0.1575E+01 -0.8109E+01E
 Epicentro: VILLANUEVA - SANTANDER                                             3
 ACTION:UPD 12-08-14 11:45 OP:ep   STATUS:               ID:20120725022533 L   I
 2012-07-25-0220-00M.COL___215                                                 6
 STAT SP IPHASW D HRMM SECON CODA AMPLIT PERI AZIMU VELO AIN AR TRES W  DIS CAZ7
 BAR2 SZ EP        225 53.43                             174    -0.110   15 187 
 BAR2 SZ ES   3    226  8.38                             174    -0.7 2   15 187 
 BAR2 SZ I         226 10.28        15.8 0.26            175             15 187 
 BRR  HZ EP        225 55.41                             153     0.210   73 305 
 BRR  HN ES   1    226 12.61                             153     0.5 7   73 305 
 BRR  HZ I         226 14.31        20.3 0.14            149             73 305 
 PAM  SZ EP   1    225 56.50                             149    -0.1 7   85  37 
 PAM  SZ I         225 56.72         4.3 0.26            150             85  37 
 PAM  SN ES   2    226 14.03                             149    -0.6 5   85  37 
 RUS  HZ EP   3    225 57.32                             147     0.2 2   93 174 
 RUS  HN ES   1    226 15.88                             147     0.3 7   93 174 
 PTB  HZ EP   1    226  0.30                             134    -0.2 7  144 262 
 PTB  HN ES   1    226 20.97                             134    -0.6 7  144 262 
 ZAR  HE ES   1    226 32.10                             123     0.2 6  205 294 
 ZAR  HZ I         226 37.91         3.9 0.11            123            205 294 
