 2010  825 0415 44.2 L   6.810 -73.090142.7  RSN 14 0.5 2.5LRSN                1
 GAP=165        1.23       4.8    10.2  8.6 -0.1519E+02  0.8435E+01  0.5260E+01E
 Epicentro: LOS SANTOS - SANTANDER                                             3
 ACTION:UP  10-09-07 10:57 OP:vdl  STATUS:               ID:20100825041544 L   I
 2010-08-25-0412-02S.COL___121                                                 6
 STAT SP IPHASW D HRMM SECON CODA AMPLIT PERI AZIMU VELO SNR AR TRES W  DIS CAZ7
 BTL  SZ IP        416  3.38                             172     0.010   23 301 
 BAR2 SZ IP        416  3.33                             170    -0.210   26 203 
 BAR2 SZ ES   1    416 18.48                             170    -0.1 7   26 203 
 BAR2 SZ I         416 20.93        52.2 0.39                            26 203 
 GIR2 SZ EP   2    416  3.29                             167    -0.2 5   32 339 
 BRR  HZ IP     C  416  5.07                             151    -0.210   76 296 
 BRR  HE ES   1    416 21.52                             151    -0.2 7   76 296 
 BRR  HZ I         416 26.01        45.8 0.15                            76 296 
 RUS  HZ EP   1    416  7.41                             143    -0.3 7  102 180 
 RUS  HE ES   1    416 26.35                             143     0.3 7  102 180 
 RUS  HZ I         416 27.97        34.4 0.24                           102 180 
 GUE  SZ EP   1    416  8.13                             139    -0.3 7  114   9 
 GUE  SZ I         416 28.87         9.2 0.15                           114   9 
 GRA  SZ IP        416  9.98                             136     1.110  123  15 
 GRA  SZ I         416 30.40        17.6 0.39                           123  15 
 OCA  SZ EP   1    416 11.57                             129    -0.6 7  160 351 
 OCA  SZ ES   1    416 33.85                             129    -0.2 7  160 351 
 OCA  SZ I         416 37.83        21.5 0.34                           160 351 
 CHI  HZ EP   1    416 21.77                             116    -0.2 6  251 196 
 CHI  HE ES   1    416 51.17                             116    -0.3 6  251 196 
 CHI  HZ I         416 57.41        11.8 0.19                           251 196 
 ROSC BZ EP   1    416 23.35                             116     0.8 6  257 212 
 ROSC BZ I         416 25.26        17.6 0.18                           257 212 
 CVER SZ EP   2    416 24.05                             114    -0.7 4  276 203 
 CVER SZ I         416 25.71        31.0 0.29                           276 203 
 GUY  SZ EP   2    416 27.61                             111    -0.7 4  307 235 
 GUY  SE ES   1    417  3.87                                     1.1 5  307 235 
 GUY  SZ I         417 12.45        63.6 0.46                           307 235 
 ANIL HZ IP     C  416 35.13                             108     0.7 6  363 225 
 ANIL HZ I         417 20.54        33.6 0.40                           363 225 
 PRA  HZ EP        416 37.33                             106    -0.7 6  396 210 
 PRA  HN ES   2    417 19.53                             106    -0.6 3  396 210 
 PRA  HZ I         417 26.97        14.4 0.29                           396 210 
                                                                                
