 2011 1025 0040 22.2 L   6.796 -73.150143.6  RSN  5 0.2 1.6LRSN                1
 GAP=136        0.41       4.1     4.2  5.9  0.2632E+01  0.1088E+01 -0.2445E+01E
 Epicentro: LOS SANTOS - SANTANDER                                             3
 ACTION:UPD 12-07-13 16:05 OP:ep   STATUS:               ID:20111025004022 L   I
 2011-10-25-0039-06S.COL___172                                                 6
 STAT SP IPHASW D HRMM SECON CODA AMPLIT PERI AZIMU VELO AIN AR TRES W  DIS CAZ7
 BAR2 SZ EP   1    040 41.21                             171   -0.30 7 22.8 189 
 BAR2 SZ ES   2    040 56.53                             171   -0.09 5 22.8 189 
 BAR2 SZ I         040 59.19        10.2 0.24                          22.8 189 
 BRR  HZ EP   1    040 43.26                             152    0.20 7 71.0 299 
 BRR  HZ I         040 49.99        12.8 0.16                          71.0 299 
 BRR  HN ES   2    040 59.20                             152   -0.17 5 71.0 299 
 PAM  SZ EP   1    040 44.30                             150    0.12 7 78.0  40 
 PAM  SN ES   2    041  1.40                             150    0.04 5 78.0  40 
 RUS  HZ EP   2    040 45.40                             144   -0.26 5  100 176 
 RUS  HE ES   2    041  4.39                             144    0.39 5  100 176 
 RUS  HZ I         041  5.29         4.1 0.44                           100 176 
 ZAR  HN ES   2    041 19.67                             122    0.06 4  204 292 
 ZAR  HZ I         041 24.62         4.4 0.26                           204 292 
                                                                                
