 2017  525 0936 37.1 L   7.355 -73.233114.8  RSN  4 0.3 1.8LRSN                1
 GAP=291        0.79       5.5     7.2  7.1  0.1080E+02 -0.7464E+01  0.5697E+00E
 Epicentro: EL PLAYON - SANTANDER                                              3
 ACTION:UPD 17-06-16 13:38 OP:jn   STATUS:               ID:20170525093637 L   I
 OLDACT:REG 17-05-25 13:22 OP:ar   STATUS:               ID:20170525092735     3
 2017-05-25-0928-00M.COL___326                                                 6
 STAT SP IPHASW D HRMM SECON CODA AMPLIT PERI AZIMU VELO AIN AR TRES W  DIS CAZ7
 BRR  HZ EP        936 54.07                             151   -0.1810 59.5 243 
 BRR  HN ES        937  7.74                             151    0.1210 59.5 243 
 BRR  HZ I         937  8.40        31.9 0.14            142           59.5 243 
 PTB  HZ EP        937  2.69                             121   -0.57 9  162 236 
 PTB  HN ES        937 23.43                             121   -0.23 9  162 236 
 PTB  HZ I         937 24.92         4.1 0.24            117            162 236 
 ZAR  HZ EP        937  5.18                             118    0.07 9  180 275 
 ZAR  HE ES        937 27.20                             118    0.25 9  180 275 
 ZAR  HZ I         937 30.68         9.0 0.24            115            180 275 
 SPBC HZ EP        937  9.10                             114    0.60 8  210 206 
 SPBC HN ES        937 33.04                             114    0.05 8  210 206 
 SPBC HZ I         937 39.86         5.3 0.16            111            210 206 
                                                                                
