 2012 1025 0056 40.3 L   6.709 -73.097140.0  RSN  5 0.2 1.5LRSN                1
 GAP=147        0.39       7.6     5.5  7.6 -0.1680E+02  0.9919E+01  0.2873E+02E
 Epicentro: JORDAN - SANTANDER                                                 3
 ACTION:UPD 12-11-22 17:05 OP:ep   STATUS:               ID:20121025005640 L   I
 2012-10-25-0050-00M.COL___234                                                 6
 STAT SP IPHASW D HRMM SECON CODA AMPLIT PERI AZIMU VELO AIN AR TRES W  DIS CAZ7
 BAR2 SZ EP   1    056 59.16                             173    0.02 7 16.0 216 
 BAR2 SZ I         057 15.87         7.7 0.24                          16.0 216 
 GIR2 SZ EP        056 59.51                             162   -0.1710 42.3 345 
 GIR2 SZ ES   3    057 14.55                             162   -0.22 2 42.3 345 
 BRR  HZ EP        057  1.44                             148   -0.0210 81.0 303 
 BRR  HE ES   3    057 18.62                             148    0.68 2 81.0 303 
 PAM  SZ EP        057  2.45                             148    0.2010 82.4  32 
 PAM  SN ES        057 19.29                             148   -0.0610 82.4  32 
 RUS  HZ EP   3    057  2.96                             145    0.17 2 90.3 179 
                                                                                
