 2016  425 0504 46.3 L   5.914 -73.786110.2  RSN  4 0.3 1.2LRSN                1
 GAP=136        0.93       5.6     3.9  8.4 -0.3000E+00 -0.5400E+00 -0.1176E+02E
 Epicentro: SUCRE - SANTANDER                                                  3
 ACTION:UPD 16-05-05 14:24 OP:rebc STATUS:               ID:20160425050446 L   I
 OLDACT:DUP 16-04-25 17:44 OP:cara STATUS:               ID:20160425045748d    3
 2016-04-25-0457-47M.COL___270                                                 6
 STAT SP IPHASW D HRMM SECON CODA AMPLIT PERI AZIMU VELO AIN AR TRES W  DIS CAZ7
 SPBC HZ EP     C  5 5  2.13                             157   -0.0610 42.9 228 
 SPBC HN ES        5 5 15.02                             157    0.4510 42.9 228 
 SPBC HZ I         5 5 16.12         6.4 0.10            160           42.9 228 
 RUS  HZ EP        5 5  4.76                             142   -0.1610 77.9  92 
 RUS  HZ I         5 5  5.43         2.1 0.10            145           77.9  92 
 RUS  HN ES        5 5 18.91                             142   -0.5310 77.9  92 
 BAR2 EZ IP        5 5  6.74                             134    0.3410  100  42 
 BAR2 EZ ES        5 5 22.46                             134    0.3910  100  42 
 BAR2 EZ I         5 5 24.67         8.5 0.44            136            100  42 
 PTB  HZ EP        5 5  6.18                             134    0.0010  101 313 
 PTB  HN ES        5 5 21.25                             134   -0.4310  101 313 
 PTB  HZ I         5 5 23.94         1.8 0.28            135            101 313 
                                                                                
