 2012  725 0732 49.7 L   6.627 -73.200138.0  RSN  5 0.3 1.5LRSN                1
 GAP=199        0.49      11.3     9.5 18.5  0.4540E+02  0.7629E+02  0.1145E+03E
 Epicentro: BARICHARA - SANTANDER                                              3
 ACTION:UPD 12-08-14 11:45 OP:ep   STATUS:               ID:20120725073249 L   I
 2012-07-25-0730-00M.COL___215                                                 6
 STAT SP IPHASW D HRMM SECON CODA AMPLIT PERI AZIMU VELO AIN AR TRES W  DIS CAZ7
 BAR2 SZ EP   3    733  8.13                             178     0.0 2    4 153 
 BAR2 SZ I         733  8.27         5.4 0.40            168              4 153 
 BRR  HZ EP        733 10.32                             148    -0.110   78 313 
 BRR  HZ I         733 12.18        10.1 0.34            142             78 313 
 BRR  HN ES   3    733 27.14                             148     0.6 2   78 313 
 RUS  HZ EP   3    733 11.57                             147     0.2 2   82 171 
 PTB  HZ EP        733 15.25                             131     0.0 9  139 266 
 ZAR  HZ EP   2    733 22.60                             120     0.7 4  207 298 
 ZAR  HN ES   2    733 46.81                             120    -0.3 4  207 298 
 ZAR  HZ I         733 54.57         2.1 0.46            120            207 298 
