 2011  625 0927 49.1 L   6.790 -73.098147.4  RSN  6 0.2 1.3LRSN                1
 GAP=185        0.41       5.9     7.1  5.7 -0.8695E+01 -0.1637E+02 -0.1487E+01E
 Epicentro: LOS SANTOS - SANTANDER                                             3
 ACTION:UP  11-07-14 19:07 OP:ep   STATUS:               ID:20110625092749 L   I
 2011-06-25-0920-00M.COL___124                                                 6
 STAT SP IPHASW D HRMM SECON CODA AMPLIT PERI AZIMU VELO SNR AR TRES W  DIS CAZ7
 BTL  SZ EP        928  9.17                             171     0.210   24 307 
 BTL  SZ ES   2    928 24.67                             171     0.3 5   24 307 
 BAR2 SZ EP        928  8.85                             170    -0.110   24 203 
 GIR2 SZ EP        928  8.88                             167    -0.110   34 342 
 GIR2 SZ ES   2    928 24.33                             167    -0.3 5   34 342 
 BRR  HZ EP        928 10.69                             151     0.010   76 297 
 BRR  HN ES   2    928 27.57                             151     0.0 5   76 297 
 BRR  HZ I         928 31.82         5.5 0.16                            76 297 
 BRI  SZ EP   3    928 13.11                             142     0.0 2  108  18 
 GRA  SZ EP        928 14.48                             137     0.010  125  15 
 GRA  SZ I         928 15.98         2.3 0.20                           125  15 
                                                                                
