 2013  325 0732 19.0 L   6.804 -73.181147.6  RSN  5 0.1 1.2LRSN                1
 GAP=132        0.35       1.6     2.7  4.8  0.2043E+00  0.6630E+01  0.4451E+00E
 Epicentro: LOS SANTOS - SANTANDER                                             3
 ACTION:UPD 13-04-09 14:04 OP:ep   STATUS:               ID:20130325073219 L   I
 2013-03-25-0730-00M.COL___244                                                 6
 STAT SP IPHASW D HRMM SECON CODA AMPLIT PERI AZIMU VELO AIN AR TRES W  DIS CAZ7
 PAM  SE ES        732 59.13                             150    0.0510 79.6  42 
 RUS  HZ EP        732 42.85                             144   -0.0910  101 174 
 RUS  HN ES   1    733  1.64                             144    0.00 7  101 174 
 RUS  HZ I         733  2.32         1.9 0.36            146            101 174 
 PTB  HZ EP   1    732 46.00                             133    0.26 7  144 258 
 PTB  HN ES   1    733  6.56                             133   -0.07 7  144 258 
 PTB  HZ I         733 11.38         2.7 0.40            133            144 258 
 OCA  HN ES   2    733  9.42                             130   -0.05 5  159 355 
 SML  HN ES        733 23.89                             118   -0.07 8  242 336 
                                                                                
