 2013  625 0756 54.0 L   6.798 -73.159149.3  RSN 22 0.5 2.8LRSN 3.4WRSN        1
 SPEC AVERAGE  MO 14.1 ST 11.1 OM  2.6 f0 3.50 R0.4615 AL 2.73 WI 24.9 MW  3.4 3
 SPEC SD       MO  0.3 ST 14.3 OM  0.3 f00.708 R0.0895 AL      WI      MW  0.2 3
 GAP= 65        1.10       2.5     3.5  4.5  0.7443E+00  0.4070E+01  0.2354E+01E
 Epicentro: LOS SANTOS - SANTANDER                                             3
 SPEC YOP SH E MO 14.4 ST  4.5 OM  2.6 f0 2.56 R0.6070 AL 2.60 WI 26.5 MW  3.5 3
 SPEC YOP SH E T 75746 K 0.000 GD  233 VS 4.20 DE 3.20 Q0300.0 QA 0.60 VS 4.20 3
 SPEC ROSCBH Z MO 14.1 ST  3.7 OM  2.2 f0 3.02 R0.5146 AL 3.63 WI 35.9 MW  3.3 3
 SPEC ROSCBH Z T 75758 K 0.000 GD  292 VS 4.20 DE 3.20 Q0300.0 QA 0.60 VS 4.20 3
 SPEC PTB HH N MO 14.1 ST  4.4 OM  2.4 f0 3.06 R0.5078 AL 1.55 WI 25.6 MW  3.4 3
 SPEC PTB HH N T 75741 K 0.000 GD  208 VS 4.20 DE 3.20 Q0300.0 QA 0.60 VS 4.20 3
 SPEC RUS HH N MO 13.9 ST  3.8 OM  2.2 f0 3.57 R0.4353 AL 2.93 WI 10.7 MW  3.2 3
 SPEC RUS HH N T 75735 K 0.000 GD  180 VS 4.20 DE 3.20 Q0300.0 QA 0.60 VS 4.20 3
 SPEC PRA HH N MO 13.9 ST  6.3 OM  1.9 f0 4.03 R0.3856 AL 2.68 WI 24.2 MW  3.2 3
 SPEC PRA HH N T 75827 K 0.000 GD  418 VS 4.20 DE 3.20 Q0300.0 QA 0.60 VS 4.20 3
 SPEC HEL HH N MO 14.1 ST  2.3 OM  2.2 f0 2.53 R0.6142 AL 2.17 WI 37.8 MW  3.3 3
 SPEC HEL HH N T 758 3 K 0.000 GD  309 VS 4.20 DE 3.20 Q0300.0 QA 0.60 VS 4.20 3
 SPEC NOR HH N MO 14.5 ST 50.8 OM  2.7 f0 5.01 R0.3102 AL 3.91 WI 38.7 MW  3.6 3
 SPEC NOR HH N T 75754 K 0.000 GD  276 VS 4.20 DE 3.20 Q0300.0 QA 0.60 VS 4.20 3
 SPEC OCA HH N MO 14.6 ST 30.9 OM  2.9 f0 3.94 R0.3944 AL 3.49 WI 22.1 MW  3.7 3
 SPEC OCA HH N T 75744 K 0.000 GD  218 VS 4.20 DE 3.20 Q0300.0 QA 0.60 VS 4.20 3
 SPEC PAM SH N MO 13.9 ST  3.6 OM  2.3 f0 3.33 R0.4667 AL 2.95 WI 17.5 MW  3.2 3
 SPEC PAM SH N T 75732 K 0.000 GD  168 VS 4.20 DE 3.20 Q0300.0 QA 0.60 VS 4.20 3
 SPEC CHI HH N MO 14.0 ST  3.5 OM  2.1 f0 3.21 R0.4841 AL 2.50 WI 27.6 MW  3.2 3
 SPEC CHI HH N T 75758 K 0.000 GD  289 VS 4.20 DE 3.20 Q0300.0 QA 0.60 VS 4.20 3
 SPEC BRR HH N MO 14.2 ST 16.6 OM  2.6 f0 4.43 R0.3508 AL 2.48 WI 16.2 MW  3.4 3
 SPEC BRR HH N T 75732 K 0.000 GD  164 VS 4.20 DE 3.20 Q0300.0 QA 0.60 VS 4.20 3
 SPEC BAR2SH Z MO 13.9 ST  3.2 OM  2.3 f0 3.33 R0.4667 AL 1.82 WI 16.3 MW  3.2 3
 SPEC BAR2SH Z T 75728 K 0.000 GD  151 VS 4.20 DE 3.20 Q0300.0 QA 0.60 VS 4.20 3
 ACTION:UPD 14-01-08 09:57 OP:ep   STATUS:               ID:20130625075654 L   I
 OLDACT:UP  13-06-25 13:12 OP:jn   STATUS:               ID:20130625075548     3
 OLDACT:REG 13-06-25 07:17 OP:jn   STATUS:               ID:20130625075548     3
 2013-06-25-0755-48M.COL___226                                                 6
 STAT SP IPHASW D HRMM SECON CODA AMPLIT PERI AZIMU VELO AIN AR TRES W  DIS CAZ7
 BAR2 SZ EP     C  757 13.97                             171   -0.0610 22.9 186 
 BAR2 SZ ES        757 29.74                             171    0.0710 22.9 186 
 BAR2 SZ I         757 30.24       175.2 0.16            172           22.9 186 
 GIR2 SZ EP        757 14.17                             168    0.1010 31.2 353 
 GIR2 SZ ES        757 29.51                             168   -0.2410 31.2 353 
 GIR2 SZ I         757 30.83        61.9 0.10            160           31.2 353 
 BRR  HZ IP     D  757 15.94                             153    0.4910 70.0 299 
 BRR  HN ES        757 33.20                             153    1.0110 70.0 299 
 BRR  HZ I         757 34.06       116.2 0.16            145           70.0 299 
 PAM  SZ EP     D  757 16.84                             151    0.2110 78.5  40 
 PAM  SN ES        757 33.91                             151   -0.4010 78.5  40 
 PAM  SZ I         757 36.59       135.1 0.62            140           78.5  40 
 RUS  HZ EP     C  757 17.76                             144   -0.3110  101 175 
 RUS  HN ES        757 36.66                             144   -0.2110  101 175 
 RUS  HZ I         757 38.14        82.9 0.24            137            101 175 
 PTB  HZ EP        757 20.56                             133   -0.55 9  146 259 
 PTB  HE ES   1    757 41.63                             133   -0.64 7  146 259 
 PTB  HZ I         757 44.03        95.0 0.14            124            146 259 
 TAM  HZ IP     D  757 22.17                             131    0.11 9  156 105 
 TAM  HZ I         757 42.98        38.3 0.36            121            156 105 
 OCA  HZ EP        757 22.37                             130   -0.20 9  160 354 
 OCA  HE ES        757 44.92                             130    0.05 9  160 354 
 OCA  HZ I         757 47.59       133.0 0.20            119            160 354 
 YOP  SZ EP        757 24.33                             127    0.00 9  179 153 
 YOP  SE ES        757 48.18                             127    0.18 9  179 153 
 YOP  SZ I         757 49.83        75.3 0.26            118            179 153 
 ZAR  HZ EP        757 26.70                             123    0.18 9  203 292 
 ZAR  HE ES        757 52.18                             123    0.27 9  203 292 
 ZAR  HZ I         757 58.41        89.9 0.32            114            203 292 
 NOR  HZ EP        757 29.78                             119    0.00 8  233 234 
 NOR  HN ES        757 56.82                             119   -0.88 8  233 234 
 NOR  HZ I         758  3.25        73.9 0.42            111            233 234 
 SML  HZ EP        757 30.61                             118   -0.15 8  243 336 
 SML  HN ES        757 58.88                             118   -0.56 8  243 336 
 CHI  HZ EP        757 31.92                             118    0.11 8  248 195 
 CHI  HN ES        758  0.56                             118   -0.77 8  248 195 
 CHI  HZ I         758  6.73        26.6 0.36            110            248 195 
 ROSC BZ EP     C  757 33.35                             117    1.16 8  252 211 
 ROSC BE ES   1    758  3.19                             117    1.19 6  252 211 
 HEL  HZ EP        757 34.90                             116    0.69 8  271 256 
 HEL  HZ I         758 13.33        45.0 0.44            108            271 256 
 CVER SZ EP     C  757 34.98                             116    0.54 8  271 202 
 VIL  SN ES   1    758 11.14                             113   -0.32 5  303 191 
 RREF HZ EP   4    757 40.86                             112    0.72 0  321 229 
 RREF HN ES   4    758 16.17                             112    0.03 0  321 229 
 RREF HZ I         758 24.55        37.1 0.66            104            321 229 
 DBB  SZ EP        757 41.41                             110   -0.02 7  338 274 
 DBB  SZ ES   1    758 17.89                             110   -0.56 5  338 274 
 DBB  SZ I         758 21.99        33.8 0.66            103            338 274 
 COD  HZ EP   1    757 41.37                             109   -1.13 5  348 355 
 COD  HZ I         758 24.73        10.6 0.46            101            348 355 
 PRA  HZ EP        757 47.43                             107   -0.09 6  391 209 
 PRA  HN ES   1    758 28.44                             107   -0.84 4  391 209 
 PRA  HZ I         758 34.73        26.4 0.56            100            391 209 
 ORTC HZ EP        757 47.91                             107    0.01 6  394 216 
                                                                                
