 2013  425 0827 47.9 L   6.179 -73.797 11.1  RSN  5 0.5 1.6LRSN                1
 GAP=159        0.96       7.5     3.6  7.9  0.1751E+02 -0.3513E+01 -0.3485E+02E
 Epicentro: LANDAZURI - SANTANDER                                              3
 ACTION:UPD 13-05-22 14:40 OP:EP   STATUS:               ID:20130425082747 L   I
 2013-04-25-0818-37M.COL___199                                                 6
 STAT SP IPHASW D HRMM SECON CODA AMPLIT PERI AZIMU VELO AIN AR TRES W  DIS CAZ7
 PTB  HZ EP        828  1.20                              95    0.0310 83.1 299 
 PTB  HN ES   2    828 11.05                              95   -0.46 5 83.1 299 
 PTB  HN I         828 13.94        27.6 0.20             95           83.1 299 
 RUS  HZ EP     D  828  2.56                              95    0.5810 85.2 112 
 RUS  HN ES        828 12.30                              95   -0.6410 85.2 112 
 RUS  HN I         828 13.99         5.7 0.24             95           85.2 112 
 PAM  SZ EP   1    828 15.80                              56    0.56 7  177  43 
 PAM  SN ES   2    828 36.48                              56   -0.07 4  177  43 
 PAM  SN I         828 41.16         6.2 0.34             56            177  43 
 ZAR  HN ES        828 37.42                              56   -0.33 9  187 321 
 ZAR  HN I         828 39.02         6.2 0.24             56            187 321 
 HEL  HZ EP   1    828 17.49                              56    0.52 7  192 270 
 HEL  HN ES   2    828 39.36                              56   -0.27 4  192 270 
 HEL  HN I         828 40.51         8.3 0.22             56            192 270 
                                                                                
