 2015  125 0953 18.7 L   6.795 -73.137148.0  RSN 11 0.3 1.6LRSN                1
 GAP= 72        0.67       2.8     2.2  4.4  0.2612E+00  0.9509E+00  0.4029E+00E
 Epicentro: LOS SANTOS - SANTANDER                                             3
 ACTION:UPD 15-03-02 15:42 OP:nd   STATUS:               ID:20150125095318 L   I
 OLDACT:DUP 15-01-25 18:29 OP:spq  STATUS:               ID:20150125094744d    3
 2015-01-25-0947-42M.COL___271                                                 6
 STAT SP IPHASW D HRMM SECON CODA AMPLIT PERI AZIMU VELO AIN AR TRES W  DIS CAZ7
 BAR2 EZ EP   1    953 38.43                             171   -0.20 7 23.0 193 
 BAR2 EZ ES   1    953 54.07                             171   -0.08 7 23.0 193 
 BAR2 EZ I         953 54.80         9.2 0.20            170           23.0 193 
 BRR  HZ EP        953 40.42                             153    0.2210 72.3 299 
 BRR  HN ES        953 57.35                             153    0.4210 72.3 299 
 BRR  HZ I         953 59.05         6.8 0.42            149           72.3 299 
 PAM  SZ EP        953 41.28                             151    0.1010 77.2  39 
 PAM  SE ES        953 58.42                             151   -0.2710 77.2  39 
 PAM  SZ I         954  0.66         5.2 0.58            151           77.2  39 
 RUS  HZ EP        953 42.44                             144   -0.2310 99.9 177 
 RUS  HN ES   1    954  1.25                             144   -0.08 7 99.9 177 
 RUS  HZ I         954  2.23         4.0 0.32            144           99.9 177 
 PTB  HZ EP   1    953 45.22                             132   -0.75 7  149 259 
 PTB  HE ES        954  7.05                             132   -0.16 9  149 259 
 PTB  HZ I         954  9.53         4.1 0.36            130            149 259 
 TAM  HZ EP        953 46.69                             131    0.20 9  154 105 
 TAM  HN ES   1    954  8.35                             131    0.21 7  154 105 
 TAM  HZ I         954  9.30         3.4 0.48            132            154 105 
 ZAR  HZ EP   1    953 51.72                             123    0.27 6  205 292 
 ZAR  HE ES        954 16.83                             123   -0.13 9  205 292 
 ZAR  HZ I         954 23.00         3.8 0.34            121            205 292 
 NOR  HN ES   1    954 23.36                             119    0.70 6  235 235 
 NOR  HZ I         954 27.75         4.8 0.16            117            235 235 
 SML  HZ EP   1    953 55.84                             118    0.25 6  245 335 
 SML  HE ES   1    954 24.03                             118   -0.31 6  245 335 
 SML  HZ I         954 31.53         2.8 0.24            116            245 335 
 GUY2CHZ EP   4    954  4.03                             113    1.53 0  302 235 
 GUY2CHE ES   1    954 36.45                             113   -0.19 5  302 235 
 GUY2CHZ I         954 44.89         2.8 0.28                           302 235 
 RREF HZ EP   4    954  6.69                             111    1.67 0  322 230 
 RREF HE ES   4    954 42.25                             111    1.13 0  322 230 
 RREF HZ I         954 49.90         2.1 0.26            110            322 230 
                                                                                
