 2013 1225 0435  0.8 L   6.803 -73.161142.9  RSN 14 0.4 2.3LRSN                1
 GAP=102        0.88       3.3     2.9  4.7 -0.1067E+01  0.3494E+01  0.4274E+01E
 Epicentro: LOS SANTOS - SANTANDER                                             3
 ACTION:UPD 14-01-13 10:20 OP:ep   STATUS:               ID:20131225043500 L   I
 OLDACT:UP  13-12-25 11:56 OP:mh   STATUS:               ID:20131225043000     3
 OLDACT:UP  13-12-25 11:56 OP:mh   STATUS:               ID:20131225043000     3
 OLDACT:REG 13-12-25 08:17 OP:mh   STATUS:               ID:20131225043000     3
 2013-12-25-0430-00M.COL___285                                                 6
 STAT SP IPHASW D HRMM SECON CODA AMPLIT PERI AZIMU VELO AIN AR TRES W  DIS CAZ7
 BAR2 SZ EP   1    435 20.08                             170   -0.01 7 23.5 186 
 BAR2 SZ ES        435 34.70                             170   -0.4310 23.5 186 
 BAR2 SZ I         435 36.45        70.8 0.24            168           23.5 186 
 BRR  HZ EP   1    435 21.88                             153    0.33 7 69.5 299 
 BRR  HN ES        435 38.38                             153    0.6610 69.5 299 
 BRR  HZ I         435 42.18        17.4 0.13            151           69.5 299 
 PAM  SZ EP        435 22.95                             150    0.1910 78.2  41 
 PAM  SN ES        435 39.82                             150   -0.0610 78.2  41 
 PAM  SZ I         435 42.24        37.2 0.48            154           78.2  41 
 RUS  HZ EP        435 24.14                             143   -0.1710  101 175 
 RUS  HN ES        435 42.96                             143    0.3210  101 175 
 PTB  HZ EP        435 26.57                             132   -0.82 9  146 259 
 PTB  HN ES   1    435 47.77                             132   -0.36 7  146 259 
 TAM  HZ EP   1    435 28.50                             130    0.08 7  157 105 
 TAM  HN ES   1    435 49.83                             130   -0.12 7  157 105 
 SPBC HZ EP        435 28.97                             128   -0.04 9  162 218 
 SPBC HN ES        435 50.82                             128   -0.19 9  162 218 
 SPBC HZ I         435 53.70        30.4 0.34            129            162 218 
 ZAR  HN ES   1    435 57.17                             122   -0.74 6  202 292 
 NOR  HZ EP        435 36.20                             118   -0.04 8  234 234 
 NOR  HN ES   1    436  4.28                             118    0.40 6  234 234 
 NOR  HZ I         436  8.83        13.5 0.16            118            234 234 
 CHI  HZ EP        435 38.29                             116   -0.05 8  249 195 
 CHI  HN ES        436  7.55                             116   -0.06 8  249 195 
 CHI  HZ I         436 11.12        11.4 0.52            117            249 195 
 HEL  HZ EP        435 41.44                             114    0.74 8  271 256 
 HEL  HN ES        436 11.94                             114    0.12 8  271 256 
 HEL  HZ I         436 18.16        10.0 0.35            115            271 256 
 GUY2CHZ EP   1    435 43.58                             112   -0.57 5  300 235 
 GUY2CHN ES   4    436 20.48                             112    2.52 0  300 235 
 RREF HZ EP   1    435 47.44                             110    0.74 5  321 229 
 RREF HN ES   4    436 25.97                             110    3.46 0  321 229 
 RREF HZ I         436 32.57        11.3 0.45            111            321 229 
 ORTC HZ EP   1    435 54.38                             106   -0.17 4  395 216 
 ORTC HN ES   1    436 37.35                             106    0.89 4  395 216 
 ORTC HZ I         436 41.50         6.8 0.29            107            395 216 
                                                                                
