 2010 1225 0758  4.6 L   6.783 -73.178142.0  RSN  7 0.4 1.6LRSN                1
 GAP=155        0.95       4.0    13.1  8.0 -0.1266E+02  0.3787E+02 -0.6540E+01E
 Epicentro: LOS SANTOS - SANTANDER                                             3
 ACTION:UP  11-01-14 15:27 OP:pat  STATUS:               ID:20101225075804 L   I
 2010-12-25-0753-39S.COL___136                                                 6
 STAT SP IPHASW D HRMM SECON CODA AMPLIT PERI AZIMU VELO SNR AR TRES W  DIS CAZ7
 BTL  SZ EP        758 23.68                             172     0.010   18 326 
 BTL  SZ ES   1    758 38.91                             172     0.3 7   18 326 
 BAR2 SZ EP   1    758 23.43                             171    -0.4 7   21 182 
 BAR2 SZ ES   1    758 38.56                             171    -0.1 7   21 182 
 BAR2 SZ I         758 40.88         8.6 0.35                            21 182 
 RUS  HZ EP   1    758 27.45                             144    -0.5 7   99 174 
 RUS  HE ES        758 46.17                             144     0.110   99 174 
 RUS  HZ I         758 47.21         4.5 0.22                            99 174 
 GRA  SZ EP   1    758 30.40                             136     0.6 7  129  19 
 GRA  SZ ES   1    758 49.95                             136     0.5 7  129  19 
 GRA  SZ I         758 51.14         5.3 0.21                           129  19 
 OCA  SZ EP   1    758 32.21                             129    -0.6 7  162 354 
 OCA  SZ ES   1    758 54.24                             129    -0.5 7  162 354 
 OCA  SZ I         758 57.29         3.6 0.37                           162 354 
 CHI  HZ EP   2    758 42.18                             117     0.3 4  246 194 
 CHI  HE ES   2    759 10.78                             117    -0.1 4  246 194 
 CHI  HZ I         759 14.67         3.1 0.54                           246 194 
 HEL  HZ EP   1    758 44.95                             114     0.7 6  268 256 
 HEL  HZ I         759 21.88         2.4 0.26                           268 256 
                                                                                
