 2017 1225 0009 48.7 L   6.816 -73.148140.3  RSN 21 0.7 2.0LRSN                1
 GAP= 65        1.39       2.8     3.6  6.9 -0.1365E+01  0.6146E+01  0.7335E+00E
 Epicentro: LOS SANTOS - SANTANDER                                             3
 ACTION:UPD 18-01-04 13:24 OP:rebc STATUS:               ID:20171225000948 L   I
 OLDACT:REG 17-12-25 12:00 OP:osc  STATUS:               ID:20171225000522     3
 2017-12-25-0008-00M.COL___469                                                 6
 STAT SP IPHASW D HRMM SECON CODA AMPLIT PERI AZIMU VELO AIN AR TRES W  DIS CAZ7
 BAR2 EZ EP        010  7.26                             169   -0.4610 25.0 189 
 BAR2 EZ ES        010 22.84                             169    0.3010 25.0 189 
 BAR2 EZ I         010 25.24        24.0 0.30            168           25.0 189 
 PAM  EZ EP        010 10.42                             150    0.1410 76.2  41 
 PAM  EE ES        010 27.52                             150    0.4310 76.2  41 
 PAM  EZ I         010 28.18         9.3 0.18            153           76.2  41 
 PTB  HZ EP        010 14.02                             131   -1.23 9  148 258 
 PTB  HN ES        010 35.17                             131   -0.77 9  148 258 
 PTB  HZ I         010 36.28         9.9 0.16            129            148 258 
 TAM  HZ EP        010 15.88                             129   -0.15 9  156 106 
 TAM  HE ES        010 37.78                             129    0.45 9  156 106 
 TAM  HZ I         010 38.39         9.4 0.56            131            156 106 
 OCA  HZ EP        010 15.70                             129   -0.73 9  159 353 
 OCA  HE ES        010 38.16                             129    0.10 9  159 353 
 OCA  HZ I         010 40.78        26.0 0.42            129            159 353 
 SPBC HZ EP        010 16.24                             127   -0.67 9  164 219 
 SPBC HE ES        010 39.04                             127    0.13 9  164 219 
 SPBC HZ I         010 45.41        17.1 0.32            127            164 219 
 YPLC HZ IP     C  010 17.96                             125   -0.32 9  178 152 
 YPLC HE ES        010 41.39                             125    0.05 9  178 152 
 YPLC HZ I         010 42.84        13.1 0.26            126            178 152 
 ZAR  HZ EP        010 20.99                             121    0.28 9  203 292 
 ZAR  HE ES        010 45.42                             121   -0.25 9  203 292 
 ZAR  HZ I         010 50.35        12.7 0.48            121            203 292 
 NOR  HN ES        010 50.63                             117   -1.28 8  236 234 
 ROSC BZ EP        010 26.92                             115    0.23 8  254 211 
 ROSC BE ES        010 56.20                             115   -0.11 8  254 211 
 ROSC BZ I         011  2.13         8.3 0.40            115            254 211 
 URE  HN ES        011  2.53                             112    1.36 7  283 292 
 URE  HZ I         011  9.61         6.0 0.18            112            283 292 
 DRL03HZ EP        010 31.07                             112    1.20 7  287 353 
 DRL03HE ES        011  2.09                             112    0.12 7  287 353 
 GUY2CHZ EP        010 32.55                             111    0.39 7  302 234 
 GUY2CHE ES   3    011  8.09                             111    2.03 2  302 234 
 GUY2CHZ I         011 15.83         5.4 0.48                           302 234 
 VIL  EE ES        011  6.53                             111    0.63 7  305 191 
 VIL  EZ I         011 14.98         7.9 0.42            111            305 191 
 PTGC HZ EP   2    010 30.70                             110   -1.83 3  310 159 
 PTGC HE ES   3    011  4.17                             110   -2.53 2  310 159 
 PTGC HZ I         011  4.78         7.0 0.28            111            310 159 
 LL6C HZ EP        010 34.17                             109    0.19 7  323 358 
 LL6C HZ ES        011  8.96                             109   -0.33 7  323 358 
 LL6C HZ I         011 14.23         3.3 0.40            110            323 358 
 ELA  HN ES        011 13.04                             109    1.14 7  330 229 
 ELA  HZ I         011 26.74         4.6 0.50            109            330 229 
 ANIL HE ES        011 18.15                             107    0.93 6  358 224 
 PRA  HZ EP        010 41.54                             105   -0.67 6  393 209 
 PRA  HN ES        011 24.15                             105    0.21 6  393 209 
 PRA  HZ I         011 29.83         4.8 0.34            106            393 209 
 ORTC HZ EP        010 43.50                             105    0.90 6  397 216 
 ORTC HN ES        011 25.74                             105    1.11 6  397 216 
 ORTC HZ I         011 32.26         2.0 0.46            105            397 216 
 SJC  HZ EP        010 43.89                             105   -0.02 6  408 327 
 SJC  HN ES   3    011 24.79                             105   -2.17 1  408 327 
 SJC  HZ I         011 37.55         2.1 0.80            105            408 327 
                                                                                
