 2011  525 0543 34.8 L   6.748 -73.084148.0  RSN 12 0.5 2.1LRSN                1
 GAP=179        0.97       6.2     7.1  6.6 -0.2875E+02  0.7561E+01  0.5783E+01E
 Epicentro: LOS SANTOS - SANTANDER                                             3
 ACTION:UP  11-06-29 08:56 OP:tino STATUS:               ID:20110525054334 L   I
 2011-05-25-0542-04S.COL___141                                                 6
 STAT SP IPHASW D HRMM SECON CODA AMPLIT PERI AZIMU VELO SNR AR TRES W  DIS CAZ7
 BAR2 SZ EP   1    543 54.69                             172     0.0 7   20 212 
 BAR2 SZ ES   1    544  9.98                             172    -0.1 7   20 212 
 BAR2 SZ I         544 11.49        46.4 0.24                            20 212 
 BTL  SZ EP   1    543 54.90                             169     0.1 7   28 313 
 BTL  SZ ES   1    544 10.84                             169     0.4 7   28 313 
 GIR2 SZ EP   1    543 54.80                             165    -0.2 7   39 342 
 PAM  SZ EP   1    543 57.48                             151     0.2 7   78  33 
 PAM  SN ES   1    544 14.78                             151    -0.1 7   78  33 
 PAM  SZ I         544 16.87        11.0 0.23                            78  33 
 BRR  HZ EP        543 56.66                             150     0.010   80 300 
 BRR  HN ES   1    544 14.42                             150     0.6 7   80 300 
 BRR  HZ I         544 17.94        43.7 0.15                            80 300 
 BRI  SZ EP   1    543 59.19                             141     0.0 7  112  16 
 BRI  SZ ES   1    544 18.31                             141     0.2 7  112  16 
 BRI  SZ I         544 20.87        13.0 0.26                           112  16 
 GRA  SZ EP   1    544  0.12                             137    -0.4 7  129  14 
 GRA  SZ ES   1    544 19.77                             137    -0.9 7  129  14 
 GRA  SZ I         544 21.31        22.2 0.38                           129  14 
 OCA  SZ EP   1    544  3.78                             129    -0.1 7  167 351 
 OCA  SZ ES   1    544 27.03                             129     0.4 7  167 351 
 OCA  SZ I         544 30.00        20.0 0.37                           167 351 
 NOR  SZ EP   1    544 10.67                             119    -0.2 6  237 237 
 NOR  SN ES   1    544 38.43                             119    -0.7 6  237 237 
 NOR  SZ I         544 42.92         3.7 0.18                           237 237 
 HEL  HZ EP   1    544 16.44                             115     0.7 6  277 257 
 HEL  HN ES   1    544 46.65                             115    -1.0 6  277 257 
 HEL  HZ I         544 52.88        13.7 0.35                           277 257 
 GUY  SZ EP   1    544 19.18                             113     0.1 5  306 237 
 TOL  SZ EP   1    544 24.33                             110     1.1 5  344 226 
                                                                                
