 2014  525 0258 28.0 L   6.738 -73.204145.3  RSN  4 0.2 1.4LRSN                1
 GAP=226        0.49       3.9     4.0  4.6  0.1052E+02 -0.3156E+00 -0.2102E+01E
 Epicentro: VILLANUEVA - SANTANDER                                             3
 ACTION:UPD 15-03-16 17:00 OP:nd   STATUS:               ID:20140525025828 L   I
 OLDACT:DUP 14-05-25 16:35 OP:stll STATUS:               ID:20140525024818d    3
 2014-05-25-0248-17M.COL___224                                                 6
 STAT SP IPHASW D HRMM SECON CODA AMPLIT PERI AZIMU VELO AIN AR TRES W  DIS CAZ7
 BRR  HZ EP        258 48.85                             153   -0.1210 69.4 306 
 BRR  HN ES        259  5.30                             153   -0.0510 69.4 306 
 BRR  HZ I         259  9.94         6.0 0.16            153           69.4 306 
 RUS  HZ EP        258 51.38                             145    0.1410 94.4 172 
 RUS  HN ES        259  9.43                             145    0.0410 94.4 172 
 RUS  HZ I         259 11.63         1.3 0.30            150           94.4 172 
 PTB  HZ EP     D  258 53.89                             133   -0.33 9  140 261 
 PTB  HN ES        259 14.69                             133   -0.01 9  140 261 
 PTB  HZ I         259 17.53         3.3 0.28            136            140 261 
 ZAR  HZ EP   1    259  0.39                             123    0.33 6  201 295 
 ZAR  HN ES        259 25.29                             123    0.21 9  201 295 
 ZAR  HZ I         259 30.41         4.5 0.38            125            201 295 
                                                                                
