 2011 1125 0700  2.6 L   6.764 -73.097143.3  RSN  4 0.2 1.6LRSN                1
 GAP=145        0.48       4.0     5.5  5.9  0.3940E+01 -0.5732E+01  0.3419E+01E
 Epicentro: LOS SANTOS - SANTANDER                                             3
 ACTION:UPD 12-07-13 16:12 OP:ep   STATUS:               ID:20111125070002 L   I
 2011-11-25-0657-04S.COL___178                                                 6
 STAT SP IPHASW D HRMM SECON CODA AMPLIT PERI AZIMU VELO AIN AR TRES W  DIS CAZ7
 BAR2 SZ EP        7 0 21.83                             171   -0.1110 21.2 206 
 BAR2 SZ I         7 0 32.81         9.8 0.54                          21.2 206 
 BAR2 SZ ES   2    7 0 36.57                             171   -0.41 5 21.2 206 
 PAM  SZ EP   1    7 0 24.80                             150    0.21 7 77.3  35 
 PAM  SN ES   2    7 0 41.63                             150   -0.09 5 77.3  35 
 BRR  HZ EP        7 0 23.97                             150    0.0510 77.9 299 
 BRR  HZ I         7 0 24.43         8.6 0.14                          77.9 299 
 BRR  HE ES   1    7 0 40.57                             150    0.05 7 77.9 299 
 RUS  HZ EP        7 0 25.73                             144   -0.1210 96.4 179 
 RUS  HE ES   2    7 0 44.59                             144    0.64 5 96.4 179 
                                                                                
