 2011  525 0345 48.0 L   6.169 -73.286171.4  RSN 12 0.4 2.1LRSN                1
 GAP=191        0.86       7.0     7.2  9.8 -0.3797E+02 -0.1289E+02  0.2541E+02E
 Epicentro: OIBA - SANTANDER                                                   3
 ACTION:UP  11-06-29 08:56 OP:tino STATUS:               ID:20110525034548 L   I
 2011-05-25-0343-18S.COL___141                                                 6
 STAT SP IPHASW D HRMM SECON CODA AMPLIT PERI AZIMU VELO SNR AR TRES W  DIS CAZ7
 BAR2 SZ EP        346 10.77                             164    -0.610   48  14 
 BAR2 SZ I         346 30.38        20.1 0.16                            48  14 
 BTL  SZ EP   1    346 12.83                             153    -0.1 7   83   1 
 BTL  SZ ES   1    346 33.01                             153     0.7 7   83   1 
 GIR2 SZ EP   1    346 13.71                             148    -0.1 7  101   6 
 BRR  HZ EP   1    346 14.72                             145     0.2 7  114 336 
 BRR  HZ I         346 15.68        59.7 0.10                           114 336 
 PAM  SZ EP   1    346 17.60                             138     0.1 7  145  27 
 PAM  SZ I         346 17.96         7.1 0.13                           145  27 
 BRI  SZ EP   1    346 20.35                             131     0.2 7  179  17 
 BRI  SZ I         346 20.58        13.5 0.24                           179  17 
 BRI  SZ ES   1    346 45.48                             131     0.3 7  179  17 
 ROSC BZ EP   1    346 21.25                             130     0.2 7  186 218 
 NOR  SZ EP   1    346 20.67                             130     0.0 7  188 249 
 NOR  SN ES   1    346 45.66                             130    -0.6 7  188 249 
 GRA  SZ EP   1    346 21.90                             129     0.2 6  197  16 
 GRA  SZ ES   1    346 48.00                             129    -0.1 6  197  16 
 GRA  SZ I         346 51.53         7.5 0.59                           197  16 
 OCA  SZ EP   1    346 24.42                             124    -0.4 6  229 359 
 OCA  SZ ES   1    346 53.16                             124    -0.5 6  229 359 
 OCA  SZ I         346 58.43         9.8 0.24                           229 359 
 HEL  HZ EP   1    346 27.57                             122     0.5 6  248 271 
 HEL  HN ES   1    346 57.62                             122     0.0 6  248 271 
 HEL  HZ I         347  0.06         7.1 0.35                           248 271 
 GUY  SZ EP   1    346 28.75                             122     0.8 6  255 246 
                                                                                
