 2010 1125 0608 36.3 L   6.753 -73.101149.6  RSN  4 0.0 1.6LRSN                1
 GAP=187        0.29       4.8    10.7  7.2  0.4485E+02 -0.6283E+02 -0.2804E+02E
 Epicentro: LOS SANTOS - SANTANDER                                             3
 ACTION:UP  10-12-17 16:54 OP:REBC STATUS:               ID:20101125060836 L   I
 2010-11-25-0607-38S.COL___132                                                 6
 STAT SP IPHASW D HRMM SECON CODA AMPLIT PERI AZIMU VELO SNR AR TRES W  DIS CAZ7
 BAR2 SZ EP   2    6 8 56.22                             172    -0.1 5   20 207 
 BAR2 SZ I         6 9 12.94         7.9 0.22                            20 207 
 BRR  HZ EP   1    6 8 58.23                             151     0.0 7   78 300 
 BRR  HN ES   1    6 9 15.33                             151     0.0 7   78 300 
 BRR  HZ I         6 9 16.50         8.9 0.32                            78 300 
 RUS  HZ EP   1    6 8 60.00                             146     0.0 7   95 179 
 RUS  HE ES   1    6 9 18.56                             146     0.0 7   95 179 
 OCA  SZ EP   1    6 9  5.43                             129     0.0 7  166 352 
 OCA  SZ I         6 9 31.15         4.9 0.49                           166 352 
                                                                                
