 2016 1225 0948 23.6 L   6.699 -73.189147.1  RSN  5 0.3 1.0LRSN                1
 GAP=225        0.70       5.3     4.9  5.6  0.1588E+02  0.4588E+01  0.5805E+00E
 Epicentro: VILLANUEVA - SANTANDER                                             3
 ACTION:UPD 17-01-11 20:18 OP:rebc STATUS:               ID:20161225094823 L   I
 OLDACT:DUP 16-12-25 16:58 OP:cara STATUS:               ID:20161225094745d    3
 2016-12-25-0948-00M.COL___366                                                 6
 STAT SP IPHASW D HRMM SECON CODA AMPLIT PERI AZIMU VELO AIN AR TRES W  DIS CAZ7
 BAR2 EZ EP        948 43.65                             175    0.4310 11.8 177 
 BAR2 EZ ES        948 58.19                             175   -0.3210 11.8 177 
 BAR2 EZ I         948 59.80         2.8 0.48            173           11.8 177 
 BRR  HZ EP        948 44.84                             152   -0.1810 73.4 308 
 BRR  HN ES        949  2.02                             152    0.3010 73.4 308 
 BRR  HZ I         949  5.30         2.0 0.46            153           73.4 308 
 RUS  HZ EP        948 46.67                             147   -0.0810 89.9 173 
 RUS  HN ES        949  4.75                             147   -0.0510 89.9 173 
 RUS  HZ I         949  7.58         1.6 0.48            148           89.9 173 
 PTB  HZ EP        948 50.08                             134   -0.02 9  141 263 
 PTB  HN ES        949 10.98                             134    0.21 9  141 263 
 PTB  HZ I         949 14.71         1.4 0.16            134            141 263 
 ZAR  HN ES        949 21.16                             123   -0.38 9  204 296 
                                                                                
