 2011  825 0741 55.1 L   6.787 -73.073141.3  RSN  4 0.2 1.4LRSN                1
 GAP=203        0.39       3.9     7.8  4.5  0.1811E+02 -0.8392E+01 -0.3480E+00E
 Epicentro: LOS SANTOS - SANTANDER                                             3
 ACTION:UPD 12-07-13 15:53 OP:ep   STATUS:               ID:20110825074155 L   I
 2011-08-25-0740-00M.COL___156                                                 6
 STAT SP IPHASW D HRMM SECON CODA AMPLIT PERI AZIMU VELO AIN AR TRES W  DIS CAZ7
 BAR2 SZ EP   1    742 14.13                             170   -0.08 7 24.7 209 
 BAR2 SZ ES   1    742 28.96                             170   -0.16 7 24.7 209 
 BAR2 SZ I         742 30.01         7.7 0.25                          24.7 209 
 GIR2 SZ EP   1    742 14.41                             165    0.08 7 34.9 338 
 GIR2 SZ ES   1    742 29.39                             165    0.04 7 34.9 338 
 BRR  HZ EP   2    742 15.80                             149   -0.42 5 79.0 297 
 BRR  HN ES   1    742 32.86                             149    0.14 7 79.0 297 
 BRR  HZ I         742 35.24         7.5 0.22                          79.0 297 
 RUS  HZ EP   1    742 18.48                             143    0.21 7 98.9 181 
 RUS  HE ES   1    742 36.32                             143   -0.04 7 98.9 181 
 RUS  HZ I         742 38.25         2.5 0.30                          98.9 181 
                                                                                
