 2016  325 0822 33.6 L   6.827 -73.120148.1  RSN 15 0.5 1.8LRSN                1
 GAP=102        1.19       3.3     4.0  5.9 -0.3783E+01  0.3835E+01  0.6294E+00E
 Epicentro: LOS SANTOS - SANTANDER                                             3
 ACTION:UPD 16-05-13 21:27 OP:cam  STATUS:               ID:20160325082233 L   I
 OLDACT:DUP 16-03-25 18:00 OP:ak   STATUS:               ID:20160325081747d    3
 2016-03-25-0817-46M.COL___294                                                 6
 STAT SP IPHASW D HRMM SECON CODA AMPLIT PERI AZIMU VELO AIN AR TRES W  DIS CAZ7
 BAR2 EZ EP        822 53.93                             169    0.3210 26.9 195 
 BAR2 EZ ES        823  9.82                             169    0.6210 26.9 195 
 BAR2 EZ I         823 12.26        10.7 0.22            169           26.9 195 
 PAM  EZ EP        822 56.58                             152    0.7310 73.3  39 
 PAM  EN ES        823 13.70                             152    0.5110 73.3  39 
 PAM  EZ I         823 15.94        11.9 0.56            155           73.3  39 
 RUS  HZ EP        822 57.82                             144    0.0110  103 178 
 RUS  HE ES        823 16.20                             144   -0.4810  103 178 
 RUS  HZ I         823 19.35         6.1 0.32            145            103 178 
 PTB  HZ EP        823  0.76                             132   -0.33 9  151 258 
 PTB  HN ES        823 21.73                             132   -0.79 9  151 258 
 PTB  HZ I         823 23.34         4.7 0.10            132            151 258 
 OCA  HZ EP        823  1.35                             131   -0.53 9  158 352 
 OCA  HN ES        823 23.37                             131   -0.54 9  158 352 
 OCA  HZ I         823 29.53        19.0 0.20            132            158 352 
 SPBC HZ EP        823  2.79                             129    0.09 9  167 219 
 SPBC HN ES        823 24.56                             129   -0.81 9  167 219 
 SPBC HZ I         823 27.57        15.6 0.36            130            167 219 
 ZAR  HZ EP        823  7.00                             123    0.61 8  206 291 
 ZAR  HN ES        823 32.17                             123    0.23 8  206 291 
 ZAR  HZ I         823 40.21         4.9 0.40            124            206 291 
 NOR  HZ EP        823 10.37                             119    0.44 8  239 234 
 NOR  HE ES        823 38.17                             119   -0.07 8  239 234 
 NOR  HZ I         823 45.05         7.0 0.14            120            239 234 
 CHI  HZ EP        823 12.25                             117    0.40 8  252 196 
 CHI  HE ES        823 41.85                             117    0.18 8  252 196 
 CHI  HZ I         823 47.00         2.4 0.40            119            252 196 
 HEL  HZ EP   2    823 15.34                             115    0.99 4  276 255 
 HEL  HE ES        823 45.74                             115   -0.37 7  276 255 
 HEL  HZ I         823 53.04         3.3 0.36            116            276 255 
 SOCV BZ EP        823 15.40                             113   -0.93 7  297  57 
 SOCV BE ES   4    823 47.66                             113   -1.98 0  297  57 
 GUY2CHZ EP   2    823 18.56                             112    0.76 4  305 235 
 GUY2CHN ES        823 52.38                             112    0.12 7  305 235 
 GUY2CHZ I         823 58.02         3.3 0.26                           305 235 
 PTGC HZ EP        823 16.88                             112   -0.91 7  310 159 
 PTGC HN ES   4    823 49.81                             112   -2.43 0  310 159 
 PTGC HZ I         823 54.95         4.0 0.38            114            310 159 
 LL6C HZ EP        823 19.20                             111    0.10 7  322 357 
 ORTC HZ EP        823 28.32                             107    0.21 6  400 216 
 ORTC HN ES        824 11.43                             107    0.83 6  400 216 
 ORTC HZ I         824 17.44         2.0 0.62            108            400 216 
                                                                                
