 2016  725 0947 22.9 L   6.767 -73.114150.5  RSN  5 0.3 1.8LRSN                1
 GAP=238        0.83       4.8     6.2  6.1  0.1400E+02  0.7039E+01 -0.2444E+00E
 Epicentro: LOS SANTOS - SANTANDER                                             3
 ACTION:UPD 17-03-29 16:55 OP:lp   STATUS:               ID:20160725094722 L   I
 OLDACT:REG 16-07-25 15:07 OP:edw  STATUS:               ID:20160725093759     3
 2016-07-25-0937-59S.COL___322                                                 6
 STAT SP IPHASW D HRMM SECON CODA AMPLIT PERI AZIMU VELO AIN AR TRES W  DIS CAZ7
 BAR2 EZ EP        947 42.72                             172   -0.3710 20.7 201 
 BAR2 EZ ES        947 58.74                             172   -0.0610 20.7 201 
 BRR  HZ EP        947 44.79                             152   -0.0810 76.0 300 
 BRR  HN ES        948  2.47                             152    0.4910 76.0 300 
 RUS  HZ EP        947 47.28                             146    0.3910 96.8 178 
 RUS  HN ES        948  5.28                             146   -0.2910 96.8 178 
 SPBC HZ EP        947 51.74                             130   -0.01 9  163 221 
 SPBC HN ES        948 14.38                             130    0.16 9  163 221 
 ZAR  HZ EP        947 56.46                             123    0.29 8  209 293 
 ZAR  HN ES        948 21.52                             123   -0.56 8  209 293 
 ZAR  HZ I         948 28.01         5.0 0.28            121            209 293 
                                                                                
