 2016  825 0116 45.3 L   6.822 -73.146144.0  RSN  9 0.5 1.4LRSN                1
 GAP=239        1.08       4.9     6.4  7.5  0.1141E+02  0.1696E+02  0.1298E+02E
 Epicentro: LOS SANTOS - SANTANDER                                             3
 ACTION:UPD 16-10-29 15:39 OP:rebc STATUS:               ID:20160825011645 L   I
 OLDACT:DUP 16-08-25 13:08 OP:ak   STATUS:               ID:20160825010733d    3
 OLDACT:REG 16-08-25 12:21 OP:ak   STATUS:               ID:20160825010732     3
 2016-08-25-0108-00M.COL___380                                                 6
 STAT SP IPHASW D HRMM SECON CODA AMPLIT PERI AZIMU VELO AIN AR TRES W  DIS CAZ7
 BAR2 EZ EP   2    117  5.14                             169    0.39 5 25.7 189 
 BAR2 EZ ES        117 19.33                             169   -0.6010 25.7 189 
 BAR2 EZ I         117 21.28         7.2 0.22                          25.7 189 
 BRR  HZ EP        117  6.77                             153    0.6010 70.1 297 
 BRR  HE ES        117 22.60                             153    0.1310 70.1 297 
 RUS  HZ EP   2    117  9.20                             143    0.17 5  103 176 
 RUS  HN ES        117 28.11                             143    0.5510  103 176 
 RUS  HZ I         117 28.93         3.2 0.30                           103 176 
 PTB  HZ EP        117 11.50                             131   -0.64 9  148 258 
 PTB  HN ES        117 32.71                             131   -0.39 9  148 258 
 PTB  HZ I         117 39.86         2.6 0.24                           148 258 
 SPBC HZ EP   2    117 14.15                             128    0.33 5  165 218 
 SPBC HE ES        117 36.59                             128    0.51 9  165 218 
 SPBC HZ I         117 41.82                                            165 218 
 ZAR  HN ES        117 42.60                             122   -0.06 9  203 292 
 CHI  HZ EP        117 22.69                             116   -0.44 8  251 195 
 CHI  HE ES        117 51.81                             116   -0.84 8  251 195 
 GUY2CHZ EP   2    117 28.82                             112   -0.14 4  303 234 
 GUY2CHN ES        118  3.73                             112    0.70 7  303 234 
 GUY2CHZ I         118 11.21         1.4 0.26                           303 234 
 PRA  HZ EP   2    117 39.59                             106    0.61 3  394 209 
 PRA  HN ES        118 20.96                             106    0.09 6  394 209 
 PRA  HZ I         118 24.08         0.9 0.15                           394 209 
                                                                                
