 2010  825 0628 53.9 L   6.814 -73.088141.5  RSN 10 0.3 2.0LRSN                1
 GAP=165        0.70       3.0     7.4  5.5 -0.6221E+01 -0.8448E+01  0.2267E+00E
 Epicentro: LOS SANTOS - SANTANDER                                             3
 ACTION:UP  10-09-07 10:57 OP:vdl  STATUS:               ID:20100825062853 L   I
 2010-08-25-0625-01S.COL___121                                                 6
 STAT SP IPHASW D HRMM SECON CODA AMPLIT PERI AZIMU VELO SNR AR TRES W  DIS CAZ7
 BTL  SZ EP        629 13.15                             170     0.210   23 300 
 BTL  SZ ES   2    629 28.03                                     0.1 5   23 300 
 BAR2 SZ IP        629 13.08                             169     0.010   27 203 
 BAR2 SZ ES   1    629 27.51                             169    -0.5 7   27 203 
 BAR2 SZ I         629 28.92        28.0 0.17                            27 203 
 GIR2 SZ EP   2    629 13.00                             167     0.0 5   31 338 
 BRR  HZ IP     C  629 14.95                             150     0.110   76 295 
 BRR  HN ES   1    629 31.68                             150     0.5 7   76 295 
 BRR  HZ I         629 32.50        42.7 0.14                            76 295 
 RUS  HZ EP   1    629 17.22                             142    -0.1 7  102 180 
 RUS  HN ES   2    629 35.51                             142    -0.1 5  102 180 
 RUS  HZ I         629 37.64        12.4 0.27                           102 180 
 GUE  SZ EP        629 17.96                             139     0.010  114   9 
 GUE  SZ I         629 39.17         8.1 0.14                           114   9 
 GRA  SZ IP        629 18.79                             137     0.310  122  15 
 GRA  SZ ES   1    629 37.91                             137     0.3 7  122  15 
 GRA  SZ I         629 39.16        15.0 0.43                           122  15 
 OCA  SZ EP        629 21.40                             129    -0.4 9  160 351 
 OCA  SZ ES   1    629 42.94                             129    -0.6 7  160 351 
 OCA  SZ I         629 47.16        14.5 0.30                           160 351 
 CHI  HZ EP   2    629 31.69                             116     0.0 4  252 196 
 CHI  HE ES   2    630  1.34                             116     0.1 4  252 196 
 CHI  HZ I         630  3.97         3.3 0.35                           252 196 
 PRA  HZ EP   2    629 47.91                             106     0.1 3  397 210 
 PRA  HN ES   2    630 29.41                             106    -0.4 3  397 210 
 PRA  HZ I         630 31.60         2.9 0.26                           397 210 
                                                                                
