 2014  925 0242 20.5 L   6.803 -73.138149.6  RSN 13 0.5 2.2LRSN                1
 GAP=137        1.07       3.2     4.4  5.4 -0.4315E+00  0.6696E+01  0.1289E+01E
 Epicentro: LOS SANTOS - SANTANDER                                             3
 ACTION:UPD 14-10-03 23:08 OP:nd   STATUS:               ID:20140925024220 L   I
 OLDACT:UP  14-09-25 14:41 OP:cam  STATUS:               ID:20140925024000     3
 OLDACT:REG 14-09-25 12:52 OP:cam  STATUS:               ID:20140925024000     3
 2014-09-25-0240-00M.COL___252                                                 6
 STAT SP IPHASW D HRMM SECON CODA AMPLIT PERI AZIMU VELO AIN AR TRES W  DIS CAZ7
 BAR2 SZ EP     C  242 40.63                             171    0.0110 23.8 192 
 BAR2 SZ ES        242 56.02                             171   -0.2810 23.8 192 
 BAR2 SZ I         242 56.78        33.7 0.28            170           23.8 192 
 BRR  HZ EP        242 42.58                             153    0.4610 71.8 298 
 BRR  HN ES        242 59.80                             153    0.8310 71.8 298 
 BRR  HZ I         243  2.77         9.8 0.26            151           71.8 298 
 PAM  SZ EP        242 43.37                             152    0.2710 76.6  39 
 PAM  SN ES        243  0.78                             152    0.0810 76.6  39 
 PAM  SZ I         243  2.76        21.9 0.20            155           76.6  39 
 RUS  HZ EP        242 44.52                             145   -0.1510  101 177 
 RUS  HE ES        243  2.89                             145   -0.6210  101 177 
 RUS  HZ I         243  4.65         8.6 0.34            146            101 177 
 PTB  HZ EP        242 47.51                             133   -0.38 9  149 259 
 PTB  HN ES        243  8.51                             133   -0.72 9  149 259 
 PTB  HZ I         243 14.43        16.7 0.20            132            149 259 
 SPBC HZ EP        242 49.48                             130    0.09 9  164 219 
 SPBC HN ES        243 12.36                             130    0.45 9  164 219 
 SPBC HZ I         243 16.47        22.1 0.40            130            164 219 
 ZAR  HZ EP   1    242 53.56                             123    0.27 6  205 292 
 ZAR  HE ES        243 19.04                             123    0.19 9  205 292 
 ZAR  HZ I         243 23.97        13.9 0.48            123            205 292 
 SML  HZ EP   1    242 57.07                             118   -0.30 6  244 335 
 SML  HN ES        243 25.57                             118   -0.54 8  244 335 
 SML  HZ I         243 29.16        25.6 0.10            119            244 335 
 CHI  HZ EP        242 58.69                             118    0.20 8  249 195 
 CHI  HN ES        243 28.33                             118    0.22 8  249 195 
 CHI  HZ I         243 33.98         4.2 0.26            119            249 195 
 GUY2CHZ EP        243  4.95                             113    0.54 7  302 235 
 GUY2CHE ES        243 38.15                             113   -0.50 7  302 235 
 GUY2CHZ I         243 47.44        11.2 0.74                           302 235 
 CBOC HZ EP        243  8.30                             110    0.60 7  335 252 
 MON  HZ EP   4    243  8.08                             109   -1.65 0  354 308 
 PRA  HZ EP        243 14.14                             107   -0.12 6  393 210 
 SJC  HZ EP        243 14.94                             106   -1.29 6  409 327 
 SJC  HN ES   4    243 56.72                             106   -2.97 0  409 327 
 SJC  HZ I         244  8.74         9.9 0.98            107            409 327 
                                                                                
