 2017  625 0538 31.2 L   6.632 -73.183145.8  RSN  4 0.1 2.8LRSN                1
 GAP=227        0.40       4.5     2.9  3.2  0.4531E+01  0.2523E+01  0.8958E-01E
 Epicentro: VILLANUEVA - SANTANDER                                             3
 ACTION:UPD 17-09-14 16:55 OP:jn   STATUS:               ID:20170625053831 L   I
 OLDACT:REG 17-06-25 13:01 OP:lv   STATUS:               ID:20170625053742     3
 2017-06-25-0538-00M.COL___349                                                 6
 STAT SP IPHASW D HRMM SECON CODA AMPLIT PERI AZIMU VELO AIN AR TRES W  DIS CAZ7
 BAR2 EZ EP        538 50.75                             178    0.1410 4.39 179 
 BAR2 EZ ES        539  5.76                             178    0.0210 4.39 179 
 BRR  HZ EP        538 52.67                             150   -0.1210 78.6 312 
 BRR  HN ES        539  9.55                             150   -0.0710 78.6 312 
 BRR  HZ I         539 14.06      9027.0 0.02            149           78.6 312 
 PTB  HZ EP        538 57.35                             133   -0.23 9  141 266 
 PTB  HN ES        539 18.22                             133    0.06 9  141 266 
 PTB  HZ I         539 20.93         1.1 0.06            135            141 266 
 ZAR  HZ EP        539  4.24                             122    0.17 8  208 297 
 ZAR  HN ES        539 29.76                             122    0.06 8  208 297 
                                                                                
