 2014  925 0322 36.0 L   6.799 -73.063154.0  RSN  6 0.6 1.8LRSN                1
 GAP=237        1.35      10.3    10.8 11.0  0.1490E+02  0.2223E+02 -0.4885E+02E
 Epicentro: LOS SANTOS - SANTANDER                                             3
 ACTION:UPD 14-10-03 23:08 OP:nd   STATUS:               ID:20140925032236 L   I
 OLDACT:REG 14-09-25 13:27 OP:cam  STATUS:               ID:20140925032000     3
 2014-09-25-0320-00M.COL___252                                                 6
 STAT SP IPHASW D HRMM SECON CODA AMPLIT PERI AZIMU VELO AIN AR TRES W  DIS CAZ7
 BAR2 SZ ES        323 12.22                             170   -0.6210 26.4 210 
 BAR2 SZ I         323 13.76        13.1 0.14            175           26.4 210 
 BRR  HZ EP        322 58.51                             151   -0.0310 79.5 295 
 BRR  HE ES        323 16.82                             151    0.7310 79.5 295 
 BRR  HE I         323 20.76        20.3 0.16            151           79.5 295 
 PTB  HZ EP        323  5.08                             132    0.60 9  157 260 
 PTB  HN ES        323 26.23                             132   -0.45 9  157 260 
 PTB  HZ I         323 28.08         4.2 0.54            135            157 260 
 ZAR  HN ES        323 36.83                             123    0.52 8  213 291 
 SML  HZ EP   1    323 14.47                             119    0.90 6  248 333 
 SML  HE ES   1    323 42.26                             119   -0.59 6  248 333 
 SML  HZ I         323 49.79         6.0 0.10            120            248 333 
 MON  HZ EP        323 25.45                             109   -0.75 6  361 308 
 MON  HN ES        324  4.36                             109   -0.98 6  361 308 
 MON  HZ I         324  4.99         1.6 0.20            111            361 308 
                                                                                
