 2016 1125 0738  4.1 L   6.811 -73.138142.2  RSN  5 0.3 1.0LRSN                1
 GAP=152        0.90       7.2     4.3  6.5 -0.6439E+01  0.8559E+01 -0.3495E+01E
 Epicentro: LOS SANTOS - SANTANDER                                             3
 ACTION:UPD 17-10-26 21:11 OP:lp   STATUS:               ID:20161125073804 L   I
 OLDACT:UP  16-11-25 18:05 OP:edw  STATUS:               ID:20161125073744d    3
 OLDACT:DUP 16-11-25 17:40 OP:edw  STATUS:               ID:20161125073744d    3
 OLDACT:UP  16-11-25 17:40 OP:edw  STATUS:               ID:20161125073743     3
 OLDACT:UP  16-11-25 17:39 OP:edw  STATUS:               ID:20161125073743     3
 OLDACT:REG 16-11-25 13:08 OP:edw  STATUS:               ID:20161125073743     3
 2016-11-25-0738-00M.COL___349                                                 6
 STAT SP IPHASW D HRMM SECON CODA AMPLIT PERI AZIMU VELO AIN AR TRES W  DIS CAZ7
 BAR2 EZ EP        738 23.44                             170    0.0710 24.6 192 
 BAR2 EZ ES        738 38.50                             170    0.1410 24.6 192 
 BAR2 EZ I         738 40.91         3.1 0.22            172           24.6 192 
 BRR  HZ EP        738 25.08                             152    0.1710 71.4 297 
 BRR  HN ES        738 41.68                             152    0.5610 71.4 297 
 PAM  HZ EP        738 26.15                             151    0.2610 75.9  40 
 PAM  EN ES        738 42.24                             151   -0.6110 75.9  40 
 PAM  HZ I         738 45.35         3.4 0.54            152           75.9  40 
 PTB  HZ EP        738 30.91                             131   -0.00 9  149 258 
 PTB  HN ES        738 51.23                             131   -0.57 9  149 258 
 PTB  HZ I         738 54.01         0.7 0.08            132            149 258 
 ZAR  HZ EP        738 36.28                             121   -0.11 9  204 292 
 ZAR  HN ES        739  1.52                             121   -0.03 9  204 292 
 ZAR  HZ I         739  7.02         1.0 0.15            123            204 292 
                                                                                
