 2013  925 0611 27.4 L   6.795 -73.163132.0  RSN  4 0.5 1.2LRSN                1
 GAP=246        1.21       9.5     9.3 10.7 -0.1818E+02  0.2643E+02 -0.3617E+00E
 Epicentro: LOS SANTOS - SANTANDER                                             3
 ACTION:UPD 13-10-22 09:24 OP:ep   STATUS:               ID:20130925061127 L   I
 OLDACT:REG 13-09-25 07:55 OP:nd   STATUS:               ID:20130925060959     3
 2013-09-25-0609-59M.COL___269                                                 6
 STAT SP IPHASW D HRMM SECON CODA AMPLIT PERI AZIMU VELO AIN AR TRES W  DIS CAZ7
 BAR2 SZ EP        611 45.58                             170    0.2210 22.5 185 
 BAR2 SZ ES        611 58.83                             170   -0.5410 22.5 185 
 BAR2 SZ I         612  1.95         5.7 0.18            170           22.5 185 
 BRR  HZ IP     C  611 47.46                             150    0.4710 69.8 300 
 BRR  HN ES   2    612  3.31                             150    1.04 5 69.8 300 
 BRR  HZ I         612 16.54         1.9 0.28            145           69.8 300 
 PTB  HZ EP     C  611 52.25                             129   -0.84 9  146 259 
 PTB  HN ES        612 12.93                             129   -0.20 9  146 259 
 PTB  HZ I         612 15.44         2.2 0.22            132            146 259 
 SPBC HZ EP        611 54.83                             126    0.12 9  161 219 
 SPBC HN ES        612 16.50                             126    0.48 9  161 219 
 SPBC HZ I         612 20.01         2.4 0.24            133            161 219 
                                                                                
