 2010  325 0103  6.6 L   6.337 -73.569116.0  RSN  5 0.2 1.5LRSN                1
 GAP= 84        0.45       4.3     7.8  8.0  0.1943E+02  0.4818E+02  0.1722E+02E
 Epicentro: SANTA HELENA DEL OPON - SANTANDER                                  3
 ACTION:UP  10-08-24 09:55 OP:vdl  STATUS:               ID:20100325010306 L   I
 2010-03-25-0102-00S.COL___098                                                 6
 STAT SP IPHASW D HRMM SECON CODA AMPLIT PERI AZIMU VELO SNR AR TRES W  DIS CAZ7
 BAR2 SZ IP        1 3 23.93                             154     0.210   51  57 
 BAR2 SZ ES   1    1 3 36.85                             154    -0.2 7   51  57 
 RUS  HZ EP   1    1 3 25.29                             146    -0.1 7   73 132 
 RUS  HN ES   1    1 3 40.18                             146     0.1 7   73 132 
 RUS  HZ I         1 3 41.17         7.3 0.24                            73 132 
 BRR  HZ EP   1    1 3 25.55                             140    -0.2 7   87 350 
 BRR  HE ES   2    1 3 40.85                             140     0.2 5   87 350 
 BRR  HZ I         1 3 47.28        12.5 0.17                            87 350 
 CHI  HZ EP   2    1 3 36.06                             117    -0.1 4  190 185 
 CHI  HZ I         1 4  4.23         1.7 0.46                           190 185 
 HEL  HZ EP   2    1 3 39.23                             113     0.0 4  217 266 
                                                                                
