 2010  525 0642 17.9 L   6.805 -73.170145.0  RSN  6 0.3 1.8LRSN                1
 GAP=165        0.63       4.1     7.1  7.9 -0.1584E+02  0.2011E+02  0.1846E+00E
 Epicentro: LOS SANTOS - SANTANDER                                             3
 ACTION:UP  10-08-24 10:06 OP:vdl  STATUS:               ID:20100525064217 L   I
 2010-05-25-0640-44S.COL___108                                                 6
 STAT SP IPHASW D HRMM SECON CODA AMPLIT PERI AZIMU VELO SNR AR TRES W  DIS CAZ7
 BAR2 SZ EP   1    642 37.54                             170     0.1 8   24 184 
 BAR2 SZ ES   2    642 52.56                             170    -0.1 5   24 184 
 GUE  SZ EP        642 42.44                             139    -0.110  117  13 
 GRA  SZ EP        642 43.23                             137     0.210  126  19 
 GRA  SZ ES   1    643  2.79                             137     0.1 7  126  19 
 OCA  SZ EP   1    642 45.28                             129    -0.8 7  159 354 
 OCA  SZ ES   2    643  8.29                             129     0.3 5  159 354 
 OCA  SZ I         643 11.67         7.6 0.17                           159 354 
 CHI  HZ EP   1    642 55.67                             117     0.2 6  248 195 
 CHI  HE ES   2    643 24.49                             117    -0.4 4  248 195 
 CHI  HZ I         643 28.43         4.7 0.39                           248 195 
 HEL  HZ EP        642 58.12                             115     0.3 8  270 256 
 HEL  HN ES   2    643 28.67                             115    -0.2 4  270 256 
 HEL  HZ I         643 37.63         4.2 0.55                           270 256 
                                                                                
