 2011 1225 0528 27.8 L   6.740 -73.104141.7  RSN 10 0.3 2.0LRSN                1
 GAP=145        0.62       2.1     3.5  4.1 -0.1160E+00  0.3551E+01  0.3916E+00E
 Epicentro: JORDAN - SANTANDER                                                 3
 ACTION:UPD 12-07-13 16:18 OP:ep   STATUS:               ID:20111225052827 L   I
 2011-12-25-0520-00M.COL___186                                                 6
 STAT SP IPHASW D HRMM SECON CODA AMPLIT PERI AZIMU VELO AIN AR TRES W  DIS CAZ7
 BAR2 SZ EP        528 46.79                             172   -0.0610 18.5 208 
 BAR2 SZ ES   1    529  1.11                             172   -0.60 7 18.5 208 
 BAR2 SZ I         529  3.59        25.2 0.39                          18.5 208 
 GIR2 SZ EP   1    528 47.10                             164   -0.11 7 38.8 345 
 BRR  HZ EP        528 48.95                             149    0.0110 78.5 301 
 BRR  HN ES        529  5.88                             149    0.4410 78.5 301 
 BRR  HZ I         529 11.12        20.0 0.14                          78.5 301 
 PAM  SZ EP   1    528 49.57                             149   -0.17 7 79.9  34 
 PAM  SE ES   1    529  6.86                             149    0.01 7 79.9  34 
 RUS  HZ EP        528 50.52                             145   -0.1310 93.7 179 
 RUS  HE ES        529  8.74                             145    0.2510 93.7 179 
 RUS  HZ I         529 10.66        19.7 0.47                          93.7 179 
 OCA  SZ EP        528 56.72                             127    0.24 9  167 352 
 OCA  SZ ES        529 18.86                             127    0.00 9  167 352 
 OCA  SZ I         529 22.04        12.9 0.34                           167 352 
 ZAR  HZ EP   1    529  0.32                             121   -0.37 6  211 293 
 ZAR  HE ES   1    529 25.80                             121   -0.55 6  211 293 
 ZAR  HZ I         529 32.72        12.7 0.27                           211 293 
 NOR  SZ EP   1    529  2.96                             118   -0.33 6  235 236 
 NOR  SN ES   1    529 31.11                             118    0.13 6  235 236 
 CHI  HZ EP   1    529  4.80                             117    0.09 6  244 197 
 CHI  HN ES   1    529 33.51                             117    0.01 6  244 197 
 CHI  HZ I         529 37.12         4.8 0.59                           244 197 
 HEL  HZ EP   1    529  8.73                             114    0.60 6  275 257 
 HEL  HZ I         529 46.33         6.1 0.25                           275 257 
                                                                                
