 2012  625 0958 14.1 L   6.847 -73.177138.0  RSN  5 0.4 1.4LRSN                1
 GAP=238        0.84      10.2     7.5  8.5  0.4486E+02  0.8666E+01  0.1772E+02E
 Epicentro: ZAPATOCA - SANTANDER                                               3
 ACTION:UPD 12-08-06 17:52 OP:ep   STATUS:               ID:20120625095814 L   I
 2012-06-25-0950-00M.COL___198                                                 6
 STAT SP IPHASW D HRMM SECON CODA AMPLIT PERI AZIMU VELO AIN AR TRES W  DIS CAZ7
 BAR2 SZ EP   1    958 33.26                             167    0.37 7 28.1 181 
 BAR2 SZ ES   1    958 47.51                             167   -0.05 7 28.1 181 
 BAR2 SZ I         958 49.85         5.3 0.15                          28.1 181 
 BRR  HZ EP        958 33.47                             153   -0.6210 65.7 296 
 BRR  HN ES   1    958 49.87                             153    0.18 7 65.7 296 
 RUS  HZ EP        958 37.72                             140    0.2310  106 174 
 PTB  HZ EP        958 40.15                             131   -0.07 9  145 257 
 PTB  HN ES   1    959  0.34                             131   -0.26 7  145 257 
 PTB  HZ I         959  7.48         3.4 0.23                           145 257 
 ZAR  HN ES   1    959 10.72                             121    0.72 6  199 291 
                                                                                
