 2017  225 0704  0.9 L   6.791 -73.177140.3  RSN 17 0.5 2.5LRSN                1
 GAP=100        0.75       2.7     2.6  4.3 -0.1494E+01  0.2907E+01  0.2161E+01E
 Epicentro: LOS SANTOS - SANTANDER                                             3
 ACTION:UPD 17-05-24 15:40 OP:jn   STATUS:               ID:20170225070400 L   I
 OLDACT:UP  17-02-25 17:17 OP:dani STATUS:               ID:20170225065746     3
 OLDACT:UP  17-02-25 17:16 OP:dani STATUS:               ID:20170225065746     3
 OLDACT:UP  17-02-25 17:16 OP:dani STATUS:               ID:20170225065746     3
 OLDACT:REG 17-02-25 12:57 OP:dani STATUS:               ID:20170225065746     3
 2017-02-25-0658-00M.COL___361                                                 6
 STAT SP IPHASW D HRMM SECON CODA AMPLIT PERI AZIMU VELO AIN AR TRES W  DIS CAZ7
 BAR2 EZ EP     C  7 4 19.84                             171   -0.0210 22.0 182 
 BAR2 EZ ES        7 4 34.75                             171    0.1210 22.0 182 
 BAR2 EZ I         7 4 35.91       188.7 0.22            168           22.0 182 
 BRR  HZ IP     D  7 4 21.70                             152    0.3710 68.7 301 
 BRR  HN ES   3    7 4 38.68                             152    1.43 2 68.7 301 
 BRR  HZ I         7 4 41.91        99.5 0.30            150           68.7 301 
 PAM  EZ EP        7 4 22.81                             149    0.0810 80.4  41 
 PAM  EN ES        7 4 39.68                             149   -0.0710 80.4  41 
 PAM  EZ I         7 4 41.86        83.9 0.50            154           80.4  41 
 RUS  HZ EP     C  7 4 23.83                             143   -0.2510 99.9 174 
 RUS  HE ES        7 4 42.33                             143    0.1810 99.9 174 
 RUS  HZ I         7 4 43.45        39.9 0.28            144           99.9 174 
 PTB  HZ EP        7 4 26.42                             131   -0.69 9  144 259 
 PTB  HN ES        7 4 47.39                             131   -0.15 9  144 259 
 PTB  HZ I         7 4 49.95        50.9 0.12            130            144 259 
 TAM  HZ IP     C  7 4 28.19                             129   -0.27 9  158 104 
 NOR  HZ EP        7 4 36.21                             118    0.24 8  231 234 
 NOR  HN ES        7 5  3.22                             118   -0.08 8  231 234 
 NOR  HZ I         7 5  8.86        23.5 0.26            118            231 234 
 CHI  HZ EP        7 4 38.16                             116    0.05 8  247 194 
 CHI  HN ES        7 5  6.71                             116   -0.42 8  247 194 
 CHI  HZ I         7 5 10.77         9.7 0.42            117            247 194 
 ROSC BZ EP   3    7 4 40.14                             116    1.69 2  250 210 
 ROSC BN ES        7 5  7.36                             116   -0.37 8  250 210 
 ROSC BZ I         7 5 15.68        19.0 0.47            116            250 210 
 HEL  HZ EP   3    7 4 42.25                             114    1.80 2  268 256 
 HEL  HN ES        7 5 11.42                             114    0.13 8  268 256 
 HEL  HZ I         7 5 20.05        13.6 0.34            114            268 256 
 URE  HZ EP   3    7 4 40.09                             113   -1.31 2  281 292 
 URE  HN ES   4    7 5 10.55                             113   -2.43 0  281 292 
 VIL  EZ EP        7 4 44.51                             111    0.61 7  302 191 
 VIL  EN ES        7 5 17.94                             111    0.51 7  302 191 
 VIL  EZ I         7 5 23.44        16.0 0.39            112            302 191 
 PTGC HZ EP   3    7 4 43.03                             110   -1.54 2  309 158 
 PTGC HE ES   4    7 5 16.16                             110   -2.47 0  309 158 
 PTGC HZ I         7 5 18.95        16.8 0.47            112            309 158 
 CBOC HZ EP   3    7 4 48.76                             109    1.57 2  330 252 
 CBOC HN ES        7 5 23.21                             109   -0.08 7  330 252 
 CBOC HZ I         7 5 35.30         5.4 0.40            110            330 252 
 DBB  EZ EP        7 4 48.13                             109    0.35 7  336 274 
 DBB  EN ES   3    7 5 22.86                             109   -1.48 2  336 274 
 DBB  EZ I         7 5 26.74        11.3 0.54            109            336 274 
 SJC  HZ EP   4    7 4 53.92                             105   -2.26 0  408 327 
 SJC  HN ES   4    7 5 35.64                             105   -3.64 0  408 327 
 SJC  HZ I         7 5 39.70         9.0 0.62            106            408 327 
 SOTO HZ EP        7 5 24.82                              98    0.32 2  640 217 
                                                                                
