 2016  325 0856 35.3 L   6.768 -73.144141.6  RSN  5 0.4 1.5LRSN                1
 GAP=243        0.94       6.3     5.7  7.8  0.1462E+02  0.9694E+01 -0.5476E+01E
 Epicentro: LOS SANTOS - SANTANDER                                             3
 ACTION:UPD 16-05-13 21:27 OP:cam  STATUS:               ID:20160325085635 L   I
 OLDACT:DUP 16-03-25 18:35 OP:ak   STATUS:               ID:20160325084745d    3
 OLDACT:REG 16-03-25 14:36 OP:ak   STATUS:               ID:20160325084743     3
 2016-03-25-0847-43M.COL___294                                                 6
 STAT SP IPHASW D HRMM SECON CODA AMPLIT PERI AZIMU VELO AIN AR TRES W  DIS CAZ7
 BAR2 EZ EP        856 54.46                             172    0.1210 19.9 192 
 BAR2 EZ ES        857  9.31                             172    0.1010 19.9 192 
 BAR2 EZ I         857 10.28         5.9 0.24            170           19.9 192 
 RUS  HZ EP        856 58.44                             144    0.0710 97.0 176 
 RUS  HE ES        857 16.09                             144   -0.2810 97.0 176 
 RUS  HZ I         857 17.74         3.0 0.24            145           97.0 176 
 PTB  HZ EP        857  1.14                             131   -0.73 9  147 260 
 PTB  HE ES        857 23.08                             131    0.47 9  147 260 
 PTB  HZ I         857 24.44         5.7 0.14            130            147 260 
 SPBC HZ EP        857  3.68                             129    0.47 9  161 220 
 SPBC HN ES        857 24.86                             129   -0.14 9  161 220 
 SPBC HZ I         857 28.80         5.0 0.08            129            161 220 
 ZAR  HZ EP   2    857  8.58                             121    0.96 4  206 293 
 ZAR  HN ES        857 32.52                             121   -0.32 8  206 293 
 ZAR  HZ I         857 39.21         3.8 0.16            121            206 293 
                                                                                
