 2012  625 0652 39.3 L   6.791 -73.145150.5  RSN  7 0.4 1.9LRSN                1
 GAP=137        0.80       4.2     5.1  7.0  0.8117E+00  0.9657E+01 -0.3038E+01E
 Epicentro: LOS SANTOS - SANTANDER                                             3
 ACTION:UPD 12-08-06 17:52 OP:ep   STATUS:               ID:20120625065239 L   I
 2012-06-25-0650-00M.COL___198                                                 6
 STAT SP IPHASW D HRMM SECON CODA AMPLIT PERI AZIMU VELO AIN AR TRES W  DIS CAZ7
 BAR2 SZ EP   1    652 59.54                             171    0.07 7 22.4 191 
 BAR2 SZ ES   1    653 15.22                             171    0.01 7 22.4 191 
 BAR2 SZ I         653 16.29        13.5 0.25                          22.4 191 
 BRR  HZ EP   1    653  1.47                             153    0.48 7 71.7 299 
 BRR  HZ I         653  1.74        23.9 0.15                          71.7 299 
 BRR  HN ES   1    653 18.84                             153    0.94 7 71.7 299 
 PAM  SE ES   1    653 19.32                             151   -0.49 7 78.1  39 
 RUS  HZ EP   1    653  3.49                             145    0.05 7 99.6 176 
 RUS  HN ES   1    653 22.23                             145   -0.05 7 99.6 176 
 RUS  HZ I         653 25.06         7.7 0.46                          99.6 176 
 PTB  HZ EP   1    653  6.41                             133   -0.23 7  148 259 
 PTB  HN ES   1    653 27.32                             133   -0.65 7  148 259 
 PTB  HZ I         653 30.95         6.7 0.11                           148 259 
 OCA  HZ EP   1    653  8.28                             130    0.21 7  161 353 
 OCA  HN ES   1    653 30.18                             130   -0.33 7  161 353 
 ZAR  HZ EP   1    653 12.15                             123    0.05 6  205 292 
 ZAR  HE ES   1    653 37.45                             123   -0.23 6  205 292 
 ZAR  HZ I         653 44.32        11.4 0.35                           205 292 
                                                                                
