 2012  425 0010  1.7 L   6.522 -73.522115.9  RSN  9 0.5 1.8LRSN                1
 GAP= 90        1.18       5.5     5.1 10.5 -0.3989E+01  0.2388E+02 -0.3910E+01E
 Epicentro: EL CARMEN DE CHUCURI - SANTANDER                                   3
 ACTION:UPD 12-07-05 11:55 OP:tino STATUS:               ID:20120425001001 L   I
 2012-04-25-0010-00M.COL___186                                                 6
 STAT SP IPHASW D HRMM SECON CODA AMPLIT PERI AZIMU VELO AIN AR TRES W  DIS CAZ7
 BAR2 SZ EP        010 18.66                             160     0.410   38  78 
 BAR2 SZ ES   1    010 31.28                             160     0.1 7   38  78 
 BRR  HZ EP        010 19.51                             147     0.010   68 342 
 BRR  HZ I         010 26.95        29.6 0.10                            68 342 
 BRR  HN ES   1    010 33.22                             147    -0.2 7   68 342 
 RUS  HZ EP   1    010 21.74                             141     0.4 7   85 145 
 RUS  HN ES   1    010 37.05                             141     0.3 7   85 145 
 RUS  HZ I         010 38.89         7.7 0.43                            85 145 
 PTB  HZ EP        010 21.52                             135    -0.710  103 271 
 PTB  HZ I         010 38.03        13.7 0.12                           103 271 
 PAM  SZ EP   1    010 25.24                             129     0.1 7  128  45 
 PAM  SN ES   1    010 42.77                             129    -0.6 7  128  45 
 NOR  SZ EP   1    010 30.53                             118     0.4 7  183 235 
 NOR  SN ES   1    010 51.32                             118    -1.0 7  183 235 
 ZAR  HZ EP   1    010 30.70                             118     0.7 7  183 306 
 ZAR  HN ES   1    010 52.94                             118     0.8 7  183 306 
 OCA  SZ EP   1    010 30.48                             117    -0.7 7  191   7 
 HEL  HN ES   1    011  1.56                             113     0.2 6  225 261 
 HEL  HZ I         011  7.45         7.0 0.32                           225 261 
                                                                                
