 2014  925 0101 46.1 L   6.797 -73.161149.2  RSN 17 0.3 2.7LRSN                1
 GAP= 65        0.81       2.3     2.3  3.9  0.2785E+00  0.1796E+01  0.9965E+00E
 Epicentro: LOS SANTOS - SANTANDER                                             3
 ACTION:UPD 14-10-03 23:08 OP:nd   STATUS:               ID:20140925010146 L   I
 OLDACT:UP  14-09-25 14:16 OP:cam  STATUS:               ID:20140925010000     3
 OLDACT:REG 14-09-25 12:45 OP:cam  STATUS:               ID:20140925010000     3
 2014-09-25-0100-00M.COL___252                                                 6
 STAT SP IPHASW D HRMM SECON CODA AMPLIT PERI AZIMU VELO AIN AR TRES W  DIS CAZ7
 BAR2 SZ EP        1 2  6.18                             171    0.0510 22.8 186 
 BAR2 SZ ES        1 2 21.25                             171   -0.5010 22.8 186 
 BAR2 SZ I         1 2 23.24       155.1 0.16            170           22.8 186 
 BRR  HZ EP     C  1 2  8.09                             154    0.5510 69.8 299 
 BRR  HN ES        1 2 24.55                             154    0.2810 69.8 299 
 BRR  HZ I         1 2 28.28        56.2 0.14            151           69.8 299 
 PAM  SZ EP     D  1 2  8.96                             151    0.2010 78.7  40 
 PAM  SN ES        1 2 26.49                             151    0.0610 78.7  40 
 PAM  SZ I         1 2 28.67        54.5 0.60            153           78.7  40 
 RUS  HZ EP        1 2 10.03                             145   -0.1410  100 175 
 RUS  HN ES        1 2 28.93                             145   -0.0210  100 175 
 RUS  HZ I         1 2 31.43        63.4 0.50            146            100 175 
 PTB  HZ EP        1 2 12.72                             133   -0.47 9  146 259 
 PTB  HN ES        1 2 33.89                             133   -0.43 9  146 259 
 PTB  HZ I         1 2 37.03        78.1 0.28            132            146 259 
 TAM  HZ IP     D  1 2 14.34                             131    0.15 9  157 105 
 TAM  HE ES        1 2 36.30                             131    0.19 9  157 105 
 TAM  HE I         1 2 37.25        75.0 0.34            134            157 105 
 SPBC HZ EP        1 2 15.06                             130    0.32 9  162 219 
 SPBC HN ES        1 2 37.37                             130    0.29 9  162 219 
 SPBC HZ I         1 2 42.57        68.4 0.18            130            162 219 
 ZAR  HZ EP        1 2 18.46                             123   -0.15 9  203 292 
 ZAR  HN ES        1 2 44.23                             123    0.25 9  203 292 
 ZAR  HZ I         1 2 50.97        74.5 0.28            123            203 292 
 SML  HZ EP        1 2 22.54                             118   -0.33 8  243 336 
 SML  HN ES        1 2 51.23                             118   -0.32 8  243 336 
 SML  HZ I         1 2 54.39        68.0 0.10            118            243 336 
 CHI  HZ EP        1 2 24.20                             118    0.29 8  248 195 
 CHI  HN ES        1 2 53.33                             118   -0.07 8  248 195 
 CHI  HZ I         1 2 59.38        24.2 0.28            118            248 195 
 GUY2CHZ EP   4    1 2 31.17                             113    1.48 0  300 235 
 GUY2CHE ES        1 3  3.77                             113    0.08 7  300 235 
 GUY2CHZ I         1 3 11.88        28.3 0.52                           300 235 
 PTGC HZ EP        1 2 29.05                             112   -1.10 7  309 158 
 PTGC HN ES   4    1 3  2.09                             112   -2.42 0  309 158 
 PTGC HZ I         1 3  5.72        21.5 0.22            113            309 158 
 CBOC HZ EP   4    1 2 34.22                             111    1.26 0  332 252 
 CBOC HN ES   4    1 3 10.60                             111    1.09 0  332 252 
 CBOC HZ I         1 3 16.60        10.6 0.40            111            332 252 
 DBB  SZ EP     D  1 2 33.74                             110    0.22 7  338 274 
 DBB  SZ ES        1 3 10.40                             110   -0.11 7  338 274 
 MON  HZ EP   4 C  1 2 33.36                             109   -1.74 0  353 309 
 MON  HN ES   4    1 3 11.55                             109   -1.77 0  353 309 
 MON  HZ I         1 3 27.49        11.9 0.46            109            353 309 
 PRA  HZ EP        1 2 40.04                             107    0.43 6  391 209 
 PRA  HN ES        1 3 21.36                             107    0.01 6  391 209 
 PRA  HZ I         1 3 27.24        20.7 0.30            107            391 209 
 SJC  HZ EP   4    1 2 39.84                             106   -1.85 0  409 327 
 SJC  HN ES   4    1 3 20.22                             106   -4.83 0  409 327 
 SJC  HZ I         1 3 29.56         7.5 0.34            107            409 327 
                                                                                
