 2017 1125 0243  2.5 L   6.826 -73.085138.7  RSN  7 0.5 1.4LRSN                1
 GAP=143        1.19       7.7     9.2  9.8 -0.4482E+02  0.4856E+02 -0.1522E+02E
 Epicentro: LOS SANTOS - SANTANDER                                             3
 ACTION:UPD 17-12-12 19:59 OP:rebc STATUS:               ID:20171125024302 L   I
 OLDACT:DUP 17-11-25 14:51 OP:oscs STATUS:               ID:20171125023742d    3
 2017-11-25-0238-00M.COL___488                                                 6
 STAT SP IPHASW D HRMM SECON CODA AMPLIT PERI AZIMU VELO AIN AR TRES W  DIS CAZ7
 BAR2 EZ EP        243 21.76                             168    0.3910 28.0 203 
 BAR2 EZ ES        243 36.47                             168    0.3610 28.0 203 
 BAR2 EZ I         243 37.52        13.1 0.26            170           28.0 203 
 PAM  EZ EP        243 24.41                             152    0.8510 70.9  37 
 PAM  EN ES        243 39.34                             152   -0.6710 70.9  37 
 PAM  EZ I         243 43.34         4.0 0.48            153           70.9  37 
 RUS  HZ EP        243 25.41                             142   -0.3410  103 180 
 RUS  HN ES        243 43.64                             142   -0.2510  103 180 
 RUS  HZ I         243 45.06         2.9 0.26            145            103 180 
 PTB  HZ EP   1    243 28.64                             129   -0.91 7  155 258 
 PTB  HE ES   4    243 48.63                             129   -2.04 0  155 258 
 PTB  HZ I         243 52.27         1.9 0.12            131            155 258 
 NOR  HE ES        244  7.05                             116    0.30 8  242 235 
 GUY2CHZ EP        243 46.48                             110   -0.11 7  308 235 
 GUY2CHN ES        244 20.92                             110   -0.07 7  308 235 
 GUY2CHZ I         244 28.15         1.1 0.36                           308 235 
 PRA  HZ EP   9    243 54.47                             105   -1.99 0  398 210 
 PRA  HE ES        244 37.05                                    0.48 6  398 210 
                                                                                
