 2012  825 0106 23.7 L   6.783 -73.137145.1  RSN 11 0.4 2.2LRSN                1
 GAP=138        0.82       3.4     4.3  5.4 -0.2641E+01  0.6680E+01  0.3865E+01E
 Epicentro: LOS SANTOS - SANTANDER                                             3
 ACTION:UPD 12-09-10 11:58 OP:ep   STATUS:               ID:20120825010623 L   I
 2012-08-25-0100-00M.COL___218                                                 6
 STAT SP IPHASW D HRMM SECON CODA AMPLIT PERI AZIMU VELO AIN AR TRES W  DIS CAZ7
 BAR2 SZ EP        1 6 43.23                             171   -0.0210 21.7 193 
 BAR2 SZ I         1 6 43.62        66.5 0.10                          21.7 193 
 BAR2 SZ ES   1    1 6 58.43                             171   -0.04 7 21.7 193 
 GIR2 SZ EP        1 6 43.37                             166   -0.0110 33.3 349 
 GIR2 SZ ES   1    1 6 59.03                             166    0.33 7 33.3 349 
 BRR  HZ EP        1 6 45.16                             152    0.2510 73.0 299 
 BRR  HZ I         1 6 45.57        61.4 0.13                          73.0 299 
 BRR  HN ES   1    1 7  2.27                             152    0.84 7 73.0 299 
 PAM  SZ EP        1 6 46.07                             150    0.1410 78.2  38 
 PAM  SZ I         1 6 46.46        39.3 0.25                          78.2  38 
 PAM  SN ES   1    1 7  3.18                             150   -0.05 7 78.2  38 
 RUS  HZ EP        1 6 47.15                             144   -0.1310 98.7 177 
 RUS  HN ES   1    1 7  5.31                             144   -0.34 7 98.7 177 
 RUS  HZ I         1 7  7.10        12.2 0.32                          98.7 177 
 PTB  HZ EP        1 6 50.23                             132   -0.47 9  148 260 
 PTB  HN ES   1    1 7 10.96                             132   -0.78 7  148 260 
 PTB  HZ I         1 7 16.91         9.9 0.17                           148 260 
 OCA  HN ES   1    1 7 13.54                             129   -0.82 7  162 353 
 OCA  HZ I         1 7 20.13        31.2 0.20                           162 353 
 ZAR  HZ EP   1    1 6 56.38                             122    0.08 6  206 293 
 ZAR  HZ I         1 7 27.46        18.8 0.24                           206 293 
 NOR  SZ EP        1 6 59.43                             118    0.03 8  234 235 
 NOR  SN ES   1    1 7 27.31                             118    0.10 6  234 235 
 NOR  SZ I         1 7 30.38        10.0 0.19                           234 235 
 CHI  HZ EP   1    1 7  1.96                             117    0.73 6  247 196 
 CHI  HN ES   1    1 7 30.37                             117   -0.11 6  247 196 
 CHI  HZ I         1 7 37.05         2.7 0.44                           247 196 
 HEL  HZ EP   1    1 7  4.46                             115    0.49 6  273 256 
 HEL  HN ES   2    1 7 35.88                             115    0.53 4  273 256 
 HEL  HZ I         1 7 43.53         7.5 0.31                           273 256 
                                                                                
