 2012  525 0943 51.0 L   6.820 -73.202144.3  RSN  4 0.2 1.4LRSN                1
 GAP=240        0.63       8.1     5.7  7.5  0.2895E+02  0.4160E+01 -0.1229E+02E
 Epicentro: ZAPATOCA - SANTANDER                                               3
 ACTION:UP  12-07-05 12:08 OP:pat  STATUS:               ID:20120525094351 L   I
 2012-05-25-0940-00M.COL___201                                                 6
 STAT SP IPHASW D HRMM SECON CODA AMPLIT PERI AZIMU VELO SNR AR TRES W  DIS CAZ7
 BAR2 SZ EP        944 10.21                             170    -0.210   25 175 
 BAR2 SZ ES   1    944 25.69                             170     0.0 7   25 175 
 BAR2 SZ I         944 26.67         6.9 0.40                            25 175 
 RUS  HZ EP   1    944 15.09                             143     0.3 7  103 173 
 RUS  HN ES   1    944 33.45                             143     0.1 7  103 173 
 RUS  HZ I         944 35.30         2.4 0.34                           103 173 
 PTB  HZ EP        944 17.21                             133    -0.1 9  142 257 
 PTB  HE ES   1    944 37.59                             133    -0.2 7  142 257 
 PTB  HZ I         944 40.80         3.1 0.12                           142 257 
 ZAR  HE ES   1    944 47.71                             123     0.4 6  197 292 
 ZAR  HZ I         944 53.34         4.6 0.33                           197 292 
                                                                                
