 2011  925 0448 10.4 L   6.837 -73.297121.7  RSN  6 0.3 1.4LRSN                1
 GAP=136        0.59       5.0     8.8  6.2  0.2460E+02 -0.1205E+02 -0.1125E+02E
 Epicentro: ZAPATOCA - SANTANDER                                               3
 ACTION:UPD 12-07-13 15:59 OP:ep   STATUS:               ID:20110925044810 L   I
 2011-09-25-0440-00M.COL___167                                                 6
 STAT SP IPHASW D HRMM SECON CODA AMPLIT PERI AZIMU VELO AIN AR TRES W  DIS CAZ7
 BTL  SZ EP   1    448 26.80                             175   -0.15 7 9.61  20 
 GIR2 SZ EP        448 27.22                             166    0.0310 29.1  23 
 BAR2 SZ EP        448 27.55                             165    0.1910 29.9 155 
 BAR2 SZ ES        448 40.25                             165   -0.3210 29.9 155 
 BAR2 SZ I         448 42.12         9.5 0.24                          29.9 155 
 BRR  HZ EP        448 27.97                             154   -0.0910 54.7 303 
 BRR  HZ I         448 28.33         3.9 0.06                          54.7 303 
 BRR  HN ES   1    448 41.92                             154    0.11 7 54.7 303 
 RUS  HZ EP   2    448 32.28                             136   -0.16 5  107 167 
 RUS  HE ES   2    448 50.38                             136    0.77 5  107 167 
 OCA  SZ EP   2    448 36.13                             124   -0.34 5  155 359 
 OCA  SZ ES   2    448 57.44                             124    0.66 5  155 359 
 OCA  SZ I         449  1.99         3.3 0.28                           155 359 
                                                                                
