 2017  525 0525 36.6 L   6.881 -73.285122.6  RSN 18 0.4 2.1LRSN                1
 GAP=148        0.96       3.3     3.2  5.4  0.4918E+01  0.3150E+01  0.1395E+01E
 Epicentro: BETULIA - SANTANDER                                                3
 ACTION:UPD 17-06-16 13:38 OP:jn   STATUS:               ID:20170525052536 L   I
 OLDACT:UP  17-05-26 14:47 OP:and  STATUS:               ID:20170525051741     3
 OLDACT:UP  17-05-26 14:47 OP:and  STATUS:               ID:20170525051741     3
 OLDACT:UP  17-05-26 14:46 OP:and  STATUS:               ID:20170525051741     3
 OLDACT:UP  17-05-26 14:44 OP:and  STATUS:               ID:20170525051741     3
 OLDACT:UP  17-05-26 14:33 OP:and  STATUS:               ID:20170525051741     3
 OLDACT:UP  17-05-26 14:32 OP:and  STATUS:               ID:20170525051741     3
 OLDACT:UP  17-05-26 14:31 OP:and  STATUS:               ID:20170525051741     3
 OLDACT:UP  17-05-26 14:30 OP:and  STATUS:               ID:20170525051741     3
 OLDACT:UP  17-05-26 14:30 OP:and  STATUS:               ID:20170525051741     3
 OLDACT:UP  17-05-26 14:25 OP:and  STATUS:               ID:20170525051741     3
 OLDACT:REG 17-05-26 14:16 OP:and  STATUS:               ID:20170525051741     3
 2017-05-25-0518-00M.COL___332                                                 6
 STAT SP IPHASW D HRMM SECON CODA AMPLIT PERI AZIMU VELO AIN AR TRES W  DIS CAZ7
 BRR  HZ EP        525 54.00                             155   -0.2010 53.4 298 
 BRR  HN ES        526  8.07                             155    0.1110 53.4 298 
 BRR  HZ I         526  9.72        36.5 0.16            152           53.4 298 
 RUS  HZ EP        525 58.50                             135   -0.5110  112 168 
 RUS  HN ES        526 16.22                             135   -0.3210  112 168 
 RUS  HZ I         526 17.44        13.4 0.16            133            112 168 
 PTB  HZ IP     D  526  0.77                             129    0.2910  135 254 
 PTB  HN ES        526 19.22                             129    0.0710  135 254 
 PTB  HZ I         526 20.80        23.2 0.38            126            135 254 
 SPBC HZ EP        526  3.01                             123   -0.19 9  161 213 
 SPBC HN ES        526 23.16                             123   -0.82 9  161 213 
 SPBC HZ I         526 24.71        32.1 0.20            121            161 213 
 ZAR  HZ EP        526  5.89                             119    0.19 9  186 291 
 ZAR  HN ES        526 28.89                             119    0.46 9  186 291 
 ZAR  HZ I         526 31.00        22.9 0.36            118            186 291 
 YPLC HZ IP     D  526  6.45                             118    0.04 9  192 149 
 YPLC HN ES        526 30.51                             118    0.80 9  192 149 
 YPLC HZ I         526 32.65        25.9 0.28            118            192 149 
 NOR  HZ EP        526 10.17                             114   -0.12 8  228 230 
 NOR  HN ES        526 36.55                             114   -0.05 8  228 230 
 NOR  HZ I         526 37.81         9.7 0.11            112            228 230 
 CHI  HZ EP        526 13.52                             111   -0.14 8  254 191 
 CHI  HN ES        526 43.06                             111    0.45 8  254 191 
 CHI  HZ I         526 46.73         4.3 0.34            110            254 191 
 HEL  HZ EP        526 14.81                             111    0.55 8  260 253 
 HEL  HN ES        526 44.36                             111    0.68 8  260 253 
 HEL  HZ I         526 48.03        10.3 0.26            110            260 253 
 LL6C HN EP   9    526  1.54                             106   -18.7 0  316   0 
 LL6C HN ES   2    526 33.90                                   -1.75 3  316   0 
 LL6C HN I         526 43.36         7.6 0.54            107            316   0 
 CBOC HZ EP     C  526 21.51                             106    0.27 7  322 250 
 CBOC HN ES        526 55.54                             106   -0.56 7  322 250 
 CBOC HZ I         527  2.75         2.7 0.42            105            322 250 
 PTGC HZ EP   9    526 19.59                             106   -1.54 0  323 157 
 PTGC HN ES        526 54.16                             106   -0.20 7  323 157 
 ELA  HZ EP   4    526 24.58                             106    2.70 0  324 226 
 ELA  HN ES        526 57.79                             106    0.54 7  324 226 
 ELA  HZ I         527  6.16         5.9 0.24            105            324 226 
 DBB  EZ EP        526 20.91                             106   -0.40 7  324 273 
 DBB  EE ES        526 55.87                             106   -0.35 7  324 273 
 DBB  EZ I         526 58.70         5.9 0.42            105            324 273 
 APAC HZ EP        526 27.23                             103   -0.74 6  381 287 
 APAC HE ES        527  8.34                             103    0.26 6  381 287 
 APAC HZ I         527  9.37         2.8 0.50            102            381 287 
 SJC  HZ EP   4    526 27.72                             102   -1.83 0  393 328 
 SJC  HN ES   4    527  7.44                             102   -3.45 0  393 328 
 SJC  HZ I         527 21.38         2.6 0.40            102            393 328 
 ORTC HZ EP   9    526 31.02                             102    1.42 0  394 214 
 ORTC HN ES        527 12.53                             102    0.13 6  394 214 
 ORTC HZ I         527 18.07         3.0 0.51            102            394 214 
 PAL  HZ EP        526 29.67                             102   -0.37 6  397 237 
 PAL  HE ES   4    527 10.36                             102   -1.40 0  397 237 
 PAL  HZ I         527 15.74         4.3 0.28            101            397 237 
                                                                                
