 2010 1025 0526 17.8 L   6.781 -73.133140.0  RSN  6 0.3 1.8LRSN                1
 GAP=237        0.54       4.0     4.9  5.1  0.4139E+01  0.9864E+01  0.5429E+01E
 Epicentro: LOS SANTOS - SANTANDER                                             3
 ACTION:UP  11-02-18 11:12 OP:tino STATUS:               ID:20101025052617 L   I
 2010-10-25-0520-00M.COL___115                                                 6
 STAT SP IPHASW D HRMM SECON CODA AMPLIT PERI AZIMU VELO SNR AR TRES W  DIS CAZ7
 BAR2 SZ EP   2    526 36.74                             171     0.0 5   22 195 
 BAR2 SZ ES   1    526 51.41                             171     0.0 7   22 195 
 BAR2 SZ I         526 53.34        17.9 0.28                            22 195 
 BRR  HZ IP     C  526 38.25                             151    -0.210   73 299 
 BRR  HZ I         526 38.51        21.2 0.12                            73 299 
 BRR  HN ES   1    526 54.91                             151     0.3 7   73 299 
 RUS  HZ EP   1    526 40.73                             143    -0.1 7   98 177 
 RUS  HN ES   1    526 58.92                             143     0.1 7   98 177 
 RUS  HZ I         527  0.90         5.6 0.30                            98 177 
 NOR  SZ EP   1    526 53.09                             117    -0.1 6  235 235 
 NOR  SN ES   1    527 20.52                             117    -0.3 6  235 235 
 HEL  HZ EP   2    526 58.77                             114     0.9 4  273 256 
 HEL  HN ES   2    527 28.85                             114    -0.2 4  273 256 
 PRA  HZ EP   1    527 11.24                             106     0.2 4  391 210 
 PRA  HE ES   2    527 53.00                             106     0.5 3  391 210 
                                                                                
