 2016 1225 0242 35.5 L   6.750 -73.189143.2  RSN  4 0.4 1.1LRSN                1
 GAP=229        1.02       7.9     7.6  8.2  0.2983E+02  0.7214E+01  0.2726E+01E
 Epicentro: VILLANUEVA - SANTANDER                                             3
 ACTION:UPD 17-01-11 20:18 OP:rebc STATUS:               ID:20161225024235 L   I
 OLDACT:DUP 16-12-25 13:53 OP:cog  STATUS:               ID:20161225023750d    3
 2016-12-25-0238-00M.COL___381                                                 6
 STAT SP IPHASW D HRMM SECON CODA AMPLIT PERI AZIMU VELO AIN AR TRES W  DIS CAZ7
 BAR2 EZ EP        242 54.80                             173    0.1310 17.5 178 
 BAR2 EZ ES        243  8.90                             173   -0.7610 17.5 178 
 BAR2 EZ I         243 10.50         6.6 0.38            168           17.5 178 
 BRR  HZ EP        242 56.18                             152   -0.0810 70.0 304 
 BRR  HN ES        243 13.06                             152    0.5810 70.0 304 
 BRR  HZ I         243 14.51         2.7 0.32            150           70.0 304 
 RUS  HZ EP        242 58.61                             145    0.0110 95.6 173 
 RUS  HN ES        243 17.08                             145    0.4410 95.6 173 
 RUS  HZ I         243 18.06         1.1 0.28            144           95.6 173 
 PTB  HZ EP        243  1.48                             133   -0.22 9  142 261 
 PTB  HN ES        243 22.01                             133   -0.15 9  142 261 
 PTB  HZ I         243 27.85         1.6 0.04            130            142 261 
                                                                                
