 2016  425 0757 26.8 L   7.430 -73.157137.1  RSN  7 0.3 1.5LRSN                1
 GAP=112        0.80       3.0     3.6  7.0  0.6180E+00  0.9778E+01  0.6503E+01E
 Epicentro: EL PLAYON - SANTANDER                                              3
 ACTION:UPD 16-05-05 14:24 OP:rebc STATUS:               ID:20160425075726 L   I
 OLDACT:UP  16-04-25 19:21 OP:cara STATUS:               ID:20160425074747     3
 OLDACT:UP  16-04-25 19:19 OP:cara STATUS:               ID:20160425074747     3
 OLDACT:UP  16-04-25 16:25 OP:edwi STATUS:               ID:20160425074747     3
 OLDACT:UP  16-04-25 16:22 OP:edwi STATUS:               ID:20160425074747     3
 OLDACT:REG 16-04-25 13:41 OP:y    STATUS:               ID:20160425074747     3
 2016-04-25-0747-47M.COL___267                                                 6
 STAT SP IPHASW D HRMM SECON CODA AMPLIT PERI AZIMU VELO AIN AR TRES W  DIS CAZ7
 PAM  EZ EP        757 47.23                             158    0.5610 51.5 101 
 PAM  EE ES        758  2.32                             158    0.1210 51.5 101 
 PAM  EZ I         758  4.57         3.6 0.70            162           51.5 101 
 OCA  HZ EP        757 48.36                             144   -0.1510 91.2 349 
 OCA  HN ES        758  5.14                             144   -0.3410 91.2 349 
 OCA  HZ I         758  7.36         8.8 0.20            148           91.2 349 
 BAR2 EZ EP        757 48.79                             144    0.0510 92.7 182 
 RUS  HZ EP        757 55.59                             126   -0.25 9  170 177 
 RUS  HN ES        758 18.28                             126   -0.24 9  170 177 
 PTB  HZ EP        757 55.47                             125   -0.12 9  174 236 
 PTB  HN ES        758 17.66                             125   -0.42 9  174 236 
 PTB  HZ I         758 20.96         2.8 0.26            127            174 236 
 ZAR  HZ EP        757 56.93                             123   -0.04 9  188 272 
 ZAR  HN ES        758 21.11                             123    0.57 9  188 272 
 ZAR  HZ I         758 23.29         4.2 0.50            125            188 272 
 SPBC HN ES        758 27.24                             118    0.28 8  221 207 
 SPBC HZ I         758 29.97         3.3 0.38            121            221 207 
                                                                                
