 2017  825 0021 38.0 L   6.825 -73.115143.8  RSN  9 0.5 1.7LRSN                1
 GAP=217        0.73       4.1     4.6  6.4  0.1041E+02  0.7175E+01  0.4854E+01E
 Epicentro: LOS SANTOS - SANTANDER                                             3
 ACTION:UPD 17-09-04 20:24 OP:rebc STATUS:               ID:20170825002138 L   I
 OLDACT:UP  17-08-25 13:26 OP:and  STATUS:               ID:20170825001743d    3
 OLDACT:UP  17-08-25 13:25 OP:and  STATUS:               ID:20170825001743d    3
 OLDACT:UP  17-08-25 13:25 OP:and  STATUS:               ID:20170825001743d    3
 OLDACT:UP  17-08-25 13:24 OP:and  STATUS:               ID:20170825001743d    3
 OLDACT:UP  17-08-25 13:23 OP:and  STATUS:               ID:20170825001743d    3
 OLDACT:UP  17-08-25 13:22 OP:and  STATUS:               ID:20170825001743d    3
 OLDACT:UP  17-08-25 13:22 OP:and  STATUS:               ID:20170825001743d    3
 OLDACT:UP  17-08-25 13:20 OP:and  STATUS:               ID:20170825001743d    3
 OLDACT:UP  17-08-25 13:19 OP:and  STATUS:               ID:20170825001743d    3
 OLDACT:DUP 17-08-25 13:17 OP:and  STATUS:               ID:20170825001743d    3
 OLDACT:UP  17-08-25 13:17 OP:and  STATUS:               ID:20170825001742     3
 OLDACT:UP  17-08-25 13:15 OP:and  STATUS:               ID:20170825001742     3
 OLDACT:REG 17-08-25 12:13 OP:and  STATUS:               ID:20170825001742     3
 2017-08-25-0018-00M.COL___411                                                 6
 STAT SP IPHASW D HRMM SECON CODA AMPLIT PERI AZIMU VELO AIN AR TRES W  DIS CAZ7
 BAR2 EZ ES   2    022 11.30                             169   -1.38 5 26.8 196 
 BAR2 EZ I         022 15.40        12.1 0.32            168           26.8 196 
 BRR  HZ EP        021 59.15                             152    0.0910 73.0 295 
 BRR  HN ES   3    022 16.45                             152    0.97 2 73.0 295 
 BRR  HZ I         022 22.56        10.9 0.22            153           73.0 295 
 RUS  HZ EP   2    022  2.10                             143    0.34 5  103 178 
 RUS  HE ES        022 20.47                             143    0.1810  103 178 
 RUS  HZ I         022 21.59         4.8 0.34            145            103 178 
 YPLC HZ EP        022  7.89                             126    0.14 9  178 153 
 YPLC HN ES        022 31.11                             126    0.17 9  178 153 
 YPLC HZ I         022 36.67         4.0 0.38            130            178 153 
 ZAR  HN ES        022 36.07                             122    0.12 8  206 291 
 NOR  HZ EP   2    022 13.87                             117   -0.24 4  239 234 
 NOR  HE ES   2    022 41.81                             117   -0.45 4  239 234 
 NOR  HZ I         022 44.43         2.7 0.22            121            239 234 
 CHI  HZ EP        022 15.48                             116   -0.51 8  252 196 
 CHI  HN ES        022 45.49                             116   -0.13 8  252 196 
 CHI  HZ I         022 50.19         2.4 0.05            120            252 196 
 PTGC HZ EP   3    022 20.62                             111   -1.32 2  310 159 
 PRA  HZ EP        022 31.81                             106   -0.14 6  396 210 
 PRA  HE ES        023 14.57                             106    0.56 6  396 210 
 PRA  HZ I         023 19.78         2.5 0.38            109            396 210 
                                                                                
