 2012  625 0428 40.3 L   6.654 -73.184149.2  RSN  5 0.1 1.4LRSN                1
 GAP=222        0.35       3.4     3.2  3.8  0.7779E+01  0.5549E+00 -0.1393E+01E
 Epicentro: VILLANUEVA - SANTANDER                                             3
 ACTION:UPD 12-08-06 17:52 OP:ep   STATUS:               ID:20120625042840 L   I
 2012-06-25-0426-59S.COL___208                                                 6
 STAT SP IPHASW D HRMM SECON CODA AMPLIT PERI AZIMU VELO AIN AR TRES W  DIS CAZ7
 BAR2 SZ EP   1    429  0.03                             177   -0.09 7 6.89 179 
 BAR2 SZ ES   1    429 15.46                             177   -0.12 7 6.89 179 
 BAR2 SZ I         429 17.06         5.0 0.32                          6.89 179 
 BRR  HZ EP   1    429  2.08                             151   -0.05 7 76.9 311 
 BRR  HZ I         429  2.56         5.8 0.10                          76.9 311 
 BRR  HN ES   1    429 19.40                             151    0.23 7 76.9 311 
 RUS  HZ EP        429  3.46                             149    0.1310 85.0 172 
 RUS  HE ES        429 21.27                             149   -0.0410 85.0 172 
 PTB  HN ES   1    429 27.80                             134    0.03 7  141 265 
 PTB  HZ I         429 29.93         1.7 0.27                           141 265 
 ZAR  HE ES        429 38.84                             123   -0.11 8  207 297 
 ZAR  HZ I         429 45.30         3.4 0.12                           207 297 
                                                                                
