 2013  625 0601  2.9 L   6.750 -73.139147.5  RSN  7 0.5 1.6LRSN                1
 GAP=140        1.26       7.0     8.0 10.0  0.1592E+02  0.1915E+01 -0.3081E+01E
 Epicentro: LOS SANTOS - SANTANDER                                             3
 ACTION:UPD 14-01-08 09:57 OP:ep   STATUS:               ID:20130625060102 L   I
 OLDACT:REG 13-06-25 06:42 OP:jn   STATUS:               ID:20130625055959     3
 2013-06-25-0559-59M.COL___267                                                 6
 STAT SP IPHASW D HRMM SECON CODA AMPLIT PERI AZIMU VELO AIN AR TRES W  DIS CAZ7
 BAR2 SZ EP        6 1 22.73                             173    0.0310 18.1 195 
 BAR2 SZ ES        6 1 37.46                             173   -0.6410 18.1 195 
 BAR2 SZ I         6 1 38.93         8.0 0.20            176           18.1 195 
 BRR  HZ EP        6 1 25.17                             152    0.6910 74.6 302 
 BRR  HN ES        6 1 42.04                             152    0.7610 74.6 302 
 BRR  HZ I         6 1 46.81         6.2 0.16            152           74.6 302 
 PAM  SZ EP   1    6 1 25.71                             150    0.13 7 81.2  37 
 RUS  HZ EP        6 1 26.57                             146    0.0910 95.0 176 
 RUS  HN ES   1    6 1 45.12                             146    0.28 7 95.0 176 
 RUS  HZ I         6 1 46.57         4.8 0.34            151           95.0 176 
 PTB  HZ EP        6 1 29.51                             132   -0.53 9  148 261 
 PTB  HN ES   1    6 1 50.42                             132   -0.75 7  148 261 
 PTB  HZ I         6 1 51.59         5.4 0.10            136            148 261 
 OCA  HE ES   1    6 1 53.61                             129   -0.90 7  166 353 
 OCA  HZ I         6 1 58.46         4.2 0.14            130            166 353 
 ZAR  HE ES   1    6 2  1.62                             122    0.19 6  207 293 
                                                                                
