 2014 1225 0005  3.2 L   6.809 -73.151146.0  RSN 12 0.4 2.3LRSN                1
 GAP=135        1.02       3.0     3.9  5.5 -0.1960E+01  0.7134E+01 -0.5081E+00E
 Epicentro: LOS SANTOS - SANTANDER                                             3
 ACTION:UPD 15-02-10 17:07 OP:nd   STATUS:               ID:20141225000503 L   I
 OLDACT:UP  14-12-25 15:18 OP:mh   STATUS:               ID:20141225000005     3
 OLDACT:REG 14-12-25 13:10 OP:mh   STATUS:               ID:20141225000005     3
 2014-12-25-0000-05M.COL___292                                                 6
 STAT SP IPHASW D HRMM SECON CODA AMPLIT PERI AZIMU VELO AIN AR TRES W  DIS CAZ7
 BAR2 EZ EP        0 5 23.02                             170    0.1310 24.3 188 
 BAR2 EZ ES        0 5 37.85                             170   -0.3910 24.3 188 
 BAR2 EZ I         0 5 42.96        24.6 0.12            164           24.3 188 
 BRR  HZ EP     C  0 5 24.88                             153    0.5510 70.1 298 
 BRR  HN ES        0 5 41.38                             153    0.5810 70.1 298 
 BRR  HZ I         0 5 42.37        47.5 0.10            149           70.1 298 
 PAM  SZ EP        0 5 25.75                             151    0.3210 77.0  40 
 PAM  SN ES        0 5 42.72                             151   -0.0410 77.0  40 
 PAM  SZ I         0 5 44.53        26.8 0.14            151           77.0  40 
 RUS  HZ EP     C  0 5 27.24                             144    0.1710  102 176 
 RUS  HN ES        0 5 45.40                             144   -0.2710  102 176 
 RUS  HZ I         0 5 47.21        18.6 0.30            137            102 176 
 PTB  HZ EP        0 5 29.69                             132   -0.47 9  147 258 
 PTB  HZ I         0 5 46.99         7.3 0.10            126            147 258 
 PTB  HN ES        0 5 50.49                             132   -0.69 9  147 258 
 OCA  HZ EP        0 5 31.61                             130    0.17 9  159 353 
 OCA  HN ES        0 5 53.46                             130    0.00 9  159 353 
 OCA  HZ I         0 5 57.48        20.8 0.34            127            159 353 
 SPBC HZ EP        0 5 32.12                             129    0.35 9  164 219 
 SPBC HZ I         0 6  1.15        26.7 0.58            123            164 219 
 ZAR  HZ EP        0 5 35.39                             123   -0.18 9  203 292 
 ZAR  HN ES        0 6  0.92                             123    0.11 9  203 292 
 ZAR  HZ I         0 6  7.11        37.7 0.42            118            203 292 
 NOR  HZ EP        0 5 38.32                             118   -0.65 8  235 234 
 NOR  HN ES   1    0 6  6.79                             118   -0.06 6  235 234 
 NOR  HZ I         0 6 12.97        18.6 0.18            113            235 234 
 SML  HZ EP        0 5 39.21                             118   -0.51 8  242 335 
 SML  HN ES   1    0 6  7.43                             118   -0.77 6  242 335 
 SML  HZ I         0 6  9.64        32.4 0.26            114            242 335 
 ROSC BZ EP   4    0 5 43.17                             117    1.76 0  253 211 
 ROSC BN ES        0 6 11.46                             117    0.26 8  253 211 
 ROSC BZ I         0 6 16.26        10.6 0.40            112            253 211 
 HEL  HZ EP        0 5 43.24                             115   -0.16 8  272 256 
 HEL  HN ES        0 6 15.73                             115    0.99 8  272 256 
 HEL  HZ I         0 6 22.77         8.6 0.36            110            272 256 
 TOL  SZ EP   4    0 5 52.86                             109    1.35 0  344 224 
 TOL  SN ES   4    0 6 30.20                             109    1.02 0  344 224 
                                                                                
