 2011  825 0340 53.6 L   6.780 -73.076143.6  RSN  4 0.3 1.3LRSN                1
 GAP=202        0.44       6.1     9.8  6.3  0.3797E+02 -0.1816E+02 -0.5756E+01E
 Epicentro: LOS SANTOS - SANTANDER                                             3
 ACTION:UPD 12-07-13 15:53 OP:ep   STATUS:               ID:20110825034054dL   I
 2011-08-25-0340-00M.COL___156                                                 6
 STAT SP IPHASW D HRMM SECON CODA AMPLIT PERI AZIMU VELO AIN AR TRES W  DIS CAZ7
 BAR2 SZ EP   2    341 12.94                             170   -0.04 5 23.8 209 
 BAR2 SZ I         341 13.51         4.3 0.20                          23.8 209 
 BAR2 SZ ES   2    341 27.49                             170   -0.60 5 23.8 209 
 GIR2 SZ EP   1    341 13.10                             165   -0.04 7 35.5 339 
 GIR2 SZ ES   2    341 28.75                             165    0.38 5 35.5 339 
 BRR  HZ EP   1    341 14.87                             150   -0.11 7 79.0 297 
 BRR  HZ I         341 15.21         8.1 0.11                          79.0 297 
 BRR  HN ES   1    341 31.73                             150    0.08 7 79.0 297 
 RUS  HZ EP   2    341 17.16                             144    0.20 5 98.1 180 
 RUS  HN ES   2    341 35.37                             144    0.20 5 98.1 180 
 RUS  HZ I         341 36.64         1.5 0.34                          98.1 180 
                                                                                
