 2017  625 0940 21.8 L   6.587 -73.217136.0  RSN  4 0.3 1.1LRSN                1
 GAP=187        0.74       7.9     5.2  6.5  0.1216E+02  0.8001E+01  0.4641E+01E
 Epicentro: CABRERA - SANTANDER                                                3
 ACTION:UPD 17-09-14 16:55 OP:jn   STATUS:               ID:20170625094022 L   I
 OLDACT:UP  17-07-07 00:13 OP:nlst STATUS:               ID:20170625094022 L   3
 OLDACT:DUP 17-06-25 18:20 OP:lv   STATUS:               ID:20170625093741d    3
 OLDACT:REG 17-06-25 13:30 OP:lv   STATUS:               ID:20170625093740     3
 2017-06-25-0938-00M.COL___349                                                 6
 STAT SP IPHASW D HRMM SECON CODA AMPLIT PERI AZIMU VELO AIN AR TRES W  DIS CAZ7
 BAR2 EZ EP        940 40.23                             178    0.1710 3.89  81 
 BAR2 EZ ES   1    940 53.87                             178   -0.39 7 3.89  81 
 BAR2 EZ I         940 57.87         6.1 0.28            178           3.89  81 
 BRR  HZ EP        940 42.12                             148   -0.3410 79.4 316 
 BRR  HN ES        940 58.93                             148    0.3910 79.4 316 
 PTB  HZ EP        940 47.05                             132   -0.01 9  137 268 
 PTB  HN ES        941  6.81                             132    0.09 9  137 268 
 PTB  HZ I         941  9.73         0.8 0.13            133            137 268 
 ZAR  HZ EP        940 54.30                             120    0.30 8  207 299 
 ZAR  HN ES        941 18.66                             120   -0.42 8  207 299 
 ZAR  HZ I         941 24.33         1.7 0.19            122            207 299 
                                                                                
