 2014  125 0224  4.4 L   6.820 -73.152144.9  RSN  9 0.4 1.6LRSN                1
 GAP=135        1.02       3.9     4.5  6.3 -0.1401E+01  0.4705E+01  0.5650E+01E
 Epicentro: LOS SANTOS - SANTANDER                                             3
 ACTION:UPD 14-03-13 09:58 OP:ep   STATUS:               ID:20140125022404 L   I
 OLDACT:REG 14-01-25 08:12 OP:nd   STATUS:               ID:20140125022000     3
 2014-01-25-0220-00M.COL___285                                                 6
 STAT SP IPHASW D HRMM SECON CODA AMPLIT PERI AZIMU VELO AIN AR TRES W  DIS CAZ7
 BAR2 SZ EP        224 23.69                             170   -0.3110 25.4 188 
 BAR2 SZ ES        224 38.85                             170   -0.4210 25.4 188 
 BAR2 SZ I         224 41.56         9.6 0.10            169           25.4 188 
 BRR  HZ EP     D  224 25.82                             153    0.4310 69.5 297 
 BRR  HN ES        224 42.67                             153    0.9310 69.5 297 
 BRR  HZ I         224 45.99         7.7 0.34            141           69.5 297 
 PAM  SZ EP        224 26.72                             151    0.2410 76.1  41 
 PAM  SN ES        224 43.31                             151   -0.3710 76.1  41 
 PAM  SZ I         224 44.55         5.8 0.20            143           76.1  41 
 RUS  HZ EP        224 28.24                             143   -0.0210  103 176 
 RUS  HN ES        224 46.91                             143    0.0610  103 176 
 RUS  HZ I         224 48.26         2.1 0.44            138            103 176 
 PTB  HZ EP        224 30.95                             132   -0.35 9  148 258 
 PTB  HN ES        224 51.72                             132   -0.54 9  148 258 
 PTB  HZ I         224 58.08         3.7 0.10            121            148 258 
 SPBC HZ EP        224 33.23                             128    0.24 9  164 218 
 SPBC HN ES        224 55.42                             128    0.16 9  164 218 
 SPBC HZ I         225  2.71         6.1 0.24            120            164 218 
 ZAR  HZ EP   2    224 35.61                             122   -1.05 4  203 292 
 ZAR  HN ES   1    225  1.52                             122   -0.29 6  203 292 
 ZAR  HZ I         225  9.15         6.3 0.30            112            203 292 
 CHI  HZ EP        224 42.56                             117    0.27 8  251 195 
 CHI  HN ES        225 11.91                             117    0.08 8  251 195 
 CHI  HZ I         225 19.08         2.1 0.52            109            251 195 
 SJC  HZ EP   4    224 57.98                             106   -1.72 0  407 327 
 SJC  HZ I         225 34.00         1.5 0.56             99            407 327 
 SJC  HN ES   4    225 37.43                             106   -5.37 0  407 327 
                                                                                
