 2017 1225 0449 18.2 L   6.787 -73.196149.1  RSN  7 0.3 1.3LRSN                1
 GAP=134        0.86       3.7     4.2  6.3 -0.5848E+01  0.8627E+01 -0.3684E+01E
 Epicentro: ZAPATOCA - SANTANDER                                               3
 ACTION:UPD 18-01-04 13:24 OP:rebc STATUS:               ID:20171225044918 L   I
 OLDACT:REG 17-12-25 12:21 OP:osc  STATUS:               ID:20171225044120     3
 2017-12-25-0448-00M.COL___472                                                 6
 STAT SP IPHASW D HRMM SECON CODA AMPLIT PERI AZIMU VELO AIN AR TRES W  DIS CAZ7
 BAR2 EZ EP        449 37.99                             171   -0.2310 21.6 176 
 BAR2 EZ ES        449 53.72                             171   -0.0910 21.6 176 
 BAR2 EZ I         449 55.64         4.0 0.26            172           21.6 176 
 PAM  EZ EP        449 41.20                             150    0.1310 82.1  42 
 PAM  EN ES        449 58.58                             150   -0.3210 82.1  42 
 PAM  EZ I         450  0.55         1.0 0.20            153           82.1  42 
 PTB  HZ EP        449 44.91                             134   -0.05 9  142 259 
 PTB  HN ES        450  6.03                             134    0.22 9  142 259 
 PTB  HZ I         450  7.71         1.5 0.12            134            142 259 
 SPBC HZ EP        449 47.04                             131    0.49 9  159 218 
 SPBC HN ES        450  8.74                             131    0.09 9  159 218 
 SPBC HZ I         450 14.55         6.1 0.18            132            159 218 
 OCA  HZ EP        449 47.01                             130    0.13 9  161 355 
 OCA  HN ES        450  9.81                             130    0.59 9  161 355 
 OCA  HZ I         450 12.74         5.1 0.20            132            161 355 
 ZAR  HZ EP        449 49.66                             124   -0.77 9  200 293 
 ZAR  HN ES        450 15.33                             124   -0.21 9  200 293 
 ZAR  HZ I         450 22.35         1.9 0.32            125            200 293 
 GUY2CHZ EP   4    450  4.49                             113    3.10 0  296 234 
 GUY2CHE ES   4    450 42.52                             113    7.47 0  296 234 
 GUY2CHZ I         450 47.24         1.0 0.76                           296 234 
                                                                                
