 2014  225 0629 56.7 L   6.819 -73.187145.5  RSN 13 0.2 2.3LRSN                1
 GAP=130        0.57       1.7     2.4  3.7 -0.2777E+00  0.2449E+01 -0.9032E+00E
 Epicentro: ZAPATOCA - SANTANDER                                               3
 ACTION:UPD 14-03-10 08:13 OP:ep   STATUS:               ID:20140225062956 L   I
 OLDACT:REG 14-02-25 08:15 OP:fm   STATUS:               ID:20140225062816     3
 2014-02-25-0628-16M.COL___229                                                 6
 STAT SP IPHASW D HRMM SECON CODA AMPLIT PERI AZIMU VELO AIN AR TRES W  DIS CAZ7
 BAR2 SZ EP     D  630 16.35                             170   -0.0310 25.1 179 
 BAR2 SZ ES   1    630 31.74                             170    0.05 7 25.1 179 
 BAR2 SZ I         630 32.37        73.8 0.28            170           25.1 179 
 PAM  SZ EP        630 19.36                             150    0.3510 78.8  43 
 PAM  SN ES        630 36.42                             150    0.0310 78.8  43 
 PAM  SZ I         630 38.45        18.7 0.60            154           78.8  43 
 RUS  HZ EP        630 20.35                             143   -0.3010  103 174 
 RUS  HN ES        630 39.11                             143   -0.1910  103 174 
 RUS  HZ I         630 40.13        21.3 0.22            146            103 174 
 PTB  HZ EP        630 22.87                             133   -0.45 9  144 258 
 PTB  HN ES        630 44.15                             133    0.10 9  144 258 
 PTB  HZ I         630 46.22        30.0 0.52            131            144 258 
 OCA  HZ EP        630 24.60                             130   -0.19 9  158 355 
 OCA  HN ES   4    630 47.22                             130    0.56 0  158 355 
 OCA  HZ I         630 52.89        15.9 0.26            130            158 355 
 SPBC HZ EP        630 25.33                             129    0.22 9  162 217 
 SPBC HE ES        630 47.26                             129    0.03 9  162 217 
 SPBC HZ I         630 51.53        21.9 0.12            129            162 217 
 ZAR  HZ EP        630 28.88                             123    0.23 9  199 292 
 ZAR  HN ES        630 53.41                             123   -0.12 9  199 292 
 ZAR  HZ I         630 56.71        20.3 0.30            122            199 292 
 NOR  HN ES   4    630 58.55                             119   -1.29 0  232 233 
 NOR  HZ I         631  7.64        12.0 0.14            119            232 233 
 SML  HZ EP        630 32.76                             118   -0.18 8  240 336 
 SML  HE ES        631  1.39                             118    0.22 8  240 336 
 SML  HZ I         631  6.88        23.8 0.44            118            240 336 
 CHI  HZ EP        630 34.63                             117    0.11 8  250 194 
 CHI  HN ES        631  4.30                             117    0.31 8  250 194 
 CHI  HZ I         631  6.28        14.5 0.36            119            250 194 
 HEL  HZ EP   4    630 38.46                             115    1.95 0  268 255 
 HEL  HN ES   4    631  8.85                             115    1.33 0  268 255 
 HEL  HZ I         631 15.95         8.7 0.32            115            268 255 
 URE  HZ EP   4    630 36.15                             114   -1.08 0  279 292 
 URE  HE ES   4    631  7.06                             114   -1.75 0  279 292 
 URE  HZ I         631 19.42        16.2 0.20            114            279 292 
 GUY2CHZ EP   4    630 41.76                             112    1.70 0  299 234 
 GUY2CHN ES   4    631 18.83                             112    4.99 0  299 234 
 GUY2CHZ I         631 24.20         8.3 0.26                           299 234 
                                                                                
