 2017  125 0656 27.8 L   6.809 -73.153145.3  RSN 16 0.4 2.2LRSN                1
 GAP=102        1.01       4.2     3.1  5.0  0.1868E+01  0.2419E+01  0.1442E+01E
 Epicentro: LOS SANTOS - SANTANDER                                             3
 ACTION:UPD 17-05-22 16:03 OP:jn   STATUS:               ID:20170125065627 L   I
 OLDACT:REG 17-01-25 13:03 OP:lv   STATUS:               ID:20170125064741     3
 2017-01-25-0648-00M.COL___355                                                 6
 STAT SP IPHASW D HRMM SECON CODA AMPLIT PERI AZIMU VELO AIN AR TRES W  DIS CAZ7
 BAR2 EZ IP     D  656 47.20                             170   -0.1910 24.2 188 
 BAR2 EZ ES        657  2.61                             170   -0.0610 24.2 188 
 BAR2 EZ I         657  5.07        48.7 0.25            160           24.2 188 
 BRR  HZ IP     D  656 49.02                             153    0.1910 70.0 298 
 BRR  HN ES        657  5.75                             153    0.5210 70.0 298 
 BRR  HZ I         657  9.25        34.8 0.26            142           70.0 298 
 PAM  EZ EP        656 50.22                             151    0.2710 77.1  40 
 PAM  EN ES        657  7.28                             151    0.0610 77.1  40 
 PAM  EZ I         657 10.44        21.9 0.29            148           77.1  40 
 RUS  HZ EP        656 51.23                             143   -0.3610  102 176 
 RUS  HN ES        657 10.62                             143    0.4910  102 176 
 RUS  HZ I         657 11.96        15.6 0.30            131            102 176 
 PTB  HZ EP        656 54.01                             132   -0.67 9  147 258 
 PTB  HN ES        657 15.07                             132   -0.57 9  147 258 
 PTB  HZ I         657 16.03        22.1 0.18            119            147 258 
 TAM  HZ IP     C  656 55.68                             130    0.14 9  156 105 
 TAM  HN ES        657 16.75                             130   -0.42 9  156 105 
 TAM  HZ I         657 16.82        10.9 0.37            122            156 105 
 ZAR  HZ EP        656 59.89                             123   -0.21 9  203 292 
 ZAR  HN ES        657 25.29                             123   -0.00 9  203 292 
 ZAR  HZ I         657 30.10        18.3 0.24            112            203 292 
 CHI  HZ EP        657  5.57                             117    0.01 8  249 195 
 CHI  HZ I         657 41.04         8.4 0.32            107            249 195 
 ROSC BZ EP   9    657  7.47                             117    1.52 0  253 211 
 ROSC BN ES        657 37.83                                    0.61 8  253 211 
 ROSC BZ I         657 42.47        15.5 0.50            106            253 211 
 URE  HZ EP   9    657  7.14                             114   -1.59 0  283 292 
 URE  HE ES        657 38.41                                   -0.65 7  283 292 
 URE  HZ I         657 49.81        11.8 0.24            104            283 292 
 PTGC HZ EP   9    657 10.46                             111   -1.32 0  310 159 
 PTGC HN ES        657 44.04                                   -0.72 7  310 159 
 PTGC HZ I         657 45.18        10.1 0.26            103            310 159 
 ELA  HZ EP   9    657 17.10                             110    2.46 0  329 229 
 ELA  HE ES        657 54.39                                    0.76 7  329 229 
 ELA  HZ I         658  6.51         8.1 0.42            101            329 229 
 CBOC HZ EP        657 15.49                             110    0.84 7  333 252 
 CBOC HZ I         658  4.81         3.8 0.28            101            333 252 
 DBB  EZ EP        657 15.29                             109    0.13 7  339 274 
 DBB  EN ES   4    657 50.55                             109   -1.55 0  339 274 
 DBB  EZ I         657 55.41         4.0 0.28            101            339 274 
 ORTC HZ EP        657 22.15                             106    0.40 6  396 216 
 ORTC HN ES   4    658  5.26                             106    1.43 0  396 216 
 ORTC HZ I         658 11.22         4.4 0.22             98            396 216 
 SJC  HZ EP   4    657 21.48                             106   -1.72 0  408 327 
 SJC  HN ES   4    658  2.18                             106   -4.23 0  408 327 
 SJC  HZ I         658 10.06         2.8 0.30             98            408 327 
                                                                                
