 2013  425 0003 11.0 L   6.805 -73.187138.9  RSN  5 0.4 1.9LRSN                1
 GAP=131        0.57       4.1     4.9  7.5  0.7674E-01  0.5162E+01 -0.4408E+01E
 Epicentro: ZAPATOCA - SANTANDER                                               3
 ACTION:UPD 13-05-22 14:40 OP:EP   STATUS:               ID:20130425000311 L   I
 2013-04-25-0000-02M.COL___213                                                 6
 STAT SP IPHASW D HRMM SECON CODA AMPLIT PERI AZIMU VELO AIN AR TRES W  DIS CAZ7
 BRR  HZ EP   1    0 3 31.64                             153    0.43 7 66.9 300 
 BRR  HN ES   2    0 3 47.20                             153    0.27 5 66.9 300 
 BRR  HN I         0 3 48.70        21.4 0.24            150           66.9 300 
 PAM  SZ EP   1    0 3 32.76                             149    0.06 7 80.0  42 
 PAM  SN ES   2    0 3 49.38                             149   -0.20 5 80.0  42 
 PAM  SN I         0 3 50.25        11.2 0.48            152           80.0  42 
 RUS  HZ EP   1    0 3 34.00                             142   -0.20 7  102 173 
 RUS  HE ES   2    0 3 52.25                             142   -0.01 5  102 173 
 PTB  HZ EP   1    0 3 36.79                             131   -0.26 7  143 258 
 PTB  HN ES   2    0 3 57.22                             131   -0.12 5  143 258 
 PTB  HN I         0 4  1.39         6.9 0.34            131            143 258 
 SML  HZ EP   1    0 3 47.39                             116    0.36 6  241 336 
 SML  HE ES   2    0 4 14.11                             116   -0.99 4  241 336 
 SML  HE I         0 4 17.90         6.7 0.28            117            241 336 
                                                                                
