 2017  725 0844 16.9 L   6.804 -73.143144.3  RSN 17 0.5 1.7LRSN                1
 GAP=101        0.93       3.5     2.9  5.1 -0.1081E+01  0.3174E+01  0.2439E+01E
 Epicentro: LOS SANTOS - SANTANDER                                             3
 ACTION:UPD 17-08-30 15:36 OP:rebc STATUS:               ID:20170725084416 L   I
 OLDACT:UP  17-07-25 17:23 OP:and  STATUS:               ID:20170725083739     3
 OLDACT:UP  17-07-25 17:22 OP:and  STATUS:               ID:20170725083739     3
 OLDACT:UP  17-07-25 17:22 OP:and  STATUS:               ID:20170725083739     3
 OLDACT:UP  17-07-25 17:21 OP:and  STATUS:               ID:20170725083739     3
 OLDACT:UP  17-07-25 17:21 OP:and  STATUS:               ID:20170725083739     3
 OLDACT:UP  17-07-25 17:20 OP:and  STATUS:               ID:20170725083739     3
 OLDACT:UP  17-07-25 17:19 OP:and  STATUS:               ID:20170725083739     3
 OLDACT:REG 17-07-25 12:53 OP:and  STATUS:               ID:20170725083739     3
 2017-07-25-0838-00M.COL___377                                                 6
 STAT SP IPHASW D HRMM SECON CODA AMPLIT PERI AZIMU VELO AIN AR TRES W  DIS CAZ7
 BAR2 EZ IP     D  844 36.26                             170   -0.1110 23.8 190 
 BAR2 EZ ES        844 50.97                             170   -0.5810 23.8 190 
 BAR2 EZ I         844 52.84        12.1 0.16            167           23.8 190 
 BRR  HZ EP        844 38.03                             152    0.1310 71.2 298 
 BRR  HN ES   2    844 54.74                             152    0.46 5 71.2 298 
 BRR  HZ I         844 58.31        11.5 0.24            150           71.2 298 
 PAM  EZ IP     D  844 39.28                             151    0.3410 76.9  40 
 PAM  EN ES        844 56.35                             151    0.2310 76.9  40 
 PAM  EZ I         844 58.75         7.3 0.62            156           76.9  40 
 RUS  HZ EP        844 39.93                             143   -0.6110  101 176 
 RUS  HN ES        844 59.53                             143    0.5510  101 176 
 RUS  HZ I         845  1.16         8.3 0.26            144            101 176 
 PTB  HZ EP        844 43.00                             132   -0.79 9  148 259 
 PTB  HN ES        845  4.27                             132   -0.48 9  148 259 
 PTB  HZ I         845  9.09         4.7 0.24            130            148 259 
 TAM  HZ IP     C  844 44.71                             130    0.25 9  155 105 
 SPBC HZ EP        844 45.21                             129   -0.13 9  164 219 
 SPBC HN ES        845  7.53                             129    0.01 9  164 219 
 SPBC HZ I         845 14.19         9.2 0.20            128            164 219 
 YPLC HZ EP        844 46.67                             126    0.05 9  177 151 
 YPLC HN ES   3    845 10.95                             126    1.16 2  177 151 
 YPLC HZ I         845 11.65         8.7 0.24            128            177 151 
 ZAR  HZ EP        844 48.86                             122   -0.41 9  204 292 
 ZAR  HN ES        845 14.76                             122    0.25 9  204 292 
 ZAR  HZ I         845 24.40         5.8 0.32            122            204 292 
 NOR  HZ EP   2    844 52.57                             118   -0.03 4  235 234 
 NOR  HN ES        845 20.90                             118    0.46 8  235 234 
 NOR  HZ I         845 25.45         4.2 0.34            118            235 234 
 ROSC BZ EP   3    844 56.47                             116    1.47 2  253 211 
 HEL  HN ES        845 28.96                             114    0.54 8  272 256 
 HEL  HZ I         845 34.99         3.6 0.50            114            272 256 
 GUY2CHN ES   4    845 38.28                             112    3.78 0  302 235 
 GUY2CHZ I         845 41.49         3.0 0.54                           302 235 
 PTGC HZ EP   3    844 59.44                             111   -1.29 2  309 159 
 PTGC HN ES   4    845 32.69                             111   -2.23 0  309 159 
 PTGC HZ I         845 38.44         3.5 0.28            113            309 159 
 CBOC HZ EP        845  4.46                             109    0.65 7  334 252 
 CBOC HN ES        845 40.66                             109    0.28 7  334 252 
 CBOC HZ I         845 57.38         1.1 0.68            110            334 252 
 PRA  HZ EP        845 10.55                             106    0.11 6  392 210 
 PRA  HE ES        845 51.78                             106   -0.41 6  392 210 
 PRA  HZ I         845 58.53         2.2 0.42            107            392 210 
 ORTC HZ EP   4    845 14.01                             106    3.18 0  396 216 
 ORTC HN ES   3    845 54.08                             106    1.18 1  396 216 
 ORTC HZ I         845 59.90         1.0 0.34            107            396 216 
                                                                                
