 2014  125 0817 45.7 L   6.835 -73.166139.8  RSN  6 0.3 1.5LRSN                1
 GAP=132        0.79       2.7     4.3  6.7 -0.8456E+00  0.1017E+02 -0.5000E+00E
 Epicentro: LOS SANTOS - SANTANDER                                             3
 ACTION:UPD 14-03-13 09:58 OP:ep   STATUS:               ID:20140125081745 L   I
 OLDACT:REG 14-01-25 08:31 OP:nd   STATUS:               ID:20140125081000     3
 2014-01-25-0810-00M.COL___285                                                 6
 STAT SP IPHASW D HRMM SECON CODA AMPLIT PERI AZIMU VELO AIN AR TRES W  DIS CAZ7
 BAR2 SZ EP        818  4.76                             169    0.0610 26.9 184 
 BAR2 SZ I         818 21.73         9.3 0.44            167           26.9 184 
 PAM  SZ EP        818  7.72                             150    0.5110 75.9  43 
 PAM  SN ES        818 23.67                             150   -0.3010 75.9  43 
 PAM  SZ I         818 27.09         6.4 0.56            155           75.9  43 
 RUS  HZ EP        818  8.87                             141   -0.3110  105 175 
 RUS  HN ES        818 27.62                             141    0.1310  105 175 
 RUS  HZ I         818 30.37         2.6 0.42            143            105 175 
 PTB  HZ EP        818 11.68                             131   -0.39 9  146 257 
 PTB  HN ES        818 32.79                             131    0.16 9  146 257 
 PTB  HZ I         818 40.46         3.4 0.28            132            146 257 
 SML  HZ EP        818 21.93                             117    0.41 8  239 335 
 SML  HN ES        818 49.29                             117   -0.17 8  239 335 
 SML  HZ I         818 52.85         4.8 0.30            119            239 335 
 CHI  HZ EP        818 23.05                             115   -0.39 8  252 194 
 CHI  HN ES        818 53.18                             115    0.32 8  252 194 
 CHI  HZ I         819  0.55         1.1 0.60            117            252 194 
                                                                                
