 2016  625 0728 12.4 L   6.867 -73.024139.7  RSN  9 0.5 1.3LRSN                1
 GAP=149        1.13       5.5     6.0 10.9  0.2957E+01  0.3618E+02  0.2303E+02E
 Epicentro: PIEDECUESTA - SANTANDER                                            3
 ACTION:UPD 16-07-21 22:22 OP:rebc STATUS:               ID:20160625072812 L   I
 OLDACT:UP  16-06-25 17:03 OP:ak   STATUS:               ID:20160625071747d    3
 OLDACT:DUP 16-06-25 16:58 OP:ak   STATUS:               ID:20160625071747d    3
 OLDACT:DUP 16-06-25 16:46 OP:ak   STATUS:               ID:20160625071746d    3
 2016-06-25-0717-45M.COL___321                                                 6
 STAT SP IPHASW D HRMM SECON CODA AMPLIT PERI AZIMU VELO AIN AR TRES W  DIS CAZ7
 PAM  EN ES        728 48.80                             155   -0.6110 63.3  34 
 BRR  HN ES        728 50.57                             148    0.6310 80.6 289 
 RUS  HZ EP   2    728 36.70                             140    0.54 5  108 184 
 RUS  HE ES        728 55.20                             140    0.5410  108 184 
 RUS  HZ I         728 56.71         2.0 0.21                           108 184 
 PTB  HZ EP        728 40.34                             128    0.02 9  162 257 
 PTB  HN ES        729  1.40                             128   -0.65 9  162 257 
 PTB  HZ I         729  4.32         2.3 0.18                           162 257 
 SPBC HZ EP        728 42.07                             125    0.18 9  178 221 
 SPBC HN ES        729  4.47                             125   -0.39 9  178 221 
 SPBC HZ I         729  9.97         3.2 0.12                           178 221 
 ZAR  HN ES        729 11.69                             120    0.31 8  214 289 
 NOR  HE ES        729 17.67                             115   -0.73 8  250 235 
 HEL  HN ES        729 26.86                             112    0.39 7  287 255 
 GUY2CHN ES        729 32.75                             110    0.07 7  316 235 
                                                                                
