 2012 1025 0624 24.5 L   6.829 -73.092139.6  RSN  6 0.4 2.2LRSN                1
 GAP=163        0.65       7.2     5.7  8.0  0.1161E+02  0.2785E+01 -0.1928E+02E
 Epicentro: LOS SANTOS - SANTANDER                                             3
 ACTION:UPD 12-11-22 17:05 OP:ep   STATUS:               ID:20121025062424 L   I
 2012-10-25-0620-00M.COL___234                                                 6
 STAT SP IPHASW D HRMM SECON CODA AMPLIT PERI AZIMU VELO AIN AR TRES W  DIS CAZ7
 BAR2 SZ EP        624 43.32                             168   -0.2010 28.0 201 
 BAR2 SZ ES   1    624 58.05                             168   -0.30 7 28.0 201 
 BAR2 SZ I         624 58.96        20.5 0.23                          28.0 201 
 GIR2 SZ EP   1    624 43.45                             167    0.02 7 29.8 338 
 PAM  SZ EP   1    624 46.33                             151    0.61 7 71.2  38 
 PAM  SN I         625  4.29        27.5 0.29                          71.2  38 
 BRR  HZ EP   1    624 45.26                             150    0.02 7 75.1 294 
 BRR  HN ES   2    625  1.98                             150    0.57 5 75.1 294 
 BRR  HN I         625  6.23        43.7 0.14                          75.1 294 
 OCA  HN ES   2    625 13.01                             128   -0.68 5  158 351 
 OCA  HN I         625 14.20        46.9 0.18                           158 351 
 ZAR  HZ EP   1    624 56.97                             120   -0.06 6  208 291 
 ZAR  HN ES   1    625 22.47                             120    0.08 6  208 291 
 ZAR  HN I         625 23.86        11.8 0.14                           208 291 
                                                                                
