 2012  125 0435 21.1 L   6.379 -73.672 99.5  RSN  7 0.2 1.1LRSN                1
 GAP= 82        0.44       2.6     2.3  4.9  0.1314E+01  0.1208E+01  0.1184E+01E
 Epicentro: SANTA HELENA DEL OPON - SANTANDER                                  3
 ACTION:UP  12-02-03 08:20 OP:REBC STATUS:               ID:20120125043521 L   I
 2012-01-25-0430-00M.COL___188                                                 6
 STAT SP IPHASW D HRMM SECON CODA AMPLIT PERI AZIMU VELO SNR AR TRES W  DIS CAZ7
 BAR2 SZ EP        435 37.21                             147     0.210   59  66 
 BAR2 SZ I         435 37.56         8.4 0.10                            59  66 
 BAR2 SZ ES   2    435 49.35                             147     0.0 5   59  66 
 BRR  HZ EP        435 38.25                             138     0.010   81 357 
 BRR  HZ I         435 46.85         4.2 0.40                            81 357 
 BRR  HN ES   2    435 51.53                             138    -0.1 5   81 357 
 RUS  HZ EP   1    435 39.25                             137     0.0 7   85 129 
 RUS  HE ES   1    435 53.21                             137    -0.2 7   85 129 
 RUS  HZ I         435 55.71         3.5 0.31                            85 129 
 PTB  HZ EP        435 38.84                             135    -0.110   89 282 
 PTB  HN ES   1    435 53.01                             135     0.1 7   89 282 
 PTB  HZ I         435 55.50         1.9 0.12                            89 282 
 GIR2 SZ EP        435 39.49                             134    -0.110   94  34 
 CHI  HZ EP   1    435 50.55                             113     0.2 6  194 182 
 CHI  HZ I         436 22.11         1.1 0.59                           194 182 
 HEL  HZ EP   3    435 51.03                             112    -0.7 2  206 264 
                                                                                
