 2017 1025 0007  7.4 L   6.816 -73.140146.0  RSN 11 0.5 1.7LRSN                1
 GAP=112        1.09       3.6     3.7  5.8  0.1065E+01  0.5071E+01  0.5119E+01E
 Epicentro: LOS SANTOS - SANTANDER                                             3
 ACTION:UPD 17-11-07 19:36 OP:rebc STATUS:               ID:20171025000707 L   I
 OLDACT:UP  17-10-25 13:56 OP:edw  STATUS:               ID:20171024235959     3
 OLDACT:REG 17-10-25 12:34 OP:dani STATUS:               ID:20171024235959     3
 2017-10-25-0000-15M.COL___455                                                 6
 STAT SP IPHASW D HRMM SECON CODA AMPLIT PERI AZIMU VELO AIN AR TRES W  DIS CAZ7
 BAR2 EZ EP        0 7 26.88                             170   -0.2510 25.1 191 
 BAR2 EZ ES        0 7 42.16                             170   -0.3310 25.1 191 
 BAR2 EZ I         0 7 44.57        12.6 0.38            169           25.1 191 
 BRR  HZ EP        0 7 28.59                             153   -0.0010 70.9 297 
 BRR  HN ES        0 7 45.87                             153    0.7710 70.9 297 
 BRR  HZ I         0 7 49.53         7.8 0.36            153           70.9 297 
 PAM  EZ EP        0 7 29.53                             151   -0.0510 75.7  40 
 PAM  EN ES        0 7 46.83                             151   -0.0210 75.7  40 
 PAM  EZ I         0 7 48.30         6.5 0.22            155           75.7  40 
 RUS  HZ EP        0 7 30.94                             143   -0.3910  102 176 
 RUS  HN ES        0 7 49.94                             143   -0.0310  102 176 
 RUS  HZ I         0 7 51.63         4.0 0.28            144            102 176 
 PTB  HZ EP        0 7 33.83                             132   -0.67 9  149 258 
 PTB  HE ES        0 7 55.63                             132    0.01 9  149 258 
 PTB  HZ I         0 7 57.44         8.3 0.40            133            149 258 
 SPBC HZ EP        0 7 36.01                             129   -0.10 9  165 219 
 SPBC HN ES        0 7 57.86                             129   -0.62 9  165 219 
 YPLC HZ EP        0 7 37.22                             127   -0.15 9  178 152 
 YPLC HN ES        0 8  1.49                             127    0.78 9  178 152 
 YPLC HZ I         0 8  4.01         6.7 0.24            129            178 152 
 ZAR  HZ EP        0 7 40.07                             122    0.19 9  204 292 
 ZAR  HE ES        0 8  5.38                             122    0.19 9  204 292 
 ZAR  HZ I         0 8 10.84         6.7 0.32            124            204 292 
 NOR  HZ EP        0 7 42.82                             118   -0.52 8  236 234 
 NOR  HN ES        0 8 11.07                             118   -0.27 8  236 234 
 NOR  HZ I         0 8 14.44         5.0 0.18            120            236 234 
 CHI  HZ EP        0 7 45.39                             117    0.05 8  250 195 
 CHI  HE ES        0 8 15.55                             117    0.64 8  250 195 
 CHI  HZ I         0 8 22.82         1.7 0.42            119            250 195 
 GUY2CHZ EP        0 7 52.44                             112    1.22 7  303 235 
 GUY2CHN ES        0 8 25.70                             112    0.33 7  303 235 
 GUY2CHZ I         0 8 33.61         3.0 0.34                           303 235 
                                                                                
