 2013  625 0835  9.2 L   6.794 -73.134146.0  RSN 11 0.5 1.7LRSN                1
 GAP=138        1.26       4.2     5.3  8.4 -0.9931E-01  0.1141E+02  0.1204E+01E
 Epicentro: LOS SANTOS - SANTANDER                                             3
 ACTION:UPD 14-01-08 09:57 OP:ep   STATUS:               ID:20130625083509 L   I
 OLDACT:REG 13-06-25 06:49 OP:jn   STATUS:               ID:20130625082959     3
 2013-06-25-0829-59M.COL___267                                                 6
 STAT SP IPHASW D HRMM SECON CODA AMPLIT PERI AZIMU VELO AIN AR TRES W  DIS CAZ7
 BAR2 SZ EP     D  835 28.96                             171    0.1510 22.9 194 
 BAR2 SZ ES        835 44.22                             171    0.0810 22.9 194 
 BAR2 SZ I         835 45.19        17.0 0.14            172           22.9 194 
 GIR2 SZ EP        835 28.90                             167    0.0110 32.2 348 
 BRR  HZ EP        835 30.86                             152    0.4410 72.7 298 
 BRR  HN ES        835 47.93                             152    0.9310 72.7 298 
 BRR  HZ I         835 48.84        11.0 0.11            150           72.7 298 
 PAM  SZ EP        835 31.91                             151    0.5310 77.1  38 
 PAM  SN ES        835 47.86                             151   -0.8610 77.1  38 
 PAM  SZ I         835 51.04         7.9 0.54            152           77.1  38 
 RUS  HZ EP        835 32.88                             144   -0.0010 99.8 177 
 RUS  HN ES        835 51.48                             144    0.1010 99.8 177 
 PTB  HZ EP        835 35.45                             132   -0.81 9  149 259 
 PTB  HN ES        835 56.75                             132   -0.64 9  149 259 
 PTB  HZ I         835 59.95         7.3 0.12            132            149 259 
 OCA  HN ES   1    835 58.86                             130   -0.87 7  161 353 
 OCA  HZ I         836  2.48         3.7 0.20            130            161 353 
 ZAR  HZ EP   1    835 42.15                             122    0.37 6  206 292 
 ZAR  HE ES        836  7.40                             122    0.18 8  206 292 
 ZAR  HZ I         836 13.29         5.7 0.30            122            206 292 
 NOR  HN ES   1    836 12.27                             118   -0.65 6  235 235 
 SML  HE ES   1    836 14.99                             117    0.38 6  245 335 
 CHI  HN ES        836 16.40                             117    0.17 8  248 196 
                                                                                
