 2017  925 0109 20.3 L   6.550 -73.514135.6  RSN  5 0.4 1.1LRSN                1
 GAP=158        0.99       7.2     7.7  8.3  0.3738E+02  0.4766E+01 -0.3117E+01E
 Epicentro: EL CARMEN - SANTANDER                                              3
 ACTION:UPD 17-10-05 19:15 OP:rebc STATUS:               ID:20170925010920 L   I
 OLDACT:REG 17-09-25 12:33 OP:edw  STATUS:               ID:20170925010744     3
 2017-09-25-0108-00M.COL___411                                                 6
 STAT SP IPHASW D HRMM SECON CODA AMPLIT PERI AZIMU VELO AIN AR TRES W  DIS CAZ7
 BAR2 EZ ES        1 9 53.06                             164   -0.6710 36.9  83 
 BAR2 EZ I         1 9 53.58         4.1 0.64            165           36.9  83 
 BRR  HZ EP        1 9 39.92                             153   -0.1010 65.4 340 
 BRR  HN ES        1 9 55.90                             153    0.5010 65.4 340 
 RUS  HZ EP        1 9 41.91                             146   -0.1710 86.9 147 
 RUS  HN ES        1 9 59.47                             146    0.4110 86.9 147 
 RUS  HZ I         110  1.51         2.1 0.60            145           86.9 147 
 PAM  EZ EP        1 9 45.27                             135    0.2010  125  46 
 ZAR  HN ES        110 12.54                             123   -0.19 9  181 305 
                                                                                
