 2014  225 0908  1.7 L   6.809 -73.188139.8  RSN  6 0.2 1.2LRSN                1
 GAP=131        0.67       3.3     4.0  4.7 -0.3131E+01  0.4168E+01 -0.1818E+01E
 Epicentro: ZAPATOCA - SANTANDER                                               3
 ACTION:UPD 14-03-10 08:13 OP:ep   STATUS:               ID:20140225090801 L   I
 OLDACT:DUP 14-02-25 10:37 OP:stll STATUS:               ID:20140225085810d    3
 2014-02-25-0858-05M.COL___220                                                 6
 STAT SP IPHASW D HRMM SECON CODA AMPLIT PERI AZIMU VELO AIN AR TRES W  DIS CAZ7
 BAR2 SZ EP        9 8 20.79                             170    0.1110 24.0 179 
 BAR2 SZ ES        9 8 35.78                             170    0.3410 24.0 179 
 BAR2 SZ I         9 8 37.38         7.7 0.28            170           24.0 179 
 PAM  SZ EP        9 8 23.84                             149    0.3610 79.7  43 
 PAM  SN ES        9 8 40.05                             149   -0.3810 79.7  43 
 PAM  SZ I         9 8 43.57         2.8 0.36            149           79.7  43 
 RUS  HZ EP        9 8 24.71                             142   -0.3210  102 173 
 RUS  HN ES        9 8 43.13                             142   -0.0510  102 173 
 RUS  HZ I         9 8 45.68         1.7 0.38            143            102 173 
 PTB  HN ES        9 8 48.06                             131   -0.12 9  143 258 
 SML  HZ EP        9 8 37.74                             116    0.00 8  241 336 
 CHI  HZ EP        9 8 39.16                             116    0.06 8  248 194 
 CHI  HZ I         9 8 39.74         1.1 0.40            117            248 194 
                                                                                
