 2015  425 0321 43.1 L   6.790 -73.154144.4  RSN  8 0.4 1.6LRSN                1
 GAP=136        0.92       3.5     4.0  6.4 -0.6599E+00  0.8062E+01 -0.4352E+01E
 Epicentro: LOS SANTOS - SANTANDER                                             3
 ACTION:UPD 15-06-03 16:57 OP:cam  STATUS:               ID:20150425032143 L   I
 OLDACT:REG 15-04-25 14:00 OP:ak   STATUS:               ID:20150425031748     3
 2015-04-25-0317-48M.COL___271                                                 6
 STAT SP IPHASW D HRMM SECON CODA AMPLIT PERI AZIMU VELO AIN AR TRES W  DIS CAZ7
 BAR2 EZ EP   1    322  2.54                             171    0.03 7 22.1 188 
 BAR2 EZ ES        322 17.38                             171   -0.3010 22.1 188 
 BAR2 EZ I         322 19.63         9.4 0.14            170           22.1 188 
 BRR  HZ IP     D  322  4.38                             152    0.3310 70.9 300 
 BRR  HN ES        322 21.03                             152    0.6110 70.9 300 
 BRR  HZ I         322 24.58         7.0 0.36            152           70.9 300 
 PAM  SZ EP        322  5.48                             150    0.2510 78.8  40 
 PAM  SN ES        322 22.55                             150    0.0410 78.8  40 
 PAM  SZ I         322 24.15         4.4 0.16            154           78.8  40 
 RUS  HZ EP   1    322  7.06                             144    0.45 7 99.6 175 
 RUS  HN ES        322 24.50                             144   -0.4810 99.6 175 
 RUS  HN I         322 26.99         9.1 0.20            146           99.6 175 
 PTB  HZ EP        322  9.66                             132   -0.16 9  147 259 
 PTB  HN ES        322 30.30                             132   -0.39 9  147 259 
 PTB  HZ I         322 31.75         3.5 0.28            133            147 259 
 SPBC HN ES        322 33.61                             129    0.24 9  162 219 
 SPBC HN I         322 38.33        10.6 0.24            131            162 219 
 ZAR  HZ EP        322 15.05                             122   -0.33 9  204 293 
 ZAR  HN ES        322 40.88                             122    0.30 9  204 293 
 ZAR  HZ I         322 46.36         4.1 0.40            124            204 293 
 SML  HE ES        322 47.57                             117   -0.67 8  244 336 
                                                                                
