 2017 1125 0917 33.0 L   6.803 -73.177143.6  RSN  4 0.2 1.4LRSN                1
 GAP=143        0.55       3.4     3.2  4.7 -0.3373E+01  0.4134E+01 -0.1486E+01E
 Epicentro: LOS SANTOS - SANTANDER                                             3
 ACTION:UPD 17-12-12 19:59 OP:rebc STATUS:               ID:20171125091733 L   I
 OLDACT:DUP 17-11-25 15:51 OP:y    STATUS:               ID:20171125090739d    3
 OLDACT:UP  17-11-25 15:49 OP:y    STATUS:               ID:20171125090738     3
 OLDACT:REG 17-11-25 13:42 OP:osc  STATUS:               ID:20171125090738     3
 2017-11-25-0908-00M.COL___480                                                 6
 STAT SP IPHASW D HRMM SECON CODA AMPLIT PERI AZIMU VELO AIN AR TRES W  DIS CAZ7
 BAR2 EZ EP        917 52.25                             170   -0.1210 23.3 181 
 BAR2 EZ ES        918  7.51                             170    0.0410 23.3 181 
 BAR2 EZ I         918  9.07        16.0 0.18            171           23.3 181 
 PAM  EZ EP        917 55.48                             150    0.3710 79.4  42 
 PAM  EN ES        918 12.15                             150   -0.2010 79.4  42 
 PAM  EZ I         918 14.55         5.6 0.54            153           79.4  42 
 RUS  HZ EP        917 56.58                             143   -0.0110  101 174 
 RUS  HN ES        918 15.00                             143    0.0210  101 174 
 RUS  HZ I         918 16.10         2.0 0.40            147            101 174 
 PTB  HZ EP        917 59.21                             132   -0.28 9  144 258 
 PTB  HN ES        918 20.32                             132    0.17 9  144 258 
 PTB  HZ I         918 25.83         2.5 0.38            133            144 258 
                                                                                
