 2012 1125 0456  6.5 L   6.792 -73.168144.3  RSN  4 0.2 1.4LRSN                1
 GAP=276        0.49       6.4     4.7  5.1  0.1227E+02  0.5018E+01 -0.4268E+00E
 Epicentro: LOS SANTOS - SANTANDER                                             3
 ACTION:UPD 12-12-05 15:36 OP:}ep  STATUS:               ID:20121125045606 L   I
 2012-11-25-0450-00M.COL___233                                                 6
 STAT SP IPHASW D HRMM SECON CODA AMPLIT PERI AZIMU VELO AIN AR TRES W  DIS CAZ7
 BAR2 SZ EP        456 25.93                             171    0.0410 22.1 184 
 BAR2 SZ ES   1    456 40.76                             171   -0.29 7 22.1 184 
 BAR2 SZ I         456 42.52        10.1 0.16                          22.1 184 
 RUS  HZ EP   1    456 30.31                             144    0.29 7 99.9 175 
 RUS  HN ES   1    456 48.53                             144    0.14 7 99.9 175 
 RUS  HN I         456 49.94         4.1 0.26                          99.9 175 
 PTB  HZ EP        456 33.09                             132    0.01 9  145 259 
 PTB  HN ES   1    456 53.91                             132    0.07 7  145 259 
 PTB  HZ I         456 56.84         1.5 0.17                           145 259 
 CHI  HZ EP   1    456 43.47                             117   -0.45 6  247 195 
                                                                                
