 2012  725 0757  5.8 L   6.732 -73.186142.0  RSN  4 0.5 1.2LRSN                1
 GAP=228        0.78      10.1    12.1 11.2  0.6554E+02 -0.7838E+01 -0.8556E+01E
 Epicentro: VILLANUEVA - SANTANDER                                             3
 ACTION:UPD 12-08-14 11:45 OP:ep   STATUS:               ID:20120725075705 L   I
 2012-07-25-0750-00M.COL___215                                                 6
 STAT SP IPHASW D HRMM SECON CODA AMPLIT PERI AZIMU VELO AIN AR TRES W  DIS CAZ7
 BAR2 SZ ES   2    757 38.77                             173    -0.9 5   16 179 
 BRR  HZ EP        757 26.40                             152    -0.110   71 305 
 BRR  HN ES   1    757 43.19                             152     0.5 7   71 305 
 BRR  HZ I         757 45.23         4.3 0.44            150             71 305 
 RUS  HZ EP   2    757 28.99                             145     0.3 5   94 173 
 RUS  HN ES   2    757 46.93                             145     0.4 5   94 173 
 PTB  HZ EP   3    757 31.61                             132    -0.3 2  142 261 
 PTB  HN ES   2    757 51.98                             132    -0.3 5  142 261 
 PTB  HZ I         757 54.33         1.3 0.12            132            142 261 
