 2014 1025 0939  0.1 L   6.796 -73.150134.9  RSN  8 0.4 1.8LRSN                1
 GAP=136        1.13       3.4     5.3  6.8 -0.4098E+01  0.3361E+01  0.1919E+01E
 Epicentro: LOS SANTOS - SANTANDER                                             3
 ACTION:UPD 14-11-29 23:56 OP:nd   STATUS:               ID:20141025093900 L   I
 OLDACT:REG 14-10-28 14:09 OP:cam  STATUS:               ID:20141025093816     3
 2014-10-25-0938-16M.COL___283                                                 6
 STAT SP IPHASW D HRMM SECON CODA AMPLIT PERI AZIMU VELO AIN AR TRES W  DIS CAZ7
 BAR2 SZ EP        939 18.19                             170   -0.2410 22.8 189 
 BAR2 SZ ES        939 31.97                             170   -0.7510 22.8 189 
 BAR2 SZ I         939 34.32        15.0 0.18            170           22.8 189 
 BRR  HZ EP        939 20.43                             151    0.3410 71.0 299 
 BRR  HN ES        939 36.21                             151    0.5410 71.0 299 
 BRR  HZ I         939 41.53        13.6 0.46            151           71.0 299 
 PAM  SZ IP     D  939 21.34                             148    0.1110 78.1  40 
 PAM  SN ES        939 38.10                             148    0.4010 78.1  40 
 PAM  SZ I         939 40.45        15.9 0.60            151           78.1  40 
 RUS  HZ EP        939 22.72                             142   -0.0610  100 176 
 RUS  HN ES        939 40.77                             142    0.3110  100 176 
 RUS  HZ I         939 41.55         6.6 0.24            144            100 176 
 PTB  HZ EP        939 26.22                             129    0.05 9  147 259 
 PTB  HN ES        939 46.15                             129   -0.34 9  147 259 
 PTB  HZ I         939 49.22         9.2 0.26            131            147 259 
 OCA  HZ EP        939 28.09                             127    0.44 9  161 353 
 OCA  HN ES        939 48.25                             127   -0.87 9  161 353 
 OCA  HZ I         939 51.65        12.1 0.34            129            161 353 
 SPBC HE ES        939 49.79                             127    0.51 9  163 219 
 CHI  HZ EP        939 36.72                             115   -0.45 8  248 195 
 CHI  HN ES        940  5.79                             115   -0.28 8  248 195 
 CHI  HN I         940 11.90         5.5 0.54            117            248 195 
                                                                                
