 2011  225 0551  7.2 L   6.802 -73.249131.6  RSN  8 0.4 2.4LRSN                1
 GAP=141        0.89       3.6     8.0  8.3 -0.9911E+01  0.3275E+02 -0.4950E+01E
 Epicentro: ZAPATOCA - SANTANDER                                               3
 ACTION:UP  11-03-28 15:11 OP:jfem STATUS:               ID:20110225055107 L   I
 2011-02-25-0549-31S.COL___137                                                 6
 STAT SP IPHASW D HRMM SECON CODA AMPLIT PERI AZIMU VELO SNR AR TRES W  DIS CAZ7
 BAR2 SZ IP        551 25.20                             169     0.110   24 163 
 BAR2 SZ ES   1    551 39.39                             169     0.3 7   24 163 
 BAR2 SZ I         551 41.41        76.6 0.19                            24 163 
 RUS  HZ EP        551 29.17                             140    -0.510  102 170 
 RUS  HN ES   1    551 47.38                             140     0.1 7  102 170 
 RUS  HZ I         551 48.89        29.4 0.21                           102 170 
 GRA  SZ IP        551 32.05                             133     0.510  129  22 
 GRA  SZ ES   1    551 50.26                             133    -0.3 7  129  22 
 GRA  SZ I         551 52.72        44.2 0.40                           129  22 
 OCA  SZ EP   1    551 33.75                             126    -0.6 7  159 357 
 OCA  SZ ES   1    551 55.36                             126    -0.1 7  159 357 
 OCA  SZ I         551 58.67        52.9 0.23                           159 357 
 CHI  HZ EP   1    551 43.82                             114     0.0 6  246 193 
 CHI  HN ES   2    552 12.54                             114     0.1 4  246 193 
 CHI  HZ I         552 20.03        12.8 0.50                           246 193 
 HEL  HN ES   2    552 14.95                             113    -0.4 4  261 255 
 HEL  HZ I         552 23.49        19.7 0.36                           261 255 
 RREF HZ EP   1    551 52.09                             109     0.3 5  313 228 
 RREF HN ES   2    552 26.37                             109    -0.2 3  313 228 
 RREF HZ I         552 34.32        12.1 0.12                           313 228 
 DBB  SZ EP   1    551 53.57                             107     0.8 5  328 274 
                                                                                
