 2014  125 0351 36.1 L   6.769 -73.142150.1  RSN  8 0.3 1.6LRSN                1
 GAP=138        0.77       2.8     3.8  4.8 -0.1414E+01  0.3574E+01 -0.1817E+01E
 Epicentro: LOS SANTOS - SANTANDER                                             3
 ACTION:UPD 14-03-13 09:58 OP:ep   STATUS:               ID:20140125035136 L   I
 OLDACT:REG 14-01-25 08:16 OP:nd   STATUS:               ID:20140125035000     3
 2014-01-25-0350-00M.COL___285                                                 6
 STAT SP IPHASW D HRMM SECON CODA AMPLIT PERI AZIMU VELO AIN AR TRES W  DIS CAZ7
 BAR2 SZ EP        351 55.98                             172   -0.1910 20.0 193 
 BAR2 SZ ES        352 11.64                             172   -0.2110 20.0 193 
 BAR2 SZ I         352 12.97        17.4 0.28            167           20.0 193 
 BRR  HZ EP        351 58.07                             153    0.2510 73.3 301 
 BRR  HN ES        352 15.01                             153    0.2410 73.3 301 
 BRR  HZ I         352 41.47        14.0 0.38            148           73.3 301 
 PAM  SZ EP        351 59.29                             151    0.3910 79.8  38 
 PAM  SN ES        352 16.24                             151   -0.4710 79.8  38 
 PAM  SZ I         352 19.05         3.5 0.44            157           79.8  38 
 RUS  HZ EP        352  0.30                             146    0.2810 97.1 176 
 RUS  HN ES        352 19.00                             146    0.3110 97.1 176 
 RUS  HZ I         352 20.26         3.2 0.24            154           97.1 176 
 PTB  HZ EP        352  3.12                             133   -0.27 9  148 260 
 PTB  HN ES        352 24.63                             133   -0.06 9  148 260 
 PTB  HZ I         352 29.32         3.6 0.12            134            148 260 
 SPBC HZ EP        352  4.16                             130   -0.53 9  161 220 
 SPBC HN ES        352 27.06                             130    0.05 9  161 220 
 SPBC HZ I         352 33.39         4.5 0.22            135            161 220 
 SML  HZ EP        352 13.23                             118   -0.08 8  247 336 
 SML  HN ES        352 42.56                             118    0.21 8  247 336 
 SML  HZ I         352 45.15         3.9 0.10            122            247 336 
 GUY2CHZ EP   4    352 21.61                             113    1.90 0  300 235 
 GUY2CHN ES   4    352 56.75                             113    3.01 0  300 235 
 GUY2CHZ I         353  1.63         1.7 0.38                           300 235 
                                                                                
