 2016  325 0033 21.9 L   6.758 -73.160141.8  RSN  5 0.3 1.4LRSN                1
 GAP=137        0.76       3.1     3.6  7.3 -0.7819E+00  0.9882E+01 -0.2277E+01E
 Epicentro: LOS SANTOS - SANTANDER                                             3
 ACTION:UPD 16-05-13 21:27 OP:cam  STATUS:               ID:20160325003321 L   I
 OLDACT:REG 16-03-25 13:56 OP:ak   STATUS:               ID:20160325002745     3
 2016-03-25-0027-45M.COL___308                                                 6
 STAT SP IPHASW D HRMM SECON CODA AMPLIT PERI AZIMU VELO AIN AR TRES W  DIS CAZ7
 PAM  EZ EP        033 44.19                             149    0.2110 82.0  38 
 PAM  EE ES        034  1.35                             149    0.1410 82.0  38 
 PAM  EZ I         034  3.27         2.4 0.78            152           82.0  38 
 RUS  HZ EP        033 44.95                             144    0.0210 96.0 175 
 RUS  HN ES        034  2.82                             144   -0.0710 96.0 175 
 RUS  HZ I         034  4.98         1.8 0.28            148           96.0 175 
 PTB  HZ EP        033 48.03                             132   -0.29 9  145 261 
 PTB  HN ES        034  8.87                             132   -0.06 9  145 261 
 PTB  HZ I         034 11.36         3.2 0.16            133            145 261 
 OCA  HZ EP   2    033 51.11                             128    0.78 5  165 354 
 OCA  HN ES        034 11.96                             128   -0.54 9  165 354 
 OCA  HZ I         034 13.31         6.2 0.38            131            165 354 
 ZAR  HZ EP        033 53.96                             121   -0.16 9  204 294 
 ZAR  HN ES        034 19.80                             121    0.55 9  204 294 
 ZAR  HZ I         034 25.25         3.1 0.13            123            204 294 
                                                                                
