 2012 1125 0503 32.3 L   6.772 -73.120145.3  RSN  5 0.1 1.5LRSN                1
 GAP=141        0.32       1.9     3.2  3.8  0.1967E+01 -0.8889E+00 -0.2401E+01E
 Epicentro: LOS SANTOS - SANTANDER                                             3
 ACTION:UPD 12-12-05 15:36 OP:}ep  STATUS:               ID:20121125050332 L   I
 2012-11-25-0500-00M.COL___233                                                 6
 STAT SP IPHASW D HRMM SECON CODA AMPLIT PERI AZIMU VELO AIN AR TRES W  DIS CAZ7
 BAR2 SZ EP        5 3 51.84                             171    0.0010 21.0 199 
 BAR2 SZ ES   1    5 4  6.99                             171   -0.07 7 21.0 199 
 BAR2 SZ I         5 4  8.04        14.1 0.14                          21.0 199 
 PAM  SZ EP   1    5 3 54.72                             150    0.20 7 78.1  37 
 RUS  HZ EP        5 3 55.73                             145   -0.0510 97.3 178 
 RUS  HE ES   1    5 4 14.14                             145    0.05 7 97.3 178 
 RUS  HE I         5 4 15.28         2.8 0.18                          97.3 178 
 OCA  HZ EP   1    5 4  0.74                             129   -0.17 7  164 352 
 OCA  HN ES   1    5 4 23.19                             129   -0.02 7  164 352 
 ZAR  HN ES   1    5 4 30.77                             122    0.07 6  208 293 
 ZAR  HZ I         5 4 35.56         2.8 0.09                           208 293 
                                                                                
