 2010  325 0535 34.8 L   6.726 -74.026 82.6  RSN  4 0.1 1.3LRSN                1
 GAP=149        0.33       5.7     6.4  9.7  0.2929E+02  0.4817E+02  0.4525E+02E
 Epicentro: PUERTO PARRA - SANTANDER                                           3
 ACTION:UP  10-08-24 09:55 OP:vdl  STATUS:               ID:20100325053534 L   I
 2010-03-25-0532-36S.COL___098                                                 6
 STAT SP IPHASW D HRMM SECON CODA AMPLIT PERI AZIMU VELO SNR AR TRES W  DIS CAZ7
 BRR  HZ EP        535 48.20                             143    -0.110   55  39 
 BRR  HE ES   2    535 58.96                             143     0.2 5   55  39 
 BRR  HZ I         536  0.07        13.5 0.10                            55  39 
 BAR2 SZ EP        535 52.16                             127     0.110   94  99 
 BAR2 SZ ES   1    536  5.54                             127     0.0 7   94  99 
 RUS  HZ EP   1    535 57.22                             116     0.1 7  139 131 
 RUS  HN ES   2    536 14.48                             116    -0.1 5  139 131 
 RUS  HZ I         536 16.45         2.3 0.09                           139 131 
 HEL  HZ EP   3    536  1.33                             110     0.1 2  176 250 
 HEL  HZ I         536 27.41         2.0 0.23                           176 250 
                                                                                
