 2016  125 0345 38.3 L   6.767 -73.102148.1  RSN  9 0.3 2.3LRSN                1
 GAP=144        0.66       2.6     2.9  4.3 -0.1139E+01  0.3771E+01  0.1015E+01E
 Epicentro: LOS SANTOS - SANTANDER                                             3
 ACTION:UPD 16-03-09 23:28 OP:cam  STATUS:               ID:20160125034538 L   I
 OLDACT:DUP 16-01-25 16:31 OP:cara STATUS:               ID:20160125033743d    3
 OLDACT:REG 16-01-25 14:39 OP:cara STATUS:               ID:20160125033742     3
 2016-01-25-0337-42M.COL___334                                                 6
 STAT SP IPHASW D HRMM SECON CODA AMPLIT PERI AZIMU VELO AIN AR TRES W  DIS CAZ7
 BAR2 EZ IP     C  345 57.98                             171   -0.1910 21.3 205 
 BAR2 EZ ES        346 13.73                             171    0.0610 21.3 205 
 BAR2 EZ I         346 14.91        37.7 0.32            168           21.3 205 
 PAM  EZ IP     C  346  0.77                             151    0.0110 77.3  35 
 PAM  EN ES        346 18.20                             151   -0.0810 77.3  35 
 PAM  EZ I         346 19.98        17.5 0.44            155           77.3  35 
 RUS  HZ EP        346  1.92                             145   -0.0910 96.7 179 
 RUS  HN ES        346 20.78                             145    0.2810 96.7 179 
 RUS  HZ I         346 21.82        23.7 0.26            146           96.7 179 
 PTB  HZ EP   4    346  4.55                             132   -1.28 0  152 261 
 PTB  HN ES        346 27.19                             132   -0.12 9  152 261 
 PTB  HZ I         346 31.18        25.2 0.18            131            152 261 
 SPBC HZ EP        346  6.91                             129   -0.10 9  164 221 
 SPBC HN ES        346 28.98                             129   -0.42 9  164 221 
 SPBC HZ I         346 33.06        42.2 0.18            129            164 221 
 ZAR  HZ EP        346 12.07                             122    0.56 8  210 293 
 ZAR  HE ES        346 37.51                             122    0.10 8  210 293 
 ZAR  HZ I         346 43.06        46.6 0.30            122            210 293 
 NOR  HZ EP        346 13.83                             119   -0.54 8  237 236 
 NOR  HE ES        346 42.73                             119    0.22 8  237 236 
 NOR  HZ I         346 49.86        16.6 0.36            119            237 236 
 CHI  HZ EP        346 15.98                             118    0.09 8  246 196 
 CHI  HE ES        346 45.57                             118    0.36 8  246 196 
 CHI  HZ I         346 51.26         7.7 0.26            119            246 196 
 GUY2CHZ EP   4    346 24.02                             113    1.78 0  303 236 
 GUY2CHE ES   4    346 59.66                             113    3.16 0  303 236 
 GUY2CHZ I         347  5.60        11.0 0.74                           303 236 
                                                                                
