 2011  225 0641 10.8 L   7.517 -73.197154.9  RSN  5 0.3 1.4LRSN                1
 GAP=129        0.64       4.0    11.6  8.1 -0.3745E+01  0.1469E+02  0.7023E+01E
 Epicentro: EL PLAYON - SANTANDER                                              3
 ACTION:UP  11-03-28 15:11 OP:jfem STATUS:               ID:20110225064110 L   I
 2011-02-25-0638-07S.COL___137                                                 6
 STAT SP IPHASW D HRMM SECON CODA AMPLIT PERI AZIMU VELO SNR AR TRES W  DIS CAZ7
 GRA  SZ EP        641 32.90                             158     0.310   59  47 
 GRA  SZ ES   2    641 48.94                             158    -0.6 5   59  47 
 GRA  SZ I         641 50.96         4.6 0.30                            59  47 
 OCA  SZ EP   2    641 33.61                             151    -0.1 5   81 350 
 OCA  SZ ES   1    641 51.53                             151     0.0 7   81 350 
 OCA  SZ I         641 53.20         4.2 0.13                            81 350 
 BAR2 SZ EP   1    641 34.92                             145    -0.3 7  102 179 
 BAR2 SZ I         641 35.28         5.5 0.04                           102 179 
 BAR2 SZ ES   1    641 54.37                             145     0.1 7  102 179 
 RUS  HZ EP   2    641 41.67                             128    -0.4 4  180 176 
 RUS  HZ I         641 42.24         2.3 0.15                           180 176 
 RUS  HE ES   2    642  6.65                             128     0.1 4  180 176 
 HEL  HZ EP   2    641 54.08                             114    -0.1 4  297 240 
 HEL  HZ I         642 36.13         1.4 0.46                           297 240 
                                                                                
