 2015  125 0950  7.5 L   6.812 -73.162145.9  RSN  4 0.1 1.0LRSN                1
 GAP=143        0.34       2.7     2.2  3.5 -0.2033E+01  0.1850E+01 -0.1463E+01E
 Epicentro: LOS SANTOS - SANTANDER                                             3
 ACTION:UPD 15-03-02 15:42 OP:nd   STATUS:               ID:20150125095007 L   I
 OLDACT:DUP 15-01-25 18:27 OP:spq  STATUS:               ID:20150125094743d    3
 2015-01-25-0947-42M.COL___271                                                 6
 STAT SP IPHASW D HRMM SECON CODA AMPLIT PERI AZIMU VELO AIN AR TRES W  DIS CAZ7
 BAR2 EZ EP   1    950 27.36                             170    0.15 7 24.4 185 
 BAR2 EZ ES   1    950 42.44                             170   -0.11 7 24.4 185 
 BAR2 EZ I         950 43.64         3.6 0.14            172           24.4 185 
 PAM  SZ EP        950 29.85                             151    0.0710 77.6  41 
 PAM  SN ES   1    950 47.07                             151   -0.05 7 77.6  41 
 PAM  SZ I         950 49.42         1.9 0.60            153           77.6  41 
 RUS  HZ EP   1    950 31.37                             143   -0.04 7  102 175 
 RUS  HN ES   1    950 50.05                             143    0.02 7  102 175 
 RUS  HZ I         950 51.40         1.2 0.46            146            102 175 
 PTB  HZ EP        950 34.21                             132   -0.17 9  146 258 
 PTB  HE ES        950 55.41                             132    0.10 9  146 258 
 PTB  HZ I         950 58.18         1.4 0.20            134            146 258 
                                                                                
