 2017  425 0540 20.6 L   6.701 -73.142155.8  RSN  6 0.3 1.3LRSN                1
 GAP=166        0.60       7.4     4.0  5.6 -0.4688E+01 -0.7598E+00 -0.1122E+02E
 Epicentro: VILLANUEVA - SANTANDER                                             3
 ACTION:UPD 17-05-30 21:15 OP:jn   STATUS:               ID:20170425054020 L   I
 OLDACT:UP  17-04-25 14:23 OP:and  STATUS:               ID:20170425053740d    3
 OLDACT:UP  17-04-25 14:22 OP:and  STATUS:               ID:20170425053740d    3
 OLDACT:DUP 17-04-25 14:20 OP:and  STATUS:               ID:20170425053740d    3
 2017-04-25-0538-00M.COL___367                                                 6
 STAT SP IPHASW D HRMM SECON CODA AMPLIT PERI AZIMU VELO AIN AR TRES W  DIS CAZ7
 BAR2 EZ EP   2    540 41.43                             176    0.15 5 12.8 200 
 BAR2 EZ ES        540 57.49                             176    0.0710 12.8 200 
 BAR2 EZ I         540 59.21         3.9 0.38            169           12.8 200 
 BRR  HZ EP        540 43.25                             152    0.0710 77.4 306 
 BRR  HN ES        541  1.08                             152    0.2810 77.4 306 
 PAM  EZ EP        540 44.15                             150   -0.2510 85.9  35 
 PTB  HZ EP   2    540 48.75                             135    0.47 5  146 263 
 PTB  HN ES        541  9.44                             135   -0.44 9  146 263 
 PTB  HZ I         541 14.97         2.3 0.48            133            146 263 
 SPBC HN ES   3    541 12.21                             133    0.79 2  155 222 
 ZAR  HZ EP   2    540 53.96                             124   -0.24 4  209 295 
 ZAR  HN ES   2    541 20.76                             124    0.36 4  209 295 
                                                                                
