 2016  725 0746  9.1 L   6.769 -73.121138.6  RSN  6 0.4 1.9LRSN                1
 GAP=141        0.99       4.0     4.8  6.6 -0.1214E+00  0.9154E+01  0.4966E+00E
 Epicentro: LOS SANTOS - SANTANDER                                             3
 ACTION:UPD 17-03-29 16:54 OP:lp   STATUS:               ID:20160725074609 L   I
 OLDACT:REG 16-07-25 14:42 OP:edw  STATUS:               ID:20160725073759     3
 2016-07-25-0737-59S.COL___331                                                 6
 STAT SP IPHASW D HRMM SECON CODA AMPLIT PERI AZIMU VELO AIN AR TRES W  DIS CAZ7
 BAR2 EZ EP        746 27.74                             171   -0.0310 20.7 199 
 BAR2 EZ ES        746 41.76                             171   -0.6010 20.7 199 
 BRR  HZ EP        746 29.56                             150   -0.1110 75.2 300 
 BRR  HE ES        746 46.51                             150    0.7610 75.2 300 
 BRR  HZ I         746 50.84         8.6 0.16            149           75.2 300 
 PAM  EZ EP        746 30.73                             149    0.1510 78.4  36 
 PAM  HN ES        746 47.07                             149   -0.2910 78.4  36 
 PAM  EZ I         746 49.53        22.2 0.44            154           78.4  36 
 RUS  HZ EP        746 31.91                             143    0.0710 97.0 177 
 RUS  HE ES        746 50.16                             143    0.5410 97.0 177 
 RUS  HZ I         746 52.06         9.2 0.38            146           97.0 177 
 SPBC HZ EP        746 36.74                             127   -0.19 9  162 220 
 SPBC HE ES        746 58.35                             127   -0.31 9  162 220 
 SPBC HZ I         747  3.86        10.6 0.32            129            162 220 
 ZAR  HZ EP        746 41.68                             120    0.24 8  208 293 
 ZAR  HN ES        747  6.37                             120   -0.33 8  208 293 
 ZAR  HZ I         747 11.47         7.3 0.34            122            208 293 
                                                                                
