 2016  925 0225 17.2 L   6.776 -73.459119.4  RSN  5 0.4 1.5LRSN                1
 GAP=161        1.00       6.7     5.6  8.3  0.1926E+02  0.1162E+02  0.1341E+02E
 Epicentro: EL CARMEN - SANTANDER                                              3
 ACTION:UPD 17-08-17 21:16 OP:lp   STATUS:               ID:20160925022517 L   I
 OLDACT:DUP 16-09-25 14:36 OP:ar   STATUS:               ID:20160925021744d    3
 OLDACT:UP  16-09-25 14:35 OP:ar   STATUS:               ID:20160925021743     3
 OLDACT:REG 16-09-25 13:02 OP:ar   STATUS:               ID:20160925021743     3
 2016-09-25-0218-00M.COL___330                                                 6
 STAT SP IPHASW D HRMM SECON CODA AMPLIT PERI AZIMU VELO AIN AR TRES W  DIS CAZ7
 BAR2 HZ EP        225 33.96                             162   -0.1210 36.7 124 
 BAR2 HZ ES        225 46.72                             162   -0.5410 36.7 124 
 BAR2 HZ I         225 47.96        28.0 0.38            165           36.7 124 
 BRR  HZ EP        225 33.95                             157   -0.1810 46.0 323 
 BRR  HN ES        225 47.74                             157    0.4110 46.0 323 
 RUS  HZ EP        225 39.18                             136    0.2510  106 157 
 RUS  HN ES        225 56.40                             136    0.5210  106 157 
 RUS  HZ I         225 57.43         3.4 0.18            137            106 157 
 PTB  HZ EP        225 38.69                             133   -0.2010  113 257 
 PTB  HN ES        225 55.46                             133   -0.3610  113 257 
 PTB  HZ I         226  0.61         3.9 0.14            131            113 257 
 ZAR  HZ EP   4    225 46.48                             120    1.68 0  174 297 
 ZAR  HE ES   2    226  7.43                             120    1.10 4  174 297 
 ZAR  HZ I         226 10.95         4.9 0.24            120            174 297 
                                                                                
