 2012  325 0201 16.9 L   7.163 -73.022159.2  RSN  6 0.3 1.5LRSN                1
 GAP=141        0.65       7.2     5.5  7.6  0.1032E+01  0.1368E+01  0.2189E+01E
 ACTION:UP  12-03-31 23:22 OP:EP   STATUS:               ID:20120325020116 L   I
 2012-03-25-0200-00M.COL___196                                                 6
 STAT SP IPHASW D HRMM SECON CODA AMPLIT PERI AZIMU VELO SNR AR TRES W  DIS CAZ7
 PAM  SZ EP   1    2 1 39.05                             165     0.1 7   41  61 
 PAM  SN ES   2    2 1 55.59                             165    -0.6 5   41  61 
 BAR2 SZ EP   1    2 1 39.78                             157     0.2 7   66 196 
 BAR2 SZ ES   2    2 1 57.11                             157    -0.2 5   66 196 
 BAR2 SZ I         2 1 59.54         6.4 0.53                            66 196 
 BRR  HZ EP   1    2 1 39.93                             153     0.1 7   77 265 
 BRR  HZ I         2 1 40.49        11.6 0.21                            77 265 
 BRR  HE ES   1    2 1 58.21                             153     0.5 7   77 265 
 RUS  HZ EP   2    2 1 45.39                             137     0.3 5  141 183 
 RUS  HZ I         2 1 57.63         1.6 0.83                           141 183 
 RUS  HE ES   2    2 2  7.04                             137     0.0 5  141 183 
 PTB  HZ EP   1    2 1 46.84                             130    -0.5 7  173 247 
 PTB  HZ I         2 1 47.79         3.9 0.28                           173 247 
 PTB  HN ES   2    2 2 10.56                             130    -0.4 4  173 247 
 ZAR  HE ES   2    2 2 16.42                             125    -0.2 4  206 280 
                                                                                
