 2016 1225 0535 51.6 L   6.766 -73.177144.0  RSN  8 0.6 1.8LRSN                1
 GAP= 97        1.48       5.8     6.4  9.3 -0.7210E+00 -0.5148E+01  0.1760E+02E
 Epicentro: LOS SANTOS - SANTANDER                                             3
 ACTION:UPD 17-01-11 20:18 OP:rebc STATUS:               ID:20161225053551 L   I
 OLDACT:REG 16-12-25 13:05 OP:cog  STATUS:               ID:20161225052746     3
 2016-12-25-0528-00M.COL___375                                                 6
 STAT SP IPHASW D HRMM SECON CODA AMPLIT PERI AZIMU VELO AIN AR TRES W  DIS CAZ7
 BAR2 EZ EP        536 10.81                             172   -0.1510 19.2 182 
 BAR2 EZ ES        536 25.85                             172   -0.2010 19.2 182 
 BAR2 EZ I         536 26.81        19.2 0.38            169           19.2 182 
 BRR  HZ EP        536 12.54                             153    0.0210 70.1 303 
 BRR  HN ES        536 29.63                             153    0.8110 70.1 303 
 BRR  HZ I         536 33.70        11.7 0.30            150           70.1 303 
 PAM  EZ EP        536 13.69                             149   -0.2710 82.5  40 
 PAM  EN ES        536 30.76                             149   -0.6210 82.5  40 
 PAM  EZ I         536 32.90        10.7 0.56            137           82.5  40 
 RUS  HZ EP        536 14.58                             144   -0.3710 97.2 174 
 RUS  HN ES        536 33.46                             144    0.3110 97.2 174 
 RUS  HZ I         536 34.39         6.6 0.20            138           97.2 174 
 PTB  HZ EP        536 17.50                             132   -0.57 9  144 260 
 PTB  HN ES        536 38.44                             132   -0.27 9  144 260 
 PTB  HZ I         536 40.44         9.1 0.40            129            144 260 
 TAM  HZ EP        536 20.91                             130    1.53 9  158 103 
 TAM  HZ I         536 51.05        14.3 0.24            119            158 103 
 CHI  HZ EP        536 28.85                             117    0.12 8  244 195 
 CHI  HN ES        536 58.28                             117    0.60 8  244 195 
 CHI  HZ I         537  1.74         5.7 0.66            111            244 195 
 PTGC HZ EP   3    536 33.97                             111   -1.18 2  306 158 
 PTGC HN ES        537  8.08                             111   -1.02 7  306 158 
                                                                                
