 2016  525 0047 10.3 L   6.787 -73.151144.2  RSN 12 0.5 2.3LRSN                1
 GAP= 71        1.11       3.7     3.2  5.8 -0.9097E+00  0.4287E+01 -0.2429E+00E
 Epicentro: LOS SANTOS - SANTANDER                                             3
 ACTION:UPD 16-08-18 17:49 OP:cam  STATUS:               ID:20160525004710 L   I
 OLDACT:REG 16-05-25 12:30 OP:mh   STATUS:               ID:20160525003743     3
 2016-05-25-0037-43M.COL___322                                                 6
 STAT SP IPHASW D HRMM SECON CODA AMPLIT PERI AZIMU VELO AIN AR TRES W  DIS CAZ7
 BAR2 EZ EP        047 29.73                             171   -0.0310 21.8 189 
 BAR2 EZ ES        047 44.22                             171   -0.6910 21.8 189 
 BAR2 EZ I         047 45.24        48.8 0.32            166           21.8 189 
 BRR  HZ IP        047 31.55                             152    0.2110 71.3 300 
 BRR  HE ES        047 48.61                             152    0.9010 71.3 300 
 BRR  HZ I         047 51.20        36.8 0.30            149           71.3 300 
 PAM  EZ EP        047 32.58                             150    0.0910 78.9  39 
 PAM  EN ES        047 49.73                             150   -0.0310 78.9  39 
 PAM  EZ I         047 51.52        43.1 0.44            151           78.9  39 
 RUS  HZ EP        047 33.80                             144   -0.0510 99.2 176 
 RUS  HN ES        047 52.35                             144    0.1710 99.2 176 
 RUS  HZ I         047 53.85        18.1 0.32            139           99.2 176 
 PTB  HZ EP        047 36.68                             132   -0.43 9  147 259 
 PTB  HN ES        047 57.18                             132   -0.80 9  147 259 
 PTB  HZ I         048  0.48                             127            147 259 
 TAM  HZ IP     C  047 38.14                             130    0.21 9  155 104 
 TAM  HN ES        047 59.09                             130   -0.35 9  155 104 
 TAM  HZ I         048  0.61        11.4 0.68            128            155 104 
 OCA  HZ EP        047 38.17                             129   -0.49 9  162 353 
 OCA  HN ES   1    048  1.28                             129    0.53 7  162 353 
 OCA  HZ I         048  2.74        49.0 0.20            128            162 353 
 SPBC HZ EP        047 38.85                             129    0.26 9  162 219 
 SPBC HN ES        048  1.47                             129    0.86 9  162 219 
 SPBC HZ I         048  6.56        23.9 0.18            124            162 219 
 ZAR  HZ EP   1    047 43.09                             122    0.40 6  204 293 
 ZAR  HN ES        048  7.45                             122   -0.46 9  204 293 
 ZAR  HZ I         048 14.04        18.3 0.40            119            204 293 
 NOR  HZ EP   1    047 45.98                             118    0.14 6  233 235 
 NOR  HE ES   1    048 13.39                             118   -0.14 6  233 235 
 NOR  HZ I         048 23.27         9.2 0.18            115            233 235 
 URE  HZ EP        047 51.90                             113    0.57 7  284 292 
 URE  HN ES   4    048 21.96                             113   -1.34 0  284 292 
 CBOC HZ EP        047 56.62                             110   -0.46 7  333 252 
 CBOC HN ES        048 33.36                             110   -0.17 7  333 252 
                                                                                
