 2015  825 0929 52.2 L   6.808 -73.120148.9  RSN 14 0.5 2.1LRSN                1
 GAP=186        1.13       2.8     5.0  6.2 -0.1969E+01  0.8960E+01  0.5400E+00E
 Epicentro: LOS SANTOS - SANTANDER                                             3
 ACTION:UPD 15-09-15 23:05 OP:cam  STATUS:               ID:20150825092952 L   I
 OLDACT:REG 15-08-25 13:47 OP:ak   STATUS:               ID:20150825092750     3
 2015-08-25-0927-50M.COL___334                                                 6
 STAT SP IPHASW D HRMM SECON CODA AMPLIT PERI AZIMU VELO AIN AR TRES W  DIS CAZ7
 BAR2 EZ IP     D  930 12.41                             170    0.2210 24.8 196 
 BAR2 EZ ES        930 27.79                             170   -0.0310 24.8 196 
 BAR2 EZ I         930 30.15        17.2 0.28            168           24.8 196 
 BRR  HZ EP        930 14.21                             152    0.4410 73.3 297 
 BRR  HN ES        930 31.47                             152    0.8510 73.3 297 
 BRR  HZ I         930 35.28        19.9 0.40            149           73.3 297 
 RUS  HZ EP        930 16.05                             144   -0.2210  101 178 
 RUS  HN ES        930 35.13                             144    0.0610  101 178 
 RUS  HZ I         930 37.10         6.3 0.18            146            101 178 
 OCA  HZ EP        930 21.17                             130    0.50 9  160 352 
 OCA  HN ES        930 42.44                             130   -0.47 9  160 352 
 OCA  HZ I         930 46.53        23.1 0.18            132            160 352 
 SPBC HZ EP        930 21.29                             129    0.16 9  166 220 
 SPBC HN ES        930 43.15                             129   -0.58 9  166 220 
 SPBC HZ I         930 48.94        18.9 0.11            130            166 220 
 ZAR  HZ EP        930 25.64                             123    0.59 8  206 292 
 ZAR  HN ES        930 50.26                             123   -0.44 8  206 292 
 ZAR  HZ I         930 56.48        12.1 0.26            123            206 292 
 NOR  HZ EP   1    930 28.54                             119    0.17 6  238 235 
 NOR  HE ES        930 56.15                             119   -0.47 8  238 235 
 NOR  HZ I         930 59.72        11.5 0.42            119            238 235 
 SML  HZ EP        930 28.26                             118   -0.75 8  244 335 
 SML  HN ES        930 57.18                             118   -0.57 8  244 335 
 SML  HZ I         931  5.06        14.9 0.08            119            244 335 
 CHI  HZ EP   1    930 29.94                             118   -0.26 6  250 196 
 CHI  HN ES        930 58.99                             118   -0.89 8  250 196 
 CHI  HZ I         931  3.66         3.3 0.20            119            250 196 
 ROSC BZ EP   4    930 33.28                             117    2.59 0  255 211 
 ROSC BN ES   4    931  2.21                             117    1.47 0  255 211 
 HEL  HZ EP   1    930 32.67                             115   -0.19 6  275 256 
 HEL  HN ES        931  4.35                             115   -0.26 8  275 256 
 HEL  HZ I         931 10.92         7.4 0.42            116            275 256 
 URE  HZ EP   4    930 36.88                             114    3.24 0  286 292 
 URE  HN ES   4    931  3.34                             114   -2.66 0  286 292 
 GUY2CHZ EP   4    930 37.04                             113    0.81 0  304 235 
 GUY2CHN ES        931 11.36                             113    0.75 7  304 235 
 GUY2CHZ I         931 19.32         6.7 0.62                           304 235 
 PTGC HZ EP   4    930 35.41                             112   -0.72 0  308 159 
 PTGC HN ES   4    931  8.81                             112   -1.62 0  308 159 
 ELA  HZ EP   4    930 29.71                             111   -9.74 0  332 230 
 ELA  HN ES        931 15.62                             111   -0.72 7  332 230 
 ELA  HZ I         931 25.03         6.9 0.40            112            332 230 
 TOL  SZ EP   1    930 41.37                             110    0.53 5  346 225 
 TOL  SN ES        931 19.53                             110    0.72 6  346 225 
 TOL  SZ I         931 23.38         5.9 0.44            111            346 225 
 ORTC HZ EP        930 46.59                             107    0.13 6  398 216 
 ORTC HN ES        931 29.66                             107    0.84 6  398 216 
 ORTC HZ I         931 37.17         4.3 0.30            108            398 216 
                                                                                
