 2012  725 0100 52.5 L   6.743 -73.151146.0  RSN  5 0.2 1.3LRSN                1
 GAP=138        0.40       7.2     5.9  7.3 -0.1930E+01 -0.1811E+02  0.1851E+02E
 Epicentro: JORDAN - SANTANDER                                                 3
 ACTION:UPD 12-08-14 11:45 OP:ep   STATUS:               ID:20120725010052 L   I
 2012-07-25-0100-00M.COL___215                                                 6
 STAT SP IPHASW D HRMM SECON CODA AMPLIT PERI AZIMU VELO AIN AR TRES W  DIS CAZ7
 BAR2 SZ ES   3    1 1 26.95                             173    -0.3 2   17 192 
 BAR2 SZ I         1 1 28.46         5.5 0.20             47             17 192 
 BRR  HZ IP     D  1 1 13.77                             152     0.010   74 303 
 BRR  HZ I         1 1 13.94        10.8 0.12             47             74 303 
 BRR  HN ES   1    1 1 30.55                             152     0.1 7   74 303 
 PAM  SZ EP   1    1 1 14.99                             149     0.0 7   83  37 
 PAM  SZ I         1 1 33.68         1.7 0.62             47             83  37 
 RUS  HZ EP   2    1 1 16.00                             146     0.2 5   94 175 
 PTB  HZ EP   2    1 1 19.02                             133    -0.3 5  146 261 
 PTB  HZ I         1 1 46.94         1.5 0.36             47            146 261 
