 2010  725 0910  2.6 L   6.748 -73.025145.3  RSN  9 0.3 2.1LRSN                1
 GAP=188        0.72       4.1     7.1  5.7 -0.1369E+02 -0.1971E+00  0.5981E+01E
 Epicentro: CEPITA - SANTANDER                                                 3
 ACTION:UPD 10-12-01 15:20 OP:pat  STATUS:               ID:20100725091002 L   I
 2010-07-25-0909-36S.COL___123                                                 6
 STAT SP IPHASW D HRMM SECON CODA AMPLIT PERI AZIMU VELO AIN AR TRES W  DIS CAZ7
 BAR2 SZ IP        910 22.19                             170     0.010   25 225 
 BAR2 SZ ES   1    910 37.66                             170     0.2 7   25 225 
 BAR2 SZ I         910 38.93        24.1 0.10                            25 225 
 BRR  HZ IP     C  910 24.15                             148    -0.410   86 298 
 BRR  HE ES   1    910 41.52                             148    -0.2 7   86 298 
 BRR  HZ I         910 45.84        35.5 0.17                            86 298 
 GUE  SZ EP   1    910 27.38                             138    -0.2 7  120   5 
 GRA  SZ EP        910 28.12                             136     0.110  128  11 
 GRA  SZ ES   1    910 47.97                             136     0.2 7  128  11 
 GRA  SZ I         910 49.09        14.5 0.60                           128  11 
 OCA  SZ EP   1    910 31.30                             128    -0.3 7  168 349 
 OCA  SZ ES   1    910 54.68                             128     0.4 7  168 349 
 OCA  SZ I         910 57.58        13.8 0.37                           168 349 
 CHI  HZ EP   1    910 40.10                             117     0.0 6  247 199 
 CHI  HZ I         911 17.56         5.1 0.45                           247 199 
 HEL  HZ EP        910 44.22                             114     0.1 7  284 258 
 HEL  HZ I         911 21.32        10.7 0.32                           284 258 
 RREF HZ EP   1    910 50.28                             110     0.8 5  328 232 
 RREF HZ I         911 31.85         8.0 0.19                           328 232 
 PRA  HZ EP   1    910 56.00                             106    -0.3 4  394 212 
 PRA  HN ES   2    911 38.41                             106     0.2 3  394 212 
 PRA  HZ I         911 41.36         4.8 0.25                           394 212 
                                                                                
