 2010  825 0936 26.0 L   6.782 -73.163146.0  RSN  9 0.4 1.8LRSN                1
 GAP=157        0.80       3.8     9.4  6.9 -0.1788E+02  0.1098E+02  0.2051E+01E
 Epicentro: LOS SANTOS - SANTANDER                                             3
 ACTION:UP  10-09-07 10:58 OP:vdl  STATUS:               ID:20100825093626 L   I
 2010-08-25-0932-49S.COL___121                                                 6
 STAT SP IPHASW D HRMM SECON CODA AMPLIT PERI AZIMU VELO SNR AR TRES W  DIS CAZ7
 BAR2 SZ IP        936 45.51                             171    -0.110   21 186 
 BAR2 SZ ES   1    937  0.41                             171    -0.5 7   21 186 
 BAR2 SZ I         937  3.13        20.3 0.33                            21 186 
 GIR2 SZ EP   2    936 45.47                             166    -0.3 5   33 354 
 BRR  HE ES   2    937  4.53                             153     0.9 5   71 301 
 BRR  HZ I         937  8.06        13.7 0.24                            71 301 
 RUS  HZ EP   2    936 49.51                             144    -0.1 5   99 175 
 RUS  HE ES   2    937  8.33                             144     0.2 5   99 175 
 RUS  HZ I         937  9.16         7.7 0.35                            99 175 
 GRA  SZ EP        936 51.99                                     0.510  128  18 
 GRA  SZ ES   1    937 11.06                                    -0.3 7  128  18 
 GRA  SZ I         937 12.36         5.6 0.40                           128  18 
 OCA  SZ EP   1    936 54.43                             129    -0.1 7  162 354 
 OCA  SZ ES   1    937 16.45                             129    -0.3 7  162 354 
 OCA  SZ I         937 20.53         8.7 0.43                           162 354 
 CHI  HZ EP   1    937  3.62                             117     0.2 6  246 195 
 CHI  HN ES   2    937 33.49                             117     0.8 4  246 195 
 CHI  HZ I         937 37.03         2.8 0.80                           246 195 
 RREF HZ EP   2    937 11.63                             111    -0.2 3  319 229 
 RREF HN ES   2    937 47.20                             111    -0.4 3  319 229 
 RREF HZ I         937 55.17         3.5 0.24                           319 229 
 PRA  HZ EP   1    937 19.19                             106     0.0 4  389 209 
 PRA  HN ES   1    938  0.37                             106    -0.4 4  389 209 
 PRA  HZ I         938  7.89         3.3 0.24                           389 209 
                                                                                
