 2017  125 0831  5.0 L   6.726 -73.175158.3  RSN  4 0.1 1.0LRSN                1
 GAP=228        0.41       3.6     3.4  4.5  0.5101E+01  0.1318E+00 -0.3215E+01E
 Epicentro: VILLANUEVA - SANTANDER                                             3
 ACTION:UPD 17-05-22 16:03 OP:jn   STATUS:               ID:20170125083105 L   I
 OLDACT:UP  17-03-31 15:01 OP:nlst STATUS:               ID:20170125083105 L   3
 OLDACT:DUP 17-01-25 18:22 OP:lv   STATUS:               ID:20170125082741d    3
 2017-01-25-0828-00M.COL___343                                                 6
 STAT SP IPHASW D HRMM SECON CODA AMPLIT PERI AZIMU VELO AIN AR TRES W  DIS CAZ7
 BAR2 EZ EP        831 25.81                             174   -0.1610 14.8 183 
 BAR2 EZ I         831 41.99         2.0 0.23            164           14.8 183 
 BAR2 EZ ES        831 42.25                             174   -0.1110 14.8 183 
 BRR  HZ EP        831 27.69                             154    0.1310 72.8 305 
 BRR  HE ES        831 45.27                             154    0.0810 72.8 305 
 RUS  HN ES        831 48.67                             148    0.1310 92.7 174 
 PTB  HN ES        831 54.05                             136   -0.08 9  143 262 
                                                                                
