 2010  425 0406 47.7 L   6.782 -72.963147.5  RSN  7 0.2 1.8LRSN                1
 GAP=202        0.39       3.4     5.5  4.6 -0.9120E+01 -0.9880E+01  0.6111E+01E
 Epicentro: CEPITA - SANTANDER                                                 3
 ACTION:UPD 10-08-24 10:00 OP:vdl  STATUS:               ID:20100425040656 L   I
 2010-04-25-0402-33S.COL___104                                                 6
 STAT SP IPHASW D HRMM SECON CODA AMPLIT PERI AZIMU VELO AIN AR TRES W  DIS CAZ7
 BAR2 SZ EP   2    4 7  7.80                             167     0.0 5   32 229 
 BAR2 SZ ES   2    4 7 23.44                             167     0.0 5   32 229 
 BRR  HZ IP     C  4 7 10.25                             148     0.010   90 294 
 BRR  HZ I         4 7 10.49        11.2 0.17                            90 294 
 BRR  HE ES   1    4 7 27.77                             148     0.0 7   90 294 
 BRI  SZ EP   1    4 7 11.37                             143    -0.2 7  105  10 
 GUE  SZ EP   1    4 7 12.86                             141     0.3 7  116   2 
 OCA  SZ EP   2    4 7 16.29                             130    -0.4 5  166 346 
 OCA  SZ ES   2    4 7 39.20                             130    -0.1 5  166 346 
 HEL  HZ EP   2    4 7 30.41                             114     0.2 4  291 257 
 HEL  HZ I         4 8  5.75         2.0 0.50                           291 257 
 PRA  HZ IP     C  4 7 42.39                             107     0.1 6  401 212 
 PRA  HZ I         4 7 59.40         2.2 0.45                           401 212 
 PRA  HE ES   2    4 8 24.46                             107    -0.4 3  401 212 
                                                                                
