 2011 1025 0040 59.0 L   6.596 -73.522101.1  RSN  4 0.2 1.4LRSN                1
 GAP=156        0.39       8.0     9.1 10.4  0.6436E+02  0.6685E+02  0.5486E+02E
 Epicentro: EL CARMEN DE CHUCURI - SANTANDER                                   3
 ACTION:UPD 12-07-13 16:05 OP:ep   STATUS:               ID:20111025004059 L   I
 2011-10-25-0039-06S.COL___172                                                 6
 STAT SP IPHASW D HRMM SECON CODA AMPLIT PERI AZIMU VELO AIN AR TRES W  DIS CAZ7
 BAR2 SZ EP   2    041 13.58                             158   -0.29 5 37.5  91 
 BAR2 SZ ES   2    041 25.67                             158    0.24 5 37.5  91 
 BAR2 SZ I         041 27.60        12.4 0.60                          37.5  91 
 BRR  HN ES   2    041 27.04                             147   -0.08 5 60.4 340 
 BRR  HZ I         041 36.62         7.9 0.51                          60.4 340 
 RUS  HZ EP   2    041 18.21                             135    0.27 5 91.6 148 
 RUS  HN ES   2    041 32.49                             135   -0.19 5 91.6 148 
 RUS  HZ I         041 33.93         5.6 0.41                          91.6 148 
 ZAR  HN ES   2    041 47.22                             114    0.05 4  178 304 
 ZAR  HZ I         041 50.33         3.6 0.52                           178 304 
                                                                                
