 2013  625 0826 56.0 L   6.800 -73.145150.9  RSN 10 0.5 1.6LRSN                1
 GAP=137        1.10       4.2     5.2  7.2 -0.7638E+00  0.8365E+01 -0.4056E+01E
 Epicentro: LOS SANTOS - SANTANDER                                             3
 ACTION:UPD 14-01-08 09:57 OP:ep   STATUS:               ID:20130625082656 L   I
 OLDACT:REG 13-06-25 06:49 OP:jn   STATUS:               ID:20130625081959     3
 2013-06-25-0819-59M.COL___267                                                 6
 STAT SP IPHASW D HRMM SECON CODA AMPLIT PERI AZIMU VELO AIN AR TRES W  DIS CAZ7
 BAR2 SZ EP     D  827 16.30                             171    0.0810 23.3 190 
 BAR2 SZ ES        827 31.42                             171   -0.5910 23.3 190 
 BAR2 SZ I         827 32.91         8.9 0.18            171           23.3 190 
 GIR2 SZ EP        827 16.28                             168    0.0210 31.3 350 
 BRR  HZ EP     C  827 18.08                             153    0.4010 71.3 299 
 BRR  HN ES        827 35.50                             153    0.8810 71.3 299 
 BRR  HZ I         827 40.35         7.3 0.16            150           71.3 299 
 PAM  SZ EP        827 19.05                             152    0.3210 77.4  39 
 PAM  SE ES        827 36.15                             152   -0.3410 77.4  39 
 PAM  SZ I         827 36.94         4.5 0.20            154           77.4  39 
 RUS  HZ EP        827 20.57                             145    0.3410  101 176 
 RUS  HE ES        827 38.94                             145   -0.2110  101 176 
 RUS  HZ I         827 39.68         4.4 0.46            149            101 176 
 PTB  HZ EP        827 22.99                             133   -0.38 9  148 259 
 PTB  HN ES   1    827 44.06                             133   -0.68 7  148 259 
 PTB  HZ I         827 46.91         3.7 0.10            132            148 259 
 OCA  HE ES   1    827 47.51                             131    0.42 7  160 353 
 OCA  HZ I         827 52.45        10.0 0.24            131            160 353 
 ZAR  HE ES   1    827 54.52                             123    0.18 6  204 292 
 ZAR  HZ I         828  0.32         5.1 0.32            123            204 292 
 NOR  HE ES   1    828  0.40                             119    0.29 6  235 234 
 NOR  HZ I         828  4.90         3.3 0.16            121            235 234 
 SML  HZ EP        827 32.45                             118   -0.45 8  244 335 
 SML  HN ES   1    828  0.75                             118   -0.95 6  244 335 
                                                                                
