 2013  425 0839  6.9 L   6.781 -73.161139.5  RSN  8 0.5 1.7LRSN                1
 GAP=135        0.89       5.2     6.8  9.9 -0.5723E+01  0.3915E+02 -0.1136E+02E
 Epicentro: LOS SANTOS - SANTANDER                                             3
 ACTION:UPD 13-05-22 14:40 OP:EP   STATUS:               ID:20130425083906 L   I
 2013-04-25-0838-37M.COL___202                                                 6
 STAT SP IPHASW D HRMM SECON CODA AMPLIT PERI AZIMU VELO AIN AR TRES W  DIS CAZ7
 BAR2 SZ ES   2    839 40.24                             171   -0.19 5 21.0 186 
 GIR2 SZ EP   1    839 25.98                             166    0.09 7 33.1 354 
 GIR2 SZ I         839 43.27         5.5 0.62            160           33.1 354 
 BRR  HZ IP     C  839 27.94                             151    0.5810 70.8 301 
 BRR  HN ES   4    839 44.79                             151    1.48 0 70.8 301 
 BRR  HN I         839 45.54        17.4 0.20            145           70.8 301 
 PAM  SZ EP   1    839 28.85                             149    0.22 7 80.1  40 
 PAM  SN ES        839 45.38                             149   -0.1910 80.1  40 
 PAM  SN I         839 47.41         5.4 0.40            147           80.1  40 
 RUS  HZ EP   1    839 29.26                             143   -0.65 7 98.6 175 
 RUS  HN ES   1    839 48.13                             143    0.29 7 98.6 175 
 RUS  HN I         839 49.32         4.9 0.24            145           98.6 175 
 PTB  HZ EP   1    839 32.88                             131   -0.31 7  146 260 
 PTB  HN ES   2    839 52.68                             131   -1.00 5  146 260 
 PTB  HN I         839 59.34         6.8 0.22            127            146 260 
 ZAR  HZ EP   1    839 39.62                             121    0.74 6  203 293 
 ZAR  HE ES   2    840  4.16                             121    0.35 4  203 293 
 ZAR  HE I         840 12.78         8.4 0.42            118            203 293 
 SML  HZ EP   1    839 42.66                             116   -0.67 6  245 336 
 SML  HN ES   2    840 11.28                             116   -0.45 4  245 336 
 SML  HN I         840 20.07        11.7 0.10            113            245 336 
                                                                                
