 2013  925 0728  1.5 L   6.806 -73.156145.7  RSN 14 0.4 2.1LRSN                1
 GAP=135        1.01       2.5     4.0  5.8 -0.1388E+01  0.3890E+01  0.1712E+01E
 Epicentro: LOS SANTOS - SANTANDER                                             3
 ACTION:UPD 13-10-22 09:24 OP:ep   STATUS:               ID:20130925072801 L   I
 OLDACT:REG 13-09-25 08:05 OP:nd   STATUS:               ID:20130925071959     3
 2013-09-25-0719-59M.COL___269                                                 6
 STAT SP IPHASW D HRMM SECON CODA AMPLIT PERI AZIMU VELO AIN AR TRES W  DIS CAZ7
 BAR2 SZ EP        728 21.15                             170    0.0210 23.9 187 
 BAR2 SZ I         728 37.96        28.2 0.44            169           23.9 187 
 BRR  HZ IP     C  728 23.04                             153    0.4710 69.9 298 
 BRR  HN ES        728 39.99                             153    0.9910 69.9 298 
 BRR  HZ I         728 44.45        20.2 0.20            152           69.9 298 
 PAM  SZ EP        728 23.91                             151    0.1910 77.5  40 
 PAM  SN ES        728 40.94                             151   -0.1110 77.5  40 
 PAM  SZ I         728 44.41        10.1 0.51            155           77.5  40 
 RUS  HZ EP        728 25.54                             144    0.2410  101 175 
 RUS  HN ES        728 43.19                             144   -0.6810  101 175 
 RUS  HZ I         728 44.99        15.8 0.28            145            101 175 
 PTB  HZ EP        728 27.73                             132   -0.65 9  147 258 
 PTB  HN ES        728 48.77                             132   -0.57 9  147 258 
 PTB  HZ I         728 56.43        18.7 0.32            132            147 258 
 OCA  HZ EP        728 29.78                             130    0.05 9  159 353 
 OCA  HN ES        728 51.16                             130   -0.58 9  159 353 
 OCA  HZ I         728 56.09        27.7 0.30            132            159 353 
 SPBC HZ EP        728 30.06                             129    0.08 9  163 219 
 SPBC HN ES        728 52.23                             129    0.03 9  163 219 
 SPBC HZ I         728 56.22        27.0 0.24            130            163 219 
 ZAR  HZ EP        728 33.83                             122    0.02 9  203 292 
 ZAR  HN ES        728 58.79                             122   -0.22 9  203 292 
 ZAR  HZ I         729  2.01        15.6 0.10            124            203 292 
 NOR  HZ EP        728 37.71                             118    0.53 8  234 234 
 NOR  HN ES        729  5.26                             118    0.26 8  234 234 
 NOR  HZ I         729 10.39        14.3 0.20            120            234 234 
 SML  HZ EP        728 37.74                             118   -0.27 8  243 335 
 SML  HN ES        729  6.60                             118    0.12 8  243 335 
 SML  HZ I         729  9.70        45.3 0.09            119            243 335 
 CHI  HZ EP        728 39.42                             117    0.18 8  249 195 
 CHI  HN ES        729  8.85                             117    0.17 8  249 195 
 CHI  HZ I         729 14.10         4.2 0.32            119            249 195 
 HEL  HZ EP   4    728 43.33                             115    1.71 0  271 256 
 HEL  HN ES   4    729 15.29                             115    2.39 0  271 256 
 HEL  HZ I         729 20.47         8.6 0.24            116            271 256 
 CBOC HZ EP   4    728 49.05                             110    0.73 0  333 252 
 CBOC HN ES   4    729 26.74                             110    1.90 0  333 252 
 CBOC HZ I         729 37.29         3.3 0.78            111            333 252 
 PRA  HZ EP        728 54.65                             106   -0.38 6  392 209 
 PRA  HN ES        729 36.61                             106   -0.17 6  392 209 
 PRA  HZ I         729 41.71         2.7 0.32            108            392 209 
                                                                                
