 2017 1225 0638 55.6 L   6.882 -73.158143.4  RSN 17 0.8 2.2LRSN                1
 GAP= 77        1.65       4.0     4.7  8.5 -0.3447E+01  0.1295E+02  0.2125E+01E
 Epicentro: BETULIA - SANTANDER                                                3
 ACTION:UPD 18-01-04 13:24 OP:rebc STATUS:               ID:20171225063855 L   I
 OLDACT:UP  17-12-25 15:55 OP:osc  STATUS:               ID:20171225063739d    3
 OLDACT:DUP 17-12-25 15:41 OP:osc  STATUS:               ID:20171225063739d    3
 2017-12-25-0638-00M.COL___460                                                 6
 STAT SP IPHASW D HRMM SECON CODA AMPLIT PERI AZIMU VELO AIN AR TRES W  DIS CAZ7
 BAR2 EZ EP     D  639 15.05                             167   -0.1510 32.1 185 
 BAR2 EZ ES        639 30.35                             167   -0.1010 32.1 185 
 BAR2 EZ I         639 35.87        25.5 0.44            167           32.1 185 
 PAM  EZ EP        639 17.75                             152    0.4910 71.6  45 
 PAM  EE ES        639 34.65                             152    0.5210 71.6  45 
 PAM  EZ I         639 37.07        28.6 0.24            158           71.6  45 
 PTB  HZ EP        639 21.60                             131   -0.87 9  148 255 
 PTB  HN ES        639 42.65                             131   -0.75 9  148 255 
 PTB  HZ I         639 45.41        11.5 0.14            133            148 255 
 OCA  HZ EP        639 23.01                             131    0.10 9  151 353 
 OCA  HN ES        639 44.58                             131    0.40 9  151 353 
 OCA  HZ I         639 51.69        33.2 0.20            135            151 353 
 TAM  HZ EP        639 23.40                             129   -0.10 9  159 108 
 TAM  HN ES        639 44.85                             129   -0.38 9  159 108 
 TAM  HZ I         639 46.40         8.3 0.56            135            159 108 
 SPBC HZ EP        639 24.08                             127   -0.48 9  169 217 
 SPBC HE ES        639 46.67                             127   -0.45 9  169 217 
 SPBC HZ I         639 52.43        20.1 0.22            130            169 217 
 ZAR  HZ EP        639 27.84                             122    0.38 9  199 290 
 ZAR  HN ES        639 52.97                             122    0.69 9  199 290 
 ZAR  HZ I         639 59.13        18.3 0.42            125            199 290 
 ROSC BZ EP        639 35.98                             115    1.57 8  260 210 
 ROSC BN ES        640  4.56                             115   -0.09 8  260 210 
 ROSC BZ I         640  9.20        13.7 0.35            118            260 210 
 URE  HZ EP        639 35.05                             113   -1.03 7  279 290 
 URE  HN ES        640  5.58                             113   -2.04 7  279 290 
 DRL03HZ EP        639 36.64                             113    0.53 7  280 353 
 DRL03HE ES        640  7.84                             113    0.17 7  280 353 
 CVER HZ EP        639 36.31                             114   -0.45 7  280 201 
 CVER HN ES        640  8.57                             114   -0.26 7  280 201 
 CVER HZ I         640 18.84         8.5 0.38            116            280 201 
 GUY2CHZ EP        639 39.64                             111    0.03 7  305 233 
 GUY2CHN ES        640 15.50                             111    1.59 7  305 233 
 GUY2CHZ I         640 23.12         9.6 0.64                           305 233 
 ELA  HZ EP   4    639 37.89                             109   -5.06 0  334 228 
 ELA  HE ES   4    640 23.74                             109    3.88 0  334 228 
 ELA  HZ I         640 27.08         4.6 0.62            112            334 228 
 CBOC HZ EP        639 43.05                             109    0.41 7  335 251 
 CBOC HN ES        640 20.86                             109    1.57 7  335 251 
 CBOC HZ I         640 30.42         3.1 0.68            112            335 251 
 ANIL HE ES        640 26.35                             108    1.08 6  363 223 
 PRA  HZ EP        639 49.27                             106   -0.66 6  399 209 
 PRA  HE ES        640 31.77                             106   -0.50 6  399 209 
 PRA  HZ I         640 37.77         7.9 0.28            108            399 209 
 SJC  HZ EP        639 49.15                             106   -0.99 6  401 326 
 SJC  HN ES   4    640 30.83                             106   -1.83 0  401 326 
 SJC  HZ I         640 34.38         2.9 0.56            108            401 326 
                                                                                
