 2017 1125 0519 23.9 L   6.799 -73.163142.8  RSN  9 0.5 1.6LRSN                1
 GAP=134        1.16       4.0     4.9  7.8 -0.5163E+01  0.1506E+02  0.1814E+01E
 Epicentro: LOS SANTOS - SANTANDER                                             3
 ACTION:UPD 17-12-12 19:59 OP:rebc STATUS:               ID:20171125051923 L   I
 OLDACT:DUP 17-11-25 17:03 OP:oscs STATUS:               ID:20171125051736d    3
 2017-11-25-0518-00M.COL___488                                                 6
 STAT SP IPHASW D HRMM SECON CODA AMPLIT PERI AZIMU VELO AIN AR TRES W  DIS CAZ7
 BAR2 EZ EP        519 42.88                             170   -0.2810 23.0 185 
 BAR2 EZ ES        519 58.28                             170    0.1010 23.0 185 
 BAR2 EZ I         519 59.08        16.4 0.24            169           23.0 185 
 PAM  EZ EP        519 45.85                             150   -0.0210 78.7  41 
 PAM  EN ES        520  3.03                             150    0.0110 78.7  41 
 PAM  EZ I         520  5.24         9.0 0.84            154           78.7  41 
 RUS  HZ EP        519 47.03                             143   -0.3310  101 175 
 RUS  HN ES        520  5.69                             143    0.0310  101 175 
 RUS  HZ I         520  6.65         4.2 0.26            145            101 175 
 PTB  HZ EP        519 49.62                             132   -0.82 9  146 259 
 PTB  HE ES        520 10.43                             132   -0.72 9  146 259 
 PTB  HZ I         520 12.67         2.0 0.16            132            146 259 
 OCA  HE ES        520 14.56                             129    0.70 9  160 354 
 SPBC HZ EP        519 51.78                             129   -0.26 9  162 218 
 SPBC HN ES        520 14.69                             129    0.70 9  162 218 
 SPBC HZ I         520 20.81         8.0 0.26            129            162 218 
 ZAR  HN ES        520 20.84                             122   -0.13 9  202 292 
 ZAR  HZ I         520 26.24         3.4 0.28            123            202 292 
 NOR  HZ EP        519 59.52                             118    0.25 8  233 234 
 NOR  HE ES        520 26.81                             118   -0.06 8  233 234 
 NOR  HZ I         520 34.73         2.7 0.20            119            233 234 
 GUY2CHZ EP        520  7.89                             112    0.71 7  300 235 
 GUY2CHN ES        520 41.89                             112    0.95 7  300 235 
 GUY2CHZ I         520 48.13         2.0 0.80                           300 235 
                                                                                
