 2013  725 0756  1.7 L   6.733 -73.176149.6  RSN  5 0.3 1.3LRSN                1
 GAP=229        0.53       7.0     5.3  7.4  0.1808E+02 -0.3310E+01  0.9667E+01E
 Epicentro: VILLANUEVA - SANTANDER                                             3
 ACTION:UPD 13-08-12 10:39 OP:ep   STATUS:               ID:20130725075437dL   I
 OLDACT:DUP 13-07-29 15:48 OP:ep   STATUS:               ID:20130725075437dL   3
 OLDACT:DUP 13-07-29 00:58 OP:stll STATUS:               ID:20130725075436 L   3
 OLDACT:DUP 13-07-25 12:22 OP:cam  STATUS:               ID:20130725074960d    3
 2013-07-25-0749-59M.COL___266                                                 6
 STAT SP IPHASW D HRMM SECON CODA AMPLIT PERI AZIMU VELO AIN AR TRES W  DIS CAZ7
 BAR2 SZ EP   1    756 21.27                             174   -0.41 7 15.5 182 
 BAR2 SZ I         756 38.01         5.5 0.21            168           15.5 182 
 BRR  HZ EP   1    756 23.38                             153    0.04 7 72.2 305 
 BRR  HN ES   1    756 40.31                             153    0.10 7 72.2 305 
 BRR  HZ I         756 41.20         5.4 0.08            159           72.2 305 
 RUS  HZ EP   1    756 25.74                             147    0.38 7 93.5 174 
 RUS  HZ I         756 26.43         3.1 0.32            145           93.5 174 
 PTB  HZ EP   1    756 28.26                             134   -0.33 7  143 261 
 PTB  HN ES   1    756 49.54                             134   -0.01 7  143 261 
 PTB  HZ I         756 51.28         3.2 0.22            141            143 261 
 ZAR  HZ EP   1    756 34.63                             123    0.23 6  204 294 
 ZAR  HZ I         756 36.93         0.9 0.42            127            204 294 
 ZAR  HE ES   1    756 59.92                             123    0.03 6  204 294 
                                                                                
