 2017  125 0701 20.4 L   6.816 -73.179148.8  RSN  4 0.2 0.7LRSN                1
 GAP=145        0.51       3.2     3.1  4.3 -0.3067E+01  0.3521E+01 -0.1292E+01E
 Epicentro: ZAPATOCA - SANTANDER                                               3
 ACTION:UPD 17-05-22 16:03 OP:jn   STATUS:               ID:20170125070120 L   I
 OLDACT:REG 17-01-25 13:03 OP:lv   STATUS:               ID:20170125065739     3
 2017-01-25-0658-00M.COL___349                                                 6
 STAT SP IPHASW D HRMM SECON CODA AMPLIT PERI AZIMU VELO AIN AR TRES W  DIS CAZ7
 BAR2 EZ EP        7 1 40.21                             170   -0.2210 24.7 181 
 BAR2 EZ ES        7 1 55.97                             170   -0.0810 24.7 181 
 PAM  EZ EP        7 1 42.91                             151   -0.1010 78.5  42 
 PAM  EN ES        7 2  0.80                             151    0.1610 78.5  42 
 RUS  HZ EP        7 1 44.52                             144   -0.0910  103 174 
 RUS  HZ I         7 2  3.59         0.6 0.40            124            103 174 
 RUS  HN ES        7 2  3.63                             144    0.1510  103 174 
 PTB  HZ EP        7 1 47.68                             133    0.34 9  145 258 
 PTB  HN ES        7 2  8.21                             133   -0.13 9  145 258 
 PTB  HZ I         7 2 11.13         0.8 0.15            121            145 258 
                                                                                
