 2017  425 0629 49.7 L   7.487 -73.184130.9  RSN 19 0.4 2.1LRSN                1
 GAP= 91        0.81       3.4     3.1  4.5 -0.7150E+00  0.5040E+01 -0.4441E+00E
 Epicentro: EL PLAYON - SANTANDER                                              3
 ACTION:UPD 17-05-30 21:15 OP:jn   STATUS:               ID:20170425062949 L   I
 OLDACT:UP  17-04-25 15:19 OP:and  STATUS:               ID:20170425062738     3
 OLDACT:UP  17-04-25 15:18 OP:and  STATUS:               ID:20170425062738     3
 OLDACT:UP  17-04-25 15:17 OP:and  STATUS:               ID:20170425062738     3
 OLDACT:UP  17-04-25 15:16 OP:and  STATUS:               ID:20170425062738     3
 OLDACT:UP  17-04-25 15:14 OP:and  STATUS:               ID:20170425062738     3
 OLDACT:UP  17-04-25 15:13 OP:and  STATUS:               ID:20170425062738     3
 OLDACT:UP  17-04-25 15:13 OP:and  STATUS:               ID:20170425062738     3
 OLDACT:UP  17-04-25 15:13 OP:and  STATUS:               ID:20170425062738     3
 OLDACT:UP  17-04-25 15:12 OP:and  STATUS:               ID:20170425062738     3
 OLDACT:UP  17-04-25 15:12 OP:and  STATUS:               ID:20170425062738     3
 OLDACT:UP  17-04-25 15:11 OP:and  STATUS:               ID:20170425062738     3
 OLDACT:UP  17-04-25 15:11 OP:and  STATUS:               ID:20170425062738     3
 OLDACT:UP  17-04-25 15:09 OP:and  STATUS:               ID:20170425062738     3
 OLDACT:UP  17-04-25 15:08 OP:and  STATUS:               ID:20170425062738     3
 OLDACT:UP  17-04-25 15:08 OP:and  STATUS:               ID:20170425062738     3
 OLDACT:UP  17-04-25 15:08 OP:and  STATUS:               ID:20170425062738     3
 OLDACT:UP  17-04-25 15:07 OP:and  STATUS:               ID:20170425062738     3
 OLDACT:UP  17-04-25 15:07 OP:and  STATUS:               ID:20170425062738     3
 OLDACT:UP  17-04-25 15:06 OP:and  STATUS:               ID:20170425062738     3
 OLDACT:UP  17-04-25 15:03 OP:and  STATUS:               ID:20170425062738     3
 OLDACT:REG 17-04-25 12:23 OP:and  STATUS:               ID:20170425062738     3
 2017-04-25-0628-00M.COL___358                                                 6
 STAT SP IPHASW D HRMM SECON CODA AMPLIT PERI AZIMU VELO AIN AR TRES W  DIS CAZ7
 PAM  EZ EP        630  9.50                             156    0.4210 55.9 107 
 PAM  EN ES        630 24.52                             156    0.3010 55.9 107 
 PAM  EZ I         630 28.00        18.5 0.31            157           55.9 107 
 BRR  HZ IP     C  630  9.25                             150   -0.0210 71.8 234 
 BRR  HN ES        630 24.38                             150   -0.1710 71.8 234 
 BRR  HZ I         630 25.79        35.9 0.10            146           71.8 234 
 BAR2 EZ EP        630 11.29                             141   -0.2110 98.9 180 
 BAR2 EZ ES        630 27.86                             141   -0.6710 98.9 180 
 BAR2 EZ I         630 28.90        43.3 0.16            138           98.9 180 
 PTB  HZ EP   9    630 17.34                             123   -0.85 0  175 233 
 PTB  HN ES        630 39.25                             121   -0.34 9  175 233 
 PTB  HZ I         630 42.25        15.5 0.32            121            175 233 
 ZAR  HZ EP        630 19.10                             122   -0.06 9  185 270 
 ZAR  HN ES        630 42.64                             122    0.48 9  185 270 
 ZAR  HZ I         630 47.34        17.8 0.44            120            185 270 
 SPBC HZ EP   4    630 26.05                             116    2.45 0  225 206 
 SPBC HN ES        630 49.96                             116   -0.11 8  225 206 
 SPBC HZ I         630 57.18        15.3 0.24            115            225 206 
 LL6C HN EP   9    630  6.63                             113   -19.5 0  249 358 
 LL6C HN ES   2    630 36.37                                    1.33 4  249 358 
 NOR  HZ EP        630 29.79                             110   -0.20 7  283 221 
 NOR  HN ES   2    631  1.36                             110   -0.07 4  283 221 
 NOR  HZ I         631  7.47         6.1 0.36            109            283 221 
 HEL  HZ EP   3    630 33.31                             110    1.40 2  296 241 
 HEL  HN ES        631  5.27                             110    0.40 7  296 241 
 HEL  HZ I         631 12.87         4.0 0.34            109            296 241 
 CHI  HN ES        631 10.97                             108    0.75 7  322 191 
 DBB  EZ EP        630 36.20                             107   -0.23 7  338 261 
 DBB  EN ES   4    631 10.67                             107   -2.23 0  338 261 
 DBB  EZ I         631 13.88         6.8 0.20            106            338 261 
 SJC  HZ EP        630 36.91                             106   -0.33 7  345 321 
 SJC  HN ES   4    631 12.74                             106   -1.61 0  345 321 
 SJC  HZ I         631 16.61         2.1 0.46            106            345 321 
 CBOC HZ EP   2    630 39.75                             105    0.59 3  360 240 
 CBOC HN ES        631 17.01                             105   -0.75 6  360 240 
 CBOC HZ I         631 18.46         1.5 0.24            105            360 240 
 ELA  HZ EP   4    630 44.49                             104    2.58 0  380 220 
 ELA  HN ES   4    631 26.63                             104    3.97 0  380 220 
 ELA  HZ I         631 28.21         5.6 0.50            104            380 220 
 PTGC HZ EP        630 41.48                             104    0.04 6  382 162 
 PAL  HZ EP        630 49.19                             102   -0.00 5  446 230 
 PAL  HN ES   4    631 33.33                             102   -2.29 0  446 230 
 PAL  HZ I         631 43.92         1.4 0.21            101            446 230 
 ORTC HZ EP   4    630 52.46                             101    2.04 0  457 210 
 ORTC HN ES        631 37.95                             101    0.14 5  457 210 
 ORTC HZ I         631 46.12         2.6 0.58            101            457 210 
 PRA  HZ EP   4    630 53.64                             101    3.09 0  458 204 
 PRA  HN ES   3    631 39.71                             101    1.68 1  458 204 
 PRA  HZ I         631 49.04         2.5 0.48            101            458 204 
 URI  HZ EP   9    630 52.76                             100   -0.88 0  484  16 
 URI  HN ES        631 42.75                             100    0.09 5  484  16 
                                                                                
