 2012  125 0056 46.9 L   6.759 -73.137142.2  RSN  7 0.3 1.7LRSN                1
 GAP=140        0.61       4.1     4.1  6.9 -0.1248E+01 -0.2525E+01  0.6656E+00E
 Epicentro: LOS SANTOS - SANTANDER                                             3
 ACTION:UP  12-02-03 08:20 OP:REBC STATUS:               ID:20120125005646 L   I
 2012-01-25-0050-00M.COL___188                                                 6
 STAT SP IPHASW D HRMM SECON CODA AMPLIT PERI AZIMU VELO SNR AR TRES W  DIS CAZ7
 BAR2 SZ EP   1    057  6.10                             172     0.1 7   19 195 
 BAR2 SZ I         057 22.34        17.3 0.25                            19 195 
 GIR2 SZ EP        057  6.25                             165     0.010   36 350 
 BRR  HZ EP        057  8.05                             151     0.210   74 301 
 BRR  HE ES   1    057 24.55                             151     0.4 7   74 301 
 BRR  HZ I         057 26.44        20.7 0.21                            74 301 
 PAM  SZ EP        057  8.99                             149     0.110   80  37 
 PAM  SN ES   2    057 25.39                             149    -0.7 5   80  37 
 RUS  HZ EP   1    057 10.04                             144     0.1 7   96 176 
 RUS  HN ES   1    057 28.05                             144     0.1 7   96 176 
 RUS  HZ I         057 30.47         6.1 0.39                            96 176 
 PTB  HZ EP   1    057 13.28                             131    -0.3 7  148 261 
 PTB  HE ES   1    057 34.05                             131    -0.4 7  148 261 
 CHI  HZ EP   2    057 24.00                             117     0.0 4  245 196 
 CHI  HZ I         057 59.86         2.2 0.44                           245 196 
                                                                                
