 2012  425 0621 14.7 L   6.803 -73.145144.8  RSN 12 0.4 2.7LRSN                1
 GAP=136        0.86       3.1     4.3  5.2 -0.1694E+01  0.6050E+01  0.1699E+01E
 Epicentro: LOS SANTOS - SANTANDER                                             3
 ACTION:UPD 12-07-05 11:55 OP:tino STATUS:               ID:20120425062114 L   I
 2012-04-25-0620-00M.COL___186                                                 6
 STAT SP IPHASW D HRMM SECON CODA AMPLIT PERI AZIMU VELO AIN AR TRES W  DIS CAZ7
 BAR2 SZ EP        621 34.25                             170     0.110   24 190 
 BAR2 SZ ES        621 49.51                             170     0.110   24 190 
 BAR2 SZ I         621 50.57       228.8 0.15                            24 190 
 BRR  HZ IP     D  621 36.01                             152     0.310   71 298 
 BRR  HE ES   1    621 52.72                             152     0.6 7   71 298 
 BRR  HZ I         621 55.56        95.4 0.17                            71 298 
 PAM  SZ EP        621 36.93                             151     0.210   77  40 
 PAM  SE ES   1    621 53.93                             151    -0.1 7   77  40 
 RUS  HZ EP        621 38.04                             144    -0.310  101 176 
 RUS  HN ES   1    621 56.50                             144    -0.3 7  101 176 
 RUS  HZ I         621 58.15        69.0 0.26                           101 176 
 PTB  HZ EP   1    621 40.80                             132    -0.8 7  148 259 
 PTB  HN ES   1    622  1.86                             132    -0.7 7  148 259 
 OCA  SZ EP        621 42.90                             129     0.0 9  160 353 
 OCA  SZ ES   1    622  4.58                             129    -0.3 7  160 353 
 ZAR  HZ EP   1    621 46.70                             122    -0.3 6  204 292 
 ZAR  HN ES   1    622 12.22                             122    -0.1 6  204 292 
 ZAR  HZ I         622 18.81        49.3 0.11                           204 292 
 NOR  SZ EP        621 50.60                             118     0.2 8  235 234 
 NOR  SE ES   1    622 18.31                             118     0.1 6  235 234 
 CHI  HZ EP   1    621 52.23                             117    -0.1 6  249 195 
 CHI  HE ES   1    622 21.87                             117     0.1 6  249 195 
 CHI  HZ I         622 28.90        29.9 0.46                           249 195 
 DBB  SZ EP   1    622  2.62                             109     0.5 5  340 274 
 TOL  SZ EP   1    622  3.70                             109     0.8 5  344 225 
 PRA  HZ EP   1    622  7.34                             106    -0.8 4  392 210 
 PRA  HN ES   1    622 51.05                             106     1.1 4  392 210 
                                                                                
