 2016  625 0920 29.3 L   6.840 -73.111152.1  RSN 12 0.6 1.7LRSN                1
 GAP=120        1.19       4.6     4.4  7.8  0.4525E+00  0.8309E+01  0.1275E+02E
 Epicentro: LOS SANTOS - SANTANDER                                             3
 ACTION:UPD 16-07-21 22:22 OP:rebc STATUS:               ID:20160625092029 L   I
 OLDACT:REG 16-06-25 12:42 OP:ak   STATUS:               ID:20160625091743     3
 2016-06-25-0917-43M.COL___321                                                 6
 STAT SP IPHASW D HRMM SECON CODA AMPLIT PERI AZIMU VELO AIN AR TRES W  DIS CAZ7
 PAM  EZ EP        920 52.33                             154    0.4910 71.5  39 
 PAM  EN ES        921  9.64                             154    0.1910 71.5  39 
 PAM  EZ I         921 11.49         4.3 0.06                          71.5  39 
 BRR  HZ EP        920 50.69                             153   -0.5010 72.6 294 
 BRR  HN ES        921  9.00                             153    0.7210 72.6 294 
 BRR  HZ I         921 11.00         4.4 0.26                          72.6 294 
 RUS  HZ EP        920 53.71                             144   -0.2510  105 178 
 RUS  HN ES        921 12.89                             144   -0.3210  105 178 
 RUS  HZ I         921 14.55         7.7 0.40                           105 178 
 PTB  HZ EP        920 56.48                             132   -0.70 9  152 257 
 PTB  HN ES        921 18.05                             132   -0.90 9  152 257 
 PTB  HZ I         921 19.77         9.2 0.18                           152 257 
 ZAR  HZ EP        921  2.83                             123    0.50 8  206 291 
 ZAR  HN ES        921 27.72                             123   -0.40 8  206 291 
 ZAR  HZ I         921 33.52         6.9 0.34                           206 291 
 NOR  HZ EP   2    921  6.42                             119    0.44 4  240 234 
 NOR  HN ES   4    921 32.25                             119   -2.37 0  240 234 
 CHI  HZ EP   2    921  8.51                             118    0.60 4  254 196 
 CHI  HN ES        921 38.65                             118    0.61 8  254 196 
 HEL  HZ EP   2    921 11.16                             116    0.82 4  277 255 
 HEL  HE ES        921 42.90                             116    0.52 7  277 255 
 HEL  HZ I         921 50.47         3.4 0.30                           277 255 
 GUY2CHZ EP   4    921 15.57                             113    1.75 0  307 234 
 GUY2CHN ES        921 48.00                             113   -0.56 7  307 234 
 GUY2CHZ I         921 56.38         2.3 0.44                           307 234 
 PTGC HZ EP        921 13.02                             112   -0.72 7  312 160 
 PTGC HE ES   4    921 46.84                             112   -1.59 0  312 160 
 CBOC HZ EP   2    921 17.63                             111    0.60 3  339 252 
 CBOC HN ES        921 54.75                             111    0.47 7  339 252 
 CBOC HZ I         922  5.52         1.5 0.46                           339 252 
 PRA  HZ EP        921 23.96                             107    0.27 6  398 210 
 PRA  HE ES        922  7.04                             107    0.90 6  398 210 
 PRA  HZ I         922 12.68         2.6 0.46                           398 210 
                                                                                
