 2015  525 0754 29.3 L   6.797 -73.121150.4  RSN  5 0.2 1.2LRSN                1
 GAP=240        0.56       4.2     4.8  5.3  0.1121E+02  0.2393E+01 -0.6858E+00E
 Epicentro: LOS SANTOS - SANTANDER                                             3
 ACTION:UPD 15-09-10 22:06 OP:cam  STATUS:               ID:20150525075429 L   I
 OLDACT:REG 15-05-25 12:59 OP:spq  STATUS:               ID:20150525074745     3
 2015-05-25-0747-45M.COL___297                                                 6
 STAT SP IPHASW D HRMM SECON CODA AMPLIT PERI AZIMU VELO AIN AR TRES W  DIS CAZ7
 BAR2 EZ EP        754 49.40                             171   -0.0810 23.6 197 
 BAR2 EZ ES        755  5.18                             171   -0.0610 23.6 197 
 BAR2 EZ I    1    755  5.50         3.9 0.28            167           23.6 197 
 BRR  HZ EP        754 51.16                             152    0.0810 73.7 298 
 BRR  HN ES        755  8.33                             152    0.2510 73.7 298 
 BRR  HZ I         755 10.73         1.8 0.18            148           73.7 298 
 RUS  HZ EP   1    754 53.69                             145    0.23 7  100 178 
 RUS  HE ES   1    755 11.96                             145   -0.36 7  100 178 
 RUS  HZ I         755 13.05         1.3 0.22            145            100 178 
 SPBC HN ES   1    755 21.17                             130    0.27 7  165 220 
 SPBC HZ I         755 23.01         3.8 0.14            128            165 220 
 ZAR  HE ES        755 27.72                             123   -0.34 8  207 292 
 ZAR  HZ I         755 33.59         2.1 0.28            121            207 292 
                                                                                
