 2016 1225 0247 38.4 L   6.762 -73.176146.0  RSN  5 0.3 1.2LRSN                1
 GAP=231        0.68       5.3     4.9  6.0  0.1644E+02  0.8787E+00 -0.2496E+01E
 Epicentro: LOS SANTOS - SANTANDER                                             3
 ACTION:UPD 17-01-11 20:18 OP:rebc STATUS:               ID:20161225024738 L   I
 OLDACT:UP  16-12-25 18:01 OP:cog  STATUS:               ID:20161225023751d    3
 OLDACT:UP  16-12-25 18:01 OP:cog  STATUS:               ID:20161225023751d    3
 OLDACT:DUP 16-12-25 13:53 OP:cog  STATUS:               ID:20161225023751d    3
 2016-12-25-0238-00M.COL___381                                                 6
 STAT SP IPHASW D HRMM SECON CODA AMPLIT PERI AZIMU VELO AIN AR TRES W  DIS CAZ7
 BAR2 EZ EP        247 57.75                             172   -0.2310 18.8 182 
 BAR2 EZ ES        248 13.13                             172   -0.1210 18.8 182 
 BAR2 EZ I         248 13.87         2.9 0.20            173           18.8 182 
 BRR  HZ EP        247 59.27                             153   -0.2710 70.5 303 
 BRR  HN ES        248 16.49                             153    0.4610 70.5 303 
 BRR  HZ I         248 19.35         3.1 0.18            150           70.5 303 
 RUS  HZ EP        248  2.08                             145    0.1710 96.7 174 
 RUS  HN ES        248 20.34                             145    0.1010 96.7 174 
 PTB  HZ EP   4    248  7.84                             133    2.81 0  144 260 
 PTB  HN ES        248 25.67                             133   -0.13 9  144 260 
 PTB  HZ I         248 28.48         1.7 0.10            132            144 260 
 ZAR  HZ EP   3    248 12.27                             123    1.55 2  203 294 
 ZAR  HE ES        248 35.83                             123   -0.10 9  203 294 
 ZAR  HZ I         248 41.56         2.0 0.11            122            203 294 
                                                                                
