 2017  425 0427 13.8 L   6.712 -73.163149.1  RSN  6 0.4 1.3LRSN                1
 GAP=153        0.58       5.6     3.2  4.8  0.1386E+01  0.1875E+00 -0.3715E+01E
 Epicentro: VILLANUEVA - SANTANDER                                             3
 ACTION:UPD 17-05-30 21:15 OP:jn   STATUS:               ID:20170425042713 L   I
 OLDACT:UP  17-04-25 13:51 OP:and  STATUS:               ID:20170425041737d    3
 OLDACT:UP  17-04-25 13:51 OP:and  STATUS:               ID:20170425041737d    3
 OLDACT:UP  17-04-25 13:50 OP:and  STATUS:               ID:20170425041737d    3
 OLDACT:UP  17-04-25 13:50 OP:and  STATUS:               ID:20170425041737d    3
 OLDACT:DUP 17-04-25 13:49 OP:and  STATUS:               ID:20170425041737d    3
 OLDACT:UP  17-04-25 13:48 OP:and  STATUS:               ID:20170425041736     3
 OLDACT:UP  17-04-25 13:48 OP:and  STATUS:               ID:20170425041736     3
 OLDACT:UP  17-04-25 13:48 OP:and  STATUS:               ID:20170425041736     3
 OLDACT:UP  17-04-25 13:47 OP:and  STATUS:               ID:20170425041736     3
 OLDACT:REG 17-04-25 12:16 OP:and  STATUS:               ID:20170425041736     3
 2017-04-25-0418-00M.COL___368                                                 6
 STAT SP IPHASW D HRMM SECON CODA AMPLIT PERI AZIMU VELO AIN AR TRES W  DIS CAZ7
 BAR2 EZ EP        427 33.86                             175    0.1810 13.4 189 
 BAR2 EZ ES        427 49.11                             175   -0.0710 13.4 189 
 BAR2 EZ I         427 50.73         3.2 0.25            165           13.4 189 
 BRR  HZ EP        427 35.51                             152   -0.0010 74.7 306 
 BRR  HN ES        427 52.69                             152    0.2410 74.7 306 
 PAM  EZ IP     D  427 36.81                             148   -0.1110 86.2  36 
 PTB  HZ EP        427 40.64                             134   -0.10 9  144 262 
 PTB  HN ES        428  1.39                             134   -0.35 9  144 262 
 PTB  HZ I         428  7.30         1.7 0.38            129            144 262 
 SPBC HN ES   3    428  5.24                             132    1.68 2  154 221 
 SPBC HZ I         428 10.51         3.8 0.06            126            154 221 
 ZAR  HZ EP   3    427 47.54                             123    0.85 2  206 295 
 ZAR  HN ES        428 12.37                             123    0.04 8  206 295 
 ZAR  HZ I         428 17.61         2.7 0.28            121            206 295 
                                                                                
