 2016 1125 0549 56.6 L   6.560 -73.239142.0  RSN  5 0.3 1.0LRSN                1
 GAP=209        0.74       8.1     3.9  5.1  0.4670E+01  0.9465E+00 -0.3392E+01E
 Epicentro: CABRERA - SANTANDER                                                3
 ACTION:UPD 17-10-26 21:11 OP:lp   STATUS:               ID:20161125054956 L   I
 OLDACT:UP  16-11-25 17:02 OP:edw  STATUS:               ID:20161125054743     3
 OLDACT:UP  16-11-25 17:01 OP:edw  STATUS:               ID:20161125054743     3
 OLDACT:REG 16-11-25 12:55 OP:edw  STATUS:               ID:20161125054743     3
 2016-11-25-0548-00M.COL___355                                                 6
 STAT SP IPHASW D HRMM SECON CODA AMPLIT PERI AZIMU VELO AIN AR TRES W  DIS CAZ7
 BAR2 EZ EP        550 15.22                             177   -0.3810 7.19  61 
 BAR2 EZ ES        550 30.59                             177    0.2010 7.19  61 
 BAR2 EZ I         550 33.40         4.5 0.52            177           7.19  61 
 BRR  HZ EP   9    550 17.11                             149   -0.80 0 79.9 319 
 BRR  HN ES        550 33.87                             150    0.1710 79.9 319 
 PAM  EZ EP        550 20.34                             142    0.0110  105  35 
 PTB  HZ EP        550 22.18                             134    0.0510  135 269 
 PTB  HN ES        550 42.02                             134    0.0110  135 269 
 PTB  HZ I         550 46.05         1.0 0.17            134            135 269 
 ZAR  HZ EP        550 29.67                             121    0.57 8  206 300 
 ZAR  HN ES        550 53.99                             121   -0.42 8  206 300 
 ZAR  HZ I         550 59.38         0.8 0.19            122            206 300 
                                                                                
