 2010  725 0959 43.4 L   6.519 -72.605  1.5  RSN  4 0.2 1.9LRSN                1
 GAP=219        0.53       3.0     5.9  9.0  0.6390E+01  0.3773E+02  0.1160E+02E
 Epicentro: CAPITANEJO - SANTANDER                                             3
 ACTION:UPD 10-12-01 15:20 OP:pat  STATUS:               ID:20100725095943 L   I
 2010-07-25-0956-48S.COL___123                                                 6
 STAT SP IPHASW D HRMM SECON CODA AMPLIT PERI AZIMU VELO AIN AR TRES W  DIS CAZ7
 BRR  HZ EP       10 0  5.49                              47     0.110  139 298 
 BRR  HZ I        10 0  7.61        48.7 0.11                           139 298 
 BRR  HN ES   1   10 0 22.43                              47    -0.1 7  139 298 
 GUE  SZ EP   1   10 0  6.97                              47    -0.3 7  149 346 
 GUE  SZ I        10 0 11.00         7.5 0.10                           149 346 
 GRA  SZ EP   1   10 0  7.93                              47     0.3 7  153 352 
 GRA  SZ I        10 0 36.69        12.4 0.61                           153 352 
 CHI  HZ EP       10 0 19.88                              37    -0.1 8  243 211 
 CHI  HE ES   2   10 0 48.81                              37     0.2 4  243 211 
                                                                                
