 2016 1225 0855  3.5 L   6.648 -73.165140.3  RSN  4 0.1 1.0LRSN                1
 GAP=224        0.41       3.1     3.0  3.3  0.4535E+01  0.1586E+01  0.4819E+00E
 Epicentro: VILLANUEVA - SANTANDER                                             3
 ACTION:UPD 17-01-11 20:18 OP:rebc STATUS:               ID:20161225085503 L   I
 OLDACT:DUP 16-12-25 17:07 OP:cog  STATUS:               ID:20161225084744d    3
 2016-12-25-0848-00M.COL___366                                                 6
 STAT SP IPHASW D HRMM SECON CODA AMPLIT PERI AZIMU VELO AIN AR TRES W  DIS CAZ7
 BAR2 EZ EP        855 22.43                             177    0.1810 6.48 197 
 BAR2 EZ ES        855 36.84                             177   -0.0310 6.48 197 
 BAR2 EZ I         855 38.40         3.0 0.36            173           6.48 197 
 BRR  HZ EP        855 24.45                             149   -0.0810 78.9 310 
 BRR  HN ES        855 40.92                             149   -0.0210 78.9 310 
 BRR  HZ I         855 50.04         2.2 0.66            148           78.9 310 
 RUS  HZ EP        855 25.34                             148   -0.2210 84.0 174 
 RUS  HE ES        855 42.85                             148    0.0810 84.0 174 
 RUS  HZ I         855 46.42         1.2 0.26            153           84.0 174 
 PTB  HZ EP        855 29.77                             132    0.15 9  143 265 
 PTB  HN ES        855 49.94                             132   -0.05 9  143 265 
 PTB  HZ I         855 55.27         1.0 0.28            133            143 265 
 ZAR  HN ES   4    855 57.52                             120   -4.04 0  209 297 
                                                                                
