 2011  825 0544 26.5 L   6.804 -73.061146.3  RSN  5 0.2 1.5LRSN                1
 GAP=192        0.54       4.6     9.7  5.3  0.2369E+02 -0.1378E+02 -0.7494E+01E
 Epicentro: LOS SANTOS - SANTANDER                                             3
 ACTION:UPD 12-07-13 15:53 OP:ep   STATUS:               ID:20110825054426 L   I
 2011-08-25-0540-00M.COL___156                                                 6
 STAT SP IPHASW D HRMM SECON CODA AMPLIT PERI AZIMU VELO AIN AR TRES W  DIS CAZ7
 BAR2 SZ ES   1    545  1.09                             169   -0.56 7 27.0 210 
 BAR2 SZ I         545  2.91        12.3 0.30                          27.0 210 
 GIR2 SZ EP   1    544 46.34                             166    0.09 7 33.7 334 
 GIR2 SZ ES   1    545  2.02                             166    0.32 7 33.7 334 
 BRR  HZ EP        544 48.09                             150   -0.0410 79.3 295 
 BRR  HE ES   1    545  5.12                             150    0.08 7 79.3 295 
 RUS  HZ EP   1    544 50.29                             144    0.01 7  101 181 
 RUS  HN ES   1    545  9.08                             144    0.22 7  101 181 
 RUS  HZ I         545 10.20         3.4 0.40                           101 181 
 OCA  SZ EP   1    544 54.78                             130   -0.11 7  161 350 
 OCA  SZ I         545 20.06         4.0 0.26                           161 350 
                                                                                
