 2017  925 0055 56.0 L   6.781 -73.113147.3  RSN  5 0.3 1.3LRSN                1
 GAP=239        0.71       4.4     4.8  5.6  0.9394E+01  0.8993E+01  0.4994E+01E
 Epicentro: LOS SANTOS - SANTANDER                                             3
 ACTION:UPD 17-10-05 19:15 OP:rebc STATUS:               ID:20170925005556 L   I
 OLDACT:UP  17-09-25 14:11 OP:edw  STATUS:               ID:20170925005337     3
 OLDACT:REG 17-09-25 14:08 OP:edw  STATUS:               ID:20170925005337     3
 2017-09-25-0054-00M.COL___402                                                 6
 STAT SP IPHASW D HRMM SECON CODA AMPLIT PERI AZIMU VELO AIN AR TRES W  DIS CAZ7
 BAR2 EZ EP        056 15.94                             171    0.1010 22.2 200 
 BAR2 EZ ES        056 30.92                             171   -0.3510 22.2 200 
 BAR2 EZ I         056 31.99         6.0 0.72            163           22.2 200 
 BRR  HZ EP        056 17.55                             151   -0.0410 75.3 299 
 BRR  HE ES        056 34.32                             151   -0.0810 75.3 299 
 RUS  HZ EP        056 19.89                             145    0.1110 98.3 178 
 RUS  HN ES        056 38.65                             145    0.3510 98.3 178 
 RUS  HZ I         056 40.47         2.7 0.32            141           98.3 178 
 ZAR  HN ES        056 55.15                             122    0.42 8  208 292 
 NOR  HZ EP        056 31.53                             119   -0.51 8  236 235 
 NOR  HN ES        057  0.05                             119   -0.08 8  236 235 
 NOR  HZ I         057  7.25         1.4 0.40            117            236 235 
                                                                                
