 2014  425 0331 17.6 L   6.819 -73.111134.5  RSN  5 0.4 1.6LRSN                1
 GAP=204        0.73       5.5     8.5 16.1  0.1100E+02 -0.2208E+02 -0.5318E+02E
 Epicentro: LOS SANTOS - SANTANDER                                             3
 ACTION:UPD 14-05-13 23:11 OP:nd   STATUS:               ID:20140425033117 L   I
 OLDACT:REG 14-04-25 13:38 OP:spq  STATUS:               ID:20140425032805     3
 2014-04-25-0328-05M.COL___242                                                 6
 STAT SP IPHASW D HRMM SECON CODA AMPLIT PERI AZIMU VELO AIN AR TRES W  DIS CAZ7
 RUS  HN ES   2    331 58.49                             141    0.24 5  103 178 
 PTB  HZ EP   1    331 43.69                             128   -0.42 7  152 258 
 PTB  HN ES        332  4.41                             128   -0.3510  152 258 
 PTB  HZ I         332  6.91         5.0 0.12            128            152 258 
 SPBC HE ES   1    332  7.77                             125    0.18 7  167 220 
 ZAR  HZ EP   1    331 50.06                             119    0.38 7  207 291 
 ZAR  HN ES   1    332 15.37                             119    0.71 7  207 291 
 ZAR  HZ I         332 22.79         3.9 0.26            119            207 291 
 SML  HE ES   1    332 21.49                             115   -0.21 6  243 334 
                                                                                
