 2013  725 0406 21.0 L   6.788 -73.177154.1  RSN  5 0.2 1.7LRSN                1
 GAP=177        0.61       3.2     4.5  5.0  0.3692E+01 -0.2983E+01 -0.3132E+01E
 Epicentro: LOS SANTOS - SANTANDER                                             3
 ACTION:UPD 13-08-12 10:39 OP:ep   STATUS:               ID:20130725040621 L   I
 OLDACT:UP  13-07-25 11:36 OP:cam  STATUS:               ID:20130725035959     3
 OLDACT:REG 13-07-25 09:52 OP:cam  STATUS:               ID:20130725035959     3
 2013-07-25-0359-59M.COL___267                                                 6
 STAT SP IPHASW D HRMM SECON CODA AMPLIT PERI AZIMU VELO AIN AR TRES W  DIS CAZ7
 GIR2 SZ EP        4 6 41.45                             168   -0.2610 32.3 357 
 GIR2 SZ ES   1    4 6 57.87                             168    0.02 7 32.3 357 
 BRR  HZ EP        4 6 43.17                             155    0.2110 68.9 301 
 BRR  HN ES        4 7  0.30                             155    0.2310 68.9 301 
 BRR  HZ I         4 7  2.52         7.1 0.28            152           68.9 301 
 RUS  HZ EP        4 6 45.89                             146    0.3610 99.5 174 
 RUS  HN ES   1    4 7  4.22                             146   -0.42 7 99.5 174 
 RUS  HZ I         4 7  4.92         3.3 0.22            150           99.5 174 
 PTB  HZ EP   1    4 6 48.41                             135    0.04 7  144 259 
 PTB  HN ES        4 7  9.52                             135   -0.17 9  144 259 
 PTB  HZ I         4 7 11.14         5.4 0.18            135            144 259 
 SML  HZ EP        4 6 57.86                             119   -0.26 8  244 336 
 SML  HN ES        4 7 27.02                             119   -0.03 8  244 336 
 SML  HZ I         4 7 36.81         8.4 0.10            119            244 336 
                                                                                
