 2010  625 0525  1.8 L   6.783 -73.061145.7  RSN  5 0.2 1.6LRSN                1
 GAP=168        0.47       7.0     8.0  7.2 -0.3595E+02 -0.1365E+02  0.7204E+01E
 Epicentro: LOS SANTOS - SANTANDER                                             3
 ACTION:UP  10-08-24 10:12 OP:vdl  STATUS:               ID:20100625052501 L   I
 2010-06-25-0521-49S.COL___118                                                 6
 STAT SP IPHASW D HRMM SECON CODA AMPLIT PERI AZIMU VELO SNR AR TRES W  DIS CAZ7
 BRR  HZ EP        525 23.63                             150     0.110   80 297 
 BRR  HE ES   2    525 40.22                             150    -0.2 5   80 297 
 BRR  HZ I         525 42.35        10.2 0.11                            80 297 
 RUS  HE ES   3    525 43.63                             144    -0.2 2   99 181 
 GUE  SZ EP        525 26.64                             140     0.110  117   7 
 GRA  SZ EP        525 26.95                             138     0.010  125  13 
 GRA  SZ ES   1    525 46.76                             138     0.1 7  125  13 
 OCA  SZ EP        525 30.11                             130    -0.3 9  163 350 
 OCA  SZ I         525 53.88         3.5 0.34                           163 350 
                                                                                
