 2015 1225 0033 16.2 L   6.740 -73.192152.0  RSN  5 0.4 1.4LRSN                1
 GAP=227        0.68       5.4     6.0  7.5  0.1364E+02 -0.8160E+00  0.8887E+01E
 Epicentro: VILLANUEVA - SANTANDER                                             3
 ACTION:UPD 16-02-04 15:07 OP:cam  STATUS:               ID:20151225003316 L   I
 OLDACT:UP  15-12-25 17:02 OP:dnl  STATUS:               ID:20151225002746     3
 OLDACT:REG 15-12-25 12:41 OP:dnl  STATUS:               ID:20151225002746     3
 2015-12-25-0027-46M.COL___337                                                 6
 STAT SP IPHASW D HRMM SECON CODA AMPLIT PERI AZIMU VELO AIN AR TRES W  DIS CAZ7
 BRR  HZ EP        033 37.82                             154   -0.1510 70.4 305 
 BRR  HN ES        033 55.28                             154    0.3210 70.4 305 
 BRR  HZ I         033 57.60         4.9 0.19            152           70.4 305 
 RUS  HZ EP   2    033 40.37                             147    0.24 5 94.5 173 
 RUS  HE ES   2    033 58.16                             147   -0.66 5 94.5 173 
 RUS  HZ I         034  1.10                             146           94.5 173 
 PTB  HZ EP        033 42.82                             135   -0.31 9  142 261 
 PTB  HN ES        034  4.06                             135   -0.08 9  142 261 
 PTB  HZ I         034  9.28         3.1 0.17            133            142 261 
 ZAR  HE ES        034 14.34                             124    0.03 9  202 294 
 ZAR  HZ I         034 20.63         4.9 0.28            125            202 294 
 CHI  HZ EP   2    033 54.12                             120    0.71 4  241 194 
 CHI  HE ES   2    034 23.28                             120    0.83 4  241 194 
 CHI  HZ I         034 26.02         0.8 0.23            120            241 194 
 SJC  HZ EP   4    034  9.56                             107   -2.73 0  412 328 
 SJC  HE ES   4    034 52.79                             107   -3.27 0  412 328 
                                                                                
