 2017  325 0845 59.7 L   6.824 -73.155151.5  RSN 12 0.5 2.0LRSN                1
 GAP=117        1.01       3.1     4.1  5.1  0.9999E+00  0.3961E+01  0.2217E+01E
 Epicentro: LOS SANTOS - SANTANDER                                             3
 ACTION:UPD 17-05-25 18:44 OP:jn   STATUS:               ID:20170325084559 L   I
 OLDACT:UP  17-03-25 15:25 OP:dani STATUS:               ID:20170325083638     3
 OLDACT:REG 17-03-25 12:49 OP:dani STATUS:               ID:20170325083638     3
 2017-03-25-0838-00M.COL___352                                                 6
 STAT SP IPHASW D HRMM SECON CODA AMPLIT PERI AZIMU VELO AIN AR TRES W  DIS CAZ7
 BAR2 EZ EP        846 20.14                             170    0.0410 25.8 187 
 BAR2 EZ ES        846 35.41                             170   -0.5710 25.8 187 
 BAR2 EZ I         846 36.79        40.9 0.14            169           25.8 187 
 BRR  HZ EP        846 21.96                             154    0.5810 69.1 297 
 BRR  HN ES        846 39.08                             154    0.8110 69.1 297 
 BRR  HZ I         846 40.37        16.5 0.15            151           69.1 297 
 PAM  EZ EP     D  846 22.86                             152    0.3810 76.1  41 
 PAM  EN ES        846 40.14                             152   -0.0810 76.1  41 
 PAM  EZ I         846 42.29        16.0 0.58            155           76.1  41 
 RUS  HZ EP        846 24.43                             144    0.1910  103 176 
 RUS  HE ES        846 42.94                             144   -0.4110  103 176 
 RUS  HZ I         846 44.25         8.9 0.24            145            103 176 
 PTB  HZ EP        846 26.83                             133   -0.30 9  147 258 
 PTB  HN ES        846 48.06                             133   -0.43 9  147 258 
 PTB  HZ I         846 55.04         9.4 0.20            131            147 258 
 SPBC HZ EP        846 28.92                             130    0.12 9  165 218 
 SPBC HN ES        846 51.47                             130   -0.01 9  165 218 
 SPBC HZ I         846 55.38        13.8 0.14            129            165 218 
 ZAR  HZ EP        846 32.15                             124   -0.21 9  202 292 
 ZAR  HN ES        846 57.74                             124   -0.07 9  202 292 
 ZAR  HZ I         847  3.38        11.5 0.24            123            202 292 
 CHI  HZ EP        846 38.48                             118    0.49 8  251 195 
 CHI  HN ES        847  8.12                             118    0.28 8  251 195 
 CHI  HZ I         847 11.48         4.8 0.38            118            251 195 
 URE  HE ES   3    847 10.84                             115   -2.12 2  282 291 
 PTGC HZ EP        846 43.35                             112   -0.81 7  311 159 
 PTGC HN ES   4    847 16.61                             112   -2.21 0  311 159 
 PTGC HZ I         847 20.35         3.0 0.28            113            311 159 
 PRA  HZ EP        846 54.01                             107    0.35 6  394 209 
 PRA  HN ES        847 35.97                             107    0.25 6  394 209 
 PRA  HZ I         847 42.14         5.7 0.70            107            394 209 
 SJC  HZ EP        846 54.34                             107   -0.82 6  406 327 
 SJC  HE ES        847 37.93                             107   -0.47 6  406 327 
 SJC  HZ I         847 49.66         1.5 0.43            107            406 327 
                                                                                
