 2011  325 0502 12.0 L   6.777 -73.116144.9  RSN  4 0.3 1.9LRSN                1
 GAP=184        0.66       7.2     9.6  9.4 -0.2698E+02 -0.2376E+02  0.2998E+01E
 Epicentro: LOS SANTOS - SANTANDER                                             3
 ACTION:UP  11-06-16 14:35 OP:jfem STATUS:               ID:20110325050212 L   I
 2011-03-25-0501-18S.COL___120                                                 6
 STAT SP IPHASW D HRMM SECON CODA AMPLIT PERI AZIMU VELO SNR AR TRES W  DIS CAZ7
 BAR2 SZ EP   1    5 2 31.71                             171     0.2 7   22 200 
 BAR2 SZ ES   2    5 2 46.30                             171    -0.4 5   22 200 
 BAR2 SZ I         5 2 47.67         7.9 0.33                            22 200 
 BRR  HZ EP   1    5 2 33.56                             151     0.2 7   75 299 
 BRR  HZ I         5 2 34.04        14.9 0.12                            75 299 
 BRR  HN ES   1    5 2 49.93                             151     0.0 7   75 299 
 GRA  SZ EP   2    5 2 37.23                             136    -0.1 5  127  16 
 GRA  SZ ES   1    5 2 57.24                             136     0.2 7  127  16 
 GRA  SZ I         5 2 57.81        73.6 0.25                           127  16 
 OCA  SZ EP   2    5 2 39.76                             129    -0.8 5  163 352 
 OCA  SZ I         5 3  3.13         4.3 0.40                           163 352 
                                                                                
