 2010 1125 0545 50.3 L   6.775 -73.088151.0  RSN  5 0.4 1.5LRSN                1
 GAP=165        0.97       8.6    17.2 15.7  0.6883E+02 -0.1690E+03 -0.7524E+02E
 Epicentro: LOS SANTOS - SANTANDER                                             3
 ACTION:UP  10-12-17 16:54 OP:REBC STATUS:               ID:20101125054550 L   I
 2010-11-25-0542-49S.COL___132                                                 6
 STAT SP IPHASW D HRMM SECON CODA AMPLIT PERI AZIMU VELO SNR AR TRES W  DIS CAZ7
 BAR2 SZ ES   2    546 26.34                             171     0.0 5   23 208 
 BAR2 SZ I         546 29.33         7.0 0.43                            23 208 
 BTL  SZ EP   1    546  9.70                             170    -0.9 8   25 309 
 BRR  HZ EP   1    546 12.35                             151    -0.1 8   78 298 
 BRR  HZ I         546 12.80        13.2 0.13                            78 298 
 BRR  HE ES   1    546 29.89                             151     0.2 8   78 298 
 RUS  HZ EP   1    546 14.73                             146     0.4 8   98 180 
 RUS  HN ES   1    546 33.08                             146     0.0 8   98 180 
 RUS  HZ I         546 35.18         2.3 0.04                            98 180 
 GRA  SZ EP        546 16.28                             138     0.210  127  14 
 GRA  SZ I         546 17.43         4.8 0.26                           127  14 
                                                                                
