 2017 1225 0806 25.2 L   6.781 -73.163148.8  RSN  5 0.3 1.3LRSN                1
 GAP=146        0.83       4.8     4.2  6.6 -0.6547E+01  0.1030E+02 -0.7854E+01E
 Epicentro: LOS SANTOS - SANTANDER                                             3
 ACTION:UPD 18-01-04 13:24 OP:rebc STATUS:               ID:20171225080625 L   I
 OLDACT:DUP 17-12-25 16:36 OP:osc  STATUS:               ID:20171225074951d    3
 OLDACT:DUP 17-12-25 16:31 OP:osc  STATUS:               ID:20171225074950d    3
 2017-12-25-0758-00M.COL___448                                                 6
 STAT SP IPHASW D HRMM SECON CODA AMPLIT PERI AZIMU VELO AIN AR TRES W  DIS CAZ7
 BAR2 EZ EP        8 6 45.33                             172    0.2210 20.9 186 
 BAR2 EZ ES        8 7  0.58                             172   -0.0910 20.9 186 
 BAR2 EZ I         8 7  3.16         4.7 0.30            174           20.9 186 
 PAM  EZ EP        8 6 48.36                             150    0.4910 80.3  40 
 PAM  EN ES        8 7  5.38                             150   -0.2110 80.3  40 
 PAM  EZ I         8 7  8.02         2.0 0.51            153           80.3  40 
 PTB  HZ EP        8 6 52.08                             133   -0.09 9  145 260 
 PTB  HE ES        8 7 13.11                             133   -0.12 9  145 260 
 PTB  HZ I         8 7 15.72         1.3 0.12            135            145 260 
 OCA  HZ EP        8 6 53.76                             130   -0.13 9  162 354 
 OCA  HE ES        8 7 16.17                             130   -0.12 9  162 354 
 OCA  HZ I         8 7 19.13         3.4 0.24            131            162 354 
 ZAR  HZ EP        8 6 57.08                             123   -0.62 9  203 293 
 ZAR  HN ES        8 7 23.68                             123    0.59 9  203 293 
 ZAR  HZ I         8 7 28.83         2.7 0.07            125            203 293 
                                                                                
