 2017  125 0244  0.3 L   6.855 -73.171137.2  RSN  6 0.4 1.1LRSN                1
 GAP=131        1.13       5.6     4.9  8.4  0.2067E+01  0.9759E+01  0.1114E+01E
 Epicentro: ZAPATOCA - SANTANDER                                               3
 ACTION:UPD 17-05-22 16:03 OP:jn   STATUS:               ID:20170125024400 L   I
 OLDACT:DUP 17-01-25 14:13 OP:lv   STATUS:               ID:20170125023751d    3
 2017-01-25-0238-00M.COL___355                                                 6
 STAT SP IPHASW D HRMM SECON CODA AMPLIT PERI AZIMU VELO AIN AR TRES W  DIS CAZ7
 BAR2 EZ ES        244 34.24                             167    0.5910 29.0 182 
 BAR2 EZ I         244 35.17         4.8 0.26            166           29.0 182 
 BRR  HZ EP        244 20.32                             153    0.1010 66.0 295 
 BRR  HE ES        244 34.94                             153   -0.8310 66.0 295 
 PAM  EZ EP        244 21.47                             150    0.0310 74.7  44 
 PAM  EE ES        244 37.95                             150    0.0110 74.7  44 
 RUS  HZ EP        244 23.87                             140    0.1810  107 175 
 RUS  HN ES        244 41.73                             140   -0.2110  107 175 
 RUS  HZ I         244 43.33         1.4 0.26            140            107 175 
 PTB  HZ EP        244 25.86                             130   -0.58 9  146 256 
 PTB  HE ES        244 46.95                             130    0.11 9  146 256 
 PTB  HZ I         244 48.42         1.9 0.16            131            146 256 
 ZAR  HE ES        244 56.88                             121    0.70 9  199 291 
                                                                                
