 2013  825 0320  6.4 L   6.774 -73.135148.2  RSN  9 0.4 1.4LRSN                1
 GAP=139        1.08       3.8     4.3  6.7 -0.1522E+01  0.2864E+01 -0.2701E+01E
 Epicentro: LOS SANTOS - SANTANDER                                             3
 ACTION:UPD 14-01-14 09:06 OP:ep   STATUS:               ID:20130825032006 L   I
 OLDACT:REG 13-08-25 08:17 OP:wtll STATUS:               ID:20130825031852     3
 2013-08-25-0318-52M.COL___232                                                 6
 STAT SP IPHASW D HRMM SECON CODA AMPLIT PERI AZIMU VELO AIN AR TRES W  DIS CAZ7
 BAR2 SZ EP        320 26.43                             172    0.1310 20.7 194 
 BAR2 SZ I         320 26.69         7.8 0.10            170           20.7 194 
 BAR2 SZ ES        320 41.51                             172   -0.2910 20.7 194 
 BRR  HZ IP     C  320 28.32                             152    0.3510 73.6 300 
 BRR  HZ I         320 28.58         6.6 0.24            151           73.6 300 
 BRR  HN ES        320 45.32                             152    0.5410 73.6 300 
 PAM  SZ IP     D  320 29.41                             151    0.4210 78.9  38 
 PAM  SZ I         320 29.53         6.1 0.24            153           78.9  38 
 PAM  SN ES        320 46.68                             151    0.0810 78.9  38 
 RUS  HZ EP        320 30.34                             145    0.1310 97.6 177 
 RUS  HZ I         320 31.19         1.7 0.46            145           97.6 177 
 RUS  HN ES        320 48.45                             145   -0.3110 97.6 177 
 PTB  HZ EP        320 33.52                             132   -0.12 9  148 260 
 PTB  HN ES        320 54.24                             132   -0.64 9  148 260 
 PTB  HZ I         321  0.44         2.9 0.46            131            148 260 
 CAPV BZ EP        320 33.80                             132   -0.36 9  151  37 
 SPBC HZ EP        320 35.10                             130    0.13 9  162 220 
 SPBC HN ES        320 57.22                             130   -0.01 9  162 220 
 SPBC HZ I         320 59.84         3.8 0.30            129            162 220 
 ZAR  HN ES        321  5.53                             123    0.68 8  206 293 
 SML  HN ES        321 11.39                             118   -1.07 8  247 335 
                                                                                
