 2011  325 0713  6.6 L   6.780 -73.113144.7  RSN 10 0.3 2.1LRSN                1
 GAP=138        0.63       3.1     5.1  5.2 -0.6437E+01  0.3308E+01  0.4095E+01E
 Epicentro: LOS SANTOS - SANTANDER                                             3
 ACTION:UP  11-06-16 14:35 OP:jfem STATUS:               ID:20110325071306 L   I
 2011-03-25-0708-49S.COL___120                                                 6
 STAT SP IPHASW D HRMM SECON CODA AMPLIT PERI AZIMU VELO SNR AR TRES W  DIS CAZ7
 BAR2 SZ IP        713 26.01                             171    -0.110   22 200 
 BAR2 SZ ES   1    713 41.16                             171    -0.1 7   22 200 
 BAR2 SZ I         713 42.78        35.4 0.19                            22 200 
 BRR  HZ EP   2    713 27.61                             151    -0.3 5   75 299 
 BRR  HN ES   2    713 44.93                             151     0.4 5   75 299 
 BRR  HZ I         713 47.01        24.6 0.29                            75 299 
 GRA  SZ IP        713 31.87                             136     0.010  127  16 
 GRA  SZ ES   1    713 51.62                             136     0.1 7  127  16 
 GRA  SZ I         713 54.68        12.4 0.42                           127  16 
 OCA  SZ EP   1    713 35.07                             129     0.0 7  163 352 
 OCA  SZ ES   2    713 56.97                             129    -0.3 5  163 352 
 OCA  SZ I         714  0.04        13.1 0.26                           163 352 
 YOP  SZ EP   1    713 36.77                             127     0.5 7  175 154 
 YOP  SZ I         713 38.19         6.4 0.16                           175 154 
 NOR  SZ EP   1    713 42.12                             118    -0.3 6  237 236 
 NOR  SN ES   2    714 10.00                             118    -0.4 4  237 236 
 CHI  HZ EP        713 43.69                             117    -0.4 8  247 196 
 CHI  HN ES   2    714 13.43                             117     0.1 4  247 196 
 CHI  HZ I         714 17.11         6.4 0.50                           247 196 
 HEL  HZ EP        713 47.47                             114     0.4 8  275 256 
 HEL  HZ I         714 23.87         8.6 0.49                           275 256 
 RREF HE ES   2    714 29.60                             110     0.7 3  323 230 
 RREF HZ I         714 38.12         7.8 0.47                           323 230 
 PRA  HZ EP   2    714  0.14                             106     0.1 3  392 210 
 PRA  HE ES   2    714 42.11                             106     0.3 3  392 210 
                                                                                
