 2017  325 0713 25.6 L   6.802 -73.114148.3  RSN 14 0.6 2.3LRSN                1
 GAP=122        1.20       3.9     4.6  6.0  0.1660E+00  0.6979E+01  0.3537E+01E
 Epicentro: LOS SANTOS - SANTANDER                                             3
 ACTION:UPD 17-05-25 18:44 OP:jn   STATUS:               ID:20170325071325 L   I
 OLDACT:UP  17-03-25 14:41 OP:dani STATUS:               ID:20170325070643d    3
 OLDACT:DUP 17-03-25 14:36 OP:dani STATUS:               ID:20170325070643d    3
 OLDACT:UP  17-03-25 14:36 OP:dani STATUS:               ID:20170325070642     3
 OLDACT:UP  17-03-25 14:35 OP:dani STATUS:               ID:20170325070642     3
 OLDACT:REG 17-03-25 12:42 OP:dani STATUS:               ID:20170325070642     3
 2017-03-25-0707-00M.COL___352                                                 6
 STAT SP IPHASW D HRMM SECON CODA AMPLIT PERI AZIMU VELO AIN AR TRES W  DIS CAZ7
 BAR2 EZ EP     D  713 45.70                             171    0.1210 24.4 198 
 BAR2 EZ ES        714  0.58                             171   -0.5710 24.4 198 
 BAR2 EZ I         714  1.72        53.9 0.18            167           24.4 198 
 BRR  HZ EP     C  713 47.62                             152    0.4010 74.2 297 
 BRR  HN ES        714  4.58                             152    0.5210 74.2 297 
 BRR  HZ I         714  7.66        39.8 0.30            150           74.2 297 
 PAM  EZ EP     D  713 48.59                             151    0.6110 75.1  38 
 PAM  EE ES        714  5.73                             151    0.3210 75.1  38 
 PAM  EZ I         714  8.02        62.1 0.66            156           75.1  38 
 RUS  HZ EP        713 49.90                             144    0.2710  101 178 
 RUS  HE ES        714  8.00                             144   -0.3510  101 178 
 RUS  HZ I         714  9.33        25.4 0.32            144            101 178 
 PTB  HZ EP        713 52.36                             132   -0.75 9  151 259 
 PTB  HN ES        714 13.74                             132   -0.81 9  151 259 
 PTB  HZ I         714 15.31        26.4 0.46            130            151 259 
 SPBC HZ EP        713 54.82                             129    0.28 9  166 220 
 SPBC HE ES        714 17.06                             129   -0.04 9  166 220 
 SPBC HZ I         714 23.89        22.5 0.32            128            166 220 
 ZAR  HZ EP        713 58.88                             122    0.32 8  207 292 
 ZAR  HE ES        714 24.39                             122    0.14 8  207 292 
 ZAR  HZ I         714 30.67        32.8 0.42            122            207 292 
 CHI  HZ EP   3    714  5.06                             117    1.47 2  250 196 
 CHI  HN ES        714 32.79                             117   -0.41 8  250 196 
 CHI  HZ I         714 40.37         6.2 0.31            117            250 196 
 URE  HZ EP        714  6.00                             114   -1.17 7  287 292 
 URE  HN ES   4    714 37.12                             114   -2.45 0  287 292 
 PTGC HZ EP     C  714  8.84                             112   -0.64 7  308 159 
 PTGC HE ES   4    714 41.96                             112   -1.72 0  308 159 
 PTGC HZ I         714 44.68         9.2 0.48            113            308 159 
 CBOC HZ EP   3    714 14.04                             110    1.01 2  337 252 
 CBOC HN ES        714 50.31                             110    0.31 7  337 252 
 CBOC HZ I         715  0.24         2.8 0.60            110            337 252 
 PRA  HZ EP        714 20.17                             107    0.71 6  394 210 
 PRA  HN ES        715  2.16                             107    0.72 6  394 210 
 PRA  HZ I         715  8.16         9.3 0.64            107            394 210 
 ORTC HZ EP        714 20.68                             107    0.79 6  398 217 
 ORTC HE ES   3    715  3.68                             107    1.46 1  398 217 
 ORTC HZ I         715  8.88         4.1 0.14            107            398 217 
 SJC  HZ EP        714 20.42                             106   -1.05 6  411 327 
 SJC  HN ES   4    715  1.95                             106   -3.08 0  411 327 
 SJC  HZ I         715  6.09         3.5 0.29            107            411 327 
                                                                                
