 2012  625 0401 14.9 L   6.107 -73.714100.1  RSN  6 0.4 1.0LRSN                1
 GAP=120        0.77       4.8     4.7 10.0  0.9425E+01  0.2236E+02  0.1474E+02E
 Epicentro: BOLIVAR - SANTANDER                                                3
 ACTION:UPD 12-08-06 17:52 OP:ep   STATUS:               ID:20120625040114 L   I
 2012-06-25-0400-00M.COL___198                                                 6
 STAT SP IPHASW D HRMM SECON CODA AMPLIT PERI AZIMU VELO AIN AR TRES W  DIS CAZ7
 RUS  HN ES   1    4 1 45.39                             141   -0.40 7 73.8 109 
 RUS  HZ I         4 1 47.50         1.6 0.24                          73.8 109 
 BAR2 SZ EP   1    4 1 32.34                             138   -0.03 7 79.7  48 
 BAR2 SZ I         4 1 32.50         5.6 0.14                          79.7  48 
 BAR2 SZ ES   1    4 1 46.54                             138    0.55 7 79.7  48 
 PTB  HZ EP   1    4 1 32.97                             133   -0.41 7 95.0 300 
 PTB  HN ES   1    4 1 47.79                             133    0.01 7 95.0 300 
 PTB  HZ I         4 1 49.13         1.0 0.10                          95.0 300 
 BRR  HZ EP   1    4 1 34.31                             128   -0.50 7  111   0 
 BRR  HZ I         4 1 34.69         5.1 0.12                           111   0 
 BRR  HN ES   1    4 1 50.35                             128    0.02 7  111   0 
 CHI  HZ EP   1    4 1 41.39                             116    0.57 7  163 181 
 CHI  HZ I         4 1 42.33         1.1 0.13                           163 181 
 ZAR  HN ES   1    4 2  7.51                             111    0.37 6  199 321 
                                                                                
