 2010 1225 0024 59.0 L   6.752 -73.083150.4  RSN  8 0.4 1.7LRSN                1
 GAP=166        0.93       4.7     9.7  7.8 -0.1890E+02  0.1810E+02 -0.4529E+01E
 Epicentro: LOS SANTOS - SANTANDER                                             3
 ACTION:UP  11-01-14 15:27 OP:pat  STATUS:               ID:20101225002459 L   I
 2010-12-25-0020-19S.COL___135                                                 6
 STAT SP IPHASW D HRMM SECON CODA AMPLIT PERI AZIMU VELO SNR AR TRES W  DIS CAZ7
 BAR2 SZ EP   1    025 18.72                             172    -0.4 7   21 212 
 BAR2 SZ ES   1    025 34.61                             172    -0.2 7   21 212 
 BAR2 SZ I         025 35.36        12.0 0.43                            21 212 
 BTL  SZ EP        025 19.83                             169     0.610   27 312 
 BTL  SZ ES   1    025 35.60                             169     0.5 7   27 312 
 RUS  HZ EP   1    025 22.58                             146    -0.2 7   95 180 
 RUS  HE ES   1    025 41.47                             146     0.1 7   95 180 
 RUS  HZ I         025 45.23         4.1 0.47                            95 180 
 GRA  SZ EP   1    025 24.86                             137     0.0 7  129  14 
 GRA  SZ ES   1    025 44.48                             137    -0.6 7  129  14 
 GRA  SZ I         025 46.88         7.2 0.35                           129  14 
 OCA  SZ EP   1    025 28.18                             130    -0.1 7  166 351 
 OCA  SZ ES   1    025 51.16                             130     0.1 7  166 351 
 OCA  SZ I         025 55.43        11.1 0.21                           166 351 
 NOR  SZ EP   2    025 35.16                             119    -0.1 4  238 237 
 NOR  SN ES   1    026  2.91                             119    -0.7 6  238 237 
 CHI  HZ EP   2    025 36.92                             118     0.3 4  245 197 
 CHI  HZ I         025 37.79         1.9 0.25                           245 197 
 HEL  HZ EP   2    025 40.85                             115     0.8 4  278 257 
 HEL  HZ I         026 18.82         3.1 0.25                           278 257 
                                                                                
