 2017  325 0126 45.8 L   6.788 -73.148138.0  RSN  7 0.3 1.7LRSN                1
 GAP=137        0.85       3.5     3.6  5.5 -0.3365E+00  0.5300E+01  0.7111E+00E
 Epicentro: LOS SANTOS - SANTANDER                                             3
 ACTION:UPD 17-05-25 18:44 OP:jn   STATUS:               ID:20170325012645 L   I
 OLDACT:REG 17-03-25 03:25 OP:cara STATUS:               ID:20170325011749     3
 2017-03-25-0118-00M.COL___409                                                 6
 STAT SP IPHASW D HRMM SECON CODA AMPLIT PERI AZIMU VELO AIN AR TRES W  DIS CAZ7
 BAR2 EZ IP        127  4.62                             171    0.1310 21.9 190 
 BAR2 EZ ES        127 18.88                             171   -0.1710 21.9 190 
 BAR2 EZ I         127 20.55        11.6 0.36            170           21.9 190 
 BRR  HZ EP   2    127  6.40                             151    0.23 5 71.7 300 
 BRR  HN ES        127 22.52                             151    0.4910 71.7 300 
 BRR  HZ I         127 24.18        13.9 0.30            151           71.7 300 
 PAM  EZ EP        127  7.44                             149    0.1410 78.6  39 
 PAM  EN ES        127 23.75                             149   -0.2910 78.6  39 
 PAM  EZ I         127 26.65         6.2 0.58            152           78.6  39 
 RUS  HZ EP        127  8.54                             143   -0.1810 99.2 176 
 RUS  HN ES        127 26.77                             143    0.1910 99.2 176 
 RUS  HZ I         127 28.75         4.6 0.46            144           99.2 176 
 PTB  HZ EP        127 11.62                             130   -0.50 9  147 259 
 PTB  HN ES        127 32.18                             130   -0.46 9  147 259 
 PTB  HZ I         127 34.18         5.3 0.40            131            147 259 
 SPBC HZ EP        127 13.45                             127   -0.17 9  162 219 
 SPBC HN ES        127 35.65                             127    0.35 9  162 219 
 SPBC HZ I         127 39.86        11.8 0.56            129            162 219 
 ZAR  HZ EP        127 18.46                             121    0.65 9  204 293 
 ZAR  HN ES        127 42.55                             121   -0.20 9  204 293 
 ZAR  HZ I         127 47.84         5.2 0.40            122            204 293 
                                                                                
