 2016 1125 0635 11.6 L   6.784 -73.095145.1  RSN  5 0.3 1.1LRSN                1
 GAP=169        0.77       7.3     3.9  5.4  0.3834E+00  0.2511E+01 -0.6222E+01E
 Epicentro: LOS SANTOS - SANTANDER                                             3
 ACTION:UPD 17-10-26 21:11 OP:lp   STATUS:               ID:20161125063511 L   I
 OLDACT:DUP 16-11-25 17:19 OP:edw  STATUS:               ID:20161125062746d    3
 OLDACT:UP  16-11-25 17:18 OP:edw  STATUS:               ID:20161125062745     3
 OLDACT:UP  16-11-25 17:17 OP:edw  STATUS:               ID:20161125062745     3
 OLDACT:REG 16-11-25 13:00 OP:edw  STATUS:               ID:20161125062745     3
 2016-11-25-0628-00M.COL___349                                                 6
 STAT SP IPHASW D HRMM SECON CODA AMPLIT PERI AZIMU VELO AIN AR TRES W  DIS CAZ7
 BAR2 EZ EP        635 31.13                             170   -0.0710 23.3 204 
 BAR2 EZ ES        635 46.29                             170   -0.1610 23.3 204 
 BAR2 EZ I         635 48.89         3.8 0.42            170           23.3 204 
 PAM  EZ EP        635 33.75                             151    0.0710 75.4  35 
 PAM  EN ES        635 50.59                             151   -0.2710 75.4  35 
 PAM  EZ I         635 53.59         1.6 0.60            153           75.4  35 
 BRR  HZ EP        635 33.33                             150    0.2710 76.9 298 
 BRR  HN ES        635 50.28                             150    0.5110 76.9 298 
 BRR  HZ I         635 50.55         3.0 0.19            152           76.9 298 
 PTB  HZ EP   9    635 38.39                             131   -0.64 0  153 260 
 PTB  HN ES        635 59.35                             131   -0.40 9  153 260 
 PTB  HZ I         636  2.68         1.1 0.12            133            153 260 
 ZAR  HZ EP        635 44.58                             121   -0.07 8  210 292 
 ZAR  HN ES        636  9.98                             121   -0.42 8  210 292 
                                                                                
