 2012  425 0117 17.1 L   6.794 -73.129142.3  RSN 16 0.6 2.8LRSN                1
 GAP=127        1.17       4.2     5.0  7.2 -0.5142E+01  0.8106E+01  0.3036E+01E
 Epicentro: LOS SANTOS - SANTANDER                                             3
 ACTION:UPD 12-07-05 11:55 OP:tino STATUS:               ID:20120425011717 L   I
 2012-04-25-0110-00M.COL___186                                                 6
 STAT SP IPHASW D HRMM SECON CODA AMPLIT PERI AZIMU VELO AIN AR TRES W  DIS CAZ7
 BAR2 SZ EP        117 36.43                             170     0.110   23 195 
 BAR2 SZ ES   1    117 51.66                             170     0.3 7   23 195 
 BAR2 SZ I         117 53.79       221.3 0.26                            23 195 
 BRR  HZ EP        117 38.31                             151     0.310   73 298 
 BRR  HN ES   1    117 55.10                             151     0.8 7   73 298 
 BRR  HZ I         117 59.72       229.9 0.17                            73 298 
 PAM  SZ EP        117 39.28                             150     0.310   77  38 
 PAM  SE ES   1    117 55.83                             150    -0.1 7   77  38 
 RUS  HZ EP        117 40.27                             143    -0.210  100 177 
 RUS  HN ES   1    117 58.01                             143    -0.7 7  100 177 
 RUS  HZ I         117 59.89        83.2 0.46                           100 177 
 PTB  HZ EP   1    117 42.90                             131    -1.1 7  149 259 
 PTB  HN ES   1    118  3.73                             131    -1.2 7  149 259 
 PTB  HZ I         118  6.68        61.4 0.18                           149 259 
 OCA  SZ EP        117 45.18                             129    -0.1 9  161 353 
 OCA  SZ ES   1    118  6.97                             129    -0.2 7  161 353 
 ZAR  HZ EP   1    117 49.22                             121    -0.3 6  206 292 
 ZAR  HN ES   1    118 15.15                             121     0.3 6  206 292 
 NOR  SZ EP   1    117 52.46                             118    -0.3 6  236 235 
 NOR  SN ES   1    118 20.15                             118    -0.4 6  236 235 
 CHI  HZ EP   1    117 54.72                             116     0.1 6  248 196 
 CHI  HN ES   1    118 24.69                             116     0.8 6  248 196 
 CHI  HZ I         118 27.46        20.9 0.43                           248 196 
 HEL  HZ EP   1    117 58.24                             114     0.9 6  274 256 
 HEL  HN ES   1    118 28.07                             114    -0.7 6  274 256 
 HEL  HZ I         118 35.49        34.1 0.14                           274 256 
 GUY  SZ EP   1    118  1.50                             111     0.5 5  305 235 
 GUY  SN ES   1    118 35.46                             111     0.3 5  305 235 
 GUY  SZ I         118 43.32        35.7 0.42                           305 235 
 RREF HN ES   1    118 40.25                             110     1.0 5  323 230 
 RREF HZ I         118 49.02        25.4 0.26                           323 230 
 DBB  SZ EP   1    118  5.22                             109     0.5 5  341 274 
 TOL  SZ EP   1    118  6.04                             109     0.7 5  344 225 
 SDV  BZ EP   1    118  6.20                             108    -0.7 5  359  50 
 PRA  HZ EP   1    118  9.96                             106    -0.6 4  392 210 
                                                                                
