 2017 1025 0713 59.8 L   6.712 -73.146145.2  RSN  5 0.3 0.8LRSN                1
 GAP=140        0.86       5.5     5.2  6.7  0.6385E+01 -0.2330E+01 -0.6133E+01E
 Epicentro: VILLANUEVA - SANTANDER                                             3
 ACTION:UPD 17-11-07 19:36 OP:rebc STATUS:               ID:20171025071359 L   I
 OLDACT:DUP 17-10-25 16:47 OP:dani STATUS:               ID:20171025065915d    3
 OLDACT:UP  17-10-25 16:46 OP:dani STATUS:               ID:20171025065914     3
 OLDACT:REG 17-10-25 13:20 OP:dani STATUS:               ID:20171025065914     3
 2017-10-25-0707-00M.COL___428                                                 6
 STAT SP IPHASW D HRMM SECON CODA AMPLIT PERI AZIMU VELO AIN AR TRES W  DIS CAZ7
 BAR2 EZ EP        714 19.08                             174   -0.1010 13.9 197 
 BAR2 EZ ES        714 34.50                             174    0.1810 13.9 197 
 BRR  HZ EP        714 21.04                             151   -0.1210 76.3 305 
 BRR  HN ES        714 38.05                             151    0.2110 76.3 305 
 BRR  HZ I         714 40.91         2.3 0.23            150           76.3 305 
 PAM  EZ EP        714 22.15                             148   -0.2610 85.1  35 
 RUS  HZ EP        714 23.52                             146    0.7210 90.9 176 
 RUS  HE ES        714 40.31                             146   -0.4410 90.9 176 
 RUS  HZ I         714 44.33         0.8 0.35            146           90.9 176 
 PTB  HZ EP        714 26.43                             132   -0.12 9  146 263 
 PTB  HN ES        714 47.34                             132   -0.10 9  146 263 
 PTB  HZ I         714 53.00         0.6 0.24            131            146 263 
                                                                                
