 2012  825 0058 43.4 L   6.799 -73.150144.7  RSN  8 0.4 2.1LRSN                1
 GAP=136        0.91       4.2     4.8  6.3 -0.2799E+00  0.5216E+01 -0.1664E+01E
 Epicentro: LOS SANTOS - SANTANDER                                             3
 ACTION:UPD 12-09-10 11:58 OP:ep   STATUS:               ID:20120825005843 L   I
 2012-08-25-0050-00M.COL___218                                                 6
 STAT SP IPHASW D HRMM SECON CODA AMPLIT PERI AZIMU VELO AIN AR TRES W  DIS CAZ7
 BAR2 SZ EP        059  2.95                             170    0.0710 23.2 189 
 BAR2 SZ I         059  3.54        30.9 0.14                          23.2 189 
 BAR2 SZ ES   1    059 17.54                             170   -0.54 7 23.2 189 
 GIR2 SZ EP        059  2.94                             167    0.0210 31.3 351 
 GIR2 SZ ES   1    059 18.42                             167    0.25 7 31.3 351 
 BRR  HZ EP        059  4.77                             152    0.3810 70.8 299 
 BRR  HN ES   1    059 21.73                             152    0.95 7 70.8 299 
 BRR  HZ I         059 22.37        36.2 0.13                          70.8 299 
 PAM  SZ EP        059  5.82                             150    0.3210 77.7  40 
 PAM  SZ I         059  6.20        36.2 0.19                          77.7  40 
 PAM  SE ES   1    059 22.28                             150   -0.48 7 77.7  40 
 RUS  HZ EP        059  7.01                             144   -0.0110  101 176 
 RUS  HN ES   1    059 25.64                             144    0.18 7  101 176 
 RUS  HZ I         059 26.96         7.7 0.35                           101 176 
 PTB  HZ EP        059  9.83                             132   -0.38 9  147 259 
 PTB  HN ES   1    059 30.41                             132   -0.74 7  147 259 
 PTB  HZ I         059 32.94        10.0 0.16                           147 259 
 OCA  HZ EP        059 11.53                             129   -0.08 9  160 353 
 OCA  HN ES   1    059 32.96                             129   -0.67 7  160 353 
 OCA  HZ I         059 37.79        23.0 0.24                           160 353 
 ZAR  HZ EP   1    059 15.64                             122   -0.07 6  204 292 
 ZAR  HN ES   1    059 41.24                             122    0.31 6  204 292 
 ZAR  HZ I         059 46.58        16.7 0.31                           204 292 
                                                                                
