 2014  825 0211 31.6 L   6.781 -73.243158.6  RSN  5 0.4 1.2LRSN                1
 GAP=192        0.95       6.1     8.0  9.4  0.2316E+02 -0.9072E+01 -0.7807E+01E
 Epicentro: ZAPATOCA - SANTANDER                                               3
 ACTION:UPD 14-09-15 21:52 OP:nd   STATUS:               ID:20140825021131 L   I
 OLDACT:REG 14-08-25 13:19 OP:fm   STATUS:               ID:20140825020820     3
 2014-08-25-0208-20M.COL___258                                                 6
 STAT SP IPHASW D HRMM SECON CODA AMPLIT PERI AZIMU VELO AIN AR TRES W  DIS CAZ7
 BRR  HZ EP        211 54.31                             157    0.5310 63.2 305 
 BRR  HE ES        212 11.18                             157    0.1210 63.2 305 
 BRR  HZ I         212 11.54         3.9 0.54            152           63.2 305 
 RUS  HZ EP        211 56.89                             147    0.2810 99.9 170 
 RUS  HN ES   1    212 15.32                             147   -0.78 7 99.9 170 
 RUS  HZ I         212 16.18         1.2 0.14            144           99.9 170 
 PTB  HZ EP        211 58.39                             137   -0.36 9  137 259 
 PTB  HN ES        212 20.05                             137    0.15 9  137 259 
 PTB  HZ I         212 27.24         2.6 0.58            132            137 259 
 SML  HN ES   1    212 37.25                             120   -0.47 6  241 338 
 MON  HN ES   1    212 57.77                             111   -0.59 5  347 310 
                                                                                
