 2012 1125 0554 31.4 L   7.245 -73.989 84.2  RSN  9 0.3 1.6LRSN                1
 GAP= 85        0.56       2.1     2.1  7.2 -0.1060E+01 -0.5627E+00 -0.1495E+01E
 Epicentro: PUERTO WILCHES - SANTANDER                                         3
 ACTION:UPD 12-12-05 15:36 OP:}ep  STATUS:               ID:20121125055431 L   I
 2012-11-25-0550-00M.COL___233                                                 6
 STAT SP IPHASW D HRMM SECON CODA AMPLIT PERI AZIMU VELO AIN AR TRES W  DIS CAZ7
 GIR2 SZ EP        554 48.41                             129    0.1310 89.8 102 
 PTB  HZ EP        554 48.37                             128   -0.1110 93.5 214 
 PTB  HE ES   1    555  1.37                             128   -0.40 7 93.5 214 
 PTB  HZ I         555  2.70        12.1 0.19                          93.5 214 
 ZAR  HZ EP   1    554 49.18                             126    0.10 7 99.7 286 
 ZAR  HN ES   1    555  3.14                             126    0.29 7 99.7 286 
 ZAR  HZ I         555  6.10        11.8 0.10                          99.7 286 
 BAR2 SZ EP   1    554 51.32                             122    0.40 7  115 129 
 BAR2 SZ I         555  9.23         8.6 0.42                           115 129 
 OCA  HZ EP   1    554 52.35                             117   -0.37 7  132  34 
 OCA  HE ES        555  9.25                             117   -0.0710  132  34 
 PAM  SN ES   1    555 12.05                             116   -0.06 7  143  86 
 SML  HZ EP   1    554 57.01                             111    0.00 7  172 357 
 SML  HN ES   1    555 17.19                             111    0.23 7  172 357 
 HEL  HZ EP   1    555  1.78                             107    0.33 6  206 236 
 HEL  HZ I         555 33.45         3.3 0.22                           206 236 
 MON  HZ EP   1    555  5.75                             104   -0.53 6  251 313 
                                                                                
