 2011  925 0928 52.0 L   6.777 -73.107138.9  RSN 11 0.3 1.9LRSN                1
 GAP=143        0.59       2.6     3.3  3.7 -0.1933E+01  0.3003E+01  0.6986E+00E
 Epicentro: LOS SANTOS - SANTANDER                                             3
 ACTION:UPD 12-07-13 15:59 OP:ep   STATUS:               ID:20110925092851 L   I
 2011-09-25-0920-00M.COL___167                                                 6
 STAT SP IPHASW D HRMM SECON CODA AMPLIT PERI AZIMU VELO AIN AR TRES W  DIS CAZ7
 BAR2 SZ EP        929 10.64                             170   -0.1310 22.1 202 
 BAR2 SZ ES        929 25.18                             170   -0.2310 22.1 202 
 BAR2 SZ I         929 26.54        17.0 0.18                          22.1 202 
 BTL  SZ EP   1    929 10.91                             170    0.11 7 23.6 311 
 GIR2 SZ EP        929 10.89                             165   -0.0610 34.7 344 
 GIR2 SZ ES   1    929 26.04                             165    0.31 7 34.7 344 
 BRR  HZ EP        929 12.33                             150   -0.3710 76.1 299 
 BRR  HE ES        929 29.28                             150    0.4310 76.1 299 
 BRR  HZ I         929 31.06        15.3 0.16                          76.1 299 
 PAM  SZ EP        929 13.65                             150    0.2110 76.8  36 
 PAM  SN ES   1    929 30.11                             150   -0.06 7 76.8  36 
 RUS  HZ EP   1    929 14.79                             143   -0.08 7 97.8 178 
 RUS  HE ES   1    929 32.84                             143    0.13 7 97.8 178 
 RUS  HZ I         929 34.93         9.9 0.36                          97.8 178 
 OCA  SZ EP   1    929 20.32                             127    0.25 7  163 352 
 OCA  SZ ES   1    929 41.43                             127   -0.54 7  163 352 
 OCA  SZ I         929 43.63         8.1 0.53                           163 352 
 ZAR  HE ES   2    929 49.52                             120   -0.36 4  209 292 
 ZAR  HZ I         929 56.80         7.5 0.14                           209 292 
 NOR  SZ EP   1    929 27.45                             117   -0.11 6  237 236 
 NOR  SN ES   1    929 55.37                             117    0.08 6  237 236 
 HEL  HZ EP   1    929 32.93                             113    0.67 6  276 257 
 HEL  HN ES   2    930  3.40                             113   -0.27 4  276 257 
 HEL  HZ I         930 10.22         4.8 0.39                           276 257 
 RREF HZ EP   1    929 38.11                             109    0.08 5  323 230 
 RREF HE ES   2    930 13.54                             109   -0.40 3  323 230 
 RREF HZ I         930 18.87         2.9 0.45                           323 230 
                                                                                
