 2016 1225 0257 32.1 L   6.779 -73.151145.0  RSN  8 0.5 1.5LRSN                1
 GAP=137        1.27       5.0     5.6  7.9  0.3335E+01  0.1086E+02  0.6717E+01E
 Epicentro: LOS SANTOS - SANTANDER                                             3
 ACTION:UPD 17-01-11 20:18 OP:rebc STATUS:               ID:20161225025732 L   I
 OLDACT:REG 16-12-25 12:44 OP:cog  STATUS:               ID:20161225024742     3
 2016-12-25-0248-00M.COL___381                                                 6
 STAT SP IPHASW D HRMM SECON CODA AMPLIT PERI AZIMU VELO AIN AR TRES W  DIS CAZ7
 BAR2 EZ EP        257 51.62                             171    0.0710 21.0 190 
 BAR2 EZ ES        258  5.82                             171   -0.9310 21.0 190 
 BAR2 EZ I         258  9.20        13.8 0.32            170           21.0 190 
 BRR  HZ EP        257 53.24                             152    0.0810 71.8 300 
 BRR  HN ES        258 10.51                             152    0.9010 71.8 300 
 BRR  HZ I         258 14.97         5.8 0.44            152           71.8 300 
 PAM  EZ EP        257 54.14                             150   -0.1810 79.5  39 
 PAM  EN ES        258 11.69                             150    0.0110 79.5  39 
 PAM  EZ I         258 13.63         6.6 0.54            156           79.5  39 
 RUS  HZ EP        257 55.49                             144   -0.0810 98.4 176 
 RUS  HE ES        258 14.55                             144    0.6410 98.4 176 
 RUS  HZ I         258 15.32         4.0 0.34            146           98.4 176 
 PTB  HZ EP        257 58.27                             132   -0.60 9  147 260 
 PTB  HN ES        258 19.12                             132   -0.67 9  147 260 
 PTB  HZ I         258 26.84         6.1 0.52            133            147 260 
 ZAR  HZ EP        258  4.44                             122   -0.05 9  204 293 
 ZAR  HE ES        258 30.21                             122    0.43 9  204 293 
 CHI  HZ EP        258  9.88                             117    0.42 8  246 195 
 CHI  HE ES        258 38.76                             117    0.13 8  246 195 
 CHI  HZ I         258 42.97         1.2 0.36            120            246 195 
 GUY2CHZ EP   4    258 16.60                             112    1.17 0  299 235 
 GUY2CHN ES   4    258 51.02                             112    1.76 0  299 235 
 GUY2CHZ I         258 56.92         2.4 0.26                           299 235 
                                                                                
