 2016 1025 0925 49.9 L   6.778 -73.145144.1  RSN 16 0.4 2.5LRSN                1
 GAP=138        0.91       3.4     3.7  4.8 -0.3525E+01  0.4600E+01  0.4864E+01E
 Epicentro: LOS SANTOS - SANTANDER                                             3
 ACTION:UPD 16-11-09 19:22 OP:rebc STATUS:               ID:20161025092549 L   I
 OLDACT:REG 16-10-25 13:56 OP:cara STATUS:               ID:20161025091740     3
 2016-10-25-0918-00M.COL___343                                                 6
 STAT SP IPHASW D HRMM SECON CODA AMPLIT PERI AZIMU VELO AIN AR TRES W  DIS CAZ7
 BAR2 EZ IP     C  926  9.14                             171   -0.1310 20.9 191 
 BAR2 EZ ES        926 24.68                             171    0.2910 20.9 191 
 BAR2 EZ I         926 27.61        44.5 0.32            167           20.9 191 
 BRR  HZ EP     C  926 11.02                             152    0.0910 72.5 300 
 BRR  HE ES        926 27.70                             152    0.3510 72.5 300 
 BRR  HZ I         926 34.18        32.3 0.16            152           72.5 300 
 PAM  EZ EP        926 12.03                             150   -0.0110 79.2  38 
 PAM  EN ES        926 28.96                             150   -0.3610 79.2  38 
 PAM  EZ I         926 31.33        71.4 0.56            157           79.2  38 
 RUS  HZ EP        926 13.04                             144   -0.2610 98.1 176 
 RUS  HE ES        926 32.09                             144    0.5310 98.1 176 
 RUS  HZ I         926 33.32        36.9 0.46            145           98.1 176 
 PTB  HZ EP        926 15.93                             132   -0.76 9  147 260 
 PTB  HN ES        926 37.16                             132   -0.43 9  147 260 
 PTB  HZ I         926 39.29        37.9 0.38            132            147 260 
 TAM  HZ EP   4    926 17.11                             130   -0.26 0  154 104 
 SPBC HZ EP        926 18.04                             129   -0.04 9  161 220 
 SPBC HE ES        926 39.73                             129   -0.35 9  161 220 
 SPBC HZ I         926 46.86        46.2 0.14            130            161 220 
 NOR  HZ IP        926 25.39                             118    0.01 8  233 235 
 NOR  HN ES        926 52.93                             118   -0.13 8  233 235 
 NOR  HZ I         926 59.81        22.9 0.24            120            233 235 
 CHI  HZ EP     C  926 27.32                             117    0.08 8  246 195 
 CHI  HE ES        926 56.45                             117    0.08 8  246 195 
 CHI  HZ I         927  0.54        14.2 0.44            119            246 195 
 ROSC BN EP   4    926 28.62                             117    0.93 0  251 211 
 ROSC BE ES   4    926 59.70                             117    2.52 0  251 211 
 ROSC BZ I         927  5.55        21.1 0.70            118            251 211 
 HEL  HZ IP   4    926 31.82                             115    1.86 0  272 256 
 HEL  HE ES   4    927  0.21                             115   -1.01 0  272 256 
 GUY2CHZ EP        926 34.08                             112    0.81 7  300 235 
 GUY2CHN ES        927  6.81                             112   -0.30 7  300 235 
 GUY2CHZ I         927 15.80        21.6 0.70                           300 235 
 PTGC HZ EP   4    926 32.08                             111   -1.32 0  306 159 
 PTGC HE ES   4    927  5.03                             111   -2.32 0  306 159 
 PTGC HZ I         927 10.18        14.7 0.28            114            306 159 
 LL6C HN EP   4    926 14.43                             110   -21.4 0  327 358 
 LL6C HE ES   4    926 50.80                             110   -20.8 0  327 358 
 ELA  HN EP   4    926 39.82                             110    3.33 0  328 230 
 ELA  HE ES   4    927 15.58                             110    2.73 0  328 230 
 ELA  HZ I         927 21.72        18.1 0.32            112            328 230 
 CBOC HZ EP        926 37.58                             110    0.92 7  333 253 
 CBOC HE ES        927 13.86                             110    0.72 7  333 253 
 CBOC HZ I         927 19.64         6.9 0.30            111            333 253 
 ANIL HZ EP   4    926 40.41                             108    0.98 0  356 225 
 ANIL HE ES   4    927 19.46                             108    1.38 0  356 225 
 PRA  HZ EP        926 42.82                             106   -0.29 6  390 210 
 PRA  HE ES        927 24.18                             106   -0.44 6  390 210 
 PRA  HZ I         927 30.33        10.8 0.28            108            390 210 
 ORTC HZ EP        926 43.56                             106    0.04 6  394 216 
 ORTC HN ES        927 25.58                             106    0.22 6  394 216 
 ORTC HZ I         927 32.94         6.9 0.32            108            394 216 
 SJC  HZ EP   4    926 42.77                             105   -2.87 0  411 327 
 SJC  HE ES   4    927 24.57                             105   -4.56 0  411 327 
 SJC  HZ I         927 30.27         6.9 0.30            108            411 327 
                                                                                
