 2015 1125 0902 35.8 L   6.808 -73.153145.6  RSN  7 0.3 1.8LRSN                1
 GAP=182        0.87       2.8     4.8  6.4  0.1139E+01 -0.2524E+01 -0.3896E+01E
 Epicentro: LOS SANTOS - SANTANDER                                             3
 ACTION:UPD 15-12-28 16:13 OP:cam  STATUS:               ID:20151125090235 L   I
 OLDACT:UP  15-12-01 10:58 OP:ak   STATUS:               ID:20151125090235 L   3
 OLDACT:REG 15-11-25 13:02 OP:drio STATUS:               ID:20151125085750     3
 2015-11-25-0857-50M.COL___206                                                 6
 STAT SP IPHASW D HRMM SECON CODA AMPLIT PERI AZIMU VELO AIN AR TRES W  DIS CAZ7
 BRR  HZ EP        9 2 57.62                             153    0.7210 70.1 298 
 BRR  HN ES        9 3 13.47                             153    0.1410 70.1 298 
 BRR  HZ I         9 3 17.43         8.3 0.26            150           70.1 298 
 RUS  HZ EP        9 2 59.60                             143   -0.0410  102 176 
 RUS  HE ES        9 3 18.10                             143   -0.1010  102 176 
 RUS  HZ I         9 3 19.09         4.5 0.24            148            102 176 
 PTB  HZ EP        9 3  2.14                             132   -0.60 9  147 258 
 PTB  HN ES        9 3 23.32                             132   -0.39 9  147 258 
 PTB  HZ I         9 3 30.94        10.9 0.44            132            147 258 
 OCA  HZ EP        9 3  4.33                             130    0.29 9  159 353 
 OCA  HN ES        9 3 25.71                             130   -0.33 9  159 353 
 OCA  HZ I         9 3 29.79        11.6 0.54            132            159 353 
 SPBC HZ EP        9 3  4.44                             129    0.10 9  163 219 
 SPBC HE ES        9 3 26.64                             129    0.07 9  163 219 
 SPBC HZ I         9 3 31.40         7.4 0.32            131            163 219 
 ZAR  HZ EP        9 3  8.35                             122    0.19 9  203 292 
 ZAR  HE ES        9 3 33.74                             122    0.37 9  203 292 
 ZAR  HZ I         9 3 38.98         9.4 0.58            123            203 292 
 SML  HZ EP        9 3 11.95                             117   -0.38 8  243 335 
 SML  HN ES        9 3 40.61                             117   -0.18 8  243 335 
 SML  HZ I         9 3 47.62         8.4 0.22            119            243 335 
 SJC  HZ EP   4    9 3 29.64                             106   -1.62 0  408 327 
 SJC  HN ES   4    9 4 11.56                             106   -2.92 0  408 327 
                                                                                
