 2016  725 0526  7.5 L   6.744 -73.172141.8  RSN  5 0.4 1.2LRSN                1
 GAP=230        1.06       5.9     7.5  8.4  0.2016E+02  0.1396E+02  0.6497E+01E
 Epicentro: LOS SANTOS - SANTANDER                                             3
 ACTION:UPD 17-03-29 16:54 OP:lp   STATUS:               ID:20160725052607 L   I
 OLDACT:REG 16-07-25 14:31 OP:edw  STATUS:               ID:20160725051759     3
 2016-07-25-0517-59S.COL___331                                                 6
 STAT SP IPHASW D HRMM SECON CODA AMPLIT PERI AZIMU VELO AIN AR TRES W  DIS CAZ7
 BAR2 EZ EP        526 27.14                             173    0.6210 16.8 184 
 BAR2 EZ ES        526 40.83                             173   -0.5410 16.8 184 
 BRR  HZ EP        526 27.66                             152   -0.5910 71.9 304 
 BRR  HN ES        526 44.85                             152    0.4010 71.9 304 
 BRR  HZ I         526 49.01         4.2 0.14            148           71.9 304 
 RUS  HZ EP        526 30.20                             145   -0.2310 94.7 174 
 RUS  HE ES        526 48.65                             145    0.3410 94.7 174 
 RUS  HZ I         526 49.88         2.0 0.58            143           94.7 174 
 SPBC HZ EP        526 35.21                             129    0.15 9  157 220 
 SPBC HN ES        526 56.35                             129   -0.21 9  157 220 
 SPBC HZ I         527  5.74         2.4 0.24            127            157 220 
 ZAR  HE ES        527  4.81                             121    0.07 9  204 294 
                                                                                
