 2014 1125 0859 40.8 L   6.774 -73.138149.4  RSN  6 0.4 2.2LRSN                1
 GAP=139        0.92       5.4     4.4  7.4 -0.3224E+01  0.7622E+01  0.1798E+01E
 Epicentro: LOS SANTOS - SANTANDER                                             3
 ACTION:UPD 14-12-19 15:47 OP:nd   STATUS:               ID:20141125085940 L   I
 OLDACT:UP  14-11-25 19:47 OP:mh   STATUS:               ID:20141125085746     3
 OLDACT:UP  14-11-25 19:47 OP:mh   STATUS:               ID:20141125085746     3
 OLDACT:REG 14-11-25 13:14 OP:mh   STATUS:               ID:20141125085746     3
 2014-11-25-0857-46M.COL___303                                                 6
 STAT SP IPHASW D HRMM SECON CODA AMPLIT PERI AZIMU VELO AIN AR TRES W  DIS CAZ7
 BAR2 SZ EP   1    9 0  0.82                             172   -0.03 7 20.7 194 
 BAR2 SZ I         9 0 17.00        28.9 0.17            169           20.7 194 
 BRR  HZ EP        9 0  2.75                             152    0.2510 73.4 300 
 BRR  HN ES        9 0 19.87                             152    0.4810 73.4 300 
 BRR  HZ I         9 0 20.66        25.8 0.20            155           73.4 300 
 PAM  SZ EP        9 0  3.69                             151    0.1510 79.1  38 
 PAM  SN ES   1    9 0 20.62                             151   -0.63 7 79.1  38 
 PAM  SZ I         9 0 23.15        16.4 0.62            150           79.1  38 
 RUS  HZ EP   1    9 0  4.85                             145    0.11 7 97.6 176 
 RUS  HN ES        9 0 23.49                             145    0.1110 97.6 176 
 PTB  HZ EP        9 0  7.53                             133   -0.60 9  148 260 
 PTB  HN ES        9 0 28.84                             133   -0.58 9  148 260 
 PTB  HZ I         9 0 34.00        33.4 0.72            133            148 260 
 HEL  HZ EP        9 0 21.52                             115    0.27 8  272 256 
 HEL  HN ES        9 0 53.11                             115    0.34 8  272 256 
 GUY2CHZ EP   4    9 0 26.31                             113    1.80 0  300 235 
 GUY2CHN ES   4    9 0 58.84                             113    0.27 0  300 235 
                                                                                
