 2012  225 0547 40.6 L   6.782 -73.172143.5  RSN  8 0.4 1.6LRSN                1
 GAP=134        0.74       4.3     4.2  5.8 -0.2056E+01  0.5595E+01  0.6248E+01E
 ACTION:UP  12-03-07 16:34 OP:epov STATUS:               ID:20120225054740 L   I
 2012-02-25-0540-00M.COL___192                                                 6
 STAT SP IPHASW D HRMM SECON CODA AMPLIT PERI AZIMU VELO AIN AR TRES W  DIS CAZ7
 BAR2 SZ EP   1    547 59.87                             171   -0.01 7 21.0 183 
 BAR2 SZ ES   1    548 14.62                             171   -0.33 7 21.0 183 
 BAR2 SZ I         548 15.91        13.3 0.12                          21.0 183 
 GIR2 SZ EP   1    547 59.95                             166   -0.07 7 32.9 356 
 GIR2 SZ ES   1    548 15.06                             166   -0.13 7 32.9 356 
 BRR  HZ EP        548  1.69                             153    0.3010 69.7 301 
 BRR  HZ I         548  3.64        19.6 0.12                          69.7 301 
 BRR  HN ES   1    548 18.54                             153    0.91 7 69.7 301 
 PAM  SZ EP   1    548  2.69                             149   -0.06 7 80.8  40 
 PAM  SZ I         548  2.99         9.2 0.14                          80.8  40 
 PAM  SN ES   1    548 19.56                             149   -0.50 7 80.8  40 
 RUS  HZ EP   1    548  4.13                             144    0.16 7 98.8 174 
 RUS  HE ES   1    548 22.49                             144    0.26 7 98.8 174 
 RUS  HZ I         548 23.96         3.3 0.38                          98.8 174 
 PTB  HZ EP   1    548  6.62                             132   -0.44 7  145 259 
 PTB  HN ES   1    548 27.38                             132   -0.34 7  145 259 
 CHI  HZ EP   1    548 18.26                             117    0.41 6  246 195 
 CHI  HN ES   2    548 46.57                             117   -0.36 4  246 195 
 CHI  HZ I         548 52.01         1.3 0.32                           246 195 
 HEL  HZ EP   2    548 20.39                             115    0.09 4  269 256 
 HEL  HN ES   1    548 50.83                             115   -0.46 6  269 256 
 HEL  HZ I         548 59.08         3.5 0.50                           269 256 
                                                                                
