 2016  725 0753 30.6 L   6.800 -73.121148.0  RSN  6 0.3 1.8LRSN                1
 GAP=140        0.69       2.9     3.5  4.6  0.5689E-01  0.4266E+01  0.3025E+00E
 Epicentro: LOS SANTOS - SANTANDER                                             3
 ACTION:UPD 17-03-29 16:55 OP:lp   STATUS:               ID:20160725075330 L   I
 OLDACT:REG 16-07-25 14:45 OP:edw  STATUS:               ID:20160725074759     3
 2016-07-25-0747-59S.COL___331                                                 6
 STAT SP IPHASW D HRMM SECON CODA AMPLIT PERI AZIMU VELO AIN AR TRES W  DIS CAZ7
 BAR2 EZ EP        753 50.34                             170   -0.1210 24.0 197 
 BAR2 EZ ES        754  5.73                             170   -0.2710 24.0 197 
 BRR  HZ IP     C  753 52.13                             152    0.0510 73.6 297 
 BRR  HN ES        754  9.02                             152    0.1510 73.6 297 
 BRR  HZ I         754  9.72        10.6 0.12            150           73.6 297 
 PAM  EZ EP        753 53.32                             152    0.4210 75.6  38 
 PAM  EE ES        754 10.07                             152   -0.2710 75.6  38 
 PAM  EZ I         754 10.83        10.0 0.18            156           75.6  38 
 RUS  HZ EP        753 54.38                             144   -0.1310  100 178 
 RUS  HN ES        754 13.64                             144    0.4410  100 178 
 RUS  HZ I         754 15.29         4.3 0.34            144            100 178 
 SPBC HZ EP        753 59.37                             129   -0.02 9  165 220 
 SPBC HN ES        754 21.66                             129   -0.22 9  165 220 
 SPBC HZ I         754 27.54         9.1 0.30            128            165 220 
 ZAR  HZ EP        754  3.08                             122   -0.33 8  207 292 
 ZAR  HN ES        754 29.28                             122    0.25 8  207 292 
 ZAR  HZ I         754 34.06        10.7 0.42            122            207 292 
                                                                                
