 2013  125 0540 57.9 L   6.840 -73.152148.6  RSN  7 0.4 1.5LRSN                1
 GAP=134        0.85       6.5     5.4 10.7 -0.1794E+01  0.1530E+02 -0.2817E+01E
 Epicentro: LOS SANTOS - SANTANDER                                             3
 ACTION:UPD 13-02-15 09:16 OP:ep   STATUS:               ID:20130125054057 L   I
 2013-01-25-0540-00M.COL___241                                                 6
 STAT SP IPHASW D HRMM SECON CODA AMPLIT PERI AZIMU VELO AIN AR TRES W  DIS CAZ7
 BRR  HZ EP   1    541 19.84                             154    0.61 7 68.6 296 
 BRR  HN ES   1    541 36.44                             154    0.58 7 68.6 296 
 BRR  HZ I         541 39.17         3.1 0.32            151           68.6 296 
 PAM  SZ EP   1    541 20.51                             152    0.24 7 74.5  42 
 PAM  SE ES   1    541 37.14                             152   -0.57 7 74.5  42 
 PAM  SZ I         541 39.28         4.7 0.36            152           74.5  42 
 RUS  HN ES   1    541 41.21                             143   -0.05 7  105 176 
 PTB  HZ EP   1    541 24.77                             133   -0.37 7  148 257 
 PTB  HN ES   1    541 46.23                             133   -0.14 7  148 257 
 PTB  HZ I         541 47.21         5.1 0.66            133            148 257 
 ZAR  HE ES   1    541 55.09                             123   -0.50 6  202 291 
 ZAR  HZ I         542  0.87         3.2 0.28            124            202 291 
 HEL  HE E         540 30.56                                            273 255 
 COD  HE E         550 44.61                                            344 355 
                                                                                
