 2017 1225 0758 37.5 L   7.361 -73.295120.7  RSN  6 0.4 1.4LRSN                1
 GAP= 94        0.99       4.0     3.7  7.7 -0.3058E+00  0.8495E+01  0.1985E+01E
 Epicentro: EL PLAYON - SANTANDER                                              3
 ACTION:UPD 18-01-04 13:24 OP:rebc STATUS:               ID:20171225075837 L   I
 OLDACT:DUP 17-12-25 16:31 OP:osc  STATUS:               ID:20171225074950d    3
 2017-12-25-0758-00M.COL___448                                                 6
 STAT SP IPHASW D HRMM SECON CODA AMPLIT PERI AZIMU VELO AIN AR TRES W  DIS CAZ7
 PAM  EZ EP        758 56.45                             150    0.0910 65.8  92 
 PAM  EN ES        759 11.16                             150    0.0910 65.8  92 
 PAM  EZ I         759 13.48         2.6 0.30            157           65.8  92 
 BAR2 EZ EP        758 57.43                             142    0.0510 85.9 172 
 BAR2 EZ ES        759 13.00                             142    0.1210 85.9 172 
 BAR2 EZ I         759 14.04        14.5 0.34            149           85.9 172 
 OCA  HZ EP        758 57.50                             139   -0.6410 97.1 358 
 OCA  HE ES        759 14.21                             139   -0.0210 97.1 358 
 OCA  HZ I         759 20.01         8.1 0.14            141           97.1 358 
 PTB  HZ EP        759  3.11                             124   -0.39 9  157 235 
 PTB  HN ES        759 23.18                             124   -0.60 9  157 235 
 PTB  HZ I         759 28.44         1.5 0.16            128            157 235 
 ZAR  HZ EP        759  5.75                             121    0.61 9  173 275 
 ZAR  HE ES        759 27.25                             121    0.56 9  173 275 
 ZAR  HZ I         759 31.58         5.2 0.22            124            173 275 
 TAM  HZ EP        759  7.79                             117    0.26 9  195 122 
                                                                                
