 2017  125 0512 46.3 L   6.802 -73.150144.4  RSN 17 0.4 2.1LRSN                1
 GAP=101        1.02       3.6     2.9  5.1 -0.5514E+00  0.2940E+01  0.4829E+01E
 Epicentro: LOS SANTOS - SANTANDER                                             3
 ACTION:UPD 17-05-22 16:03 OP:jn   STATUS:               ID:20170125051246 L   I
 OLDACT:REG 17-01-25 12:49 OP:lv   STATUS:               ID:20170125050746     3
 2017-01-25-0508-00M.COL___355                                                 6
 STAT SP IPHASW D HRMM SECON CODA AMPLIT PERI AZIMU VELO AIN AR TRES W  DIS CAZ7
 BAR2 EZ EP        513  5.59                             170   -0.1810 23.5 189 
 BAR2 EZ ES        513 20.83                             170   -0.1310 23.5 189 
 BAR2 EZ I         513 21.66        38.6 0.36            169           23.5 189 
 BRR  HZ IP     C  513  7.37                             152    0.1010 70.7 299 
 BRR  HN ES        513 24.58                             152    0.9510 70.7 299 
 BRR  HZ I         513 28.57        20.0 0.24            148           70.7 299 
 PAM  EZ IP     D  513  8.55                             151    0.1710 77.5  40 
 PAM  EN ES        513 25.35                             151   -0.2510 77.5  40 
 PAM  EZ I         513 27.76        18.8 0.54            153           77.5  40 
 RUS  HZ EP        513  9.88                             143   -0.0610  101 176 
 RUS  HN ES        513 28.29                             143   -0.0810  101 176 
 RUS  HZ I         513 29.24        12.0 0.27            144            101 176 
 PTB  HZ EP        513 12.69                             132   -0.43 9  147 259 
 PTB  HN ES        513 33.30                             132   -0.74 9  147 259 
 PTB  HZ I         513 39.65        13.8 0.28            130            147 259 
 TAM  HZ EP        513 14.03                             130    0.11 9  156 105 
 TAM  HN ES        513 35.45                             130   -0.01 9  156 105 
 ZAR  HZ EP   4    513 21.16                             122    2.56 0  204 292 
 ZAR  HN ES        513 43.70                             122   -0.10 9  204 292 
 ZAR  HZ I         513 48.79        19.6 0.30            121            204 292 
 NOR  HZ EP        513 21.78                             118   -0.14 8  234 234 
 NOR  HN ES        513 50.18                             118    0.47 8  234 234 
 NOR  HZ I         513 56.53         8.6 0.21            117            234 234 
 CHI  HZ EP        513 23.75                             117   -0.18 8  249 195 
 CHI  HN ES        513 53.18                             117   -0.10 8  249 195 
 CHI  HZ I         513 56.57        11.6 0.64            117            249 195 
 ROSC BZ EP   9    513 25.77                             116    1.43 0  253 211 
 ROSC BN ES        513 56.10                                    0.66 8  253 211 
 ROSC BZ I         514  0.27        27.1 0.45            116            253 211 
 URE  HZ EP   9    513 26.11                             113   -1.13 0  283 292 
 URE  HN ES        513 57.21                                   -0.84 7  283 292 
 URE  HZ I         514  9.50         8.1 0.18            113            283 292 
 PTGC HZ EP   9    513 28.73                             111   -1.41 0  309 159 
 PTGC HN ES        514  2.77                                   -0.15 7  309 159 
 PTGC HZ I         514  4.85         5.8 0.34            112            309 159 
 CBOC HZ EP        513 34.00                             110    0.89 7  333 252 
 CBOC HN ES   4    514 10.69                             110    1.06 0  333 252 
 CBOC HZ I         514 15.97         2.2 0.39            109            333 252 
 DBB  EZ EP   4    513 35.74                             109    2.08 0  339 274 
 DBB  EN ES   4    514  9.03                             109   -1.58 0  339 274 
 DBB  EZ I         514 10.34         4.5 0.20            109            339 274 
 ORTC HZ EP        513 40.23                             106    0.07 6  395 216 
 ORTC HE ES        514 23.15                             106    0.98 6  395 216 
 ORTC HZ I         514 26.97         5.8 0.24            106            395 216 
 PAL  HZ EP        513 41.16                             106   -0.22 6  405 239 
 PAL  HN ES        514 23.59                             106   -0.75 6  405 239 
 PAL  HZ I         514 29.10         2.1 0.24            105            405 239 
 SJC  HZ EP   4    513 39.77                             105   -2.00 0  409 327 
 SJC  HN ES   4    514 22.38                             105   -2.65 0  409 327 
 SJC  HZ I         514 33.06         2.9 0.32            105            409 327 
                                                                                
