 2015 1125 0258 59.8 L   6.808 -73.170146.8  RSN 23 0.4 2.5LRSN                1
 GAP= 70        0.95       2.1     2.5  4.2 -0.1122E+01  0.2034E+01 -0.3323E+00E
 Epicentro: LOS SANTOS - SANTANDER                                             3
 ACTION:UPD 15-12-28 16:13 OP:cam  STATUS:               ID:20151125025859 L   I
 OLDACT:REG 15-11-25 12:45 OP:drio STATUS:               ID:20151125025749     3
 2015-11-25-0257-49M.COL___212                                                 6
 STAT SP IPHASW D HRMM SECON CODA AMPLIT PERI AZIMU VELO AIN AR TRES W  DIS CAZ7
 BAR2 EZ EP     D  259 19.72                             170    0.1510 23.9 183 
 BAR2 EZ ES        259 34.37                             170   -0.6210 23.9 183 
 BAR2 EZ I         259 36.29       109.3 0.18            170           23.9 183 
 BRR  HZ IP     C  259 21.52                             154    0.6110 68.4 299 
 BRR  HN ES        259 37.79                             154    0.4210 68.4 299 
 BRR  HZ I         259 42.19        67.9 0.44            149           68.4 299 
 PAM  EZ EP        259 22.71                             151    0.5210 78.5  41 
 PAM  EN ES        259 39.72                             151    0.0610 78.5  41 
 PAM  EZ I         259 41.74        67.3 0.54            153           78.5  41 
 RUS  HZ EP        259 23.72                             144   -0.0110  102 175 
 RUS  HN ES        259 42.38                             144   -0.0210  102 175 
 RUS  HZ I         259 43.46        26.1 0.44            146            102 175 
 PTB  HZ EP        259 27.00                             133    0.37 9  145 258 
 PTB  HE ES        259 47.27                             133   -0.29 9  145 258 
 PTB  HZ I         259 52.83        36.8 0.44            130            145 258 
 TAM  HZ EP        259 28.08                             130    0.26 9  158 105 
 TAM  HN ES        259 49.62                             130   -0.06 9  158 105 
 TAM  HZ I         259 52.11        14.8 0.28            134            158 105 
 OCA  HZ EP        259 27.62                             130   -0.46 9  159 354 
 OCA  HN ES        259 50.35                             130    0.21 9  159 354 
 OCA  HZ I         259 58.07        76.3 0.18            129            159 354 
 SPBC HZ EP        259 28.81                             129    0.52 9  162 218 
 SPBC HN ES        259 50.10                             129   -0.41 9  162 218 
 SPBC HZ I         259 55.26        54.1 0.34            129            162 218 
 ZAR  HZ EP        259 32.51                             123    0.49 9  201 292 
 ZAR  HN ES        259 57.24                             123    0.09 9  201 292 
 ZAR  HZ I         3 0  4.29        39.6 0.36            121            201 292 
 NOR  HZ EP        259 35.98                             119    0.57 8  233 234 
 NOR  HN ES        3 0  2.97                             119   -0.22 8  233 234 
 NOR  HZ I         3 0  9.05        15.1 0.16            118            233 234 
 SML  HZ EP        259 35.95                             118   -0.33 8  242 336 
 SML  HE ES        3 0  4.87                             118    0.14 8  242 336 
 SML  HZ I         3 0 14.38        62.1 0.10            117            242 336 
 ROSC BZ EP   4    259 39.68                             117    1.77 0  252 210 
 ROSC BN ES        3 0  7.19                             117   -0.45 8  252 210 
 ROSC BZ I         3 0 14.16        39.3 0.40            117            252 210 
 HEL  HZ EP   4    259 42.09                             115    2.29 0  270 255 
 HEL  HE ES        3 0 10.68                             115   -0.32 8  270 255 
 HEL  HZ I         3 0 18.80        13.0 0.22            114            270 255 
 URE  HZ EP        259 40.34                             114   -0.26 7  281 292 
 URE  HE ES   4    3 0 10.91                             114   -1.52 0  281 292 
 URE  HZ I         3 0 23.33        27.0 0.34            113            281 292 
 SOCV BZ EP   4    259 41.56                             112   -1.54 0  303  57 
 SOCV BN ES   4    3 0 12.37                             112   -4.50 0  303  57 
 PTGC HZ EP   4    259 42.44                             112   -1.47 0  311 158 
 PTGC HN ES   4    3 0 16.44                             112   -1.88 0  311 158 
 LL6C HZ EP        259 44.50                             111   -0.93 7  324 358 
 LL6C HN ES        3 0 20.20                             111   -0.82 7  324 358 
 ELA  HZ EP   4    259 49.79                             111    3.26 0  328 229 
 ELA  HN ES   4    3 0 22.37                             111   -0.60 0  328 229 
 ELA  HZ I         3 0 32.31        12.8 0.44            110            328 229 
 CBOC HZ EP   4    259 48.23                             110    1.73 0  331 252 
 CBOC HN ES   4    3 0 21.96                             110   -0.96 0  331 252 
 CBOC HZ I         3 0 34.60         4.4 0.22            110            331 252 
 MON  HZ EP   4    259 46.69                             109   -1.84 0  351 309 
 MON  HN ES   4    3 0 25.27                             109   -1.27 0  351 309 
 MON  HZ I         3 0 41.14        11.0 0.58            108            351 309 
 ANIL HN ES        3 0 27.76                             109   -0.51 6  356 224 
 SDV  BZ EP        259 49.27                             108   -0.79 6  362  51 
 SDV  BE ES   4    3 0 26.94                             108   -2.31 0  362  51 
 SDV  BZ I         3 0 31.54         3.8 0.35            109            362  51 
 PRA  HZ EP        259 53.35                             107    0.06 6  391 209 
 PRA  HE ES        3 0 35.06                             107    0.04 6  391 209 
 PRA  HZ I         3 0 40.79        19.7 0.36            107            391 209 
 ORTC HZ EP        259 54.02                             106    0.37 6  395 216 
 ORTC HN ES        3 0 35.68                             106    0.02 6  395 216 
 ORTC HZ I         3 0 41.08        10.4 0.58            107            395 216 
 SJC  HZ EP   4    259 53.52                             106   -1.62 0  407 327 
 SJC  HN ES   4    3 0 35.15                             106   -3.15 0  407 327 
 SJC  HZ I         3 0 43.34         7.0 0.42            106            407 327 
                                                                                
