 2012  225 0623 21.0 L   6.542 -73.590104.2  RSN 10 0.4 2.1LRSN                1
 GAP= 78        0.83       4.6     3.8  7.5 -0.7505E+01 -0.1261E+01  0.1924E+02E
 ACTION:UP  12-03-07 16:34 OP:epov STATUS:               ID:20120225062321 L   I
 2012-02-25-0620-00M.COL___192                                                 6
 STAT SP IPHASW D HRMM SECON CODA AMPLIT PERI AZIMU VELO AIN AR TRES W  DIS CAZ7
 BAR2 SZ IP        623 36.80                             155    0.2510 45.5  83 
 BAR2 SZ ES   1    623 48.51                             155   -0.18 7 45.5  83 
 BAR2 SZ I         623 50.68       285.7 0.50                          45.5  83 
 BRR  HZ EP   1    623 37.73                             146    0.40 7 63.9 348 
 BRR  HZ I         623 45.90        46.6 0.10                          63.9 348 
 BRR  HE ES   1    623 50.48                             146    0.41 7 63.9 348 
 GIR2 SZ EP        623 38.40                             142    0.1610 73.8  36 
 GIR2 SZ ES   1    623 52.24                             142    0.55 7 73.8  36 
 RUS  HZ EP   1    623 39.77                             136   -0.35 7 91.1 142 
 RUS  HZ I         623 39.98         9.8 0.35                          91.1 142 
 PTB  HZ EP        623 39.60                             134   -0.2710 95.8 270 
 PTB  HN ES   1    623 54.32                             134   -0.27 7 95.8 270 
 PAM  SZ EP   1    623 43.43                             124   -0.53 7  132  48 
 PAM  SN ES   1    624  1.05                             124   -0.82 7  132  48 
 PAM  SZ I         624  2.97        11.3 0.19                           132  48 
 NOR  SZ EP   1    623 48.25                             115   -0.03 7  178 233 
 NOR  SN ES   1    624  9.05                             115   -0.52 7  178 233 
 ROSC BZ EP   1    623 52.49                             112    0.79 6  205 203 
 ROSC BZ I         624 23.62        14.2 0.37                           205 203 
 CHI  HZ EP   1    623 52.76                             111    0.21 6  212 184 
 CHI  HN ES   2    624 17.10                             111   -0.06 4  212 184 
 CHI  HZ I         624 21.58         9.1 0.54                           212 184 
 PRA  HZ EP   1    624  7.99                             100    0.34 5  344 205 
                                                                                
