 2016  825 0250  5.1 L   6.842 -73.108144.7  RSN  4 0.3 1.1LRSN                1
 GAP=281        0.77       8.5     5.5  7.3  0.1300E+02  0.1451E+02 -0.7541E-01E
 Epicentro: LOS SANTOS - SANTANDER                                             3
 ACTION:UPD 16-10-29 15:39 OP:rebc STATUS:               ID:20160825025005 L   I
 OLDACT:REG 16-08-25 12:26 OP:ak   STATUS:               ID:20160825024727     3
 2016-08-25-0248-00M.COL___380                                                 6
 STAT SP IPHASW D HRMM SECON CODA AMPLIT PERI AZIMU VELO AIN AR TRES W  DIS CAZ7
 BAR2 EZ ES        250 40.32                             168    0.3110 28.8 197 
 BAR2 EZ I         250 44.00         4.0 0.46                          28.8 197 
 RUS  HZ EP        250 28.88                             142   -0.1710  105 179 
 RUS  HN ES        250 47.56                             142   -0.1810  105 179 
 RUS  HZ I         250 48.74         1.2 0.36                           105 179 
 PTB  HZ EP        250 32.67                             131    0.24 9  153 257 
 PTB  HN ES        250 53.24                             131   -0.51 9  153 257 
 PTB  HZ I         250 59.44         1.3 0.21                           153 257 
 NOR  HZ EP   2    250 41.29                             118   -0.12 4  241 234 
 NOR  HE ES        251 10.19                             118    0.45 8  241 234 
 NOR  HZ I         251 11.85         1.0 0.17                           241 234 
                                                                                
