 2015  425 0716 50.4 L   6.851 -73.173136.0  RSN 10 0.4 1.8LRSN                1
 GAP=199        0.80       3.8     4.8  7.0 -0.4749E+00  0.1279E+02 -0.1182E+02E
 Epicentro: ZAPATOCA - SANTANDER                                               3
 ACTION:UPD 15-06-03 16:57 OP:cam  STATUS:               ID:20150425071650 L   I
 OLDACT:REG 15-04-25 14:18 OP:ak   STATUS:               ID:20150425070751     3
 2015-04-25-0707-51M.COL___271                                                 6
 STAT SP IPHASW D HRMM SECON CODA AMPLIT PERI AZIMU VELO AIN AR TRES W  DIS CAZ7
 BAR2 EZ IP     C  717  9.47                             168    0.4510 28.6 182 
 BAR2 EZ ES        717 23.66                             168    0.1510 28.6 182 
 BAR2 EZ I         717 25.25        13.7 0.28            174           28.6 182 
 BRR  HZ EP   1    717 10.88                             153    0.65 7 66.0 295 
 BRR  HZ I         717 32.37         7.9 0.06            147           66.0 295 
 RUS  HZ EP   2    717 13.47                             140   -0.22 5  106 175 
 RUS  HE ES        717 31.38                             140   -0.4410  106 175 
 RUS  HZ I         717 32.74         6.7 0.24            145            106 175 
 PTB  HZ EP        717 16.26                             130   -0.20 9  146 256 
 PTB  HN ES        717 36.72                             130   -0.04 9  146 256 
 PTB  HZ I         717 41.66         6.0 0.13            129            146 256 
 SPBC HZ EP   1    717 18.08                             126   -0.37 7  166 217 
 SPBC HN ES   2    717 40.18                             126   -0.13 5  166 217 
 SPBC HZ I         717 42.60         6.2 0.22            128            166 217 
 ZAR  HZ EP   2    717 22.35                             121    0.60 4  199 291 
 ZAR  HN ES   4    717 47.62                             121    1.44 0  199 291 
 ZAR  HZ I         717 53.54         5.8 0.40            119            199 291 
 SML  HZ EP        717 26.16                             116    0.33 8  237 335 
 SML  HN ES        717 52.76                             116   -0.68 8  237 335 
 SML  HZ I         718  2.92         6.6 0.10            114            237 335 
 HEL  HZ EP   2    717 30.19                             113    0.19 4  271 254 
 HEL  HN ES        718  1.02                             113    0.16 8  271 254 
 HEL  HZ I         718  8.46         3.0 0.30            112            271 254 
 GUY2CHZ EP   4    717 35.47                             110    1.77 0  302 234 
 GUY2CHZ I         717 59.72         5.6 0.66                           302 234 
 GUY2CHN ES   4    718 10.02                             110    2.56 0  302 234 
 SJC  HZ EP   2    717 44.18                             104   -0.76 3  403 327 
 SJC  HN ES   4    718 24.69                             104   -2.77 0  403 327 
                                                                                
