 2013  125 0000 57.5 L   6.767 -73.162148.7  RSN  6 0.4 1.4LRSN                1
 GAP=136        0.74       5.0     4.5  7.3  0.1730E+01  0.6962E+01 -0.1111E+00E
 Epicentro: LOS SANTOS - SANTANDER                                             3
 ACTION:UPD 13-02-15 09:16 OP:ep   STATUS:               ID:20130125000057 L   I
 2013-01-25-0000-00M.COL___241                                                 6
 STAT SP IPHASW D HRMM SECON CODA AMPLIT PERI AZIMU VELO AIN AR TRES W  DIS CAZ7
 BAR2 SZ ES   1    0 1 32.64                             172   -0.28 7 19.5 187 
 BRR  HZ EP   1    0 1 19.45                             153    0.49 7 71.5 302 
 BRR  HN ES   1    0 1 36.38                             153    0.66 7 71.5 302 
 BRR  HZ I         0 1 37.40         5.9 0.50            151           71.5 302 
 PAM  SZ EP   1    0 1 20.35                             150    0.11 7 81.3  39 
 PAM  SN ES   1    0 1 37.53                             150   -0.46 7 81.3  39 
 PAM  SZ I         0 1 39.10         2.4 0.30            151           81.3  39 
 RUS  HZ EP   1    0 1 21.35                             145    0.08 7 97.1 175 
 RUS  HN ES   1    0 1 40.00                             145    0.17 7 97.1 175 
 RUS  HZ I         0 1 41.28         2.7 0.20            147           97.1 175 
 PTB  HZ EP   1    0 1 24.07                             133   -0.40 7  145 260 
 PTB  HN ES   1    0 1 45.23                             133   -0.30 7  145 260 
 PTB  HZ I         0 1 47.05         3.1 0.48            132            145 260 
 ZAR  HN ES   1    0 1 55.31                             123   -0.22 6  204 293 
 ZAR  HZ I         0 2  1.31         3.4 0.26            122            204 293 
                                                                                
