 2016  225 0653 19.0 L   6.796 -73.150147.9  RSN  9 0.4 1.6LRSN                1
 GAP=136        0.94       3.3     4.3  6.1 -0.2016E+01  0.7769E+01  0.4529E+00E
 Epicentro: LOS SANTOS - SANTANDER                                             3
 ACTION:UPD 16-03-04 21:29 OP:rebc STATUS:               ID:20160225065319 L   I
 OLDACT:UP  16-02-25 17:15 OP:mh   STATUS:               ID:20160225064751d    3
 OLDACT:UP  16-02-25 17:15 OP:mh   STATUS:               ID:20160225064751d    3
 OLDACT:UP  16-02-25 17:15 OP:mh   STATUS:               ID:20160225064751d    3
 OLDACT:DUP 16-02-25 17:10 OP:mh   STATUS:               ID:20160225064751d    3
 OLDACT:UP  16-02-25 17:10 OP:mh   STATUS:               ID:20160225064750     3
 OLDACT:REG 16-02-25 13:18 OP:mh   STATUS:               ID:20160225064750     3
 2016-02-25-0647-50M.COL___330                                                 6
 STAT SP IPHASW D HRMM SECON CODA AMPLIT PERI AZIMU VELO AIN AR TRES W  DIS CAZ7
 BAR2 EZ EP        653 39.20                             171    0.3010 22.8 189 
 BAR2 EZ ES        653 54.11                             171   -0.3010 22.8 189 
 BAR2 EZ I         653 56.38         5.8 0.22            171           22.8 189 
 PAM  EZ EP        653 42.00                             151    0.5010 78.0  40 
 PAM  EN ES        653 59.10                             151    0.0610 78.0  40 
 PAM  EZ I         654  0.36         3.3 0.16            153           78.0  40 
 RUS  HZ EP   1    653 42.12                             144   -0.84 7  100 176 
 RUS  HN ES   1    654  1.84                             144    0.21 7  100 176 
 RUS  HZ I         654  2.88         3.3 0.28            146            100 176 
 PTB  HZ EP        653 45.66                             133   -0.46 9  147 259 
 PTB  HN ES        654  7.19                             133   -0.06 9  147 259 
 PTB  HZ I         654  8.56         4.5 0.56            133            147 259 
 OCA  HZ EP        653 46.85                             130   -0.69 9  161 353 
 OCA  HN ES   1    654  9.92                             130    0.14 7  161 353 
 OCA  HZ I         654 14.75        12.2 0.26            131            161 353 
 SPBC HZ EP   1    653 47.95                             130    0.32 7  163 219 
 SPBC HN ES   1    654 10.31                             130    0.37 7  163 219 
 SPBC HZ I         654 13.04         9.3 0.22            130            163 219 
 ZAR  HZ EP        653 51.82                             123    0.24 9  204 292 
 ZAR  HN ES        654 17.17                             123    0.19 9  204 292 
 ZAR  HZ I         654 23.99         5.4 0.24            123            204 292 
 CHI  HZ EP        653 57.47                             118    0.69 8  248 195 
 CHI  HN ES        654 25.90                             118   -0.34 8  248 195 
 CHI  HZ I         654 32.03         1.2 0.10            119            248 195 
 GUY2CHZ EP   1    654  2.32                             113   -0.34 5  301 235 
 GUY2CHN ES   4    654 40.17                             113    3.47 0  301 235 
 GUY2CHZ I         654 46.68         1.4 0.42                           301 235 
                                                                                
