 2011 1125 0759  4.7 L   6.286 -73.647106.0  RSN  4 0.1 1.3LRSN                1
 GAP=190        0.34       5.1     7.3  7.9  0.3222E+02  0.4520E+02  0.2757E+02E
 Epicentro: SANTA HELENA DEL OPON - SANTANDER                                  3
 ACTION:UPD 12-07-13 16:12 OP:ep   STATUS:               ID:20111125075904 L   I
 2011-11-25-0754-27S.COL___177                                                 6
 STAT SP IPHASW D HRMM SECON CODA AMPLIT PERI AZIMU VELO AIN AR TRES W  DIS CAZ7
 BAR2 SZ ES   2    759 34.40                             148   -0.04 5 61.5  57 
 BAR2 SZ I         759 36.29        10.4 0.49                          61.5  57 
 RUS  HZ EP   1    759 22.97                             142    0.17 7 76.0 125 
 RUS  HN ES   2    759 36.71                             142   -0.18 5 76.0 125 
 BRR  HZ EP        759 23.22                             136   -0.1110 91.1 355 
 BRR  HZ I         759 32.65         2.7 0.10                          91.1 355 
 BRR  HN ES   1    759 37.96                             136    0.12 7 91.1 355 
 ZAR  HZ EP   2    759 33.22                             114   -0.03 4  189 315 
 ZAR  HN ES   2    759 55.51                             114    0.01 4  189 315 
 ZAR  HZ I         8 0  0.53         2.6 0.23                           189 315 
                                                                                
