 2010  325 0233 58.0 L   6.800 -73.096149.7  RSN 12 0.4 3.8LRSN                1
 GAP=130        0.75       3.1     5.1  4.8 -0.1815E+01  0.2950E+01  0.7406E+00E
 Epicentro: LOS SANTOS - SANTANDER                                             3
 ACTION:UP  10-08-24 09:55 OP:vdl  STATUS:               ID:20100325023358 L   I
 2010-03-25-0231-14S.COL___098                                                 6
 STAT SP IPHASW D HRMM SECON CODA AMPLIT PERI AZIMU VELO SNR AR TRES W  DIS CAZ7
 BAR2 SZ IP        234 18.30                             170     0.110   25 203 
 BAR2 SZ ES   1    234 33.49                             170    -0.4 7   25 203 
 BRR  HZ IP        234 20.14                             152     0.210   76 297 
 BRR  HN ES   1    234 37.29                             152     0.3 7   76 297 
 BRR  HZ I         234 41.65       916.7 0.10                            76 297 
 RUS  HZ IP        234 22.27                             145     0.110  100 179 
 RUS  HN ES   1    234 40.68                             145    -0.3 7  100 179 
 RUS  HZ I         234 42.65       371.3 0.28                           100 179 
 OCA  SZ IP        234 26.67                             130    -0.1 9  161 351 
 OCA  SZ ES   1    234 48.96                             130    -0.1 7  161 351 
 OCA  SZ I         234 52.15      1069.5 0.28                           161 351 
 CHI  HZ IP        234 36.37                             118     0.2 8  250 196 
 CHI  HE ES   2    235  6.15                             118     0.3 4  250 196 
 CHI  HZ I         235 10.47       264.8 0.17                           250 196 
 ROSC BN ES   2    235  7.76                             117     0.9 4  256 212 
 ROSC BZ I         235 16.51       320.4 0.31                           256 212 
 HEL  HZ EP        234 38.35                             115    -0.7 7  277 256 
 HEL  HN ES   2    235 11.43                             115     0.4 4  277 256 
 HEL  HZ I         235 18.55       222.8 0.29                           277 256 
 RREF BZ EP   2    234 44.95                             111     0.1 3  326 230 
 RREF BZ I         235 28.02       321.7 0.41                           326 230 
 DBB  SZ IP        234 46.05                             110    -0.3 7  345 274 
 TOL  SZ EP   1    234 47.37                             110     0.5 5  347 225 
 SDV  BZ EP        234 47.92                             109     0.2 6  356  50 
 PRA  HZ EP        234 51.56                             107    -0.5 6  395 210 
 PRA  HE ES   2    235 33.57                             107    -0.6 3  395 210 
 PRA  HZ I         235 38.86       376.3 0.25                           395 210 
                                                                                
