 2014  825 0421 35.0 L   6.748 -73.176151.5  RSN  5 0.4 1.2LRSN                1
 GAP=230        0.85       5.7     7.3 10.8  0.1103E+02  0.2996E+02  0.9709E+01E
 Epicentro: LOS SANTOS - SANTANDER                                             3
 ACTION:UPD 14-09-15 21:52 OP:nd   STATUS:               ID:20140825042135 L   I
 OLDACT:REG 14-08-25 13:27 OP:fm   STATUS:               ID:20140825041814     3
 2014-08-25-0418-14M.COL___257                                                 6
 STAT SP IPHASW D HRMM SECON CODA AMPLIT PERI AZIMU VELO AIN AR TRES W  DIS CAZ7
 BRR  HZ EP   1    421 56.78                             153    0.03 7 71.3 304 
 BRR  HN ES        422 14.14                             153    0.4010 71.3 304 
 BRR  HZ I         422 15.07         2.1 0.22            154           71.3 304 
 RUS  HN ES        422 17.44                             147   -0.1610 95.2 174 
 RUS  HZ I         422 19.08         2.3 0.36            146           95.2 174 
 PTB  HZ EP   1    422  1.96                             134   -0.08 7  143 261 
 PTB  HE ES        422 22.55                             134   -0.60 9  143 261 
 PTB  HZ I         422 25.01         1.7 0.16            134            143 261 
 SPBC HN ES   1    422 25.62                             132    0.19 7  157 219 
 SPBC HZ I         422 28.97         2.0 0.12            132            157 219 
 GUY2CHE ES   1    422 52.65                             114    0.76 5  295 235 
 GUY2CHZ I         423  5.40         0.8 0.52                           295 235 
                                                                                
