 2011  725 0702 34.1 L   6.791 -73.107151.2  RSN 10 0.3 2.1LRSN                1
 GAP=160        0.51       2.4     3.8  3.6 -0.2561E+01  0.3560E+01  0.7925E+00E
 Epicentro: LOS SANTOS - SANTANDER                                             3
 ACTION:UPD 12-07-25 14:03 OP:epov STATUS:               ID:20110725070234 L   I
 2011-07-25-0700-00M.COL___139                                                 6
 STAT SP IPHASW D HRMM SECON CODA AMPLIT PERI AZIMU VELO AIN AR TRES W  DIS CAZ7
 BAR2 SZ IP        7 2 54.23                             171   -0.1510 23.5 201 
 BAR2 SZ ES   1    7 3 10.02                             171   -0.19 7 23.5 201 
 BAR2 SZ I         7 3 10.97        47.8 0.21                          23.5 201 
 GIR2 SZ EP   1    7 2 54.37                             167   -0.10 7 33.2 343 
 GIR2 SZ ES   1    7 3 10.23                             167   -0.13 7 33.2 343 
 BRR  HZ EP        7 2 56.10                             152    0.0310 75.4 298 
 BRR  HZ I         7 2 57.62        32.7 0.15                          75.4 298 
 BRR  HN ES   1    7 3 13.58                             152    0.37 7 75.4 298 
 RUS  HZ EP   1    7 2 58.29                             145   -0.01 7 99.4 178 
 RUS  HE ES   1    7 3 17.42                             145    0.24 7 99.4 178 
 RUS  HZ I         7 3 18.74        10.3 0.41                          99.4 178 
 BRI  SZ EP   1    7 2 58.93                             143    0.46 7  108  19 
 OCA  SZ EP   1    7 3  2.71                             131   -0.26 7  162 352 
 OCA  SZ ES   1    7 3 25.37                             131   -0.13 7  162 352 
 OCA  SZ I         7 3 29.49        12.0 0.57                           162 352 
 NOR  SZ EP   1    7 3 10.46                             119    0.01 6  238 235 
 NOR  SN ES   1    7 3 38.24                             119   -0.57 6  238 235 
 HEL  HZ EP   1    7 3 14.69                             115   -0.32 6  276 256 
 HEL  HE ES   2    7 3 47.61                             115    0.68 4  276 256 
 RREF HZ EP   1    7 3 21.15                             112    0.38 5  324 230 
 RREF HN ES   2    7 3 57.51                             112    0.33 3  324 230 
 RREF HZ I         7 4  5.10         7.4 0.30                           324 230 
 PRA  HZ EP   1    7 3 28.11                             107    0.16 4  393 210 
 PRA  HN ES   1    7 4  9.90                             107   -0.06 4  393 210 
                                                                                
