 2013  125 0800  2.2 L   6.801 -73.155147.5  RSN  7 0.5 1.5LRSN                1
 GAP=182        1.15       5.1     7.9  8.2  0.1533E+02  0.1133E+02  0.9135E+01E
 Epicentro: LOS SANTOS - SANTANDER                                             3
 ACTION:UPD 13-02-15 09:16 OP:ep   STATUS:               ID:20130125080002 L   I
 2013-01-25-0800-00M.COL___241                                                 6
 STAT SP IPHASW D HRMM SECON CODA AMPLIT PERI AZIMU VELO AIN AR TRES W  DIS CAZ7
 BAR2 SZ EP        8 0 21.80                             171   -0.1910 23.3 187 
 BAR2 SZ ES        8 0 37.01                             171   -0.4610 23.3 187 
 BAR2 SZ I         8 0 38.15         7.5 0.18            167           23.3 187 
 BRR  HZ EP        8 0 23.45                             153    0.0110 70.2 299 
 BRR  HN ES        8 0 40.30                             153    0.2610 70.2 299 
 RUS  HZ EP        8 0 25.85                             144   -0.2410  101 175 
 RUS  HZ I         8 0 26.90         2.6 0.15            142            101 175 
 RUS  HN ES        8 0 45.32                             144    0.5610  101 175 
 PTB  HZ EP        8 0 28.46                             133   -0.71 9  147 259 
 PTB  HN ES   1    8 0 49.39                             133   -0.86 7  147 259 
 PTB  HZ I         8 0 51.81         3.4 0.13            131            147 259 
 OCA  HN ES   1    8 0 53.09                             130    0.34 7  160 354 
 ZAR  HZ EP   3    8 0 34.12                             123   -0.49 2  203 292 
 ZAR  HE ES   1    8 1  1.16                             123    1.24 6  203 292 
 CHI  HZ EP        8 0 40.29                             118    0.36 8  248 195 
 CHI  HE ES        8 1  9.76                             118    0.36 8  248 195 
 CHI  HZ I         8 1 14.61         3.0 0.52            117            248 195 
                                                                                
