 2017  525 0639 38.4 L   6.819 -73.181154.5  RSN  5 0.4 1.3LRSN                1
 GAP=212        0.98       6.1     5.9  8.3  0.1823E+02 -0.7949E+01 -0.4374E+00E
 Epicentro: ZAPATOCA - SANTANDER                                               3
 ACTION:UPD 17-06-16 13:38 OP:jn   STATUS:               ID:20170525063938 L   I
 OLDACT:REG 17-05-25 12:52 OP:ar   STATUS:               ID:20170525062731     3
 2017-05-25-0628-00M.COL___332                                                 6
 STAT SP IPHASW D HRMM SECON CODA AMPLIT PERI AZIMU VELO AIN AR TRES W  DIS CAZ7
 BRR  HZ EP        640  0.29                             155   -0.0110 66.8 299 
 BRR  HE ES        640 17.66                             155    0.3010 66.8 299 
 BRR  HZ I         640 20.52         3.8 0.26            155           66.8 299 
 RUS  HZ EP   2    640  2.70                             145   -0.52 5  103 174 
 RUS  HE ES        640 21.78                             145   -0.7810  103 174 
 RUS  HZ I         640 23.50         2.0 0.26            146            103 174 
 PTB  HZ EP        640  5.41                             135   -0.42 9  144 258 
 PTB  HN ES        640 27.26                             135    0.06 9  144 258 
 PTB  HZ I         640 31.60         1.8 0.42            135            144 258 
 SPBC HZ EP        640  7.76                             131    0.21 9  162 217 
 SPBC HE ES        640 30.53                             131    0.27 9  162 217 
 SPBC HZ I         640 33.63         4.5 0.22            132            162 217 
 YPLC HZ EP        640  9.33                             128    0.10 9  181 151 
 YPLC HE ES        640 33.86                             128    0.60 9  181 151 
 YPLC HZ I         640 34.13         2.7 0.24            130            181 151 
                                                                                
