 2013  725 0103 20.7 L   6.748 -73.173147.4  RSN  5 0.2 1.6LRSN                1
 GAP=177        0.61       4.2     4.9  4.6  0.8678E+01  0.4122E+01  0.2582E+01E
 Epicentro: VILLANUEVA - SANTANDER                                             3
 ACTION:UPD 13-08-12 10:39 OP:ep   STATUS:               ID:20130725010320 L   I
 OLDACT:UP  13-07-25 10:40 OP:cam  STATUS:               ID:20130725005959     3
 OLDACT:REG 13-07-25 08:41 OP:cam  STATUS:               ID:20130725005959     3
 2013-07-25-0059-59M.COL___266                                                 6
 STAT SP IPHASW D HRMM SECON CODA AMPLIT PERI AZIMU VELO AIN AR TRES W  DIS CAZ7
 BAR2 SZ EP        1 3 40.32                             173   -0.1210 17.3 183 
 BAR2 SZ ES        1 3 55.74                             173   -0.0910 17.3 183 
 BAR2 SZ I         1 3 56.14         8.1 0.14            170           17.3 183 
 GIR2 SZ EP   1    1 3 40.53                             165   -0.21 7 36.6 357 
 GIR2 SZ ES   1    1 3 55.94                             165   -0.42 7 36.6 357 
 BRR  HZ EP        1 3 42.24                             153    0.1810 71.5 304 
 BRR  HN ES        1 3 59.13                             153    0.4210 71.5 304 
 BRR  HZ I         1 4  3.51         6.6 0.26            150           71.5 304 
 RUS  HZ EP        1 3 44.38                             146    0.1310 95.2 174 
 RUS  HN ES        1 4  2.72                             146    0.1110 95.2 174 
 RUS  HZ I         1 4  4.39         5.5 0.36            147           95.2 174 
 PTB  HZ EP        1 3 47.38                             133   -0.08 9  144 261 
 PTB  HN ES   1    1 4  7.90                             133   -0.42 7  144 261 
 PTB  HZ I         1 4 11.95         5.3 0.12            132            144 261 
                                                                                
