 2017 1125 0758 59.8 L   6.846 -73.182146.9  RSN  5 0.3 1.1LRSN                1
 GAP=148        0.70       4.1     4.1  5.9 -0.7311E+01  0.6614E+01 -0.2594E+01E
 Epicentro: ZAPATOCA - SANTANDER                                               3
 ACTION:UPD 17-12-12 19:59 OP:rebc STATUS:               ID:20171125075859 L   I
 OLDACT:REG 17-11-25 13:36 OP:osc  STATUS:               ID:20171125075740     3
 2017-11-25-0758-00M.COL___487                                                 6
 STAT SP IPHASW D HRMM SECON CODA AMPLIT PERI AZIMU VELO AIN AR TRES W  DIS CAZ7
 BAR2 EZ EP        759 19.56                             169   -0.1110 28.0 180 
 BAR2 EZ ES        759 35.42                             169    0.2510 28.0 180 
 BAR2 EZ I         759 37.43         5.0 0.26            172           28.0 180 
 PAM  EZ EP        759 22.55                             151    0.4810 76.3  44 
 PAM  EN ES        759 39.17                             151   -0.2710 76.3  44 
 PAM  EZ I         759 42.75         2.1 0.48            154           76.3  44 
 RUS  HZ EP        759 23.97                             143   -0.0910  106 174 
 RUS  HN ES        759 42.74                             143   -0.2310  106 174 
 RUS  HZ I         759 43.62         1.2 0.40            148            106 174 
 PTB  HZ EP        759 26.35                             133   -0.26 9  145 257 
 PTB  HN ES        759 47.45                             133   -0.07 9  145 257 
 PTB  HZ I         759 52.48         1.5 0.28            134            145 257 
 SPBC HN ES        759 51.24                             129    0.30 9  165 217 
                                                                                
