 2015  725 0805 42.3 L   6.833 -73.125143.6  RSN 20 0.4 2.7LRSN                1
 GAP=185        0.85       2.0     3.4  4.7 -0.8344E+00  0.6677E+01 -0.2023E+00E
 Epicentro: LOS SANTOS - SANTANDER                                             3
 ACTION:UPD 15-09-08 21:50 OP:cam  STATUS:               ID:20150725080542 L   I
 OLDACT:UP  15-08-01 06:27 OP:AK   STATUS:               ID:20150725080542 L   3
 OLDACT:REG 15-07-25 12:52 OP:ak   STATUS:               ID:20150725075747     3
 2015-07-25-0757-47M.COL___334                                                 6
 STAT SP IPHASW D HRMM SECON CODA AMPLIT PERI AZIMU VELO AIN AR TRES W  DIS CAZ7
 BAR2 EZ EP     D  8 6  1.91                             169    0.1810 27.4 193 
 BAR2 EZ ES        8 6 17.05                             169    0.1310 27.4 193 
 BAR2 EZ I         8 6 18.54        92.2 0.22            165           27.4 193 
 RUS  HZ EP        8 6  5.84                             142   -0.2310  104 177 
 RUS  HE ES        8 6 24.42                             142   -0.2210  104 177 
 RUS  HZ I         8 6 25.78        34.5 0.32            144            104 177 
 OCA  HZ EP        8 6  9.96                             130   -0.14 9  157 352 
 OCA  HN ES        8 6 31.80                             130   -0.01 9  157 352 
 OCA  HZ I         8 6 37.53       139.2 0.18            132            157 352 
 ZAR  HZ EP        8 6 14.58                             122   -0.08 9  205 291 
 ZAR  HN ES        8 6 39.51                             122   -0.41 9  205 291 
 ZAR  HZ I         8 6 45.61        52.7 0.42            122            205 291 
 NOR  HZ EP        8 6 18.08                             118   -0.23 8  239 234 
 NOR  HE ES        8 6 46.09                             118   -0.33 8  239 234 
 NOR  HZ I         8 6 51.42        45.5 0.28            118            239 234 
 SML  HZ EP        8 6 18.26                             117   -0.26 8  241 334 
 SML  HN ES        8 6 47.22                             117    0.42 8  241 334 
 SML  HZ I         8 6 49.83        56.7 0.17            119            241 334 
 CHI  HZ EP        8 6 20.07                             116   -0.23 8  253 195 
 CHI  HE ES        8 6 50.57                             116    0.60 8  253 195 
 CHI  HZ I         8 6 57.14        11.0 0.34            118            253 195 
 ROSC BZ EP        8 6 21.51                             116    0.76 8  257 211 
 ROSC BN ES        8 6 49.99                             116   -0.77 8  257 211 
 ROSC BZ I         8 6 59.70        58.1 0.35            117            257 211 
 HEL  HZ EP        8 6 23.17                             114    0.44 8  275 255 
 HEL  HN ES        8 6 54.53                             114    0.25 8  275 255 
 HEL  HZ I         8 7  1.30        27.6 0.26            115            275 255 
 URE  HZ EP   4    8 6 21.86                             113   -1.47 0  285 291 
 URE  HN ES   4    8 6 52.52                             113   -2.83 0  285 291 
 URE  HZ I         8 7  5.21        26.8 0.22            114            285 291 
 GUY2CHZ EP        8 6 26.69                             112    0.46 7  305 234 
 GUY2CHN ES        8 7  1.50                             112    0.97 7  305 234 
 GUY2CHZ I         8 7  8.39        27.7 0.44                           305 234 
 PTGC HZ EP   4    8 6 24.91                             111   -1.41 0  311 159 
 PTGC HN ES   4    8 6 58.68                             111   -2.01 0  311 159 
 CBOC HZ EP        8 6 29.72                             109    0.24 7  337 252 
 CBOC HN ES        8 7  6.33                             109    0.02 7  337 252 
 CBOC HZ I         8 7 18.01         7.3 0.43            110            337 252 
 DBB  SZ EP        8 6 29.45                             109   -0.45 7  342 274 
 DBB  SZ ES        8 7  6.73                             109   -0.32 7  342 274 
 DBB  SZ I         8 7  8.92        50.2 0.80            110            342 274 
 TOL  SZ EP        8 6 30.95                             109    0.02 6  348 224 
 TOL  SN ES        8 7  9.21                             109    0.33 6  348 224 
 TOL  SZ I         8 7 14.11        20.7 0.12            110            348 224 
 MON  HZ EP        8 6 31.98                             108    0.84 6  353 308 
 MON  HN ES   4    8 7  6.92                             108   -2.33 0  353 308 
 ANIL HZ EP        8 6 31.77                             108   -0.71 6  362 224 
 ANIL HN ES        8 7 11.79                             108    0.14 6  362 224 
 ANIL HZ I         8 7 23.46        56.8 0.36            109            362 224 
 ORTC HZ EP        8 6 36.37                             106   -0.25 6  400 216 
 ORTC HN ES        8 7 19.01                             106   -0.01 6  400 216 
 ORTC HZ I         8 7 25.86        12.7 0.34            107            400 216 
 SJC  HZ EP   4    8 6 35.85                             105   -1.70 0  407 326 
 SJC  HN ES   4    8 7 17.49                             105   -3.18 0  407 326 
 SJC  HZ I         8 7 21.54         5.3 0.21            107            407 326 
 PAL  HZ EP        8 6 37.49                             105   -0.32 6  410 239 
 PAL  HN ES        8 7 20.38                             105   -0.76 6  410 239 
 PAL  HZ I         8 7 26.69         7.7 0.35            107            410 239 
 SMAR HZ EP        8 6 47.27                             102   -0.46 4  494 346 
 SMAR HN ES   4    8 7 34.83                             102   -3.95 0  494 346 
 MACC HZ EP   4    8 6 48.66                             101   -2.74 0  525 189 
 MACC HN ES   4    8 7 41.83                             101   -3.50 0  525 189 
                                                                                
