 2011  525 0318 24.6 L   6.781 -73.086143.4  RSN 12 0.4 2.3LRSN                1
 GAP=172        0.87       4.9     6.9  6.3 -0.2120E+02  0.5539E+01  0.7297E+01E
 Epicentro: LOS SANTOS - SANTANDER                                             3
 ACTION:UP  11-06-29 08:56 OP:tino STATUS:               ID:20110525031824 L   I
 2011-05-25-0317-19S.COL___141                                                 6
 STAT SP IPHASW D HRMM SECON CODA AMPLIT PERI AZIMU VELO SNR AR TRES W  DIS CAZ7
 BAR2 SZ EP   1    318 43.73                             170    -0.2 7   23 207 
 BAR2 SZ ES   1    318 58.88                             170    -0.1 7   23 207 
 BAR2 SZ I         319  1.43        78.5 0.27                            23 207 
 BTL  SZ EP   1    318 43.94                             170     0.0 7   25 307 
 PAM  SZ EP   1    318 46.54                             151     0.2 7   75  35 
 PAM  SN ES   1    319  3.59                             151     0.2 7   75  35 
 PAM  SZ I         319  5.83        16.4 0.20                            75  35 
 BRR  HZ IP     C  318 45.65                             150    -0.210   78 298 
 BRR  HN ES   1    319  2.59                             150     0.1 7   78 298 
 BRR  HZ I         319  6.81        55.5 0.16                            78 298 
 BRI  SZ EP   1    318 48.30                             141     0.1 7  108  17 
 BRI  SZ I         318 48.67        24.9 0.06                           108  17 
 BRI  SZ ES   1    319  6.57                             141    -0.1 7  108  17 
 GRA  SZ EP        318 49.56                             136     0.010  126  14 
 GRA  SZ I         318 50.70        55.2 0.32                           126  14 
 GRA  SZ ES   1    319  9.09                             136    -0.1 7  126  14 
 OCA  SZ EP   1    318 52.20                             128    -0.8 7  163 351 
 OCA  SZ ES   1    319 15.76                             128     0.6 7  163 351 
 OCA  SZ I         319 18.37        48.0 0.20                           163 351 
 NOR  SZ EP   1    318 59.73                             117    -0.9 6  239 236 
 NOR  SN ES   1    319 28.28                             117    -0.4 6  239 236 
 NOR  SZ I         319 33.91         4.4 0.29                           239 236 
 ROSC BZ EP   1    319  3.36                             116     0.6 6  254 213 
 HEL  HZ EP   1    319  6.03                             114     0.7 6  278 257 
 HEL  HZ I         319 42.77        13.3 0.33                           278 257 
 GUY  SZ EP   1    319  9.32                             111     0.5 5  308 236 
 PRA  HZ EP   1    319 18.07                             106    -0.1 4  394 211 
 PRA  HN ES   1    320  0.75                             106     0.8 4  394 211 
                                                                                
