 2010  825 0325 37.3 L   6.796 -73.045148.0  RSN  7 0.2 1.7LRSN                1
 GAP=193        0.40       2.6    12.3  4.3 -0.1153E+02  0.2023E+02 -0.1028E+01E
 Epicentro: LOS SANTOS - SANTANDER                                             3
 ACTION:UP  10-09-07 10:57 OP:vdl  STATUS:               ID:20100825032537 L   I
 2010-08-25-0321-37S.COL___121                                                 6
 STAT SP IPHASW D HRMM SECON CODA AMPLIT PERI AZIMU VELO SNR AR TRES W  DIS CAZ7
 BAR2 SZ IP        325 57.29                             169     0.010   27 214 
 BAR2 SZ ES   1    326 12.57                             169    -0.3 7   27 214 
 BAR2 SZ I         326 15.22        12.4 0.39                            27 214 
 BTL  SZ IP        325 57.41                             169     0.110   28 299 
 GIR2 SZ EP   2    325 57.23                             166    -0.1 5   35 332 
 RUS  HZ EP   2    326  1.36                             144     0.2 5  100 182 
 RUS  HE ES   2    326 20.03                             144     0.2 5  100 182 
 RUS  HZ I         326 22.64         5.6 0.53                           100 182 
 OCA  SZ EP   1    326  5.74                             130    -0.2 7  162 349 
 OCA  SZ ES   2    326 28.46                             130     0.2 5  162 349 
 OCA  SZ I         326 33.22         8.3 0.45                           162 349 
 CHI  HZ EP   1    326 15.25                             117    -0.1 6  251 198 
 CHI  HE ES   2    326 44.91                             117    -0.2 4  251 198 
 CHI  HZ I         326 54.27         2.4 0.90                           251 198 
 PRA  HZ EP   1    326 31.35                             107    -0.1 4  397 211 
 PRA  HN ES   2    327 14.21                             107     0.5 3  397 211 
 PRA  HZ I         327 18.38         1.9 0.26                           397 211 
                                                                                
