 2016 1025 0641 56.8 L   6.781 -73.168145.1  RSN  5 0.5 1.4LRSN                1
 GAP=234        1.26       9.0     9.0 10.1  0.3119E+02  0.2494E+02  0.2803E+02E
 Epicentro: LOS SANTOS - SANTANDER                                             3
 ACTION:UPD 16-11-09 19:22 OP:rebc STATUS:               ID:20161025064156 L   I
 OLDACT:REG 16-10-25 13:34 OP:cara STATUS:               ID:20161025063743     3
 2016-10-25-0638-00M.COL___352                                                 6
 STAT SP IPHASW D HRMM SECON CODA AMPLIT PERI AZIMU VELO AIN AR TRES W  DIS CAZ7
 BAR2 EZ ES        642 30.86                             171   -0.7110 21.0 184 
 BRR  HN ES        642 35.05                             153    0.8010 70.0 301 
 RUS  HZ EP        642 20.58                             144    0.1810 98.7 175 
 RUS  HE ES        642 38.89                             144    0.1210 98.7 175 
 RUS  HZ I         642 39.90         2.7 0.40            144           98.7 175 
 PTB  HZ EP        642 22.88                             132   -0.62 9  145 259 
 PTB  HN ES        642 43.88                             132   -0.41 9  145 259 
 PTB  HZ I         642 49.47         2.9 0.66            131            145 259 
 SPBC HZ EP        642 25.30                             129    0.31 9  160 219 
 SPBC HN ES        642 47.26                             129    0.31 9  160 219 
 SPBC HZ I         642 48.22         4.1 0.26            128            160 219 
                                                                                
