 2017  625 0829 29.7 L   6.762 -73.198140.4  RSN  6 0.4 2.8LRSN                1
 GAP=231        1.17       6.1     7.0  8.1 -0.2564E+00  0.8065E+01  0.2458E+01E
 Epicentro: ZAPATOCA - SANTANDER                                               3
 ACTION:UPD 17-09-14 16:55 OP:jn   STATUS:               ID:20170625082929 L   I
 OLDACT:REG 17-06-25 13:25 OP:lv   STATUS:               ID:20170625082738     3
 2017-06-25-0828-00M.COL___349                                                 6
 STAT SP IPHASW D HRMM SECON CODA AMPLIT PERI AZIMU VELO AIN AR TRES W  DIS CAZ7
 BAR2 EZ EP        829 48.28                             172   -0.3510 18.8 175 
 BAR2 EZ ES        830  3.15                             172   -0.2210 18.8 175 
 BAR2 EZ I         830  4.70         8.2 0.20            171           18.8 175 
 BRR  HZ EP        829 50.20                             152    0.0510 68.4 304 
 BRR  HN ES        830  6.55                             152    0.4810 68.4 304 
 BRR  HZ I         830 10.59     18789.5 0.02            153           68.4 304 
 PTB  HZ EP   9    829 55.32                             132   -0.35 0  141 260 
 PTB  HN ES        830 14.51                                   -1.04 9  141 260 
 PTB  HZ I         830 18.15       185.0 0.03            133            141 260 
 SPBC HZ EP        829 57.18                             129    0.02 9  156 218 
 SPBC HN ES        830 18.91                             129    0.35 9  156 218 
 SPBC HZ I         830 23.83         6.4 0.11            130            156 218 
 ZAR  HZ EP        830  0.72                             121   -0.73 9  200 294 
 ZAR  HE ES        830 26.47                             121    0.28 9  200 294 
 NOR  HN ES        830 31.48                             118    0.08 8  227 234 
 SJC  HZ EP   4    830 21.02                             105   -4.16 0  410 328 
 SJC  HN ES   4    831  3.92                             105   -4.50 0  410 328 
                                                                                
