 2017 1025 0752 58.8 L   6.816 -73.144143.5  RSN 16 0.6 2.0LRSN                1
 GAP=111        1.42       4.1     4.6  6.9  0.1761E+00  0.6238E+01  0.5611E+01E
 Epicentro: LOS SANTOS - SANTANDER                                             3
 ACTION:UPD 17-11-07 19:36 OP:rebc STATUS:               ID:20171025075258 L   I
 OLDACT:UP  17-10-25 17:11 OP:dani STATUS:               ID:20171025074118     3
 OLDACT:UP  17-10-25 17:09 OP:dani STATUS:               ID:20171025074118     3
 OLDACT:UP  17-10-25 17:08 OP:dani STATUS:               ID:20171025074118     3
 OLDACT:REG 17-10-25 13:28 OP:dani STATUS:               ID:20171025074118     3
 2017-10-25-0748-00M.COL___431                                                 6
 STAT SP IPHASW D HRMM SECON CODA AMPLIT PERI AZIMU VELO AIN AR TRES W  DIS CAZ7
 BAR2 EZ EP     D  753 18.05                             170   -0.1110 25.1 190 
 BAR2 EZ ES        753 32.78                             170   -0.5010 25.1 190 
 BAR2 EZ I         753 33.87        21.3 0.30            168           25.1 190 
 BRR  HZ EP     C  753 19.98                             152    0.3510 70.5 297 
 BRR  HE ES        753 36.90                             152    1.0010 70.5 297 
 BRR  HZ I         753 40.21        27.5 0.14            152           70.5 297 
 PAM  EZ EP        753 20.92                             151    0.2710 75.9  40 
 PAM  EE ES        753 37.98                             151    0.2610 75.9  40 
 PAM  EZ I         753 39.96        19.1 0.66            155           75.9  40 
 RUS  HZ EP        753 22.06                             143   -0.3610  102 176 
 RUS  HE ES        753 40.63                             143   -0.2410  102 176 
 PTB  HZ EP        753 24.78                             131   -0.81 9  148 258 
 PTB  HN ES        753 45.44                             131   -1.08 9  148 258 
 PTB  HZ I         753 48.57        10.6 0.12            131            148 258 
 SPBC HZ EP        753 26.99                             128   -0.24 9  165 219 
 SPBC HN ES        753 49.60                             128    0.17 9  165 219 
 SPBC HZ I         753 55.89        11.9 0.28            128            165 219 
 YPLC HZ EP        753 28.51                             126   -0.03 9  178 152 
 YPLC HN ES        753 51.99                             126    0.22 9  178 152 
 YPLC HZ I         753 54.75         9.1 0.36            128            178 152 
 ZAR  HZ EP        753 31.11                             122    0.10 9  204 292 
 ZAR  HN ES        753 56.35                             122    0.19 9  204 292 
 ZAR  HZ I         754  2.63        18.0 0.36            123            204 292 
 NOR  HZ EP        753 34.70                             118    0.21 8  236 234 
 NOR  HE ES        754  2.16                             118   -0.19 8  236 234 
 NOR  HZ I         754  7.38         6.1 0.17            118            236 234 
 CHI  HZ EP        753 36.52                             116   -0.01 8  250 195 
 CHI  HE ES        754  5.59                             116   -0.39 8  250 195 
 CHI  HZ I         754 12.37         3.2 0.41            117            250 195 
 ROSC BZ EP        753 38.96                             116    2.02 8  254 211 
 URE  HZ EP   4    753 42.30                             113    2.63 0  283 292 
 URE  HN ES   4    754  9.05                             113   -2.52 0  283 292 
 URE  HZ I         754 15.07         6.4 0.08            114            283 292 
 GUY2CHZ EP   4    753 44.61                             112    2.21 0  302 235 
 GUY2CHN ES        754 16.97                             112    0.54 7  302 235 
 GUY2CHZ I         754 27.07         2.5 0.20                           302 235 
 LL6C HZ EP        753 43.01                             110   -1.16 7  323 358 
 PRA  HZ EP        753 52.55                             106    0.15 6  394 209 
 PRA  HN ES        754 33.91                             106   -0.32 6  394 209 
 PRA  HZ I         754 41.03         4.0 0.30            107            394 209 
 SJC  HZ EP   3    753 52.76                             105   -1.33 1  408 327 
 SJC  HN ES   4    754 33.36                             105   -3.88 0  408 327 
 SJC  HZ I         754 37.88         2.2 0.45            107            408 327 
                                                                                
