 2013  625 0448 16.6 L   7.563 -73.065152.3  RSN  6 0.2 1.4LRSN                1
 GAP=220        0.48       3.5     4.9  4.1  0.7782E+01 -0.3913E+01 -0.2695E+01E
 Epicentro: EL PLAYON - SANTANDER                                              3
 ACTION:UPD 14-01-08 09:56 OP:ep   STATUS:               ID:20130625044816 L   I
 OLDACT:REG 13-06-25 07:16 OP:jn   STATUS:               ID:20130625044641     3
 2013-06-25-0446-41M.COL___226                                                 6
 STAT SP IPHASW D HRMM SECON CODA AMPLIT PERI AZIMU VELO AIN AR TRES W  DIS CAZ7
 GIR2 SZ ES   1    448 54.77                             159    0.23 7 55.3 195 
 BRR  HZ EP        448 39.68                             148    0.2210 87.4 235 
 BRR  HN ES        448 57.33                             148    0.0810 87.4 235 
 BAR2 SZ EP        448 41.21                             143   -0.0110  108 187 
 BAR2 SZ ES        449  0.15                             143   -0.2410  108 187 
 BAR2 SZ I         449  2.75         5.1 0.38            139            108 187 
 SML  HN ES   1    449  9.94                             128   -0.30 7  176 321 
 RUS  HZ EP        448 48.13                             127   -0.11 9  185 181 
 RUS  HE ES   4    449  7.97                             127   -4.91 0  185 181 
 RUS  HZ I         449 10.25         0.9 0.24            125            185 181 
 PTB  HZ EP        448 48.37                             126    0.16 9  191 234 
 PTB  HN ES   1    449 12.63                             126   -0.20 7  191 234 
 PTB  HZ I         449 19.66         3.4 0.32            121            191 234 
                                                                                
