 2016  325 0924 35.2 L   6.791 -73.346118.3  RSN  4 0.4 1.4LRSN                1
 GAP=206        1.10       6.7     6.5  9.9  0.8482E+01  0.2540E+02 -0.7683E+01E
 Epicentro: ZAPATOCA - SANTANDER                                               3
 ACTION:UPD 16-05-13 21:27 OP:cam  STATUS:               ID:20160325092435 L   I
 OLDACT:REG 16-03-25 14:38 OP:ak   STATUS:               ID:20160325091745     3
 2016-03-25-0917-45M.COL___294                                                 6
 STAT SP IPHASW D HRMM SECON CODA AMPLIT PERI AZIMU VELO AIN AR TRES W  DIS CAZ7
 BAR2 EZ EP        924 51.80                             166    0.1510 28.5 141 
 BAR2 EZ ES        925  4.44                             166   -0.0710 28.5 141 
 BAR2 EZ I         925  6.15        18.5 0.32            168           28.5 141 
 PTB  HZ EP        924 57.06                             130   -0.8710  126 257 
 PTB  HN ES        925 15.40                             130   -0.2810  126 257 
 PTB  HZ I         925 19.53         2.7 0.14            130            126 257 
 SPBC HZ EP        925  0.83                             125    0.52 9  149 213 
 SPBC HE ES        925 20.11                             125    0.18 9  149 213 
 SPBC HZ I         925 25.02         3.2 0.11            126            149 213 
 ZAR  HZ EP        925  3.68                             118   -0.14 9  184 295 
 ZAR  HN ES        925 26.80                             118    0.63 9  184 295 
 ZAR  HZ I         925 31.00         2.8 0.14            120            184 295 
                                                                                
