 2012  425 0122 49.1 L   6.735 -73.169151.6  RSN  6 0.3 1.6LRSN                1
 GAP=136        0.78       5.9     5.3  9.9  0.1190E+02 -0.1257E+02 -0.2413E+02E
 Epicentro: VILLANUEVA - SANTANDER                                             3
 ACTION:UPD 12-07-05 11:55 OP:tino STATUS:               ID:20120425012249 L   I
 2012-04-25-0120-00M.COL___186                                                 6
 STAT SP IPHASW D HRMM SECON CODA AMPLIT PERI AZIMU VELO AIN AR TRES W  DIS CAZ7
 BAR2 SZ EP        123  9.19                             174    -0.110   16 185 
 BAR2 SZ I         123 24.95        11.8 0.27                            16 185 
 BRR  HZ EP   1    123 11.15                             153     0.2 7   73 304 
 BRR  HZ I         123 26.56        11.6 0.37                            73 304 
 BRR  HE ES   1    123 27.99                             153     0.0 7   73 304 
 PAM  SZ EP        123 12.13                             150    -0.210   85  38 
 RUS  HZ EP   1    123 13.06                             147     0.1 7   94 174 
 RUS  HN ES        123 31.67                             147     0.210   94 174 
 RUS  HZ I         123 33.08         5.1 0.32                            94 174 
 PTB  HZ EP   1    123 16.14                             134     0.0 7  144 261 
 PTB  HN ES   1    123 36.63                             134    -0.7 7  144 261 
 PTB  HZ I         123 38.80         2.6 0.14                           144 261 
 ZAR  HE ES   1    123 48.22                             124     0.6 6  205 294 
                                                                                
