 2017  625 0757 34.8 L   6.748 -73.158146.7  RSN  4 0.4 1.6LRSN                1
 GAP=246        0.97       7.4     7.6  8.8 -0.1008E+02  0.1038E+02  0.3072E+01E
 Epicentro: LOS SANTOS - SANTANDER                                             3
 ACTION:UPD 17-09-14 16:55 OP:jn   STATUS:               ID:20170625075734 L   I
 OLDACT:DUP 17-06-25 16:38 OP:lv   STATUS:               ID:20170625074743d    3
 2017-06-25-0748-00M.COL___349                                                 6
 STAT SP IPHASW D HRMM SECON CODA AMPLIT PERI AZIMU VELO AIN AR TRES W  DIS CAZ7
 BAR2 EZ EP        757 54.65                             173    0.2010 17.4 189 
 BAR2 EZ ES        758  9.30                             173   -0.4710 17.4 189 
 BAR2 EZ I         758 10.55        66.3 0.04            173           17.4 189 
 BRR  HZ EP        757 56.23                             152    0.0710 73.0 303 
 BRR  HN ES        758 13.30                             152    0.4910 73.0 303 
 BRR  HZ I         758 14.94         3.6 0.06            150           73.0 303 
 PTB  HZ EP        758  1.30                             133   -0.34 9  145 261 
 PTB  HN ES        758 22.14                             133   -0.43 9  145 261 
 PTB  HZ I         758 25.84         1.2 0.21            132            145 261 
 SPBC HN ES        758 25.24                             130    0.47 9  158 220 
                                                                                
