 2011  925 0534 50.6 L   6.777 -73.136149.1  RSN  4 0.4 1.3LRSN                1
 GAP=237        0.63      12.0    15.1  8.1  0.1577E+03 -0.2427E+02 -0.9299E+01E
 Epicentro: LOS SANTOS - SANTANDER                                             3
 ACTION:UPD 12-07-13 15:59 OP:ep   STATUS:               ID:20110925053450 L   I
 2011-09-25-0520-00M.COL___167                                                 6
 STAT SP IPHASW D HRMM SECON CODA AMPLIT PERI AZIMU VELO AIN AR TRES W  DIS CAZ7
 BAR2 SZ EP   2    535 10.60                             172   -0.03 5 21.1 194 
 BAR2 SZ ES   2    535 25.63                             172   -0.59 5 21.1 194 
 BAR2 SZ I         535 28.46         3.4 0.26                          21.1 194 
 BRR  HZ EP        535 12.53                             152    0.2610 73.4 300 
 BRR  HE ES        535 29.16                             152    0.0110 73.4 300 
 BRR  HZ I         535 33.29         3.8 0.22                          73.4 300 
 RUS  HZ EP   1    535 14.20                             145   -0.34 7 98.0 177 
 RUS  HN ES   2    535 33.80                             145    0.62 5 98.0 177 
 RUS  HZ I         535 36.02         2.5 0.22                          98.0 177 
 ZAR  HE ES   2    535 48.68                             123   -0.46 4  206 293 
 ZAR  HZ I         535 55.95         2.5 0.04                           206 293 
                                                                                
