 2016  725 0335 40.4 L   6.748 -73.069141.0  RSN  5 0.2 1.2LRSN                1
 GAP=149        0.65       3.1     4.3  4.7 -0.4193E+01  0.1201E+01  0.2036E+01E
 Epicentro: JORDAN - SANTANDER                                                 3
 ACTION:UPD 17-03-29 16:54 OP:lp   STATUS:               ID:20160725033540 L   I
 OLDACT:UP  16-07-25 17:15 OP:edw  STATUS:               ID:20160725032759     3
 OLDACT:REG 16-07-25 14:15 OP:edw  STATUS:               ID:20160725032759     3
 2016-07-25-0327-59S.COL___337                                                 6
 STAT SP IPHASW D HRMM SECON CODA AMPLIT PERI AZIMU VELO AIN AR TRES W  DIS CAZ7
 BAR2 EZ EP        335 59.47                             171    0.0910 21.3 216 
 BAR2 EZ ES        336 13.87                             171   -0.3410 21.3 216 
 PAM  HZ EP        336  1.59                             150   -0.4610 77.1  32 
 PAM  EE ES        336 19.26                             150    0.2810 77.1  32 
 PAM  HZ I         336 21.65         3.3 0.32            154           77.1  32 
 BRR  HZ EP        336  1.63                             148    0.0110 81.4 299 
 BRR  HE ES        336 18.34                             148    0.1410 81.4 299 
 BRR  HZ I         336 22.60         3.6 0.08            149           81.4 299 
 RUS  HZ EP        336  3.34                             145    0.1310 94.6 181 
 RUS  HN ES        336 21.18                             145    0.1510 94.6 181 
 RUS  HZ I         336 24.24         1.8 0.34            147           94.6 181 
 SPBC HZ EP        336  8.78                             128    0.17 9  164 223 
 SPBC HE ES        336 30.45                             128   -0.19 9  164 223 
 SPBC HZ I         336 33.67         2.5 0.22            130            164 223 
                                                                                
