 2016  625 0801  5.6 L   6.819 -73.152146.0  RSN 11 0.5 1.5LRSN                1
 GAP=135        1.14       4.4     4.7  7.3  0.6861E+00  0.1226E+02  0.7709E+01E
 Epicentro: LOS SANTOS - SANTANDER                                             3
 ACTION:UPD 16-07-21 22:22 OP:rebc STATUS:               ID:20160625080105 L   I
 OLDACT:REG 16-06-25 12:36 OP:ak   STATUS:               ID:20160625075740     3
 2016-06-25-0757-40M.COL___318                                                 6
 STAT SP IPHASW D HRMM SECON CODA AMPLIT PERI AZIMU VELO AIN AR TRES W  DIS CAZ7
 BRR  HZ EP   2    8 1 27.32                             153    0.59 5 69.6 297 
 BRR  HE ES        8 1 44.00                             153    0.8310 69.6 297 
 BRR  HZ I         8 1 45.33         3.9 0.25                          69.6 297 
 PAM  EZ EP   2    8 1 27.84                             152    0.02 5 76.3  41 
 PAM  EN ES        8 1 44.90                             152   -0.2110 76.3  41 
 PAM  EZ I         8 1 47.63         5.9 0.36                          76.3  41 
 RUS  HZ EP        8 1 29.77                             144    0.2010  103 176 
 RUS  HE ES        8 1 48.27                             144    0.0410  103 176 
 RUS  HZ I         8 1 49.18         4.9 0.28                           103 176 
 PTB  HZ EP        8 1 32.38                             132   -0.22 9  147 258 
 PTB  HN ES        8 1 53.33                             132   -0.30 9  147 258 
 PTB  HZ I         8 1 56.19         2.9 0.11                           147 258 
 SPBC HZ EP        8 1 33.65                             129   -0.62 9  164 218 
 SPBC HN ES        8 1 57.02                             129    0.43 9  164 218 
 SPBC HZ I         8 2  2.97         5.0 0.07                           164 218 
 ZAR  HZ EP        8 1 37.09                             123   -0.86 9  203 292 
 ZAR  HN ES        8 2  2.89                             123   -0.26 9  203 292 
 ZAR  HZ I         8 2  8.76         3.6 0.29                           203 292 
 NOR  HZ EP        8 1 40.99                             119   -0.46 8  235 234 
 NOR  HN ES        8 2  9.39                             119    0.01 8  235 234 
 NOR  HZ I         8 2 14.61         3.0 0.52                           235 234 
 CHI  HZ EP   2    8 1 43.60                             117    0.05 4  250 195 
 CHI  HN ES        8 2 12.60                             117   -0.51 8  250 195 
 HEL  HZ EP        8 1 46.80                             115    0.96 8  272 255 
 HEL  HN ES        8 2 16.70                             115   -0.50 8  272 255 
 HEL  HZ I         8 2 23.50         2.0 0.28                           272 255 
 GUY2CHZ EP        8 1 50.35                             113    1.02 7  302 234 
 GUY2CHN ES   4    8 2 24.39                             113    0.99 0  302 234 
 GUY2CHZ I         8 2 31.70         1.8 0.36                           302 234 
 CBOC HZ EP   2    8 1 53.22                             110    0.66 3  334 252 
 CBOC HE ES        8 2 29.53                             110    0.38 7  334 252 
                                                                                
