 2016  725 0258 12.9 L   6.765 -73.103142.6  RSN  7 0.3 1.7LRSN                1
 GAP=144        0.80       3.3     3.9  5.2 -0.2052E+01  0.8146E+01  0.4590E+00E
 Epicentro: LOS SANTOS - SANTANDER                                             3
 ACTION:UPD 17-03-29 16:54 OP:lp   STATUS:               ID:20160725025812 L   I
 OLDACT:UP  16-07-25 17:02 OP:edw  STATUS:               ID:20160725025759     3
 OLDACT:REG 16-07-25 14:10 OP:edw  STATUS:               ID:20160725025759     3
 2016-07-25-0257-59S.COL___337                                                 6
 STAT SP IPHASW D HRMM SECON CODA AMPLIT PERI AZIMU VELO AIN AR TRES W  DIS CAZ7
 BAR2 EZ EP        258 31.83                             171   -0.2310 21.0 205 
 BAR2 EZ ES        258 46.84                             171   -0.2010 21.0 205 
 BRR  HZ EP        258 33.80                             150   -0.2310 77.3 299 
 BRR  HN ES        258 51.05                             150    0.5110 77.3 299 
 BRR  HZ I         258 52.56         6.2 0.24            149           77.3 299 
 PAM  EZ EP        258 34.75                             150   -0.0010 77.6  35 
 PAM  EE ES        258 51.95                             150    0.1210 77.6  35 
 PAM  EZ I         258 53.85        12.6 0.62            152           77.6  35 
 RUS  HZ EP   2    258 35.96                             144   -0.05 5 96.5 179 
 RUS  HN ES        258 54.24                             144    0.1810 96.5 179 
 RUS  HZ I         258 55.47         4.2 0.26            147           96.5 179 
 SPBC HZ EP        258 40.83                             128   -0.30 9  163 221 
 SPBC HN ES        259  2.85                             128   -0.33 9  163 221 
 SPBC HZ I         259  5.19         6.4 0.32            130            163 221 
 ZAR  HZ EP        258 45.86                             121    0.14 8  210 293 
 ZAR  HN ES        259 10.87                             121   -0.47 8  210 293 
 ZAR  HZ I         259 16.74         8.5 0.34            121            210 293 
 GUY2CHZ EP        258 57.22                             112    0.70 7  303 236 
 GUY2CHN ES        259 31.07                             112    0.50 7  303 236 
 GUY2CHZ I         259 36.88         2.0 0.34                           303 236 
                                                                                
