 2013  925 0620 11.0 L   6.847 -73.189141.0  RSN  5 0.3 1.7LRSN                1
 GAP=179        0.69       2.3     4.4  7.1 -0.5389E+00 -0.1448E+00 -0.5410E+01E
 Epicentro: ZAPATOCA - SANTANDER                                               3
 ACTION:UPD 13-10-22 09:24 OP:ep   STATUS:               ID:20130925062011 L   I
 OLDACT:DUP 13-09-25 12:43 OP:nd   STATUS:               ID:20130925061960d    3
 2013-09-25-0619-59M.COL___269                                                 6
 STAT SP IPHASW D HRMM SECON CODA AMPLIT PERI AZIMU VELO AIN AR TRES W  DIS CAZ7
 RUS  HZ EP        620 34.92                             141    0.2510  106 174 
 RUS  HN ES        620 53.08                             141   -0.0810  106 174 
 RUS  HZ I         620 54.36         6.5 0.32            147            106 174 
 PTB  HZ EP        620 37.31                             132    0.09 9  144 256 
 PTB  HN ES        620 57.58                             132   -0.12 9  144 256 
 PTB  HZ I         621  1.19         4.5 0.14            134            144 256 
 OCA  HZ EP        620 37.67                             130   -0.69 9  155 355 
 OCA  HN ES        620 59.98                             130    0.24 9  155 355 
 OCA  HZ I         621  3.88         3.6 0.14            132            155 355 
 SPBC HZ EP        620 39.40                             128    0.19 9  164 217 
 SPBC HN ES        621  1.15                             128   -0.10 9  164 217 
 SPBC HZ I         621  3.93         9.2 0.28            132            164 217 
 SML  HZ EP        620 46.67                             117    0.08 8  237 336 
 SML  HN ES        621 14.56                             117    0.18 8  237 336 
 SML  HZ I         621 18.86         8.7 0.10            120            237 336 
                                                                                
