 2017  225 0313 17.6 L   6.742 -73.213147.8  RSN  4 0.3 0.9LRSN                1
 GAP=222        0.73       6.0     6.0  6.5  0.1924E+02  0.4633E+01  0.2594E+01E
 Epicentro: VILLANUEVA - SANTANDER                                             3
 ACTION:UPD 17-05-24 15:40 OP:jn   STATUS:               ID:20170225031317 L   I
 OLDACT:DUP 17-02-25 15:51 OP:dani STATUS:               ID:20170225030746d    3
 OLDACT:UP  17-02-25 15:50 OP:dani STATUS:               ID:20170225030745d    3
 OLDACT:UP  17-02-25 15:49 OP:dani STATUS:               ID:20170225030745d    3
 OLDACT:UP  17-02-25 15:48 OP:dani STATUS:               ID:20170225030745d    3
 OLDACT:DUP 17-02-25 15:45 OP:dani STATUS:               ID:20170225030745d    3
 2017-02-25-0308-00M.COL___379                                                 6
 STAT SP IPHASW D HRMM SECON CODA AMPLIT PERI AZIMU VELO AIN AR TRES W  DIS CAZ7
 BAR2 EZ ES   1    313 52.18                             173   -0.64 7 16.9 169 
 BRR  HZ EP        313 39.03                             154    0.1810 68.3 306 
 BRR  HN ES        313 55.62                             154    0.2210 68.3 306 
 BRR  HZ I         313 57.41         3.1 0.23            154           68.3 306 
 RUS  HZ EP        313 41.31                             146    0.1110 95.1 171 
 RUS  HN ES        313 59.77                             146    0.1810 95.1 171 
 RUS  HZ I         314  1.72         1.1 0.40            146           95.1 171 
 PTB  HZ EP        313 43.63                             134   -0.40 9  139 261 
 PTB  HE ES        314  4.64                             134    0.03 9  139 261 
 PTB  HZ I         314  7.70         0.8 0.18            134            139 261 
                                                                                
