 2016  325 0514 11.7 L   6.895 -73.329124.5  RSN  9 0.4 1.4LRSN                1
 GAP= 99        0.92       2.7     3.7  6.7  0.1021E+01  0.1084E+02  0.2544E+01E
 Epicentro: BETULIA - SANTANDER                                                3
 ACTION:UPD 16-05-13 21:27 OP:cam  STATUS:               ID:20160325051411 L   I
 OLDACT:REG 16-03-25 14:22 OP:ak   STATUS:               ID:20160325050743     3
 2016-03-25-0507-43M.COL___295                                                 6
 STAT SP IPHASW D HRMM SECON CODA AMPLIT PERI AZIMU VELO AIN AR TRES W  DIS CAZ7
 BAR2 EZ EP        514 29.75                             162    0.5510 37.2 154 
 BAR2 EZ ES        514 42.92                             162    0.0710 37.2 154 
 BAR2 EZ I         514 44.04        14.6 0.32            165           37.2 154 
 PAM  EN ES        514 48.35                             144    0.0810 85.2  55 
 RUS  HZ EP        514 34.61                             135    0.0510  114 166 
 RUS  HE ES        514 52.14                             135   -0.2410  114 166 
 RUS  HZ I         514 53.18         2.8 0.24            138            114 166 
 PTB  HZ EP        514 34.85                             130   -0.5410  131 253 
 PTB  HN ES        514 53.85                             130   -0.0210  131 253 
 PTB  HZ I         514 57.20         2.6 0.11            130            131 253 
 OCA  HN ES        514 56.74                             127   -0.51 9  149   0 
 SPBC HZ EP        514 38.64                             124    0.28 9  160 211 
 SPBC HE ES        514 59.09                             124   -0.06 9  160 211 
 SPBC HZ I         515  5.03         3.8 0.06            125            160 211 
 ZAR  HZ EP   4    514 42.39                             120    1.96 0  181 291 
 ZAR  HN ES        515  3.39                             120    0.55 9  181 291 
 ZAR  HZ I         515  8.28         3.0 0.50            121            181 291 
 CHI  HZ EP        514 49.55                             112    0.58 8  254 190 
 CHI  HN ES        515 17.39                             112   -0.65 8  254 190 
 MON  HZ EP   2    514 56.80                             106   -0.53 3  331 309 
 MON  HN ES        515 32.79                             106   -0.13 7  331 309 
 MON  HZ I         515 37.72         0.7 0.29            107            331 309 
                                                                                
