 2014  825 0546 17.3 L   6.735 -73.199152.3  RSN  4 0.4 1.1LRSN                1
 GAP=226        0.90       6.0     7.8  9.4  0.1452E+02  0.3309E+01  0.5008E+01E
 Epicentro: VILLANUEVA - SANTANDER                                             3
 ACTION:UPD 14-09-15 21:53 OP:nd   STATUS:               ID:20140825054617 L   I
 OLDACT:DUP 14-08-25 16:59 OP:fm   STATUS:               ID:20140825053812d    3
 2014-08-25-0538-11M.COL___247                                                 6
 STAT SP IPHASW D HRMM SECON CODA AMPLIT PERI AZIMU VELO AIN AR TRES W  DIS CAZ7
 BRR  HZ EP   1    546 38.76                             154   -0.35 7 70.1 306 
 BRR  HN ES        546 56.46                             154    0.3410 70.1 306 
 BRR  HZ I         547  0.29         1.9 0.48            153           70.1 306 
 RUS  HZ EP   1    546 41.10                             147   -0.16 7 94.0 172 
 RUS  HN ES        546 59.75                             147   -0.2010 94.0 172 
 RUS  HZ I         547  1.46         1.4 0.38            148           94.0 172 
 PTB  HZ EP   1    546 44.37                             135    0.16 7  141 261 
 PTB  HN ES   1    547  4.25                             135   -0.93 7  141 261 
 PTB  HZ I         547  7.90         1.3 0.10            134            141 261 
 SPBC HZ EP   1    546 45.83                             132    0.36 7  154 219 
 SPBC HN ES        547  7.85                             132    0.42 9  154 219 
 SPBC HZ I         547 14.80         2.1 0.26            132            154 219 
                                                                                
