 2011  525 0201  4.7 L   6.747 -73.007145.6  RSN  4 0.2 1.6LRSN                1
 GAP=218        0.46       5.1     6.9  7.0 -0.1534E+02 -0.1963E+02  0.6949E+01E
 Epicentro: CEPITA - SANTANDER                                                 3
 ACTION:UP  11-06-29 08:56 OP:tino STATUS:               ID:20110525020104 L   I
 2011-05-25-0159-57S.COL___141                                                 6
 STAT SP IPHASW D HRMM SECON CODA AMPLIT PERI AZIMU VELO SNR AR TRES W  DIS CAZ7
 BAR2 SZ EP   1    2 1 24.38                             169     0.0 7   26 228 
 BAR2 SZ ES   2    2 1 39.61                             169    -0.1 5   26 228 
 BAR2 SZ I         2 1 42.62         9.6 0.37                            26 228 
 BTL  SZ EP   1    2 1 24.81                             166     0.2 7   34 303 
 BRR  HZ EP   1    2 1 26.55                             147    -0.3 7   87 297 
 BRR  HZ I         2 1 26.92         8.9 0.07                            87 297 
 BRR  HN ES   1    2 1 44.24                             147     0.1 7   87 297 
 GRA  SZ EP   1    2 1 30.28                             136     0.2 7  128  10 
 GRA  SZ ES   1    2 1 49.83                             136    -0.1 7  128  10 
 GRA  SZ I         2 1 51.11         3.4 0.31                           128  10 
                                                                                
