 2013  625 0335 11.8 L   6.506 -73.601114.7  RSN  6 0.3 1.0LRSN                1
 GAP=133        0.83       4.2     3.8  7.0  0.3209E+01  0.5034E+01  0.4712E+01E
 Epicentro: SANTA HELENA DEL OPON - SANTANDER                                  3
 ACTION:UPD 14-01-08 09:56 OP:ep   STATUS:               ID:20130625033511 L   I
 OLDACT:REG 13-06-25 06:33 OP:jn   STATUS:               ID:20130625032959     3
 2013-06-25-0329-59M.COL___267                                                 6
 STAT SP IPHASW D HRMM SECON CODA AMPLIT PERI AZIMU VELO AIN AR TRES W  DIS CAZ7
 BAR2 SZ EP     C  335 28.77                             156    0.2010 47.3  78 
 BAR2 SZ ES        335 41.47                             156   -0.2110 47.3  78 
 BRR  HN ES        335 43.81                             147    0.6510 67.6 350 
 GIR2 SZ EP   1    335 29.77                             143   -0.53 7 77.7  35 
 GIR2 SZ ES   1    335 44.44                             143   -0.33 7 77.7  35 
 RUS  HZ EP        335 31.82                             140    0.1910 88.8 140 
 RUS  HE ES   1    335 47.15                             140    0.01 7 88.8 140 
 RUS  HZ I         335 48.71         1.2 0.40            140           88.8 140 
 PTB  HZ EP        335 31.53                             138    0.0910 94.6 272 
 PTB  HN ES        335 46.43                             138   -0.3710 94.6 272 
 PTB  HZ I         335 47.72         3.6 0.10            138           94.6 272 
 SML  HN ES   1    336 17.14                             109   -0.22 6  259 348 
                                                                                
