 2016  825 0034 24.7 L   6.574 -73.098164.4  RSN 13 0.4 1.7LRSN                1
 GAP=126        0.83       3.4     3.4  4.7 -0.5047E+01  0.6009E+00  0.3429E+01E
 Epicentro: SAN GIL - SANTANDER                                                3
 ACTION:UPD 16-10-29 15:39 OP:rebc STATUS:               ID:20160825003424 L   I
 OLDACT:DUP 16-08-25 12:53 OP:ak   STATUS:               ID:20160825002734d    3
 2016-08-25-0028-00M.COL___380                                                 6
 STAT SP IPHASW D HRMM SECON CODA AMPLIT PERI AZIMU VELO AIN AR TRES W  DIS CAZ7
 BAR2 EZ EP        034 46.15                             177   -0.2410 9.58 282 
 BAR2 EZ ES        035  3.09                             177   -0.2310 9.58 282 
 BAR2 EZ I         035  5.87        16.7 0.28                          9.58 282 
 RUS  HZ IP     D  034 49.12                             154    0.3010 75.4 179 
 RUS  HN ES        035  7.71                             154    0.0810 75.4 179 
 RUS  HZ I         035  8.94        12.7 0.32                          75.4 179 
 BRR  HZ EP   2    034 49.41                             150    0.48 5 89.9 311 
 BRR  HN ES        035  7.99                             150    0.1510 89.9 311 
 BRR  HZ I         035 12.61        10.0 0.32                          89.9 311 
 PAM  EZ EP        034 50.27                             149    0.2910 95.4  27 
 PAM  EN ES        035  9.99                             149    0.2910 95.4  27 
 PAM  EZ I         035 10.72         3.7 0.34                          95.4  27 
 SPBC HZ EP   2    034 53.87                             136    0.47 5  148 227 
 SPBC HN ES        035 16.17                             136    0.38 9  148 227 
 SPBC HZ I         035 20.43         4.8 0.09                           148 227 
 PTB  HZ EP   2    034 52.55                             136   -0.90 5  150 269 
 PTB  HN ES        035 15.00                             136   -0.89 9  150 269 
 PTB  HZ I         035 18.50         3.6 0.12                           150 269 
 NOR  HZ EP   2    035  0.95                             123    0.30 4  226 240 
 NOR  HN ES        035 28.71                             123    0.02 8  226 240 
 CHI  HZ EP   2    035  1.36                             124    0.19 4  226 198 
 CHI  HN ES        035 29.64                             124    0.02 8  226 198 
 NOR  HZ I         035 30.20         3.9 0.17                           226 240 
 HEL  HN ES   2    035 38.75                             118    0.63 4  272 261 
 GUY2CHZ EP   2    035  7.99                             117   -0.23 4  292 239 
 GUY2CHE ES        035 42.41                             117    0.23 7  292 239 
 GUY2CHZ I         035 50.86         1.9 0.28                           292 239 
 SOCV BZ EP        035  9.08                             115   -0.69 7  311  52 
 SOCV BN ES   4    035 40.60                             115   -4.34 0  311  52 
 CBOC HZ EP   2    035 13.07                             113    0.82 3  332 256 
 CBOC HN ES        035 49.54                             113    0.19 7  332 256 
 CBOC HZ I         035 52.01         1.1 0.16                           332 256 
 PRA  HZ EP        035 16.50                             111   -0.26 6  373 212 
 PRA  HN ES        035 56.67                             111   -0.71 6  373 212 
 PRA  HZ I         036  2.19         2.0 0.58                           373 212 
                                                                                
