 2014 1225 0514 36.5 L   6.812 -73.198142.7  RSN 11 0.5 2.1LRSN                1
 GAP=130        1.09       3.4     4.1  6.0 -0.1285E+00  0.6622E+01 -0.4324E+01E
 Epicentro: ZAPATOCA - SANTANDER                                               3
 ACTION:UPD 15-02-10 17:07 OP:nd   STATUS:               ID:20141225051436 L   I
 OLDACT:UP  14-12-25 17:00 OP:mh   STATUS:               ID:20141225050744     3
 OLDACT:REG 14-12-25 13:31 OP:mh   STATUS:               ID:20141225050744     3
 2014-12-25-0507-44M.COL___289                                                 6
 STAT SP IPHASW D HRMM SECON CODA AMPLIT PERI AZIMU VELO AIN AR TRES W  DIS CAZ7
 BAR2 EZ EP        514 55.73                             170   -0.0410 24.3 176 
 BAR2 EZ ES        515 10.33                             170   -0.4710 24.3 176 
 BAR2 EZ I         515 11.64                             170           24.3 176 
 BAR2 EZ I         515 12.02        20.4 0.16                          24.3 176 
 BRR  HZ EP     C  514 57.65                             154    0.6610 65.5 300 
 BRR  HN ES        515 13.78                             154    0.8010 65.5 300 
 BRR  HZ I         515 16.10        26.1 0.19            151           65.5 300 
 BRR  HN I         515 28.53        20.7 0.18                          65.5 300 
 PAM  SZ EP        514 58.77                             149    0.2210 80.2  43 
 PAM  SN ES   1    515 15.34                             149   -0.42 7 80.2  43 
 PAM  SZ I         515 18.06        32.5 0.20            154           80.2  43 
 RUS  HZ EP        514 59.83                             143   -0.2410  102 173 
 RUS  HN ES        515 18.07                             143   -0.3910  102 173 
 RUS  HZ I         515 18.99         9.2 0.38            145            102 173 
 PTB  HZ EP   1    515  2.77                             132    0.06 7  142 258 
 PTB  HN ES        515 22.93                             132   -0.24 9  142 258 
 PTB  HZ I         515 26.40        18.8 0.24            132            142 258 
 OCA  HZ EP        515  4.65                             129    0.27 9  158 355 
 OCA  HN ES   1    515 26.00                             129   -0.14 7  158 355 
 OCA  HZ I         515 29.52        24.0 0.67            131            158 355 
 SPBC HZ EP        515  5.29                             129    0.78 9  161 217 
 SPBC HN ES        515 26.54                             129    0.18 9  161 217 
 SPBC HZ I         515 36.47        11.6 0.20            129            161 217 
 ZAR  HZ EP        515  8.67                             122    0.54 9  198 292 
 ZAR  HN ES        515 33.04                             122    0.23 9  198 292 
 ZAR  HZ I         515 39.48        13.1 0.34            123            198 292 
 SML  HZ EP        515 12.16                             117   -0.40 8  240 336 
 SML  HN ES        515 40.35                             117   -0.34 8  240 336 
 SML  HZ I         515 47.67        12.8 0.30            118            240 336 
 HEL  HZ EP        515 15.58                             115   -0.38 8  267 255 
 HEL  HN ES   1    515 46.20                             115   -0.55 6  267 255 
 HEL  HZ I         515 56.48         4.2 0.17            115            267 255 
 URE  HZ EP        515 16.03                             113   -0.72 7  278 292 
 URE  HN ES        515 47.49                             113   -0.67 7  278 292 
                                                                                
