 2017 1225 0640  7.3 L   6.799 -73.157136.9  RSN 11 0.6 1.6LRSN                1
 GAP= 82        1.19       4.1     3.6  7.3 -0.2779E+01  0.8815E+01 -0.1259E+01E
 Epicentro: LOS SANTOS - SANTANDER                                             3
 ACTION:UPD 18-01-04 13:24 OP:rebc STATUS:               ID:20171225064007 L   I
 OLDACT:DUP 17-12-25 16:01 OP:osc  STATUS:               ID:20171225063740d    3
 OLDACT:UP  17-12-25 15:55 OP:osc  STATUS:               ID:20171225063739d    3
 OLDACT:DUP 17-12-25 15:41 OP:osc  STATUS:               ID:20171225063739d    3
 2017-12-25-0638-00M.COL___460                                                 6
 STAT SP IPHASW D HRMM SECON CODA AMPLIT PERI AZIMU VELO AIN AR TRES W  DIS CAZ7
 BAR2 EZ EP        640 25.61                             170   -0.2910 23.0 187 
 BAR2 EZ ES        640 40.23                             170   -0.1510 23.0 187 
 BAR2 EZ I         640 41.76        13.9 0.18            172           23.0 187 
 PAM  EZ EP        640 28.74                             149    0.0610 78.3  40 
 PAM  EE ES        640 45.63                             149    0.3110 78.3  40 
 PAM  EZ I         640 48.15         8.8 0.60            150           78.3  40 
 PTB  HZ EP        640 32.85                             130   -0.64 9  147 259 
 PTB  HN ES        640 53.50                             130   -0.38 9  147 259 
 PTB  HZ I         640 57.14         3.2 0.12            131            147 259 
 TAM  HZ EP        640 34.31                             128   -0.14 9  156 105 
 TAM  HN ES        640 55.71                             128    0.12 9  156 105 
 OCA  HZ EP        640 35.57                             127    0.59 9  160 354 
 OCA  HE ES        640 55.81                             127   -0.72 9  160 354 
 OCA  HZ I         641  0.25        14.7 0.42            129            160 354 
 SPBC HE ES        640 57.14                             127    0.40 9  162 219 
 ZAR  HZ EP        640 39.54                             120    0.43 9  203 292 
 ZAR  HE ES        641  5.12                             120    1.23 9  203 292 
 ZAR  HZ I         641  7.11         4.1 0.30            122            203 292 
 DRL03HN ES   3    641 22.70                             111    2.03 2  289 353 
 GUY2CHZ EP        640 50.43                             111   -0.01 7  300 235 
 GUY2CHN ES        641 23.73                             111   -0.31 7  300 235 
 GUY2CHZ I         641 31.33         1.8 0.26                           300 235 
 CBOC HZ EP        640 54.12                             108    0.35 7  332 252 
 CBOC HN ES        641 29.73                             108   -0.24 7  332 252 
 CBOC HZ I         641 34.85         0.8 0.42            110            332 252 
 SJC  HN ES        641 44.33                             104   -1.30 6  409 327 
                                                                                
