 2016 1125 0241  9.7 L   6.773 -73.117141.5  RSN  8 0.3 1.7LRSN                1
 GAP=164        0.72       4.3     3.5  4.8 -0.2512E+01  0.3028E+01  0.3002E+01E
 Epicentro: LOS SANTOS - SANTANDER                                             3
 ACTION:UPD 17-10-26 21:11 OP:lp   STATUS:               ID:20161125024109 L   I
 OLDACT:REG 16-11-25 12:25 OP:edw  STATUS:               ID:20161125023745     3
 2016-11-25-0238-00M.COL___355                                                 6
 STAT SP IPHASW D HRMM SECON CODA AMPLIT PERI AZIMU VELO AIN AR TRES W  DIS CAZ7
 BAR2 EZ EP        241 28.54                             171   -0.2810 21.2 200 
 BAR2 EZ ES        241 43.59                             171   -0.1010 21.2 200 
 BAR2 EZ I         241 44.96        13.7 0.20            170           21.2 200 
 BRR  HZ IP     C  241 30.49                             150   -0.1910 75.5 299 
 BRR  HN ES        241 47.54                             150    0.5310 75.5 299 
 BRR  HZ I         241 49.10        10.2 0.14            150           75.5 299 
 PAM  EZ EP     C  241 31.61                             150    0.0810 77.8  36 
 PAM  EN ES        241 48.47                             150   -0.0510 77.8  36 
 PAM  EZ I         241 50.92         8.5 0.48            152           77.8  36 
 PTB  HZ EP   9    241 35.46                             130   -1.14 0  150 260 
 PTB  HN ES        241 56.20                             131   -0.21 9  150 260 
 PTB  HZ I         241 58.10         5.4 0.20            130            150 260 
 ZAR  HZ EP        241 42.77                             121    0.43 8  208 293 
 ZAR  HN ES        242  7.22                             121   -0.55 8  208 293 
 ZAR  HZ I         242 13.39         6.1 0.36            121            208 293 
 NOR  HZ EP   2    241 45.28                             117   -0.04 4  236 236 
 NOR  HN ES   2    242 13.27                             117    0.20 4  236 236 
 NOR  HZ I         242 16.54         3.5 0.46            118            236 236 
 URE  HZ EP   4    241 53.09                             112    2.02 0  288 292 
 URE  HN ES   4    242 19.91                             112   -3.39 0  288 292 
 URE  HZ I         242 22.57         2.9 0.12            113            288 292 
 PRA  HZ EP   4    242  3.94                             106    0.94 0  391 210 
 PRA  HN ES        242 44.73                             106    0.20 6  391 210 
 PRA  HZ I         242 48.54         1.4 0.24            106            391 210 
 SJC  HZ EP   4    242  1.94                             105   -3.73 0  414 327 
 SJC  HE ES   4    242 42.27                             105   -7.02 0  414 327 
                                                                                
