 2015  125 0707 25.9 L   6.776 -73.157147.3  RSN  5 0.4 0.9LRSN                1
 GAP=136        0.93       6.3     5.4  8.4 -0.4344E+01 -0.1696E+01  0.3480E+01E
 Epicentro: LOS SANTOS - SANTANDER                                             3
 ACTION:UPD 15-03-02 15:42 OP:nd   STATUS:               ID:20150125070725 L   I
 OLDACT:DUP 15-01-25 16:34 OP:spq  STATUS:               ID:20150125065743d    3
 2015-01-25-0657-42M.COL___271                                                 6
 STAT SP IPHASW D HRMM SECON CODA AMPLIT PERI AZIMU VELO AIN AR TRES W  DIS CAZ7
 BAR2 EZ EP   1    7 7 45.36                             172   -0.33 7 20.5 188 
 BAR2 EZ ES   1    7 8  0.74                             172   -0.36 7 20.5 188 
 BAR2 EZ I         7 8  1.63         2.6 0.20            171           20.5 188 
 BRR  HZ EP   1    7 7 47.43                             153    0.17 7 71.5 301 
 BRR  HE ES        7 8  4.59                             153    0.7010 71.5 301 
 BRR  HZ I         7 8  5.26         2.1 0.40            153           71.5 301 
 PAM  SZ EP        7 7 48.47                             150   -0.0010 80.2  39 
 PAM  SE ES   1    7 8  5.56                             150   -0.50 7 80.2  39 
 PAM  SZ I         7 8  7.42         1.3 0.54            152           80.2  39 
 RUS  HZ EP   1    7 7 50.08                             145    0.43 7 98.0 175 
 RUS  HE ES   1    7 8  8.44                             145    0.29 7 98.0 175 
 RUS  HZ I         7 8 10.05         0.9 0.28            146           98.0 175 
 PTB  HZ EP   1    7 7 52.75                             133   -0.12 7  146 260 
 PTB  HN ES        7 8 13.34                             133   -0.54 9  146 260 
 PTB  HZ I         7 8 16.87         1.0 0.18            133            146 260 
                                                                                
