 2013  225 0806 50.4 L   6.369 -73.760 10.0  RSN  8 0.5 2.5LRSN 3.0WRSN        1
 SPEC AVERAGE  MO 13.6 ST  2.2 OM  2.4 f0 3.25 R0.5445 AL 2.22 WI 20.5 MW  3.0 3
 SPEC SD       MO  0.1 ST  1.7 OM  0.7 f0 1.31 R0.2367 AL      WI      MW  0.1 3
 GAP=139        1.24       3.3     3.3  7.0  0.1741E+01  0.1409E+02  0.1173E+00E
 Epicentro: SANTA HELENA DEL OPON - SANTANDER                                  3
 SPEC HEL HH Z MO 13.7 ST0.892 OM  1.2 f0 2.41 R0.6100 AL 1.99 WI 21.9 MW  3.1 3
 SPEC HEL HH Z T 8 720 K 0.000 GD  197 VP 7.60 DE 3.20 Q0300.0 QA 0.60 VS 4.20 3
 SPEC PAM SH N MO 13.6 ST  3.4 OM  2.1 f0 3.96 R0.3712 AL 2.55 WI 18.2 MW  3.0 3
 SPEC PAM SH N T 8 733 K 0.000 GD  126 VS 4.20 DE 3.20 Q0300.0 QA 0.60 VS 4.20 3
 SPEC BRR HH N MO 13.4 ST  4.4 OM  2.1 f0 4.98 R0.2952 AL 3.23 WI 34.5 MW  2.9 3
 SPEC BRR HH N T 8 712 K 0.000 GD 82.4 VS 4.20 DE 3.20 Q0300.0 QA 0.60 VS 4.20 3
 SPEC BAR2SH Z MO 13.7 ST0.306 OM  1.7 f0 1.63 R0.9018 AL 1.12 WI  7.4 MW  3.1 3
 SPEC BAR2SH Z T 8 7 1 K 0.000 GD 69.2 VP 7.60 DE 3.20 Q0300.0 QA 0.60 VS 4.20 3
 ACTION:UPD 13-03-12 09:35 OP:ep   STATUS:               ID:20130225080650 L   I
 2013-02-25-0758-44M.COL___193                                                 6
 STAT SP IPHASW D HRMM SECON CODA AMPLIT PERI AZIMU VELO AIN AR TRES W  DIS CAZ7
 BAR2 SZ IP        8 7  1.69                              95    0.0310 68.5  69 
 BAR2 SZ ES        8 7  9.55                              95   -0.9010 68.5  69 
 BAR2 SZ I         8 7 12.28        99.4 0.38             47           68.5  69 
 PTB  HZ IP     D  8 7  3.08                              95    0.0210 79.3 284 
 BRR  HZ EP        8 7  3.74                              94    0.3110 81.8   4 
 BRR  HN ES        8 7 13.51                              94   -0.0810 81.8   4 
 BRR  HN I         8 7 14.25        91.1 0.34             47           81.8   4 
 RUS  HZ IP     D  8 7  5.95                              94    0.5410 91.6 125 
 RUS  HN ES        8 7 16.85                              94   -0.2610 91.6 125 
 PAM  SZ EP        8 7 16.20                              56    0.60 9  159  47 
 PAM  SN I         8 7 39.29       106.9 0.16             47            159  47 
 ZAR  HZ EP        8 7 17.02                              56    0.16 9  174 316 
 ZAR  HN ES        8 7 36.77                              56   -0.73 9  174 316 
 HEL  HZ EP        8 7 20.51                              56    0.34 9  197 264 
 HEL  HN ES        8 7 42.88                              56   -0.52 9  197 264 
 HEL  HN I         8 7 44.06        37.1 0.18             37            197 264 
 OCA  HN ES   1    8 7 47.49                              56    1.04 6  212  13 
 OCA  HN I         8 7 55.26        88.1 0.46             37            212  13 
                                                                                
