 2014  125 0643 24.7 L   6.825 -73.167139.3  RSN  5 0.4 1.3LRSN                1
 GAP=199        1.00       4.0     7.0  7.4  0.8020E+01  0.8330E+01 -0.5020E+01E
 Epicentro: LOS SANTOS - SANTANDER                                             3
 ACTION:UPD 14-03-13 09:58 OP:ep   STATUS:               ID:20140125064324 L   I
 OLDACT:REG 14-01-25 08:27 OP:nd   STATUS:               ID:20140125064000     3
 2014-01-25-0640-00M.COL___285                                                 6
 STAT SP IPHASW D HRMM SECON CODA AMPLIT PERI AZIMU VELO AIN AR TRES W  DIS CAZ7
 BAR2 SZ EP        643 43.80                             169    0.2110 25.8 184 
 BAR2 SZ ES        643 58.39                             169    0.0610 25.8 184 
 BAR2 SZ I         644  0.18         8.5 0.18            169           25.8 184 
 RUS  HZ EP        643 47.86                             142   -0.1610  103 175 
 RUS  HN ES        644  5.92                             142   -0.3010  103 175 
 RUS  HZ I         644  7.68         1.9 0.38            143            103 175 
 PTB  HZ EP        643 50.72                             131   -0.25 9  146 258 
 PTB  HN ES        644 11.20                             131   -0.28 9  146 258 
 PTB  HZ I         644 14.32         2.6 0.10            131            146 258 
 SML  HZ EP        644  0.03                             116   -0.55 8  240 336 
 SML  HN ES        644 29.33                             116    0.76 8  240 336 
 SML  HZ I         644 33.29         3.1 0.08            117            240 336 
 CHI  HZ EP        644  2.18                             115   -0.08 8  251 194 
 CHI  HN ES        644 32.49                             115    0.93 8  251 194 
 CHI  HZ I         644 34.68         0.8 0.24            117            251 194 
                                                                                
