 2010  225 0310 31.7 L   6.743 -73.156141.3  RSN  4 0.3 1.6LRSN                1
 GAP=181        0.83       5.1    16.3  8.4  0.4059E+02  0.8283E+00 -0.3107E+01E
 Epicentro: JORDAN - SANTANDER                                                 3
 ACTION:UP  10-08-24 09:50 OP:vdl  STATUS:               ID:20100225031031 L   I
 2010-02-25-0306-21S.COL___094                                                 6
 STAT SP IPHASW D HRMM SECON CODA AMPLIT PERI AZIMU VELO SNR AR TRES W  DIS CAZ7
 BAR2 SZ EP        310 50.53                             173    -0.210   17 191 
 BAR2 SZ ES        311  5.17                             173    -0.310   17 191 
 BRR  HZ IP        310 52.27                             151    -0.310   74 303 
 BRR  HZ I         310 59.03        10.8 0.29                            74 303 
 BRR  HE ES   2    311  9.26                             151     0.5 5   74 303 
 RUS  BZ EP        310 54.85                             144     0.310   94 175 
 RUS  BN ES   2    311 13.00                             144     0.6 5   94 175 
 RUS  BZ I         311 14.00         2.6 0.30                            94 175 
 OCA  SZ ES        311 22.80                             127     0.3 9  166 354 
 OCA  SZ I         311 23.70         8.6 0.17                           166 354 
                                                                                
