 2012  425 0413 36.5 L   6.779 -73.149146.3  RSN 10 0.4 1.7LRSN                1
 GAP=137        0.89       4.6     4.7  6.8 -0.2647E+01  0.4047E+01  0.2266E+01E
 Epicentro: LOS SANTOS - SANTANDER                                             3
 ACTION:UPD 12-07-05 11:55 OP:tino STATUS:               ID:20120425041336 L   I
 2012-04-25-0410-00M.COL___186                                                 6
 STAT SP IPHASW D HRMM SECON CODA AMPLIT PERI AZIMU VELO AIN AR TRES W  DIS CAZ7
 BAR2 SZ EP        413 56.14                             171     0.010   21 190 
 BAR2 SZ ES   1    414 11.20                             171    -0.3 7   21 190 
 BAR2 SZ I         414 12.86        32.0 0.19                            21 190 
 BRR  HZ EP        413 58.05                             152     0.310   72 300 
 BRR  HN ES   1    414 15.17                             152     0.8 7   72 300 
 BRR  HZ I         414 19.04         8.4 0.09                            72 300 
 PAM  SZ EP        413 59.06                             150     0.210   79  39 
 PAM  SN ES   1    414 16.32                             150    -0.1 7   79  39 
 RUS  HZ EP   1    414  0.01                             145    -0.1 7   98 176 
 RUS  HN ES   1    414 18.37                             145    -0.2 7   98 176 
 RUS  HZ I         414 20.03         6.2 0.37                            98 176 
 PTB  HZ EP   1    414  2.97                             132    -0.5 7  147 260 
 PTB  HN ES   1    414 23.95                             132    -0.5 7  147 260 
 PTB  HZ I         414 27.25         4.8 0.18                           147 260 
 OCA  SZ EP   1    414  4.72                             129    -0.4 7  163 353 
 ZAR  HN ES   1    414 33.94                             122    -0.5 6  205 293 
 NOR  SN ES   1    414 40.51                             119     0.7 6  233 235 
 CHI  HZ EP   1    414 14.10                             117     0.1 6  246 195 
 CHI  HZ I         414 52.11         3.5 0.51                           246 195 
 PRA  HZ EP   1    414 30.33                             107     0.5 4  390 210 
                                                                                
