 2012  125 0226 36.9 L   6.777 -73.396123.4  RSN  5 0.2 1.7LRSN                1
 GAP= 97        0.56       4.4     3.9  5.6  0.5794E+01  0.3696E+01  0.1639E+01E
 Epicentro: SAN VICENTE DE CHUCURI - SANTANDER                                 3
 ACTION:UP  12-02-03 08:20 OP:REBC STATUS:               ID:20120125022636 L   I
 2012-01-25-0220-00M.COL___188                                                 6
 STAT SP IPHASW D HRMM SECON CODA AMPLIT PERI AZIMU VELO SNR AR TRES W  DIS CAZ7
 BAR2 SZ EP        226 54.23                             165     0.210   31 131 
 BAR2 SZ ES   1    227  7.18                             165    -0.3 7   31 131 
 BAR2 SZ I         227  8.43        40.7 0.39                            31 131 
 GIR2 SZ EP   1    226 53.80                             161    -0.4 7   40  34 
 BRR  HZ EP        226 54.57                             156     0.110   51 316 
 BRR  HZ I         226 54.92        15.3 0.16                            51 316 
 BRR  HN ES   1    227  8.49                             156     0.3 7   51 316 
 RUS  HZ EP   1    226 58.87                             138     0.1 7  104 160 
 RUS  HE ES   1    227 15.90                             138     0.1 7  104 160 
 RUS  HZ I         227 17.89         3.2 0.11                           104 160 
 PTB  HZ EP        226 59.46                             133    -0.110  120 257 
 PTB  HN ES   1    227 17.01                             133    -0.2 7  120 257 
                                                                                
