 2017  425 0652 40.6 L   6.668 -73.161153.8  RSN  4 0.2 1.1LRSN                1
 GAP=247        0.51       6.4     3.8  5.2  0.9476E+01  0.3288E+01 -0.1967E+01E
 Epicentro: VILLANUEVA - SANTANDER                                             3
 ACTION:UPD 17-05-30 21:15 OP:jn   STATUS:               ID:20170425065240 L   I
 OLDACT:UP  17-04-25 15:27 OP:and  STATUS:               ID:20170425063858     3
 OLDACT:REG 17-04-25 12:24 OP:and  STATUS:               ID:20170425063858     3
 2017-04-25-0648-00M.COL___361                                                 6
 STAT SP IPHASW D HRMM SECON CODA AMPLIT PERI AZIMU VELO AIN AR TRES W  DIS CAZ7
 BAR2 EZ EP        653  1.07                             177    0.0310 8.72 196 
 BAR2 EZ ES        653 17.15                             177    0.2010 8.72 196 
 BRR  HZ EP        653  2.92                             152   -0.1110 77.9 309 
 BRR  HN ES        653 20.26                             152   -0.2410 77.9 309 
 PTB  HZ EP   2    653  7.93                             135   -0.00 5  144 264 
 PTB  HN ES        653 29.09                             135   -0.14 9  144 264 
 PTB  HZ I         653 34.87         1.7 0.40            131            144 264 
 ZAR  HE ES        653 40.47                             123    0.34 8  208 296 
                                                                                
