 2014  225 0816 33.4 L   6.779 -73.165145.1  RSN  5 0.2 1.4LRSN                1
 GAP=140        0.52       2.7     3.3  4.1 -0.3252E+01  0.7160E+00  0.2652E+01E
 Epicentro: LOS SANTOS - SANTANDER                                             3
 ACTION:UPD 14-03-10 08:13 OP:ep   STATUS:               ID:20140225081633 L   I
 OLDACT:DUP 14-02-25 13:17 OP:stll STATUS:               ID:20140225080819d    3
 2014-02-25-0808-18M.COL___229                                                 6
 STAT SP IPHASW D HRMM SECON CODA AMPLIT PERI AZIMU VELO AIN AR TRES W  DIS CAZ7
 BAR2 SZ EP        816 52.90                             171   -0.0410 20.8 185 
 BAR2 SZ ES        817  8.28                             171    0.1310 20.8 185 
 BAR2 SZ I         817 11.40         8.4 0.48            170           20.8 185 
 PAM  SZ EP        816 55.85                             150    0.0810 80.5  40 
 PAM  SZ I         816 56.10         5.3 0.24            153           80.5  40 
 PAM  SN ES        817 13.21                             150    0.0210 80.5  40 
 RUS  HZ EP        816 56.57                             144   -0.4010 98.5 175 
 RUS  HE ES        817 15.28                             144   -0.0510 98.5 175 
 RUS  HZ I         817 18.47         2.4 0.40            145           98.5 175 
 PTB  HN ES        817 20.86                             132   -0.07 9  145 260 
 PTB  HZ I         817 23.27         3.5 0.14            133            145 260 
 CHI  HZ EP        817 11.15                             117    0.35 8  246 195 
 CHI  HZ I         817 13.18         1.1 0.12            118            246 195 
 CHI  HN ES        817 40.07                             117    0.13 8  246 195 
                                                                                
