 2011  825 0243  4.8 L   6.605 -73.633108.2  RSN  4 0.4 1.2LRSN                1
 GAP=209        0.59       9.9    16.3 10.0  0.1368E+03  0.6557E+02  0.5191E+02E
 Epicentro: EL CARMEN DE CHUCURI - SANTANDER                                   3
 ACTION:UPD 12-07-13 15:53 OP:ep   STATUS:               ID:20110825024304 L   I
 2011-08-25-0240-00M.COL___156                                                 6
 STAT SP IPHASW D HRMM SECON CODA AMPLIT PERI AZIMU VELO AIN AR TRES W  DIS CAZ7
 BAR2 SZ EP   2    243 21.02                             154   -0.01 5 49.9  92 
 BAR2 SZ ES   2    243 34.04                             154    0.35 5 49.9  92 
 BAR2 SZ I         243 35.04        13.0 0.52                          49.9  92 
 BRR  HZ EP   1    243 20.94                             150   -0.10 7 56.2 351 
 BRR  HZ I         243 21.60         6.1 0.14                          56.2 351 
 BRR  HE ES   1    243 33.73                             150    0.02 7 56.2 351 
 GIR2 SZ EP   2    243 21.83                             144   -0.42 5 71.4  43 
 RUS  HZ EP   1    243 25.41                             134    0.42 7 99.6 142 
 RUS  HZ I         243 25.57         1.0 0.26                          99.6 142 
 RUS  HN ES   2    243 40.06                             134   -0.68 5 99.6 142 
                                                                                
