 2013  625 0352  8.0 L   6.775 -73.159148.5  RSN  4 0.3 1.0LRSN                1
 GAP=234        0.61       6.9     7.6  6.5  0.2991E+02  0.3020E+01  0.2300E-03E
 Epicentro: LOS SANTOS - SANTANDER                                             3
 ACTION:UPD 14-01-08 09:56 OP:ep   STATUS:               ID:20130625035208 L   I
 OLDACT:REG 13-06-25 06:36 OP:jn   STATUS:               ID:20130625034959     3
 2013-06-25-0349-59M.COL___267                                                 6
 STAT SP IPHASW D HRMM SECON CODA AMPLIT PERI AZIMU VELO AIN AR TRES W  DIS CAZ7
 BAR2 SZ EP        352 27.88                             172   -0.0510 20.4 187 
 BAR2 SZ ES   1    352 42.95                             172   -0.50 7 20.4 187 
 BAR2 SZ I         352 44.11         2.6 0.16            167           20.4 187 
 BRR  HZ EP   1    352 29.37                             153   -0.11 7 71.3 301 
 BRR  HN ES   1    352 46.69                             153    0.49 7 71.3 301 
 RUS  HZ EP   1    352 32.07                             145    0.20 7 98.0 175 
 RUS  HE ES   1    352 50.70                             145    0.24 7 98.0 175 
 RUS  HZ I         352 51.91         1.4 0.26            143           98.0 175 
 PTB  HZ EP   1    352 34.93                             133   -0.12 7  146 260 
 PTB  HN ES   2    352 55.79                             133   -0.33 5  146 260 
 PTB  HZ I         352 58.29         1.5 0.12            131            146 260 
                                                                                
