 2010  125 0948 44.2 L   6.802 -73.399140.1  RSN  7 0.4 1.3LRSN                1
 GAP=174        0.84       3.8    17.4 10.7 -0.2896E+02  0.9735E+02 -0.6919E+01E
 Epicentro: SAN VICENTE DE CHUCURI - SANTANDER                                 3
 ACTION:UP  10-08-24 09:45 OP:vdl  STATUS:               ID:20100125094844 L   I
 2010-01-25-0939-50S.COL___089                                                 6
 STAT SP IPHASW D HRMM SECON CODA AMPLIT PERI AZIMU VELO SNR AR TRES W  DIS CAZ7
 BAR2 SZ EP        949  3.07                             165    -0.310   33 134 
 BAR2 SZ ES   2    949 18.70                             165     0.3 5   33 134 
 GIR2 SZ EP   1    949  3.47                             163     0.1 7   38  37 
 RUS  HZ EP        949  7.50                             140    -0.310  106 161 
 RUS  HZ I         949  8.62         2.2 0.52                           106 161 
 RUS  HN ES   2    949 25.80                             140    -0.5 5  106 161 
 GUE  SZ EP        949  9.52                             135     0.410  125  25 
 GRA  SZ EP        949  9.99                             133     0.1 9  137  29 
 GRA  SZ ES   1    949 30.17                             133     0.3 7  137  29 
 OCA  SZ EP        949 11.43                             128    -0.5 9  159   3 
 OCA  SZ ES   1    949 33.54                             128    -0.1 7  159   3 
 CHI  HZ EP        949 21.37                             116     0.4 8  243 189 
 CHI  HZ I         949 23.23         2.0 0.95                           243 189 
 CHI  HN ES   2    949 50.56                             116     0.9 4  243 189 
                                                                                
