 2016 1025 0538 45.7 L   6.698 -73.187146.8  RSN  4 0.0 1.2LRSN                1
 GAP=225        0.30       2.5     2.6  3.1  0.3688E+01 -0.3304E+00 -0.3301E+00E
 Epicentro: VILLANUEVA - SANTANDER                                             3
 ACTION:UPD 16-11-09 19:22 OP:rebc STATUS:               ID:20161025053845 L   I
 OLDACT:REG 16-10-25 13:26 OP:cara STATUS:               ID:20161025053740     3
 2016-10-25-0538-00M.COL___352                                                 6
 STAT SP IPHASW D HRMM SECON CODA AMPLIT PERI AZIMU VELO AIN AR TRES W  DIS CAZ7
 BRR  HZ EP        539  7.06                             152   -0.0610 73.6 308 
 BRR  HE ES        539 23.84                             152    0.0310 73.6 308 
 PAM  EZ EP   4    539  9.76                             147    0.99 0 89.1  37 
 PAM  EE ES   4    539 24.99                             147   -1.77 0 89.1  37 
 PAM  EZ I         539 27.02         3.9 0.58            150           89.1  37 
 RUS  HZ EP        539  8.87                             147    0.0510 89.8 173 
 RUS  HZ E      C  539 26.69                                           89.8 173 
 RUS  HN ES        539 26.82                             147   -0.0310 89.8 173 
 RUS  HZ I         539 29.04         1.6 0.22            147           89.8 173 
 PTB  HZ EP        539 12.22                             134    0.01 9  142 263 
 PTB  HN ES        539 32.87                             134   -0.01 9  142 263 
 PTB  HZ I         539 34.94         1.8 0.12            135            142 263 
                                                                                
