 2012  325 0907 57.1 L   6.789 -73.160146.5  RSN  4 0.3 1.0LRSN                1
 GAP=235        0.56       9.1     8.8  7.7  0.4246E+02  0.2717E+02  0.1270E+02E
 ACTION:UP  12-03-31 23:22 OP:EP   STATUS:               ID:20120325090757 L   I
 2012-03-25-0900-00M.COL___196                                                 6
 STAT SP IPHASW D HRMM SECON CODA AMPLIT PERI AZIMU VELO SNR AR TRES W  DIS CAZ7
 BAR2 SZ ES        9 8 31.99                             171    -0.210   22 187 
 BRR  HZ EP   2    9 8 18.58                             153     0.3 5   70 300 
 BRR  HN ES   2    9 8 35.17                             153     0.3 5   70 300 
 RUS  HZ EP   2    9 8 21.22                             144     0.3 5   99 175 
 RUS  HN ES   2    9 8 39.55                             144     0.2 5   99 175 
 RUS  HZ I         9 8 40.69         1.5 0.31                            99 175 
 PTB  HZ EP   2    9 8 23.40                             132    -0.6 5  146 259 
 PTB  HE ES   2    9 8 45.09                             132     0.1 5  146 259 
 PTB  HZ I         9 8 47.13         1.2 0.23                           146 259 
                                                                                
