 2011 1025 0231 41.4 L   6.767 -73.099140.7  RSN 11 0.2 2.2LRSN                1
 GAP=144        0.34       2.2     2.7  3.6 -0.7284E+00  0.3971E+01  0.5993E+00E
 Epicentro: LOS SANTOS - SANTANDER                                             3
 ACTION:UPD 12-07-13 16:05 OP:ep   STATUS:               ID:20111025023141 L   I
 2011-10-25-0220-00M.COL___174                                                 6
 STAT SP IPHASW D HRMM SECON CODA AMPLIT PERI AZIMU VELO AIN AR TRES W  DIS CAZ7
 BAR2 SZ EP   1    232  0.38                             171   -0.01 7 21.4 205 
 BAR2 SZ ES   2    232 15.22                             171    0.03 5 21.4 205 
 BAR2 SZ I         232 16.59        24.7 0.19                          21.4 205 
 BTL  SZ EP   3    232  0.80                             169    0.34 2 25.0 312 
 BTL  SZ ES   3    232 15.52                             169    0.19 2 25.0 312 
 GIR2 SZ EP   3    232  0.29                             165   -0.32 2 36.0 343 
 GIR2 SZ ES   3    232 15.28                             165   -0.32 2 36.0 343 
 PAM  SZ EP   1    232  3.11                             150    0.04 7 77.1  35 
 PAM  SN ES   2    232 20.04                             150    0.08 5 77.1  35 
 BRR  HZ IP     C  232  2.16                             149   -0.2210 77.5 299 
 BRR  HN ES   2    232 19.11                             149    0.36 5 77.5 299 
 BRR  HZ I         232 23.18        42.8 0.20                          77.5 299 
 RUS  HZ EP   2    232  4.47                             144    0.09 5 96.7 179 
 RUS  HN ES   2    232 22.02                             144   -0.28 5 96.7 179 
 RUS  HZ I         232 23.78        10.7 0.47                          96.7 179 
 OCA  SZ ES   2    232 32.24                             128    0.41 5  165 352 
 OCA  SZ I         232 41.09        29.9 0.61                           165 352 
 ZAR  HZ EP   1    232 14.08                             120   -0.09 6  210 293 
 ZAR  HN ES   2    232 39.37                             120   -0.35 4  210 293 
 ZAR  HZ I         232 44.89        33.3 0.27                           210 293 
 NOR  SN ES   2    232 45.24                             117    0.33 4  237 236 
 HEL  HZ EP   1    232 22.01                             113    0.18 6  276 257 
 HEL  HN ES   2    232 53.26                             113   -0.10 4  276 257 
 HEL  HZ I         232 59.45         7.3 0.44                           276 257 
 PRA  HZ EP   2    232 34.85                             106    0.16 3  391 210 
 PRA  HN ES   2    233 16.76                             106    0.51 3  391 210 
                                                                                
