 2016 1225 0753 15.1 L   6.743 -73.229139.1  RSN  4 0.5 1.0LRSN                1
 GAP=216        1.23       9.3     8.7  9.9  0.4018E+02  0.1264E+02  0.6870E+01E
 Epicentro: ZAPATOCA - SANTANDER                                               3
 ACTION:UPD 17-01-11 20:18 OP:rebc STATUS:               ID:20161225075315 L   I
 OLDACT:REG 16-12-25 13:20 OP:cog  STATUS:               ID:20161225074742     3
 2016-12-25-0748-00M.COL___369                                                 6
 STAT SP IPHASW D HRMM SECON CODA AMPLIT PERI AZIMU VELO AIN AR TRES W  DIS CAZ7
 BAR2 EZ EP        753 34.02                             172    0.2510 17.4 163 
 BAR2 EZ ES        753 47.77                             172   -0.5910 17.4 163 
 BRR  HZ EP        753 34.61                             153   -0.6210 66.9 307 
 BRR  HN ES        753 51.68                             153    0.7010 66.9 307 
 RUS  HZ EP        753 38.35                             144    0.5810 95.4 170 
 RUS  HN ES        753 55.46                             144   -0.0310 95.4 170 
 RUS  HZ I         753 56.53         1.4 0.34            141           95.4 170 
 PTB  HZ EP        753 40.22                             133   -0.33 9  138 261 
 PTB  HN ES        754  0.45                             133    0.01 9  138 261 
 PTB  HZ I         754  7.33         1.4 0.80            128            138 261 
                                                                                
