 2012  325 0811 51.3 L   6.774 -73.133144.8  RSN 14 0.4 2.5LRSN                1
 GAP=139        0.66       2.6     3.6  4.6 -0.2952E+01  0.4738E+01  0.3324E-01E
 ACTION:UP  12-03-31 23:22 OP:EP   STATUS:               ID:20120325081151 L   I
 2012-03-25-0810-00M.COL___196                                                 6
 STAT SP IPHASW D HRMM SECON CODA AMPLIT PERI AZIMU VELO SNR AR TRES W  DIS CAZ7
 BAR2 SZ IP        812 10.72                             171     0.010   21 195 
 BAR2 SZ ES   1    812 25.39                             171    -0.5 7   21 195 
 BAR2 SZ I         812 26.83        72.2 0.38                            21 195 
 BRR  HZ IP     D  812 12.53                             151     0.110   74 300 
 BRR  HZ I         812 12.70        98.8 0.14                            74 300 
 BRR  HE ES   1    812 29.73                             151     0.7 7   74 300 
 PAM  SZ EP   1    812 13.61                             150     0.1 7   79  37 
 PAM  SE ES   1    812 30.90                             150     0.1 7   79  37 
 RUS  HZ EP   1    812 14.70                             144     0.0 7   98 177 
 RUS  HN ES   2    812 33.01                             144     0.0 5   98 177 
 RUS  HZ I         812 34.34        31.7 0.27                            98 177 
 PTB  HZ EP   2    812 17.48                             132    -0.8 5  149 260 
 PTB  HN ES   1    812 38.52                             132    -0.8 7  149 260 
 PTB  HZ I         812 40.79        25.4 0.25                           149 260 
 OCA  SZ EP   2    812 19.27                             129    -0.5 5  163 353 
 OCA  SZ ES   2    812 42.34                             129     0.3 5  163 353 
 ZAR  HZ EP   1    812 23.54                             122    -0.4 6  206 293 
 ZAR  HN ES   2    812 49.47                             122     0.1 4  206 293 
 ZAR  HZ I         812 54.70        40.5 0.50                           206 293 
 NOR  SZ EP        812 27.07                             118     0.2 8  234 235 
 NOR  SE ES   1    812 55.16                             118     0.5 6  234 235 
 CHI  HZ EP   2    812 28.46                             117    -0.2 4  246 196 
 CHI  HN ES   2    812 57.98                             117     0.2 4  246 196 
 HEL  HZ EP   1    812 31.62                             114     0.1 6  273 256 
 HEL  HN ES   2    813  2.94                             114     0.0 4  273 256 
 HEL  HZ I         813  9.29        19.8 0.60                           273 256 
 GUY  SZ EP   2    812 35.70                             112     0.7 4  303 236 
 GUY  SN ES   2    813  8.96                             112    -0.2 4  303 236 
 GUY  SZ I         813 19.29        21.8 0.55                           303 236 
 RREF HN ES   2    813 13.36                             111     0.2 3  321 230 
 RREF HZ I         813 22.81        13.1 0.31                           321 230 
 COD  HZ EP   2    812 39.83                             108    -0.1 3  351 354 
 COD  HN ES        813 17.84                             108    -0.1 6  351 354 
 COD  HN IS   2    813 17.84                             108    -0.1 3  351 354 
 PRA  HZ EP   2    812 44.72                             106     0.2 3  390 210 
 PRA  HN ES   1    813 26.25                             106     0.1 4  390 210 
                                                                                
