 2010 1225 0209 50.1 L   6.769 -73.125152.2  RSN  4 0.1 1.2LRSN                1
 GAP=221        0.32       4.0     5.4  4.5 -0.3371E+01  0.5311E+01 -0.3830E+01E
 Epicentro: LOS SANTOS - SANTANDER                                             3
 ACTION:UP  11-01-14 15:27 OP:pat  STATUS:               ID:20101225020950 L   I
 2010-12-25-0200-00M.COL___136                                                 6
 STAT SP IPHASW D HRMM SECON CODA AMPLIT PERI AZIMU VELO SNR AR TRES W  DIS CAZ7
 BAR2 SZ EP   1    210 10.32                             172    -0.1 7   21 198 
 BAR2 SZ ES   1    210 26.33                             172     0.0 7   21 198 
 BAR2 SZ I         210 26.96         9.0 0.20                            21 198 
 BTL  SZ EP   1    210 10.47                             171     0.0 7   23 316 
 RUS  HZ EP   1    210 14.28                             146     0.1 7   97 177 
 RUS  HE ES   1    210 32.99                             146     0.0 7   97 177 
 RUS  HZ I         210 34.03         2.8 0.28                            97 177 
 NOR  SN ES   2    210 54.35                             120     0.0 4  235 236 
 NOR  SZ I         210 58.48         0.4 0.25                           235 236 
                                                                                
