 2016  625 0245 17.0 L   6.778 -73.170140.0  RSN  9 0.5 1.5LRSN                1
 GAP=233        1.20       5.9     5.5  8.3  0.7876E+01  0.1827E+02  0.9482E+01E
 Epicentro: LOS SANTOS - SANTANDER                                             3
 ACTION:UPD 16-07-21 22:22 OP:rebc STATUS:               ID:20160625024517 L   I
 OLDACT:REG 16-06-25 12:15 OP:ak   STATUS:               ID:20160625023741     3
 2016-06-25-0237-41M.COL___328                                                 6
 STAT SP IPHASW D HRMM SECON CODA AMPLIT PERI AZIMU VELO AIN AR TRES W  DIS CAZ7
 BAR2 EZ EP        245 35.61                             171   -0.2310 20.6 184 
 BAR2 EZ ES        245 50.34                             171   -0.2310 20.6 184 
 BAR2 EZ I         245 51.24         8.0 0.36                          20.6 184 
 BRR  HZ IP     C  245 37.41                             152   -0.0110 70.1 301 
 BRR  HN ES        245 54.01                             152    0.6310 70.1 301 
 RUS  HZ EP        245 40.22                             143    0.2310 98.4 174 
 RUS  HE ES        245 57.87                             143   -0.0810 98.4 174 
 RUS  HZ I         245 59.65         2.2 0.50                          98.4 174 
 PTB  HZ EP        245 42.40                             131   -0.78 9  145 260 
 PTB  HN ES        246  2.78                             131   -0.85 9  145 260 
 PTB  HZ I         246  6.10         5.1 0.14                           145 260 
 SPBC HZ EP        245 44.71                             129    0.03 9  160 219 
 SPBC HN ES        246  7.10                             129    0.80 9  160 219 
 SPBC HZ I         246 11.23         4.1 0.13                           160 219 
 ZAR  HZ EP   4    245 45.79                             121   -3.08 0  203 293 
 ZAR  HN ES        246 14.12                             121    0.35 9  203 293 
 ZAR  HZ I         246 19.84         3.6 0.26                           203 293 
 HEL  HE ES        246 28.06                             114    0.67 8  269 256 
 GUY2CHZ EP   2    246  0.85                             112    0.95 4  298 235 
 GUY2CHE ES        246 33.29                             112   -0.10 7  298 235 
 GUY2CHZ I         246 42.01         2.0 0.54                           298 235 
 CBOC HZ EP   2    246  4.06                             109    0.80 3  330 252 
 CBOC HN ES        246 38.52                             109   -0.86 7  330 252 
 CBOC HZ I         246 44.48         0.8 0.17                           330 252 
                                                                                
