 2011  225 0608 47.4 L   6.816 -73.107144.0  RSN 10 0.3 2.6LRSN                1
 GAP=105        0.77       4.1     6.1  6.1 -0.5977E+01  0.7347E+01 -0.6489E+01E
 Epicentro: LOS SANTOS - SANTANDER                                             3
 ACTION:UP  11-03-28 15:11 OP:jfem STATUS:               ID:20110225060847 L   I
 2011-02-25-0606-04S.COL___137                                                 6
 STAT SP IPHASW D HRMM SECON CODA AMPLIT PERI AZIMU VELO SNR AR TRES W  DIS CAZ7
 BAR2 SZ EP        6 9  7.33                             169     0.410   26 199 
 BAR2 SZ ES   1    6 9 22.35                             169     0.2 7   26 199 
 BAR2 SZ I         6 9 24.08       194.6 0.19                            26 199 
 RUS  HZ EP        6 9 11.25                             143     0.110  102 179 
 RUS  HN ES   1    6 9 29.30                             143    -0.3 7  102 179 
 RUS  HZ I         6 9 31.30        46.3 0.28                           102 179 
 OCA  SZ EP        6 9 15.10                             130    -0.4 9  159 352 
 OCA  SZ I         6 9 41.04        44.9 0.39                           159 352 
 YOP  SZ EP   1    6 9 17.23                             126    -0.1 7  179 155 
 YOP  SZ I         6 9 19.21        15.1 0.21                           179 155 
 CHI  HZ EP        6 9 25.28                             117    -0.1 8  252 196 
 CHI  HE ES   1    6 9 54.34                             117    -0.6 6  252 196 
 CHI  HZ I         610  0.74        20.4 0.48                           252 196 
 HEL  HZ EP   2    6 9 28.46                             114     0.4 4  277 256 
 HEL  HN ES   2    6 9 59.42                             114    -0.4 4  277 256 
 HEL  HZ I         610  5.61        19.2 0.27                           277 256 
 RREF HZ EP   1    6 9 34.05                             110     0.0 5  326 230 
 RREF HZ I         610 16.79        25.4 0.35                           326 230 
 DBB  SZ EP   1    6 9 35.21                             109    -0.1 5  344 274 
 TOL  SZ EP   1    6 9 36.83                             109     0.7 5  348 225 
 SDV  BZ EP        6 9 36.84                             108    -0.1 6  356  50 
 SDV  BZ I         6 9 37.72        11.0 0.18                           356  50 
                                                                                
