 2016  325 0534 23.3 L   6.837 -73.157146.8  RSN  6 0.2 1.2LRSN                1
 GAP=133        0.58       2.6     2.6  4.2 -0.8106E+00  0.4078E+01 -0.1108E+01E
 Epicentro: LOS SANTOS - SANTANDER                                             3
 ACTION:UPD 16-05-13 21:27 OP:cam  STATUS:               ID:20160325053423 L   I
 OLDACT:REG 16-03-25 14:23 OP:ak   STATUS:               ID:20160325052746     3
 2016-03-25-0527-46M.COL___295                                                 6
 STAT SP IPHASW D HRMM SECON CODA AMPLIT PERI AZIMU VELO AIN AR TRES W  DIS CAZ7
 BAR2 EZ EP        534 43.40                             169    0.3210 27.2 186 
 BAR2 EZ ES        534 58.44                             169   -0.1110 27.2 186 
 BAR2 EZ I         534 59.76         3.9 0.28            170           27.2 186 
 PAM  EZ EP        534 45.32                             152   -0.1210 75.1  42 
 PAM  EN ES        535  2.87                             152    0.1310 75.1  42 
 PAM  EZ I         535  5.32         3.8 0.60            155           75.1  42 
 RUS  HZ EP        534 47.17                             143   -0.2310  105 175 
 RUS  HN ES        535  6.16                             143   -0.0810  105 175 
 RUS  HZ I         535  7.79         0.9 0.30            147            105 175 
 PTB  HZ EP        534 50.33                             132    0.07 9  147 257 
 PTB  HN ES        535 10.98                             132   -0.35 9  147 257 
 PTB  HZ I         535 18.29         2.5 0.36            133            147 257 
 SPBC HZ EP        534 52.22                             129    0.17 9  166 218 
 SPBC HE ES        535 14.81                             129    0.29 9  166 218 
 SPBC HZ I         535 16.43         2.4 0.10            131            166 218 
 ZAR  HZ EP        534 55.21                             123   -0.27 9  201 291 
 ZAR  HE ES        535 20.85                             123    0.23 9  201 291 
 ZAR  HZ I         535 27.34         2.4 0.34            124            201 291 
                                                                                
