 2013  825 0823 52.8 L   6.817 -73.154140.0  RSN 18 0.6 2.0LRSN 2.4WRSN        1
 SPEC AVERAGE  MO 12.7 ST 16.1 OM  1.1 f0 9.45 R0.2516 AL 0.00 WI 20.0 MW  2.4 3
 SPEC SD       MO  0.2 ST 35.8 OM  0.2 f0 7.24 R0.1451 AL      WI      MW  0.2 3
 GAP=135        1.41       3.3     4.5  6.5 -0.4635E+01  0.7192E+01  0.2133E+01E
 Epicentro: LOS SANTOS - SANTANDER                                             3
 SPEC BAR2SH Z MO 12.4 ST0.625 OM  0.9 f0 5.75 R0.2703 AL-0.00 WI 20.0 MW  2.2 3
 SPEC BAR2SH Z T 82425 K 0.000 GD  142 VS 4.20 DE 3.20 Q0300.0 QA 0.60 VS 4.20 3
 SPEC BRR HH Z MO 12.7 ST  2.1 OM  1.1 f0 7.17 R0.2167 AL-0.00 WI 20.0 MW  2.4 3
 SPEC BRR HH Z T 82428 K 0.000 GD  156 VS 4.20 DE 3.20 Q0300.0 QA 0.60 VS 4.20 3
 SPEC PAM SH Z MO 12.5 ST0.467 OM  0.9 f0 5.02 R0.3096 AL-0.00 WI 20.0 MW  2.3 3
 SPEC PAM SH Z T 82430 K 0.000 GD  159 VS 4.20 DE 3.20 Q0300.0 QA 0.60 VS 4.20 3
 SPEC RUS HH Z MO 12.4 ST0.317 OM  0.8 f0 4.63 R0.3356 AL-0.00 WI 20.0 MW  2.2 3
 SPEC RUS HH Z T 82431 K 0.000 GD  173 VS 4.20 DE 3.20 Q0300.0 QA 0.60 VS 4.20 3
 SPEC PTB HH Z MO 12.4 ST 24.8 OM  0.7 f0 20.3 R0.0766 AL-0.00 WI 20.0 MW  2.2 3
 SPEC PTB HH Z T 82438 K 0.000 GD  203 VS 4.20 DE 3.20 Q0300.0 QA 0.60 VS 4.20 3
 SPEC SPBCHH Z MO 12.8 ST  4.7 OM  1.1 f0 8.40 R0.1850 AL-0.00 WI 20.0 MW  2.5 3
 SPEC SPBCHH Z T 82441 K 0.000 GD  215 VS 4.20 DE 3.20 Q0300.0 QA 0.60 VS 4.20 3
 SPEC ZAR HH Z MO 12.8 ST  4.6 OM  1.0 f0 8.64 R0.1799 AL-0.00 WI 20.0 MW  2.5 3
 SPEC ZAR HH Z T 82448 K 0.000 GD  245 VS 4.20 DE 3.20 Q0300.0 QA 0.60 VS 4.20 3
 SPEC SML HH Z MO 12.7 ST121.7 OM  0.9 f0 26.6 R0.0584 AL-0.00 WI 20.0 MW  2.4 3
 SPEC SML HH Z T 82454 K 0.000 GD  279 VS 4.20 DE 3.20 Q0300.0 QA 0.60 VS 4.20 3
 SPECGUY2CHH Z MO 12.8 ST  0.5 OM  0.9 f0 4.02 R 0.387 AL-0.00 WI 20.0 MW  2.5 3
 SPECGUY2CHH Z T 825 8 K       GD332.9 VS 4.20 DE 3.20 Q0300.0 QA 0.60 VS 4.20 3
 SPEC RREFHH Z MO 13.1 ST0.288 OM  1.2 f0 2.61 R0.5954 AL-0.00 WI 20.0 MW  2.7 3
 SPEC RREFHH Z T 82513 K 0.000 GD  351 VS 4.20 DE 3.20 Q0300.0 QA 0.60 VS 4.20 3
 SPEC ORTCHH Z MO 12.8 ST  1.2 OM  0.8 f0 5.39 R0.2883 AL-0.00 WI 20.0 MW  2.5 3
 SPEC ORTCHH Z T 82527 K 0.000 GD  420 VS 4.20 DE 3.20 Q0300.0 QA 0.60 VS 4.20 3
 OLDACT:REG 13-08-25 08:27 OP:wtll STATUS:               ID:20130825081851     3
 ACTION:UPD 14-01-14 09:06 OP:ep   STATUS:               ID:20130825082352 L   I
 OLDACT:UP  13-08-25 13:06 OP:stll STATUS:               ID:20130825081851     3
 2013-08-25-0818-51M.COL___232                                                 6
 STAT SP IPHASW D HRMM SECON CODA AMPLIT PERI AZIMU VELO AIN AR TRES W  DIS CAZ7
 BAR2 SZ IP     D  824 11.87                             169    0.0510 25.1 187 
 BAR2 SZ ES        824 27.19                             169    0.5710 25.1 187 
 BAR2 SZ I         824 28.41        14.7 0.22            174           25.1 187 
 BRR  HZ IP     C  824 13.70                             152    0.4310 69.5 298 
 BRR  HN ES        824 29.94                             152    0.7310 69.5 298 
 BRR  SZ I         824 34.39        10.8 0.10            153           69.5 298 
 PAM  SZ EP        824 14.56                             150    0.1610 76.5  41 
 PAM  SN ES        824 31.57                             150    0.3610 76.5  41 
 PAM  SZ I         824 33.48         7.9 0.36            150           76.5  41 
 RUS  HZ EP        824 15.97                             142   -0.2110  103 176 
 RUS  HN ES        824 33.34                             142   -1.0410  103 176 
 RUS  SZ I         824 35.06         7.4 0.26            148            103 176 
 GRA  SZ EP        824 17.45                             136    0.0010  124  18 
 GRA  SZ ES        824 36.37                             136   -0.2710  124  18 
 GRA  SZ I         825 12.20      2083.0 2.48            137            124  18 
 PTB  HZ EP        824 18.54                             131   -0.76 9  147 258 
 PTB  HN ES        824 39.77                             131   -0.16 9  147 258 
 PTB  SZ I         824 45.08         6.5 0.12            134            147 258 
 CAPV BZ EP        824 20.41                             131    0.72 9  148  39 
 OCA  HN ES        824 41.59                             129   -0.52 9  158 353 
 SPBC HZ EP        824 20.78                             128   -0.21 9  164 218 
 SPBC HN ES        824 43.04                             128    0.09 9  164 218 
 SPBC SZ I         824 44.16        14.4 0.20            132            164 218 
 ZAR  HZ EP        824 24.43                             121   -0.32 9  202 292 
 ZAR  HN ES        824 49.73                             121    0.09 9  202 292 
 ZAR  SZ I         824 54.78         7.1 0.32            124            202 292 
 NOR  HN ES        824 55.88                             117   -0.04 8  235 234 
 SML  HZ EP        824 28.32                             117   -0.60 8  242 335 
 SML  HN ES        824 56.21                             117   -0.85 8  242 335 
 SML  SZ I         825  1.36        16.3 0.08            118            242 335 
 CHI  HZ EP        824 29.75                             116   -0.65 8  250 195 
 CHI  HN ES        824 59.35                             116   -0.35 8  250 195 
 CHI  SZ I         825 12.84         3.9 1.04            120            250 195 
 HEL  HZ EP        824 33.90                             114    1.18 8  272 255 
 HEL  HN ES        825  2.89                             114   -0.93 8  272 255 
 HEL  SZ I         825 10.96         4.7 0.46            117            272 255 
 GUY2CHZ EP        824 37.80                             111    1.57 7  302 234 
 GUY2CHN ES        825 10.39                             111    0.32 7  302 234 
 GUY2CSZ I         825 19.10         3.8 0.78                           302 234 
 RREF HZ EP        824 39.79                             110    0.99 7  322 229 
 RREF HN ES        825 15.33                             110    0.68 7  322 229 
 RREF SZ I         825 23.41         5.7 0.28            113            322 229 
 PRA  HZ EP        824 45.63                             106   -0.68 6  393 209 
 ORTC HZ EP        824 46.64                             105   -0.05 6  396 216 
                                                                                
