 2012 1225 0402 59.7 L   6.895 -73.278126.7  RSN  8 0.5 1.6LRSN                1
 GAP=138        0.97       4.1     6.1  7.5  0.8466E+01  0.9661E+01 -0.1490E+01E
 Epicentro: BETULIA - SANTANDER                                                3
 ACTION:UPD 13-01-04 14:30 OP:ep   STATUS:               ID:20121225040259 L   I
 2012-12-25-0400-00M.COL___242                                                 6
 STAT SP IPHASW D HRMM SECON CODA AMPLIT PERI AZIMU VELO AIN AR TRES W  DIS CAZ7
 GIR2 SZ EP   1    4 3 17.37                             169    0.51 7 22.3  25 
 GIR2 SZ ES   1    4 3 30.18                             169   -0.07 7 22.3  25 
 GIR2 SZ I         4 3 31.80         7.0 0.28                          22.3  25 
 BAR2 SZ EP        4 3 17.64                             164    0.2710 35.1 163 
 BAR2 SZ ES   1    4 3 30.93                             164   -0.22 7 35.1 163 
 BAR2 SZ I         4 3 32.16        34.7 0.34                          35.1 163 
 BRR  HZ EP        4 3 18.16                             156    0.3710 53.4 296 
 BRR  HE ES   1    4 3 32.21                             156    0.30 7 53.4 296 
 BRR  HZ I         4 3 33.24        12.9 0.12                          53.4 296 
 RUS  HZ EP   1    4 3 22.80                             136    0.17 7  113 169 
 RUS  HE ES   1    4 3 39.85                             136   -0.67 7  113 169 
 RUS  HZ I         4 3 41.49         3.4 0.26                           113 169 
 PTB  HZ EP   1    4 3 23.05                             130   -1.01 7  136 253 
 PTB  HE ES   1    4 3 43.01                             130   -0.05 7  136 253 
 PTB  HZ I         4 3 44.84         5.0 0.26                           136 253 
 ZAR  HE ES   1    4 3 52.55                             120    0.50 7  187 291 
 ZAR  HZ I         4 4  1.45         4.1 0.50                           187 291 
 SML  HZ EP   1    4 3 33.88                             115    0.29 6  228 338 
 SML  HN ES        4 3 59.27                             115   -0.77 8  228 338 
 CHI  HN ES   1    4 4  6.59                             112    0.17 6  256 191 
                                                                                
