 2017  425 0350 59.8 L   6.780 -73.103140.2  RSN  7 0.4 1.5LRSN                1
 GAP=167        0.84       4.8     4.4  6.3 -0.5795E+01  0.9712E+01 -0.2563E+01E
 Epicentro: LOS SANTOS - SANTANDER                                             3
 ACTION:UPD 17-05-30 21:15 OP:jn   STATUS:               ID:20170425035059 L   I
 OLDACT:UP  17-04-25 13:34 OP:and  STATUS:               ID:20170425034633     3
 OLDACT:UP  17-04-25 13:33 OP:and  STATUS:               ID:20170425034633     3
 OLDACT:UP  17-04-25 13:33 OP:and  STATUS:               ID:20170425034633     3
 OLDACT:UP  17-04-25 13:33 OP:and  STATUS:               ID:20170425034633     3
 OLDACT:UP  17-04-25 13:33 OP:and  STATUS:               ID:20170425034633     3
 OLDACT:UP  17-04-25 13:32 OP:and  STATUS:               ID:20170425034633     3
 OLDACT:UP  17-04-25 13:32 OP:and  STATUS:               ID:20170425034633     3
 OLDACT:UP  17-04-25 13:32 OP:and  STATUS:               ID:20170425034633     3
 OLDACT:REG 17-04-25 12:14 OP:and  STATUS:               ID:20170425034633     3
 2017-04-25-0348-00M.COL___374                                                 6
 STAT SP IPHASW D HRMM SECON CODA AMPLIT PERI AZIMU VELO AIN AR TRES W  DIS CAZ7
 BAR2 EZ IP     D  351 18.71                             170   -0.0110 22.6 203 
 BAR2 EZ ES        351 33.01                             170   -0.4810 22.6 203 
 BAR2 EZ I         351 35.68         6.1 0.28            170           22.6 203 
 PAM  EZ EP        351 21.56                             150    0.2310 76.2  36 
 PAM  EN ES        351 38.03                             150   -0.1110 76.2  36 
 PAM  EZ I         351 40.57         7.1 0.52            153           76.2  36 
 BRR  HZ EP        351 20.82                             150    0.1910 76.3 298 
 BRR  HE ES        351 37.51                             150    0.6110 76.3 298 
 BRR  HZ I         351 41.44         4.3 0.14            148           76.3 298 
 PTB  HZ EP   3    351 25.90                             130   -0.78 2  152 260 
 PTB  HN ES   3    351 46.30                             130   -1.37 2  152 260 
 PTB  HZ I         351 49.80         3.4 0.38            131            152 260 
 SPBC HN ES        351 50.19                             128    0.21 9  165 221 
 SPBC HZ I         351 51.99         4.7 0.07            130            165 221 
 ZAR  HZ EP        351 31.82                             120   -0.58 8  209 292 
 ZAR  HN ES        351 57.63                             120   -0.22 8  209 292 
 ZAR  HZ I         352  3.45         3.1 0.30            122            209 292 
 CBOC HZ EP   2    351 47.09                             109    0.19 3  337 253 
 CBOC HN ES   2    352 24.29                             109    0.63 3  337 253 
                                                                                
