 2017  325 0303 22.9 L   6.048 -73.868 91.5  RSN  4 0.2 1.1LRSN                1
 GAP=106        0.56       2.9     2.1  5.5  0.3051E+00 -0.1670E+01 -0.4299E+01E
 Epicentro: EL PENON - SANTANDER                                               3
 ACTION:UPD 17-05-25 18:44 OP:jn   STATUS:               ID:20170325030322 L   I
 OLDACT:REG 17-03-25 03:41 OP:cara STATUS:               ID:20170325025745     3
 2017-03-25-0258-00M.COL___355                                                 6
 STAT SP IPHASW D HRMM SECON CODA AMPLIT PERI AZIMU VELO AIN AR TRES W  DIS CAZ7
 SPBC HZ EP        3 3 37.06                             150    0.0110 49.3 207 
 SPBC HN ES        3 3 48.23                             150    0.1210 49.3 207 
 SPBC HZ I         3 3 50.74         5.7 0.14            154           49.3 207 
 PTB  HZ EP        3 3 39.84                             134    0.1510 84.8 310 
 PTB  HN ES        3 3 52.60                             134   -0.2010 84.8 310 
 PTB  HZ I         3 3 57.09         2.3 0.12            137           84.8 310 
 RUS  HZ EP        3 3 40.29                             133   -0.3810 88.5 101 
 RUS  HN ES        3 3 54.57                             133    0.0210 88.5 101 
 RUS  HZ I         3 3 56.04         1.7 0.20            139           88.5 101 
 BAR2 EZ EP        3 3 41.36                             130    0.2710 96.8  52 
 BAR2 EZ ES        3 3 55.32                             130    0.0210 96.8  52 
 BAR2 EZ I         3 3 56.19         8.6 0.54            135           96.8  52 
                                                                                
