 2011  725 0347  3.2 L   6.768 -73.077149.8  RSN 13 0.3 2.5LRSN                1
 GAP=164        0.50       2.0     3.6  3.4 -0.2154E+01  0.2219E+01  0.1087E+01E
 Epicentro: LOS SANTOS - SANTANDER                                             3
 ACTION:UPD 12-07-25 14:03 OP:epov STATUS:               ID:20110725034703 L   I
 2011-07-25-0342-12S.COL___143                                                 6
 STAT SP IPHASW D HRMM SECON CODA AMPLIT PERI AZIMU VELO AIN AR TRES W  DIS CAZ7
 BAR2 SZ IP        347 23.24                             171   -0.0610 22.6 211 
 BAR2 SZ ES   1    347 38.47                             171   -0.51 7 22.6 211 
 BAR2 SZ I         347 40.94        75.7 0.31                          22.6 211 
 GIR2 SZ EP        347 23.58                             166    0.0710 36.7 340 
 GIR2 SZ ES   1    347 39.72                             166    0.37 7 36.7 340 
 BRR  HZ IP     C  347 25.11                             151   -0.1610 79.6 298 
 BRR  HZ I         347 25.42       123.5 0.19                          79.6 298 
 BRR  HE ES   1    347 42.58                             151    0.10 7 79.6 298 
 RUS  HZ EP   1    347 27.16                             146    0.08 7 96.8 180 
 RUS  HN ES   1    347 45.72                             146    0.01 7 96.8 180 
 RUS  HZ I         347 47.12        30.9 0.27                          96.8 180 
 BRI  SZ IP        347 27.76                             142    0.2110  109  16 
 GRA  SZ ES   2    347 49.10                             137    0.12 5  127  14 
 OCA  SZ EP   1    347 31.71                             130   -0.55 7  165 351 
 OCA  SZ ES   1    347 54.96                             130    0.04 7  165 351 
 OCA  SZ I         348  0.98        37.7 0.35                           165 351 
 NOR  SZ EP   1    347 39.11                             119   -0.51 6  239 236 
 NOR  SN ES   2    348  7.75                             119   -0.27 4  239 236 
 CHI  HZ EP   1    347 41.20                             118    0.22 6  247 197 
 CHI  HE ES   1    348 10.82                             118    0.37 6  247 197 
 CHI  HZ I         348 18.41        13.6 0.43                           247 197 
 HEL  HZ EP   1    347 44.80                             115    0.46 6  279 257 
 HEL  HN ES   2    348 16.80                             115    0.37 4  279 257 
 VIL  SZ EP   2    347 46.63                             113    0.04 4  301 193 
 VIL  SE ES   2    348 20.08                             113   -0.36 4  301 193 
 VIL  SZ I         348 31.67        10.8 0.57                           301 193 
 RREF HZ EP   1    347 49.81                             111   -0.11 5  325 231 
 RREF HN ES   1    348 26.32                             111   -0.04 5  325 231 
 RREF HZ I         348 30.48        16.1 0.58                           325 231 
 PRA  HZ EP   2    347 57.31                             107    0.36 3  393 211 
 PRA  HN ES   2    348 38.86                             107   -0.01 3  393 211 
                                                                                
