 2010 1025 0244  7.4 L   6.770 -73.064142.1  RSN 16 0.4 2.6LRSN                1
 GAP=107        0.77       3.0     5.2  4.9 -0.5651E+01 -0.6527E+00  0.2177E+01E
 Epicentro: LOS SANTOS - SANTANDER                                             3
 ACTION:UP  11-02-18 11:12 OP:tino STATUS:               ID:20101025024407 L   I
 2010-10-25-0243-02S.COL___124                                                 6
 STAT SP IPHASW D HRMM SECON CODA AMPLIT PERI AZIMU VELO SNR AR TRES W  DIS CAZ7
 BAR2 SZ IP     D  244 26.66                             170     0.110   24 214 
 BAR2 SZ ES   1    244 40.85                             170    -0.7 7   24 214 
 BAR2 SZ I         244 42.83       150.0 0.58                            24 214 
 BRR  HZ EP   1    244 28.62                             149    -0.1 7   81 298 
 BRR  HN ES   1    244 45.51                             149     0.1 7   81 298 
 BRR  HZ I         244 49.03       128.2 0.27                            81 298 
 RUS  HZ EP        244 30.52                             144     0.010   97 181 
 RUS  HN ES   1    244 48.94                             144     0.4 7   97 181 
 RUS  HZ I         244 50.98        58.0 0.40                            97 181 
 GUE  SZ EP   1    244 31.95                             138     0.0 7  118   7 
 GRA  SZ EP        244 32.60                             136     0.210  127  13 
 GRA  SZ ES   1    244 51.95                             136     0.1 7  127  13 
 GRA  SZ I         244 55.10        40.0 0.35                           127  13 
 OCA  SZ EP   1    244 35.39                             128    -0.5 7  165 350 
 OCA  SZ ES   2    244 58.95                             128     0.9 5  165 350 
 OCA  SZ I         245  1.77        54.8 0.22                           165 350 
 YOP  SZ EP   1    244 36.95                             127     0.4 7  172 156 
 NOR  SZ EP   1    244 43.02                             117    -0.5 6  240 236 
 CHI  HZ EP   1    244 44.64                             116    -0.2 6  248 197 
 CHI  HN ES   2    245 13.78                             116    -0.2 4  248 197 
 CHI  HZ I         245 22.33        20.7 0.38                           248 197 
 ROSC BZ EP   1    244 46.16                             116     0.6 6  255 213 
 ROSC BN ES   2    245 14.56                             116    -0.7 4  255 213 
 ROSC BZ I         245 24.34        31.6 0.28                           255 213 
 HEL  HZ EP   2    244 48.07                             113    -0.2 4  280 257 
 RREF HZ EP   1    244 54.42                             110     0.5 5  327 231 
 RREF HN ES   2    245 30.42                             110     0.2 3  327 231 
 RREF HZ I         245 39.87        35.0 0.48                           327 231 
 TOL  SZ EP   2    244 56.49                             108     0.5 3  348 226 
 DBB  SZ EP   2    244 55.41                             108    -0.4 3  349 275 
 SDV  BZ EP        244 56.07                             108    -0.7 6  356  49 
 SDV  BZ I         245 38.49         8.9 0.95                           356  49 
 PRA  HZ EP        245  0.99                             106     0.0 6  394 211 
 PRA  HE ES   2    245 42.47                             106    -0.3 3  394 211 
                                                                                
