 2013  125 0632 23.4 L   7.346 -73.227136.0  RSN  4 0.1 1.0LRSN                1
 GAP=291        0.37       6.4     4.6  4.5  0.1827E+02 -0.3325E+00  0.5326E+00E
 Epicentro: RIONEGRO - SANTANDER                                               3
 ACTION:UPD 13-02-15 09:16 OP:ep   STATUS:               ID:20130125063223 L   I
 2013-01-25-0630-00M.COL___241                                                 6
 STAT SP IPHASW D HRMM SECON CODA AMPLIT PERI AZIMU VELO AIN AR TRES W  DIS CAZ7
 BRR  HN ES   1    632 57.99                             155   -0.07 7 59.6 244 
 BAR2 SZ ES   1    633  1.31                             147    0.11 7 83.4 177 
 RUS  HZ EP   1    632 51.36                             127   -0.20 7  161 174 
 RUS  HE ES   1    633 13.53                             127    0.02 7  161 174 
 PTB  HZ EP   1    632 51.24                             127    0.22 7  162 237 
 PTB  HN ES   1    633 12.47                             127   -0.08 7  162 237 
 PTB  HZ I         633 16.90         1.3 0.22            121            162 237 
                                                                                
