 2017 1225 0746 45.2 L   6.836 -73.159140.0  RSN  6 0.5 1.4LRSN                1
 GAP=143        1.12       5.3     5.5  8.2 -0.1176E+02  0.1939E+02 -0.4465E+01E
 Epicentro: LOS SANTOS - SANTANDER                                             3
 ACTION:UPD 18-01-04 13:24 OP:rebc STATUS:               ID:20171225074645 L   I
 OLDACT:REG 17-12-25 12:40 OP:osc  STATUS:               ID:20171225073729     3
 2017-12-25-0738-00M.COL___448                                                 6
 STAT SP IPHASW D HRMM SECON CODA AMPLIT PERI AZIMU VELO AIN AR TRES W  DIS CAZ7
 BAR2 EZ EP        747  3.96                             168   -0.2710 27.1 185 
 BAR2 EZ ES        747 18.90                             168   -0.1710 27.1 185 
 BAR2 EZ I         747 19.97         7.7 0.30            172           27.1 185 
 PAM  EZ EP        747  6.88                             150    0.1910 75.3  42 
 PAM  EN ES        747 24.02                             150    0.5810 75.3  42 
 PAM  EZ I         747 26.54         3.5 0.54            152           75.3  42 
 PTB  HZ EP        747 10.84                             131   -0.81 9  147 257 
 PTB  HE ES        747 32.16                             131   -0.12 9  147 257 
 PTB  HZ I         747 34.30         1.4 0.15            132            147 257 
 OCA  HZ EP        747 12.29                             129   -0.39 9  156 354 
 OCA  HN ES        747 33.74                             129   -0.37 9  156 354 
 OCA  HZ I         747 37.78         7.8 0.24            129            156 354 
 ZAR  HZ EP        747 17.87                             121    0.88 9  201 291 
 ZAR  HE ES        747 41.99                             121    0.22 9  201 291 
 ZAR  HZ I         747 50.66         3.0 0.46            122            201 291 
 GUY2CHZ EP        747 28.78                             111    0.10 7  302 234 
 GUY2CHE ES        748  3.15                             111    0.56 7  302 234 
 GUY2CHZ I         748 10.49         1.5 0.66                           302 234 
                                                                                
