 2011 1125 0935 59.4 L   6.780 -73.092148.0  RSN 11 0.3 2.2LRSN                1
 GAP=144        0.46       2.3     3.1  3.9 -0.3642E+00  0.1953E+01  0.2730E+01E
 Epicentro: LOS SANTOS - SANTANDER                                             3
 ACTION:UPD 12-07-13 16:12 OP:ep   STATUS:               ID:20111125093559 L   I
 2011-11-25-0933-30S.COL___176                                                 6
 STAT SP IPHASW D HRMM SECON CODA AMPLIT PERI AZIMU VELO AIN AR TRES W  DIS CAZ7
 BAR2 SZ IP        936 19.20                             171   -0.1410 23.1 206 
 BAR2 SZ ES   2    936 34.59                             171   -0.27 5 23.1 206 
 BAR2 SZ I         936 35.50        30.2 0.42                          23.1 206 
 PAM  SZ EP        936 21.93                             152    0.1410 75.5  35 
 PAM  SN ES   2    936 39.38                             152    0.16 5 75.5  35 
 BRR  HZ IP     C  936 21.09                             151   -0.1110 77.5 298 
 BRR  HZ I         936 21.39        71.6 0.17                          77.5 298 
 BRR  HE ES   1    936 38.52                             151    0.36 7 77.5 298 
 RUS  HZ EP        936 23.37                             145    0.1210 98.2 179 
 RUS  HN ES   2    936 41.46                             145   -0.35 5 98.2 179 
 RUS  HZ I         936 43.10        12.7 0.32                          98.2 179 
 OCA  SZ EP   2    936 27.61                             130   -0.60 5  163 351 
 OCA  SZ ES   2    936 50.90                             130    0.26 5  163 351 
 OCA  SZ I         936 55.83        11.1 0.32                           163 351 
 ZAR  HZ EP   2    936 32.51                             122   -0.18 4  210 292 
 ZAR  HN ES   2    936 58.03                             122   -0.59 4  210 292 
 ZAR  HZ I         937  4.31        19.0 0.18                           210 292 
 CHI  HZ EP        936 37.06                             118   -0.16 8  248 197 
 CHI  HZ I         936 39.90         4.0 0.51                           248 197 
 CHI  HN ES   2    937  6.71                             118    0.03 4  248 197 
 HEL  HZ EP   2    936 40.84                             115    0.48 4  277 257 
 HEL  HN ES   2    937 12.02                             115   -0.24 4  277 257 
 HEL  HZ I         937 17.56         7.0 0.29                           277 257 
 RREF HZ EP        936 46.40                             111    0.36 7  325 230 
 RREF HN ES   2    937 22.63                             111    0.24 3  325 230 
 RREF HZ I         937 30.46         7.3 0.73                           325 230 
 COD  HZ EP   2    936 47.87                             109   -0.36 3  351 354 
 COD  HZ I         936 51.01         8.2 0.68                           351 354 
 PRA  HZ EP   2    936 53.43                             107    0.26 3  393 210 
                                                                                
