 2014 1225 0113 51.1 L   6.814 -73.198136.2  RSN 11 0.4 1.7LRSN                1
 GAP=129        0.98       2.8     3.8  6.7 -0.8242E+00  0.4140E+01  0.4603E+00E
 Epicentro: ZAPATOCA - SANTANDER                                               3
 ACTION:UPD 15-02-10 17:07 OP:nd   STATUS:               ID:20141225011351 L   I
 OLDACT:UP  14-12-25 15:27 OP:mh   STATUS:               ID:20141225010748     3
 OLDACT:REG 14-12-25 13:12 OP:mh   STATUS:               ID:20141225010748     3
 2014-12-25-0107-48M.COL___292                                                 6
 STAT SP IPHASW D HRMM SECON CODA AMPLIT PERI AZIMU VELO AIN AR TRES W  DIS CAZ7
 BAR2 EZ EP        114  9.94                             169    0.3310 24.5 176 
 BAR2 EZ I         114 25.67        18.7 0.30            168           24.5 176 
 BRR  HZ EP        114 11.45                             153    0.5610 65.4 300 
 BRR  HN ES        114 26.87                             153    0.5410 65.4 300 
 BRR  HZ I         114 31.28         8.5 0.47            153           65.4 300 
 PAM  SZ EP        114 12.63                             148    0.1510 80.1  43 
 PAM  SN ES        114 29.04                             148   -0.1210 80.1  43 
 PAM  SZ I         114 31.79        17.8 0.05            151           80.1  43 
 RUS  HZ EP        114 13.62                             141   -0.4610  103 173 
 RUS  HN ES        114 31.72                             141   -0.2910  103 173 
 RUS  HZ I         114 34.22         3.9 0.20            141            103 173 
 PTB  HZ EP   1    114 16.50                             131   -0.31 7  142 258 
 PTB  HN ES        114 36.64                             131   -0.22 9  142 258 
 PTB  HZ I         114 43.55         4.9 0.49            131            142 258 
 OCA  HN ES   1    114 39.32                             128   -0.53 7  158 355 
 OCA  HZ I         114 43.39         9.3 0.22            129            158 355 
 SPBC HN ES        114 40.30                             127    0.16 9  161 217 
 ZAR  HZ EP   1    114 23.11                             121    0.79 6  198 292 
 ZAR  HN ES        114 45.87                             121   -0.80 9  198 292 
 ZAR  HZ I         114 53.41         8.4 0.06            122            198 292 
 NOR  HN ES        114 53.33                             117    0.32 8  231 233 
 NOR  HZ I         114 59.65         4.0 0.20            117            231 233 
 SML  HZ EP        114 27.18                             116    0.38 8  240 336 
 SML  HN ES        114 54.26                             116   -0.38 8  240 336 
 SML  HZ I         114 58.19        11.3 0.13            117            240 336 
 CHI  HZ EP        114 28.04                             115   -0.25 8  249 194 
 CHI  HN ES   1    114 57.18                             115   -0.12 6  249 194 
 CHI  HZ I         115  8.31         1.7 0.40            115            249 194 
                                                                                
