 2016  125 0039 55.5 L   6.821 -73.148146.0  RSN 13 0.3 2.5LRSN                1
 GAP=135        0.79       2.3     3.0  4.5 -0.1932E+01  0.4268E+01 -0.2300E+00E
 Epicentro: LOS SANTOS - SANTANDER                                             3
 ACTION:UPD 16-03-09 23:28 OP:cam  STATUS:               ID:20160125003955 L   I
 OLDACT:UP  16-02-29 21:35 OP:cam  STATUS:               ID:20160125003955 L   3
 OLDACT:UP  16-02-23 20:55 OP:AR   STATUS:               ID:20160125003955 L   3
 OLDACT:REG 16-01-25 14:22 OP:cara STATUS:               ID:20160125003736     3
 2016-01-25-0037-36M.COL___334                                                 6
 STAT SP IPHASW D HRMM SECON CODA AMPLIT PERI AZIMU VELO AIN AR TRES W  DIS CAZ7
 BAR2 EZ IP        040 15.32                             170    0.1210 25.5 189 
 BAR2 EZ ES        040 29.91                             170   -0.6610 25.5 189 
 BAR2 EZ I         040 31.81        45.3 0.20            169           25.5 189 
 PAM  EZ IP     C  040 18.36                             151    0.7110 75.8  41 
 PAM  EE ES        040 35.21                             151    0.2910 75.8  41 
 PAM  EZ I         040 37.44        30.9 0.48            155           75.8  41 
 RUS  HZ EP        040 19.32                             143   -0.1210  103 176 
 RUS  HN ES        040 38.32                             143    0.2110  103 176 
 RUS  HZ I         040 38.99        26.4 0.24            146            103 176 
 PTB  HZ IP        040 22.05                             132   -0.45 9  148 258 
 PTB  HE ES        040 43.75                             132    0.19 9  148 258 
 PTB  HZ I         040 49.96        31.1 0.50            131            148 258 
 OCA  HZ EP        040 23.26                             130   -0.35 9  158 353 
 OCA  HN ES        040 45.42                             130   -0.12 9  158 353 
 OCA  HZ I         040 50.32        49.0 0.52            131            158 353 
 SPBC HZ EP        040 24.12                             129   -0.05 9  165 218 
 SPBC HN ES        040 46.65                             129    0.12 9  165 218 
 SPBC HZ I         040 48.82        41.9 0.34            130            165 218 
 ZAR  HN ES        040 53.14                             123    0.07 9  203 292 
 ZAR  HZ I         040 58.57        26.5 0.38            122            203 292 
 NOR  HZ EP        040 31.39                             118    0.03 8  236 234 
 NOR  HN ES        040 59.60                             118    0.27 8  236 234 
 NOR  HZ I         041  7.11        22.8 0.14            119            236 234 
 SML  HZ EP        040 31.70                             118   -0.20 8  242 335 
 SML  HN ES   4    041  1.54                             118    1.24 0  242 335 
 SML  HZ I         041  3.58        35.7 0.26            119            242 335 
 CHI  HZ EP        040 33.15                             117   -0.29 8  251 195 
 CHI  HN ES        041  2.68                             117   -0.35 8  251 195 
 CHI  HZ I         041  6.81        15.9 0.66            119            251 195 
 HEL  HZ EP   4    040 37.08                             115    1.32 0  272 255 
 HEL  HN ES        041  7.02                             115   -0.14 8  272 255 
 HEL  HZ I         041 12.85        12.8 0.34            115            272 255 
 GUY2CHZ EP        040 39.66                             112    0.42 7  302 234 
 GUY2CHN ES        041 13.66                             112    0.30 7  302 234 
 GUY2CHZ I         041 20.46         8.9 0.24                           302 234 
 ANIL HZ EP   9    040 46.66                             108    1.18 0  359 224 
 ANIL HN ES        041 25.60                             108   -0.04 6  359 224 
 ANIL HZ I         041 32.13        28.7 0.32            109            359 224 
                                                                                
