 2010  925 0421  3.7 L   6.800 -73.096144.8  RSN  7 0.2 1.7LRSN                1
 GAP=164        0.40       2.2     5.3  4.0 -0.3620E+01 -0.7369E+00 -0.6043E+00E
 Epicentro: LOS SANTOS - SANTANDER                                             3
 ACTION:UP  11-02-18 11:05 OP:tino STATUS:               ID:20100925042103 L   I
 2010-09-25-0416-48S.COL___120                                                 6
 STAT SP IPHASW D HRMM SECON CODA AMPLIT PERI AZIMU VELO SNR AR TRES W  DIS CAZ7
 BAR2 SZ EP   1    421 23.17                             170     0.0 7   25 203 
 BAR2 SZ ES   1    421 38.43                             170     0.0 7   25 203 
 BAR2 SZ I         421 39.13        14.8 0.47                            25 203 
 GIR2 SZ EP   2    421 23.19                             167    -0.1 5   33 341 
 BRR  HZ EP        421 24.89                             151    -0.110   76 297 
 BRR  HZ I         421 25.16        26.7 0.15                            76 297 
 BRR  HE ES   2    421 41.72                             151     0.1 5   76 297 
 RUS  HZ EP   2    421 27.40                             144     0.1 5  100 179 
 RUS  HN ES   2    421 45.46                             144    -0.3 5  100 179 
 RUS  HZ I         421 47.37         4.4 0.18                           100 179 
 GRA  SZ EP        421 28.82                             137     0.110  124  15 
 GRA  SZ I         421 30.05         6.1 0.30                           124  15 
 GRA  SZ ES   1    421 48.16                             137     0.0 7  124  15 
 OCA  SZ EP   2    421 31.70                             129    -0.3 5  161 351 
 OCA  SZ ES   2    421 54.21                             129     0.2 5  161 351 
 OCA  SZ I         421 58.94         5.7 0.36                           161 351 
 CHI  HZ EP   2    421 41.14                             117    -0.3 4  250 196 
 CHI  HN ES   2    422 11.54                             117     0.6 4  250 196 
 CHI  HZ I         422 14.50         1.7 0.42                           250 196 
                                                                                
