 2017  125 0421  6.5 L   6.791 -73.141142.0  RSN 19 0.5 2.4LRSN                1
 GAP=100        1.30       4.2     3.5  6.3  0.1029E+01  0.7315E+01  0.4346E+01E
 Epicentro: LOS SANTOS - SANTANDER                                             3
 ACTION:UPD 17-05-22 16:03 OP:jn   STATUS:               ID:20170125042106 L   I
 OLDACT:REG 17-01-25 12:45 OP:lv   STATUS:               ID:20170125040940     3
 2017-01-25-0418-00M.COL___355                                                 6
 STAT SP IPHASW D HRMM SECON CODA AMPLIT PERI AZIMU VELO AIN AR TRES W  DIS CAZ7
 BAR2 EZ IP     C  421 25.72                             171    0.0610 22.5 192 
 BAR2 EZ ES        421 40.58                             171   -0.0210 22.5 192 
 BAR2 EZ I         421 41.95        99.7 0.15            168           22.5 192 
 BRR  HZ IP     C  421 27.67                             152    0.3810 72.1 299 
 BRR  HN ES        421 44.42                             152    0.9110 72.1 299 
 BRR  HZ I         421 45.82        52.1 0.12            150           72.1 299 
 PAM  EZ IP     D  421 28.59                             150    0.2510 77.8  39 
 PAM  EN ES        421 45.43                             150    0.0510 77.8  39 
 PAM  EZ I         421 48.04        23.9 0.58            154           77.8  39 
 RUS  HZ IP     C  421 29.68                             143   -0.1310 99.6 176 
 RUS  HN ES        421 47.86                             143   -0.1310 99.6 176 
 RUS  HZ I         421 49.32        26.4 0.30            142           99.6 176 
 PTB  HZ EP        421 32.34                             131   -0.85 9  148 259 
 PTB  HN ES        421 53.05                             131   -0.96 9  148 259 
 PTB  HZ I         421 55.58        33.7 0.22            130            148 259 
 TAM  HZ IP     D  421 34.05                             130    0.23 9  154 105 
 TAM  HN ES        421 54.62                             130   -0.50 9  154 105 
 ZAR  HZ EP        421 38.43                             122   -0.36 9  205 292 
 ZAR  HN ES        422  4.34                             122    0.37 9  205 292 
 ZAR  HZ I         422 11.04        22.9 0.32            121            205 292 
 NOR  HZ EP        421 42.32                             118    0.32 8  235 235 
 NOR  HE ES        422  8.95                             118   -0.73 8  235 235 
 NOR  HZ I         422 11.90        20.5 0.28            117            235 235 
 CHI  HZ EP        421 43.92                             117    0.01 8  248 195 
 CHI  HN ES        422 13.70                             117    0.62 8  248 195 
 CHI  HZ I         422 18.90        11.2 0.22            116            248 195 
 ROSC BZ EP   9    421 45.86                             116    1.51 0  252 211 
 ROSC BN ES        422 17.10                                    1.71 8  252 211 
 ROSC BZ I         422 21.62        20.8 0.30            115            252 211 
 URE  HZ EP   4    421 46.03                             113   -1.45 0  285 292 
 URE  HE ES        422 18.92                             113   -0.52 7  285 292 
 URE  HZ I         422 29.98        12.1 0.35            113            285 292 
 PTGC HZ IP   9 D  421 48.92                             111   -1.15 0  308 159 
 PTGC HN ES        422 22.10                                   -0.80 7  308 159 
 PTGC HZ I         422 28.62        11.9 0.32            111            308 159 
 LL6C HZ EP   4    421 32.73                             110   -19.4 0  326 358 
 LL6C HE ES   4    422  9.01                             110   -18.8 0  326 358 
 ELA  HZ EP   4    421 54.86                             110    1.69 0  329 230 
 ELA  HN ES   4    422 32.33                             110    2.77 0  329 230 
 ELA  HZ I         422 41.05         9.2 0.42            109            329 230 
 CBOC HZ EP        421 53.99                             109    0.71 7  334 252 
 CBOC HN ES   4    422 27.31                             109   -2.46 0  334 252 
 CBOC HZ I         422 32.83         4.4 0.22            109            334 252 
 DBB  EZ EP        421 53.69                             109   -0.20 7  340 274 
 DBB  EN ES        422 30.76                             109   -0.09 7  340 274 
 DBB  EZ I         422 33.88         5.9 0.22            109            340 274 
 ORTC HZ EP        422  0.37                             106    0.13 6  395 216 
 ORTC HN ES        422 42.65                             106    0.50 6  395 216 
 ORTC HZ I         422 48.20        10.8 0.28            106            395 216 
 PAL  HZ EP        422  1.75                             105    0.22 6  406 239 
 PAL  HN ES        422 44.79                             105    0.34 6  406 239 
 PAL  HZ I         422 48.70         7.0 0.22            105            406 239 
 SJC  HZ EP   4    422  0.60                             105   -1.46 0  410 327 
 SJC  HN ES   4    422 41.34                             105   -4.06 0  410 327 
 SJC  HZ I         422 46.10         5.4 0.45            105            410 327 
 CRJC HN ES   4    422 53.63                             103   -4.13 0  469   3 
 CRJC HZ I         422 57.94         6.9 0.38            103            469   3 
                                                                                
