 2017  125 0637 10.1 L   6.658 -73.637105.5  RSN  8 0.2 1.5LRSN                1
 GAP= 76        0.64       2.6     3.2  4.6  0.1237E+01  0.6731E+01  0.3421E+01E
 Epicentro: EL CARMEN - SANTANDER                                              3
 ACTION:UPD 17-05-22 16:03 OP:jn   STATUS:               ID:20170125063710 L   I
 OLDACT:DUP 17-01-25 16:26 OP:lv   STATUS:               ID:20170125062746d    3
 2017-01-25-0628-00M.COL___355                                                 6
 STAT SP IPHASW D HRMM SECON CODA AMPLIT PERI AZIMU VELO AIN AR TRES W  DIS CAZ7
 BRR  HZ IP     D  637 25.47                             152   -0.2710 50.4 351 
 BRR  HN ES        637 38.06                             152    0.1410 50.4 351 
 BRR  HZ I         637 40.83         6.5 0.12            155           50.4 351 
 BAR2 EZ EP        637 26.20                             152    0.0910 50.8  98 
 BAR2 EZ ES        637 38.89                             152    0.3010 50.8  98 
 BAR2 EZ I         637 39.61        23.3 0.18            155           50.8  98 
 PTB  HZ EP   4    637 27.44                             136   -1.29 0 91.5 262 
 PTB  HN ES   4    637 40.78                             136   -2.47 0 91.5 262 
 PTB  HZ I         637 43.34         9.8 0.10            134           91.5 262 
 RUS  HZ EP        637 30.63                             132    0.1010  105 144 
 RUS  HN ES        637 45.94                             132   -0.5110  105 144 
 RUS  HZ I         637 47.82         4.2 0.18            133            105 144 
 PAM  EZ EP        637 32.84                             126    0.0710  128  54 
 PAM  EN ES        637 50.41                             126   -0.0310  128  54 
 PAM  EZ I         637 51.82         7.3 0.19            129            128  54 
 ZAR  HZ EP        637 35.57                             118   -0.23 9  163 304 
 ZAR  HE ES   4    637 57.29                             118    1.45 0  163 304 
 ZAR  HZ I         637 59.71         5.7 0.10            119            163 304 
 NOR  HZ EP        637 38.07                             115    0.14 9  182 228 
 NOR  HE ES   4    638  0.62                             115    1.00 0  182 228 
 NOR  HZ I         638  2.82         7.2 0.26            115            182 228 
 CHI  HZ EP        637 43.43                             110    0.28 8  225 183 
 CHI  HE ES   4    638  9.29                             110    0.37 0  225 183 
 CHI  HZ I         638 17.69         1.4 0.22            110            225 183 
                                                                                
