 2012 1025 0947 40.6 L   7.523 -73.310 18.6  RSN  7 0.4 1.6LRSN                1
 GAP=107        0.89       2.8     2.6  4.7 -0.6813E+00  0.4813E+01 -0.2291E+01E
 Epicentro: EL PLAYON - SANTANDER                                              3
 ACTION:UPD 12-11-22 17:05 OP:ep   STATUS:               ID:20121025094740 L   I
 2012-10-25-0940-00M.COL___234                                                 6
 STAT SP IPHASW D HRMM SECON CODA AMPLIT PERI AZIMU VELO AIN AR TRES W  DIS CAZ7
 GIR2 SZ EP   1    947 49.30                             108   -0.03 7 50.7 165 
 GIR2 SZ ES   1    947 55.89                             108   -0.28 7 50.7 165 
 BRR  HZ EP   1    947 50.94                             104   -0.15 7 63.8 224 
 BRR  HN ES        947 59.69                             104    0.3810 63.8 224 
 BRR  HN I         948  4.22        31.9 0.21                          63.8 224 
 PAM  SZ EP        947 52.65                             104    0.0710 70.4 107 
 PAM  SN ES   1    948  1.54                             104   -0.41 7 70.4 107 
 PAM  SN I         948  2.13        37.5 0.15                          70.4 107 
 OCA  HZ EP   1    947 53.68                             102    0.16 7 79.2 359 
 OCA  HN ES   2    948  4.25                             102    0.61 5 79.2 359 
 OCA  HZ I         948  6.49         5.9 0.26                          79.2 359 
 BAR2 SZ EP   1    947 56.78                              99   -0.52 7  104 172 
 ZAR  HN ES        948 25.06                              56   -0.65 9  171 269 
 ZAR  HN I         948 27.55         5.9 0.18                           171 269 
 RUS  HZ EP        948  8.55                              56    0.65 9  182 172 
 RUS  HZ I         948  8.80         8.1 0.16                           182 172 
 RUS  HN ES   2    948 29.79                              56    0.56 4  182 172 
                                                                                
