 2016  125 0935 42.8 L   6.851 -73.176130.1  RSN 10 0.3 1.4LRSN                1
 GAP=130        0.47       2.7     4.4  5.6 -0.4084E+01  0.1375E+02  0.1271E+00E
 Epicentro: ZAPATOCA - SANTANDER                                               3
 ACTION:UPD 16-03-09 23:28 OP:cam  STATUS:               ID:20160125093542 L   I
 OLDACT:DUP 16-01-25 19:37 OP:dnl  STATUS:               ID:20160125092737d    3
 2016-01-25-0927-36M.COL___319                                                 6
 STAT SP IPHASW D HRMM SECON CODA AMPLIT PERI AZIMU VELO AIN AR TRES W  DIS CAZ7
 BAR2 EZ EP   2    936  0.93                             167    0.29 5 28.6 181 
 BAR2 EZ ES   2    936 15.21                             167    0.62 5 28.6 181 
 BAR2 EZ I         936 17.95         6.8 0.20            169           28.6 181 
 PAM  EZ EP   4    936  4.20                             149    0.99 0 75.4  44 
 PAM  EE ES        936 18.81                             149   -0.3510 75.4  44 
 PAM  EZ I         936 24.07         2.4 0.38            153           75.4  44 
 RUS  HZ EP   2    936  5.45                             138   -0.02 5  106 174 
 RUS  HE ES   2    936 23.44                             138    0.25 5  106 174 
 RUS  HZ I         936 25.36         2.3 0.23            145            106 174 
 PTB  HZ EP   2    936  8.61                             128    0.31 5  146 256 
 PTB  HN ES   2    936 28.01                             128   -0.22 5  146 256 
 PTB  HZ I         936 32.22         2.3 0.11            130            146 256 
 OCA  HZ EP   2    936  9.87                             127    0.55 5  154 354 
 OCA  HE ES   2    936 30.01                             127   -0.02 5  154 354 
 OCA  HZ I         936 39.12         6.1 0.37            130            154 354 
 SPBC HZ EP   2    936 10.58                             125    0.23 5  166 217 
 SPBC HN ES   2    936 31.77                             125   -0.09 5  166 217 
 SPBC HZ I         936 35.59         3.7 0.15            129            166 217 
 ZAR  HZ EP   3    936 13.44                             119   -0.25 2  199 291 
 ZAR  HE ES   3    936 37.41                             119   -0.40 2  199 291 
 ZAR  HZ I         936 45.11         2.8 0.39            122            199 291 
 SML  HZ EP   2    936 18.05                             115    0.21 4  237 335 
 SML  HE ES   4    936 42.40                             115   -2.79 0  237 335 
 SML  HZ I         936 48.65         2.9 0.10            117            237 335 
 CHI  HZ EP   2    936 19.56                             113   -0.59 4  253 194 
 CHI  HE ES   2    936 49.13                             113   -0.19 4  253 194 
 CHI  HZ I         936 54.86         1.1 0.35            118            253 194 
 GUY2CHZ EP   2    936 25.91                             109    0.15 4  302 234 
 GUY2CHN ES   4    936 57.19                             109   -2.11 0  302 234 
 GUY2CHZ I         937  8.07         1.6 0.31                           302 234 
                                                                                
