 2017  225 0855  0.4 L   6.753 -73.122145.0  RSN  5 0.4 1.1LRSN                1
 GAP=142        1.05       5.6     5.5  7.7 -0.2858E+01  0.5313E+01  0.1544E+01E
 Epicentro: LOS SANTOS - SANTANDER                                             3
 ACTION:UPD 17-05-24 15:40 OP:jn   STATUS:               ID:20170225085500 L   I
 OLDACT:REG 17-02-25 13:06 OP:dani STATUS:               ID:20170225084742     3
 2017-02-25-0848-00M.COL___358                                                 6
 STAT SP IPHASW D HRMM SECON CODA AMPLIT PERI AZIMU VELO AIN AR TRES W  DIS CAZ7
 BAR2 EZ EP        855 19.55                             172   -0.3410 19.0 200 
 BAR2 EZ ES        855 34.47                             172   -0.5910 19.0 200 
 BAR2 EZ I         855 36.00         3.7 0.26            172           19.0 200 
 BRR  HZ EP        855 22.03                             151    0.2610 76.0 301 
 BRR  HN ES        855 39.09                             151    0.6710 76.0 301 
 PAM  EZ EP        855 22.90                             150    0.1810 79.9  36 
 PAM  EE ES        855 39.88                             150   -0.2210 79.9  36 
 PAM  EZ I         855 41.81         1.6 0.48            151           79.9  36 
 RUS  HZ EP        855 24.01                             145    0.2810 95.2 177 
 RUS  HN ES        855 42.27                             145    0.3710 95.2 177 
 RUS  HZ I         855 43.36         2.4 0.38            146           95.2 177 
 PTB  HZ EP        855 26.98                             131   -0.50 9  149 261 
 PTB  HN ES        855 48.37                             131   -0.21 9  149 261 
 PTB  HZ I         855 50.52         1.6 0.14            132            149 261 
                                                                                
