 2017  825 0018 18.2 L   5.967 -73.757106.3  RSN 11 0.4 1.5LRSN                1
 GAP= 74        0.60       2.2     2.1  4.1 -0.1351E+01  0.1523E+01  0.5174E+00E
 Epicentro: BOLIVAR - SANTANDER                                                3
 ACTION:UPD 17-09-04 20:24 OP:rebc STATUS:               ID:20170825001818 L   I
 OLDACT:UP  17-08-25 13:17 OP:and  STATUS:               ID:20170825001742     3
 OLDACT:UP  17-08-25 13:15 OP:and  STATUS:               ID:20170825001742     3
 OLDACT:REG 17-08-25 12:13 OP:and  STATUS:               ID:20170825001742     3
 2017-08-25-0018-00M.COL___411                                                 6
 STAT SP IPHASW D HRMM SECON CODA AMPLIT PERI AZIMU VELO AIN AR TRES W  DIS CAZ7
 SPBC HZ IP     C  018 33.82                             153   -0.1910 49.3 225 
 SPBC HN ES        018 46.21                             153   -0.1010 49.3 225 
 SPBC HZ I         018 47.79        11.8 0.18            153           49.3 225 
 RUS  HZ EP        018 36.10                             143   -0.1610 75.1  96 
 RUS  HN ES   2    018 50.05                             143   -0.27 5 75.1  96 
 RUS  HZ I         018 54.00         4.1 0.34            142           75.1  96 
 BAR2 EZ IP     C  018 37.42                             136   -0.0110 94.0  43 
 BAR2 EZ ES        018 52.73                             136    0.3310 94.0  43 
 BAR2 EZ I         018 54.06        11.7 0.50            139           94.0  43 
 BRR  HZ EP   2    018 39.71                             126   -0.39 5  126   2 
 BRR  HN ES   2    018 56.84                             126   -0.32 5  126   2 
 NOR  HZ IP     C  018 40.76                             125    0.1110  131 250 
 NOR  HE ES        018 58.52                             125    0.3910  131 250 
 NOR  HZ I         018 59.71        16.2 0.18            127            131 250 
 CHI  HZ EP   2    018 41.97                             122   -0.88 5  148 179 
 CHI  HN ES   2    019  1.68                             122   -0.36 5  148 179 
 CHI  HZ I         019  7.42         2.9 0.28            122            148 179 
 YPLC HZ EP   2    018 44.54                             118    0.31 5  165 112 
 YPLC HE ES   2    019  4.90                             118    0.40 5  165 112 
 YPLC HZ I         019  6.88         6.3 0.32            119            165 112 
 GUY2CHZ EP        018 48.31                             114    0.15 9  196 245 
 GUY2CHN ES   3    019 10.06                             114   -1.45 2  196 245 
 GUY2CHZ I         019 16.20         2.8 0.46                           196 245 
 ZAR  HN ES        019 12.72                             112   -0.12 8  208 324 
 PRA  HZ EP   2    018 56.87                             105   -0.29 4  279 207 
 PRA  HN ES   3    019 29.09                             105    1.57 2  279 207 
 PRA  HZ I         019 30.41         1.7 0.30            106            279 207 
 ORTC HZ EP        018 57.36                             105   -0.07 7  281 216 
 ORTC HN ES   2    019 28.64                             105    0.64 4  281 216 
 ORTC HZ I         019 31.29         1.8 0.32            106            281 216 
                                                                                
