 2016  225 0425 10.1 L   6.787 -73.117140.7  RSN 13 0.5 1.8LRSN                1
 GAP= 73        1.07       3.1     3.1  5.9 -0.1751E+01  0.5642E+01  0.1294E+01E
 Epicentro: LOS SANTOS - SANTANDER                                             3
 ACTION:UPD 16-03-04 21:29 OP:rebc STATUS:               ID:20160225042510 L   I
 OLDACT:UP  16-02-25 16:19 OP:mh   STATUS:               ID:20160225041750     3
 OLDACT:UP  16-02-25 16:19 OP:mh   STATUS:               ID:20160225041750     3
 OLDACT:UP  16-02-25 16:16 OP:mh   STATUS:               ID:20160225041750     3
 OLDACT:REG 16-02-25 12:45 OP:mh   STATUS:               ID:20160225041750     3
 2016-02-25-0417-50M.COL___336                                                 6
 STAT SP IPHASW D HRMM SECON CODA AMPLIT PERI AZIMU VELO AIN AR TRES W  DIS CAZ7
 BAR2 EZ EP        425 29.13                             170    0.0310 22.7 199 
 BAR2 EZ ES        425 43.71                             170   -0.2110 22.7 199 
 BAR2 EZ I         425 44.99        27.1 0.13            169           22.7 199 
 PAM  EZ EP        425 32.06                             150    0.3410 76.5  37 
 PAM  EE ES        425 49.04                             150    0.4510 76.5  37 
 PAM  EZ I         425 51.20        14.6 0.56            153           76.5  37 
 RUS  HZ EP        425 33.26                             143    0.0310 99.0 178 
 RUS  HE ES        425 51.35                             143    0.0810 99.0 178 
 RUS  HZ I         425 52.77         8.5 0.50            144           99.0 178 
 PTB  HZ EP   1 C  425 35.85                             130   -1.07 7  151 260 
 PTB  HN ES        425 58.52                             130    0.68 9  151 260 
 PTB  HZ I         426  0.03        11.7 0.18            131            151 260 
 TAM  HZ IP     D  425 37.61                             130    0.56 9  152 105 
 TAM  HE ES        425 57.99                             130   -0.09 9  152 105 
 TAM  HZ I         425 58.92         2.5 0.27            132            152 105 
 OCA  HZ EP        425 37.78                             128   -0.41 9  162 352 
 OCA  HN ES        425 59.20                             128   -0.91 9  162 352 
 OCA  HZ I         426  2.30        24.8 0.38            130            162 352 
 SPBC HZ EP        425 38.18                             128   -0.12 9  164 220 
 SPBC HN ES        425 59.95                             128   -0.34 9  164 220 
 SPBC HZ I         426  3.69        10.1 0.20            128            164 220 
 ZAR  HZ EP   1    425 42.48                             121   -0.10 6  208 292 
 ZAR  HN ES        426  8.36                             121    0.44 8  208 292 
 ZAR  HZ I         426  9.03         6.9 0.10            122            208 292 
 NOR  HZ EP        425 45.69                             117   -0.04 8  236 235 
 NOR  HE ES        426 13.28                             117   -0.24 8  236 235 
 NOR  HZ I         426 17.14         5.1 0.22            118            236 235 
 CHI  HZ EP        425 47.86                             116    0.40 8  248 196 
 CHI  HN ES        426 15.71                             116   -0.89 8  248 196 
 CHI  HZ I         426 22.61         2.2 0.32            117            248 196 
 URE  HZ EP   4    425 48.38                             112   -2.94 0  287 292 
 URE  HN ES   4    426 21.78                             112   -1.69 0  287 292 
 URE  HZ I         426 22.71         5.7 0.40            113            287 292 
 GUY2CHZ EP        425 53.42                             111   -0.26 7  303 235 
 GUY2CHN ES        426 28.07                             111    0.40 7  303 235 
 GUY2CHZ I         426 34.05         4.7 0.24                           303 235 
 CBOC HZ EP        425 57.78                             109    0.68 7  336 252 
 CBOC HE ES        426 34.06                             109    0.29 7  336 252 
 CBOC HZ I         426 42.60         1.4 0.34            109            336 252 
                                                                                
