 2011  725 0004 43.8 L   6.815 -72.956144.4  RSN  6 0.2 1.4LRSN                1
 GAP=202        0.45       3.7     8.8  4.8  0.1838E+02 -0.1280E+02 -0.2195E+01E
 Epicentro: CEPITA - SANTANDER                                                 3
 ACTION:UPD 12-07-25 14:03 OP:epov STATUS:               ID:20110725000443 L   I
 2011-07-25-0000-35S.COL___143                                                 6
 STAT SP IPHASW D HRMM SECON CODA AMPLIT PERI AZIMU VELO AIN AR TRES W  DIS CAZ7
 BAR2 SZ EP   1    0 5  3.51                             166   -0.01 7 35.0 225 
 BAR2 SZ ES   1    0 5 18.60                             166   -0.34 7 35.0 225 
 BAR2 SZ I         0 5 21.32         6.4 0.47                          35.0 225 
 BTL  SZ EP   1    0 5  3.67                             165    0.11 7 36.3 288 
 BTL  SZ ES   2    0 5 19.33                             165    0.32 5 36.3 288 
 GIR2 SZ ES   1    0 5 18.83                             164   -0.09 7 39.2 318 
 BRR  HZ EP   1    0 5  5.56                             146   -0.35 7 89.5 291 
 BRR  HN ES   1    0 5 23.37                             146    0.19 7 89.5 291 
 BRR  HZ I         0 5 26.18         6.4 0.40                          89.5 291 
 RUS  HZ EP   1    0 5  7.71                             143    0.16 7  103 188 
 RUS  HN ES   1    0 5 26.21                             143    0.11 7  103 188 
 RUS  HZ I         0 5 27.37         2.1 0.33                           103 188 
 OCA  SZ ES   2    0 5 34.54                             129    0.20 5  163 346 
 OCA  SZ I         0 5 39.48         4.4 0.17                           163 346 
                                                                                
