 2017  225 0824 14.7 L   6.799 -73.143150.9  RSN  4 0.2 1.0LRSN                1
 GAP=238        0.65       5.3     5.1  5.2  0.1341E+02  0.1347E+01 -0.3585E+00E
 Epicentro: LOS SANTOS - SANTANDER                                             3
 ACTION:UPD 17-05-24 15:40 OP:jn   STATUS:               ID:20170225082414 L   I
 OLDACT:REG 17-02-25 13:04 OP:dani STATUS:               ID:20170225081741     3
 2017-02-25-0818-00M.COL___364                                                 6
 STAT SP IPHASW D HRMM SECON CODA AMPLIT PERI AZIMU VELO AIN AR TRES W  DIS CAZ7
 BAR2 HZ EP        824 34.53                             171   -0.3910 23.3 191 
 BAR2 HZ ES        824 50.93                             171    0.2110 23.3 191 
 BRR  HZ EP        824 36.81                             153    0.4110 71.5 298 
 BRR  HN ES        824 53.12                             153   -0.2210 71.5 298 
 BRR  HZ I         824 56.37         1.9 0.17            154           71.5 298 
 RUS  HZ EP     D  824 38.85                             145   -0.0810  100 176 
 RUS  HN ES        824 57.90                             145    0.0510  100 176 
 RUS  HZ I         824 58.70         1.4 0.39            147            100 176 
 PTB  HZ EP        824 42.16                             133    0.07 9  148 259 
 PTB  HN ES        825  3.43                             133   -0.04 9  148 259 
 PTB  HZ I         825  4.26         1.0 0.38            135            148 259 
                                                                                
