 2017 1125 0930 42.7 L   6.827 -73.388113.5  RSN  4 0.5 0.9LRSN                1
 GAP=204        1.03       8.4     6.3  9.9  0.3427E+02  0.7664E+01 -0.2014E+02E
 Epicentro: SAN VICENTE DE CHUCURI - SANTANDER                                 3
 ACTION:UPD 17-12-12 19:59 OP:rebc STATUS:               ID:20171125093042 L   I
 OLDACT:UP  17-11-25 15:13 OP:y    STATUS:               ID:20171125092359     3
 OLDACT:UP  17-11-25 15:11 OP:dani STATUS:               ID:20171125092359     3
 OLDACT:REG 17-11-25 13:45 OP:osc  STATUS:               ID:20171125092359     3
 2017-11-25-0928-00M.COL___471                                                 6
 STAT SP IPHASW D HRMM SECON CODA AMPLIT PERI AZIMU VELO AIN AR TRES W  DIS CAZ7
 BAR2 EZ EP        930 58.51                             162   -0.3210 34.5 139 
 BAR2 EZ ES        931 11.19                             162   -0.2210 34.5 139 
 RUS  HZ EP        931  4.19                             133    0.0410  109 162 
 RUS  HN ES        931 21.41                             133    0.5310  109 162 
 RUS  HZ I         931 22.12         1.4 0.44            135            109 162 
 PTB  HZ EP   3    931  3.27                             129   -1.48 2  122 255 
 PTB  HN ES        931 21.47                             129   -0.4810  122 255 
 PTB  HZ I         931 24.75         1.1 0.14            128            122 255 
 ZAR  HZ EP        931 10.35                             118   -0.10 9  178 294 
 ZAR  HN ES        931 32.82                             118    0.74 9  178 294 
 ZAR  HZ I         931 37.30         1.2 0.21            118            178 294 
                                                                                
