 2011  425 0508 30.5 L   6.733 -73.161146.0  RSN  6 0.4 2.0LRSN                1
 GAP=181        0.79       4.3     8.7  7.5  0.2185E+01  0.6497E+01 -0.8751E+00E
 Epicentro: VILLANUEVA - SANTANDER                                             3
 ACTION:UP  11-06-22 15:33 OP:REBC STATUS:               ID:20110425050830 L   I
 2011-04-25-0500-00M.COL___140                                                 6
 STAT SP IPHASW D HRMM SECON CODA AMPLIT PERI AZIMU VELO SNR AR TRES W  DIS CAZ7
 BAR2 SZ EP   1    5 8 49.55                             174    -0.4 7   16 189 
 BAR2 SZ ES   2    5 9  5.31                             174     0.1 5   16 189 
 BAR2 SZ I         5 9  7.11        31.6 0.40                            16 189 
 BTL  SZ EP   1    5 8 50.06                             170    -0.1 7   24 330 
 BTL  SZ ES   2    5 9  5.22                             170    -0.2 5   24 330 
 BRR  HZ EP   1    5 8 51.44                             152    -0.3 7   74 304 
 BRR  HZ I         5 8 53.07        24.4 0.10                            74 304 
 BRR  HE ES   1    5 9  8.63                             152     0.2 7   74 304 
 RUS  HZ EP   1    5 8 53.44                             146    -0.3 7   93 175 
 RUS  HE ES   1    5 9 12.31                             146     0.4 7   93 175 
 RUS  HZ I         5 9 13.70        19.4 0.26                            93 175 
 OCA  SZ EP   1    5 9  0.24                             128     0.8 7  167 354 
 OCA  SZ ES   1    5 9 21.85                             128    -0.2 7  167 354 
 OCA  SZ I         5 9 27.07        12.8 0.23                           167 354 
 NOR  SZ EP   1    5 9  5.80                             119     0.2 6  229 236 
 NOR  SE ES   2    5 9 32.73                             119    -0.3 4  229 236 
 NOR  SZ I         5 9 40.65         2.1 0.45                           229 236 
                                                                                
