 2015  625 0737 41.8 L   7.265 -73.628 12.1  RSN  4 0.4 1.3LRSN                1
 GAP=129        0.93       2.6     2.7 11.4  0.1668E+01 -0.9654E+01 -0.1674E+02E
 Epicentro: SABANA DE TORRES - SANTANDER                                       3
 ACTION:UPD 15-09-10 22:14 OP:cam  STATUS:               ID:20150625073741 L   I
 OLDACT:UP  15-06-25 17:18 OP:mh   STATUS:               ID:20150625072749     3
 OLDACT:UP  15-06-25 17:16 OP:mh   STATUS:               ID:20150625072749     3
 OLDACT:UP  15-06-25 17:16 OP:mh   STATUS:               ID:20150625072749     3
 OLDACT:UP  15-06-25 17:16 OP:mh   STATUS:               ID:20150625072749     3
 OLDACT:UP  15-06-25 17:15 OP:mh   STATUS:               ID:20150625072749     3
 OLDACT:UP  15-06-25 17:15 OP:mh   STATUS:               ID:20150625072749     3
 OLDACT:REG 15-06-25 12:20 OP:mh   STATUS:               ID:20150625072749     3
 2015-06-25-0727-49M.COL___319                                                 6
 STAT SP IPHASW D HRMM SECON CODA AMPLIT PERI AZIMU VELO AIN AR TRES W  DIS CAZ7
 BRR  HZ EP     C  737 45.96                             117    0.2810 19.8 208 
 BRR  HN ES        737 48.67                             117   -0.0410 19.8 208 
 BRR  HZ I         737 49.78        18.0 0.16            143           19.8 208 
 BAR2 EZ EP        737 56.53                              96    0.3110 89.3 146 
 BAR2 EZ ES        738  7.01                              96   -0.4610 89.3 146 
 BAR2 EZ I         738  7.77         6.5 0.50            101           89.3 146 
 OCA  HZ EP   1    738  0.11                              94    0.41 7  113  18 
 OCA  HN ES        738 13.43                              94   -0.2410  113  18 
 OCA  HZ I         738 19.91        14.7 0.18             97            113  18 
 ZAR  HZ EP        738  3.80                              93    0.45 9  138 281 
 ZAR  HN ES        738 19.64                              93   -0.53 9  138 281 
 ZAR  HZ I         738 20.58         7.2 0.48             56            138 281 
                                                                                
