 2014  625 0508 57.4 L   6.793 -73.139135.6  RSN 10 0.5 1.5LRSN                1
 GAP=184        1.08       3.3     5.3  7.6 -0.5934E-01  0.1425E+02 -0.2423E+01E
 Epicentro: LOS SANTOS - SANTANDER                                             3
 ACTION:UPD 14-07-01 22:56 OP:nd   STATUS:               ID:20140625050857 L   I
 OLDACT:REG 14-06-25 13:12 OP:spq  STATUS:               ID:20140625050814     3
 2014-06-25-0508-14M.COL___259                                                 6
 STAT SP IPHASW D HRMM SECON CODA AMPLIT PERI AZIMU VELO AIN AR TRES W  DIS CAZ7
 BAR2 SZ EP        5 9 16.24                             170    0.4210 22.7 192 
 BAR2 SZ ES   1    5 9 31.11                             170    0.95 7 22.7 192 
 BAR2 SZ I         5 9 33.88         7.3 0.30            169           22.7 192 
 RUS  HZ EP   1    5 9 19.93                             142   -0.20 7 99.7 176 
 RUS  HN ES        5 9 37.37                             142   -0.4610 99.7 176 
 RUS  HZ I         5 9 40.02         2.4 0.24            147           99.7 176 
 PTB  HZ EP        5 9 22.98                             129   -0.66 9  148 259 
 PTB  HN ES        5 9 43.54                             129   -0.54 9  148 259 
 PTB  HZ I         5 9 51.41         6.5 0.38            131            148 259 
 OCA  HN ES        5 9 46.25                             127   -0.35 9  161 353 
 OCA  HZ I         5 9 51.21         3.4 0.21            131            161 353 
 SPBC HZ EP        5 9 25.17                             126    0.02 9  163 219 
 SPBC HN ES        5 9 46.79                             126    0.02 9  163 219 
 SPBC HZ I         5 9 50.17         4.1 0.12            130            163 219 
 ZAR  HZ EP        5 9 30.03                             120    0.69 9  205 292 
 ZAR  HE ES        5 9 54.77                             120    0.55 9  205 292 
 ZAR  HZ I         510  1.35         5.6 0.30            122            205 292 
 SML  HZ EP   1    5 9 33.25                             115   -0.37 6  245 335 
 SML  HE ES        510  1.51                             115   -0.34 8  245 335 
 HEL  HZ EP        5 9 38.14                             112    0.94 8  273 256 
 HEL  HN ES        510  7.84                             112   -0.38 8  273 256 
 HEL  HZ I         510 14.60         2.3 0.32            115            273 256 
 GUY2CHZ EP   1    5 9 40.71                             110    0.11 5  301 235 
 GUY2CHN ES   1    510 14.39                             110    0.12 5  301 235 
 GUY2CHZ I         510 22.41         1.2 0.28                           301 235 
 PRA  HZ EP        5 9 50.31                             105   -0.27 6  392 210 
 PRA  HN ES   1    510 32.37                             105    0.34 4  392 210 
 PRA  HZ I         510 35.92         1.0 0.39            108            392 210 
                                                                                
