 2011  725 0141 54.9 L   6.774 -73.031140.0  RSN  5 0.3 1.5LRSN                1
 GAP=206        0.54       5.0     6.9  6.3 -0.1770E+02 -0.8730E+01  0.4655E+00E
 Epicentro: CEPITA - SANTANDER                                                 3
 ACTION:UPD 12-07-25 14:03 OP:epov STATUS:               ID:20110725014154 L   I
 2011-07-25-0138-11S.COL___143                                                 6
 STAT SP IPHASW D HRMM SECON CODA AMPLIT PERI AZIMU VELO AIN AR TRES W  DIS CAZ7
 BAR2 SZ EP   1    142 13.69                             169   -0.20 7 26.2 220 
 BAR2 SZ ES   1    142 28.86                             169    0.15 7 26.2 220 
 BAR2 SZ I         142 29.82         6.3 0.28                          26.2 220 
 GIR2 SZ EP   2    142 14.00                             164   -0.09 5 38.2 332 
 BRR  HZ EP   1    142 15.85                             147   -0.35 7 83.8 296 
 BRR  HZ I         142 16.23         8.4 0.14                          83.8 296 
 BRR  HE ES   1    142 33.02                             147    0.19 7 83.8 296 
 BRI  SZ EP   2    142 18.78                             140    0.62 5  107  14 
 BRI  SZ ES   1    142 36.05                             140   -0.25 7  107  14 
 GRA  SZ EP   1    142 19.89                             136    0.30 7  125  12 
 GRA  SZ ES   1    142 38.80                             136   -0.06 7  125  12 
 GRA  SZ I         142 40.50         5.4 0.49                           125  12 
                                                                                
