 2015  225 0922 53.0 L   6.802 -73.042156.5  RSN  7 0.5 1.2LRSN                1
 GAP=150        1.10       5.1     8.3  9.7  0.3755E+01  0.2788E+02  0.1214E+02E
 Epicentro: LOS SANTOS - SANTANDER                                             3
 ACTION:UPD 15-04-30 21:29 OP:nd   STATUS:               ID:20150225092253 L   I
 OLDACT:UP  15-02-25 18:44 OP:mher STATUS:               ID:20150225091744     3
 OLDACT:REG 15-02-25 13:51 OP:mh   STATUS:               ID:20150225091744     3
 2015-02-25-0917-44M.COL___284                                                 6
 STAT SP IPHASW D HRMM SECON CODA AMPLIT PERI AZIMU VELO AIN AR TRES W  DIS CAZ7
 BAR2 EZ EP        923 14.11                             169    0.0910 27.9 214 
 BAR2 EZ I         923 31.70         1.3 0.15            165           27.9 214 
 PAM  SZ EP   4    923 17.72                             155    1.72 0 70.5  32 
 PAM  SN ES        923 33.93                             155   -0.0110 70.5  32 
 PAM  SZ I         923 36.71         3.6 0.13            157           70.5  32 
 BRR  HZ EP        923 15.90                             151    0.0110 81.4 295 
 BRR  HN ES        923 33.49                             151   -0.2510 81.4 295 
 BRR  HZ I         923 35.91         2.5 0.25            147           81.4 295 
 RUS  HZ EP        923 17.06                             146   -0.7710  101 183 
 RUS  HZ I         923 19.92         1.2 0.28            145            101 183 
 RUS  HN ES   1    923 37.93                             146    0.74 7  101 183 
 PTB  HZ EP        923 21.57                             132   -0.30 9  159 260 
 PTB  HN ES   4    923 41.81                             132   -2.58 0  159 260 
 PTB  HZ I         923 56.68         1.6 0.16            129            159 260 
 SPBC HZ EP        923 23.87                             130    0.82 9  171 222 
 SPBC HN ES   1    923 46.24                             130   -0.24 7  171 222 
 SPBC HZ I         923 53.36         1.9 0.66            128            171 222 
 SML  HE ES        924  0.58                             119    0.35 8  249 333 
 SML  HZ I         924  8.22         2.2 0.20            118            249 333 
                                                                                
