 2016  325 0601  7.1 L   6.804 -73.171142.0  RSN  4 0.1 1.0LRSN                1
 GAP=133        0.39       2.2     2.1  4.7  0.5169E+00  0.4295E+01  0.1171E+01E
 Epicentro: LOS SANTOS - SANTANDER                                             3
 ACTION:UPD 16-05-13 21:27 OP:cam  STATUS:               ID:20160325060107 L   I
 OLDACT:REG 16-03-25 14:25 OP:ak   STATUS:               ID:20160325055748     3
 2016-03-25-0557-48M.COL___294                                                 6
 STAT SP IPHASW D HRMM SECON CODA AMPLIT PERI AZIMU VELO AIN AR TRES W  DIS CAZ7
 PAM  EZ EP   2    6 1 29.33                             150    0.35 5 78.9  41 
 PAM  EN ES        6 1 45.99                             150   -0.0710 78.9  41 
 PAM  EZ I         6 1 48.50         2.9 0.64            150           78.9  41 
 RUS  HZ EP        6 1 30.38                             143   -0.1210  101 174 
 RUS  HE ES        6 1 48.90                             143    0.1210  101 174 
 RUS  HZ I         6 1 49.70         0.7 0.30            147            101 174 
 PTB  HZ EP        6 1 33.47                             132   -0.02 9  145 258 
 PTB  HE ES        6 1 53.99                             132   -0.10 9  145 258 
 PTB  HZ I         6 1 55.23         0.9 0.07            132            145 258 
 ZAR  HE ES        6 2  4.00                             122    0.12 9  201 292 
 ZAR  HZ I         6 2 11.09         1.9 0.46            122            201 292 
                                                                                
