 2015  625 0027  2.1 L   6.819 -73.109145.4  RSN 12 0.4 2.1LRSN                1
 GAP=187        0.99       2.8     5.3  5.8  0.1544E+01  0.9680E+01  0.2475E+01E
 Epicentro: LOS SANTOS - SANTANDER                                             3
 ACTION:UPD 15-09-10 22:14 OP:cam  STATUS:               ID:20150625002702 L   I
 OLDACT:UP  15-06-25 13:03 OP:mh   STATUS:               ID:20150625001748     3
 OLDACT:UP  15-06-25 13:03 OP:mh   STATUS:               ID:20150625001748     3
 OLDACT:UP  15-06-25 13:03 OP:mh   STATUS:               ID:20150625001748     3
 OLDACT:REG 15-06-25 12:02 OP:mh   STATUS:               ID:20150625001748     3
 2015-06-25-0017-48M.COL___319                                                 6
 STAT SP IPHASW D HRMM SECON CODA AMPLIT PERI AZIMU VELO AIN AR TRES W  DIS CAZ7
 BAR2 EZ EP        027 21.94                             169    0.1610 26.4 198 
 BAR2 EZ ES        027 36.75                             169   -0.3610 26.4 198 
 BAR2 EZ I         027 39.36        18.8 0.18            166           26.4 198 
 BRR  HZ EP        027 24.07                             152    0.6810 73.8 296 
 BRR  HN ES        027 40.75                             152    0.7810 73.8 296 
 BRR  HZ I         027 44.44        16.0 0.24            148           73.8 296 
 RUS  HZ EP        027 25.77                             143   -0.2110  103 178 
 RUS  HN ES        027 44.60                             143    0.0110  103 178 
 RUS  HZ I         027 45.68        13.3 0.34            145            103 178 
 OCA  HN ES        027 51.92                             130   -0.29 9  159 352 
 OCA  HZ I         027 56.51        23.3 0.28            131            159 352 
 ZAR  HN ES   1    028  0.15                             122   -0.24 6  207 291 
 ZAR  HZ I         028  5.91        10.1 0.30            122            207 291 
 NOR  HZ EP   1    027 38.47                             118    0.15 6  239 235 
 NOR  HN ES        028  5.79                             118   -0.76 8  239 235 
 NOR  HZ I         028 12.24        10.2 0.20            118            239 235 
 SML  HZ EP        027 38.08                             117   -0.63 8  244 334 
 SML  HN ES        028  6.94                             117   -0.31 8  244 334 
 SML  HZ I         028  9.68        11.3 0.26            118            244 334 
 CHI  HZ EP        027 40.12                             117   -0.02 8  252 196 
 CHI  HN ES        028  9.42                             117   -0.38 8  252 196 
 CHI  HZ I         028 12.95         5.8 0.40            118            252 196 
 HEL  HZ EP        027 43.38                             114    0.57 7  277 256 
 HEL  HN ES        028 14.17                             114   -0.38 7  277 256 
 HEL  HZ I         028 20.49         5.5 0.60            115            277 256 
 GUY2CHZ EP   1    027 46.52                             112    0.29 5  306 235 
 GUY2CHN ES   4    028 23.99                             112    3.36 0  306 235 
 GUY2CHZ I         028 26.92         5.1 0.30                           306 235 
 TOL  SZ EP   1    027 51.39                             109    0.52 5  348 225 
 PRA  HZ EP   1    027 56.22                             106    0.14 4  396 210 
 PRA  HN ES        028 38.76                             106    0.59 6  396 210 
 PRA  HZ I         028 44.49         3.5 0.30            107            396 210 
                                                                                
