 2014  225 0834  6.8 L   6.809 -73.185143.3  RSN  5 0.2 1.4LRSN                1
 GAP=144        0.44       2.2     2.5  3.6 -0.1652E+01  0.2332E+01  0.4524E+00E
 Epicentro: ZAPATOCA - SANTANDER                                               3
 ACTION:UPD 14-03-10 08:13 OP:ep   STATUS:               ID:20140225083406 L   I
 OLDACT:DUP 14-02-25 13:28 OP:stll STATUS:               ID:20140225082806d    3
 2014-02-25-0828-05M.COL___229                                                 6
 STAT SP IPHASW D HRMM SECON CODA AMPLIT PERI AZIMU VELO AIN AR TRES W  DIS CAZ7
 BAR2 SZ EP        834 26.12                             170    0.0210 23.9 179 
 BAR2 SZ I         834 26.49         9.6 0.30            169           23.9 179 
 BAR2 SZ ES        834 41.19                             170   -0.0110 23.9 179 
 PAM  SZ EP        834 28.92                             150    0.0810 79.5  42 
 PAM  SN ES        834 45.90                             150   -0.1710 79.5  42 
 PAM  SZ I         834 48.04         5.6 0.50            155           79.5  42 
 RUS  HZ EP        834 30.38                             143    0.0210  102 174 
 RUS  HN ES        834 49.01                             143    0.2310  102 174 
 RUS  HZ I         834 50.56         3.2 0.28            145            102 174 
 PTB  HZ EP        834 33.24                             132    0.09 9  144 258 
 PTB  HN ES        834 53.72                             132   -0.02 9  144 258 
 PTB  HZ I         835  1.32         2.6 0.42            132            144 258 
 CHI  HN ES        835 13.22                             117   -0.36 8  248 194 
 CHI  HZ I         835 17.23         1.3 0.72            118            248 194 
                                                                                
