 2011  625 0452  6.4 L   6.779 -73.065139.1  RSN  6 0.4 1.4LRSN                1
 GAP=168        0.89       7.2    13.7  8.9  0.1025E+02 -0.4619E+02 -0.7055E+01E
 Epicentro: LOS SANTOS - SANTANDER                                             3
 ACTION:UP  11-07-14 19:07 OP:ep   STATUS:               ID:20110625045206 L   I
 2011-06-25-0440-00M.COL___124                                                 6
 STAT SP IPHASW D HRMM SECON CODA AMPLIT PERI AZIMU VELO SNR AR TRES W  DIS CAZ7
 BAR2 SZ EP        452 25.24                             170     0.010   24 212 
 BAR2 SZ ES   1    452 39.70                             170    -0.2 7   24 212 
 BAR2 SZ I         452 44.07         7.9 0.68                            24 212 
 BTL  SZ EP        452 25.57                             169     0.310   27 305 
 BTL  SZ ES   2    452 41.00                             169     1.0 5   27 305 
 GIR2 SZ EP        452 25.42                             165     0.010   36 337 
 GIR2 SZ ES   2    452 39.05                             165    -1.2 5   36 337 
 BRR  HZ EP        452 27.00                             148    -0.310   80 297 
 BRR  HZ I         452 27.27         6.4 0.20                            80 297 
 BRR  HN ES   2    452 44.02                             148     0.3 5   80 297 
 RUS  HZ EP        452 29.24                             143     0.010   98 181 
 GRA  SZ EP        452 31.07                             135     0.110  126  13 
 GRA  SZ I         452 54.41         1.8 0.41                           126  13 
                                                                                
