 2016 1125 0743 19.4 L   6.768 -73.113147.5  RSN  7 0.3 1.6LRSN                1
 GAP=123        0.64       3.0     3.2  4.0  0.6567E+00  0.3849E+00  0.4026E+01E
 Epicentro: LOS SANTOS - SANTANDER                                             3
 ACTION:UPD 17-10-26 21:11 OP:lp   STATUS:               ID:20161125074319 L   I
 OLDACT:UP  16-11-25 17:40 OP:edw  STATUS:               ID:20161125073743     3
 OLDACT:UP  16-11-25 17:39 OP:edw  STATUS:               ID:20161125073743     3
 OLDACT:REG 16-11-25 13:08 OP:edw  STATUS:               ID:20161125073743     3
 2016-11-25-0738-00M.COL___349                                                 6
 STAT SP IPHASW D HRMM SECON CODA AMPLIT PERI AZIMU VELO AIN AR TRES W  DIS CAZ7
 BAR2 EZ EP        743 39.25                             172    0.0710 20.9 202 
 BAR2 EZ ES        743 54.45                             172   -0.1610 20.9 202 
 BAR2 EZ I         743 57.00        12.3 0.30            172           20.9 202 
 BRR  HZ EP        743 41.10                             151    0.1010 76.1 300 
 BRR  HN ES        743 58.08                             151    0.2210 76.1 300 
 BRR  HZ I         744  2.03         6.9 0.26            151           76.1 300 
 PAM  EZ EP        743 42.13                             151    0.3110 78.0  36 
 PAM  EN ES        743 59.15                             151   -0.1710 78.0  36 
 PAM  EZ I         744  2.28         5.3 0.21            152           78.0  36 
 PTB  HZ EP   9    743 45.96                             132   -0.80 0  151 260 
 PTB  HN ES        744  7.52                             133    0.21 9  151 260 
 PTB  HZ I         744  9.54         3.7 0.16            133            151 260 
 ZAR  HZ EP        743 52.33                             122   -0.10 8  209 293 
 ZAR  HN ES        744 17.79                             122   -0.41 8  209 293 
 ZAR  HZ I         744 22.35         4.2 0.34            123            209 293 
 CHI  HZ EP        743 57.31                             118    0.40 8  246 196 
 CHI  HN ES        744 26.21                             118    0.03 8  246 196 
 PTGC HZ EP        744  2.25                             112   -0.55 7  304 159 
 PTGC HN ES   4    744 35.94                             112   -0.71 0  304 159 
 SJC  HZ EP   4    744 13.28                             106   -2.31 0  414 327 
 SJC  HN ES   4    744 53.98                             106   -5.44 0  414 327 
                                                                                
