 2012  125 0157 54.8 L   6.756 -73.097153.6  RSN  4 0.2 1.4LRSN                1
 GAP=196        0.44       5.8     6.7  6.8  0.3285E+01  0.1188E+02  0.9224E+00E
 Epicentro: LOS SANTOS - SANTANDER                                             3
 ACTION:UP  12-02-03 08:20 OP:REBC STATUS:               ID:20120125015754 L   I
 2012-01-25-0150-00M.COL___188                                                 6
 STAT SP IPHASW D HRMM SECON CODA AMPLIT PERI AZIMU VELO SNR AR TRES W  DIS CAZ7
 GIR2 SZ EP   2    158 15.45                             166    -0.1 5   37 343 
 GIR2 SZ ES   2    158 31.44                             166    -0.3 5   37 343 
 BRR  HZ EP   1    158 17.30                             152     0.1 7   78 300 
 BRR  HZ I         158 31.24         8.4 0.43                            78 300 
 BRR  HN ES   2    158 35.09                             152     0.4 5   78 300 
 RUS  HE ES   2    158 37.95                             147     0.1 5   95 179 
 RUS  HZ I         158 40.16         1.9 0.51                            95 179 
 PTB  HZ EP   1    158 22.79                             133     0.0 7  152 261 
 PTB  HN ES   2    158 44.38                             133    -0.3 5  152 261 
                                                                                
