 2010 1025 0622 16.8 L   6.779 -73.081138.1  RSN  7 0.4 2.0LRSN                1
 GAP=243        0.77       6.1     8.8  6.9  0.1757E+02  0.1940E+02  0.1186E+02E
 Epicentro: LOS SANTOS - SANTANDER                                             3
 ACTION:UP  11-02-18 11:12 OP:tino STATUS:               ID:20101025062216 L   I
 2010-10-25-0619-00S.MAN___115                                                 6
 STAT SP IPHASW D HRMM SECON CODA AMPLIT PERI AZIMU VELO SNR AR TRES W  DIS CAZ7
 BAR2 SZ EP        622 35.38                             169    -0.110   24 209 
 BAR2 SZ ES   1    622 49.93                             169    -0.1 7   24 209 
 BAR2 SZ I         622 52.43        34.2 0.29                            24 209 
 BRR  HZ IP     C  622 37.32                             149    -0.210   79 298 
 BRR  HZ I         622 37.69        36.4 0.11                            79 298 
 BRR  HE ES   1    622 54.24                             149     0.5 7   79 298 
 RUS  HZ EP   1    622 39.35                             143    -0.2 7   98 180 
 RUS  HE ES   1    622 57.66                             143     0.3 7   98 180 
 RUS  HZ I         622 59.36        11.7 0.40                            98 180 
 NOR  SZ EP   2    622 51.78                             116    -0.8 4  239 236 
 NOR  SN ES   2    623 19.58                             116    -0.9 4  239 236 
 HEL  HZ EP   2    622 57.76                             113     0.5 4  278 257 
 HEL  HZ I         623 34.52         4.4 0.28                           278 257 
 RREF HZ EP   2    623  3.58                             109     0.6 3  326 231 
 RREF HZ I         623 48.26         3.5 0.31                           326 231 
 PRA  HZ EP        623 10.66                             105     0.5 6  394 211 
 PRA  HE ES   2    623 52.30                             105     0.4 3  394 211 
                                                                                
