 2016  525 0541 48.6 L   6.785 -73.160147.2  RSN 10 0.4 1.7LRSN                1
 GAP=135        0.91       2.8     4.0  5.4 -0.1030E+01  0.5225E+01  0.1518E+01E
 Epicentro: LOS SANTOS - SANTANDER                                             3
 ACTION:UPD 16-08-18 17:49 OP:cam  STATUS:               ID:20160525054148 L   I
 OLDACT:REG 16-05-25 12:52 OP:mh   STATUS:               ID:20160525053749     3
 2016-05-25-0537-49M.COL___310                                                 6
 STAT SP IPHASW D HRMM SECON CODA AMPLIT PERI AZIMU VELO AIN AR TRES W  DIS CAZ7
 BAR2 EZ EP        542  8.48                             171    0.1410 21.4 187 
 BAR2 EZ ES        542 24.25                             171    0.4910 21.4 187 
 BAR2 EZ I         542 26.34        13.8 0.39            171           21.4 187 
 BRR  HZ EP        542 10.14                             153    0.2910 70.7 300 
 BRR  HE ES        542 27.02                             153    0.5710 70.7 300 
 BRR  HZ I         542 30.79         9.2 0.20            153           70.7 300 
 PAM  EZ EP        542 11.34                             150    0.2610 79.7  40 
 PAM  EN ES        542 28.36                             150   -0.2710 79.7  40 
 PAM  EZ I         542 31.52         7.4 0.27            154           79.7  40 
 RUS  HZ EP        542 12.14                             145   -0.2210 99.0 175 
 RUS  HN ES        542 30.52                             145   -0.3910 99.0 175 
 RUS  HZ I         542 32.43         6.2 0.24            147           99.0 175 
 PTB  HZ EP   1    542 15.22                             133   -0.27 7  146 259 
 PTB  HN ES   1    542 36.10                             133   -0.39 7  146 259 
 PTB  HZ I         542 38.42         5.3 0.14            134            146 259 
 SPBC HZ EP        542 17.43                             130    0.46 9  161 219 
 SPBC HN ES        542 38.66                             130   -0.46 9  161 219 
 SPBC HZ I         542 42.22         7.8 0.22            131            161 219 
 OCA  HZ EP   1    542 17.21                             130    0.08 7  162 354 
 OCA  HN ES        542 38.87                             130   -0.54 9  162 354 
 OCA  HZ I         542 42.07         9.7 0.14            132            162 354 
 ZAR  HZ EP        542 20.78                             123   -0.25 9  203 293 
 ZAR  HN ES        542 46.24                             123   -0.11 9  203 293 
 ZAR  HZ I         542 51.39         6.9 0.26            124            203 293 
 CHI  HZ EP   1    542 26.36                             118    0.23 6  247 195 
 CHI  HN ES   1    542 54.86                             118   -0.57 6  247 195 
 CHI  HZ I         543  2.28         3.4 0.19            120            247 195 
 PRA  HE ES        543 24.18                             107    0.71 6  390 209 
                                                                                
