 2016  825 0427 58.9 L   6.805 -73.132142.1  RSN 15 0.5 1.7LRSN                1
 GAP=120        1.25       3.5     4.3  5.9 -0.4060E+01  0.5960E+01  0.1789E+01E
 Epicentro: LOS SANTOS - SANTANDER                                             3
 ACTION:UPD 16-10-29 15:39 OP:rebc STATUS:               ID:20160825042758 L   I
 OLDACT:REG 16-08-25 12:31 OP:ak   STATUS:               ID:20160825041727     3
 2016-08-25-0418-00M.COL___380                                                 6
 STAT SP IPHASW D HRMM SECON CODA AMPLIT PERI AZIMU VELO AIN AR TRES W  DIS CAZ7
 BAR2 EZ IP     C  428 18.36                             170    0.2410 24.2 193 
 BAR2 EZ ES        428 33.29                             170    0.1810 24.2 193 
 BAR2 EZ I         428 34.54        14.4 0.35                          24.2 193 
 BRR  HZ IP     C  428 20.24                             152    0.5110 72.2 298 
 BRR  HN ES        428 36.89                             152    0.9310 72.2 298 
 BRR  HZ I         428 42.12        10.1 0.10                          72.2 298 
 PAM  EZ EP        428 21.23                             151    0.5710 76.0  39 
 PAM  EN ES        428 37.85                             151    0.2410 76.0  39 
 PAM  EZ I         428 38.75         7.5 0.34                          76.0  39 
 RUS  HZ EP        428 21.91                             143   -0.4410  101 177 
 RUS  HN ES        428 40.11                             143   -0.5110  101 177 
 RUS  HZ I         428 42.02         5.8 0.28                           101 177 
 PTB  HZ EP        428 25.44                             131   -0.29 9  149 259 
 PTB  HN ES        428 45.83                             131   -0.82 9  149 259 
 PTB  HZ I         428 48.31         7.8 0.12                           149 259 
 OCA  HZ EP        428 26.27                             129   -0.64 9  160 353 
 OCA  HN ES        428 48.02                             129   -0.72 9  160 353 
 SPBC HZ EP        428 27.40                             128    0.13 9  165 219 
 SPBC HN ES        428 49.16                             128   -0.23 9  165 219 
 SPBC HZ I         428 51.73         5.5 0.16                           165 219 
 ZAR  HZ EP        428 32.00                             121    0.75 8  205 292 
 ZAR  HE ES        428 56.16                             121   -0.30 8  205 292 
 ZAR  HZ I         429  5.22         8.1 0.18                           205 292 
 NOR  HZ EP        428 34.45                             118   -0.16 8  236 235 
 NOR  HE ES        429  1.61                             118   -0.83 8  236 235 
 NOR  HZ I         429  9.27         4.3 0.22                           236 235 
 CHI  HZ EP   3    428 37.39                             116    0.87 2  250 195 
 CHI  HN ES        429  6.23                             116    0.38 8  250 195 
 HEL  HZ EP        428 39.06                             114   -0.06 8  274 256 
 HEL  HN ES   4    429 11.97                             114    1.49 0  274 256 
 HEL  HZ I         429 17.89         3.8 0.30                           274 256 
 SOCV BZ EP        428 40.92                             112   -0.70 7  300  57 
 SOCV BN ES   4    429 12.98                             112   -1.95 0  300  57 
 GUY2CHZ EP        428 43.32                             111    0.78 7  303 235 
 GUY2CHE ES        429 16.16                             111   -0.40 7  303 235 
 GUY2CHZ I         429 25.94         2.4 0.70                           303 235 
 CBOC HZ EP        428 45.74                             109   -0.13 7  335 252 
 CBOC HE ES        429 23.42                             109    0.93 7  335 252 
 CBOC HZ I         429 38.14         1.0 0.56                           335 252 
 PRA  HZ EP        428 53.13                             106    0.67 6  393 210 
 PRA  HE ES        429 34.58                             106    0.36 6  393 210 
 PRA  HZ I         429 39.74         1.6 0.50                           393 210 
                                                                                
