 2012  925 0514  1.1 L   6.759 -73.159143.2  RSN  8 0.4 1.8LRSN                1
 GAP=137        0.81       4.6     4.1  7.6 -0.6603E+00  0.5160E+01  0.2999E+00E
 Epicentro: LOS SANTOS - SANTANDER                                             3
 ACTION:UPD 12-10-22 14:20 OP:ep   STATUS:               ID:20120925051401 L   I
 2012-09-25-0510-00M.COL___220                                                 6
 STAT SP IPHASW D HRMM SECON CODA AMPLIT PERI AZIMU VELO AIN AR TRES W  DIS CAZ7
 BAR2 SZ EP        514 20.20                             172   -0.1710 18.7 188 
 BAR2 SZ I         514 33.13         4.6 0.10                          18.7 188 
 BAR2 SZ ES   1    514 35.02                             172   -0.35 7 18.7 188 
 BRR  HZ EP        514 22.42                             152    0.3610 72.2 302 
 BRR  HN ES   1    514 39.20                             152    0.82 7 72.2 302 
 BRR  HN I         514 39.73        30.5 0.16                          72.2 302 
 PAM  SZ EP        514 23.38                             149    0.0310 81.8  38 
 PAM  SN ES   1    514 40.23                             149   -0.44 7 81.8  38 
 PAM  SN I         514 41.45        19.4 0.50                          81.8  38 
 RUS  HZ EP   1    514 24.21                             145   -0.11 7 96.2 175 
 RUS  HE ES   1    514 42.71                             145    0.31 7 96.2 175 
 PTB  HN ES   1    514 47.87                             132   -0.52 7  145 260 
 PTB  HN I         514 51.28         8.7 0.20                           145 260 
 ZAR  HN ES   1    514 58.58                             122   -0.08 6  204 293 
 ZAR  HN I         514 59.85         8.8 0.12                           204 293 
 CHI  HN ES   2    515  7.63                             117    0.56 4  244 195 
 HEL  HN ES   1    515 11.51                             114   -0.47 6  270 257 
 HEL  HN I         515 18.27         1.9 0.22                           270 257 
                                                                                
