 2015  825 0919 42.6 L   6.761 -73.149134.5  RSN  9 0.4 1.8LRSN                1
 GAP=182        1.01       2.8     4.8  5.8  0.1361E+01  0.8609E+01 -0.2758E+00E
 Epicentro: LOS SANTOS - SANTANDER                                             3
 ACTION:UPD 15-09-15 23:05 OP:cam  STATUS:               ID:20150825091942 L   I
 OLDACT:REG 15-08-25 13:46 OP:ak   STATUS:               ID:20150825091741     3
 2015-08-25-0917-41M.COL___334                                                 6
 STAT SP IPHASW D HRMM SECON CODA AMPLIT PERI AZIMU VELO AIN AR TRES W  DIS CAZ7
 BAR2 EZ EP        920  1.04                             172    0.2310 19.0 191 
 BAR2 EZ ES        920 14.89                             172   -0.1110 19.0 191 
 BAR2 EZ I         920 16.03        11.4 0.26            173           19.0 191 
 BRR  HZ EP     C  920  3.03                             150    0.3510 73.1 302 
 BRR  HN ES        920 18.96                             150    0.6410 73.1 302 
 BRR  HZ I         920 21.41         9.1 0.15            150           73.1 302 
 RUS  HZ EP        920  5.07                             143    0.1110 96.3 176 
 RUS  HN ES        920 22.19                             143   -0.1910 96.3 176 
 RUS  HZ I         920 24.32        14.6 0.32            146           96.3 176 
 OCA  HZ EP        920 10.85                             126    0.35 9  165 353 
 OCA  HN ES        920 32.10                             126   -0.14 9  165 353 
 OCA  HZ I         920 36.77        18.7 0.27            128            165 353 
 ZAR  HZ EP        920 14.31                             120   -0.19 8  205 293 
 ZAR  HN ES        920 38.68                             120   -0.69 8  205 293 
 ZAR  HZ I         920 44.06        10.5 0.34            121            205 293 
 CHI  HZ EP        920 18.72                             115   -0.53 8  244 195 
 CHI  HN ES        920 47.20                             115   -0.62 8  244 195 
 SML  HZ EP        920 18.89                             115   -0.17 8  247 336 
 SML  HN ES        920 46.73                             115   -0.75 8  247 336 
 HEL  HZ EP        920 22.70                             113    0.57 8  271 257 
 HEL  HN ES        920 52.87                             113   -0.08 8  271 257 
 GUY2CHZ EP   1    920 26.34                             110    0.92 5  298 235 
 GUY2CHN ES        920 59.16                             110    0.36 7  298 235 
 GUY2CHZ I         921  4.80         2.0 0.32                           298 235 
                                                                                
