 2015  425 0415 36.1 L   6.772 -73.124153.4  RSN  5 0.3 1.5LRSN                1
 GAP=202        0.80       8.4     9.5  6.5  0.6343E+02 -0.1341E+01 -0.1271E+02E
 Epicentro: LOS SANTOS - SANTANDER                                             3
 ACTION:UPD 15-06-03 16:57 OP:cam  STATUS:               ID:20150425041536 L   I
 OLDACT:DUP 15-04-25 16:14 OP:cam\ STATUS:               ID:20150425040737d    3
 OLDACT:UP  15-04-25 16:14 OP:cam  STATUS:               ID:20150425040736     3
 OLDACT:REG 15-04-25 14:05 OP:ak   STATUS:               ID:20150425040736     3
 2015-04-25-0407-36M.COL___271                                                 6
 STAT SP IPHASW D HRMM SECON CODA AMPLIT PERI AZIMU VELO AIN AR TRES W  DIS CAZ7
 BAR2 EZ EP        415 56.52                             172   -0.0910 20.9 198 
 BAR2 EZ ES        416 12.13                             172   -0.4810 20.9 198 
 BAR2 EZ I         416 12.87         4.5 0.38            163           20.9 198 
 BRR  HZ IP     C  415 58.41                             153    0.1310 74.8 300 
 BRR  HN ES        416 16.14                             153    0.5510 74.8 300 
 BRR  HN I         416 16.76        12.7 0.20            147           74.8 300 
 RUS  HZ EP   1    416  0.75                             146    0.35 7 97.4 177 
 RUS  HN ES        416 19.33                             146   -0.0110 97.4 177 
 RUS  HZ I         416 20.10         2.4 0.26            143           97.4 177 
 ZAR  HZ EP        416  9.47                             123    0.06 8  207 293 
 ZAR  HE ES        416 35.00                             123   -0.38 8  207 293 
 ZAR  HZ I         416 41.59         4.8 0.30            121            207 293 
 SML  HZ EP   2    416 13.16                             118   -0.42 4  248 335 
                                                                                
