 2010  925 0050 39.4 L   6.768 -73.103155.2  RSN  7 0.3 1.6LRSN                1
 GAP=164        0.61       3.2     6.1  5.5 -0.4615E+01 -0.1370E+01 -0.3047E+01E
 Epicentro: LOS SANTOS - SANTANDER                                             3
 ACTION:UP  11-02-18 11:05 OP:tino STATUS:               ID:20100925005039 L   I
 2010-09-25-0047-35S.COL___120                                                 6
 STAT SP IPHASW D HRMM SECON CODA AMPLIT PERI AZIMU VELO SNR AR TRES W  DIS CAZ7
 BAR2 SZ EP   1    051  0.11                             172     0.0 7   21 205 
 BAR2 SZ ES   1    051 16.20                             172    -0.1 7   21 205 
 BAR2 SZ I         051 18.14        15.2 0.41                            21 205 
 BRR  HZ EP   1    051  2.13                             152     0.3 7   77 299 
 BRR  HE ES   1    051 19.41                             152     0.0 7   77 299 
 BRR  HZ I         051 22.68        14.8 0.16                            77 299 
 RUS  HZ EP   1    051  3.94                             147     0.1 7   97 179 
 RUS  HE ES   1    051 22.86                             147     0.0 7   97 179 
 RUS  HZ I         051 24.62         4.9 0.33                            97 179 
 GUE  SZ EP   1    051  4.59                             141    -0.6 7  119   9 
 GUE  SZ I         051  6.60         1.6 0.15                           119   9 
 GRA  SZ EP   1    051  5.96                             138     0.3 7  128  15 
 GRA  SZ ES   1    051 25.90                             138    -0.2 7  128  15 
 GRA  SZ I         051 28.27         7.3 0.21                           128  15 
 OCA  SZ EP   1    051  8.84                             131     0.0 7  164 352 
 OCA  SZ ES   2    051 32.22                             131     0.5 5  164 352 
 OCA  SZ I         051 35.48         9.6 0.33                           164 352 
 NOR  SZ EP   2    051 15.39                             120    -0.5 4  237 236 
 NOR  SE ES   2    051 44.36                             120     0.0 4  237 236 
 NOR  SZ I         051 48.38         1.4 0.17                           237 236 
                                                                                
