 2010  325 0717  1.7 L   6.843 -73.066145.5  RSN 13 0.4 3.2LRSN                1
 GAP=131        0.80       3.4     5.4  5.3 -0.3012E+01  0.2083E+01  0.4902E+00E
 Epicentro: LOS SANTOS - SANTANDER                                             3
 ACTION:UP  10-08-24 09:55 OP:vdl  STATUS:               ID:20100325071701 L   I
 2010-03-25-0715-01S.COL___098                                                 6
 STAT SP IPHASW D HRMM SECON CODA AMPLIT PERI AZIMU VELO SNR AR TRES W  DIS CAZ7
 BAR2 SZ IP        717 21.46                             168     0.010   31 205 
 BAR2 SZ ES   1    717 36.91                             168     0.0 7   31 205 
 BRR  HZ IP        717 23.35                             150     0.110   77 292 
 BRR  HE ES   1    717 40.31                             150     0.4 7   77 292 
 BRR  HZ I         717 44.47       209.6 0.14                            77 292 
 RUS  HZ IP        717 25.48                             143    -0.310  105 181 
 RUS  HE ES   1    717 44.40                             143    -0.2 7  105 181 
 RUS  HZ I         717 46.05       138.1 0.31                           105 181 
 OCA  SZ EP        717 29.82                             130     0.1 9  157 350 
 OCA  SZ ES   1    717 51.26                             130    -0.3 7  157 350 
 OCA  SZ I         717 54.88       296.3 0.18                           157 350 
 CHI  HZ EP   1    717 39.83                             116    -0.4 6  256 197 
 CHI  HZ I         718 13.05        53.8 0.41                           256 197 
 ROSC BZ EP   1    717 41.40                             116     0.6 6  261 212 
 ROSC BN ES   2    718 11.56                             116     0.3 4  261 212 
 ROSC BZ I         718 16.06        89.4 0.36                           261 212 
 HEL  HZ EP   2    717 43.33                             114     0.3 4  282 255 
 HEL  HE ES   2    718 14.79                             114    -0.4 4  282 255 
 HEL  HZ I         718 20.57        72.5 0.60                           282 255 
 RREF BZ EP        717 49.59                             110     0.6 7  332 230 
 RREF BE ES   2    718 26.48                             110     0.6 3  332 230 
 RREF BZ I         718 31.36        48.4 0.44                           332 230 
 DBB  SZ EP        717 49.38                             109    -0.8 6  348 273 
 SDV  BZ EP        717 51.01                             109     0.4 6  351  50 
 SDV  BZ I         717 51.90        44.4 0.15                           351  50 
 TOL  SZ EP   2    717 50.25                             109    -0.8 3  353 225 
 ANIL BZ EP   2    717 52.06                             108    -0.6 3  367 225 
 ANIL BZ I         718 37.90       110.5 0.32                           367 225 
 PRA  HN ES   2    718 38.78                             106     0.0 3  400 210 
 PRA  HZ I         718 42.18        65.8 0.43                           400 210 
                                                                                
