 2017 1025 0807 50.8 L   6.785 -73.146145.3  RSN  6 0.5 1.3LRSN                1
 GAP=236        1.24       6.8     7.9  8.7  0.2375E+02  0.1273E+02 -0.7698E+00E
 Epicentro: LOS SANTOS - SANTANDER                                             3
 ACTION:UPD 17-11-07 19:36 OP:rebc STATUS:               ID:20171025080750 L   I
 OLDACT:REG 17-10-25 13:29 OP:dani STATUS:               ID:20171025075741     3
 2017-10-25-0758-00M.COL___428                                                 6
 STAT SP IPHASW D HRMM SECON CODA AMPLIT PERI AZIMU VELO AIN AR TRES W  DIS CAZ7
 BAR2 EZ EP        8 8  9.96                             171   -0.3410 21.7 191 
 BAR2 EZ ES        8 8 25.13                             171   -0.4110 21.7 191 
 BAR2 EZ I         8 8 26.15        10.4 0.24            166           21.7 191 
 BRR  HZ EP        8 8 11.81                             152   -0.0910 71.9 300 
 BRR  HE ES        8 8 28.86                             152    0.4810 71.9 300 
 BRR  HZ I         8 8 32.98         4.8 0.48            148           71.9 300 
 RUS  HZ EP     D  8 8 14.04                             144   -0.3110 98.9 176 
 RUS  HE ES        8 8 33.33                             144    0.5910 98.9 176 
 RUS  HZ I         8 8 34.34         1.5 0.19            145           98.9 176 
 PTB  HZ EP   1    8 8 16.93                             132   -0.72 7  147 259 
 PTB  HN ES   1    8 8 37.38                             132   -1.25 7  147 259 
 PTB  HZ I         8 8 43.62         1.5 0.32            130            147 259 
 SPBC HZ EP        8 8 19.27                             129    0.17 9  162 219 
 SPBC HE ES        8 8 41.49                             129    0.29 9  162 219 
 SPBC HZ I         8 8 46.05         2.2 0.09            128            162 219 
 ZAR  HZ EP        8 8 24.05                             122    0.82 9  205 293 
 ZAR  HN ES        8 8 48.65                             122    0.09 9  205 293 
 ZAR  HZ I         8 8 54.77         2.8 0.33            122            205 293 
                                                                                
