 2017  125 0719 56.6 L   6.787 -73.148145.7  RSN 18 0.5 2.4LRSN                1
 GAP= 72        1.02       3.3     2.9  4.7  0.4019E+00  0.4156E+01  0.2131E+01E
 Epicentro: LOS SANTOS - SANTANDER                                             3
 ACTION:UPD 17-05-22 16:03 OP:jn   STATUS:               ID:20170125071956 L   I
 OLDACT:UP  17-01-25 17:06 OP:lv   STATUS:               ID:20170125071740     3
 OLDACT:REG 17-01-25 13:04 OP:lv   STATUS:               ID:20170125071740     3
 2017-01-25-0718-00M.COL___349                                                 6
 STAT SP IPHASW D HRMM SECON CODA AMPLIT PERI AZIMU VELO AIN AR TRES W  DIS CAZ7
 BAR2 EZ EP        720 16.10                             171   -0.1010 21.9 190 
 BAR2 EZ ES        720 31.72                             171    0.2410 21.9 190 
 BAR2 EZ I         720 33.44        62.1 0.26            167           21.9 190 
 BRR  HZ IP     C  720 18.09                             152    0.3210 71.6 300 
 BRR  HE ES        720 34.90                             152    0.6210 71.6 300 
 BRR  HZ I         720 37.13        87.1 0.14            149           71.6 300 
 PAM  EZ IP     C  720 19.16                             150    0.2710 78.7  39 
 PAM  EN ES        720 36.28                             150    0.0110 78.7  39 
 PAM  EZ I         720 38.83        51.9 0.68            154           78.7  39 
 RUS  HZ EP        720 19.97                             144   -0.2810 99.2 176 
 RUS  HN ES        720 38.11                             144   -0.5810 99.2 176 
 RUS  HZ I         720 41.35        25.6 0.22            142           99.2 176 
 PTB  HZ EP        720 22.81                             132   -0.70 9  147 259 
 PTB  HN ES        720 43.79                             132   -0.72 9  147 259 
 PTB  HZ I         720 49.79        40.4 0.32            129            147 259 
 TAM  HZ IP     D  720 24.30                             131    0.03 9  155 104 
 TAM  HN ES        720 45.74                             131   -0.10 9  155 104 
 TAM  HZ I         720 46.49        11.3 0.42            132            155 104 
 ZAR  HZ EP        720 29.49                             122    0.42 9  204 293 
 ZAR  HN ES        720 54.55                             122    0.15 9  204 293 
 ZAR  HZ I         720 59.97        43.7 0.28            121            204 293 
 CHI  HZ EP        720 34.22                             117    0.08 8  247 195 
 CHI  HN ES        721  3.43                             117    0.01 8  247 195 
 CHI  HZ I         721  8.96         6.9 0.36            116            247 195 
 ROSC BZ EP   9    720 36.45                             117    1.88 0  251 211 
 ROSC BN ES        721  5.91                                   -0.15 8  251 211 
 ROSC BZ I         721 10.99         9.0 0.35            115            251 211 
 URE  HZ EP   9    720 36.21                             113   -1.49 0  284 292 
 URE  HE ES        721  8.18                                   -0.08 7  284 292 
 URE  HZ I         721 18.16        26.3 0.22            112            284 292 
 PTGC HZ EP   4    720 38.85                             112   -1.47 0  307 159 
 PTGC HN ES   4    721 11.65                             112   -2.76 0  307 159 
 PTGC HZ I         721 16.87         9.1 0.26            111            307 159 
 LL6C HZ EP   4    720 22.68                             110   -19.8 0  326 358 
 LL6C HE ES   4    720 57.88                             110   -20.3 0  326 358 
 ELA  HZ EP        720 43.87                             110    0.55 7  328 230 
 ELA  HN ES        721 20.35                             110    0.59 7  328 230 
 ELA  HZ I         721 30.78         7.9 0.38            109            328 230 
 CBOC HZ EP        720 44.19                             110    0.76 7  333 252 
 CBOC HN ES        721 19.54                             110   -0.42 7  333 252 
 CBOC HZ I         721 27.20         3.8 0.34            108            333 252 
 DBB  EZ EP        720 44.09                             109    0.03 7  339 274 
 DBB  EE ES   4    721 19.64                             109   -1.43 0  339 274 
 DBB  EZ I         721 22.98         7.2 0.36            108            339 274 
 ORTC HZ EP        720 50.93                             106    0.56 6  394 216 
 ORTC HN ES        721 32.92                             106    0.62 6  394 216 
 ORTC HZ I         721 38.64         6.8 0.32            105            394 216 
 APAC HZ EP        720 50.30                             106   -0.51 6  398 288 
 APAC HE ES        721 32.78                             106   -0.31 6  398 288 
 APAC HZ I         721 36.99         7.8 0.55            105            398 288 
 PAL  HZ EP        720 51.73                             106    0.08 6  405 239 
 PAL  HZ I         721 27.63        11.1 0.16            105            405 239 
 SJC  HZ EP        720 50.57                             106   -1.71 6  410 327 
 SJC  HN ES   4    721 31.83                             106   -3.88 0  410 327 
                                                                                
