 2014 1225 0529 45.6 L   6.827 -73.174153.2  RSN 16 0.5 2.1LRSN                1
 GAP= 69        1.12       3.2     3.2  5.9  0.4672E-01  0.3204E+01  0.1588E+01E
 Epicentro: ZAPATOCA - SANTANDER                                               3
 ACTION:UPD 15-02-10 17:07 OP:nd   STATUS:               ID:20141225052945 L   I
 OLDACT:UP  14-12-25 17:17 OP:mh   STATUS:               ID:20141225052740     3
 OLDACT:UP  14-12-25 17:17 OP:mh   STATUS:               ID:20141225052740     3
 OLDACT:UP  14-12-25 17:15 OP:mh   STATUS:               ID:20141225052740     3
 OLDACT:REG 14-12-25 13:31 OP:mh   STATUS:               ID:20141225052740     3
 2014-12-25-0527-40M.COL___289                                                 6
 STAT SP IPHASW D HRMM SECON CODA AMPLIT PERI AZIMU VELO AIN AR TRES W  DIS CAZ7
 BAR2 EZ EP        530  6.38                             170    0.1610 26.0 182 
 BAR2 EZ ES        530 22.50                             170    0.2410 26.0 182 
 BAR2 EZ I         530 24.09        16.2 0.14            168           26.0 182 
 BRR  HZ IP     D  530  8.24                             155    0.8610 67.0 298 
 BRR  HN ES        530 25.11                             155    0.7810 67.0 298 
 BRR  HZ I         530 29.97        26.4 0.85            152           67.0 298 
 PAM  SZ EP        530  9.14                             152    0.5010 77.2  43 
 PAM  SN ES   1    530 26.38                             152   -0.20 7 77.2  43 
 PAM  SZ I         530 27.57        16.9 0.35            158           77.2  43 
 RUS  HZ EP        530 10.20                             144   -0.1510  104 174 
 RUS  HN ES   1    530 28.97                             144   -0.66 7  104 174 
 RUS  HZ I         530 32.82         6.8 2.85            146            104 174 
 PTB  HZ EP        530 12.82                             134   -0.19 9  145 257 
 PTB  HN ES        530 34.27                             134   -0.08 9  145 257 
 PTB  HZ I         530 40.68        16.3 0.50            133            145 257 
 OCA  HZ EP        530 13.99                             132   -0.25 9  157 354 
 OCA  HN ES        530 35.84                             132   -0.70 9  157 354 
 OCA  HZ I         530 42.85         8.7 0.28            134            157 354 
 TAM  HZ EP        530 14.55                             131    0.29 9  159 106 
 TAM  HE ES        530 35.94                             131   -0.65 9  159 106 
 TAM  HZ I         530 36.66        13.7 0.48            137            159 106 
 SPBC HZ EP        530 15.40                             131    0.65 9  164 217 
 SPBC HN ES        530 36.90                             131   -0.56 9  164 217 
 SPBC HZ I         530 43.85        18.8 0.10            131            164 217 
 ZAR  HZ EP        530 17.82                             125   -0.35 9  200 292 
 ZAR  HN ES        530 43.57                             125    0.02 9  200 292 
 ZAR  HZ I         530 50.64        20.7 0.46            125            200 292 
 NOR  HZ EP        530 21.63                             120   -0.10 8  234 233 
 NOR  HN ES   1    530 50.42                             120    0.55 6  234 233 
 NOR  HZ I         530 55.76        14.2 0.28            121            234 233 
 CHI  HZ EP        530 24.13                             118    0.15 8  251 194 
 CHI  HN ES        530 53.70                             118   -0.19 8  251 194 
 CHI  HZ I         531  3.44         3.4 0.32            120            251 194 
 ROSC BZ EP   4    530 26.21                             118    1.93 0  254 210 
 ROSC BN ES   1    530 54.45                             118    0.04 6  254 210 
 HEL  HZ EP   4    530 28.24                             116    2.25 0  270 255 
 HEL  HN ES   4    531  2.68                             116    5.22 0  270 255 
 HEL  HZ I         531  4.90         8.7 0.28            117            270 255 
 URE  HZ EP        530 26.85                             115    0.21 7  280 292 
 URE  HN ES        530 57.71                             115   -0.90 7  280 292 
 URE  HZ I         531 10.26         6.4 0.26            116            280 292 
 CBOC HZ EP   4    530 33.90                             111    1.26 0  332 251 
 CBOC HN ES   1    531  8.69                             111   -0.61 5  332 251 
 CBOC HZ I         531 18.66         2.8 0.60            112            332 251 
 TOL  SZ EP   4    530 36.32                             111    2.12 0  343 224 
 TOL  SN ES   4    531 14.26                             111    2.19 0  343 224 
 TOL  SZ I         531 17.37        14.5 0.32            112            343 224 
                                                                                
