 2015  125 0434 58.3 L   6.790 -73.146147.5  RSN 10 0.4 1.5LRSN                1
 GAP=137        0.83       3.0     4.0  5.5 -0.1952E+01  0.4510E+01  0.1891E+01E
 Epicentro: LOS SANTOS - SANTANDER                                             3
 ACTION:UPD 15-03-02 15:42 OP:nd   STATUS:               ID:20150125043458 L   I
 OLDACT:REG 15-01-25 12:32 OP:spq  STATUS:               ID:20150125042749     3
 2015-01-25-0427-49M.COL___271                                                 6
 STAT SP IPHASW D HRMM SECON CODA AMPLIT PERI AZIMU VELO AIN AR TRES W  DIS CAZ7
 BAR2 EZ EP   1    435 18.24                             171    0.15 7 22.2 190 
 BAR2 EZ ES   1    435 32.56                             171   -0.98 7 22.2 190 
 BAR2 EZ I         435 34.14         7.2 0.32            171           22.2 190 
 BRR  HZ EP        435 19.81                             153    0.1810 71.7 299 
 BRR  HN ES        435 36.92                             153    0.6310 71.7 299 
 BRR  HZ I         435 39.91         5.3 0.32            151           71.7 299 
 PAM  SZ EP        435 20.88                             151    0.1610 78.3  39 
 PAM  SE ES        435 38.12                             151   -0.1110 78.3  39 
 PAM  SZ I         435 40.09         5.9 0.50            153           78.3  39 
 RUS  HZ EP   1    435 21.94                             144   -0.17 7 99.5 176 
 RUS  HN ES   1    435 41.00                             144    0.29 7 99.5 176 
 RUS  HZ I         435 41.72         2.4 0.26            146           99.5 176 
 PTB  HZ EP        435 25.08                             132   -0.27 9  147 259 
 PTB  HE ES   1    435 46.28                             132   -0.20 7  147 259 
 PTB  HZ I         435 47.77         3.4 0.16            132            147 259 
 SPBC HZ EP        435 26.98                             130    0.16 9  162 219 
 SPBC HN ES        435 48.99                             130   -0.09 9  162 219 
 SPBC HZ I         435 53.46         5.8 0.20            130            162 219 
 ZAR  HN ES   1    435 55.56                             123   -0.73 6  204 292 
 ZAR  HZ I         436  1.16         4.8 0.28            123            204 292 
 SML  HZ EP   1    435 34.71                             118   -0.39 6  245 335 
 SML  HE ES   1    436  4.11                             118    0.29 6  245 335 
 SML  HZ I         436  7.53         4.1 0.22            118            245 335 
 CHI  HZ EP   1    435 35.67                             118   -0.28 6  248 195 
 CHI  HN ES   1    436  5.70                             118    0.36 6  248 195 
 CHI  HZ I         436  9.04         2.4 0.44            119            248 195 
 GUY2CHZ EP   4    435 43.34                             113    1.46 0  300 235 
 GUY2CHE ES   1    436 16.32                             113    0.42 5  300 235 
 GUY2CHZ I         436 24.23         1.3 0.34                           300 235 
                                                                                
