 2014 1225 0916 36.3 L   6.821 -73.150153.5  RSN 10 0.5 1.6LRSN                1
 GAP=147        1.21       3.9     5.3  6.7 -0.4027E+01  0.3672E+01  0.2660E+00E
 Epicentro: LOS SANTOS - SANTANDER                                             3
 ACTION:UPD 15-02-10 17:07 OP:nd   STATUS:               ID:20141225091636 L   I
 OLDACT:UP  14-12-25 18:29 OP:mh   STATUS:               ID:20141225090740d    3
 OLDACT:DUP 14-12-25 18:29 OP:mh   STATUS:               ID:20141225090740d    3
 2014-12-25-0907-39M.COL___289                                                 6
 STAT SP IPHASW D HRMM SECON CODA AMPLIT PERI AZIMU VELO AIN AR TRES W  DIS CAZ7
 BAR2 EZ EP   1    916 56.92                             170    0.03 7 25.5 188 
 BAR2 EZ ES        917 12.23                             170   -0.7310 25.5 188 
 BAR2 EZ I         917 13.52         3.6 0.18            168           25.5 188 
 BRR  HZ EP        916 58.82                             154    0.6210 69.7 297 
 BRR  HN ES        917 15.96                             154    0.6810 69.7 297 
 BRR  HZ I         917 21.05         6.9 0.14            150           69.7 297 
 PAM  SZ EP        916 59.67                             153    0.4210 75.9  41 
 PAM  SN ES        917 17.02                             153   -0.1310 75.9  41 
 PAM  SZ I         917 18.81         6.1 0.54            157           75.9  41 
 PTB  HZ EP        917  3.45                             134   -0.45 9  148 258 
 PTB  HN ES        917 24.85                             134   -0.58 9  148 258 
 PTB  HZ I         917 32.09         8.4 0.40            132            148 258 
 OCA  HZ EP        917  4.28                             132   -0.71 9  158 353 
 OCA  HN ES        917 27.88                             132    0.50 9  158 353 
 OCA  HZ I         917 31.93         5.7 0.42            133            158 353 
 SPBC HZ EP        917  5.65                             131    0.12 9  165 218 
 SPBC HN ES        917 28.59                             131    0.25 9  165 218 
 SPBC HZ I         917 31.72         8.6 0.28            130            165 218 
 ZAR  HZ EP        917  9.06                             124   -0.06 9  203 292 
 ZAR  HN ES        917 34.82                             124    0.10 9  203 292 
 ZAR  HZ I         917 43.12         4.6 0.20            124            203 292 
 SML  HZ EP        917 12.47                             119   -0.64 8  241 335 
 SML  HN ES        917 41.86                             119    0.02 8  241 335 
 SML  HZ I         917 46.49         7.4 0.10            120            241 335 
 CHI  HZ EP        917 14.82                             119    0.17 8  251 195 
 CHI  HN ES   1    917 45.03                             119    0.45 6  251 195 
 CHI  HZ I         917 51.88         1.3 0.26            120            251 195 
 HEL  HZ EP   9    917 18.82                             116    1.90 0  272 255 
 HEL  HN ES        917 51.54                                    1.03 8  272 255 
 HEL  HZ I         917 55.90         2.0 0.43            116            272 255 
                                                                                
