 2016  825 0113 47.5 L   6.778 -73.139137.6  RSN  9 0.4 1.3LRSN                1
 GAP=138        0.96       3.7     3.9  5.8 -0.1568E+01  0.8451E+01  0.4013E+01E
 Epicentro: LOS SANTOS - SANTANDER                                             3
 ACTION:UPD 16-10-29 15:39 OP:rebc STATUS:               ID:20160825011347 L   I
 OLDACT:REG 16-08-25 12:21 OP:ak   STATUS:               ID:20160825010732     3
 2016-08-25-0108-00M.COL___380                                                 6
 STAT SP IPHASW D HRMM SECON CODA AMPLIT PERI AZIMU VELO AIN AR TRES W  DIS CAZ7
 BAR2 EZ ES        114 20.76                             171    0.1210 21.1 193 
 BAR2 EZ I         114 22.23         3.4 0.20                          21.1 193 
 BRR  HZ EP        114  7.60                             150   -0.3110 73.0 300 
 BRR  HN ES        114 24.56                             150    0.7610 73.0 300 
 PAM  EZ EP        114  8.82                             149   -0.1510 78.8  38 
 PAM  EN ES        114 25.54                             149   -0.1510 78.8  38 
 PAM  EZ I         114 28.07         4.9 0.48                          78.8  38 
 RUS  HZ EP        114 10.36                             143    0.0610 98.1 176 
 RUS  HN ES        114 27.95                             143   -0.1110 98.1 176 
 RUS  HZ I         114 29.84         1.3 0.33                          98.1 176 
 PTB  HZ EP   1    114 13.43                             130   -0.44 7  148 260 
 PTB  HN ES        114 33.58                             130   -0.83 9  148 260 
 PTB  HZ I         114 35.56         3.3 0.26                           148 260 
 ZAR  HZ EP        114 20.27                             120    0.65 8  206 293 
 ZAR  HN ES        114 44.39                             120   -0.26 8  206 293 
 NOR  HZ EP        114 22.41                             117   -0.30 8  234 235 
 NOR  HN ES        114 50.42                             117    0.27 8  234 235 
 NOR  HZ I         114 56.68         1.5 0.26                           234 235 
 GUY2CHZ EP        114 31.22                             111    0.54 7  300 235 
 GUY2CHN ES        115  4.48                             111    0.14 7  300 235 
 GUY2CHZ I         115 11.23         1.4 0.28                           300 235 
 PRA  HZ EP   2    114 41.14                             105    0.56 3  390 210 
 PRA  HN ES        115 22.12                             105    0.17 6  390 210 
 PRA  HZ I         115 28.77         1.6 0.44                           390 210 
                                                                                
