 2016  325 0034 37.0 L   6.831 -73.180143.9  RSN  7 0.2 1.5LRSN                1
 GAP=131        0.60       2.6     2.6  5.3 -0.1702E+01  0.5250E+01  0.4533E+00E
 Epicentro: ZAPATOCA - SANTANDER                                               3
 ACTION:UPD 16-05-13 21:27 OP:cam  STATUS:               ID:20160325003437 L   I
 OLDACT:DUP 16-03-25 14:51 OP:ak   STATUS:               ID:20160325002746d    3
 OLDACT:REG 16-03-25 13:56 OP:ak   STATUS:               ID:20160325002745     3
 2016-03-25-0027-45M.COL___308                                                 6
 STAT SP IPHASW D HRMM SECON CODA AMPLIT PERI AZIMU VELO AIN AR TRES W  DIS CAZ7
 PAM  EZ EP        034 59.48                             150    0.4310 77.4  43 
 PAM  EN ES        035 16.20                             150   -0.0210 77.4  43 
 PAM  EZ I         035 18.50         8.3 0.46            154           77.4  43 
 RUS  HZ EP        035  0.71                             142   -0.1610  104 174 
 RUS  HN ES        035 19.24                             142   -0.2310  104 174 
 RUS  HZ I         035 21.08         4.3 0.38            148            104 174 
 PTB  HZ EP        035  3.27                             132   -0.31 9  145 257 
 PTB  HN ES        035 24.36                             132    0.08 9  145 257 
 PTB  HZ I         035 28.13         3.7 0.12            133            145 257 
 SPBC HZ EP   2    035  5.61                             128    0.19 5  163 217 
 SPBC HN ES        035 27.67                             128    0.11 9  163 217 
 ZAR  HZ EP   2    035  8.79                             123   -0.07 4  199 292 
 ZAR  HN ES        035 33.44                             123   -0.25 9  199 292 
 ZAR  HZ I         035 42.63         3.5 0.36            124            199 292 
 NOR  HZ EP        035 12.49                             118   -0.05 8  234 233 
 NOR  HN ES        035 40.77                             118    0.54 8  234 233 
 NOR  HZ I         035 45.77         2.6 0.18            121            234 233 
 GUY2CHZ EP   2    035 20.21                             112   -0.22 4  300 234 
 GUY2CHN ES        035 54.19                             112   -0.09 7  300 234 
 GUY2CHZ I         036  2.99         1.9 0.30                           300 234 
                                                                                
