 2015  925 0624 51.8 L   6.819 -73.099133.3  RSN  7 0.5 1.6LRSN                1
 GAP=209        1.13       5.1     6.9 10.9 -0.8270E+01 -0.1496E+01  0.1317E+02E
 Epicentro: LOS SANTOS - SANTANDER                                             3
 ACTION:UPD 15-10-28 16:28 OP:cam  STATUS:               ID:20150925062451 L   I
 OLDACT:UP  15-09-25 17:00 OP:mh   STATUS:               ID:20150925061749     3
 OLDACT:REG 15-09-25 12:40 OP:mh   STATUS:               ID:20150925061749     3
 2015-09-25-0617-49M.COL___349                                                 6
 STAT SP IPHASW D HRMM SECON CODA AMPLIT PERI AZIMU VELO AIN AR TRES W  DIS CAZ7
 BAR2 EZ EP        625  9.69                             168   -0.2910 26.7 200 
 BAR2 EZ I         625 25.68         6.7 0.28            166           26.7 200 
 BRR  HZ EP        625 12.12                             149    0.3110 74.9 295 
 BRR  HN ES        625 28.07                             149    0.6310 74.9 295 
 PTB  HZ EP        625 17.74                             128   -0.53 9  153 258 
 PTB  HN ES        625 38.40                             128   -0.54 9  153 258 
 PTB  HZ I         625 41.12         3.1 0.10            125            153 258 
 OCA  HN ES        625 39.89                             127   -0.36 9  159 351 
 OCA  HZ I         625 47.56        11.2 0.05            124            159 351 
 SPBC HZ EP        625 20.63                             125    0.81 9  168 220 
 SPBC HN ES        625 41.29                             125   -0.42 9  168 220 
 SPBC HZ I         625 45.84         4.1 0.24            122            168 220 
 ZAR  HZ EP        625 23.94                             119    0.08 8  208 291 
 ZAR  HN ES        625 48.82                             119   -0.07 8  208 291 
 ZAR  HZ I         625 54.47         5.1 0.70            116            208 291 
 HEL  HN ES        626  3.81                             112    0.43 7  278 256 
 HEL  HZ I         626 21.07         1.5 0.46            109            278 256 
                                                                                
