 2014  925 0715 17.9 L   6.815 -73.160140.8  RSN  6 0.4 1.5LRSN                1
 GAP=210        0.99       4.4     6.3  7.3  0.2168E+01  0.6079E+01 -0.3975E+01E
 Epicentro: LOS SANTOS - SANTANDER                                             3
 ACTION:UPD 14-10-03 23:08 OP:nd   STATUS:               ID:20140925071517 L   I
 OLDACT:UP  14-09-25 16:55 OP:cam  STATUS:               ID:20140925071000     3
 OLDACT:REG 14-09-25 13:33 OP:cam  STATUS:               ID:20140925071000     3
 2014-09-25-0710-00M.COL___252                                                 6
 STAT SP IPHASW D HRMM SECON CODA AMPLIT PERI AZIMU VELO AIN AR TRES W  DIS CAZ7
 BAR2 SZ EP        715 36.97                             170    0.0310 24.7 186 
 BAR2 SZ ES        715 51.42                             170   -0.3810 24.7 186 
 BAR2 SZ I         715 53.52        15.5 0.16            170           24.7 186 
 BRR  HZ EP        715 38.83                             152    0.4710 69.1 298 
 BRR  HN ES        715 54.91                             152    0.5610 69.1 298 
 BRR  HZ I         716  0.07         2.7 0.26            150           69.1 298 
 PTB  HZ EP        715 44.53                             131    0.20 9  147 258 
 PTB  HN ES        716  4.29                             131   -0.67 9  147 258 
 PTB  HZ I         716 10.44         2.7 0.32            132            147 258 
 SPBC HZ EP     C  715 46.02                             128   -0.00 9  163 218 
 SPBC HN ES        716  8.01                             128    0.03 9  163 218 
 SPBC HZ I         716 10.65         4.8 0.34            130            163 218 
 ZAR  HE ES        716 15.01                             121    0.33 9  202 292 
 SML  HZ EP   1    715 53.58                             117   -0.41 6  242 335 
 SML  HN ES        716 21.57                             117   -0.60 8  242 335 
 SML  HZ I         716 26.72         4.1 0.26            119            242 335 
                                                                                
