 2017 1225 0128 34.0 L   6.858 -73.123144.9  RSN 26 0.8 2.4LRSN                1
 GAP= 57        1.41       2.8     3.2  6.2 -0.9898E+00  0.4918E+01 -0.1434E+00E
 Epicentro: LOS SANTOS - SANTANDER                                             3
 ACTION:UPD 18-01-04 13:24 OP:rebc STATUS:               ID:20171225012834 L   I
 OLDACT:REG 17-12-25 12:07 OP:osc  STATUS:               ID:20171225012547     3
 2017-12-25-0128-00M.COL___460                                                 6
 STAT SP IPHASW D HRMM SECON CODA AMPLIT PERI AZIMU VELO AIN AR TRES W  DIS CAZ7
 BAR2 EZ EP        128 53.63                             168   -0.0510 30.1 192 
 BAR2 EZ ES        129  8.24                             168   -0.7810 30.1 192 
 BAR2 EZ I         129  9.64        61.4 0.20            167           30.1 192 
 PAM  EZ IP     D  128 56.44                             153    0.7010 70.9  41 
 PAM  EN ES        129 13.10                             153    0.4010 70.9  41 
 PAM  EZ I         129 15.40        79.6 0.46            151           70.9  41 
 PTB  HZ EP        129  0.81                             131   -0.43 9  152 257 
 PTB  HE ES        129 23.16                             131    0.68 9  152 257 
 PTB  HZ I         129 24.37        14.8 0.38            128            152 257 
 OCA  HZ EP        129  1.87                             131    0.20 9  154 352 
 OCA  HE ES        129 23.51                             131    0.26 9  154 352 
 OCA  HZ I         129 24.72        73.9 0.20            128            154 352 
 TAM  HZ IP     D  129  2.02                             130    0.47 9  155 108 
 TAM  HN ES        129 23.31                             130    0.27 9  155 108 
 TAM  HZ I         129 24.74        13.6 0.50            128            155 108 
 SPBC HZ EP        129  2.83                             128   -0.23 9  170 218 
 SPBC HN ES        129 24.01                             128   -1.71 9  170 218 
 SPBC HZ I         129 32.35        36.9 0.48            125            170 218 
 YPLC HZ IP     C  129  4.19                             126    0.02 9  181 153 
 YPLC HE ES        129 28.02                             126    0.31 9  181 153 
 YPLC HZ I         129 30.67        39.2 0.28            124            181 153 
 ZAR  HZ EP        129  7.00                             122    0.62 9  204 290 
 ZAR  HN ES        129 32.10                             122    0.46 9  204 290 
 ZAR  HZ I         129 37.51        36.7 0.40            120            204 290 
 NOR  HZ EP        129 10.58                             118    0.28 8  240 234 
 NOR  HN ES        129 38.49                             118   -0.12 8  240 234 
 ROSC BZ EP        129 13.54                             116    0.73 8  260 211 
 ROSC BE ES   3    129 44.60                             116    1.51 2  260 211 
 ROSC BZ I         129 51.93        12.4 0.30            114            260 211 
 CVER HZ EP        129 15.27                             114    0.19 7  279 202 
 CVER HN ES   4    129 50.41                             114    3.29 0  279 202 
 CVER HZ I         129 53.50        10.8 0.36            112            279 202 
 DRL03HZ EP        129 15.53                             113    0.65 7  283 352 
 DRL03HE ES        129 46.70                             113   -0.07 7  283 352 
 URE  HZ EP        129 14.08                             113   -0.94 7  284 291 
 URE  HN ES        129 45.83                             113   -1.18 7  284 291 
 URE  HZ I         129 46.88        28.2 0.12            111            284 291 
 GUY2CHZ EP        129 18.62                             112    0.40 7  307 234 
 GUY2CHN ES   3    129 54.45                             112    1.74 2  307 234 
 GUY2CHZ I         130  1.07        11.7 0.40                           307 234 
 VIL  EZ EP        129 17.84                             111   -0.31 7  310 192 
 VIL  EE ES        129 52.34                             111   -0.24 7  310 192 
 VIL  EZ I         129 58.70        10.7 0.36            109            310 192 
 PTGC HZ EP   3    129 17.01                             111   -1.39 2  314 160 
 PTGC HN ES   3    129 50.59                             111   -2.44 2  314 160 
 PTGC HZ I         129 52.62        14.7 0.36            109            314 160 
 LL6C HZ EP        129 18.43                             111   -0.51 7  319 357 
 LL6C HZ I         130  2.62         7.1 0.80            109            319 357 
 CBOC HZ EP        129 22.31                             109    0.93 7  338 251 
 CBOC HN ES        129 59.47                             109    1.14 7  338 251 
 CBOC HZ I         130 12.01         3.7 0.40            107            338 251 
 DBB  EZ EP        129 21.24                             109   -0.43 7  342 273 
 DBB  HN ES        129 57.82                             109   -1.04 7  342 273 
 DBB  EZ I         130  1.00         8.9 0.40            107            342 273 
 SDV  BZ EP        129 23.70                             108    0.39 6  354  51 
 SDV  B2 ES        130  0.52                             108   -1.25 6  354  51 
 SDV  BZ I         130  2.86         7.1 0.30            107            354  51 
 PRA  HZ EP        129 28.02                             106   -0.27 6  399 209 
 PRA  HN ES        130  9.61                             106   -1.02 6  399 209 
 PRA  HZ I         130 15.55         7.0 0.32            104            399 209 
 APAC HN ES        130 12.47                             106    1.99 6  399 287 
 ORTC HZ EP        129 28.65                             106   -0.02 6  402 216 
 ORTC HN ES        130 12.08                             106    0.77 6  402 216 
 ORTC HZ I         130 16.82         6.6 0.52            104            402 216 
 SJC  HZ EP        129 27.93                             106   -1.13 6  405 326 
 SJC  HN ES        130 11.44                             106   -0.56 6  405 326 
 SJC  HZ I         130 12.91         3.9 0.46            104            405 326 
 PAL  HZ EP        129 29.94                             105    0.17 6  411 238 
 PAL  HN ES        130 13.32                             105    0.05 6  411 238 
 PAL  HZ I         130 17.82         5.5 0.34            104            411 238 
 CRJC HZ EP        129 34.23                             103   -1.46 5  461   3 
 CRJC HN ES        130 23.56                             103   -0.25 5  461   3 
 CRJC HZ I         130 33.50         5.4 0.48            102            461   3 
                                                                                
