 2015 1025 0706 52.1 L   6.766 -73.131139.6  RSN  5 0.5 1.4LRSN                1
 GAP=140        1.11       5.7     6.4 10.5  0.7082E+01  0.2428E+02  0.6752E+00E
 Epicentro: LOS SANTOS - SANTANDER                                             3
 ACTION:UPD 15-12-22 20:42 OP:cam  STATUS:               ID:20151025070652 L   I
 OLDACT:UP  15-10-25 17:10 OP:mh   STATUS:               ID:20151025065749     3
 OLDACT:REG 15-10-25 12:39 OP:mh   STATUS:               ID:20151025065749     3
 2015-10-25-0657-49M.COL___313                                                 6
 STAT SP IPHASW D HRMM SECON CODA AMPLIT PERI AZIMU VELO AIN AR TRES W  DIS CAZ7
 BAR2 EZ EP   1    7 7 11.96                             171    1.08 7 20.0 197 
 BAR2 EZ I         7 7 27.32         6.1 0.20            171           20.0 197 
 BRR  HZ EP        7 7 12.49                             150   -0.2410 74.5 300 
 BRR  HN ES   1    7 7 29.53                             150    0.66 7 74.5 300 
 BRR  HZ I         7 7 34.00         3.9 0.12            149           74.5 300 
 PAM  EZ EP        7 7 13.49                             149   -0.2410 79.3  37 
 PAM  EN ES        7 7 30.55                             149   -0.1010 79.3  37 
 PAM  EZ I         7 7 32.67         4.0 0.54            150           79.3  37 
 RUS  HZ EP        7 7 14.84                             144   -0.0810 96.7 177 
 RUS  HN ES        7 7 32.50                             144   -0.2510 96.7 177 
 RUS  HZ I         7 7 33.86         2.1 0.48            143           96.7 177 
 ZAR  HZ EP        7 7 24.94                             120    0.53 8  207 293 
 ZAR  HN ES        7 7 49.04                             120   -0.62 8  207 293 
 ZAR  HZ I         7 7 54.27         4.1 0.22            120            207 293 
                                                                                
