 2013  625 0836 24.2 L   6.784 -73.138141.5  RSN 10 0.4 1.4LRSN                1
 GAP=138        0.95       3.7     4.8  7.0  0.4618E+00  0.5068E+01  0.1197E+01E
 Epicentro: LOS SANTOS - SANTANDER                                             3
 ACTION:UPD 14-01-08 09:57 OP:ep   STATUS:               ID:20130625083624 L   I
 OLDACT:DUP 13-06-25 13:42 OP:jn   STATUS:               ID:20130625082960d    3
 OLDACT:REG 13-06-25 06:49 OP:jn   STATUS:               ID:20130625082959     3
 2013-06-25-0829-59M.COL___267                                                 6
 STAT SP IPHASW D HRMM SECON CODA AMPLIT PERI AZIMU VELO AIN AR TRES W  DIS CAZ7
 BAR2 SZ EP        836 43.43                             171    0.1310 21.7 193 
 BAR2 SZ ES        836 57.79                             171   -0.4010 21.7 193 
 BAR2 SZ I         836 59.79        11.6 0.18            170           21.7 193 
 GIR2 SZ EP        836 43.34                             166   -0.1010 33.2 349 
 BRR  HZ EP        836 45.25                             151    0.2510 72.9 299 
 BRR  HN ES        837  2.06                             151    0.8510 72.9 299 
 BRR  HZ I         837  6.17         5.9 0.12            152           72.9 299 
 PAM  SZ EP        836 46.28                             150    0.2510 78.2  38 
 PAM  SN ES        837  3.12                             150    0.0710 78.2  38 
 PAM  SZ I         837  3.88         3.5 0.20            154           78.2  38 
 RUS  HZ EP        836 47.35                             143   -0.0610 98.7 177 
 RUS  HN ES   1    837  4.99                             143   -0.51 7 98.7 177 
 RUS  HZ I         837  7.42         2.7 0.20            146           98.7 177 
 PTB  HZ EP   1    836 50.55                             131   -0.34 7  148 260 
 PTB  HN ES   1    837 11.13                             131   -0.56 7  148 260 
 PTB  HZ I         837 13.83         5.0 0.10            133            148 260 
 OCA  HN ES   1    837 13.73                             128   -0.62 7  162 353 
 ZAR  HE ES   1    837 21.64                             121   -0.12 6  206 293 
 SML  HE ES   1    837 28.90                             116   -0.48 6  246 335 
 CHI  HN ES   1    837 31.30                             116    0.69 6  247 195 
                                                                                
