 2013  625 0121 11.4 L   6.787 -73.164155.2  RSN  6 0.4 1.3LRSN                1
 GAP=181        0.88       5.6     8.2  8.6  0.2240E+02  0.2341E+00 -0.1489E+01E
 Epicentro: LOS SANTOS - SANTANDER                                             3
 ACTION:UPD 14-01-08 09:56 OP:ep   STATUS:               ID:20130625012111 L   I
 OLDACT:DUP 13-06-25 07:36 OP:jn   STATUS:               ID:20130625011901d    3
 OLDACT:REG 13-06-25 06:26 OP:jn   STATUS:               ID:20130625011959     3
 2013-06-25-0119-59M.COL___267                                                 6
 STAT SP IPHASW D HRMM SECON CODA AMPLIT PERI AZIMU VELO AIN AR TRES W  DIS CAZ7
 BAR2 SZ EP        121 31.97                             172   -0.1610 21.6 185 
 BAR2 SZ ES        121 48.12                             172   -0.1810 21.6 185 
 BAR2 SZ I         121 50.30         4.3 0.26            169           21.6 185 
 GIR2 SZ ES   1    121 48.30                             168   -0.16 7 32.5 354 
 BRR  HN ES        121 51.36                             154    0.5910 70.2 300 
 RUS  HZ EP   1    121 36.64                             146    0.64 7 99.3 175 
 RUS  HN ES        121 55.04                             146   -0.1410 99.3 175 
 RUS  HZ I         121 56.37         2.6 0.36            146           99.3 175 
 PTB  HN ES   1    122  0.02                             134   -0.43 7  146 259 
 PTB  HZ I         122  3.48         2.6 0.13            133            146 259 
 SML  HN ES   1    122 17.16                             119   -0.50 6  244 336 
                                                                                
