 2015  425 0801 38.0 L   6.838 -73.160142.1  RSN 10 0.5 1.6LRSN                1
 GAP=133        1.08       3.4     4.6  6.1  0.1742E+01  0.6703E+01  0.9098E-01E
 Epicentro: LOS SANTOS - SANTANDER                                             3
 ACTION:UPD 15-06-03 16:57 OP:cam  STATUS:               ID:20150425080138 L   I
 OLDACT:REG 15-04-25 14:22 OP:ak   STATUS:               ID:20150425075750     3
 2015-04-25-0757-50M.COL___268                                                 6
 STAT SP IPHASW D HRMM SECON CODA AMPLIT PERI AZIMU VELO AIN AR TRES W  DIS CAZ7
 BAR2 EZ EP        8 1 57.36                             169    0.0610 27.3 185 
 BAR2 EZ ES        8 2 11.91                             169   -0.4310 27.3 185 
 BAR2 EZ I         8 2 14.38         5.5 0.36            167           27.3 185 
 BRR  HZ EP        8 1 58.92                             153    0.3310 67.9 296 
 BRR  HE ES        8 2 15.47                             153    0.8410 67.9 296 
 BRR  HZ I         8 2 17.53         8.8 0.16            153           67.9 296 
 PAM  SZ IP     D  8 2  0.03                             151    0.3110 75.2  42 
 PAM  SE ES        8 2 16.75                             151    0.1110 75.2  42 
 PAM  SZ I         8 2 18.95         5.7 0.24            155           75.2  42 
 RUS  HZ EP        8 2  1.80                             142    0.0610  105 175 
 RUS  HN ES        8 2 19.84                             142   -0.4010  105 175 
 RUS  HZ I         8 2 22.18         2.0 0.31            142            105 175 
 PTB  HZ EP        8 2  4.34                             131   -0.29 9  147 257 
 PTB  HN ES        8 2 25.14                             131   -0.25 9  147 257 
 PTB  HZ I         8 2 26.51         6.0 0.18            131            147 257 
 SPBC HZ EP   2    8 2  7.33                             128    0.86 5  166 218 
 SPBC HE ES   2    8 2 28.11                             128   -0.55 5  166 218 
 SPBC HZ I         8 2 33.88         7.0 0.07            128            166 218 
 ZAR  HZ EP        8 2 10.21                             122    0.29 9  201 291 
 ZAR  HN ES        8 2 34.98                             122    0.18 9  201 291 
 ZAR  HZ I         8 2 41.43        10.1 0.46            123            201 291 
 SML  HZ EP        8 2 13.09                             117   -0.87 8  239 335 
 SML  HN ES        8 2 41.23                             117   -0.76 8  239 335 
 CHI  HZ EP        8 2 16.52                             116    0.60 8  252 195 
 CHI  HN ES        8 2 45.25                             116   -0.23 8  252 195 
 CHI  HZ I         8 2 52.68         1.5 0.34            117            252 195 
 SJC  HZ EP   4    8 2 30.93                             105   -2.02 0  405 327 
 SJC  HN ES   4    8 3 11.89                             105   -3.90 0  405 327 
 SJC  HZ I         8 3 16.09         2.1 0.56            107            405 327 
                                                                                
