 2015  725 0349 42.4 L   6.888 -73.278118.6  RSN  5 0.1 2.1LRSN                1
 GAP=164        0.32       1.7     2.2  2.9 -0.2896E+00  0.3082E+01 -0.1821E+01E
 Epicentro: BETULIA - SANTANDER                                                3
 ACTION:UPD 15-09-08 21:50 OP:cam  STATUS:               ID:20150725034943 L   I
 OLDACT:UP  15-08-03 17:35 OP:cam  STATUS:               ID:20150725034943 L   3
 OLDACT:UP  15-08-01 06:27 OP:AK   STATUS:               ID:20150725034943 L   3
 OLDACT:UP  15-07-25 14:25 OP:ak   STATUS:               ID:20150725034746     3
 OLDACT:UP  15-07-25 14:20 OP:ak   STATUS:               ID:20150725034746     3
 OLDACT:REG 15-07-25 12:33 OP:ak   STATUS:               ID:20150725034746     3
 2015-07-25-0347-46M.COL___340                                                 6
 STAT SP IPHASW D HRMM SECON CODA AMPLIT PERI AZIMU VELO AIN AR TRES W  DIS CAZ7
 BAR2 EZ EP        349 59.13                             163   -0.0010 34.4 162 
 BAR2 EZ ES        350 12.17                             163    0.0010 34.4 162 
 BAR2 EZ I         350 13.46        55.7 0.28            167           34.4 162 
 OCA  HZ EP        350  7.53                             125   -0.14 9  149 358 
 OCA  HE ES        350 27.46                             125    0.09 9  149 358 
 OCA  HZ I         350 29.84        26.4 0.16            127            149 358 
 ZAR  HZ EP        350 11.31                             118   -0.07 9  187 291 
 ZAR  HN ES        350 33.94                             118   -0.03 9  187 291 
 ZAR  HZ I         350 36.58         8.2 0.32            120            187 291 
 SML  HZ EP        350 16.09                             113    0.09 8  229 338 
 CBOC HZ EP        350 27.25                             105    0.15 7  323 250 
                                                                                
