 2017  425 0510 13.8 L   6.783 -73.142139.7  RSN  6 0.4 1.3LRSN                1
 GAP=153        0.64       5.3     3.4  6.4 -0.7368E+01  0.8908E+01 -0.9579E+01E
 Epicentro: LOS SANTOS - SANTANDER                                             3
 ACTION:UPD 17-05-30 21:15 OP:jn   STATUS:               ID:20170425051013 L   I
 OLDACT:UP  17-04-25 14:17 OP:and  STATUS:               ID:20170425050744     3
 OLDACT:UP  17-04-25 14:16 OP:and  STATUS:               ID:20170425050744     3
 OLDACT:UP  17-04-25 14:16 OP:and  STATUS:               ID:20170425050744     3
 OLDACT:UP  17-04-25 14:16 OP:and  STATUS:               ID:20170425050744     3
 OLDACT:UP  17-04-25 14:16 OP:and  STATUS:               ID:20170425050744     3
 OLDACT:UP  17-04-25 14:15 OP:and  STATUS:               ID:20170425050744     3
 OLDACT:UP  17-04-25 14:15 OP:and  STATUS:               ID:20170425050744     3
 OLDACT:UP  17-04-25 14:15 OP:and  STATUS:               ID:20170425050744     3
 OLDACT:UP  17-04-25 14:15 OP:and  STATUS:               ID:20170425050744     3
 OLDACT:UP  17-04-25 14:14 OP:and  STATUS:               ID:20170425050744     3
 OLDACT:UP  17-04-25 14:14 OP:and  STATUS:               ID:20170425050744     3
 OLDACT:REG 17-04-25 12:18 OP:and  STATUS:               ID:20170425050744     3
 2017-04-25-0508-00M.COL___368                                                 6
 STAT SP IPHASW D HRMM SECON CODA AMPLIT PERI AZIMU VELO AIN AR TRES W  DIS CAZ7
 BAR2 EZ EP   2    510 32.52                             171   -0.17 5 21.6 192 
 BAR2 EZ ES        510 47.35                             171   -0.0610 21.6 192 
 BAR2 EZ I         510 48.81         6.3 0.08            167           21.6 192 
 BRR  HZ IP     C  510 34.44                             151    0.0410 72.4 300 
 BRR  HN ES   2    510 51.29                             151    0.85 5 72.4 300 
 BRR  HZ I         510 51.95         3.7 0.14            149           72.4 300 
 PAM  EZ IP     C  510 35.63                             149    0.1610 78.6  38 
 PAM  EN ES        510 52.21                             149   -0.1510 78.6  38 
 PAM  EZ I         510 53.98         2.7 0.43            153           78.6  38 
 PTB  HZ EP   2    510 39.70                             130   -0.61 5  148 260 
 PTB  HN ES        511  0.69                             130   -0.27 9  148 260 
 PTB  HZ I         511  6.12         2.3 0.38            129            148 260 
 SPBC HZ EP   4    510 44.10                             128    2.35 0  162 220 
 SPBC HN ES   2    511  4.32                             128    0.79 5  162 220 
 SPBC HZ I         511  9.83         4.1 0.20            126            162 220 
 ZAR  HZ EP   3    510 47.12                             121    1.12 2  205 293 
 ZAR  HN ES        511 11.07                             121   -0.01 9  205 293 
 ZAR  HZ I         511 17.17         2.6 0.26            120            205 293 
                                                                                
