 2014 1125 0847 53.3 L   6.802 -73.150139.7  RSN 13 0.4 2.2LRSN                1
 GAP= 84        0.94       3.1     3.3  5.4 -0.2918E+01  0.2901E+01  0.3611E+01E
 Epicentro: LOS SANTOS - SANTANDER                                             3
 ACTION:UPD 14-12-19 15:47 OP:nd   STATUS:               ID:20141125084753 L   I
 OLDACT:UP  14-11-25 19:31 OP:mh   STATUS:               ID:20141125084744     3
 OLDACT:REG 14-11-25 13:14 OP:mh   STATUS:               ID:20141125084744     3
 2014-11-25-0847-44M.COL___303                                                 6
 STAT SP IPHASW D HRMM SECON CODA AMPLIT PERI AZIMU VELO AIN AR TRES W  DIS CAZ7
 BAR2 SZ EP   1    848 12.22                             170    0.01 7 23.5 189 
 BAR2 SZ ES        848 26.62                             170   -0.3410 23.5 189 
 PAM  SZ EP        848 15.08                             150    0.1910 77.5  40 
 PAM  SN ES        848 32.24                             150    0.5210 77.5  40 
 PAM  SZ I         848 34.21        34.5 0.56            152           77.5  40 
 PTB  HZ EP        848 19.04                             131   -0.71 9  147 259 
 PTB  HN ES        848 40.51                             131    0.14 9  147 259 
 PTB  HZ I         848 42.62        16.0 0.22            131            147 259 
 TAM  HZ EP        848 20.31                             129   -0.25 9  156 105 
 OCA  HZ EP        848 20.89                             128   -0.24 9  160 353 
 OCA  HN ES        848 42.64                             128   -0.19 9  160 353 
 OCA  HZ I         848 47.79        20.6 0.20            129            160 353 
 SPBC HZ EP        848 21.30                             128   -0.03 9  163 219 
 SPBC HN ES        848 43.18                             128   -0.02 9  163 219 
 SPBC HZ I         848 45.26        24.4 0.22            128            163 219 
 ZAR  HZ EP   1    848 25.07                             121   -0.24 6  204 292 
 ZAR  HN ES        848 50.57                             121    0.30 9  204 292 
 ZAR  HZ I         848 57.40        11.1 0.62            121            204 292 
 NOR  HZ EP        848 28.14                             117   -0.52 8  234 234 
 NOR  HN ES        848 56.49                             117    0.25 8  234 234 
 NOR  HZ I         848 59.75        10.3 0.20            118            234 234 
 CHI  HZ EP        848 30.31                             116   -0.37 8  249 195 
 CHI  HN ES        848 59.80                             116   -0.04 8  249 195 
 CHI  HZ I         849  8.08         5.5 0.64            117            249 195 
 ROSC BZ EP        848 32.30                             115    1.20 8  253 211 
 ROSC BN ES   4    849  4.45                             115    3.88 0  253 211 
 HEL  HZ EP   1    848 33.91                             114    0.74 6  272 256 
 HEL  HN ES        849  3.99                             114   -0.28 8  272 256 
 HEL  HZ I         849 10.96         6.6 0.36            114            272 256 
 GUY2CHZ EP        848 36.95                             111    0.34 7  301 235 
 GUY2CHE ES   4    849 13.30                             111    2.91 0  301 235 
 GUY2CHZ I         849 18.94         6.2 0.10                           301 235 
 TOL  SZ EP   1    848 41.58                             108    0.28 5  343 225 
 TOL  SZ I         848 43.65         9.1 0.11            109            343 225 
 TOL  SN ES   4    849 20.65                             108    1.91 0  343 225 
                                                                                
