 2011  125 0418 59.5 L   6.791 -73.199143.2  RSN 17 0.5 4.1LRSN                1
 GAP=132        1.05       2.9     4.7  5.7 -0.2758E+01  0.8810E+01  0.1978E+01E
 Epicentro: ZAPATOCA - SANTANDER                                               3
 ACTION:UP  11-02-08 08:42 OP:pat  STATUS:               ID:20110125041859 L   I
 2011-01-25-0415-00S.COL___138                                                 6
 STAT SP IPHASW D HRMM SECON CODA AMPLIT PERI AZIMU VELO SNR AR TRES W  DIS CAZ7
 BTL  SZ IP     D  419 18.65                             173    -0.110   16 332 
 BTL  SZ ES   1    419 33.82                             173     0.1 7   16 332 
 BAR2 SZ IP     C  419 18.73                             171    -0.110   22 176 
 BAR2 SZ ES   1    419 33.19                             171    -0.7 7   22 176 
 BAR2 SZ I         419 34.86      1618.6 0.54                            22 176 
 GIR2 SZ EP   1    419 19.67                             167     0.7 7   32   1 
 GIR2 SZ ES   1    419 34.78                             167     0.7 7   32   1 
 RUS  HZ IP     D  419 22.73                             143    -0.310  100 173 
 RUS  HN ES        419 41.24                             143    -0.110  100 173 
 RUS  HZ I         419 43.38      1042.5 0.39                           100 173 
 GUE  SZ EP        419 23.72                             138    -0.510  119  15 
 GRA  SZ IP     C  419 25.39                             136     0.610  129  20 
 GRA  SZ ES        419 44.69                             136     0.210  129  20 
 GRA  SZ I         419 46.27      2041.6 0.33                           129  20 
 OCA  SZ EP        419 26.86                             129    -0.8 9  161 355 
 OCA  SZ ES   2    419 49.25                             129    -0.4 5  161 355 
 OCA  SZ I         419 53.38      2275.7 0.39                           161 355 
 YOP  SZ IP        419 29.74                             125     0.2 9  181 152 
 YOP  SN ES   1    419 52.88                             125    -0.1 7  181 152 
 YOP  SZ I         419 57.07       697.8 0.51                           181 152 
 NOR  SZ EP   1    419 34.85                             119     0.3 6  229 234 
 NOR  SE ES   1    420  2.19                             119     0.3 6  229 234 
 CHI  HZ IP     C  419 37.05                             117     0.2 8  246 194 
 CHI  HE ES   1    420  6.65                             117     0.7 6  246 194 
 CHI  HZ I         420 11.81       551.0 0.41                           246 194 
 ROSC BN ES   1    420  5.69                             117    -0.7 6  249 210 
 ROSC BZ I         420 16.11      1349.0 0.35                           249 210 
 HEL  HZ EP   1    419 39.70                             115     0.7 6  266 256 
 HEL  HE ES   1    420  8.94                             115    -0.8 6  266 256 
 HEL  HZ I         420 18.33       837.0 0.41                           266 256 
 VIL  SZ EP   1    419 42.43                             112     0.0 5  300 189 
 VIL  SN ES   1    420 15.96                             112     0.1 5  300 189 
 VIL  SZ I         420 27.77       817.9 0.46                           300 189 
 RREF HZ EP   1    419 45.08                             111     0.1 5  317 229 
 RREF HN ES   1    420 21.01                             111     0.6 5  317 229 
 RREF HZ I         420 27.72       710.4 0.44                           317 229 
 DBB  SZ IP     C  419 46.70                             109     0.5 7  334 274 
 DBB  SZ ES   1    420 22.27                             109    -0.4 5  334 274 
 TOL  SZ EP   1    419 47.11                             109     0.0 5  339 224 
 SJA  SZ EP   1    419 53.09                             106    -0.6 4  398 192 
 SJA  SZ ES   1    420 35.48                             106    -0.5 4  398 192 
                                                                                
