 2015  125 0249 11.4 L   6.743 -73.161150.0  RSN  5 0.3 1.1LRSN                1
 GAP=231        0.72       5.0     6.0  6.1  0.7370E+01  0.4651E+01  0.5213E+01E
 Epicentro: LOS SANTOS - SANTANDER                                             3
 ACTION:UPD 15-03-02 15:42 OP:nd   STATUS:               ID:20150125024911 L   I
 OLDACT:REG 15-01-25 12:25 OP:spq  STATUS:               ID:20150125024749     3
 2015-01-25-0247-49M.COL___271                                                 6
 STAT SP IPHASW D HRMM SECON CODA AMPLIT PERI AZIMU VELO AIN AR TRES W  DIS CAZ7
 BAR2 EZ EP   1    249 31.29                             173   -0.11 7 16.8 188 
 BAR2 EZ ES   1    249 46.56                             173   -0.46 7 16.8 188 
 BAR2 EZ I         249 47.68         3.1 0.16            164           16.8 188 
 BRR  HZ EP        249 32.92                             153   -0.1610 73.0 304 
 BRR  HN ES        249 50.49                             153    0.4810 73.0 304 
 BRR  HZ I         249 53.10         2.6 0.34            148           73.0 304 
 RUS  HZ EP   1    249 35.17                             146    0.06 7 94.4 175 
 RUS  HE ES   1    249 53.69                             146    0.06 7 94.4 175 
 RUS  HZ I         249 54.99         0.9 0.43            144           94.4 175 
 PTB  HZ EP        249 38.25                             134   -0.19 9  145 261 
 PTB  HN ES   1    249 59.01                             134   -0.55 7  145 261 
 PTB  HZ I         250  4.86         1.7 0.18            130            145 261 
 SPBC HZ EP        249 39.98                             131    0.34 9  157 220 
 SPBC HE ES   1    250  1.88                             131    0.18 7  157 220 
 SPBC HZ I         250  9.01         3.1 0.12            128            157 220 
                                                                                
