 2017  125 0538 44.5 L   6.799 -73.193147.7  RSN  4 0.2 1.0LRSN                1
 GAP=144        0.51       3.2     3.0  4.3 -0.2977E+01  0.3461E+01 -0.1363E+01E
 Epicentro: ZAPATOCA - SANTANDER                                               3
 ACTION:UPD 17-05-22 16:03 OP:jn   STATUS:               ID:20170125053844 L   I
 OLDACT:REG 17-01-25 12:52 OP:lv   STATUS:               ID:20170125052742     3
 2017-01-25-0528-00M.COL___355                                                 6
 STAT SP IPHASW D HRMM SECON CODA AMPLIT PERI AZIMU VELO AIN AR TRES W  DIS CAZ7
 BAR2 EZ EP        539  4.31                             171   -0.0710 22.9 177 
 BAR2 EZ ES        539 20.19                             171    0.3310 22.9 177 
 BAR2 EZ I         539 20.51         2.5 0.25            172           22.9 177 
 PAM  EZ EP        539  7.18                             150    0.0310 80.9  42 
 PAM  EN ES        539 24.65                             150   -0.1510 80.9  42 
 PAM  EZ I         539 26.37         1.3 0.24            152           80.9  42 
 RUS  HZ EP        539  8.49                             144   -0.0010  101 173 
 RUS  HN ES        539 27.04                             144   -0.1510  101 173 
 RUS  HZ I         539 27.84         1.4 0.40            147            101 173 
 PTB  HZ EP        539 11.41                             133    0.22 9  143 258 
 PTB  HN ES        539 31.78                             133   -0.21 9  143 258 
 PTB  HZ I         539 36.01         1.2 0.20            133            143 258 
                                                                                
