 2010 1225 0553 40.5 L   6.839 -73.117141.2  RSN  8 0.4 1.9LRSN                1
 GAP=163        0.71       3.2     6.5  6.5 -0.1900E+01  0.1145E+02  0.1673E+01E
 Epicentro: LOS SANTOS - SANTANDER                                             3
 ACTION:UP  11-01-14 15:27 OP:pat  STATUS:               ID:20101225055340 L   I
 2010-12-25-0551-00S.COL___129                                                 6
 STAT SP IPHASW D HRMM SECON CODA AMPLIT PERI AZIMU VELO SNR AR TRES W  DIS CAZ7
 BAR2 SZ EP   1    554  0.06                             168     0.4 7   28 195 
 BAR2 SZ ES   1    554 14.54                             168    -0.1 7   28 195 
 BAR2 SZ I         554 16.57        24.9 0.38                            28 195 
 RUS  HZ EP   1    554  4.20                             142     0.1 7  105 178 
 RUS  HE ES   1    554 22.49                             142     0.0 7  105 178 
 RUS  HZ I         554 24.77         8.4 0.32                           105 178 
 OCA  SZ EP   1    554  7.50                             129    -0.6 7  156 352 
 OCA  SZ ES   1    554 29.66                             129     0.1 7  156 352 
 OCA  SZ I         554 33.72        18.4 0.28                           156 352 
 YOP  SZ EP   1    554 11.06                             125     0.6 7  182 155 
 YOP  SZ I         554 11.47         6.9 0.41                           182 155 
 NOR  SZ EP   2    554 16.01                             117    -0.5 4  240 234 
 NOR  SE ES   2    554 44.87                             117     0.2 4  240 234 
 CHI  HZ EP   1    554 18.59                             116     0.1 6  254 196 
 CHI  HE ES   1    554 47.70                             116    -0.4 6  254 196 
 CHI  HZ I         554 55.11         5.0 0.52                           254 196 
 HEL  HZ EP   2    554 21.45                             113     0.5 4  276 255 
 HEL  HN ES   2    554 53.06                             113     0.6 4  276 255 
 HEL  HZ I         554 59.36         6.2 0.54                           276 255 
 PRA  HZ EP   2    554 33.82                             105    -0.7 3  397 210 
 PRA  HE ES   1    555 16.07                             105    -0.5 4  397 210 
                                                                                
