 2012  425 0655  2.6 L   6.775 -73.185149.5  RSN  4 0.4 1.3LRSN                1
 GAP=231        0.96       9.8    10.1 11.2  0.4890E+02 -0.1195E+02 -0.1426E+02E
 Epicentro: LOS SANTOS - SANTANDER                                             3
 ACTION:UPD 12-07-05 11:55 OP:tino STATUS:               ID:20120425065502 L   I
 2012-04-25-0650-00M.COL___186                                                 6
 STAT SP IPHASW D HRMM SECON CODA AMPLIT PERI AZIMU VELO AIN AR TRES W  DIS CAZ7
 BAR2 SZ EP   1    655 22.00                             172    -0.7 7   20 179 
 BAR2 SZ ES   1    655 37.82                             172    -0.5 7   20 179 
 BRR  HZ EP        655 24.26                             154     0.210   69 302 
 BRR  HE ES   1    655 41.25                             154     0.5 7   69 302 
 BRR  HZ I         655 44.49         4.7 0.05                            69 302 
 RUS  HZ EP   1    655 26.82                             145     0.2 7   98 173 
 RUS  HN ES   1    655 45.70                             145     0.4 7   98 173 
 RUS  HZ I         655 47.55         2.1 0.30                            98 173 
 PTB  HE ES   1    655 50.11                             134    -0.3 7  143 260 
                                                                                
