 2016 1225 0120 58.2 L   6.780 -73.154144.0  RSN 15 0.6 2.8LRSN                1
 GAP= 99        1.24       4.0     3.6  6.1  0.1978E+00  0.3893E+01  0.8183E+01E
 Epicentro: LOS SANTOS - SANTANDER                                             3
 ACTION:UPD 17-01-11 20:18 OP:rebc STATUS:               ID:20161225012058 L   I
 OLDACT:UP  16-12-25 13:48 OP:cog  STATUS:               ID:20161225011743d    3
 OLDACT:DUP 16-12-25 13:44 OP:cog  STATUS:               ID:20161225011743d    3
 2016-12-25-0118-00M.COL___381                                                 6
 STAT SP IPHASW D HRMM SECON CODA AMPLIT PERI AZIMU VELO AIN AR TRES W  DIS CAZ7
 BAR2 EZ EP        121 17.42                             171   -0.1210 21.0 189 
 BAR2 HN ES        121 32.55                             171   -0.1010 21.0 189 
 BAR2 EZ I         121 33.46       361.4 0.22            167           21.0 189 
 BRR  HZ EP        121 19.27                             152    0.1210 71.5 300 
 BRR  HE ES        121 36.32                             152    0.8110 71.5 300 
 BRR  HZ I         121 39.49       188.5 0.32            149           71.5 300 
 PAM  EZ EP        121 20.26                             150   -0.0810 79.7  39 
 PAM  EE ES        121 37.37                             150   -0.2610 79.7  39 
 PAM  EZ I         121 39.40       186.7 0.52            156           79.7  39 
 RUS  HZ EP        121 21.40                             144   -0.1910 98.4 175 
 RUS  HN ES        121 40.34                             144    0.4810 98.4 175 
 RUS  HZ I         121 41.00        79.3 0.30            144           98.4 175 
 PTB  HZ EP        121 24.19                             132   -0.69 9  146 260 
 PTB  HN ES        121 44.96                             132   -0.75 9  146 260 
 PTB  HZ I         121 52.34        80.7 0.30            130            146 260 
 TAM  HZ IP     C  121 25.72                             130   -0.02 9  155 104 
 TAM  HN ES        121 47.26                             130    0.02 9  155 104 
 ZAR  HZ EP        121 31.02                             122    0.52 9  204 293 
 ZAR  HE ES        121 55.52                             122   -0.20 9  204 293 
 ZAR  HZ I         122  2.08       115.8 0.32            122            204 293 
 NOR  HZ EP        121 33.63                             118    0.05 8  233 235 
 NOR  HE ES        122  0.75                             118   -0.45 8  233 235 
 NOR  HZ I         122  7.62        45.5 0.16            118            233 235 
 CHI  HZ EP        121 35.53                             117    0.02 8  246 195 
 CHI  HE ES        122  4.91                             117    0.28 8  246 195 
 CHI  HZ I         122  8.37        21.2 0.40            117            246 195 
 ROSC BZ EP        121 37.28                             117    1.35 8  250 211 
 ROSC BN ES        122  4.77                             117   -0.62 8  250 211 
 ROSC BZ I         122 15.10        33.0 0.40            116            250 211 
 GUY2CHZ EP   4    121 42.03                             112    0.56 0  299 235 
 GUY2CHN ES   4    122 17.85                             112    2.61 0  299 235 
 VIL  EZ EP        121 40.94                             112   -0.30 7  301 191 
 VIL  EN ES        122 15.29                             112    0.46 7  301 191 
 VIL  EZ I         122 19.69        28.2 0.36            112            301 191 
 PTGC HZ EP        121 40.40                             111   -1.35 7  307 158 
 PTGC HE ES   4    122 13.55                             111   -2.19 0  307 158 
 PTGC HZ I         122 16.50        33.5 0.36            113            307 158 
 ELA  HZ EP   4    121 46.64                             110    1.94 0  327 230 
 ELA  HN ES   4    122 22.21                             110    1.21 0  327 230 
 CBOC HZ EP        121 45.57                             110    0.74 7  332 252 
 CBOC HE ES   3    122 19.67                             110   -1.56 2  332 252 
 CBOC HZ I         122 33.08         8.7 0.56            110            332 252 
 ANIL HZ EP   4    121 49.29                             108    1.64 0  355 225 
 ANIL HE IS   4    122 28.50                             108    2.26 0  355 225 
 ANIL HZ I         122 36.99        53.5 0.36            108            355 225 
 ORTC HZ EP        121 52.54                             106    0.79 6  393 216 
 ORTC HE ES   4    122 34.95                             106    1.40 0  393 216 
 ORTC HZ I         122 38.29        13.7 0.24            106            393 216 
                                                                                
