 2013  525 0841 10.0 L   6.733 -73.157139.1  RSN  6 0.5 1.8LRSN                1
 GAP=138        1.43       7.1     7.2  9.7 -0.4568E+01  0.9929E+01  0.9924E+01E
 Epicentro: VILLANUEVA - SANTANDER                                             3
 ACTION:UPD 13-06-20 09:53 OP:ep   STATUS:               ID:20130525084110 L   I
 2013-05-25-0838-50M.COL___210                                                 6
 STAT SP IPHASW D HRMM SECON CODA AMPLIT PERI AZIMU VELO AIN AR TRES W  DIS CAZ7
 BAR2 SZ EP        841 28.89                             173    0.2410 15.8 190 
 BAR2 SZ ES        841 43.72                             173    0.4910 15.8 190 
 BAR2 SZ I         841 44.84         9.9 0.26            173           15.8 190 
 GIR2 SZ ES        841 43.26                             164   -0.7010 38.5 354 
 BRR  HZ EP        841 30.89                             150    0.3410 74.0 304 
 BRR  HE ES        841 47.67                             150    1.0510 74.0 304 
 BRR  HN I         841 51.61        13.3 0.14            149           74.0 304 
 PAM  SZ EP        841 31.86                             147   -0.0210 84.0  37 
 PAM  SN ES        841 48.49                             147   -0.5010 84.0  37 
 PAM  SN I         841 49.41        13.2 0.54            150           84.0  37 
 RUS  HZ EP        841 32.93                             144    0.4110 93.2 175 
 RUS  HE ES        841 49.82                             144   -0.3010 93.2 175 
 PTB  HZ EP        841 35.76                             131   -0.40 9  145 262 
 PTB  HN ES        841 55.83                             131   -0.76 9  145 262 
 PTB  HN I         841 58.82         9.9 0.22            131            145 262 
                                                                                
