 2010  625 0946 40.9 L   6.827 -73.041145.5  RSN  7 0.3 1.5LRSN                1
 GAP=167        0.67       4.0     8.3  7.8 -0.5163E+01 -0.2570E+02 -0.2404E+01E
 Epicentro: LOS SANTOS - SANTANDER                                             3
 ACTION:UP  10-08-24 10:13 OP:vdl  STATUS:               ID:20100625094641 L   I
 2010-06-25-0943-11S.COL___118                                                 6
 STAT SP IPHASW D HRMM SECON CODA AMPLIT PERI AZIMU VELO SNR AR TRES W  DIS CAZ7
 BAR2 SZ EP   2    947  0.64                             167     0.0 5   30 211 
 BAR2 SZ ES   2    947 16.00                             167    -0.1 5   30 211 
 BRR  HZ EP   1    947  2.44                             149    -0.1 8   80 293 
 BRR  HN ES   1    947 19.58                             149     0.1 8   80 293 
 BRR  HZ I         947 28.90        10.6 0.43                            80 293 
 BRI  SZ EP   2    947  5.17                             143     0.9 5  102  15 
 RUS  HZ EP   1    947  4.79                             143    -0.1 8  103 183 
 RUS  HE ES   2    947 23.64                             143     0.1 5  103 183 
 RUS  HZ I         947 24.89         1.7 0.48                           103 183 
 GUE  SZ EP   1    947  5.36                             140     0.1 8  112   7 
 GRA  SZ IP        947  5.27                             138    -0.410  120  13 
 GRA  SZ ES   1    947 25.05                             138     0.1 7  120  13 
 OCA  SZ EP   1    947  9.58                             129     0.5 7  159 349 
 OCA  SZ ES   2    947 30.51                             129    -0.6 5  159 349 
 OCA  SZ I         947 33.95         6.3 0.29                           159 349 
                                                                                
