 2017  125 0405  4.6 L   5.879 -73.687123.7  RSN  4 0.2 0.6LRSN                1
 GAP=222        0.63       4.9     4.1  8.7  0.9285E+01  0.1785E+02  0.1279E+02E
 Epicentro: PUENTE NACIONAL - SANTANDER                                        3
 ACTION:UPD 17-05-22 16:03 OP:jn   STATUS:               ID:20170125040504 L   I
 OLDACT:DUP 17-01-25 14:42 OP:lv   STATUS:               ID:20170125035741d    3
 2017-01-25-0358-00M.COL___355                                                 6
 STAT SP IPHASW D HRMM SECON CODA AMPLIT PERI AZIMU VELO AIN AR TRES W  DIS CAZ7
 RUS  HZ EP        4 5 24.16                             150    0.3310 66.9  89 
 RUS  HN ES        4 5 38.72                             150   -0.1210 66.9  89 
 RUS  HZ I         4 5 41.21         0.8 0.21            155           66.9  89 
 BAR2 EZ ES        4 5 41.78                             140   -0.1410 96.6  35 
 PTB  HZ EP        4 5 26.19                             135   -0.3510  112 311 
 PTB  HE ES        4 5 43.83                             135    0.1610  112 311 
 PTB  HZ I         4 5 46.09         0.9 0.10            139            112 311 
 BRR  HN ES        4 5 47.58                             129    0.13 9  136 359 
                                                                                
