 2017 1225 0949 35.5 L   6.834 -73.112147.9  RSN 15 0.9 1.9LRSN                1
 GAP= 68        1.60       4.4     4.6  8.4 -0.1393E+01  0.9055E+01  0.9539E+01E
 Epicentro: LOS SANTOS - SANTANDER                                             3
 ACTION:UPD 18-01-04 13:24 OP:rebc STATUS:               ID:20171225094935 L   I
 OLDACT:UP  17-12-25 15:32 OP:osc  STATUS:               ID:20171225094732     3
 OLDACT:REG 17-12-25 12:55 OP:osc  STATUS:               ID:20171225094732     3
 2017-12-25-0948-00M.COL___451                                                 6
 STAT SP IPHASW D HRMM SECON CODA AMPLIT PERI AZIMU VELO AIN AR TRES W  DIS CAZ7
 BAR2 EZ EP     C  949 55.10                             169   -0.3510 27.8 196 
 BAR2 EZ ES        950 10.85                             169   -0.1910 27.8 196 
 BAR2 EZ I         950 12.61        17.6 0.28            168           27.8 196 
 PAM  EZ EP        949 57.98                             153    0.3710 72.1  39 
 PAM  EN ES        950 14.81                             153   -0.0710 72.1  39 
 PAM  EZ I         950 17.41        11.4 0.50            155           72.1  39 
 PTB  HZ EP   9    950  1.66                             132   -1.35 0  152 258 
 PTB  HE ES        950 23.16                             131    0.02 9  152 258 
 PTB  HZ I         950 24.71         5.4 0.16            131            152 258 
 TAM  HZ EP        950  3.38                             131    0.30 9  153 107 
 TAM  HE ES        950 25.01                             131    0.39 9  153 107 
 TAM  HZ I         950 25.43         6.9 0.76            135            153 107 
 OCA  HZ EP        950  3.38                             131   -0.27 9  157 352 
 OCA  HE ES        950 25.03                             131   -0.60 9  157 352 
 OCA  HZ I         950 29.71        17.2 0.20            132            157 352 
 SPBC HZ EP        950  3.99                             129   -0.64 9  168 219 
 SPBC HE ES        950 27.42                             129    0.05 9  168 219 
 SPBC HZ I         950 32.37        12.5 0.26            129            168 219 
 YPLC HZ EP        950  4.94                             127   -0.63 9  178 153 
 YPLC HE ES        950 29.92                             127    0.87 9  178 153 
 YPLC HZ I         950 30.38         7.7 0.26            129            178 153 
 ZAR  HZ EP        950  9.73                             123    1.46 8  206 291 
 ZAR  HN ES        950 33.79                             123   -0.07 8  206 291 
 ZAR  HZ I         950 43.25        11.0 0.16            123            206 291 
 ROSC BZ EP        950 15.53                             117    1.27 8  258 211 
 ROSC BN ES        950 44.06                             117   -0.46 8  258 211 
 ROSC BZ I         950 49.20         7.1 0.40            118            258 211 
 CVER HZ EP        950 16.97                             115    0.49 7  277 203 
 CVER HN ES        950 48.40                             115   -0.06 7  277 203 
 GUY2CHZ EP        950 20.33                             112    0.57 7  306 235 
 GUY2CHE ES        950 54.41                             112    0.10 7  306 235 
 GUY2CHZ I         951  4.06         4.0 0.52                           306 235 
 PTGC HZ EP        950 18.37                             112   -1.29 7  311 160 
 PTGC HE ES   2    950 51.37                             112   -2.76 3  311 160 
 ELA  HE ES   2    951  3.70                             110    3.61 3  334 229 
 CBOC HZ EP        950 23.31                             110    0.30 7  338 252 
 CBOC HE ES        950 58.56                             110   -1.53 7  338 252 
 CBOC HZ I         951 11.76         1.4 0.46            111            338 252 
 PRA  HZ EP        950 29.56                             107   -0.10 6  397 210 
 PRA  HE ES        951 11.18                             107   -0.74 6  397 210 
 PRA  HZ I         951 15.58         3.3 0.24            108            397 210 
                                                                                
