 2017  225 0741 26.7 L   6.789 -73.104139.1  RSN  5 0.2 0.9LRSN                1
 GAP=142        0.46       2.6     2.5  4.4 -0.1230E+01  0.1574E+01 -0.2040E+01E
 Epicentro: LOS SANTOS - SANTANDER                                             3
 ACTION:UPD 17-05-24 15:40 OP:jn   STATUS:               ID:20170225074126 L   I
 OLDACT:UP  17-02-25 17:57 OP:dani STATUS:               ID:20170225073746d    3
 OLDACT:UP  17-02-25 17:57 OP:dani STATUS:               ID:20170225073746d    3
 OLDACT:UP  17-02-25 17:56 OP:dani STATUS:               ID:20170225073746d    3
 OLDACT:UP  17-02-25 17:56 OP:dani STATUS:               ID:20170225073746d    3
 OLDACT:UP  17-02-25 17:55 OP:dani STATUS:               ID:20170225073746d    3
 OLDACT:DUP 17-02-25 17:53 OP:dani STATUS:               ID:20170225073746d    3
 OLDACT:DUP 17-02-25 17:51 OP:dani STATUS:               ID:20170225073745d    3
 OLDACT:UP  17-02-25 17:50 OP:dani STATUS:               ID:20170225073744     3
 OLDACT:UP  17-02-25 17:50 OP:dani STATUS:               ID:20170225073744     3
 OLDACT:UP  17-02-25 17:50 OP:dani STATUS:               ID:20170225073744     3
 OLDACT:UP  17-02-25 17:49 OP:dani STATUS:               ID:20170225073744     3
 OLDACT:UP  17-02-25 17:49 OP:dani STATUS:               ID:20170225073744     3
 OLDACT:UP  17-02-25 17:48 OP:dani STATUS:               ID:20170225073744     3
 OLDACT:UP  17-02-25 17:48 OP:dani STATUS:               ID:20170225073744     3
 OLDACT:UP  17-02-25 17:48 OP:dani STATUS:               ID:20170225073744     3
 OLDACT:UP  17-02-25 17:47 OP:dani STATUS:               ID:20170225073744     3
 OLDACT:UP  17-02-25 17:47 OP:dani STATUS:               ID:20170225073744     3
 OLDACT:REG 17-02-25 13:01 OP:dani STATUS:               ID:20170225073744     3
 2017-02-25-0738-00M.COL___364                                                 6
 STAT SP IPHASW D HRMM SECON CODA AMPLIT PERI AZIMU VELO AIN AR TRES W  DIS CAZ7
 BAR2 EZ EP   3    741 45.25                             170   -0.29 2 23.4 202 
 BAR2 EZ ES        742  0.05                             170   -0.1810 23.4 202 
 BAR2 EZ I         742  2.67         1.8 0.28            170           23.4 202 
 PAM  EZ EP        741 48.18                             150    0.0810 75.5  36 
 PAM  EE ES        742  4.68                             150   -0.1110 75.5  36 
 BRR  HZ EP        741 47.37                             150   -0.0510 75.8 298 
 BRR  HN ES        742  3.87                             150    0.3010 75.8 298 
 BRR  HZ I         742  6.90         2.8 0.32            151           75.8 298 
 RUS  HZ EP   3    741 49.84                             143    0.13 2 99.2 179 
 RUS  HN ES        742  7.79                             143    0.1410 99.2 179 
 RUS  HZ I         742  9.79         1.0 0.26            145           99.2 179 
 PTB  HE ES        742 14.28                             130   -0.19 9  152 260 
                                                                                
