 2017  925 0656 25.6 L   6.795 -73.168147.6  RSN  4 0.2 1.3LRSN                1
 GAP=235        0.65       7.5     8.2  5.9  0.4891E+02  0.5182E+01 -0.7002E+01E
 Epicentro: LOS SANTOS - SANTANDER                                             3
 ACTION:UPD 17-10-05 19:16 OP:rebc STATUS:               ID:20170925065625 L   I
 OLDACT:UP  17-09-25 17:21 OP:edw  STATUS:               ID:20170925064743d    3
 OLDACT:DUP 17-09-25 17:18 OP:edw  STATUS:               ID:20170925064743d    3
 OLDACT:DUP 17-09-25 17:08 OP:edw  STATUS:               ID:20170925064742d    3
 OLDACT:UP  17-09-25 17:08 OP:edw  STATUS:               ID:20170925064741     3
 OLDACT:REG 17-09-25 13:10 OP:edw  STATUS:               ID:20170925064741     3
 2017-09-25-0648-00M.COL___399                                                 6
 STAT SP IPHASW D HRMM SECON CODA AMPLIT PERI AZIMU VELO AIN AR TRES W  DIS CAZ7
 BAR2 EZ EP        656 45.29                             171   -0.1810 22.5 184 
 BAR2 EZ ES        657  0.61                             171   -0.3310 22.5 184 
 BAR2 EZ I         657  1.82         3.4 0.14            153           22.5 184 
 BRR  HZ EP        656 47.05                             153    0.1810 69.3 300 
 BRR  HN ES        657  3.78                             153    0.3410 69.3 300 
 BRR  HZ I         657  8.18         3.7 0.40            140           69.3 300 
 RUS  HN ES        657  8.36                             144    0.1710  100 175 
 RUS  HZ I         657  9.68         2.0 0.50            137            100 175 
 ZAR  HZ EP        656 58.04                             123    0.06 9  202 293 
 ZAR  HN ES        657 22.91                             123   -0.31 9  202 293 
 ZAR  HZ I         657 35.63         2.4 0.58            118            202 293 
                                                                                
