 2014  225 0902 43.5 L   6.978 -73.350126.4  RSN  5 0.5 1.3LRSN                1
 GAP=155        1.30       5.6     7.0 16.1  0.5108E+01  0.4604E+02 -0.1449E+02E
 Epicentro: BETULIA - SANTANDER                                                3
 ACTION:UPD 14-03-10 08:13 OP:ep   STATUS:               ID:20140225090243 L   I
 OLDACT:DUP 14-02-25 10:32 OP:stll STATUS:               ID:20140225085809d    3
 2014-02-25-0858-05M.COL___220                                                 6
 STAT SP IPHASW D HRMM SECON CODA AMPLIT PERI AZIMU VELO AIN AR TRES W  DIS CAZ7
 BAR2 SZ EP        9 3  2.11                             159    0.5510 46.5 157 
 BAR2 SZ ES        9 3 15.89                             159    0.2210 46.5 157 
 BAR2 SZ I         9 3 17.10        11.5 0.16            162           46.5 157 
 RUS  HE ES        9 3 25.79                             133   -0.1210  124 166 
 PTB  HZ EP        9 3  7.02                             131   -0.3610  132 248 
 PTB  HN ES        9 3 25.39                             131   -0.6610  132 248 
 PTB  HZ I         9 3 29.87         1.7 0.26            131            132 248 
 OCA  HN ES        9 3 27.19                             129   -0.50 9  139   1 
 ZAR  HN ES        9 3 34.71                             122    0.89 9  176 289 
 ZAR  HZ I         9 3 39.36         2.2 0.28            123            176 289 
                                                                                
