 2016 1025 0426 17.6 L   6.781 -73.140140.6  RSN  9 0.2 1.7LRSN                1
 GAP=138        0.61       2.4     2.9  3.9 -0.1935E+01  0.1190E+01  0.2154E+01E
 Epicentro: LOS SANTOS - SANTANDER                                             3
 ACTION:UPD 16-11-09 19:22 OP:rebc STATUS:               ID:20161025042617 L   I
 OLDACT:REG 16-10-25 13:06 OP:cara STATUS:               ID:20161025041742     3
 2016-10-25-0418-00M.COL___358                                                 6
 STAT SP IPHASW D HRMM SECON CODA AMPLIT PERI AZIMU VELO AIN AR TRES W  DIS CAZ7
 BAR2 EZ IP        426 36.67                             171    0.0810 21.4 193 
 BAR2 EZ ES        426 51.18                             171   -0.2110 21.4 193 
 BAR2 EZ I         426 53.04        14.0 0.48            168           21.4 193 
 BRR  HZ IP        426 38.42                             151    0.1210 72.8 300 
 BRR  HE ES        426 54.65                             151    0.2110 72.8 300 
 BRR  HZ I         426 59.32        11.3 0.12            151           72.8 300 
 PAM  EZ IP        426 39.60                             149    0.2410 78.6  38 
 PAM  EE ES        426 56.08                             149   -0.2410 78.6  38 
 PAM  EZ I         426 56.82         9.6 0.28            155           78.6  38 
 RUS  HZ EP        426 40.68                             143   -0.0310 98.4 176 
 RUS  HE ES        426 58.82                             143    0.1010 98.4 176 
 RUS  HZ I         427  0.40         4.1 0.32            143           98.4 176 
 PTB  HZ EP        426 43.56                             131   -0.63 9  148 260 
 PTB  HN ES        427  5.03                             131    0.11 9  148 260 
 PTB  HZ I         427  7.13         6.1 0.24            131            148 260 
 SPBC HZ EP        426 45.89                             128    0.28 9  162 220 
 SPBC HN ES        427  7.46                             128    0.02 9  162 220 
 SPBC HZ I         427 14.22         7.6 0.68            128            162 220 
 CHI  HE ES        427 23.92                             116    0.06 8  247 195 
 CHI  HZ I         427 30.34         1.6 0.22            117            247 195 
 GUY2CHZ EP   9    427  2.32                             111    1.40 0  301 235 
 GUY2CHE ES        427 36.09                                   -0.00 7  301 235 
 GUY2CHZ I         427 42.09         2.4 0.28                           301 235 
 PRA  HN ES        427 51.97                             106   -0.29 6  391 210 
 PRA  HZ I         427 58.13         2.1 0.32            107            391 210 
                                                                                
