 2010 1025 0833 33.0 L   6.209 -73.728104.2  RSN  6 0.3 1.7LRSN                1
 GAP=115        0.55       3.6     3.5  8.6 -0.1366E+01  0.1520E+02  0.9507E+01E
 Epicentro: LANDAZURI - SANTANDER                                              3
 ACTION:UP  11-02-18 11:12 OP:tino STATUS:               ID:20101025083333 L   I
 2010-10-25-0820-00M.COL___115                                                 6
 STAT SP IPHASW D HRMM SECON CODA AMPLIT PERI AZIMU VELO SNR AR TRES W  DIS CAZ7
 BAR2 SZ EP        833 50.51                             142     0.210   74  55 
 BAR2 SZ ES   2    834  3.77                             142    -0.1 5   74  55 
 BAR2 SZ I         834  5.66        55.8 0.30                            74  55 
 RUS  HZ EP   1    833 51.00                             140    -0.1 7   80 116 
 RUS  HN ES   2    834  5.17                             140    -0.1 5   80 116 
 RUS  HZ I         834  6.81         5.6 0.42                            80 116 
 BRR  HZ IP     C  833 52.02                             133    -0.110   99   1 
 BRR  HZ I         833 52.33        11.1 0.12                            99   1 
 BRR  HE ES   1    834  7.19                             133     0.1 7   99   1 
 NOR  SZ EP   1    833 56.55                             121    -0.2 7  145 241 
 NOR  SN ES   2    834 15.28                             121     0.1 5  145 241 
 HEL  HZ EP   2    834  2.25                             112    -0.8 4  199 270 
 HEL  HE ES   2    834 26.49                             112     0.1 4  199 270 
 HEL  HZ I         834 30.83         4.1 0.50                           199 270 
 RREF HZ EP   1    834  7.39                             109     0.5 6  230 231 
 RREF HZ I         834 38.54         5.9 0.54                           230 231 
                                                                                
