 2016 1225 0343 15.8 L   6.751 -73.198148.0  RSN  4 0.2 1.2LRSN                1
 GAP=228        0.62       4.9     4.6  5.0  0.1100E+02  0.2323E+01  0.7998E+00E
 Epicentro: VILLANUEVA - SANTANDER                                             3
 ACTION:UPD 17-01-11 20:18 OP:rebc STATUS:               ID:20161225034315 L   I
 OLDACT:REG 16-12-25 12:48 OP:cog  STATUS:               ID:20161225033744     3
 2016-12-25-0338-00M.COL___381                                                 6
 STAT SP IPHASW D HRMM SECON CODA AMPLIT PERI AZIMU VELO AIN AR TRES W  DIS CAZ7
 BAR2 EZ EP        343 35.40                             173   -0.2110 17.7 174 
 BAR2 EZ ES        343 50.77                             173   -0.2810 17.7 174 
 BAR2 EZ I         343 51.64         7.2 0.76            167           17.7 174 
 BRR  HZ EP        343 37.12                             154    0.0310 69.1 305 
 BRR  HN ES        343 53.98                             154    0.3010 69.1 305 
 BRR  HZ I         343 57.39         3.9 0.34            149           69.1 305 
 RUS  HZ EP        343 39.78                             146    0.3310 95.8 172 
 RUS  HN ES        343 57.96                             146    0.0810 95.8 172 
 RUS  HZ I         343 59.56         1.2 0.36            145           95.8 172 
 PTB  HZ EP        343 42.14                             134   -0.23 9  141 261 
 PTB  HN ES        344  3.06                             134   -0.03 9  141 261 
 PTB  HZ I         344 10.73         1.5 0.22            131            141 261 
                                                                                
