 2010 1025 0705 49.1 L   6.835 -72.996140.0  RSN  3 0.1 1.6LRSN                1
 GAP=254        0.41       9.0    16.0  8.1  0.1318E+03 -0.9191E+02 -0.5026E+02E
 Epicentro: CEPITA - SANTANDER                                                 3
 ACTION:UP  11-02-18 11:12 OP:tino STATUS:               ID:20101025070549 L   I
 2010-10-25-0700-00M.COL___115                                                 6
 STAT SP IPHASW D HRMM SECON CODA AMPLIT PERI AZIMU VELO SNR AR TRES W  DIS CAZ7
 BAR2 SZ EP   1    7 6  8.50                             166     0.2 7   34 218 
 BAR2 SZ ES   2    7 6 23.18                             166    -0.1 5   34 218 
 BAR2 SZ I         7 6 24.84        13.5 0.21                            34 218 
 BRR  HZ IP     C  7 6 10.36                             147    -0.110   85 291 
 BRR  HZ I         7 6 10.81        14.3 0.10                            85 291 
 BRR  HN ES   1    7 6 27.31                             147     0.1 7   85 291 
 RUS  HZ EP   1    7 6 12.71                             142     0.1 7  105 185 
 RUS  HE ES   1    7 6 30.90                             142    -0.1 7  105 185 
 RUS  HZ I         7 6 31.95         2.6 0.26                           105 185 
                                                                                
