 2015  125 0030 29.4 L   6.661 -73.237 25.4  RSN  5 0.3 1.3LRSN                1
 GAP=103        0.83       2.2     2.7  3.8  0.6213E-01  0.5177E+01 -0.8829E+00E
 Epicentro: BARICHARA - SANTANDER                                              3
 ACTION:UPD 15-03-02 15:42 OP:nd   STATUS:               ID:20150125003029 L   I
 OLDACT:REG 15-01-25 12:15 OP:spq  STATUS:               ID:20150125001744     3
 2015-01-25-0017-44M.COL___271                                                 6
 STAT SP IPHASW D HRMM SECON CODA AMPLIT PERI AZIMU VELO AIN AR TRES W  DIS CAZ7
 BAR2 EZ EP     C  030 34.37                             157    0.2710 9.71 142 
 BAR2 EZ ES   1    030 37.96                             157    0.17 7 9.71 142 
 BAR2 EZ I         030 38.50        43.3 0.16            157           9.71 142 
 BRR  HZ EP     D  030 41.11                              92   -0.2410 72.0 313 
 BRR  HN ES        030 50.27                              92   -0.4210 72.0 313 
 BRR  HZ I         030 50.47        10.5 0.52            106           72.0 313 
 RUS  HZ EP        030 43.99                              91    0.0210 86.6 169 
 RUS  HE ES   1    030 54.62                              91   -0.75 7 86.6 169 
 RUS  HZ I         030 55.11         4.1 0.24            104           86.6 169 
 PAM  SZ EP   1    030 45.65                              91    0.39 7 95.7  38 
 PAM  SE ES        030 57.56                              91   -0.1010 95.7  38 
 PAM  SZ I         030 58.46         8.9 0.24            103           95.7  38 
 PTB  HZ EP        030 50.12                              61    0.37 9  136 264 
 PTB  HN ES        031  5.91                              61    0.26 9  136 264 
 PTB  HZ I         031  7.23         5.4 0.10             56            136 264 
                                                                                
