 2014  525 0652  9.9 L   6.714 -73.139155.3  RSN  4 0.5 1.2LRSN                1
 GAP=232        1.16       9.9    10.0 11.7  0.6680E+02 -0.5229E+01 -0.1288E+02E
 Epicentro: JORDAN - SANTANDER                                                 3
 ACTION:UPD 15-03-16 17:00 OP:nd   STATUS:               ID:20140525065209 L   I
 OLDACT:REG 14-05-25 14:26 OP:stll STATUS:               ID:20140525064817     3
 2014-05-25-0648-17M.COL___227                                                 6
 STAT SP IPHASW D HRMM SECON CODA AMPLIT PERI AZIMU VELO AIN AR TRES W  DIS CAZ7
 BRR  HZ EP        652 33.07                             152    0.6410 76.8 305 
 BRR  HN ES        652 49.59                             152   -0.3910 76.8 305 
 BRR  HZ I         652 50.90         2.7 0.50            154           76.8 305 
 RUS  HZ EP        652 33.24                             148   -0.7610 91.0 176 
 RUS  HN ES        652 53.23                             148    0.4610 91.0 176 
 RUS  HZ I         652 56.29         2.0 0.38            148           91.0 176 
 PTB  HZ EP        652 37.74                             134    0.11 9  147 263 
 PTB  HN ES        652 59.11                             134   -0.11 9  147 263 
 PTB  HZ I         653  1.41         1.9 0.18            135            147 263 
 ZAR  HE ES        653  9.70                             124    0.08 8  208 294 
                                                                                
