 2016 1025 0130 45.6 L   6.764 -73.123140.8  RSN  8 0.3 1.7LRSN                1
 GAP=141        0.73       3.0     3.4  5.1 -0.2440E+01  0.2251E+01  0.4880E+01E
 Epicentro: LOS SANTOS - SANTANDER                                             3
 ACTION:UPD 16-11-09 19:22 OP:rebc STATUS:               ID:20161025013045 L   I
 OLDACT:REG 16-10-25 12:51 OP:cara STATUS:               ID:20161025012748     3
 2016-10-25-0128-00M.COL___358                                                 6
 STAT SP IPHASW D HRMM SECON CODA AMPLIT PERI AZIMU VELO AIN AR TRES W  DIS CAZ7
 BRR  HZ EP        131  6.54                             150    0.1110 75.4 300 
 BRR  HN ES        131 23.05                             150    0.3510 75.4 300 
 BRR  HZ I         131 27.35        12.9 0.10            151           75.4 300 
 PAM  EZ EP        131  7.44                             149    0.0910 78.9  36 
 PAM  EN ES        131 24.11                             149   -0.2410 78.9  36 
 PAM  EZ I         131 26.20        11.0 0.60            155           78.9  36 
 RUS  HZ EP        131  8.47                             144   -0.0710 96.5 177 
 RUS  HN ES        131 26.67                             144    0.2210 96.5 177 
 RUS  HZ I         131 27.62         3.9 0.20            144           96.5 177 
 PTB  HZ EP        131 11.74                             130   -0.56 9  150 261 
 PTB  HN ES        131 32.80                             130   -0.35 9  150 261 
 PTB  HZ I         131 34.59         9.6 0.36            131            150 261 
 SPBC HZ IP        131 13.57                             128    0.02 9  162 221 
 SPBC HN ES        131 35.37                             128   -0.01 9  162 221 
 SPBC HZ I         131 39.06        10.3 0.24            129            162 221 
 CHI  HZ EP        131 22.87                             116    0.22 8  245 196 
 CHI  HN ES        131 51.17                             116   -0.41 8  245 196 
 CHI  HZ I         132  4.96         1.6 0.64            118            245 196 
 HEL  HZ EP   4    131 26.69                             114    0.99 0  274 257 
 HEL  HE ES   4    131 53.93                             114   -3.08 0  274 257 
 HEL  HZ I         132  3.65         4.1 0.30            115            274 257 
 GUY2CHZ EP        131 29.43                             111    0.50 7  301 236 
 GUY2CHN ES        132  3.13                             111    0.38 7  301 236 
 GUY2CHZ I         132 12.00         2.6 0.60                           301 236 
                                                                                
