 2013  425 0931 51.2 L   6.803 -73.170139.3  RSN 14 0.5 2.8LRSN 3.1WRSN        1
 SPEC AVERAGE  MO 13.8 ST  7.3 OM  2.4 f0 3.68 R0.4272 AL 2.75 WI 27.0 MW  3.1 3
 SPEC SD       MO  0.2 ST  8.7 OM  0.4 f0 1.03 R0.1015 AL      WI      MW  0.1 3
 GAP= 70        1.16       4.5     4.6  5.8 -0.1882E+01  0.9205E+00  0.4099E+01E
 Epicentro: LOS SANTOS - SANTANDER                                             3
 SPEC OCA HH N MO 14.2 ST  6.4 OM  2.5 f0 3.02 R0.4868 AL 1.83 WI 24.3 MW  3.4 3
 SPEC OCA HH N T 93237 K 0.000 GD  212 VS 4.20 DE 3.20 Q0300.0 QA 0.60 VS 4.20 3
 SPEC PTB HH N MO 13.8 ST  4.4 OM  2.1 f0 3.71 R0.3962 AL 2.81 WI 21.5 MW  3.1 3
 SPEC PTB HH N T 93234 K 0.000 GD  201 VS 4.20 DE 3.20 Q0300.0 QA 0.60 VS 4.20 3
 SPEC RUS HH N MO 13.6 ST  1.4 OM  2.0 f0 2.88 R0.5104 AL 2.42 WI 20.3 MW  3.0 3
 SPEC RUS HH N T 93228 K 0.000 GD  172 VS 4.20 DE 3.20 Q0300.0 QA 0.60 VS 4.20 3
 SPEC PAM SH N MO 13.6 ST0.956 OM  2.0 f0 2.59 R0.5676 AL 2.10 WI 32.1 MW  3.0 3
 SPEC PAM SH N T 93224 K 0.000 GD  160 VS 4.20 DE 3.20 Q0300.0 QA 0.60 VS 4.20 3
 SPEC HEL HH N MO 13.6 ST  1.8 OM  1.7 f0 3.25 R0.4523 AL 2.54 WI 31.9 MW  3.0 3
 SPEC HEL HH N T 93256 K 0.000 GD  303 VS 4.20 DE 3.20 Q0300.0 QA 0.60 VS 4.20 3
 SPEC NOR HH N MO 14.0 ST 27.5 OM  2.2 f0 5.71 R0.2574 AL 4.87 WI 27.9 MW  3.3 3
 SPEC NOR HH N T 93249 K 0.000 GD  271 VS 4.20 DE 3.20 Q0300.0 QA 0.60 VS 4.20 3
 SPEC BRR HH N MO 13.8 ST  8.2 OM  2.2 f0 4.60 R0.3196 AL 2.69 WI 31.1 MW  3.1 3
 SPEC BRR HH N T 93225 K 0.000 GD  155 VS 4.20 DE 3.20 Q0300.0 QA 0.60 VS 4.20 3
 ACTION:UPD 13-05-22 14:40 OP:EP   STATUS:               ID:20130425093151 L   I
 2013-04-25-0928-35M.COL___194                                                 6
 STAT SP IPHASW D HRMM SECON CODA AMPLIT PERI AZIMU VELO AIN AR TRES W  DIS CAZ7
 BAR2 SZ IP     C  932 10.20                             170    0.1910 23.3 183 
 BAR2 SZ ES        932 24.52                             170   -0.1910 23.3 183 
 BAR2 SZ I         932 25.98       134.0 0.16            170           23.3 183 
 GIR2 SZ EP        932 10.30                             167    0.2610 30.6 355 
 GIR2 SZ ES        932 24.79                             167    0.0210 30.6 355 
 BRR  HZ IP     D  932 12.11                             152    0.6410 68.7 299 
 BRR  HN ES        932 28.11                             152    0.8010 68.7 299 
 BRR  HN I         932 29.08       197.5 0.20            147           68.7 299 
 PAM  SZ EP        932 13.08                             149    0.3010 78.8  41 
 PAM  SN ES   2    932 29.88                             149    0.24 5 78.8  41 
 PAM  SN I         932 31.14        72.9 0.42            149           78.8  41 
 RUS  HZ EP     C  932 14.13                             142   -0.1910  101 175 
 RUS  HN ES   1    932 31.97                             142   -0.41 7  101 175 
 RUS  HN I         932 33.73       119.8 0.36            143            101 175 
 PTB  HZ EP        932 16.79                             131   -0.58 9  145 259 
 PTB  HN ES        932 37.05                             131   -0.77 9  145 259 
 PTB  HN I         932 40.13       168.0 0.30            128            145 259 
 TAM  HZ IP     D  932 18.58                             129    0.00 9  158 105 
 TAM  HE ES   2    932 39.16                             129   -0.81 5  158 105 
 TAM  HE I         932 40.28        55.7 0.42            130            158 105 
 OCA  HZ EP   1    932 18.61                             128   -0.30 7  160 354 
 OCA  HN ES   1    932 39.86                             128   -0.70 7  160 354 
 NOR  HZ EP   1    932 26.22                             117   -0.09 6  233 234 
 NOR  HN ES   2    932 53.57                             117   -0.15 4  233 234 
 NOR  HN I         932 56.13        59.1 0.20            116            233 234 
 SML  HZ EP        932 26.54                             116   -0.74 8  242 336 
 SML  HN ES   4    932 55.75                             116    0.30 0  242 336 
 SML  HN I         933  2.68       104.2 0.10            114            242 336 
 ROSC BZ EP        932 30.05                             115    1.24 8  252 210 
 ROSC BN ES   4    932 59.71                             115    1.53 0  252 210 
 HEL  HZ EP   4    932 32.26                             114    1.49 0  270 256 
 HEL  HN ES   2    933  2.37                             114    0.70 4  270 256 
 HEL  HN I         933  8.15        19.7 0.30            112            270 256 
 URE  HZ EP   4    932 31.11                             113   -0.52 0  281 292 
 URE  HN ES   4    933  2.94                             113   -0.26 0  281 292 
 URE  HN I         933 16.06        50.0 0.26            111            281 292 
 PRA  HZ EP        932 44.01                             106   -0.33 6  391 209 
 PRA  HN ES   2    933 25.27                             106   -0.55 3  391 209 
 PRA  HN I         933 30.39         8.2 0.30            105            391 209 
 SJC  HZ EP   4    932 44.70                             105   -1.61 0  408 327 
 SJC  HN ES   4    933 25.62                             105   -3.71 0  408 327 
                                                                                
