 2013  825 0215 52.0 L   6.798 -73.160148.2  RSN 19 0.5 2.0LRSN 2.5WRSN        1
 SPEC AVERAGE  MO 12.9 ST  6.9 OM  1.3 f0 6.90 R0.3079 AL 0.00 WI 20.0 MW  2.5 3
 SPEC SD       MO  0.1 ST 13.3 OM  0.2 f0 4.74 R0.1441 AL      WI      MW  0.1 3
 GAP= 70        1.23       2.8     3.1  5.9 -0.1705E+01  0.3809E+01  0.1797E+01E
 Epicentro: LOS SANTOS - SANTANDER                                             3
 SPEC BAR2SH Z MO 13.0 ST0.921 OM  1.4 f0 4.38 R0.3548 AL-0.00 WI 20.0 MW  2.6 3
 SPEC BAR2SH Z T 21625 K 0.000 GD  149 VS 4.20 DE 3.20 Q0300.0 QA 0.60 VS 4.20 3
 SPEC BRR HH Z MO 12.9 ST  1.4 OM  1.3 f0 5.26 R0.2954 AL-0.00 WI 20.0 MW  2.6 3
 SPEC BRR HH Z T 21629 K 0.000 GD  163 VS 4.20 DE 3.20 Q0300.0 QA 0.60 VS 4.20 3
 SPEC PAM SH Z MO 12.8 ST0.459 OM  1.2 f0 3.90 R0.3985 AL-0.00 WI 20.0 MW  2.5 3
 SPEC PAM SH Z T 21630 K 0.000 GD  167 VS 4.20 DE 3.20 Q0300.0 QA 0.60 VS 4.20 3
 SPEC RUS HH Z MO 12.9 ST0.187 OM  1.3 f0 2.62 R0.5931 AL-0.00 WI 20.0 MW  2.6 3
 SPEC RUS HH Z T 21633 K 0.000 GD  179 VS 4.20 DE 3.20 Q0300.0 QA 0.60 VS 4.20 3
 SPEC PTB HH Z MO 12.8 ST  8.6 OM  1.1 f0 10.4 R0.1494 AL-0.00 WI 20.0 MW  2.5 3
 SPEC PTB HH Z T 21638 K 0.000 GD  208 VS 4.20 DE 3.20 Q0300.0 QA 0.60 VS 4.20 3
 SPEC SPBCHH Z MO 12.9 ST  4.2 OM  1.2 f0 7.43 R0.2092 AL-0.00 WI 20.0 MW  2.6 3
 SPEC SPBCHH Z T 21641 K 0.000 GD  219 VS 4.20 DE 3.20 Q0300.0 QA 0.60 VS 4.20 3
 SPEC NOR HH Z MO 12.9 ST  1.6 OM  1.1 f0 5.45 R0.2851 AL-0.00 WI 20.0 MW  2.6 3
 SPEC NOR HH Z T 21653 K 0.000 GD  276 VS 4.20 DE 3.20 Q0300.0 QA 0.60 VS 4.20 3
 SPEC SML HH Z MO 12.7 ST 43.7 OM  0.9 f0 18.8 R0.0827 AL-0.00 WI 20.0 MW  2.4 3
 SPEC SML HH Z T 21655 K 0.000 GD  284 VS 4.20 DE 3.20 Q0300.0 QA 0.60 VS 4.20 3
 SPEC HEL HH Z MO 13.0 ST0.649 OM  1.1 f0 3.86 R0.4026 AL-0.00 WI 20.0 MW  2.6 3
 SPEC HEL HH Z T 217 2 K 0.000 GD  307 VS 4.20 DE 3.20 Q0300.0 QA 0.60 VS 4.20 3
 OLDACT:DUP 13-08-25 09:21 OP:stll STATUS:               ID:20130825020850d    3
 ACTION:UPD 14-01-14 09:06 OP:ep   STATUS:               ID:20130825021552 L   I
 OLDACT:UP  13-08-25 10:03 OP:stll STATUS:               ID:20130825020850d    3
 2013-08-25-0208-49M.COL___232                                                 6
 STAT SP IPHASW D HRMM SECON CODA AMPLIT PERI AZIMU VELO AIN AR TRES W  DIS CAZ7
 BAR2 SZ EP        216 11.91                             171   -0.0110 22.9 186 
 BAR2 SZ ES        216 27.02                             171   -0.4410 22.9 186 
 BAR2 SZ I         216 28.65        30.1 0.30            171           22.9 186 
 BRR  HZ IP     C  216 13.87                             153    0.5210 69.9 299 
 BRR  HN ES        216 31.14                             153    1.1510 69.9 299 
 BRR  SZ I         216 35.05        14.2 0.16            154           69.9 299 
 PAM  SZ EP        216 14.86                             151    0.3110 78.6  40 
 PAM  SN ES        216 32.07                             151   -0.0710 78.6  40 
 PAM  SZ I         216 35.57        12.7 0.72            154           78.6  40 
 RUS  HZ EP        216 16.08                             144    0.0910  101 175 
 RUS  HN ES        216 34.51                             144   -0.1910  101 175 
 RUS  SZ I         216 37.01        12.1 0.30            146            101 175 
 GRA  SZ EP        216 17.58                             137    0.0610  126  18 
 GRA  SZ ES        216 37.16                             137   -0.2710  126  18 
 GRA  SZ I         216 38.32        11.0 0.32            140            126  18 
 PTB  HZ EP        216 18.50                             133   -0.53 9  146 259 
 PTB  HN ES        216 39.75                             133   -0.36 9  146 259 
 PTB  SZ I         216 41.93        15.6 0.10            134            146 259 
 CAPV BZ EP        216 19.71                             132    0.01 9  150  38 
 TAM  HZ IP     D  216 20.14                             131    0.12 9  157 105 
 TAM  HN ES        216 41.71                             131   -0.15 9  157 105 
 OCA  HN ES        216 42.86                             130    0.12 9  160 354 
 SPBC HZ EP        216 20.86                             130    0.28 9  162 219 
 SPBC HN ES        216 42.89                             130    0.02 9  162 219 
 SPBC SZ I         216 48.08        16.3 0.54            131            162 219 
 ZAR  HN ES        216 49.85                             123    0.06 9  203 292 
 NOR  HZ EP        216 27.78                             119    0.05 8  233 234 
 NOR  HN ES        216 55.44                             119   -0.15 8  233 234 
 NOR  SZ I         217  0.13        11.2 0.20            121            233 234 
 SML  HZ EP        216 28.38                             118   -0.34 8  243 336 
 SML  HE ES        216 56.81                             118   -0.54 8  243 336 
 SML  SZ I         217  3.56        17.6 0.08            120            243 336 
 CHI  HZ EP        216 30.02                             118    0.25 8  248 195 
 CHI  HN ES        216 58.64                             118   -0.59 8  248 195 
 CHI  HZ I         217  4.44         5.3 0.54            120            248 195 
 HEL  HZ EP        216 33.23                             115    1.06 8  270 256 
 HEL  HN ES        217  4.24                             115    0.75 8  270 256 
 HEL  SZ I         217  9.04         6.2 0.54            117            270 256 
 URE  HN ES        217  3.32                             114   -1.72 7  282 292 
 GUY2CHN ES        217 10.26                             113    0.71 7  300 235 
 RREF HN ES        217 14.01                             111   -0.05 7  320 229 
 PRA  HN ES        217 26.20                             107   -1.02 6  391 209 
                                                                                
