 2015  825 0804 19.2 L   6.823 -73.138137.7  RSN  4 0.4 1.4LRSN                1
 GAP=198        1.03       6.7     7.5  8.4  0.6217E+01  0.6497E+01 -0.1892E+02E
 Epicentro: LOS SANTOS - SANTANDER                                             3
 ACTION:UPD 15-09-15 23:05 OP:cam  STATUS:               ID:20150825080419 L   I
 OLDACT:UP  15-08-25 17:11 OP:ak   STATUS:               ID:20150825075747d    3
 OLDACT:DUP 15-08-25 17:05 OP:ak   STATUS:               ID:20150825075747d    3
 2015-08-25-0757-45M.COL___334                                                 6
 STAT SP IPHASW D HRMM SECON CODA AMPLIT PERI AZIMU VELO AIN AR TRES W  DIS CAZ7
 BAR2 EZ EP        8 4 38.06                             169    0.1410 26.0 191 
 BAR2 EZ ES        8 4 51.96                             169   -0.5710 26.0 191 
 BAR2 EZ I         8 4 54.30         3.8 0.12            170           26.0 191 
 BRR  HZ EP        8 4 39.83                             151    0.3710 70.8 296 
 BRR  HE ES        8 4 55.97                             151    0.7110 70.8 296 
 OCA  HZ EP        8 4 46.57                             128   -0.10 9  158 353 
 OCA  HN ES        8 5  7.92                             128   -0.17 9  158 353 
 OCA  HZ I         8 5 12.34         5.9 0.09            128            158 353 
 ZAR  HZ EP        8 4 51.05                             120   -0.07 9  204 291 
 ZAR  HE ES        8 5 15.49                             120   -0.52 9  204 291 
 ZAR  HZ I         8 5 23.64         1.6 0.38            120            204 291 
                                                                                
