 2016  125 0654 44.0 L   6.804 -73.115146.2  RSN  6 0.3 1.3LRSN                1
 GAP=140        0.70       3.3     3.2  5.3 -0.1656E+01  0.5411E+01 -0.1862E+00E
 Epicentro: LOS SANTOS - SANTANDER                                             3
 ACTION:UPD 16-03-09 23:28 OP:cam  STATUS:               ID:20160125065444 L   I
 OLDACT:REG 16-01-25 15:03 OP:cara STATUS:               ID:20160125064750     3
 2016-01-25-0647-50M.COL___329                                                 6
 STAT SP IPHASW D HRMM SECON CODA AMPLIT PERI AZIMU VELO AIN AR TRES W  DIS CAZ7
 BAR2 EZ EP        655  3.60                             170   -0.1510 24.5 198 
 BAR2 EZ ES        655 18.79                             170   -0.3410 24.5 198 
 BAR2 EZ I         655 19.21         3.4 0.36            167           24.5 198 
 PAM  EZ EP        655  6.42                             152    0.2610 74.9  38 
 PAM  EE ES        655 23.29                             152   -0.1310 74.9  38 
 PAM  EZ I         655 25.27         5.9 0.56            156           74.9  38 
 RUS  HZ EP        655  7.96                             144    0.1110  101 178 
 RUS  HN ES        655 26.91                             144    0.4810  101 178 
 RUS  HZ I         655 27.77         2.2 0.26            144            101 178 
 PTB  HZ EP        655 11.07                             131   -0.29 9  151 259 
 PTB  HN ES        655 32.87                             131    0.21 9  151 259 
 PTB  HZ I         655 36.60         1.8 0.36            131            151 259 
 SPBC HZ EP        655 12.61                             129   -0.20 9  166 220 
 SPBC HN ES        655 35.02                             129   -0.23 9  166 220 
 SPBC HZ I         655 43.86         2.5 0.20            129            166 220 
 ZAR  HE ES        655 42.65                             122    0.25 8  207 292 
                                                                                
