 2011  125 0940 20.9 L   6.812 -73.139139.1  RSN  9 0.2 2.2LRSN                1
 GAP=159        0.49       2.4     5.1  4.5 -0.7147E+01  0.9393E+01 -0.6511E+00E
 Epicentro: LOS SANTOS - SANTANDER                                             3
 ACTION:UP  11-02-08 08:42 OP:pat  STATUS:               ID:20110125094020 L   I
 2011-01-25-0938-01S.COL___138                                                 6
 STAT SP IPHASW D HRMM SECON CODA AMPLIT PERI AZIMU VELO SNR AR TRES W  DIS CAZ7
 BAR2 SZ IP     D  940 39.88                             169     0.110   25 191 
 BAR2 SZ ES   1    940 54.26                             169    -0.2 7   25 191 
 BAR2 SZ I         940 56.29        36.5 0.31                            25 191 
 RUS  HZ EP   1    940 43.85                             142    -0.2 7  102 177 
 RUS  HZ I         940 44.61        13.2 0.31                           102 177 
 RUS  HN ES   2    941  2.59                             142     0.4 5  102 177 
 GRA  SZ IP     D  940 45.58                             136     0.210  124  17 
 GRA  SZ ES        941  4.63                             136     0.110  124  17 
 GRA  SZ I         941  6.23        18.8 0.57                           124  17 
 OCA  SZ EP   1    940 48.23                             128    -0.3 7  159 353 
 OCA  SZ ES   2    941  9.97                             128    -0.2 5  159 353 
 OCA  SZ I         941 15.64        29.6 0.28                           159 353 
 NOR  SZ EP   1    940 56.28                             117    -0.1 6  236 234 
 NOR  SN ES   1    941 24.13                             117     0.0 6  236 234 
 CHI  HZ EP   1    940 58.11                             115    -0.3 6  250 195 
 CHI  HN ES   1    941 27.65                             115     0.0 6  250 195 
 CHI  HZ I         941 33.59         8.9 0.66                           250 195 
 ROSC BZ EP   1    940 58.75                             115    -0.1 6  254 211 
 ROSC BZ I         941 34.47        15.1 0.79                           254 211 
 HEL  HZ EP   2    941  1.32                             113     0.4 4  273 256 
 RREF HZ EP   1    941  7.31                             109     0.4 5  323 229 
                                                                                
