 2014  625 0818 55.8 L   6.829 -73.172138.0  RSN 16 0.5 2.0LRSN                1
 GAP=132        0.96       2.9     4.0  6.3 -0.3472E+01  0.1092E+02 -0.4189E+00E
 Epicentro: LOS SANTOS - SANTANDER                                             3
 ACTION:UPD 14-07-01 22:56 OP:nd   STATUS:               ID:20140625081856dL   I
 OLDACT:DUP 14-06-25 15:58 OP:fm   STATUS:               ID:20140625080816d    3
 OLDACT:REG 14-06-25 13:52 OP:spq  STATUS:               ID:20140625080812     3
 2014-06-25-0808-12M.COL___259                                                 6
 STAT SP IPHASW D HRMM SECON CODA AMPLIT PERI AZIMU VELO AIN AR TRES W  DIS CAZ7
 BAR2 SZ EP     D  819 14.31                             169   -0.2310 26.2 183 
 BAR2 SZ ES   1    819 29.54                             169    0.36 7 26.2 183 
 BAR2 SZ I         819 30.18        23.9 0.32            166           26.2 183 
 PAM  SZ EP     D  819 17.23                             150    0.0910 76.9  43 
 PAM  SN ES        819 34.04                             150    0.2310 76.9  43 
 PAM  SZ I         819 36.09        21.0 0.52            155           76.9  43 
 RUS  HZ EP        819 18.45                             141   -0.5910  104 175 
 RUS  HE ES        819 37.23                             141    0.0610  104 175 
 RUS  HZ I         819 38.85        12.9 0.36            142            104 175 
 PTB  HZ EP        819 20.99                             131   -0.94 9  146 257 
 PTB  HN ES        819 42.07                             131   -0.25 9  146 257 
 PTB  HZ I         819 42.84        12.1 0.46            129            146 257 
 OCA  HZ EP   1    819 23.31                             129    0.15 7  157 354 
 OCA  HN ES        819 44.87                             129    0.35 9  157 354 
 OCA  HZ I         819 49.16        12.1 0.24            130            157 354 
 SPBC HZ EP   1    819 23.67                             127   -0.10 7  164 217 
 SPBC HN ES   1    819 45.80                             127    0.21 7  164 217 
 SPBC HZ I         819 52.43        16.2 0.28            126            164 217 
 ZAR  HN ES   1    819 52.39                             121    0.46 6  200 292 
 ZAR  HZ I         819 57.91        16.2 0.28            120            200 292 
 NOR  HZ EP   1    819 30.60                             117   -0.42 6  234 233 
 NOR  HN ES        819 58.33                             117   -0.18 8  234 233 
 NOR  HZ I         820  4.20         7.2 0.28            117            234 233 
 SML  HZ EP   1    819 31.52                             116   -0.01 6  240 336 
 SML  HN ES   1    819 58.60                             116   -0.82 6  240 336 
 ROSC BZ EP   1    819 33.30                             115   -0.33 6  254 210 
 ROSC BE ES   1    820  3.68                             115    0.53 6  254 210 
 ROSC BZ I         820  9.14         8.4 0.35            115            254 210 
 HEL  HZ EP   1    819 36.27                             113    0.88 6  270 255 
 HEL  HN ES   1    820  5.91                             113   -0.37 6  270 255 
 HEL  HZ I         820 12.27         4.5 0.52            113            270 255 
 GUY2CHZ EP   1    819 39.76                             111    0.77 5  301 234 
 GUY2CHN ES   1    820 13.40                             111    0.71 5  301 234 
 GUY2CHZ I         820 20.72         3.4 0.32                           301 234 
 PTGC HE ES   4    820 11.12                             110   -2.95 0  313 158 
 RREF HZ EP   1    819 42.61                             109    1.02 5  322 229 
 RREF HN ES   4    820 20.00                             109    2.68 0  322 229 
 RREF HZ I         820 26.57         4.0 0.32            110            322 229 
 CBOC HZ EP   1    819 42.80                             109    0.62 5  332 251 
 CBOC HE ES   4    820 16.59                             109   -1.79 0  332 251 
 CBOC HZ I         820 35.60         1.6 0.44            109            332 251 
 TOL  SN ES   1    820 21.86                             108    0.66 5  344 224 
 TOL  SZ I         820 29.05         7.4 0.32            108            344 224 
 PRA  HN ES   4    820 29.65                             105   -1.23 0  393 209 
 PRA  HZ I         820 33.03         3.1 0.20            106            393 209 
 SJC  HZ EP   4    819 48.87                             105   -1.73 0  405 327 
 SJC  HN ES   4    820 29.25                             105   -4.10 0  405 327 
                                                                                
