 2012  925 0200 48.5 L   6.771 -73.141141.3  RSN  8 0.4 2.0LRSN                1
 GAP=138        0.68       3.6     3.9  6.4 -0.6250E+00  0.3465E+01  0.2203E+01E
 Epicentro: LOS SANTOS - SANTANDER                                             3
 ACTION:UPD 12-10-22 14:20 OP:ep   STATUS:               ID:20120925020048 L   I
 2012-09-25-0200-00M.COL___220                                                 6
 STAT SP IPHASW D HRMM SECON CODA AMPLIT PERI AZIMU VELO AIN AR TRES W  DIS CAZ7
 BAR2 SZ ES   1    2 1 22.28                             171   -0.13 7 20.3 193 
 BRR  HZ EP        2 1  9.44                             151    0.1310 73.2 301 
 BRR  HN ES   1    2 1 26.22                             151    0.69 7 73.2 301 
 BRR  HN I         2 1 26.97        41.7 0.16                          73.2 301 
 PAM  SZ EP        2 1 10.38                             149   -0.0210 79.6  38 
 PAM  SZ I         2 1 10.67        23.9 0.22                          79.6  38 
 PAM  SE ES   1    2 1 27.32                             149   -0.15 7 79.6  38 
 RUS  HZ EP   1    2 1 11.42                             144   -0.18 7 97.3 176 
 RUS  HN ES   1    2 1 29.59                             144   -0.01 7 97.3 176 
 RUS  HZ I         2 1 30.99         7.8 0.22                          97.3 176 
 PTB  HN ES   1    2 1 35.17                             131   -0.70 7  148 260 
 PTB  HN I         2 1 37.97         8.5 0.20                           148 260 
 ZAR  HN ES   1    2 1 45.97                             121   -0.12 6  206 293 
 ZAR  HN I         2 1 47.51         9.7 0.10                           206 293 
 CHI  HN ES   2    2 1 55.08                             116    0.46 4  246 195 
 CHI  HN I         2 2  1.81         4.5 0.44                           246 195 
 PRA  HN ES   1    2 2 23.48                             106    0.49 4  389 210 
 PRA  HN I         2 2 27.95         2.7 0.64                           389 210 
                                                                                
