 2014 1025 0304  0.4 L   6.748 -73.202150.6  RSN  5 0.4 1.5LRSN                1
 GAP=227        0.96       5.8     6.5  7.2  0.9989E+01  0.9054E+01  0.5782E+01E
 Epicentro: VILLANUEVA - SANTANDER                                             3
 ACTION:UPD 14-11-29 23:56 OP:nd   STATUS:               ID:20141025030400 L   I
 OLDACT:UP  14-10-28 15:30 OP:cam  STATUS:               ID:20141025025813     3
 OLDACT:UP  14-10-28 15:30 OP:cam  STATUS:               ID:20141025025813     3
 OLDACT:REG 14-10-28 13:32 OP:cam  STATUS:               ID:20141025025813     3
 2014-10-25-0258-13M.COL___292                                                 6
 STAT SP IPHASW D HRMM SECON CODA AMPLIT PERI AZIMU VELO AIN AR TRES W  DIS CAZ7
 BAR2 SZ ES        3 4 35.66                             173   -0.5110 17.3 173 
 BAR2 SZ I         3 4 36.36         7.2 0.10            175           17.3 173 
 BRR  HZ EP        3 4 21.96                             154    0.0310 69.0 305 
 BRR  HN ES        3 4 39.32                             154    0.5910 69.0 305 
 BRR  HN I         3 4 43.38        10.3 0.26            153           69.0 305 
 RUS  HZ EP        3 4 24.49                             146    0.2410 95.5 172 
 RUS  HN ES        3 4 42.86                             146   -0.0110 95.5 172 
 RUS  HZ I         3 4 44.30         3.1 0.24            149           95.5 172 
 PTB  HZ EP        3 4 26.90                             135   -0.21 9  141 261 
 PTB  HN ES        3 4 47.48                             135   -0.48 9  141 261 
 PTB  HZ I         3 4 51.30         2.7 0.16            135            141 261 
 SPBC HZ EP        3 4 28.31                             132   -0.17 9  155 219 
 SPBC HN ES        3 4 50.89                             132    0.50 9  155 219 
                                                                                
