 2017  625 0945 39.1 L   6.729 -73.148149.8  RSN  7 0.5 2.0LRSN                1
 GAP=214        1.12       6.0     6.1  7.5  0.4955E+01  0.3059E+01  0.9576E+01E
 Epicentro: JORDAN - SANTANDER                                                 3
 ACTION:UPD 17-09-14 16:55 OP:jn   STATUS:               ID:20170625094539 L   I
 OLDACT:REG 17-06-25 13:30 OP:lv   STATUS:               ID:20170625093740     3
 2017-06-25-0938-00M.COL___349                                                 6
 STAT SP IPHASW D HRMM SECON CODA AMPLIT PERI AZIMU VELO AIN AR TRES W  DIS CAZ7
 BAR2 EZ EP        945 58.98                             174   -0.0910 15.6 194 
 BAR2 EZ ES        946 14.68                             174    0.0210 15.6 194 
 BAR2 EZ I         946 15.22        21.1 0.07            173           15.6 194 
 BRR  HZ IP     C  946  0.98                             152    0.1010 75.0 304 
 BRR  HN ES        946 18.31                             152    0.4210 75.0 304 
 BRR  HZ I         946 20.76         8.2 0.18            150           75.0 304 
 PTB  HZ EP        946  5.43                             133   -0.80 9  146 262 
 PTB  HN ES        946 26.66                             133   -0.76 9  146 262 
 PTB  HZ I         946 29.37         5.6 0.15            133            146 262 
 SPBC HZ EP        946  8.03                             131    0.72 9  157 221 
 SPBC HN ES        946 29.18                             131   -0.16 9  157 221 
 SPBC HZ I         946 32.17       151.5 0.04            131            157 221 
 ZAR  HZ EP        946 12.21                             123    0.13 8  207 294 
 ZAR  HN ES        946 37.89                             123    0.07 8  207 294 
 ZAR  HZ I         946 43.03         9.5 0.20            123            207 294 
 GUY2CHZ EP   4    946 24.06                             113    1.71 0  296 236 
 GUY2CHN ES        946 56.88                             113    0.78 7  296 236 
 GUY2CHZ I         947  5.44         3.0 0.44                           296 236 
 PTGC HZ EP        946 22.06                             113   -0.25 7  301 158 
 PTGC HN ES   4    946 54.51                             113   -1.52 0  301 158 
                                                                                
