 2014  725 0701 49.3 L   6.812 -73.181137.1  RSN 11 0.3 1.5LRSN                1
 GAP=179        0.54       1.7     3.0  5.3  0.3118E+00  0.2669E+01 -0.2323E+00E
 Epicentro: ZAPATOCA - SANTANDER                                               3
 ACTION:UPD 15-03-16 20:46 OP:nd   STATUS:               ID:20140725070149 L   I
 OLDACT:REG 14-07-25 13:22 OP:spq  STATUS:               ID:20140725065806     3
 2014-07-25-0658-06M.COL___266                                                 6
 STAT SP IPHASW D HRMM SECON CODA AMPLIT PERI AZIMU VELO AIN AR TRES W  DIS CAZ7
 BAR2 SZ EP        7 2  8.15                             169    0.1910 24.3 180 
 BAR2 SZ I         7 2 24.51         7.5 0.26            170           24.3 180 
 RUS  HZ EP   1    7 2 12.22                             141   -0.17 7  102 174 
 RUS  HN ES   1    7 2 30.48                             141    0.12 7  102 174 
 RUS  HZ I         7 2 32.05         3.0 0.28            142            102 174 
 PTB  HZ EP   1    7 2 15.03                             131   -0.27 7  144 258 
 PTB  HN ES   1    7 2 35.06                             131   -0.48 7  144 258 
 PTB  HZ I         7 2 38.12         2.7 0.16            133            144 258 
 OCA  HN ES   1    7 2 38.16                             128   -0.11 7  159 354 
 OCA  HZ I         7 2 43.35         3.0 0.28            129            159 354 
 SPBC HZ EP        7 2 17.01                             127   -0.06 9  162 218 
 SPBC HE ES        7 2 38.94                             127    0.25 9  162 218 
 SPBC HZ I         7 2 41.76         4.0 0.11            129            162 218 
 ZAR  HZ EP        7 2 20.99                             121    0.17 9  200 292 
 ZAR  HN ES        7 2 45.33                             121   -0.03 9  200 292 
 ZAR  HZ I         7 2 48.69         3.0 0.16            123            200 292 
 SML  HZ EP   1    7 2 24.88                             116   -0.31 6  241 336 
 SML  HN ES        7 2 53.27                             116    0.12 8  241 336 
 SML  HZ I         7 2 56.33         5.7 0.10            117            241 336 
 CHI  HN ES   1    7 2 55.18                             115   -0.51 6  249 194 
 CHI  HZ I         7 2 59.58         3.2 0.31            116            249 194 
 HEL  HN ES   1    7 2 59.70                             113    0.21 6  269 255 
 HEL  HZ I         7 3  6.41         1.4 0.26            115            269 255 
 RREF HE ES   1    7 3 10.84                             109    0.42 5  320 229 
 RREF HZ I         7 3 17.16         2.5 0.24            111            320 229 
 PRA  HZ EP        7 2 42.97                             105    0.47 6  391 209 
 PRA  HN ES        7 3 23.59                             105   -0.37 6  391 209 
 PRA  HZ I         7 3 29.38         1.8 0.44            106            391 209 
                                                                                
