 2013  725 0356 22.8 L   6.816 -73.140152.0  RSN 16 0.5 2.7LRSN                1
 GAP= 66        1.08       2.8     3.1  5.2  0.1364E+01  0.1790E+01 -0.6802E+00E
 Epicentro: LOS SANTOS - SANTANDER                                             3
 ACTION:UPD 13-08-12 10:39 OP:ep   STATUS:               ID:20130725035622 L   I
 OLDACT:UP  13-07-25 11:32 OP:cam  STATUS:               ID:20130725034959     3
 OLDACT:REG 13-07-25 09:52 OP:cam  STATUS:               ID:20130725034959     3
 2013-07-25-0349-59M.COL___268                                                 6
 STAT SP IPHASW D HRMM SECON CODA AMPLIT PERI AZIMU VELO AIN AR TRES W  DIS CAZ7
 BAR2 SZ IP     C  356 43.07                             170   -0.1810 25.2 191 
 BAR2 SZ ES        356 58.82                             170   -0.3610 25.2 191 
 BAR2 SZ I         357  1.23        80.1 0.29            171           25.2 191 
 GIR2 SZ EP        356 43.20                             168   -0.0110 29.7 349 
 GIR2 SZ ES   1    356 59.08                             168   -0.02 7 29.7 349 
 GIR2 SZ I         357  0.62        54.5 0.27            163           29.7 349 
 BRR  HZ EP     D  356 44.96                             154    0.3110 70.9 297 
 BRR  HN ES        357  2.48                             154    0.8210 70.9 297 
 BRR  HZ I         357  6.85        46.5 0.20            148           70.9 297 
 PAM  SZ EP        356 46.01                             152    0.3910 75.6  40 
 PAM  SN ES   1    357  3.30                             152   -0.09 7 75.6  40 
 PAM  SZ I         357  5.35        41.5 0.52            145           75.6  40 
 RUS  HZ EP        356 46.95                             145   -0.3810  102 176 
 RUS  HN ES        357  6.02                             145   -0.4110  102 176 
 RUS  HZ I         357  8.20        48.8 0.50            140            102 176 
 PTB  HZ EP        356 49.56                             133   -0.85 9  149 258 
 PTB  HN ES        357 11.26                             133   -0.65 9  149 258 
 PTB  HZ I         357 18.35        91.7 0.42            127            149 258 
 TAM  HZ EP        356 51.26                             132    0.26 9  155 106 
 TAM  HZ I         357 12.08        50.2 0.28            125            155 106 
 TAM  HE ES        357 13.19                             132    0.22 9  155 106 
 OCA  HZ EP   1    356 52.34                             131    0.85 7  159 353 
 OCA  HN ES   1    357 13.75                             131   -0.08 7  159 353 
 OCA  HZ I         357 17.92        55.6 0.32            124            159 353 
 YOP  SZ EP   1    356 53.60                             127    0.14 7  180 154 
 YOP  SN ES        357 17.80                             127    0.45 9  180 154 
 YOP  SZ I         357 19.05        61.5 0.24            122            180 154 
 ZAR  HZ EP        356 55.75                             124    0.06 9  204 292 
 ZAR  HE ES        357 21.49                             124    0.18 9  204 292 
 ZAR  HZ I         357 28.11        99.3 0.34            117            204 292 
 NOR  HZ EP   1    356 58.89                             120   -0.21 6  236 234 
 NOR  HE ES   1    357 28.37                             120    0.99 6  236 234 
 NOR  HZ I         357 30.50        65.7 0.18            114            236 234 
 SML  HZ EP        356 59.48                             119   -0.20 8  242 335 
 SML  HN ES        357 28.00                             119   -0.41 8  242 335 
 SML  HZ I         357 33.13        58.3 0.24            112            242 335 
 CHI  HZ EP        357  1.22                             118    0.13 8  250 195 
 CHI  HN ES        357 30.21                             118   -0.71 8  250 195 
 CHI  HZ I         357 38.65        27.2 0.50            113            250 195 
 HEL  HN ES        357 36.09                             116    0.89 8  273 255 
 COD  HZ EP        357 11.16                             110   -0.11 6  347 354 
 COD  HN ES   1    357 48.30                             110   -0.75 5  347 354 
 COD  HZ I         357 55.86        11.1 0.40            105            347 354 
 SJC  HZ EP   4    357 17.24                             107   -1.24 0  408 327 
 SJC  HZ I         358  6.49         8.6 0.38            102            408 327 
                                                                                
