 2014  625 0548 50.8 L   6.089 -73.732104.2  RSN  9 0.4 1.4LRSN                1
 GAP= 99        1.00       3.3     3.1  6.7 -0.9612E+00  0.6872E+01 -0.9220E-01E
 Epicentro: BOLIVAR - SANTANDER                                                3
 ACTION:UPD 14-07-01 22:56 OP:nd   STATUS:               ID:20140625054850 L   I
 OLDACT:REG 14-06-25 13:16 OP:spq  STATUS:               ID:20140625053817     3
 2014-06-25-0538-17M.COL___259                                                 6
 STAT SP IPHASW D HRMM SECON CODA AMPLIT PERI AZIMU VELO AIN AR TRES W  DIS CAZ7
 SPBC HZ EP        549  7.05                             147    0.0110 61.2 218 
 SPBC HN ES        549 19.81                             147    0.0610 61.2 218 
 SPBC HZ I         549 23.75         4.7 0.20            149           61.2 218 
 RUS  HZ EP   1    549  8.08                             142   -0.52 7 75.1 107 
 RUS  HN ES        549 22.05                             142   -0.4610 75.1 107 
 RUS  HZ I         549 24.40         3.1 0.28            147           75.1 107 
 BAR2 SZ EP        549  9.14                             139    0.3210 82.5  48 
 BAR2 SZ ES   1    549 23.56                             139    0.66 7 82.5  48 
 BAR2 SZ I         549 25.40        15.5 0.32            143           82.5  48 
 PTB  HZ EP        549  9.06                             134   -0.4510 94.3 302 
 PTB  HN ES        549 24.72                             134    0.5910 94.3 302 
 PTB  HZ I         549 26.63         4.4 0.12            136           94.3 302 
 NOR  HZ EP        549 13.98                             122    0.17 9  139 245 
 NOR  HN ES        549 31.46                             122   -0.34 9  139 245 
 NOR  HZ I         549 35.97         6.0 0.36            125            139 245 
 HEL  HN ES        549 44.17                             112   -0.05 9  199 273 
 HEL  HZ I         549 49.05         2.3 0.56            115            199 273 
 ZAR  HZ EP        549 20.31                             112    0.00 9  199 321 
 ZAR  HN ES        549 42.73                             112   -0.63 9  199 321 
 ZAR  HZ I         549 49.39         3.7 0.33            115            199 321 
 GUY2CHN ES        549 45.83                             112    0.28 9  205 242 
 GUY2CHZ I         549 50.57         2.0 0.42                           205 242 
 PRA  HZ EP        549 32.04                             103    0.84 7  292 206 
 PRA  HN ES        550  2.46                             103   -0.29 7  292 206 
 PRA  HZ I         550  7.63         1.2 0.36            106            292 206 
                                                                                
