 2011 1125 0443 32.3 L   6.806 -73.161132.0  RSN  6 0.4 1.5LRSN                1
 GAP=134        0.81       4.2     5.3  8.1  0.2469E+01  0.4364E+01 -0.5153E+01E
 Epicentro: LOS SANTOS - SANTANDER                                             3
 ACTION:UPD 12-07-13 16:12 OP:ep   STATUS:               ID:20111125044332 L   I
 2011-11-25-0443-34S.COL___178                                                 6
 STAT SP IPHASW D HRMM SECON CODA AMPLIT PERI AZIMU VELO AIN AR TRES W  DIS CAZ7
 BAR2 SZ ES   2    444  3.70                             169   -0.59 5 23.8 186 
 BRR  HZ EP   1    443 51.90                             151    0.06 7 69.3 299 
 BRR  HE ES   1    444  7.83                             151    0.73 7 69.3 299 
 BRR  HZ I         444  9.86        10.7 0.14                          69.3 299 
 PAM  SZ EP        443 52.83                             148   -0.2510 78.0  41 
 PAM  SN ES   1    444  9.44                             148    0.13 7 78.0  41 
 RUS  HZ EP   1    443 54.86                             141    0.10 7  101 175 
 RUS  HN ES   1    444 12.23                             141   -0.07 7  101 175 
 RUS  HZ I         444 13.94         2.2 0.42                           101 175 
 OCA  SZ EP   1    444  0.13                             127    0.66 7  159 354 
 OCA  SZ ES   1    444 20.24                             127   -0.43 7  159 354 
 OCA  SZ I         444 22.67         4.7 0.15                           159 354 
 ZAR  HZ EP   2    444  3.94                             119    0.28 4  202 292 
 ZAR  HN ES   1    444 27.46                             119   -0.69 6  202 292 
 ZAR  HZ I         444 34.78         3.6 0.15                           202 292 
                                                                                
