 2011  625 0302 56.1 L   6.775 -73.031141.4  RSN  4 0.6 1.3LRSN                1
 GAP=172        0.72       6.9     9.5 10.4 -0.4725E+01 -0.3307E+02 -0.2569E+02E
 Epicentro: CEPITA - SANTANDER                                                 3
 ACTION:UP  11-07-14 19:07 OP:ep   STATUS:               ID:20110625030256 L   I
 2011-06-25-0301-02S.COL___140                                                 6
 STAT SP IPHASW D HRMM SECON CODA AMPLIT PERI AZIMU VELO SNR AR TRES W  DIS CAZ7
 BAR2 SZ EP   3    3 3 17.46                             170     2.2 2   26 220 
 BAR2 SZ ES   2    3 3 30.21                             170     0.0 5   26 220 
 BRR  HZ EP        3 3 17.27                             148    -0.310   84 296 
 BRR  HZ I         3 3 18.61         3.8 0.12                            84 296 
 BRR  HN ES   1    3 3 34.39                             148     0.1 7   84 296 
 RUS  HN ES   2    3 3 36.99                             144    -0.2 5   98 183 
 GRA  SZ EP        3 3 21.03                             136     0.110  125  12 
 GRA  SZ ES   2    3 3 40.12                             136    -0.1 5  125  12 
                                                                                
