 2017 1025 0212 18.0 L   6.758 -73.184141.8  RSN  5 0.2 1.1LRSN                1
 GAP=134        0.48       3.0     2.8  3.7  0.1912E+01 -0.6839E+00 -0.1690E+01E
 Epicentro: LOS SANTOS - SANTANDER                                             3
 ACTION:UPD 17-11-07 19:36 OP:rebc STATUS:               ID:20171025021218 L   I
 OLDACT:UP  17-10-25 18:06 OP:edw  STATUS:               ID:20171025020609     3
 OLDACT:UP  17-10-25 18:04 OP:edw  STATUS:               ID:20171025020609     3
 OLDACT:REG 17-10-25 12:42 OP:dani STATUS:               ID:20171025020609     3
 2017-10-25-0208-00M.COL___443                                                 6
 STAT SP IPHASW D HRMM SECON CODA AMPLIT PERI AZIMU VELO AIN AR TRES W  DIS CAZ7
 BAR2 EZ EP        212 37.05                             172   -0.0310 18.3 179 
 BAR2 EZ ES        212 52.07                             172    0.1310 18.3 179 
 BAR2 EZ I         212 53.39         4.7 0.18            170           18.3 179 
 BRR  HZ EP        212 39.04                             152    0.3710 69.9 304 
 BRR  HN ES        212 54.68                             152   -0.0910 69.9 304 
 PAM  EZ EP        212 39.99                             148   -0.2210 83.7  40 
 PAM  EE ES   4    212 55.10                             148   -2.42 0 83.7  40 
 PAM  EZ I         212 56.51         3.6 0.44            152           83.7  40 
 RUS  HZ EP        212 41.06                             144   -0.0110 96.3 173 
 RUS  HN ES        212 59.03                             144   -0.0310 96.3 173 
 RUS  HZ I         213  0.36         1.6 0.28            144           96.3 173 
 PTB  HZ EP        212 44.22                             132    0.01 9  143 260 
 PTB  HN ES        213  4.48                             132   -0.15 9  143 260 
 PTB  HZ I         213  8.96         1.3 0.14            131            143 260 
                                                                                
