 2014  225 0537 17.7 L   6.821 -73.161142.0  RSN 14 0.4 2.2LRSN 2.8WRSN        1
 SPEC AVERAGE  MO 13.3 ST250.7 OM  1.7 f0 16.0 R0.2643 AL 0.00 WI 20.0 MW  2.8 3
 SPEC SD       MO  0.2 ST368.7 OM  0.3 f0 13.2 R0.1557 AL      WI      MW  0.2 3
 GAP= 70        0.89       3.1     3.5  5.5  0.7240E+00  0.4228E+01  0.8042E+00E
 Epicentro: LOS SANTOS - SANTANDER                                             3
 SPEC BAR2SH Z MO 13.4 ST 26.5 OM  1.8 f0 10.0 R0.1554 AL-0.00 WI 20.0 MW  2.8 3
 SPEC BAR2SH Z T 53750 K 0.020 GD  144 VS 4.20 DE 3.20 Q0230.0 QA 0.60 VS 4.20 3
 SPEC PAM SH Z MO 13.0 ST  3.8 OM  1.4 f0 6.88 R0.2259 AL-0.00 WI 20.0 MW  2.6 3
 SPEC PAM SH Z T 53754 K 0.020 GD  161 VS 4.20 DE 3.20 Q0230.0 QA 0.60 VS 4.20 3
 SPEC RUS HH Z MO 12.7 ST  6.1 OM  1.1 f0 9.80 R0.1586 AL-0.00 WI 20.0 MW  2.4 3
 SPEC RUS HH Z T 53758 K 0.020 GD  175 VS 4.20 DE 3.20 Q0230.0 QA 0.60 VS 4.20 3
 SPEC PTB HH Z MO 13.1 ST956.4 OM  1.4 f0 40.0 R0.0388 AL-0.00 WI 20.0 MW  2.7 3
 SPEC PTB HH Z T 538 3 K 0.020 GD  204 VS 4.20 DE 3.20 Q0230.0 QA 0.60 VS 4.20 3
 SPEC OCA HH Z MO 13.1 ST257.6 OM  1.4 f0 25.5 R0.0609 AL-0.00 WI 20.0 MW  2.7 3
 SPEC OCA HH Z T 538 5 K 0.020 GD  212 VS 4.20 DE 3.20 Q0230.0 QA 0.60 VS 4.20 3
 SPEC ZAR HH Z MO 13.3 ST498.9 OM  1.5 f0 28.0 R0.0555 AL-0.00 WI 20.0 MW  2.8 3
 SPEC ZAR HH Z T 53813 K 0.020 GD  246 VS 4.20 DE 3.20 Q0230.0 QA 0.60 VS 4.20 3
 SPEC SML HH Z MO 13.6 ST999.9 OM  1.8 f0 40.0 R0.0388 AL-0.00 WI 20.0 MW  3.0 3
 SPEC SML HH Z T 53819 K 0.020 GD  279 VS 4.20 DE 3.20 Q0230.0 QA 0.60 VS 4.20 3
 SPEC CHI HH Z MO 13.1 ST  1.1 OM  1.2 f0 4.39 R0.3540 AL-0.00 WI 20.0 MW  2.6 3
 SPEC CHI HH Z T 53825 K 0.020 GD  287 VS 4.20 DE 3.20 Q0230.0 QA 0.60 VS 4.20 3
 SPEC ROSCBH Z MO 13.3 ST  1.3 OM  1.4 f0 3.97 R0.3914 AL-0.00 WI 20.0 MW  2.8 3
 SPEC ROSCBH Z T 53827 K 0.020 GD  290 VS 4.20 DE 3.20 Q0230.0 QA 0.60 VS 4.20 3
 SPEC HEL HH Z MO 13.2 ST  5.3 OM  1.3 f0 6.67 R0.2330 AL-0.00 WI 20.0 MW  2.7 3
 SPEC HEL HH Z T 53830 K 0.020 GD  305 VS 4.20 DE 3.20 Q0230.0 QA 0.60 VS 4.20 3
 SPECGUY2CHH Z MO 13.5 ST  1.7 OM  1.6 f0 3.68 R 0.423 AL-0.00 WI 20.0 MW  2.9 3
 SPECGUY2CHH Z T 53838 K 0.020 GD332.8 VS 4.20 DE 3.20 Q0230.0 QA 0.60 VS 4.20 3
 SPEC PRA HH Z MO 14.4 ST0.671 OM  2.4 f0 1.30 R1.1954 AL-0.00 WI 20.0 MW  3.6 3
 SPEC PRA HH Z T 53854 K 0.020 GD  417 VS 4.20 DE 3.20 Q0230.0 QA 0.60 VS 4.20 3
 OLDACT:REG 14-02-25 08:10 OP:fm   STATUS:               ID:20140225052818     3
 ACTION:UPD 14-03-10 08:13 OP:ep   STATUS:               ID:20140225053717 L   I
 OLDACT:UP  14-02-25 13:12 OP:fm   STATUS:               ID:20140225052818     3
 2014-02-25-0528-18M.COL___236                                                 6
 STAT SP IPHASW D HRMM SECON CODA AMPLIT PERI AZIMU VELO AIN AR TRES W  DIS CAZ7
 BAR2 SZ EP        537 36.94                             169    0.0510 25.4 185 
 BAR2 SZ ES   1    537 52.01                             169    0.13 7 25.4 185 
 BAR2 SZ I         537 52.62        77.7 0.22            148           25.4 185 
 PAM  SZ EP        537 39.72                             150    0.2810 76.7  42 
 PAM  SN ES        537 56.45                             150    0.0310 76.7  42 
 PAM  SZ I         537 58.25        35.9 0.58            116           76.7  42 
 RUS  HZ EP     D  537 41.00                             142   -0.2310  103 175 
 RUS  HN ES        537 59.55                             142   -0.0610  103 175 
 RUS  SZ I         538  0.61        13.8 0.70            109            103 175 
 PTB  HZ EP        537 43.77                             131   -0.45 9  147 258 
 PTB  HN ES        538  4.52                             131   -0.42 9  147 258 
 PTB  SZ I         538  8.35        19.6 0.12            103            147 258 
 TAM  HZ IP        537 45.35                             129    0.09 9  157 106 
 TAM  SZ I         538 23.16         7.4 1.30             99            157 106 
 OCA  HZ EP   4    537 45.14                             129   -0.31 0  158 354 
 OCA  HN ES        538  6.84                             129   -0.28 9  158 354 
 OCA  SZ I         538  9.67        24.4 0.18            101            158 354 
 ZAR  HZ EP        537 50.44                             122    0.82 9  202 292 
 ZAR  HN ES        538 15.15                             122    0.61 9  202 292 
 ZAR  SZ I         538 22.54        18.8 0.12             98            202 292 
 SML  HZ EP        537 53.26                             117   -0.52 8  241 335 
 SML  HE ES   4    538 21.21                             117   -0.73 0  241 335 
 SML  SZ I         538 32.38        25.9 0.08             96            241 335 
 CHI  HZ EP        537 55.47                             116    0.11 8  250 195 
 CHI  HN ES   4    538 26.58                             116    1.82 0  250 195 
 CHI  SZ I         538 27.33         6.1 2.00             95            250 195 
 ROSC BZ EP   4    537 57.88                             116    2.17 0  254 210 
 ROSC SZ I         538 31.12         8.5 0.35             95            254 210 
 HEL  HZ EP   4    537 59.38                             114    1.80 0  271 255 
 HEL  SZ I         538 34.75        10.2 0.42             95            271 255 
 GUY2CHZ EP   4    538  3.69                             111    2.59 0  301 234 
 GUY2CHN ES   4    538 40.24                             111    5.26 0  301 234 
 GUY2CSZ I         538 45.99         6.1 1.70                           301 234 
 COD  HN ES   4    538 43.36                             108    0.36 0  346 355 
 PRA  HZ EP     C  538 11.49                             106    0.29 6  393 209 
 PRA  HE ES   4    538 56.47                             106    3.51 0  393 209 
 PRA  SZ I         538 59.38         7.7 1.40             93            393 209 
 SJC  HZ EP   4    538 11.38                             105   -1.39 0  406 327 
 SJC  HN ES   2    538 54.41                             105   -1.34 3  406 327 
 SJC  SZ I         539 27.07        15.1 1.72             93            406 327 
                                                                                
