 2013  325 0950 51.1 L   6.817 -73.147148.5  RSN 11 0.5 2.0LRSN                1
 GAP=135        0.90       3.0     4.3  5.9 -0.1905E-03  0.6616E+01  0.6472E+00E
 Epicentro: LOS SANTOS - SANTANDER                                             3
 ACTION:UPD 13-04-09 14:04 OP:ep   STATUS:               ID:20130325095051 L   I
 2013-03-25-0950-00M.COL___244                                                 6
 STAT SP IPHASW D HRMM SECON CODA AMPLIT PERI AZIMU VELO AIN AR TRES W  DIS CAZ7
 BAR2 SZ EP        951 11.12                             170    0.0510 25.2 189 
 BAR2 SZ E         951 26.43                                           25.2 189 
 BAR2 SZ ES   1    951 26.43                             170   -0.23 7 25.2 189 
 BAR2 SZ I         951 27.91        22.0 0.46            169           25.2 189 
 BRR  HZ EP        951 13.06                             153    0.6010 70.1 297 
 BRR  HN ES   1    951 29.49                             153    0.36 7 70.1 297 
 PAM  SZ EP        951 13.89                             152    0.3910 76.0  41 
 PAM  SN ES   1    951 31.11                             152    0.12 7 76.0  41 
 PAM  SZ I         951 33.30        19.9 0.54            156           76.0  41 
 RUS  HZ EP        951 15.09                             144   -0.1410  103 176 
 RUS  HN ES   1    951 34.13                             144    0.06 7  103 176 
 RUS  HZ I         951 36.59        10.2 0.38            146            103 176 
 PTB  HZ EP        951 17.78                             133   -0.50 9  148 258 
 PTB  HN ES   1    951 39.21                             133   -0.29 7  148 258 
 PTB  HZ I         951 41.22        14.2 0.36            132            148 258 
 OCA  HZ EP   1    951 18.58                             131   -0.83 7  158 353 
 OCA  HN ES   1    951 40.99                             131   -0.53 7  158 353 
 OCA  HZ I         951 46.84        12.0 0.24            132            158 353 
 ZAR  HZ EP   1    951 23.81                             123    0.20 6  203 292 
 ZAR  HN ES   1    951 48.89                             123   -0.09 6  203 292 
 ZAR  HZ I         951 56.08         8.1 0.38            124            203 292 
 SML  HZ EP        951 27.27                             118   -0.39 8  242 335 
 SML  HN ES        951 56.20                             118    0.01 8  242 335 
 CHI  HZ EP   1    951 29.39                             117    0.27 6  250 195 
 CHI  HN ES   1    951 58.17                             117   -0.62 6  250 195 
 CHI  HZ I         952  3.98         3.3 0.40            119            250 195 
 HEL  HZ EP   1    951 32.38                             115    0.92 6  272 255 
 HEL  HN ES   1    952  3.47                             115    0.51 6  272 255 
 HEL  HZ I         952  9.42         5.6 0.32            116            272 255 
 PRA  HZ EP   1    951 45.79                             107    0.92 4  394 209 
 PRA  HE ES   1    952 25.91                             107   -0.93 4  394 209 
 PRA  HZ I         952 31.13         3.3 0.34            108            394 209 
                                                                                
