 2016 1125 0803 25.3 L   6.776 -73.152147.6  RSN  6 0.2 1.5LRSN                1
 GAP=151        0.54       4.2     2.7  3.5  0.2585E+00  0.1307E+01  0.1682E+01E
 Epicentro: LOS SANTOS - SANTANDER                                             3
 ACTION:UPD 17-10-26 21:11 OP:lp   STATUS:               ID:20161125080325 L   I
 OLDACT:UP  16-11-25 18:16 OP:edw  STATUS:               ID:20161125075748     3
 OLDACT:UP  16-11-25 18:15 OP:edw  STATUS:               ID:20161125075748     3
 OLDACT:REG 16-11-25 13:11 OP:edw  STATUS:               ID:20161125075748     3
 2016-11-25-0758-00M.COL___349                                                 6
 STAT SP IPHASW D HRMM SECON CODA AMPLIT PERI AZIMU VELO AIN AR TRES W  DIS CAZ7
 BAR2 EZ EP        8 3 44.96                             172   -0.1210 20.5 189 
 BAR2 EZ ES        8 4  0.30                             172   -0.2210 20.5 189 
 BAR2 EZ I         8 4  2.24         5.2 0.50            171           20.5 189 
 BRR  HZ EP        8 3 46.65                             153   -0.0210 71.9 301 
 BRR  HN ES        8 4  3.69                             153    0.3410 71.9 301 
 BRR  HZ I         8 4  5.70         5.8 0.26            153           71.9 301 
 PAM  EZ EP        8 3 47.80                             150   -0.0410 79.9  39 
 PAM  EN ES        8 4  5.52                             150    0.0810 79.9  39 
 PAM  EZ I         8 4  7.29         3.7 0.18            152           79.9  39 
 PTB  HZ EP   9    8 3 51.61                             133   -0.68 0  147 260 
 PTB  HN ES        8 4 12.48                             133   -0.20 9  147 260 
 PTB  HZ I         8 4 14.45         2.7 0.09            133            147 260 
 ZAR  HZ EP        8 3 57.74                             123   -0.14 9  204 293 
 ZAR  HN ES        8 4 23.18                             123   -0.13 9  204 293 
 ZAR  HZ I         8 4 26.29         3.7 0.22            123            204 293 
 PRA  HZ EP        8 4 19.09                             107    0.54 6  389 210 
 PRA  HN ES   4    8 5  1.08                             107    0.99 0  389 210 
 PRA  HZ I         8 5  3.84         1.3 0.64            107            389 210 
 SJC  HZ EP   4    8 4 18.26                             106   -2.86 0  411 327 
 SJC  HN ES   4    8 5  0.70                             106   -3.98 0  411 327 
                                                                                
