 2017 1125 0126 19.4 L   6.805 -73.150139.4  RSN  9 0.4 1.3LRSN                1
 GAP=136        0.98       3.3     4.2  7.2 -0.3290E+01  0.1189E+02  0.1042E+01E
 Epicentro: LOS SANTOS - SANTANDER                                             3
 ACTION:UPD 17-12-12 19:59 OP:rebc STATUS:               ID:20171125012619 L   I
 OLDACT:REG 17-11-25 12:44 OP:osc  STATUS:               ID:20171125011425     3
 2017-11-25-0118-00M.COL___491                                                 6
 STAT SP IPHASW D HRMM SECON CODA AMPLIT PERI AZIMU VELO AIN AR TRES W  DIS CAZ7
 BAR2 EZ EP        126 38.09                             170   -0.2110 23.8 189 
 BAR2 EZ ES        126 53.46                             170    0.4410 23.8 189 
 BAR2 EZ I         126 54.24         7.7 0.20            169           23.8 189 
 PAM  EZ EP        126 41.07                             150    0.1210 77.2  40 
 PAM  EN ES        126 58.10                             150    0.3510 77.2  40 
 PAM  EZ I         126 58.94         5.6 0.20            152           77.2  40 
 RUS  HZ EP        126 42.42                             142   -0.1710  101 176 
 RUS  HE ES        127  0.34                             142   -0.3310  101 176 
 RUS  HZ I         127  1.62         2.8 0.36            143            101 176 
 PTB  HZ EP        126 45.82                             131   -0.03 9  147 259 
 PTB  HN ES        127  6.26                             131   -0.20 9  147 259 
 PTB  HZ I         127  9.10         2.2 0.28            131            147 259 
 OCA  HE ES        127  8.11                             128   -0.73 9  160 353 
 SPBC HE ES        127  9.24                             127   -0.08 9  163 219 
 ZAR  HN ES        127 16.84                             121    0.51 9  203 292 
 NOR  HZ EP        126 55.58                             117    0.80 8  235 234 
 NOR  HE ES        127 21.88                             117   -0.49 8  235 234 
 NOR  HZ I         127 26.31         1.3 0.18            118            235 234 
 PRA  HN ES        127 54.69                             105    0.33 6  392 209 
                                                                                
