 2010 1025 0215  6.6 L   6.779 -73.073146.7  RSN 16 0.4 2.6LRSN                1
 GAP=106        0.67       3.0     4.6  5.3 -0.5350E+01 -0.2386E+00  0.3026E+01E
 Epicentro: LOS SANTOS - SANTANDER                                             3
 ACTION:UP  11-02-18 11:11 OP:tino STATUS:               ID:20101025021506 L   I
 2010-10-25-0211-27S.COL___124                                                 6
 STAT SP IPHASW D HRMM SECON CODA AMPLIT PERI AZIMU VELO SNR AR TRES W  DIS CAZ7
 BAR2 SZ EP        215 26.30                             170    -0.110   24 211 
 BAR2 SZ ES   2    215 41.83                             170     0.0 5   24 211 
 BAR2 SZ I         215 43.14        85.5 0.23                            24 211 
 BRR  HZ IP     C  215 28.25                             150    -0.110   79 297 
 BRR  HE ES   1    215 45.53                             150     0.2 7   79 297 
 BRR  HZ I         215 48.74        65.5 0.33                            79 297 
 RUS  HZ EP   1    215 30.21                             145    -0.1 7   98 181 
 RUS  HN ES   2    215 48.96                             145     0.2 5   98 181 
 RUS  HZ I         215 50.69        58.2 0.47                            98 181 
 GUE  SZ EP        215 31.67                             139     0.210  117   8 
 GRA  SZ EP        215 32.03                             137     0.110  126  14 
 GRA  SZ ES   2    215 51.49                             137    -0.2 5  126  14 
 GRA  SZ I         215 52.91        41.6 0.37                           126  14 
 OCA  SZ EP   1    215 34.82                             129    -0.5 7  164 350 
 OCA  SZ I         216  8.20        40.1 0.48                           164 350 
 YOP  SZ EP   2    215 36.80                             127     0.6 4  173 155 
 NOR  SZ EP   2    215 42.18                             118    -0.8 4  240 236 
 NOR  SE ES   2    216 10.45                             118    -0.9 4  240 236 
 CHI  HZ EP        215 44.29                             117    -0.1 8  249 197 
 CHI  HE ES   1    216 13.42                             117    -0.4 6  249 197 
 CHI  HZ I         216 19.67        26.9 0.45                           249 197 
 ROSC BZ EP   2    215 45.87                             117     0.8 4  255 213 
 ROSC BZ I         216 19.72        33.2 0.40                           255 213 
 HEL  HZ EP   1    215 48.20                             114     0.5 6  279 257 
 HEL  HN ES   2    216 19.11                             114    -0.6 4  279 257 
 HEL  HZ I         216 24.81        26.0 0.54                           279 257 
 RREF HZ EP   1    215 53.51                             111     0.2 5  326 231 
 RREF HN ES   2    216 30.10                             111     0.3 3  326 231 
 RREF HZ I         216 37.91        34.4 0.26                           326 231 
 TOL  SZ EP   2    215 56.16                             109     0.8 3  348 226 
 DBB  SZ EP   2    215 55.70                             109     0.6 3  348 275 
 SDV  BZ EP   2    215 55.30                             109    -0.8 3  356  49 
 PRA  HZ EP   1    216  0.13                             107    -0.3 4  394 211 
 PRA  HN ES   2    216 42.69                             107     0.3 3  394 211 
                                                                                
