 2017  525 0315 59.3 L   6.532 -73.594114.9  RSN  6 0.4 1.4LRSN                1
 GAP=145        1.09       4.7     4.3  9.7  0.5288E+01 -0.8970E+01  0.7594E+01E
 Epicentro: EL CARMEN - SANTANDER                                              3
 ACTION:UPD 17-06-16 13:38 OP:jn   STATUS:               ID:20170525031559 L   I
 OLDACT:UP  17-05-25 15:02 OP:ar   STATUS:               ID:20170525030732     3
 OLDACT:UP  17-05-25 14:43 OP:ar   STATUS:               ID:20170525030732     3
 OLDACT:REG 17-05-25 12:41 OP:ar   STATUS:               ID:20170525030732     3
 2017-05-25-0308-00M.COL___338                                                 6
 STAT SP IPHASW D HRMM SECON CODA AMPLIT PERI AZIMU VELO AIN AR TRES W  DIS CAZ7
 BRR  HZ EP        316 16.93                             148    0.1210 64.9 348 
 BRR  HE ES        316 30.96                             148    0.5110 64.9 348 
 BRR  HZ I         316 36.76         7.6 0.12            152           64.9 348 
 RUS  HZ EP        316 19.05                             139   -0.3010 90.5 141 
 RUS  HN ES        316 34.46                             139   -0.5110 90.5 141 
 RUS  HZ I         316 36.09         3.9 0.18            144           90.5 141 
 PTB  HZ EP        316 18.83                             137   -0.2510 95.4 271 
 PTB  HN ES        316 33.86                             137   -0.6410 95.4 271 
 PTB  HZ I         316 34.97         4.0 0.14            140           95.4 271 
 SPBC HE ES        316 37.55                             133    0.5010  111 209 
 SPBC HZ I         316 42.45         8.8 0.22            136            111 209 
 ZAR  HZ EP   4    316 23.85                             119   -2.99 0  175 307 
 ZAR  HE ES   4    316 51.67                             119    3.36 0  175 307 
 NOR  HZ EP   4    316 31.37                             119    4.28 0  177 233 
 NOR  HN ES   1    316 49.37                             119    0.62 7  177 233 
 NOR  HZ I         316 54.47         2.9 0.14            122            177 233 
 YPLC HZ EP        316 27.83                             118   -0.00 9  184 133 
 YPLC HE ES        316 50.49                             118    0.41 9  184 133 
                                                                                
