 2016  825 0335 18.4 L   6.773 -73.144143.9  RSN 13 0.4 1.5LRSN                1
 GAP=138        1.00       3.6     3.7  5.6 -0.1322E+01  0.6748E+01  0.5325E+01E
 Epicentro: LOS SANTOS - SANTANDER                                             3
 ACTION:UPD 16-10-29 15:39 OP:rebc STATUS:               ID:20160825033518 L   I
 OLDACT:REG 16-08-25 12:28 OP:ak   STATUS:               ID:20160825032735     3
 2016-08-25-0328-00M.COL___380                                                 6
 STAT SP IPHASW D HRMM SECON CODA AMPLIT PERI AZIMU VELO AIN AR TRES W  DIS CAZ7
 BAR2 EZ EP        335 37.63                             171   -0.1210 20.5 192 
 BAR2 EZ ES        335 52.73                             171   -0.1110 20.5 192 
 BAR2 EZ I         335 53.87         9.9 0.24                          20.5 192 
 BRR  HZ EP        335 39.58                             152    0.1410 72.8 300 
 BRR  HN ES        335 56.67                             152    0.8210 72.8 300 
 BRR  HZ I         336  1.56         7.2 0.35                          72.8 300 
 PAM  EZ EP        335 40.21                             150   -0.3410 79.6  38 
 PAM  EN ES        335 57.93                             150    0.1110 79.6  38 
 PAM  EZ I         335 59.86         5.7 0.58                          79.6  38 
 RUS  HZ EP        335 41.35                             144   -0.4110 97.6 176 
 RUS  HN ES        335 59.89                             144   -0.0810 97.6 176 
 RUS  HZ I         336  1.61         5.5 0.26                          97.6 176 
 PTB  HZ EP   2    335 44.36                             132   -0.83 5  147 260 
 PTB  HN ES        336  5.27                             132   -0.81 9  147 260 
 PTB  HZ I         336  7.58         4.5 0.10                           147 260 
 SPBC HZ EP        335 46.54                             129   -0.01 9  161 220 
 SPBC HN ES        336  8.99                             129    0.48 9  161 220 
 ZAR  HN ES        336 16.09                             122   -0.09 8  205 293 
 NOR  HZ EP        335 53.86                             118   -0.00 8  233 235 
 NOR  HN ES        336 21.15                             118   -0.36 8  233 235 
 NOR  HZ I         336 28.18         3.0 0.21                           233 235 
 CHI  HN ES        336 24.83                             117    0.05 8  246 195 
 HEL  HN ES        336 29.98                             114    0.27 8  272 256 
 GUY2CHZ EP        336  2.10                             112    0.34 7  300 235 
 GUY2CHN ES   4    336 37.02                             112    1.45 0  300 235 
 GUY2CHZ I         336 44.85         1.7 0.22                           300 235 
 CBOC HZ EP        336  5.74                             110    0.58 7  333 253 
 CBOC HN ES        336 40.91                             110   -0.72 7  333 253 
 CBOC HZ I         336 47.97         0.7 0.27                           333 253 
 PRA  HZ EP        336 12.52                             106    0.95 6  390 210 
 PRA  HN ES        336 53.57                             106    0.53 6  390 210 
 PRA  HZ I         337  1.61         1.5 0.60                           390 210 
                                                                                
