 2017  125 0832 33.2 L   6.774 -73.156141.1  RSN  4 0.4 0.7LRSN                1
 GAP=234        1.01       7.9     7.6  8.1  0.3012E+02  0.6127E+01  0.1599E+01E
 Epicentro: LOS SANTOS - SANTANDER                                             3
 ACTION:UPD 17-05-22 16:03 OP:jn   STATUS:               ID:20170125083233 L   I
 OLDACT:REG 17-01-25 13:07 OP:lv   STATUS:               ID:20170125082740     3
 2017-01-25-0828-00M.COL___343                                                 6
 STAT SP IPHASW D HRMM SECON CODA AMPLIT PERI AZIMU VELO AIN AR TRES W  DIS CAZ7
 BAR2 EZ EP        832 51.78                             171   -0.4510 20.3 188 
 BAR2 EZ ES        833  6.58                             171   -0.4810 20.3 188 
 BAR2 EZ I         833  7.45         1.4 0.39            169           20.3 188 
 BRR  HZ EP        832 53.82                             152   -0.0710 71.6 301 
 BRR  HN ES        833 10.63                             152    0.6210 71.6 301 
 RUS  HZ EP        832 56.54                             144    0.2310 97.8 175 
 RUS  HN ES        833 14.68                             144    0.3610 97.8 175 
 RUS  HZ I         833 14.72         0.4 0.17            143           97.8 175 
 PTB  HZ EP        832 59.82                             131    0.16 9  146 260 
 PTB  HN ES        833 19.88                             131   -0.40 9  146 260 
 PTB  HZ I         833 22.21         1.0 0.10            130            146 260 
                                                                                
