 2011  825 0031 31.3 L   6.750 -73.140142.9  RSN  5 0.3 1.6LRSN                1
 GAP=185        0.60       5.6     7.5  6.7  0.6607E+01  0.5212E+01  0.7311E+01E
 Epicentro: LOS SANTOS - SANTANDER                                             3
 ACTION:UPD 12-07-13 15:53 OP:ep   STATUS:               ID:20110825003131 L   I
 2011-08-25-0020-00M.COL___156                                                 6
 STAT SP IPHASW D HRMM SECON CODA AMPLIT PERI AZIMU VELO AIN AR TRES W  DIS CAZ7
 BAR2 SZ EP   1    031 50.48                             172   -0.02 7 18.0 195 
 BAR2 SZ ES   1    032  5.20                             172   -0.26 7 18.0 195 
 BAR2 SZ I         032  6.77        12.1 0.25                          18.0 195 
 GIR2 SZ EP   1    031 50.59                             165   -0.22 7 36.9 351 
 GIR2 SZ ES   1    032  5.81                             165   -0.20 7 36.9 351 
 BRR  HZ EP   1    031 52.23                             151   -0.11 7 74.5 302 
 BRR  HZ I         031 54.02        13.9 0.41                          74.5 302 
 BRR  HN ES   1    032  9.23                             151    0.48 7 74.5 302 
 RUS  HZ EP   2    031 55.07                             145    0.69 5 95.0 176 
 RUS  HE ES   2    032 12.70                             145    0.33 5 95.0 176 
 RUS  HZ I         032 14.12         2.6 0.43                          95.0 176 
 NOR  SN ES   2    032 33.65                             118   -0.45 4  232 236 
                                                                                
