 2012 1025 0754 38.8 L   6.773 -73.116147.9  RSN  7 0.2 2.2LRSN                1
 GAP=142        0.45       3.2     4.5  6.5  0.2156E+01  0.7062E+00 -0.1439E+01E
 Epicentro: LOS SANTOS - SANTANDER                                             3
 ACTION:UPD 12-11-22 17:05 OP:ep   STATUS:               ID:20121025075438 L   I
 2012-10-25-0750-00M.COL___234                                                 6
 STAT SP IPHASW D HRMM SECON CODA AMPLIT PERI AZIMU VELO AIN AR TRES W  DIS CAZ7
 BAR2 SZ EP   1    754 58.51                             171   -0.17 7 21.2 200 
 BAR2 SZ I         755 18.15        11.2 0.20                          21.2 200 
 GIR2 SZ EP   1    754 58.56                             166   -0.30 7 34.9 346 
 BRR  HZ EP        755  0.37                             151   -0.0910 75.5 299 
 BRR  HN ES   2    755 17.82                             151    0.49 5 75.5 299 
 PAM  SZ EP   1    755  1.35                             151    0.05 7 77.8  36 
 PAM  SN ES   2    755 18.78                             151   -0.04 5 77.8  36 
 PAM  SN I         755 19.69        21.3 0.50                          77.8  36 
 RUS  HZ EP   1    755  2.85                             145    0.28 7 97.4 178 
 RUS  HN ES   2    755 20.99                             145   -0.09 5 97.4 178 
 OCA  HZ EP   1    755  7.93                             129    0.30 7  164 352 
 OCA  HE ES   2    755 29.96                             129   -0.13 5  164 352 
 OCA  HN I         755 32.98        39.6 0.32                           164 352 
 ZAR  HN ES   2    755 37.39                             122   -0.21 4  208 293 
 ZAR  HN I         755 43.37        17.0 0.30                           208 293 
                                                                                
