 2010  725 0403 34.8 L   6.894 -73.102145.3  RSN  8 0.4 1.8LRSN                1
 GAP=162        0.90       4.7     8.9  8.4 -0.1346E+02 -0.5425E+01  0.4777E+01E
 Epicentro: PIEDECUESTA - SANTANDER                                            3
 ACTION:UPD 10-12-01 15:20 OP:pat  STATUS:               ID:20100725040334 L   I
 2010-07-25-0401-35S.COL___123                                                 6
 STAT SP IPHASW D HRMM SECON CODA AMPLIT PERI AZIMU VELO AIN AR TRES W  DIS CAZ7
 BAR2 SZ IP        4 3 54.37                             166    -0.310   35 195 
 BAR2 SZ ES   2    4 4 10.65                             166     0.5 5   35 195 
 BAR2 SZ I         4 4 16.40         9.2 0.04                            35 195 
 BRR  HZ IP     C  4 3 55.86                             152     0.010   71 289 
 BRR  HZ I         4 3 56.08        15.9 0.14                            71 289 
 BRR  HN ES   1    4 4 12.37                             152     0.0 7   71 289 
 GUE  SZ EP   1    4 3 57.89                             142    -0.7 7  105  11 
 GUE  SZ I         4 4 18.79         3.8 0.15                           105  11 
 RUS  HZ EP   1    4 3 58.89                             141    -0.4 7  111 179 
 RUS  HN ES   2    4 4 18.19                             141    -0.1 5  111 179 
 RUS  HZ I         4 4 21.12         4.7 0.22                           111 179 
 GRA  SZ IP        4 3 59.54                             140     0.510  114  17 
 GRA  SZ ES   1    4 4 18.08                             140     0.1 7  114  17 
 GRA  SZ I         4 4 19.71        18.7 0.40                           114  17 
 OCA  SZ EP   1    4 4  2.40                             131     0.2 7  151 351 
 OCA  SZ I         4 4 27.30         7.0 0.24                           151 351 
 CHI  HZ EP   1    4 4 14.27                             116     0.6 6  260 196 
 CHI  HN ES   2    4 4 44.50                             116     0.5 4  260 196 
 CHI  HZ I         4 4 53.44         3.5 0.37                           260 196 
 HEL  HZ EP   1    4 4 15.82                             114     0.0 6  279 254 
 HEL  HZ I         4 4 53.45         8.3 0.48                           279 254 
                                                                                
