 2010 1125 0435  8.0 L   6.800 -73.058148.3  RSN 13 0.4 2.7LRSN                1
 GAP=168        0.85       3.8     6.8  5.9 -0.8617E+01  0.8649E+01  0.1155E+01E
 Epicentro: LOS SANTOS - SANTANDER                                             3
 ACTION:UP  10-12-17 16:54 OP:REBC STATUS:               ID:20101125043508 L   I
 2010-11-25-0432-35S.COL___129                                                 6
 STAT SP IPHASW D HRMM SECON CODA AMPLIT PERI AZIMU VELO SNR AR TRES W  DIS CAZ7
 BAR2 SZ IP        435 27.87                             169    -0.110   27 211 
 BAR2 SZ ES   1    435 43.29                             169    -0.3 7   27 211 
 BAR2 SZ I         435 44.79        46.1 0.22                            27 211 
 BRR  HZ IP     C  435 29.81                             150    -0.110   80 295 
 BRR  HZ I         435 30.09       101.7 0.16                            80 295 
 BRR  HE ES   1    435 47.08                             150     0.1 7   80 295 
 RUS  HZ EP   1    435 31.71                             144    -0.3 7  100 182 
 RUS  HN ES   1    435 50.62                             144    -0.1 7  100 182 
 RUS  HZ I         435 52.70        32.9 0.08                           100 182 
 GRA  SZ IP     D  435 33.77                             138     0.510  123  13 
 GRA  SZ I         435 54.72        74.5 0.24                           123  13 
 OCA  SZ EP   1    435 36.73                             130     0.1 7  162 350 
 OCA  SZ I         436  3.85        53.1 0.50                           162 350 
 NOR  SZ EP   1    435 43.91                             118    -0.8 6  243 236 
 CHI  HZ EP        435 45.93                             117    -0.2 8  251 197 
 CHI  HN ES   1    436 16.30                             117     0.4 6  251 197 
 CHI  HZ I         436 20.96        20.4 0.30                           251 197 
 ROSC BN ES   1    436 17.88                             117     0.8 6  258 213 
 ROSC BZ I         436 24.03        27.6 0.49                           258 213 
 HEL  HZ EP   1    435 49.14                             114    -0.2 6  282 256 
 HEL  HZ I         436 26.28        31.1 0.28                           282 256 
 GUY  SZ EP   1    435 52.00                             112    -0.6 5  309 236 
 GUY  SN ES   1    436 27.61                             112     0.2 5  309 236 
 GUY  SZ I         436 36.56        37.4 0.34                           309 236 
 RREF HZ EP   1    435 55.36                             111     0.3 5  329 230 
 RREF HZ I         436 39.17        28.9 0.31                           329 230 
 TOL  SZ EP   1    435 57.52                             109     0.4 5  350 226 
 PRA  HZ EP   1    436  1.87                             107    -0.3 4  397 211 
 PRA  HZ I         436  3.52        64.1 0.11                           397 211 
 PRA  HN ES   1    436 44.52                             107     0.1 4  397 211 
                                                                                
