 2017  925 0016 17.8 L   6.761 -73.139143.2  RSN 10 0.4 1.8LRSN                1
 GAP=139        0.90       3.9     3.9  5.6 -0.2607E+00  0.8175E+01  0.3540E+01E
 Epicentro: LOS SANTOS - SANTANDER                                             3
 ACTION:UPD 17-10-05 19:15 OP:rebc STATUS:               ID:20170925001617 L   I
 OLDACT:UP  17-09-25 13:33 OP:edw  STATUS:               ID:20170925000741     3
 OLDACT:UP  17-09-25 13:33 OP:edw  STATUS:               ID:20170925000741     3
 OLDACT:UP  17-09-25 13:29 OP:edw  STATUS:               ID:20170925000741     3
 OLDACT:REG 17-09-25 12:19 OP:edw  STATUS:               ID:20170925000741     3
 2017-09-25-0008-00M.COL___411                                                 6
 STAT SP IPHASW D HRMM SECON CODA AMPLIT PERI AZIMU VELO AIN AR TRES W  DIS CAZ7
 BAR2 EZ EP        016 36.85                             172   -0.2010 19.2 194 
 BAR2 EZ ES        016 51.79                             172   -0.2610 19.2 194 
 BAR2 EZ I         016 52.86        16.2 0.26            171           19.2 194 
 BRR  HZ EP        016 38.85                             151    0.0110 74.0 301 
 BRR  HN ES        016 56.07                             151    0.8310 74.0 301 
 BRR  HZ I         016 56.69        13.4 0.48            151           74.0 301 
 PAM  EZ EP        016 39.93                             150    0.0010 80.3  37 
 PAM  EN ES        016 57.04                             150   -0.1410 80.3  37 
 PAM  EZ I         017  1.59         9.4 0.36            152           80.3  37 
 RUS  HZ EP        016 40.56                             145   -0.4310 96.2 176 
 RUS  HN ES        016 59.27                             145    0.2010 96.2 176 
 RUS  HZ I         017  0.02         6.6 0.28            145           96.2 176 
 ZAR  HZ EP        016 50.54                             122    0.21 8  206 293 
 ZAR  HN ES        017 15.10                             122   -0.60 8  206 293 
 ZAR  HZ I         017 18.77         6.2 0.38            122            206 293 
 NOR  HZ EP        016 53.34                             118    0.16 8  233 235 
 NOR  HN ES        017 20.83                             118    0.05 8  233 235 
 NOR  HZ I         017 27.32         6.3 0.32            118            233 235 
 HEL  HE ES        017 28.77                             114   -0.32 8  272 257 
 VIL  EZ EP   2    017  1.09                             112    0.45 4  299 192 
 GUY2CHZ EP   4    017  2.12                             112    1.04 0  299 236 
 GUY2CHN ES   4    017 36.82                             112    1.98 0  299 236 
 GUY2CHZ I         017 44.05         2.8 0.70                           299 236 
 PRA  HZ EP        017 11.57                             106    0.73 6  389 210 
 PRA  HE ES   4    017 50.10                             106   -2.10 0  389 210 
 PRA  HZ I         017 58.84         2.2 0.44            107            389 210 
                                                                                
