 2013  825 0854  2.1 L   6.830 -73.151138.0  RSN 13 0.6 1.8LRSN 2.3WRSN        1
 SPEC AVERAGE  MO 12.6 ST  3.4 OM  1.2 f0 8.16 R0.2818 AL 0.00 WI 20.0 MW  2.3 3
 SPEC SD       MO  0.8 ST 84.0 OM  0.7 f0 4.44 R0.1877 AL      WI      MW  0.6 3
 GAP=134        1.45       3.9     5.2  7.6 -0.2156E+01  0.1048E+02  0.4694E+01E
 Epicentro: LOS SANTOS - SANTANDER                                             3
 SPEC BRR HH Z MO 12.4 ST  1.1 OM  0.8 f0 7.22 R0.2152 AL-0.00 WI 20.0 MW  2.2 3
 SPEC BRR HH Z T 85437 K 0.000 GD  154 VS 4.20 DE 3.20 Q0300.0 QA 0.60 VS 4.20 3
 SPEC PAM SH Z MO 13.0 ST0.122 OM  1.4 f0 2.20 R0.7064 AL-0.00 WI 20.0 MW  2.6 3
 SPEC PAM SH Z T 85438 K 0.000 GD  157 VS 4.20 DE 3.20 Q0300.0 QA 0.60 VS 4.20 3
 SPEC RUS HH Z MO 12.3 ST0.175 OM  0.7 f0 4.11 R0.3781 AL-0.00 WI 20.0 MW  2.2 3
 SPEC RUS HH Z T 85442 K 0.000 GD  172 VS 4.20 DE 3.20 Q0300.0 QA 0.60 VS 4.20 3
 SPEC PTB HH Z MO 12.4 ST  9.8 OM  0.7 f0 14.9 R0.1043 AL-0.00 WI 20.0 MW  2.2 3
 SPEC PTB HH Z T 85446 K 0.000 GD  202 VS 4.20 DE 3.20 Q0300.0 QA 0.60 VS 4.20 3
 SPEC SPBCHH Z MO 12.7 ST  2.4 OM  1.0 f0 7.25 R0.2143 AL-0.00 WI 20.0 MW  2.4 3
 SPEC SPBCHH Z T 85451 K 0.000 GD  215 VS 4.20 DE 3.20 Q0300.0 QA 0.60 VS 4.20 3
 SPEC ZAR HH Z MO 12.5 ST  3.5 OM  0.7 f0 9.93 R0.1565 AL-0.00 WI 20.0 MW  2.3 3
 SPEC ZAR HH Z T 85457 K 0.000 GD  244 VS 4.20 DE 3.20 Q0300.0 QA 0.60 VS 4.20 3
 SPEC CHI HH Z MO 12.4 ST 10.0 OM  0.5 f0 15.6 R0.0996 AL-0.00 WI 20.0 MW  2.2 3
 SPEC CHI HH Z T 855 7 K 0.000 GD  287 VS 4.20 DE 3.20 Q0300.0 QA 0.60 VS 4.20 3
 SPECGUY2CHH Z MO 13.2 ST  0.1 OM  1.2 f0 2.03 R 0.764 AL-0.00 WI 20.0 MW  2.7 3
 SPECGUY2CHH Z T 85518 K       GD332.9 VS 4.20 DE 3.20 Q0300.0 QA 0.60 VS 4.20 3
 SPEC RREFHH Z MO 12.7 ST0.441 OM  0.8 f0 4.09 R0.3800 AL-0.00 WI 20.0 MW  2.4 3
 SPEC RREFHH Z T 85522 K 0.000 GD  351 VS 4.20 DE 3.20 Q0300.0 QA 0.60 VS 4.20 3
 OLDACT:REG 13-08-25 08:27 OP:wtll STATUS:               ID:20130825084846     3
 ACTION:UPD 14-01-14 09:06 OP:ep   STATUS:               ID:20130825085402 L   I
 OLDACT:UP  13-08-25 13:35 OP:stll STATUS:               ID:20130825084846     3
 2013-08-25-0848-46M.COL___232                                                 6
 STAT SP IPHASW D HRMM SECON CODA AMPLIT PERI AZIMU VELO AIN AR TRES W  DIS CAZ7
 BAR2 SZ EP        854 20.90                             169    0.0310 26.5 187 
 BAR2 SZ ES        854 34.84                             169   -0.6710 26.5 187 
 BAR2 SZ I         854 36.35         8.4 0.60            165           26.5 187 
 BRR  HZ EP        854 22.57                             152    0.2810 69.1 296 
 BRR  HN ES        854 39.25                             152    1.2110 69.1 296 
 BRR  SZ I         854 43.62         8.5 0.12            147           69.1 296 
 PAM  SZ EP        854 23.49                             150    0.1310 75.3  41 
 PAM  SN ES        854 40.39                             150    0.4410 75.3  41 
 PAM  SZ I         854 42.07        19.2 0.56            152           75.3  41 
 RUS  HZ EP        854 24.97                             141   -0.3810  104 176 
 RUS  HN ES        854 43.70                             141    0.2210  104 176 
 RUS  SZ I         854 45.25         8.7 0.26            138            104 176 
 CAPV BZ EP        854 28.40                             131   -0.27 9  147  39 
 PTB  HZ EP        854 27.56                             130   -0.89 9  148 258 
 PTB  HN ES        854 47.84                             130   -1.17 9  148 258 
 PTB  SZ I         854 51.38        11.2 0.18            126            148 258 
 OCA  HN ES        854 50.56                             128   -0.30 9  157 353 
 SPBC HZ EP        854 30.74                             127    0.51 9  165 218 
 SPBC SZ I         854 58.22        10.7 0.22            123            165 218 
 ZAR  HZ EP        854 33.66                             121   -0.20 9  202 291 
 ZAR  HN ES        854 58.53                             121   -0.11 9  202 291 
 ZAR  SZ I         855  8.97         4.7 0.22            118            202 291 
 SML  HE ES        855  5.73                             116   -0.17 8  240 335 
 CHI  HZ EP        854 39.28                             115   -0.44 8  252 195 
 CHI  HN ES        855  8.71                             115   -0.34 8  252 195 
 CHI  SZ I         855 11.84         3.4 0.24            113            252 195 
 GUY2CHZ EP        854 46.68                             111    1.16 7  303 234 
 GUY2CHN ES        855 20.43                             111    1.04 7  303 234 
 GUY2CSZ I         855 23.87         4.0 2.46                           303 234 
 RREF HZ EP        854 48.65                             109    0.54 7  323 229 
 RREF HN ES        855 24.14                             109    0.14 7  323 229 
 RREF SZ I         855 33.29         3.8 0.28            107            323 229 
                                                                                
