 2013  425 0016 28.4 L   6.828 -73.199141.2  RSN  6 0.4 1.7LRSN                1
 GAP=129        0.81       3.8     5.0  9.9  0.2894E+01  0.1330E+02 -0.8556E+01E
 Epicentro: ZAPATOCA - SANTANDER                                               3
 ACTION:UPD 13-05-22 14:40 OP:EP   STATUS:               ID:20130425001628 L   I
 2013-04-25-0008-41M.COL___213                                                 6
 STAT SP IPHASW D HRMM SECON CODA AMPLIT PERI AZIMU VELO AIN AR TRES W  DIS CAZ7
 BRR  HZ EP   1    016 49.28                             154    0.55 7 64.6 299 
 BRR  HN ES   2    017  5.53                             154    0.98 5 64.6 299 
 BRR  HN I         017  6.90        13.7 0.18            152           64.6 299 
 PAM  SZ EP     C  016 50.50                             149    0.2310 79.0  44 
 PAM  SN ES   1    017  7.04                             149   -0.25 7 79.0  44 
 PAM  SZ I         017  9.57         3.9 0.46            155           79.0  44 
 RUS  HZ EP   1    016 52.26                             141    0.24 7  104 173 
 RUS  HN ES        017 10.10                             141   -0.3110  104 173 
 RUS  HN I         017 11.86         5.8 0.32            146            104 173 
 PTB  HZ EP   1    016 54.43                             132   -0.15 7  143 257 
 PTB  HN ES   2    017 14.37                             132   -0.59 5  143 257 
 PTB  HN I         017 19.92         4.0 0.30            133            143 257 
 ZAR  HE ES   1    017 24.57                             122    0.12 6  197 292 
 ZAR  HE I         017 30.71        11.0 0.26            124            197 292 
 SML  HN ES        017 31.67                             117   -0.49 8  238 336 
 SML  HN I         017 34.77         6.6 0.10            119            238 336 
                                                                                
