 2010  825 0553 31.9 L   6.751 -73.130147.1  RSN  7 0.4 1.6LRSN                1
 GAP=161        0.87       5.9    11.8  9.7 -0.4776E+01 -0.3532E+02 -0.7918E+01E
 Epicentro: LOS SANTOS - SANTANDER                                             3
 ACTION:UP  10-09-07 10:57 OP:vdl  STATUS:               ID:20100825055331 L   I
 2010-08-25-0550-26S.COL___121                                                 6
 STAT SP IPHASW D HRMM SECON CODA AMPLIT PERI AZIMU VELO SNR AR TRES W  DIS CAZ7
 BAR2 SZ ES   2    554  6.86                             173    -0.1 5   19 199 
 BAR2 SZ I         554  8.06        10.6 0.25                            19 199 
 BTL  SZ EP   1    553 51.45                             171    -0.2 7   24 321 
 BRR  HZ IP     C  553 53.17                             152    -0.210   75 302 
 BRR  HZ I         553 53.52         7.5 0.13                            75 302 
 BRR  HE ES   1    554 10.50                             152     0.3 7   75 302 
 RUS  HZ EP   2    553 55.20                             146    -0.1 5   95 177 
 RUS  HE ES   2    554 13.80                             146     0.1 5   95 177 
 RUS  HZ I         554 15.16         3.1 0.22                            95 177 
 GRA  SZ IP        553 58.13                             136     0.510  130  16 
 OCA  SZ EP   1    553 59.93                             129    -0.9 7  166 353 
 OCA  SZ ES   2    554 23.65                             129     0.3 5  166 353 
 OCA  SZ I         554 26.47         4.3 0.33                           166 353 
 PRA  HZ EP   2    554 25.34                             107     0.4 3  388 210 
 PRA  HN ES   2    555  6.60                             107     0.2 3  388 210 
 PRA  HZ I         555 13.05         2.1 0.34                           388 210 
                                                                                
