 2014  225 0450 37.1 L   6.779 -73.160139.2  RSN  8 0.4 1.7LRSN                1
 GAP=136        0.99       3.4     4.6  8.6  0.1574E+01  0.1450E+02  0.2127E+01E
 Epicentro: LOS SANTOS - SANTANDER                                             3
 ACTION:UPD 14-03-10 08:13 OP:ep   STATUS:               ID:20140225045037 L   I
 OLDACT:UP  14-02-25 12:57 OP:fm   STATUS:               ID:20140225044814     3
 OLDACT:REG 14-02-25 08:08 OP:fm   STATUS:               ID:20140225044814     3
 2014-02-25-0448-14M.COL___236                                                 6
 STAT SP IPHASW D HRMM SECON CODA AMPLIT PERI AZIMU VELO AIN AR TRES W  DIS CAZ7
 BAR2 SZ EP        450 55.79                             171   -0.1110 20.8 187 
 BAR2 SZ I         451 16.76        11.1 0.18            172           20.8 187 
 PAM  SZ EP        450 58.57                             149   -0.2310 80.2  39 
 PAM  SN ES        451 15.53                             149   -0.2010 80.2  39 
 RUS  HZ EP        451  0.26                             143    0.2110 98.4 175 
 RUS  HN ES        451 18.42                             143    0.4710 98.4 175 
 RUS  HZ I         451 19.87         3.1 0.24            143           98.4 175 
 PTB  HZ EP        451  2.44                             131   -0.92 9  146 260 
 PTB  HN ES        451 23.63                             131   -0.21 9  146 260 
 PTB  HZ I         451 25.73         6.5 0.40            131            146 260 
 OCA  HE ES   4    451 27.95                             128    0.98 0  162 354 
 OCA  HZ I         451 32.17         6.3 0.30            127            162 354 
 ZAR  HZ EP        451  9.69                             121    0.62 9  204 293 
 ZAR  HN ES        451 34.25                             121    0.24 9  204 293 
 ZAR  HZ I         451 39.91         8.2 0.62            121            204 293 
 SML  HZ EP   4    451 12.05                             116   -1.49 0  245 336 
 SML  HE ES        451 42.31                             116    0.36 8  245 336 
 SML  HZ I         451 47.68         6.1 0.10            115            245 336 
 CHI  HZ EP        451 14.39                             116    0.23 8  246 195 
 CHI  HN ES        451 42.83                             116   -0.22 8  246 195 
 CHI  HZ I         451 51.32         1.8 0.36            116            246 195 
                                                                                
