 2014  225 0346 11.3 L   6.787 -73.141151.2  RSN  5 0.5 1.4LRSN                1
 GAP=201        1.06       4.9    10.2 12.0  0.2520E+02 -0.5580E+01 -0.1735E+02E
 Epicentro: LOS SANTOS - SANTANDER                                             3
 ACTION:UPD 14-03-10 08:13 OP:ep   STATUS:               ID:20140225034611 L   I
 OLDACT:UP  14-02-25 11:56 OP:fm   STATUS:               ID:20140225033814     3
 OLDACT:REG 14-02-25 08:06 OP:fm   STATUS:               ID:20140225033814     3
 2014-02-25-0338-14M.COL___236                                                 6
 STAT SP IPHASW D HRMM SECON CODA AMPLIT PERI AZIMU VELO AIN AR TRES W  DIS CAZ7
 RUS  HZ EP     D  346 35.74                             145    0.2610 99.1 176 
 RUS  HN ES        346 54.49                             145    0.1510 99.1 176 
 RUS  HZ I         346 56.76         1.8 0.52            148           99.1 176 
 PTB  HN ES   2    347  0.04                             133   -0.09 5  148 259 
 ZAR  HN ES   1    347 10.60                             123    0.72 6  205 292 
 SML  HZ EP        346 48.45                             118    0.06 8  245 335 
 SML  HN ES        347 16.68                             118   -0.65 8  245 335 
 SML  HZ I         347 19.43         4.5 0.32            120            245 335 
 CHI  HZ EP        346 49.61                             118    0.45 8  247 195 
 CHI  HN ES        347 17.74                             118   -0.96 8  247 195 
                                                                                
