 2017  425 0929 22.6 L   6.123 -73.724108.1  RSN  6 0.2 1.4LRSN                1
 GAP=167        0.62       3.0     2.7  5.6 -0.3104E+01  0.2866E+01 -0.4438E+01E
 Epicentro: CHIPATA - SANTANDER                                                3
 ACTION:UPD 17-05-30 21:15 OP:jn   STATUS:               ID:20170425092922 L   I
 OLDACT:UP  17-04-25 17:45 OP:and  STATUS:               ID:20170425092739     3
 OLDACT:UP  17-04-25 17:45 OP:and  STATUS:               ID:20170425092739     3
 OLDACT:UP  17-04-25 17:44 OP:and  STATUS:               ID:20170425092739     3
 OLDACT:UP  17-04-25 17:44 OP:and  STATUS:               ID:20170425092739     3
 OLDACT:UP  17-04-25 17:43 OP:and  STATUS:               ID:20170425092739     3
 OLDACT:UP  17-04-25 17:43 OP:and  STATUS:               ID:20170425092739     3
 OLDACT:REG 17-04-25 12:32 OP:and  STATUS:               ID:20170425092739     3
 2017-04-25-0928-00M.COL___361                                                 6
 STAT SP IPHASW D HRMM SECON CODA AMPLIT PERI AZIMU VELO AIN AR TRES W  DIS CAZ7
 SPBC HN ES        929 52.73                             147    0.0610 64.8 216 
 SPBC HZ I         929 53.92         6.7 0.13            149           64.8 216 
 BAR2 EZ EP        929 40.87                             141    0.1510 79.3  49 
 BAR2 EZ ES        929 54.87                             141   -0.0210 79.3  49 
 BAR2 EZ I         929 56.38        13.6 0.12            143           79.3  49 
 PTB  HZ EP   2    929 41.30                             136   -0.23 5 93.1 300 
 PTB  HN ES        929 56.00                             136   -0.3410 93.1 300 
 PTB  HZ I         929 58.19         2.2 0.30            136           93.1 300 
 BRR  HZ EP        929 42.89                             131   -0.0110  109   1 
 BRR  HN ES   4    930  1.35                             131    2.59 0  109   1 
 NOR  HZ EP        929 45.76                             123   -0.36 9  141 244 
 NOR  HN ES        930  4.83                             123    0.34 9  141 244 
 NOR  HZ I         930  6.36         5.0 0.12            125            141 244 
 ZAR  HE ES        930 15.30                             114    0.30 9  197 320 
 ZAR  HZ I         930 17.94         2.5 0.26            115            197 320 
                                                                                
