 2015  925 0832 23.3 L   6.760 -73.152141.7  RSN  5 0.5 1.7LRSN                1
 GAP=257        1.16       8.0     8.0  9.5  0.1153E+02  0.2140E+02 -0.6801E+01E
 Epicentro: LOS SANTOS - SANTANDER                                             3
 ACTION:UPD 15-10-28 16:28 OP:cam  STATUS:               ID:20150925083223 L   I
 OLDACT:UP  15-09-25 17:28 OP:mh   STATUS:               ID:20150925082748     3
 OLDACT:REG 15-09-25 12:43 OP:mh   STATUS:               ID:20150925082748     3
 2015-09-25-0827-48M.COL___349                                                 6
 STAT SP IPHASW D HRMM SECON CODA AMPLIT PERI AZIMU VELO AIN AR TRES W  DIS CAZ7
 BAR2 EZ EP        832 42.25                             172   -0.1410 18.9 190 
 BAR2 EZ ES        832 57.41                             172    0.1510 18.9 190 
 BAR2 EZ I         832 59.91         8.3 0.22            167           18.9 190 
 PTB  HZ EP        832 48.89                             131   -0.95 9  146 260 
 PTB  HN ES        833 10.06                             131   -0.46 9  146 260 
 PTB  HZ I         833 17.12         5.4 0.40            130            146 260 
 SPBC HZ EP        832 51.14                             129   -0.02 9  159 220 
 SPBC HN ES        833 13.33                             129    0.46 9  159 220 
 SPBC HZ I         833 18.86         7.9 0.22            130            159 220 
 ZAR  HZ EP        832 56.40                             121    0.77 9  205 293 
 ZAR  HN ES        833 21.08                             121    0.26 9  205 293 
 ZAR  HZ I         833 30.50         3.6 0.48            122            205 293 
 GUY2CHZ EP   1    833  6.77                             112    0.36 5  298 235 
 GUY2CHN ES   4    833 42.80                             112    2.79 0  298 235 
 GUY2CHZ I         833 48.81         2.9 0.70                           298 235 
                                                                                
