 2017  725 0745 29.8 L   6.647 -73.157141.0  RSN  4 0.4 1.3LRSN                1
 GAP=255        0.68       8.2     5.5  7.0  0.1079E+02  0.1344E+02 -0.8436E+01E
 Epicentro: VILLANUEVA - SANTANDER                                             3
 ACTION:UPD 17-08-30 15:36 OP:rebc STATUS:               ID:20170725074529 L   I
 OLDACT:UP  17-07-25 16:45 OP:and  STATUS:               ID:20170725073738d    3
 OLDACT:UP  17-07-25 16:45 OP:and  STATUS:               ID:20170725073738d    3
 OLDACT:DUP 17-07-25 16:43 OP:and  STATUS:               ID:20170725073738d    3
 OLDACT:UP  17-07-25 16:42 OP:and  STATUS:               ID:20170725073737     3
 OLDACT:REG 17-07-25 12:49 OP:and  STATUS:               ID:20170725073737     3
 2017-07-25-0738-00M.COL___386                                                 6
 STAT SP IPHASW D HRMM SECON CODA AMPLIT PERI AZIMU VELO AIN AR TRES W  DIS CAZ7
 BAR2 EZ IP   2 C  745 48.94                             177    0.31 5 6.64 205 
 BAR2 EZ ES        746  3.12                             177   -0.2010 6.64 205 
 BAR2 EZ I         746  4.72         6.3 0.38            173           6.64 205 
 BRR  HZ IP     C  745 50.83                             149   -0.1210 79.7 310 
 BRR  HN ES        746  7.70                             149    0.2610 79.7 310 
 BRR  HZ I         746 15.47         3.7 0.48            146           79.7 310 
 PTB  HZ EP   2    745 55.44                             132   -0.61 5  144 265 
 PTB  HN ES        746 16.76                             132    0.23 9  144 265 
 PTB  HZ I         746 20.42         1.7 0.11            134            144 265 
 ZAR  HZ EP   2    746  3.38                             121    0.83 4  210 297 
 ZAR  HN ES        746 27.75                             121   -0.34 8  210 297 
 ZAR  HZ I         746 31.11         3.2 0.30            122            210 297 
                                                                                
