 2012 1025 0724  9.2 L   6.771 -73.139145.8  RSN 11 0.4 2.6LRSN                1
 GAP= 72        0.65       3.0     3.9  5.8 -0.4439E+00  0.4363E+01  0.4957E+01E
 Epicentro: LOS SANTOS - SANTANDER                                             3
 ACTION:UPD 12-11-22 17:05 OP:ep   STATUS:               ID:20121025072409 L   I
 2012-10-25-0720-00M.COL___234                                                 6
 STAT SP IPHASW D HRMM SECON CODA AMPLIT PERI AZIMU VELO AIN AR TRES W  DIS CAZ7
 BAR2 SZ EP   1    724 28.67                             172   -0.13 7 20.4 194 
 BAR2 SZ ES   2    724 44.01                             172   -0.06 5 20.4 194 
 BAR2 SZ I         724 45.56        76.1 0.14                          20.4 194 
 GIR2 SZ EP   1    724 28.91                             166   -0.08 7 34.5 350 
 GIR2 SZ ES   2    724 43.78                             166   -0.63 5 34.5 350 
 BRR  HZ EP   1    724 30.69                             152    0.19 7 73.4 300 
 BRR  HN ES   2    724 47.93                             152    0.83 5 73.4 300 
 BRR  HN I         724 48.68       176.3 0.07                          73.4 300 
 PAM  SZ EP        724 31.81                             150    0.2510 79.4  38 
 PAM  SN ES   2    724 48.76                             150   -0.23 5 79.4  38 
 PAM  SN I         724 50.10        58.8 0.50                          79.4  38 
 RUS  HZ EP   1    724 32.46                             145   -0.29 7 97.4 176 
 TAM  HZ EP   1    724 36.92                             131    0.16 7  154 104 
 TAM  HE ES   2    724 58.87                             131    0.63 5  154 104 
 TAM  HN I         724 59.19        36.5 0.34                           154 104 
 OCA  HZ EP   1    724 37.64                             129   -0.20 7  164 353 
 OCA  HN ES   2    724 59.46                             129   -0.70 5  164 353 
 OCA  HN I         725  2.83        67.9 0.26                           164 353 
 ZAR  HZ EP   1    724 41.48                             122   -0.39 6  206 293 
 ZAR  HN ES   2    725  7.72                             122    0.39 4  206 293 
 ZAR  HN I         725 14.81        39.6 0.10                           206 293 
 CHI  HZ EP   1    724 46.65                             117    0.04 6  246 196 
 CHI  HN ES        725 15.63                             117   -0.15 8  246 196 
 HEL  HZ EP   1    724 50.28                             115    0.84 6  272 256 
 HEL  HN I         725 28.51        15.4 0.34                           272 256 
 PRA  HZ EP   1    725  1.75                             107   -0.72 4  390 210 
 PRA  HN ES   2    725 44.20                             107    0.20 3  390 210 
 PRA  HN I         725 49.25         6.2 0.66                           390 210 
                                                                                
