 2011  525 0330  4.0 L   6.868 -73.307126.2  RSN  5 0.3 2.3LRSN                1
 GAP=145        0.78       6.8     7.4  8.4 -0.1873E+02 -0.3851E+01 -0.8662E+01E
 Epicentro: BETULIA - SANTANDER                                                3
 ACTION:UP  11-06-29 08:56 OP:tino STATUS:               ID:20110525033004 L   I
 2011-05-25-0327-46S.COL___141                                                 6
 STAT SP IPHASW D HRMM SECON CODA AMPLIT PERI AZIMU VELO SNR AR TRES W  DIS CAZ7
 BTL  SZ EP   1    330 21.34                             177     0.3 7    7  38 
 BAR2 SZ EP   1    330 21.78                             164     0.2 7   33 156 
 BAR2 SZ I         330 21.98        73.6 0.08                            33 156 
 BAR2 SZ ES   1    330 34.76                             164    -0.5 7   33 156 
 BRR  HZ EP   1    330 22.17                             156     0.2 7   52 301 
 BRR  HN ES   1    330 36.06                             156     0.0 7   52 301 
 BRR  HZ I         330 37.20        34.0 0.15                            52 301 
 PAM  SZ EP   1    330 24.81                             144     0.1 7   85  52 
 PAM  SN ES   1    330 41.36                             144     0.5 7   85  52 
 GRA  SZ EP   1    330 26.93                             132    -0.6 7  125  26 
 GRA  SZ ES   1    330 45.75                             132    -0.2 7  125  26 
                                                                                
