 2011  625 0811 10.8 L   6.530 -73.571111.1  RSN  4 0.1 1.5LRSN                1
 GAP=265        0.37       6.8     8.4  6.9  0.2243E+02  0.3996E+02  0.7266E+01E
 Epicentro: EL CARMEN DE CHUCURI - SANTANDER                                   3
 ACTION:UP  11-07-14 19:07 OP:ep   STATUS:               ID:20110625081110 L   I
 2011-06-25-0800-00M.COL___124                                                 6
 STAT SP IPHASW D HRMM SECON CODA AMPLIT PERI AZIMU VELO SNR AR TRES W  DIS CAZ7
 BAR2 SZ IP        811 26.98                             157     0.010   44  81 
 BAR2 SZ ES   1    811 39.66                             157     0.0 7   44  81 
 BAR2 SZ I         811 40.81        14.4 0.22                            44  81 
 BTL  SZ IP        811 27.79                             152     0.210   55  38 
 BTL  SZ ES   3    811 40.74                             152     0.0 2   55  38 
 BRR  HZ IP        811 27.91                             147     0.010   66 346 
 BRR  HZ I         811 28.14         5.0 0.13                            66 346 
 GIR2 SZ IP        811 28.59                             144    -0.110   74  35 
 GIR2 SZ ES   2    811 42.66                             144     0.0 5   74  35 
                                                                                
