 2014  925 0535 59.6 L   6.822 -73.194145.6  RSN 12 0.4 2.1LRSN                1
 GAP=130        0.96       2.7     3.7  5.1  0.3564E+00  0.5870E+01  0.2724E+00E
 Epicentro: ZAPATOCA - SANTANDER                                               3
 ACTION:UPD 14-10-03 23:08 OP:nd   STATUS:               ID:20140925053559 L   I
 OLDACT:UP  14-09-25 16:28 OP:cam  STATUS:               ID:20140925053000     3
 OLDACT:REG 14-09-25 13:31 OP:cam  STATUS:               ID:20140925053000     3
 2014-09-25-0530-00M.COL___252                                                 6
 STAT SP IPHASW D HRMM SECON CODA AMPLIT PERI AZIMU VELO AIN AR TRES W  DIS CAZ7
 BAR2 SZ EP     C  536 19.19                             170   -0.1110 25.5 177 
 BAR2 SZ ES        536 34.52                             170   -0.1110 25.5 177 
 BAR2 SZ I         536 35.95        29.9 0.46            169           25.5 177 
 BRR  HZ EP        536 21.04                             154    0.5910 65.4 299 
 BRR  HE ES        536 36.51                             154   -0.1810 65.4 299 
 BRR  HZ I         536 41.55        13.2 0.12            153           65.4 299 
 PAM  SZ EP        536 21.95                             150    0.0110 79.0  44 
 PAM  SN ES        536 39.27                             150   -0.0610 79.0  44 
 PAM  SZ I         536 41.25        15.5 0.18            155           79.0  44 
 RUS  HZ EP        536 23.63                             143    0.0410  104 173 
 RUS  HE ES        536 42.21                             143   -0.0610  104 173 
 RUS  HZ I         536 44.68        10.8 0.36            145            104 173 
 PTB  HZ EP        536 25.95                             133   -0.22 9  143 257 
 PTB  HN ES        536 46.11                             133   -0.76 9  143 257 
 PTB  HZ I         536 49.45        14.5 0.14            133            143 257 
 SPBC HZ EP        536 28.20                             129    0.20 9  162 217 
 SPBC HN ES        536 50.56                             129    0.44 9  162 217 
 SPBC HZ I         536 55.00        21.3 0.20            130            162 217 
 ZAR  HZ EP        536 31.88                             123    0.40 9  198 292 
 ZAR  HN ES        536 57.19                             123    0.88 9  198 292 
 ZAR  HZ I         537  4.78        10.2 0.28            124            198 292 
 SML  HZ EP        536 35.49                             118   -0.29 8  239 336 
 SML  HN ES        537  4.14                             118    0.18 8  239 336 
 SML  HZ I         537  6.85        20.7 0.10            120            239 336 
 CHI  HZ EP        536 37.38                             117   -0.07 8  250 194 
 CHI  HN ES        537  6.78                             117   -0.15 8  250 194 
 CHI  HZ I         537 12.10         4.3 0.24            119            250 194 
 ROSC BE ES   4    537  8.65                             117    1.28 0  252 210 
 ROSC BZ I         537 13.78         8.0 0.35            118            252 210 
 GUY2CHZ EP        536 42.44                             112   -0.48 7  298 234 
 GUY2CHE ES        537 16.98                             112    0.30 7  298 234 
 GUY2CHN I         537 28.66         9.8 0.80                           298 234 
 MON  HZ EP   4    536 45.87                             109   -2.11 0  348 309 
 MON  HN ES        537 24.63                             109   -1.05 6  348 309 
 MON  HN I         537 26.39         3.8 0.32            110            348 309 
                                                                                
