 2014  625 0126 50.3 L   6.794 -73.161144.0  RSN 13 0.4 1.9LRSN                1
 GAP=181        0.90       2.6     3.9  5.6 -0.6530E+00  0.4796E+01  0.5316E+00E
 Epicentro: LOS SANTOS - SANTANDER                                             3
 ACTION:UPD 14-07-01 22:56 OP:nd   STATUS:               ID:20140625012650 L   I
 OLDACT:DUP 14-06-25 16:31 OP:spq  STATUS:               ID:20140625011821d    3
 2014-06-25-0118-20M.COL___262                                                 6
 STAT SP IPHASW D HRMM SECON CODA AMPLIT PERI AZIMU VELO AIN AR TRES W  DIS CAZ7
 BAR2 SZ EP        127  9.59                             171   -0.0910 22.4 186 
 BAR2 SZ ES   1    127 24.56                             171   -0.25 7 22.4 186 
 BAR2 SZ I         127 27.55         9.6 0.27            168           22.4 186 
 BRR  HZ IP     C  127 11.51                             153    0.3410 70.0 300 
 BRR  HN ES        127 27.65                             153    0.1910 70.0 300 
 BRR  HZ I         127 32.79         9.7 0.16            150           70.0 300 
 RUS  HZ EP        127 13.82                             144    0.0010  100 175 
 RUS  HN ES        127 31.93                             144   -0.2510  100 175 
 RUS  HZ I         127 33.34         7.1 0.26            146            100 175 
 PTB  HZ EP        127 16.23                             132   -0.70 9  146 259 
 PTB  HN ES        127 37.58                             132   -0.15 9  146 259 
 PTB  HZ I         127 40.02         9.6 0.16            131            146 259 
 OCA  HN ES        127 40.98                             129    0.48 9  161 354 
 OCA  HZ I         127 43.97         8.2 0.16            132            161 354 
 SPBC HZ EP        127 18.51                             129    0.02 9  162 219 
 SPBC HN ES        127 40.82                             129    0.33 9  162 219 
 SPBC HZ I         127 46.61         9.6 0.17            130            162 219 
 ZAR  HN ES        127 47.43                             122   -0.15 9  203 292 
 ZAR  HZ I         127 53.87         9.1 0.26            123            203 292 
 NOR  HZ EP   1    127 25.65                             118   -0.06 6  233 234 
 NOR  HN ES        127 53.95                             118    0.60 8  233 234 
 NOR  HZ I         127 59.74         5.1 0.16            119            233 234 
 SML  HZ EP        127 26.14                             117   -0.65 8  244 336 
 SML  HE ES        127 55.49                             117    0.22 8  244 336 
 SML  HZ I         127 57.09         7.5 0.10            119            244 336 
 HEL  HN ES        128  0.39                             115   -0.94 8  270 256 
 HEL  HZ I         128  8.17         3.3 0.24            115            270 256 
 GUY2CHZ EP   1    127 33.92                             112    0.32 5  299 235 
 GUY2CHE ES   1    128  8.24                             112    0.85 5  299 235 
 GUY2CHZ I         128 15.87         4.0 0.31                           299 235 
 RREF HN ES   1    128 12.35                             111    0.43 5  320 229 
 RREF HZ I         128 20.60         4.6 0.26            112            320 229 
 PRA  HZ EP   1    127 43.89                             106    0.32 4  391 209 
 PRA  HN ES   1    128 25.26                             106    0.12 4  391 209 
 PRA  HZ I         128 29.25         3.6 0.54            108            391 209 
                                                                                
