 2017 1025 0013 47.5 L   6.824 -73.120146.1  RSN 21 0.6 2.2LRSN                1
 GAP=113        1.35       3.8     4.3  6.1  0.7617E+00  0.6799E+01  0.4539E+01E
 Epicentro: LOS SANTOS - SANTANDER                                             3
 ACTION:UPD 17-11-07 19:36 OP:rebc STATUS:               ID:20171025001348dL   I
 OLDACT:UP  17-10-25 15:14 OP:edw  STATUS:               ID:20171025000544     3
 OLDACT:REG 17-10-25 12:35 OP:dani STATUS:               ID:20171025000544     3
 2017-10-25-0008-00M.COL___455                                                 6
 STAT SP IPHASW D HRMM SECON CODA AMPLIT PERI AZIMU VELO AIN AR TRES W  DIS CAZ7
 BAR2 EZ EP        014  7.31                             170    0.0810 26.5 195 
 BAR2 EZ ES        014 22.17                             170   -0.4610 26.5 195 
 BAR2 EZ I         014 23.75        42.0 0.18            166           26.5 195 
 BRR  HZ EP        014  9.26                             152    0.5110 72.5 296 
 BRR  HN ES        014 25.81                             152    0.4810 72.5 296 
 BRR  HZ I         014 29.72        19.5 0.44            152           72.5 296 
 PAM  EZ EP        014 10.19                             152    0.6710 73.6  39 
 PAM  EN ES        014 27.22                             152    0.5210 73.6  39 
 PAM  EZ I         014 29.62        14.0 0.50            157           73.6  39 
 RUS  HZ EP        014 11.30                             143   -0.1610  103 178 
 RUS  HN ES        014 29.25                             143   -0.9010  103 178 
 RUS  HZ I         014 31.31        12.1 0.22            142            103 178 
 PTB  HZ EP        014 14.20                             131   -0.59 9  151 258 
 PTB  HN ES        014 35.14                             131   -0.94 9  151 258 
 PTB  HZ I         014 36.66         9.3 0.16            131            151 258 
 SPBC HZ EP        014 16.25                             128   -0.13 9  167 219 
 SPBC HN ES        014 38.94                             128    0.03 9  167 219 
 SPBC HZ I         014 43.26        23.1 0.28            128            167 219 
 YPLC HZ EP        014 17.76                             126    0.35 9  178 153 
 YPLC HN ES        014 40.60                             126   -0.14 9  178 153 
 YPLC HZ I         014 42.58        12.1 0.30            128            178 153 
 ZAR  HZ EP        014 20.90                             122    0.77 8  206 291 
 ZAR  HN ES        014 45.82                             122    0.23 8  206 291 
 ZAR  HZ I         014 50.84        16.1 0.54            123            206 291 
 NOR  HZ EP        014 23.74                             118    0.09 8  239 234 
 NOR  HN ES        014 51.15                             118   -0.71 8  239 234 
 NOR  HZ I         014 56.38        11.3 0.22            118            239 234 
 CHI  HZ EP        014 25.63                             117    0.06 8  252 196 
 CHI  HN ES        014 55.25                             117   -0.01 8  252 196 
 CHI  HZ I         015  1.97         8.1 0.50            117            252 196 
 ROSC BZ EP   4    014 27.68                             116    1.64 0  256 211 
 ROSC BN ES        014 57.54                             116    1.44 8  256 211 
 ROSC BZ I         015  3.93        12.7 0.40            117            256 211 
 URE  HZ EP        014 27.52                             113   -1.25 7  285 291 
 URE  HN ES   4    014 58.22                             113   -2.74 0  285 291 
 URE  HZ I         014 59.80         7.7 0.14            114            285 291 
 GUY2CHZ EP        014 32.01                             112    0.46 7  305 235 
 GUY2CHN ES        015  6.69                             112    0.78 7  305 235 
 GUY2CHZ I         015 16.28         6.0 0.42                           305 235 
 PTGC HZ EP        014 30.60                             111   -0.93 7  310 159 
 PTGC HN ES   4    015  4.06                             111   -1.82 0  310 159 
 ELA  HZ EP   4    014 36.57                             110    1.77 0  333 229 
 ELA  HN ES   4    015 13.92                             110    2.22 0  333 229 
 ELA  HZ I         015 24.45         5.9 0.44            111            333 229 
 DBB  EZ EP        014 35.08                             109   -0.21 7  342 274 
 DBB  EN ES   4    015 10.51                             109   -2.05 0  342 274 
 ANIL HN ES        015 17.24                             108    0.28 6  361 225 
 ANIL HZ I         015 22.10        17.3 0.32            109            361 225 
 PRA  HZ EP        014 41.69                             106    0.23 6  396 210 
 PRA  HN ES        015 23.76                             106    0.21 6  396 210 
 PRA  HZ I         015 32.24         7.0 0.34            107            396 210 
 ORTC HZ EP        014 41.94                             106    0.07 6  399 216 
 ORTC HN ES   4    015 26.12                             106    1.84 0  399 216 
 ORTC HZ I         015 32.84         5.1 0.38            107            399 216 
 SJC  HZ EP        014 41.69                             106   -1.30 6  409 326 
 SJC  HN ES   4    015 22.61                             106   -3.67 0  409 326 
 SJC  HZ I         015 27.01         3.1 0.56            107            409 326 
 PAL  HZ EP        014 43.09                             106   -0.02 6  409 239 
 CRJC HN ES   4    015 29.04                             103   -9.13 0  465   3 
                                                                                
