 2015  325 0009  3.5 L   6.841 -73.148150.0  RSN  7 0.5 1.7LRSN                1
 GAP=134        1.29       4.6     5.7  9.2 -0.6326E+00  0.8164E+01 -0.2787E+01E
 Epicentro: LOS SANTOS - SANTANDER                                             3
 ACTION:UPD 15-04-30 16:29 OP:nd   STATUS:               ID:20150325000903 L   I
 OLDACT:REG 15-03-25 12:38 OP:fm   STATUS:               ID:20150325000738     3
 2015-03-25-0007-38M.COL___281                                                 6
 STAT SP IPHASW D HRMM SECON CODA AMPLIT PERI AZIMU VELO AIN AR TRES W  DIS CAZ7
 BRR  HZ EP        0 9 25.95                             154    0.9310 68.9 295 
 BRR  HN ES        0 9 42.30                             154    0.5310 68.9 295 
 BRR  HZ I         0 9 44.20        10.5 0.40            153           68.9 295 
 PAM  SZ EP        0 9 25.72                             153   -0.2910 74.1  42 
 PAM  SE ES        0 9 43.17                             153   -0.3710 74.1  42 
 PAM  SZ I         0 9 46.40         8.1 0.42            155           74.1  42 
 RUS  HZ EP        0 9 28.39                             143    0.3610  105 176 
 RUS  HN ES        0 9 47.13                             143   -0.0010  105 176 
 RUS  HZ I         0 9 48.02         6.1 0.32            146            105 176 
 PTB  HZ EP        0 9 30.53                             133   -0.38 9  148 257 
 PTB  HN ES        0 9 51.56                             133   -0.71 9  148 257 
 PTB  HZ I         0 9 53.75         4.3 0.12            133            148 257 
 SPBC HZ EP        0 9 33.25                             129    0.57 9  167 218 
 SPBC HE ES        0 9 54.88                             129   -0.53 9  167 218 
 SPBC HZ I         010  2.23         8.3 0.20            131            167 218 
 ZAR  HE ES        010  1.74                             123    0.30 9  202 291 
 ZAR  HZ I         010  7.75         3.1 0.40            124            202 291 
 SML  HZ EP        0 9 39.18                             119   -0.77 8  239 335 
 SML  HE ES        010  8.40                             119    0.05 8  239 335 
 SML  HZ I         010 13.29         6.2 0.28            120            239 335 
                                                                                
