 2014  225 0741 25.3 L   6.806 -73.162148.0  RSN 18 0.5 2.1LRSN 2.8WRSN        1
 SPEC AVERAGE  MO 13.2 ST245.6 OM  1.7 f0 17.9 R0.4699 AL 0.00 WI 20.0 MW  2.8 3
 SPEC SD       MO  0.5 ST336.2 OM  0.5 f0 16.4 R0.9318 AL      WI      MW  0.4 3
 GAP= 64        1.02       2.9     3.3  5.7  0.9044E+00  0.5497E+01  0.1447E+01E
 Epicentro: LOS SANTOS - SANTANDER                                             3
 SPEC BAR2SH Z MO 13.6 ST  3.8 OM  2.0 f0 4.44 R0.3500 AL-0.00 WI 20.0 MW  3.0 3
 SPEC BAR2SH Z T 74159 K 0.020 GD  149 VS 4.20 DE 3.20 Q0230.0 QA 0.60 VS 4.20 3
 SPEC PAM SH Z MO 12.6 ST  2.6 OM  1.0 f0 8.15 R0.1907 AL-0.00 WI 20.0 MW  2.4 3
 SPEC PAM SH Z T 742 3 K 0.020 GD  167 VS 4.20 DE 3.20 Q0230.0 QA 0.60 VS 4.20 3
 SPEC RUS HH Z MO 14.2 ST0.019 OM  2.6 f00.452 R3.4381 AL-0.00 WI 20.0 MW  3.4 3
 SPEC RUS HH Z T 742 6 K 0.020 GD  179 VS 4.20 DE 3.20 Q0230.0 QA 0.60 VS 4.20 3
 SPEC PTB HH Z MO 13.0 ST772.8 OM  1.3 f0 40.0 R0.0388 AL-0.00 WI 20.0 MW  2.6 3
 SPEC PTB HH Z T 74211 K 0.020 GD  207 VS 4.20 DE 3.20 Q0230.0 QA 0.60 VS 4.20 3
 SPEC OCA HH Z MO 12.8 ST509.5 OM  1.1 f0 40.0 R0.0388 AL-0.00 WI 20.0 MW  2.5 3
 SPEC OCA HH Z T 74213 K 0.020 GD  217 VS 4.20 DE 3.20 Q0230.0 QA 0.60 VS 4.20 3
 SPEC ZAR HH Z MO 13.0 ST400.3 OM  1.2 f0 32.6 R0.0477 AL-0.00 WI 20.0 MW  2.6 3
 SPEC ZAR HH Z T 74221 K 0.020 GD  250 VS 4.20 DE 3.20 Q0230.0 QA 0.60 VS 4.20 3
 SPEC NOR HH Z MO 12.9 ST242.4 OM  1.1 f0 28.8 R0.0540 AL-0.00 WI 20.0 MW  2.6 3
 SPEC NOR HH Z T 74227 K 0.020 GD  276 VS 4.20 DE 3.20 Q0230.0 QA 0.60 VS 4.20 3
 SPEC SML HH Z MO 13.4 ST999.9 OM  1.6 f0 40.0 R0.0388 AL-0.00 WI 20.0 MW  2.9 3
 SPEC SML HH Z T 74227 K 0.020 GD  283 VS 4.20 DE 3.20 Q0230.0 QA 0.60 VS 4.20 3
 SPEC CHI HH Z MO 13.2 ST0.998 OM  1.3 f0 3.90 R0.3985 AL-0.00 WI 20.0 MW  2.7 3
 SPEC CHI HH Z T 74231 K 0.020 GD  289 VS 4.20 DE 3.20 Q0230.0 QA 0.60 VS 4.20 3
 SPEC ROSCBH Z MO 13.6 ST0.699 OM  1.7 f0 2.54 R0.6118 AL-0.00 WI 20.0 MW  3.0 3
 SPEC ROSCBH Z T 74235 K 0.020 GD  292 VS 4.20 DE 3.20 Q0230.0 QA 0.60 VS 4.20 3
 SPEC HEL HH Z MO 13.0 ST  3.5 OM  1.1 f0 6.76 R0.2299 AL-0.00 WI 20.0 MW  2.6 3
 SPEC HEL HH Z T 74234 K 0.020 GD  307 VS 4.20 DE 3.20 Q0230.0 QA 0.60 VS 4.20 3
 SPECGUY2CHH Z MO 14.7 ST  0.1 OM  2.8 f00.480 R  3.24 AL-0.00 WI 20.0 MW  3.8 3
 SPECGUY2CHH Z T 74247 K 0.020 GD334.5 VS 4.20 DE 3.20 Q0230.0 QA 0.60 VS 4.20 3
 SPEC PRA HH Z MO 13.3 ST 11.1 OM  1.3 f0 7.69 R0.2021 AL-0.00 WI 20.0 MW  2.8 3
 SPEC PRA HH Z T 74259 K 0.020 GD  419 VS 4.20 DE 3.20 Q0230.0 QA 0.60 VS 4.20 3
 OLDACT:UP  14-02-25 14:06 OP:fm   STATUS:               ID:20140225073808     3
 OLDACT:REG 14-02-25 08:33 OP:fm   STATUS:               ID:20140225073808     3
 ACTION:UPD 14-03-10 08:13 OP:ep   STATUS:               ID:20140225074125 L   I
 OLDACT:UP  14-02-25 14:07 OP:fm   STATUS:               ID:20140225073808     3
 2014-02-25-0738-08M.COL___229                                                 6
 STAT SP IPHASW D HRMM SECON CODA AMPLIT PERI AZIMU VELO AIN AR TRES W  DIS CAZ7
 BAR2 SZ EP        741 45.34                             171    0.1610 23.7 185 
 BAR2 SZ ES   1    742  0.53                             171   -0.17 7 23.7 185 
 BAR2 SZ I         742  5.87        22.4 0.42            170           23.7 185 
 PAM  SZ EP        741 48.24                             151    0.4710 78.1  41 
 PAM  SN ES        742  5.43                             151    0.1210 78.1  41 
 PAM  SZ I         742  7.10         6.7 0.14            154           78.1  41 
 RUS  HZ EP        741 49.30                             144    0.0010  101 175 
 RUS  HE ES        742  7.98                             144   -0.0510  101 175 
 RUS  SZ I         742  9.16         6.5 0.38            146            101 175 
 PTB  HZ EP        741 52.08                             133   -0.19 9  146 258 
 PTB  HN ES        742 12.93                             133   -0.40 9  146 258 
 PTB  SZ I         742 14.96        12.1 0.08            132            146 258 
 TAM  HN ES        742 15.58                             131    0.41 9  157 105 
 OCA  HZ EP   1    741 53.56                             130   -0.12 7  159 354 
 OCA  HN ES   1    742 15.11                             130   -0.73 7  159 354 
 OCA  SZ I         742 23.53        11.0 0.38            131            159 354 
 SPBC HN ES   2    742 16.18                             130   -0.01 5  163 218 
 ZAR  HZ EP        741 57.86                             123    0.19 9  202 292 
 ZAR  HN ES        742 23.16                             123    0.23 9  202 292 
 ZAR  SZ I         742 28.41         8.6 0.42            123            202 292 
 NOR  HZ EP   1    742  1.88                             119    0.87 6  234 234 
 NOR  HN ES   1    742 28.56                             119   -0.33 6  234 234 
 NOR  SZ I         742 34.33         7.3 0.34            119            234 234 
 SML  HZ EP        742  1.84                             118   -0.04 8  242 336 
 SML  HN ES   4    742 29.39                             118   -1.05 0  242 336 
 SML  SZ I         742 33.63        12.7 0.08            119            242 336 
 CHI  HZ EP        742  3.67                             118    0.56 8  249 195 
 CHI  HN ES        742 33.01                             118    0.39 8  249 195 
 CHI  SZ I         742 37.75         5.1 0.44            119            249 195 
 ROSC BZ EP   4    742  6.04                             117    2.57 0  252 211 
 ROSC BN ES   4    742 36.66                             117    3.40 0  252 211 
 ROSC SZ I         742 39.99        14.3 0.40            118            252 211 
 HEL  HZ EP   4    742  6.40                             115    0.98 0  270 256 
 HEL  HN ES   4    742 36.20                             115   -0.53 0  270 256 
 HEL  SZ I         742 44.03         5.0 0.50            116            270 256 
 URE  HZ EP        742  6.02                             114   -0.22 7  282 292 
 URE  HE ES   4    742 35.75                             114   -2.44 0  282 292 
 URE  SZ I         742 47.51         8.0 0.16            115            282 292 
 GUY2CHZ EP   4    742 10.42                             113    1.56 0  300 234 
 GUY2CHN ES   4    742 48.61                             113    5.76 0  300 234 
 GUY2CSZ I         742 51.33         6.4 0.40                           300 234 
 PTGC HZ EP        742  8.59                             112   -0.78 7  310 158 
 PTGC HN ES        742 42.27                             112   -1.49 7  310 158 
 PTGC SZ I         742 51.67         8.4 3.16            114            310 158 
 PRA  HZ EP        742 19.35                             107    0.52 6  392 209 
 PRA  HN ES   1    743  1.35                             107    0.75 4  392 209 
 PRA  SZ I         743  5.41         6.1 0.82            108            392 209 
 SJC  HZ EP   1    742 19.55                             106   -1.18 4  408 327 
 SJC  HN ES   4    742 59.80                             106   -4.19 0  408 327 
 SJC  SZ I         743 10.86        13.8 3.30            107            408 327 
                                                                                
