 2010  925 0705 24.6 L   6.160 -73.604108.0  RSN  7 0.4 1.3LRSN                1
 GAP=108        0.69       3.8     5.8  9.9 -0.1480E+01  0.1905E+02  0.6581E+01E
 Epicentro: LA PAZ - SANTANDER                                                 3
 ACTION:UP  11-02-18 11:05 OP:tino STATUS:               ID:20100925070524 L   I
 2010-09-25-0703-04S.COL___120                                                 6
 STAT SP IPHASW D HRMM SECON CODA AMPLIT PERI AZIMU VELO SNR AR TRES W  DIS CAZ7
 RUS  HZ EP   1    7 5 41.94                             147    -0.1 7   65 117 
 RUS  HZ I         7 5 42.54         3.9 0.21                            65 117 
 RUS  HE ES   2    7 5 56.17                             147     0.5 5   65 117 
 BAR2 SZ EP   1    7 5 41.96                             146     0.1 7   67  44 
 BAR2 SZ I         7 5 42.34        11.8 0.23                            67  44 
 BAR2 SZ ES   2    7 5 54.33                             146    -0.9 5   67  44 
 BRR  HZ EP   1    7 5 44.42                             132    -0.2 7  105 353 
 BRR  HZ I         7 5 44.94         6.3 0.11                           105 353 
 BRR  HE ES   1    7 6  0.64                             132     0.4 7  105 353 
 GIR2 SZ EP   3    7 5 45.34                             131     0.0 2  111  24 
 NOR  SZ EP   2    7 5 49.53                             121    -0.1 5  155 245 
 NOR  SN ES   2    7 6  8.83                             121    -0.3 5  155 245 
 CHI  HZ EP   2    7 5 51.27                             118    -0.4 5  170 185 
 CHI  HZ I         7 5 51.86         1.9 0.22                           170 185 
 CHI  HE ES   2    7 6 13.25                             118     0.5 5  170 185 
 GUE  SZ EP   2    7 5 54.93                             114     0.2 4  199  22 
 GUE  SZ I         7 5 57.02         1.0 0.15                           199  22 
                                                                                
