 2013 1125 0917 58.9 L   6.724 -73.183158.4  RSN  4 0.3 1.1LRSN                1
 GAP=227        0.68       7.5     6.0  8.4  0.1440E+02 -0.9153E+01  0.1923E+02E
 Epicentro: VILLANUEVA - SANTANDER                                             3
 ACTION:UPD 14-01-09 16:31 OP:ep   STATUS:               ID:20131125091758 L   I
 OLDACT:REG 13-11-25 13:07 OP:mh   STATUS:               ID:20131125091645     3
 2013-11-25-0916-45M.COL___239                                                 6
 STAT SP IPHASW D HRMM SECON CODA AMPLIT PERI AZIMU VELO AIN AR TRES W  DIS CAZ7
 BAR2 SZ EP   1    918 19.30                             174   -0.60 7 14.6 180 
 BRR  HZ EP   1    918 21.83                             154    0.37 7 72.2 306 
 BRR  HN ES        918 39.09                             154    0.0210 72.2 306 
 BRR  HZ I         918 42.19         3.6 0.20            159           72.2 306 
 RUS  HZ EP        918 23.69                             148    0.3210 92.6 173 
 RUS  HN ES   2    918 42.37                             148   -0.10 5 92.6 173 
 RUS  HZ I         918 46.39         0.8 0.19            149           92.6 173 
 PTB  HZ EP        918 26.22                             136   -0.21 9  142 262 
 PTB  HN ES        918 47.92                             136   -0.00 9  142 262 
 PTB  HZ I         918 51.27         1.9 0.20            139            142 262 
                                                                                
