 2010  325 0109 59.3 L   6.817 -73.038145.8  RSN  5 0.2 2.0LRSN                1
 GAP=194        0.43       2.2     6.8  4.7  0.3398E+01 -0.3971E+01  0.2529E+01E
 Epicentro: CEPITA - SANTANDER                                                 3
 ACTION:UP  10-08-24 09:55 OP:vdl  STATUS:               ID:20100325010959 L   I
 2010-03-25-0108-06S.COL___098                                                 6
 STAT SP IPHASW D HRMM SECON CODA AMPLIT PERI AZIMU VELO SNR AR TRES W  DIS CAZ7
 BRR  HZ EP        110 21.04                             149     0.010   81 293 
 BRR  HE ES   1    110 37.94                             149    -0.1 7   81 293 
 BRR  HZ I         110 44.28        16.4 0.37                            81 293 
 RUS  HZ EP   1    110 23.15                             143    -0.1 7  102 183 
 RUS  HE ES   1    110 41.98                             143     0.1 7  102 183 
 RUS  HZ I         110 43.63        13.1 0.38                           102 183 
 OCA  SZ EP   2    110 27.85                             130     0.2 5  160 349 
 OCA  SZ ES   1    110 49.77                             130     0.0 7  160 349 
 CHI  HZ EP        110 37.54                             117    -0.1 8  254 198 
 CHI  HE ES   2    111  7.01                             117    -0.4 4  254 198 
 CHI  HZ I         111 10.62         5.6 0.48                           254 198 
 PRA  HZ EP   1    110 53.75                             106     0.0 4  400 211 
 PRA  HE ES   2    111 37.16                             106     1.0 3  400 211 
 PRA  HZ I         111 41.02         6.5 0.51                           400 211 
                                                                                
