 2016  325 0655 15.4 L   6.541 -73.552103.5  RSN 11 0.4 1.3LRSN                1
 GAP= 62        1.10       2.9     3.1  7.4 -0.2126E+01  0.9068E+01 -0.3944E+01E
 Epicentro: EL CARMEN - SANTANDER                                              3
 ACTION:UPD 16-05-13 21:27 OP:cam  STATUS:               ID:20160325065515 L   I
 OLDACT:UP  16-03-25 17:29 OP:ak   STATUS:               ID:20160325064745     3
 OLDACT:UP  16-03-25 17:28 OP:ak   STATUS:               ID:20160325064745     3
 OLDACT:REG 16-03-25 14:27 OP:ak   STATUS:               ID:20160325064745     3
 2016-03-25-0647-45M.COL___294                                                 6
 STAT SP IPHASW D HRMM SECON CODA AMPLIT PERI AZIMU VELO AIN AR TRES W  DIS CAZ7
 BAR2 EZ EP        655 30.89                             157    0.2410 41.2  82 
 BAR2 EZ ES        655 43.16                             157    0.6110 41.2  82 
 BAR2 EZ I         655 44.52        22.4 0.46            160           41.2  82 
 RUS  HZ EP        655 33.93                             136   -0.2810 88.5 144 
 RUS  HE ES        655 49.16                             136    0.2510 88.5 144 
 RUS  HZ I         655 49.87         2.1 0.20            141           88.5 144 
 PTB  HZ EP        655 33.79                             132   -0.7810  100 270 
 PTB  HN ES        655 48.59                             132   -0.9610  100 270 
 PTB  HZ I         655 49.92         3.3 0.16            133            100 270 
 SPBC HZ EP        655 35.79                             128   -0.1810  114 210 
 SPBC HN ES        655 51.97                             128   -0.0610  114 210 
 SPBC HZ I         655 57.40         5.0 0.08            131            114 210 
 PAM  EZ EP        655 37.71                             125   -0.2710  129  47 
 PAM  EN ES        655 55.37                             125   -0.2510  129  47 
 PAM  EZ I         655 57.23         2.3 0.16            127            129  47 
 ZAR  HZ IP        655 43.03                             115    0.41 9  179 306 
 ZAR  HN ES        656  4.49                             115    0.62 9  179 306 
 ZAR  HZ I         656  8.22         3.7 0.20            116            179 306 
 NOR  HZ EP   2    655 43.39                             114    0.39 4  182 234 
 NOR  HE ES        656  5.01                             114    0.46 9  182 234 
 NOR  HZ I         656  7.26         1.9 0.18            116            182 234 
 OCA  HZ EP   2    655 43.96                             113   -0.06 4  190   8 
 OCA  HN ES        656  6.30                             113   -0.06 9  190   8 
 OCA  HZ I         656 11.63         5.6 0.36            115            190   8 
 CHI  HE ES        656 11.49                             110   -0.05 8  212 185 
 HEL  HZ EP        655 48.68                             109    0.68 8  222 260 
 HEL  HE ES        656 13.52                             109    0.07 8  222 260 
 HEL  HZ I         656 19.63         1.0 0.28            111            222 260 
 GUY2CHZ EP   2    655 50.91                             107   -0.23 4  248 234 
 GUY2CHZ I         656 22.76         1.1 0.35                           248 234 
                                                                                
