 2017  425 0747 10.2 L   6.782 -73.102143.1  RSN  7 0.2 1.7LRSN                1
 GAP=167        0.54       4.2     2.7  3.8 -0.9205E+00  0.1383E+01 -0.2098E+01E
 Epicentro: LOS SANTOS - SANTANDER                                             3
 ACTION:UPD 17-05-30 21:15 OP:jn   STATUS:               ID:20170425074710 L   I
 OLDACT:UP  17-04-25 16:11 OP:and  STATUS:               ID:20170425073743d    3
 OLDACT:UP  17-04-25 16:11 OP:and  STATUS:               ID:20170425073743d    3
 OLDACT:UP  17-04-25 16:11 OP:and  STATUS:               ID:20170425073743d    3
 OLDACT:DUP 17-04-25 16:09 OP:and  STATUS:               ID:20170425073743d    3
 OLDACT:UP  17-04-25 16:05 OP:and  STATUS:               ID:20170425073740     3
 OLDACT:UP  17-04-25 16:04 OP:and  STATUS:               ID:20170425073740     3
 OLDACT:UP  17-04-25 16:04 OP:and  STATUS:               ID:20170425073740     3
 OLDACT:REG 17-04-25 12:26 OP:and  STATUS:               ID:20170425073740     3
 2017-04-25-0738-00M.COL___361                                                 6
 STAT SP IPHASW D HRMM SECON CODA AMPLIT PERI AZIMU VELO AIN AR TRES W  DIS CAZ7
 BAR2 EZ EP        747 29.65                             170    0.1310 22.8 203 
 BAR2 EZ ES        747 44.44                             170   -0.1310 22.8 203 
 BAR2 EZ I         747 45.10        13.5 0.26            164           22.8 203 
 PAM  EZ EP        747 32.24                             151    0.1710 76.0  36 
 PAM  EN ES        747 49.00                             151   -0.1110 76.0  36 
 PAM  EZ I         747 51.28         5.8 0.54            157           76.0  36 
 BRR  HZ EP        747 31.33                             150   -0.0610 76.4 298 
 BRR  HN ES        747 48.12                             150    0.2210 76.4 298 
 BRR  HZ I         747 52.84        11.7 0.32            148           76.4 298 
 PTB  HZ EP   9    747 36.36                             130   -1.02 0  152 260 
 PTB  HN ES        747 57.18                             130   -0.36 9  152 260 
 SPBC HN ES   2    748  1.05                             128    0.20 5  165 221 
 SPBC HZ I         748 10.15         5.9 0.10            126            165 221 
 ZAR  HZ EP        747 42.68                             121   -0.36 8  209 292 
 ZAR  HE ES        748  8.63                             121   -0.01 8  209 292 
 ZAR  HZ I         748 14.30         6.9 0.32            121            209 292 
 NOR  HN ES   4    748 17.12                             117    3.03 0  238 236 
 NOR  HZ I         748 19.33         3.8 0.20            116            238 236 
                                                                                
