 2017  425 0757 47.0 L   6.795 -73.141145.7  RSN 38 0.6 2.9LRSN                1
 GAP=112        0.89       2.2     2.6  3.9 -0.2328E+00  0.1823E+01  0.1711E+01E
 Epicentro: LOS SANTOS - SANTANDER                                             3
 ACTION:UPD 17-05-30 21:15 OP:jn   STATUS:               ID:20170425075747 L   I
 OLDACT:UP  17-04-25 16:46 OP:and  STATUS:               ID:20170425074713d    3
 OLDACT:UP  17-04-25 16:45 OP:and  STATUS:               ID:20170425074713d    3
 OLDACT:UP  17-04-25 16:44 OP:and  STATUS:               ID:20170425074713d    3
 OLDACT:UP  17-04-25 16:41 OP:and  STATUS:               ID:20170425074713d    3
 OLDACT:UP  17-04-25 16:39 OP:and  STATUS:               ID:20170425074713d    3
 OLDACT:UP  17-04-25 16:38 OP:and  STATUS:               ID:20170425074713d    3
 OLDACT:UP  17-04-25 16:37 OP:and  STATUS:               ID:20170425074713d    3
 OLDACT:UP  17-04-25 16:33 OP:and  STATUS:               ID:20170425074713d    3
 OLDACT:UP  17-04-25 16:32 OP:and  STATUS:               ID:20170425074713d    3
 OLDACT:UP  17-04-25 16:32 OP:and  STATUS:               ID:20170425074713d    3
 OLDACT:UP  17-04-25 16:28 OP:and  STATUS:               ID:20170425074713d    3
 OLDACT:UP  17-04-25 16:28 OP:and  STATUS:               ID:20170425074713d    3
 OLDACT:UP  17-04-25 16:27 OP:and  STATUS:               ID:20170425074713d    3
 OLDACT:UP  17-04-25 16:25 OP:and  STATUS:               ID:20170425074713d    3
 OLDACT:UP  17-04-25 16:23 OP:and  STATUS:               ID:20170425074713d    3
 OLDACT:UP  17-04-25 16:22 OP:and  STATUS:               ID:20170425074713d    3
 OLDACT:DUP 17-04-25 16:20 OP:and  STATUS:               ID:20170425074713d    3
 2017-04-25-0748-00M.COL___361                                                 6
 STAT SP IPHASW D HRMM SECON CODA AMPLIT PERI AZIMU VELO AIN AR TRES W  DIS CAZ7
 BAR2 EZ IP     D  758  6.51                             171   -0.0910 22.9 192 
 BAR2 EZ ES        758 21.33                             171   -0.5710 22.9 192 
 BAR2 EZ I         758 22.59       294.8 0.36            167           22.9 192 
 BRR  HZ IP   2 C  758  8.28                             152    0.11 5 71.9 299 
 BRR  HN ES        758 25.36                             152    0.6610 71.9 299 
 BRR  HZ I         758 29.41       155.4 0.42            151           71.9 299 
 PAM  EZ EP     C  758  9.39                             151    0.1910 77.5  39 
 PAM  EZ IP     C  758  9.39                             152           77.5  39 
 PAM  EN ES        758 26.39                             151   -0.1410 77.5  39 
 PAM  EZ I         758 28.77       315.7 0.50            157           77.5  39 
 PTB  HZ EP        758 13.01                             132   -0.98 9  148 259 
 PTB  HN ES        758 34.17                             132   -0.88 9  148 259 
 PTB  HZ I         758 41.28        87.4 0.38            132            148 259 
 SPBC HZ EP        758 15.45                             129   -0.03 9  163 219 
 SPBC HN ES        758 38.25                             129    0.55 9  163 219 
 SPBC HZ I         758 42.18       116.7 0.26            129            163 219 
 YPLC HZ IP     D  758 16.95                             127    0.24 9  176 151 
 YPLC HN ES        758 40.67                             127    0.78 9  176 151 
 YPLC HZ I         758 43.76       107.9 0.28            129            176 151 
 ZAR  HZ EP        758 19.00                             122   -0.50 9  205 292 
 ZAR  HE ES        758 44.70                             122   -0.16 9  205 292 
 ZAR  HZ I         758 51.07        84.3 0.50            123            205 292 
 TABC EZ EP   3    758 23.98                             119    1.26 2  230 211 
 TABC EZ ES        758 50.58                             119   -0.00 8  230 211 
 TABC EZ I         758 57.37        90.0 0.42            120            230 211 
 NOR  HZ EP        758 22.44                             118   -0.29 8  235 235 
 NOR  HN ES        758 50.83                             118    0.22 8  235 235 
 NOR  HZ I         758 55.16        48.9 0.26            119            235 235 
 CHI  HZ EP        758 24.73                             117    0.09 8  248 195 
 CHI  HN ES        758 53.79                             117   -0.22 8  248 195 
 CHI  HZ I         758 57.55        72.1 0.48            118            248 195 
 ROSC BZ EP   3    758 26.27                             117    1.18 2  253 211 
 ROSC BE ES        758 55.18                             117    0.38 8  253 211 
 ROSC BZ I         759  0.97       118.3 0.50            118            253 211 
 HEL  HZ EP   3    758 28.44                             115    1.20 2  272 256 
 HEL  HN ES        758 58.37                             115   -0.27 8  272 256 
 HEL  HZ I         759  4.11        40.2 0.30            116            272 256 
 VIL  EZ EP        758 30.13                             112   -0.23 7  303 192 
 VIL  EN ES        759  4.17                             112   -0.01 7  303 192 
 VIL  EZ I         759  7.23       109.8 0.38            113            303 192 
 LL1C HZ EP   9    758 33.00                             112    2.35 0  307 351 
 LL1C HN ES        759  7.68                             112    0.63 7  307 351 
 PTGC HZ IP   3 D  758 29.65                             112   -1.12 2  308 159 
 PTGC HN ES   3    759  3.00                             112   -1.91 2  308 159 
 PTGC HZ I         759  5.03        66.7 0.22            114            308 159 
 LL6C HN EP   9    758 11.69                             110   -21.1 0  325 357 
 LL6C HN ES        758 47.20                                   -0.18 7  325 357 
 LL6C HN I         758 48.91        40.1 0.38            113            325 357 
 ELA  HZ EP   9    758 35.53                             110    1.68 0  329 230 
 ELA  HN ES        759 12.14                             110    0.06 7  329 230 
 ELA  HZ I         759 19.25        38.6 0.58            111            329 230 
 LL5C HZ EP        758 33.55                             110   -0.04 7  333 349 
 LL5C HE ES   3    759 11.19                             110    1.25 2  333 349 
 CBOC HZ EP        758 34.87                             110    0.93 7  334 252 
 CBOC HE ES        759 10.90                             110    0.34 7  334 252 
 DBB  EZ EP        758 34.09                             109   -0.44 7  340 274 
 DBB  EN ES   4    759  9.67                             109   -1.94 0  340 274 
 DBB  EZ I         759 15.31        13.5 0.22            111            340 274 
 ANIL HZ EP   9    758 37.94                             108    1.15 0  357 225 
 ANIL HN ES        759 17.43                             108    0.65 6  357 225 
 ARGC HZ EP   2    758 37.44                             108    0.72 3  360 340 
 ARGC HN ES        759 16.38                             108    0.87 6  360 340 
 ARGC HZ I         759 28.47        19.0 0.30            110            360 340 
 PRA  HZ EP        758 40.23                             106   -0.25 6  392 210 
 PRA  HN ES   2    759 23.11                             106    0.90 3  392 210 
 PRA  HZ I         759 28.36        39.7 0.24            108            392 210 
 ORTC HZ EP        758 40.77                             106   -0.12 6  395 216 
 ORTC HN ES   3    759 24.29                             106    1.35 1  395 216 
 ORTC HZ I         759 27.91        32.6 0.28            108            395 216 
 APAC HZ EP   9    758 40.13                             106   -1.13 0  399 288 
 APAC HN ES        759 22.50                             106    0.04 6  399 288 
 APAC HZ I         759 27.30        18.0 0.38            108            399 288 
 PAL  HZ EP        758 42.01                             106   -0.16 6  406 239 
 PAL  HN ES        759 25.99                             106    0.78 6  406 239 
 PAL  HZ I         759 30.62        12.0 0.25            107            406 239 
 SJC  HZ IP   4 C  758 40.74                             106   -1.90 0  410 327 
 SJC  HN ES   4    759 21.70                             106   -4.34 0  410 327 
 SJC  HZ I         759 28.63        18.3 0.60            107            410 327 
 LCBC HN ES   3    759 29.82                             105    1.28 1  423 303 
 YOT  HZ EP   3    758 48.53                             103   -1.51 1  472 229 
 YOT  HN ES   3    759 40.75                             103    1.53 1  472 229 
 SMAR HZ EP   4    758 50.79                             102   -2.15 0  498 346 
 SMAR HN ES   4    759 39.63                             102   -4.74 0  498 346 
 SMAR HZ I         759 47.35        12.0 0.34            104            498 346 
 MACC HZ EP   4    758 53.28                             102   -2.37 0  520 189 
 MACC HN ES   4    759 45.63                             102   -3.57 0  520 189 
 MACC HZ I         759 46.29         7.7 0.28            103            520 189 
 MARO HZ EP        758 57.13                             101   -0.87 4  537 216 
 MARO HN ES   4    759 50.99                             101   -2.39 0  537 216 
 MARO HZ I         759 58.18         7.0 0.28            102            537 216 
 MAL  EZ EP        759  0.81                             101    0.74 3  557 237 
 URI  HZ EP   4    758 56.77                             101   -3.27 0  557  13 
 URI  HN ES   4    759 52.40                             101   -4.62 0  557  13 
 URI  HZ I         759 57.36         4.0 0.46            102            557  13 
 GARC HZ EP   3    759  0.79                             100   -1.42 1  573 207 
 GARC HN ES   4    759 58.11                             100   -2.78 0  573 207 
 GARC HZ I         8 0  4.96        13.6 0.22            101            573 207 
 CONO HZ EP        759  7.54                              99    0.19 3  612 216 
 POP2 HZ EP        759  6.89                              99   -0.10 3  612 220 
 POP2 HN ES        8 0  8.63                              99   -0.77 3  612 220 
 FLO2 HZ EP   3    759  8.90                              99   -1.18 1  640 206 
 FLO2 HN ES   3    8 0 16.43                              99    1.54 1  640 206 
                                                                                
