 2016  625 0458 52.6 L   6.753 -73.206149.1  RSN  6 0.4 1.4LRSN                1
 GAP=227        0.80       4.0     5.1  7.0  0.8055E+01  0.3222E+01  0.2676E+01E
 Epicentro: VILLANUEVA - SANTANDER                                             3
 ACTION:UPD 16-07-21 22:22 OP:rebc STATUS:               ID:20160625045852 L   I
 OLDACT:REG 16-06-25 12:23 OP:ak   STATUS:               ID:20160625045746     3
 2016-06-25-0457-46M.COL___321                                                 6
 STAT SP IPHASW D HRMM SECON CODA AMPLIT PERI AZIMU VELO AIN AR TRES W  DIS CAZ7
 BRR  HZ EP        459 13.83                             154   -0.0810 68.2 305 
 BRR  HE ES        459 30.60                             154    0.0410 68.2 305 
 BRR  HZ I         459 33.81         4.6 0.17                          68.2 305 
 RUS  HZ EP        459 16.53                             146    0.2010 96.2 172 
 RUS  HE ES        459 34.60                             146   -0.2710 96.2 172 
 RUS  HZ I         459 35.59         2.8 0.32                          96.2 172 
 PTB  HZ EP        459 18.89                             134   -0.25 9  140 260 
 PTB  HN ES        459 39.61                             134   -0.26 9  140 260 
 PTB  HZ I         459 41.49         2.3 0.09                           140 260 
 SPBC HZ EP   2    459 21.15                             131    0.59 5  155 218 
 SPBC HN ES        459 43.06                             131    0.67 9  155 218 
 SPBC HZ I         459 45.23         7.8 0.05                           155 218 
 ZAR  HZ EP   2    459 25.33                             124    0.53 4  200 294 
 ZAR  HE ES        459 49.99                             124    0.04 9  200 294 
 ZAR  HZ I         459 56.45         2.4 0.21                           200 294 
 PRA  HE ES        5 0 25.69                             107   -0.73 6  384 209 
                                                                                
