 2015 1225 0517  9.4 L   6.894 -73.298121.7  RSN 23 0.5 2.4LRSN                1
 GAP= 54        1.00       2.1     2.7  4.4 -0.3263E+00  0.4800E+01  0.4509E+00E
 Epicentro: BETULIA - SANTANDER                                                3
 ACTION:UPD 16-02-04 15:07 OP:cam  STATUS:               ID:20151225051709 L   I
 OLDACT:REG 15-12-25 12:58 OP:dnl  STATUS:               ID:20151225050749     3
 2015-12-25-0507-49M.COL___334                                                 6
 STAT SP IPHASW D HRMM SECON CODA AMPLIT PERI AZIMU VELO AIN AR TRES W  DIS CAZ7
 BAR2 EZ IP     C  517 26.81                             163    0.3110 35.7 159 
 BAR2 EZ ES        517 39.88                             163    0.0210 35.7 159 
 BRR  HZ IP     C  517 27.22                             156    0.3910 51.4 297 
 BRR  HE ES        517 41.32                             156    0.8710 51.4 297 
 BRR  HZ I         517 42.25        75.3 0.10            153           51.4 297 
 PAM  EZ EP        517 30.00                             144    0.5510 82.4  53 
 PAM  EN ES        517 44.10                             144   -1.0110 82.4  53 
 PAM  EZ I         517 48.63        48.2 0.30            146           82.4  53 
 RUS  HZ EP        517 31.89                             135   -0.0310  113 168 
 RUS  HN ES        517 49.54                             135    0.0410  113 168 
 RUS  HZ I         517 51.47        31.8 0.32            136            113 168 
 PTB  HZ EP   4    517 32.08                             129   -1.08 0  134 253 
 PTB  HE ES   4    517 50.33                             129   -1.38 0  134 253 
 PTB  HZ I         517 54.29        39.6 0.17            128            134 253 
 OCA  HZ EP     C  517 34.84                             126    0.06 9  149 359 
 OCA  HN ES        517 54.63                             126    0.04 9  149 359 
 SPBC HZ EP        517 35.50                             123   -0.52 9  162 212 
 SPBC HE ES        517 56.23                             123   -0.57 9  162 212 
 SPBC HZ I         517 58.06        49.0 0.17            123            162 212 
 TAM  HZ IP     C  517 37.70                             121    0.48 9  174 107 
 TAM  HN ES        517 58.57                             121   -0.37 9  174 107 
 TAM  HZ I         518  0.12        27.6 0.21            123            174 107 
 ZAR  HZ EP        517 38.45                             119    0.17 9  185 291 
 ZAR  HE ES   4    518  2.65                             119    1.83 0  185 291 
 ZAR  HZ I         518  5.39        45.6 0.27            119            185 291 
 SML  HZ EP        517 42.70                             114   -0.25 8  227 338 
 SML  HN ES        518  9.16                             114    0.02 8  227 338 
 SML  HZ I         518 15.27        53.8 0.14            114            227 338 
 NOR  HZ EP        517 43.53                             114    0.47 8  228 230 
 NOR  HN ES        518  8.89                             114   -0.44 8  228 230 
 NOR  HZ I         518 13.89        17.8 0.19            114            228 230 
 CHI  HZ EP        517 46.77                             111    0.19 8  255 191 
 CHI  HE ES   2    518 15.37                             111   -0.24 4  255 191 
 CHI  HZ I         518 19.01         7.8 0.35            112            255 191 
 HEL  HZ EP   2    517 47.00                             111    0.05 4  259 253 
 HEL  HN ES        518 16.40                             111    0.14 8  259 253 
 HEL  HZ I         518 21.95        12.2 0.20            111            259 253 
 URE  HZ EP        517 46.33                             110   -0.82 8  264 291 
 URE  HN ES   4    518 14.88                             110   -1.73 0  264 291 
 URE  HZ I         518 17.39        21.6 0.19            110            264 291 
 GUY2CHZ EP   2    517 51.60                             108    0.45 4  294 231 
 GUY2CHE ES        518 23.65                             108   -0.09 7  294 231 
 GUY2CHZ I         518 31.01         9.9 0.66                           294 231 
 VIL  SZ EP        517 52.50                             107   -0.17 7  311 188 
 VIL  SN ES   2    518 25.59                             107   -0.85 3  311 188 
 CBOC HZ EP        517 54.39                             106    0.45 7  321 249 
 CBOC HE ES   2    518 28.79                             106    0.09 3  321 249 
 CBOC HZ I         518 31.66         4.3 0.16            106            321 249 
 DBB  SZ EP        517 54.05                             106    0.11 7  322 273 
 DBB  SZ ES   4    518 24.72                             106   -3.97 0  322 273 
 DBB  SZ I         518 33.83        35.3 0.27            106            322 273 
 MON  HZ EP        517 55.64                             105    0.41 7  334 309 
 MON  HE ES        518 29.88                             105   -1.12 7  334 309 
 MON  HZ I         518 31.99         4.9 0.12            105            334 309 
 SJC  HZ EP        518  1.57                             102   -0.55 6  391 328 
 SJC  HE ES   4    518 40.46                             102   -2.80 0  391 328 
 SJC  HZ I         518 57.84         5.0 0.22            102            391 328 
 PRA  HZ EP        518  2.79                             102    0.47 6  393 207 
 PRA  HE ES   2    518 43.48                             102   -0.14 3  393 207 
 PRA  HZ I         518 50.73         9.1 0.30            103            393 207 
 ORTC HZ EP        518  3.01                             102    0.56 6  394 213 
 ORTC HN ES        518 43.74                             102   -0.12 6  394 213 
 ORTC HZ I         518 51.23         3.9 0.21            102            394 213 
 PAL  HZ EP        518  2.78                             102   -0.02 6  397 237 
 PAL  HN ES   4    518 42.56                             102   -1.91 0  397 237 
 PAL  HZ I         518 48.32         4.8 0.25            102            397 237 
                                                                                
