 2017 1225 0858 54.2 L   6.088 -73.720119.7  RSN 19 0.7 2.2LRSN                1
 GAP= 39        1.45       2.8     3.0  7.0 -0.9235E+00  0.2396E+01 -0.2660E+00E
 Epicentro: CHIPATA - SANTANDER                                                3
 ACTION:UPD 18-01-04 13:24 OP:rebc STATUS:               ID:20171225085854 L   I
 OLDACT:UP  17-12-25 17:08 OP:osc  STATUS:               ID:20171225085231d    3
 OLDACT:DUP 17-12-25 16:55 OP:osc  STATUS:               ID:20171225085231d    3
 2017-12-25-0858-00M.COL___457                                                 6
 STAT SP IPHASW D HRMM SECON CODA AMPLIT PERI AZIMU VELO AIN AR TRES W  DIS CAZ7
 SPBC HZ EP        859 11.82                             151   -0.2910 62.0 219 
 SPBC HE ES        859 25.78                             151   -0.3410 62.0 219 
 SPBC HZ I         859 27.50        70.0 0.34            148           62.0 219 
 BAR2 EZ EP     D  859 13.78                             144    0.1610 81.5  47 
 BAR2 EZ ES        859 28.18                             144   -0.6110 81.5  47 
 BAR2 EZ I         859 31.62       104.5 0.68            142           81.5  47 
 PTB  HZ EP        859 13.57                             139   -0.8110 95.5 302 
 PTB  HE ES        859 30.55                             139    0.4010 95.5 302 
 PTB  HZ I         859 31.88        14.3 0.12            134           95.5 302 
 ROSC BZ EP   9    859 21.27                             124    1.09 0  153 206 
 ROSC BN ES        859 41.91                             124    0.34 9  153 206 
 ROSC BZ I         859 46.99        21.0 0.30            121            153 206 
 YPLC HZ EP        859 21.27                             122    0.09 9  167 117 
 YPLC HE ES        859 42.10                             122   -0.15 9  167 117 
 YPLC HZ I         859 43.55        22.6 0.26            120            167 117 
 CVER HZ EP        859 23.29                             120    0.47 9  178 193 
 CVER HE ES        859 45.97                             120    0.80 9  178 193 
 CVER HZ I         859 50.56        16.1 0.30            117            178 193 
 PAM  EZ EP        859 23.30                             120    0.38 9  179  39 
 PAM  EE ES        859 45.44                             120    0.08 9  179  39 
 PAM  EZ I         859 48.75        13.1 0.50            117            179  39 
 ZAR  HZ EP        859 24.47                             117   -0.12 9  200 321 
 ZAR  HE ES        859 48.70                             117    0.38 9  200 321 
 ZAR  HZ I         859 55.15        23.7 0.36            113            200 321 
 GUY2CHZ EP        859 26.01                             116    0.18 8  206 242 
 GUY2CHN ES        859 51.15                             116    0.61 8  206 242 
 GUY2CHZ I         859 55.37        11.1 0.44                           206 242 
 TAM  HZ EP        859 26.39                             114   -0.12 8  217  80 
 TAM  HE ES        859 51.62                             114   -0.13 8  217  80 
 VIL  EZ EP        859 26.34                             114   -0.47 8  219 179 
 VIL  EE ES        859 52.20                             114   -0.09 8  219 179 
 VIL  EZ I         859 57.52        20.6 0.30            112            219 179 
 OCA  HZ EP        859 30.18                             112    0.72 8  242  11 
 OCA  HN ES        859 58.45                             112    1.45 8  242  11 
 OCA  HZ I         9 0 10.11        35.0 0.42            109            242  11 
 CBOC HZ EP        859 31.74                             110    0.77 8  255 265 
 CBOC HE ES        9 0  0.66                             110    0.97 8  255 265 
 CBOC HZ I         9 0  3.59         5.5 0.70            107            255 265 
 URE  HZ EP        859 32.03                             109   -0.69 8  272 313 
 URE  HE ES        9 0  0.80                             109   -2.00 8  272 313 
 PTGC HZ EP   9    859 31.72                             109   -1.13 0  273 140 
 PTGC HE ES        9 0  1.09                             109   -0.81 8  273 140 
 PTGC HZ I         9 0  5.50         6.9 0.46            107            273 140 
 PRA  HZ EP        859 34.93                             107   -0.23 7  293 206 
 PRA  HN ES        9 0  6.11                             107   -1.04 7  293 206 
 PRA  HZ I         9 0 13.21        11.0 0.38            105            293 206 
 ORTC HZ EP        859 35.29                             107   -0.08 7  294 215 
 ORTC HN ES        9 0  7.68                             107    0.17 7  294 215 
 ORTC HZ I         9 0 12.98        10.8 0.58            105            294 215 
 DBB  HZ EP        859 35.73                             107    0.38 7  294 291 
 DBB  HN ES        9 0  7.19                             107   -0.29 7  294 291 
 DBB  HZ I         9 0 10.90        13.0 0.38            104            294 291 
 DRL03HZ EP   4    859 46.22                             103    2.44 0  366   4 
 DRL03HE ES   4    9 0 24.75                             103    2.27 0  366   4 
 SJC  HZ EP        859 52.57                              99   -1.41 5  451 339 
 SJC  HE ES   4    9 0 38.35                              99   -2.29 0  451 339 
 SJC  HZ I         9 0 40.97         2.4 0.52             97            451 339 
                                                                                
