 2011  625 0929 55.6 L   6.746 -73.076148.0  RSN  7 0.2 1.5LRSN                1
 GAP=164        0.52       4.4     6.7  5.9 -0.1148E+02 -0.1746E+02  0.3661E+01E
 Epicentro: JORDAN - SANTANDER                                                 3
 ACTION:UP  11-07-14 19:07 OP:ep   STATUS:               ID:20110625092955 L   I
 2011-06-25-0920-00M.COL___124                                                 6
 STAT SP IPHASW D HRMM SECON CODA AMPLIT PERI AZIMU VELO SNR AR TRES W  DIS CAZ7
 BAR2 SZ EP        930 15.34                             172    -0.110   21 215 
 BAR2 SZ ES   2    930 30.59                             172    -0.4 5   21 215 
 BAR2 SZ I         930 31.33         4.9 0.24                            21 215 
 BTL  SZ EP        930 16.00                             169     0.310   29 312 
 BTL  SZ ES   2    930 31.66                             169     0.4 5   29 312 
 GIR2 SZ EP        930 15.63                             164    -0.210   39 341 
 GIR2 SZ ES   3    930 31.03                             164    -0.5 2   39 341 
 BRR  HZ EP        930 17.48                             150    -0.110   81 300 
 BRR  HZ I         930 17.87         8.9 0.11                            81 300 
 BRR  HN ES   1    930 34.77                             150     0.1 7   81 300 
 RUS  HZ EP   2    930 19.51                             146     0.3 5   94 180 
 BRI  SZ EP        930 19.97                             141     0.010  112  16 
 GRA  SZ EP        930 21.41                             137     0.010  129  13 
 GRA  SZ ES   1    930 41.51                             137     0.0 7  129  13 
 GRA  SZ I         930 42.09         2.8 0.24                           129  13 
                                                                                
