 2012  225 0914 38.7 L   6.850 -73.289119.5  RSN 10 0.3 2.2LRSN                1
 GAP=107        0.60       2.6     4.4  4.2 -0.7976E+00  0.6278E+01  0.1772E+01E
 ACTION:UP  12-03-07 16:34 OP:epov STATUS:               ID:20120225091438 L   I
 2012-02-25-0910-00M.COL___192                                                 6
 STAT SP IPHASW D HRMM SECON CODA AMPLIT PERI AZIMU VELO AIN AR TRES W  DIS CAZ7
 GIR2 SZ EP        914 55.03                             166   -0.0710 27.4  23 
 GIR2 SZ ES   1    915  8.02                             166    0.09 7 27.4  23 
 BAR2 SZ EP   1    914 55.44                             165    0.09 7 30.8 158 
 BAR2 SZ ES   1    915  7.95                             165   -0.42 7 30.8 158 
 BAR2 SZ I         915  9.59       246.2 0.33                          30.8 158 
 BRR  HZ EP   1    914 55.87                             154   -0.17 7 54.8 301 
 BRR  HE ES   1    915  9.74                             154    0.14 7 54.8 301 
 PAM  SZ EP   1    914 58.53                             143   -0.14 7 84.6  50 
 PAM  SZ I         914 59.69        19.6 0.16                          84.6  50 
 PAM  SN ES   1    915 14.90                             143    0.62 7 84.6  50 
 RUS  HZ EP   1    915  0.25                             135   -0.32 7  108 168 
 RUS  HZ I         915  1.03        14.8 0.10                           108 168 
 RUS  HE ES   1    915 17.79                             135    0.12 7  108 168 
 OCA  SZ EP   1    915  4.32                             124   -0.08 7  154 359 
 OCA  SZ ES   1    915 24.16                             124   -0.31 7  154 359 
 NOR  SZ EP   1    915 11.71                             113   -0.26 6  225 231 
 CHI  HZ EP   1    915 15.35                             111    0.11 6  250 191 
 CHI  HZ I         915 15.89        11.3 0.17                           250 191 
 HEL  HZ EP   1    915 16.81                             110    0.72 6  258 254 
 PRA  HZ EP   1    915 31.44                             102    0.36 4  389 207 
                                                                                
