 2013 1025 0316  8.7 L   6.533 -73.538102.9  RSN 11 0.5 1.8LRSN                1
 GAP= 94        1.18       2.8     4.0  6.5  0.6726E+00  0.9739E+01  0.2157E+01E
 Epicentro: EL CARMEN DE CHUCURI - SANTANDER                                   3
 ACTION:UPD 13-11-25 09:23 OP:ep   STATUS:               ID:20131025031608 L   I
 OLDACT:DUP 13-10-25 08:03 OP:carl STATUS:               ID:20131025030848d    3
 2013-10-25-0308-47M.COL___230                                                 6
 STAT SP IPHASW D HRMM SECON CODA AMPLIT PERI AZIMU VELO AIN AR TRES W  DIS CAZ7
 BAR2 SZ EP        316 24.14                             157    0.2710 39.8  81 
 BAR2 SZ ES        316 36.39                             157    0.7210 39.8  81 
 BAR2 SZ I         316 38.04       129.8 0.48            158           39.8  81 
 BRR  HZ EP        316 24.96                             144   -0.1410 66.3 343 
 BRR  HE ES        316 38.10                             144    0.2310 66.3 343 
 RUS  HZ EP        316 27.21                             137   -0.1810 86.9 145 
 RUS  HE ES        316 41.15                             137   -0.7810 86.9 145 
 RUS  HZ I         316 45.14         3.1 0.20            137           86.9 145 
 PTB  HZ EP   4    316 26.87                             132   -1.15 0  102 270 
 PTB  HN ES        316 42.41                             132   -0.6510  102 270 
 SPBC HZ EP        316 29.56                             128    0.2810  114 211 
 SPBC HN ES        316 45.20                             128   -0.1110  114 211 
 SPBC HZ I         316 48.44        14.0 0.12            128            114 211 
 ZAR  HZ EP        316 36.70                             114    0.56 9  180 306 
 ZAR  HN ES        316 57.76                             114    0.24 9  180 306 
 ZAR  HZ I         317  0.59         7.1 0.52            115            180 306 
 NOR  HZ EP        316 35.72                             114   -0.69 9  182 234 
 NOR  HN ES        316 57.84                             114   -0.16 9  182 234 
 NOR  HZ I         316 59.11         5.3 0.14            115            182 234 
 CHI  HZ EP        316 40.62                             110    0.44 8  212 186 
 CHI  HN ES        317  4.86                             110    0.15 8  212 186 
 CHI  HZ I         317  9.79         2.6 0.32            111            212 186 
 GUY2CHZ EP        316 45.29                             106    0.73 8  249 235 
 GUY2CHN ES        317 13.03                             106    0.52 8  249 235 
 GUY2CHZ I         317 16.55         3.9 0.34                           249 235 
 SML  HZ EP        316 44.10                             105   -0.90 8  258 347 
 SML  HN ES        317 13.01                             105   -0.27 8  258 347 
 SML  HZ I         317 17.14         9.8 0.10            106            258 347 
 PRA  HN ES   1    317 31.76                             100   -0.31 5  346 206 
 PRA  HN I         317 35.53         3.1 0.22            100            346 206 
                                                                                
