 2014  725 0434  0.8 L   6.795 -73.152135.8  RSN 22 0.4 2.0LRSN                1
 GAP= 71        0.93       2.2     2.4  4.7 -0.7529E+00  0.3259E+01  0.2301E+01E
 Epicentro: LOS SANTOS - SANTANDER                                             3
 ACTION:UPD 15-03-16 20:46 OP:nd   STATUS:               ID:20140725043400 L   I
 OLDACT:REG 14-07-25 12:55 OP:spq  STATUS:               ID:20140725042819     3
 2014-07-25-0428-19M.COL___269                                                 6
 STAT SP IPHASW D HRMM SECON CODA AMPLIT PERI AZIMU VELO AIN AR TRES W  DIS CAZ7
 BAR2 SZ EP        434 19.63                             170    0.4210 22.7 189 
 BAR2 SZ ES   1    434 33.25                             170   -0.32 7 22.7 189 
 BAR2 SZ I         434 35.82        32.7 0.20            169           22.7 189 
 BRR  HZ EP        434 21.52                             151    0.6710 70.9 299 
 BRR  HE ES        434 37.16                             151    0.6710 70.9 299 
 BRR  HZ I         434 43.19        20.2 0.18            151           70.9 299 
 PAM  SZ EP        434 22.56                             149    0.5510 78.2  40 
 PAM  SN ES        434 38.54                             149   -0.0110 78.2  40 
 PAM  SZ I         434 41.22        20.1 0.26            154           78.2  40 
 RUS  HZ EP        434 23.68                             142    0.1510  100 176 
 RUS  HE ES   1    434 41.37                             142    0.10 7  100 176 
 RUS  HZ I         434 43.86         6.0 0.30            144            100 176 
 PTB  HZ EP        434 26.48                             130   -0.41 9  147 259 
 PTB  HN ES        434 47.03                             130   -0.22 9  147 259 
 PTB  HZ I         434 50.16        18.4 0.12            131            147 259 
 TAM  HZ EP        434 27.97                             128    0.23 9  156 105 
 TAM  HN ES        434 48.05                             128   -0.72 9  156 105 
 TAM  HZ I         434 52.33         8.0 0.43            132            156 105 
 OCA  HE ES        434 49.48                             127   -0.43 9  161 353 
 OCA  HZ I         434 53.94        15.4 0.31            131            161 353 
 SPBC HZ EP        434 28.69                             127    0.23 9  162 219 
 SPBC HN ES        434 50.07                             127    0.03 9  162 219 
 SPBC HZ I         434 57.04         9.2 0.18            128            162 219 
 ZAR  HZ EP        434 32.29                             120   -0.27 9  204 292 
 ZAR  HE ES        434 57.14                             120   -0.20 9  204 292 
 ZAR  HZ I         435  4.39        15.4 0.30            122            204 292 
 NOR  HZ EP        434 35.50                             116   -0.37 8  234 234 
 NOR  HE ES        435  2.67                             116   -0.55 8  234 234 
 NOR  HZ I         435  5.66         9.7 0.20            118            234 234 
 SML  HZ EP        434 36.39                             115   -0.51 8  244 335 
 SML  HN ES        435  4.56                             115   -0.50 8  244 335 
 SML  HZ I         435 12.63        15.0 0.10            118            244 335 
 CHI  HN ES   1    435  6.44                             115   -0.36 6  248 195 
 CHI  HZ I         435 14.69         4.4 0.28            117            248 195 
 ROSC BN ES        435  7.12                             115   -0.43 8  252 211 
 ROSC BZ I         435 16.70         9.3 0.40            117            252 211 
 HEL  HZ EP   1    434 40.83                             113    0.41 6  271 256 
 HEL  HE ES        435 11.37                             113    0.03 8  271 256 
 HEL  HZ I         435 18.23         4.8 0.32            115            271 256 
 GUY2CHZ EP   4    434 45.25                             110    1.39 0  300 235 
 GUY2CHE ES        435 17.74                             110    0.29 7  300 235 
 GUY2CHZ I         435 25.18         6.6 0.28                           300 235 
 RREF HE ES   1    435 22.07                             109    0.06 5  321 229 
 RREF HZ I         435 28.79         5.2 0.44            111            321 229 
 CBOC HZ EP        434 47.89                             108    0.67 7  333 252 
 CBOC HE ES        435 23.66                             108    0.23 7  333 252 
 CBOC HZ I         435 27.50         2.3 0.56            110            333 252 
 DBB  SZ EP   4    434 51.56                             108    3.75 0  339 274 
 DBB  SZ ES   1    435 24.33                             108   -0.15 5  339 274 
 TOL  SZ EP        434 49.47                             108    0.91 7  343 225 
 TOL  SN ES        435 25.63                             108   -0.19 7  343 225 
 TOL  SZ I         435 35.64         9.4 0.40            109            343 225 
 PRA  HZ EP        434 54.09                             105    0.20 6  391 210 
 PRA  HN ES        435 35.13                             105   -0.17 6  391 210 
 PRA  HZ I         435 41.41         4.2 0.33            107            391 210 
 ORTC HZ EP        434 53.67                             105   -0.62 6  395 216 
 ORTC HE ES        435 35.90                             105   -0.11 6  395 216 
 ORTC HZ I         435 42.60         3.0 0.27            106            395 216 
 SJC  HN ES   4    435 34.66                             104   -4.49 0  409 327 
 SJC  HZ I         435 39.22         3.9 0.40            106            409 327 
                                                                                
