 2010 1025 0753 33.5 L   6.741 -73.110147.8  RSN  4 0.2 1.5LRSN                1
 GAP=237        0.38       3.8     4.8  4.3  0.5773E+01  0.2295E+01  0.5332E+01E
 Epicentro: JORDAN - SANTANDER                                                 3
 *BAR2-BRR-RUS                                                                 3
 ACTION:UP  11-02-18 11:12 OP:tino STATUS:               ID:20101025075333 L   I
 2010-10-25-0740-00M.COL___115                                                 6
 STAT SP IPHASW D HRMM SECON CODA AMPLIT PERI AZIMU VELO SNR AR TRES W  DIS CAZ7
 BAR2 SZ EP   1    753 53.39                             172     0.1 7   18 206 
 BAR2 SZ I         753 53.74         9.5 0.11                            18 206 
 BAR2 SZ ES   2    754  8.99                             172     0.2 5   18 206 
 BRR  HZ EP        753 55.31                             150     0.010   78 301 
 BRR  HZ I         753 55.68         9.1 0.08                            78 301 
 BRR  HN ES        754 12.18                             150    -0.110   78 301 
 RUS  HZ EP   2    753 57.18                             146     0.2 5   94 178 
 RUS  HZ I         753 58.29         2.8 0.11                            94 178 
 RUS  HN ES   2    754 15.09                             146    -0.2 5   94 178 
 NOR  SZ EP   1    754  9.18                                    -0.2 6  234 236 
 NOR  SN ES   2    754 37.56                             119     0.3 4  234 236 
                                                                                
