 2017  125 0558 48.1 L   6.822 -73.366120.8  RSN  4 0.2 1.1LRSN                1
 GAP=192        0.61       4.3     3.8  5.0  0.8090E+01  0.3913E+01  0.4408E+01E
 Epicentro: SAN VICENTE DE CHUCURI - SANTANDER                                 3
 ACTION:UPD 17-05-22 16:03 OP:jn   STATUS:               ID:20170125055848 L   I
 OLDACT:REG 17-01-25 12:55 OP:lv   STATUS:               ID:20170125055629     3
 2017-01-25-0558-00M.COL___355                                                 6
 STAT SP IPHASW D HRMM SECON CODA AMPLIT PERI AZIMU VELO AIN AR TRES W  DIS CAZ7
 BAR2 EZ EP        559  4.67                             164   -0.3110 32.5 141 
 BAR2 EZ ES        559 18.13                             164   -0.0410 32.5 141 
 BAR2 EZ I         559 19.00         3.4 0.26            164           32.5 141 
 BRR  HZ EP        559  5.21                             156   -0.1210 49.5 310 
 BRR  HN ES        559 19.03                             156    0.2310 49.5 310 
 RUS  HZ EP        559 10.09                             136    0.0610  107 163 
 RUS  HN ES        559 27.29                             136    0.1210  107 163 
 PTB  HZ EP        559 11.25                             131    0.3510  125 256 
 PTB  HN ES        559 28.43                             131   -0.2810  125 256 
                                                                                
