 2017 1225 0813 41.0 L   6.769 -73.151143.1  RSN  5 0.3 1.1LRSN                1
 GAP=152        0.73       4.2     3.7  6.2 -0.5338E+01  0.7753E+01 -0.6865E+01E
 Epicentro: LOS SANTOS - SANTANDER                                             3
 ACTION:UPD 18-01-04 13:24 OP:rebc STATUS:               ID:20171225081341 L   I
 OLDACT:REG 17-12-25 12:42 OP:osc  STATUS:               ID:20171225080424     3
 2017-12-25-0808-00M.COL___457                                                 6
 STAT SP IPHASW D HRMM SECON CODA AMPLIT PERI AZIMU VELO AIN AR TRES W  DIS CAZ7
 BAR2 EZ EP        814  0.43                             172    0.2310 19.8 190 
 BAR2 EZ ES        814 14.78                             172   -0.4310 19.8 190 
 BAR2 EZ I         814 16.99         3.7 0.16            172           19.8 190 
 PAM  EZ EP        814  3.33                             149    0.2510 80.4  38 
 PAM  EE ES        814 20.61                             149    0.2810 80.4  38 
 PAM  EZ I         814 23.17         2.6 0.42            152           80.4  38 
 PTB  HZ EP        814  7.37                             132   -0.23 9  147 260 
 PTB  HN ES        814 28.57                             132    0.20 9  147 260 
 PTB  HZ I         814 31.83         0.9 0.16            134            147 260 
 OCA  HZ EP        814  9.00                             128   -0.38 9  164 354 
 OCA  HN ES        814 31.37                             128   -0.18 9  164 354 
 ZAR  HE ES        814 38.75                             122    0.21 9  205 293 
                                                                                
