 2012  625 0428  9.9 L   6.749 -73.191150.2  RSN  4 0.3 0.9LRSN                1
 GAP=228        0.62       9.6     7.4  8.2  0.4130E+02  0.2118E+02  0.3337E+02E
 Epicentro: VILLANUEVA - SANTANDER                                             3
 ACTION:UPD 12-08-06 17:52 OP:ep   STATUS:               ID:20120625042809 L   I
 2012-06-25-0426-59S.COL___208                                                 6
 STAT SP IPHASW D HRMM SECON CODA AMPLIT PERI AZIMU VELO AIN AR TRES W  DIS CAZ7
 BAR2 SZ ES   1    428 45.11                             173   -0.47 7 17.4 177 
 BAR2 SZ I         428 46.28         2.3 0.20                          17.4 177 
 BRR  HN ES   1    428 48.61                             154    0.37 7 69.9 305 
 RUS  HZ EP   1    428 33.92                             146    0.22 7 95.5 173 
 RUS  HN ES   2    428 52.62                             146    0.32 5 95.5 173 
 PTB  HZ EP   1    428 36.41                             134   -0.27 7  142 261 
 PTB  HZ I         428 57.48         0.8 0.41                           142 261 
 PTB  HE ES   1    428 57.57                             134   -0.02 7  142 261 
                                                                                
