 2017  825 0130 34.4 L   6.775 -73.129144.7  RSN 10 0.6 1.5LRSN                1
 GAP=212        1.01       6.3     7.0  6.8  0.2690E+02 -0.1429E+01  0.5365E+01E
 Epicentro: LOS SANTOS - SANTANDER                                             3
 ACTION:UPD 17-09-04 20:24 OP:rebc STATUS:               ID:20170825013034 L   I
 OLDACT:UP  17-08-25 14:10 OP:and  STATUS:               ID:20170825012744     3
 OLDACT:UP  17-08-25 14:09 OP:and  STATUS:               ID:20170825012744     3
 OLDACT:UP  17-08-25 14:09 OP:and  STATUS:               ID:20170825012744     3
 OLDACT:REG 17-08-25 12:19 OP:and  STATUS:               ID:20170825012744     3
 2017-08-25-0128-00M.COL___411                                                 6
 STAT SP IPHASW D HRMM SECON CODA AMPLIT PERI AZIMU VELO AIN AR TRES W  DIS CAZ7
 BAR2 EZ IP     C  130 53.83                             172    0.0210 21.0 196 
 BAR2 EZ ES        131  8.26                             172   -0.7310 21.0 196 
 BAR2 EZ I         131  9.81         6.9 0.38            167           21.0 196 
 BRR  HZ EP        130 55.54                             152   -0.0210 74.2 300 
 BRR  HE ES        131 12.68                             152    0.5810 74.2 300 
 BRR  HZ I         131 20.30         7.6 0.38            148           74.2 300 
 RUS  HZ EP        130 57.94                             145    0.1410 97.7 177 
 RUS  HN ES        131 16.46                             145    0.3910 97.7 177 
 RUS  HZ I         131 18.45         3.1 0.28            146           97.7 177 
 SPBC HZ EP   2    131  2.81                             129    0.13 5  162 220 
 SPBC HN ES   2    131 25.02                             129    0.24 5  162 220 
 SPBC HZ I         131 29.56         4.4 0.09            129            162 220 
 YPLC HZ EP        131  4.26                             127    0.51 9  173 151 
 ZAR  HZ EP   2    131  6.26                             122   -0.76 4  207 293 
 ZAR  HE ES        131 32.22                             122   -0.28 8  207 293 
 ZAR  HZ I         131 38.26         1.9 0.09            122            207 293 
 NOR  HZ EP   3    131 11.73                             118    1.71 2  235 235 
 NOR  HN ES   2    131 36.84                             118   -0.99 4  235 235 
 NOR  HZ I         131 43.01         2.1 0.26            118            235 235 
 CHI  HN ES   2    131 40.29                             117   -0.64 4  246 196 
 GUY2CHN ES   3    131 53.78                             112    1.90 2  301 235 
 GUY2CHZ I         132  4.12         1.6 0.40                           301 235 
 PTGC HZ EP        131 17.00                             112   -0.80 7  305 159 
                                                                                
