 2014  625 0604 15.2 L   6.031 -73.765104.2  RSN  8 0.4 1.3LRSN                1
 GAP=104        0.98       3.4     3.1  6.5 -0.2890E+00  0.6130E+01 -0.1099E+01E
 Epicentro: BOLIVAR - SANTANDER                                                3
 ACTION:UPD 14-07-01 22:56 OP:nd   STATUS:               ID:20140625060415 L   I
 OLDACT:REG 14-06-25 13:20 OP:spq  STATUS:               ID:20140625055805     3
 2014-06-25-0558-05M.COL___259                                                 6
 STAT SP IPHASW D HRMM SECON CODA AMPLIT PERI AZIMU VELO AIN AR TRES W  DIS CAZ7
 SPBC HZ EP        6 4 31.42                             150    0.3410 54.0 219 
 SPBC HE ES        6 4 43.54                             150    0.1210 54.0 219 
 SPBC HZ I         6 4 45.13         6.5 0.16            149           54.0 219 
 RUS  HZ EP        6 4 33.71                             141    0.4810 77.0 101 
 RUS  HN ES        6 4 46.98                             141   -0.2810 77.0 101 
 BAR2 SZ EP   1    6 4 34.25                             136    0.37 7 89.5  46 
 BAR2 SZ ES   1    6 4 48.05                             136   -0.37 7 89.5  46 
 BAR2 SZ I         6 4 52.71         7.2 0.31            138           89.5  46 
 PTB  HZ EP        6 4 33.71                             134   -0.3410 94.9 306 
 PTB  HN ES        6 4 48.54                             134   -0.1710 94.9 306 
 PTB  HZ I         6 4 51.63         2.5 0.18            135           94.9 306 
 NOR  HZ EP        6 4 38.07                             123    0.3710  133 247 
 NOR  HN ES        6 4 55.14                             123   -0.0810  133 247 
 NOR  HZ I         6 4 57.35         5.6 0.17            123            133 247 
 HEL  HZ EP   1    6 4 45.50                             112    0.57 6  196 275 
 HEL  HN ES   1    6 5  8.48                             112    0.40 6  196 275 
 HEL  HZ I         6 5 12.46         1.2 0.54            113            196 275 
 ZAR  HZ EP        6 4 45.47                             111    0.35 9  202 323 
 ZAR  HE ES        6 5  7.91                             111   -0.51 9  202 323 
 PRA  HZ EP   1    6 4 53.50                             104   -1.32 6  285 206 
 PRA  HN ES        6 5 25.15                             104   -0.54 7  285 206 
 PRA  HZ I         6 5 35.19         0.9 0.42            104            285 206 
                                                                                
