 2016 1125 0216 36.8 L   6.822 -73.141146.7  RSN  9 0.2 1.7LRSN                1
 GAP=150        0.61       2.8     3.0  3.7 -0.4150E+00  0.1787E+01  0.3543E+01E
 Epicentro: LOS SANTOS - SANTANDER                                             3
 ACTION:UPD 17-10-26 21:11 OP:lp   STATUS:               ID:20161125021636 L   I
 OLDACT:UP  16-11-25 15:09 OP:edw  STATUS:               ID:20161125020750     3
 OLDACT:UP  16-11-25 15:07 OP:edw  STATUS:               ID:20161125020750     3
 OLDACT:REG 16-11-25 12:23 OP:edw  STATUS:               ID:20161125020750     3
 2016-11-25-0208-00M.COL___355                                                 6
 STAT SP IPHASW D HRMM SECON CODA AMPLIT PERI AZIMU VELO AIN AR TRES W  DIS CAZ7
 BAR2 EZ EP        216 56.57                             170   -0.0210 25.8 190 
 BAR2 EZ ES        217 11.83                             170   -0.1910 25.8 190 
 BAR2 EZ I         217 12.79        14.9 0.24            167           25.8 190 
 BRR  HZ IP     C  216 58.34                             153    0.3310 70.5 297 
 BRR  HE ES        217 14.92                             153    0.3710 70.5 297 
 PAM  EZ EP        216 58.80                             151   -0.1810 75.2  40 
 PAM  EN ES        217 16.19                             151   -0.1010 75.2  40 
 PAM  EZ I         217 17.30         3.5 0.20            155           75.2  40 
 PTB  HZ EP   9    217  3.53                             132   -0.40 0  149 258 
 PTB  HN ES        217 24.33                             132   -0.36 9  149 258 
 PTB  HZ I         217 26.29         5.3 0.08            130            149 258 
 ZAR  HZ EP        217  9.43                             122    0.18 9  204 291 
 ZAR  HN ES        217 34.08                             122   -0.49 9  204 291 
 ZAR  HZ I         217 36.06         3.4 0.06            121            204 291 
 NOR  HZ EP        217 12.74                             118   -0.03 8  236 234 
 NOR  HN ES   2    217 41.04                             118    0.21 4  236 234 
 NOR  HZ I         217 47.54         3.6 0.16            117            236 234 
 CHI  HZ EP        217 14.80                             117   -0.02 8  251 195 
 CHI  HN ES        217 44.57                             117    0.10 8  251 195 
 CHI  HZ I         217 46.44         3.3 0.40            116            251 195 
 URE  HZ EP   4    217 20.90                             114    3.04 0  283 291 
 URE  HE ES   4    217 47.75                             114   -2.14 0  283 291 
 URE  HZ I         217 55.68         3.7 0.18            113            283 291 
 PRA  HZ EP        217 30.46                             106   -0.16 6  394 209 
 PRA  HN ES   4    218 10.53                             106   -2.08 0  394 209 
 PRA  HZ I         218 19.02         2.4 0.25            106            394 209 
 SJC  HZ EP   4    217 30.84                             106   -1.34 0  407 327 
 SJC  HN ES   4    218 13.12                             106   -2.26 0  407 327 
                                                                                
