 2016  425 0244 27.8 L   6.824 -73.128148.4  RSN 20 0.4 2.6LRSN                1
 GAP=102        0.80       2.3     2.7  3.9 -0.1616E+01  0.2539E+01  0.1938E+00E
 Epicentro: LOS SANTOS - SANTANDER                                             3
 ACTION:UPD 16-05-05 14:24 OP:rebc STATUS:               ID:20160425024427 L   I
 OLDACT:REG 16-04-25 12:48 OP:cara STATUS:               ID:20160425023747     3
 2016-04-25-0237-47M.COL___282                                                 6
 STAT SP IPHASW D HRMM SECON CODA AMPLIT PERI AZIMU VELO AIN AR TRES W  DIS CAZ7
 BAR2 EZ IP     C  244 48.02                             170    0.2310 26.3 193 
 BAR2 EZ ES        245  3.38                             170   -0.0210 26.3 193 
 BAR2 EZ I         245  4.43        55.9 0.28            167           26.3 193 
 PAM  EZ EP     D  244 50.77                             152    0.6810 74.2  40 
 PAM  EE ES        245  7.75                             152    0.2610 74.2  40 
 PAM  EZ I         245  9.99        57.9 0.52            156           74.2  40 
 RUS  HZ EP     C  244 51.90                             144   -0.0710  103 177 
 RUS  HE ES        245 10.88                             144    0.0410  103 177 
 RUS  HZ I         245 11.72        25.7 0.40            144            103 177 
 PTB  HZ EP        244 54.94                             132   -0.24 9  150 258 
 PTB  HN ES        245 16.04                             132   -0.51 9  150 258 
 PTB  HZ I         245 23.16        59.8 0.30            131            150 258 
 OCA  HZ EP        244 56.10                             131    0.02 9  158 352 
 OCA  HN ES        245 17.87                             131   -0.28 9  158 352 
 OCA  HZ I         245 21.87        73.9 0.20            132            158 352 
 SPBC HZ EP     C  244 56.86                             129    0.07 9  166 219 
 SPBC HN ES        245 19.12                             129   -0.29 9  166 219 
 SPBC HZ I         245 25.16        51.7 0.36            129            166 219 
 ZAR  HZ EP        245  0.44                             123   -0.04 9  205 291 
 ZAR  HN ES        245 26.16                             123    0.17 9  205 291 
 ZAR  HZ I         245 32.81        45.8 0.26            123            205 291 
 NOR  HZ EP        245  4.00                             119    0.01 8  238 234 
 NOR  HE ES        245 31.92                             119   -0.32 8  238 234 
 NOR  HZ I         245 38.34        30.1 0.18            119            238 234 
 CHI  HZ EP        245  6.24                             117    0.29 8  252 195 
 CHI  HN ES        245 35.54                             117   -0.19 8  252 195 
 CHI  HZ I         245 46.79        12.3 0.50            118            252 195 
 ROSC BZ IP   4    245  8.29                             117    1.90 0  256 211 
 ROSC BN ES   4    245 35.19                             117   -1.32 0  256 211 
 ROSC BZ I         245 44.36        34.0 0.55            117            256 211 
 URE  HZ EP   4    245  8.00                             114   -1.07 0  285 291 
 URE  HN ES   4    245 40.15                             114   -1.12 0  285 291 
 URE  HZ I         245 50.76        22.9 0.16            114            285 291 
 SOCV BZ EP        245 10.23                             113   -0.38 7  298  57 
 SOCV BN ES   4    245 42.39                             113   -1.63 0  298  57 
 SOCV BZ I         245 44.83        44.6 0.30            115            298  57 
 GUY2CHZ EP        245 12.53                             113    0.67 7  304 235 
 GUY2CHN ES        245 46.68                             113    0.45 7  304 235 
 GUY2CHZ I         245 56.75        31.7 0.86                           304 235 
 PTGC HZ EP        245 11.19                             112   -0.76 7  310 159 
 PTGC HZ I         245 11.51        23.7 0.14            113            310 159 
 PTGC HE ES   4    245 44.58                             112   -1.83 0  310 159 
 ELA  HZ EP   4    245 17.04                             111    1.94 0  332 229 
 ELA  HN ES   4    245 55.74                             111    3.73 0  332 229 
 ELA  HZ I         246  0.70        15.6 0.44            111            332 229 
 CBOC HZ EP        245 15.07                             110   -0.03 7  336 252 
 CBOC HE ES        245 52.29                             110    0.27 7  336 252 
 CBOC HZ I         245 56.98         4.0 0.58            110            336 252 
 ORTC HZ EP   4    245 22.04                             107   -0.13 0  399 216 
 ORTC HN ES   4    246  5.28                             107    0.69 0  399 216 
 ORTC HZ I         246 10.23         9.8 0.32            107            399 216 
 SJC  HZ IP        245 22.37                             106   -0.93 6  408 327 
 SJC  HN ES   4    246  3.72                             106   -2.88 0  408 327 
 SJC  HZ I         246  7.66         5.5 0.28            107            408 327 
 PAL  HZ EP        245 23.86                             106    0.48 6  409 239 
 PAL  HZ I         245 25.38         8.7 0.26            107            409 239 
 PAL  HN ES        246  6.77                             106    0.03 6  409 239 
 CRJC HZ EP   4    245 27.38                             104   -2.65 0  465   3 
 CRJC HE ES   4    246 14.73                             104   -3.86 0  465   3 
 CRJC HZ I         246 20.47         6.0 0.38            105            465   3 
                                                                                
