 2016  325 0019 56.5 L   6.782 -73.129140.8  RSN  4 0.4 1.3LRSN                1
 GAP=139        0.83       4.3     4.0  8.6 -0.3897E+00  0.1323E+02 -0.4749E+01E
 Epicentro: LOS SANTOS - SANTANDER                                             3
 ACTION:UPD 16-05-13 21:27 OP:cam  STATUS:               ID:20160325001956 L   I
 OLDACT:UP  16-03-25 14:44 OP:ak   STATUS:               ID:20160325001749     3
 OLDACT:REG 16-03-25 13:56 OP:ak   STATUS:               ID:20160325001749     3
 2016-03-25-0017-49M.COL___308                                                 6
 STAT SP IPHASW D HRMM SECON CODA AMPLIT PERI AZIMU VELO AIN AR TRES W  DIS CAZ7
 PAM  EZ EP        020 17.99                             150   -0.1910 77.8  38 
 PAM  EN ES        020 35.07                             150   -0.0410 77.8  38 
 PAM  EZ I         020 37.64         5.1 0.46            152           77.8  38 
 RUS  HZ EP        020 19.56                             143   -0.0210 98.5 177 
 RUS  HE ES        020 37.88                             143    0.2710 98.5 177 
 RUS  HZ I         020 38.88         1.8 0.20            148           98.5 177 
 PTB  HZ EP   2    020 22.20                             130   -0.96 5  149 260 
 PTB  HE ES        020 43.51                             130   -0.48 9  149 260 
 PTB  HZ I         020 45.49         2.6 0.08            132            149 260 
 ZAR  HZ EP        020 29.27                             121    0.42 8  206 292 
 ZAR  HE ES        020 54.50                             121    0.40 8  206 292 
 ZAR  HZ I         021  0.05         3.2 0.30            122            206 292 
                                                                                
