 2013  925 0237 16.3 L   6.764 -73.431128.3  RSN  4 0.4 1.5LRSN                1
 GAP=142        0.81       6.5     5.3  7.0  0.1174E+01  0.3443E+01 -0.1827E+02E
 Epicentro: EL CARMEN DE CHUCURI - SANTANDER                                   3
 ACTION:UPD 13-10-22 09:24 OP:ep   STATUS:               ID:20130925023716 L   I
 OLDACT:REG 13-09-25 07:44 OP:nd   STATUS:               ID:20130925022959     3
 2013-09-25-0229-59M.COL___269                                                 6
 STAT SP IPHASW D HRMM SECON CODA AMPLIT PERI AZIMU VELO AIN AR TRES W  DIS CAZ7
 BAR2 SZ EP        237 34.33                             164    0.2210 33.4 125 
 BAR2 SZ ES        237 47.76                             164   -0.2510 33.4 125 
 BAR2 SZ I         237 48.82        18.2 0.25            175           33.4 125 
 BRR  HZ EP        237 34.65                             158    0.2710 49.1 321 
 BRR  HN ES        237 48.70                             158    0.2210 49.1 321 
 BRR  HZ I         237 54.13         5.1 0.62            153           49.1 321 
 PTB  HZ EP   2    237 39.75                             135    0.75 5  116 258 
 PTB  HN ES        237 56.42                             135   -0.2810  116 258 
 PTB  HZ I         238  1.38         2.1 0.28            136            116 258 
 SML  HZ EP        237 50.53                             114   -0.63 8  236 343 
 SML  HE ES   2    238 18.63                             114    0.27 4  236 343 
 SML  HZ I         238 23.13         4.6 0.08            116            236 343 
                                                                                
