 2017 1225 0058 36.5 L   6.833 -73.171148.5  RSN  9 0.6 1.6LRSN                1
 GAP=108        1.10       3.6     4.2  6.9  0.2249E-01  0.6739E+01  0.1517E+01E
 Epicentro: ZAPATOCA - SANTANDER                                               3
 ACTION:UPD 18-01-04 13:24 OP:rebc STATUS:               ID:20171225005836 L   I
 OLDACT:REG 17-12-25 12:06 OP:osc  STATUS:               ID:20171225005539     3
 2017-12-25-0058-00M.COL___472                                                 6
 STAT SP IPHASW D HRMM SECON CODA AMPLIT PERI AZIMU VELO AIN AR TRES W  DIS CAZ7
 BAR2 HZ EP        058 56.03                             169   -0.4910 26.6 183 
 BAR2 HZ ES        059 11.87                             169   -0.2810 26.6 183 
 BAR2 HZ I         059 14.19        10.5 0.30            169           26.6 183 
 PAM  EZ IP     C  058 59.41                             152    0.4610 76.5  43 
 PAM  EN ES        059 16.16                             152   -0.3110 76.5  43 
 PAM  EZ I         059 18.16         3.8 0.18            155           76.5  43 
 PTB  HZ EP        059  3.21                             133   -0.30 9  146 257 
 PTB  HN ES        059 24.27                             133   -0.31 9  146 257 
 PTB  HZ I         059 28.28         2.6 0.12            134            146 257 
 OCA  HZ EP        059  4.56                             131   -0.09 9  156 354 
 OCA  HN ES        059 26.97                             131    0.35 9  156 354 
 OCA  HZ I         059 29.85         8.5 0.58            134            156 354 
 SPBC HZ EP        059  5.37                             129    0.06 9  164 217 
 SPBC HN ES        059 27.54                             129   -0.25 9  164 217 
 SPBC HZ I         059 33.30         7.0 0.20            131            164 217 
 YPLC HZ EP        059  6.84                             126   -0.09 9  181 151 
 YPLC HE ES        059 31.70                             126    1.03 9  181 151 
 YPLC HZ I         059 35.89         4.9 0.20            129            181 151 
 ZAR  HZ EP        059  8.65                             124   -0.06 9  200 291 
 ZAR  HE ES        059 34.68                             124    0.83 9  200 291 
 ZAR  HZ I         059 40.72         3.7 0.26            125            200 291 
 GUY2CHZ EP        059 19.76                             113   -0.45 7  301 234 
 GUY2CHE ES   3    059 57.52                             113    3.21 2  301 234 
 GUY2CHZ I         1 0  1.90         2.1 0.68                           301 234 
 SJC  HZ EP   1    059 31.12                             106   -0.49 4  405 327 
                                                                                
