 2010  525 0444 51.4 L   6.862 -73.122140.4  RSN  7 0.6 3.0LRSN                1
 GAP=280        1.01       8.0     8.2 12.9  0.3054E+00  0.4777E+02  0.1430E+02E
 Epicentro: LOS SANTOS - SANTANDER                                             3
 ACTION:UP  10-08-24 10:06 OP:vdl  STATUS:               ID:20100525044451 L   I
 2010-05-25-0442-18S.COL___108                                                 6
 STAT SP IPHASW D HRMM SECON CODA AMPLIT PERI AZIMU VELO SNR AR TRES W  DIS CAZ7
 BAR2 SZ IP        445 10.83                             167     0.310   31 193 
 BAR2 SZ ES   2    445 25.35                             167    -0.2 5   31 193 
 CHI  HZ EP   1    445 28.83                             115    -0.8 6  256 195 
 CHI  HN ES   1    445 58.76                             115    -0.7 6  256 195 
 CHI  HZ I         446  1.79        45.8 0.57                           256 195 
 ROSC BZ EP   1    445 30.70                             115     0.7 6  260 211 
 ROSC BE ES   1    446  0.15                             115     0.0 6  260 211 
 ROSC BZ I         446  5.67        68.0 0.32                           260 211 
 HEL  HZ EP   2    445 32.75                             113     0.9 4  276 255 
 HEL  HE ES   1    446  2.75                             113    -0.6 6  276 255 
 HEL  HZ I         446  9.12        32.4 0.29                           276 255 
 RREF BZ EP   1    445 37.78                             109    -0.3 5  328 229 
 RREF BN ES        446 15.24                             109     0.8 7  328 229 
 RREF BZ I         446 22.78        33.1 0.54                           328 229 
 DBB  SZ EP   1    445 39.10                             108     0.2 5  342 273 
 DBB  SZ ES   1    446 15.31                             108    -0.7 5  342 273 
 ANIL BZ EP   1    445 41.03                             107    -0.8 5  364 224 
 ANIL BE ES   2    446 21.94                             107     0.9 3  364 224 
 ANIL BZ I         446 30.88        70.4 0.29                           364 224 
                                                                                
