 2012  625 0329  6.5 L   6.770 -73.165145.1  RSN  6 0.4 1.4LRSN                1
 GAP=233        0.81       6.0     7.0  8.5  0.2212E+02  0.1363E+02  0.8916E+01E
 Epicentro: LOS SANTOS - SANTANDER                                             3
 ACTION:UPD 12-08-06 17:52 OP:ep   STATUS:               ID:20120625032906 L   I
 2012-06-25-0327-59S.COL___208                                                 6
 STAT SP IPHASW D HRMM SECON CODA AMPLIT PERI AZIMU VELO AIN AR TRES W  DIS CAZ7
 BAR2 SZ EP   1    329 25.89                             172   -0.04 7 19.7 185 
 BAR2 SZ I         329 26.30         7.1 0.11                          19.7 185 
 BAR2 SZ ES   1    329 40.34                             172   -0.79 7 19.7 185 
 BRR  HZ EP   1    329 27.75                             152    0.23 7 71.0 302 
 BRR  HZ I         329 27.91        10.7 0.18                          71.0 302 
 BRR  HN ES   1    329 44.66                             152    0.72 7 71.0 302 
 RUS  HZ EP   1    329 29.98                             145    0.07 7 97.4 175 
 RUS  HN ES   1    329 48.50                             145    0.29 7 97.4 175 
 RUS  HZ I         329 49.52         2.5 0.30                          97.4 175 
 PTB  HZ EP   1    329 32.64                             132   -0.48 7  145 260 
 PTB  HN ES   1    329 53.74                             132   -0.17 7  145 260 
 PTB  HZ I         329 55.48         2.3 0.14                           145 260 
 ZAR  HN ES   1    330  3.88                             122   -0.11 6  203 293 
 CHI  HN ES   1    330 13.01                             117    0.25 6  245 195 
                                                                                
