 2016  125 0707 39.2 L   6.805 -73.158139.6  RSN 10 0.4 1.7LRSN                1
 GAP=135        0.90       2.3     3.8  5.2 -0.9181E+00  0.6753E+01 -0.9594E+00E
 Epicentro: LOS SANTOS - SANTANDER                                             3
 ACTION:UPD 16-03-09 23:28 OP:cam  STATUS:               ID:20160125070739 L   I
 OLDACT:REG 16-01-25 15:04 OP:cara STATUS:               ID:20160125065749     3
 2016-01-25-0657-49M.COL___329                                                 6
 STAT SP IPHASW D HRMM SECON CODA AMPLIT PERI AZIMU VELO AIN AR TRES W  DIS CAZ7
 BAR2 EZ IP     C  7 7 58.12                             170    0.0710 23.7 186 
 BAR2 EZ ES        7 8 12.90                             170    0.1210 23.7 186 
 BAR2 EZ I         7 8 19.87         4.0 0.42            171           23.7 186 
 PAM  EZ IP     D  7 8  1.15                             149    0.4110 77.9  41 
 PAM  EN ES        7 8 17.80                             149    0.2210 77.9  41 
 PAM  EZ I         7 8 20.05         9.1 0.40            154           77.9  41 
 RUS  HZ EP        7 8  2.10                             142   -0.2510  101 175 
 RUS  HN ES        7 8 20.42                             142   -0.0210  101 175 
 RUS  HZ I         7 8 21.34         4.9 0.24            147            101 175 
 PTB  HZ EP        7 8  4.94                             131   -0.57 9  146 259 
 PTB  HN ES        7 8 26.06                             131   -0.00 9  146 259 
 PTB  HZ I         7 8 29.49         4.7 0.16            133            146 259 
 OCA  HZ EP        7 8  6.65                             128   -0.27 9  160 354 
 OCA  HN ES        7 8 28.19                             128   -0.39 9  160 354 
 OCA  HZ I         7 8 30.79        12.6 0.42            132            160 354 
 SPBC HZ EP        7 8  7.02                             128   -0.12 9  163 218 
 SPBC HN ES        7 8 28.49                             128   -0.48 9  163 218 
 SPBC HZ I         7 8 29.96         6.2 0.16            131            163 218 
 ZAR  HZ EP        7 8 11.56                             121    0.51 9  203 292 
 ZAR  HN ES        7 8 36.40                             121    0.48 9  203 292 
 ZAR  HZ I         7 8 42.33         6.8 0.64            124            203 292 
 SML  HZ IP        7 8 14.71                             116   -0.61 8  243 336 
 SML  HE ES        7 8 43.58                             116    0.05 8  243 336 
 SML  HZ I         7 8 46.97         7.6 0.10            119            243 336 
 CHI  HZ EP        7 8 17.14                             116    0.60 8  249 195 
 CHI  HE ES        7 8 45.59                             116   -0.10 8  249 195 
 CHI  HZ I         7 8 49.64         1.4 0.24            119            249 195 
 GUY2CHZ EP        7 8 23.04                             111    0.65 7  300 235 
 GUY2CHE ES   4    7 8 57.44                             111    1.33 0  300 235 
 GUY2CHZ I         7 9  3.46         2.1 0.22                           300 235 
                                                                                
