 2014  125 0915  7.8 L   6.829 -73.148136.3  RSN 14 0.4 1.8LRSN                1
 GAP=135        0.95       2.5     4.2  5.5 -0.3117E+01  0.8686E+01 -0.7832E+00E
 Epicentro: LOS SANTOS - SANTANDER                                             3
 ACTION:UPD 14-03-13 09:58 OP:ep   STATUS:               ID:20140125091507 L   I
 OLDACT:REG 14-01-25 08:33 OP:nd   STATUS:               ID:20140125091000     3
 2014-01-25-0910-00M.COL___285                                                 6
 STAT SP IPHASW D HRMM SECON CODA AMPLIT PERI AZIMU VELO AIN AR TRES W  DIS CAZ7
 BAR2 SZ EP        915 26.79                             168    0.4310 26.4 188 
 BAR2 SZ ES        915 40.24                             168   -0.6010 26.4 188 
 BAR2 SZ I         915 43.18        27.2 0.22            167           26.4 188 
 PAM  SZ EP        915 29.65                             150    0.7810 75.2  41 
 PAM  SN ES        915 44.94                             150   -0.3710 75.2  41 
 PAM  SZ I         915 49.08         7.3 0.48            154           75.2  41 
 RUS  HZ EP        915 30.75                             141   -0.1210  104 176 
 RUS  HN ES        915 49.26                             141    0.3910  104 176 
 RUS  HZ I         915 51.59         5.4 0.26            144            104 176 
 PTB  HZ EP        915 33.37                             130   -0.67 9  148 258 
 PTB  HN ES        915 54.47                             130   -0.04 9  148 258 
 PTB  HZ I         915 56.37         9.8 0.42            129            148 258 
 OCA  HZ EP        915 34.84                             128   -0.24 9  157 353 
 OCA  HN ES        915 56.97                             128    0.61 9  157 353 
 OCA  HZ I         916  1.43         8.6 0.50            129            157 353 
 SPBC HZ EP        915 35.76                             126   -0.05 9  165 218 
 SPBC HN ES        915 58.14                             126    0.48 9  165 218 
 SPBC HZ I         916  4.83        11.0 0.18            127            165 218 
 NOR  HZ EP        915 43.47                             116    0.30 8  236 234 
 NOR  HN ES        916 10.67                             116   -0.09 8  236 234 
 NOR  HZ I         916 15.78         5.8 0.38            117            236 234 
 SML  HZ EP        915 43.18                             116   -0.40 8  241 335 
 SML  HN ES        916 11.25                             116   -0.24 8  241 335 
 SML  HZ I         916 16.60         8.0 0.28            116            241 335 
 CHI  HZ EP        915 45.00                             115   -0.31 8  252 195 
 CHI  HN ES        916 14.10                             115   -0.48 8  252 195 
 CHI  HZ I         916 18.59         1.8 0.22            117            252 195 
 HEL  HZ EP   2    915 47.80                             113    0.20 4  273 255 
 HEL  HN ES   2    916 19.17                             113    0.53 4  273 255 
 HEL  HZ I         916 24.83         3.6 0.40            113            273 255 
 GUY2CHZ EP   2    915 51.26                             110    0.10 4  303 234 
 GUY2CHN ES   2    916 25.25                             110    0.26 4  303 234 
 GUY2CHZ I         916 35.13         3.0 0.26                           303 234 
 CBOC HZ EP   4    915 54.25                             108   -0.16 0  334 252 
 CBOC HN ES   4    916 30.17                             108   -0.61 0  334 252 
 CBOC HZ I         916 42.49         1.5 0.76            109            334 252 
 PRA  HZ EP        916  1.39                             105    0.08 6  395 209 
 PRA  HN ES   2    916 43.11                             105    0.06 3  395 209 
 PRA  HZ I         916 47.27         2.9 0.26            106            395 209 
 SJC  HZ EP   4    916  0.66                             104   -2.07 0  406 327 
 SJC  HN ES   4    916 41.07                             104   -4.51 0  406 327 
 SJC  HZ I         916 56.98         1.9 0.56            105            406 327 
                                                                                
