 2015  125 0543 37.2 L   6.749 -73.187155.6  RSN  4 0.2 0.8LRSN                1
 GAP=229        0.53       5.5     5.7  6.4  0.1588E+02 -0.4243E+01  0.2812E+01E
 Epicentro: VILLANUEVA - SANTANDER                                             3
 ACTION:UPD 15-03-02 15:42 OP:nd   STATUS:               ID:20150125054337 L   I
 OLDACT:REG 15-01-25 12:38 OP:spq  STATUS:               ID:20150125053745     3
 2015-01-25-0537-45M.COL___271                                                 6
 STAT SP IPHASW D HRMM SECON CODA AMPLIT PERI AZIMU VELO AIN AR TRES W  DIS CAZ7
 BAR2 EZ EP   1    543 57.58                             173   -0.34 7 17.4 178 
 BRR  HZ EP   1    543 59.43                             154    0.06 7 70.2 304 
 BRR  HN ES        544 16.73                             154    0.0710 70.2 304 
 BRR  HZ I         544 19.44         1.7 0.34            156           70.2 304 
 RUS  HZ EP   1    544  1.48                             147   -0.11 7 95.4 173 
 RUS  HE ES   1    544 20.79                             147    0.18 7 95.4 173 
 RUS  HZ I         544 22.08         0.6 0.36            150           95.4 173 
 PTB  HZ EP   1    544  4.92                             135    0.41 7  142 261 
 PTB  HN ES   1    544 25.51                             135   -0.30 7  142 261 
 PTB  HZ I         544 27.36         1.0 0.14            137            142 261 
                                                                                
