 2015  825 0831 43.9 L   6.803 -73.076146.0  RSN  8 0.4 1.7LRSN                1
 GAP=190        0.92       2.5     6.2  5.4 -0.8653E+00  0.5068E+01 -0.3463E+00E
 Epicentro: LOS SANTOS - SANTANDER                                             3
 ACTION:UPD 15-09-15 23:05 OP:cam  STATUS:               ID:20150825083143 L   I
 OLDACT:DUP 15-08-25 16:37 OP:ak   STATUS:               ID:20150825082738d    3
 2015-08-25-0827-37M.COL___334                                                 6
 STAT SP IPHASW D HRMM SECON CODA AMPLIT PERI AZIMU VELO AIN AR TRES W  DIS CAZ7
 BAR2 EZ EP        832  4.02                             169    0.3710 26.0 207 
 BAR2 EZ ES        832 18.79                             169   -0.2410 26.0 207 
 BAR2 EZ I         832 20.67        13.2 0.24            170           26.0 207 
 BRR  HZ EP        832  5.75                             150    0.2510 77.9 296 
 BRR  HN ES        832 22.95                             150    0.6310 77.9 296 
 BRR  HZ I         832 23.83         6.4 0.28            149           77.9 296 
 RUS  HZ EP        832  8.06                             144    0.3510  101 180 
 RUS  HN ES        832 26.27                             144    0.0110  101 180 
 RUS  HZ I         832 27.91         7.6 0.28            146            101 180 
 OCA  HZ EP        832 12.20                             130   -0.14 9  161 350 
 OCA  HN ES        832 34.18                             130   -0.31 9  161 350 
 OCA  HZ I         832 37.95        10.1 0.32            130            161 350 
 SPBC HZ EP        832 12.71                             128   -0.24 9  168 221 
 SPBC HN ES        832 35.01                             128   -0.56 9  168 221 
 SPBC HZ I         832 37.59         6.9 0.21            129            168 221 
 SML  HZ EP        832 20.95                             117    0.04 8  247 334 
 SML  HN ES        832 49.15                             117   -0.59 8  247 334 
 SML  HZ I         832 56.34         5.3 0.11            118            247 334 
 CHI  HZ EP        832 21.67                             117   -0.24 8  251 197 
 CHI  HN ES        832 51.07                             117   -0.45 8  251 197 
 GUY2CHZ EP        832 28.95                             112    0.66 7  308 236 
 GUY2CHN ES        833  3.08                             112    0.20 7  308 236 
 GUY2CHZ I         833 10.16         1.7 0.30                           308 236 
                                                                                
