 2016  725 0908 46.3 L   6.856 -73.274124.1  RSN  8 0.3 1.5LRSN                1
 GAP=221        0.65       2.9     3.7  4.2  0.4387E+01  0.7101E+01  0.1663E+01E
 Epicentro: ZAPATOCA - SANTANDER                                               3
 ACTION:UPD 17-03-29 16:55 OP:lp   STATUS:               ID:20160725090846 L   I
 OLDACT:UP  16-07-25 17:27 OP:ar   STATUS:               ID:20160725090760d    3
 OLDACT:DUP 16-07-25 17:19 OP:ar   STATUS:               ID:20160725090760d    3
 2016-07-25-0907-59S.COL___331                                                 6
 STAT SP IPHASW D HRMM SECON CODA AMPLIT PERI AZIMU VELO AIN AR TRES W  DIS CAZ7
 BAR2 EZ IP     D  9 9  3.83                             165    0.2610 30.8 161 
 BAR2 EZ ES        9 9 16.73                             165   -0.2910 30.8 161 
 BRR  HZ EP        9 9  4.32                             154    0.0410 55.8 300 
 BRR  HN ES        9 9 18.28                             154   -0.0010 55.8 300 
 BRR  HZ I         9 9 19.92        10.0 0.15            153           55.8 300 
 RUS  HZ EP        9 9  8.65                             136   -0.0310  109 169 
 RUS  HN ES        9 9 26.47                             136    0.3610  109 169 
 RUS  HZ I         9 9 28.44         3.1 0.22            137            109 169 
 SPBC HZ EP        9 9 12.72                             124   -0.20 9  160 214 
 SPBC HN ES        9 9 33.21                             124   -0.45 9  160 214 
 SPBC HZ I         9 9 35.05         8.5 0.14            125            160 214 
 ZAR  HZ EP        9 9 15.81                             119    0.00 9  189 292 
 ZAR  HN ES        9 9 39.07                             119    0.27 9  189 292 
 ZAR  HZ I         9 9 41.00         4.4 0.28            120            189 292 
 HEL  HZ EP        9 9 24.10                             111   -0.06 8  260 254 
 HEL  HN ES   4    9 9 55.72                             111    2.05 0  260 254 
 HEL  HZ I         9 9 57.19         2.1 0.28            112            260 254 
 URE  HZ EP        9 9 24.36                             110   -0.31 8  268 292 
 URE  HN ES   4    9 9 51.97                             110   -2.60 0  268 292 
 GUY2CHZ EP   4    9 9 30.67                             108    2.53 0  293 232 
 GUY2CHN ES        910  1.19                             108    0.44 7  293 232 
 GUY2CHZ I         910  7.59         1.0 0.45                           293 232 
                                                                                
