 2015  425 0508 17.1 L   6.799 -73.148148.6  RSN  6 0.5 1.6LRSN                1
 GAP=201        1.25       6.7     8.6  9.3  0.2439E+02  0.9511E+01 -0.1864E+02E
 Epicentro: LOS SANTOS - SANTANDER                                             3
 ACTION:UPD 15-06-03 16:57 OP:cam  STATUS:               ID:20150425050817 L   I
 OLDACT:UP  15-04-25 16:21 OP:cam  STATUS:               ID:20150425045746     3
 OLDACT:REG 15-04-25 14:09 OP:ak   STATUS:               ID:20150425045746     3
 2015-04-25-0457-46M.COL___271                                                 6
 STAT SP IPHASW D HRMM SECON CODA AMPLIT PERI AZIMU VELO AIN AR TRES W  DIS CAZ7
 BAR2 EZ ES        5 8 51.78                             171   -0.8610 23.2 189 
 BAR2 EZ I         5 8 53.27         8.2 0.24            175           23.2 189 
 BRR  HZ EP        5 8 39.08                             153    0.5310 71.0 299 
 BRR  HE ES        5 8 56.22                             153    0.9510 71.0 299 
 BRR  HZ I         5 9  3.26         5.4 0.16            151           71.0 299 
 RUS  HZ EP   1    5 8 41.69                             144    0.57 7  100 176 
 RUS  HN ES        5 8 59.85                             144   -0.0110  100 176 
 RUS  HZ I         5 9  0.69         3.7 0.30            153            100 176 
 PTB  HZ EP        5 8 44.23                             133   -0.05 9  147 259 
 PTB  HN ES        5 9  5.29                             133   -0.18 9  147 259 
 PTB  HZ I         5 9  8.03         5.1 0.18            135            147 259 
 ZAR  HZ EP        5 8 49.22                             123   -0.49 9  204 292 
 ZAR  HN ES        5 9 15.01                             123   -0.14 9  204 292 
 ZAR  HZ I         5 9 22.12         4.2 0.54            125            204 292 
 SML  HZ EP   1    5 8 53.64                             118   -0.25 6  244 335 
 SML  HN ES        5 9 22.28                             118   -0.30 8  244 335 
 SML  HZ I         5 9 31.99         5.4 0.24            119            244 335 
                                                                                
