 2013  925 0216 22.9 L   6.874 -73.295125.6  RSN 18 0.5 2.5LRSN                1
 GAP= 61        1.13       2.8     3.4  5.4 -0.7086E+00  0.3601E+01 -0.5611E+00E
 Epicentro: BETULIA - SANTANDER                                                3
 ACTION:UPD 13-10-22 09:24 OP:ep   STATUS:               ID:20130925021622 L   I
 OLDACT:REG 13-09-25 07:42 OP:nd   STATUS:               ID:20130925020959     3
 2013-09-25-0209-59M.COL___269                                                 6
 STAT SP IPHASW D HRMM SECON CODA AMPLIT PERI AZIMU VELO AIN AR TRES W  DIS CAZ7
 BAR2 SZ IP     C  216 40.48                             164    0.0410 33.5 158 
 BAR2 SZ ES        216 53.71                             164   -0.3810 33.5 158 
 BAR2 SZ I         216 54.71       221.2 0.20            166           33.5 158 
 BRR  HZ IP     C  216 40.89                             156   -0.0010 52.8 299 
 BRR  HN ES        216 54.93                             156    0.0310 52.8 299 
 BRR  HZ I         216 55.65       131.5 0.12            151           52.8 299 
 PAM  SZ EP        216 44.01                             144    0.5410 83.5  52 
 PAM  SN ES        216 59.77                             144    0.2810 83.5  52 
 PAM  SZ I         217  2.79        41.0 0.30            144           83.5  52 
 RUS  HZ EP        216 45.25                             136   -0.3710  111 168 
 RUS  HN ES        217  2.69                             136   -0.6310  111 168 
 RUS  HZ I         217  4.07        32.1 0.28            136            111 168 
 PTB  HZ IP   4 D  216 45.73                             130   -1.26 0  134 254 
 PTB  HN ES   4    217  3.58                             130   -2.18 0  134 254 
 PTB  HZ I         217  9.48        49.3 0.38            127            134 254 
 OCA  HZ EP        216 48.52                             126   -0.32 9  151 359 
 OCA  HN ES   2    217  9.03                             126   -0.01 5  151 359 
 OCA  HZ I         217 15.70        52.0 0.18            124            151 359 
 SPBC HZ EP        216 49.02                             125   -0.65 9  160 213 
 SPBC HN ES        217 10.71                             125    0.19 9  160 213 
 SPBC HZ I         217 16.20        33.7 0.50            123            160 213 
 TAM  HZ IP     D  216 51.39                             122    0.46 9  173 106 
 TAM  HN ES        217 13.14                             122    0.38 9  173 106 
 TAM  HZ I         217 18.28        19.7 0.32            122            173 106 
 ZAR  HZ EP        216 52.65                             120    0.45 9  186 292 
 ZAR  HN ES        217 15.70                             120    0.68 9  186 292 
 ZAR  HZ I         217 20.02        55.1 0.28            117            186 292 
 NOR  HZ EP        216 55.71                             115   -0.98 8  227 230 
 NOR  HN ES        217 23.72                             115    0.71 8  227 230 
 NOR  HZ I         217 28.59        22.1 0.18            113            227 230 
 SML  HZ EP        216 56.23                             114   -0.72 8  230 338 
 SML  HN ES   4    217 25.39                             114    1.91 0  230 338 
 SML  HZ I         217 28.12        76.9 0.09            112            230 338 
 CHI  HZ EP        217  0.59                             112    0.51 8  253 191 
 CHI  HN ES        217 28.96                             112   -0.09 8  253 191 
 CHI  HZ I         217 34.47        15.2 0.52            111            253 191 
 URE  HZ EP   4    216 59.80                             111   -1.21 0  265 292 
 URE  HN ES   4    217 28.10                             111   -2.60 0  265 292 
 URE  HZ I         217 40.58        29.8 0.16            109            265 292 
 RREF HZ EP   4    217  8.19                             107    0.68 0  315 226 
 RREF HN ES   4    217 43.07                             107    0.80 0  315 226 
 RREF HZ I         217 50.14         7.1 0.20            106            315 226 
 CBOC HZ EP   4    217  8.05                             107    0.46 0  321 250 
 CBOC HN ES   4    217 42.70                             107    0.29 0  321 250 
 CBOC HZ I         217 45.05         4.8 0.32            105            321 250 
 COD  HZ EP        217  9.71                             105    0.21 7  339 357 
 COD  HN ES        217 45.07                             105   -0.74 7  339 357 
 COD  HZ I         217 53.58         8.1 0.34            104            339 357 
 ARGC HZ EP   4    217 11.51                             105    1.14 0  346 342 
 ARGC HN ES   4    217 48.33                             105    0.97 0  346 342 
 ARGC HZ I         217 56.38         8.0 0.30            104            346 342 
 PRA  HZ EP        217 16.47                             103    0.70 6  391 207 
 PRA  HN ES   2    217 56.55                             103   -0.42 3  391 207 
 PRA  HZ I         218  2.28         8.3 0.24            102            391 207 
                                                                                
