 2012  625 0919 36.3 L   6.778 -73.113135.0  RSN  5 0.4 1.8LRSN                1
 GAP=243        0.74       8.2    11.7 15.2 -0.7770E+02 -0.4304E+02  0.5413E+02E
 Epicentro: LOS SANTOS - SANTANDER                                             3
 ACTION:UPD 12-08-06 17:52 OP:ep   STATUS:               ID:20120625091936 L   I
 2012-06-25-0920-00M.COL___198                                                 6
 STAT SP IPHASW D HRMM SECON CODA AMPLIT PERI AZIMU VELO AIN AR TRES W  DIS CAZ7
 PTB  HN ES   1    920 22.99                             129   -0.30 8  151 260 
 PTB  HZ I         920 25.54         7.8 0.19                           151 260 
 OCA  HN ES        920 25.73                             126    0.0010  163 352 
 ZAR  HZ EP   1    920  8.08                             119   -0.43 7  208 292 
 ZAR  HN ES   1    920 34.20                             119    0.56 7  208 292 
 NOR  SE ES   1    920 39.62                             116    0.50 7  236 235 
 HEL  HZ EP   1    920 16.66                             112    0.36 6  275 256 
 HEL  HN ES   1    920 46.87                             112   -0.65 6  275 256 
 HEL  HZ I         920 54.58         4.4 0.41                           275 256 
                                                                                
