 2017  925 0420  2.1 L   6.818 -73.109151.6  RSN 15 0.5 1.9LRSN                1
 GAP=156        1.03       3.7     4.5  5.4  0.6649E+01  0.3420E+01  0.1461E+01E
 Epicentro: LOS SANTOS - SANTANDER                                             3
 ACTION:UPD 17-10-05 19:15 OP:rebc STATUS:               ID:20170925042002 L   I
 OLDACT:UP  17-09-25 15:52 OP:edw  STATUS:               ID:20170925041744     3
 OLDACT:REG 17-09-25 12:58 OP:edw  STATUS:               ID:20170925041744     3
 2017-09-25-0418-00M.COL___411                                                 6
 STAT SP IPHASW D HRMM SECON CODA AMPLIT PERI AZIMU VELO AIN AR TRES W  DIS CAZ7
 BAR2 EZ EP        420 22.43                             170   -0.0910 26.2 198 
 BAR2 EZ ES        420 37.92                             170   -0.5010 26.2 198 
 BAR2 EZ I         420 40.12        19.3 0.24            165           26.2 198 
 BRR  HZ EP        420 24.34                             153    0.2810 73.9 296 
 BRR  HE ES        420 41.87                             153    0.7110 73.9 296 
 BRR  HZ I         420 44.76        12.4 0.38            149           73.9 296 
 RUS  HZ EP        420 27.06                             145    0.4810  102 178 
 RUS  HN ES        420 45.34                             145   -0.3110  102 178 
 RUS  HZ I         420 45.95        10.4 0.22            143            102 178 
 YPLC HZ EP        420 32.50                             128    0.16 9  177 153 
 YPLC HN ES        420 56.15                             128    0.25 9  177 153 
 YPLC HZ I         420 57.44        10.1 0.26            129            177 153 
 ZAR  HZ EP        420 35.10                             123   -0.17 8  207 291 
 ZAR  HN ES        421  0.72                             123   -0.40 8  207 291 
 ZAR  HZ I         421  6.93         8.2 0.46            122            207 291 
 CHI  HZ EP        420 40.77                             118    0.29 8  252 196 
 CHI  HN ES        421  9.80                             118   -0.59 8  252 196 
 CHI  HZ I         421 15.47         4.2 0.40            118            252 196 
 ROSC BZ EP   4    420 42.66                             117    1.67 0  257 212 
 ROSC BE ES        421 11.63                             117    0.34 8  257 212 
 ROSC BZ I         421 15.57         5.2 0.55            117            257 212 
 HEL  HZ EP        420 43.83                             115    0.70 7  277 256 
 HEL  HN ES        421 14.72                             115   -0.39 7  277 256 
 HEL  HZ I         421 21.32         6.0 0.26            115            277 256 
 URE  HZ EP        420 43.19                             114   -0.64 7  287 291 
 URE  HN ES   4    421 14.84                             114   -1.51 0  287 291 
 URE  HZ I         421 18.45         5.5 0.16            114            287 291 
 GUY2CHZ EP   4    420 48.15                             113    1.64 0  306 235 
 GUY2CHN ES   4    421 23.06                             113    1.93 0  306 235 
 GUY2CHZ I         421 28.79         5.7 0.28                           306 235 
 PTGC HZ EP        420 45.54                             113   -0.76 7  309 159 
 PTGC HN ES   4    421 18.69                             113   -2.06 0  309 159 
 LL6C HZ EP        420 47.85                             112   -0.03 7  323 357 
 LL6C HN ES   4    421 26.02                             112    2.45 0  323 357 
 CBOC HZ EP   4    420 51.65                             111    1.85 0  338 252 
 CBOC HN ES   4    421 25.37                             111   -1.62 0  338 252 
 CBOC HZ I         421 32.86         2.1 0.50            110            338 252 
 PRA  HZ EP        420 55.80                             107   -0.49 6  396 210 
 PRA  HN ES        421 39.23                             107    0.69 6  396 210 
 PRA  HZ I         421 46.66         3.6 0.28            107            396 210 
 SJC  HZ EP   4    420 56.84                             107   -1.12 0  410 326 
 SJC  HN ES   4    421 37.79                             107   -3.71 0  410 326 
 SJC  HZ I         421 42.76         1.4 0.50            107            410 326 
                                                                                
