 2012 1025 0338 22.7 L   6.944 -73.106148.7  RSN  5 0.4 1.8LRSN                1
 GAP=239        0.69      11.6     7.1 13.9 -0.2148E+01  0.4711E+01  0.5208E+02E
 Epicentro: PIEDECUESTA - SANTANDER                                            3
 ACTION:UPD 12-11-22 17:05 OP:ep   STATUS:               ID:20121025033822 L   I
 2012-10-25-0330-00M.COL___234                                                 6
 STAT SP IPHASW D HRMM SECON CODA AMPLIT PERI AZIMU VELO AIN AR TRES W  DIS CAZ7
 GIR2 SZ EP   1    338 41.98                             173   -0.47 7 17.8 327 
 PAM  SZ EP   1    338 44.91                             156    0.46 7 62.7  46 
 PAM  SN ES   2    339  1.69                             156    0.29 5 62.7  46 
 PAM  SN I         339  3.10         3.1 0.19                          62.7  46 
 BRR  HZ EP   1    338 43.94                             154   -0.13 7 69.3 285 
 BRR  HN ES   2    339  0.57                             154   -0.16 5 69.3 285 
 BRR  HN I         339  4.83        51.9 0.21                          69.3 285 
 OCA  HN ES   2    339 10.61                             133   -0.45 5  145 351 
 ZAR  HN ES   2    339 21.35                             123    0.78 4  203 288 
                                                                                
