 2012  125 0052 19.1 L   6.733 -73.197150.2  RSN  7 0.3 1.8LRSN                1
 GAP=172        0.75       5.4     6.5  8.6  0.1290E+02 -0.4143E+01  0.4165E+01E
 Epicentro: VILLANUEVA - SANTANDER                                             3
 ACTION:UP  12-02-03 08:20 OP:REBC STATUS:               ID:20120125005219 L   I
 2012-01-25-0050-00M.COL___188                                                 6
 STAT SP IPHASW D HRMM SECON CODA AMPLIT PERI AZIMU VELO SNR AR TRES W  DIS CAZ7
 BAR2 SZ EP   1    052 39.09                             174    -0.1 7   16 174 
 BAR2 SZ I         052 56.82        13.5 0.30                            16 174 
 GIR2 SZ EP   1    052 39.31                             165    -0.2 7   38   1 
 BRR  HZ EP        052 40.97                             153     0.210   70 306 
 BRR  HE ES   1    052 58.05                             153     0.5 7   70 306 
 BRR  HZ I         053 10.98        14.9 0.32                            70 306 
 RUS  HZ EP   1    052 42.77                             147    -0.1 7   94 172 
 RUS  HE ES   1    053  1.05                             147    -0.3 7   94 172 
 PTB  HZ EP   1    052 45.39                             134    -0.5 7  141 261 
 PTB  HN ES   1    053  6.45                             134    -0.3 7  141 261 
 ZAR  HE ES   2    053 16.79                             124    -0.2 4  202 295 
 ZAR  HZ I         053 23.19         7.3 0.35                           202 295 
 CHI  HZ EP   1    052 56.75                             119     0.6 6  240 194 
 CHI  HN ES   2    053 25.50                             119     0.5 4  240 194 
 CHI  HZ I         053 34.73         2.7 0.32                           240 194 
                                                                                
