 2017  325 0708 54.7 L   6.785 -73.143146.0  RSN 13 0.5 2.2LRSN                1
 GAP=120        1.00       3.6     3.8  5.2  0.4265E+00  0.4037E+01  0.5077E+01E
 Epicentro: LOS SANTOS - SANTANDER                                             3
 ACTION:UPD 17-05-25 18:44 OP:jn   STATUS:               ID:20170325070854 L   I
 OLDACT:UP  17-03-25 14:36 OP:dani STATUS:               ID:20170325070642     3
 OLDACT:UP  17-03-25 14:35 OP:dani STATUS:               ID:20170325070642     3
 OLDACT:REG 17-03-25 12:42 OP:dani STATUS:               ID:20170325070642     3
 2017-03-25-0707-00M.COL___352                                                 6
 STAT SP IPHASW D HRMM SECON CODA AMPLIT PERI AZIMU VELO AIN AR TRES W  DIS CAZ7
 BAR2 EZ EP     D  7 9 14.29                             171   -0.0010 21.7 191 
 BAR2 EZ ES        7 9 29.46                             171   -0.1410 21.7 191 
 BAR2 EZ I         7 9 30.30        30.6 0.28            169           21.7 191 
 BRR  HZ EP     C  7 9 16.26                             152    0.3610 72.2 300 
 BRR  HE ES        7 9 33.21                             152    0.7510 72.2 300 
 BRR  HZ I         7 9 36.15        20.9 0.14            149           72.2 300 
 PAM  EZ EP        7 9 17.20                             151    0.2310 78.5  39 
 PAM  EE ES        7 9 34.07                             151   -0.3010 78.5  39 
 PAM  EZ I         7 9 36.33        44.2 0.54            154           78.5  39 
 RUS  HZ EP        7 9 18.31                             145   -0.0110 98.9 176 
 RUS  HE ES        7 9 37.03                             145    0.2610 98.9 176 
 RUS  HZ I         7 9 37.78        15.6 0.30            145           98.9 176 
 PTB  HZ EP        7 9 21.15                             132   -0.50 9  148 259 
 PTB  HN ES        7 9 41.91                             132   -0.78 9  148 259 
 PTB  HZ I         7 9 44.21        12.6 0.30            130            148 259 
 SPBC HZ EP        7 9 23.29                             130    0.21 9  162 219 
 SPBC HE ES        7 9 45.47                             130    0.24 9  162 219 
 SPBC HZ I         7 9 50.94        19.6 0.40            128            162 219 
 ZAR  HZ EP   3    7 9 28.54                             123    1.32 2  205 293 
 ZAR  HE ES        7 9 52.61                             123    0.01 9  205 293 
 ZAR  HZ I         7 9 58.34        14.5 0.26            121            205 293 
 CHI  HZ EP        7 9 31.53                             118   -0.68 8  247 195 
 CHI  HE ES        710  1.66                             118    0.17 8  247 195 
 CHI  HZ I         710  4.88         5.3 0.38            117            247 195 
 URE  HZ EP        7 9 35.38                             114   -0.46 7  285 292 
 URE  HE ES   4    710  5.79                             114   -2.17 0  285 292 
 URE  HZ I         710 19.26         9.9 0.20            113            285 292 
 PTGC HZ EP        7 9 37.48                             112   -0.87 7  307 159 
 PTGC HE ES   4    710 10.29                             112   -2.13 0  307 159 
 PTGC HZ I         710 13.22         8.4 0.50            112            307 159 
 CBOC HZ EP   3    7 9 43.21                             110    1.65 2  333 252 
 CBOC HE ES        710 17.97                             110   -0.16 7  333 252 
 CBOC HZ I         710 22.17         3.1 0.44            109            333 252 
 PRA  HZ EP        7 9 48.71                             107    0.67 6  391 210 
 PRA  HE ES   3    710 30.86                             107    1.19 1  391 210 
 PRA  HZ I         710 36.20         8.2 0.30            107            391 210 
 ORTC HZ EP        7 9 49.23                             107    0.78 6  394 216 
 ORTC HN ES   3    710 32.37                             107    1.96 1  394 216 
 ORTC HZ I         710 38.63         5.1 0.26            106            394 216 
                                                                                
