 2016 1125 0112 18.5 L   6.785 -73.102150.0  RSN 12 0.4 1.8LRSN                1
 GAP= 98        0.90       3.7     3.5  5.1 -0.8756E+00  0.2593E+01  0.8588E+01E
 Epicentro: LOS SANTOS - SANTANDER                                             3
 ACTION:UPD 17-10-26 21:11 OP:lp   STATUS:               ID:20161125011218 L   I
 OLDACT:UP  16-11-25 14:30 OP:edw  STATUS:               ID:20161125010748     3
 OLDACT:UP  16-11-25 14:29 OP:edw  STATUS:               ID:20161125010748     3
 OLDACT:REG 16-11-25 12:15 OP:edw  STATUS:               ID:20161125010748     3
 2016-11-25-0108-00M.COL___355                                                 6
 STAT SP IPHASW D HRMM SECON CODA AMPLIT PERI AZIMU VELO AIN AR TRES W  DIS CAZ7
 BAR2 EZ EP        112 38.27                             171   -0.3510 23.1 203 
 BAR2 EZ ES        112 54.57                             171    0.2510 23.1 203 
 BAR2 EZ I         112 58.94         6.6 0.17            168           23.1 203 
 PAM  EZ EP        112 41.20                             152    0.1410 75.7  36 
 PAM  EN ES        112 58.32                             152   -0.3410 75.7  36 
 PAM  EZ I         113  0.17        14.4 0.52            156           75.7  36 
 BRR  HZ EP        112 40.13                             151   -0.2510 76.3 298 
 BRR  HN ES        112 57.54                             151    0.0910 76.3 298 
 BRR  HZ I         112 59.40        10.8 0.12            151           76.3 298 
 TAM  HZ EP   2    112 46.43                             132    0.40 5  150 105 
 TAM  HE ES   2    113  8.44                             132    0.92 5  150 105 
 PTB  HZ EP   9    112 44.95                             132   -1.25 0  152 260 
 PTB  HN ES        113  5.88                             132   -0.69 9  152 260 
 PTB  HZ I         113 12.21         8.3 0.21            132            152 260 
 ZAR  HZ EP        112 52.58                             122    0.85 8  209 292 
 ZAR  HE ES        113 17.32                             122   -0.35 8  209 292 
 ZAR  HZ I         113 22.53         9.8 0.21            124            209 292 
 NOR  HZ EP   2    112 54.40                             119   -0.38 4  238 235 
 NOR  HN ES   2    113 23.34                             119    0.25 4  238 235 
 NOR  HZ I         113 24.84         4.4 0.22            120            238 235 
 CHI  HZ EP        112 56.61                             118    0.22 8  248 196 
 CHI  HN ES        113 25.93                             118   -0.02 8  248 196 
 PTGC HZ EP        113  1.19                             112   -0.97 7  305 159 
 PTGC HN ES   4    113 34.83                             112   -1.39 0  305 159 
 CBOC HZ EP        113  6.53                             110    0.48 7  338 253 
 CBOC HN ES        113 43.11                             110   -0.03 7  338 253 
 CBOC HZ I         113 47.70         1.3 0.16            111            338 253 
 PRA  HZ EP        113 12.24                             107   -0.02 6  393 210 
 PRA  HN ES        113 54.19                             107   -0.02 6  393 210 
 PRA  HZ I         113 57.76         1.5 0.27            108            393 210 
 ORTC HZ EP        113 12.32                             107   -0.41 6  397 217 
 ORTC HN ES        113 55.49                             107    0.45 6  397 217 
 ORTC HZ I         114  3.01         2.3 0.34            108            397 217 
 SJC  HZ EP   4    113 12.00                             106   -2.66 0  413 327 
 SJC  HE ES   4    113 54.08                             106   -4.40 0  413 327 
                                                                                
