 2015  325 0432  6.8 L   6.780 -73.121145.3  RSN  6 0.3 1.0LRSN                1
 GAP=141        0.75       4.7     4.1  6.7  0.5255E+00  0.5275E+01  0.4792E+01E
 Epicentro: LOS SANTOS - SANTANDER                                             3
 ACTION:UPD 15-04-30 16:29 OP:nd   STATUS:               ID:20150325043206 L   I
 OLDACT:REG 15-03-25 12:53 OP:fm   STATUS:               ID:20150325042744     3
 2015-03-25-0427-44M.COL___278                                                 6
 STAT SP IPHASW D HRMM SECON CODA AMPLIT PERI AZIMU VELO AIN AR TRES W  DIS CAZ7
 BAR2 EZ EP        432 26.22                             171   -0.0910 21.8 198 
 BAR2 EZ ES   1    432 40.89                             171   -0.67 7 21.8 198 
 BAR2 EZ I         432 44.45         2.2 0.48            171           21.8 198 
 BRR  HZ EP   1    432 27.89                             151   -0.18 7 74.7 299 
 BRR  HN ES        432 44.99                             151    0.3110 74.7 299 
 BRR  HZ I         432 48.19         3.0 0.58            151           74.7 299 
 PAM  SZ EP   1    432 29.32                             151    0.38 7 77.5  37 
 PAM  SN ES        432 46.17                             151   -0.0610 77.5  37 
 PAM  SZ I         432 48.07         2.5 0.49            154           77.5  37 
 RUS  HZ EP   1    432 30.62                             144    0.32 7 98.2 178 
 RUS  HN ES   1    432 48.92                             144    0.26 7 98.2 178 
 RUS  HZ I         432 50.29         1.3 0.28            148           98.2 178 
 PTB  HZ EP   1    432 33.25                             131   -0.65 7  150 260 
 PTB  HN ES   1    432 55.37                             131    0.30 7  150 260 
 PTB  HZ I         432 57.27         1.0 0.13            133            150 260 
 ZAR  HN ES   1    433  4.98                             122   -0.11 6  207 292 
 ZAR  HZ I         433  9.52         1.2 0.47            124            207 292 
                                                                                
