 2017  125 0328 57.6 L   6.778 -73.185141.7  RSN  4 0.3 1.0LRSN                1
 GAP=133        0.76       4.1     3.9  6.8 -0.1765E+01  0.2114E+01  0.3852E+01E
 Epicentro: LOS SANTOS - SANTANDER                                             3
 ACTION:UPD 17-05-22 16:03 OP:jn   STATUS:               ID:20170125032857 L   I
 OLDACT:DUP 17-01-25 14:31 OP:lv   STATUS:               ID:20170125031741d    3
 2017-01-25-0318-00M.COL___355                                                 6
 STAT SP IPHASW D HRMM SECON CODA AMPLIT PERI AZIMU VELO AIN AR TRES W  DIS CAZ7
 BRR  HZ EP        329 18.42                             153    0.2310 68.7 302 
 BRR  HE ES        329 34.46                             153    0.2210 68.7 302 
 BRR  HZ I         329 38.37         4.5 0.34            153           68.7 302 
 PAM  EZ EP        329 19.72                             149    0.0210 82.0  41 
 PAM  EE ES        329 36.68                             149   -0.2410 82.0  41 
 RUS  HZ EP        329 21.24                             143    0.4110 98.6 173 
 RUS  HN ES        329 38.77                             143   -0.1610 98.6 173 
 RUS  HZ I         329 40.72         1.0 0.28            146           98.6 173 
 PTB  HZ EP        329 23.28                             132   -0.55 9  143 259 
 PTB  HN ES        329 44.26                             132   -0.01 9  143 259 
 PTB  HZ I         329 47.51         1.3 0.15            134            143 259 
                                                                                
