 2016 1025 0609  8.7 L   6.799 -73.065149.2  RSN  4 0.4 1.4LRSN                1
 GAP=246        1.07       6.9    10.8  8.8  0.2187E+02  0.9130E+01  0.9362E+01E
 Epicentro: LOS SANTOS - SANTANDER                                             3
 ACTION:UPD 16-11-09 19:22 OP:rebc STATUS:               ID:20161025060908 L   I
 OLDACT:REG 16-10-25 13:29 OP:cara STATUS:               ID:20161025060741     3
 2016-10-25-0608-00M.COL___352                                                 6
 STAT SP IPHASW D HRMM SECON CODA AMPLIT PERI AZIMU VELO AIN AR TRES W  DIS CAZ7
 BAR2 EZ ES        6 9 44.28                             170   -0.1710 26.3 210 
 BAR2 EZ I         6 9 47.08         8.5 0.30            167           26.3 210 
 BRR  HZ EP        6 9 29.91                             150   -0.7310 79.2 296 
 BRR  HN ES        6 9 48.30                             150    0.5110 79.2 296 
 BRR  HZ I         6 9 51.29         4.2 0.32            150           79.2 296 
 RUS  HZ EP        6 9 33.12                             145    0.4010  100 181 
 RUS  HN ES        6 9 51.41                             145   -0.0810  100 181 
 RUS  HZ I         6 9 53.31         2.2 0.22            146            100 181 
 SPBC HZ EP        6 9 38.32                             129    0.37 9  169 221 
 SPBC HN ES        610  0.53                             129   -0.28 9  169 221 
 SPBC HZ I         610  4.46         3.4 0.14            130            169 221 
                                                                                
