 2013 1225 0112 58.0 L   6.771 -73.322178.0  RSN  7 0.5 1.9LRSN                1
 GAP=117        1.02       6.0     6.8 11.9 -0.1765E+02  0.2038E+02 -0.3962E+01E
 Epicentro: ZAPATOCA - SANTANDER                                               3
 ACTION:UPD 14-01-13 10:20 OP:ep   STATUS:               ID:20131225011258 L   I
 OLDACT:UP  13-12-26 10:50 OP:ep   STATUS:               ID:20131225011258 L   3
 OLDACT:UP  13-12-25 10:44 OP:mh   STATUS:               ID:20131225011000     3
 OLDACT:UP  13-12-25 10:43 OP:mh   STATUS:               ID:20131225011000     3
 OLDACT:UP  13-12-25 10:43 OP:mh   STATUS:               ID:20131225011000     3
 OLDACT:UP  13-12-25 10:35 OP:mh   STATUS:               ID:20131225011000     3
 OLDACT:REG 13-12-25 08:09 OP:mh   STATUS:               ID:20131225011000     3
 2013-12-25-0110-00M.COL___285                                                 6
 STAT SP IPHASW D HRMM SECON CODA AMPLIT PERI AZIMU VELO AIN AR TRES W  DIS CAZ7
 BAR2 SZ EP   4    113 19.91                             171   -1.68 0 25.1 142 
 BAR2 SZ I         113 39.67        21.0 0.08            155           25.1 142 
 BRR  HZ EP   4    113 21.48                             162   -0.65 0 56.9 311 
 BRR  HN ES   4    113 38.62                             162   -2.30 0 56.9 311 
 BRR  HZ I         113 39.30         7.5 0.06            169           56.9 311 
 PAM  SN ES        113 45.69                             151    0.3210 93.2  48 
 RUS  HZ EP   1    113 24.28                             149   -0.80 7  101 165 
 PTB  HZ EP        113 26.86                             143    0.5910  128 259 
 PTB  HN ES        113 47.84                             143   -0.4410  128 259 
 NOR  HN ES        114  2.47                             127    0.25 8  217 232 
 SML  HZ EP   1    113 36.07                             124   -0.14 6  239 340 
 SML  HN ES        114  5.77                             124   -0.21 8  239 340 
 SML  HZ I         114  9.71         4.4 0.07            119            239 340 
                                                                                
