 2015  525 0653 10.0 L   6.811 -73.145145.4  RSN 14 0.4 1.9LRSN                1
 GAP=136        0.93       2.8     3.9  5.9 -0.1613E+01  0.5392E+01  0.1339E+01E
 Epicentro: LOS SANTOS - SANTANDER                                             3
 ACTION:UPD 15-09-10 22:06 OP:cam  STATUS:               ID:20150525065310 L   I
 OLDACT:REG 15-05-25 12:55 OP:spq  STATUS:               ID:20150525064735     3
 2015-05-25-0647-35M.COL___297                                                 6
 STAT SP IPHASW D HRMM SECON CODA AMPLIT PERI AZIMU VELO AIN AR TRES W  DIS CAZ7
 BAR2 EZ EP        653 29.45                             170   -0.1910 24.5 190 
 BAR2 EZ ES   1    653 44.64                             170   -0.29 7 24.5 190 
 BAR2 EZ I         653 46.00        15.1 0.24            168           24.5 190 
 BRR  HZ EP        653 31.30                             153    0.1910 70.7 298 
 BRR  HN ES        653 48.43                             153    0.8810 70.7 298 
 BRR  HZ I         653 52.26        10.3 0.30            150           70.7 298 
 PAM  SZ EP        653 32.49                             151    0.3410 76.4  40 
 PAM  SN ES   1    653 49.44                             151    0.04 7 76.4  40 
 PAM  SZ I         653 51.65        16.7 0.44            155           76.4  40 
 RUS  HZ EP        653 33.40                             143   -0.4310  102 176 
 RUS  HN ES   1    653 52.39                             143   -0.00 7  102 176 
 RUS  HZ I         653 53.33        10.8 0.34            144            102 176 
 OCA  HZ EP        653 38.46                             130    0.26 9  159 353 
 OCA  HN ES        653 59.42                             130   -0.75 9  159 353 
 OCA  HZ I         654  4.88        18.8 0.36            131            159 353 
 SPBC HZ EP        653 38.46                             129   -0.13 9  164 219 
 SPBC HN ES        654  0.69                             129   -0.17 9  164 219 
 SPBC HZ I         654  6.67        16.7 0.26            128            164 219 
 ZAR  HZ EP        653 42.89                             122    0.48 9  204 292 
 ZAR  HN ES        654  6.96                             122   -0.70 9  204 292 
 ZAR  HZ I         654 17.97         6.0 0.24            122            204 292 
 NOR  HZ EP   1    653 46.06                             118    0.25 6  235 234 
 NOR  HN ES        654 13.81                             118    0.09 8  235 234 
 NOR  HZ I         654 21.30         7.5 0.18            118            235 234 
 SML  HZ EP   4    653 44.40                             118   -2.12 0  243 335 
 SML  HE ES   1    654 14.72                             118   -0.26 6  243 335 
 SML  HZ I         654 17.87        12.9 0.05            118            243 335 
 CHI  HZ EP   1    653 47.76                             117   -0.07 6  250 195 
 CHI  HE ES   1    654 17.47                             117    0.15 6  250 195 
 CHI  HZ I         654 22.90         3.8 0.66            118            250 195 
 HEL  HZ EP   4    653 52.04                             115    1.78 0  272 256 
 HEL  HE ES   1    654 21.96                             115    0.32 6  272 256 
 HEL  HZ I         654 28.22         4.2 0.51            115            272 256 
 GUY2CHZ EP   4    653 55.15                             112    1.45 0  302 235 
 GUY2CHN ES   4    654 31.57                             112    3.81 0  302 235 
 GUY2CHZ I         654 35.64         4.4 0.28                           302 235 
 PTGC HZ EP   4    653 52.74                             111   -1.25 0  310 159 
 PTGC HN ES   4    654 26.25                             111   -2.04 0  310 159 
 PTGC HZ I         654 34.76         8.9 0.38            113            310 159 
 CBOC HZ EP   1    653 57.38                             110    0.41 5  334 252 
 CBOC HE ES   1    654 33.09                             110   -0.50 5  334 252 
 CBOC HZ I         654 38.57         1.0 0.16            110            334 252 
                                                                                
