 2012  325 0632 55.6 L   6.786 -73.393118.5  RSN  4 0.2 1.0LRSN                1
 GAP=177        0.38       5.2     4.6  6.3  0.1175E+02  0.6707E+01  0.7574E+01E
 ACTION:UP  12-03-31 23:22 OP:EP   STATUS:               ID:20120325063255 L   I
 2012-03-25-0630-00M.COL___196                                                 6
 STAT SP IPHASW D HRMM SECON CODA AMPLIT PERI AZIMU VELO SNR AR TRES W  DIS CAZ7
 BAR2 SZ EP   2    633 12.39                             164     0.2 5   32 133 
 BAR2 SZ ES   2    633 24.83                             164    -0.3 5   32 133 
 BRR  HZ EP   2    633 12.32                             156    -0.3 5   50 315 
 BRR  HE ES   2    633 26.15                             156     0.3 5   50 315 
 BRR  HZ I         633 27.45         2.7 0.15                            50 315 
 RUS  HZ EP   2    633 17.09                             136     0.0 5  105 161 
 RUS  HE ES   2    633 33.98                             136     0.1 5  105 161 
 PTB  HZ EP   2    633 17.86                             131     0.0 5  121 257 
 PTB  HN ES   2    633 35.17                             131    -0.1 5  121 257 
 PTB  HZ I         633 40.74         1.9 0.62                           121 257 
                                                                                
