 2016  825 0203 37.3 L   6.877 -73.123149.7  RSN 17 0.5 1.9LRSN                1
 GAP=120        1.07       3.1     3.3  5.3 -0.3536E+01  0.2165E+01  0.1549E+01E
 Epicentro: LOS SANTOS - SANTANDER                                             3
 ACTION:UPD 16-10-29 15:39 OP:rebc STATUS:               ID:20160825020337 L   I
 OLDACT:REG 16-08-25 12:23 OP:ak   STATUS:               ID:20160825015744     3
 2016-08-25-0158-00M.COL___380                                                 6
 STAT SP IPHASW D HRMM SECON CODA AMPLIT PERI AZIMU VELO AIN AR TRES W  DIS CAZ7
 BAR2 EZ EP        2 3 57.33                             167   -0.2910 32.2 192 
 BAR2 EZ ES        2 4 13.34                             167   -0.1210 32.2 192 
 BAR2 EZ I         2 4 14.71        17.0 0.18                          32.2 192 
 PAM  EZ EP        2 4  0.29                             154    0.7910 69.3  42 
 PAM  EE ES        2 4 17.23                             154    0.4310 69.3  42 
 PAM  EZ I         2 4 19.22         7.4 0.24                          69.3  42 
 BRR  HZ EP        2 3 59.41                             154    0.6010 69.9 291 
 BRR  HE ES        2 4 16.25                             154    0.6610 69.9 291 
 BRR  HZ I         2 4 19.89        21.8 0.14                          69.9 291 
 RUS  HZ EP        2 4  2.46                             142    0.4010  109 178 
 RUS  HN ES        2 4 21.02                             142   -0.3410  109 178 
 RUS  HZ I         2 4 22.75         5.8 0.30                           109 178 
 OCA  HN ES        2 4 26.27                             132   -0.66 9  152 352 
 PTB  HZ EP        2 4  4.87                             132   -0.12 9  152 256 
 PTB  HN ES        2 4 26.28                             132   -0.30 9  152 256 
 PTB  HZ I         2 4 30.98         9.0 0.16                           152 256 
 SPBC HZ EP        2 4  6.36                             129   -0.53 9  171 218 
 SPBC HN ES        2 4 29.62                             129   -0.34 9  171 218 
 SPBC HZ I         2 4 35.07         8.2 0.11                           171 218 
 ZAR  HZ EP   4    2 4 11.24                             123    1.30 0  203 290 
 ZAR  HN ES        2 4 35.26                             123   -0.13 9  203 290 
 ZAR  HZ I         2 4 41.72        23.3 0.28                           203 290 
 NOR  HZ EP        2 4 13.86                             119   -0.16 8  242 233 
 NOR  HN ES        2 4 41.73                             119   -0.93 8  242 233 
 NOR  HZ I         2 4 44.40         6.8 0.18                           242 233 
 CHI  HZ EP   2    2 4 16.02                             117   -0.17 4  258 195 
 CHI  HN ES        2 4 46.98                             117    0.46 8  258 195 
 CHI  HZ I         2 4 54.09         3.0 0.23                           258 195 
 HEL  HZ EP   2    2 4 19.13                             115    0.90 4  277 254 
 HEL  HN ES        2 4 50.15                             115   -0.00 7  277 254 
 HEL  HZ I         2 4 56.74         5.2 0.36                           277 254 
 URE  HZ EP   2    2 4 19.16                             115    0.67 4  283 290 
 URE  HE ES   4    2 4 48.79                             115   -1.82 0  283 290 
 URE  HZ I         2 4 58.95         6.5 0.18                           283 290 
 SOCV BZ EP        2 4 19.92                             113    0.13 7  295  58 
 SOCV BN ES        2 4 52.05                             113   -0.87 7  295  58 
 GUY2CHZ EP   2    2 4 22.32                             113    0.43 4  308 234 
 GUY2CHN ES        2 4 57.20                             113    0.54 7  308 234 
 GUY2CHZ I         2 5  5.13         3.0 0.24                           308 234 
 CBOC HZ EP   2    2 4 25.83                             110    0.86 3  339 251 
 CBOC HN ES        2 5  1.96                             110   -0.18 7  339 251 
 CBOC HZ I         2 5  4.97         1.3 0.18                           339 251 
 PRA  HZ EP   2    2 4 32.54                             107    0.56 3  401 209 
 PRA  HE ES        2 5 14.73                             107    0.11 6  401 209 
 PRA  HZ I         2 5 21.27         3.9 0.36                           401 209 
 SJC  HZ EP        2 4 31.69                             107   -0.64 6  403 326 
 SJC  HN ES   4    2 5 12.84                             107   -2.41 0  403 326 
                                                                                
