 2015  525 0120 47.6 L   6.784 -73.112147.2  RSN  7 0.4 1.7LRSN                1
 GAP=142        0.88       3.3     4.6  6.8  0.1644E+00  0.2736E+01 -0.3144E+01E
 Epicentro: LOS SANTOS - SANTANDER                                             3
 ACTION:UPD 15-09-10 22:06 OP:cam  STATUS:               ID:20150525012047 L   I
 OLDACT:DUP 15-05-25 14:32 OP:spq  STATUS:               ID:20150525011742d    3
 2015-05-25-0117-41M.COL___297                                                 6
 STAT SP IPHASW D HRMM SECON CODA AMPLIT PERI AZIMU VELO AIN AR TRES W  DIS CAZ7
 BAR2 EZ EP        121  7.23                             171   -0.1210 22.5 200 
 BAR2 EZ ES   1    121 22.21                             171   -0.58 7 22.5 200 
 BAR2 EZ I         121 23.71         9.8 0.24            172           22.5 200 
 BRR  HZ EP     D  121  9.07                             151   -0.0310 75.3 298 
 BRR  HN ES        121 26.62                             151    0.7110 75.3 298 
 BRR  HZ I         121 31.48         4.2 0.16            151           75.3 298 
 PAM  SZ EP        121 10.13                             151    0.2510 76.5  37 
 PAM  SN ES   1    121 27.30                             151    0.01 7 76.5  37 
 PAM  SZ I         121 30.09         3.0 0.24            154           76.5  37 
 RUS  HZ EP        121 11.56                             145    0.2510 98.6 178 
 RUS  HE ES        121 29.85                             145    0.0110 98.6 178 
 RUS  HZ I         121 30.81         5.1 0.24            149           98.6 178 
 OCA  HZ EP   1    121 15.51                             130   -0.69 7  163 352 
 OCA  HE ES        121 38.33                             130   -0.20 9  163 352 
 OCA  HZ I         121 40.37         9.8 0.20            132            163 352 
 SPBC HN ES        121 38.34                             129   -0.31 9  164 220 
 SPBC HZ I         121 40.55         6.5 0.13            132            164 220 
 ZAR  HZ EP   1    121 21.04                             122    0.51 6  208 292 
 ZAR  HE ES        121 45.94                             122   -0.30 8  208 292 
 ZAR  HZ I         121 50.06        12.0 0.10            124            208 292 
                                                                                
