 2016  825 0720  2.2 L   6.829 -73.175146.9  RSN 13 0.5 1.7LRSN                1
 GAP=131        1.09       3.2     4.5  6.3 -0.2729E+01  0.7741E+01  0.4188E+01E
 Epicentro: ZAPATOCA - SANTANDER                                               3
 ACTION:UPD 16-10-29 15:39 OP:rebc STATUS:               ID:20160825072002 L   I
 OLDACT:REG 16-08-25 12:42 OP:ak   STATUS:               ID:20160825071742     3
 2016-08-25-0718-00M.COL___372                                                 6
 STAT SP IPHASW D HRMM SECON CODA AMPLIT PERI AZIMU VELO AIN AR TRES W  DIS CAZ7
 BAR2 EZ EP        720 22.10                             169    0.0710 26.2 182 
 BAR2 EZ ES        720 36.99                             169   -0.5010 26.2 182 
 BAR2 EZ I         720 38.59        12.5 0.24                          26.2 182 
 BRR  HZ EP        720 23.87                             154    0.6410 66.8 297 
 BRR  HN ES        720 40.33                             154    0.6910 66.8 297 
 BRR  HZ I         720 44.66         5.5 0.20                          66.8 297 
 PAM  EZ EP        720 25.02                             151    0.5010 77.2  43 
 PAM  EN ES        720 42.13                             151    0.1910 77.2  43 
 PAM  EZ I         720 42.73         5.4 0.18                          77.2  43 
 RUS  HZ EP        720 25.98                             143   -0.3310  104 174 
 RUS  HN ES        720 44.86                             143   -0.2610  104 174 
 RUS  HZ I         720 46.20         4.1 0.26                           104 174 
 PTB  HZ EP        720 28.57                             133   -0.46 9  145 257 
 PTB  HN ES        720 49.55                             133   -0.41 9  145 257 
 PTB  HZ I         720 52.26         4.1 0.08                           145 257 
 OCA  HZ EP   2    720 29.39                             130   -0.88 5  157 354 
 OCA  HN ES        720 51.66                             130   -0.51 9  157 354 
 OCA  HZ I         721  0.26        12.2 0.30                           157 354 
 SPBC HZ EP        720 31.03                             129    0.20 9  164 217 
 SPBC HN ES        720 53.33                             129    0.17 9  164 217 
 SPBC HZ I         721  0.29         7.6 0.17                           164 217 
 NOR  HZ EP        720 38.29                             119    0.38 8  234 233 
 NOR  HE ES        721  6.58                             119    0.82 8  234 233 
 NOR  HZ I         721 15.93         2.9 0.14                           234 233 
 CHI  HN ES        721  9.31                             117   -0.53 8  251 194 
 ROSC BZ EP   2    720 40.97                             117    0.47 4  254 210 
 ROSC BN ES        721 10.25                             117   -0.12 8  254 210 
 ROSC BZ I         721 16.11         7.1 0.30                           254 210 
 URE  HN ES        721 13.79                             114   -0.77 7  280 292 
 GUY2CHZ EP   4    720 47.57                             113    1.80 0  300 234 
 GUY2CHN ES   4    721 23.29                             113    3.54 0  300 234 
 GUY2CHZ I         721 28.73         2.2 0.43                           300 234 
 PRA  HZ EP        720 55.74                             107   -0.15 6  393 209 
 PRA  HN ES        721 38.05                             107    0.27 6  393 209 
 PRA  HZ I         721 42.54         2.4 0.31                           393 209 
                                                                                
