 2013  925 0209  6.4 L   6.787 -73.088141.5  RSN  6 0.2 1.5LRSN                1
 GAP=145        0.58       2.8     4.2  4.5 -0.2198E+01  0.9811E+00  0.2501E+01E
 Epicentro: LOS SANTOS - SANTANDER                                             3
 ACTION:UPD 13-10-22 09:24 OP:ep   STATUS:               ID:20130925020906 L   I
 OLDACT:REG 13-09-25 08:43 OP:nd   STATUS:               ID:20130925020740     3
 2013-09-25-0207-40M.COL___250                                                 6
 STAT SP IPHASW D HRMM SECON CODA AMPLIT PERI AZIMU VELO AIN AR TRES W  DIS CAZ7
 BAR2 SZ EP        2 9 25.32                             170   -0.1810 23.9 206 
 BAR2 SZ ES        2 9 40.49                             170    0.0710 23.9 206 
 BAR2 SZ I         2 9 41.74         8.5 0.18            158           23.9 206 
 PAM  SZ EP        2 9 28.07                             151    0.1010 74.7  35 
 PAM  SN ES        2 9 44.70                             151   -0.1210 74.7  35 
 PAM  SZ I         2 9 47.07         3.5 0.26            153           74.7  35 
 BRR  HZ EP        2 9 27.18                             150   -0.2510 77.5 297 
 BRR  HN ES        2 9 44.04                             150    0.1810 77.5 297 
 BRR  HZ I         210  1.84         3.9 0.44            139           77.5 297 
 RUS  HZ EP        2 9 30.01                             143    0.4310 98.9 180 
 RUS  HN ES        2 9 47.53                             143   -0.1610 98.9 180 
 RUS  HZ I         2 9 49.15         3.5 0.30            146           98.9 180 
 ZAR  HZ EP   4    2 9 40.79                             120    1.58 0  210 292 
 ZAR  HN ES   4    210  3.03                             120   -1.80 0  210 292 
 ZAR  HZ I         210 12.10         2.1 0.28            118            210 292 
 PRA  HZ EP   4    2 9 59.67                             106   -0.30 0  394 210 
 PRA  HN ES        210 41.63                             106   -0.15 6  394 210 
 PRA  HZ I         210 48.00         2.1 0.26            107            394 210 
                                                                                
