 2017  225 0118 20.1 L   6.769 -73.158141.8  RSN  5 0.4 1.3LRSN                1
 GAP=136        1.10       5.5     4.9  8.8  0.2199E+01  0.1033E+02  0.1379E+01E
 Epicentro: LOS SANTOS - SANTANDER                                             3
 ACTION:UPD 17-05-24 15:40 OP:jn   STATUS:               ID:20170225011820 L   I
 OLDACT:UP  17-02-25 14:49 OP:dani STATUS:               ID:20170225010747d    3
 OLDACT:UP  17-02-25 14:49 OP:dani STATUS:               ID:20170225010747d    3
 OLDACT:DUP 17-02-25 14:44 OP:dani STATUS:               ID:20170225010747d    3
 2017-02-25-0108-00M.COL___385                                                 6
 STAT SP IPHASW D HRMM SECON CODA AMPLIT PERI AZIMU VELO AIN AR TRES W  DIS CAZ7
 BRR  HZ EP        118 40.85                             152   -0.0010 71.8 301 
 BRR  HN ES        118 57.47                             152    0.4310 71.8 301 
 BRR  HZ I         119  1.76         5.9 0.36            151           71.8 301 
 PAM  EZ EP        118 41.91                             149   -0.2010 80.9  39 
 PAM  EE ES        118 59.08                             149   -0.2010 80.9  39 
 RUS  HZ EP        118 43.13                             144   -0.0910 97.3 175 
 RUS  HN ES        119  1.51                             144    0.2510 97.3 175 
 RUS  HZ I         119  3.01         2.5 0.28            147           97.3 175 
 PTB  HZ EP        118 46.10                             131   -0.47 9  146 260 
 PTB  HE ES        119  6.84                             131   -0.38 9  146 260 
 PTB  HZ I         119 13.12         2.1 0.28            132            146 260 
 ZAR  HZ EP        118 53.44                             121    1.14 9  204 293 
 ZAR  HE ES        119 17.04                             121   -0.38 9  204 293 
 ZAR  HZ I         119 22.15         2.7 0.27            123            204 293 
                                                                                
