 2012  825 0723 12.4 L   6.785 -73.160145.5  RSN  8 0.4 1.7LRSN                1
 GAP=135        0.91       4.8     5.3  9.5 -0.9719E+00  0.4053E+01  0.6572E+01E
 Epicentro: LOS SANTOS - SANTANDER                                             3
 ACTION:UPD 12-09-10 11:58 OP:ep   STATUS:               ID:20120825072312 L   I
 2012-08-25-0720-00M.COL___218                                                 6
 STAT SP IPHASW D HRMM SECON CODA AMPLIT PERI AZIMU VELO AIN AR TRES W  DIS CAZ7
 BAR2 SZ EP        723 31.97                             171    0.0110 21.5 187 
 BAR2 SZ I         723 32.37        18.3 0.11                          21.5 187 
 GIR2 SZ EP   1    723 32.16                             167    0.09 7 32.7 353 
 BRR  HZ EP        723 33.98                             153    0.5010 70.7 300 
 BRR  HZ I         723 34.45        20.4 0.12                          70.7 300 
 BRR  HE ES   1    723 50.73                             153    0.79 7 70.7 300 
 PAM  SZ EP        723 34.89                             150    0.1710 79.6  40 
 PAM  SN ES   1    723 51.91                             150   -0.22 7 79.6  40 
 PAM  SZ I         723 52.67         4.6 0.40                          79.6  40 
 RUS  HZ EP        723 36.11                             144    0.1010 99.0 175 
 RUS  HN ES   1    723 54.02                             144   -0.41 7 99.0 175 
 RUS  HZ I         723 55.60         3.8 0.31                          99.0 175 
 PTB  HZ EP        723 38.82                             132   -0.35 9  146 259 
 PTB  HN ES   1    723 59.62                             132   -0.44 7  146 259 
 PTB  HZ I         724  2.09         3.3 0.11                           146 259 
 OCA  HN ES   1    724  2.10                             129   -0.90 7  162 354 
 OCA  HZ I         724  4.49         8.1 0.22                           162 354 
 ZAR  HN ES   2    724 10.07                             122    0.10 4  203 293 
 ZAR  HZ I         724 16.84         3.5 0.21                           203 293 
                                                                                
