 2013  725 0836 10.4 L   7.509 -73.376120.4  RSN  4 0.4 1.8LRSN                1
 GAP=196        0.96       4.1     7.8  9.4  0.7089E+01 -0.6708E+01 -0.1206E+02E
 Epicentro: EL PLAYON - SANTANDER                                              3
 ACTION:UPD 13-08-12 10:40 OP:ep   STATUS:               ID:20130725083610 L   I
 OLDACT:REG 13-07-25 10:20 OP:cam  STATUS:               ID:20130725082959     3
 2013-07-25-0829-59M.COL___267                                                 6
 STAT SP IPHASW D HRMM SECON CODA AMPLIT PERI AZIMU VELO AIN AR TRES W  DIS CAZ7
 BRR  HZ EP     D  836 28.40                             153    0.3210 57.9 220 
 BRR  HN ES        836 42.39                             153    0.5410 57.9 220 
 BRR  HZ I         836 43.87        14.5 0.18            153           57.9 220 
 BAR2 SZ EP        836 31.53                             137   -0.1410  104 168 
 BAR2 SZ ES   1    836 47.69                             137   -0.56 7  104 168 
 BAR2 SZ I         836 48.99        19.2 0.28            143            104 168 
 PTB  HZ EP        836 36.95                             123    0.22 9  160 228 
 PTB  HN ES        836 56.80                             123   -0.46 9  160 228 
 PTB  HZ I         837  2.09         4.2 0.18            125            160 228 
 SML  HZ EP        836 37.11                             123    0.23 9  162 332 
 SML  HE ES        836 57.03                             123   -0.48 9  162 332 
 SML  HZ I         837  5.51        11.0 0.24            123            162 332 
                                                                                
