 2014  725 0120 54.5 L   6.815 -73.080159.0  RSN 14 0.5 1.9LRSN                1
 GAP=190        1.07       3.7     6.6  7.1 -0.2752E+01  0.6322E+01  0.1037E+01E
 Epicentro: LOS SANTOS - SANTANDER                                             3
 ACTION:UPD 15-03-16 20:46 OP:nd   STATUS:               ID:20140725012054 L   I
 OLDACT:REG 14-07-25 12:29 OP:spq  STATUS:               ID:20140725011817     3
 2014-07-25-0118-17M.COL___269                                                 6
 STAT SP IPHASW D HRMM SECON CODA AMPLIT PERI AZIMU VELO AIN AR TRES W  DIS CAZ7
 BAR2 SZ EP   1    121 16.20                             170    0.37 7 27.1 205 
 BAR2 SZ ES   1    121 31.66                             170   -0.78 7 27.1 205 
 BAR2 SZ I         121 34.39         6.9 0.32            167           27.1 205 
 BRR  HZ EP        121 18.30                             153    0.8710 77.0 295 
 BRR  HN ES        121 35.81                             153    0.5110 77.0 295 
 BRR  HZ E      C  121 38.63                                           77.0 295 
 BRR  HZ I         121 40.59         6.4 0.46            149           77.0 295 
 RUS  HZ EP   1    121 19.96                             146    0.26 7  102 180 
 RUS  HN ES   1    121 38.89                             146   -0.44 7  102 180 
 RUS  HZ I         121 40.33         2.9 0.18            140            102 180 
 PTB  HZ EP        121 23.04                             133   -0.22 9  155 259 
 PTB  HE ES   1    121 45.31                             133   -0.36 7  155 259 
 PTB  HZ I         121 51.66        10.1 0.42            128            155 259 
 OCA  HN ES   1    121 46.07                             133   -0.64 7  160 350 
 OCA  HZ I         121 51.20         7.2 0.26            128            160 350 
 SPBC HZ EP        121 25.20                             131    0.58 9  169 221 
 SPBC HE ES        121 48.28                             131    0.19 9  169 221 
 SPBC HZ I         121 50.63         8.2 0.10            125            169 221 
 ZAR  HN ES   1    121 55.81                             124    0.83 6  210 291 
 ZAR  HZ  AMP      122  0.63        57.0 0.22                           210 291 
 NOR  HZ E         121 31.40                                            242 235 
 NOR  HZ EP   1    121 31.40                             120   -0.38 6  242 235 
 NOR  HN ES        122  0.24                             120   -0.60 8  242 235 
 NOR  HZ I         122  3.92         5.4 0.14            115            242 235 
 SML  HZ EP   1    121 31.37                             120   -0.73 6  245 334 
 SML  HN ES        122  1.04                             120   -0.37 8  245 334 
 SML  HZ I         122  3.86         8.2 0.26            116            245 334 
 HEL  HN ES   4    122  5.75                             117   -3.06 0  280 256 
 HEL  HZ I         122 14.59         3.3 0.32            112            280 256 
 GUY2CHZ EP   4    121 36.05                             114   -3.50 0  308 235 
 GUY2CHN ES   1    122 14.17                             114   -0.49 5  308 235 
 GUY2CHZ I         122 21.15         2.9 0.32                           308 235 
 TOL  SZ EP   1    121 43.81                             111   -0.26 5  350 225 
 TOL  SN ES   1    122 22.56                             111   -0.14 5  350 225 
 TOL  SZ I         122 27.32         3.5 0.30            107            350 225 
 PRA  HZ EP   1    121 49.23                             108    0.11 4  397 210 
 PRA  HZ I         122 37.24         1.8 0.42            104            397 210 
 SJC  HZ EP   1    121 50.10                             108   -0.76 4  412 326 
 SJC  HN ES   4    122 33.13                             108   -1.67 0  412 326 
 SJC  HZ I         122 37.39         1.1 0.42            104            412 326 
                                                                                
