 2017  225 0340 51.7 L   6.789 -73.174148.4  RSN  5 0.4 1.1LRSN                1
 GAP=133        0.77       3.8     4.8  7.3  0.1733E+01 -0.5851E+01  0.1330E+01E
 Epicentro: LOS SANTOS - SANTANDER                                             3
 ACTION:UPD 17-05-24 15:40 OP:jn   STATUS:               ID:20170225034051 L   I
 OLDACT:UP  17-02-25 16:01 OP:dani STATUS:               ID:20170225033740     3
 OLDACT:UP  17-02-25 16:00 OP:dani STATUS:               ID:20170225033740     3
 OLDACT:REG 17-02-25 12:28 OP:dani STATUS:               ID:20170225033740     3
 2017-02-25-0338-00M.COL___379                                                 6
 STAT SP IPHASW D HRMM SECON CODA AMPLIT PERI AZIMU VELO AIN AR TRES W  DIS CAZ7
 BRR  HZ EP        341 13.04                             154   -0.0110 69.1 301 
 BRR  HN ES        341 30.19                             154    0.5110 69.1 301 
 BRR  HZ I         341 31.79         4.4 0.27            155           69.1 301 
 PAM  EZ EP        341 14.34                             151   -0.0610 80.3  41 
 PAM  EE ES   3    341 30.26                             151   -1.83 2 80.3  41 
 PAM  EZ I         341 33.51         4.2 0.50            152           80.3  41 
 RUS  HZ EP        341 15.72                             145    0.0410 99.7 174 
 RUS  HE ES        341 34.45                             145    0.0910 99.7 174 
 RUS  HZ I         341 35.22         1.3 0.28            147           99.7 174 
 PTB  HZ EP        341 18.45                             134   -0.17 9  144 259 
 PTB  HN ES        341 39.14                             134   -0.45 9  144 259 
 PTB  HZ I         341 42.04         1.1 0.08            135            144 259 
 CHI  HE ES        341 58.86                             118    0.14 8  247 195 
                                                                                
