 2016  625 0301 15.4 L   6.760 -73.164140.0  RSN  8 0.4 1.3LRSN                1
 GAP=232        0.80       3.7     3.9  5.3  0.3425E+01  0.7232E+01  0.1731E+01E
 Epicentro: LOS SANTOS - SANTANDER                                             3
 ACTION:UPD 16-07-21 22:22 OP:rebc STATUS:               ID:20160625030115 L   I
 OLDACT:REG 16-06-25 12:17 OP:ak   STATUS:               ID:20160625025746     3
 2016-06-25-0257-46M.COL___328                                                 6
 STAT SP IPHASW D HRMM SECON CODA AMPLIT PERI AZIMU VELO AIN AR TRES W  DIS CAZ7
 BAR2 EZ EP        3 1 34.10                             172   -0.1610 18.6 186 
 BAR2 EZ ES        3 1 49.57                             172    0.6110 18.6 186 
 BAR2 EZ I         3 1 50.27         4.4 0.20                          18.6 186 
 BRR  HZ IP     C  3 1 35.93                             151   -0.0510 71.7 302 
 BRR  HN ES        3 1 51.92                             151   -0.0910 71.7 302 
 BRR  HZ I         3 1 56.02         4.6 0.22                          71.7 302 
 RUS  HZ EP        3 1 37.93                             144   -0.3610 96.3 175 
 RUS  HN ES        3 1 56.21                             144    0.0810 96.3 175 
 RUS  HZ I         3 1 57.86         1.5 0.29                          96.3 175 
 PTB  HZ EP   1    3 1 41.40                             131   -0.26 7  145 260 
 PTB  HN ES        3 2  2.00                             131   -0.14 9  145 260 
 PTB  HZ I         3 2  4.45         4.2 0.12                           145 260 
 SPBC HZ EP        3 1 43.42                             129    0.39 9  158 219 
 SPBC HN ES        3 2  3.96                             129   -0.60 9  158 219 
 ZAR  HZ EP        3 1 47.33                             121   -0.15 9  204 294 
 ZAR  HE ES        3 2 12.47                             121   -0.02 9  204 294 
 ZAR  HZ I         3 2 18.31         3.9 0.15                           204 294 
 GUY2CHZ EP   2    3 1 59.06                             112    0.77 4  297 235 
 GUY2CHE ES        3 2 31.90                             112    0.17 7  297 235 
 GUY2CHZ I         3 2 41.00         1.0 0.28                           297 235 
 CBOC HZ EP   2    3 2  2.26                             109    0.54 3  330 253 
 CBOC HN ES        3 2 38.46                             109    0.62 7  330 253 
                                                                                
