 2011 1225 0557 35.1 L   6.784 -73.058143.3  RSN  4 0.1 2.0LRSN                1
 GAP=206        0.33       4.4     7.6  3.7  0.2626E+02 -0.1201E+02 -0.7358E+01E
 Epicentro: LOS SANTOS - SANTANDER                                             3
 ACTION:UPD 12-07-13 16:18 OP:ep   STATUS:               ID:20111225055735 L   I
 2011-12-25-0550-00M.COL___186                                                 6
 STAT SP IPHASW D HRMM SECON CODA AMPLIT PERI AZIMU VELO AIN AR TRES W  DIS CAZ7
 BAR2 SZ EP        557 54.50                             170    0.0410 25.3 213 
 BAR2 SZ ES        558  9.53                             170   -0.0510 25.3 213 
 BAR2 SZ I         558 10.80         8.7 0.48                          25.3 213 
 GIR2 SZ EP   1    557 54.64                             165    0.04 7 35.9 335 
 BRR  HZ EP        557 56.40                             149   -0.1310 80.6 296 
 BRR  HN ES   1    558 13.39                             149    0.13 7 80.6 296 
 BRR  HN I         558 14.61        38.3 0.20                          80.6 296 
 RUS  HZ EP   1    557 58.57                             144    0.12 7 98.6 182 
 RUS  HN ES   1    558 16.63                             144   -0.05 7 98.6 182 
                                                                                
