 2011 1125 0017 31.2 L   6.801 -73.110147.6  RSN 11 0.5 2.3LRSN                1
 GAP=141        0.83       3.3     4.9  6.0 -0.2196E+01  0.1005E+02  0.4190E+01E
 Epicentro: LOS SANTOS - SANTANDER                                             3
 ACTION:UPD 12-07-13 16:12 OP:ep   STATUS:               ID:20111125001731 L   I
 2011-11-25-0015-50S.COL___178                                                 6
 STAT SP IPHASW D HRMM SECON CODA AMPLIT PERI AZIMU VELO AIN AR TRES W  DIS CAZ7
 BAR2 SZ EP        017 50.98                             170   -0.0710 24.5 199 
 BAR2 SZ ES   1    018  6.75                             170    0.20 7 24.5 199 
 BAR2 SZ I         018  9.14        48.2 0.21                          24.5 199 
 BRR  HZ EP   1    017 53.05                             152    0.33 7 74.6 297 
 BRR  HN ES   1    018 10.20                             152    0.68 7 74.6 297 
 BRR  HZ I         018 13.43        61.8 0.12                          74.6 297 
 PAM  SZ EP   1    017 53.85                             152    0.41 7 74.8  37 
 PAM  SN ES   1    018 10.75                             152   -0.05 7 74.8  37 
 RUS  HZ EP   1    017 55.04                             144   -0.07 7  101 178 
 RUS  HN ES   1    018 13.25                             144   -0.52 7  101 178 
 RUS  HZ I         018 14.76        15.2 0.27                           101 178 
 OCA  SZ EP   1    018  0.06                             130    0.39 7  161 352 
 OCA  SZ ES   1    018 21.25                             130   -0.64 7  161 352 
 OCA  SZ I         018 25.99        13.3 0.21                           161 352 
 ZAR  HZ EP   2    018  3.38                             122   -0.74 4  208 292 
 ZAR  HE ES   1    018 29.02                             122   -0.79 6  208 292 
 ZAR  HZ I         018 36.33        35.1 0.30                           208 292 
 NOR  SZ EP   1    018  6.67                             118   -0.70 6  238 235 
 NOR  SN ES   1    018 35.54                             118   -0.06 6  238 235 
 CHI  HZ EP   1    018  8.73                             117   -0.38 6  250 196 
 CHI  HN ES   1    018 38.49                             117   -0.21 6  250 196 
 CHI  HZ I         018 43.89         9.4 0.54                           250 196 
 HEL  HZ EP   1    018 12.20                             115    0.29 6  276 256 
 HEL  HZ I         018 48.63        10.6 0.24                           276 256 
 RREF HZ EP   1    018 18.75                             111    0.99 5  325 230 
 RREF HN ES   1    018 54.73                             111    0.65 5  325 230 
 RREF HZ I         019  3.66        16.2 0.45                           325 230 
 PRA  HZ EP   1    018 24.84                             107   -0.17 4  394 210 
 PRA  HN ES   1    019  7.40                             107    0.41 4  394 210 
                                                                                
