 2010 1025 0206 29.2 L   6.785 -73.105143.6  RSN  9 0.4 2.1LRSN                1
 GAP=163        0.72       4.1     6.7  5.7  0.7862E+01 -0.1802E+01  0.5140E+01E
 Epicentro: LOS SANTOS - SANTANDER                                             3
 ACTION:UP  11-02-18 11:11 OP:tino STATUS:               ID:20101025020629 L   I
 2010-10-25-0200-56S.COL___124                                                 6
 STAT SP IPHASW D HRMM SECON CODA AMPLIT PERI AZIMU VELO SNR AR TRES W  DIS CAZ7
 BAR2 SZ EP   1    2 6 48.44                             170    -0.2 7   23 202 
 BAR2 SZ ES   1    2 7  3.05                             170    -0.6 7   23 202 
 BAR2 SZ I         2 7  6.39        44.5 0.22                            23 202 
 BRR  HZ EP        2 6 50.31                             150    -0.110   76 298 
 BRR  HE ES   1    2 7  7.43                             150     0.5 7   76 298 
 BRR  HZ I         2 7 10.11        29.3 0.27                            76 298 
 RUS  HZ EP        2 6 52.49                             144    -0.110   99 179 
 RUS  HE ES   1    2 7 11.23                             144     0.3 7   99 179 
 RUS  HZ I         2 7 12.50        17.9 0.23                            99 179 
 OCA  SZ EP   2    2 6 57.16                             129    -0.4 5  162 352 
 OCA  SZ ES   2    2 7 20.26                             129     0.6 5  162 352 
 OCA  SZ I         2 7 22.57        13.9 0.27                           162 352 
 YOP  SZ EP        2 6 59.09                             126     0.3 9  176 154 
 NOR  SZ EP   2    2 7  4.69                             118    -0.5 4  238 236 
 NOR  SN ES   2    2 7 33.01                             118    -0.1 4  238 236 
 CHI  HZ EP   1    2 7  6.81                             117     0.0 6  248 196 
 CHI  HN ES   2    2 7 36.31                             117     0.3 4  248 196 
 CHI  HZ I         2 7 46.26         7.3 0.31                           248 196 
 TOL  SZ EP   2    2 7 18.17                             109     0.5 3  346 225 
 PRA  HZ EP   1    2 7 22.47                             106    -0.3 4  393 210 
                                                                                
