 2012  625 0035 45.1 L   6.734 -73.209152.1  RSN  5 0.1 1.2LRSN                1
 GAP=223        0.38       4.1     3.9  4.2  0.1032E+02  0.3821E+01  0.1376E+01E
 Epicentro: VILLANUEVA - SANTANDER                                             3
 ACTION:UPD 12-08-06 17:52 OP:ep   STATUS:               ID:20120625003545 L   I
 2012-06-25-0030-00M.COL___198                                                 6
 STAT SP IPHASW D HRMM SECON CODA AMPLIT PERI AZIMU VELO AIN AR TRES W  DIS CAZ7
 BAR2 SZ ES   1    036 21.06                             174   -0.15 7 16.0 169 
 BRR  HZ EP   1    036  6.64                             154   -0.21 7 69.2 307 
 BRR  HZ I         036  6.88         5.5 0.23                          69.2 307 
 BRR  HN ES   1    036 23.98                             154    0.18 7 69.2 307 
 RUS  HZ EP   1    036  9.26                             147    0.20 7 94.1 171 
 RUS  HN ES   1    036 27.77                             147    0.04 7 94.1 171 
 RUS  HZ I         036 28.97         1.3 0.36                          94.1 171 
 PTB  HZ EP   1    036 11.83                             135   -0.07 7  140 261 
 PTB  HN ES   1    036 32.68                             135   -0.10 7  140 261 
 PTB  HZ I         036 34.41         2.0 0.23                           140 261 
 ZAR  HN ES   1    036 43.12                             124    0.13 6  201 295 
                                                                                
