 2014  525 0001 54.4 L   6.771 -73.150149.7  RSN  6 0.5 1.2LRSN                1
 GAP=119        1.19       6.2     6.9 11.2  0.1818E+02 -0.3023E+02 -0.2907E+02E
 Epicentro: LOS SANTOS - SANTANDER                                             3
 ACTION:UPD 15-03-16 17:00 OP:nd   STATUS:               ID:20140525000154 L   I
 OLDACT:REG 14-05-25 13:54 OP:stll STATUS:               ID:20140525000007     3
 2014-05-25-0000-07M.COL___224                                                 6
 STAT SP IPHASW D HRMM SECON CODA AMPLIT PERI AZIMU VELO AIN AR TRES W  DIS CAZ7
 BRR  HZ EP        0 2 16.58                             153    0.5710 72.4 301 
 BRR  HN ES        0 2 33.03                             153    0.1410 72.4 301 
 RUS  HZ EP        0 2 18.72                             146    0.4310 97.5 176 
 RUS  HE ES        0 2 36.84                             146   -0.1110 97.5 176 
 RUS  HZ I         0 2 38.70         2.4 0.42            144           97.5 176 
 PTB  HZ EP        0 2 21.26                             133   -0.31 9  147 260 
 PTB  HN ES        0 2 41.93                             133   -0.86 9  147 260 
 PTB  HZ I         0 2 47.94         2.4 0.36            131            147 260 
 ZAR  HN ES        0 2 53.40                             123    0.67 9  205 293 
 SML  HZ EP   2    0 2 32.15                             118    0.64 4  246 336 
 SML  HN ES        0 2 59.96                             118   -0.52 8  246 336 
 SOCV BZ EP        0 2 37.28                             113   -0.56 7  303  56 
                                                                                
