 2013 1025 0124 35.1 L   6.796 -73.150147.7  RSN  9 0.4 1.9LRSN                1
 GAP=182        0.90       2.6     4.9  5.4 -0.2051E+00  0.3519E+01  0.3869E-01E
 Epicentro: LOS SANTOS - SANTANDER                                             3
 ACTION:UPD 13-11-25 09:23 OP:ep   STATUS:               ID:20131025012435 L   I
 OLDACT:REG 13-10-25 07:18 OP:carl STATUS:               ID:20131025011847     3
 2013-10-25-0118-47M.COL___233                                                 6
 STAT SP IPHASW D HRMM SECON CODA AMPLIT PERI AZIMU VELO AIN AR TRES W  DIS CAZ7
 BAR2 SZ EP        124 55.07                             171    0.0710 22.9 189 
 BAR2 SZ ES        125 10.19                             171   -0.3010 22.9 189 
 BAR2 SZ I         125 11.80        24.4 0.32            166           22.9 189 
 BRR  HZ EP        124 57.04                             153    0.5510 71.0 299 
 BRR  HN ES        125 13.88                             153    0.7410 71.0 299 
 BRR  HZ I         125 18.95        10.4 0.12            148           71.0 299 
 RUS  HZ EP        124 59.00                             144   -0.0610  100 176 
 RUS  HN ES        125 17.32                             144   -0.3910  100 176 
 RUS  HZ I         125 18.75         6.9 0.34            145            100 176 
 PTB  HZ EP        125  2.14                             133   -0.08 9  147 259 
 PTB  HN ES        125 22.87                             133   -0.47 9  147 259 
 PTB  HZ I         125 30.68         6.5 0.38            130            147 259 
 OCA  HN ES        125 25.99                             130    0.13 9  161 353 
 SPBC HN ES        125 26.07                             130    0.04 9  163 219 
 SPBC HZ I         125 31.15        10.0 0.44            128            163 219 
 NOR  HZ EP        125 10.91                             119   -0.01 8  234 234 
 NOR  HN ES        125 38.79                             119   -0.03 8  234 234 
 NOR  HZ I         125 46.28         4.9 0.24            118            234 234 
 SML  HZ EP        125 11.48                             118   -0.41 8  244 335 
 SML  HN ES        125 40.01                             118   -0.55 8  244 335 
 SML  HZ I         125 44.17        16.4 0.24            119            244 335 
 CHI  HZ EP        125 13.16                             118    0.27 8  248 195 
 CHI  HN ES        125 42.63                             118    0.29 8  248 195 
 CHI  HZ I         125 48.36         3.4 0.34            118            248 195 
                                                                                
