 2016 1225 0612 52.7 L   6.563 -73.638104.0  RSN  4 0.4 0.8LRSN                1
 GAP=128        0.76       4.7     3.9  8.9  0.6671E+01  0.3725E+01  0.4217E+01E
 Epicentro: EL CARMEN - SANTANDER                                              3
 ACTION:UPD 17-01-11 20:18 OP:rebc STATUS:               ID:20161225061252 L   I
 OLDACT:UP  16-12-25 15:57 OP:cog  STATUS:               ID:20161225060746     3
 OLDACT:REG 16-12-25 13:10 OP:cog  STATUS:               ID:20161225060746     3
 2016-12-25-0608-00M.COL___375                                                 6
 STAT SP IPHASW D HRMM SECON CODA AMPLIT PERI AZIMU VELO AIN AR TRES W  DIS CAZ7
 BAR2 EZ EP        613  8.08                             152   -0.4210 50.5  86 
 BAR2 EZ ES        613 20.58                             152   -0.2510 50.5  86 
 BAR2 EZ I         613 22.10         5.3 0.30            155           50.5  86 
 BRR  HZ EP        613  8.81                             147    0.0310 60.7 352 
 BRR  HN ES        613 21.71                             147    0.3710 60.7 352 
 BRR  HZ I         613 22.50         2.0 0.42            150           60.7 352 
 PTB  HZ EP   3    613 11.02                             135   -0.07 2 90.5 268 
 PTB  HN ES        613 25.31                             135   -0.1310 90.5 268 
 PTB  HZ I         613 26.99         1.1 0.36            138           90.5 268 
 RUS  HZ EP   3    613 13.72                             134    1.48 2 96.3 140 
 RUS  HN ES        613 27.79                             134    0.3010 96.3 140 
 RUS  HZ I         613 27.94         1.0 0.48            137           96.3 140 
                                                                                
