 2013  725 0844 48.6 L   6.805 -73.159149.5  RSN  9 0.4 1.9LRSN                1
 GAP=182        0.87       3.2     5.6  5.3  0.4613E+01  0.3498E+01 -0.2727E+00E
 Epicentro: LOS SANTOS - SANTANDER                                             3
 ACTION:UPD 13-08-12 10:40 OP:ep   STATUS:               ID:20130725084448 L   I
 OLDACT:UP  13-07-25 12:41 OP:cam  STATUS:               ID:20130725083959     3
 OLDACT:REG 13-07-25 10:21 OP:cam  STATUS:               ID:20130725083959     3
 2013-07-25-0839-59M.COL___266                                                 6
 STAT SP IPHASW D HRMM SECON CODA AMPLIT PERI AZIMU VELO AIN AR TRES W  DIS CAZ7
 BAR2 SZ EP     C  845  8.67                             171   -0.0410 23.7 186 
 BAR2 SZ ES        845 23.99                             171   -0.3910 23.7 186 
 BAR2 SZ I         845 25.37        22.4 0.14            172           23.7 186 
 GIR2 SZ EP        845  8.76                             168    0.0410 30.5 353 
 BRR  HZ EP        845 10.54                             154    0.4510 69.6 299 
 BRR  HE ES        845 27.60                             154    0.7710 69.6 299 
 BRR  HZ I         845 30.06        11.5 0.32            152           69.6 299 
 RUS  HZ EP        845 12.75                             144   -0.0410  101 175 
 RUS  HN ES        845 31.64                             144   -0.0010  101 175 
 RUS  HZ I         845 32.22         6.5 0.28            147            101 175 
 PTB  HZ EP        845 15.43                             133   -0.35 9  146 258 
 PTB  HN ES        845 36.42                             133   -0.54 9  146 258 
 PTB  HZ I         845 39.28        10.5 0.16            134            146 258 
 NOR  HZ EP        845 24.83                             119    0.35 8  234 234 
 SML  HZ EP        845 25.13                             118   -0.21 8  243 336 
 SML  HE ES        845 53.68                             118   -0.30 8  243 336 
 SML  HZ I         845 59.27        10.6 0.20            119            243 336 
 CHI  HZ EP   1    845 26.44                             118   -0.11 6  249 195 
 CHI  HN ES        845 56.18                             118    0.05 8  249 195 
 PRA  HZ EP   1    845 42.69                             107    0.44 4  392 209 
                                                                                
