 2013  625 0027 22.8 L   6.472 -73.916 21.6  RSN  7 0.4 1.8LRSN                1
 GAP=135        1.02       2.8     1.8  4.1 -0.5075E+00  0.4850E+00  0.6177E+00E
 Epicentro: CIMITARRA - SANTANDER                                              3
 ACTION:UPD 14-01-08 09:56 OP:ep   STATUS:               ID:20130625002722 L   I
 OLDACT:REG 13-06-25 06:24 OP:jn   STATUS:               ID:20130625001959     3
 2013-06-25-0019-59M.COL___267                                                 6
 STAT SP IPHASW D HRMM SECON CODA AMPLIT PERI AZIMU VELO AIN AR TRES W  DIS CAZ7
 PTB  HZ EP        027 33.04                             107    0.1010 60.2 277 
 PTB  HN ES        027 41.21                             107    0.3610 60.2 277 
 PTB  HZ I         027 41.75        98.3 0.08            107           60.2 277 
 BRR  HZ EP        027 34.79                             104   -0.1010 73.7  18 
 BRR  HN ES        027 44.26                             104   -0.0710 73.7  18 
 BRR  HZ I         027 46.27        21.8 0.12            103           73.7  18 
 BAR2 SZ EP        027 36.48                             103    0.0810 82.2  81 
 BAR2 SZ ES        027 46.44                             103   -0.5710 82.2  81 
 GIR2 SZ EP        027 39.55                             100   -0.0310  104  50 
 GIR2 SZ ES        027 52.37                             100   -0.2910  104  50 
 RUS  HZ EP     D  027 41.50                              99    0.3710  112 125 
 RUS  HN ES        027 55.40                              99   -0.0410  112 125 
 RUS  HZ I         027 56.41         7.8 0.20             99            112 125 
 PAM  SZ EP        027 48.47                              56    0.69 9  165  54 
 PAM  SN ES        028  7.71                              56    0.44 9  165  54 
 PAM  SZ I         028  9.29        15.0 0.18             56            165  54 
 HEL  HZ EP        027 49.37                              56   -0.26 9  181 260 
 HEL  HN ES   1    028  9.34                              56   -1.22 7  181 260 
                                                                                
