 2016  225 0827 16.6 L   6.791 -73.159135.9  RSN 12 0.4 1.8LRSN                1
 GAP=135        0.90       2.8     4.1  6.0 -0.2361E+01  0.9670E+01  0.2055E+01E
 Epicentro: LOS SANTOS - SANTANDER                                             3
 ACTION:UPD 16-03-04 21:29 OP:rebc STATUS:               ID:20160225082716 L   I
 OLDACT:UP  16-02-25 18:07 OP:mh   STATUS:               ID:20160225081749     3
 OLDACT:UP  16-02-25 15:29 OP:dnl  STATUS:               ID:20160225081749     3
 OLDACT:REG 16-02-25 13:38 OP:mh   STATUS:               ID:20160225081749     3
 2016-02-25-0817-49M.COL___324                                                 6
 STAT SP IPHASW D HRMM SECON CODA AMPLIT PERI AZIMU VELO AIN AR TRES W  DIS CAZ7
 BAR2 EZ EP        827 35.06                             170    0.0210 22.1 187 
 BAR2 EZ ES        827 48.90                             170   -0.5110 22.1 187 
 BAR2 EZ I         827 51.02        14.1 0.36            170           22.1 187 
 PAM  EZ EP        827 38.09                             148    0.1910 79.1  40 
 PAM  EE ES        827 55.01                             148    0.5010 79.1  40 
 PAM  EZ I         827 57.13        19.2 0.52            151           79.1  40 
 RUS  HZ EP        827 39.10                             142   -0.2510 99.7 175 
 RUS  HE ES        827 57.52                             142    0.4510 99.7 175 
 RUS  HZ I         827 58.49         6.2 0.32            144           99.7 175 
 PTB  HZ EP   3    827 43.00                             130    0.35 2  146 259 
 PTB  HN ES   2    828  2.62                             130   -0.33 5  146 259 
 PTB  HZ I         828  5.46         4.8 0.16            128            146 259 
 SPBC HZ EP        827 44.10                             127   -0.11 9  161 219 
 OCA  HZ EP   2    827 43.50                             127   -0.76 5  161 354 
 SPBC HZ I         828  8.68        10.6 0.20            127            161 219 
 OCA  HN ES        828  5.24                             127   -0.59 9  161 354 
 SPBC HE ES        828  5.98                             127    0.25 9  161 219 
 OCA  HZ I         828 12.33        19.7 0.26            127            161 354 
 ZAR  HZ EP   4    827 50.22                             120    1.88 0  203 293 
 ZAR  HE ES        828 13.52                             120    0.44 9  203 293 
 ZAR  HZ I         828 19.06         4.0 0.12            119            203 293 
 NOR  HZ EP   2    827 51.84                             116    0.24 4  233 234 
 NOR  HE ES   2    828 18.89                             116    0.01 4  233 234 
 NOR  HZ I         828 23.09         6.5 0.18            116            233 234 
 CHI  HZ EP        827 53.28                             115   -0.36 8  247 195 
 CHI  HE ES        828 22.03                             115   -0.48 8  247 195 
 CHI  HZ I         828 28.46         1.7 0.40            116            247 195 
 HEL  HZ EP   4    827 58.44                             113    2.28 0  270 256 
 HEL  HE ES   3    828 26.66                             113   -0.34 2  270 256 
 HEL  HZ I         828 33.79         3.0 0.36            112            270 256 
 GUY2CHZ EP        828  0.54                             110    0.96 7  299 235 
 GUY2CHE ES        828 32.75                             110   -0.35 7  299 235 
 GUY2CHZ I         828 42.57         3.2 0.64                           299 235 
 ORTC HZ EP   2    828 10.50                             105    0.48 3  394 216 
 ORTC HN ES   4    828 53.08                             105    1.41 0  394 216 
 ORTC HZ I         828 59.55         2.4 0.20            105            394 216 
                                                                                
