 2011  625 0733 15.4 L   6.804 -73.241143.2  RSN  4 0.3 1.4LRSN                1
 GAP=155        0.71      22.5    21.2  7.4  0.4007E+03 -0.1031E+02 -0.9790E+01E
 Epicentro: ZAPATOCA - SANTANDER                                               3
 ACTION:UP  11-07-14 19:07 OP:ep   STATUS:               ID:20110625073315 L   I
 2011-06-25-0732-32S.COL___140                                                 6
 STAT SP IPHASW D HRMM SECON CODA AMPLIT PERI AZIMU VELO SNR AR TRES W  DIS CAZ7
 BTL  SZ EP        733 34.63                             174     0.010   13 347 
 BTL  SZ ES   1    733 49.56                             174     0.0 7   13 347 
 BAR2 SZ EP        733 34.43                             170    -0.310   24 165 
 BAR2 SZ ES   1    733 50.14                             170     0.3 7   24 165 
 GIR2 SZ EP   3    733 34.47                             167    -0.3 2   31  10 
 BRR  HZ EP        733 36.17                             155     0.410   62 303 
 BRR  HZ I         733 36.43         5.4 0.15                            62 303 
 BRR  HN ES   1    733 51.27                             155    -0.4 7   62 303 
                                                                                
