 2011  225 0531 47.6 L   6.758 -73.187136.8  RSN  6 0.3 3.1LRSN                1
 GAP=154        0.65       3.3     5.5  6.3 -0.7038E+01  0.1701E+02 -0.4436E+01E
 Epicentro: VILLANUEVA - SANTANDER                                             3
 ACTION:UP  11-03-28 15:11 OP:jfem STATUS:               ID:20110225053147 L   I
 2011-02-25-0530-24S.COL___137                                                 6
 STAT SP IPHASW D HRMM SECON CODA AMPLIT PERI AZIMU VELO SNR AR TRES W  DIS CAZ7
 BAR2 SZ IP        532  6.17                             172     0.110   18 179 
 BAR2 SZ ES   1    532 20.65                             172     0.2 7   18 179 
 BAR2 SZ I         532 22.78       235.0 0.25                            18 179 
 RUS  HZ EP   1    532 10.03                             143    -0.2 7   96 173 
 RUS  HN ES   1    532 27.51                             143    -0.3 7   96 173 
 RUS  HZ I         532 29.84       143.6 0.31                            96 173 
 GRA  SZ IP        532 12.95                             133     0.410  132  19 
 GRA  SZ ES   1    532 31.66                             133    -0.4 7  132  19 
 GRA  SZ I         532 33.92       276.3 0.36                           132  19 
 CHI  HZ EP   1    532 24.12                             116    -0.1 6  243 194 
 CHI  HN ES   1    532 52.85                             116     0.1 6  243 194 
 CHI  HZ I         532 59.27        86.6 0.32                           243 194 
 HEL  HZ EP   1    532 26.87                             113     0.1 6  266 257 
 HEL  HN ES   1    532 57.50                             113     0.2 6  266 257 
 HEL  HZ I         533  4.90       102.1 0.28                           266 257 
 DBB  SZ EP   1    532 33.62                             108    -0.6 5  335 275 
                                                                                
