 2016  625 0313  0.9 L   6.746 -73.176146.8  RSN  5 0.4 1.2LRSN                1
 GAP=230        1.04       8.0     7.3  8.1  0.3619E+02  0.8654E+01 -0.1057E+01E
 Epicentro: LOS SANTOS - SANTANDER                                             3
 ACTION:UPD 16-07-21 22:22 OP:rebc STATUS:               ID:20160625031300 L   I
 OLDACT:REG 16-06-25 12:17 OP:ak   STATUS:               ID:20160625030740     3
 2016-06-25-0307-40M.COL___328                                                 6
 STAT SP IPHASW D HRMM SECON CODA AMPLIT PERI AZIMU VELO AIN AR TRES W  DIS CAZ7
 BAR2 EZ EP        313 20.24                             173   -0.3310 17.0 182 
 BAR2 EZ ES        313 35.21                             173   -0.6710 17.0 182 
 BAR2 EZ I         313 36.50         3.5 0.16                          17.0 182 
 BRR  HZ EP        313 22.31                             153    0.1210 71.4 304 
 BRR  HN ES        313 39.29                             153    0.5110 71.4 304 
 BRR  HZ I         313 42.31         4.9 0.44                          71.4 304 
 RUS  HZ EP        313 24.81                             146    0.4310 94.9 174 
 RUS  HN ES        313 43.05                             146    0.3910 94.9 174 
 RUS  HZ I         313 44.16         1.5 0.36                          94.9 174 
 PTB  HZ EP        313 27.29                             133   -0.29 9  143 261 
 PTB  HE ES        313 48.02                             133   -0.35 9  143 261 
 PTB  HZ I         313 55.09         2.3 0.40                           143 261 
 ZAR  HZ EP   2    313 32.68                             123   -0.68 4  203 294 
 ZAR  HN ES        313 58.98                             123    0.33 9  203 294 
 ZAR  HZ I         314  4.73         2.2 0.11                           203 294 
                                                                                
