 2010 1125 0212 25.0 L   6.800 -73.040137.9  RSN  5 0.2 1.7LRSN                1
 GAP=170        0.56       4.5     8.0  6.4  0.1370E+02 -0.1881E+02 -0.9253E+01E
 Epicentro: CEPITA - SANTANDER                                                 3
 ACTION:UP  10-12-17 16:54 OP:REBC STATUS:               ID:20101125021225 L   I
 2010-11-25-0210-41S.COL___129                                                 6
 STAT SP IPHASW D HRMM SECON CODA AMPLIT PERI AZIMU VELO SNR AR TRES W  DIS CAZ7
 BAR2 SZ EP        212 43.81                             169     0.010   28 215 
 BAR2 SZ ES   1    212 58.50                             169     0.0 7   28 215 
 BAR2 SZ I         212 59.96        21.4 0.17                            28 215 
 BRR  HZ EP   1    212 45.68                             148    -0.3 7   82 295 
 BRR  HN ES   1    213  2.45                             148     0.1 7   82 295 
 BRR  HZ I         213  4.06        11.4 0.30                            82 295 
 RUS  HZ EP   1    212 47.76                             143    -0.3 7  101 183 
 RUS  HN ES   1    213  6.13                             143     0.2 7  101 183 
 RUS  HZ I         213  7.93         7.7 0.42                           101 183 
 GRA  SZ EP   1    212 49.61                             136     0.3 7  123  12 
 GRA  SZ I         213 10.55         4.8 0.38                           123  12 
 RREF HZ EP   2    213 12.32                             109     0.4 3  331 231 
 RREF HZ I         213 56.36         2.9 0.62                           331 231 
                                                                                
