 2010  325 0337  0.7 L   6.538 -73.513111.9  RSN  9 0.4 2.2LRSN                1
 GAP= 74        0.86       3.2     5.4  7.0  0.1187E+01  0.2223E+02  0.4527E+01E
 Epicentro: EL CARMEN DE CHUCURI - SANTANDER                                   3
 ACTION:UP  10-08-24 09:55 OP:vdl  STATUS:               ID:20100325033700 L   I
 2010-03-25-0335-28S.COL___098                                                 6
 STAT SP IPHASW D HRMM SECON CODA AMPLIT PERI AZIMU VELO SNR AR TRES W  DIS CAZ7
 BAR2 SZ IP        337 16.78                             161     0.110   37  81 
 BAR2 SZ ES   1    337 29.05                             161    -0.2 7   37  81 
 BRR  HZ IP        337 17.60                             147    -0.410   67 341 
 BRR  HN ES   1    337 31.56                             147     0.1 7   67 341 
 BRR  HZ I         337 34.66        48.0 0.19                            67 341 
 RUS  HZ EP        337 19.82                             140    -0.210   86 146 
 RUS  HE ES   1    337 35.33                             140     0.2 7   86 146 
 RUS  HZ I         337 36.89        33.6 0.28                            86 146 
 OCA  SZ EP        337 29.12                             116    -0.6 9  189   6 
 OCA  SZ ES   1    337 53.36                             116     1.0 7  189   6 
 CHI  HZ EP        337 32.93                             113     0.3 8  212 187 
 CHI  HE ES   2    337 57.46                             113    -0.1 4  212 187 
 CHI  HZ I         338  1.43         6.4 0.36                           212 187 
 HEL  HZ EP        337 34.48                             111     0.4 8  226 260 
 HEL  HN ES   2    337 59.69                             111    -0.5 4  226 260 
 HEL  HZ I         338  7.13        18.1 0.22                           226 260 
 RREF BZ EP   1    337 39.32                             107    -0.4 6  272 228 
 RREF BE ES   2    338 10.37                             107     0.2 4  272 228 
 RREF BZ I         338 14.16        10.6 0.30                           272 228 
 DBB  SZ EP        337 42.87                             105     0.2 7  303 280 
 PRA  HZ EP        337 48.16                             102     0.3 6  347 206 
 PRA  HE ES   2    338 24.65                             102    -0.1 3  347 206 
 PRA  HZ I         338 30.12        10.4 0.45                           347 206 
                                                                                
