 2015  625 0621 54.5 L   6.842 -72.962141.2  RSN  6 0.3 1.8LRSN                1
 GAP=202        0.76       3.2     5.4  5.9  0.5582E+01  0.7684E+01  0.2846E+00E
 Epicentro: CEPITA - SANTANDER                                                 3
 ACTION:UPD 15-09-10 22:14 OP:cam  STATUS:               ID:20150625062154 L   I
 OLDACT:UP  15-06-25 16:45 OP:mh   STATUS:               ID:20150625061749     3
 OLDACT:UP  15-06-25 16:45 OP:mh   STATUS:               ID:20150625061749     3
 OLDACT:UP  15-06-25 16:44 OP:mh   STATUS:               ID:20150625061749     3
 OLDACT:REG 15-06-25 12:17 OP:mh   STATUS:               ID:20150625061749     3
 2015-06-25-0617-49M.COL___322                                                 6
 STAT SP IPHASW D HRMM SECON CODA AMPLIT PERI AZIMU VELO AIN AR TRES W  DIS CAZ7
 BAR2 EZ EP        622 14.28                             165    0.3810 36.8 221 
 BAR2 EZ ES        622 29.01                             165   -0.0610 36.8 221 
 BAR2 EZ I         622 29.97        11.3 0.38            171           36.8 221 
 BRR  HZ EP   1    622 16.18                             146    0.01 7 87.9 290 
 BRR  HN ES        622 33.25                             146    0.1510 87.9 290 
 BRR  HZ I         622 36.03        10.6 0.26            143           87.9 290 
 RUS  HZ EP        622 18.39                             141    0.2310  106 187 
 RUS  HN ES        622 36.22                             141   -0.4210  106 187 
 RUS  HZ I         622 37.88         6.6 0.46            144            106 187 
 OCA  HE ES        622 44.12                             129    0.03 9  159 346 
 OCA  HZ I         623  2.09        12.2 0.46            122            159 346 
 ZAR  HZ EP        622 27.76                             119   -0.68 8  221 289 
 ZAR  HE ES        622 54.99                             119    0.04 8  221 289 
 ZAR  HZ I         622 58.98         7.2 0.30            116            221 289 
 TOL  SE ES        623 24.01                             107    0.32 6  361 226 
 TOL  SZ I         623 33.24         2.0 0.50            106            361 226 
                                                                                
