 2013  225 0528 18.1 L   6.371 -73.752 12.1  RSN  6 0.5 1.5LRSN                1
 GAP=139        1.19       3.2     2.2  5.5  0.5192E+00  0.2258E+01  0.3010E+00E
 Epicentro: SANTA HELENA DEL OPON - SANTANDER                                  3
 ACTION:UPD 13-03-12 09:35 OP:ep   STATUS:               ID:20130225052818 L   I
 2013-02-25-0518-49M.COL___196                                                 6
 STAT SP IPHASW D HRMM SECON CODA AMPLIT PERI AZIMU VELO AIN AR TRES W  DIS CAZ7
 BAR2 SZ EP        528 29.41                              98    0.1910 67.6  69 
 BAR2 SZ ES        528 37.32                              98   -0.6110 67.6  69 
 BAR2 SZ I         528 39.96        16.0 0.38             95           67.6  69 
 PTB  HZ IP     D  528 30.77                              96   -0.1010 80.1 284 
 PTB  HN ES        528 40.62                              96   -0.2410 80.1 284 
 PTB  HN I         528 44.28         9.5 0.30             94           80.1 284 
 BRR  HZ EP        528 31.45                              96    0.3810 81.6   3 
 BRR  HN ES        528 41.17                              96   -0.0510 81.6   3 
 BRR  HN I         528 41.93        14.2 0.34             94           81.6   3 
 RUS  HZ IP     D  528 33.64                              96    0.6310 91.0 125 
 RUS  HZ I         528 33.80         9.7 0.12             94           91.0 125 
 RUS  HN ES        528 44.24                              96   -0.4310 91.0 125 
 PAM  SZ EP   1    528 44.11                              56    1.13 7  158  47 
 PAM  SN ES        529  2.13                              56   -0.29 9  158  47 
 PAM  SN I         529  6.94        16.0 0.18             56            158  47 
 HEL  HZ EP        528 48.29                              56    0.52 9  198 264 
 HEL  HN ES        529 10.34                              56   -0.60 9  198 264 
 HEL  HN I         529 11.75         6.4 0.18             56            198 264 
                                                                                
