 2014  725 0841 23.4 L   6.791 -73.121139.9  RSN  5 0.3 1.4LRSN                1
 GAP=222        0.71       3.4     4.8  6.7  0.4147E+00  0.1848E+01 -0.8129E+01E
 Epicentro: LOS SANTOS - SANTANDER                                             3
 ACTION:UPD 15-03-16 20:46 OP:nd   STATUS:               ID:20140725084123 L   I
 OLDACT:REG 14-07-25 13:38 OP:spq  STATUS:               ID:20140725083817     3
 2014-07-25-0838-17M.COL___266                                                 6
 STAT SP IPHASW D HRMM SECON CODA AMPLIT PERI AZIMU VELO AIN AR TRES W  DIS CAZ7
 BAR2 SZ EP        841 41.85                             170   -0.4710 22.9 197 
 BAR2 SZ ES   1    841 57.59                             170    0.52 7 22.9 197 
 BAR2 SZ I         842  0.52         5.5 0.30            170           22.9 197 
 PTB  HZ EP        841 50.48                             130    0.36 9  150 259 
 PTB  HN ES        842 10.83                             130   -0.14 9  150 259 
 PTB  HZ I         842 16.46         2.7 0.20            132            150 259 
 SPBC HZ EP        841 51.69                             127    0.15 9  164 220 
 SPBC HN ES        842 13.22                             127   -0.27 9  164 220 
 SPBC HZ I         842 16.25         2.6 0.20            131            164 220 
 ZAR  HZ EP        841 55.96                             120    0.19 8  207 292 
 ZAR  HN ES        842 21.10                             120    0.08 8  207 292 
 ZAR  HZ I         842 27.99         1.6 0.21            123            207 292 
 SML  HZ EP        842  0.06                             116    0.13 8  246 335 
 SML  HN ES        842 28.14                             116   -0.29 8  246 335 
 SML  HZ I         842 31.85         3.7 0.04            119            246 335 
                                                                                
