 2014 1125 0232 32.1 L   6.847 -73.150148.0  RSN  4 0.4 1.5LRSN                1
 GAP=245        0.97       8.0     7.2 11.7  0.3127E+02 -0.1052E+01 -0.3488E+02E
 Epicentro: LOS SANTOS - SANTANDER                                             3
 ACTION:UPD 14-12-19 15:47 OP:nd   STATUS:               ID:20141125023232 L   I
 OLDACT:DUP 14-11-25 15:14 OP:mh   STATUS:               ID:20141125022745d    3
 2014-11-25-0227-44M.COL___303                                                 6
 STAT SP IPHASW D HRMM SECON CODA AMPLIT PERI AZIMU VELO AIN AR TRES W  DIS CAZ7
 RUS  HZ EP        232 56.61                             143    0.1310  106 176 
 RUS  HN ES        233 15.47                             143   -0.0110  106 176 
 RUS  HZ I         233 16.67         2.2 0.46            145            106 176 
 PTB  HZ EP        232 59.62                             133    0.29 9  148 257 
 PTB  HN ES   1    233 19.89                             133   -0.66 7  148 257 
 PTB  HZ I         233 25.36         3.3 0.14            132            148 257 
 ZAR  HZ EP        233  3.67                             123   -0.80 9  202 291 
 ZAR  HN ES        233 30.32                             123    0.62 9  202 291 
 ZAR  HZ I         233 36.86         4.1 0.26            124            202 291 
 NOR  HZ EP        233  8.40                             119    0.13 8  237 233 
 NOR  HN ES        233 36.48                             119    0.01 8  237 233 
 NOR  HZ I         233 42.99         3.3 0.14            120            237 233 
                                                                                
