 2012 1125 0539 21.5 L   6.804 -73.125139.3  RSN  4 0.1 1.6LRSN                1
 GAP=139        0.32       2.5     3.8  4.7  0.3558E+00  0.7003E+01  0.2721E+01E
 Epicentro: LOS SANTOS - SANTANDER                                             3
 ACTION:UPD 12-12-05 15:36 OP:}ep  STATUS:               ID:20121125053921 L   I
 2012-11-25-0534-37M.COL___201                                                 6
 STAT SP IPHASW D HRMM SECON CODA AMPLIT PERI AZIMU VELO AIN AR TRES W  DIS CAZ7
 BAR2 SZ EP        539 40.39                             170    0.0410 24.2 195 
 BAR2 SZ ES   2    539 54.90                             170   -0.17 5 24.2 195 
 BAR2 SZ I         539 56.73        12.5 0.20                          24.2 195 
 PAM  SN ES   1    539 59.63                             150    0.01 7 75.6  38 
 RUS  HZ EP        539 44.57                             142   -0.0510  101 177 
 RUS  HE ES   1    540  2.75                             142    0.08 7  101 177 
 RUS  HZ I         540  4.77         4.1 0.33                           101 177 
 ZAR  HN ES   2    540 18.90                             121    0.03 4  206 292 
 ZAR  HZ I         540 24.99         4.2 0.37                           206 292 
                                                                                
