 2014  725 0925 21.0 L   6.793 -73.173143.7  RSN  5 0.2 1.2LRSN                1
 GAP=188        0.55       2.5     3.6  5.3 -0.1174E+01  0.3934E+01 -0.7070E+00E
 Epicentro: LOS SANTOS - SANTANDER                                             3
 ACTION:UPD 15-03-16 20:47 OP:nd   STATUS:               ID:20140725092521 L   I
 OLDACT:DUP 14-07-25 16:54 OP:spq  STATUS:               ID:20140725091813d    3
 OLDACT:UP  14-07-25 16:42 OP:spq  STATUS:               ID:20140725091812     3
 OLDACT:REG 14-07-25 13:40 OP:spq  STATUS:               ID:20140725091812     3
 2014-07-25-0918-12M.COL___266                                                 6
 STAT SP IPHASW D HRMM SECON CODA AMPLIT PERI AZIMU VELO AIN AR TRES W  DIS CAZ7
 BAR2 SZ EP        925 40.39                             171    0.0110 22.2 183 
 BAR2 SZ ES   1    925 55.44                             171   -0.04 7 22.2 183 
 BAR2 SZ I         925 57.00         2.7 0.18            168           22.2 183 
 PTB  HZ EP        925 47.38                             132   -0.15 9  145 259 
 PTB  HN ES        926  8.62                             132    0.41 9  145 259 
 PTB  HZ I         926 15.48         1.9 0.28            132            145 259 
 OCA  HN ES        926 11.22                             129    0.02 9  161 354 
 OCA  HZ I         926 14.18         2.2 0.04            132            161 354 
 SPBC HZ EP        925 49.29                             129    0.17 9  161 218 
 SPBC HE ES        926 10.78                             129   -0.26 9  161 218 
 SPBC HZ I         926 17.88         2.0 0.24            131            161 218 
 ZAR  HZ EP        925 53.15                             122    0.08 9  202 293 
 ZAR  HE ES        926 17.77                             122   -0.30 9  202 293 
 ZAR  HZ I         926 25.17         2.3 0.26            123            202 293 
                                                                                
