 2015  125 0857 25.5 L   6.765 -73.152147.8  RSN  5 0.3 0.8LRSN                1
 GAP=137        0.71       4.8     4.6  6.5 -0.2055E+01 -0.3902E+00  0.1416E+01E
 Epicentro: LOS SANTOS - SANTANDER                                             3
 ACTION:UPD 15-03-02 15:42 OP:nd   STATUS:               ID:20150125085725 L   I
 OLDACT:DUP 15-01-25 17:57 OP:spq  STATUS:               ID:20150125084745d    3
 OLDACT:DUP 15-01-25 17:46 OP:spq  STATUS:               ID:20150125084743d    3
 2015-01-25-0847-42M.COL___271                                                 6
 STAT SP IPHASW D HRMM SECON CODA AMPLIT PERI AZIMU VELO AIN AR TRES W  DIS CAZ7
 BAR2 EZ ES   1    858  0.80                             172    0.07 7 19.4 190 
 BAR2 EZ I         858  1.21         2.8 0.20            171           19.4 190 
 BRR  HZ EP   1    857 47.39                             152    0.47 7 72.6 301 
 BRR  HN ES        858  3.94                             152    0.2910 72.6 301 
 BRR  HZ I         858  4.81         2.7 0.36            153           72.6 301 
 PAM  SZ EP        857 48.17                             150    0.0610 80.8  38 
 PAM  SE ES   1    858  5.24                             150   -0.53 7 80.8  38 
 PAM  SZ I         858  6.63         0.6 0.28            152           80.8  38 
 RUS  HZ EP   1    857 49.31                             145    0.15 7 96.8 176 
 RUS  HE ES   1    858  7.65                             145    0.02 7 96.8 176 
 RUS  HZ I         858  9.23         0.4 0.52            146           96.8 176 
 PTB  HZ EP   1    857 52.02                             133   -0.47 7  146 260 
 PTB  HE ES   1    858 13.12                             133   -0.44 7  146 260 
 PTB  HZ I         858 15.69         0.8 0.24            133            146 260 
                                                                                
