 2012  325 0304 33.0 L   6.756 -73.160154.7  RSN  6 0.3 1.9LRSN                1
 GAP=137        0.56       5.1     4.0  6.3  0.1643E-02  0.3667E+01 -0.1263E+01E
 ACTION:UP  12-03-31 23:22 OP:EP   STATUS:               ID:20120325030434dL   I
 2012-03-25-0300-00M.COL___196                                                 6
 STAT SP IPHASW D HRMM SECON CODA AMPLIT PERI AZIMU VELO SNR AR TRES W  DIS CAZ7
 BAR2 SZ EP   2    3 4 53.70                             173     0.1 5   18 188 
 BAR2 SZ ES   2    3 5  9.49                             173    -0.2 5   18 188 
 BRR  HZ EP        3 4 55.46                             154     0.310   72 303 
 BRR  HZ I         3 4 55.77        25.8 0.26                            72 303 
 BRR  HN ES   2    3 5 12.81                             154     0.3 5   72 303 
 PAM  SZ EP   1    3 4 56.35                             151    -0.1 7   82  38 
 PAM  SE ES   2    3 5 14.33                             151    -0.4 5   82  38 
 RUS  HZ EP   1    3 4 57.41                             147     0.1 7   96 175 
 RUS  HE ES   2    3 5 16.50                             147     0.2 5   96 175 
 RUS  HZ I         3 5 17.99         7.1 0.46                            96 175 
 PTB  HZ EP        3 5  0.24                             134    -0.2 9  145 261 
 PTB  HN ES   1    3 5 21.54                             134    -0.4 7  145 261 
 PTB  HZ I         3 5 29.26         5.8 0.47                           145 261 
 ZAR  HZ EP   2    3 5  5.89                             124    -0.2 4  205 294 
 ZAR  HN ES   2    3 5 32.25                             124     0.4 4  205 294 
 ZAR  HZ I         3 5 38.05        10.0 0.36                           205 294 
                                                                                
