 2014  825 0258 52.4 L   7.552 -73.256136.0  RSN  4 0.4 1.8LRSN                1
 GAP=181        0.79       3.7     9.5 11.4 -0.5892E+01  0.5854E+02  0.2701E+01E
 Epicentro: EL PLAYON - SANTANDER                                              3
 ACTION:UPD 14-09-15 21:52 OP:nd   STATUS:               ID:20140825025852 L   I
 OLDACT:UP  14-08-25 15:28 OP:fm   STATUS:               ID:20140825025818     3
 OLDACT:REG 14-08-25 13:22 OP:fm   STATUS:               ID:20140825025818     3
 2014-08-25-0258-18M.COL___233                                                 6
 STAT SP IPHASW D HRMM SECON CODA AMPLIT PERI AZIMU VELO AIN AR TRES W  DIS CAZ7
 OCA  HN ES        259 29.45                             149    0.3210 76.3 355 
 OCA  HZ  AMP      259 31.92        60.6 0.24                          76.3 355 
 BAR2 SZ ES   1    259 32.79                             140   -0.37 7  106 176 
 BAR2 SZ I         259 35.07         7.8 0.32            142            106 176 
 SML  HZ EP   1    259 20.41                             127    0.21 7  165 327 
 SML  HN ES   1    259 41.12                             127   -0.77 7  165 327 
 SML  HZ I         259 45.71        10.8 0.10            128            165 327 
 PTB  HZ EP   1    259 21.00                             125   -0.10 7  174 230 
 PTB  HE ES        259 43.73                             125    0.25 9  174 230 
 PTB  HZ I         259 48.42         2.1 0.20            125            174 230 
                                                                                
