 2014 1025 0703 16.3 L   6.751 -73.130147.2  RSN  4 0.5 1.2LRSN                1
 GAP=141        1.19       6.5     6.3 10.6 -0.4583E+01  0.6319E+01  0.8075E+01E
 Epicentro: LOS SANTOS - SANTANDER                                             3
 ACTION:UPD 14-11-29 23:56 OP:nd   STATUS:               ID:20141025070316 L   I
 OLDACT:REG 14-10-28 13:41 OP:cam  STATUS:               ID:20141025065815     3
 2014-10-25-0658-15M.COL___283                                                 6
 STAT SP IPHASW D HRMM SECON CODA AMPLIT PERI AZIMU VELO AIN AR TRES W  DIS CAZ7
 BRR  HZ EP        7 3 38.00                             151    0.1810 75.4 301 
 BRR  HZ I         7 3 38.37         4.3 0.18            153           75.4 301 
 BRR  HE ES        7 3 55.42                             151    0.8010 75.4 301 
 PAM  SZ EP        7 3 39.11                             150    0.2710 80.6  36 
 PAM  SN ES        7 3 55.75                             150   -0.6810 80.6  36 
 PAM  SN I         7 3 58.00         3.9 0.52            151           80.6  36 
 RUS  HZ EP        7 3 39.97                             146    0.1910 95.1 177 
 RUS  HN ES        7 3 58.15                             146    0.0310 95.1 177 
 RUS  HN I         7 3 59.84         2.5 0.52            146           95.1 177 
 PTB  HZ EP        7 3 43.12                             132   -0.31 9  149 261 
 PTB  HN ES        7 4  4.00                             132   -0.61 9  149 261 
 PTB  HZ I         7 4  5.70         1.6 0.46            134            149 261 
                                                                                
