 2013 1125 0846  3.1 L   6.789 -73.141150.0  RSN  7 0.5 1.4LRSN                1
 GAP=138        1.20       5.1     5.7  9.0  0.4703E+01  0.6473E+01  0.6803E+01E
 Epicentro: LOS SANTOS - SANTANDER                                             3
 ACTION:UPD 14-01-09 16:31 OP:ep   STATUS:               ID:20131125084603 L   I
 OLDACT:REG 13-11-25 08:06 OP:mh   STATUS:               ID:20131125084000     3
 2013-11-25-0840-00M.COL___282                                                 6
 STAT SP IPHASW D HRMM SECON CODA AMPLIT PERI AZIMU VELO AIN AR TRES W  DIS CAZ7
 BAR2 SZ EP        846 23.22                             171   -0.0210 22.2 192 
 BRR  HZ EP        846 24.90                             153    0.1110 72.2 299 
 BRR  HN ES        846 42.37                             153    0.6810 72.2 299 
 BRR  HZ I         846 45.17         4.5 0.13            151           72.2 299 
 PAM  SZ EP        846 25.76                             151   -0.0710 78.0  39 
 PAM  SN ES   1    846 42.63                             151   -0.91 7 78.0  39 
 PAM  SZ I         846 45.10         4.1 0.20            156           78.0  39 
 RUS  HZ EP   1    846 27.52                             145    0.31 7 99.3 176 
 RUS  HN ES        846 46.38                             145    0.3910 99.3 176 
 RUS  HZ I         846 47.85         3.1 0.39            148           99.3 176 
 PTB  HZ EP        846 29.70                             133   -0.76 9  148 259 
 PTB  HN ES        846 51.10                             133   -0.69 9  148 259 
 PTB  HZ I         846 58.97         3.8 0.10            133            148 259 
 ZAR  HZ EP        846 36.18                             123    0.24 9  205 292 
 ZAR  HN ES        847  1.90                             123    0.36 9  205 292 
 ZAR  HZ I         847  8.69         4.2 0.31            124            205 292 
 CHI  HZ EP        846 41.54                             118    0.59 8  248 195 
 CHI  HN ES        847  9.99                             118   -0.46 8  248 195 
                                                                                
