 2017  825 0626 17.1 L   6.787 -73.166146.0  RSN  5 0.3 1.2LRSN                1
 GAP=210        0.58       6.2     5.4  4.9  0.2347E+02  0.1542E+01  0.6213E+01E
 Epicentro: LOS SANTOS - SANTANDER                                             3
 ACTION:UPD 17-09-04 20:24 OP:rebc STATUS:               ID:20170825062617 L   I
 OLDACT:REG 17-08-25 12:40 OP:and  STATUS:               ID:20170825061738     3
 2017-08-25-0618-00M.COL___411                                                 6
 STAT SP IPHASW D HRMM SECON CODA AMPLIT PERI AZIMU VELO AIN AR TRES W  DIS CAZ7
 BAR2 EZ EP        626 36.34                             171   -0.3910 21.6 185 
 BAR2 EZ ES        626 52.14                             171    0.1110 21.6 185 
 BAR2 EZ I         626 53.38         4.4 0.36            162           21.6 185 
 BRR  HZ IP     D  626 38.16                             153   -0.0410 69.9 300 
 BRR  HN ES        626 54.97                             153    0.3110 69.9 300 
 BRR  HZ I         626 55.63         3.2 0.16            148           69.9 300 
 SPBC HZ EP   2    626 45.61                             130    0.23 5  161 219 
 SPBC HN ES   2    627  7.37                             130   -0.07 5  161 219 
 SPBC HZ I         627 12.38         2.3 0.29            125            161 219 
 YPLC HZ EP        626 47.01                             127    0.11 9  177 150 
 ZAR  HZ EP   3    626 50.50                             123    1.10 2  203 293 
 ZAR  HE ES        627 14.39                             123   -0.21 9  203 293 
 ZAR  HZ I         627 20.15         1.3 0.32            121            203 293 
                                                                                
