 2017 1225 0921 55.0 L   6.859 -73.209138.0  RSN  7 0.3 1.4LRSN                1
 GAP=128        0.65       2.7     3.1  4.9 -0.3859E+01  0.6080E+01 -0.1698E+01E
 Epicentro: ZAPATOCA - SANTANDER                                               3
 ACTION:UPD 18-01-04 13:24 OP:rebc STATUS:               ID:20171225092155 L   I
 OLDACT:REG 17-12-25 12:52 OP:osc  STATUS:               ID:20171225091245     3
 2017-12-25-0918-00M.COL___451                                                 6
 STAT SP IPHASW D HRMM SECON CODA AMPLIT PERI AZIMU VELO AIN AR TRES W  DIS CAZ7
 BAR2 EZ EP        922 13.62                             167   -0.2310 29.7 174 
 BAR2 EZ ES        922 28.37                             167   -0.1810 29.7 174 
 BAR2 EZ I         922 30.03         8.3 0.20            171           29.7 174 
 PAM  EZ EP        922 16.51                             149    0.1110 77.4  47 
 PAM  EN ES        922 33.45                             149    0.3710 77.4  47 
 PAM  EZ I         922 35.17         3.3 0.18            153           77.4  47 
 PTB  HZ EP        922 20.51                             131   -0.34 9  142 256 
 PTB  HN ES        922 41.39                             131    0.38 9  142 256 
 PTB  HZ I         922 46.87         2.6 0.32            132            142 256 
 OCA  HZ EP        922 21.83                             129   -0.20 9  153 355 
 OCA  HE ES        922 43.10                             129   -0.02 9  153 355 
 OCA  HZ I         922 47.45         7.7 0.18            130            153 355 
 SPBC HN ES        922 44.75                             127   -0.10 9  164 216 
 ZAR  HZ EP   3    922 27.45                             122    1.43 2  195 291 
 ZAR  HE ES        922 50.02                             122   -0.20 9  195 291 
 ZAR  HZ I         922 58.65         3.0 0.40            122            195 291 
 GUY2CHZ EP        922 38.21                             111    0.15 7  299 233 
 GUY2CHN ES        923 11.98                             111    0.34 7  299 233 
 GUY2CHZ I         923 19.98         1.1 0.36                           299 233 
                                                                                
