 2016  125 0052 53.0 L   6.812 -73.161149.3  RSN 11 0.3 2.4LRSN                1
 GAP=134        0.67       1.8     2.7  3.8 -0.9707E+00  0.3553E+01 -0.3496E+00E
 Epicentro: LOS SANTOS - SANTANDER                                             3
 ACTION:UPD 16-03-09 23:28 OP:cam  STATUS:               ID:20160125005253 L   I
 OLDACT:REG 16-01-25 14:23 OP:cara STATUS:               ID:20160125004749     3
 2016-01-25-0047-49M.COL___334                                                 6
 STAT SP IPHASW D HRMM SECON CODA AMPLIT PERI AZIMU VELO AIN AR TRES W  DIS CAZ7
 BAR2 EZ EP        053 13.22                             170    0.1110 24.4 186 
 BAR2 EZ ES        053 28.52                             170   -0.2510 24.4 186 
 BAR2 EZ I         053 29.42       109.1 0.20            171           24.4 186 
 PAM  EZ EP     C  053 15.89                             151    0.2610 77.5  41 
 PAM  EN ES        053 33.41                             151    0.1510 77.5  41 
 PAM  EZ I         053 35.40        20.7 0.36            154           77.5  41 
 RUS  HZ EP        053 17.06                             144   -0.1810  102 175 
 RUS  HN ES        053 35.97                             144   -0.1510  102 175 
 RUS  HZ I         053 37.01        22.8 0.22            149            102 175 
 PTB  HZ EP        053 19.93                             133   -0.24 9  146 258 
 PTB  HN ES        053 41.12                             133   -0.21 9  146 258 
 PTB  HZ I         053 48.39        32.3 0.32            133            146 258 
 OCA  HZ EP        053 20.99                             131   -0.49 9  159 354 
 OCA  HN ES        053 43.98                             131    0.31 9  159 354 
 OCA  HZ I         053 55.43        30.2 0.36            132            159 354 
 SPBC HZ EP        053 22.06                             130    0.26 9  163 218 
 SPBC HN ES        053 44.48                             130    0.24 9  163 218 
 SPBC HZ I         053 46.77        35.9 0.22            132            163 218 
 ZAR  HZ EP        053 25.93                             123    0.43 9  202 292 
 ZAR  HE ES        053 51.20                             123    0.38 9  202 292 
 ZAR  HZ I         053 57.11        18.7 0.34            124            202 292 
 NOR  HZ EP        053 28.58                             119   -0.32 8  234 234 
 NOR  HN ES        053 57.02                             119    0.13 8  234 234 
 NOR  HZ I         054  3.41        14.9 0.20            121            234 234 
 SML  HZ EP        053 29.42                             118   -0.23 8  242 336 
 SML  HN ES        053 57.87                             118   -0.35 8  242 336 
 SML  HZ I         054  3.26        30.5 0.10            120            242 336 
 CHI  HZ EP        053 31.15                             118    0.13 8  249 195 
 CHI  HN ES        054  0.84                             118    0.19 8  249 195 
 CHI  HZ I         054  2.97         8.4 0.34            121            249 195 
 GUY2CHZ EP        053 36.97                             113    0.23 7  301 234 
 GUY2CHN ES        054 10.40                             113   -0.43 7  301 234 
 GUY2CHZ I         054 25.36         8.6 0.54                           301 234 
                                                                                
