 2013  525 0902 45.7 L   6.758 -73.177151.4  RSN  5 0.3 1.8LRSN                1
 GAP=177        0.91       5.8     6.1  7.4  0.8590E+01  0.2921E+01  0.8253E+01E
 Epicentro: VILLANUEVA - SANTANDER                                             3
 ACTION:UPD 13-06-20 09:53 OP:ep   STATUS:               ID:20130525090245 L   I
 2013-05-25-0858-50M.COL___210                                                 6
 STAT SP IPHASW D HRMM SECON CODA AMPLIT PERI AZIMU VELO AIN AR TRES W  DIS CAZ7
 BAR2 SZ EP        9 3  5.61                             173   -0.3010 18.3 182 
 BAR2 SZ I         9 3 23.52         6.6 0.34            174           18.3 182 
 GIR2 SZ EP        9 3  6.13                             166   -0.0210 35.5 357 
 GIR2 SZ ES        9 3 21.62                             166   -0.4810 35.5 357 
 BRR  HZ EP        9 3  7.57                             154    0.1510 70.6 303 
 BRR  HN ES        9 3 25.04                             154    0.6710 70.6 303 
 BRR  HN I         9 3 28.30        23.6 0.20            152           70.6 303 
 RUS  HZ EP        9 3 10.03                             146    0.3310 96.3 174 
 RUS  HN ES        9 3 28.49                             146    0.0610 96.3 174 
 RUS  HE I         9 3 29.35         7.3 0.48            145           96.3 174 
 PTB  HZ EP        9 3 12.58                             134   -0.17 9  144 260 
 PTB  HN ES        9 3 33.55                             134   -0.31 9  144 260 
 PTB  HE I         9 3 39.43        15.1 0.52            132            144 260 
                                                                                
