 2016  825 0732  0.5 L   6.831 -73.166146.2  RSN 17 0.5 2.0LRSN                1
 GAP=133        1.15       3.0     3.8  5.8 -0.1649E+01  0.7779E+01  0.2104E+01E
 Epicentro: LOS SANTOS - SANTANDER                                             3
 ACTION:UPD 16-10-29 15:39 OP:rebc STATUS:               ID:20160825073200 L   I
 OLDACT:REG 16-08-25 12:43 OP:ak   STATUS:               ID:20160825072737     3
 2016-08-25-0728-00M.COL___372                                                 6
 STAT SP IPHASW D HRMM SECON CODA AMPLIT PERI AZIMU VELO AIN AR TRES W  DIS CAZ7
 BAR2 EZ IP     D  732 20.29                             169    0.0710 26.4 184 
 BAR2 EZ ES        732 35.20                             169   -0.4310 26.4 184 
 BAR2 EZ I         732 37.97        15.2 0.26                          26.4 184 
 BRR  HZ EP        732 22.03                             154    0.5510 67.6 297 
 BRR  HN ES        732 38.62                             154    0.7710 67.6 297 
 BRR  HZ I         732 42.57        17.4 0.19                          67.6 297 
 PAM  EZ IP     D  732 22.94                             151    0.2710 76.3  42 
 PAM  EN ES        732 40.12                             151    0.1410 76.3  42 
 PAM  EZ I         732 42.23        15.7 0.58                          76.3  42 
 RUS  HZ EP        732 24.22                             143   -0.3110  104 175 
 RUS  HN ES        732 43.12                             143   -0.1710  104 175 
 RUS  HZ I         732 44.19         7.5 0.28                           104 175 
 PTB  HZ EP        732 27.03                             132   -0.32 9  146 257 
 PTB  HN ES        732 47.46                             132   -0.84 9  146 257 
 PTB  HZ I         732 55.52         9.2 0.37                           146 257 
 OCA  HZ EP        732 28.10                             130   -0.38 9  157 354 
 OCA  HN ES        732 50.20                             130   -0.12 9  157 354 
 OCA  HZ I         732 55.24        37.2 0.20                           157 354 
 SPBC HZ EP        732 29.23                             129    0.10 9  164 218 
 SPBC HN ES        732 51.27                             129   -0.21 9  164 218 
 SPBC HZ I         732 54.07        19.7 0.22                           164 218 
 ZAR  HZ EP        732 32.83                             123    0.22 9  201 291 
 ZAR  HN ES        732 58.45                             123    0.78 9  201 291 
 ZAR  HZ I         733  4.63        23.4 0.44                           201 291 
 NOR  HZ EP        732 36.45                             119    0.20 8  235 233 
 NOR  HE ES        733  3.89                             119   -0.27 8  235 233 
 NOR  HZ I         733 11.78         7.2 0.21                           235 233 
 CHI  HZ EP   2    732 37.49                             117   -1.01 4  251 194 
 CHI  HE ES        733  8.83                             117    0.68 8  251 194 
 HEL  HZ EP   2    732 39.64                             115   -0.93 4  271 255 
 HEL  HN ES        733 11.28                             115   -0.56 8  271 255 
 HEL  HZ I         733 19.15         7.9 0.42                           271 255 
 URE  HZ EP        732 40.35                             114   -0.85 7  281 291 
 URE  HE ES        733 12.20                             114   -0.76 7  281 291 
 URE  HZ I         733 24.30        10.6 0.18                           281 291 
 GUY2CHZ EP        732 44.87                             112    0.74 7  301 234 
 GUY2CHE ES        733 18.54                             112    0.37 7  301 234 
 GUY2CHZ I         733 26.97         4.1 0.42                           301 234 
 ELA  HE ES        733 24.87                             110    0.86 7  330 229 
 ELA  HZ I         733 34.46         3.2 0.36                           330 229 
 CBOC HZ EP   2    732 47.90                             110    0.61 3  333 251 
 CBOC HN ES        733 24.37                             110    0.57 7  333 251 
 PRA  HZ EP        732 54.46                             106    0.23 6  394 209 
 PRA  HN ES        733 35.15                             106   -1.01 6  394 209 
 PRA  HZ I         733 42.89         3.7 0.38                           394 209 
 SJC  HZ EP   9    732 53.94                             106   -1.64 0  405 327 
 SJC  HN ES        733 36.20                                   -0.72 6  405 327 
 SJC  HZ I         733 39.65         1.8 0.31                           405 327 
                                                                                
