 2017  125 0059 47.8 L   6.747 -73.155135.8  RSN  6 0.4 1.2LRSN                1
 GAP=138        1.17       5.6     5.1  8.6  0.2282E+01  0.9487E+01  0.1215E+00E
 Epicentro: LOS SANTOS - SANTANDER                                             3
 ACTION:UPD 17-05-22 16:03 OP:jn   STATUS:               ID:20170125005947 L   I
 OLDACT:DUP 17-01-25 13:34 OP:lv   STATUS:               ID:20170125005744d    3
 2017-01-25-0058-00M.COL___355                                                 6
 STAT SP IPHASW D HRMM SECON CODA AMPLIT PERI AZIMU VELO AIN AR TRES W  DIS CAZ7
 BAR2 EZ EP        1 0  6.36                             172    0.2410 17.3 190 
 BAR2 EZ ES        1 0 20.38                             172   -0.0310 17.3 190 
 BAR2 EZ I         1 0 22.48         5.9 0.25            172           17.3 190 
 BRR  HZ EP        1 0  8.32                             150    0.3110 73.3 303 
 BRR  HN ES        1 0 24.16                             150    0.3910 73.3 303 
 PAM  EZ EP        1 0  8.48                             147   -0.8310 82.6  37 
 PAM  EN ES        1 0 26.10                             147    0.0210 82.6  37 
 PAM  EZ I         1 0 28.78         2.7 0.34            149           82.6  37 
 RUS  HZ EP        1 0 10.95                             143    0.8010 94.8 175 
 RUS  HN ES        1 0 27.28                             143   -0.3110 94.8 175 
 RUS  HZ I         1 0 30.02         2.5 0.30            145           94.8 175 
 PTB  HZ EP        1 0 13.52                             130   -0.27 9  146 261 
 PTB  HE ES        1 0 33.46                             130   -0.59 9  146 261 
 PTB  HZ I         1 0 36.42         2.6 0.20            132            146 261 
 ZAR  HN ES        1 0 44.90                             120    0.21 8  205 294 
 CHI  HZ EP   4    1 0 26.07                             116    1.76 0  243 195 
                                                                                
