 2015  325 0754 38.5 L   6.786 -73.182142.0  RSN  7 0.5 1.2LRSN                1
 GAP=133        1.23       5.4     5.4  9.9 -0.3596E+01  0.1220E+02 -0.2762E+01E
 Epicentro: LOS SANTOS - SANTANDER                                             3
 ACTION:UPD 15-04-30 16:29 OP:nd   STATUS:               ID:20150325075438 L   I
 OLDACT:REG 15-03-25 13:28 OP:fm   STATUS:               ID:20150325074738     3
 2015-03-25-0747-38M.COL___275                                                 6
 STAT SP IPHASW D HRMM SECON CODA AMPLIT PERI AZIMU VELO AIN AR TRES W  DIS CAZ7
 BAR2 EZ EP        754 57.82                             171    0.1410 21.4 180 
 BAR2 EZ ES        755 13.13                             171    0.5210 21.4 180 
 BRR  HZ EP        754 59.40                             153    0.2710 68.5 301 
 BRR  HN ES        755 15.81                             153    0.6210 68.5 301 
 BRR  HZ I         755 18.39         2.7 0.54            150           68.5 301 
 PAM  SZ EP        755  0.68                             149    0.0910 81.2  41 
 PAM  SE ES        755 16.90                             149   -0.8910 81.2  41 
 PAM  SZ I         755 19.68         3.2 0.48            152           81.2  41 
 RUS  HN ES        755 20.09                             143    0.0910 99.4 174 
 RUS  HZ I         755 21.96         1.9 0.18            144           99.4 174 
 PTB  HN ES        755 24.97                             132   -0.34 9  144 259 
 PTB  HZ I         755 28.15         1.7 0.54            131            144 259 
 SPBC HZ EP   1    755  6.93                             129    0.54 7  159 218 
 SPBC HN ES        755 27.36                             129   -0.76 9  159 218 
 SPBC HZ I         755 35.85         2.3 0.24            128            159 218 
 ZAR  HN ES        755 35.07                             122   -0.22 9  201 293 
 ZAR  HZ I         755 42.60         1.4 0.30            122            201 293 
                                                                                
