 2011  925 0031  8.7 L   6.791 -73.081146.0  RSN 12 0.3 2.3LRSN                1
 GAP=145        0.55       2.4     3.1  3.2 -0.1500E+01  0.2539E+01  0.9171E+00E
 Epicentro: LOS SANTOS - SANTANDER                                             3
 ACTION:UPD 12-07-13 15:59 OP:ep   STATUS:               ID:20110925003108 L   I
 2011-09-25-0020-00M.COL___167                                                 6
 STAT SP IPHASW D HRMM SECON CODA AMPLIT PERI AZIMU VELO AIN AR TRES W  DIS CAZ7
 BAR2 SZ EP        031 28.31                             170   -0.0610 24.7 207 
 BAR2 SZ I         031 28.84        35.7 0.12                          24.7 207 
 BAR2 SZ ES        031 43.67                             170   -0.0610 24.7 207 
 BTL  SZ EP        031 28.79                             170    0.4110 25.0 304 
 GIR2 SZ EP        031 28.29                             166   -0.1810 34.2 339 
 GIR2 SZ ES   1    031 43.95                             166    0.05 7 34.2 339 
 PAM  SZ EP   1    031 30.86                             152    0.14 7 73.9  35 
 PAM  SN ES   1    031 47.65                             152   -0.26 7 73.9  35 
 BRR  HZ EP        031 30.01                             150   -0.2510 78.0 297 
 BRR  HZ I         031 30.30        42.1 0.09                          78.0 297 
 BRR  HN ES        031 47.08                             150    0.0010 78.0 297 
 RUS  HZ EP        031 32.46                             144    0.0910 99.3 180 
 RUS  HN ES   1    031 50.66                             144   -0.18 7 99.3 180 
 RUS  HZ I         031 52.92        14.5 0.23                          99.3 180 
 OCA  SZ EP        031 37.55                             129    0.35 9  162 351 
 OCA  SZ I         032  4.80        19.8 0.38                           162 351 
 ZAR  HZ EP   1    031 41.44                             121   -0.43 6  211 292 
 ZAR  HZ I         032 12.32        23.2 0.39                           211 292 
 NOR  SZ EP   1    031 44.58                             118   -0.42 6  240 236 
 NOR  SN ES   1    032 13.36                             118    0.04 6  240 236 
 CHI  HZ EP   1    031 46.42                             117   -0.09 6  250 197 
 CHI  HN ES   1    032 16.47                             117    0.47 6  250 197 
 CHI  HZ I         032 23.25         8.2 0.40                           250 197 
 HEL  HZ EP   1    031 49.67                             114    0.02 6  279 256 
 HEL  HN ES   1    032 22.11                             114    0.50 6  279 256 
 HEL  HZ I         032 27.82        13.1 0.41                           279 256 
 RREF HZ EP   1    031 55.28                             110   -0.11 5  327 230 
 RREF HN ES   2    032 31.24                             110   -0.57 3  327 230 
 RREF HZ I         032 40.42         9.4 0.31                           327 230 
                                                                                
