 2016 1225 0333 59.1 L   6.930 -73.168153.3  RSN  5 0.5 1.4LRSN                1
 GAP=127        1.17       6.7     5.7 10.7  0.4670E+00  0.1241E+02 -0.3617E+01E
 Epicentro: BETULIA - SANTANDER                                                3
 ACTION:UPD 17-01-11 20:18 OP:rebc STATUS:               ID:20161225033359 L   I
 OLDACT:DUP 16-12-25 14:18 OP:cog  STATUS:               ID:20161225032743d    3
 2016-12-25-0328-00M.COL___381                                                 6
 STAT SP IPHASW D HRMM SECON CODA AMPLIT PERI AZIMU VELO AIN AR TRES W  DIS CAZ7
 BAR2 EZ EP        334 20.61                             166    0.6310 37.3 182 
 BAR2 EZ ES        334 36.71                             166    0.4410 37.3 182 
 BAR2 EZ I         334 37.61         3.7 0.33            166           37.3 182 
 PAM  EZ EP        334 21.39                             155   -0.2610 68.8  49 
 PAM  EN ES        334 39.24                             155   -0.0010 68.8  49 
 RUS  HZ EP     D  334 24.75                             141    0.1010  115 175 
 RUS  HN ES        334 43.75                             141   -0.8310  115 175 
 RUS  HZ I         334 44.51         2.8 0.34            143            115 175 
 PTB  HZ EP   3    334 27.84                             133    1.05 2  149 253 
 PTB  HN ES        334 48.82                             133    0.44 9  149 253 
 PTB  HZ I         334 51.02         4.1 0.14            134            149 253 
 ZAR  HZ EP   3    334 31.27                             125   -0.04 2  197 289 
 ZAR  HN ES        334 55.73                             125   -0.71 9  197 289 
                                                                                
