 2011  925 0613 34.4 L   6.606 -73.175147.9  RSN  5 0.2 1.3LRSN                1
 GAP=210        0.37      13.4     9.9  5.5  0.1162E+03  0.1104E+01  0.1273E+02E
 Epicentro: SAN GIL - SANTANDER                                                3
 ACTION:UPD 12-07-13 15:59 OP:ep   STATUS:               ID:20110925061334 L   I
 2011-09-25-0600-00M.COL___167                                                 6
 STAT SP IPHASW D HRMM SECON CODA AMPLIT PERI AZIMU VELO AIN AR TRES W  DIS CAZ7
 BAR2 SZ EP        613 54.11                             179    0.0510 1.67 208 
 BAR2 SZ ES   2    614  9.23                             179   -0.16 5 1.67 208 
 BAR2 SZ I         614 10.27         4.0 0.66                          1.67 208 
 BTL  SZ EP   2    613 54.98                             166    0.37 5 36.1 344 
 GIR2 SZ EP   2    613 54.92                             160   -0.14 5 52.4 358 
 BRR  HZ EP   1    613 56.18                             150   -0.19 7 81.2 313 
 BRR  HE ES        614 13.54                             150    0.0310 81.2 313 
 BRR  HZ I         614 16.92         3.6 0.09                          81.2 313 
 ZAR  HE ES   2    614 33.57                             122    0.04 4  210 298 
                                                                                
