 2010 1025 0049 37.0 L   6.806 -73.122146.0  RSN  7 0.3 1.9LRSN                1
 GAP=161        0.51       2.8     6.5  5.6 -0.1600E+01 -0.4989E+01  0.3565E+01E
 Epicentro: LOS SANTOS - SANTANDER                                             3
 ACTION:UP  11-02-18 11:11 OP:tino STATUS:               ID:20101025004937 L   I
 2010-10-25-0046-12S.COL___124                                                 6
 STAT SP IPHASW D HRMM SECON CODA AMPLIT PERI AZIMU VELO SNR AR TRES W  DIS CAZ7
 BAR2 SZ EP   1    049 56.45                             170    -0.2 7   25 196 
 BAR2 SZ I         049 56.77        12.3 0.09                            25 196 
 BAR2 SZ ES   2    050 11.63                             170    -0.4 5   25 196 
 BRR  HZ IP     C  049 58.21                             152     0.010   73 297 
 BRR  HZ I         049 58.48        23.1 0.15                            73 297 
 BRR  HE ES   1    050 15.12                             152     0.3 7   73 297 
 RUS  HZ EP   1    050  0.78                             144     0.0 7  101 178 
 RUS  HE ES   2    050 19.60                             144     0.3 5  101 178 
 RUS  HZ I         050 20.75         9.6 0.30                           101 178 
 GRA  SZ EP   2    050  2.51                             137     0.4 5  124  16 
 GRA  SZ ES   2    050 22.10                             137     0.4 5  124  16 
 GRA  SZ I         050 23.86        16.0 0.35                           124  16 
 OCA  SZ EP   2    050  5.04                             130    -0.2 5  160 352 
 OCA  SZ ES   2    050 26.70                             130    -0.6 5  160 352 
 OCA  SZ I         050 30.35         8.0 0.27                           160 352 
 CHI  HZ EP   2    050 14.83                             117     0.0 4  250 196 
 CHI  HE ES   2    050 44.20                             117    -0.1 4  250 196 
 CHI  HZ I         050 47.63         3.1 0.32                           250 196 
 PRA  HZ EP   2    050 31.12                             106     0.4 3  394 210 
 PRA  HN ES   2    051 12.43                             106    -0.2 3  394 210 
                                                                                
