 2010 1025 0239 10.4 L   6.781 -73.114150.0  RSN 18 0.4 3.8LRSN                1
 GAP=104        0.94       2.5     3.9  5.1 -0.1906E+01  0.2363E+01  0.2131E+01E
 Epicentro: LOS SANTOS - SANTANDER                                             3
 ACTION:UP  11-02-18 11:12 OP:tino STATUS:               ID:20101025023910 L   I
 2010-10-25-0237-36S.COL___124                                                 6
 STAT SP IPHASW D HRMM SECON CODA AMPLIT PERI AZIMU VELO SNR AR TRES W  DIS CAZ7
 BAR2 SZ IP        239 30.57                             171     0.110   22 200 
 BAR2 SZ ES   1    239 45.80                             171    -0.4 7   22 200 
 BAR2 SZ I         239 47.35      2743.8 0.20                            22 200 
 BRR  HZ IP     C  239 32.45                             152     0.210   75 299 
 BRR  HZ I         239 32.72      1737.9 0.14                            75 299 
 BRR  HN ES        239 49.74                             152     0.510   75 299 
 RUS  HZ IP     D  239 34.41                             145     0.010   98 178 
 RUS  HE ES   1    239 52.39                             145    -0.7 7   98 178 
 RUS  HZ I         239 54.53       885.2 0.41                            98 178 
 GUE  SZ EP        239 35.61                             140     0.010  118  10 
 GRA  SZ IP        239 36.39                             138     0.310  127  16 
 GRA  SZ ES   1    239 56.21                             138     0.1 7  127  16 
 GRA  SZ I         240  0.77       547.0 0.47                           127  16 
 OCA  SZ IP        239 38.91                             130    -0.3 9  163 352 
 OCA  SZ ES   1    240  1.64                             130    -0.1 7  163 352 
 OCA  SZ I         240  5.30       503.8 0.36                           163 352 
 YOP  SZ IP     D  239 41.04                             128     0.6 9  176 154 
 YOP  SN ES        240  3.77                             128    -0.1 9  176 154 
 NOR  SZ EP        239 46.33                             119    -0.2 8  236 235 
 NOR  SN ES   1    240 14.34                             119    -0.4 6  236 235 
 CHI  HZ EP        239 48.20                             118     0.0 8  248 196 
 CHI  HE ES   1    240 16.87                             118    -0.8 6  248 196 
 CHI  HZ I         240 23.41       265.4 0.39                           248 196 
 ROSC BE ES   1    240 19.01                             118     0.4 6  253 212 
 ROSC BZ I         240 25.94       407.9 0.60                           253 212 
 HEL  HZ EP   1    239 50.37                             115    -0.8 6  275 256 
 HEL  HE ES   2    240 22.81                             115    -0.1 4  275 256 
 HEL  HZ I         240 30.10       239.9 0.12                           275 256 
 VIL  SZ EP   1    239 53.64                             113     0.0 5  300 191 
 VIL  SN ES   1    240 28.06                             113     0.7 5  300 191 
 VIL  SZ I         240 38.50       231.9 0.44                           300 191 
 RREF HZ EP   1    239 56.74                             111    -0.1 5  323 230 
 RREF HN ES   1    240 32.80                             111    -0.3 5  323 230 
 RREF HZ I         240 41.15       297.9 0.27                           323 230 
 DBB  SZ IP        239 58.15                             110    -0.3 7  343 275 
 TOL  SZ EP        239 59.51                             110     0.6 7  344 225 
 ANIL HZ EP   1    240  1.15                             109     0.7 5  358 225 
 ANIL HN ES   1    240 39.68                             109     0.2 5  358 225 
 ANIL HZ I         240 47.14       715.2 0.38                           358 225 
 SDV  BZ IP     C  239 59.78                             109    -0.6 6  359  50 
 SDV  BZ I         240  0.88        92.7 0.29                           359  50 
 PRA  HZ EP        240  3.49                             107    -0.5 6  392 210 
 PRA  HN ES   1    240 46.35                             107     0.5 4  392 210 
 PRA  HZ I         240 51.11       776.1 0.28                           392 210 
                                                                                
