 2014  225 0001 27.6 L   6.827 -73.153152.2  RSN  5 0.5 1.2LRSN                1
 GAP=239        0.88       6.5     8.3  9.9  0.2922E+02 -0.7005E+01  0.1160E+02E
 Epicentro: LOS SANTOS - SANTANDER                                             3
 ACTION:UPD 14-03-10 08:13 OP:ep   STATUS:               ID:20140225000127 L   I
 OLDACT:REG 14-02-25 07:54 OP:fm   STATUS:               ID:20140225000011     3
 2014-02-25-0000-11M.COL___236                                                 6
 STAT SP IPHASW D HRMM SECON CODA AMPLIT PERI AZIMU VELO AIN AR TRES W  DIS CAZ7
 BRR  HZ EP        0 1 49.46                             154    0.1710 69.1 297 
 BRR  HE ES        0 2  6.71                             154    0.4710 69.1 297 
 BRR  HZ I         0 2 10.36         4.1 0.24            155           69.1 297 
 RUS  HZ EP        0 1 51.92                             144   -0.2410  104 176 
 RUS  HN ES   1    0 2 10.66                             144   -0.68 7  104 176 
 RUS  HZ I         0 2 11.68         1.3 0.30            145            104 176 
 PTB  HZ EP   2    0 1 54.98                             133   -0.06 5  148 258 
 PTB  HN ES   1    0 2 16.09                             133   -0.38 7  148 258 
 PTB  HZ I         0 2 17.24         2.7 0.12            134            148 258 
 ZAR  HN ES   1    0 2 25.31                             124   -0.42 6  202 291 
 CHI  HZ EP   2    0 2  6.59                             118    0.69 4  251 195 
 CHI  HN ES   1    0 2 36.50                             118    0.69 6  251 195 
 CHI  HZ I         0 2 40.21         1.4 0.44            119            251 195 
                                                                                
