 2015 1125 0909 31.8 L   6.781 -73.174140.4  RSN 13 0.3 2.2LRSN                1
 GAP=134        0.91       3.8     3.9  6.8  0.3654E+00  0.8462E+01  0.2959E+01E
 Epicentro: LOS SANTOS - SANTANDER                                             3
 ACTION:UPD 15-12-28 16:13 OP:cam  STATUS:               ID:20151125090932 L   I
 OLDACT:UP  15-12-10 15:28 OP:cam  STATUS:               ID:20151125090932 L   3
 OLDACT:UP  15-12-10 15:27 OP:cam  STATUS:               ID:20151125090932 L   3
 OLDACT:UP  15-12-01 10:58 OP:ak   STATUS:               ID:20151125090932 L   3
 OLDACT:REG 15-11-25 13:03 OP:drio STATUS:               ID:20151125090740     3
 2015-11-25-0907-40M.COL___206                                                 6
 STAT SP IPHASW D HRMM SECON CODA AMPLIT PERI AZIMU VELO AIN AR TRES W  DIS CAZ7
 BRR  HZ EP        9 9 52.55                             152    0.2310 69.5 301 
 BRR  HN ES        910  8.38                             152    0.1010 69.5 301 
 BRR  HZ I         910 13.42        23.7 0.18            139           69.5 301 
 PAM  EE ES        910 10.68                             149   -0.1010 81.0  40 
 PAM  EZ I         910 12.22        27.1 0.16            134           81.0  40 
 RUS  HZ EP        9 9 55.26                             143    0.3210 98.8 174 
 RUS  HN ES        910 12.72                             143   -0.2310 98.8 174 
 RUS  HZ I         910 15.59        13.5 0.36            134           98.8 174 
 PTB  HZ EP        9 9 57.42                             132   -0.64 9  144 259 
 PTB  HN ES        910 18.22                             132   -0.28 9  144 259 
 PTB  HZ I         910 21.36        16.1 0.24            120            144 259 
 SPBC HZ EP        9 9 59.73                             129    0.14 9  160 219 
 SPBC HN ES        910 21.60                             129    0.37 9  160 219 
 SPBC HZ I         910 27.71        20.4 0.14            118            160 219 
 OCA  HZ EP   4    9 9 58.72                             128   -1.19 0  162 354 
 OCA  HE ES   4    910 18.53                             128   -3.27 0  162 354 
 OCA  HZ I         910 23.77        42.8 0.22            115            162 354 
 ZAR  HZ EP        910  3.61                             122   -0.11 9  202 293 
 ZAR  HN ES        910 29.09                             122    0.50 9  202 293 
 ZAR  HZ I         910 36.89        15.2 0.28            111            202 293 
 NOR  HZ EP   9    910  6.85                             118   -0.01 0  231 234 
 NOR  HN ES   1    910 35.16                             117    1.00 6  231 234 
 NOR  HZ I         910 41.59         7.2 0.18            109            231 234 
 SML  HZ EP   4    910  6.82                             116   -1.42 0  244 336 
 SML  HZ I         910 42.91        20.3 0.10            106            244 336 
 HEL  HZ EP   4    910 12.82                             114    1.43 0  268 256 
 HEL  HN ES        910 41.85                             114   -0.38 8  268 256 
 HEL  HZ I         910 51.45         7.0 0.26            106            268 256 
 URE  HZ EP   4    910 14.89                             113    2.48 0  282 293 
 URE  HN ES   4    910 42.37                             113   -1.69 0  282 293 
 URE  HZ I         910 44.06        10.2 0.12            104            282 293 
 MON  HZ EP   4    910 18.14                             108   -2.36 0  352 309 
 MON  HN ES   4    910 55.80                             108   -2.66 0  352 309 
 MON  HZ I         911 13.34         3.2 0.60            101            352 309 
 SJC  HZ EP   4    910 24.87                             105   -2.37 0  409 327 
 SJC  HE ES   4    911  5.00                             105   -5.44 0  409 327 
 SJC  HZ I         911  9.51         2.9 0.60             99            409 327 
                                                                                
