 2013  825 0737 46.5 L   6.531 -73.602  4.0  RSN  5 0.4 1.5LRSN                1
 GAP=130        1.18       2.9     2.6  7.2  0.1442E+01  0.1069E+01 -0.9422E+00E
 Epicentro: EL CARMEN DE CHUCURI - SANTANDER                                   3
 ACTION:UPD 14-01-14 09:06 OP:ep   STATUS:               ID:20130825073746 L   I
 OLDACT:DUP 13-08-25 11:18 OP:stll STATUS:               ID:20130825072847d    3
 2013-08-25-0728-45M.COL___232                                                 6
 STAT SP IPHASW D HRMM SECON CODA AMPLIT PERI AZIMU VELO AIN AR TRES W  DIS CAZ7
 BAR2 SZ IP     C  737 54.95                              47    0.5110 46.9  82 
 BAR2 SZ I         737 55.10        20.1 0.10             90           46.9  82 
 BAR2 SZ ES        738  0.38                              47   -0.2610 46.9  82 
 BRR  HZ EP        737 57.01                              47    0.1010 64.8 349 
 BRR  HN ES        738  5.23                              47    0.1910 64.8 349 
 BRR  HZ I         738  6.10         6.6 0.12             90           64.8 349 
 RUS  HZ EP        738  2.01                              47    0.6210 91.0 141 
 RUS  HN ES        738 12.57                              47   -0.4410 91.0 141 
 PTB  HN ES        738 12.64                              47   -0.4210 94.5 271 
 PAM  SZ EP        738  8.30                              47    0.4110  134  48 
 PAM  SN ES        738 23.84                              47   -0.7410  134  48 
 PAM  SZ I         738 24.93        36.9 1.08             90            134  48 
                                                                                
