 2017 1225 0407 44.7 L   6.827 -73.158147.8  RSN 31 0.7 2.5LRSN                1
 GAP= 55        1.10       2.1     2.5  4.8 -0.7116E+00  0.2893E+01  0.2517E+00E
 Epicentro: LOS SANTOS - SANTANDER                                             3
 ACTION:UPD 18-01-04 13:24 OP:rebc STATUS:               ID:20171225040744 L   I
 OLDACT:UP  17-12-25 14:49 OP:dhb  STATUS:               ID:20171225040029     3
 OLDACT:REG 17-12-25 12:19 OP:osc  STATUS:               ID:20171225040029     3
 2017-12-25-0408-00M.COL___472                                                 6
 STAT SP IPHASW D HRMM SECON CODA AMPLIT PERI AZIMU VELO AIN AR TRES W  DIS CAZ7
 BAR2 EZ EP        4 8  4.61                             170   -0.0110 26.1 186 
 BAR2 EZ ES        4 8 19.94                             170   -0.2310 26.1 186 
 BAR2 EZ I         4 8 22.44        66.2 0.44            168           26.1 186 
 PAM  EZ IP     C  4 8  7.52                             152    0.4810 76.0  42 
 PAM  EE ES        4 8 24.60                             152    0.1310 76.0  42 
 PAM  EZ I         4 8 26.81        72.8 0.48            155           76.0  42 
 PTB  HZ EP        4 8 11.02                             133   -0.74 9  147 258 
 PTB  HN ES        4 8 32.34                             133   -0.54 9  147 258 
 PTB  HZ I         4 8 39.34        29.5 0.44            132            147 258 
 OCA  HZ EP        4 8 12.88                             131    0.01 9  157 353 
 OCA  HN ES        4 8 34.90                             131    0.05 9  157 353 
 OCA  HZ I         4 8 39.84        79.8 0.70            133            157 353 
 TAM  HZ IP     C  4 8 13.02                             131    0.30 9  157 106 
 TAM  HN ES        4 8 34.80                             131    0.22 9  157 106 
 SPBC HZ EP        4 8 13.51                             129    0.02 9  165 218 
 SPBC HN ES        4 8 35.30                             129   -0.65 9  165 218 
 SPBC HZ I         4 8 41.76        60.5 0.30            129            165 218 
 YPLC HZ EP        4 8 14.94                             126   -0.01 9  180 151 
 YPLC HE ES        4 8 38.61                             126    0.06 9  180 151 
 YPLC HZ I         4 8 39.98        62.8 0.26            128            180 151 
 ZAR  HZ EP        4 8 17.07                             123    0.04 9  202 291 
 ZAR  HE ES        4 8 42.47                             123    0.22 9  202 291 
 ZAR  HZ I         4 8 48.13        28.0 0.34            124            202 291 
 NOR  HZ EP        4 8 20.92                             119    0.31 8  235 234 
 NOR  HN ES        4 8 47.78                             119   -0.85 8  235 234 
 ROSC BZ EP   2    4 8 24.47                             117    1.34 4  255 210 
 ROSC BE ES        4 8 52.44                             117   -0.67 8  255 210 
 ROSC BZ I         4 9  2.91        25.7 0.35            117            255 210 
 CVER HZ EP        4 8 25.68                             115    0.27 8  274 202 
 CVER HE ES        4 8 58.05                             115    0.89 8  274 202 
 CVER HZ I         4 9  8.84        14.5 0.36            115            274 202 
 URE  HZ EP        4 8 24.98                             114   -0.62 7  281 291 
 URE  HN ES        4 8 57.19                             114   -0.32 7  281 291 
 URE  HZ I         4 9  6.46        15.0 0.18            115            281 291 
 DRL03HZ EP        4 8 26.33                             114    0.28 7  286 353 
 DRL03HE ES        4 8 59.36                             114    1.06 7  286 353 
 GUY2CHZ EP   9    4 8 29.51                             113    1.04 0  302 234 
 GUY2CHE ES        4 9  4.49                             112    0.83 7  302 234 
 GUY2CHZ I         4 9  9.80        13.7 0.56                           302 234 
 VIL  EZ EP        4 8 28.22                             112   -0.28 7  306 191 
 VIL  EE ES        4 9  2.65                             112   -0.03 7  306 191 
 VIL  EZ I         4 9  5.54        24.5 0.42            113            306 191 
 PTGC HZ IP   2 C  4 8 27.80                             112   -1.21 3  312 159 
 PTGC HN ES   3    4 9  1.18                             112   -2.39 2  312 159 
 PTGC HZ I         4 9  6.05        25.7 0.28            113            312 159 
 ELA  HZ EP   2    4 8 33.64                             111    1.90 3  330 229 
 ELA  HE ES        4 9  7.82                             111   -0.61 7  330 229 
 ELA  HZ I         4 9 19.15        11.3 0.36            111            330 229 
 CBOC HZ EP        4 8 32.49                             110    0.84 7  333 252 
 CBOC HE ES        4 9  8.08                             110   -0.20 7  333 252 
 CBOC HZ I         4 9 12.69         5.1 0.18            111            333 252 
 DBB  HZ EP   9    4 8 30.96                             110   -1.11 0  338 274 
 DBB  HN ES        4 9  7.47                             110   -0.45 7  338 274 
 DBB  HZ I         4 9  9.21        10.8 0.40            110            338 274 
 ARGC HZ EP        4 8 34.60                             109    0.55 6  356 340 
 ARGC HE ES        4 9 12.79                             109    0.25 6  356 340 
 ARGC HZ I         4 9 24.82         7.8 0.26            110            356 340 
 SDV  BZ EP        4 8 34.59                             109   -0.11 6  359  51 
 SDV  B2 ES   2    4 9 12.36                             109   -1.35 3  359  51 
 SDV  BZ I         4 9 14.79         6.2 0.40            110            359  51 
 ANIL HZ EP        4 8 34.91                             109    0.20 6  359 224 
 ANIL HE ES        4 9 14.21                             109    0.48 6  359 224 
 PRA  HZ EP        4 8 38.40                             107   -0.11 6  394 209 
 PRA  HE ES        4 9 20.00                             107   -0.49 6  394 209 
 PRA  HZ I         4 9 28.74        11.1 0.42            107            394 209 
 APAC HZ EP        4 8 38.43                             107   -0.26 6  396 288 
 APAC HN ES        4 9 21.48                             107    0.66 6  396 288 
 APAC HZ I         4 9 25.29         9.3 0.40            107            396 288 
 ORTC HZ EP        4 8 38.71                             107   -0.16 6  397 216 
 ORTC HE ES     D  4 9 22.56                             107    1.43 6  397 216 
 ORTC HZ I         4 9 25.81         9.3 0.54            107            397 216 
 SJC  HZ EP        4 8 38.74                             106   -1.20 6  406 327 
 SJC  HN ES   3    4 9 20.22                             106   -2.82 1  406 327 
 SJC  HZ I         4 9 26.34         5.1 0.58            107            406 327 
 PAL  HZ EP        4 8 40.03                             106    0.06 6  406 239 
 PAL  HN ES        4 9 24.47                             106    1.39 6  406 239 
 PAL  HZ I         4 9 26.49         6.9 0.44            107            406 239 
 CRJC HZ EP   2    4 8 45.09                             104   -1.81 2  465   4 
 CRJC HN ES   3    4 9 32.66                             104   -2.77 1  465   4 
 CRJC HZ I         4 9 34.59        11.8 0.64            105            465   4 
 SMAR HZ EP   1    4 8 49.60                             103   -0.63 3  494 346 
 SMAR HE ES   4    4 9 37.85                             103   -3.50 0  494 346 
 SMAR HZ I         4 9 40.39         5.9 0.18            104            494 346 
 MACC HZ EP   4    4 9 32.70                             102   38.92 0  523 188 
 MACC HN ES   4    410 24.47                             102   36.80 0  523 188 
 MACC HZ I         410 31.06         7.1 0.84            102            523 188 
 GARC HZ EP        4 8 58.63                             100   -1.61 3  575 207 
 GARC HE ES        4 9 59.05                             100   -0.11 3  575 207 
 GARC HZ I         410  1.09         5.4 0.26            101            575 207 
                                                                                
