 2013  425 0546 16.4 L   6.723 -73.046124.8  RSN  6 0.4 1.5LRSN                1
 GAP=153        0.93       7.1     5.9 11.9  0.1327E+02 -0.2075E+01  0.5677E+01E
 Epicentro: ARATOCA - SANTANDER                                                3
 ACTION:UPD 13-05-22 14:40 OP:EP   STATUS:               ID:20130425054616 L   I
 2013-04-25-0538-39M.COL___203                                                 6
 STAT SP IPHASW D HRMM SECON CODA AMPLIT PERI AZIMU VELO AIN AR TRES W  DIS CAZ7
 BAR2 SZ EP   1    546 33.62                             170    0.14 7 20.8 226 
 PAM  SZ EP        546 36.63                             146    0.1210 78.2  29 
 PAM  SN ES   2    546 52.73                             146    0.55 5 78.2  29 
 PAM  SN I         546 54.37         6.3 0.24            155           78.2  29 
 BRR  HZ EP        546 35.58                             143   -0.7110 84.9 300 
 BRR  HN ES        546 51.57                             143   -0.2210 84.9 300 
 BRR  HN I         546 56.47        11.0 0.16            149           84.9 300 
 RUS  HZ EP   1    546 37.69                             142    0.19 7 91.9 183 
 RUS  HN ES   2    546 54.12                             142    0.18 5 91.9 183 
 RUS  HN I         546 57.70         5.0 0.32            146           91.9 183 
 PTB  HZ EP   4    546 40.42                             125   -2.29 0  157 263 
 PTB  HN ES   4    547  0.77                             125   -2.43 0  157 263 
 PTB  HN I         547  6.56         4.8 0.20            131            157 263 
 ZAR  HN ES        547 15.16                             116    0.64 8  217 293 
                                                                                
