 2016 1225 0818 11.8 L   7.057 -73.083152.0  RSN  5 0.5 1.1LRSN                1
 GAP=256        0.59       8.3    10.0  7.6  0.4076E+02  0.2164E+02 -0.1674E+02E
 Epicentro: FLORIDABLANCA - SANTANDER                                          3
 ACTION:UPD 17-01-11 20:18 OP:rebc STATUS:               ID:20161225081811 L   I
 OLDACT:UP  16-12-25 17:02 OP:cog  STATUS:               ID:20161225081740     3
 OLDACT:UP  16-12-25 17:00 OP:cog  STATUS:               ID:20161225081740     3
 OLDACT:UP  16-12-25 17:00 OP:cog  STATUS:               ID:20161225081740     3
 OLDACT:REG 16-12-25 13:22 OP:cog  STATUS:               ID:20161225081740     3
 2016-12-25-0818-00M.COL___369                                                 6
 STAT SP IPHASW D HRMM SECON CODA AMPLIT PERI AZIMU VELO AIN AR TRES W  DIS CAZ7
 BAR2 EZ EP        818 32.87                             160   -0.2210 52.5 192 
 BAR2 EZ ES        818 49.68                             160   -0.0110 52.5 192 
 BAR2 EZ I         818 50.92         3.3 0.30            158           52.5 192 
 BRR  HZ EP   3    818 34.34                             154    0.78 2 69.7 275 
 BRR  HN ES   3    818 51.74                             154    1.22 2 69.7 275 
 BRR  HZ I         818 53.05         2.9 0.44            149           69.7 275 
 RUS  HZ EP   3    818 39.45                             138    1.12 2  129 180 
 RUS  HE ES        818 59.07                             138    0.0710  129 180 
 RUS  HZ I         818 59.72         0.8 0.26            139            129 180 
 PTB  HZ EP        818 40.64                             131    0.04 9  162 249 
 PTB  HN ES   3    819  1.60                             131   -1.46 2  162 249 
 PTB  HZ I         819  7.26         1.2 0.40            129            162 249 
 ZAR  HN ES   3    819 10.38                             124    0.48 2  202 284 
                                                                                
