 2017  425 0940 59.7 L   6.803 -73.054154.5  RSN  8 0.5 1.6LRSN                1
 GAP=127        0.85       4.9     4.3  6.5 -0.2958E+01  0.3210E+01  0.1437E+02E
 Epicentro: LOS SANTOS - SANTANDER                                             3
 ACTION:UPD 17-05-30 21:15 OP:jn   STATUS:               ID:20170425094059 L   I
 OLDACT:UP  17-04-25 18:17 OP:and  STATUS:               ID:20170425093742d    3
 OLDACT:UP  17-04-25 18:16 OP:and  STATUS:               ID:20170425093742d    3
 OLDACT:UP  17-04-25 18:15 OP:and  STATUS:               ID:20170425093742d    3
 OLDACT:UP  17-04-25 18:15 OP:and  STATUS:               ID:20170425093742d    3
 OLDACT:UP  17-04-25 18:15 OP:and  STATUS:               ID:20170425093742d    3
 OLDACT:UP  17-04-25 18:14 OP:and  STATUS:               ID:20170425093742d    3
 OLDACT:UP  17-04-25 18:14 OP:and  STATUS:               ID:20170425093742d    3
 OLDACT:DUP 17-04-25 18:12 OP:and  STATUS:               ID:20170425093742d    3
 OLDACT:REG 17-04-25 12:33 OP:and  STATUS:               ID:20170425093739     3
 2017-04-25-0938-00M.COL___361                                                 6
 STAT SP IPHASW D HRMM SECON CODA AMPLIT PERI AZIMU VELO AIN AR TRES W  DIS CAZ7
 BAR2 EZ EP        941 20.50                             170    0.0510 27.3 211 
 BAR2 EZ ES        941 36.05                             170   -0.5910 27.3 211 
 BAR2 EZ I         941 37.17         8.9 0.42            167           27.3 211 
 PAM  EZ EP   2    941 23.32                             154    0.83 5 71.1  33 
 PAM  EN ES        941 40.31                             154    0.0410 71.1  33 
 PAM  EZ I         941 42.64         3.6 0.20            157           71.1  33 
 BRR  HZ EP   2    941 22.65                             151    0.37 5 80.0 295 
 BRR  HN ES        941 40.40                             151    0.5010 80.0 295 
 PTB  HZ EP   2    941 27.52                             132   -0.75 5  158 259 
 PTB  HN ES   3    941 48.72                             132   -1.84 2  158 259 
 PTB  HZ I         941 55.98         5.4 0.34            130            158 259 
 SPBC HZ EP        941 29.52                             130    0.02 9  170 222 
 SPBC HN ES        941 53.17                             130    0.42 9  170 222 
 SPBC HZ I         941 57.19         7.8 0.12            129            170 222 
 ZAR  HZ EP   3    941 33.55                             123   -0.10 2  213 291 
 ZAR  HN ES        941 59.67                             123   -0.47 8  213 291 
 ZAR  HZ I         942  4.93         4.8 0.30            122            213 291 
 NOR  HZ EP   2    941 36.59                             119   -0.25 4  243 236 
 NOR  HN ES        942  5.96                             119    0.15 8  243 236 
 NOR  HZ I         942 11.78         2.4 0.14            119            243 236 
 PTGC HZ EP        941 43.36                             113   -0.23 7  306 160 
                                                                                
