 2013  425 0801  9.2 L   7.149 -73.320120.4  RSN  9 0.5 2.2LRSN                1
 GAP= 73        1.05       4.1     4.6  8.0  0.2250E+01  0.1308E+02 -0.5541E+01E
 Epicentro: LEBRIJA - SANTANDER                                                3
 ACTION:UPD 13-05-22 14:40 OP:EP   STATUS:               ID:20130425080112dL   I
 2013-04-25-0758-40M.COL___202                                                 6
 STAT SP IPHASW D HRMM SECON CODA AMPLIT PERI AZIMU VELO AIN AR TRES W  DIS CAZ7
 GIR2 SZ EP        8 1 25.60                             172    0.1610 16.0 119 
 GIR2 SZ I         8 1 38.62        18.9 0.12            174           16.0 119 
 BRR  HZ EP        8 1 26.14                             159    0.0610 43.6 264 
 BRR  HN ES   1    8 1 39.16                             159   -0.13 7 43.6 264 
 BRR  HN I         8 1 39.57        97.3 0.16            157           43.6 264 
 BAR2 SZ EP        8 1 27.82                             151    0.3510 63.4 166 
 BAR2 SZ ES        8 1 41.45                             151   -0.3110 63.4 166 
 BAR2 SZ I         8 1 42.94       112.4 0.24            150           63.4 166 
 PAM  SZ EP   1    8 1 28.73                             148    0.38 7 71.7  73 
 PAM  SN ES        8 1 43.58                             148    0.2610 71.7  73 
 PAM  SN I         8 1 45.19        15.1 0.22            148           71.7  73 
 OCA  HZ EP   1    8 1 31.56                             132   -0.21 7  121   0 
 OCA  HN ES   2    8 1 48.77                             132   -0.64 5  121   0 
 RUS  HZ EP   1    8 1 33.89                             127   -0.30 7  141 169 
 RUS  HN ES   2    8 1 53.61                             127   -0.10 5  141 169 
 RUS  HN I         8 1 55.86         5.9 0.26            127            141 169 
 PTB  HZ EP        8 1 33.02                             127   -0.65 9  143 242 
 PTB  HN ES   2    8 1 51.77                             127   -1.02 5  143 242 
 PTB  HN I         8 2  0.41        15.9 0.34            125            143 242 
 ZAR  HZ EP   1    8 1 37.64                             121    0.78 7  174 283 
 ZAR  HN ES        8 1 59.46                             121    0.99 9  174 283 
 ZAR  HN I         8 2  1.58        33.3 0.18            119            174 283 
 SML  HZ EP   1    8 1 39.24                             117   -0.45 6  201 336 
 SML  HN ES        8 2  3.00                             117   -0.51 9  201 336 
 SML  HN I         8 2 10.65        46.8 0.10            116            201 336 
                                                                                
