 2015  525 0054 46.4 L   6.811 -73.137147.1  RSN 11 0.4 2.0LRSN                1
 GAP=137        0.90       2.7     4.2  5.9 -0.9400E+00  0.3970E+01  0.1963E+01E
 Epicentro: LOS SANTOS - SANTANDER                                             3
 ACTION:UPD 15-09-10 22:06 OP:cam  STATUS:               ID:20150525005446 L   I
 OLDACT:UP  15-05-25 14:12 OP:spq  STATUS:               ID:20150525004736     3
 OLDACT:REG 15-05-25 12:26 OP:spq  STATUS:               ID:20150525004736     3
 2015-05-25-0047-36M.COL___297                                                 6
 STAT SP IPHASW D HRMM SECON CODA AMPLIT PERI AZIMU VELO AIN AR TRES W  DIS CAZ7
 BAR2 EZ EP   1    055  5.74                             170   -0.47 7 24.7 192 
 BAR2 EZ ES   1    055 21.51                             170   -0.16 7 24.7 192 
 BAR2 EZ I         055 22.20        15.5 0.18            169           24.7 192 
 BRR  HZ EP        055  7.79                             153    0.0910 71.5 297 
 BRR  HN ES        055 25.12                             153    0.8010 71.5 297 
 BRR  HZ I         055 28.64        10.0 0.20            150           71.5 297 
 PAM  SZ EP        055  9.01                             152    0.3510 75.8  40 
 PAM  SN ES   1    055 26.01                             152   -0.01 7 75.8  40 
 PAM  SZ I         055 28.17        11.6 0.42            155           75.8  40 
 RUS  HZ EP        055 10.24                             144   -0.1210  102 177 
 RUS  HN ES        055 29.08                             144    0.0310  102 177 
 RUS  HZ I         055 29.74         9.0 0.26            145            102 177 
 OCA  HZ EP   1    055 15.12                             130    0.41 7  159 353 
 OCA  HN ES        055 35.95                             130   -0.84 9  159 353 
 OCA  HZ I         055 39.39        15.1 0.18            131            159 353 
 SPBC HZ EP   1    055 15.28                             129    0.14 7  165 219 
 SPBC HE ES        055 37.19                             129   -0.38 9  165 219 
 SPBC HZ I         055 41.65        12.6 0.18            129            165 219 
 ZAR  HN ES        055 43.99                             123   -0.40 9  205 292 
 ZAR  HZ I         055 49.32         9.7 0.40            122            205 292 
 NOR  HZ EP        055 22.59                             119    0.23 8  236 234 
 NOR  HE ES        055 50.61                             119    0.19 8  236 234 
 NOR  HZ I         055 55.93         6.0 0.22            119            236 234 
 SML  HE ES   1    055 51.73                             118    0.14 6  243 335 
 SML  HZ I         055 54.88        14.7 0.08            119            243 335 
 CHI  HZ EP        055 24.31                             117   -0.01 8  250 195 
 CHI  HN ES   1    055 53.70                             117   -0.20 6  250 195 
 CHI  HZ I         055 57.91         6.9 0.80            118            250 195 
 GUY2CHZ EP   4    055 28.78                             112   -1.45 0  303 235 
 GUY2CHE ES   4    056  7.29                             112    2.86 0  303 235 
 GUY2CHZ I         056 12.26         3.6 0.34                           303 235 
                                                                                
