 2012  625 0616  5.9 L   6.756 -73.178148.0  RSN  6 0.2 1.5LRSN                1
 GAP=179        0.47       3.6     4.1  5.0  0.5682E+01  0.2272E+01 -0.4020E+00E
 Epicentro: VILLANUEVA - SANTANDER                                             3
 ACTION:UPD 12-08-06 17:52 OP:ep   STATUS:               ID:20120625061606dL   I
 2012-06-25-0610-00M.COL___198                                                 6
 STAT SP IPHASW D HRMM SECON CODA AMPLIT PERI AZIMU VELO AIN AR TRES W  DIS CAZ7
 BAR2 SZ EP   1    616 25.69                             173   -0.03 7 18.1 182 
 BAR2 SZ ES   1    616 40.83                             173   -0.33 7 18.1 182 
 BAR2 SZ I         616 41.77         9.1 0.28                          18.1 182 
 BRR  HZ EP   1    616 27.49                             153    0.22 7 70.6 303 
 BRR  HE ES   1    616 44.29                             153    0.36 7 70.6 303 
 BRR  HZ I         616 48.50         6.9 0.18                          70.6 303 
 RUS  HZ EP   1    616 29.70                             145    0.13 7 96.1 174 
 RUS  HN ES   1    616 48.03                             145    0.02 7 96.1 174 
 RUS  HZ I         616 50.20         4.2 0.37                          96.1 174 
 PTB  HZ EP   1    616 32.48                             133   -0.19 7  143 260 
 PTB  HN ES   1    616 53.58                             133    0.04 7  143 260 
 PTB  HZ I         616 55.87         3.4 0.14                           143 260 
 OCA  HN ES   2    616 57.13                             129   -0.22 5  165 355 
 ZAR  HN ES   2    617  3.20                             123   -0.47 4  203 294 
                                                                                
