 2015  125 0424  8.7 L   6.759 -73.140144.1  RSN  5 0.3 1.0LRSN                1
 GAP=139        0.74       4.9     4.7  6.6 -0.1866E+01  0.4728E+00  0.5526E+00E
 Epicentro: LOS SANTOS - SANTANDER                                             3
 ACTION:UPD 15-03-02 15:42 OP:nd   STATUS:               ID:20150125042408 L   I
 OLDACT:DUP 15-01-25 15:19 OP:spq  STATUS:               ID:20150125041751d    3
 2015-01-25-0417-50M.COL___268                                                 6
 STAT SP IPHASW D HRMM SECON CODA AMPLIT PERI AZIMU VELO AIN AR TRES W  DIS CAZ7
 BAR2 EZ ES   1    424 42.92                             172   -0.23 7 19.0 194 
 BAR2 EZ I         424 43.85         3.1 0.22            171           19.0 194 
 BRR  HZ EP        424 29.79                             151   -0.0510 74.0 301 
 BRR  HE ES        424 46.84                             151    0.5210 74.0 301 
 BRR  HZ I         424 48.91         3.9 0.42            150           74.0 301 
 PAM  SZ EP        424 30.86                             150   -0.0810 80.5  37 
 PAM  SE ES   1    424 47.99                             150   -0.28 7 80.5  37 
 PAM  SZ I         424 50.10         1.5 0.52            152           80.5  37 
 RUS  HZ EP   1    424 32.33                             145    0.36 7 96.0 176 
 RUS  HE ES   1    424 50.16                             145    0.05 7 96.0 176 
 RUS  HZ I         424 51.51         0.7 0.28            147           96.0 176 
 PTB  HZ EP   1    424 35.50                             132   -0.03 7  148 261 
 PTB  HE ES   1    424 55.76                             132   -0.68 7  148 261 
 PTB  HZ I         425  0.90         1.4 0.18            132            148 261 
                                                                                
