 2011  725 0820 20.5 L   6.790 -73.016140.0  RSN  5 0.3 1.3LRSN                1
 GAP=196        0.53       4.9     9.9  6.8  0.2023E+02 -0.1514E+02 -0.1735E+01E
 Epicentro: CEPITA - SANTANDER                                                 3
 ACTION:UPD 12-07-25 14:03 OP:epov STATUS:               ID:20110725082020 L   I
 2011-07-25-0820-00M.COL___139                                                 6
 STAT SP IPHASW D HRMM SECON CODA AMPLIT PERI AZIMU VELO AIN AR TRES W  DIS CAZ7
 BAR2 SZ EP   2    820 39.57                             168    0.04 5 28.6 220 
 BAR2 SZ ES   2    820 54.13                             168   -0.27 5 28.6 220 
 BAR2 SZ I         820 55.79         4.5 0.26                          28.6 220 
 GIR2 SZ EP   1    820 39.22                             164   -0.43 7 37.5 328 
 GIR2 SZ ES   1    820 54.72                             164    0.11 7 37.5 328 
 BRR  HZ EP   1    820 41.62                             147   -0.21 7 84.5 295 
 BRR  HE ES   1    820 58.64                             147    0.15 7 84.5 295 
 BRR  HZ I         821  3.48         3.5 0.09                          84.5 295 
 RUS  HZ EP   2    820 44.19                             143    0.61 5 99.5 184 
 RUS  HZ I         820 52.57         4.7 0.45                          99.5 184 
 RUS  HN ES   2    821  1.75                             143    0.15 5 99.5 184 
 OCA  SZ ES   2    821 11.08                             128    0.41 5  164 348 
 OCA  SZ I         821 14.68         2.3 0.32                           164 348 
                                                                                
