 2014  225 0856 41.8 L   6.822 -73.188139.0  RSN  9 0.3 1.8LRSN                1
 GAP=130        0.69       2.2     4.1  5.4 -0.1053E+01  0.8770E+01 -0.1981E+01E
 Epicentro: ZAPATOCA - SANTANDER                                               3
 ACTION:UPD 14-03-10 08:13 OP:ep   STATUS:               ID:20140225085641 L   I
 OLDACT:UP  14-02-26 05:13 OP:CF   STATUS:               ID:20140225085641 L   3
 OLDACT:UP  14-02-25 13:39 OP:stll STATUS:               ID:20140225084806     3
 OLDACT:REG 14-02-25 08:38 OP:fm   STATUS:               ID:20140225084806     3
 2014-02-25-0848-06M.COL___226                                                 6
 STAT SP IPHASW D HRMM SECON CODA AMPLIT PERI AZIMU VELO AIN AR TRES W  DIS CAZ7
 BAR2 SZ EP   1    857  0.79                             169    0.17 8 25.4 179 
 BAR2 SZ ES   1    857 15.25                             169   -0.08 8 25.4 179 
 BAR2 SZ I         857 18.52        17.4 0.28            169           25.4 179 
 PAM  SZ EP   1    857  3.78                             149    0.44 8 78.7  43 
 PAM  SN ES   1    857 20.52                             149    0.35 8 78.7  43 
 PAM  SZ I         857 21.49         7.1 0.20            152           78.7  43 
 RUS  HZ EP        857  4.77                             142   -0.2910  103 174 
 RUS  HN ES        857 23.01                             142   -0.2310  103 174 
 RUS  HZ I         857 24.34         4.6 0.18            144            103 174 
 RUS  HN I         857 24.99        10.2 0.40                           103 174 
 PTB  HZ EP   1    857  7.57                             131   -0.23 7  144 258 
 PTB  HN ES   1    857 28.24                             131    0.13 7  144 258 
 PTB  HZ I         857 30.69         8.9 0.19            132            144 258 
 OCA  HZ EP   1    857  9.67                             129    0.40 7  157 355 
 OCA  HN ES   1    857 30.71                             129   -0.03 7  157 355 
 NOR  HZ EP   1    857 17.72                             117    0.88 6  232 233 
 NOR  HN ES   1    857 44.58                             117    0.37 6  232 233 
 SML  HZ EP        857 17.18                             116   -0.38 8  240 336 
 SML  HN ES        857 45.11                             116   -0.38 8  240 336 
 SML  HZ I         857 49.49         7.4 0.30            118            240 336 
 CHI  HZ EP   1    857 19.08                             116   -0.13 6  250 194 
 CHI  HN ES   1    857 48.31                             116   -0.12 6  250 194 
 CHI  HZ I         857 53.33         4.0 0.38            117            250 194 
 GUY2CHZ EP   4    857 26.07                             111    1.29 0  299 234 
 GUY2CHE ES   4    858  3.74                             111    5.40 0  299 234 
 GUY2CHZ I         858  7.02         3.9 0.34                           299 234 
                                                                                
