 2017  725 0159 16.3 L   6.771 -73.131151.2  RSN  4 0.1 1.1LRSN                1
 GAP=237        0.43       4.0     3.4  3.9  0.5664E+01  0.9505E+00 -0.3313E+01E
 Epicentro: LOS SANTOS - SANTANDER                                             3
 ACTION:UPD 17-08-30 15:36 OP:rebc STATUS:               ID:20170725015916 L   I
 OLDACT:UP  17-07-25 14:46 OP:and  STATUS:               ID:20170725015746     3
 OLDACT:REG 17-07-25 12:31 OP:and  STATUS:               ID:20170725015746     3
 2017-07-25-0158-00M.COL___386                                                 6
 STAT SP IPHASW D HRMM SECON CODA AMPLIT PERI AZIMU VELO AIN AR TRES W  DIS CAZ7
 BAR2 EZ IP     D  159 36.37                             172   -0.1610 20.6 196 
 BAR2 EZ ES        159 52.31                             172   -0.0010 20.6 196 
 BAR2 EZ I         159 56.20         3.2 0.43            160           20.6 196 
 BRR  HZ EP        159 38.25                             152    0.0510 74.2 300 
 BRR  HN ES   2    159 55.43                             152    0.14 5 74.2 300 
 RUS  HZ EP        159 40.64                             146    0.2810 97.3 177 
 RUS  HN ES        159 59.03                             146   -0.1010 97.3 177 
 RUS  HZ I         2 0 11.20         1.8 0.42            139           97.3 177 
 PTB  HZ EP        159 43.64                             133   -0.17 9  149 260 
 PTB  HN ES        2 0  5.32                             133    0.06 9  149 260 
 PTB  HZ I         2 0  6.53         1.7 0.12            134            149 260 
                                                                                
