 2010  725 0636  1.4 L   6.798 -73.096145.2  RSN  5 0.3 1.4LRSN                1
 GAP=164        0.59       4.9     9.3  8.6 -0.1471E+02 -0.4979E+01 -0.9250E+01E
 Epicentro: LOS SANTOS - SANTANDER                                             3
 ACTION:UPD 10-12-01 15:20 OP:pat  STATUS:               ID:20100725063601 L   I
 2010-07-25-0632-09S.COL___123                                                 6
 STAT SP IPHASW D HRMM SECON CODA AMPLIT PERI AZIMU VELO AIN AR TRES W  DIS CAZ7
 BAR2 SZ EP   1    636 20.77                             170    -0.2 7   25 203 
 BAR2 SZ ES   2    636 36.28                             170     0.0 5   25 203 
 BAR2 SZ I         636 39.18         5.6 0.30                            25 203 
 BRR  HZ EP   1    636 22.58                             151    -0.2 7   76 297 
 BRR  HE ES   2    636 39.80                             151     0.3 5   76 297 
 BRR  HZ I         636 43.06         7.1 0.11                            76 297 
 RUS  HN ES   2    636 43.74                             144     0.2 5  100 179 
 RUS  HZ I         636 44.62         3.8 0.33                           100 179 
 GUE  SZ EP   1    636 26.08                             139     0.1 7  116   9 
 GRA  SZ EP   2    636 27.19                             137     0.7 5  124  15 
 GRA  SZ ES   1    636 45.88                             137    -0.2 7  124  15 
 GRA  SZ I         636 47.44         3.2 0.05                           124  15 
                                                                                
