 2011  425 0741  3.7 L   6.773 -73.090155.1  RSN  7 0.4 1.6LRSN                1
 GAP=188        0.56       4.5     9.3  6.5  0.1608E+02 -0.2400E+02 -0.7000E+01E
 Epicentro: LOS SANTOS - SANTANDER                                             3
 ACTION:UP  11-06-22 15:33 OP:REBC STATUS:               ID:20110425074103 L   I
 2011-04-25-0739-03S.COL___139                                                 6
 STAT SP IPHASW D HRMM SECON CODA AMPLIT PERI AZIMU VELO SNR AR TRES W  DIS CAZ7
 BAR2 SZ EP   1    741 24.25                             170    -0.2 7   22 207 
 BAR2 SZ ES   2    741 40.33                             170    -0.3 5   22 207 
 BAR2 SZ I         741 41.19         6.7 0.28                            22 207 
 BTL  SZ EP        741 24.83                                     0.310   25 309 
 BTL  SZ ES   2    741 40.50                                    -0.3 5   25 309 
 GIR2 SZ EP        741 24.67                                     0.010   36 341 
 GIR2 SZ ES   3    741 39.99                                    -1.0 2   36 341 
 BRR  HZ EP   1    741 26.28                             150     0.0 7   78 298 
 BRR  HZ I         741 26.51         8.8 0.15                            78 298 
 BRR  HN ES   1    741 44.15                             150     0.3 7   78 298 
 RUS  HZ EP   1    741 28.18                             146     0.0 7   97 180 
 RUS  HN ES   2    741 47.43                             146     0.2 5   97 180 
 RUS  HZ I         741 47.94         2.9 0.28                            97 180 
 OCA  SZ EP   1    741 33.01                             131    -0.1 7  164 351 
 OCA  SZ ES   2    741 55.89                             131    -0.2 5  164 351 
 OCA  SZ I         741 59.49         7.7 0.33                           164 351 
 HEL  HN ES   3    742 15.58                                    -1.6 2  277 257 
                                                                                
