 2017  525 0649  8.3 L   6.524 -73.545110.1  RSN  9 0.4 1.7LRSN                1
 GAP=150        1.10       3.7     3.3  6.8  0.3647E+01  0.5093E+01  0.2996E+01E
 Epicentro: EL CARMEN - SANTANDER                                              3
 ACTION:UPD 17-06-16 13:38 OP:jn   STATUS:               ID:20170525064908 L   I
 OLDACT:UP  17-05-25 16:12 OP:ar   STATUS:               ID:20170525064730     3
 OLDACT:REG 17-05-25 12:53 OP:ar   STATUS:               ID:20170525064730     3
 2017-05-25-0648-00M.COL___332                                                 6
 STAT SP IPHASW D HRMM SECON CODA AMPLIT PERI AZIMU VELO AIN AR TRES W  DIS CAZ7
 BRR  HZ EP        649 24.62                             146   -0.8310 67.1 344 
 BRR  HN ES        649 38.99                             146    0.1610 67.1 344 
 BRR  HZ I         649 39.26        13.4 0.40            149           67.1 344 
 RUS  HZ EP        649 27.10                             139   -0.4810 86.5 144 
 RUS  HN ES        649 42.76                             139    0.1410 86.5 144 
 RUS  HZ I         649 43.89         5.1 0.24            140           86.5 144 
 PTB  HZ EP   9    649 26.67                             134   -1.45 0  101 271 
 PTB  HN ES        649 41.62                             137   -0.5110  101 271 
 PTB  HZ I         649 42.72        16.7 0.42            133            101 271 
 SPBC HZ EP        649 29.03                             131   -0.2610  113 211 
 SPBC HN ES        649 45.75                             131    0.0910  113 211 
 SPBC HZ I         649 51.58        18.3 0.10            129            113 211 
 YPLC HZ EP        649 36.10                             116    0.03 9  179 134 
 YPLC HE ES        649 58.39                             116    0.67 9  179 134 
 YPLC HZ I         649 59.17        11.1 0.28            118            179 134 
 ZAR  HZ EP        649 36.31                             116    0.23 9  180 307 
 ZAR  HN ES        649 58.48                             116    0.73 9  180 307 
 ZAR  HZ I         649 59.92        12.2 0.54            117            180 307 
 NOR  HZ EP        649 35.87                             116   -0.35 9  181 234 
 NOR  HE ES        649 57.90                             116   -0.09 9  181 234 
 NOR  HZ I         650  0.68         7.0 0.22            116            181 234 
 HEL  HZ EP        649 41.00                             111   -0.26 8  223 261 
 HEL  HN ES        650  6.67                             111   -0.29 8  223 261 
 HEL  HZ I         650 13.27         4.3 0.22            111            223 261 
 CBOC HZ EP        649 48.83                             105    0.86 7  283 255 
 CBOC HN ES        650 19.11                             105    0.21 7  283 255 
 CBOC HZ I         650 23.95         1.2 0.18            106            283 255 
                                                                                
