 2013  425 0801  9.5 L   7.164 -73.317118.0  RSN 13 0.5 2.2LRSN                1
 GAP= 74        1.03       4.0     4.3  8.0  0.1022E+01  0.1205E+02  0.4151E+01E
 Epicentro: LEBRIJA - SANTANDER                                                3
 ACTION:UPD 13-05-22 14:40 OP:EP   STATUS:               ID:20130425080109 L   I
 2013-04-25-0758-40M.COL___199                                                 6
 STAT SP IPHASW D HRMM SECON CODA AMPLIT PERI AZIMU VELO AIN AR TRES W  DIS CAZ7
 GIR2 SZ EP        8 1 25.58                             172    0.0710 16.6 125 
 GIR2 SZ I         8 1 38.73        18.1 0.13            173           16.6 125 
 BRR  HZ IP     D  8 1 26.15                             158   -0.0310 44.1 262 
 BRR  HN ES   1    8 1 39.04                             158   -0.15 7 44.1 262 
 BRR  HN I         8 1 39.41        97.3 0.16            156           44.1 262 
 BAR2 SZ EP     D  8 1 27.83                             150    0.1710 65.0 167 
 PAM  SZ EP   1    8 1 28.59                             148    0.19 7 70.9  74 
 PAM  SN ES        8 1 43.82                             148    0.6810 70.9  74 
 PAM  SN I         8 1 45.06        15.1 0.22            151           70.9  74 
 OCA  HZ EP   1    8 1 31.56                             132   -0.21 7  119 360 
 OCA  HN ES   1    8 1 48.50                             132   -0.64 7  119 360 
 OCA  HZ I         8 1 50.37        19.0 0.18            133            119 360 
 RUS  HZ EP        8 1 33.90                             127   -0.61 9  143 170 
 RUS  HN ES   2    8 1 53.58                             127   -0.44 5  143 170 
 RUS  HN I         8 1 55.87         5.9 0.26            127            143 170 
 PTB  HZ EP   1    8 1 33.21                             126   -0.73 7  144 241 
 PTB  HN ES   2    8 1 51.74                             126   -1.27 5  144 241 
 PTB  HN I         8 2  0.21        15.9 0.34            126            144 241 
 ZAR  HZ EP   1    8 1 37.63                             121    0.58 7  174 282 
 ZAR  HN ES        8 1 59.28                             121    0.74 9  174 282 
 ZAR  HN I         8 2  1.28        33.3 0.18            120            174 282 
 SML  HZ EP   1    8 1 39.13                             117   -0.62 6  199 335 
 SML  HN ES   1    8 2  2.84                             117   -0.51 6  199 335 
 SML  HN I         8 2 10.59        46.8 0.10            117            199 335 
 NOR  HZ EP   1    8 1 45.57                             111    0.44 6  247 224 
 NOR  HN ES   2    8 2 13.42                             111    0.49 4  247 224 
 NOR  HN I         8 2 17.88        22.3 0.14            111            247 224 
 URE  HN ES   4    8 2 11.88                             111   -2.27 0  253 285 
 URE  HN I         8 2 20.15        21.6 0.26            111            253 285 
 HEL  HN ES   2    8 2 18.61                             110    0.77 4  267 246 
 SJC  HZ EP   1    8 1 59.43                             103    0.41 5  365 326 
 SJC  HN ES   4    8 2 34.32                             103   -3.33 0  365 326 
 SJC  HN I         8 2 35.87         4.3 0.50            103            365 326 
                                                                                
