 2012 1225 0823 29.0 L   6.759 -73.178150.0  RSN  5 0.4 1.5LRSN                1
 GAP=231        0.87       9.2     8.5  9.3  0.4402E+02  0.8610E+01  0.5006E+00E
 Epicentro: VILLANUEVA - SANTANDER                                             3
 ACTION:UPD 13-01-04 14:30 OP:ep   STATUS:               ID:20121225082329 L   I
 2012-12-25-0820-00M.COL___242                                                 6
 STAT SP IPHASW D HRMM SECON CODA AMPLIT PERI AZIMU VELO AIN AR TRES W  DIS CAZ7
 BAR2 SZ EP   1    823 48.96                             173   -0.08 7 18.4 182 
 BAR2 SZ ES   1    824  3.96                             173   -0.73 7 18.4 182 
 BAR2 SZ I         824  7.29         8.7 0.56                          18.4 182 
 BRR  HZ EP   1    823 50.69                             153    0.13 7 70.5 303 
 BRR  HN ES   1    824  7.91                             153    0.53 7 70.5 303 
 BRR  HZ I         824 12.46         5.5 0.14                          70.5 303 
 RUS  HZ EP   1    823 53.40                             146    0.53 7 96.4 174 
 RUS  HE ES   1    824 11.67                             146    0.18 7 96.4 174 
 RUS  HZ I         824 13.40         2.3 0.40                          96.4 174 
 PTB  HZ EP   1    823 55.17                             134   -0.76 7  143 260 
 PTB  HN ES   1    824 17.08                             134    0.15 7  143 260 
 PTB  HZ I         824 19.39         3.3 0.14                           143 260 
 ZAR  HN ES   2    824 26.89                             123   -0.08 4  203 294 
 ZAR  HZ I         824 32.49         4.2 0.34                           203 294 
                                                                                
