 2017  625 0650  2.4 L   6.731 -73.171152.2  RSN  5 0.2 1.1LRSN                1
 GAP=240        0.63       4.0     4.2  5.1  0.2386E+01  0.3789E+01  0.3108E+01E
 Epicentro: VILLANUEVA - SANTANDER                                             3
 ACTION:UPD 17-09-14 16:55 OP:jn   STATUS:               ID:20170625065002 L   I
 OLDACT:DUP 17-06-25 16:06 OP:lv   STATUS:               ID:20170625064745d    3
 OLDACT:REG 17-06-25 13:18 OP:lv   STATUS:               ID:20170625064744     3
 2017-06-25-0648-00M.COL___349                                                 6
 STAT SP IPHASW D HRMM SECON CODA AMPLIT PERI AZIMU VELO AIN AR TRES W  DIS CAZ7
 BAR2 EZ EP        650 22.77                             174    0.0810 15.4 185 
 BAR2 EZ ES        650 38.42                             174   -0.0810 15.4 185 
 BAR2 EZ I         650 39.14         3.4 0.19            170           15.4 185 
 BRR  HZ EP        650 24.62                             153    0.2710 72.8 305 
 BRR  HN ES        650 41.35                             153   -0.1110 72.8 305 
 BRR  HZ I         650 43.59         1.7 0.12            152           72.8 305 
 PTB  HZ EP        650 29.71                             134    0.15 9  144 262 
 PTB  HN ES        650 50.61                             134   -0.12 9  144 262 
 PTB  HZ I         650 56.55         1.1 0.27            133            144 262 
 SPBC HZ EP        650 30.18                             132   -0.53 9  156 220 
 SPBC HN ES        650 53.10                             132    0.32 9  156 220 
 SPBC HZ I         650 56.51         2.3 0.06            131            156 220 
 ZAR  HN ES        651  0.98                             124   -0.03 9  205 294 
                                                                                
