 2010 1125 0210 29.3 L   6.752 -73.111143.1  RSN  5 0.2 1.6LRSN                1
 GAP=163        0.57       3.5     7.7  6.0 -0.4164E+01 -0.1711E+02  0.3695E+01E
 Epicentro: LOS SANTOS - SANTANDER                                             3
 ACTION:UP  10-12-17 16:54 OP:REBC STATUS:               ID:20101125021029 L   I
 2010-11-25-0207-44S.COL___129                                                 6
 STAT SP IPHASW D HRMM SECON CODA AMPLIT PERI AZIMU VELO SNR AR TRES W  DIS CAZ7
 BAR2 SZ EP   1    210 48.70                             172     0.2 7   19 204 
 BAR2 SZ ES   1    211  3.53                             172     0.0 7   19 204 
 BAR2 SZ I         211  5.40        24.4 0.23                            19 204 
 BRR  HZ EP        210 50.52                             150     0.010   77 301 
 BRR  HE ES   1    211  7.12                             150     0.0 7   77 301 
 BRR  HZ I         211 10.47         6.4 0.09                            77 301 
 RUS  HZ EP   1    210 52.60                             145     0.2 7   95 178 
 RUS  HZ I         211 12.58         6.4 0.55                            95 178 
 GRA  SZ EP        210 54.48                             135    -0.210  130  15 
 GRA  SZ I         211 15.57         5.2 0.34                           130  15 
 CHI  HZ EP   1    211  6.74                             117     0.3 6  245 196 
 CHI  HZ I         211  7.73         2.1 0.18                           245 196 
 CHI  HE ES   1    211 34.86                             117    -0.5 6  245 196 
                                                                                
