 2011 1025 0500 54.0 L   6.542 -73.497116.6  RSN 17 0.2 2.4LRSN                1
 GAP= 57        0.40       1.5     1.8  3.2 -0.2383E+00  0.2484E+01  0.1253E+01E
 Epicentro: EL CARMEN DE CHUCURI - SANTANDER                                   3
 ACTION:UPD 12-07-13 16:05 OP:ep   STATUS:               ID:20111025050054 L   I
 2011-10-25-0459-21S.COL___172                                                 6
 STAT SP IPHASW D HRMM SECON CODA AMPLIT PERI AZIMU VELO AIN AR TRES W  DIS CAZ7
 BAR2 SZ IP        5 1 10.79                             162    0.2610 35.2  81 
 BAR2 SZ ES   1    5 1 23.43                             162    0.03 7 35.2  81 
 BTL  SZ EP   1    5 1 11.42                             156    0.30 7 48.7  31 
 BRR  HZ EP   1    5 1 11.72                             148   -0.09 7 66.8 339 
 BRR  HN ES   1    5 1 25.74                             148    0.05 7 66.8 339 
 BRR  HZ I         5 1 27.43        49.5 0.17                          66.8 339 
 RUS  HZ IP     D  5 1 13.72                             142   -0.0910 85.2 147 
 RUS  HE ES   2    5 1 29.06                             142   -0.17 5 85.2 147 
 RUS  HZ I         5 1 31.12        25.0 0.22                          85.2 147 
 PAM  SZ EP   1    5 1 17.40                             130    0.23 7  125  45 
 PAM  SN ES   2    5 1 34.57                             130   -0.65 5  125  45 
 YOP  SZ EP   2    5 1 21.99                             119    0.00 4  177 138 
 YOP  SE ES   2    5 1 43.95                             119    0.16 4  177 138 
 YOP  SZ I         5 1 46.41        33.8 0.26                           177 138 
 ZAR  HZ EP   1    5 1 22.46                             118   -0.04 7  183 305 
 ZAR  HN ES   2    5 1 45.07                             118    0.35 4  183 305 
 ZAR  HZ I         5 1 47.37        63.5 0.36                           183 305 
 NOR  SZ EP   1    5 1 22.33                             118   -0.57 7  187 235 
 NOR  SN ES   2    5 1 44.96                             118   -0.46 4  187 235 
 OCA  SZ EP   1    5 1 23.01                             117   -0.24 7  189   6 
 OCA  SZ ES   2    5 1 46.05                             117    0.00 4  189   6 
 OCA  SZ I         5 1 51.69        34.5 0.21                           189   6 
 ROSC BZ EP   2    5 1 25.78                             115   -0.03 4  209 206 
 ROSC BN ES   2    5 1 50.49                             115   -0.11 4  209 206 
 ROSC BZ I         5 1 57.07        26.7 0.43                           209 206 
 HEL  HZ EP   1    5 1 27.66                             112   -0.24 6  228 260 
 HEL  HN ES   2    5 1 54.26                             112   -0.07 4  228 260 
 HEL  HZ I         5 1 56.14        16.9 0.42                           228 260 
 GUY  SZ EP   2    5 1 31.61                             110    0.47 4  255 235 
 GUY  SN ES   2    5 2  0.16                             110    0.07 4  255 235 
 GUY  SZ I         5 2  4.80        33.0 0.25                           255 235 
 VIL  SN ES   2    5 2  2.17                             108   -0.07 4  270 185 
 VIL  SZ I         5 2 11.42        10.9 0.41                           270 185 
 RREF HZ EP   1    5 1 33.57                             108    0.11 6  274 229 
 RREF HN ES   2    5 2  4.28                             108    0.06 4  274 229 
 RREF HZ I         5 2  9.66        16.1 0.24                           274 229 
 TOL  SZ EP   2    5 1 36.13                             106    0.45 4  296 223 
 TOL  SZ ES   2    5 2  8.24                             106    0.07 4  296 223 
 DBB  SZ EP   2    5 1 36.49                             106    0.14 4  304 280 
 PRA  HZ EP        5 1 41.52                             103    0.00 6  349 206 
 PRA  HN ES   2    5 2 18.73                             103    0.17 3  349 206 
                                                                                
