 2010  125 0958 46.4 L   6.614 -73.659102.0  RSN  7 0.6 1.5LRSN                1
 GAP= 93        1.28       5.7    13.0 18.8  0.8889E+01  0.1891E+03  0.7685E+00E
 Epicentro: EL CARMEN DE CHUCURI - SANTANDER                                   3
 ACTION:UP  10-08-24 09:45 OP:vdl  STATUS:               ID:20100125095846 L   I
 2010-01-25-0956-42S.COL___095                                                 6
 STAT SP IPHASW D HRMM SECON CODA AMPLIT PERI AZIMU VELO SNR AR TRES W  DIS CAZ7
 BAR2 SZ EP        959  2.02                             150    -0.110   53  93 
 BAR2 SZ ES   1    959 14.86                             150     0.4 7   53  93 
 GIR2 SZ EP        959  3.71                             141     0.310   73  45 
 RUS  BZ EP   1    959  5.43                             131    -0.9 7  102 141 
 RUS  BN ES   2    959 20.88                             131    -1.0 5  102 141 
 RUS  BZ I         959 21.56         6.6 0.03                           102 141 
 OCA  SZ EP   1    959 15.11                             114     0.8 7  184  12 
 OCA  SZ ES   1    959 35.86                             114    -0.2 7  184  12 
 CHI  HZ EP        959 19.41                             109     0.6 8  220 182 
 CHI  HZ I         959 50.70         1.8 0.51                           220 182 
 RREF BN ES   2    959 54.52                             105     0.4 4  266 225 
 RREF BZ I         959 57.76         3.9 0.27                           266 225 
 MON  HZ EP        959 29.93                             100    -0.8 7  325 317 
 MON  HZ I        10 0  3.51         1.3 0.51                           325 317 
 MON  HE ES   1   10 0  5.24                             100    -0.1 5  325 317 
                                                                                
