 2013  125 0040  8.9 L   6.780 -73.152138.0  RSN  7 0.5 1.7LRSN                1
 GAP=137        0.97       5.1     5.6  8.6  0.2608E+01  0.9731E+01  0.1064E+02E
 Epicentro: LOS SANTOS - SANTANDER                                             3
 ACTION:UPD 13-02-15 09:16 OP:ep   STATUS:               ID:20130125004008 L   I
 2013-01-25-0040-00M.COL___241                                                 6
 STAT SP IPHASW D HRMM SECON CODA AMPLIT PERI AZIMU VELO AIN AR TRES W  DIS CAZ7
 BAR2 SZ EP   1    040 27.50                             171   -0.09 7 21.0 189 
 BAR2 SZ ES   1    040 41.81                             171   -0.32 7 21.0 189 
 BAR2 SZ I         040 44.20        13.1 0.26            170           21.0 189 
 BRR  HZ EP   1    040 29.38                             151    0.10 7 71.6 300 
 BRR  HN ES   1    040 46.12                             151    0.98 7 71.6 300 
 PAM  SZ EP   1    040 30.44                             149   -0.03 7 79.6  39 
 PAM  SN ES   1    040 47.23                             149   -0.03 7 79.6  39 
 PAM  SZ I         040 49.27         9.2 0.44            152           79.6  39 
 RUS  HZ EP   1    040 31.54                             143   -0.23 7 98.4 176 
 RUS  HN ES   1    040 49.47                             143   -0.11 7 98.4 176 
 RUS  HZ I         040 51.79         7.8 0.36            144           98.4 176 
 PTB  HZ EP   1    040 34.23                             130   -0.95 7  147 260 
 PTB  HN ES   1    040 55.07                             130   -0.57 7  147 260 
 PTB  HZ I         040 57.68        10.1 0.42            130            147 260 
 ZAR  HE ES   1    041  6.01                             121    0.17 6  204 293 
 ZAR  HZ I         041 11.59         6.4 0.52            121            204 293 
 CHI  HZ EP   1    040 46.76                             116    0.80 6  246 195 
 CHI  HN ES   1    041 15.52                             116    0.68 6  246 195 
 CHI  HZ I         041 18.63         1.5 0.60            117            246 195 
                                                                                
