 2016 1025 0014 16.2 L   6.363 -73.619105.8  RSN 11 0.2 2.0LRSN                1
 GAP= 88        0.55       1.6     1.6  3.5 -0.6336E+00  0.6058E+00  0.9319E+00E
 Epicentro: SANTA HELENA DEL OPON - SANTANDER                                  3
 ACTION:UPD 16-11-09 19:22 OP:rebc STATUS:               ID:20161025001416 L   I
 OLDACT:REG 16-10-25 12:40 OP:cara STATUS:               ID:20161025000740     3
 2016-10-25-0008-00M.COL___358                                                 6
 STAT SP IPHASW D HRMM SECON CODA AMPLIT PERI AZIMU VELO AIN AR TRES W  DIS CAZ7
 RUS  HZ EP        014 34.68                             141    0.2010 78.9 131 
 RUS  HE ES        014 48.90                             141    0.1610 78.9 131 
 RUS  HZ I         014 50.41         6.3 0.28            128           78.9 131 
 BRR  HZ EP        014 34.02                             139   -0.0810 82.9 353 
 BRR  HE ES        014 48.32                             139    0.2510 82.9 353 
 SPBC HZ EP        014 35.07                             135   -0.0210 93.3 213 
 SPBC HE ES        014 49.63                             135   -0.2010 93.3 213 
 SPBC HZ I         014 53.43        50.8 0.22            122           93.3 213 
 PTB  HZ EP   4    014 34.05                             135   -1.06 0 94.6 282 
 PTB  HN ES        014 49.60                             135   -0.2610 94.6 282 
 PTB  HZ I         014 51.12        29.7 0.10            125           94.6 282 
 PAM  EZ EP        014 41.00                             121    0.08 9  148  43 
 PAM  EE ES        014 59.93                             121   -0.27 9  148  43 
 PAM  EZ I         015  0.92        12.9 0.14            113            148  43 
 NOR  HZ EP        014 42.32                             118    0.27 9  164 237 
 NOR  HN ES        015  2.25                             118    0.03 9  164 237 
 NOR  HZ I         015  6.82        20.3 0.22            109            164 237 
 CHI  HZ EP        014 45.58                             114    0.00 9  192 184 
 CHI  HE ES        015  8.26                             114   -0.23 9  192 184 
 CHI  HZ I         015 12.53         6.1 0.26            105            192 184 
 HEL  HZ EP        014 47.62                             111   -0.16 8  212 265 
 HEL  HE ES        015 12.37                             111   -0.05 8  212 265 
 HEL  HZ I         015 15.11        13.1 0.32            104            212 265 
 GUY2CHZ EP   4    014 50.92                             109    0.88 0  231 237 
 GUY2CHN ES        015 16.92                             109    0.48 8  231 237 
 GUY2CHZ I         015 22.78         8.3 0.22                           231 237 
 PRA  HZ EP        015  0.32                             102   -0.27 7  325 206 
 PRA  HZ I         015 41.53         4.8 0.28             98            325 206 
 SJC  HZ EP   4    015 10.73                              97   -2.16 0  427 336 
 SJC  HE ES   4    015 53.78                              97   -3.33 0  427 336 
 SJC  HZ I         015 56.88         1.5 0.46             96            427 336 
                                                                                
