 2013  425 0705  6.9 L   6.703 -73.189148.9  RSN  5 0.3 1.5LRSN                1
 GAP=173        0.55       7.9     8.2 14.0  0.3172E+02 -0.3885E+02 -0.7111E+02E
 Epicentro: VILLANUEVA - SANTANDER                                             3
 ACTION:UPD 13-05-22 14:40 OP:EP   STATUS:               ID:20130425070506 L   I
 2013-04-25-0658-40M.COL___203                                                 6
 STAT SP IPHASW D HRMM SECON CODA AMPLIT PERI AZIMU VELO AIN AR TRES W  DIS CAZ7
 BAR2 SZ EP   2    7 5 26.80                             175    0.09 5 12.3 177 
 GIR2 SZ EP   1    7 5 26.82                             164   -0.41 7 41.5 359 
 BRR  HZ EP   1    7 5 28.86                             152    0.40 7 73.0 308 
 BRR  HN ES   2    7 5 45.42                             152    0.12 5 73.0 308 
 BRR  HN I         7 5 50.11         8.5 0.16            149           73.0 308 
 RUS  HN ES   1    7 5 48.51                             147    0.05 7 90.4 173 
 RUS  HN I         7 5 51.00         2.9 0.42            150           90.4 173 
 PTB  HN ES   2    7 5 54.00                             134   -0.31 5  141 263 
 PTB  HN I         7 6  0.70         4.4 0.24            133            141 263 
                                                                                
