 2017  125 0425 53.7 L   6.142 -73.824101.1  RSN  4 0.3 0.5LRSN                1
 GAP=194        0.82       5.0     3.7  8.6  0.7388E+01  0.4568E+01  0.5935E+01E
 Epicentro: LANDAZURI - SANTANDER                                              3
 ACTION:UPD 17-05-22 16:03 OP:jn   STATUS:               ID:20170125042553 L   I
 OLDACT:DUP 17-01-25 14:49 OP:lv   STATUS:               ID:20170125040941d    3
 2017-01-25-0418-00M.COL___355                                                 6
 STAT SP IPHASW D HRMM SECON CODA AMPLIT PERI AZIMU VELO AIN AR TRES W  DIS CAZ7
 PTB  HZ EP        426 11.06                             137   -0.1110 82.6 302 
 PTB  HE ES        426 24.90                             137    0.1010 82.6 302 
 PTB  HZ I         426 25.14         1.7 0.11            139           82.6 302 
 RUS  HZ EP        426 12.59                             136    0.4310 86.6 109 
 RUS  HN ES        426 26.24                             136   -0.3210 86.6 109 
 RUS  HZ I         426 27.86         0.5 0.31            137           86.6 109 
 BAR2 EZ EP        426 12.09                             136    0.2710 86.7  55 
 BAR2 EZ ES        426 25.95                             136   -0.0110 86.7  55 
 BRR  HZ EP        426 12.80                             129   -0.5610  107   7 
 BRR  HE ES        426 28.90                             129    0.2010  107   7 
                                                                                
