 2014  725 0300 36.7 L   6.809 -73.129149.8  RSN 14 0.4 1.9LRSN                1
 GAP=185        0.92       3.3     5.9  5.9  0.2211E+01  0.6893E+01  0.5093E+01E
 Epicentro: LOS SANTOS - SANTANDER                                             3
 ACTION:UPD 15-03-16 20:46 OP:nd   STATUS:               ID:20140725030036 L   I
 OLDACT:REG 14-07-25 12:36 OP:spq  STATUS:               ID:20140725025819     3
 2014-07-25-0258-19M.COL___269                                                 6
 STAT SP IPHASW D HRMM SECON CODA AMPLIT PERI AZIMU VELO AIN AR TRES W  DIS CAZ7
 BAR2 SZ EP        3 0 56.90                             170    0.1110 24.6 194 
 BAR2 SZ ES   1    3 1 12.36                             170   -0.14 7 24.6 194 
 BAR2 SZ I         3 1 13.42        35.1 0.20            168           24.6 194 
 BRR  HZ IP     C  3 0 58.69                             153    0.3910 72.4 297 
 BRR  HN ES        3 1 15.93                             153    0.7410 72.4 297 
 BRR  HZ I         3 1 19.82         9.7 0.20            142           72.4 297 
 RUS  HZ EP   1    3 1  0.80                             144   -0.06 7  101 177 
 RUS  HN ES   1    3 1 19.52                             144   -0.22 7  101 177 
 RUS  HZ I         3 1 20.71         8.6 0.24            141            101 177 
 PTB  HZ EP        3 1  3.39                             133   -0.74 9  150 259 
 PTB  HN ES   1    3 1 24.63                             133   -0.93 7  150 259 
 PTB  HZ I         3 1 32.06         7.3 0.38            124            150 259 
 OCA  HN ES   1    3 1 27.16                             131   -0.33 7  160 352 
 OCA  HZ I         3 1 33.76         5.7 0.30            122            160 352 
 SPBC HZ EP        3 1  5.81                             130    0.17 9  165 219 
 SPBC HN ES        3 1 27.94                             130   -0.31 9  165 219 
 SPBC HZ I         3 1 29.12        11.5 0.22            123            165 219 
 ZAR  HN ES   1    3 1 35.52                             123    0.40 6  205 292 
 ZAR  HZ I         3 1 37.50         5.5 0.16            115            205 292 
 NOR  HZ EP   1    3 1 12.62                             119   -0.22 6  237 235 
 NOR  HN ES   4    3 1 39.87                             119   -1.19 0  237 235 
 NOR  HZ I         3 1 44.32         3.7 0.18            112            237 235 
 SML  HN ES   1    3 1 41.59                             118   -0.65 6  244 335 
 SML  HZ I         3 1 49.19        15.0 0.26            111            244 335 
 CHI  HZ EP   1    3 1 14.50                             118   -0.23 6  250 196 
 CHI  HN ES   1    3 1 44.47                             118    0.04 6  250 196 
 CHI  HZ I         3 1 47.68         4.3 0.36            112            250 196 
 HEL  HZ EP        3 1 17.51                             115    0.21 8  274 256 
 HEL  HZ I         3 1 58.11         2.0 0.62            109            274 256 
 GUY2CHZ EP   1    3 1 21.38                             113    0.70 5  303 235 
 GUY2CHN ES   4    3 1 56.86                             113    1.84 0  303 235 
 GUY2CHZ I         3 2  9.04         2.4 0.60                           303 235 
 PRA  HZ EP        3 1 31.02                             107    0.50 6  394 210 
 PRA  HN ES   1    3 2 12.46                             107   -0.07 4  394 210 
 PRA  HZ I         3 2 18.52         3.5 0.28            102            394 210 
 ORTC HN ES   1    3 2 13.71                             107    0.45 4  397 216 
 SJC  HZ EP   4    3 1 30.34                             106   -2.04 0  409 327 
                                                                                
