 2015  525 0244 34.1 L   6.779 -73.142148.0  RSN  7 0.2 1.5LRSN                1
 GAP=138        0.57       2.3     3.2  4.6 -0.8758E+00  0.1543E+01  0.8223E+00E
 Epicentro: LOS SANTOS - SANTANDER                                             3
 ACTION:UPD 15-09-10 22:06 OP:cam  STATUS:               ID:20150525024434 L   I
 OLDACT:REG 15-05-25 12:37 OP:spq  STATUS:               ID:20150525023745     3
 2015-05-25-0237-45M.COL___297                                                 6
 STAT SP IPHASW D HRMM SECON CODA AMPLIT PERI AZIMU VELO AIN AR TRES W  DIS CAZ7
 BAR2 EZ EP        244 53.79                             172   -0.1810 21.1 192 
 BAR2 EZ ES   1    245  9.07                             172   -0.38 7 21.1 192 
 BAR2 EZ I         245 10.28         5.5 0.26            173           21.1 192 
 BRR  HZ EP        244 55.62                             152    0.0410 72.7 300 
 BRR  HN ES        245 12.68                             152    0.3510 72.7 300 
 BRR  HZ I         245 15.45         4.0 0.26            152           72.7 300 
 PAM  SZ EP        244 56.70                             151    0.0410 79.0  38 
 PAM  SN ES        245 14.44                             151    0.2010 79.0  38 
 PAM  SZ I         245 16.07         5.4 0.27            152           79.0  38 
 RUS  HZ EP        244 57.96                             145    0.0510 98.2 176 
 RUS  HE ES        245 16.51                             145    0.0310 98.2 176 
 RUS  HZ I         245 17.79         3.2 0.28            148           98.2 176 
 SPBC HZ EP   1    245  2.84                             130    0.21 7  162 220 
 SPBC HN ES        245 24.75                             130   -0.13 9  162 220 
 SPBC HZ I         245 26.49         4.8 0.12            132            162 220 
 OCA  HN ES   1    245 24.61                             130   -0.59 7  163 353 
 OCA  HZ I         245 27.72         5.9 0.25            131            163 353 
 ZAR  HE ES   1    245 32.29                             123   -0.06 6  205 293 
 ZAR  HZ I         245 33.91         3.1 0.07            124            205 293 
                                                                                
