 2016 1125 0052 19.3 L   6.816 -73.135147.4  RSN  8 0.2 1.6LRSN                1
 GAP=152        0.55       2.3     2.5  3.4 -0.9915E+00  0.1030E+01  0.2727E+01E
 Epicentro: LOS SANTOS - SANTANDER                                             3
 ACTION:UPD 17-10-26 21:11 OP:lp   STATUS:               ID:20161125005219 L   I
 OLDACT:UP  16-11-25 14:11 OP:edw  STATUS:               ID:20161125004752d    3
 OLDACT:UP  16-11-25 14:09 OP:edw  STATUS:               ID:20161125004752d    3
 OLDACT:UP  16-11-25 14:08 OP:edw  STATUS:               ID:20161125004752d    3
 OLDACT:DUP 16-11-25 14:01 OP:edw  STATUS:               ID:20161125004752d    3
 OLDACT:UP  16-11-25 13:59 OP:edw  STATUS:               ID:20161125004751     3
 OLDACT:REG 16-11-25 12:14 OP:edw  STATUS:               ID:20161125004751     3
 2016-11-25-0048-00M.COL___355                                                 6
 STAT SP IPHASW D HRMM SECON CODA AMPLIT PERI AZIMU VELO AIN AR TRES W  DIS CAZ7
 BAR2 EZ EP        052 38.87                             170   -0.2510 25.3 192 
 BAR2 EZ ES        052 54.62                             170    0.0010 25.3 192 
 BAR2 EZ I         052 55.52         7.1 0.10            168           25.3 192 
 BRR  HZ EP        052 40.87                             153    0.2810 71.4 297 
 BRR  HN ES        052 57.20                             153   -0.0310 71.4 297 
 PAM  EZ EP     C  052 41.73                             152    0.2110 75.3  40 
 PAM  EN ES        052 58.75                             152   -0.1410 75.3  40 
 PAM  EZ I         053  0.41         3.8 0.27            155           75.3  40 
 PTB  HZ EP   9    052 45.78                             132   -0.71 0  149 258 
 PTB  HN ES        053  6.88                             132   -0.14 9  149 258 
 PTB  HZ I         053 14.30         3.0 0.23            130            149 258 
 ZAR  HZ EP        052 51.84                             123   -0.01 9  204 292 
 ZAR  HN ES        053 17.27                             123   -0.01 9  204 292 
 ZAR  HZ I         053 23.13         4.2 0.18            122            204 292 
 NOR  HZ EP   4    052 53.75                             118   -1.54 0  237 234 
 NOR  HN ES        053 23.44                             118    0.04 8  237 234 
 NOR  HZ I         053 28.17         3.7 0.18            118            237 234 
 CHI  HZ EP        052 56.92                             117   -0.35 8  251 195 
 CHI  HN ES        053 27.36                             117    0.45 8  251 195 
 PRA  HZ EP        053 13.18                             107    0.10 6  394 210 
 PRA  HN ES        053 54.56                             107   -0.51 6  394 210 
 PRA  HZ I         053 59.86         1.5 0.32            107            394 210 
 ORTC HN ES   4    053 59.63                             106    3.85 0  398 216 
                                                                                
