 2016  525 0108 16.6 L   6.808 -73.135150.0  RSN  8 0.5 1.7LRSN                1
 GAP=138        1.18       5.5     4.8  8.0 -0.3029E+01  0.1423E+02  0.1446E+01E
 Epicentro: LOS SANTOS - SANTANDER                                             3
 ACTION:UPD 16-08-18 17:49 OP:cam  STATUS:               ID:20160525010816 L   I
 OLDACT:UP  16-05-25 14:21 OP:mh   STATUS:               ID:20160525010740     3
 OLDACT:REG 16-05-25 12:32 OP:mh   STATUS:               ID:20160525010740     3
 2016-05-25-0107-40M.COL___319                                                 6
 STAT SP IPHASW D HRMM SECON CODA AMPLIT PERI AZIMU VELO AIN AR TRES W  DIS CAZ7
 BAR2 EZ EP        1 8 37.06                             170    0.3010 24.4 192 
 BAR2 EZ ES        1 8 51.86                             170   -0.6210 24.4 192 
 BAR2 EZ I         1 8 55.88         7.4 0.24            168           24.4 192 
 BRR  HZ IP     C  1 8 38.88                             153    0.6410 71.9 297 
 BRR  HN ES   1    1 8 55.72                             153    0.59 7 71.9 297 
 BRR  HZ I         1 8 58.54         7.9 0.42            152           71.9 297 
 PAM  EZ EP        1 8 38.70                             152   -0.4910 76.0  39 
 PAM  EN ES        1 8 56.92                             152    0.1210 76.0  39 
 RUS  HZ EP        1 8 41.04                             144    0.2210  101 177 
 RUS  HN ES        1 8 59.83                             144    0.1110  101 177 
 RUS  HZ I         1 9  1.99         3.6 0.36            146            101 177 
 PTB  HZ EP        1 8 43.89                             132   -0.14 9  149 259 
 PTB  HN ES        1 9  4.53                             132   -0.90 9  149 259 
 PTB  HZ I         1 9 12.32         7.0 0.25            133            149 259 
 ZAR  HZ EP   1    1 8 48.45                             123   -0.95 6  205 292 
 ZAR  HN ES        1 9 15.44                             123    0.45 9  205 292 
 ZAR  HZ I         1 9 20.42         5.6 0.28            125            205 292 
 NOR  HZ EP        1 8 52.82                             119    0.09 8  236 234 
 NOR  HN ES        1 9 21.46                             119    0.54 8  236 234 
 NOR  HZ I         1 9 28.00         4.6 0.18            121            236 234 
 HEL  HE ES        1 9 28.75                             115   -0.08 8  273 256 
                                                                                
