 2010  125 0558 17.1 L   6.734 -72.946142.0  RSN  6 0.4 1.3LRSN                1
 GAP=291        0.72       7.7     6.9  8.8 -0.2467E+01  0.1993E+02  0.1587E+02E
 Epicentro: CEPITA - SANTANDER                                                 3
 ACTION:UP  10-08-24 09:45 OP:vdl  STATUS:               ID:20100125055816 L   I
 2010-01-25-0554-36S.COL___095                                                 6
 STAT SP IPHASW D HRMM SECON CODA AMPLIT PERI AZIMU VELO SNR AR TRES W  DIS CAZ7
 BAR2 SZ EP   1    558 36.09                             167    -0.3 7   31 239 
 BAR2 SZ ES   2    558 51.66                             167     0.1 5   31 239 
 RUS  BZ EP        558 39.97                             145     0.010   94 189 
 RUS  BZ I         558 55.22         1.9 0.16                            94 189 
 RUS  BN ES   2    558 58.09                             145     0.2 5   94 189 
 CHI  HZ EP        558 54.36                             116    -0.2 8  248 201 
 CHI  HZ I         558 54.99         1.6 1.11                           248 201 
 CHI  HE ES   1    559 23.80                             116     0.0 6  248 201 
 HEL  HN ES   1    559 32.11                             112    -0.2 5  292 258 
 HEL  HZ I         559 33.46         1.2 0.35                           292 258 
 RREF BZ EP        559  5.36                             109     0.9 7  334 233 
 RREF BN ES   1    559 41.36                             109    -0.1 5  334 233 
 RREF BZ I         559 45.69         1.3 0.20                           334 233 
 PRA  HN ES   2    559 52.48                             105    -0.7 3  397 213 
                                                                                
