 2013 1225 0505 34.0 L   6.810 -73.198147.6  RSN  4 0.3 1.0LRSN                1
 GAP=196        0.65       5.2     9.0  8.7  0.2739E+02 -0.8242E+01 -0.8622E+01E
 Epicentro: ZAPATOCA - SANTANDER                                               3
 ACTION:UPD 14-01-13 10:20 OP:ep   STATUS:               ID:20131225050534 L   I
 OLDACT:REG 13-12-25 08:17 OP:mh   STATUS:               ID:20131225050000     3
 2013-12-25-0500-00M.COL___285                                                 6
 STAT SP IPHASW D HRMM SECON CODA AMPLIT PERI AZIMU VELO AIN AR TRES W  DIS CAZ7
 BRR  HZ EP   1    5 5 55.28                             155    0.21 7 65.7 300 
 BRR  HN ES   1    5 6 11.87                             155    0.38 7 65.7 300 
 BRR  HZ I         5 6 39.30         2.8 0.76            155           65.7 300 
 RUS  HZ EP   1    5 5 58.35                             144    0.28 7  102 173 
 RUS  HN ES   1    5 6 16.38                             144   -0.45 7  102 173 
 RUS  HZ I         5 6 19.04         0.9 0.35            171            102 173 
 PTB  HZ EP   1    5 6  0.68                             133    0.02 7  142 258 
 PTB  HN ES   2    5 6 21.18                             133   -0.26 5  142 258 
 PTB  HZ I         5 6 24.43         1.6 0.15            151            142 258 
 SML  HN ES   1    5 6 38.23                             118   -0.52 6  240 336 
                                                                                
