 2012 1125 0551  4.8 L   6.766 -73.162143.8  RSN  4 0.3 1.6LRSN                1
 GAP=242        0.59       7.2     4.6  6.5  0.2020E+02  0.3183E+00 -0.9436E+01E
 Epicentro: LOS SANTOS - SANTANDER                                             3
 ACTION:UPD 12-12-05 15:36 OP:}ep  STATUS:               ID:20121125055104 L   I
 2012-11-25-0550-00M.COL___233                                                 6
 STAT SP IPHASW D HRMM SECON CODA AMPLIT PERI AZIMU VELO AIN AR TRES W  DIS CAZ7
 BAR2 SZ EP        551 24.16                             172    0.0310 19.3 187 
 BAR2 SZ ES   1    551 38.92                             172   -0.28 7 19.3 187 
 BAR2 SZ I         551 40.28        11.0 0.21                          19.3 187 
 RUS  HZ EP        551 28.18                             144    0.0710 97.0 175 
 RUS  HE ES   1    551 46.59                             144    0.31 7 97.0 175 
 RUS  HE I         551 48.51         5.6 0.33                          97.0 175 
 PTB  HZ EP        551 31.12                             132   -0.28 9  145 260 
 PTB  HE ES        551 52.04                             132   -0.09 9  145 260 
 PTB  HZ I         551 56.29         3.5 0.17                           145 260 
 ZAR  HE ES   1    552  2.83                             122    0.53 6  204 293 
 ZAR  HZ I         552  5.26         3.6 0.18                           204 293 
                                                                                
