 2012 1125 0023 37.7 L   5.992 -74.180 78.2  RSN  4 0.4 1.1LRSN                1
 GAP=122        0.85       5.9     4.1 14.5  0.1276E+02  0.1940E+02  0.5125E+02E
 Epicentro: LA BELLEZA - SANTANDER                                             3
 ACTION:UPD 12-12-05 15:36 OP:}ep  STATUS:               ID:20121125002337 L   I
 2012-11-25-0020-00M.COL___233                                                 6
 STAT SP IPHASW D HRMM SECON CODA AMPLIT PERI AZIMU VELO AIN AR TRES W  DIS CAZ7
 PTB  HZ EP        023 52.15                             135    0.3210 67.8 333 
 PTB  HN ES   1    024  3.19                             135    0.30 7 67.8 333 
 PTB  HZ I         024  5.18         5.5 0.29                          67.8 333 
 RUS  HZ EP   1    023 57.96                             118    0.09 7  122  95 
 RUS  HE ES   1    024 12.91                             118   -0.73 7  122  95 
 HEL  HZ EP        024  1.00                             112    0.02 9  151 278 
 HEL  HN ES   1    024 18.37                             112   -0.80 7  151 278 
 HEL  HZ I         024 23.68         2.7 0.37                           151 278 
 CHI  HZ EP   1    024  2.11                             111    0.19 7  159 162 
 CHI  HN ES   1    024 21.10                             111    0.26 7  159 162 
 CHI  HZ I         024 29.40         1.9 0.49                           159 162 
                                                                                
