 2011  825 0754 27.2 L   6.778 -72.991138.0  RSN  4 0.3 1.3LRSN                1
 GAP=220        0.62       7.3    12.3  7.7  0.5172E+02 -0.2060E+02  0.4587E+01E
 Epicentro: CEPITA - SANTANDER                                                 3
 ACTION:UPD 12-07-13 15:53 OP:ep   STATUS:               ID:20110825075427 L   I
 2011-08-25-0740-00M.COL___156                                                 6
 STAT SP IPHASW D HRMM SECON CODA AMPLIT PERI AZIMU VELO AIN AR TRES W  DIS CAZ7
 BAR2 SZ EP   1    754 45.89                             167   -0.14 7 29.5 226 
 BAR2 SZ ES   2    754 59.85                             167   -0.88 5 29.5 226 
 BAR2 SZ I         754 59.95         3.6 0.77                          29.5 226 
 GIR2 SZ EP   1    754 46.24                             163    0.02 7 40.1 326 
 GIR2 SZ ES   1    755  1.36                             163    0.30 7 40.1 326 
 BRR  HZ EP   1    754 48.21                             146   -0.34 7 87.6 295 
 BRR  HZ I         754 48.92         4.4 0.11                          87.6 295 
 BRR  HE ES   1    755  5.41                             146    0.20 7 87.6 295 
 RUS  HZ EP   1    754 50.22                             143    0.20 7 98.4 186 
 RUS  HE ES   2    755  8.14                             143    0.31 5 98.4 186 
                                                                                
