 2016 1125 0408 48.7 L   6.710 -73.447115.8  RSN  4 0.3 1.4LRSN                1
 GAP=148        0.69       5.9     3.9  5.7  0.7239E+01  0.8883E+01  0.5674E+00E
 Epicentro: EL CARMEN - SANTANDER                                              3
 ACTION:UPD 17-10-26 21:11 OP:lp   STATUS:               ID:20161125040848 L   I
 OLDACT:REG 16-11-25 12:42 OP:edw  STATUS:               ID:20161125040746     3
 2016-11-25-0408-00M.COL___355                                                 6
 STAT SP IPHASW D HRMM SECON CODA AMPLIT PERI AZIMU VELO AIN AR TRES W  DIS CAZ7
 BAR2 EZ EP        4 9  5.07                             164    0.1110 32.0 114 
 BAR2 EZ ES        4 9 17.89                             164    0.2210 32.0 114 
 BAR2 EZ I         4 9 19.01        20.1 0.30            167           32.0 114 
 BRR  HZ EP        4 9  5.01                             154   -0.5210 52.8 326 
 BRR  HN ES        4 9 18.60                             154   -0.0910 52.8 326 
 PTB  HZ EP        4 9  9.95                             132   -0.0910  113 260 
 PTB  HN ES        4 9 26.62                             132   -0.1010  113 260 
 PTB  HZ I         4 9 31.27         2.4 0.22            132            113 260 
 ZAR  HZ EP        4 9 16.85                             119    0.32 9  178 299 
 ZAR  HN ES        4 9 38.55                             119    0.27 9  178 299 
 ZAR  HZ I         4 9 41.79         3.1 0.32            120            178 299 
                                                                                
