 2016  325 0304 36.4 L   6.819 -73.144143.6  RSN 24 0.5 2.4LRSN                1
 GAP= 55        1.08       2.6     2.5  4.8 -0.8009E+00  0.3728E+01 -0.5290E+00E
 Epicentro: LOS SANTOS - SANTANDER                                             3
 ACTION:UPD 16-05-13 21:27 OP:cam  STATUS:               ID:20160325030436 L   I
 OLDACT:REG 16-03-25 14:13 OP:ak   STATUS:               ID:20160325025748     3
 2016-03-25-0257-48M.COL___296                                                 6
 STAT SP IPHASW D HRMM SECON CODA AMPLIT PERI AZIMU VELO AIN AR TRES W  DIS CAZ7
 BAR2 EZ IP     C  3 4 56.17                             170    0.3410 25.4 190 
 BAR2 EZ ES        3 5 10.77                             170   -0.2010 25.4 190 
 BAR2 EZ I         3 5 13.34        41.1 0.18            168           25.4 190 
 PAM  EZ EP        3 4 59.05                             151    0.7610 75.7  40 
 PAM  EN ES        3 5 15.84                             151    0.4810 75.7  40 
 PAM  EZ I         3 5 18.03        53.5 0.54            155           75.7  40 
 RUS  HZ EP     C  3 5  0.12                             143    0.0210  103 176 
 RUS  HE ES        3 5 18.46                             143   -0.1210  103 176 
 RUS  HZ I         3 5 19.67        30.6 0.28            144            103 176 
 PTB  HZ EP        3 5  2.77                             131   -0.48 9  148 258 
 PTB  HN ES        3 5 23.77                             131   -0.42 9  148 258 
 PTB  HZ I         3 5 27.94        30.2 0.20            132            148 258 
 TAM  HZ IP     C  3 5  4.48                             130    0.52 9  156 106 
 TAM  HN ES        3 5 24.78                             130   -0.66 9  156 106 
 TAM  HZ I         3 5 24.97        16.8 0.34            134            156 106 
 OCA  HZ EP        3 5  4.43                             129    0.07 9  158 353 
 OCA  HN ES        3 5 26.03                             129   -0.12 9  158 353 
 OCA  HZ I         3 5 29.70        50.3 0.27            132            158 353 
 SPBC HZ EP        3 5  5.20                             128    0.29 9  165 219 
 SPBC HN ES        3 5 26.83                             128   -0.31 9  165 219 
 SPBC HZ I         3 5 30.29        49.3 0.07            129            165 219 
 ZAR  HZ EP   2    3 5  8.94                             122    0.29 4  203 292 
 ZAR  HN ES        3 5 34.50                             122    0.71 9  203 292 
 ZAR  HZ I         3 5 41.01        33.6 0.32            123            203 292 
 NOR  HZ EP        3 5 12.36                             118    0.20 8  236 234 
 NOR  HN ES        3 5 39.33                             118   -0.72 8  236 234 
 NOR  HZ I         3 5 45.97        24.6 0.30            119            236 234 
 CHI  HZ EP        3 5 14.83                             116    0.61 8  251 195 
 CHI  HN ES        3 5 43.02                             116   -0.68 8  251 195 
 CHI  HZ I         3 5 46.80        10.7 0.28            118            251 195 
 ROSC BZ EP   9    3 5 17.00                             116    2.38 0  255 211 
 ROSC BN ISg       3 5 46.48                                   -0.32 8  255 211 
 ROSC BZ I         3 5 52.90        23.5 0.40            117            255 211 
 HEL  HZ EP   2    3 5 17.36                             114    0.77 4  273 255 
 HEL  HN ES        3 5 48.22                             114    0.29 8  273 255 
 HEL  HZ I         3 5 55.32        14.1 0.48            115            273 255 
 URE  HZ EP        3 5 16.92                             113   -0.38 7  283 292 
 URE  HN ES        3 5 48.75                             113   -0.45 7  283 292 
 URE  HZ I         3 5 50.92        14.6 0.12            114            283 292 
 SOCV BZ EP   4    3 5 17.63                             112   -1.58 0  300  57 
 SOCV BE ES   4    3 5 49.94                             112   -2.66 0  300  57 
 GUY2CHZ EP        3 5 20.59                             112    0.52 7  303 234 
 GUY2CHN ES        3 5 54.35                             112    0.22 7  303 234 
 GUY2CHZ I         3 6  3.33        15.2 0.54                           303 234 
 PTGC HZ EP        3 5 19.39                             111   -1.00 7  311 159 
 PTGC HE ES   4    3 5 52.60                             111   -2.09 0  311 159 
 ELA  HZ EP   9    3 5 27.05                             110    3.71 0  331 229 
 ELA  HE ES        3 6  3.85                                    0.19 7  331 229 
 ELA  HZ I         3 6  7.44        12.6 0.64            111            331 229 
 CBOC HZ EP        3 5 23.99                             109    0.66 7  334 252 
 CBOC HN ES        3 5 59.66                             109   -0.26 7  334 252 
 CBOC HZ I         3 6  3.92         5.0 0.54            110            334 252 
 DBB  SZ EP        3 5 23.51                             109   -0.29 7  339 274 
 DBB  SZ ES        3 6  1.17                             109    0.41 7  339 274 
 DBB  SZ I         3 6  2.02        24.1 0.58            110            339 274 
 MON  HZ EP        3 5 24.14                             108   -1.05 6  352 308 
 MON  HE ES        3 6  2.48                             108   -0.76 6  352 308 
 MON  HZ I         3 6  3.55         4.3 0.30            110            352 308 
 SDV  BZ EP        3 5 25.86                             108   -0.34 6  359  50 
 SDV  BN ES   4    3 6  2.57                             108   -2.46 0  359  50 
 ANIL HZ EP   2    3 5 26.35                             108    0.03 3  359 224 
 ANIL HN ES        3 6  5.98                             108    0.73 6  359 224 
 ANIL HZ I         3 6 13.47        25.2 0.38            109            359 224 
 PAL  HZ EP        3 5 32.00                             105    0.36 6  407 239 
 PAL  HE ES        3 6 15.61                             105    0.89 6  407 239 
 PAL  HZ I         3 6 19.36         5.2 0.44            107            407 239 
 SJC  HZ EP        3 5 30.66                             105   -1.04 6  408 327 
 SJC  HE ES   4    3 6 12.17                             105   -2.66 0  408 327 
 SJC  HZ I         3 6 15.92         7.0 0.44            107            408 327 
 YOT  HZ EP        3 5 39.83                             103    0.26 5  473 229 
                                                                                
