 2011  625 0331 56.8 L   6.764 -73.060134.6  RSN  5 0.3 1.5LRSN                1
 GAP=200        0.61      12.0    11.4 13.7 -0.6847E+02 -0.7487E+02 -0.1430E+02E
 Epicentro: LOS SANTOS - SANTANDER                                             3
 ACTION:UP  11-07-14 19:07 OP:ep   STATUS:               ID:20110625033156 L   I
 2011-06-25-0320-00M.COL___124                                                 6
 STAT SP IPHASW D HRMM SECON CODA AMPLIT PERI AZIMU VELO SNR AR TRES W  DIS CAZ7
 BAR2 SZ ES   3    332 29.02                             171    -0.4 2   23 215 
 BAR2 SZ I         332 31.24         7.0 0.27                            23 215 
 BTL  SZ EP        332 15.42                             169     0.210   29 307 
 BRR  HZ EP        332 17.09                             149    -0.310   81 298 
 BRR  HN ES   2    332 33.89                             149     0.4 5   81 298 
 BRR  HZ I         332 38.61         9.2 0.16                            81 298 
 BRI  SZ EP        332 19.87                             140     0.110  109  15 
 GRA  SZ EP        332 21.13                             135    -0.110  127  13 
 GRA  SZ I         332 22.45         3.0 0.23                           127  13 
 GRA  SZ ES   3    332 39.84                             135    -0.4 2  127  13 
                                                                                
