 2015  125 0732 14.6 L   6.819 -73.120146.0  RSN 13 0.4 1.6LRSN                1
 GAP= 72        0.88       3.5     3.0  5.3  0.4666E+00  0.2166E+01 -0.1083E+01E
 Epicentro: LOS SANTOS - SANTANDER                                             3
 ACTION:UPD 15-03-02 15:42 OP:nd   STATUS:               ID:20150125073214 L   I
 OLDACT:DUP 15-01-25 16:56 OP:spq  STATUS:               ID:20150125072737d    3
 2015-01-25-0727-36M.COL___271                                                 6
 STAT SP IPHASW D HRMM SECON CODA AMPLIT PERI AZIMU VELO AIN AR TRES W  DIS CAZ7
 BAR2 EZ EP   1    732 34.02                             169   -0.28 7 26.0 195 
 BAR2 EZ ES   1    732 49.35                             169   -0.32 7 26.0 195 
 BAR2 EZ I         732 49.81         5.8 0.30            171           26.0 195 
 BRR  HZ EP        732 36.07                             152    0.2210 72.7 296 
 BRR  HN ES        732 52.66                             152    0.2310 72.7 296 
 BRR  HZ I         732 56.99         8.0 0.12            151           72.7 296 
 PAM  SZ EP     D  732 37.07                             152    0.4410 74.0  39 
 PAM  SE ES        732 53.86                             152    0.0410 74.0  39 
 PAM  SZ I         732 55.90        10.0 0.54            153           74.0  39 
 RUS  HZ EP   1    732 38.38                             143   -0.12 7  102 178 
 RUS  HN ES   1    732 56.82                             143   -0.33 7  102 178 
 RUS  HZ I         732 58.18         3.6 0.40            147            102 178 
 PTB  HZ EP        732 41.38                             131   -0.48 9  151 258 
 PTB  HN ES        733  3.28                             131    0.15 9  151 258 
 PTB  HZ I         733  4.95         4.6 0.18            132            151 258 
 TAM  HZ EP        732 42.43                             131    0.35 9  153 106 
 TAM  HE ES   1    733  3.77                             131    0.24 7  153 106 
 TAM  HZ I         733  4.30         3.0 0.26            134            153 106 
 OCA  HZ EP   1    732 42.41                             130   -0.34 7  159 352 
 OCA  HN ES   1    733  3.91                             130   -0.82 7  159 352 
 OCA  HZ I         733  8.15         6.1 0.18            131            159 352 
 ZAR  HZ EP        732 47.14                             122   -0.09 8  206 291 
 ZAR  HE ES        733 13.48                             122    0.78 8  206 291 
 ZAR  HZ I         733 19.06         4.7 0.24            123            206 291 
 NOR  HN ES   1    733 18.36                             118   -0.51 6  238 234 
 NOR  HZ I         733 19.63         2.5 0.58            120            238 234 
 NOR  HZ E         733 22.33                                            238 234 
 SML  HZ EP        732 50.55                             118   -0.60 8  243 334 
 SML  HN ES   1    733 19.62                             118   -0.05 6  243 334 
 SML  HZ I         733 24.95         5.4 0.28            118            243 334 
 GUY2CHZ EP   4    733  0.81                             112    2.21 0  305 235 
 GUY2CHN ES   4    733 34.50                             112    1.58 0  305 235 
 GUY2CHZ I         733 41.66         1.8 0.56                           305 235 
 CBOC HZ EP   1    733  2.51                             110    0.62 5  337 252 
 CBOC HN ES   4    733 39.97                             110    1.19 0  337 252 
 CBOC HZ I         733 42.12         0.9 0.52            111            337 252 
 MON  HZ EP   4    733  1.86                             109   -1.84 0  355 308 
 MON  HE ES   4    733 40.53                             109   -1.48 0  355 308 
 MON  HZ I         733 41.25         1.3 0.18            110            355 308 
                                                                                
