 2010 1025 0234  5.1 L   6.770 -73.120144.5  RSN  8 0.3 2.1LRSN                1
 GAP=185        0.54       3.0     5.1  5.0 -0.2778E+01  0.4517E+01  0.1955E+01E
 Epicentro: LOS SANTOS - SANTANDER                                             3
 ACTION:UP  11-02-18 11:11 OP:tino STATUS:               ID:20101025023405 L   I
 2010-10-25-0230-13S.COL___124                                                 6
 STAT SP IPHASW D HRMM SECON CODA AMPLIT PERI AZIMU VELO SNR AR TRES W  DIS CAZ7
 BAR2 SZ EP   1    234 24.59                             171     0.0 7   21 200 
 BAR2 SZ ES   1    234 39.35                             171    -0.4 7   21 200 
 BAR2 SZ I         234 41.18        58.0 0.07                            21 200 
 BRR  HZ EP   1    234 26.47                             151     0.1 7   75 300 
 BRR  HN ES   2    234 43.14                             151     0.2 5   75 300 
 BRR  HZ I         234 47.49        18.4 0.40                            75 300 
 RUS  HZ EP        234 28.50                             144     0.010   97 178 
 RUS  HE ES   2    234 47.03                             144     0.3 5   97 178 
 RUS  HZ I         234 48.56        13.4 0.14                            97 178 
 OCA  SZ EP   1    234 33.39                             128    -0.3 7  164 352 
 OCA  SZ ES   2    234 56.54                             128     0.6 5  164 352 
 OCA  SZ I         234 58.19        11.2 0.17                           164 352 
 NOR  SZ EP   2    234 40.55                             118    -0.3 4  235 236 
 NOR  SE ES   1    235  8.74                             118     0.0 6  235 236 
 CHI  HZ EP   1    234 42.63                             117     0.1 6  246 196 
 CHI  HN ES   2    235 12.10                             117     0.4 4  246 196 
 CHI  HZ I         235 18.21         6.0 0.49                           246 196 
 RREF HZ EP   2    234 52.10                             110     0.9 3  322 230 
 RREF HE ES   2    235 26.63                             110    -0.6 3  322 230 
 RREF HZ I         235 32.11         6.2 0.99                           322 230 
 PRA  HZ EP   2    234 58.09                             106    -0.4 3  391 210 
 PRA  HN ES   2    235 40.04                             106     0.0 3  391 210 
                                                                                
