 2013 1125 0149 11.9 L   6.784 -73.175142.0  RSN  7 0.5 1.5LRSN                1
 GAP=188        1.14       4.2     7.6  8.4 -0.1583E+01 -0.8906E+00  0.8742E+01E
 Epicentro: LOS SANTOS - SANTANDER                                             3
 ACTION:UPD 14-01-09 16:30 OP:ep   STATUS:               ID:20131125014911 L   I
 OLDACT:REG 13-11-25 13:05 OP:mh   STATUS:               ID:20131125014836     3
 2013-11-25-0148-36M.COL___247                                                 6
 STAT SP IPHASW D HRMM SECON CODA AMPLIT PERI AZIMU VELO AIN AR TRES W  DIS CAZ7
 BAR2 SZ EP   1    149 31.19                             171    0.12 7 21.2 182 
 BAR2 SZ ES   1    149 45.95                             171   -0.05 7 21.2 182 
 BRR  HZ EP        149 32.35                             153   -0.2210 69.3 301 
 BRR  HN ES        149 49.57                             153    0.9010 69.3 301 
 BRR  HZ I         149 54.05         6.1 0.19            151           69.3 301 
 PTB  HZ EP        149 38.34                             132    0.06 9  144 259 
 PTB  HN ES        149 58.21                             132   -0.62 9  144 259 
 PTB  HZ I         150  1.47         4.0 0.14            132            144 259 
 SPBC HZ EP        149 39.75                             129   -0.08 9  160 218 
 SPBC HN ES        150  1.10                             129   -0.48 9  160 218 
 SPBC HZ I         150  6.18         3.7 0.16            129            160 218 
 OCA  HN ES        150  1.41                             129   -0.64 9  162 354 
 ZAR  HZ EP        149 44.61                             122    0.71 9  202 293 
 ZAR  HN ES   1    150  8.95                             122    0.11 6  202 293 
 ZAR  HZ I         150 14.20         3.2 0.10            123            202 293 
 CHI  HZ EP        149 48.97                             117   -0.18 8  246 195 
 CHI  HN ES        150 18.68                             117    0.50 8  246 195 
 CHI  HZ I         150 23.84         2.0 0.28            118            246 195 
                                                                                
