 2017 1125 0654 58.6 L   6.191 -73.603114.3  RSN 13 0.5 1.4LRSN                1
 GAP= 73        1.27       3.0     3.0  7.0 -0.1032E+01  0.3850E+01  0.5266E+00E
 Epicentro: LA PAZ - SANTANDER                                                 3
 ACTION:UPD 17-12-12 19:59 OP:rebc STATUS:               ID:20171125065458 L   I
 OLDACT:REG 17-11-25 13:31 OP:osc  STATUS:               ID:20171125064740     3
 2017-11-25-0648-00M.COL___488                                                 6
 STAT SP IPHASW D HRMM SECON CODA AMPLIT PERI AZIMU VELO AIN AR TRES W  DIS CAZ7
 BAR2 EZ EP        655 16.57                             149    0.1910 64.3  46 
 BAR2 EZ ES        655 30.64                             149    0.4210 64.3  46 
 BAR2 EZ I         655 31.57        17.8 0.40            150           64.3  46 
 RUS  HZ EP        655 16.46                             148   -0.4210 66.3 120 
 RUS  HN ES        655 30.57                             148   -0.5210 66.3 120 
 RUS  HZ I         655 32.85         2.2 0.16            150           66.3 120 
 SPBC HE ES        655 32.47                             143    0.8210 79.1 221 
 PTB  HZ EP        655 17.98                             135   -0.9510  102 292 
 PTB  HN ES        655 33.95                             135   -0.7910  102 292 
 PTB  HZ I         655 36.74         4.0 0.38            135            102 292 
 NOR  HN ES        655 44.80                             122    0.67 9  156 244 
 YPLC HZ EP        655 24.71                             121   -0.03 9  161 123 
 YPLC HE ES        655 45.55                             121    0.46 9  161 123 
 PAM  EZ EP        655 26.09                             121    0.80 9  162  38 
 PAM  EN ES        655 45.91                             121   -0.17 9  162  38 
 PAM  EZ I         655 47.60         2.2 0.38            122            162  38 
 CHI  HZ EP        655 25.99                             119   -0.44 9  173 185 
 CHI  HE ES        655 47.56                             119   -0.54 9  173 185 
 CHI  HZ I         655 50.15         2.4 0.14            120            173 185 
 ZAR  HZ EP        655 28.96                             115    0.16 9  200 316 
 ZAR  HN ES        655 52.22                             115   -0.10 9  200 316 
 ZAR  HZ I         655 58.26         4.9 0.62            115            200 316 
 HEL  HE ES        655 55.67                             114   -0.10 8  213 270 
 GUY2CHZ EP        655 32.37                             113    0.44 8  223 241 
 GUY2CHE ES        655 58.44                             113    0.56 8  223 241 
 GUY2CHZ I         656  5.34         2.1 0.50                           223 241 
 OCA  HN ES        655 58.54                             112    0.16 8  229   8 
 PRA  HZ EP        655 41.12                             105   -0.23 7  309 208 
 PRA  HE ES        656 14.50                             105   -0.15 7  309 208 
 PRA  HZ I         656 21.13         2.3 0.36            105            309 208 
                                                                                
