 2010  725 0456 26.6 L   6.500 -73.699 95.2  RSN 16 0.3 2.9LRSN                1
 GAP= 77        0.79       2.3     3.3  5.8 -0.2723E+01  0.7907E+01 -0.5463E-01E
 Epicentro: SANTA HELENA DEL OPON - SANTANDER                                  3
 ACTION:UPD 10-12-01 15:20 OP:pat  STATUS:               ID:20100725045626 L   I
 2010-07-25-0454-54S.COL___123                                                 6
 STAT SP IPHASW D HRMM SECON CODA AMPLIT PERI AZIMU VELO AIN AR TRES W  DIS CAZ7
 BAR2 SZ IP        456 42.06                             147     0.210   58  80 
 BAR2 SZ ES   1    456 54.22                             147     0.3 7   58  80 
 BAR2 SZ I         456 55.90       321.8 0.16                            58  80 
 BRR  HZ IP     D  456 42.04                             142    -0.210   67 359 
 BRR  HN ES   1    456 54.28                             142    -0.2 7   67 359 
 BRR  HZ I         457  0.53       136.0 0.17                            67 359 
 RUS  HZ IP     D  456 44.98                             132    -0.310   96 135 
 RUS  HN ES   1    456 59.63                             132    -0.3 7   96 135 
 RUS  HZ I         457  2.79       123.1 0.50                            96 135 
 BRI  SZ EP   1    456 52.44                             115     0.1 7  167  36 
 BRI  SZ ES   1    457 12.78                             115     0.3 7  167  36 
 GUE  SZ IP        456 53.34                             115     0.5 9  170  30 
 GUE  SZ ES   1    457 13.31                             115     0.0 7  170  30 
 GUE  SZ I         457 14.96        59.4 0.11                           170  30 
 GRA  SZ EP        456 53.76                             113    -0.2 9  182  33 
 GRA  SZ ES   1    457 15.55                             113     0.2 7  182  33 
 GRA  SZ I         457 18.34       327.1 0.32                           182  33 
 ROSC BZ EP   1    456 56.17                             112     0.3 6  196 201 
 ROSC BZ I         457 25.27        37.1 0.59                           196 201 
 OCA  SZ EP        456 55.13                             111    -0.5 9  197  12 
 OCA  SZ ES   1    457 18.56                             111     0.2 6  197  12 
 OCA  SZ I         457 21.96       134.1 0.44                           197  12 
 HEL  HZ EP   1    456 56.51                             111    -0.4 6  205 261 
 HEL  HE ES   1    457 20.46                             111    -0.1 6  205 261 
 HEL  HZ I         457 23.44        41.6 0.34                           205 261 
 CHI  HZ EP   1    456 56.85                             110    -0.3 6  207 181 
 CHI  HE ES   2    457 20.97                             110     0.0 4  207 181 
 CHI  HZ I         457 28.41        39.0 0.78                           207 181 
 CVER SZ EP   1    456 59.88                             109     0.8 6  223 191 
 CVER SZ I         457 34.30       101.0 0.44                           223 191 
 RREF HZ EP   1    457  3.28                             106     0.3 6  254 226 
 RREF HN ES   2    457 31.45                             106     0.1 4  254 226 
 RREF HZ I         457 38.02        60.8 0.48                           254 226 
 DBB  SZ EP        457  5.85                             104     0.1 7  283 282 
 ANIL HZ EP   1    457  7.26                             104     0.3 5  292 220 
 ANIL HZ I         457 45.75       142.6 0.34                           292 220 
 PRA  HZ EP   1    457 11.68                             102    -0.2 5  335 203 
 PRA  HN ES   1    457 47.55                             102     0.3 5  335 203 
 PRA  HZ I         457 52.54        39.9 0.27                           335 203 
 SDV  BZ EP   1    457 22.74                              99    -0.8 4  429  52 
 SDV  BZ I         458  9.86        27.2 0.40                           429  52 
                                                                                
