 2013  125 0839 32.9 L   6.799 -73.155140.6  RSN  8 0.5 2.0LRSN                1
 GAP=101        1.35       5.2     4.3  7.8  0.3125E+01  0.4307E+01  0.6606E+01E
 Epicentro: LOS SANTOS - SANTANDER                                             3
 ACTION:UPD 13-02-15 09:16 OP:ep   STATUS:               ID:20130125083932 L   I
 2013-01-25-0838-09M.COL___177                                                 6
 STAT SP IPHASW D HRMM SECON CODA AMPLIT PERI AZIMU VELO AIN AR TRES W  DIS CAZ7
 BAR2 SZ EP        839 52.04                             170    0.1610 23.1 188 
 BAR2 SZ ES        840  6.09                             170   -0.6210 23.1 188 
 BAR2 SZ I         840  7.73        31.9 0.30            170           23.1 188 
 BRR  HZ IP     C  839 53.61                             152    0.1910 70.3 299 
 BRR  HZ I         839 53.87        20.3 0.28            151           70.3 299 
 BRR  HN ES        840 10.48                             152    1.0310 70.3 299 
 PAM  SZ EP        839 54.72                             149    0.1310 78.1  40 
 PAM  SN ES        840 11.74                             149    0.2110 78.1  40 
 PAM  SN I         840 12.66        26.6 0.48            152           78.1  40 
 RUS  HZ EP        839 55.97                             143   -0.1510  101 175 
 RUS  HN ES        840 13.96                             143   -0.3010  101 175 
 RUS  HE I         840 17.65        10.2 0.48            143            101 175 
 PTB  HZ EP        839 58.40                             131   -0.93 9  147 259 
 PTB  HN ES        840 19.32                             131   -0.65 9  147 259 
 PTB  HN I         840 20.80        17.2 0.28            131            147 259 
 TAM  HZ IP     D  840  0.33                             129    0.09 9  156 105 
 TAM  HZ I         840  0.45         7.0 0.36            131            156 105 
 TAM  HN ES        840 21.28                             129   -0.31 9  156 105 
 ZAR  HZ EP        840  4.96                             121    0.07 9  203 292 
 ZAR  HN ES        840 29.79                             121   -0.08 9  203 292 
 ZAR  HN I         840 37.30        11.4 0.34            122            203 292 
 CHI  HZ EP        840 10.49                             116    0.24 8  248 195 
 CHI  HN ES        840 40.68                             116    1.27 8  248 195 
 CHI  HN I         840 42.17         4.9 0.40            117            248 195 
                                                                                
