 2013 1125 0427 53.2 L   6.848 -73.172138.9  RSN  6 0.5 1.5LRSN                1
 GAP=188        1.07       4.2     8.4  9.2 -0.8782E+01  0.1869E+02 -0.4279E+01E
 Epicentro: ZAPATOCA - SANTANDER                                               3
 ACTION:UPD 14-01-09 16:31 OP:ep   STATUS:               ID:20131125042753 L   I
 OLDACT:REG 13-11-25 07:59 OP:mh   STATUS:               ID:20131125042000     3
 2013-11-25-0420-00M.COL___282                                                 6
 STAT SP IPHASW D HRMM SECON CODA AMPLIT PERI AZIMU VELO AIN AR TRES W  DIS CAZ7
 BAR2 SZ EP   1    428 11.81                             168   -0.32 7 28.3 182 
 BAR2 SZ ES        428 26.81                             168   -0.0810 28.3 182 
 BAR2 SZ I         428 29.54        10.7 0.51            169           28.3 182 
 BRR  HZ E      D  420 41.20                                           66.2 296 
 BRR  HZ EP        428 14.06                             153    0.7210 66.2 296 
 BRR  HN ES   1    428 29.88                             153    0.85 7 66.2 296 
 BRR  HZ I         428 35.47         6.3 0.12            153           66.2 296 
 PTB  HZ EP   1    428 19.89                             131    0.42 7  146 257 
 PTB  HN ES        428 39.61                             131   -0.34 9  146 257 
 PTB  HZ I         428 42.18         2.3 0.25            133            146 257 
 OCA  HN ES        428 41.27                             129   -0.45 9  155 354 
 SPBC HZ EP        428 21.54                             127    0.11 9  166 217 
 SPBC HN ES        428 43.00                             127   -0.43 9  166 217 
 SPBC HZ I         428 46.40         3.4 0.14            131            166 217 
 SML  HN ES        428 56.24                             117   -0.32 8  238 335 
                                                                                
