 2012 1025 0025 58.5 L   6.821 -73.350122.7  RSN  5 0.3 1.8LRSN                1
 GAP=130        0.51       2.6     3.0  4.8  0.1258E+01  0.1891E+01  0.1350E+01E
 Epicentro: ZAPATOCA - SANTANDER                                               3
 ACTION:UPD 12-11-22 17:05 OP:ep   STATUS:               ID:20121025002558 L   I
 2012-10-25-0020-00M.COL___234                                                 6
 STAT SP IPHASW D HRMM SECON CODA AMPLIT PERI AZIMU VELO AIN AR TRES W  DIS CAZ7
 BAR2 SZ EP   1    026 15.66                             165    0.10 7 31.4 144 
 BAR2 SZ ES   2    026 28.49                             165   -0.40 5 31.4 144 
 BAR2 SZ I         026 30.33        51.3 0.22                          31.4 144 
 BRR  HN ES        026 29.69                             156    0.0010 50.9 308 
 PAM  SZ EP   1    026 19.20                             141   -0.15 7 91.9  51 
 PAM  SN ES        026 35.70                             141    0.0810 91.9  51 
 PAM  SN I         026 36.86        12.9 0.26                          91.9  51 
 RUS  HZ EP   1    026 20.83                             136    0.27 7  107 164 
 RUS  HN ES        026 37.74                             136   -0.0310  107 164 
 RUS  HN I         026 39.68         3.6 0.18                           107 164 
 ZAR  HZ EP   1    026 26.77                             120   -0.43 7  182 294 
 ZAR  HN ES   2    026 50.23                             120    0.63 4  182 294 
                                                                                
