 2012  925 0252 41.0 L   6.808 -73.109145.3  RSN 10 0.4 2.0LRSN                1
 GAP=141        0.81       4.0     4.1  5.7  0.5486E+00  0.6971E+01  0.6185E+01E
 Epicentro: LOS SANTOS - SANTANDER                                             3
 ACTION:UPD 12-10-22 14:20 OP:ep   STATUS:               ID:20120925025241 L   I
 2012-09-25-0250-00M.COL___220                                                 6
 STAT SP IPHASW D HRMM SECON CODA AMPLIT PERI AZIMU VELO AIN AR TRES W  DIS CAZ7
 BAR2 SZ EP        253  0.56                             170   -0.0110 25.2 199 
 BAR2 SZ I         253  0.90        15.9 0.38                          25.2 199 
 BAR2 SZ ES   1    253 15.51                             170   -0.36 7 25.2 199 
 GIR2 SZ EP        253  0.36                             167   -0.2110 31.4 343 
 GIR2 SZ ES   1    253 15.89                             167    0.01 7 31.4 343 
 PAM  SZ EP   1    253  3.15                             152    0.22 7 74.2  38 
 PAM  SE ES   1    253 20.47                             152    0.39 7 74.2  38 
 PAM  SE I         253 22.23        25.5 0.34                          74.2  38 
 BRR  HZ EP        253  2.29                             151    0.0610 74.4 296 
 BRR  HN ES   1    253 19.56                             151    0.73 7 74.4 296 
 BRR  HN I         253 23.12        58.6 0.14                          74.4 296 
 RUS  HZ EP        253  4.58                             143   -0.1310  101 178 
 RUS  HZ I         253  5.49         6.5 0.34                           101 178 
 RUS  HN ES   1    253 22.80                             143   -0.44 7  101 178 
 PTB  HE ES   1    253 29.51                             131   -0.05 7  152 259 
 PTB  HE I         253 34.39        17.0 0.46                           152 259 
 ZAR  HZ EP   1    253 12.92                             122   -0.80 6  207 292 
 ZAR  HZ I         253 15.17         6.2 0.38                           207 292 
 ZAR  HE ES   1    253 38.51                             122   -0.77 6  207 292 
 CHI  HZ EP   1    253 18.77                             117   -0.06 6  251 196 
 CHI  HN ES   1    253 48.93                             117    0.55 6  251 196 
 CHI  HN I         253 51.77         7.1 0.56                           251 196 
 HEL  HZ EP   1    253 22.64                             114    1.04 6  276 256 
 HEL  HZ I         253 28.96         2.3 0.42                           276 256 
 HEL  HE ES   1    253 53.49                             114    0.19 6  276 256 
 RREF HZ EP   1    253 27.60                             110    0.11 5  325 230 
 RREF HE ES   2    254  4.28                             110    0.49 3  325 230 
 RREF HZ I         254 15.18         5.0 0.28                           325 230 
                                                                                
