 2014  125 0542  8.6 L   6.831 -73.208140.6  RSN  6 0.2 1.5LRSN                1
 GAP=196        0.55       2.1     4.0  5.2  0.2380E+01 -0.1029E+00 -0.1715E+01E
 Epicentro: ZAPATOCA - SANTANDER                                               3
 ACTION:UPD 14-03-13 09:58 OP:ep   STATUS:               ID:20140125054208 L   I
 OLDACT:REG 14-01-25 08:23 OP:nd   STATUS:               ID:20140125054000     3
 2014-01-25-0540-00M.COL___285                                                 6
 STAT SP IPHASW D HRMM SECON CODA AMPLIT PERI AZIMU VELO AIN AR TRES W  DIS CAZ7
 RUS  HZ EP        542 31.85                             142   -0.3310  105 172 
 RUS  HN ES        542 50.77                             142    0.2210  105 172 
 RUS  HZ I         542 51.72         1.8 0.38            134            105 172 
 PTB  HZ EP        542 34.77                             132    0.15 9  142 257 
 PTB  HN ES        542 54.75                             132   -0.16 9  142 257 
 PTB  HZ I         543  3.29         4.1 0.41            122            142 257 
 SML  HZ EP        542 44.71                             117    0.39 8  238 336 
 SML  HN ES        543 12.02                             117   -0.14 8  238 336 
 SML  HZ I         543 20.55         4.4 0.26            110            238 336 
 CHI  HZ EP        542 45.95                             116   -0.27 8  250 193 
 CHI  HZ I         543  6.46         2.1 0.70            109            250 193 
 CHI  HN ES        543 15.58                             116    0.04 8  250 193 
 GUY2CHZ EP   4    542 53.89                             112    2.30 0  298 233 
 GUY2CHN ES   4    543 27.33                             112    2.23 0  298 233 
 GUY2CHZ I         543 41.46         2.6 0.56                           298 233 
 PRA  HZ EP        543  1.97                             106    0.04 6  392 208 
 PRA  HN ES        543 43.71                             106    0.21 6  392 208 
 PRA  HZ I         543 53.84         1.6 0.34            100            392 208 
                                                                                
