 2013  125 0134 51.9 L   6.761 -73.154149.5  RSN  6 0.4 1.4LRSN                1
 GAP=137        0.72       4.9     4.3  7.0  0.1903E+01  0.5549E+01  0.3328E+00E
 Epicentro: LOS SANTOS - SANTANDER                                             3
 ACTION:UPD 13-02-15 09:16 OP:ep   STATUS:               ID:20130125013451 L   I
 2013-01-25-0130-00M.COL___241                                                 6
 STAT SP IPHASW D HRMM SECON CODA AMPLIT PERI AZIMU VELO AIN AR TRES W  DIS CAZ7
 BAR2 SZ EP   1    135 11.91                             172   -0.03 7 18.9 189 
 BAR2 SZ ES   1    135 27.19                             172   -0.35 7 18.9 189 
 BAR2 SZ I         135 29.75         8.4 0.24            173           18.9 189 
 BRR  HZ EP   1    135 13.87                             153    0.30 7 72.5 302 
 BRR  HN ES   1    135 31.13                             153    0.69 7 72.5 302 
 BRR  HZ I         135 33.53         4.7 0.14            151           72.5 302 
 PAM  SZ EP   1    135 15.04                             150    0.25 7 81.3  38 
 PAM  SN ES   1    135 32.12                             150   -0.49 7 81.3  38 
 PAM  SZ I         135 34.92         2.0 0.30            153           81.3  38 
 RUS  HZ EP   1    135 15.78                             146    0.02 7 96.4 175 
 RUS  HN ES   1    135 34.64                             146    0.29 7 96.4 175 
 RUS  HZ I         135 36.14         1.6 0.33            150           96.4 175 
 PTB  HZ EP   1    135 18.68                             133   -0.38 7  146 260 
 PTB  HN ES   1    135 39.87                             133   -0.35 7  146 260 
 PTB  HZ I         135 43.13         4.4 0.16            134            146 260 
 ZAR  HN ES   1    135 50.19                             123   -0.08 6  205 293 
 ZAR  HZ I         135 56.27         4.1 0.44            124            205 293 
                                                                                
