 2011  625 0137 58.3 L   6.773 -73.115141.9  RSN 13 0.4 2.5LRSN                1
 GAP=142        0.99       4.4     6.1  6.5 -0.1345E+02  0.1254E+02  0.1748E+01E
 Epicentro: LOS SANTOS - SANTANDER                                             3
 ACTION:UP  11-07-14 19:07 OP:ep   STATUS:               ID:20110625013758 L   I
 2011-06-25-0133-45S.COL___140                                                 6
 STAT SP IPHASW D HRMM SECON CODA AMPLIT PERI AZIMU VELO SNR AR TRES W  DIS CAZ7
 BAR2 SZ IP        138 17.46                             171     0.110   21 201 
 BAR2 SZ ES   1    138 31.86                             171    -0.4 7   21 201 
 BAR2 SZ I         138 33.87        75.2 0.28                            21 201 
 BRR  HZ IP     C  138 19.31                             150     0.110   76 299 
 BRR  HN ES   1    138 36.38                             150     0.7 7   76 299 
 BRR  HZ I         138 40.65        82.8 0.19                            76 299 
 PAM  SZ IP        138 20.39                             150     0.310   78  36 
 PAM  SN ES   1    138 36.99                             150    -0.1 7   78  36 
 RUS  HZ EP        138 21.47                             144     0.110   97 178 
 RUS  HN ES   2    138 39.08                             144    -0.4 5   97 178 
 RUS  HZ I         138 41.88        15.2 0.33                            97 178 
 BRI  SZ IP        138 22.02                             140     0.110  110  19 
 BRI  SZ ES   1    138 40.95                             140     0.6 7  110  19 
 GRA  SZ IP        138 23.28                             136     0.010  128  16 
 GRA  SZ I         138 24.73        58.7 0.24                           128  16 
 GRA  SZ ES   1    138 42.26                             136    -0.6 7  128  16 
 OCA  SZ EP        138 25.95                             128    -0.7 9  164 352 
 OCA  SZ ES   2    138 48.68                             128     0.0 5  164 352 
 OCA  SZ I         138 52.31        41.4 0.27                           164 352 
 NOR  SZ EP        138 33.65                             117    -0.2 8  236 236 
 NOR  SN ES   1    139  0.71                             117    -1.0 6  236 236 
 CHI  HN ES   3    139  4.92                             116     0.3 2  247 196 
 HEL  HZ EP        138 39.03                             114     0.5 8  275 257 
 HEL  HZ I         139 16.52        12.8 0.41                           275 257 
 RREF HZ EP   2    138 45.25                             110     0.9 3  322 230 
 RREF HN ES   2    139 21.12                             110     0.9 3  322 230 
 RREF HZ I         139 28.11        15.6 0.22                           322 230 
 DBB  SZ EP        138 45.74                             108    -0.3 7  343 275 
 PRA  HZ EP        138 51.93                             106     0.4 6  391 210 
 PRA  HZ I         139 36.40        30.2 0.20                           391 210 
                                                                                
