 2016 1225 0725 45.1 L   6.786 -73.202143.5  RSN  6 0.3 1.1LRSN                1
 GAP=130        0.72       3.6     3.1  5.3  0.1069E+01  0.3073E+01  0.3245E+00E
 Epicentro: ZAPATOCA - SANTANDER                                               3
 ACTION:UPD 17-01-11 20:18 OP:rebc STATUS:               ID:20161225072545 L   I
 OLDACT:DUP 16-12-25 17:40 OP:cara STATUS:               ID:20161225071748d    3
 OLDACT:DUP 16-12-25 16:22 OP:cog  STATUS:               ID:20161225071746d    3
 2016-12-25-0718-00M.COL___369                                                 6
 STAT SP IPHASW D HRMM SECON CODA AMPLIT PERI AZIMU VELO AIN AR TRES W  DIS CAZ7
 BAR2 EZ EP        726  4.42                             171    0.0310 21.6 174 
 BAR2 EZ ES        726 19.30                             171   -0.1610 21.6 174 
 BAR2 EZ I         726 20.46         4.8 0.28            173           21.6 174 
 BRR  HZ EP        726  6.25                             154    0.5410 66.6 302 
 BRR  HN ES        726 22.20                             154    0.3810 66.6 302 
 BRR  HZ I         726 28.29         2.6 0.16            150           66.6 302 
 PAM  EZ EP        726  7.36                             149   -0.0010 82.6  42 
 PAM  EE ES        726 24.43                             149   -0.3210 82.6  42 
 PAM  EZ I         726 26.54         4.3 0.74            152           82.6  42 
 RUS  HZ EP        726  8.57                             144    0.0410 99.7 172 
 RUS  HN ES        726 26.93                             144    0.1010 99.7 172 
 RUS  HZ I         726 27.83         1.3 0.36            149           99.7 172 
 PTB  HZ EP        726 10.92                             133   -0.35 9  141 259 
 PTB  HN ES        726 31.52                             133   -0.19 9  141 259 
 PTB  HZ I         726 36.14         1.2 0.20            133            141 259 
 ZAR  HN ES        726 41.42                             123   -0.18 9  199 293 
 ZAR  HZ I         726 50.35         1.3 0.14            123            199 293 
                                                                                
