 2011  125 0217 24.7 L   6.811 -73.120135.7  RSN  5 0.6 1.2LRSN                1
 GAP=161        1.28       7.8    15.6 13.0 -0.7187E+02  0.4855E+02 -0.1128E+02E
 Epicentro: LOS SANTOS - SANTANDER                                             3
 ACTION:UP  11-02-08 08:42 OP:pat  STATUS:               ID:20110125021724 L   I
 2011-01-25-0216-16S.COL___138                                                 6
 STAT SP IPHASW D HRMM SECON CODA AMPLIT PERI AZIMU VELO SNR AR TRES W  DIS CAZ7
 BAR2 SZ EP   1    217 42.58                             169    -0.6 7   25 196 
 BAR2 SZ ES        217 57.46                             169    -0.110   25 196 
 RUS  HZ EP   1    217 46.77                             141    -0.8 7  102 178 
 RUS  HZ I         217 47.93         2.3 0.66                           102 178 
 RUS  HN ES   1    218  5.46                             141     0.1 7  102 178 
 GRA  SZ EP   1    217 48.84                             135     0.0 7  124  16 
 GRA  SZ ES   1    218  8.48                             135     0.7 7  124  16 
 NOR  SE ES   1    218 27.84                             116    -0.1 6  238 235 
 CHI  HE ES   1    218 32.64                             115     1.4 6  251 196 
 CHI  HZ I         218 36.00         1.4 0.38                           251 196 
                                                                                
