 2013 1125 0152 36.5 L   6.776 -73.132141.2  RSN  8 0.4 1.3LRSN                1
 GAP=183        0.90       5.7     4.8  8.5 -0.8686E+01  0.4175E+01  0.1974E+02E
 Epicentro: LOS SANTOS - SANTANDER                                             3
 ACTION:UPD 14-01-09 16:30 OP:ep   STATUS:               ID:20131125015236 L   I
 OLDACT:UP  13-11-25 09:28 OP:mh   STATUS:               ID:20131125015000     3
 OLDACT:UP  13-11-25 09:27 OP:mh   STATUS:               ID:20131125015000     3
 OLDACT:UP  13-11-25 09:17 OP:mh   STATUS:               ID:20131125015000     3
 OLDACT:REG 13-11-25 07:55 OP:mh   STATUS:               ID:20131125015000     3
 2013-11-25-0150-00M.COL___282                                                 6
 STAT SP IPHASW D HRMM SECON CODA AMPLIT PERI AZIMU VELO AIN AR TRES W  DIS CAZ7
 BRR  HZ EP        152 57.74                             151    0.4210 73.8 300 
 BRR  HN ES        153 14.00                             151    0.4510 73.8 300 
 BRR  HZ I         153 20.22         4.1 0.41            150           73.8 300 
 PAM  SZ EP   1    152 57.85                             150   -0.47 7 78.6  37 
 PAM  SE ES        153 15.21                             150   -0.1110 78.6  37 
 PAM  SZ I         153 16.79         1.7 0.11            155           78.6  37 
 PTB  HZ EP        153  2.81                             131   -0.39 9  149 260 
 PTB  HN ES        153 23.60                             131   -0.41 9  149 260 
 PTB  HZ I         153 29.77         2.4 0.21            131            149 260 
 SPBC HZ EP        153  4.75                             128    0.20 9  162 220 
 SPBC HN ES   4    153 27.42                             128    1.00 0  162 220 
 SPBC HZ I         153 31.90         3.2 0.08            129            162 220 
 OCA  HN ES        153 26.72                             128   -0.05 9  163 353 
 OCA  HZ I         153 31.32         2.5 0.12            131            163 353 
 ZAR  HZ EP   1    153  9.63                             121    0.72 6  206 293 
 ZAR  HN ES        153 33.88                             121   -0.31 8  206 293 
 ZAR  HZ I         153 40.28         2.5 0.29            122            206 293 
 CHI  HZ EP   4    153  9.39                             116   -4.33 0  246 196 
 CHI  HN ES   4    153 43.97                             116    1.23 0  246 196 
 CHI  HZ I         153 51.10         0.7 0.33            118            246 196 
 SML  HZ EP   4    153 19.79                             116    6.57 0  247 335 
 SML  HN ES   4    153 40.49                             116   -1.36 0  247 335 
 SML  HZ I         153 49.97         6.8 0.08            118            247 335 
                                                                                
