 2017 1025 0557 12.8 L   6.790 -73.153151.4  RSN  9 0.5 1.9LRSN                1
 GAP=111        1.17       4.3     4.1  6.7  0.2139E+01  0.5418E+01  0.4213E+01E
 Epicentro: LOS SANTOS - SANTANDER                                             3
 ACTION:UPD 17-11-07 19:36 OP:rebc STATUS:               ID:20171025055712 L   I
 OLDACT:DUP 17-10-25 15:40 OP:dani STATUS:               ID:20171025054741d    3
 2017-10-25-0548-00M.COL___446                                                 6
 STAT SP IPHASW D HRMM SECON CODA AMPLIT PERI AZIMU VELO AIN AR TRES W  DIS CAZ7
 BAR2 EZ EP     D  557 32.91                             171   -0.1510 22.1 188 
 BAR2 EZ ES        557 48.22                             171   -0.6610 22.1 188 
 BAR2 EZ I         557 50.04        11.8 0.20            169           22.1 188 
 BRR  HZ EP     D  557 34.81                             153    0.2910 71.0 300 
 BRR  HE ES        557 52.41                             153    0.9210 71.0 300 
 BRR  HZ I         557 53.16         9.8 0.48            152           71.0 300 
 PAM  EZ EP     D  557 35.71                             151    0.0410 78.8  39 
 PAM  EN ES        557 53.13                             151   -0.4010 78.8  39 
 PAM  EZ I         557 55.24        16.3 0.56            155           78.8  39 
 RUS  HZ EP        557 36.92                             145   -0.0810 99.5 176 
 RUS  HE ES        557 55.75                             145   -0.1610 99.5 176 
 RUS  HZ I         557 58.41         8.4 0.36            145           99.5 176 
 PTB  HZ EP        557 39.88                             133   -0.23 9  147 259 
 PTB  HN ES        558  1.04                             133   -0.40 9  147 259 
 PTB  HZ I         558  2.93         5.7 0.26            133            147 259 
 SPBC HZ EP        557 41.91                             131    0.33 9  162 219 
 SPBC HN ES        558  4.02                             131   -0.03 9  162 219 
 SPBC HZ I         558  9.00        19.4 0.28            130            162 219 
 YPLC HZ EP     D  557 43.09                             128    0.17 9  176 151 
 YPLC HN ES     D  558  7.27                             128    0.83 9  176 151 
 YPLC HZ I         558  7.98         9.5 0.24            130            176 151 
 ZAR  HZ EP        557 45.58                             124    0.02 9  204 293 
 ZAR  HN ES        558 11.49                             124    0.36 9  204 293 
 ZAR  HZ I         558 18.73         6.9 0.62            124            204 293 
 NOR  HZ EP        557 47.60                             120   -1.09 8  233 235 
 NOR  HN ES        558 16.92                             120    0.21 8  233 235 
 NOR  HZ I         558 25.61         6.0 0.18            120            233 235 
                                                                                
