 2016 1125 0632 41.4 L   6.764 -73.108141.7  RSN  8 0.3 1.6LRSN                1
 GAP=161        0.57       2.7     2.6  3.5 -0.4085E+00  0.2031E+01  0.2771E+01E
 Epicentro: LOS SANTOS - SANTANDER                                             3
 ACTION:UPD 17-10-26 21:11 OP:lp   STATUS:               ID:20161125063241 L   I
 OLDACT:UP  16-11-25 17:18 OP:edw  STATUS:               ID:20161125062745     3
 OLDACT:UP  16-11-25 17:17 OP:edw  STATUS:               ID:20161125062745     3
 OLDACT:REG 16-11-25 13:00 OP:edw  STATUS:               ID:20161125062745     3
 2016-11-25-0628-00M.COL___349                                                 6
 STAT SP IPHASW D HRMM SECON CODA AMPLIT PERI AZIMU VELO AIN AR TRES W  DIS CAZ7
 BAR2 EZ IP        633  0.43                             171   -0.0710 20.7 203 
 BAR2 EZ ES        633 15.26                             171   -0.1310 20.7 203 
 BAR2 EZ I         633 16.66         6.2 0.19            172           20.7 203 
 BRR  HZ IP     C  633  2.35                             150   -0.1010 76.8 300 
 BRR  HN ES        633 19.23                             150    0.3610 76.8 300 
 BRR  HZ I         633 24.50         7.9 0.18            146           76.8 300 
 PAM  EZ EP     C  633  3.31                             150    0.0810 78.0  35 
 PAM  EN ES        633 20.21                             150   -0.0410 78.0  35 
 PAM  EZ I         633 20.82         7.8 0.38            149           78.0  35 
 PTB  HZ EP   9    633  7.24                             130   -1.12 0  151 261 
 PTB  HN ES        633 28.39                             131    0.13 9  151 261 
 PTB  HZ I         633 30.58         6.9 0.32            130            151 261 
 ZAR  HZ EP        633 13.75                             121   -0.40 8  209 293 
 ZAR  HN ES        633 39.55                             121   -0.14 8  209 293 
 ZAR  HZ I         633 47.43         6.8 0.60            120            209 293 
 NOR  HN ES   4    633 41.50                             117   -3.31 0  236 236 
 CHI  HZ EP        633 18.85                             117    0.27 8  246 196 
 CHI  HN ES        633 47.45                             117   -0.13 8  246 196 
 CBOC HZ EP        633 29.09                             109    0.62 7  336 253 
 CBOC HN ES        634  4.97                             109   -0.22 7  336 253 
 CBOC HZ I         634  7.12         1.0 0.24            110            336 253 
 PRA  HZ EP   2    633 34.90                             106    0.28 3  391 210 
 PRA  HE ES   4    633 57.70                             106   -18.4 0  391 210 
 PRA  HZ I         634  5.30         1.0 0.06            108            391 210 
 SJC  HZ EP   4    633 36.13                             105   -1.37 0  415 327 
 SJC  HN ES   4    634 17.72                             105   -3.53 0  415 327 
                                                                                
