 2011  525 0253 52.4 L   6.536 -73.482122.1  RSN  9 0.4 1.7LRSN                1
 GAP=156        0.75       5.6     5.1  6.6 -0.6625E+01  0.7194E+01 -0.1066E+02E
 Epicentro: EL CARMEN DE CHUCURI - SANTANDER                                   3
 ACTION:UP  11-06-29 08:56 OP:tino STATUS:               ID:20110525025352 L   I
 2011-05-25-0250-46S.COL___140                                                 6
 STAT SP IPHASW D HRMM SECON CODA AMPLIT PERI AZIMU VELO SNR AR TRES W  DIS CAZ7
 BAR2 SZ EP   1    254  9.74                             164     0.2 7   34  79 
 BAR2 SZ ES   1    254 22.61                             164    -0.2 7   34  79 
 BAR2 SZ I         254 23.88        61.7 0.30                            34  79 
 BTL  SZ EP   1    254 10.47                             157     0.4 7   48  29 
 BRR  HZ EP   1    254 10.86                             149     0.0 7   68 338 
 BRR  HZ I         254 13.98        17.8 0.10                            68 338 
 BRR  HN ES   1    254 25.44                             149     0.2 7   68 338 
 PAM  SZ EP   1    254 15.56                             132    -0.4 7  124  44 
 PAM  SZ I         254 38.39         2.4 0.44                           124  44 
 BRI  SZ EP   1    254 18.35                             125     0.3 7  151  30 
 BRI  SZ ES   2    254 37.41                             125    -0.7 5  151  30 
 BRI  SZ I         254 40.80         5.3 0.27                           151  30 
 GRA  SZ EP   1    254 19.90                             122     0.2 7  167  27 
 GRA  SZ ES   1    254 40.73                             122    -0.2 7  167  27 
 GRA  SZ I         254 42.93         8.3 0.41                           167  27 
 NOR  SN ES   2    254 44.20                             119    -0.4 4  187 235 
 OCA  SZ EP   1    254 22.37                             119     0.4 7  189   5 
 MON  HZ EP   1    254 38.72                             104    -0.9 5  346 316 
 MON  HN ES   1    255 16.74                             104     0.2 5  346 316 
 MON  HZ I         255 18.35         1.6 0.25                           346 316 
                                                                                
