 2016 1125 0826  5.5 L   6.558 -73.393115.9  RSN  7 0.2 1.5LRSN                1
 GAP=109        0.55       2.2     2.9  4.0  0.1114E+01  0.3694E+01  0.2768E+01E
 Epicentro: HATO - SANTANDER                                                   3
 ACTION:UPD 17-10-26 21:11 OP:lp   STATUS:               ID:20161125082605 L   I
 OLDACT:UP  16-11-25 18:20 OP:edw  STATUS:               ID:20161125081746     3
 OLDACT:REG 16-11-25 13:12 OP:edw  STATUS:               ID:20161125081746     3
 2016-11-25-0818-00M.COL___349                                                 6
 STAT SP IPHASW D HRMM SECON CODA AMPLIT PERI AZIMU VELO AIN AR TRES W  DIS CAZ7
 BAR2 EZ EP        826 21.69                             167    0.1310 23.6  81 
 BAR2 EZ ES        826 34.23                             167    0.1510 23.6  81 
 BAR2 EZ I         826 36.15         5.5 0.21            171           23.6  81 
 BRR  HZ EP     C  826 23.25                             147   -0.2010 70.3 330 
 BRR  HN ES        826 37.57                             147    0.1210 70.3 330 
 BRR  HZ I         826 38.34        11.4 0.14            148           70.3 330 
 PAM  HZ EP   2    826 27.96                             132    0.21 5  116  42 
 PAM  EN ES   2    826 44.89                             132   -0.21 5  116  42 
 PTB  HZ EP   9    826 25.59                             131   -1.72 0  118 269 
 PTB  HN ES        826 42.27                             130   -0.3310  118 269 
 PTB  HZ I         826 46.19         8.0 0.16            131            118 269 
 ZAR  HZ EP        826 34.78                             117   -0.10 9  192 303 
 ZAR  HN ES        826 57.72                             117   -0.07 9  192 303 
 ZAR  HZ I         827  0.49         4.3 0.34            117            192 303 
 CHI  HE ES        827  3.16                             114   -0.36 8  216 190 
 PRA  HZ EP   4    826 57.49                             102    3.71 0  355 208 
 PRA  HN ES        827 31.89                             102    0.45 6  355 208 
 PRA  HZ I         827 36.49         0.7 0.34            103            355 208 
 SJC  HZ EP   4    826 58.80                             100   -2.55 0  418 332 
 SJC  HN ES   4    827 41.06                             100   -3.86 0  418 332 
                                                                                
