 2016 1125 0255 43.6 L   6.427 -73.074 83.5  RSN  5 0.2 0.9LRSN                1
 GAP=252        0.84       8.8     5.4  6.4 -0.3322E+02  0.4476E+01  0.2520E+00E
 Epicentro: VALLE DE SAN JOSE - SANTANDER                                      3
 ACTION:UPD 17-10-26 21:11 OP:lp   STATUS:               ID:20161125025543 L   I
 OLDACT:UP  16-11-25 15:30 OP:edw  STATUS:               ID:20161125024745d    3
 OLDACT:DUP 16-11-25 15:27 OP:edw  STATUS:               ID:20161125024745d    3
 2016-11-25-0248-00M.COL___355                                                 6
 STAT SP IPHASW D HRMM SECON CODA AMPLIT PERI AZIMU VELO AIN AR TRES W  DIS CAZ7
 BAR2 EZ ES        256  5.05                             166   -0.1410 21.9 327 
 BRR  HZ EP        256  1.47                             125   -0.0410  103 317 
 PAM  EZ EP        256  2.48                             123   -0.2710  109  22 
 PAM  EN ES        256 17.98                             123    0.2710  109  22 
 PAM  EZ I         256 21.33         1.8 0.21            119            109  22 
 PTB  HZ EP        256  6.90                             113   -0.09 9  153 275 
 PTB  HN ES        256 25.55                             113    0.30 9  153 275 
 PTB  HZ I         256 30.51         1.6 0.10            110            153 275 
 ZAR  HZ EP   9    256 14.48                             105   -1.41 0  230 301 
 ZAR  HN ES        256 38.87                             107   -0.81 8  230 301 
                                                                                
