 2013  225 0033 47.5 L   6.779 -73.163148.0  RSN  7 0.4 2.0LRSN 2.8WRSN        1
 SPEC AVERAGE  MO 13.2 ST0.387 OM  2.7 f0 2.53 R0.5860 AL 1.95 WI 14.6 MW  2.8 3
 SPEC SD       MO  0.3 ST0.139 OM  1.5 f00.205 R0.0476 AL      WI      MW  0.2 3
 GAP=135        1.11       4.5     4.9  7.4  0.1950E+01  0.6589E+01  0.7973E+01E
 Epicentro: LOS SANTOS - SANTANDER                                             3
 SPEC RUS HH N MO 12.9 ST0.248 OM  1.3 f0 2.73 R0.5385 AL 2.14 WI 16.0 MW  2.6 3
 SPEC RUS HH N T 03430 K 0.000 GD  177 VS 4.20 DE 3.20 Q0300.0 QA 0.60 VS 4.20 3
 SPEC BRR HH Z MO 13.5 ST0.525 OM  1.1 f0 2.32 R0.6336 AL 1.76 WI 13.1 MW  2.9 3
 SPEC BRR HH Z T 034 9 K 0.000 GD  164 VP 7.60 DE 3.20 Q0300.0 QA 0.60 VS 4.20 3
 ACTION:UPD 13-03-12 09:35 OP:ep   STATUS:               ID:20130225003347 L   I
 2013-02-25-0028-38M.COL___199                                                 6
 STAT SP IPHASW D HRMM SECON CODA AMPLIT PERI AZIMU VELO AIN AR TRES W  DIS CAZ7
 BAR2 SZ EP        034  7.26                             172   -0.0610 20.8 186 
 BAR2 SZ ES        034 22.33                             172   -0.4710 20.8 186 
 BAR2 SZ I         034 24.03        21.7 0.38            169           20.8 186 
 BRR  HZ EP        034  9.22                             153    0.3910 70.7 301 
 BRR  HN ES        034 26.53                             153    1.0410 70.7 301 
 BRR  HN I         034 26.99        36.1 0.28            153           70.7 301 
 PAM  SZ EP        034 10.15                             150    0.0510 80.3  40 
 PAM  SN ES        034 27.43                             150   -0.3210 80.3  40 
 PAM  SZ I         034 30.09         5.7 0.34            155           80.3  40 
 RUS  HZ EP        034 11.30                             145    0.0110 98.5 175 
 RUS  HN ES        034 29.94                             145    0.0710 98.5 175 
 RUS  HE I         034 31.75        14.0 0.28            145           98.5 175 
 PTB  HZ EP        034 13.83                             133   -0.58 9  145 260 
 PTB  HN ES        034 35.16                             133   -0.27 9  145 260 
 PTB  HE I         034 42.43        17.9 0.30            133            145 260 
 ZAR  HN ES        034 44.89                             123   -0.43 9  203 293 
 CHI  HZ EP        034 25.44                             118    0.44 8  246 195 
 CHI  HN ES        034 54.36                             118    0.09 8  246 195 
 CHI  HN I         034 59.38         6.6 0.62            119            246 195 
                                                                                
