 2011  825 0318 38.6 L   6.792 -73.048141.9  RSN  5 0.3 1.9LRSN                1
 GAP=193        0.56       4.6    10.4  6.4  0.2351E+02 -0.2972E+02 -0.9861E+01E
 Epicentro: LOS SANTOS - SANTANDER                                             3
 ACTION:UPD 12-07-13 15:53 OP:ep   STATUS:               ID:20110825031838 L   I
 2011-08-25-0300-00M.COL___156                                                 6
 STAT SP IPHASW D HRMM SECON CODA AMPLIT PERI AZIMU VELO AIN AR TRES W  DIS CAZ7
 BAR2 SZ EP        318 57.69                             169   -0.1110 26.6 214 
 BAR2 SZ ES   1    319 12.39                             169   -0.42 7 26.6 214 
 BAR2 SZ I         319 13.77        15.9 0.22                          26.6 214 
 GIR2 SZ EP   1    318 57.89                             165   -0.01 7 35.5 333 
 GIR2 SZ ES   2    319 13.56                             165    0.58 5 35.5 333 
 BRR  HZ EP   1    318 59.63                             148   -0.27 7 81.2 295 
 BRR  HZ I         319  1.99        19.5 0.11                          81.2 295 
 BRR  HE ES   1    319 16.76                             148    0.21 7 81.2 295 
 RUS  HZ EP   1    319  2.33                             143    0.47 7 99.5 182 
 RUS  HE ES   2    319 20.00                             143   -0.03 5 99.5 182 
 OCA  SZ EP   1    319  6.80                             128   -0.01 7  163 349 
 OCA  SZ ES   2    319 28.81                             128   -0.04 5  163 349 
 OCA  SZ I         319 36.12        10.1 0.42                           163 349 
                                                                                
