 2013  125 0107 35.3 L   6.817 -73.129151.2  RSN 19 0.5 3.7LRSN 3.9WRSN        1
 SPEC AVERAGE  MO 14.9 ST 16.1 OM  3.5 f0 2.17 R0.7156 AL 2.10 WI 14.7 MW  3.9 3
 SPEC SD       MO  0.1 ST 14.9 OM  0.3 f00.520 R0.1716 AL      WI      MW  0.1 3
 GAP= 71        1.02       3.6     3.5  5.8 -0.1250E+01  0.2762E+01  0.4017E+01E
 Epicentro: LOS SANTOS - SANTANDER                                             3
 SPEC ZAR HH E MO 15.1 ST 28.3 OM  3.3 f0 2.53 R0.5810 AL 1.69 WI 17.1 MW  4.0 3
 SPEC ZAR HH E T 1 833 K 0.000 GD  254 VS 4.20 DE 3.20 Q0300.0 QA 0.60 VS 4.20 3
 SPEC TAM HH E MO 14.9 ST  7.9 OM  3.2 f0 1.89 R0.7778 AL 2.87 WI 17.7 MW  3.9 3
 SPEC TAM HH E T 1 823 K 0.000 GD  215 VS 4.20 DE 3.20 Q0300.0 QA 0.60 VS 4.20 3
 SPEC HEL HH E MO 14.8 ST 21.9 OM  2.9 f0 2.95 R0.4983 AL 2.46 WI 18.6 MW  3.8 3
 SPEC HEL HH E T 1 846 K 0.000 GD  312 VS 4.20 DE 3.20 Q0300.0 QA 0.60 VS 4.20 3
 SPEC CHI HH N MO 14.9 ST  9.9 OM  3.0 f0 2.14 R0.6869 AL 2.57 WI 11.9 MW  3.9 3
 SPEC CHI HH N T 1 842 K 0.000 GD  293 VS 4.20 DE 3.20 Q0300.0 QA 0.60 VS 4.20 3
 SPEC OCA HH N MO 15.1 ST 52.2 OM  3.4 f0 3.02 R0.4868 AL 2.06 WI 13.5 MW  4.0 3
 SPEC OCA HH N T 1 825 K 0.000 GD  219 VS 4.20 DE 3.20 Q0300.0 QA 0.60 VS 4.20 3
 SPEC PTB HH N MO 14.8 ST  7.3 OM  3.1 f0 1.99 R0.7387 AL 1.41 WI 13.0 MW  3.8 3
 SPEC PTB HH N T 1 823 K 0.000 GD  212 VS 4.20 DE 3.20 Q0300.0 QA 0.60 VS 4.20 3
 SPEC RUS HH E MO 14.9 ST  2.6 OM  3.2 f0 1.37 R1.0730 AL 1.90 WI 11.5 MW  3.8 3
 SPEC RUS HH E T 1 818 K 0.000 GD  182 VS 4.20 DE 3.20 Q0300.0 QA 0.60 VS 4.20 3
 SPEC PAM SH N MO 15.0 ST  9.5 OM  3.4 f0 1.87 R0.7861 AL 2.47 WI 10.8 MW  4.0 3
 SPEC PAM SH N T 1 814 K 0.000 GD  168 VS 4.20 DE 3.20 Q0300.0 QA 0.60 VS 4.20 3
 SPEC BRR HH N MO 14.8 ST  5.4 OM  3.2 f0 1.81 R0.8122 AL 1.47 WI 17.8 MW  3.8 3
 SPEC BRR HH N T 1 814 K 0.000 GD  167 VS 4.20 DE 3.20 Q0300.0 QA 0.60 VS 4.20 3
 ACTION:UPD 13-02-15 09:16 OP:ep   STATUS:               ID:20130125010735 L   I
 2013-01-25-0105-39M.COL___178                                                 6
 STAT SP IPHASW D HRMM SECON CODA AMPLIT PERI AZIMU VELO AIN AR TRES W  DIS CAZ7
 BAR2 SZ EP     C  1 7 55.59                             170   -0.0310 25.6 193 
 BAR2 SZ ES   1    1 8 11.43                             170   -0.05 7 25.6 193 
 BAR2 SZ I         1 8 12.38      1336.5 0.37            168           25.6 193 
 BRR  HZ EP     D  1 7 57.47                             153    0.4010 71.9 296 
 BRR  HN ES   1    1 8 14.76                             153    0.70 7 71.9 296 
 BRR  HZ I         1 8 18.65       584.7 0.38            151           71.9 296 
 PAM  SZ EP        1 7 58.35                             152    0.4210 74.7  39 
 PAM  SN ES   1    1 8 15.62                             152    0.02 7 74.7  39 
 PAM  SZ I         1 8 17.90       986.1 0.50            157           74.7  39 
 RUS  HZ EP     D  1 7 59.39                             144   -0.3110  102 177 
 RUS  HE ES   1    1 8 18.32                             144   -0.43 7  102 177 
 RUS  HZ I         1 8 19.29       398.9 0.32            146            102 177 
 PTB  HZ EP        1 8  2.18                             133   -0.72 9  150 258 
 PTB  HN ES   1    1 8 23.47                             133   -0.96 7  150 258 
 PTB  HZ I         1 8 31.10       774.4 0.38            132            150 258 
 TAM  HZ IP     D  1 8  3.75                             132    0.47 9  154 106 
 TAM  HE ES   1    1 8 25.27                             132    0.15 7  154 106 
 OCA  HZ EP   1    1 8  3.59                             131   -0.28 7  159 352 
 OCA  HN ES   1    1 8 25.68                             131   -0.49 7  159 352 
 OCA  HZ I         1 8 30.83       469.5 0.38            133            159 352 
 ZAR  HZ EP   1    1 8  8.19                             123    0.00 6  205 291 
 ZAR  HE ES   1    1 8 33.88                             123    0.02 6  205 291 
 ZAR  HZ I         1 8 40.08       723.7 0.30            124            205 291 
 CTAB SZ EP   4    1 8 12.78                             120    1.15 0  232 211 
 CHI  HZ EP     D  1 8 13.24                             118   -0.30 8  251 195 
 CHI  HN ES   1    1 8 42.57                             118   -0.81 6  251 195 
 CHI  HZ I         1 8 49.01       211.0 0.54            120            251 195 
 ROSC BZ EP     D  1 8 15.08                             117    1.09 8  255 211 
 ROSC BE ES   1    1 8 45.17                             117    1.00 6  255 211 
 ROSC BZ I         1 8 50.16       623.0 0.40            119            255 211 
 HEL  HZ EP   1    1 8 16.16                             116    0.13 6  274 256 
 HEL  HE ES   1    1 8 48.42                             116    0.62 6  274 256 
 URE  HZ EP   1    1 8 16.23                             115   -0.50 6  285 291 
 VIL  SZ EP   1    1 8 18.33                             113   -0.88 5  306 192 
 TOL  SZ EP   1    1 8 24.95                             110    0.88 5  346 225 
 SDV  BZ EP        1 8 24.73                             109   -0.50 6  358  50 
 ANIL HZ EP   1    1 8 26.02                             109    0.41 5  360 225 
 ANIL HN ES   1    1 9  4.66                             109   -0.20 5  360 225 
 ANIL HZ I         1 9 12.27       231.6 0.38            110            360 225 
 YOT  HZ EP   1    1 8 38.10                             104   -0.69 3  475 229 
 FLO2 HZ EP   1    1 8 58.17                              99   -0.64 2  643 206 
 SOTA HZ EP   1    1 9  0.27                              99    0.54 2  646 217 
                                                                                
