 2015  525 0837 54.2 L   6.852 -73.097150.0  RSN  5 0.4 1.4LRSN                1
 GAP=188        0.89       4.5     7.2  8.3  0.9494E+01 -0.7615E+01 -0.9228E+01E
 Epicentro: LOS SANTOS - SANTANDER                                             3
 ACTION:UPD 15-09-10 22:06 OP:cam  STATUS:               ID:20150525083754 L   I
 OLDACT:DUP 15-05-25 19:18 OP:spq  STATUS:               ID:20150525082748d    3
 OLDACT:UP  15-05-25 19:07 OP:spq  STATUS:               ID:20150525082747     3
 OLDACT:REG 15-05-25 13:03 OP:spq  STATUS:               ID:20150525082747     3
 2015-05-25-0827-47M.COL___294                                                 6
 STAT SP IPHASW D HRMM SECON CODA AMPLIT PERI AZIMU VELO AIN AR TRES W  DIS CAZ7
 BRR  HZ EP   1    838 16.28                             153    0.32 7 73.5 293 
 BRR  HN ES        838 33.46                             153    0.5510 73.5 293 
 BRR  HZ I         838 34.49         2.9 0.10            147           73.5 293 
 RUS  HZ EP   1    838 18.52                             143   -0.26 7  106 179 
 RUS  HN ES   1    838 37.60                             143   -0.34 7  106 179 
 RUS  HZ I         838 38.17         2.5 0.38            145            106 179 
 OCA  HZ EP   1    838 22.43                             132    0.02 7  155 351 
 OCA  HN ES        838 44.26                             132   -0.13 9  155 351 
 OCA  HZ I         838 49.39         4.6 0.54            131            155 351 
 ZAR  HZ EP   1    838 28.04                             123    0.80 6  207 290 
 ZAR  HN ES        838 52.38                             123   -0.62 8  207 290 
 ZAR  HZ I         839  2.55         1.6 0.25            121            207 290 
 SML  HZ EP        838 30.71                             119   -0.07 8  241 334 
 SML  HN ES   1    838 58.91                             119   -0.38 6  241 334 
 SML  HZ I         839  2.81         2.9 0.09            118            241 334 
                                                                                
