 2015 1225 0243 26.8 L   6.808 -73.132139.2  RSN  8 0.4 1.6LRSN                1
 GAP=202        1.10       4.6     6.0  8.0  0.7958E+01  0.4876E+01 -0.1128E+02E
 Epicentro: LOS SANTOS - SANTANDER                                             3
 ACTION:UPD 16-02-04 15:07 OP:cam  STATUS:               ID:20151225024326 L   I
 OLDACT:REG 15-12-25 12:51 OP:dnl  STATUS:               ID:20151225023751     3
 2015-12-25-0237-51M.COL___337                                                 6
 STAT SP IPHASW D HRMM SECON CODA AMPLIT PERI AZIMU VELO AIN AR TRES W  DIS CAZ7
 BAR2 EZ EP        243 46.02                             170    0.4010 24.5 193 
 BAR2 EZ ES        243 59.98                             170   -0.3610 24.5 193 
 BAR2 EZ I         244  2.20         8.1 0.14            165           24.5 193 
 BRR  HZ EP     C  243 47.80                             151    0.5510 72.1 297 
 BRR  HN ES        244  3.90                             151    0.6610 72.1 297 
 BRR  HZ I         244  9.69         5.1 0.09            146           72.1 297 
 RUS  HZ EP        243 50.34                             142    0.4110  101 177 
 RUS  HN ES        244  7.31                             142   -0.6910  101 177 
 RUS  HZ I         244 10.22         3.9 0.23            144            101 177 
 PTB  HZ EP        243 53.12                             130   -0.23 9  149 259 
 PTB  HN ES        244 13.74                             130   -0.35 9  149 259 
 PTB  HZ I         244 19.45         3.5 0.15            128            149 259 
 SPBC HN ES        244 17.06                             127    0.17 9  165 219 
 SPBC HZ I         244 26.06         8.1 0.12            127            165 219 
 ZAR  HE ES   2    244 24.01                             121    0.05 4  205 292 
 ZAR  HZ I         244 29.25         3.3 0.17            120            205 292 
 SML  HZ EP        244  2.69                             116   -0.31 8  244 335 
 SML  HN ES        244 30.65                             116   -0.62 8  244 335 
 SML  HZ I         244 38.74         5.5 0.07            117            244 335 
 URE  HN ES        244 39.50                             112   -0.02 7  285 292 
 URE  HZ I         244 47.52         2.5 0.24            112            285 292 
                                                                                
