 2011  325 0847 29.4 L   6.790 -73.114141.3  RSN  7 0.5 2.6LRSN                1
 GAP=138        1.18       5.9    10.5 10.6 -0.1063E+01 -0.1647E+02  0.6634E+01E
 Epicentro: LOS SANTOS - SANTANDER                                             3
 ACTION:UP  11-06-16 14:35 OP:jfem STATUS:               ID:20110325084729 L   I
 2011-03-25-0842-20S.COL___120                                                 6
 STAT SP IPHASW D HRMM SECON CODA AMPLIT PERI AZIMU VELO SNR AR TRES W  DIS CAZ7
 BAR2 SZ IP        847 48.48                             170    -0.110   23 199 
 BAR2 SZ ES   1    848  3.23                             170    -0.2 7   23 199 
 BAR2 SZ I         848  5.16        81.8 0.36                            23 199 
 BRR  HZ IP        847 50.27                             151    -0.110   75 298 
 BRR  HZ I         847 50.65        78.6 0.13                            75 298 
 BRR  HN ES   2    848  7.32                             151     0.7 5   75 298 
 GRA  SZ IP        847 55.17                             136     0.910  126  16 
 GRA  SZ I         848 17.70        35.1 0.31                           126  16 
 OCA  SZ EP        847 56.72                             128    -0.8 9  162 352 
 OCA  SZ ES   2    848 19.04                             128    -0.5 5  162 352 
 OCA  SZ I         848 23.78        43.1 0.27                           162 352 
 YOP  SZ EP        847 58.93                             126     0.0 9  176 154 
 CHI  HN EP        848  6.91                             116     0.0 8  248 196 
 CHI  HE ES   2    848 35.79                             116    -0.3 4  248 196 
 CHI  HN I         848 42.97        42.4 0.57                           248 196 
 HEL  HZ EP   2    848 10.31                             114     0.5 4  275 256 
 HEL  HN ES   2    848 41.39                             114     0.1 4  275 256 
 HEL  HZ I         848 47.72        22.0 0.40                           275 256 
                                                                                
