 2012  625 0723 59.6 L   6.816 -73.142146.0  RSN 15 0.5 2.9LRSN                1
 GAP=114        1.00       3.2     3.8  5.6  0.1539E+01  0.4779E+01  0.3289E+01E
 Epicentro: LOS SANTOS - SANTANDER                                             3
 ACTION:UPD 12-08-06 17:52 OP:ep   STATUS:               ID:20120625072359 L   I
 2012-06-25-0720-00M.COL___198                                                 6
 STAT SP IPHASW D HRMM SECON CODA AMPLIT PERI AZIMU VELO AIN AR TRES W  DIS CAZ7
 BAR2 SZ EP        724 19.44                             170    0.1210 25.1 190 
 BAR2 SZ ES   1    724 34.34                             170   -0.34 7 25.1 190 
 BAR2 SZ I         724 37.35       223.9 0.37                          25.1 190 
 BRR  HZ EP   1    724 21.29                             153    0.51 7 70.7 297 
 BRR  HN ES        724 38.24                             153    0.9710 70.7 297 
 BRR  HZ I         724 42.44       201.7 0.19                          70.7 297 
 PAM  SZ EP        724 22.18                             151    0.4010 75.8  40 
 PAM  SN ES   1    724 39.06                             151    0.01 7 75.8  40 
 PAM  SZ I         724 41.45        73.7 0.19                          75.8  40 
 RUS  HZ EP        724 23.30                             143   -0.2210  102 176 
 RUS  HZ I         724 24.16        46.0 0.20                           102 176 
 RUS  HN ES        724 42.00                             143   -0.1610  102 176 
 PTB  HZ EP        724 25.91                             132   -0.77 9  148 258 
 PTB  HN ES   1    724 46.78                             132   -1.00 7  148 258 
 PTB  HZ I         724 54.69       135.3 0.43                           148 258 
 OCA  HZ EP        724 27.42                             130   -0.38 9  159 353 
 OCA  HE ES   1    724 49.21                             130   -0.56 7  159 353 
 OCA  HZ I         724 53.53       240.1 0.18                           159 353 
 YOP  SZ EP        724 29.97                             126    0.15 9  180 154 
 YOP  SN ES   1    724 53.10                             126   -0.27 7  180 154 
 ZAR  HZ EP   1    724 31.96                             123   -0.10 6  204 292 
 ZAR  HN ES        724 57.00                             123   -0.35 9  204 292 
 ZAR  HZ I         725  3.71       105.7 0.33                           204 292 
 NOR  SZ EP   1    724 35.80                             118    0.29 6  236 234 
 NOR  SN ES   1    725  4.24                             118    0.74 6  236 234 
 CHI  HZ EP   1    724 37.44                             117   -0.09 6  250 195 
 CHI  HN ES   1    725  7.40                             117    0.31 6  250 195 
 CHI  HZ I         725 16.65        46.5 0.26                           250 195 
 HEL  HZ EP   1    724 40.39                             115    0.45 6  273 255 
 HEL  HN ES   1    725 11.68                             115    0.30 6  273 255 
 HEL  HZ I         725 18.67        60.1 0.33                           273 255 
 DBB  SZ EP        724 47.26                             110    0.12 7  340 274 
 TOL  SZ EP   1    724 48.82                             109    0.76 5  345 224 
 ANIL HZ EP   1    724 50.18                             108    0.57 5  359 224 
 PRA  HZ EP   1    724 52.79                             107   -0.56 4  394 209 
 PRA  HN ES   1    725 34.70                             107   -0.56 4  394 209 
                                                                                
