 2015  725 0958 21.7 L   6.811 -73.086143.7  RSN  7 0.3 2.1LRSN                1
 GAP=189        0.64       2.1     3.7  4.7 -0.6446E+00  0.7204E+01 -0.2181E+01E
 Epicentro: LOS SANTOS - SANTANDER                                             3
 ACTION:UPD 15-09-08 21:50 OP:cam  STATUS:               ID:20150725095821 L   I
 OLDACT:DUP 15-07-25 18:05 OP:ak   STATUS:               ID:20150725094747d    3
 OLDACT:UP  15-07-25 18:04 OP:ak   STATUS:               ID:20150725094746     3
 OLDACT:REG 15-07-25 13:00 OP:ak   STATUS:               ID:20150725094746     3
 2015-07-25-0947-46M.COL___328                                                 6
 STAT SP IPHASW D HRMM SECON CODA AMPLIT PERI AZIMU VELO AIN AR TRES W  DIS CAZ7
 BAR2 EZ EP        958 41.49                             169    0.3210 26.4 204 
 BAR2 EZ ES        958 56.53                             169    0.1910 26.4 204 
 BAR2 EZ I         958 58.98        10.4 0.32            168           26.4 204 
 RUS  HZ EP        958 45.21                             143   -0.1310  102 180 
 RUS  HN ES        959  3.44                             143   -0.3210  102 180 
 RUS  HZ I         959  6.63         5.0 0.35            147            102 180 
 OCA  HZ EP        958 49.73                             129   -0.11 9  160 351 
 OCA  HN ES        959 11.98                             129    0.20 9  160 351 
 OCA  HZ I         959 15.49        14.2 0.21            132            160 351 
 ZAR  HZ EP        958 54.78                             121    0.15 8  210 291 
 ZAR  HN ES        959 20.00                             121   -0.29 8  210 291 
 ZAR  HZ I         959 26.40        16.8 0.76            123            210 291 
 NOR  HZ EP        958 57.83                             117   -0.16 8  241 235 
 NOR  HE ES        959 26.00                             117   -0.28 8  241 235 
 NOR  HZ I         959 32.17         9.5 0.25            119            241 235 
 SML  HZ EP        958 58.40                             117   -0.02 8  245 334 
 SML  HN ES        959 26.81                             117   -0.24 8  245 334 
 SML  HZ I         959 29.54        11.6 0.05            119            245 334 
 GUY2CHZ EP   1    959  6.21                             111    0.28 5  307 235 
 GUY2CHE ES        959 41.07                             111    0.66 7  307 235 
 GUY2CHZ I         959 48.77        16.2 0.91                           307 235 
 SJC  HZ EP   4    959 15.97                             105   -1.56 0  412 326 
 SJC  HN ES   4    959 57.97                             105   -3.08 0  412 326 
                                                                                
