 2015  625 0222 58.0 L   7.377 -73.742 92.2  RSN  7 0.3 1.8LRSN                1
 GAP=118        0.72       2.4     2.5  5.0  0.1251E+01  0.2503E+01  0.2961E+00E
 Epicentro: PUERTO WILCHES - SANTANDER                                         3
 ACTION:UPD 15-09-10 22:14 OP:cam  STATUS:               ID:20150625022258 L   I
 OLDACT:UP  15-06-25 14:23 OP:mh   STATUS:               ID:20150625021748     3
 OLDACT:UP  15-06-25 14:23 OP:mh   STATUS:               ID:20150625021748     3
 OLDACT:UP  15-06-25 14:23 OP:mh   STATUS:               ID:20150625021748     3
 OLDACT:UP  15-06-25 14:22 OP:mh   STATUS:               ID:20150625021748     3
 OLDACT:UP  15-06-25 14:22 OP:mh   STATUS:               ID:20150625021748     3
 OLDACT:UP  15-06-25 14:20 OP:mh   STATUS:               ID:20150625021748     3
 OLDACT:REG 15-06-25 12:08 OP:mh   STATUS:               ID:20150625021748     3
 2015-06-25-0217-48M.COL___322                                                 6
 STAT SP IPHASW D HRMM SECON CODA AMPLIT PERI AZIMU VELO AIN AR TRES W  DIS CAZ7
 BRR  HZ EP        223 11.10                             161   -0.0510 30.0 174 
 BRR  HN ES        223 21.44                             161    0.0610 30.0 174 
 BRR  HZ I         223 21.46        64.4 0.12            159           30.0 174 
 OCA  HZ EP        223 16.91                             127   -0.1810  106  26 
 OCA  HN ES        223 32.23                             127    0.2710  106  26 
 OCA  HZ I         223 34.37        24.1 0.16            128            106  26 
 BAR2 EZ EP        223 17.33                             127    0.0810  107 144 
 BAR2 EZ ES        223 31.87                             127   -0.3710  107 144 
 BAR2 EZ I         223 33.68         9.2 0.19            127            107 144 
 ZAR  HZ EP        223 18.25                             122   -0.4410  124 276 
 ZAR  HN ES        223 34.75                             122   -0.0510  124 276 
 ZAR  HZ I         223 39.44        14.2 0.12            122            124 276 
 RUS  HZ EP        223 25.21                             113   -0.22 9  180 156 
 RUS  HN ES        223 47.29                             113    0.49 9  180 156 
 RUS  HZ I         223 51.33         3.2 0.22            113            180 156 
 URE  HZ EP        223 27.76                             110    0.37 9  202 282 
 URE  HN ES   4    223 49.00                             110   -1.29 0  202 282 
 URE  HZ I         223 51.08         8.3 0.34            109            202 282 
 HEL  HN ES   1    223 58.82                             107    0.40 6  237 237 
 HEL  HZ I         224  2.69         5.9 0.23            106            237 237 
 SJC  HZ EP   4    223 39.59                             102   -1.96 0  320 331 
 SJC  HN ES   4    224 12.99                             102   -2.51 0  320 331 
                                                                                
