 2011 1025 0351 52.5 L   6.773 -73.092149.2  RSN  6 0.2 1.6LRSN                1
 GAP=145        0.38       3.2     3.4  5.1 -0.8337E-01  0.2218E+01  0.2522E+00E
 Epicentro: LOS SANTOS - SANTANDER                                             3
 ACTION:UPD 12-07-13 16:05 OP:ep   STATUS:               ID:20111025035152 L   I
 2011-10-25-0351-48S.COL___166                                                 6
 STAT SP IPHASW D HRMM SECON CODA AMPLIT PERI AZIMU VELO AIN AR TRES W  DIS CAZ7
 BAR2 SZ EP   1    352 12.41                             171   -0.14 7 22.3 207 
 BAR2 SZ ES   2    352 27.86                             171   -0.31 5 22.3 207 
 BAR2 SZ I         352 30.34        10.8 0.25                          22.3 207 
 PAM  SZ EP   1    352 15.26                             152    0.22 7 76.2  35 
 PAM  SN ES   2    352 32.60                             152    0.00 5 76.2  35 
 BRR  HZ EP        352 14.36                             151   -0.0710 77.9 298 
 BRR  HE ES   2    352 31.85                             151    0.34 5 77.9 298 
 RUS  HZ EP   1    352 16.31                             145   -0.08 7 97.3 179 
 RUS  HN ES   2    352 35.23                             145    0.23 5 97.3 179 
 RUS  HZ I         352 36.83         3.4 0.30                          97.3 179 
 ZAR  HN ES   2    352 51.66                             122   -0.24 4  211 292 
 ZAR  HZ I         352 57.56         6.8 0.34                           211 292 
 NOR  SN ES   2    352 57.35                             119    0.27 4  238 236 
                                                                                
