 2017  125 0911 38.5 L   6.267 -73.583113.7  RSN  5 0.2 1.0LRSN                1
 GAP=102        0.68       2.7     3.4  6.4  0.2656E+01  0.7593E+01  0.4800E+01E
 Epicentro: SANTA HELENA DEL OPON - SANTANDER                                  3
 ACTION:UPD 17-05-22 16:03 OP:jn   STATUS:               ID:20170125091138 L   I
 OLDACT:REG 17-01-25 13:08 OP:lv   STATUS:               ID:20170125090727     3
 2017-01-25-0908-00M.COL___343                                                 6
 STAT SP IPHASW D HRMM SECON CODA AMPLIT PERI AZIMU VELO AIN AR TRES W  DIS CAZ7
 BAR2 EZ EP        911 55.97                             152    0.1910 57.1  51 
 BAR2 EZ ES        912  8.91                             152   -0.3210 57.1  51 
 BAR2 EZ I         912 10.42         9.4 0.29            155           57.1  51 
 RUS  HZ EP        911 57.28                             147    0.3810 69.2 127 
 RUS  HN ES        912 11.24                             147    0.0210 69.2 127 
 RUS  HZ I         912 12.81         1.0 0.14            147           69.2 127 
 BRR  HZ EP        911 57.67                             137   -0.4010 94.0 351 
 BRR  HE ES        912 13.54                             137    0.2410 94.0 351 
 PTB  HZ EP        911 58.62                             135   -0.0810  101 287 
 PTB  HN ES        912 14.52                             135    0.1010  101 287 
 PTB  HZ I         912 15.17         3.5 0.14            137            101 287 
 CHI  HZ EP   4    912 10.21                             118    2.99 0  182 185 
 CHI  HE ES        912 29.41                             118   -0.17 9  182 185 
 CHI  HZ I         912 34.15         0.8 0.15            118            182 185 
                                                                                
