 2012 1025 0503 26.4 L   6.845 -73.083150.0  RSN  6 0.3 1.8LRSN                1
 GAP=142        0.66       4.0     8.3  9.6  0.3298E+01 -0.2864E+02  0.8095E+01E
 Epicentro: LOS SANTOS - SANTANDER                                             3
 ACTION:UPD 12-11-22 17:05 OP:ep   STATUS:               ID:20121025050326 L   I
 2012-10-25-0500-00M.COL___234                                                 6
 STAT SP IPHASW D HRMM SECON CODA AMPLIT PERI AZIMU VELO AIN AR TRES W  DIS CAZ7
 GIR2 SZ EP   1    5 3 46.74                             169    0.25 7 28.6 335 
 BAR2 SZ EP   1    5 3 46.70                             168    0.03 7 30.0 201 
 PAM  SN ES   2    5 4  6.49                             154    0.58 5 69.2  38 
 BRR  HZ EP   1    5 3 48.49                             152    0.27 7 75.3 293 
 BRR  HZ I         5 3 48.96        14.3 0.11                          75.3 293 
 BRR  HN ES        5 4  5.33                             152    0.0810 75.3 293 
 RUS  HZ EP   1    5 3 50.83                             143   -0.06 7  105 180 
 RUS  HN ES   2    5 4  9.22                             143   -0.78 5  105 180 
 RUS  HN I         5 4 10.49         8.1 0.14                           105 180 
 OCA  HE ES        5 4 16.34                             131   -0.38 9  156 350 
                                                                                
