 2013 1225 0331 22.3 L   6.453 -73.510121.3  RSN  5 0.5 1.1LRSN                1
 GAP=133        1.00       6.8     7.2  9.2  0.1781E+02  0.2049E+02  0.5175E+01E
 Epicentro: SIMACOTA - SANTANDER                                               3
 ACTION:UPD 14-01-13 10:20 OP:ep   STATUS:               ID:20131225033122 L   I
 OLDACT:DUP 13-12-25 11:09 OP:mh   STATUS:               ID:20131225033001d    3
 2013-12-25-0330-00M.COL___285                                                 6
 STAT SP IPHASW D HRMM SECON CODA AMPLIT PERI AZIMU VELO AIN AR TRES W  DIS CAZ7
 BAR2 SZ ES   1    331 53.00                             161    0.09 7 39.4  67 
 BRR  HZ EP        331 41.39                             146    0.2510 75.7 343 
 BRR  HN ES        331 55.70                             146   -0.1510 75.7 343 
 RUS  HZ EP   1    331 41.09                             145   -0.90 7 77.9 143 
 RUS  HN ES   1    331 57.66                             145    0.30 7 77.9 143 
 RUS  HZ I         332  0.21         3.1 0.31            144           77.9 143 
 PTB  HZ EP        331 44.01                             136    0.5910  105 275 
 PTB  HN ES   1    331 59.39                             136   -0.52 7  105 275 
 SML  HZ EP   1    331 59.94                             109   -0.37 6  267 347 
                                                                                
