 2017  425 0654 32.7 L   6.690 -73.143146.0  RSN  5 0.3 1.1LRSN                1
 GAP=167        0.67       7.3     3.7  6.0  0.4160E+01 -0.1010E+01 -0.1233E+02E
 Epicentro: VILLANUEVA - SANTANDER                                             3
 ACTION:UPD 17-05-30 21:15 OP:jn   STATUS:               ID:20170425065432 L   I
 OLDACT:UP  17-04-25 15:30 OP:and  STATUS:               ID:20170425063859d    3
 OLDACT:UP  17-04-25 15:30 OP:and  STATUS:               ID:20170425063859d    3
 OLDACT:UP  17-04-25 15:29 OP:and  STATUS:               ID:20170425063859d    3
 OLDACT:UP  17-04-25 15:28 OP:and  STATUS:               ID:20170425063859d    3
 OLDACT:DUP 17-04-25 15:27 OP:and  STATUS:               ID:20170425063859d    3
 OLDACT:UP  17-04-25 15:27 OP:and  STATUS:               ID:20170425063858     3
 OLDACT:REG 17-04-25 12:24 OP:and  STATUS:               ID:20170425063858     3
 2017-04-25-0648-00M.COL___361                                                 6
 STAT SP IPHASW D HRMM SECON CODA AMPLIT PERI AZIMU VELO AIN AR TRES W  DIS CAZ7
 BAR2 EZ EP        654 52.26                             175    0.1210 11.6 202 
 BAR2 EZ ES        655  7.54                             175    0.2110 11.6 202 
 BRR  HZ EP        654 54.17                             150   -0.0510 78.0 306 
 BRR  HE ES        655 11.18                             150    0.1310 78.0 306 
 PAM  EZ IP        654 55.15                             148   -0.3410 87.0  34 
 PTB  HZ EP   2    655  0.24                             133    0.74 5  146 264 
 PTB  HN ES        655 19.99                             133   -0.44 9  146 264 
 PTB  HZ I         655 22.39         1.6 0.20            132            146 264 
 ZAR  HZ EP   2    655  5.74                             122    0.10 4  209 295 
 ZAR  HN ES        655 31.56                             122    0.18 8  209 295 
                                                                                
