 2015 1225 0340 42.5 L   6.825 -73.098140.2  RSN  6 0.6 1.4LRSN                1
 GAP=205        1.31       8.5     8.8  9.5  0.4257E+02  0.3797E+01 -0.1730E+02E
 Epicentro: LOS SANTOS - SANTANDER                                             3
 ACTION:UPD 16-02-04 15:07 OP:cam  STATUS:               ID:20151225034042 L   I
 OLDACT:UP  15-12-25 14:11 OP:dnl  STATUS:               ID:20151225033747     3
 OLDACT:REG 15-12-25 12:53 OP:dnl  STATUS:               ID:20151225033747     3
 2015-12-25-0337-47M.COL___334                                                 6
 STAT SP IPHASW D HRMM SECON CODA AMPLIT PERI AZIMU VELO AIN AR TRES W  DIS CAZ7
 BAR2 EZ EP        341  1.65                             169    0.0810 27.4 200 
 BAR2 EZ ES        341 15.50                             169   -0.9210 27.4 200 
 BAR2 EZ I         341 19.57         5.0 0.27            176           27.4 200 
 BRR  HZ EP        341  3.53                             150    0.2610 74.7 295 
 BRR  HN ES        341 20.46                             150    1.0110 74.7 295 
 BRR  HZ I         341 23.34         3.9 0.18            150           74.7 295 
 RUS  HZ EP        341  6.32                             142    0.4110  103 179 
 RUS  HE ES        341 24.17                             142    0.0110  103 179 
 RUS  HZ I         341 25.87         2.5 0.13            149            103 179 
 PTB  HZ EP        341  8.94                             130   -0.62 9  153 258 
 PTB  HE ES        341 30.84                             130    0.18 9  153 258 
 PTB  HZ I         341 31.64         2.8 0.13            133            153 258 
 ZAR  HZ EP        341 15.08                             121    0.07 8  208 291 
 ZAR  HN ES        341 39.74                             121   -0.61 8  208 291 
 ZAR  HZ I         341 45.88         2.0 0.12            123            208 291 
 SML  HZ EP   2    341 19.08                             116    0.27 4  243 334 
 SML  HE ES   2    341 46.28                             116   -0.83 4  243 334 
 SML  HZ I         341 54.88         3.0 0.12            117            243 334 
                                                                                
