 2014  625 0136 19.6 L   6.784 -73.146142.5  RSN  7 0.5 1.5LRSN                1
 GAP=201        1.14       4.7     6.8  8.8  0.4564E+01  0.1622E+02 -0.1463E+02E
 Epicentro: LOS SANTOS - SANTANDER                                             3
 ACTION:UPD 14-07-01 22:56 OP:nd   STATUS:               ID:20140625013619 L   I
 OLDACT:REG 14-06-25 12:52 OP:spq  STATUS:               ID:20140625012814     3
 2014-06-25-0128-14M.COL___262                                                 6
 STAT SP IPHASW D HRMM SECON CODA AMPLIT PERI AZIMU VELO AIN AR TRES W  DIS CAZ7
 BAR2 SZ ES        136 53.38                             171   -0.4410 21.6 191 
 BAR2 SZ I         136 55.57         4.3 0.15            170           21.6 191 
 RUS  HZ EP   1    136 43.50                             144    0.56 7 98.9 176 
 RUS  HN ES        137  1.67                             144    0.5510 98.9 176 
 RUS  HZ I         137  3.61         2.9 0.36            146           98.9 176 
 PTB  HZ EP        136 46.78                             131    0.48 9  147 259 
 PTB  HN ES        137  7.38                             131    0.27 9  147 259 
 PTB  HZ I         137 10.51         3.6 0.14            132            147 259 
 SPBC HZ EP        136 47.36                             128   -0.39 9  162 219 
 SPBC HN ES        137  8.95                             128   -0.74 9  162 219 
 SPBC HZ I         137 14.28         4.3 0.18            130            162 219 
 ZAR  HZ EP        136 52.04                             121    0.11 9  205 293 
 ZAR  HN ES        137 17.76                             121    0.63 9  205 293 
 ZAR  HZ I         137 23.67         3.3 0.26            123            205 293 
 SML  HZ EP        136 55.97                             116   -0.27 8  245 335 
 SML  HE ES        137 24.32                             116   -0.49 8  245 335 
 SML  HZ I         137 26.58         3.4 0.24            119            245 335 
 GUY2CHN ES   1    137 36.07                             112   -0.71 5  300 235 
 GUY2CHZ I         137 47.07         1.3 0.62                           300 235 
                                                                                
