 2016  525 0802 53.1 L   6.847 -73.157138.6  RSN  6 0.4 1.6LRSN                1
 GAP=133        1.08       4.3     5.0  8.7 -0.7031E+00  0.1623E+02 -0.3218E+01E
 Epicentro: LOS SANTOS - SANTANDER                                             3
 ACTION:UPD 16-08-18 17:49 OP:cam  STATUS:               ID:20160525080253 L   I
 OLDACT:UP  16-05-25 17:27 OP:mh   STATUS:               ID:20160525075743     3
 OLDACT:UP  16-05-25 17:26 OP:mh   STATUS:               ID:20160525075743     3
 OLDACT:REG 16-05-25 12:56 OP:mh   STATUS:               ID:20160525075743     3
 2016-05-25-0757-43M.COL___310                                                 6
 STAT SP IPHASW D HRMM SECON CODA AMPLIT PERI AZIMU VELO AIN AR TRES W  DIS CAZ7
 BAR2 EZ EP        8 3 12.26                             168    0.2610 28.3 186 
 BAR2 EZ ES        8 3 26.83                             168    0.1010 28.3 186 
 BAR2 EZ I         8 3 28.43         9.2 0.20            172           28.3 186 
 PAM  EZ EP        8 3 15.23                             150    0.8510 74.3  43 
 PAM  EN ES        8 3 30.88                             150   -0.0910 74.3  43 
 PAM  EZ I         8 3 34.90         5.6 0.32            152           74.3  43 
 RUS  HZ EP        8 3 15.95                             141   -0.6110  106 176 
 RUS  HN ES        8 3 34.85                             141   -0.0010  106 176 
 RUS  HZ I         8 3 36.90         7.0 0.87            146            106 176 
 PTB  HZ EP        8 3 19.18                             130   -0.31 9  148 257 
 PTB  HN ES        8 3 40.00                             130   -0.06 9  148 257 
 PTB  HZ I         8 3 42.80         5.7 0.12            133            148 257 
 OCA  HN ES        8 3 40.97                             129   -0.66 9  155 353 
 OCA  HZ I         8 3 47.79         6.7 0.06            130            155 353 
 ZAR  HZ EP   1    8 3 24.95                             121    0.17 6  201 291 
 ZAR  HN ES        8 3 49.89                             121    0.41 9  201 291 
 ZAR  HZ I         8 3 54.56         3.7 0.47            123            201 291 
                                                                                
