 2015 1125 0958 39.5 L   6.781 -73.181152.0  RSN  6 0.5 1.7LRSN                1
 GAP=197        1.09       4.6     7.3  8.9  0.1011E+02 -0.1375E+02 -0.1033E+02E
 Epicentro: LOS SANTOS - SANTANDER                                             3
 ACTION:UPD 15-12-28 16:13 OP:cam  STATUS:               ID:20151125095839 L   I
 OLDACT:UP  15-12-10 15:30 OP:cam  STATUS:               ID:20151125095839 L   3
 OLDACT:UP  15-12-01 10:58 OP:ak   STATUS:               ID:20151125095839 L   3
 OLDACT:UP  15-11-25 18:31 OP:drio STATUS:               ID:20151125094748     3
 OLDACT:REG 15-11-25 13:05 OP:drio STATUS:               ID:20151125094748     3
 2015-11-25-0947-48M.COL___206                                                 6
 STAT SP IPHASW D HRMM SECON CODA AMPLIT PERI AZIMU VELO AIN AR TRES W  DIS CAZ7
 BRR  HZ EP        959  1.37                             154    0.2110 68.9 302 
 BRR  HN ES        959 18.68                             154    0.6010 68.9 302 
 BRR  HZ I         959 23.56         8.3 0.16            152           68.9 302 
 RUS  HZ EP        959  3.35                             146   -0.3510 98.8 174 
 RUS  HE ES   1    959 22.10                             146   -0.51 7 98.8 174 
 RUS  HZ I         959 22.81         5.2 0.20            150           98.8 174 
 PTB  HZ EP        959  6.24                             134   -0.33 9  144 259 
 PTB  HN ES        959 27.17                             134   -0.54 9  144 259 
 PTB  HZ I         959 28.95         5.4 0.20            135            144 259 
 SPBC HZ EP        959  8.49                             131    0.43 9  159 218 
 SPBC HE ES        959 30.77                             131    0.39 9  159 218 
 SPBC HZ I         959 37.25         7.6 0.20            133            159 218 
 ZAR  HZ EP        959 12.80                             124    0.77 9  201 293 
 ZAR  HN ES        959 37.01                             124   -0.43 9  201 293 
 ZAR  HZ I         959 45.35         6.1 0.54            125            201 293 
 SML  HZ EP        959 16.18                             119   -0.29 8  244 336 
 SML  HN ES        959 45.10                             119   -0.24 8  244 336 
 SML  HZ I         959 51.17         4.9 0.10            121            244 336 
                                                                                
