 2015  825 0148 38.7 L   6.770 -73.033149.9  RSN  6 0.5 1.5LRSN                1
 GAP=210        1.11       4.5     8.3  7.7  0.2947E+01  0.1580E+02 -0.2626E+01E
 Epicentro: CEPITA - SANTANDER                                                 3
 ACTION:UPD 15-09-15 23:05 OP:cam  STATUS:               ID:20150825014838 L   I
 OLDACT:UP  15-08-25 18:02 OP:ak   STATUS:               ID:20150825014749     3
 OLDACT:UP  15-08-25 18:00 OP:ak   STATUS:               ID:20150825014749     3
 OLDACT:UP  15-08-25 18:00 OP:ak   STATUS:               ID:20150825014749     3
 OLDACT:UP  15-08-25 17:59 OP:ak   STATUS:               ID:20150825014749     3
 OLDACT:REG 15-08-25 12:38 OP:ak   STATUS:               ID:20150825014749     3
 2015-08-25-0147-49M.COL___340                                                 6
 STAT SP IPHASW D HRMM SECON CODA AMPLIT PERI AZIMU VELO AIN AR TRES W  DIS CAZ7
 BAR2 EZ EP   1    148 59.36                             170    0.50 7 25.7 220 
 BAR2 EZ ES        149 14.44                             170   -0.1610 25.7 220 
 BAR2 EZ I         149 15.92         8.6 0.18            168           25.7 220 
 BRR  HZ EP        149  1.86                             149    0.8410 83.7 296 
 BRR  HN ES        149 18.81                             149    0.3710 83.7 296 
 RUS  HZ EP        149  2.72                             146    0.1110 97.2 183 
 RUS  HE ES        149 20.75                             146   -0.5210 97.2 183 
 RUS  HZ I         149 23.53         3.3 0.31            145           97.2 183 
 SPBC HZ EP   1    149  8.26                             129    0.23 7  169 223 
 SPBC HN ES        149 30.70                             129   -0.23 9  169 223 
 SPBC HZ I         149 34.28         3.8 0.11            129            169 223 
 SML  HZ EP   1    149 15.51                             117   -0.93 6  252 333 
 SML  HE ES        149 45.14                             117   -0.76 8  252 333 
 GUY2CHZ EP        149 23.36                             112   -0.07 7  310 237 
 GUY2CHN ES        149 58.27                             112   -0.06 7  310 237 
 GUY2CHZ I         150  5.27         1.2 0.25                           310 237 
                                                                                
