 2013  925 0132 51.7 L   6.569 -73.614110.4  RSN  4 0.4 1.3LRSN                1
 GAP=120        1.03       5.6     5.5 10.4 -0.7100E+01  0.1173E+02  0.5516E+01E
 Epicentro: EL CARMEN DE CHUCURI - SANTANDER                                   3
 ACTION:UPD 13-10-22 09:24 OP:ep   STATUS:               ID:20130925013251 L   I
 OLDACT:REG 13-09-25 07:40 OP:nd   STATUS:               ID:20130925012959     3
 2013-09-25-0129-59M.COL___269                                                 6
 STAT SP IPHASW D HRMM SECON CODA AMPLIT PERI AZIMU VELO AIN AR TRES W  DIS CAZ7
 BAR2 SZ EP        133  7.94                             155   -0.1310 47.8  87 
 BAR2 SZ ES        133 20.43                             155   -0.4110 47.8  87 
 BAR2 SZ I         133 21.59        12.2 0.32            167           47.8  87 
 BRR  HZ EP        133  8.68                             149    0.2310 60.5 350 
 BRR  HN ES        133 22.04                             149    0.5310 60.5 350 
 BRR  HZ I         133 29.16         6.0 0.38            155           60.5 350 
 PTB  HZ EP        133 10.67                             137   -0.2210 93.2 268 
 PTB  HN ES        133 25.35                             137   -0.5110 93.2 268 
 PTB  HZ I         133 31.84         2.8 0.10            139           93.2 268 
 SPBC HZ EP   4    133 14.67                             131    1.90 0  113 207 
 SPBC HN ES        133 29.72                             131    0.5110  113 207 
 SPBC HZ I         133 37.94         2.3 0.32            135            113 207 
                                                                                
