 2013  625 0107 27.0 L   6.756 -73.175150.8  RSN  5 0.3 1.3LRSN                1
 GAP=177        0.69       6.7     6.6  7.3  0.1816E+02 -0.5834E+01 -0.1263E+02E
 Epicentro: VILLANUEVA - SANTANDER                                             3
 ACTION:UPD 14-01-08 09:56 OP:ep   STATUS:               ID:20130625010727 L   I
 OLDACT:DUP 13-06-25 07:25 OP:jn   STATUS:               ID:20130625005960d    3
 OLDACT:REG 13-06-25 06:25 OP:jn   STATUS:               ID:20130625005959     3
 2013-06-25-0059-59M.COL___267                                                 6
 STAT SP IPHASW D HRMM SECON CODA AMPLIT PERI AZIMU VELO AIN AR TRES W  DIS CAZ7
 BAR2 SZ EP        1 7 46.89                             173   -0.2710 18.1 183 
 BAR2 SZ ES        1 8  2.72                             173   -0.1510 18.1 183 
 BAR2 SZ I         1 8  2.98         3.5 0.16            171           18.1 183 
 GIR2 SZ EP   1    1 7 47.15                             166   -0.26 7 35.8 357 
 BRR  HZ EP        1 7 49.09                             153    0.4010 70.9 303 
 BRR  HN ES        1 8  5.73                             153    0.1210 70.9 303 
 BRR  HZ I         1 8  7.64         5.7 0.36            150           70.9 303 
 RUS  HN ES   1    1 8  9.99                             146    0.38 7 96.0 174 
 PTB  HN ES   1    1 8 14.79                             134   -0.33 7  144 260 
 PTB  HZ I         1 8 18.29         1.8 0.24            132            144 260 
                                                                                
