 2013  325 0116 26.0 L   7.029 -73.461132.0  RSN  4 0.4 1.0LRSN                1
 GAP=155        0.70       9.0    10.2  9.8 -0.5794E+02 -0.3409E+02  0.3998E+02E
 Epicentro: SAN VICENTE DE CHUCURI - SANTANDER                                 3
 ACTION:UPD 13-04-09 14:04 OP:ep   STATUS:               ID:20130325011626 L   I
 2013-03-25-0110-00M.COL___244                                                 6
 STAT SP IPHASW D HRMM SECON CODA AMPLIT PERI AZIMU VELO AIN AR TRES W  DIS CAZ7
 BRR  HZ EP        116 43.90                             167    0.1910 29.1 287 
 BRR  HN ES   1    116 57.76                             167    0.19 7 29.1 287 
 PTB  HZ EP        116 49.78                             134    0.2410  123 244 
 PTB  HN ES   1    117  7.41                             134   -0.52 7  123 244 
 PTB  HZ I         117 12.10         2.2 0.38             47            123 244 
 RUS  HZ EP   2    116 50.61                             132   -0.44 5  132 162 
 RUS  HZ I         117 23.19         0.9 0.40             37            132 162 
 OCA  HN ES   2    117  9.53                             131   -0.65 5  135   7 
                                                                                
