 2013  625 0531 52.1 L   6.699 -73.183143.8  RSN  5 0.3 1.1LRSN                1
 GAP=174        0.65       5.7     5.6  8.0  0.1126E+02 -0.2606E+01 -0.5601E+01E
 Epicentro: VILLANUEVA - SANTANDER                                             3
 ACTION:UPD 14-01-08 09:57 OP:ep   STATUS:               ID:20130625053152 L   I
 OLDACT:REG 13-06-25 06:41 OP:jn   STATUS:               ID:20130625052959     3
 2013-06-25-0529-59M.COL___267                                                 6
 STAT SP IPHASW D HRMM SECON CODA AMPLIT PERI AZIMU VELO AIN AR TRES W  DIS CAZ7
 BAR2 SZ EP        532 11.32                             175    0.0110 11.8 180 
 GIR2 SZ EP   1    532 11.41                             163   -0.46 7 42.0 358 
 BRR  HZ EP        532 13.11                             151   -0.0710 73.8 308 
 BRR  HN ES   1    532 30.02                             151    0.39 7 73.8 308 
 BRR  HZ I         532 34.28         2.7 0.46            150           73.8 308 
 RUS  HZ EP   1    532 15.43                             147    0.53 7 89.9 173 
 RUS  HN ES   1    532 32.45                             147   -0.24 7 89.9 173 
 PTB  HZ EP        532 18.40                             133    0.03 9  142 263 
 PTB  HN ES   1    532 38.65                             133   -0.21 7  142 263 
 PTB  HZ I         532 42.48         1.3 0.31            134            142 263 
                                                                                
