 2012  225 0753 26.1 L   6.827 -73.416119.6  RSN  5 0.3 1.1LRSN                1
 GAP= 94        0.59       5.2     4.4  8.1  0.3579E+01  0.3346E+01 -0.1113E+02E
 ACTION:UP  12-03-07 16:34 OP:epov STATUS:               ID:20120225075326 L   I
 2012-02-25-0750-00M.COL___192                                                 6
 STAT SP IPHASW D HRMM SECON CODA AMPLIT PERI AZIMU VELO AIN AR TRES W  DIS CAZ7
 BAR2 SZ EP   1    753 42.98                             162   -0.02 7 36.6 135 
 BAR2 SZ ES   1    753 56.41                             162    0.23 7 36.6 135 
 BAR2 SZ I         753 57.08         3.2 0.22                          36.6 135 
 GIR2 SZ EP        753 42.58                             162   -0.2910 37.1  41 
 BRR  HZ EP   1    753 43.37                             158    0.37 7 45.1 313 
 BRR  HZ I         753 55.61         3.3 0.18                          45.1 313 
 RUS  HZ EP   1    753 48.13                             135   -0.01 7  110 160 
 RUS  HE ES   1    754  5.27                             135   -0.06 7  110 160 
 PTB  HZ EP   2    753 49.01                             132    0.66 5  119 255 
 PTB  HN ES   1    754  5.42                             132   -0.29 7  119 255 
                                                                                
