 2014  525 0240 43.5 L   6.742 -73.164144.0  RSN  6 0.5 1.5LRSN                1
 GAP=231        1.19       6.1     7.1  9.6  0.8295E+01  0.1579E+02  0.1601E+02E
 Epicentro: VILLANUEVA - SANTANDER                                             3
 ACTION:UPD 15-03-16 17:00 OP:nd   STATUS:               ID:20140525024043 L   I
 OLDACT:REG 14-05-25 14:05 OP:stll STATUS:               ID:20140525023813     3
 2014-05-25-0238-13M.COL___227                                                 6
 STAT SP IPHASW D HRMM SECON CODA AMPLIT PERI AZIMU VELO AIN AR TRES W  DIS CAZ7
 BRR  HZ EP        241  4.36                             152   -0.1410 72.8 304 
 BRR  HN ES        241 21.49                             152    0.5710 72.8 304 
 BRR  HZ I         241 22.85         6.4 0.12            150           72.8 304 
 RUS  HZ EP        241  6.35                             145   -0.2310 94.3 175 
 RUS  HZ I         241  7.24         3.2 0.48            147           94.3 175 
 RUS  HN ES        241 24.73                             145    0.1110 94.3 175 
 PTB  HZ EP        241  9.52                             132   -0.48 9  145 261 
 PTB  HN ES        241 29.89                             132   -0.81 9  145 261 
 PTB  HZ I         241 36.01         4.3 0.30            132            145 261 
 NOR  HZ EP        241 18.74                             119    0.23 8  229 235 
 NOR  HN ES        241 46.77                             119    0.92 8  229 235 
 NOR  HZ I         241 49.45         3.0 0.20            120            229 235 
 CHI  HN ES        241 48.86                             118   -0.21 8  242 195 
 GUY2CHZ EP        241 27.11                             112    0.73 7  296 236 
 GUY2CHN ES        241 59.51                             112   -0.35 7  296 236 
 GUY2CHZ I         242  8.98         2.3 0.40                           296 236 
                                                                                
