 2010  125 0655 19.3 L   6.268 -73.542112.0  RSN  5 0.4 1.1LRSN                1
 GAP=180        0.89       5.2    27.8 19.5 -0.5053E+02  0.4720E+03 -0.2960E+02E
 Epicentro: GUAPOTA - SANTANDER                                                3
 ACTION:UP  10-08-24 09:45 OP:vdl  STATUS:               ID:20100125065518 L   I
 2010-01-25-0649-36S.COL___095                                                 6
 STAT SP IPHASW D HRMM SECON CODA AMPLIT PERI AZIMU VELO SNR AR TRES W  DIS CAZ7
 BAR2 SZ EP        655 35.95                             151    -0.210   53  48 
 BAR2 SZ ES   1    655 48.90                             151    -0.4 7   53  48 
 RUS  BZ EP        655 37.25                             146     0.010   66 129 
 RUS  BZ I         655 37.55         3.0 0.23                            66 129 
 RUS  BN ES   1    655 51.48                             146     0.2 7   66 129 
 GIR2 SZ EP        655 39.65                             135     0.510   98  23 
 CHI  HZ EP   1    655 47.30                             116    -0.7 7  182 187 
 CHI  HN ES   2    656 11.16                             116     0.9 4  182 187 
 CHI  HZ I         656 14.36         2.0 1.04                           182 187 
 OCA  SZ ES   2    656 16.88                             111    -0.1 4  219   6 
                                                                                
