 2012  525 0051 25.5 L   6.714 -73.226140.1  RSN  4 0.3 1.3LRSN                1
 GAP=225        0.71       9.9     7.3  8.0  0.4639E+02  0.1137E+02 -0.9717E+01E
 Epicentro: VILLANUEVA - SANTANDER                                             3
 ACTION:UP  12-07-05 12:07 OP:pat  STATUS:               ID:20120525005125 L   I
 2012-05-25-0050-00M.COL___201                                                 6
 STAT SP IPHASW D HRMM SECON CODA AMPLIT PERI AZIMU VELO SNR AR TRES W  DIS CAZ7
 BAR2 SZ EP   2    051 43.86                             174    -0.4 5   14 160 
 BAR2 SZ ES   1    051 58.96                             174     0.0 8   14 160 
 BAR2 SZ I         052  0.75         6.6 0.26                            14 160 
 RUS  HZ EP   1    051 48.21                             145     0.1 8   92 170 
 RUS  HE ES   2    052  5.99                             145     0.3 5   92 170 
 RUS  HZ I         052  8.52         2.2 0.26                            92 170 
 PTB  HZ EP        051 50.70                             133    -0.410  137 262 
 PTB  HZ I         051 53.40         2.0 0.28                           137 262 
 PTB  HN ES   1    052 11.14                             133     0.1 7  137 262 
 ZAR  HZ EP   1    051 57.73                             122     0.6 7  200 296 
 ZAR  HE ES   1    052 21.79                             122     0.0 7  200 296 
 ZAR  HZ I         052 26.66         3.5 0.24                           200 296 
                                                                                
