 2017  725 0206 39.0 L   6.762 -73.133140.7  RSN  6 0.4 1.1LRSN                1
 GAP=218        0.75       5.7     5.3  5.9  0.1239E+02 -0.2946E+01 -0.1034E+01E
 Epicentro: LOS SANTOS - SANTANDER                                             3
 ACTION:UPD 17-08-30 15:36 OP:rebc STATUS:               ID:20170725020639 L   I
 OLDACT:UP  17-07-25 14:49 OP:and  STATUS:               ID:20170725015747d    3
 OLDACT:UP  17-07-25 14:49 OP:and  STATUS:               ID:20170725015747d    3
 OLDACT:DUP 17-07-25 14:47 OP:and  STATUS:               ID:20170725015747d    3
 OLDACT:UP  17-07-25 14:46 OP:and  STATUS:               ID:20170725015746     3
 OLDACT:REG 17-07-25 12:31 OP:and  STATUS:               ID:20170725015746     3
 2017-07-25-0158-00M.COL___386                                                 6
 STAT SP IPHASW D HRMM SECON CODA AMPLIT PERI AZIMU VELO AIN AR TRES W  DIS CAZ7
 BAR2 EZ EP        2 6 58.03                             172    0.0710 19.6 196 
 BAR2 EZ ES        2 7 12.46                             172   -0.2810 19.6 196 
 BAR2 EZ I         2 7 14.33         4.3 0.22            170           19.6 196 
 BRR  HZ EP        2 7  0.03                             150    0.2210 74.5 301 
 BRR  HN ES   2    2 7 16.46                             150    0.43 5 74.5 301 
 RUS  HZ EP        2 7  2.12                             144    0.1610 96.3 177 
 RUS  HN ES        2 7 19.94                             144    0.0810 96.3 177 
 RUS  HZ I         2 7 21.42         2.3 0.42            144           96.3 177 
 PTB  HZ EP   2    2 7  5.96                             131    0.33 5  148 261 
 PTB  HN ES        2 7 25.91                             131   -0.48 9  148 261 
 PTB  HZ I         2 7 28.50         1.1 0.16            131            148 261 
 SPBC HN ES   2    2 7 29.66                             128    1.00 5  161 220 
 PTGC HZ EP        2 7 21.70                             111   -0.45 7  304 159 
                                                                                
