 2011  425 0503 56.7 L   6.799 -73.061152.0  RSN  7 0.3 1.9LRSN                1
 GAP=192        0.64       3.0     7.4  6.9 -0.5372E-01 -0.2213E+01  0.3135E+01E
 Epicentro: LOS SANTOS - SANTANDER                                             3
 ACTION:UP  11-06-22 15:33 OP:REBC STATUS:               ID:20110425050356 L   I
 2011-04-25-0501-05S.COL___139                                                 6
 STAT SP IPHASW D HRMM SECON CODA AMPLIT PERI AZIMU VELO SNR AR TRES W  DIS CAZ7
 BTL  SZ EP   1    5 4 17.27                             170     0.2 7   26 300 
 BAR2 SZ EP   1    5 4 16.95                             170    -0.2 7   27 210 
 BRR  HZ EP   1    5 4 18.77                             151    -0.2 7   80 295 
 BRR  HE ES   1    5 4 36.38                             151     0.0 7   80 295 
 BRR  HZ I         5 4 39.50        19.7 0.15                            80 295 
 RUS  HZ EP   1    5 4 21.13                             145     0.1 7  100 181 
 RUS  HE ES   1    5 4 39.68                             145    -0.3 7  100 181 
 RUS  HZ I         5 4 41.46        11.9 0.37                           100 181 
 OCA  SZ EP   1    5 4 25.31                             131    -0.3 7  162 350 
 OCA  SZ ES   1    5 4 48.60                             131     0.4 7  162 350 
 OCA  SZ I         5 4 52.09        18.4 0.28                           162 350 
 NOR  SZ EP   1    5 4 33.35                             119    -0.2 6  242 236 
 NOR  SN ES   2    5 5  2.10                             119    -0.3 4  242 236 
 NOR  SZ I         5 5  5.22         2.4 0.21                           242 236 
 CHI  HZ EP   1    5 4 35.13                             118     0.1 6  251 197 
 CHI  HN ES   1    5 5  5.56                             118     0.7 6  251 197 
 CHI  HZ I         5 5 12.66         6.9 0.39                           251 197 
                                                                                
