 2013  125 1655 33.3 L   7.384 -73.386114.5  RSN  5 0.2 1.8LRSN                1
 GAP=222        0.57       4.9     3.0  4.7 -0.6327E+01 -0.2698E+00  0.1932E+01E
 Epicentro: SABANA DE TORRES - SANTANDER                                       3
 ACTION:UPD 13-02-15 09:16 OP:ep   STATUS:               ID:20130125165533 L   I
 2013-01-25-1648-36M.COL___201                                                 6
 STAT SP IPHASW D HRMM SECON CODA AMPLIT PERI AZIMU VELO AIN AR TRES W  DIS CAZ7
 BRR  HZ EP       1655 49.60                             156   -0.1510 47.2 230 
 BRR  HN ES       1656  2.52                             156   -0.0610 47.2 230 
 BRR  HN I        1656  2.92        20.7 0.22            156           47.2 230 
 PAM  SZ EP       1655 52.52                             144    0.3110 75.9  94 
 PAM  SN ES       1656  6.77                             144   -0.1810 75.9  94 
 BAR2 SZ EP       1655 53.11                             139    0.1610 90.4 166 
 BAR2 SZ ES       1656  8.40                             139    0.1410 90.4 166 
 BAR2 SZ I        1656  9.62        11.4 0.24            138           90.4 166 
 PTB  HN ES       1656 17.75                             123    0.08 9  151 232 
 RUS  HZ EP       1656  0.32                             120   -0.36 9  168 169 
                                                                                
