 2012  225 1958 11.7 L   6.739 -73.128141.2  RSN 14 0.4 2.6LRSN                1
 GAP=141        0.64       3.3     3.7  4.4 -0.3789E+01  0.2162E+01  0.3936E+01E
 ACTION:UP  12-03-07 16:34 OP:epov STATUS:               ID:20120225195811 L   I
 2012-02-25-1950-00M.COL___193                                                 6
 STAT SP IPHASW D HRMM SECON CODA AMPLIT PERI AZIMU VELO AIN AR TRES W  DIS CAZ7
 BAR2 SZ EP       1958 30.72                             173    0.0310 17.3 200 
 BAR2 SZ ES   1   1958 45.30                             173   -0.19 7 17.3 200 
 BAR2 SZ I        1958 47.77       160.4 0.34                          17.3 200 
 GIR2 SZ EP       1958 30.85                             164   -0.2110 38.2 349 
 GIR2 SZ ES   1   1958 46.10                             164   -0.05 7 38.2 349 
 BRR  HZ IP     C 1958 32.66                             150   -0.0210 76.2 302 
 BRR  HZ I        1958 33.02       187.3 0.12                          76.2 302 
 BRR  HE ES   1   1958 49.63                             150    0.61 7 76.2 302 
 PAM  SZ EP       1958 33.66                             149   -0.0510 81.5  35 
 PAM  SN ES   1   1958 50.68                             149   -0.18 7 81.5  35 
 RUS  HZ EP   1   1958 34.68                             145    0.15 7 93.8 177 
 RUS  HN ES   2   1958 52.65                             145    0.32 5 93.8 177 
 RUS  HZ I        1958 54.74        42.4 0.48                          93.8 177 
 PTB  HZ EP   1   1958 37.31                             131   -1.08 7  149 262 
 PTB  HE ES   1   1958 59.15                             131   -0.04 7  149 262 
 OCA  SZ EP   2   1958 41.26                             127    0.92 5  167 353 
 OCA  SZ ES   2   1959  3.07                             127    0.40 5  167 353 
 NOR  SZ EP   1   1958 46.76                             118   -0.19 6  232 236 
 NOR  SE ES   2   1959 14.55                             118    0.13 4  232 236 
 CHI  HZ EP   1   1958 49.03                             117    0.51 6  243 196 
 CHI  HN ES   2   1959 17.25                             117    0.03 4  243 196 
 CHI  HZ I        1959 21.67         8.2 0.58                           243 196 
 ROSC BZ EP   2   1958 49.43                             116    0.35 4  248 212 
 ROSC BZ I        1959 27.65        22.1 0.36                           248 212 
 HEL  HZ EP   2   1958 51.87                             114    0.13 4  272 257 
 HEL  HE ES   2   1959 22.90                             114   -0.05 4  272 257 
 HEL  HZ I        1959 29.81        28.9 0.54                           272 257 
 RREF HZ EP   2   1958 57.89                             110    0.55 3  319 231 
 RREF HE ES   2   1959 32.65                             110   -0.28 3  319 231 
 RREF HZ I        1959 42.85        15.2 0.37                           319 231 
 COD  HZ EP   2   1959  0.52                             108   -0.19 3  355 354 
 PRA  HZ EP   2   1959  4.94                             106    0.42 3  387 210 
                                                                                
