 2010 1025 1048 18.1 L   7.369 -73.219130.1  RSN  4 0.3 1.7LRSN                1
 GAP=150        0.69       7.8    11.3 11.5 -0.5077E+02 -0.1166E+02 -0.4194E+01E
 Epicentro: EL PLAYON - SANTANDER                                              3
 ACTION:UP  11-02-18 11:12 OP:tino STATUS:               ID:20101025104818 L   I
 2010-10-25-1047-33S.COL___124                                                 6
 STAT SP IPHASW D HRMM SECON CODA AMPLIT PERI AZIMU VELO SNR AR TRES W  DIS CAZ7
 GUE  SZ EP   1   1048 36.94                             154    -0.5 7   60  32 
 BRR  HZ EP   1   1048 36.81                             153    -0.2 7   62 242 
 BRR  HZ I        1048 37.27         9.8 0.20                            62 242 
 BRR  HN ES   2   1048 52.04                             153     0.3 5   62 242 
 GRA  SZ EP   1   1048 38.37                             149     0.5 7   73  39 
 GRA  SZ ES   2   1048 53.37                             149     0.0 5   73  39 
 GRA  SZ I        1048 54.73        17.9 0.29                            73  39 
 BAR2 SZ EP   1   1048 39.08                             144     0.2 7   86 177 
 BAR2 SZ ES   2   1048 54.93                             144    -0.2 5   86 177 
 BAR2 SZ I        1048 56.23         7.0 0.14                            86 177 
                                                                                
