 2011  525 1417 30.3 L   6.747 -73.114144.0  RSN  8 0.3 2.0LRSN                1
 GAP=169        0.66       5.8     5.8  5.4 -0.1691E+02 -0.8197E+01  0.4065E+01E
 Epicentro: LOS SANTOS - SANTANDER                                             3
 ACTION:UP  11-06-29 08:56 OP:tino STATUS:               ID:20110525141730 L   I
 2011-05-25-1413-18S.COL___141                                                 6
 STAT SP IPHASW D HRMM SECON CODA AMPLIT PERI AZIMU VELO SNR AR TRES W  DIS CAZ7
 BAR2 SZ EP   1   1417 49.54                             172    -0.1 7   19 204 
 BAR2 SZ ES   1   1418  4.51                             172    -0.2 7   19 204 
 BAR2 SZ I        1418  7.21        30.8 0.34                            19 204 
 BTL  SZ EP       1417 50.25                             170     0.410   25 318 
 BTL  SZ ES   2   1418  5.26                             170     0.3 5   25 318 
 BRR  HZ EP       1417 51.34                             150    -0.310   77 301 
 BRR  HE ES       1418  8.50                             150     0.210   77 301 
 BRR  HZ I        1418 13.25        26.6 0.13                            77 301 
 PAM  SZ EP       1417 52.67                             150     0.110   80  35 
 PAM  SE ES   2   1418  9.75                             150    -0.1 5   80  35 
 BRI  SZ EP   1   1417 54.51                             140     0.1 7  113  18 
 GRA  SZ EP       1417 55.68                             136    -0.210  130  15 
 GRA  SZ ES   2   1418 15.06                             136    -0.6 5  130  15 
 GRA  SZ I        1418 17.61         8.8 0.25                           130  15 
 NOR  SZ EP   2   1418  6.02                             118     0.1 4  234 236 
 NOR  SE ES   2   1418 32.99                             118    -0.7 4  234 236 
 PRA  HZ EP   2   1418 23.76                             106     0.3 3  389 210 
                                                                                
