 2017 1125 1852 45.6 L   6.800 -73.164148.0  RSN 12 0.5 1.8LRSN                1
 GAP=134        1.12       2.9     4.5  6.0 -0.3819E+01  0.8572E+01 -0.8033E+00E
 Epicentro: LOS SANTOS - SANTANDER                                             3
 ACTION:UPD 17-12-12 20:00 OP:rebc STATUS:               ID:20171125185245 L   I
 OLDACT:UP  17-11-26 00:37 OP:edw  STATUS:               ID:20171125184744     3
 OLDACT:REG 17-11-25 22:51 OP:edw  STATUS:               ID:20171125184744     3
 2017-11-25-1848-00M.COL___491                                                 6
 STAT SP IPHASW D HRMM SECON CODA AMPLIT PERI AZIMU VELO AIN AR TRES W  DIS CAZ7
 BAR2 EZ EP       1853  5.10                             171   -0.3510 23.1 185 
 BAR2 EZ ES       1853 21.59                             171    0.6310 23.1 185 
 BAR2 EZ I        1853 27.39         7.9 0.50            170           23.1 185 
 PAM  EZ EP       1853  7.98                             151   -0.1110 78.7  41 
 PAM  EN ES       1853 25.56                             151   -0.1010 78.7  41 
 PAM  EZ I        1853 26.31         6.9 0.18            156           78.7  41 
 RUS  HZ EP       1853  9.46                             144   -0.0810  101 175 
 RUS  HE ES       1853 28.05                             144   -0.1910  101 175 
 RUS  HZ I        1853 28.93         5.4 0.66            147            101 175 
 PTB  HZ EP       1853 11.96                             133   -0.56 9  146 259 
 PTB  HN ES       1853 32.51                             133   -1.05 9  146 259 
 PTB  HZ I        1853 35.15         7.8 0.14            134            146 259 
 OCA  HZ EP       1853 13.68                             130   -0.34 9  160 354 
 OCA  HN ES       1853 36.26                             130    0.04 9  160 354 
 SPBC HZ EP       1853 14.27                             130    0.17 9  162 218 
 SPBC HN ES       1853 37.04                             130    0.67 9  162 218 
 SPBC HZ I        1853 41.27        11.0 0.20            132            162 218 
 ZAR  HZ EP       1853 17.19                             123   -0.76 9  202 292 
 ZAR  HE ES       1853 43.66                             123    0.44 9  202 292 
 ZAR  HZ I        1853 51.47         7.9 0.30            125            202 292 
 NOR  HZ EP       1853 21.34                             119    0.11 8  233 234 
 NOR  HE ES       1853 49.57                             119    0.50 8  233 234 
 NOR  HZ I        1853 51.62         3.6 0.14            121            233 234 
 CHI  HZ EP       1853 23.18                             118   -0.14 8  248 195 
 CHI  HN ES       1853 52.61                             118   -0.17 8  248 195 
 CHI  HZ I        1853 58.35         4.0 0.28            120            248 195 
 DRL03HZ EP       1853 27.68                             114    0.44 7  289 353 
 DRL03HE ES       1854  0.50                             114    0.74 7  289 353 
 GUY2CHZ EP       1853 30.00                             113    0.92 7  300 235 
 GUY2CHE ES       1854  3.04                             113    0.02 7  300 235 
 GUY2CHZ I        1854 11.54         3.0 0.30                           300 235 
 PRA  HZ EP       1853 39.53                             107    0.50 6  391 209 
 PRA  HE ES       1854 20.43                             107   -0.32 6  391 209 
 PRA  HZ I        1854 25.03         3.5 0.30            109            391 209 
                                                                                
