 2015  725 1025 13.8 L   6.845 -73.146140.8  RSN 22 0.6 2.8LRSN                1
 GAP=119        1.22       2.8     4.3  5.9 -0.2012E+01  0.5243E+01 -0.4675E+00E
 Epicentro: LOS SANTOS - SANTANDER                                             3
      39.0      58.0     -62.0 14.0 20.0 27.0  0.1  0.2           RSN FPFIT    F
 ACTION:UPD 15-09-08 21:50 OP:cam  STATUS:               ID:20150725102513 L   I
 OLDACT:REG 15-07-25 20:17 OP:stll STATUS:               ID:20150725101748     3
 2015-07-25-1017-48M.COL___328                                                 6
 STAT SP IPHASW D HRMM SECON CODA AMPLIT PERI AZIMU VELO AIN AR TRES W  DIS CAZ7
 BAR2 EZ IP     D 1025 33.52                             168    0.6010 28.3 188 
 BAR2 EZ ES       1025 48.09                             168    0.2410 28.3 188 
 BAR2 EZ I        1025 49.49        75.6 0.34            165           28.3 188 
 RUS  HZ EP       1025 37.63                             141    0.2210  106 176 
 RUS  HN ES       1025 55.78                             141   -0.0710  106 176 
 RUS  HZ I        1025 57.36        62.7 0.32            139            106 176 
 CPBEREZ EP       1025 40.22                             131   -0.21 9  149 257 
 CPBEREN ES       1026  0.45                             131   -0.78 9  149 257 
 OCA  HZ EP       1025 41.30                             129    0.07 9  155 353 
 OCA  HE ES       1026  2.89                             129    0.25 9  155 353 
 OCA  HZ I        1026  8.30       112.9 0.50            124            155 353 
 ZAR  HZ EP       1025 45.88                             121    0.18 9  202 291 
 ZAR  HN ES       1026 10.20                             121   -0.40 9  202 291 
 ZAR  HZ I        1026 16.89        42.3 0.40            115            202 291 
 NOR  HZ EP       1025 49.31                             117   -0.22 8  238 233 
 NOR  HE ES       1026 17.07                             117   -0.35 8  238 233 
 NOR  HZ I        1026 22.14        43.0 0.26            112            238 233 
 SML  HZ EP     C 1025 49.74                             117    0.12 8  239 335 
 SML  HN ES       1026 17.97                             117    0.38 8  239 335 
 SML  HZ I        1026 21.72        59.1 0.10            112            239 335 
 CHI  HZ EP     C 1025 51.71                             116   -0.02 8  253 195 
 CHI  HE ES       1026 20.67                             116   -0.66 8  253 195 
 CHI  HZ I        1026 24.75        38.4 0.52            112            253 195 
 ROSC BZ EP       1025 52.32                             115    0.22 8  257 210 
 ROSC BN ES       1026 21.52                             115   -0.47 8  257 210 
 ROSC BZ I        1026 27.43        93.8 0.80            111            257 210 
 HEL  HZ EP       1025 55.03                             114    1.16 8  273 255 
 HEL  HN ES       1026 24.53                             114   -0.62 8  273 255 
 HEL  HZ I        1026 31.08        26.2 0.34            109            273 255 
 SOCV BZ EP     C 1025 55.20                             111   -1.09 7  299  58 
 SOCV BN ES   4   1026 26.99                             111   -2.47 0  299  58 
 GUY2CHZ EP       1025 57.90                             111    0.42 7  304 234 
 GUY2CHE ES       1026 32.00                             111    0.43 7  304 234 
 GUY2CHZ I        1026 43.72        24.2 0.48                           304 234 
 PTGC HZ EP   4 D 1025 56.69                             110   -1.26 0  313 159 
 PTGC HN ES   4   1026 28.79                             110   -3.61 0  313 159 
 PTGC HZ I        1026 31.88        38.4 0.32            108            313 159 
 CBOC HZ EP       1026  1.38                             109    0.72 7  335 251 
 CBOC HZ I        1026 40.84         7.1 0.18            105            335 251 
 DBB  SZ EP     C 1026  0.95                             109   -0.05 7  339 273 
 DBB  SZ I        1026 41.09        69.2 0.58            104            339 273 
 TOL  SZ EP       1026  3.09                             108    0.85 6  347 224 
 TOL  SN ES       1026 39.84                             108   -0.21 6  347 224 
 TOL  SZ I        1026 46.97        27.3 0.56            104            347 224 
 MON  HZ EP   9   1026  0.50                             108   -1.72 0  351 308 
 MON  HN ES       1026 38.10                                   -0.19 6  351 308 
 MON  HZ I        1026 55.54        11.8 0.40            104            351 308 
 ANIL HZ EP     D 1026  4.75                             107    0.95 6  361 224 
 ANIL HE ES       1026 44.18                             107    1.36 6  361 224 
 ANIL HZ I        1026 51.30        67.2 0.48            104            361 224 
 ORTC HZ EP       1026  7.75                             105   -0.25 6  399 216 
 ORTC HN ES       1026 48.77                             105   -1.52 6  399 216 
 ORTC HZ I        1026 54.86        18.2 0.34            102            399 216 
 SJC  HZ EP       1026  7.63                             105   -1.05 6  405 327 
 SJC  HN ES   4   1026 48.14                             105   -3.36 0  405 327 
 SJC  HZ I        1026 55.49         8.6 0.52            102            405 327 
 PAL  HZ EP       1026  8.82                             105   -0.25 6  408 238 
 PAL  HN ES   4   1026 51.11                             105   -1.09 0  408 238 
 PAL  HZ I        1026 57.44         9.5 0.68            101            408 238 
 SMAR HZ EP       1026 17.56                             102   -1.37 4  492 346 
 SMAR HN ES   4   1027  4.58                             102   -5.18 0  492 346 
                                                                                
