 2017 1025 1159 31.6 L   6.810 -73.133147.4  RSN 13 0.5 2.0LRSN                1
 GAP=113        1.03       3.3     3.5  5.2  0.3206E+01  0.4099E+01  0.5387E+01E
 Epicentro: LOS SANTOS - SANTANDER                                             3
 ACTION:UPD 17-11-07 19:36 OP:rebc STATUS:               ID:20171025115931 L   I
 OLDACT:REG 17-10-25 20:17 OP:dhb  STATUS:               ID:20171025114918     3
 2017-10-25-1158-00M.COL___437                                                 6
 STAT SP IPHASW D HRMM SECON CODA AMPLIT PERI AZIMU VELO AIN AR TRES W  DIS CAZ7
 BAR2 EZ IP     C 1159 51.52                             170    0.0510 24.6 193 
 BAR2 EZ ES       12 0  6.74                             170   -0.2110 24.6 193 
 BAR2 EZ I        12 0  9.30        33.4 0.26            167           24.6 193 
 BRR  HZ IP     C 1159 53.29                             153    0.3110 72.0 297 
 BRR  HN ES       12 0 10.24                             153    0.5910 72.0 297 
 BRR  HZ I        12 0 14.46        17.8 0.16            152           72.0 297 
 PAM  EZ IP       1159 54.28                             151    0.3810 75.7  39 
 PAM  EN ES       12 0 11.35                             151    0.0610 75.7  39 
 PAM  EZ I        12 0 14.72         8.4 0.33            156           75.7  39 
 RUS  HZ EP       1159 55.76                             144    0.1610  102 177 
 RUS  HE ES       12 0 14.18                             144   -0.1210  102 177 
 RUS  HZ I        12 0 15.48        13.8 0.34            143            102 177 
 PTB  HZ EP       1159 58.63                             132   -0.23 9  149 259 
 PTB  HN ES       12 0 19.22                             132   -0.89 9  149 259 
 PTB  HZ I        12 0 25.58         4.2 0.08            132            149 259 
 YPLC HZ IP     D 12 0  1.86                             127    0.31 9  177 152 
 YPLC HN ES       12 0 24.74                             127   -0.16 9  177 152 
 YPLC HZ I        12 0 26.94        11.5 0.22            128            177 152 
 ZAR  HZ EP       12 0  4.50                             123    0.24 9  205 292 
 ZAR  HN ES       12 0 29.32                             123   -0.41 9  205 292 
 ZAR  HZ I        12 0 35.28        12.0 0.36            123            205 292 
 NOR  HZ EP       12 0  7.75                             119    0.12 8  236 234 
 NOR  HN ES       12 0 35.99                             119    0.27 8  236 234 
 NOR  HZ I        12 0 41.11         5.6 0.16            119            236 234 
 CHI  HZ IP     C 12 0  9.74                             117    0.18 8  250 195 
 CHI  HE ES       12 0 39.44                             117    0.29 8  250 195 
 CHI  HZ I        12 0 45.11         4.4 0.32            118            250 195 
 URE  HZ EP       12 0 12.14                             114   -0.73 7  285 292 
 URE  HE ES   4   12 0 36.36                             114   -8.69 0  285 292 
 URE  HZ I        12 0 51.80         6.3 0.14            115            285 292 
 GUY2CHZ EP   2   12 0 16.57                             112    1.07 4  303 235 
 GUY2CHE ES   4   12 0 53.64                             112    3.91 0  303 235 
 GUY2CHZ I        12 0 57.68         5.1 0.36                           303 235 
 PTGC HZ EP       12 0 14.65                             112   -0.95 7  309 159 
 PTGC HE ES       12 0 49.18                             112   -0.72 7  309 159 
 PTGC HZ I        12 1  6.43         9.4 0.38            113            309 159 
 PRA  HZ EP       12 0 25.19                             107   -0.19 6  394 210 
 PRA  HE ES       12 1  8.39                             107    1.07 6  394 210 
 PRA  HZ I        12 1 13.67         6.9 0.40            107            394 210 
                                                                                
