 2011  425 1606 10.0 L   6.780 -73.130144.7  RSN  4 0.4 1.5LRSN                1
 GAP=238        0.81       8.0    11.1  9.7  0.4173E+02  0.3757E+01  0.5157E+01E
 Epicentro: LOS SANTOS - SANTANDER                                             3
 ACTION:UP  11-06-22 15:33 OP:REBC STATUS:               ID:20110425160610 L   I
 2011-04-25-1600-00S.MAN___127                                                 6
 STAT SP IPHASW D HRMM SECON CODA AMPLIT PERI AZIMU VELO SNR AR TRES W  DIS CAZ7
 BAR2 SZ EP   1   16 6 29.71                             171     0.2 7   22 195 
 BAR2 SZ ES   1   16 6 44.64                             171     0.0 7   22 195 
 BRR  HZ EP   1   16 6 31.62                             152     0.4 7   74 299 
 BRR  HN ES   1   16 6 47.38                             152    -0.3 7   74 299 
 BRR  HZ I        16 6 47.85         8.2 0.37                            74 299 
 RUS  HZ EP   1   16 6 32.82                             144    -0.7 7   98 177 
 RUS  HN ES   1   16 6 52.07                             144     0.3 7   98 177 
 RUS  HZ I        16 6 53.76         4.8 0.22                            98 177 
 NOR  SN ES   2   16 7 13.56                             118     0.1 4  235 235 
                                                                                
