 2011  625 1001 16.4 L   6.860 -73.274120.2  RSN  9 0.3 1.7LRSN                1
 GAP=137        0.65       3.3     5.4  5.2 -0.3413E+01  0.1064E+01 -0.1400E+01E
 Epicentro: ZAPATOCA - SANTANDER                                               3
 ACTION:UP  11-07-14 19:07 OP:ep   STATUS:               ID:20110625100116 L   I
 2011-06-25-0959-52S.COL___140                                                 6
 STAT SP IPHASW D HRMM SECON CODA AMPLIT PERI AZIMU VELO SNR AR TRES W  DIS CAZ7
 BTL  SZ EP   1   10 1 32.91                             177     0.2 7    7   6 
 BTL  SZ ES   2   10 1 45.80                             177     0.4 5    7   6 
 GIR2 SZ EP       10 1 33.05                             167     0.110   26  20 
 GIR2 SZ ES   2   10 1 45.24                             167    -0.5 5   26  20 
 BAR2 SZ EP   1   10 1 33.37                             165     0.2 7   31 161 
 BAR2 SZ ES   1   10 1 45.94                             165    -0.4 7   31 161 
 BAR2 SZ I        10 1 47.91        35.9 0.50                            31 161 
 BRR  HZ IP     C 10 1 33.74                             153    -0.210   56 300 
 BRR  HZ I        10 1 34.13        13.9 0.05                            56 300 
 BRR  HE ES   1   10 1 48.02                             153     0.4 7   56 300 
 RUS  HZ EP   1   10 1 38.28                             135    -0.2 7  109 169 
 RUS  HZ I        10 1 38.98         3.1 0.18                           109 169 
 RUS  HN ES   2   10 1 56.08                             135     0.4 5  109 169 
 GRA  SZ EP   1   10 1 39.72                             131     0.3 7  125  25 
 GRA  SZ ES   2   10 1 56.87                             131    -0.5 5  125  25 
 GRA  SZ I        10 2  7.83         5.6 0.18                           125  25 
 OCA  SZ EP   1   10 1 41.88                             125    -0.2 7  153 358 
 OCA  SZ ES   2   10 2  2.16                             125     0.0 5  153 358 
 OCA  SZ I        10 2  6.19        13.7 0.33                           153 358 
 NOR  SN ES   2   10 2 15.63                             113    -0.5 4  227 231 
 RREF HE ES   2   10 2 35.73                             106     0.2 3  316 227 
 RREF HZ I        10 2 41.00         1.8 0.38                           316 227 
                                                                                
