 2015 1225 1101 26.2 L   6.269 -73.893 93.2  RSN  8 0.4 1.4LRSN                1
 GAP=131        0.99       3.3     3.1  7.1 -0.3508E+01  0.7795E+01 -0.3678E+01E
 Epicentro: CIMITARRA - SANTANDER                                              3
 ACTION:UPD 16-02-04 15:07 OP:cam  STATUS:               ID:20151225110126 L   I
 OLDACT:REG 15-12-25 20:41 OP:cara STATUS:               ID:20151225105747     3
 2015-12-25-1057-47M.COL___334                                                 6
 STAT SP IPHASW D HRMM SECON CODA AMPLIT PERI AZIMU VELO AIN AR TRES W  DIS CAZ7
 PTB  HZ IP       11 1 41.32                             141   -0.5010 69.1 296 
 PTB  HN ES       11 1 53.79                             141   -0.2510 69.1 296 
 PTB  HZ I        11 1 54.97         7.7 0.52            142           69.1 296 
 SPBC HZ IP       11 1 42.34                             140    0.2610 71.1 196 
 SPBC HN ES       11 1 55.00                             140    0.5010 71.1 196 
 SPBC HZ I        11 1 56.50        10.2 0.36            142           71.1 196 
 BAR2 EZ IP       11 1 43.80                             134    0.2310 86.3  66 
 BAR2 EZ ES       11 1 56.57                             134   -0.5710 86.3  66 
 BAR2 EZ I        11 2  0.10         6.1 0.58            137           86.3  66 
 BRR  HZ IP       11 1 44.10                             131    0.0910 94.8  12 
 BRR  HN ES       11 1 58.40                             131    0.4610 94.8  12 
 BRR  HZ I        11 1 59.40         9.1 0.14            133           94.8  12 
 NOR  HE ES       11 2  4.42                             121   -0.5410  133 234 
 NOR  HZ I        11 2  7.17         4.1 0.22            123            133 234 
 ZAR  HZ EP       11 1 52.15                             114   -0.02 9  172 322 
 ZAR  HN ES       11 2 12.61                             114    0.15 9  172 322 
 ZAR  HZ I        11 2 15.76         3.4 0.28            115            172 322 
 HEL  HZ EP       11 1 53.07                             113   -0.58 9  181 267 
 HEL  HZ EPg      11 1 53.94                             113    0.29 9  181 267 
 HEL  HN ES       11 2 15.34                             113    0.25 9  181 267 
 HEL  HZ I        11 2 18.03         2.0 0.26            114            181 267 
 CBOC HE ES       11 2 26.87                             107    0.30 8  239 259 
 CBOC HZ I        11 2 29.95         1.6 0.42            108            239 259 
                                                                                
