 2015  125 1953 58.9 L   6.817 -73.290126.2  RSN  4 0.2 0.8LRSN                1
 GAP=137        0.67       3.3     4.7  5.4  0.2649E+00 -0.2066E+01  0.1105E+01E
 Epicentro: ZAPATOCA - SANTANDER                                               3
 ACTION:UPD 15-03-02 15:42 OP:nd   STATUS:               ID:20150125195358 L   I
 OLDACT:DUP 15-01-26 01:29 OP:carl STATUS:               ID:20150125194748d    3
 2015-01-25-1947-47M.COL___271                                                 6
 STAT SP IPHASW D HRMM SECON CODA AMPLIT PERI AZIMU VELO AIN AR TRES W  DIS CAZ7
 BAR2 EZ EP       1954 16.57                             167    0.2710 27.5 154 
 BAR2 EZ ES       1954 30.26                             167    0.3910 27.5 154 
 BRR  HZ EP       1954 17.12                             154   -0.0110 56.6 305 
 BRR  HN ES       1954 31.17                             154   -0.1710 56.6 305 
 PAM  SZ EP       1954 19.66                             143   -0.1110 87.2  48 
 PAM  SN ES       1954 35.95                             143   -0.0910 87.2  48 
 PAM  SZ I        1954 39.15         1.7 0.28            143           87.2  48 
 RUS  HZ EP       1954 21.26                             138    0.1310  105 167 
 RUS  HN ES       1954 38.05                             138   -0.4110  105 167 
 RUS  HZ I        1954 41.49         0.8 0.62            138            105 167 
                                                                                
