 2015  225 1703 30.4 L   6.825 -73.192140.5  RSN  7 0.3 2.1LRSN                1
 GAP=130        0.84       3.1     4.0  5.8 -0.4191E+01  0.1016E+02 -0.4111E+01E
 Epicentro: ZAPATOCA - SANTANDER                                               3
 ACTION:UPD 15-04-30 21:29 OP:nd   STATUS:               ID:20150225170330 L   I
 OLDACT:REG 15-02-25 20:47 OP:carl STATUS:               ID:20150225165747     3
 2015-02-25-1657-47M.COL___302                                                 6
 STAT SP IPHASW D HRMM SECON CODA AMPLIT PERI AZIMU VELO AIN AR TRES W  DIS CAZ7
 BAR2 EZ EP       17 3 49.51                             169    0.0810 25.8 178 
 BAR2 EZ ES       17 4  4.41                             169    0.1210 25.8 178 
 BAR2 EZ I        17 4  5.56        43.9 0.18            170           25.8 178 
 PAM  SZ EP       17 3 52.37                             149    0.2610 78.7  44 
 PAM  SN ES       17 4  9.43                             149    0.3610 78.7  44 
 PAM  SZ I        17 4 11.67        19.3 0.48            152           78.7  44 
 RUS  HZ EP       17 3 53.53                             142   -0.3310  104 173 
 RUS  HN ES       17 4 11.66                             142   -0.5110  104 173 
 RUS  HZ I        17 4 13.23        14.3 0.26            144            104 173 
 PTB  HZ EP       17 3 56.29                             132   -0.22 9  143 257 
 PTB  HN ES       17 4 16.95                             132    0.05 9  143 257 
 PTB  HZ I        17 4 19.57        19.5 0.18            133            143 257 
 SPBC HZ EP       17 3 58.70                             128    0.32 9  162 217 
 SPBC HN ES       17 4 20.00                             128   -0.23 9  162 217 
 SPBC HZ I        17 4 24.19        20.1 0.14            130            162 217 
 NOR  HZ EP       17 4  5.73                             118    0.19 8  232 233 
 NOR  HN ES       17 4 33.55                             118    0.59 8  232 233 
 NOR  HZ I        17 4 35.44        10.3 0.16            119            232 233 
 SML  HZ EP       17 4  6.23                             117    0.03 8  239 336 
 SML  HN ES       17 4 33.48                             117   -0.67 8  239 336 
                                                                                
