 2013  325 1252 25.7 L   6.538 -74.022 22.7  RSN  4 0.4 1.2LRSN                1
 GAP=133        0.92       4.8     2.5  5.4 -0.5634E+01 -0.6485E+01  0.1992E+02E
 Epicentro: PUERTO PARRA - SANTANDER                                           3
 ACTION:UPD 13-04-09 14:04 OP:ep   STATUS:               ID:20130325125225 L   I
 2013-03-25-1250-00M.COL___244                                                 6
 STAT SP IPHASW D HRMM SECON CODA AMPLIT PERI AZIMU VELO AIN AR TRES W  DIS CAZ7
 PTB  HZ EP       1252 34.15                             113   -0.0610 48.1 270 
 PTB  HN ES       1252 40.71                             113   -0.1110 48.1 270 
 PTB  HN I        1252 40.88        20.5 0.18            111           48.1 270 
 BRR  HZ EP       1252 37.38                             105   -0.1910 71.6  29 
 BRR  HE ES       1252 46.83                             105    0.0410 71.6  29 
 BRR  HE I        1252 47.08         6.7 0.18            104           71.6  29 
 RUS  HZ EP       1252 46.14                              56    0.4010  126 124 
 RUS  HN ES       1253  0.97                              56   -0.3710  126 124 
 RUS  HN I        1253  2.01         3.8 0.20             56            126 124 
 HEL  HZ EP       1252 51.99                              56    0.76 9  171 257 
 HEL  HN ES       1253 10.69                              56   -0.42 9  171 257 
 HEL  HN I        1253 11.91         3.7 0.28             56            171 257 
                                                                                
