 2016  825 1812  8.5 L   6.789 -73.151144.0  RSN 10 0.5 2.0LRSN                1
 GAP=136        1.13       4.1     4.8  6.5  0.1770E+00  0.7784E+01  0.4826E+01E
 Epicentro: LOS SANTOS - SANTANDER                                             3
 ACTION:UPD 16-10-29 15:39 OP:rebc STATUS:               ID:20160825181208 L   I
 OLDACT:UP  16-08-25 23:49 OP:dani STATUS:               ID:20160825180759     3
 OLDACT:REG 16-08-25 23:20 OP:cara STATUS:               ID:20160825180759     3
 2016-08-25-1807-59S.COL___349                                                 6
 STAT SP IPHASW D HRMM SECON CODA AMPLIT PERI AZIMU VELO AIN AR TRES W  DIS CAZ7
 BAR2 EZ EP       1812 27.81                             171   -0.1210 22.0 189 
 BAR2 EZ ES       1812 43.22                             171    0.1610 22.0 189 
 BAR2 EZ I        1812 44.55        19.6 0.28                          22.0 189 
 BRR  HZ EP       1812 29.59                             152    0.0910 71.2 300 
 BRR  HN ES       1812 46.66                             152    0.8110 71.2 300 
 BRR  HZ I        1812 49.72        20.6 0.42                          71.2 300 
 PAM  EZ EP       1812 30.61                             150   -0.0410 78.7  39 
 PAM  EE ES       1812 47.59                             150   -0.3010 78.7  39 
 PAM  EZ I        1812 49.60        21.4 0.54                          78.7  39 
 RUS  HZ EP       1812 31.95                             144   -0.0810 99.4 176 
 RUS  HN ES       1812 50.25                             144   -0.1110 99.4 176 
 RUS  HZ I        1812 52.43        12.1 0.20                          99.4 176 
 PTB  HZ EP       1812 34.46                             132   -0.82 9  147 259 
 PTB  HE ES       1812 55.72                             132   -0.43 9  147 259 
 PTB  HZ I        1812 59.14        12.0 0.30                           147 259 
 SPBC HZ EP       1812 36.34                             129   -0.44 9  162 219 
 SPBC HE ES       1812 58.43                             129   -0.37 9  162 219 
 SPBC HZ I        1813  5.78        19.7 0.40                           162 219 
 ZAR  HZ EP       1812 41.58                             122    0.73 9  204 293 
 ZAR  HN ES       1813  5.98                             122   -0.08 9  204 293 
 ZAR  HZ I        1813 11.64        10.7 0.17                           204 293 
 NOR  HZ EP       1812 44.01                             118   -0.02 8  233 235 
 NOR  HE ES   4   1813 10.15                             118   -1.57 0  233 235 
 NOR  HZ I        1813 17.89         8.7 0.28                           233 235 
 CHI  HZ EP       1812 46.46                             117    0.46 8  247 195 
 CHI  HN ES       1813 16.16                             117    0.95 8  247 195 
 CHI  HZ I        1813 19.51         4.6 0.34                           247 195 
 GUY2CHZ EP   4   1812 53.46                             112    1.53 0  300 235 
 GUY2CHN ES   4   1813 28.04                             112    2.27 0  300 235 
 GUY2CHZ I        1813 35.81         4.2 0.59                           300 235 
 PRA  HZ EP   4   1813  0.68                             106   -1.16 0  391 210 
                                                                                
