 2016  225 1510 33.5 L   6.778 -73.164142.5  RSN  7 0.4 1.9LRSN                1
 GAP=135        0.88       3.9     3.8  6.3 -0.3516E+01  0.8683E+01  0.2925E+00E
 Epicentro: LOS SANTOS - SANTANDER                                             3
 ACTION:UPD 16-03-04 21:29 OP:rebc STATUS:               ID:20160225151033 L   I
 OLDACT:REG 16-02-25 20:55 OP:drio STATUS:               ID:20160225150748     3
 2016-02-25-1507-48M.COL___313                                                 6
 STAT SP IPHASW D HRMM SECON CODA AMPLIT PERI AZIMU VELO AIN AR TRES W  DIS CAZ7
 BAR2 EZ EP       1510 52.51                             171   -0.1310 20.6 185 
 BAR2 EZ ES       1511  7.25                             171   -0.3610 20.6 185 
 BAR2 EZ I        1511  8.93        25.8 0.68            170           20.6 185 
 PAM  EZ EP       1510 55.46                             149   -0.0610 80.6  40 
 PAM  EN ES       1511 12.73                             149   -0.0110 80.6  40 
 PAM  EZ I        1511 14.70        26.7 0.54            154           80.6  40 
 RUS  HZ EP       1510 56.58                             144   -0.1410 98.3 175 
 RUS  HE ES       1511 15.49                             144    0.6210 98.3 175 
 RUS  HZ I        1511 16.81         4.7 0.44            147           98.3 175 
 PTB  HZ EP       1510 59.71                             132   -0.22 9  145 260 
 PTB  HE ES       1511 20.34                             132   -0.24 9  145 260 
 PTB  HZ I        1511 27.52         8.0 0.48            132            145 260 
 SPBC HZ EP       1511  1.54                             129    0.14 9  160 219 
 SPBC HE ES       1511 23.36                             129    0.17 9  160 219 
 SPBC HZ I        1511 28.17        13.2 0.34            130            160 219 
 ZAR  HZ EP   4   1511  6.95                             122    1.36 0  203 293 
 ZAR  HN ES       1511 31.37                             122    0.72 9  203 293 
 ZAR  HZ I        1511 37.28        12.5 0.36            123            203 293 
 NOR  HZ EP       1511  8.85                             118    0.19 8  232 235 
 NOR  HE ES       1511 35.48                             118   -0.64 8  232 235 
 NOR  HZ I        1511 42.00         5.7 0.16            120            232 235 
                                                                                
