 2012  625 1942 43.6 L   6.728 -73.205152.0  RSN  4 0.1 1.8LRSN                1
 GAP=224        0.36       5.5     4.8  5.7  0.1156E+02  0.4760E-01  0.1493E+02E
 Epicentro: VILLANUEVA - SANTANDER                                             3
 ACTION:UPD 12-08-06 17:52 OP:ep   STATUS:               ID:20120625194243 L   I
 2012-06-25-1940-00M.COL___199                                                 6
 STAT SP IPHASW D HRMM SECON CODA AMPLIT PERI AZIMU VELO AIN AR TRES W  DIS CAZ7
 BAR2 SZ I        1943  2.79         8.8 0.26                          15.2 170 
 BAR2 SZ ES   3   1943 19.18                             174   -0.42 2 15.2 170 
 BRR  HZ EP       1943  5.21                             154   -0.1110 69.9 307 
 BRR  HZ I        1943  6.61        21.0 0.14                          69.9 307 
 BRR  HN ES   1   1943 22.47                             154    0.18 7 69.9 307 
 RUS  HZ EP       1943  7.49                             147    0.0510 93.4 172 
 PTB  HZ EP       1943 10.34                             135   -0.01 9  140 261 
 PTB  HN ES   2   1943 31.20                             135   -0.05 5  140 261 
                                                                                
