 2014 1025 1144  3.0 L   6.816 -73.155149.5  RSN  7 0.3 1.3LRSN                1
 GAP=135        0.82       3.8     4.2  5.7 -0.3026E+01  0.2280E+01  0.5383E+01E
 Epicentro: LOS SANTOS - SANTANDER                                             3
 ACTION:UPD 14-11-29 23:56 OP:nd   STATUS:               ID:20141025114403 L   I
 OLDACT:REG 14-10-28 18:54 OP:spq  STATUS:               ID:20141025113735     3
 2014-10-25-1137-35M.COL___283                                                 6
 STAT SP IPHASW D HRMM SECON CODA AMPLIT PERI AZIMU VELO AIN AR TRES W  DIS CAZ7
 BAR2 SZ EP   1   1144 23.06                             170   -0.08 7 24.9 187 
 BAR2 SZ ES   1   1144 38.67                             170   -0.16 7 24.9 187 
 BAR2 SZ I        1144 39.67         3.2 0.16            168           24.9 187 
 BRR  HZ EP       1144 24.88                             154    0.4010 69.4 298 
 BRR  HN ES       1144 41.44                             154    0.2210 69.4 298 
 BRR  HZ I        1144 44.76         9.7 0.36            154           69.4 298 
 PAM  SZ EP     C 1144 25.95                             152    0.3510 76.7  41 
 PAM  SE ES       1144 42.85                             152   -0.3610 76.7  41 
 PAM  SZ I        1144 45.23         2.1 0.35            156           76.7  41 
 RUS  HZ EP       1144 27.42                             144    0.1510  102 176 
 RUS  HE ES       1144 46.18                             144   -0.0110  102 176 
 RUS  HZ I        1144 47.59         2.0 0.32            144            102 176 
 PTB  HZ EP       1144 29.69                             133   -0.55 9  147 258 
 PTB  HE ES       1144 51.46                             133   -0.00 9  147 258 
 PTB  HZ I        1144 53.55         2.9 0.08            134            147 258 
 SPBC HZ EP       1144 31.24                             130   -0.64 9  164 218 
 SPBC HE ES   1   1144 54.74                             130    0.36 7  164 218 
 SPBC HZ I        1145  0.18         4.5 0.18            130            164 218 
 CHI  HZ EP   1   1144 41.61                             118    0.53 6  250 195 
 CHI  HE ES   1   1145 10.91                             118    0.14 6  250 195 
 CHI  HZ I        1145 17.17         1.6 0.50            119            250 195 
                                                                                
