 2017  325 1432 50.3 L   6.755 -73.208147.4  RSN  5 0.3 1.6LRSN                1
 GAP=226        0.82       6.2     5.6  6.0  0.2171E+02  0.4761E+01 -0.2483E+01E
 Epicentro: ZAPATOCA - SANTANDER                                               3
 ACTION:UPD 17-05-25 18:45 OP:jn   STATUS:               ID:20170325143250 L   I
 OLDACT:UP  17-03-25 18:48 OP:dani STATUS:               ID:20170325142708     3
 OLDACT:REG 17-03-25 16:58 OP:dani STATUS:               ID:20170325142708     3
 2017-03-25-1428-00M.COL___373                                                 6
 STAT SP IPHASW D HRMM SECON CODA AMPLIT PERI AZIMU VELO AIN AR TRES W  DIS CAZ7
 BAR2 EZ EP       1433  9.55                             173   -0.4910 18.2 171 
 BAR2 EZ ES       1433 25.28                             173   -0.1510 18.2 171 
 BAR2 EZ I        1433 26.98         8.9 0.30            170           18.2 171 
 BRR  HZ EP       1433 11.49                             154    0.0410 67.9 305 
 BRR  HN ES       1433 28.15                             154    0.2110 67.9 305 
 BRR  HZ I        1433 33.65         7.3 0.21            151           67.9 305 
 RUS  HZ EP       1433 14.24                             145    0.3310 96.4 172 
 RUS  HE ES       1433 32.53                             145    0.2010 96.4 172 
 RUS  HZ I        1433 33.30         4.3 0.23            148           96.4 172 
 PTB  HZ EP       1433 16.19                             134   -0.53 9  140 260 
 PTB  HE ES       1433 37.28                             134   -0.04 9  140 260 
 PTB  HZ I        1433 44.65         5.9 0.30            133            140 260 
 ZAR  HZ EP       1433 22.92                             123    0.52 9  200 294 
 ZAR  HN ES       1433 47.41                             123   -0.03 9  200 294 
 ZAR  HZ I        1433 53.48         5.0 0.47            124            200 294 
                                                                                
