 2014 1025 1019 53.8 L   6.673 -73.159145.9  RSN  4 0.3 1.1LRSN                1
 GAP=226        0.83       7.6     6.6  7.9  0.2197E+02  0.3425E+01 -0.4212E+00E
 Epicentro: VILLANUEVA - SANTANDER                                             3
 ACTION:UPD 14-11-29 23:56 OP:nd   STATUS:               ID:20141025101953 L   I
 OLDACT:REG 14-10-28 18:43 OP:spq  STATUS:               ID:20141025101740     3
 2014-10-25-1017-40M.COL___283                                                 6
 STAT SP IPHASW D HRMM SECON CODA AMPLIT PERI AZIMU VELO AIN AR TRES W  DIS CAZ7
 BAR2 SZ EP   1   1020 12.81                             176   -0.41 7 9.35 196 
 BAR2 SZ ES   1   1020 28.39                             176    0.01 7 9.35 196 
 BAR2 SZ I        1020 30.37         2.3 0.40            172           9.35 196 
 BRR  HZ EP       1020 15.32                             150    0.0110 77.7 308 
 BRR  HE ES   1   1020 32.25                             150    0.14 7 77.7 308 
 BRR  HZ I        1020 36.05         5.1 0.28            150           77.7 308 
 RUS  HZ EP       1020 17.18                             148    0.5910 86.8 174 
 RUS  HN ES   1   1020 33.95                             148   -0.43 7 86.8 174 
 RUS  HZ I        1020 36.41         1.1 0.50            150           86.8 174 
 PTB  HZ EP       1020 20.00                             133   -0.43 9  144 264 
 PTB  HN ES       1020 41.40                             133    0.18 9  144 264 
 PTB  HZ I        1020 47.03         1.6 0.18            133            144 264 
                                                                                
