 2013  725 1420  1.3 L   6.371 -73.564110.5  RSN  7 0.4 2.7LRSN                1
 GAP=146        0.95       4.0     3.8  8.3  0.1683E+01  0.8331E+01 -0.9256E+01E
 Epicentro: SANTA HELENA DEL OPON - SANTANDER                                  3
 ACTION:UPD 13-08-12 10:40 OP:ep   STATUS:               ID:20130725142001 L   I
 OLDACT:UP  13-07-25 21:18 OP:mh   STATUS:               ID:20130725141848     3
 OLDACT:UP  13-07-25 21:18 OP:mh   STATUS:               ID:20130725141848     3
 OLDACT:REG 13-07-25 20:24 OP:mh   STATUS:               ID:20130725141848     3
 2013-07-25-1418-48M.COL___228                                                 6
 STAT SP IPHASW D HRMM SECON CODA AMPLIT PERI AZIMU VELO AIN AR TRES W  DIS CAZ7
 RUS  HZ IP     D 1420 19.96                             144    0.2110 75.0 135 
 RUS  HN ES       1420 34.15                             144    0.0210 75.0 135 
 RUS  HN I        1420 35.16        34.0 0.20            149           75.0 135 
 BRR  HZ EP   1   1420 20.28                             140    0.63 7 83.0 349 
 SPBC HZ EP   1   1420 20.79                             135   -0.17 7 97.4 215 
 SPBC HN ES       1420 36.13                             135   -0.1710 97.4 215 
 SPBC HN I        1420 42.58       169.5 0.12            138           97.4 215 
 PTB  HZ EP       1420 20.49                             134   -0.6310  100 281 
 PTB  HN ES       1420 36.64                             134    0.0610  100 281 
 PTB  HN I        1420 37.44       177.4 0.34            137            100 281 
 NOR  HZ EP   1   1420 27.29                             118   -0.75 7  170 238 
 NOR  HN ES       1420 48.79                             118   -0.10 9  170 238 
 NOR  HN I        1420 50.70       160.4 0.20            122            170 238 
 ZAR  HZ EP       1420 30.21                             115    0.12 9  189 311 
 ZAR  HE ES       1420 52.52                             115   -0.02 9  189 311 
 ZAR  HZ I        1420 57.22        42.5 0.42            119            189 311 
 GUY2CHZ EP   1   1420 35.94                             110   -0.05 6  236 238 
 GUY2CHE ES       1421  3.99                             110    0.95 8  236 238 
                                                                                
