 2011  225 1107 14.1 L   6.805 -73.188138.0  RSN  4 0.2 1.5LRSN                1
 GAP=185        0.43       3.1    14.9  4.7 -0.3493E+02  0.1838E+02 -0.4947E+01E
 Epicentro: ZAPATOCA - SANTANDER                                               3
 ACTION:UP  11-03-28 15:11 OP:jfem STATUS:               ID:20110225110714 L   I
 2011-02-25-1105-52S.COL___137                                                 6
 STAT SP IPHASW D HRMM SECON CODA AMPLIT PERI AZIMU VELO SNR AR TRES W  DIS CAZ7
 BAR2 SZ IP       11 7 32.84                             170     0.110   24 179 
 BAR2 SZ ES   1   11 7 47.44                             170     0.1 7   24 179 
 BAR2 SZ I        11 7 49.00        13.8 0.24                            24 179 
 RUS  HZ EP       11 7 36.93                             142    -0.210  102 173 
 RUS  HZ I        11 7 38.17         4.5 0.17                           102 173 
 RUS  HE ES       11 7 55.27                             142     0.110  102 173 
 GRA  SZ IP       11 7 38.72                             135     0.010  127  20 
 GRA  SZ ES   1   11 7 57.94                             135     0.0 7  127  20 
 GRA  SZ I        11 8  0.14         5.1 0.22                           127  20 
 CHI  HZ EP   3   11 7 52.03                             115     0.7 2  248 194 
 CHI  HZ I        11 7 52.30         1.6 0.37                           248 194 
 CHI  HN ES   2   11 8 20.18                             115    -0.1 4  248 194 
                                                                                
