 2012 1125 1016 45.3 L   6.861 -73.135134.9  RSN  4 0.4 1.3LRSN                1
 GAP=247        0.73       9.9     7.9 11.4  0.4430E+02  0.2440E+02 -0.2627E+02E
 Epicentro: LOS SANTOS - SANTANDER                                             3
 ACTION:UPD 12-12-05 15:36 OP:}ep  STATUS:               ID:20121125101645 L   I
 2012-11-25-1010-00M.COL___233                                                 6
 STAT SP IPHASW D HRMM SECON CODA AMPLIT PERI AZIMU VELO AIN AR TRES W  DIS CAZ7
 BAR2 SZ EP   1   1017  4.07                             167    0.28 7 30.2 190 
 BAR2 SZ ES   1   1017 17.84                             167   -0.38 7 30.2 190 
 BAR2 SZ I        1017 22.72         6.0 0.48                          30.2 190 
 RUS  HN ES   1   1017 26.94                             139    0.32 7  107 177 
 PTB  HZ EP   1   1017 11.06                             129   -0.59 7  150 256 
 PTB  HN ES   1   1017 32.16                             129   -0.04 7  150 256 
 PTB  HZ I        1017 34.20         3.8 0.80                           150 256 
 ZAR  HE ES   1   1017 42.02                             120    0.44 6  203 290 
 ZAR  HZ I        1017 51.28         1.0 0.27                           203 290 
                                                                                
