 2017  625 1117  0.2 L   6.651 -73.205139.5  RSN  4 0.4 1.5LRSN                1
 GAP=207        1.01       7.3     7.4  9.5  0.7993E+01  0.3192E+02  0.2324E+02E
 Epicentro: BARICHARA - SANTANDER                                              3
 ACTION:UPD 17-09-14 16:55 OP:jn   STATUS:               ID:20170625111700 L   I
 OLDACT:UP  17-06-25 21:08 OP:lv   STATUS:               ID:20170625110739     3
 OLDACT:REG 17-06-25 19:58 OP:lv   STATUS:               ID:20170625110739     3
 2017-06-25-1108-00M.COL___343                                                 6
 STAT SP IPHASW D HRMM SECON CODA AMPLIT PERI AZIMU VELO AIN AR TRES W  DIS CAZ7
 BAR2 EZ EP       1117 18.76                             177   -0.1410 7.00 159 
 BAR2 EZ ES       1117 33.33                             177   -0.1210 7.00 159 
 BAR2 EZ I        1117 35.35        12.7 0.16            172           7.00 159 
 BRR  HZ EP       1117 20.58                             150   -0.3910 75.4 312 
 BRR  HN ES       1117 37.65                             150    0.5110 75.4 312 
 ZAR  HZ EP   4   1117 34.36                             121    1.98 0  205 297 
 ZAR  HE ES       1117 57.17                             121   -0.28 9  205 297 
 NOR  HZ EP       1117 34.85                             119    0.81 8  220 237 
 NOR  HN ES       1118  0.08                             119   -0.31 8  220 237 
 NOR  HZ I        1118  5.40         1.6 0.28            119            220 237 
                                                                                
