 2015 1125 1716 53.7 L   6.491 -73.515107.7  RSN 10 0.3 1.9LRSN                1
 GAP=141        0.74       2.8     3.6  5.8 -0.1909E+01  0.1206E+02  0.2305E+01E
 Epicentro: SANTA HELENA DEL OPON - SANTANDER                                  3
 ACTION:UPD 15-12-28 16:13 OP:cam  STATUS:               ID:20151125171653 L   I
 OLDACT:UP  15-11-26 00:16 OP:ak   STATUS:               ID:20151125170744     3
 OLDACT:REG 15-11-25 21:10 OP:ak   STATUS:               ID:20151125170744     3
 2015-11-25-1707-44M.COL___310                                                 6
 STAT SP IPHASW D HRMM SECON CODA AMPLIT PERI AZIMU VELO AIN AR TRES W  DIS CAZ7
 BAR2 EZ IP     D 1717  9.42                             159    0.1310 38.4  73 
 BAR2 EZ ES       1717 21.69                             159    0.2310 38.4  73 
 BAR2 EZ I        1717 23.08        29.9 0.40            162           38.4  73 
 BRR  HZ EP       1717 10.29                             144   -0.6010 71.6 342 
 BRR  HE ES       1717 24.32                             144    0.0010 71.6 342 
 BRR  HZ I        1717 26.89         9.6 0.14            146           71.6 342 
 PTB  HZ EP   4   1717 12.21                             132   -1.38 0  104 273 
 PTB  HN ES   4   1717 27.02                             132   -2.11 0  104 273 
 PTB  HZ I        1717 28.58        26.9 0.07            133            104 273 
 SPBC HZ EP       1717 14.15                             130   -0.2010  111 214 
 SPBC HE ES       1717 30.50                             130    0.0310  111 214 
 SPBC HZ I        1717 32.49        31.4 0.10            131            111 214 
 NOR  HZ EP   1   1717 21.45                             116   -0.08 7  182 236 
 NOR  HN ES       1717 42.70                             116   -0.55 9  182 236 
 NOR  HZ I        1717 44.98         7.7 0.18            116            182 236 
 ZAR  HZ EP   1   1717 22.16                             115    0.30 7  185 307 
 ZAR  HN ES       1717 44.01                             115    0.16 9  185 307 
 ZAR  HZ I        1717 46.07        17.3 0.42            116            185 307 
 HEL  HZ EP       1717 26.97                             110    0.13 8  225 262 
 HEL  HE ES       1717 52.74                             110    0.04 8  225 262 
 HEL  HZ I        1717 54.61         5.9 0.36            111            225 262 
 GUY2CHZ EP       1717 29.92                             108    0.31 8  248 236 
 GUY2CHN ES       1717 58.11                             108    0.48 8  248 236 
 GUY2CHZ I        1718  1.91         5.5 0.38                           248 236 
 ELA  HZ EP   4   1717 36.87                             106    3.96 0  276 229 
 ELA  HN ES   4   1718  6.13                             106    2.62 0  276 229 
 ELA  HZ I        1718 11.99         4.5 0.56            107            276 229 
 MON  HZ EP   4   1717 38.70                             101   -1.97 0  347 317 
 MON  HN ES   4   1718 15.22                             101   -2.11 0  347 317 
 MON  HZ I        1718 17.26         2.7 0.24            102            347 317 
                                                                                
