 2012 1025 1421 48.1 L   6.708 -73.093143.4  RSN  4 0.1 1.7LRSN                1
 GAP=186        0.34       4.5     3.1  3.6 -0.2185E+01 -0.2183E+01  0.7940E+00E
 Epicentro: JORDAN - SANTANDER                                                 3
 ACTION:UPD 12-11-22 17:05 OP:ep   STATUS:               ID:20121025142148 L   I
 2012-10-25-1420-00M.COL___234                                                 6
 STAT SP IPHASW D HRMM SECON CODA AMPLIT PERI AZIMU VELO AIN AR TRES W  DIS CAZ7
 BAR2 SZ EP   1   1422  7.49                             173    0.18 7 16.2 218 
 BAR2 SZ ES   1   1422 22.20                             173   -0.10 7 16.2 218 
 BAR2 SZ I        1422 24.19        13.1 0.35                          16.2 218 
 GIR2 SZ EP   2   1422  7.81                             163   -0.03 5 42.5 345 
 BRR  HZ EP       1422  9.47                             149   -0.1310 81.5 303 
 BRR  HZ I        1422  9.95        10.4 0.11                          81.5 303 
 BRR  HN ES       1422 26.45                             149    0.0710 81.5 303 
 PAM  SZ EP       1422 10.38                             149    0.0310 82.2  32 
 PAM  SZ I        1422 10.89         5.7 0.23                          82.2  32 
 PAM  SN ES   1   1422 27.69                             149   -0.03 7 82.2  32 
                                                                                
