 2012 1225 1822 54.1 L   6.736 -73.176150.7  RSN  7 0.2 2.3LRSN                1
 GAP=177        0.55       3.7     3.5  3.9  0.5159E+01  0.2294E+01 -0.1062E+01E
 Epicentro: VILLANUEVA - SANTANDER                                             3
 ACTION:UPD 13-01-04 14:30 OP:ep   STATUS:               ID:20121225182254 L   I
 2012-12-25-1820-00M.COL___242                                                 6
 STAT SP IPHASW D HRMM SECON CODA AMPLIT PERI AZIMU VELO AIN AR TRES W  DIS CAZ7
 BAR2 SZ EP       1823 14.23                             174    0.0610 15.9 182 
 BAR2 SZ ES       1823 29.57                             174   -0.2810 15.9 182 
 BAR2 SZ I        1823 30.95        45.5 0.43                          15.9 182 
 GIR2 SZ EP       1823 14.30                             165   -0.2210 38.0 357 
 BRR  HZ IP     C 1823 16.12                             153    0.3210 72.1 305 
 BRR  HZ I        1823 16.42        49.6 0.25                          72.1 305 
 BRR  HE ES       1823 33.03                             153    0.2810 72.1 305 
 RUS  HZ EP   1   1823 18.15                             147    0.30 7 93.8 174 
 RUS  HE ES       1823 36.35                             147   -0.0410 93.8 174 
 PTB  HZ EP     C 1823 20.93                             134   -0.11 9  143 261 
 PTB  HN ES       1823 42.12                             134    0.04 9  143 261 
 PTB  HZ I        1823 49.48        21.9 0.44                           143 261 
 ZAR  HZ EP   1   1823 26.62                             123   -0.19 6  204 294 
 ZAR  HE ES   1   1823 52.04                             123   -0.31 6  204 294 
 ZAR  HZ I        1823 59.30        18.0 0.48                           204 294 
 NOR  HZ EP   1   1823 29.33                             120   -0.04 6  228 235 
 NOR  HZ I        1824  4.39         9.3 0.21                           228 235 
                                                                                
