 2010  825 1334 47.6 L   6.786 -73.060140.7  RSN  8 0.3 2.3LRSN                1
 GAP=168        0.76       3.5     6.4  6.1 -0.5546E+01 -0.7808E+01  0.1345E+01E
 Epicentro: LOS SANTOS - SANTANDER                                             3
 ACTION:UP  10-09-07 10:58 OP:vdl  STATUS:               ID:20100825133447 L   I
 2010-08-25-1331-10S.COL___121                                                 6
 STAT SP IPHASW D HRMM SECON CODA AMPLIT PERI AZIMU VELO SNR AR TRES W  DIS CAZ7
 BAR2 SZ EP       1335  6.75                             170     0.110   25 212 
 BAR2 SZ ES   1   1335 20.77                             170    -0.7 7   25 212 
 BAR2 SZ I        1335 23.06        57.5 0.04                            25 212 
 GIR2 SZ EP   1   1335  6.84                             165     0.1 7   36 336 
 BRR  HZ EP       1335  8.55                             149    -0.210   80 296 
 BRR  HN ES       1335 25.60                             149     0.410   80 296 
 RUS  HZ EP       1335 10.76                             143     0.110   99 181 
 RUS  HZ I        1335 11.76        15.4 0.13                            99 181 
 RUS  HN ES   1   1335 29.12                             143     0.4 7   99 181 
 GUE  SZ EP       1335 11.71                             138    -0.110  116   7 
 GRA  SZ EP       1335 12.52                             136     0.210  125  13 
 GRA  SZ ES   1   1335 31.26                                    -0.3 7  125  13 
 GRA  SZ I        1335 33.37        19.3 0.56                           125  13 
 RREF HZ EP   2   1335 34.41                             110     0.2 3  328 231 
 RREF HN ES   2   1336 10.00                             110    -0.6 3  328 231 
 RREF HZ I        1336 20.76        11.6 0.40                           328 231 
 PRA  HZ EP   1   1335 40.77                             106    -0.6 4  395 211 
 PRA  HN ES   2   1336 23.11                             106    -0.1 3  395 211 
 PRA  HZ I        1336 27.49        10.7 0.46                           395 211 
                                                                                
