 2016  325 1401  0.1 L   6.828 -73.169146.8  RSN 23 0.4 2.7LRSN                1
 GAP= 69        0.77       1.9     2.2  3.8 -0.4801E+00  0.2154E+01  0.1506E+00E
 Epicentro: LOS SANTOS - SANTANDER                                             3
 ACTION:UPD 16-05-13 21:27 OP:cam  STATUS:               ID:20160325140100 L   I
 OLDACT:REG 16-03-25 21:36 OP:dnl  STATUS:               ID:20160325135742     3
 2016-03-25-1357-42M.COL___297                                                 6
 STAT SP IPHASW D HRMM SECON CODA AMPLIT PERI AZIMU VELO AIN AR TRES W  DIS CAZ7
 BAR2 EZ EP     C 14 1 20.01                             170    0.1010 26.1 183 
 BAR2 EZ ES       14 1 35.21                             170   -0.1510 26.1 183 
 BAR2 EZ I        14 1 36.22       198.6 0.38            169           26.1 183 
 PAM  EZ EP     C 14 1 22.83                             151    0.4510 76.7  42 
 PAM  EN ES       14 1 39.89                             151    0.1310 76.7  42 
 PAM  EZ I        14 1 42.29        62.9 0.40            148           76.7  42 
 RUS  HZ EP     D 14 1 23.99                             143   -0.2010  104 175 
 RUS  HN ES       14 1 42.75                             143   -0.2210  104 175 
 RUS  HZ I        14 1 44.09        61.4 0.24            141            104 175 
 PTB  HZ EP       14 1 26.61                             133   -0.37 9  146 257 
 PTB  HN ES       14 1 47.74                             133   -0.21 9  146 257 
 PTB  HZ I        14 1 53.46        58.4 0.18            125            146 257 
 OCA  HZ EP       14 1 27.92                             130   -0.25 9  157 354 
 OCA  HN ES       14 1 50.79                             130    0.72 9  157 354 
 OCA  HZ I        14 1 53.88       172.0 0.22            124            157 354 
 TAM  HZ EP       14 1 28.48                             130    0.32 9  158 106 
 TAM  HN ES       14 1 49.90                             130   -0.15 9  158 106 
 TAM  HZ I        14 1 51.41        27.4 0.34            129            158 106 
 SPBC HZ EP       14 1 28.97                             129    0.22 9  164 218 
 SPBC HN ES       14 1 50.82                             129   -0.29 9  164 218 
 SPBC HZ I        14 1 53.49        79.9 0.18            124            164 218 
 ZAR  HZ EP       14 1 32.34                             123    0.09 9  201 292 
 ZAR  HN ES       14 1 57.49                             123    0.16 9  201 292 
 ZAR  HZ I        14 2  3.21        63.8 0.30            116            201 292 
 NOR  HZ EP       14 1 36.12                             119    0.26 8  234 233 
 NOR  HN ES       14 2  3.62                             119   -0.13 8  234 233 
 NOR  HZ I        14 2  9.93        28.0 0.20            114            234 233 
 CHI  HZ EP       14 1 38.33                             117    0.22 8  251 194 
 CHI  HN ES       14 2  7.47                             117   -0.28 8  251 194 
 CHI  HZ I        14 2 12.87        29.1 0.30            113            251 194 
 ROSC BZ EP   4   14 1 39.68                             117    1.26 0  254 210 
 ROSC BN ES   4   14 2 10.34                             117    2.03 0  254 210 
 ROSC BZ I        14 2 14.71        90.4 0.40            112            254 210 
 HEL  HZ EP   4   14 1 42.23                             115    2.05 0  270 255 
 HEL  HN ES   2   14 2 12.20                             115    0.76 4  270 255 
 HEL  HZ I        14 2 20.22        21.9 0.24            110            270 255 
 URE  HZ EP       14 1 40.51                             114   -0.32 7  280 292 
 URE  HE ES   4   14 2 11.39                             114   -1.20 0  280 292 
 URE  HZ I        14 2 24.03        38.6 0.34            109            280 292 
 GUY2CHZ EP   2   14 1 44.76                             112    1.04 4  301 234 
 GUY2CHE ES   2   14 2 17.41                             112   -0.34 4  301 234 
 GUY2CHZ I        14 2 26.25        21.7 0.36                           301 234 
 SOCV BZ EP   4   14 1 41.75                             112   -1.49 0  302  58 
 SOCV BE ES   4   14 2 13.03                             112   -3.87 0  302  58 
 VIL  SZ EP   2   14 1 43.94                             112    0.09 4  306 191 
 VIL  SN ES       14 2 17.72                             112   -0.25 7  306 191 
 LL6C HZ EP   2   14 1 44.72                             111   -0.76 3  322 358 
 LL6C HE ES   3   14 2 19.81                             111   -1.06 2  322 358 
 LL6C HZ I        14 2 33.90        15.9 0.40            106            322 358 
 CBOC HZ EP   4   14 1 48.20                             110    1.31 0  332 251 
 CBOC HZ I        14 2 35.12         6.4 0.19            106            332 251 
 MON  HZ EP   4   14 1 47.08                             109   -1.61 0  350 308 
 MON  HN ES       14 2 25.64                             109   -0.94 6  350 308 
 MON  HZ I        14 2 40.94        21.8 0.50            104            350 308 
 ANIL HZ EP   4   14 1 50.81                             108    0.82 0  358 224 
 ANIL HN ES   4   14 2 31.34                             108    2.43 0  358 224 
 SDV  BZ EP       14 1 49.59                             108   -0.59 6  360  51 
 SDV  BE ES   4   14 2 27.00                             108   -2.24 0  360  51 
 SDV  BZ I        14 2 29.03         6.5 0.35            105            360  51 
 ORTC HZ EP       14 1 54.47                             106    0.30 6  396 216 
 ORTC HN ES       14 2 37.10                             106    0.75 6  396 216 
 ORTC HZ I        14 2 40.87        17.2 0.28            103            396 216 
 SJC  HZ EP   4   14 1 54.09                             106   -1.14 0  405 327 
 SJC  HN ES   4   14 2 35.14                             106   -3.09 0  405 327 
 SJC  HZ I        14 2 50.16        10.8 0.50            102            405 327 
 PAL  HZ EP       14 1 55.77                             106    0.55 6  405 239 
 PAL  HE ES   4   14 2 35.63                             106   -2.59 0  405 239 
 PAL  HZ I        14 2 45.39         7.1 0.22            102            405 239 
 YOT  HZ EP   2   14 2  2.86                             103   -0.33 2  472 228 
 YOT  HN ES   4   14 2 47.68                             103   -4.71 0  472 228 
                                                                                
