 2013 1125 1117 23.7 L   6.884 -73.322117.9  RSN  8 0.3 2.1LRSN                1
 GAP=176        0.58       2.3     3.2  3.8  0.2374E+01  0.3825E+01 -0.4511E+00E
 Epicentro: BETULIA - SANTANDER                                                3
 ACTION:UPD 14-01-09 16:31 OP:ep   STATUS:               ID:20131125111723 L   I
 OLDACT:UP  13-11-25 16:04 OP:cam  STATUS:               ID:20131125111000     3
 OLDACT:REG 13-11-25 15:37 OP:cam  STATUS:               ID:20131125111000     3
 2013-11-25-1110-00M.COL___282                                                 6
 STAT SP IPHASW D HRMM SECON CODA AMPLIT PERI AZIMU VELO AIN AR TRES W  DIS CAZ7
 BAR2 SZ EP       1117 40.68                             162    0.2910 35.8 154 
 BAR2 SZ ES       1117 53.40                             162   -0.0110 35.8 154 
 BAR2 SZ I        1117 54.49       124.5 0.34            167           35.8 154 
 BRR  HZ EP       1117 40.60                             156   -0.0510 49.6 300 
 BRR  HE ES       1117 54.07                             156    0.2010 49.6 300 
 BRR  HZ I        1117 57.92        11.9 0.18            153           49.6 300 
 RUS  HZ EP       1117 45.79                             134   -0.1010  113 166 
 RUS  HN ES   1   1118  2.92                             134   -0.27 7  113 166 
 RUS  HZ I        1118  3.95         8.1 0.16            138            113 166 
 PTB  HZ IP   4 C 1117 45.27                             129   -1.66 0  131 253 
 PTB  HN ES   4   1118  1.83                             129   -3.21 0  131 253 
 PTB  HZ I        1118  6.56        20.6 0.18            130            131 253 
 ZAR  HZ EP       1117 51.82                             119   -0.35 9  182 292 
 ZAR  HN ES       1118 14.27                             119   -0.09 9  182 292 
 ZAR  HZ I        1118 17.81        17.8 0.30            119            182 292 
 NOR  HZ EP   1   1117 56.93                             113    0.03 6  225 230 
 NOR  HN ES       1118 22.63                             113   -0.16 8  225 230 
 NOR  HZ I        1118 25.50        11.7 0.42            115            225 230 
 SML  HZ EP       1117 57.19                             113    0.08 8  228 339 
 SML  HN ES       1118 23.03                             113   -0.12 8  228 339 
 SML  HZ I        1118 30.95        20.2 0.10            114            228 339 
 HEL  HZ EP   1   1118  1.64                             110    0.84 6  256 253 
                                                                                
