 2011  525 1110 29.4 L   6.756 -73.113145.8  RSN  6 0.3 2.0LRSN                1
 GAP=168        0.72      10.3     8.2  9.3 -0.1455E+02  0.1884E+01  0.4119E+02E
 Epicentro: LOS SANTOS - SANTANDER                                             3
 ACTION:UP  11-06-29 08:56 OP:tino STATUS:               ID:20110525111029 L   I
 2011-05-25-1106-00S.COL___141                                                 6
 STAT SP IPHASW D HRMM SECON CODA AMPLIT PERI AZIMU VELO SNR AR TRES W  DIS CAZ7
 BAR2 SZ EP       1110 48.81                             172    -0.110   20 203 
 BAR2 SZ ES   2   1111  3.98                             172    -0.2 5   20 203 
 BAR2 SZ I        1111  5.36        21.6 0.20                            20 203 
 BTL  SZ EP       1110 49.61                             170     0.610   25 316 
 GIR2 SZ EP   1   1110 49.15                             165    -0.1 7   37 346 
 BRR  HZ EP       1110 50.69                             151    -0.210   77 300 
 BRR  HZ I        1110 50.93        23.2 0.15                            77 300 
 BRR  HN ES   1   1111  7.56                             151     0.0 7   77 300 
 PAM  SZ EP   2   1110 51.02                             150    -0.7 5   79  35 
 PAM  SN ES   2   1111  9.27                             150     0.2 5   79  35 
 NOR  SZ EP   1   1111  5.17                             118     0.0 6  235 236 
                                                                                
