 2012  825 1013  5.1 L   6.764 -73.146147.0  RSN  6 0.4 1.5LRSN                1
 GAP=138        0.84       4.8     4.9  8.4  0.1126E-01  0.6483E+01  0.5381E+01E
 Epicentro: LOS SANTOS - SANTANDER                                             3
 ACTION:UPD 12-09-10 11:58 OP:ep   STATUS:               ID:20120825101305 L   I
 2012-08-25-1010-00M.COL___218                                                 6
 STAT SP IPHASW D HRMM SECON CODA AMPLIT PERI AZIMU VELO AIN AR TRES W  DIS CAZ7
 BAR2 SZ EP   1   1013 24.63                             172   -0.18 7 19.4 192 
 BAR2 SZ I        1013 41.41        14.5 0.17                          19.4 192 
 BRR  HZ EP   1   1013 26.58                             152    0.08 7 73.2 301 
 BRR  HN ES       1013 43.72                             152    0.5310 73.2 301 
 BRR  HZ I        1013 45.31         7.6 0.14                          73.2 301 
 PAM  SZ EP   1   1013 27.58                             150   -0.06 7 80.5  38 
 PAM  SN ES       1013 44.89                             150   -0.3310 80.5  38 
 PAM  SZ I        1013 47.27         4.8 0.38                          80.5  38 
 RUS  HZ EP   1   1013 29.06                             145    0.36 7 96.6 176 
 RUS  HN ES       1013 47.18                             145    0.0810 96.6 176 
 PTB  HZ EP   1   1013 32.23                             132    0.12 7  147 260 
 PTB  HN ES   1   1013 52.22                             132   -0.95 7  147 260 
 PTB  HZ I        1013 54.33         1.4 0.09                           147 260 
 ZAR  HN ES   2   1014  3.42                             122    0.13 4  206 293 
                                                                                
