 2012  625 1026 34.2 L   6.634 -73.731 98.2  RSN  4 0.1 1.0LRSN                1
 GAP=124        0.29       3.9     2.3  8.7  0.2611E+01  0.2838E+01  0.2085E+02E
 Epicentro: EL CARMEN DE CHUCURI - SANTANDER                                   3
 ACTION:UPD 12-08-06 17:52 OP:ep   STATUS:               ID:20120625102634 L   I
 2012-06-25-1020-00M.COL___199                                                 6
 STAT SP IPHASW D HRMM SECON CODA AMPLIT PERI AZIMU VELO AIN AR TRES W  DIS CAZ7
 BRR  HZ EP       1026 49.08                             150   -0.0310 52.3   2 
 BRR  HZ I        1026 49.28         4.8 0.14                          52.3   2 
 BRR  HN ES   3   1027  1.02                             150    0.25 2 52.3   2 
 BAR2 SZ EP       1026 50.01                             146    0.0010 60.8  94 
 BAR2 SZ ES   3   1027  2.10                             146   -0.27 2 60.8  94 
 BAR2 SZ I        1027  3.77         6.1 0.30                          60.8  94 
 PTB  HZ EP       1026 51.22                             138   -0.0110 80.9 263 
 PTB  HE ES   3   1027  4.55                             138    0.01 2 80.9 263 
 PTB  HZ I        1027 10.76         1.3 0.14                          80.9 263 
 RUS  HZ EP       1026 54.43                             129    0.0310  109 139 
                                                                                
