 2012  525 1507 48.4 L   6.755 -73.165150.0  RSN  5 0.2 1.9LRSN                1
 GAP=136        0.59       6.6     4.8  6.9  0.1474E+02  0.2884E+01 -0.1408E+02E
 Epicentro: LOS SANTOS - SANTANDER                                             3
 ACTION:UP  12-07-05 12:08 OP:pat  STATUS:               ID:20120525150748 L   I
 2012-05-25-1500-00M.COL___201                                                 6
 STAT SP IPHASW D HRMM SECON CODA AMPLIT PERI AZIMU VELO SNR AR TRES W  DIS CAZ7
 BAR2 SZ EP   1   15 8  8.54                             173     0.1 8   18 186 
 BAR2 SZ ES   1   15 8 23.92                             173    -0.2 8   18 186 
 BAR2 SZ I        15 8 27.45        18.4 0.28                            18 186 
 PAM  SZ EP   2   15 8 11.34                             150    -0.1 5   83  39 
 RUS  HZ EP   1   15 8 12.41                             146     0.1 8   96 175 
 RUS  HN ES   1   15 8 31.08                             146     0.2 8   96 175 
 RUS  HZ I        15 8 31.84         7.0 0.23                            96 175 
 PTB  HZ EP       15 8 15.10                             134    -0.410  145 261 
 PTB  HN ES   1   15 8 36.56                             134     0.0 7  145 261 
 PTB  HZ I        15 8 42.50        10.4 0.31                           145 261 
 ZAR  HZ EP   2   15 8 21.56                             123     0.4 5  204 294 
 ZAR  HN ES   1   15 8 47.02                             123     0.4 7  204 294 
 ZAR  HZ I        15 8 53.13         7.0 0.15                           204 294 
                                                                                
