 2013  125 1610 45.1 L   6.828 -73.369122.1  RSN  5 0.5 1.7LRSN                1
 GAP=103        1.23       6.0     5.3  9.1 -0.2573E+01  0.4382E+01  0.4445E+01E
 Epicentro: SAN VICENTE DE CHUCURI - SANTANDER                                 3
 ACTION:UPD 13-02-15 09:16 OP:ep   STATUS:               ID:20130125161045 L   I
 2013-01-25-1608-39M.COL___201                                                 6
 STAT SP IPHASW D HRMM SECON CODA AMPLIT PERI AZIMU VELO AIN AR TRES W  DIS CAZ7
 BAR2 SZ IP       1611  2.28                             164    0.1110 33.2 142 
 BAR2 SZ ES       1611 15.37                             164   -0.1210 33.2 142 
 BAR2 SZ I        1611 16.51        43.3 0.38            166           33.2 142 
 BRR  HZ EP       1611  2.65                             157    0.1910 48.9 309 
 BRR  HN ES       1611 16.77                             157    0.7510 48.9 309 
 BRR  HN I        1611 17.35        33.2 0.20            156           48.9 309 
 PAM  SZ EP       1611  5.75                             141   -0.2410 93.1  53 
 PAM  SN ES       1611 21.89                             141   -0.4110 93.1  53 
 PAM  SN I        1611 24.74         5.5 0.40            142           93.1  53 
 RUS  HZ EP       1611  7.19                             136   -0.0310  108 163 
 RUS  HZ I        1611  7.69         1.9 0.34            138            108 163 
 RUS  HN ES       1611 24.72                             136    0.2410  108 163 
 PTB  HZ EP       1611  8.52                             131    0.5110  124 255 
 PTB  HN ES       1611 24.86                             131   -1.0310  124 255 
 PTB  HN I        1611 29.30        13.2 0.22            132            124 255 
                                                                                
