 2013  525 1044 35.9 L   7.439 -73.192141.9  RSN  4 0.1 1.5LRSN                1
 GAP=267        0.34       7.3     4.2  4.5  0.2239E+02 -0.6437E+01 -0.1545E+02E
 Epicentro: EL PLAYON - SANTANDER                                              3
 ACTION:UPD 13-06-20 09:53 OP:ep   STATUS:               ID:20130525104435 L   I
 2013-05-25-1040-00M.COL___261                                                 6
 STAT SP IPHASW D HRMM SECON CODA AMPLIT PERI AZIMU VELO AIN AR TRES W  DIS CAZ7
 GIR2 SZ EP   1   1044 55.28                             164   -0.07 7 39.8 180 
 GIR2 SZ ES   1   1045 10.63                             164    0.09 7 39.8 180 
 GIR2 SZ I        1045 10.96         5.9 0.34            159           39.8 180 
 BRR  HZ EP   1   1044 56.59                             153    0.16 7 68.2 237 
 BRR  HN ES   1   1045 12.29                             153   -0.18 7 68.2 237 
 BRR  HZ I        1045 15.04         7.5 0.38            149           68.2 237 
 BAR2 SZ EP       1044 58.33                             145   -0.0610 93.7 179 
 BAR2 SZ IP       1044 58.33                             145           93.7 179 
 BAR2 SZ ES   1   1045 16.03                             145    0.08 7 93.7 179 
 BAR2 SZ I        1045 17.63         5.1 0.26            142           93.7 179 
 ZAR  HE ES   1   1045 29.58                             124    0.05 7  184 272 
                                                                                
