 2015  225 1533 38.4 L   6.805 -73.153144.0  RSN  8 0.5 1.8LRSN                1
 GAP=135        1.12       5.5     5.1  6.9 -0.1034E+02  0.8286E+01  0.7692E+01E
 Epicentro: LOS SANTOS - SANTANDER                                             3
 ACTION:UPD 15-04-30 21:29 OP:nd   STATUS:               ID:20150225153338 L   I
 OLDACT:REG 15-02-25 20:46 OP:carl STATUS:               ID:20150225152748     3
 2015-02-25-1527-48M.COL___299                                                 6
 STAT SP IPHASW D HRMM SECON CODA AMPLIT PERI AZIMU VELO AIN AR TRES W  DIS CAZ7
 BAR2 EZ EP       1533 57.72                             170   -0.0610 23.7 188 
 BAR2 EZ ES       1534 12.32                             170   -0.6110 23.7 188 
 BAR2 EZ I        1534 14.25        15.3 0.16            169           23.7 188 
 BRR  HN ES       1534 16.32                             153    0.7610 70.2 298 
 PAM  SZ EP       1534  0.56                             150    0.1810 77.5  40 
 PAM  SN ES       1534 17.65                             150    0.0810 77.5  40 
 PAM  SZ I        1534 19.79         8.3 0.46            153           77.5  40 
 RUS  HZ EP       1534  2.04                             143    0.0710  101 176 
 RUS  HN ES       1534 20.59                             143    0.2010  101 176 
 RUS  HZ I        1534 21.38         6.6 0.30            144            101 176 
 PTB  HZ EP       1534  4.41                             132   -0.70 9  147 259 
 PTB  HN ES       1534 25.29                             132   -0.69 9  147 259 
 PTB  HZ I        1534 27.35         8.6 0.42            133            147 259 
 SPBC HZ EP       1534  6.52                             129   -0.18 9  163 219 
 SPBC HN ES       1534 28.98                             129    0.16 9  163 219 
 SPBC HZ I        1534 34.96        10.2 0.38            129            163 219 
 NOR  HZ EP       1534 13.67                             118   -0.27 8  234 234 
 NOR  HN ES       1534 41.78                             118    0.08 8  234 234 
 NOR  HZ I        1534 44.17         4.0 0.14            119            234 234 
 GUY2CHZ EP       1534 22.29                             112    0.45 7  301 235 
 GUY2CHN ES       1534 56.72                             112    0.97 7  301 235 
 GUY2CHZ I        1535  3.83         3.4 0.30                           301 235 
                                                                                
