 2013  425 1837 26.1 L   6.772 -73.139143.0  RSN  9 0.4 2.7LRSN                1
 GAP= 72        0.97       4.5     3.6  5.8 -0.2080E+00  0.2354E+01  0.4162E+01E
 Epicentro: LOS SANTOS - SANTANDER                                             3
 ACTION:UPD 13-05-22 14:40 OP:EP   STATUS:               ID:20130425183726 L   I
 2013-04-25-1830-00M.COL___249                                                 6
 STAT SP IPHASW D HRMM SECON CODA AMPLIT PERI AZIMU VELO AIN AR TRES W  DIS CAZ7
 BAR2 SZ EP       1837 45.30                             171   -0.0610 20.5 193 
 BAR2 SZ ES   1   1837 59.94                             171   -0.43 7 20.5 193 
 BAR2 SZ I        1838  0.99        62.6 0.12            169           20.5 193 
 GIR2 SZ EP   1   1837 45.34                             166   -0.22 7 34.4 350 
 GIR2 SZ ES       1838  0.78                             166    0.0610 34.4 350 
 GIR2 SZ I        1838  2.15        47.0 0.40            168           34.4 350 
 BRR  HZ EP       1837 47.13                             151    0.0310 73.3 300 
 BRR  HN ES       1838  3.96                             151    0.5010 73.3 300 
 BRR  HN I        1838  4.14       204.5 0.22            152           73.3 300 
 PAM  SZ EP     C 1837 48.12                             150   -0.0410 79.3  38 
 PAM  SE ES       1838  5.10                             150   -0.2610 79.3  38 
 PAM  SE I        1838  6.88        86.0 0.52            152           79.3  38 
 RUS  HZ EP   1   1837 49.51                             144    0.13 7 97.5 176 
 RUS  HN ES       1838  7.94                             144    0.4210 97.5 176 
 RUS  HN I        1838  9.17        50.7 0.22            144           97.5 176 
 PTB  HZ EP   1   1837 51.97                             131   -0.91 7  148 260 
 PTB  HN ES       1838 12.87                             131   -0.88 9  148 260 
 PTB  HN I        1838 16.04        55.4 0.18            131            148 260 
 TAM  HZ IP     C 1837 53.61                             130    0.16 9  154 104 
 ZAR  HZ EP   1   1837 58.66                             122    0.08 6  206 293 
 ZAR  HN ES       1838 24.56                             122    0.66 8  206 293 
 ZAR  HN I        1838 24.85        54.2 0.44            122            206 293 
 NOR  HZ EP   1   1838  1.75                             118    0.19 6  234 235 
 NOR  HN ES   1   1838 29.51                             118    0.30 6  234 235 
 NOR  HN I        1838 34.95        53.7 0.16            118            234 235 
                                                                                
