 2013  725 1842 17.6 L   6.819 -73.178146.3  RSN 12 0.4 2.5LRSN                1
 GAP=132        0.90       2.9     4.7  6.0 -0.4122E+01  0.8756E+01  0.2165E-01E
 Epicentro: LOS SANTOS - SANTANDER                                             3
 ACTION:UPD 13-08-12 10:40 OP:ep   STATUS:               ID:20130725184217 L   I
 OLDACT:UP  13-07-25 20:14 OP:mh   STATUS:               ID:20130725183959     3
 OLDACT:REG 13-07-25 15:35 OP:mh   STATUS:               ID:20130725183959     3
 2013-07-25-1839-59M.COL___267                                                 6
 STAT SP IPHASW D HRMM SECON CODA AMPLIT PERI AZIMU VELO AIN AR TRES W  DIS CAZ7
 BAR2 SZ EP       1842 37.36                             170   -0.0310 25.1 181 
 BAR2 SZ ES   1   1842 52.03                             170   -0.75 7 25.1 181 
 BAR2 SZ I        1842 53.84        47.3 0.36            167           25.1 181 
 GIR2 SZ EP   1   1842 37.39                             168    0.06 7 28.8 357 
 BRR  HZ EP       1842 39.14                             154    0.5110 67.1 298 
 BRR  HN ES   1   1842 55.93                             154    0.93 7 67.1 298 
 BRR  HN I        1842 56.79       124.4 0.24            148           67.1 298 
 BRR  HZ I        1843  2.22        29.7 0.24                          67.1 298 
 PAM  SZ EP   1   1842 40.26                             151    0.29 7 78.1  43 
 PAM  SN ES       1842 57.81                             151    0.4310 78.1  43 
 PAM  SN I        1842 58.28        35.5 0.42            155           78.1  43 
 RUS  HZ EP   1   1842 41.38                             143   -0.25 7  103 174 
 RUS  HN ES       1843  0.14                             143   -0.2010  103 174 
 RUS  HN I        1843  1.68        27.8 0.18            145            103 174 
 PTB  HZ EP   1   1842 44.09                             133   -0.30 7  145 258 
 PTB  HN ES   1   1843  4.96                             133   -0.29 7  145 258 
 PTB  HN I        1843  9.81        60.4 0.46            130            145 258 
 OCA  HZ EP   1   1842 45.75                             130   -0.02 7  158 354 
 OCA  HN ES       1843  6.95                             130   -0.76 9  158 354 
 OCA  HN I        1843 12.47        92.3 0.36            130            158 354 
 SPBC HZ EP       1842 46.44                             129    0.30 9  163 218 
 SPBC HN ES       1843  8.30                             129   -0.06 9  163 218 
 SPBC HN I        1843 16.48        83.4 0.10            128            163 218 
 NOR  HZ EP       1842 53.52                             119    0.28 8  233 234 
 NOR  HN ES   1   1843 21.39                             119    0.39 6  233 234 
 NOR  HZ I        1843 30.58        10.6 0.18            118            233 234 
 SML  HZ EP   1   1842 53.54                             118   -0.40 6  240 336 
 SML  HN ES   2   1843 21.67                             118   -0.58 4  240 336 
 SML  HN I        1843 29.57        70.3 0.10            118            240 336 
 CHI  HZ EP   1   1842 55.55                             117    0.05 6  250 194 
 CHI  HN ES   1   1843 24.43                             117   -0.60 6  250 194 
 CHI  HN I        1843 27.29        38.5 0.48            118            250 194 
 HEL  HN ES   2   1843 28.49                             115   -0.22 4  269 255 
 HEL  HZ I        1843 35.48        10.3 0.46            114            269 255 
 GUY2CHZ EP   4   1843  2.31                             112    1.21 0  300 234 
 GUY2CHN ES   4 C 1843 38.04                             112    3.05 0  300 234 
 SJC  HZ EP   4   1843 10.79                             106   -2.00 0  406 327 
                                                                                
