 2010 1225 1543 14.8 L   6.823 -72.760138.0  RSN  4 0.4 1.3LRSN                1
 GAP=201        0.83       6.1    27.6 15.2 -0.6046E+02 -0.3274E+03  0.1738E+02E
 Epicentro: CERRITO - SANTANDER                                                3
 *BAR2-BTL-RUS-GRA                                                             3
 ACTION:UP  11-01-14 15:27 OP:pat  STATUS:               ID:20101225154314 L   I
 2010-12-25-1540-57S.COL___135                                                 6
 STAT SP IPHASW D HRMM SECON CODA AMPLIT PERI AZIMU VELO SNR AR TRES W  DIS CAZ7
 BAR2 SZ EP   1   1543 34.45                             159    -0.1 7   53 241 
 BAR2 SZ ES   1   1543 50.35                             159     0.4 7   53 241 
 BAR2 SZ I        1543 52.12         6.7 0.22                            53 241 
 BTL  SZ EP   1   1543 34.72                             157     0.0 7   57 281 
 BTL  SZ ES   1   1543 49.99                             157    -0.2 7   57 281 
 RUS  HZ EP   1   1543 37.98                             140    -0.5 7  109 199 
 RUS  HN ES   1   1543 57.04                             140     0.1 7  109 199 
 RUS  HZ I        1543 58.28         1.9 0.28                           109 199 
 GRA  SZ EP   1   1543 39.24                             138     0.6 7  117 358 
 GRA  SZ ES   2   1543 56.62                             138    -0.7 5  117 358 
 GRA  SZ I        1544  0.77         3.6 0.67                           117 358 
                                                                                
