 2014 1025 1248 11.0 L   6.789 -73.165146.0  RSN  5 0.3 1.3LRSN                1
 GAP=135        0.68       4.3     3.6  5.6 -0.2926E+01  0.3973E+00  0.5593E+01E
 Epicentro: LOS SANTOS - SANTANDER                                             3
 ACTION:UPD 14-11-29 23:56 OP:nd   STATUS:               ID:20141025124811 L   I
 OLDACT:DUP 14-10-28 23:50 OP:spq  STATUS:               ID:20141025123749d    3
 2014-10-25-1237-48M.COL___289                                                 6
 STAT SP IPHASW D HRMM SECON CODA AMPLIT PERI AZIMU VELO AIN AR TRES W  DIS CAZ7
 BAR2 SZ EP       1248 30.71                             171    0.0810 21.9 185 
 BAR2 SZ ES   1   1248 45.65                             171   -0.29 7 21.9 185 
 BAR2 SZ I        1248 48.91         3.4 0.28            171           21.9 185 
 BRR  HZ EP   2   1248 32.92                             153    0.82 5 70.0 300 
 BRR  HN ES       1248 48.95                             153    0.3910 70.0 300 
 BRR  HZ I        1248 52.03        12.5 0.34            155           70.0 300 
 PAM  SZ EP       1248 33.10                             150   -0.2710 79.6  40 
 PAM  SE ES       1248 50.77                             150   -0.0510 79.6  40 
 PAM  SZ I        1248 53.09         3.4 0.44            154           79.6  40 
 RUS  HZ EP       1248 34.84                             144    0.1410 99.6 175 
 RUS  HN ES   1   1248 53.36                             144    0.18 7 99.6 175 
 RUS  HZ I        1248 55.39         1.3 0.55            147           99.6 175 
 PTB  HZ EP       1248 37.54                             133   -0.24 9  145 259 
 PTB  HN ES       1248 58.40                             133   -0.27 9  145 259 
 PTB  HZ I        1249  0.88         3.3 0.14            136            145 259 
                                                                                
