 2017 1125 1034 47.1 L   6.835 -73.219142.0  RSN  4 0.1 1.2LRSN                1
 GAP=149        0.40       2.5     2.3  3.4 -0.1749E+01  0.2188E+01 -0.8229E+00E
 Epicentro: ZAPATOCA - SANTANDER                                               3
 ACTION:UPD 17-12-12 20:00 OP:rebc STATUS:               ID:20171125103447 L   I
 OLDACT:DUP 17-11-25 22:22 OP:dhb  STATUS:               ID:20171125102742d    3
 2017-11-25-1028-00M.COL___488                                                 6
 STAT SP IPHASW D HRMM SECON CODA AMPLIT PERI AZIMU VELO AIN AR TRES W  DIS CAZ7
 BAR2 EZ IP     D 1035  6.40                             169    0.0210 27.1 171 
 BAR2 EZ ES       1035 21.30                             169   -0.1010 27.1 171 
 BAR2 EZ I        1035 23.96         5.9 0.22            171           27.1 171 
 PAM  EZ IP     D 1035  9.26                             149    0.1610 80.1  46 
 PAM  EN ES       1035 26.19                             149   -0.0510 80.1  46 
 PAM  EZ I        1035 28.36         2.8 0.54            152           80.1  46 
 RUS  HZ EP       1035 10.63                             142   -0.2210  105 172 
 RUS  HN ES       1035 29.52                             142    0.1710  105 172 
 RUS  HZ I        1035 30.17         3.5 0.30            145            105 172 
 PTB  HZ EP       1035 13.11                             133   -0.02 9  141 257 
 PTB  HN ES       1035 33.46                             133    0.04 9  141 257 
 PTB  HZ I        1035 35.72         1.3 0.28            135            141 257 
                                                                                
