 2012 1125 1920 12.3 L   6.790 -73.156142.9  RSN  9 0.4 1.9LRSN                1
 GAP=136        0.83       4.1     4.9  6.2  0.8175E+00  0.1232E+02 -0.7375E+00E
 Epicentro: LOS SANTOS - SANTANDER                                             3
 ACTION:UPD 12-12-05 15:36 OP:}ep  STATUS:               ID:20121125192012 L   I
 2012-11-25-1920-00M.COL___233                                                 6
 STAT SP IPHASW D HRMM SECON CODA AMPLIT PERI AZIMU VELO AIN AR TRES W  DIS CAZ7
 BAR2 SZ EP       1920 31.61                             171    0.0310 22.0 188 
 BAR2 SZ ES   1   1920 47.01                             171    0.40 7 22.0 188 
 BAR2 SZ I        1920 47.45        27.0 0.18                          22.0 188 
 GIR2 SZ EP   1   1920 31.67                             167   -0.01 7 32.2 353 
 GIR2 SZ ES   1   1920 46.85                             167    0.07 7 32.2 353 
 GIR2 SZ I        1920 48.26        18.0 0.64                          32.2 353 
 PAM  SZ EP   1   1920 34.63                             150    0.30 7 79.0  40 
 PAM  SN ES   1   1920 51.38                             150   -0.12 7 79.0  40 
 PAM  SZ I        1920 53.53        27.7 0.46                          79.0  40 
 RUS  HZ EP   1   1920 35.52                             143   -0.20 7 99.5 175 
 RUS  HN ES   1   1920 53.77                             143   -0.19 7 99.5 175 
 RUS  HZ I        1920 55.32        12.2 0.24                          99.5 175 
 PTB  HZ EP   1   1920 38.49                             132   -0.44 7  146 259 
 PTB  HN ES   1   1920 58.80                             132   -0.89 7  146 259 
 PTB  HZ I        1921  3.29         8.3 0.12                           146 259 
 ZAR  HZ EP   1   1920 44.72                             122    0.20 6  203 293 
 ZAR  HE ES   1   1921 10.67                             122    1.04 6  203 293 
 ZAR  HZ I        1921 17.95         6.8 0.32                           203 293 
 NOR  HZ EP   1   1920 48.23                             118    0.52 6  233 235 
 NOR  HZ I        1921 17.11         4.8 0.14                           233 235 
 SML  HZ EP   1   1920 48.40                             117   -0.45 6  244 336 
 SML  HE ES   1   1921 16.90                             117   -0.44 6  244 336 
 PRA  HZ EP   1   1921  6.11                             106    0.55 4  390 210 
                                                                                
