 2015  925 1118 23.4 L   5.890 -73.621127.6  RSN  8 0.2 1.9LRSN                1
 GAP= 95        0.50       1.7     2.4  4.6 -0.1157E+01  0.8506E+00 -0.2163E+01E
 Epicentro: BARBOSA - SANTANDER                                                3
 ACTION:UPD 15-10-28 16:28 OP:cam  STATUS:               ID:20150925111823 L   I
 OLDACT:UP  15-09-25 21:49 OP:ar   STATUS:               ID:20150925110746     3
 OLDACT:REG 15-09-25 20:25 OP:ar   STATUS:               ID:20150925110746     3
 2015-09-25-1107-46M.COL___358                                                 6
 STAT SP IPHASW D HRMM SECON CODA AMPLIT PERI AZIMU VELO AIN AR TRES W  DIS CAZ7
 SPBC HZ EP       1118 41.83                             155   -0.0810 56.5 242 
 SPBC HN ES       1118 56.71                             155    0.3710 56.5 242 
 SPBC HZ I        1118 57.71        19.9 0.44            152           56.5 242 
 RUS  HZ EP   2   1118 42.67                             154    0.02 5 59.6  90 
 RUS  HN ES   2   1118 57.24                             154   -0.43 5 59.6  90 
 RUS  HZ I        1118 58.25         8.1 0.30            155           59.6  90 
 BAR2 EZ EP       1118 44.28                             142   -0.0910 91.5  32 
 BAR2 EZ ES       1119  0.72                             142   -0.0010 91.5  32 
 BAR2 EZ I        1119  1.78        25.4 0.50            141           91.5  32 
 BRR  HZ EP   2   1118 47.73                             130    0.01 5  135 356 
 BRR  HE ES       1119  6.56                             130   -0.1210  135 356 
 CHI  HZ EP   2   1118 49.01                             129    0.26 5  140 185 
 CHI  HN ES       1119  8.42                             129   -0.09 9  140 185 
 CHI  HZ I        1119 10.54         6.3 0.60            128            140 185 
 NOR  HN ES       1119  7.96                             129   -0.19 9  143 255 
 NOR  HZ I        1119 11.64        10.1 0.18            126            143 255 
 ZAR  HE ES       1119 22.91                             116   -0.10 8  224 322 
 ZAR  HZ I        1119 27.37         7.0 0.26            114            224 322 
 OCA  HN ES       1119 31.33                             112    0.42 8  262   7 
 OCA  HZ I        1119 37.06        13.7 0.18            110            262   7 
                                                                                
