 2017 1125 1608  2.8 L   6.768 -73.171142.6  RSN  4 0.2 1.1LRSN                1
 GAP=139        0.62       3.7     3.6  5.2 -0.4192E+01  0.5146E+01 -0.1981E+01E
 Epicentro: LOS SANTOS - SANTANDER                                             3
 ACTION:UPD 17-12-12 20:00 OP:rebc STATUS:               ID:20171125160802 L   I
 OLDACT:DUP 17-11-25 23:19 OP:edw  STATUS:               ID:20171125155743d    3
 OLDACT:UP  17-11-25 23:17 OP:edw  STATUS:               ID:20171125155742     3
 OLDACT:REG 17-11-25 22:37 OP:edw  STATUS:               ID:20171125155742     3
 2017-11-25-1558-00M.COL___492                                                 6
 STAT SP IPHASW D HRMM SECON CODA AMPLIT PERI AZIMU VELO AIN AR TRES W  DIS CAZ7
 BAR2 EZ EP       16 8 21.93                             172   -0.0510 19.4 184 
 BAR2 EZ ES       16 8 36.78                             172   -0.1510 19.4 184 
 BAR2 EZ I        16 8 37.36         4.0 0.42            170           19.4 184 
 PAM  EZ EP       16 8 24.77                             149   -0.2010 81.9  39 
 PAM  EN ES       16 8 42.44                             149    0.1910 81.9  39 
 PAM  EZ I        16 8 44.27         2.2 0.60            152           81.9  39 
 RUS  HZ EP       16 8 26.41                             144    0.4010 97.2 174 
 RUS  HN ES       16 8 43.96                             144   -0.1410 97.2 174 
 RUS  HZ I        16 8 45.66         2.6 0.48            148           97.2 174 
 PTB  HZ EP       16 8 28.93                             132   -0.28 9  144 260 
 PTB  HN ES       16 8 50.00                             132    0.21 9  144 260 
 PTB  HZ I        16 8 59.14         1.3 0.38            130            144 260 
                                                                                
