 2016 1125 1654 51.2 L   6.690 -73.172146.4  RSN  5 0.2 1.6LRSN                1
 GAP=150        0.61       6.5     3.5  5.2 -0.5370E+00  0.1574E+01 -0.6533E+01E
 Epicentro: VILLANUEVA - SANTANDER                                             3
 ACTION:UPD 17-10-26 21:11 OP:lp   STATUS:               ID:20161125165451 L   I
 OLDACT:UP  16-11-25 23:50 OP:dani STATUS:               ID:20161125164746     3
 OLDACT:REG 16-11-25 20:30 OP:dani STATUS:               ID:20161125164746     3
 2016-11-25-1648-00M.COL___349                                                 6
 STAT SP IPHASW D HRMM SECON CODA AMPLIT PERI AZIMU VELO AIN AR TRES W  DIS CAZ7
 BAR2 EZ ES       1655 25.76                             176   -0.1810 10.8 186 
 BRR  HZ EP       1655 12.91                             151    0.2610 75.4 308 
 BRR  HE ES       1655 29.68                             151    0.2910 75.4 308 
 BRR  HZ I        1655 31.13        10.0 0.43            144           75.4 308 
 PAM  EZ EP       1655 14.03                             147   -0.1710 88.8  36 
 PTB  HZ EP       1655 17.90                             133    0.12 9  143 263 
 PTB  HN ES       1655 38.47                             133   -0.05 9  143 263 
 PTB  HZ I        1655 41.72         3.6 0.48            130            143 263 
 ZAR  HE ES       1655 49.06                             122   -0.37 8  206 296 
 ZAR  HZ I        1655 57.81         3.1 0.33            119            206 296 
                                                                                
