 2015  625 1456 24.4 L   6.790 -73.127144.8  RSN 14 0.4 2.4LRSN                1
 GAP=139        0.81       2.3     3.2  4.2 -0.6720E+00  0.5693E+01  0.1611E+01E
 Epicentro: LOS SANTOS - SANTANDER                                             3
 ACTION:UPD 15-09-10 22:15 OP:cam  STATUS:               ID:20150625145624 L   I
 OLDACT:REG 15-06-25 22:11 OP:drio STATUS:               ID:20150625144749     3
 2015-06-25-1447-49M.COL___310                                                 6
 STAT SP IPHASW D HRMM SECON CODA AMPLIT PERI AZIMU VELO AIN AR TRES W  DIS CAZ7
 BAR2 EZ EP       1456 43.85                             171   -0.0910 22.7 196 
 BAR2 EZ ES       1456 58.68                             171   -0.4610 22.7 196 
 BAR2 EZ I        1456 59.92       111.8 0.18            168           22.7 196 
 BRR  HZ EP       1456 45.77                             152    0.1610 73.5 299 
 BRR  HN ES       1457  2.71                             152    0.5810 73.5 299 
 BRR  HZ I        1457  5.89        36.2 0.36            150           73.5 299 
 PAM  SZ EP       1456 46.84                             151    0.3210 77.0  38 
 PAM  SN ES       1457  3.62                             151   -0.1310 77.0  38 
 PAM  SZ I        1457  5.83        53.6 0.48            155           77.0  38 
 RUS  HZ EP       1456 47.77                             144   -0.2310 99.4 177 
 RUS  HN ES       1457  6.60                             144    0.2210 99.4 177 
 RUS  HZ I        1457  7.41        45.3 0.22            145           99.4 177 
 ZAR  HZ EP       1456 57.94                             122    0.88 8  206 292 
 ZAR  HN ES       1457 22.36                             122   -0.14 8  206 292 
 ZAR  HZ I        1457 27.94        31.6 0.32            122            206 292 
 NOR  HZ EP       1457  0.31                             118    0.09 8  236 235 
 NOR  HE ES       1457 28.11                             118   -0.02 8  236 235 
 NOR  HZ I        1457 34.56        27.2 0.18            119            236 235 
 SML  HZ EP       1457  0.86                             117   -0.35 8  246 335 
 SML  HE ES       1457 29.11                             117   -0.78 8  246 335 
 SML  HZ I        1457 34.32        30.1 0.20            118            246 335 
 CHI  HZ EP       1457  1.82                             117   -0.20 8  248 196 
 CHI  HN ES       1457 31.48                             117    0.14 8  248 196 
 CHI  HZ I        1457 34.77        10.6 0.26            118            248 196 
 HEL  HZ EP       1457  4.63                             114   -0.16 8  274 256 
 HEL  HE ES       1457 36.40                             114    0.14 8  274 256 
 HEL  HZ I        1457 42.55        17.6 0.34            115            274 256 
 GUY2CHZ EP       1457  8.34                             112    0.22 7  302 235 
 GUY2CHN ES       1457 41.83                             112   -0.36 7  302 235 
 GUY2CHZ I        1457 48.78         9.9 0.32                           302 235 
 TOL  SZ EP       1457 12.78                             109    0.05 7  344 225 
 TOL  SN ES       1457 50.45                             109    0.06 7  344 225 
 TOL  SZ I        1457 57.64         7.1 0.34            110            344 225 
 MON  HZ EP   4   1457 11.52                             108   -2.14 0  356 308 
 MON  HN ES   4   1457 50.12                             108   -1.94 0  356 308 
 MON  HZ I        1457 50.34         5.5 0.20            109            356 308 
 PRA  HZ EP       1457 18.24                             106    0.31 6  392 210 
 PRA  HN ES       1457 59.04                             106   -0.61 6  392 210 
 PRA  HZ I        1458  4.14         8.9 0.20            107            392 210 
 PAL  HZ EP       1457 19.87                             106    0.17 6  407 239 
 PAL  HZ ES       1458  2.43                             106   -0.38 6  407 239 
 PAL  HZ I        1458  8.53         6.6 0.52            107            407 239 
                                                                                
