 2010  825 1844 11.6 L   6.783 -73.075150.6  RSN 15 0.4 3.6LRSN                1
 GAP=131        0.90       3.0     5.0  4.7 -0.5918E+01  0.9644E-01  0.2564E+01E
 Epicentro: LOS SANTOS - SANTANDER                                             3
 ACTION:UP  10-09-07 10:58 OP:vdl  STATUS:               ID:20100825184411 L   I
 2010-08-25-1840-38S.COL___121                                                 6
 STAT SP IPHASW D HRMM SECON CODA AMPLIT PERI AZIMU VELO SNR AR TRES W  DIS CAZ7
 BAR2 SZ IP       1844 31.79                             170     0.010   24 210 
 BAR2 SZ ES   2   1844 47.06                                    -0.5 5   24 210 
 BAR2 SZ I        1844 48.31      1069.7 0.21                            24 210 
 GIR2 SZ EP       1844 31.86                             166     0.010   35 338 
 GIR2 SZ ES   1   1844 47.39                             166    -0.4 7   35 338 
 BRR  HZ IP     D 1844 33.70                             151     0.010   79 297 
 BRR  HN ES       1844 50.98                             151     0.110   79 297 
 BRR  HZ I        1844 52.22       629.9 0.42                            79 297 
 RUS  HZ EP       1844 35.69                             145     0.110   98 181 
 RUS  HN ES       1844 54.76                             145     0.410   98 181 
 RUS  HZ I        1844 56.10       522.0 0.65                            98 181 
 GUE  SZ EP       1844 36.78                             140     0.010  117   8 
 GUE  SZ I        1845  1.02        90.4 0.05                           117   8 
 GRA  SZ EP       1844 37.55                             138     0.310  125  14 
 GRA  SZ ES   1   1844 57.04                             138    -0.2 7  125  14 
 GRA  SZ I        1844 58.85       372.9 0.28                           125  14 
 OCA  SZ EP       1844 40.34                             130    -0.2 9  163 351 
 OCA  SZ ES   1   1845  3.59                             130     0.5 7  163 351 
 OCA  SZ I        1845  6.91       533.9 0.21                           163 351 
 CHI  HZ EP       1844 49.45                             118    -0.1 8  249 197 
 CHI  HZ I        1844 51.52       176.1 0.71                           249 197 
 CHI  HE ES   1   1845 18.61                             118    -0.6 6  249 197 
 CVER SZ EP       1844 53.01                             116     0.7 8  273 204 
 CVER SZ I        1844 54.47       291.8 0.24                           273 204 
 GUY  SZ EP       1844 56.05                             113     0.0 7  307 236 
 GUY  SN ES   1   1845 30.19                             113    -0.5 5  307 236 
 GUY  SZ I        1845 39.18       589.7 0.38                           307 236 
 DBB  SZ EP       1844 59.30                             110    -0.8 6  347 274 
 TOL  SZ EP       1845  1.15                             110     0.7 6  348 226 
 SDV  BZ EP       1845  1.09                             109    -0.1 6  356  49 
 SDV  BN ES   1   1845 39.16                             109    -0.8 5  356  49 
 SDV  BZ I        1845 40.58        66.0 0.27                           356  49 
 ANIL HZ EP       1845  2.23                             109     0.2 6  362 226 
 ANIL HZ I        1845 47.52       342.4 0.34                           362 226 
 PRA  HZ EP       1845  5.01                             107    -0.5 6  394 211 
 PRA  HZ I        1845  6.92       133.5 0.25                           394 211 
 PRA  HN ES   1   1845 47.06                             107    -0.5 4  394 211 
                                                                                
