 2010  625 1140 38.5 L   6.776 -73.106138.0  RSN 12 0.5 2.4LRSN                1
 GAP=160        1.01       4.6     8.3  9.0 -0.1698E+02  0.1470E+02  0.5369E+01E
 Epicentro: LOS SANTOS - SANTANDER                                             3
 ACTION:UP  10-08-24 10:13 OP:vdl  STATUS:               ID:20100625114038 L   I
 2010-06-25-1137-38S.COL___118                                                 6
 STAT SP IPHASW D HRMM SECON CODA AMPLIT PERI AZIMU VELO SNR AR TRES W  DIS CAZ7
 BAR2 SZ IP       1140 57.03                             170    -0.110   22 203 
 BAR2 SZ ES   2   1141 11.37                             170    -0.3 5   22 203 
 BRR  HZ IP     D 1140 58.94                             149    -0.210   76 299 
 BRR  HE ES   2   1141 16.03                             149     0.8 5   76 299 
 BRR  HZ I        1141 20.34        54.1 0.16                            76 299 
 RUS  HZ EP   1   1141  1.02                             143    -0.2 7   98 179 
 RUS  HN ES   2   1141 19.14                             143     0.1 5   98 179 
 RUS  HZ I        1141 20.53        42.2 0.33                            98 179 
 BRI  SZ EP   1   1141  1.79                             139     0.1 7  109  18 
 BRI  SZ ES   2   1141 19.60                             139    -0.2 5  109  18 
 GUE  SZ EP   1   1141  2.11                             137    -0.5 7  118  10 
 GRA  SZ IP       1141  3.97                             135     0.810  127  15 
 GRA  SZ ES   2   1141 22.80                             135     0.4 5  127  15 
 OCA  SZ EP   1   1141  5.55                             127    -1.0 7  163 352 
 OCA  SZ ES   2   1141 28.10                             127    -0.3 5  163 352 
 OCA  SZ I        1141 32.40        37.9 0.55                           163 352 
 CHI  HZ EP   1   1141 15.29                             115    -0.3 6  247 196 
 CHI  HN ES   2   1141 44.57                             115     0.0 4  247 196 
 CHI  HZ I        1141 48.03        11.9 0.73                           247 196 
 ROSC BZ EP   1   1141 16.91                             115     0.7 6  253 212 
 ROSC BZ I        1141 50.92        15.1 0.60                           253 212 
 HEL  HZ EP   1   1141 18.99                             113     0.3 6  276 257 
 HEL  HE ES   2   1141 49.63                             113    -0.5 4  276 257 
 HEL  HZ I        1141 55.56        17.9 0.43                           276 257 
 RREF HZ EP   1   1141 25.34                             109     0.9 5  323 230 
 RREF HN ES   2   1141 59.72                             109    -0.6 3  323 230 
 RREF HZ I        1142  4.40        13.9 0.23                           323 230 
 PRA  HZ EP   1   1141 30.99                             105    -0.7 4  392 210 
 PRA  HN ES   2   1142 13.87                             105     0.6 3  392 210 
 PRA  HZ I        1142 18.30        11.8 0.52                           392 210 
                                                                                
