 2012  525 1343 58.0 L   6.158 -73.672105.1  RSN  8 0.3 1.9LRSN                1
 GAP= 92        0.71       3.5     3.2  7.2  0.3222E+00  0.1117E+02  0.5726E+01E
 Epicentro: LA PAZ - SANTANDER                                                 3
 ACTION:UP  12-07-05 12:08 OP:pat  STATUS:               ID:20120525134358 L   I
 2012-05-25-1340-00M.COL___201                                                 6
 STAT SP IPHASW D HRMM SECON CODA AMPLIT PERI AZIMU VELO SNR AR TRES W  DIS CAZ7
 RUS  HZ EP   1   1344 15.51                             143    -0.1 7   71 114 
 RUS  HN ES   1   1344 29.41                             143     0.0 7   71 114 
 RUS  HZ I        1344 32.85         9.8 0.42                            71 114 
 BAR2 SZ EP       1344 15.41                             143     0.110   72  48 
 BAR2 SZ ES   1   1344 28.98                             143     0.1 7   72  48 
 BAR2 SZ I        1344 30.67        80.9 0.14                            72  48 
 PTB  HZ EP   1   1344 16.37                             134    -0.6 7   97 296 
 PTB  HN ES   1   1344 31.48                             134    -0.3 7   97 296 
 PTB  HZ I        1344 35.11         6.9 0.20                            97 296 
 NOR  SZ EP   1   1344 22.13                             121     0.1 7  148 244 
 NOR  SN ES   1   1344 41.20                             121     0.4 7  148 244 
 ZAR  HZ EP   1   1344 27.21                             113    -0.2 6  197 318 
 ZAR  HE ES   1   1344 50.55                             113     0.2 6  197 318 
 ZAR  HZ I        1344 52.05        13.1 0.41                           197 318 
 HEL  HZ EP   1   1344 29.48                             112     0.7 6  206 271 
 HEL  HZ I        1344 58.63         5.2 0.24                           206 271 
 RREF HN ES   2   1344 58.57                             109    -0.2 4  232 233 
 RREF HZ I        1345  3.63         6.0 0.33                           232 233 
 PRA  HZ EP   1   1344 39.28                             103    -0.3 5  302 207 
 PRA  HN ES   1   1345 11.90                             103    -0.2 5  302 207 
                                                                                
