 2014 1025 1232 55.0 L   6.806 -73.143149.9  RSN  5 0.4 1.3LRSN                1
 GAP=137        1.01       5.7     5.5  8.4 -0.3691E+01  0.1463E+01  0.5321E+01E
 Epicentro: LOS SANTOS - SANTANDER                                             3
 ACTION:UPD 14-11-29 23:56 OP:nd   STATUS:               ID:20141025123255 L   I
 OLDACT:REG 14-10-28 18:59 OP:spq  STATUS:               ID:20141025122750     3
 2014-10-25-1227-50M.COL___289                                                 6
 STAT SP IPHASW D HRMM SECON CODA AMPLIT PERI AZIMU VELO AIN AR TRES W  DIS CAZ7
 BAR2 SZ EP   1   1233 15.13                             170   -0.04 7 24.0 190 
 BAR2 SZ ES   1   1233 30.76                             170   -0.13 7 24.0 190 
 BAR2 SZ I        1233 31.82         3.1 0.23            170           24.0 190 
 BRR  HZ EP   1   1233 16.98                             153    0.36 7 71.1 298 
 BRR  HZ I        1233 31.23         5.0 0.24            144           71.1 298 
 BRR  HN ES       1233 34.20                             153    0.7310 71.1 298 
 PAM  SZ EP       1233 17.81                             152    0.1610 76.7  40 
 PAM  SN ES       1233 34.74                             152   -0.5610 76.7  40 
 PAM  SZ I        1233 37.42         3.9 0.40            148           76.7  40 
 RUS  HZ EP       1233 19.48                             144    0.2410  101 176 
 RUS  HE ES       1233 38.18                             144    0.0610  101 176 
 RUS  HZ I        1233 38.87         2.6 0.34            144            101 176 
 PTB  HZ EP   1   1233 21.83                             133   -0.54 7  148 259 
 PTB  HN ES       1233 43.15                             133   -0.55 9  148 259 
 PTB  HZ I        1233 50.50         2.3 0.48            126            148 259 
                                                                                
