 2016  325 1459 51.5 L   6.790 -73.148134.0  RSN  9 0.5 1.8LRSN                1
 GAP=137        0.86       3.8     3.7  6.7 -0.3346E+01  0.1056E+02 -0.8847E-01E
 Epicentro: LOS SANTOS - SANTANDER                                             3
 ACTION:UPD 16-05-13 21:27 OP:cam  STATUS:               ID:20160325145951 L   I
 OLDACT:REG 16-03-25 21:38 OP:dnl  STATUS:               ID:20160325145741     3
 2016-03-25-1457-41M.COL___298                                                 6
 STAT SP IPHASW D HRMM SECON CODA AMPLIT PERI AZIMU VELO AIN AR TRES W  DIS CAZ7
 BAR2 EZ EP       15 0  9.58                             170   -0.1510 22.2 190 
 BAR2 EZ ES       15 0 24.06                             170    0.1410 22.2 190 
 BAR2 EZ I        15 0 26.70        17.3 0.22            169           22.2 190 
 PAM  EZ EP       15 0 12.54                             148   -0.0410 78.4  39 
 PAM  EN ES       15 0 29.20                             148    0.2110 78.4  39 
 PAM  EZ I        15 0 31.63        13.4 0.40            153           78.4  39 
 RUS  HZ EP       15 0 13.70                             142   -0.3710 99.5 176 
 RUS  HE ES       15 0 31.86                             142    0.2210 99.5 176 
 RUS  HZ I        15 0 34.31         5.0 0.30            145           99.5 176 
 PTB  HZ EP   2   15 0 16.55                             129   -0.97 5  147 259 
 PTB  HN ES       15 0 37.04                             129   -0.75 9  147 259 
 PTB  HZ I        15 0 39.96         8.8 0.10            131            147 259 
 OCA  HZ EP   3   15 0 20.08                             127    1.02 2  161 353 
 OCA  HN ES   4   15 0 38.17                             127   -2.36 0  161 353 
 OCA  HZ I        15 0 40.82        17.7 0.18            130            161 353 
 SPBC HZ EP   2   15 0 18.88                             127   -0.18 5  162 219 
 SPBC HE ES   2   15 0 40.38                             127   -0.14 5  162 219 
 SPBC HZ I        15 0 47.27         7.8 0.15            129            162 219 
 ZAR  HZ EP   2   15 0 23.04                             120   -0.22 4  204 292 
 ZAR  HE ES       15 0 48.41                             120    0.41 9  204 292 
 ZAR  HZ I        15 0 53.92         9.7 0.38            122            204 292 
 NOR  HZ EP   2   15 0 26.11                             116   -0.40 4  234 235 
 NOR  HN ES       15 0 54.02                             116    0.23 8  234 235 
 NOR  HZ I        15 0 56.76         6.3 0.24            118            234 235 
 GUY2CHZ EP   2   15 0 35.43                             110    0.90 4  300 235 
 GUY2CHN ES       15 1  8.86                             110    0.80 7  300 235 
 GUY2CHZ I        15 1 15.07         3.2 0.30                           300 235 
                                                                                
