 2013 1225 1043 57.3 L   6.809 -73.187136.8  RSN 11 0.5 2.1LRSN                1
 GAP=131        1.19       4.4     4.9  7.7 -0.4614E+01  0.1509E+02  0.3075E+01E
 Epicentro: ZAPATOCA - SANTANDER                                               3
 ACTION:UPD 14-01-13 10:20 OP:ep   STATUS:               ID:20131225104357 L   I
 OLDACT:DUP 13-12-25 15:45 OP:jn   STATUS:               ID:20131225104001d    3
 2013-12-25-1040-00M.COL___285                                                 6
 STAT SP IPHASW D HRMM SECON CODA AMPLIT PERI AZIMU VELO AIN AR TRES W  DIS CAZ7
 BAR2 SZ EP       1044 15.90                             170    0.0510 23.9 179 
 BAR2 SZ ES       1044 30.76                             170    0.4210 23.9 179 
 BAR2 SZ I        1044 33.15        39.9 0.22            169           23.9 179 
 PAM  SZ EP       1044 18.64                             148   -0.0610 79.6  42 
 PAM  SN ES       1044 35.59                             148    0.1910 79.6  42 
 PAM  SZ I        1044 37.69        23.3 0.50            155           79.6  42 
 RUS  HZ EP       1044 20.05                             141   -0.2210  102 174 
 RUS  HN ES       1044 38.34                             141    0.1410  102 174 
 RUS  HZ I        1044 40.37        20.4 0.30            145            102 174 
 PTB  HZ EP       1044 22.49                             131   -0.65 9  144 258 
 PTB  HN ES       1044 42.35                             131   -0.96 9  144 258 
 PTB  HZ I        1044 46.03        22.5 0.10            131            144 258 
 OCA  HN ES   2   1044 45.17                             128   -1.05 5  159 355 
 SPBC HZ EP       1044 24.75                             127   -0.16 9  161 218 
 SPBC HE ES   1   1044 46.38                             127   -0.08 7  161 218 
 SPBC HZ I        1044 53.95        20.4 0.28            129            161 218 
 ZAR  HN ES   2   1044 53.84                             121    0.66 4  200 292 
 ZAR  HZ I        1045  0.67        10.1 0.12            122            200 292 
 NOR  HZ EP       1044 32.23                             117    0.06 8  232 234 
 NOR  HN ES       1044 59.79                             117    0.40 8  232 234 
 NOR  HZ I        1045  5.00         9.8 0.18            119            232 234 
 SML  HN ES   2   1045  1.48                             116    0.40 4  241 336 
 CHI  HZ EP       1044 34.33                             115   -0.15 8  248 194 
 CHI  HN ES       1045  3.16                             115   -0.33 8  248 194 
 CHI  HZ I        1045  7.07         3.8 0.66            118            248 194 
 HEL  HZ EP       1044 38.22                             113    1.63 8  268 255 
 HEL  HN ES       1045  7.51                             113    0.26 8  268 255 
 HEL  HZ I        1045 15.47         6.3 0.60            115            268 255 
                                                                                
