 2011  425 1200 43.4 L   6.807 -73.115139.3  RSN 10 0.4 2.0LRSN                1
 GAP=140        0.87       4.3     6.2  6.9 -0.1372E+02  0.1140E+02 -0.4876E+00E
 Epicentro: LOS SANTOS - SANTANDER                                             3
 ACTION:UP  11-06-22 15:33 OP:REBC STATUS:               ID:20110425120043 L   I
 2011-04-25-1159-33S.COL___139                                                 6
 STAT SP IPHASW D HRMM SECON CODA AMPLIT PERI AZIMU VELO SNR AR TRES W  DIS CAZ7
 BTL  SZ EP       12 1  2.28                             171     0.110   21 306 
 BAR2 SZ EP   1   12 1  2.13                             169    -0.2 7   25 197 
 BAR2 SZ ES   1   12 1 16.82                             169    -0.2 7   25 197 
 BAR2 SZ I        12 1 18.26        38.1 0.12                            25 197 
 BRR  HZ EP       12 1  4.01                             150     0.010   74 297 
 BRR  HE ES   1   12 1 20.27                             150     0.2 7   74 297 
 BRR  HZ I        12 1 22.16        30.0 0.18                            74 297 
 PAM  SZ EP   1   12 1  4.88                             150     0.1 7   75  38 
 PAM  SN ES   1   12 1 21.72                             150     0.3 7   75  38 
 PAM  SZ I        12 1 24.57         6.3 0.35                            75  38 
 RUS  HZ EP   1   12 1  6.11                             142    -0.5 7  101 178 
 RUS  HN ES   1   12 1 24.78                             142     0.1 7  101 178 
 RUS  HZ I        12 1 26.69         8.2 0.26                           101 178 
 BRI  SZ EP   1   12 1  6.82                             140     0.3 7  107  19 
 GRA  SZ EP   1   12 1  8.04                             136     0.1 7  124  16 
 GRA  SZ ES   1   12 1 26.46                             136    -0.6 7  124  16 
 GRA  SZ I        12 1 28.65        12.2 0.37                           124  16 
 NOR  SZ EP   1   12 1 18.36                             117    -0.7 6  238 235 
 NOR  SN ES   1   12 1 46.45                             117    -0.5 6  238 235 
 ROSC BN ES   1   12 1 51.83                             115     0.7 6  255 212 
 ROSC BZ I        12 1 57.97        11.5 0.46                           255 212 
 HEL  HZ EP   1   12 1 24.36                             113     0.7 6  276 256 
 HEL  HZ I        12 2  2.00         5.7 0.37                           276 256 
                                                                                
