 2015 1125 1303  7.7 L   6.169 -73.775 99.4  RSN 12 0.4 2.1LRSN                1
 GAP=108        0.98       2.6     2.9  6.1 -0.9364E+00  0.4945E+01 -0.3872E+01E
 Epicentro: LANDAZURI - SANTANDER                                              3
 ACTION:UPD 15-12-28 16:13 OP:cam  STATUS:               ID:20151125130307 L   I
 OLDACT:UP  15-12-10 15:33 OP:cam  STATUS:               ID:20151125130307 L   3
 OLDACT:UP  15-12-01 10:58 OP:ak   STATUS:               ID:20151125130307 L   3
 OLDACT:REG 15-11-25 20:53 OP:ak   STATUS:               ID:20151125125749     3
 2015-11-25-1257-49M.COL___206                                                 6
 STAT SP IPHASW D HRMM SECON CODA AMPLIT PERI AZIMU VELO AIN AR TRES W  DIS CAZ7
 SPBC HZ EP     D 13 3 23.91                             144    0.0510 65.9 210 
 SPBC HN ES       13 3 36.69                             144    0.2610 65.9 210 
 SPBC HZ I        13 3 39.65        33.3 0.06            148           65.9 210 
 RUS  HZ EP       13 3 25.64                             138   -0.0610 82.4 112 
 RUS  HE ES       13 3 39.54                             138   -0.1710 82.4 112 
 PTB  HZ IP     D 13 3 24.66                             136   -0.6710 85.8 299 
 PTB  HN ES       13 3 38.40                             136   -0.6510 85.8 299 
 PTB  HZ I        13 3 43.08        35.0 0.40            138           85.8 299 
 BRR  HZ EP       13 3 27.13                             130    0.1910  104   4 
 BRR  HN ES       13 3 42.55                             130    0.6310  104   4 
 BRR  HZ I        13 3 46.10        30.1 0.12            134            104   4 
 NOR  HZ EP       13 3 29.82                             122   -0.64 9  138 241 
 NOR  HN ES       13 3 48.25                             122    0.07 9  138 241 
 NOR  HZ I        13 3 52.12        50.3 0.16            125            138 241 
 ZAR  HZ EP       13 3 36.01                             113    0.06 9  189 321 
 ZAR  HN ES       13 3 58.53                             113    0.57 9  189 321 
 ZAR  HZ I        13 4  2.78        32.6 0.21            116            189 321 
 HEL  HZ EP   2   13 3 36.65                             113   -0.33 4  194 271 
 HEL  HN ES       13 3 59.90                             113    0.11 9  194 271 
 HEL  HZ I        13 4  4.79        10.3 0.24            115            194 271 
 CBOC HZ EP       13 3 43.69                             108    0.49 8  250 262 
 CBOC HN ES       13 4 10.66                             108   -0.21 8  250 262 
 CBOC HZ I        13 4 13.44         6.0 0.58            109            250 262 
 ANIL HN ES       13 4 13.79                             107    0.80 8  259 224 
 URE  HZ EP   9   13 3 42.82                             107   -1.54 0  261 312 
 URE  HN ES       13 4 11.36                             107   -0.03 8  261 312 
 URE  HZ I        13 4 13.30        10.1 0.09            108            261 312 
 SML  HZ EP       13 3 47.78                             105   -0.30 7  293 354 
 SML  HN ES       13 4 19.58                             105    0.03 7  293 354 
 MON  HZ EP   4   13 3 53.99                             102   -1.68 0  356 324 
 MON  HN ES       13 4 32.86                             102   -0.21 6  356 324 
 SJC  HZ EP   4   13 4  4.20                              99   -1.79 0  440 340 
 SJC  HN ES   4   13 4 47.80                              99   -3.63 0  440 340 
                                                                                
