 2013  525 1638 34.4 L   6.781 -73.180141.8  RSN  6 0.3 1.4LRSN                1
 GAP=133        0.76       4.4     4.6  6.4 -0.3238E+01  0.3069E+01 -0.2158E+01E
 Epicentro: LOS SANTOS - SANTANDER                                             3
 ACTION:UPD 13-06-20 09:53 OP:ep   STATUS:               ID:20130525163834 L   I
 2013-05-25-1636-50M.COL___211                                                 6
 STAT SP IPHASW D HRMM SECON CODA AMPLIT PERI AZIMU VELO AIN AR TRES W  DIS CAZ7
 BAR2 SZ EP   1   1638 53.48                             171    0.00 7 20.9 181 
 BAR2 SZ ES       1639  8.72                             171    0.3410 20.9 181 
 BAR2 SZ I        1639  9.80         9.4 0.34            172           20.9 181 
 GIR2 SZ ES   1   1639  8.73                             166    0.09 7 32.9 357 
 GIR2 SZ I        1639  9.99         5.4 0.46            167           32.9 357 
 BRR  HZ EP       1638 55.48                             153    0.5110 68.9 302 
 PAM  SZ EP       1638 56.33                             149   -0.0910 81.4  41 
 PAM  SN ES   1   1639 13.11                             149   -0.50 7 81.4  41 
 PAM  SZ I        1639 15.66         5.3 0.56            150           81.4  41 
 RUS  HZ EP       1638 57.55                             143   -0.0610 98.9 174 
 RUS  HN ES       1639 15.62                             143   -0.1210 98.9 174 
 RUS  HZ I        1639 17.41         3.2 0.30            145           98.9 174 
 PTB  HN ES       1639 20.73                             132   -0.40 9  144 259 
 PTB  HZ I        1639 23.09         4.3 0.20            134            144 259 
                                                                                
