 2016 1225 1653 26.0 L   6.593 -73.243138.0  RSN  5 0.4 1.1LRSN                1
 GAP=133        1.10       9.8     7.8  7.4  0.5106E+02  0.8842E+01 -0.3653E+01E
 Epicentro: CABRERA - SANTANDER                                                3
 ACTION:UPD 17-01-11 20:19 OP:rebc STATUS:               ID:20161225165326 L   I
 OLDACT:UP  16-12-26 00:57 OP:edw  STATUS:               ID:20161225164744     3
 OLDACT:REG 16-12-25 20:48 OP:edw  STATUS:               ID:20161225164744     3
 2016-12-25-1648-00M.COL___384                                                 6
 STAT SP IPHASW D HRMM SECON CODA AMPLIT PERI AZIMU VELO AIN AR TRES W  DIS CAZ7
 BAR2 EZ EP       1653 43.86                             177   -0.5710 6.66  91 
 BAR2 EZ ES       1653 59.22                             177    0.3910 6.66  91 
 BRR  HZ EP   9   1653 45.84                             149   -0.79 0 77.0 318 
 BRR  HN ES       1654  2.48                             148    0.5210 77.0 318 
 BRR  HZ I        1654  4.83         1.8 0.27            150           77.0 318 
 RUS  HZ EP       1653 48.22                             149    0.7310 79.4 167 
 RUS  HE ES       1654  3.89                             149   -0.3910 79.4 167 
 RUS  HZ I        1654  7.73         1.4 0.26            151           79.4 167 
 PAM  EZ EP   4   1653 53.83                             142    4.77 0  102  36 
 PTB  HZ EP       1653 50.92                             133   -0.1610  134 268 
 PTB  HN ES       1654 10.86                             133    0.1810  134 268 
 ZAR  HZ EP       1653 57.93                             121   -0.01 9  204 299 
 ZAR  HN ES       1654 22.65                             121   -0.23 9  204 299 
 ZAR  HZ I        1654 27.50         2.1 0.32            122            204 299 
                                                                                
