 2012  125 1015 35.0 L   6.754 -73.127142.6  RSN  7 0.4 1.4LRSN                1
 GAP=141        0.97       5.5     7.7  8.4 -0.1607E+01  0.1240E+02  0.1691E+01E
 Epicentro: LOS SANTOS - SANTANDER                                             3
 ACTION:UP  12-02-03 08:20 OP:REBC STATUS:               ID:20120125101535 L   I
 2012-01-25-1010-00M.COL___187                                                 6
 STAT SP IPHASW D HRMM SECON CODA AMPLIT PERI AZIMU VELO SNR AR TRES W  DIS CAZ7
 BAR2 SZ EP       1015 54.21                             172     0.010   19 199 
 BAR2 SZ ES   1   1016  8.72                             172    -0.4 7   19 199 
 BAR2 SZ I        1016 10.12         7.7 0.46                            19 199 
 GIR2 SZ EP       1015 54.43                             165     0.010   37 348 
 GIR2 SZ ES   3   1016  9.38                             165    -0.3 2   37 348 
 BRR  HZ EP       1015 56.41                             150     0.310   76 301 
 BRR  HZ I        1015 59.67         8.5 0.14                            76 301 
 BRR  HN ES   1   1016 13.21                             150     0.7 7   76 301 
 PAM  SZ EP       1015 57.30                             149     0.210   80  36 
 PAM  SN ES   1   1016 14.01                             149    -0.2 7   80  36 
 RUS  HZ EP       1015 58.25                             145     0.210   95 177 
 RUS  HN ES   1   1016 15.96                             145    -0.1 7   95 177 
 RUS  HZ I        1016 17.85         3.6 0.26                            95 177 
 PTB  HZ EP       1016  1.23                             131    -0.6 9  149 261 
 PTB  HZ I        1016 26.14         2.0 0.11                           149 261 
 OCA  SZ ES   2   1016 24.83                             128    -1.0 5  166 353 
                                                                                
