 2017  225 1040 42.3 L   7.371 -73.198134.4  RSN  7 0.3 1.5LRSN                1
 GAP=174        0.69       3.8     3.0  4.8  0.1645E+01  0.4720E+01 -0.2383E+01E
 Epicentro: EL PLAYON - SANTANDER                                              3
 ACTION:UPD 17-05-24 15:40 OP:jn   STATUS:               ID:20170225104042 L   I
 OLDACT:UP  17-02-25 21:58 OP:edw  STATUS:               ID:20170225103740d    3
 OLDACT:DUP 17-02-25 21:54 OP:edw  STATUS:               ID:20170225103740d    3
 2017-02-25-1038-00M.COL___369                                                 6
 STAT SP IPHASW D HRMM SECON CODA AMPLIT PERI AZIMU VELO AIN AR TRES W  DIS CAZ7
 PAM  EZ IP     C 1041  2.10                             157    0.0510 55.1  94 
 PAM  EN ES       1041 17.29                             157   -0.1810 55.1  94 
 PAM  EZ I        1041 18.12         5.7 0.16            158           55.1  94 
 BRR  HZ EP       1041  1.81                             153    0.0210 63.9 243 
 BRR  HN ES       1041 17.12                             153    0.1110 63.9 243 
 BAR2 EZ ES       1041 20.29                             145    0.1910 86.2 179 
 BAR2 EZ I        1041 21.20         8.8 0.10            143           86.2 179 
 RUS  HZ EP       1041 10.99                             126    0.44 9  164 176 
 RUS  HN ES       1041 32.19                             126   -0.41 9  164 176 
 RUS  HZ I        1041 36.37         2.9 0.28            126            164 176 
 PTB  HZ EP       1041 10.49                             126    0.30 9  167 237 
 PTB  HN ES       1041 31.67                             126   -0.29 9  167 237 
 PTB  HZ I        1041 35.43         4.4 0.40            125            167 237 
 ZAR  HZ EP       1041 11.77                             123   -0.13 9  184 274 
 ZAR  HN ES       1041 35.24                             123    0.24 9  184 274 
 ZAR  HZ I        1041 36.26         4.0 0.20            123            184 274 
 URE  HZ EP       1041 19.73                             113   -0.53 8  261 279 
 URE  HN ES   4   1041 47.52                             113   -2.36 0  261 279 
 URE  HZ I        1041 49.95         2.3 0.30            114            261 279 
 CHI  HZ EP   4   1041 28.43                             109    2.24 0  309 191 
 CHI  HN ES   4   1042  3.44                             109    3.00 0  309 191 
                                                                                
