 2015  525 1543 23.1 L   6.821 -73.126143.1  RSN 13 0.5 2.8LRSN                1
 GAP=138        1.27       3.5     5.2  6.9 -0.4160E+01  0.1468E+02 -0.1540E+01E
 Epicentro: LOS SANTOS - SANTANDER                                             3
 ACTION:UPD 15-09-10 22:06 OP:cam  STATUS:               ID:20150525154323 L   I
 OLDACT:REG 15-05-25 20:46 OP:ar   STATUS:               ID:20150525153749     3
 2015-05-25-1537-49M.COL___297                                                 6
 STAT SP IPHASW D HRMM SECON CODA AMPLIT PERI AZIMU VELO AIN AR TRES W  DIS CAZ7
 BAR2 EZ EP     C 1543 42.57                             169    0.1410 26.1 194 
 BAR2 EZ ES       1543 56.56                             169   -0.9810 26.1 194 
 BAR2 EZ I        1543 58.26       209.0 0.34            167           26.1 194 
 BRR  HZ IP     D 1543 44.31                             152    0.3410 72.0 296 
 BRR  HE ES       1544  1.31                             152    1.0310 72.0 296 
 BRR  HZ I        1544  1.70       128.1 0.14            149           72.0 296 
 PAM  SZ EP       1543 45.40                             151    0.6010 74.2  39 
 PAM  SN ES       1544  2.18                             151    0.4110 74.2  39 
 PAM  SZ I        1544  4.26       205.2 0.50            156           74.2  39 
 RUS  HZ EP     C 1543 46.65                             143   -0.0610  103 177 
 RUS  HE ES       1544  4.97                             143   -0.2010  103 177 
 RUS  HZ I        1544  6.96        41.5 0.18            144            103 177 
 OCA  HZ EP       1543 50.45                             129   -0.52 9  158 352 
 OCA  HE ES       1544 12.54                             129   -0.20 9  158 352 
 OCA  HZ I        1544 15.21       210.8 0.18            131            158 352 
 SPBC HZ EP       1543 51.45                             128   -0.21 9  166 219 
 SPBC HE ES       1544 13.73                             128   -0.24 9  166 219 
 SPBC HZ I        1544 21.40        70.7 0.22            128            166 219 
 ZAR  HZ EP       1543 55.68                             122    0.23 9  205 291 
 ZAR  HE ES       1544 20.28                             122   -0.43 9  205 291 
 ZAR  HZ I        1544 28.00        77.2 0.42            122            205 291 
 NOR  HZ EP       1543 58.62                             118   -0.35 8  238 234 
 NOR  HN ES       1544 26.81                             118   -0.17 8  238 234 
 NOR  HZ I        1544 32.18        39.7 0.16            118            238 234 
 SML  HZ EP       1543 58.58                             117   -0.82 8  242 335 
 SML  HN ES       1544 27.45                             117   -0.30 8  242 335 
 SML  HZ I        1544 30.07        60.7 0.22            118            242 335 
 HEL  HZ EP       1544  3.61                             114    0.18 8  275 255 
 HEL  HN ES   4   1544 37.73                             114    2.81 0  275 255 
 HEL  HZ I        1544 40.50        45.5 0.38            115            275 255 
 GUY2CHZ EP       1544  8.00                             112    1.11 7  304 235 
 GUY2CHN ES       1544 41.75                             112    0.66 7  304 235 
 GUY2CHZ I        1544 49.17        25.1 0.42                           304 235 
 CBOC HZ EP   4   1544 11.30                             109    1.12 0  336 252 
 CBOC HN ES       1544 46.67                             109   -0.26 7  336 252 
 CBOC HZ I        1544 56.38        12.6 0.95            110            336 252 
 SJC  HZ EP   4   1544 16.70                             105   -1.74 0  408 327 
 SJC  HN ES   4   1544 57.90                             105   -3.74 0  408 327 
 SJC  HZ I        1545  1.85        25.5 0.48            106            408 327 
                                                                                
