 2010  225 1002 12.7 L   6.800 -73.031138.0  RSN  5 0.3 1.7LRSN                1
 GAP=195        0.61       4.9    11.2  8.2  0.3465E+02 -0.5339E+02 -0.2272E+02E
 Epicentro: CEPITA - SANTANDER                                                 3
 ACTION:UP  10-08-24 09:50 OP:vdl  STATUS:               ID:20100225100212 L   I
 2010-02-25-1000-48S.COL___094                                                 6
 STAT SP IPHASW D HRMM SECON CODA AMPLIT PERI AZIMU VELO SNR AR TRES W  DIS CAZ7
 BAR2 SZ IP       10 2 31.62                             168     0.110   29 216 
 BAR2 SZ ES   2   10 2 45.77                             168    -0.4 5   29 216 
 GIR2 SZ IP       10 2 31.76                             165     0.210   36 330 
 GIR2 SZ ES   3   10 2 46.40                             165     0.1 2   36 330 
 BRR  HZ IP       10 2 33.55                             148    -0.210   83 294 
 BRR  HZ I        10 2 33.89        18.3 0.11                            83 294 
 BRR  HE ES   1   10 2 50.24                             148     0.1 7   83 294 
 RUS  BZ EP       10 2 35.38                             143    -0.310  101 183 
 RUS  BE ES   1   10 2 53.91                             143     0.3 7  101 183 
 RUS  BZ I        10 2 55.29         3.2 0.48                           101 183 
 OCA  SZ EP       10 2 40.67                             128     0.1 9  162 349 
 OCA  SZ ES   3   10 3  1.13                             128    -1.2 2  162 349 
 OCA  SZ I        10 3  4.07        11.6 0.17                           162 349 
                                                                                
