 2010  825 1457 39.4 L   6.367 -73.418117.7  RSN  5 0.2 1.4LRSN                1
 GAP=145        0.46       5.1     8.0  6.0 -0.2334E+02  0.2214E+02 -0.1138E+02E
 Epicentro: CHIMA - SANTANDER                                                  3
 ACTION:UP  10-09-07 10:58 OP:vdl  STATUS:               ID:20100825145739 L   I
 2010-08-25-1453-04S.COL___121                                                 6
 STAT SP IPHASW D HRMM SECON CODA AMPLIT PERI AZIMU VELO SNR AR TRES W  DIS CAZ7
 BAR2 SZ EP       1457 56.26                             162     0.210   36  46 
 BAR2 SZ ES   1   1458  8.89                             162    -0.2 7   36  46 
 BAR2 SZ I        1458  9.88        11.1 0.32                            36  46 
 RUS  HZ EP   1   1457 57.69                             150    -0.1 7   64 145 
 RUS  HN ES   3   1458 12.39                                     0.2 2   64 145 
 RUS  HZ I        1458 15.69         3.9 0.37                            64 145 
 GIR2 SZ EP   2   1457 58.79                             142     0.2 5   83  17 
 GUE  SZ EP       1458  6.86                             120    -0.1 9  171  19 
 GUE  SZ I        1458 29.88         1.9 0.11                           171  19 
 RREF HN ES   2   1458 48.45                             109    -0.1 4  268 233 
 RREF HZ I        1458 51.78         2.1 0.18                           268 233 
                                                                                
