 2013  125 1127 51.7 L   6.781 -73.134135.8  RSN  7 0.2 1.7LRSN                1
 GAP=139        0.54       2.5     2.5  3.8  0.2948E+00  0.3415E+01 -0.8791E-01E
 Epicentro: LOS SANTOS - SANTANDER                                             3
 ACTION:UPD 13-02-15 09:16 OP:ep   STATUS:               ID:20130125112751 L   I
 2013-01-25-1118-49M.COL___177                                                 6
 STAT SP IPHASW D HRMM SECON CODA AMPLIT PERI AZIMU VELO AIN AR TRES W  DIS CAZ7
 BAR2 SZ EP       1128 10.07                             171   -0.0510 21.5 194 
 BAR2 SZ ES       1128 24.58                             171    0.1210 21.5 194 
 BRR  HZ EP       1128 12.22                             150    0.2910 73.4 300 
 PAM  SZ IP       1128 13.25                             149    0.3110 78.2  38 
 PAM  SN ES       1128 29.16                             149   -0.3310 78.2  38 
 RUS  HZ EP       1128 14.16                             142   -0.1810 98.4 177 
 RUS  HN ES       1128 32.06                             142    0.0810 98.4 177 
 RUS  HN I        1128 33.01         5.3 0.42            143           98.4 177 
 PTB  HZ EP       1128 18.03                             129    0.05 9  149 260 
 PTB  HE ES       1128 38.47                             129    0.01 9  149 260 
 PTB  HN I        1128 40.94         7.6 0.42            129            149 260 
 ZAR  HZ EP       1128 23.80                             120    0.05 8  206 293 
 ZAR  HN ES       1128 48.51                             120   -0.22 8  206 293 
 ZAR  HN I        1128 51.77         5.8 0.12            120            206 293 
 CHI  HZ EP       1128 28.44                             115   -0.26 8  247 196 
                                                                                
