 2015 1225 1749 29.0 L   6.815 -73.165145.5  RSN 12 0.4 2.5LRSN                1
 GAP=133        0.88       2.2     3.3  4.5 -0.1229E+01  0.4000E+01  0.2502E+00E
 Epicentro: LOS SANTOS - SANTANDER                                             3
 ACTION:UPD 16-02-04 15:07 OP:cam  STATUS:               ID:20151225174929 L   I
 OLDACT:REG 15-12-25 21:01 OP:cara STATUS:               ID:20151225174749     3
 2015-12-25-1747-49M.COL___319                                                 6
 STAT SP IPHASW D HRMM SECON CODA AMPLIT PERI AZIMU VELO AIN AR TRES W  DIS CAZ7
 BAR2 EZ IP       1749 48.75                             170    0.1110 24.7 184 
 BAR2 EZ ES       1750  3.35                             170   -0.6010 24.7 184 
 BAR2 EZ I        1750  5.43       109.1 0.32            171           24.7 184 
 BRR  HZ IP     C 1749 50.56                             153    0.5710 68.5 298 
 BRR  HN ES       1750  6.94                             153    0.6010 68.5 298 
 BRR  HZ I        1750 11.52        59.2 0.38            151           68.5 298 
 PAM  EZ EP       1749 51.53                             151    0.3210 77.5  42 
 PAM  EN ES       1750  8.90                             151    0.3810 77.5  42 
 PAM  EZ I        1750 11.19        38.8 0.60            154           77.5  42 
 RUS  HZ EP       1749 52.59                             143   -0.2810  102 175 
 RUS  HN ES       1750 11.50                             143    0.0210  102 175 
 RUS  HZ I        1750 12.84        35.5 0.22            147            102 175 
 PTB  HZ EP       1749 55.35                             132   -0.45 9  146 258 
 PTB  HN ES       1750 16.70                             132    0.01 9  146 258 
 PTB  HZ I        1750 22.11        37.8 0.18            133            146 258 
 OCA  HZ EP       1749 56.80                             130   -0.33 9  158 354 
 OCA  HN ES       1750 18.83                             130   -0.22 9  158 354 
 OCA  HZ I        1750 27.26        66.2 0.46            132            158 354 
 SPBC HZ EP       1749 57.58                             129    0.09 9  163 218 
 SPBC HN ES       1750 19.12                             129   -0.58 9  163 218 
 SPBC HZ I        1750 21.50        46.7 0.12            131            163 218 
 ZAR  HZ EP       1750  1.40                             123    0.23 9  201 292 
 ZAR  HN ES       1750 26.17                             123   -0.08 9  201 292 
 ZAR  HZ I        1750 33.05        41.0 0.68            124            201 292 
 NOR  HZ EP       1750  4.23                             119   -0.41 8  234 234 
 NOR  HE ES       1750 32.55                             119    0.12 8  234 234 
 NOR  HZ I        1750 39.54        17.1 0.22            121            234 234 
 SML  HZ EP       1750  4.99                             118   -0.38 8  241 336 
 SML  HN ES       1750 33.52                             118   -0.20 8  241 336 
 SML  HZ I        1750 35.97        43.7 0.28            119            241 336 
 CHI  HZ IP       1750  7.09                             117    0.28 8  250 195 
 CHI  HN ES       1750 36.38                             117    0.09 8  250 195 
 CHI  HZ I        1750 39.79        14.0 0.64            120            250 195 
 GUY2CHZ EP       1750 12.75                             112    0.23 7  300 234 
 GUY2CHN ES       1750 46.94                             112    0.49 7  300 234 
 GUY2CHZ I        1750 58.99        10.5 0.44                           300 234 
                                                                                
