 2010  425 1530 21.6 L   6.771 -73.003141.2  RSN  7 0.5 2.2LRSN                1
 GAP=202        0.99       7.9    10.4  9.0 -0.4889E+02 -0.2612E+02  0.1988E+02E
 Epicentro: CEPITA - SANTANDER                                                 3
 ACTION:UP  10-08-24 10:01 OP:vdl  STATUS:               ID:20100425153022 L   I
 2010-04-25-1526-22S.COL___104                                                 6
 STAT SP IPHASW D HRMM SECON CODA AMPLIT PERI AZIMU VELO AIN AR TRES W  DIS CAZ7
 BAR2 SZ EP   1   1530 40.52                             168    -0.2 7   28 225 
 BAR2 SZ ES   1   1530 55.86                             168     0.1 7   28 225 
 BRR  HZ IP     C 1530 42.93                             147    -0.310   87 295 
 BRR  HZ I        1530 43.21        41.8 0.08                            87 295 
 BRR  HN ES       1530 59.96                             147    -0.110   87 295 
 GUE  SZ EP       1530 45.53                             138    -0.410  117   4 
 GRA  SZ EP   1   1530 47.36                             136     1.0 7  125  10 
 GRA  SZ ES   2   1531  6.30                             136     0.6 5  125  10 
 RREF BZ EP   2   1531  7.90                             109    -0.8 3  332 232 
 RREF BN ES   1   1531 46.52                             109     1.1 5  332 232 
 RREF BZ I        1531 49.65         3.8 0.31                           332 232 
 TOL  SZ EP   2   1531 10.79                             108     0.1 3  353 227 
 PRA  HZ EP   2   1531 15.13                             105    -0.4 3  397 212 
 PRA  HN ES   2   1531 57.51                             105    -0.1 3  397 212 
 PRA  HZ I        1532  2.40         4.3 0.21                           397 212 
                                                                                
