 2015  925 1223 31.6 L   6.589 -73.518108.7  RSN  4 0.3 1.7LRSN                1
 GAP=178        0.70       8.2     5.7  8.2  0.2992E+02  0.2511E+02  0.1930E+02E
 Epicentro: EL CARMEN - SANTANDER                                              3
 ACTION:UPD 15-10-28 16:28 OP:cam  STATUS:               ID:20150925122331 L   I
 OLDACT:REG 15-09-25 20:32 OP:ar   STATUS:               ID:20150925121746     3
 2015-09-25-1217-46M.COL___361                                                 6
 STAT SP IPHASW D HRMM SECON CODA AMPLIT PERI AZIMU VELO AIN AR TRES W  DIS CAZ7
 BAR2 EZ EP       1223 47.43                             160    0.1310 37.2  89 
 BAR2 EZ ES       1223 59.69                             160    0.1610 37.2  89 
 BAR2 EZ I        1224  0.97        28.1 0.28            145           37.2  89 
 BRR  HZ EP       1223 47.84                             148   -0.4010 61.1 340 
 BRR  HZ I        1224  0.47        16.2 0.24            134           61.1 340 
 BRR  HN ES       1224  1.03                             148   -0.1610 61.1 340 
 PTB  HZ EP   2   1223 51.67                             133    0.08 5  104 267 
 PTB  HN ES   2   1224  6.71                             133   -0.46 5  104 267 
 PTB  HZ I        1224  8.39         7.1 0.46            123            104 267 
 ZAR  HE ES       1224 21.06                             116    0.47 9  179 304 
 ZAR  HZ I        1224 24.43         4.3 0.32            107            179 304 
                                                                                
