 2016  525 1849  4.6 L   6.842 -73.182141.4  RSN  8 0.4 2.0LRSN                1
 GAP=130        1.00       3.4     4.5  6.0 -0.5343E+01  0.5914E+01  0.3586E+00E
 Epicentro: ZAPATOCA - SANTANDER                                               3
 ACTION:UPD 16-08-18 17:49 OP:cam  STATUS:               ID:20160525184904 L   I
 OLDACT:REG 16-05-25 22:29 OP:ar   STATUS:               ID:20160525183743     3
 2016-05-25-1837-43M.COL___313                                                 6
 STAT SP IPHASW D HRMM SECON CODA AMPLIT PERI AZIMU VELO AIN AR TRES W  DIS CAZ7
 BAR2 EZ EP       1849 23.78                             168   -0.0010 27.6 180 
 BAR2 EZ ES       1849 38.30                             168   -0.4610 27.6 180 
 BAR2 EZ I        1849 41.95        19.0 0.16            169           27.6 180 
 BRR  HZ EP       1849 25.71                             154    0.7710 65.5 297 
 BRR  HN ES       1849 40.92                             154    0.1010 65.5 297 
 BRR  HZ I        1849 48.15        25.2 0.32            153           65.5 297 
 PAM  EZ EP       1849 26.58                             150    0.3010 76.6  44 
 PAM  EN ES       1849 43.58                             150    0.3710 76.6  44 
 PAM  EZ I        1849 45.87        15.7 0.24            155           76.6  44 
 RUS  HZ EP       1849 28.09                             141   -0.1910  106 174 
 RUS  HN ES       1849 46.73                             141   -0.0310  106 174 
 RUS  HZ I        1849 47.51         8.3 0.42            146            106 174 
 PTB  HZ EP       1849 30.61                             132   -0.32 9  145 257 
 PTB  HN ES       1849 51.34                             132   -0.14 9  145 257 
 PTB  HZ I        1849 53.52        13.4 0.28            133            145 257 
 OCA  HZ EP       1849 31.10                             130   -0.98 9  155 354 
 OCA  HE ES       1849 53.51                             130   -0.01 9  155 354 
 OCA  HZ I        1849 56.81        29.4 0.32            133            155 354 
 SPBC HZ EP       1849 33.11                             128    0.25 9  164 217 
 SPBC HN ES       1849 54.74                             128   -0.18 9  164 217 
 SPBC HZ I        1850  0.90        17.9 0.16            131            164 217 
 NOR  HZ EP       1849 40.22                             118    0.21 8  234 233 
 NOR  HN ES       1850  7.95                             118    0.31 8  234 233 
 NOR  HZ I        1850 13.73        10.4 0.16            120            234 233 
                                                                                
