 2017 1125 1601 56.6 L   6.777 -73.247128.7  RSN  4 0.4 1.1LRSN                1
 GAP=145        1.06       6.0     5.6  9.1 -0.1030E+02  0.1502E+02 -0.6516E+01E
 Epicentro: ZAPATOCA - SANTANDER                                               3
 ACTION:UPD 17-12-12 20:00 OP:rebc STATUS:               ID:20171125160156 L   I
 OLDACT:UP  17-11-25 23:17 OP:edw  STATUS:               ID:20171125155742     3
 OLDACT:REG 17-11-25 22:37 OP:edw  STATUS:               ID:20171125155742     3
 2017-11-25-1558-00M.COL___492                                                 6
 STAT SP IPHASW D HRMM SECON CODA AMPLIT PERI AZIMU VELO AIN AR TRES W  DIS CAZ7
 BAR2 EZ EP       16 2 15.00                             170    0.8910 21.6 161 
 BAR2 EZ ES       16 2 28.16                             170    0.3710 21.6 161 
 BAR2 EZ I        16 2 29.29         5.3 0.44            174           21.6 161 
 PAM  EZ EP       16 2 17.53                             144   -0.1210 86.8  44 
 PAM  EN ES       16 2 33.72                             144   -0.3610 86.8  44 
 PAM  EZ I        16 2 38.89         2.1 0.32            146           86.8  44 
 RUS  HZ EP       16 2 18.47                             140   -0.1310 99.4 169 
 RUS  HE ES       16 2 35.38                             140   -0.3910 99.4 169 
 RUS  HZ I        16 2 37.04         1.4 0.18            145           99.4 169 
 PTB  HZ EP       16 2 21.05                             130   -0.06 9  136 259 
 PTB  HN ES       16 2 40.03                             130   -0.22 9  136 259 
 PTB  HZ I        16 2 43.00         1.7 0.16            133            136 259 
                                                                                
