 2011  125 1757  6.2 L   6.805 -73.160138.0  RSN  9 0.4 2.1LRSN                1
 GAP=182        0.73       3.8     8.3  7.3 -0.4631E+01  0.3564E+02 -0.3137E+01E
 Epicentro: LOS SANTOS - SANTANDER                                             3
 ACTION:UP  11-02-08 08:42 OP:pat  STATUS:               ID:20110125175706 L   I
 2011-01-25-1751-27S.COL___138                                                 6
 STAT SP IPHASW D HRMM SECON CODA AMPLIT PERI AZIMU VELO SNR AR TRES W  DIS CAZ7
 BTL  SZ IP       1757 24.95                             172     0.210   17 317 
 BAR2 SZ IP       1757 24.93                             170     0.010   24 186 
 BAR2 SZ ES   1   1757 39.62                             170     0.1 7   24 186 
 BAR2 SZ I        1757 41.20        31.1 0.34                            24 186 
 GIR2 SZ EP       1757 24.94                             167     0.010   31 353 
 RUS  HZ IP       1757 28.98                             142    -0.310  101 175 
 RUS  HZ I        1757 30.13        13.0 0.21                           101 175 
 RUS  HN ES   1   1757 47.45                             142     0.2 7  101 175 
 OCA  SZ EP   1   1757 33.76                             128    -0.1 7  160 354 
 OCA  SZ ES   2   1757 54.94                             128    -0.5 5  160 354 
 OCA  SZ I        1757 59.51        28.1 0.13                           160 354 
 NOR  SZ EP       1757 41.45                             117     0.1 8  234 234 
 NOR  SN ES   2   1758  8.94                             117     0.1 4  234 234 
 CHI  HZ EP   1   1757 43.40                             116    -0.1 6  249 195 
 CHI  HN ES   2   1758 11.18                             116    -1.4 4  249 195 
 CHI  HZ I        1758 20.46         6.4 0.73                           249 195 
 ROSC BZ EP   2   1757 45.14                             115     1.3 4  252 211 
 DBB  SZ EP       1757 53.07                             108    -0.1 7  338 274 
                                                                                
