 2011  225 1321 28.4 L   6.796 -73.113140.8  RSN  4 0.2 1.5LRSN                1
 GAP=177        0.48       5.1    21.3  5.6 -0.8245E+02 -0.2192E+02  0.9674E+00E
 Epicentro: LOS SANTOS - SANTANDER                                             3
 ACTION:UP  11-03-28 15:11 OP:jfem STATUS:               ID:20110225132128 L   I
 2011-02-25-1319-06S.COL___137                                                 6
 STAT SP IPHASW D HRMM SECON CODA AMPLIT PERI AZIMU VELO SNR AR TRES W  DIS CAZ7
 BAR2 SZ IP       1321 47.46                             170     0.010   24 199 
 BAR2 SZ ES   1   1322  2.32                             170     0.0 7   24 199 
 BAR2 SZ I        1322  3.56        12.5 0.28                            24 199 
 RUS  HZ EP       1321 51.52                             143    -0.110  100 178 
 RUS  HZ I        1321 52.60         3.3 0.07                           100 178 
 RUS  HN ES   2   1322  9.78                             143     0.0 5  100 178 
 GRA  SZ EP       1321 53.34                             136     0.210  125  16 
 GRA  SZ ES   3   1322 12.22                             136    -0.3 2  125  16 
 GRA  SZ I        1322 13.77         3.3 0.40                           125  16 
 CHI  HZ EP   2   1322  5.25                             116    -0.6 4  249 196 
 CHI  HN ES   2   1322 35.55                             116     0.4 4  249 196 
 CHI  HZ I        1322 40.28         2.7 0.37                           249 196 
                                                                                
