 2010  725 1852 51.9 L   7.384 -73.147129.2  RSN  7 0.3 2.3LRSN                1
 GAP=143        0.65       3.3     5.5  6.2 -0.5638E+01  0.2558E+01  0.2653E+01E
 Epicentro: EL PLAYON - SANTANDER                                              3
 ACTION:UPD 10-12-01 15:20 OP:pat  STATUS:               ID:20100725185251 L   I
 2010-07-25-1848-45S.COL___123                                                 6
 STAT SP IPHASW D HRMM SECON CODA AMPLIT PERI AZIMU VELO AIN AR TRES W  DIS CAZ7
 GRA  SZ IP       1853 11.52                             150     0.310   67  34 
 GRA  SZ ES   1   1853 26.66                             150     0.3 7   67  34 
 GRA  SZ I        1853 27.95        95.0 0.28                            67  34 
 BRR  HZ IP     D 1853 10.91                             150    -0.310   70 244 
 BRR  HN ES   1   1853 26.12                             150    -0.1 7   70 244 
 BRR  HZ I        1853 27.67        66.2 0.16                            70 244 
 BAR2 SZ EP   1   1853 12.70                             144     0.0 7   88 183 
 BAR2 SZ ES   1   1853 28.95                             144     0.0 7   88 183 
 BAR2 SZ I        1853 30.35       120.8 0.13                            88 183 
 OCA  SZ EP   1   1853 13.16                             141    -0.1 7   96 349 
 OCA  SZ ES   1   1853 29.73                             141    -0.2 7   96 349 
 OCA  SZ I        1853 31.76        17.4 0.21                            96 349 
 RUS  HZ EP   2   1853 19.45                             125    -0.4 5  165 178 
 RUS  HE ES   2   1853 41.56                             125    -0.2 5  165 178 
 RUS  HZ I        1853 42.99         9.3 0.27                           165 178 
 HEL  HZ EP   2   1853 34.97                             109     1.1 4  294 244 
 HEL  HE ES   2   1854  7.07                             109     0.4 4  294 244 
 HEL  HZ I        1854 15.57         5.5 0.36                           294 244 
 PRA  HZ EP   2   1853 51.84                             101     0.1 3  449 205 
 PRA  HZ I        1854 48.14         4.6 0.71                           449 205 
                                                                                
