 2013  325 1318 10.1 L   6.337 -73.773 92.1  RSN  4 0.4 1.1LRSN                1
 GAP=164        0.99       7.1     4.6  9.8  0.2028E+02  0.1196E+02 -0.9201E+00E
 Epicentro: LANDAZURI - SANTANDER                                              3
 ACTION:UPD 13-04-09 14:04 OP:ep   STATUS:               ID:20130325131810 L   I
 2013-03-25-1310-00M.COL___244                                                 6
 STAT SP IPHASW D HRMM SECON CODA AMPLIT PERI AZIMU VELO AIN AR TRES W  DIS CAZ7
 BAR2 SZ EP   2   1318 26.40                             140    0.25 5 71.2  67 
 BAR2 SZ ES       1318 38.26                             140   -0.3910 71.2  67 
 BAR2 SZ I        1318 40.05         4.2 0.16            139           71.2  67 
 PTB  HZ EP       1318 25.84                             136   -0.6410 78.8 287 
 PTB  HN ES       1318 39.30                             136    0.0710 78.8 287 
 PTB  HN I        1318 39.41         3.7 0.24            138           78.8 287 
 RUS  HZ EP       1318 28.19                             133    0.0110 90.8 123 
 RUS  HE ES       1318 42.71                             133    0.4410 90.8 123 
 RUS  HE I        1318 43.66         1.0 0.20            133           90.8 123 
 ZAR  HZ EP       1318 36.33                             113   -0.08 9  175 317 
 ZAR  HN ES       1318 57.56                             113    0.64 9  175 317 
 ZAR  HN I        1318 58.45         3.9 0.30            114            175 317 
                                                                                
