 2017  625 1141 22.8 L   6.619 -73.226141.3  RSN  4 0.2 1.0LRSN                1
 GAP=167        0.58       6.4     4.1  5.3  0.9082E+01  0.6860E+01  0.4038E+01E
 Epicentro: BARICHARA - SANTANDER                                              3
 ACTION:UPD 17-09-14 16:55 OP:jn   STATUS:               ID:20170625114122 L   I
 OLDACT:REG 17-06-25 20:02 OP:lv   STATUS:               ID:20170625113738     3
 2017-06-25-1138-00M.COL___346                                                 6
 STAT SP IPHASW D HRMM SECON CODA AMPLIT PERI AZIMU VELO AIN AR TRES W  DIS CAZ7
 BAR2 EZ EP       1141 41.51                             178   -0.1210 5.72 122 
 BAR2 EZ ES       1141 56.29                             178   -0.0510 5.72 122 
 BAR2 EZ I        1141 57.35                             173           5.72 122 
 BRR  HZ EP       1141 43.57                             150   -0.1510 76.1 315 
 BRR  HN ES       1142  0.33                             150    0.2610 76.1 315 
 PTB  HZ EP       1141 48.72                             133    0.38 9  136 266 
 PTB  HN ES       1142  8.14                             133   -0.15 9  136 266 
 PTB  HZ I        1142 12.01         1.5 0.19            132            136 266 
 ZAR  HN ES       1142 19.89                             121   -0.20 9  204 298 
                                                                                
