 2011  125 1130 46.8 L   6.734 -73.520107.5  RSN  4 0.1 1.3LRSN                1
 GAP=279        0.34       4.8    15.1  6.1 -0.5551E+02  0.5913E+02 -0.1788E+02E
 Epicentro: EL CARMEN DE CHUCURI - SANTANDER                                   3
 ACTION:UP  11-02-08 08:42 OP:pat  STATUS:               ID:20110125113047 L   I
 2011-01-25-1128-06S.COL___138                                                 6
 STAT SP IPHASW D HRMM SECON CODA AMPLIT PERI AZIMU VELO SNR AR TRES W  DIS CAZ7
 BTL  SZ ES   2   1131 14.21                             161     0.0 5   35  54 
 BAR2 SZ EP       1131  2.54                             158     0.110   40 113 
 BAR2 SZ I        1131  2.80         7.5 0.31                            40 113 
 BAR2 SZ ES   1   1131 14.60                             158    -0.1 7   40 113 
 GIR2 SZ EP   1   1131  2.82                             152    -0.1 7   53  43 
 GIR2 SZ ES   2   1131 15.67                             152     0.1 5   53  43 
 GRA  SZ ES   1   1131 30.47                             121     0.0 7  150  32 
 GRA  SZ I        1131 31.42         3.0 0.19                           150  32 
                                                                                
