 2017  825 1833 46.7 L   6.813 -73.104153.5  RSN  5 0.2 1.3LRSN                1
 GAP=141        0.55       3.0     3.2  4.4  0.2076E+01  0.1488E+01 -0.1624E-01E
 Epicentro: LOS SANTOS - SANTANDER                                             3
 ACTION:UPD 17-09-04 20:24 OP:rebc STATUS:               ID:20170825183346 L   I
 OLDACT:REG 17-08-25 20:35 OP:edw  STATUS:               ID:20170825182740     3
 2017-08-25-1828-00M.COL___408                                                 6
 STAT SP IPHASW D HRMM SECON CODA AMPLIT PERI AZIMU VELO AIN AR TRES W  DIS CAZ7
 BAR2 EZ EP       1834  7.27                             170   -0.0110 25.9 199 
 BAR2 EZ ES       1834 23.49                             170    0.1310 25.9 199 
 PAM  EZ EP       1834  9.84                             153    0.3510 73.4  38 
 PAM  EN ES       1834 26.99                             153   -0.3010 73.4  38 
 PAM  EZ I        1834 27.14         3.7 0.36            155           73.4  38 
 BRR  HZ EP       1834  8.92                             153    0.0710 74.6 296 
 BRR  HN ES       1834 26.24                             153    0.1010 74.6 296 
 RUS  HZ EP       1834 11.02                             145   -0.2610  102 179 
 RUS  HN ES       1834 30.50                             145    0.0310  102 179 
 RUS  HZ I        1834 32.03         2.9 0.28            144            102 179 
 ZAR  HN ES       1834 45.84                             123   -0.17 8  208 291 
                                                                                
