 2017  125 1335  2.1 L   6.746 -73.137153.8  RSN  4 0.3 1.5LRSN                1
 GAP=234        0.59       5.3     5.1  6.5  0.1355E+02 -0.3657E+00 -0.1842E+01E
 Epicentro: LOS SANTOS - SANTANDER                                             3
 ACTION:UPD 17-05-22 16:03 OP:jn   STATUS:               ID:20170125133502 L   I
 OLDACT:REG 17-01-25 21:28 OP:dnl  STATUS:               ID:20170125132748     3
 2017-01-25-1328-00M.COL___355                                                 6
 STAT SP IPHASW D HRMM SECON CODA AMPLIT PERI AZIMU VELO AIN AR TRES W  DIS CAZ7
 BAR2 EZ EP       1335 22.67                             173    0.1010 17.7 197 
 BAR2 EZ ES   4   1335 36.77                             173   -1.79 0 17.7 197 
 BAR2 EZ I        1335 38.51         7.1 0.36            174           17.7 197 
 BRR  HZ EP   2   1335 24.32                             153    0.02 5 75.1 302 
 BRR  HE ES       1335 41.60                             153   -0.0510 75.1 302 
 BRR  HZ I        1335 47.99        15.6 0.40            152           75.1 302 
 RUS  HZ EP   2   1335 26.93                             147    0.73 5 94.5 176 
 RUS  HN ES       1335 44.89                             147   -0.1410 94.5 176 
 RUS  HZ I        1335 46.41         2.4 0.38            152           94.5 176 
 PTB  HZ EP       1335 29.37                             134   -0.32 9  148 261 
 PTB  HE ES       1335 51.45                             134    0.21 9  148 261 
 PTB  HZ I        1335 54.24         3.5 0.16            135            148 261 
                                                                                
