 2014 1125 1440 56.0 L   6.800 -73.189131.3  RSN  7 0.5 1.9LRSN                1
 GAP=131        1.17       5.5     5.1  7.8 -0.7837E+01  0.1130E+02  0.7213E+01E
 Epicentro: ZAPATOCA - SANTANDER                                               3
 ACTION:UPD 14-12-19 15:47 OP:nd   STATUS:               ID:20141125144056 L   I
 OLDACT:REG 14-11-25 21:42 OP:fm   STATUS:               ID:20141125143746     3
 2014-11-25-1437-46M.COL___306                                                 6
 STAT SP IPHASW D HRMM SECON CODA AMPLIT PERI AZIMU VELO AIN AR TRES W  DIS CAZ7
 BAR2 SZ EP       1441 13.92                             169    0.0210 23.0 178 
 BAR2 SZ ES       1441 27.91                             169    0.0610 23.0 178 
 BAR2 SZ I        1441 29.79        31.4 0.32            169           23.0 178 
 BRR  HZ IP     D 1441 15.75                             151    0.3910 67.0 300 
 BRR  HN ES       1441 30.69                             151    0.2310 67.0 300 
 BRR  HZ I        1441 35.13        20.9 0.24            151           67.0 300 
 PAM  SZ EP       1441 16.73                             147   -0.1910 80.5  42 
 PAM  SE ES       1441 33.28                             147    0.0610 80.5  42 
 RUS  HZ EP       1441 17.80                             141   -0.6010  101 173 
 RUS  HN ES       1441 36.11                             141    0.2410  101 173 
 RUS  HZ I        1441 38.45        10.2 0.36            143            101 173 
 PTB  HZ EP       1441 20.62                             130   -0.77 9  143 258 
 PTB  HN ES       1441 40.71                             130   -0.48 9  143 258 
 PTB  HZ I        1441 46.47        11.9 0.48            131            143 258 
 NOR  HE ES       1441 57.74                             116    0.31 8  231 234 
 NOR  HZ I        1442  1.59         6.5 0.26            118            231 234 
 GUY2CHZ EP       1441 39.93                             110    1.39 7  297 234 
 GUY2CHE ES       1442 11.63                             110   -0.08 7  297 234 
 GUY2CHZ I        1442 20.11         4.8 0.72                           297 234 
                                                                                
