 2016 1025 1936 26.4 L   6.782 -73.134142.0  RSN  5 0.4 1.8LRSN                1
 GAP=139        1.00       6.0     6.3  9.4 -0.1329E+02  0.1757E+02  0.6820E+01E
 Epicentro: LOS SANTOS - SANTANDER                                             3
 ACTION:UPD 16-11-09 19:22 OP:rebc STATUS:               ID:20161025193626 L   I
 OLDACT:UP  16-10-26 01:39 OP:dani STATUS:               ID:20161025192749d    3
 OLDACT:UP  16-10-26 01:38 OP:dani STATUS:               ID:20161025192749d    3
 OLDACT:UP  16-10-26 01:37 OP:dani STATUS:               ID:20161025192749d    3
 OLDACT:UP  16-10-26 01:36 OP:dani STATUS:               ID:20161025192749d    3
 OLDACT:DUP 16-10-26 01:33 OP:dani STATUS:               ID:20161025192749d    3
 OLDACT:REG 16-10-25 22:41 OP:edw  STATUS:               ID:20161025192747     3
 2016-10-25-1928-00M.COL___349                                                 6
 STAT SP IPHASW D HRMM SECON CODA AMPLIT PERI AZIMU VELO AIN AR TRES W  DIS CAZ7
 PAM  EZ EP       1936 48.22                             150   -0.0810 78.2  38 
 PAM  EN ES       1937  5.51                             150    0.1610 78.2  38 
 PAM  EZ I        1937  7.66        12.7 0.45            151           78.2  38 
 RUS  HZ EP       1936 49.27                             144   -0.3910 98.5 177 
 RUS  HE ES       1937  8.02                             144    0.2410 98.5 177 
 RUS  HZ I        1937  9.18         9.4 0.26            145           98.5 177 
 PTB  HE ES       1937 13.87                             131   -0.17 9  149 260 
 PTB  HN ES       1937 13.88                             130            149 260 
 SPBC HZ EP       1936 54.18                             128   -0.40 9  162 220 
 GUY2CHZ EP       1937 10.95                             112    1.09 7  301 235 
 GUY2CHE ES   4   1937 47.66                             112    3.93 0  301 235 
 GUY2CHZ I        1937 51.46         3.5 0.25                           301 235 
                                                                                
