 2010  625 1516 41.4 L   6.707 -73.087150.1  RSN  5 0.3 1.8LRSN                1
 GAP=204        0.69      12.1    13.3 13.9 -0.1196E+02 -0.8716E+02 -0.8399E+02E
 Epicentro: JORDAN - SANTANDER                                                 3
 ACTION:UP  10-08-24 10:13 OP:vdl  STATUS:               ID:20100625151641 L   I
 2010-06-25-1514-36S.COL___118                                                 6
 STAT SP IPHASW D HRMM SECON CODA AMPLIT PERI AZIMU VELO SNR AR TRES W  DIS CAZ7
 BAR2 SZ EP   1   1517  1.45                             173     0.1 8   17 220 
 BAR2 SZ ES   2   1517 16.85                             173    -0.2 5   17 220 
 BRR  HZ EP   1   1517  3.58                             150     0.0 8   82 303 
 BRR  HE ES   2   1517 21.08                             150     0.1 5   82 303 
 BRR  HZ I        1517 25.42        11.0 0.51                            82 303 
 BRI  SZ EP   1   1517  6.92                             140     0.7 8  116  16 
 GUE  SZ EP   1   1517  7.11                             138    -0.1 8  126   8 
 GRA  SZ EP       1517  7.30                             136    -0.410  134  14 
                                                                                
