 2012 1125 1045 15.8 L   6.746 -73.174148.2  RSN  5 0.3 1.3LRSN                1
 GAP=177        0.54       5.3     4.8  6.2  0.1298E+02  0.1273E+02  0.8003E+01E
 Epicentro: VILLANUEVA - SANTANDER                                             3
 ACTION:UPD 12-12-05 15:36 OP:}ep  STATUS:               ID:20121125104515 L   I
 2012-11-25-1040-00M.COL___233                                                 6
 STAT SP IPHASW D HRMM SECON CODA AMPLIT PERI AZIMU VELO AIN AR TRES W  DIS CAZ7
 BAR2 SZ EP   1   1045 35.31                             173   -0.31 7 17.1 183 
 BAR2 SZ ES   1   1045 51.41                             173    0.34 7 17.1 183 
 BAR2 SZ I        1045 52.09         7.5 0.34                          17.1 183 
 GIR2 SZ ES   1   1045 51.40                             165   -0.22 7 36.8 357 
 RUS  HZ EP   1   1045 39.64                             146    0.24 7 94.9 174 
 RUS  HZ I        1045 57.58         1.6 0.48                          94.9 174 
 RUS  HN ES   1   1045 57.78                             146   -0.02 7 94.9 174 
 PTB  HZ EP   1   1045 42.55                             133   -0.05 7  144 261 
 PTB  HN ES   1   1046  3.21                             133   -0.29 7  144 261 
 PTB  HZ I        1046  9.36         3.8 0.46                           144 261 
 ZAR  HN ES   1   1046 14.11                             123    0.38 6  203 294 
                                                                                
