 2017  925 1026 10.2 L   6.807 -73.155142.4  RSN 10 0.4 1.7LRSN                1
 GAP=111        0.87       2.9     3.5  5.5  0.6848E+00  0.8552E+01  0.3560E+01E
 Epicentro: LOS SANTOS - SANTANDER                                             3
 ACTION:UPD 17-10-05 19:16 OP:rebc STATUS:               ID:20170925102610 L   I
 OLDACT:REG 17-09-25 20:16 OP:osc  STATUS:               ID:20170925101738     3
 2017-09-25-1018-00M.COL___399                                                 6
 STAT SP IPHASW D HRMM SECON CODA AMPLIT PERI AZIMU VELO AIN AR TRES W  DIS CAZ7
 BAR2 EZ EP       1026 29.37                             170   -0.0910 23.9 187 
 BAR2 EZ ES       1026 43.98                             170   -0.4810 23.9 187 
 BAR2 EZ I        1026 45.52        15.8 0.22            170           23.9 187 
 BRR  HZ EP       1026 31.12                             152    0.1910 69.9 298 
 BRR  HE ES   3   1026 48.11                             152    1.02 2 69.9 298 
 BRR  HZ I        1026 52.20         8.8 0.14            151           69.9 298 
 PAM  EZ EP       1026 32.07                             150   -0.0110 77.5  40 
 PAM  EN ES       1026 49.43                             150    0.2910 77.5  40 
 PAM  EZ I        1026 51.55        10.4 0.22            154           77.5  40 
 RUS  HZ EP       1026 33.21                             143   -0.4910  101 176 
 RUS  HE ES       1026 51.93                             143   -0.0810  101 176 
 RUS  HZ I        1026 52.75         4.7 0.20            146            101 176 
 YPLC HZ EP       1026 39.55                             125   -0.33 9  178 151 
 YPLC HN ES       1027  3.68                             125    0.66 9  178 151 
 YPLC HZ I        1027  4.35         4.5 0.28            129            178 151 
 ZAR  HZ EP       1026 42.03                             122   -0.29 9  203 292 
 ZAR  HE ES       1027  7.71                             122    0.35 9  203 292 
 ZAR  HZ I        1027 13.83         6.2 0.26            123            203 292 
 NOR  HZ EP       1026 45.40                             118   -0.31 8  234 234 
 NOR  HE ES       1027 12.99                             118   -0.40 8  234 234 
 NOR  HZ I        1027 18.33         4.8 0.20            119            234 234 
 CHI  HZ EP   4   1026 46.57                             116   -1.21 0  249 195 
 CHI  HN ES       1027 17.55                             116    0.47 8  249 195 
 GUY2CHZ EP       1026 54.35                             112    0.72 7  301 235 
 GUY2CHE ES       1027 27.71                             112    0.23 7  301 235 
 GUY2CHZ I        1027 38.42         2.3 0.46                           301 235 
 PRA  HZ EP       1027  3.80                             106    0.16 6  392 209 
 PRA  HE ES       1027 45.12                             106   -0.19 6  392 209 
 PRA  HZ I        1027 52.07         2.8 0.36            108            392 209 
                                                                                
