 2012 1225 1756 29.6 L   6.742 -73.183149.3  RSN  4 0.2 1.8LRSN                1
 GAP=229        0.47       4.3     4.8  5.0  0.1242E+02  0.5869E+00  0.3470E-02E
 Epicentro: VILLANUEVA - SANTANDER                                             3
 ACTION:UPD 13-01-04 14:30 OP:ep   STATUS:               ID:20121225175629 L   I
 2012-12-25-1750-00M.COL___242                                                 6
 STAT SP IPHASW D HRMM SECON CODA AMPLIT PERI AZIMU VELO AIN AR TRES W  DIS CAZ7
 BAR2 SZ EP   1   1756 49.34                             173   -0.16 7 16.6 180 
 BAR2 SZ I        1757  5.59         9.0 0.18                          16.6 180 
 BRR  HZ EP   1   1756 50.94                             153   -0.14 7 71.0 305 
 BRR  HZ I        1756 57.58        19.9 0.92                          71.0 305 
 BRR  HE ES       1757  7.96                             153    0.0910 71.0 305 
 RUS  HZ EP   1   1756 53.68                             146    0.44 7 94.6 173 
 RUS  HN ES       1757 11.61                             146   -0.1110 94.6 173 
 RUS  HN I        1757 13.94         6.5 0.41                          94.6 173 
 PTB  HZ EP       1756 56.26                             134   -0.09 9  143 261 
 PTB  HE ES   1   1757 17.29                             134    0.03 7  143 261 
                                                                                
