 2017  125 1450 56.6 L   6.812 -73.076140.0  RSN  6 0.4 1.8LRSN                1
 GAP=145        0.98       4.9     5.1  7.6  0.4012E+01  0.6393E+01 -0.6861E+00E
 Epicentro: LOS SANTOS - SANTANDER                                             3
 ACTION:UPD 17-05-22 16:03 OP:jn   STATUS:               ID:20170125145056 L   I
 OLDACT:UP  17-01-25 23:19 OP:dnl  STATUS:               ID:20170125144743     3
 OLDACT:REG 17-01-25 21:32 OP:dnl  STATUS:               ID:20170125144743     3
 2017-01-25-1448-00M.COL___355                                                 6
 STAT SP IPHASW D HRMM SECON CODA AMPLIT PERI AZIMU VELO AIN AR TRES W  DIS CAZ7
 BAR2 EZ IP     D 1451 15.51                             168   -0.1010 27.0 206 
 BAR2 EZ ES       1451 30.08                             168   -0.3610 27.0 206 
 BAR2 EZ I        1451 32.98        17.3 0.38            167           27.0 206 
 PAM  EZ EP       1451 18.56                             151    0.7210 71.6  35 
 PAM  EN ES       1451 33.92                             151   -0.5110 71.6  35 
 PAM  EZ I        1451 37.31        12.3 0.52            155           71.6  35 
 BRR  HZ EP       1451 17.33                             149   -0.1610 77.5 295 
 BRR  HE ES       1451 34.39                             149    0.5910 77.5 295 
 BRR  HZ I        1451 37.23        12.2 0.22            148           77.5 295 
 RUS  HZ EP       1451 19.86                             142    0.0010  102 180 
 RUS  HN ES       1451 38.16                             142    0.1510  102 180 
 RUS  HZ I        1451 39.45         6.7 0.30            145            102 180 
 PTB  HZ EP   4   1451 22.45                             129   -1.37 0  156 259 
 PTB  HE ES   2   1451 44.66                             129   -0.41 5  156 259 
 PTB  HZ I        1451 51.61         7.5 0.16            129            156 259 
 ZAR  HZ EP   2   1451 28.68                             120   -0.68 4  211 291 
 ZAR  HN ES       1451 54.75                             120   -0.18 8  211 291 
 ZAR  HZ I        1451 59.32        11.4 0.30            121            211 291 
                                                                                
