 2010  125 1349 17.4 L   6.767 -73.038142.0  RSN  5 0.4 1.7LRSN                1
 GAP=210        0.71       6.7    14.4  9.5 -0.3072E+02  0.5544E+02 -0.5320E+01E
 Epicentro: LOS SANTOS - SANTANDER                                             3
 ACTION:UP  10-08-24 09:45 OP:vdl  STATUS:               ID:20100125134917 L   I
 2010-01-25-1346-22S.COL___094                                                 6
 STAT SP IPHASW D HRMM SECON CODA AMPLIT PERI AZIMU VELO SNR AR TRES W  DIS CAZ7
 BAR2 SZ IP       1349 36.30                             169    -0.310   25 220 
 BAR2 SZ ES   2   1349 51.26                             169    -0.3 5   25 220 
 GIR2 SZ EP   1   1349 37.43                             164     0.6 7   39 333 
 RUS  BZ EP   1   1349 40.29                             144    -0.2 7   97 183 
 RUS  BZ I        1349 41.02         5.9 0.15                            97 183 
 RUS  BE ES   1   1349 58.77                             144     0.2 7   97 183 
 CHI  HZ EP   1   1349 54.70                             116    -0.2 6  249 198 
 CHI  HN ES   2   1350 24.69                             116     0.6 4  249 198 
 CHI  HZ I        1350 34.01         3.2 0.42                           249 198 
 RREF BZ EP   2   1350  4.28                             110     0.1 3  329 231 
 RREF BE ES   2   1350 40.42                             110    -0.2 3  329 231 
 RREF BZ I        1350 48.71         3.6 0.89                           329 231 
                                                                                
