 2014 1125 1610 16.3 L   6.765 -73.183140.0  RSN 13 0.6 2.4LRSN                1
 GAP=133        1.29       4.2     4.6  6.6 -0.2961E+01  0.1047E+02  0.6306E+01E
 Epicentro: LOS SANTOS - SANTANDER                                             3
 ACTION:UPD 14-12-19 15:47 OP:nd   STATUS:               ID:20141125161016 L   I
 OLDACT:DUP 14-11-26 04:57 OP:stll STATUS:               ID:20141125160748d    3
 2014-11-25-1607-47M.COL___303                                                 6
 STAT SP IPHASW D HRMM SECON CODA AMPLIT PERI AZIMU VELO AIN AR TRES W  DIS CAZ7
 BAR2 SZ EP       1610 35.10                             172   -0.0810 19.1 180 
 BAR2 SZ I        1610 35.43        80.4 0.10            171           19.1 180 
 BAR2 SZ ES       1610 50.14                             172    0.2510 19.1 180 
 BRR  HZ IP     C 1610 36.99                             152    0.2310 69.6 303 
 BRR  HN ES       1610 54.01                             152    1.3110 69.6 303 
 BRR  HZ I        1610 57.45        50.6 0.30            150           69.6 303 
 PAM  SZ EP     C 1610 37.92                             148   -0.3610 83.0  40 
 PAM  SZ I        1610 38.21        58.4 0.24            152           83.0  40 
 PAM  SN ES       1610 54.89                             148   -0.5210 83.0  40 
 RUS  HZ EP       1610 38.96                             144   -0.3010 97.1 173 
 RUS  HN ES       1610 57.17                             144    0.0210 97.1 173 
 RUS  HZ I        1610 58.93        30.9 0.32            146           97.1 173 
 PTB  HZ EP       1610 41.79                             132   -0.60 9  143 260 
 PTB  HN ES       1611  2.47                             132   -0.25 9  143 260 
 PTB  HZ I        1611  4.97        31.8 0.36            131            143 260 
 SPBC HZ EP     C 1610 44.07                             129    0.22 9  158 219 
 SPBC HN ES       1611  5.97                             129    0.65 9  158 219 
 SPBC HZ I        1611  8.89        91.0 0.30            129            158 219 
 ZAR  HZ EP       1610 47.94                             122   -0.22 9  202 294 
 ZAR  HE ES       1611 12.58                             122   -0.41 9  202 294 
 ZAR  HZ I        1611 20.69        21.3 0.52            122            202 294 
 NOR  HZ EP       1610 51.05                             118   -0.07 8  229 235 
 NOR  HE ES       1611 17.71                             118   -0.55 8  229 235 
 NOR  HZ I        1611 21.36        21.9 0.16            119            229 235 
 CHI  HZ EP       1610 53.14                             117   -0.05 8  244 194 
 CHI  HZ I        1610 54.02        13.9 0.14            118            244 194 
 CHI  HN ES       1611 21.91                             117   -0.03 8  244 194 
 GUY2CHZ EP       1610 59.37                             112    0.33 7  296 235 
 GUY2CHN ES       1611 31.74                             112   -0.61 7  296 235 
 GUY2CHZ I        1611 42.81        15.6 0.50                           296 235 
 RREF HZ EP       1611  1.73                             110    0.16 7  316 229 
 RREF HN ES       1611 36.91                             110    0.04 7  316 229 
 RREF HZ I        1611 47.48        14.5 0.28            111            316 229 
 CBOC HZ EP       1611  3.38                             109    0.96 7  328 253 
 CBOC HN ES       1611 37.73                             109   -0.64 7  328 253 
 CBOC HZ I        1611 44.97         4.9 0.48            110            328 253 
 TOL  SZ EP       1611  5.23                             109    1.53 7  338 225 
 TOL  SE ES       1611 39.75                             109   -0.90 7  338 225 
                                                                                
