 2011  925 1602 50.0 L   6.762 -73.122148.5  RSN  6 0.4 1.7LRSN                1
 GAP=185        0.65       6.2    12.4  7.9  0.4454E+02 -0.3769E+02 -0.2470E+02E
 Epicentro: LOS SANTOS - SANTANDER                                             3
 ACTION:UPD 12-07-13 15:59 OP:ep   STATUS:               ID:20110925160250 L   I
 2011-09-25-1600-38S.COL___165                                                 6
 STAT SP IPHASW D HRMM SECON CODA AMPLIT PERI AZIMU VELO AIN AR TRES W  DIS CAZ7
 BAR2 SZ IP       16 3  9.91                             171    0.0010 19.9 200 
 BAR2 SZ I        16 3 10.22        15.4 0.36                          19.9 200 
 BAR2 SZ ES   1   16 3 24.83                             171   -0.59 7 19.9 200 
 BTL  SZ EP       16 3 10.19                             170    0.2110 23.6 317 
 BRR  HZ EP       16 3 11.77                             150    0.0710 75.5 300 
 BRR  HN ES   2   16 3 29.22                             150    0.60 5 75.5 300 
 BRR  HZ I        16 3 31.56        15.5 0.14                          75.5 300 
 RUS  HZ EP       16 3 13.78                             145    0.0510 96.2 177 
 RUS  HE ES   2   16 3 32.50                             145    0.28 5 96.2 177 
 RUS  HZ I        16 3 35.24         3.3 0.28                          96.2 177 
 OCA  SZ EP       16 3 18.76                             129   -0.20 9  165 352 
 ZAR  HE ES   3   16 3 47.42                             122   -1.40 2  208 293 
 ZAR  HZ I        16 3 55.83         6.8 0.42                           208 293 
                                                                                
