 2014 1025 1511 37.5 L   6.542 -73.108175.1  RSN 10 0.3 2.1LRSN                1
 GAP=151        0.75       3.1     3.7  4.6 -0.2934E+01  0.4561E+01  0.1701E+00E
 Epicentro: SAN GIL - SANTANDER                                                3
 ACTION:UPD 14-11-29 23:56 OP:nd   STATUS:               ID:20141025151137 L   I
 OLDACT:REG 14-10-28 19:19 OP:spq  STATUS:               ID:20141025150744     3
 2014-10-25-1507-44M.COL___289                                                 6
 STAT SP IPHASW D HRMM SECON CODA AMPLIT PERI AZIMU VELO AIN AR TRES W  DIS CAZ7
 BAR2 SZ EP       1512  0.37                             177   -0.1810 9.96 304 
 BAR2 SZ ES   1   1512 18.62                             177    0.13 7 9.96 304 
 BAR2 SZ I        1512 20.79        23.1 0.60            172           9.96 304 
 RUS  HZ EP     C 1512  2.64                             157   -0.0410 71.8 178 
 RUS  HE ES       1512 22.33                             157    0.0510 71.8 178 
 RUS  HZ I        1512 23.92        10.0 0.24            159           71.8 178 
 BRR  HZ EP     C 1512  3.25                             151    0.2410 91.5 313 
 BRR  HE ES       1512 23.25                             151    0.3710 91.5 313 
 BRR  HZ I        1512 29.29        24.4 0.24            150           91.5 313 
 PAM  SZ IP     C 1512  4.01                             149   -0.1710 99.1  27 
 PAM  SE ES       1512 24.87                             149   -0.0810 99.1  27 
 PAM  SZ I        1512 25.92         9.7 0.35            153           99.1  27 
 SPBC HZ EP       1512  7.38                             138    0.45 9  145 227 
 SPBC HN ES   1   1512 29.27                             138   -0.59 7  145 227 
 SPBC HZ I        1512 33.80        14.5 0.20            139            145 227 
 PTB  HZ EP       1512  6.67                             138   -0.48 9  149 270 
 PTB  HE ES       1512 30.05                             138   -0.20 9  149 270 
 PTB  HZ I        1512 33.63        16.5 0.18            137            149 270 
 HEL  HZ EP       1512 20.00                             120    0.75 8  271 262 
 HEL  HN ES   1   1512 51.41                             120   -0.38 6  271 262 
 HEL  HZ I        1513  0.41         5.6 0.18            121            271 262 
 SML  HZ EP   1   1512 18.33                             120   -0.53 6  272 337 
 SML  HN ES       1512 51.13                             120    0.04 8  272 337 
 GUY2CHZ EP       1512 21.35                             119   -0.02 7  289 240 
 GUY2CHN ES   4   1512 57.96                             119    2.39 0  289 240 
 GUY2CHZ I        1513  6.90         6.3 0.44                           289 240 
 TOL  SN ES       1513  2.70                             115    0.17 7  327 229 
                                                                                
