 2014  825 1633 58.5 L   6.799 -73.153138.6  RSN 20 0.5 2.7LRSN                1
 GAP= 71        1.03       2.3     2.7  4.5 -0.6228E+00  0.3343E+01  0.1700E+01E
 Epicentro: LOS SANTOS - SANTANDER                                             3
 ACTION:UPD 14-09-15 21:53 OP:nd   STATUS:               ID:20140825163358 L   I
 OLDACT:REG 14-08-25 21:19 OP:stll STATUS:               ID:20140825162820     3
 2014-08-25-1628-20M.COL___258                                                 6
 STAT SP IPHASW D HRMM SECON CODA AMPLIT PERI AZIMU VELO AIN AR TRES W  DIS CAZ7
 BAR2 SZ EP       1634 17.62                             170    0.3310 23.1 188 
 BAR2 SZ ES       1634 31.83                             170   -0.1010 23.1 188 
 BAR2 SZ I        1634 33.86       294.8 0.28            169           23.1 188 
 BRR  HZ IP     C 1634 19.46                             151    0.6010 70.5 299 
 BRR  HZ I        1634 19.58       208.6 0.12            151           70.5 299 
 BRR  HN ES       1634 35.16                             151    0.4310 70.5 299 
 PAM  SZ EP       1634 20.52                             149    0.5010 78.0  40 
 PAM  SN ES       1634 37.03                             149    0.2410 78.0  40 
 PAM  SZ I        1634 40.40        84.9 0.42            152           78.0  40 
 RUS  HZ IP     D 1634 21.66                             142    0.0810  101 176 
 RUS  HN ES       1634 39.66                             142    0.1010  101 176 
 RUS  HZ I        1634 41.38        55.1 0.30            144            101 176 
 PTB  HZ EP       1634 23.99                             131   -0.85 9  147 259 
 PTB  HN ES       1634 44.58                             131   -0.78 9  147 259 
 PTB  HZ I        1634 48.59        55.7 0.18            131            147 259 
 TAM  HZ IP     D 1634 26.13                             129    0.41 9  156 105 
 TAM  HZ I        1634 26.38        78.3 0.36            132            156 105 
 TAM  HN ES       1634 46.29                             129   -0.65 9  156 105 
 OCA  HZ EP       1634 25.76                             128   -0.53 9  160 353 
 OCA  HN ES       1634 47.84                             128   -0.10 9  160 353 
 OCA  HZ I        1634 57.46        56.4 0.28            129            160 353 
 SPBC HZ EP       1634 26.39                             127   -0.04 9  163 219 
 SPBC HE ES       1634 48.09                             127   -0.10 9  163 219 
 SPBC HZ I        1634 53.62        99.3 0.18            128            163 219 
 ZAR  HZ EP       1634 30.25                             121   -0.18 9  203 292 
 ZAR  HE ES       1634 55.54                             121    0.22 9  203 292 
 ZAR  HZ I        1635  0.99        51.8 0.30            121            203 292 
 NOR  HZ EP       1634 33.79                             117    0.02 8  234 234 
 NOR  HN ES       1635  0.53                             117   -0.73 8  234 234 
 NOR  HZ I        1635  6.68        28.2 0.20            118            234 234 
 SML  HZ EP       1634 34.10                             116   -0.63 8  243 335 
 SML  HN ES       1635  2.68                             116   -0.29 8  243 335 
 SML  HZ I        1635  6.69        71.4 0.28            117            243 335 
 CHI  HZ EP       1634 36.06                             116    0.25 8  248 195 
 CHI  HN ES       1635  4.61                             116   -0.27 8  248 195 
 CHI  HZ I        1635  7.54        36.7 0.36            117            248 195 
 HEL  HZ EP       1634 38.78                             113    0.49 8  271 256 
 HEL  HN ES       1635  9.57                             113    0.27 8  271 256 
 HEL  HZ I        1635 16.22        28.9 0.40            114            271 256 
 GUY2CHZ EP       1634 42.05                             111    0.32 7  300 235 
 GUY2CHN ES       1635 16.28                             111    0.86 7  300 235 
 GUY2CHZ I        1635 24.03        21.5 0.58                           300 235 
 VIL  SZ EP       1634 41.46                             111   -0.14 7  303 191 
 VIL  SN ES       1635 14.76                             111   -0.43 7  303 191 
 VIL  SZ I        1635 26.48        32.3 0.34            112            303 191 
 CBOC HZ EP       1634 45.16                             109    0.10 7  333 252 
 CBOC HZ I        1634 49.00         8.1 0.20            109            333 252 
 DBB  SZ EP       1634 45.18                             108   -0.44 7  339 274 
 TOL  SZ EP       1634 47.33                             108    0.90 7  343 225 
 TOL  SN ES       1635 24.32                             108    0.53 7  343 225 
 ANIL HZ EP   1   1634 48.80                             107    0.81 5  357 224 
 ANIL HN ES       1635 26.58                             107    0.01 6  357 224 
 ANIL HZ I        1635 37.82         6.1 0.26            108            357 224 
 PRA  HZ EP       1634 51.37                             105   -0.38 6  392 209 
 PRA  HN ES       1635 32.80                             105   -0.47 6  392 209 
 PRA  HZ I        1635 40.25        17.9 0.22            106            392 209 
                                                                                
