 2017  525 1828 26.5 L   6.722 -73.151146.0  RSN  5 0.3 1.8LRSN                1
 GAP=231        0.67       4.1     5.0  6.1  0.9788E+01  0.9246E+01  0.4430E+01E
 Epicentro: VILLANUEVA - SANTANDER                                             3
 ACTION:UPD 17-06-16 13:38 OP:jn   STATUS:               ID:20170525182826 L   I
 OLDACT:UP  17-05-25 23:06 OP:dnl  STATUS:               ID:20170525181726     3
 OLDACT:UP  17-05-25 23:06 OP:dnl  STATUS:               ID:20170525181726     3
 OLDACT:UP  17-05-25 23:06 OP:dnl  STATUS:               ID:20170525181726     3
 OLDACT:UP  17-05-25 23:05 OP:dnl  STATUS:               ID:20170525181726     3
 OLDACT:UP  17-05-25 23:05 OP:dnl  STATUS:               ID:20170525181726     3
 OLDACT:REG 17-05-25 22:06 OP:dnl  STATUS:               ID:20170525181726     3
 2017-05-25-1818-00M.COL___344                                                 6
 STAT SP IPHASW D HRMM SECON CODA AMPLIT PERI AZIMU VELO AIN AR TRES W  DIS CAZ7
 BRR  HZ EP       1828 47.47                             151   -0.4310 75.2 305 
 BRR  HE ES       1829  4.79                             151    0.2010 75.2 305 
 BRR  HZ I        1829  8.81        12.5 0.12            148           75.2 305 
 RUS  HZ EP       1828 49.50                             147   -0.1710 92.0 175 
 RUS  HE ES       1829  7.97                             147    0.2310 92.0 175 
 RUS  HZ I        1829  8.70         6.7 0.22            147           92.0 175 
 PTB  HZ EP       1828 53.30                             133    0.00 9  146 262 
 PTB  HN ES   4   1829 12.78                             133   -1.43 0  146 262 
 PTB  HZ I        1829 16.48         8.8 0.22            131            146 262 
 ZAR  HZ EP   2   1828 59.71                             122    0.46 4  207 294 
 ZAR  HN ES       1829 24.90                             122    0.10 8  207 294 
 ZAR  HZ I        1829 32.02         6.8 0.28            122            207 294 
 NOR  HZ EP       1829  2.03                             119    0.37 8  229 236 
 NOR  HE ES       1829 28.74                             119   -0.35 8  229 236 
 NOR  HZ I        1829 36.70         4.3 0.16            119            229 236 
                                                                                
