 2016  925 1801 34.2 L   6.840 -73.125142.4  RSN 21 0.5 2.6LRSN                1
 GAP= 71        1.14       3.2     3.2  5.3 -0.6468E+00  0.3200E+01  0.2569E+01E
 Epicentro: LOS SANTOS - SANTANDER                                             3
 ACTION:UPD 17-08-17 21:16 OP:lp   STATUS:               ID:20160925180134 L   I
 OLDACT:UP  16-09-26 00:30 OP:edw  STATUS:               ID:20160925175744     3
 OLDACT:UP  16-09-26 00:29 OP:edw  STATUS:               ID:20160925175744     3
 OLDACT:UP  16-09-26 00:28 OP:edw  STATUS:               ID:20160925175744     3
 OLDACT:REG 16-09-25 21:01 OP:y    STATUS:               ID:20160925175744     3
 2016-09-25-1758-00M.COL___330                                                 6
 STAT SP IPHASW D HRMM SECON CODA AMPLIT PERI AZIMU VELO AIN AR TRES W  DIS CAZ7
 BAR2 EZ IP     C 18 1 53.37                             168   -0.1810 28.2 193 
 BAR2 EZ ES       18 2  8.75                             168    0.1210 28.2 193 
 BAR2 EZ I        18 2 11.10        71.9 0.32            166           28.2 193 
 BRR  HZ IP     C 18 1 55.10                             152    0.1010 71.2 294 
 BRR  HN ES       18 2 11.74                             152    0.5210 71.2 294 
 BRR  HZ I        18 2 15.58        74.3 0.12            149           71.2 294 
 PAM  EZ EP     C 18 1 56.04                             152    0.2510 72.5  40 
 PAM  EN ES       18 2 13.07                             152    0.4610 72.5  40 
 PAM  EZ I        18 2 15.17       119.6 0.50            156           72.5  40 
 RUS  HZ EP       18 1 57.46                             142   -0.5010  105 177 
 RUS  HN ES       18 2 15.83                             142   -0.6510  105 177 
 RUS  HZ I        18 2 17.94        75.3 0.30            142            105 177 
 PTB  HZ EP   9   18 2  0.04                             131   -1.16 0  151 257 
 PTB  HN ES       18 2 21.08                             131   -0.01 9  151 257 
 PTB  HZ I        18 2 24.02        37.4 0.14            129            151 257 
 TAM  HZ IP     C 18 2  1.77                             130    0.23 9  154 107 
 TAM  HN ES       18 2 23.17                             130    0.32 9  154 107 
 OCA  HZ EP       18 2  1.44                             130   -0.44 9  156 352 
 OCA  HN ES       18 2 22.87                             130   -0.58 9  156 352 
 OCA  HZ I        18 2 27.78       139.0 0.22            131            156 352 
 SPBC HZ EP   9   18 2  2.48                             127   -0.45 0  168 219 
 SPBC HN ES       18 2 24.59                             128   -0.29 9  168 219 
 SPBC HZ I        18 2 30.79        63.5 0.13            127            168 219 
 ZAR  HZ EP       18 2  6.29                             121   -0.20 9  205 291 
 ZAR  HN ES       18 2 31.71                             121    0.04 9  205 291 
 ZAR  HZ I        18 2 36.82        49.8 0.30            121            205 291 
 NOR  HZ EP       18 2  9.80                             117   -0.44 8  239 234 
 NOR  HN ES       18 2 37.61                             117   -0.72 8  239 234 
 NOR  HZ I        18 2 39.12        26.0 0.20            117            239 234 
 CHI  HZ EP       18 2 11.93                             116   -0.34 8  254 195 
 CHI  HE ES       18 2 41.75                             116   -0.20 8  254 195 
 CHI  HZ I        18 2 47.63        14.6 0.24            117            254 195 
 ROSC BZ EP   4   18 2 13.77                             115    1.06 0  258 211 
 ROSC BN ES   4   18 2 45.03                             115    2.31 0  258 211 
 ROSC BZ I        18 2 49.48        38.3 0.40            116            258 211 
 HEL  HZ EP       18 2 15.08                             114    0.45 7  275 255 
 HEL  HN ES       18 2 47.10                             114    0.95 7  275 255 
 HEL  HZ I        18 2 52.32        17.6 0.19            114            275 255 
 URE  HZ EP   4   18 2 13.64                             113   -1.54 0  284 291 
 URE  HN ES   4   18 2 44.31                             113   -2.82 0  284 291 
 URE  HZ I        18 2 55.57        32.9 0.18            113            284 291 
 GUY2CHZ EP   4   18 2 19.08                             111    0.90 0  306 234 
 GUY2CHN ES   4   18 2 53.71                             111    1.25 0  306 234 
 GUY2CHZ I        18 3  0.09        21.4 0.48                           306 234 
 PTGC HZ EP   4   18 2 16.81                             111   -1.50 0  312 159 
 PTGC HN ES   4   18 2 50.11                             111   -2.59 0  312 159 
 ELA  HZ EP   4   18 2 23.46                             109    2.00 0  334 229 
 ELA  HN ES   4   18 2 57.38                             109   -0.93 0  334 229 
 ELA  HZ I        18 3  7.29        13.2 0.32            110            334 229 
 CBOC HZ EP   2   18 2 22.02                             109    0.62 3  337 251 
 CBOC HN ES   2   18 2 57.97                             109   -0.24 3  337 251 
 CBOC HZ I        18 3  5.80         5.7 0.18            109            337 251 
 ARGC HZ EP   9   18 2 24.32                             108    0.97 0  356 340 
 ARGC HN ES       18 3  2.10                             109   -0.54 6  356 340 
 ANIL HZ EP       18 2 25.07                             108    0.62 6  362 224 
 ANIL HN ES       18 3  4.58                             108    0.95 6  362 224 
 ANIL HZ I        18 3  9.73        42.4 0.34            108            362 224 
 SJC  HZ EP   9   18 2 27.20                             105   -2.18 0  407 326 
 SJC  HN ES       18 3  8.43                             106   -1.79 6  407 326 
 SJC  HZ I        18 3 11.91         8.6 0.28            106            407 326 
 CRJC HZ EP   4   18 2 33.64                             103   -2.44 0  463   3 
 CRJC HN ES   4   18 3 15.44                             103   -8.89 0  463   3 
 CRJC HZ I        18 3 21.34         7.4 0.18            104            463   3 
                                                                                
