 2015  925 1117 50.0 L   6.397 -73.667112.0  RSN  6 0.3 1.7LRSN                1
 GAP=141        0.57       4.3     2.8  5.9  0.6634E+00  0.6228E+01 -0.3072E+01E
 Epicentro: SANTA HELENA DEL OPON - SANTANDER                                  3
 ACTION:UPD 15-10-28 16:28 OP:cam  STATUS:               ID:20150925111750 L   I
 OLDACT:UP  15-09-25 22:23 OP:ar   STATUS:               ID:20150925110747d    3
 OLDACT:DUP 15-09-25 21:49 OP:ar   STATUS:               ID:20150925110747d    3
 OLDACT:REG 15-09-25 20:25 OP:ar   STATUS:               ID:20150925110746     3
 2015-09-25-1107-46M.COL___358                                                 6
 STAT SP IPHASW D HRMM SECON CODA AMPLIT PERI AZIMU VELO AIN AR TRES W  DIS CAZ7
 BAR2 EZ EP       1118  7.20                             151    0.1210 57.8  68 
 BAR2 EZ ES       1118 20.20                             151   -0.2110 57.8  68 
 BAR2 EZ I        1118 21.50        20.0 0.32            153           57.8  68 
 BRR  HZ EP   2   1118  8.17                             142    0.02 5 78.7 356 
 BRR  HE ES   2   1118 22.86                             142    0.55 5 78.7 356 
 PTB  HZ EP       1118  8.81                             139   -0.1410 88.7 280 
 PTB  HE ES       1118 23.82                             139    0.0810 88.7 280 
 PTB  HZ I        1118 24.32         9.4 0.38            137           88.7 280 
 SPBC HZ EP   2   1118  9.35                             137   -0.11 5 93.7 209 
 SPBC HN ES   2   1118 24.84                             137    0.19 5 93.7 209 
 SPBC HZ I        1118 26.50        10.8 0.10            139           93.7 209 
 ZAR  HZ EP   2   1118 18.63                             117    0.92 4  179 313 
 ZAR  HE ES   4   1118 41.28                             117    1.94 0  179 313 
 ZAR  HZ I        1118 46.27         7.2 0.52            117            179 313 
 URE  HZ EP   4   1118 34.43                             108    8.16 0  255 306 
 URE  HN ES       1118 54.26                             108   -0.32 8  255 306 
                                                                                
