 2016 1225 1736 58.9 L   7.463 -73.190130.0  RSN 14 0.7 2.2LRSN                1
 GAP= 99        1.06       4.7     3.9  6.2  0.2785E+01  0.2112E+01 -0.8520E+01E
 Epicentro: EL PLAYON - SANTANDER                                              3
 ACTION:UPD 17-01-11 20:19 OP:rebc STATUS:               ID:20161225173658 L   I
 OLDACT:UP  16-12-26 00:10 OP:dani STATUS:               ID:20161225172749d    3
 OLDACT:UP  16-12-26 00:10 OP:dani STATUS:               ID:20161225172749d    3
 OLDACT:UP  16-12-26 00:09 OP:dani STATUS:               ID:20161225172749d    3
 OLDACT:UP  16-12-26 00:08 OP:dani STATUS:               ID:20161225172749d    3
 OLDACT:UP  16-12-26 00:07 OP:dani STATUS:               ID:20161225172749d    3
 OLDACT:UP  16-12-26 00:07 OP:dani STATUS:               ID:20161225172749d    3
 OLDACT:DUP 16-12-26 00:03 OP:dani STATUS:               ID:20161225172749d    3
 2016-12-25-1728-00M.COL___384                                                 6
 STAT SP IPHASW D HRMM SECON CODA AMPLIT PERI AZIMU VELO AIN AR TRES W  DIS CAZ7
 PAM  EZ EP       1737 18.63                             156    0.4510 55.8 104 
 PAM  EN ES       1737 33.63                             156    0.3910 55.8 104 
 PAM  EZ I        1737 36.50        44.8 0.32            155           55.8 104 
 BRR  HZ IP     D 1737 18.37                             150    0.1210 69.8 236 
 BRR  HE ES       1737 33.56                             150    0.1910 69.8 236 
 BRR  HZ I        1737 34.22        54.3 0.12            143           69.8 236 
 BAR2 HZ EP       1737 20.29                             141   -0.1310 96.3 180 
 BAR2 HZ ES       1737 36.59                             141   -0.6410 96.3 180 
 PTB  HZ EP       1737 26.43                             123   -0.69 9  173 234 
 PTB  HN ES       1737 49.11                             123   -0.05 9  173 234 
 PTB  HZ I        1737 53.23        18.7 0.30            119            173 234 
 RUS  HZ EP       1737 27.33                             123   -0.50 9  174 176 
 ZAR  HZ EP       1737 28.47                             122    0.24 9  184 271 
 ZAR  HN ES       1737 51.86                             122    0.72 9  184 271 
 ZAR  HZ I        1737 56.20        26.6 0.26            119            184 271 
 TAM  HZ EP       1737 29.33                             120    0.25 9  192 126 
 URE  HZ EP   3   1737 37.96                             112    1.40 2  260 277 
 URE  HN ES   3   1738  4.48                             112   -1.49 2  260 277 
 URE  HZ I        1738  9.09        13.3 0.23            111            260 277 
 ROSC BZ EP   3   1737 45.54                             108    2.15 2  316 203 
 ROSC BN ES   4   1738 22.49                             108    4.37 0  316 203 
 ROSC BZ I        1738 28.97         5.6 0.39            106            316 203 
 CHI  HZ EP       1737 44.27                             108    0.49 7  319 191 
 CHI  HN ES   4   1738 22.45                             108    3.64 0  319 191 
 CHI  HZ I        1738 29.42         2.9 0.55            106            319 191 
 GUY2CHZ EP   3   1737 48.95                             106    2.03 2  345 224 
 GUY2CHN ES   4   1738 29.04                             106    4.64 0  345 224 
 GUY2CHZ I        1738 32.85         5.4 0.30                           345 224 
 SJC  HZ EP       1737 46.27                             106   -0.32 6  347 321 
 SJC  HE ES       1738 23.28                             106   -0.54 6  347 321 
 ELA  HZ EP   3   1737 53.27                             104    2.47 2  378 220 
 ELA  HN ES   4   1738 27.93                             104   -3.38 0  378 220 
 ELA  HZ I        1738 40.06         4.7 0.35            103            378 220 
 CRJC HZ EP       1737 51.20                             104   -1.08 6  395   5 
                                                                                
