 2010  625 1220 48.1 L   6.761 -73.066138.4  RSN 11 0.4 2.4LRSN                1
 GAP=165        0.82       4.5     8.4  7.7 -0.1868E+02  0.1260E+02  0.5770E+01E
 Epicentro: LOS SANTOS - SANTANDER                                             3
 ACTION:UP  10-08-24 10:13 OP:vdl  STATUS:               ID:20100625122048 L   I
 2010-06-25-1218-21S.COL___118                                                 6
 STAT SP IPHASW D HRMM SECON CODA AMPLIT PERI AZIMU VELO SNR AR TRES W  DIS CAZ7
 BAR2 SZ EP   1   1221  6.64                             170    -0.2 7   23 215 
 BAR2 SZ ES   2   1221 21.30                             170    -0.1 5   23 215 
 BRR  HZ EP   1   1221  8.61                             148    -0.5 7   81 298 
 BRR  HE ES   2   1221 25.42                             148     0.0 5   81 298 
 BRR  HZ I        1221 26.74        62.7 0.18                            81 298 
 RUS  HZ EP   1   1221 10.58                             143    -0.2 7   96 181 
 RUS  HE ES   2   1221 28.91                             143     0.4 5   96 181 
 RUS  HZ I        1221 30.58        38.0 0.34                            96 181 
 BRI  SZ EP   1   1221 11.25                             139    -0.2 7  110  16 
 BRI  SZ ES   2   1221 30.04                             139     0.5 5  110  16 
 GUE  SZ EP   1   1221 11.73                             137    -0.6 7  119   8 
 GRA  SZ EP   1   1221 13.59                             135     0.7 7  128  13 
 GRA  SZ ES   2   1221 32.60                             135     0.4 5  128  13 
 CHI  HZ EP   1   1221 24.72                             116    -0.5 6  247 197 
 CHI  HN ES   2   1221 53.98                             116    -0.2 4  247 197 
 CHI  HZ I        1221 57.47        11.0 0.37                           247 197 
 ROSC BZ EP   1   1221 26.77                             115     0.8 6  254 213 
 HEL  HZ EP   1   1221 28.73                             113    -0.1 6  280 257 
 HEL  HZ I        1222  5.80        13.5 0.59                           280 257 
 RREF HZ EP   1   1221 35.03                             109     0.6 5  326 231 
 RREF HN ES   2   1222 10.50                             109     0.0 3  326 231 
 RREF HZ I        1222 17.38         9.5 0.36                           326 231 
 PRA  HZ EP   1   1221 41.31                             105    -0.1 4  393 211 
 PRA  HN ES   2   1222 23.56                             105     0.5 3  393 211 
 PRA  HZ I        1222 28.66         8.5 0.35                           393 211 
                                                                                
