 2011 1025 1308 26.3 L   6.718 -73.049133.1  RSN  4 0.4 1.4LRSN                1
 GAP=153        0.92       8.1     9.1 10.6 -0.1215E+02 -0.1195E+02 -0.8882E+01E
 Epicentro: ARATOCA - SANTANDER                                                3
 ACTION:UPD 12-07-13 16:05 OP:ep   STATUS:               ID:20111025130826 L   I
 2011-10-25-1305-35S.COL___172                                                 6
 STAT SP IPHASW D HRMM SECON CODA AMPLIT PERI AZIMU VELO AIN AR TRES W  DIS CAZ7
 BAR2 SZ EP       13 8 43.96                             171   -0.3510 20.3 227 
 BAR2 SZ ES   1   13 8 58.59                             171    0.21 7 20.3 227 
 BAR2 SZ I        13 9  3.66         5.2 0.56                          20.3 227 
 PAM  SZ EP       13 8 47.03                             148   -0.2110 78.8  29 
 PAM  SE ES   1   13 9  3.88                             148    0.28 7 78.8  29 
 BRR  HZ EP   1   13 8 47.89                             145    0.93 7 85.0 300 
 BRR  HZ I        13 8 49.29         6.9 0.28                          85.0 300 
 BRR  HN ES   1   13 9  2.64                             145   -0.46 7 85.0 300 
 RUS  HN ES   2   13 9  5.25                             144    0.11 5 91.3 182 
                                                                                
