 2017  725 1005 17.5 L   6.807 -73.165146.8  RSN 10 0.4 1.7LRSN                1
 GAP=102        1.04       4.1     3.5  6.1  0.3060E+01  0.1279E+01  0.2611E+01E
 Epicentro: LOS SANTOS - SANTANDER                                             3
 ACTION:UPD 17-08-30 15:36 OP:rebc STATUS:               ID:20170725100517 L   I
 OLDACT:UP  17-07-25 22:51 OP:ar   STATUS:               ID:20170725095745     3
 OLDACT:UP  17-07-25 22:51 OP:ar   STATUS:               ID:20170725095745     3
 OLDACT:REG 17-07-25 20:01 OP:ar   STATUS:               ID:20170725095745     3
 2017-07-25-0958-00M.COL___383                                                 6
 STAT SP IPHASW D HRMM SECON CODA AMPLIT PERI AZIMU VELO AIN AR TRES W  DIS CAZ7
 BAR2 EZ EP       10 5 36.83                             170   -0.4110 23.8 185 
 BAR2 EZ ES       10 5 52.28                             170   -0.3710 23.8 185 
 BAR2 EZ I        10 5 54.61        12.5 0.48            171           23.8 185 
 BRR  HZ EP       10 5 38.80                             153    0.1910 69.0 299 
 BRR  HN ES       10 5 55.76                             153    0.6710 69.0 299 
 PAM  EZ EP       10 5 39.91                             151    0.0610 78.2  41 
 PAM  EE ES       10 5 57.27                             151   -0.0210 78.2  41 
 PAM  EZ I        10 5 59.01        12.4 0.56            151           78.2  41 
 RUS  HZ EP       10 5 41.13                             144   -0.2610  102 175 
 RUS  HN ES       10 6  0.20                             144    0.1510  102 175 
 RUS  HZ I        10 6  0.73         6.9 0.36            145            102 175 
 PTB  HZ EP       10 5 43.76                             133   -0.59 9  146 258 
 PTB  HN ES       10 6  4.55                             133   -0.76 9  146 258 
 PTB  HZ I        10 6  8.11         3.5 0.18            132            146 258 
 TAM  HZ EP       10 5 45.27                             130   -0.17 9  157 105 
 YPLC HZ EP       10 5 47.63                             127    0.12 9  179 151 
 YPLC HN ES       10 6 11.47                             127    0.53 9  179 151 
 YPLC HZ I        10 6 12.08         7.6 0.26            128            179 151 
 ZAR  HZ EP       10 5 50.26                             123    0.50 9  202 292 
 ZAR  HE ES       10 6 15.08                             123    0.15 9  202 292 
 ZAR  HZ I        10 6 20.80         4.9 0.20            122            202 292 
 NOR  HE ES       10 6 21.44                             119    0.50 8  233 234 
 URE  HE ES   4   10 6 28.08                             114   -2.14 0  282 292 
 URE  HZ I        10 6 38.68         2.3 0.18            114            282 292 
 PTGC HZ EP   4   10 6  0.08                             112   -1.47 0  310 158 
                                                                                
