 2016  825 1533 53.4 L   6.812 -73.146145.0  RSN  5 0.3 2.0LRSN                1
 GAP=142        0.86       4.8     5.0  6.6 -0.1077E+02  0.9492E+01 -0.1563E+01E
 Epicentro: LOS SANTOS - SANTANDER                                             3
 ACTION:UPD 16-10-29 15:39 OP:rebc STATUS:               ID:20160825153353 L   I
 OLDACT:REG 16-08-25 21:54 OP:cara STATUS:               ID:20160825152759     3
 2016-08-25-1527-59S.COL___349                                                 6
 STAT SP IPHASW D HRMM SECON CODA AMPLIT PERI AZIMU VELO AIN AR TRES W  DIS CAZ7
 BAR2 EZ EP       1534 12.90                             170   -0.0210 24.6 189 
 BAR2 EZ ES       1534 28.07                             170   -0.1010 24.6 189 
 BAR2 EZ I        1534 29.09        19.3 0.30                          24.6 189 
 PAM  EZ IP       1534 15.88                             151    0.4510 76.4  40 
 PAM  EE ES       1534 32.66                             151    0.0210 76.4  40 
 PAM  EZ I        1534 35.01        23.9 0.54                          76.4  40 
 RUS  HZ EP       1534 16.73                             143   -0.4010  102 176 
 RUS  HN ES       1534 35.50                             143   -0.1610  102 176 
 PTB  HZ EP       1534 19.83                             132   -0.45 9  148 258 
 PTB  HE ES       1534 41.14                             132   -0.14 9  148 258 
 PTB  HZ I        1534 47.78        10.1 0.46                           148 258 
 SPBC HZ EP       1534 22.08                             129    0.19 9  164 219 
 SPBC HN ES       1534 44.82                             129    0.68 9  164 219 
 SPBC HZ I        1534 52.24        10.7 0.64                           164 219 
                                                                                
