 2012  825 1052 28.0 L   6.778 -73.165136.8  RSN  6 0.5 1.5LRSN                1
 GAP=135        0.99       5.8     5.4  9.5  0.8505E+00  0.9329E+01 -0.3215E+01E
 Epicentro: LOS SANTOS - SANTANDER                                             3
 ACTION:UPD 12-09-10 11:58 OP:ep   STATUS:               ID:20120825105228 L   I
 2012-08-25-1050-00M.COL___218                                                 6
 STAT SP IPHASW D HRMM SECON CODA AMPLIT PERI AZIMU VELO AIN AR TRES W  DIS CAZ7
 BAR2 SZ EP   1   1052 46.33                             171   -0.12 7 20.6 185 
 BAR2 SZ I        1052 46.75        14.2 0.11                          20.6 185 
 BAR2 SZ ES   1   1053  0.09                             171   -0.78 7 20.6 185 
 BRR  HZ EP   1   1052 48.12                             151    0.02 7 70.6 301 
 BRR  HZ I        1052 48.62        13.1 0.13                          70.6 301 
 BRR  HN ES   1   1053  4.75                             151    0.94 7 70.6 301 
 PAM  SZ EP   1   1052 49.22                             148   -0.20 7 80.6  40 
 PAM  SZ I        1052 49.59         7.8 0.22                          80.6  40 
 PAM  SN ES   1   1053  6.12                             148   -0.05 7 80.6  40 
 RUS  HZ EP   1   1052 50.61                             143   -0.05 7 98.3 175 
 RUS  HN ES       1053  8.81                             143    0.4410 98.3 175 
 RUS  HZ I        1053 10.45         3.2 0.28                          98.3 175 
 PTB  HZ EP   1   1052 54.13                             130    0.17 7  145 260 
 PTB  HN ES       1053 13.66                             130   -0.59 9  145 260 
 PTB  HZ I        1053 17.69         2.7 0.10                           145 260 
 ZAR  HE ES   2   1053 25.18                             120    0.68 4  203 293 
                                                                                
