 2016 1225 1409 23.0 L   6.686 -73.215148.9  RSN  5 0.2 1.7LRSN                1
 GAP=211        0.55       4.2     3.9  4.3  0.8742E+01  0.2597E+01  0.2770E+00E
 Epicentro: VILLANUEVA - SANTANDER                                             3
 ACTION:UPD 17-01-11 20:19 OP:rebc STATUS:               ID:20161225140923 L   I
 OLDACT:UP  16-12-25 23:20 OP:edw  STATUS:               ID:20161225140742     3
 OLDACT:REG 16-12-25 20:32 OP:edw  STATUS:               ID:20161225140742     3
 2016-12-25-1408-00M.COL___378                                                 6
 STAT SP IPHASW D HRMM SECON CODA AMPLIT PERI AZIMU VELO AIN AR TRES W  DIS CAZ7
 BAR2 EZ EP       14 9 42.96                             176    0.1310 11.0 161 
 BAR2 EZ ES       14 9 58.02                             176   -0.2710 11.0 161 
 BAR2 EZ I        1410  1.25         8.7 0.62            160           11.0 161 
 BRR  HZ EP       14 9 44.59                             153    0.0510 72.0 310 
 BRR  HE ES       1410  1.40                             153    0.0710 72.0 310 
 RUS  HZ EP       14 9 46.13                             148   -0.1510 89.0 171 
 RUS  HN ES       1410  4.72                             148    0.3010 89.0 171 
 PTB  HZ EP       14 9 49.24                             135   -0.15 9  138 263 
 PTB  HN ES       1410  9.81                             135   -0.16 9  138 263 
 PTB  HZ I        1410 24.34        10.3 0.52            127            138 263 
 ZAR  HZ EP   2   14 9 55.61                             123    0.14 4  202 296 
 ZAR  HN ES   2   1410 21.53                             123    0.73 4  202 296 
 ZAR  HZ I        1410 28.26         3.9 0.56            120            202 296 
                                                                                
