 2015  325 1024 54.6 L   6.791 -73.146131.8  RSN  6 0.5 1.3LRSN                1
 GAP=137        1.35       6.5     6.6  9.3 -0.4470E+01  0.1087E+02  0.8958E+01E
 Epicentro: LOS SANTOS - SANTANDER                                             3
 ACTION:UPD 15-04-30 16:29 OP:nd   STATUS:               ID:20150325102454 L   I
 OLDACT:REG 15-03-25 20:18 OP:stll STATUS:               ID:20150325101748     3
 2015-03-25-1017-48M.COL___281                                                 6
 STAT SP IPHASW D HRMM SECON CODA AMPLIT PERI AZIMU VELO AIN AR TRES W  DIS CAZ7
 BAR2 EZ EP       1025 12.79                             170    0.2710 22.3 190 
 BAR2 EZ ES       1025 26.59                             170    0.0810 22.3 190 
 BAR2 EZ I        1025 28.96         5.6 0.22            169           22.3 190 
 BRR  HZ EP       1025 15.07                             150    0.8010 71.7 299 
 BRR  HN ES       1025 30.05                             150    0.4210 71.7 299 
 PAM  SZ EP       1025 15.72                             148    0.3310 78.2  39 
 PAM  SN ES       1025 30.69                             148   -0.9210 78.2  39 
 PAM  SZ I        1025 34.27         4.1 0.20            152           78.2  39 
 RUS  HZ EP       1025 17.31                             141    0.4010 99.6 176 
 RUS  HN ES       1025 34.31                             141   -0.0210 99.6 176 
 RUS  HZ I        1025 36.51         3.0 0.26            144           99.6 176 
 PTB  HZ EP       1025 19.69                             129   -0.74 9  148 259 
 PTB  HN ES       1025 40.30                             129   -0.30 9  148 259 
 PTB  HZ I        1025 47.82         2.7 0.30            130            148 259 
 SPBC HZ EP       1025 21.42                             126   -0.55 9  162 219 
                                                                                
