 2013  425 1507 56.3 L   6.857 -73.153147.9  RSN 15 0.6 3.2LRSN 3.3WRSN        1
 SPEC AVERAGE  MO 14.1 ST 74.7 OM  2.6 f0 6.84 R0.2223 AL 4.30 WI 16.5 MW  3.3 3
 SPEC SD       MO  0.3 ST 61.0 OM  0.5 f0 1.19 R0.0439 AL      WI      MW  0.2 3
 GAP= 69        1.13       3.7     3.6  6.0  0.1453E+01  0.4318E+01  0.2979E+01E
 Epicentro: LOS SANTOS - SANTANDER                                             3
 SPEC ZAR HH N MO 14.4 ST201.8 OM  2.6 f0 8.39 R0.1752 AL 6.09 WI 20.8 MW  3.5 3
 SPEC ZAR HH N T15 854 K 0.000 GD  249 VS 4.20 DE 3.20 Q0300.0 QA 0.60 VS 4.20 3
 SPEC RUS HH E MO 13.5 ST 10.2 OM  1.8 f0 6.36 R0.2311 AL 3.97 WI 23.3 MW  2.9 3
 SPEC RUS HH E T15 839 K 0.000 GD  182 VS 4.20 DE 3.20 Q0300.0 QA 0.60 VS 4.20 3
 SPEC OCA HH N MO 14.3 ST 96.0 OM  2.6 f0 6.90 R0.2130 AL 4.34 WI 14.2 MW  3.5 3
 SPEC OCA HH N T15 845 K 0.000 GD  213 VS 4.20 DE 3.20 Q0300.0 QA 0.60 VS 4.20 3
 SPEC PTB HH N MO 14.0 ST 47.2 OM  2.3 f0 6.90 R0.2130 AL 2.68 WI 13.8 MW  3.3 3
 SPEC PTB HH N T15 844 K 0.000 GD  209 VS 4.20 DE 3.20 Q0300.0 QA 0.60 VS 4.20 3
 SPEC HEL HH E MO 14.0 ST 13.5 OM  2.1 f0 4.65 R0.3161 AL 2.34 WI 20.4 MW  3.3 3
 SPEC HEL HH E T15 9 9 K 0.000 GD  310 VS 4.20 DE 3.20 Q0300.0 QA 0.60 VS 4.20 3
 SPEC BRR HH E MO 14.2 ST 57.0 OM  2.6 f0 6.35 R0.2315 AL 4.57 WI  6.7 MW  3.4 3
 SPEC BRR HH E T15 834 K 0.000 GD  162 VS 4.20 DE 3.20 Q0300.0 QA 0.60 VS 4.20 3
 SPEC BRR HH Z MO 14.1 ST 97.0 OM  1.7 f0 8.36 R0.1758 AL 6.13 WI 16.0 MW  3.3 3
 SPEC BRR HH Z T15 817 K 0.000 GD  162 VP 7.60 DE 3.20 Q0300.0 QA 0.60 VS 4.20 3
 ACTION:UPD 13-05-22 14:40 OP:EP   STATUS:               ID:20130425150756 L   I
 2013-04-25-1500-00M.COL___249                                                 6
 STAT SP IPHASW D HRMM SECON CODA AMPLIT PERI AZIMU VELO AIN AR TRES W  DIS CAZ7
 GIR2 SZ EP       15 8 16.15                             170    0.0810 24.9 350 
 GIR2 SZ ES       15 8 31.36                             170   -0.1310 24.9 350 
 GIR2 SZ I        15 8 32.92       249.7 0.38            167           24.9 350 
 BAR2 SZ IP     C 15 8 16.33                             168    0.0110 29.5 186 
 BAR2 SZ ES   1   15 8 31.57                             168   -0.37 7 29.5 186 
 BAR2 SZ I        15 8 32.30       221.4 0.20            169           29.5 186 
 BRR  HZ IP     C 15 8 17.94                             154    0.4610 67.6 294 
 BRR  HN ES       15 8 34.86                             154    0.8610 67.6 294 
 BRR  HN I        15 8 35.18       631.3 0.26            150           67.6 294 
 PAM  SZ EP   1   15 8 18.79                             153    0.30 7 73.2  43 
 PAM  SE ES       15 8 35.80                             153   -0.0110 73.2  43 
 PAM  SE I        15 8 37.68       621.9 0.32            153           73.2  43 
 RUS  HZ EP       15 8 20.56                             142   -0.1610  107 176 
 RUS  HN ES       15 8 39.30                             142   -0.4710  107 176 
 RUS  HN I        15 8 41.54        57.8 0.28            143            107 176 
 PTB  HZ EP   1   15 8 22.94                             132   -0.54 7  148 256 
 PTB  HN ES   1   15 8 44.26                             132   -0.43 7  148 256 
 PTB  HN I        15 8 49.42       206.0 0.44            130            148 256 
 OCA  HZ EP   1   15 8 23.94                             131   -0.24 7  154 353 
 OCA  HN ES       15 8 45.61                             131   -0.32 9  154 353 
 OCA  HN I        15 8 50.10       395.4 0.18            130            154 353 
 TAM  HZ IP     D 15 8 24.69                             131    0.32 9  158 107 
 TAM  HE ES       15 8 46.26                             131   -0.02 9  158 107 
 TAM  HE I        15 8 47.95       105.6 0.68            132            158 107 
 ZAR  HZ EP   2   15 8 29.10                             123    0.54 4  201 291 
 ZAR  HN ES   1   15 8 54.59                             123    0.86 6  201 291 
 NOR  HZ EP   1   15 8 32.40                             119   -0.08 6  238 233 
 NOR  HE ES   1   15 9  0.46                             119   -0.24 6  238 233 
 NOR  HE I        15 9  5.98       141.4 0.38            118            238 233 
 SML  HZ EP   1   15 8 31.91                             119   -0.47 6  238 335 
 SML  HN ES   1   15 9  0.33                             119   -0.20 6  238 335 
 SML  HN I        15 9 12.67       217.3 0.10            117            238 335 
 ROSC BZ EP   2   15 8 36.57                             117    1.49 4  258 210 
 HEL  HN ES   1   15 9  9.25                             115    1.02 6  273 254 
 HEL  HN I        15 9 15.75        54.4 0.40            114            273 254 
 URE  HZ EP   4   15 8 36.32                             114   -0.80 0  281 291 
 URE  HN ES   1   15 9  6.81                             114   -2.16 6  281 291 
 PRA  HZ EP       15 8 50.54                             107    0.05 6  397 209 
 SJC  HZ EP   4   15 8 50.30                             106   -0.95 0  403 327 
                                                                                
