 2014  425 1409 57.0 L   6.288 -73.289151.3  RSN 11 0.4 2.3LRSN                1
 GAP=170        1.03       4.2     4.6  6.9 -0.1422E+01  0.7531E+01 -0.9022E+01E
 Epicentro: OIBA - SANTANDER                                                   3
 ACTION:UPD 14-05-13 23:11 OP:nd   STATUS:               ID:20140425140957 L   I
 OLDACT:REG 14-04-25 23:38 OP:nd   STATUS:               ID:20140425140841     3
 2014-04-25-1408-41M.COL___248                                                 6
 STAT SP IPHASW D HRMM SECON CODA AMPLIT PERI AZIMU VELO AIN AR TRES W  DIS CAZ7
 RUS  HZ EP       1410 18.15                             161   -0.2910 49.3 152 
 RUS  HN ES       1410 35.29                             161    0.1310 49.3 152 
 RUS  HZ I        1410 36.75        31.3 0.42            167           49.3 152 
 SPBC HZ EP       1410 21.02                             142   -0.5110  112 231 
 SPBC HN ES       1410 41.28                             142    0.6110  112 231 
 SPBC HZ I        1410 43.95        38.5 0.18            142            112 231 
 PTB  HZ EP       1410 22.84                             137   -0.2210  132 282 
 PTB  HN ES       1410 43.25                             137   -0.1510  132 282 
 PTB  HZ I        1410 45.54        23.9 0.18            135            132 282 
 NOR  HZ EP       1410 28.93                             125    0.24 9  192 245 
 NOR  HN ES       1410 52.36                             125   -1.06 9  192 245 
 NOR  HZ I        1410 56.85        19.8 0.18            126            192 245 
 ZAR  HZ EP       1410 31.32                             122    0.01 8  219 308 
 ZAR  HN ES       1410 58.62                             122    0.55 8  219 308 
 ZAR  HZ I        1411  6.48        27.8 0.26            122            219 308 
 HEL  HZ EP       1410 34.89                             118    0.00 8  248 268 
 HEL  HN ES       1411  4.45                             118    0.00 8  248 268 
 HEL  HZ I        1411 15.45         8.2 0.26            119            248 268 
 GUY2CHZ EP   4   1410 37.27                             117    1.15 0  258 243 
 GUY2CHN ES   4   1411  9.04                             117    2.40 0  258 243 
 GUY2CHZ I        1411 16.00        10.1 0.38                           258 243 
 RREF HZ EP       1410 38.95                             116    0.82 8  275 236 
 RREF HN ES       1411 10.72                             116    0.50 8  275 236 
 RREF HZ I        1411 17.42         6.0 0.28            117            275 236 
 SML  HZ EP       1410 39.49                             114    0.38 7  291 343 
 SML  HN ES       1411 11.71                             114   -0.26 7  291 343 
 SML  HZ I        1411 20.10        18.9 0.24            115            291 343 
 URE  HZ EP   4   1410 38.19                             114   -1.51 0  296 303 
 URE  HN ES   4   1411 10.82                             114   -2.19 0  296 303 
 URE  HZ I        1411 15.46        14.0 0.16            114            296 303 
 CBOC HZ EP     C 1410 40.75                             113   -0.16 7  305 261 
 CBOC HN ES       1411 14.99                             113   -0.17 7  305 261 
 CBOC HZ I        1411 19.75         6.4 0.50            114            305 261 
                                                                                
