 2015  225 1001 23.6 L   6.831 -73.150150.0  RSN  5 0.2 1.4LRSN                1
 GAP=240        0.52       3.6     3.4  4.0  0.3299E+01  0.1804E+01  0.2841E+01E
 Epicentro: LOS SANTOS - SANTANDER                                             3
 ACTION:UPD 15-04-30 21:29 OP:nd   STATUS:               ID:20150225100123 L   I
 OLDACT:REG 15-02-25 20:33 OP:carl STATUS:               ID:20150225095743     3
 2015-02-25-0957-43M.COL___290                                                 6
 STAT SP IPHASW D HRMM SECON CODA AMPLIT PERI AZIMU VELO AIN AR TRES W  DIS CAZ7
 BAR2 EZ EP       10 1 43.92                             169    0.1310 26.7 188 
 BAR2 EZ ES       10 1 59.57                             169    0.0210 26.7 188 
 BRR  HN ES       10 2  1.92                             154    0.0810 69.2 296 
 RUS  HZ EP       10 1 47.91                             144   -0.0910  104 176 
 RUS  HN ES       10 2  6.87                             144   -0.1710  104 176 
 RUS  HZ I        10 2  9.37         1.4 0.42            140            104 176 
 PTB  HZ EP       10 1 50.57                             133   -0.35 9  148 257 
 PTB  HN ES       10 2 12.18                             133   -0.06 9  148 257 
 PTB  HZ I        10 2 17.72         4.2 0.26            129            148 257 
 SPBC HZ EP       10 1 52.98                             130    0.35 9  166 218 
 SPBC HN ES       10 2 15.40                             130    0.11 9  166 218 
 SPBC HZ I        10 2 22.00         5.4 0.36            126            166 218 
                                                                                
