 2012 1225 1806 32.7 L   6.830 -73.420123.4  RSN  5 0.2 1.4LRSN                1
 GAP= 94        0.60       5.1     5.9  5.2  0.1684E+02  0.9427E+01  0.6393E+01E
 Epicentro: SAN VICENTE DE CHUCURI - SANTANDER                                 3
 ACTION:UPD 13-01-04 14:30 OP:ep   STATUS:               ID:20121225180632 L   I
 2012-12-25-1800-00M.COL___242                                                 6
 STAT SP IPHASW D HRMM SECON CODA AMPLIT PERI AZIMU VELO AIN AR TRES W  DIS CAZ7
 GIR2 SZ EP       18 6 49.63                             162   -0.3110 37.1  42 
 BAR2 SZ EP       18 6 50.18                             162    0.0910 37.2 135 
 BAR2 SZ ES       18 7  3.52                             162   -0.1110 37.2 135 
 BAR2 SZ I        18 7  4.22        12.2 0.39                          37.2 135 
 BRR  HZ EP       18 6 50.29                             159    0.2510 44.5 313 
 BRR  HE ES       18 7  3.66                             159    0.1210 44.5 313 
 BRR  HZ I        18 7  5.12         6.0 0.15                          44.5 313 
 RUS  HZ EP   1   18 6 55.56                             136    0.42 7  110 160 
 RUS  HN ES   1   18 7 12.57                             136   -0.05 7  110 160 
 RUS  HN I        18 7 13.93         5.0 0.19                           110 160 
 PTB  HZ EP       18 6 55.01                             133   -0.2510  119 254 
 PTB  HZ I        18 7 16.43         3.7 0.17                           119 254 
                                                                                
