 2017 1025 1025 57.9 L   6.789 -73.141141.5  RSN 14 0.6 1.7LRSN                1
 GAP=113        0.99       3.2     3.4  5.2  0.1123E+01  0.3269E+01  0.9031E+00E
 Epicentro: LOS SANTOS - SANTANDER                                             3
 ACTION:UPD 17-11-07 19:36 OP:rebc STATUS:               ID:20171025102557 L   I
 OLDACT:UP  17-10-25 21:26 OP:dhb  STATUS:               ID:20171025101747     3
 OLDACT:REG 17-10-25 20:04 OP:dhb  STATUS:               ID:20171025101747     3
 2017-10-25-1018-00M.COL___434                                                 6
 STAT SP IPHASW D HRMM SECON CODA AMPLIT PERI AZIMU VELO AIN AR TRES W  DIS CAZ7
 BAR2 EZ EP       1026 16.60                             171   -0.4210 22.2 192 
 BAR2 EZ ES       1026 31.69                             171   -0.2210 22.2 192 
 BAR2 EZ I        1026 33.16        12.6 0.42            168           22.2 192 
 BRR  HZ IP     C 1026 18.96                             151    0.2910 72.3 299 
 BRR  HN ES       1026 35.59                             151    0.7310 72.3 299 
 BRR  HZ I        1026 40.56        10.9 0.28            152           72.3 299 
 PAM  EZ IP     C 1026 19.93                             150    0.2110 78.0  39 
 PAM  EN ES       1026 36.68                             150   -0.0510 78.0  39 
 PAM  EZ I        1026 38.99        13.0 0.48            154           78.0  39 
 RUS  HZ EP       1026 21.08                             143   -0.0810 99.3 176 
 RUS  HN ES       1026 39.34                             143    0.0510 99.3 176 
 PTB  HZ EP       1026 24.26                             131   -0.31 9  148 259 
 PTB  HN ES       1026 44.44                             131   -0.92 9  148 259 
 PTB  HZ I        1026 46.99         6.5 0.18            132            148 259 
 SPBC HZ EP       1026 26.03                             128   -0.01 9  163 219 
 SPBC HN ES       1026 48.12                             128    0.15 9  163 219 
 SPBC HZ I        1026 55.26         5.8 0.22            129            163 219 
 YPLC HZ EP       1026 26.73                             126   -0.54 9  175 151 
 YPLC HN ES       1026 50.51                             126    0.34 9  175 151 
 YPLC HZ I        1026 57.45         5.4 0.36            128            175 151 
 ZAR  HZ EP       1026 30.41                             121    0.22 9  205 292 
 ZAR  HN ES       1026 55.92                             121    0.56 9  205 292 
 ZAR  HZ I        1027  2.93         6.2 0.26            123            205 292 
 NOR  HZ EP   3   1026 31.80                             118   -1.57 2  234 235 
 NOR  HE ES       1027  1.07                             118    0.04 8  234 235 
 NOR  HZ I        1027  4.79         2.3 0.14            119            234 235 
 CHI  HZ EP   9   1026 37.42                             116    2.15 0  248 195 
 CHI  HE ES       1027  6.67                                    0.11 8  248 195 
 CHI  HZ I        1027  8.55         1.5 0.36            118            248 195 
 URE  HE ES   3   1027  9.14                             113   -1.71 2  285 292 
 URE  HZ I        1027 11.33         3.4 0.12            114            285 292 
 GUY2CHZ EP   2   1026 42.71                             112    1.41 4  301 235 
 GUY2CHN ES   4   1027 17.71                             112    2.57 0  301 235 
 GUY2CHZ I        1027 24.59         1.9 0.56                           301 235 
 PRA  HZ EP       1026 51.47                             106    0.27 6  391 210 
 PRA  HE ES   2   1027 34.09                             106    1.33 3  391 210 
 PRA  HZ I        1027 37.57         2.0 0.22            107            391 210 
 SJC  HZ EP       1026 53.18                             105   -0.32 6  411 327 
 SJC  HN ES   2   1027 35.11                             105   -1.74 3  411 327 
 SJC  HZ I        1027 36.93         2.0 0.50            107            411 327 
                                                                                
