 2013  725 1717 43.4 L   6.737 -73.165142.2  RSN  6 0.4 1.7LRSN                1
 GAP=137        0.86       4.8     4.8  7.7 -0.3581E+01  0.7222E+01 -0.1979E+01E
 Epicentro: VILLANUEVA - SANTANDER                                             3
 ACTION:UPD 13-08-12 10:40 OP:ep   STATUS:               ID:20130725171743 L   I
 OLDACT:REG 13-07-25 15:33 OP:mh   STATUS:               ID:20130725170959     3
 2013-07-25-1709-59M.COL___267                                                 6
 STAT SP IPHASW D HRMM SECON CODA AMPLIT PERI AZIMU VELO AIN AR TRES W  DIS CAZ7
 BAR2 SZ EP       1718  2.71                             173    0.2410 16.1 187 
 BAR2 SZ ES   1   1718 17.50                             173    0.15 7 16.1 187 
 BAR2 SZ I        1718 19.23        11.0 0.16            172           16.1 187 
 GIR2 SZ EP   1   1718  2.81                             164   -0.04 7 38.0 355 
 BRR  HZ EP       1718  4.58                             151    0.3110 73.1 304 
 BRR  HN ES   1   1718 21.23                             151    0.68 7 73.1 304 
 BRR  HZ I        1718 24.80        14.1 0.26            151           73.1 304 
 PAM  SZ EP   1   1718  5.66                             148   -0.00 7 84.2  38 
 PAM  SN ES       1718 22.58                             148   -0.4510 84.2  38 
 PAM  SN I        1718 24.49        13.1 0.76            153           84.2  38 
 RUS  HZ EP   1   1718  6.81                             145    0.50 7 93.8 174 
 RUS  HN ES       1718 24.00                             145   -0.1910 93.8 174 
 RUS  HZ I        1718 26.33         4.0 0.32            149           93.8 174 
 PTB  HZ EP   1   1718  9.17                             132   -0.61 7  144 261 
 PTB  HN ES       1718 29.98                             132   -0.38 9  144 261 
 PTB  HZ I        1718 35.53         6.3 0.32            133            144 261 
                                                                                
