 2012  625 1122 19.7 L   6.668 -73.190143.9  RSN  4 0.5 1.2LRSN                1
 GAP=222        0.52      15.8    10.9 14.3  0.4909E+01  0.7712E+01  0.1237E+03E
 Epicentro: VILLANUEVA - SANTANDER                                             3
 ACTION:UPD 12-08-06 17:52 OP:ep   STATUS:               ID:20120625112219 L   I
 2012-06-25-1120-00M.COL___199                                                 6
 STAT SP IPHASW D HRMM SECON CODA AMPLIT PERI AZIMU VELO AIN AR TRES W  DIS CAZ7
 BAR2 SZ ES   3   1122 53.13                             177   -0.74 2 8.40 174 
 BAR2 SZ I        1122 55.49         4.4 0.38                          8.40 174 
 BRR  HZ EP   3   1122 39.80                             151   -1.09 2 75.4 310 
 BRR  HN ES   2   1122 57.72                             151    0.30 5 75.4 310 
 RUS  HZ EP   3   1122 43.12                             148    0.83 2 86.5 172 
 PTB  HZ EP   2   1122 45.92                             133    0.04 5  141 264 
 PTB  HN ES   2   1123  6.20                             133   -0.10 5  141 264 
 PTB  HZ I        1123 12.41         1.7 0.44                           141 264 
                                                                                
