 2011  325 1159 24.8 L   5.824 -73.676115.4  RSN 12 0.4 2.8LRSN                1
 GAP= 78        0.98       2.8     3.6  9.5 -0.2841E+01  0.5119E+01 -0.7014E+00E
 Epicentro: PUENTE NACIONAL - SANTANDER                                        3
 ACTION:UP  11-06-16 14:35 OP:jfem STATUS:               ID:20110325115924 L   I
 2011-03-25-1156-51S.COL___123                                                 6
 STAT SP IPHASW D HRMM SECON CODA AMPLIT PERI AZIMU VELO SNR AR TRES W  DIS CAZ7
 BAR2 SZ IP       1159 45.15                             136    -0.310  101  33 
 BAR2 SZ ES   1   12 0  0.98                             136    -0.5 7  101  33 
 BAR2 SZ I        12 0  2.58       203.4 0.21                           101  33 
 CHI  HZ EP   1   1159 48.60                             128     0.1 7  132 183 
 CHI  HN ES   1   12 0  7.03                             128     0.0 7  132 183 
 NOR  SZ EP   1   1159 48.19                             127    -0.2 7  136 258 
 NOR  SN ES   1   12 0  7.64                             127     0.9 7  136 258 
 BRR  HZ EP       1159 48.50                             125    -0.4 9  142 358 
 BRR  HN ES   1   12 0  7.67                             125     0.0 7  142 358 
 BRR  HZ I        12 0 13.37        75.5 0.07                           142 358 
 YOP  SZ EP   1   1159 49.79                             124     0.1 7  148 110 
 YOP  SN ES   1   12 0  9.81                             124     0.7 7  148 110 
 YOP  SZ I        12 0 12.21        67.9 0.29                           148 110 
 VIL  SN ES   1   12 0 15.99                             117    -0.8 7  189 181 
 VIL  SZ I        12 0 19.41        50.7 0.17                           189 181 
 HEL  HZ EP   1   1159 56.65                             114     0.1 6  209 281 
 HEL  HN ES   1   12 0 20.99                             114    -0.3 6  209 281 
 HEL  HZ I        12 0 27.77        54.0 0.41                           209 281 
 RREF HZ EP   1   1159 57.05                             114    -0.1 6  212 241 
 RREF HN ES   1   12 0 22.56                             114     0.2 6  212 241 
 RREF HZ I        12 0 29.21        29.6 0.33                           212 241 
 GRA  SZ EP   1   12 0  1.58                             110     1.0 6  247  23 
 GRA  SZ ES   1   12 0 29.11                             110     0.6 6  247  23 
 GRA  SZ I        12 0 35.16        58.3 0.36                           247  23 
 PRA  HZ EP   1   12 0  2.88                             108    -0.1 6  269 210 
 PRA  HN ES   1   12 0 32.64                             108    -0.1 6  269 210 
 OCA  SZ EP   1   12 0  2.80                             108    -0.4 6  270   8 
 OCA  SZ ES   1   12 0 33.37                             108     0.3 6  270   8 
 OCA  SZ I        12 0 37.22        67.9 0.32                           270   8 
 SJA  SZ EP   1   12 0  4.95                             107     0.2 6  284 186 
 SJA  SZ I        12 0 38.51        65.1 0.38                           284 186 
                                                                                
