 2010 1125 1932  4.0 L   7.371 -73.191131.5  RSN 12 0.5 2.7LRSN                1
 GAP=117        1.13       5.0     8.1  8.4 -0.1722E+02 -0.6030E+01  0.8738E+01E
 Epicentro: RIONEGRO - SANTANDER                                               3
 ACTION:UP  10-12-17 16:55 OP:REBC STATUS:               ID:20101125193204 L   I
 2010-11-25-1920-00M.COL___132                                                 6
 STAT SP IPHASW D HRMM SECON CODA AMPLIT PERI AZIMU VELO SNR AR TRES W  DIS CAZ7
 BRR  HZ IP     D 1932 23.07                             153    -0.210   65 243 
 BRR  HE ES   1   1932 37.77                             153    -0.5 7   65 243 
 BRR  HZ I        1932 39.80       109.1 0.13                            65 243 
 GRA  SZ IP       1932 24.62                             150     0.810   71  37 
 GRA  SZ ES   1   1932 39.97                             150     0.6 7   71  37 
 GRA  SZ I        1932 41.16       274.0 0.32                            71  37 
 BAR2 SZ EP   1   1932 24.98                             145     0.0 7   86 179 
 BAR2 SZ ES   1   1932 41.39                             145     0.1 7   86 179 
 BAR2 SZ I        1932 44.47       120.9 0.68                            86 179 
 OCA  SZ EP   1   1932 26.06                             141     0.4 7   97 352 
 OCA  SZ ES   1   1932 41.81                             141    -0.7 7   97 352 
 OCA  SZ I        1932 47.60       102.4 0.51                            97 352 
 RUS  HZ EP   1   1932 31.84                             126    -0.2 7  164 176 
 RUS  HE ES   1   1932 53.70                             126    -0.2 7  164 176 
 RUS  HZ I        1932 58.15        18.9 0.63                           164 176 
 NOR  SZ EP   2   1932 43.44                             112     0.2 4  273 223 
 NOR  SE ES   2   1933 13.62                             112    -0.2 4  273 223 
 HEL  HZ EP   2   1932 45.51                             110     0.0 4  290 243 
 HEL  HZ I        1933 25.74        12.7 0.43                           290 243 
 CHI  HZ EP   2   1932 48.46                             109     0.6 4  309 191 
 CHI  HZ I        1933 30.51        10.5 0.15                           309 191 
 SDV  BZ IP     D 1932 48.66                             107    -1.1 7  328  59 
 SDV  BZ I        1933  3.42        18.1 0.54                           328  59 
 GUY  SN ES   2   1933 28.02                             107    -0.1 3  338 226 
 GUY  SZ I        1933 38.34        22.8 0.31                           338 226 
 RREF HZ EP   2   1932 54.80                             106     0.4 3  363 221 
 RREF HZ I        1933 45.73        16.9 0.28                           363 221 
 PRA  HZ EP   1   1933  4.05                             102     0.6 4  446 205 
 PRA  HN ES   2   1933 50.30                             102     0.4 3  446 205 
 PRA  HZ I        1934  1.31        35.4 0.10                           446 205 
                                                                                
