 2013  425 1635 20.0 L   6.755 -73.135143.8  RSN  6 0.4 1.7LRSN                1
 GAP=140        0.89       5.5     5.3  7.1 -0.5654E+01  0.8108E+01  0.4853E+01E
 Epicentro: LOS SANTOS - SANTANDER                                             3
 ACTION:UPD 13-05-22 14:40 OP:EP   STATUS:               ID:20130425163520 L   I
 2013-04-25-1630-00M.COL___249                                                 6
 STAT SP IPHASW D HRMM SECON CODA AMPLIT PERI AZIMU VELO AIN AR TRES W  DIS CAZ7
 BAR2 SZ IP     D 1635 39.32                             172    0.0610 18.7 196 
 BAR2 SZ ES   1   1635 53.59                             172   -0.73 7 18.7 196 
 BAR2 SZ I        1635 56.74        11.4 0.22            170           18.7 196 
 BRR  HZ EP       1635 41.23                             151    0.1310 74.7 301 
 BRR  HE ES   1   1635 58.35                             151    0.77 7 74.7 301 
 BRR  HZ I        1636  2.36        15.0 0.30            151           74.7 301 
 PAM  SZ EP       1635 42.31                             149    0.1510 80.6  37 
 PAM  SN ES   1   1635 59.23                             149   -0.24 7 80.6  37 
 PAM  SZ I        1636  1.31         7.4 0.50            155           80.6  37 
 RUS  HZ EP     C 1635 43.37                             145    0.2210 95.5 177 
 RUS  HN ES   1   1636  1.47                             145    0.23 7 95.5 177 
 RUS  HZ I        1636  3.83         3.6 0.40            147           95.5 177 
 PTB  HZ EP       1635 46.22                             131   -0.57 9  148 261 
 PTB  HN ES   1   1636  7.25                             131   -0.47 7  148 261 
 PTB  HZ I        1636  9.58         6.7 0.28            133            148 261 
 NOR  HZ EP       1635 55.40                             118    0.03 8  233 236 
 NOR  HE ES   2   1636 23.81                             118    0.82 4  233 236 
 NOR  HZ I        1636 29.48         4.4 0.20            121            233 236 
 SML  HN ES   4   1636 24.38                             116   -1.55 0  249 336 
                                                                                
