 2011  225 1506 33.4 L   6.781 -73.057146.6  RSN  9 0.4 2.3LRSN                1
 GAP=169        0.89       4.3    11.4  9.9 -0.1564E+02  0.7788E+02 -0.6095E+01E
 Epicentro: LOS SANTOS - SANTANDER                                             3
 ACTION:UP  11-03-28 15:11 OP:jfem STATUS:               ID:20110225150633 L   I
 2011-02-25-1502-10S.COL___137                                                 6
 STAT SP IPHASW D HRMM SECON CODA AMPLIT PERI AZIMU VELO SNR AR TRES W  DIS CAZ7
 BAR2 SZ IP       15 6 53.01                             170    -0.110   25 214 
 BAR2 SZ ES   2   15 7  8.33                             170    -0.2 5   25 214 
 BAR2 SZ I        15 7 10.97        41.3 0.33                            25 214 
 RUS  HZ IP     D 15 6 56.87                             145    -0.210   98 182 
 RUS  HN ES   1   15 7 15.49                             145     0.0 7   98 182 
 RUS  HZ I        15 7 16.96        17.1 0.38                            98 182 
 GRA  SZ ES   1   15 7 18.82                             137     0.5 7  125  13 
 GRA  SZ I        15 7 20.77        25.3 0.36                           125  13 
 OCA  SZ EP       15 7  2.02                             129     0.0 9  164 350 
 OCA  SZ ES   3   15 7 24.19                             129    -0.3 2  164 350 
 OCA  SZ I        15 7 28.88        32.5 0.08                           164 350 
 CHI  HZ EP       15 7 11.08                             117    -0.1 8  249 197 
 CHI  HN ES   2   15 7 40.44                             117    -0.2 4  249 197 
 CHI  HZ I        15 7 49.26         8.7 0.57                           249 197 
 HEL  HZ EP   1   15 7 14.43                             114    -0.2 6  281 257 
 HEL  HZ I        15 7 51.91        13.1 0.38                           281 257 
 RREF HZ EP       15 7 21.10                             111     0.9 7  328 231 
 RREF HN ES   2   15 7 57.67                             111     0.9 3  328 231 
 TOL  SZ EP       15 7 22.70                             109     0.4 6  349 226 
 DBB  SZ EP       15 7 21.10                             109    -0.9 6  349 274 
                                                                                
