 2014  825 1205 54.3 L   6.798 -73.154142.5  RSN 27 0.5 2.7LRSN                1
 GAP= 71        1.58       3.1     4.0  6.4 -0.1417E+01  0.6525E+01  0.3052E+01E
 Epicentro: LOS SANTOS - SANTANDER                                             3
     100.0      64.0      -2.0  5.0  4.0 17.0  0.0  0.1           RSN FPFIT    F
 ACTION:UPD 14-09-15 21:53 OP:nd   STATUS:               ID:20140825120554 L   I
 OLDACT:REG 14-08-25 21:06 OP:stll STATUS:               ID:20140825115821     3
 2014-08-25-1158-21M.COL___257                                                 6
 STAT SP IPHASW D HRMM SECON CODA AMPLIT PERI AZIMU VELO AIN AR TRES W  DIS CAZ7
 BAR2 SZ E        12 6 13.60                                           23.0 188 
 BAR2 SZ IP       12 6 13.60                             170    0.0710 23.0 188 
 BAR2 SZ ES       12 6 28.61                             170    0.0810 23.0 188 
 BRR  HZ IP     D 12 6 15.42                             152    0.3710 70.5 299 
 BRR  HZ I        12 6 15.49       179.7 0.14            144           70.5 299 
 BRR  HN ES       12 6 32.11                             152    0.8710 70.5 299 
 PAM  SZ EP     D 12 6 16.36                             150    0.1510 78.1  40 
 PAM  SZ I        12 6 16.71       234.3 0.24            148           78.1  40 
 PAM  SN ES       12 6 33.41                             150    0.1110 78.1  40 
 RUS  HZ EP     C 12 6 17.42                             143   -0.3010  100 176 
 RUS  HN ES       12 6 35.62                             143   -0.3610  100 176 
 RUS  HZ I        12 6 37.56        58.0 0.44            140            100 176 
 PTB  HZ EP       12 6 20.13                             131   -0.78 9  147 259 
 PTB  HE ES       12 6 41.75                             131    0.07 9  147 259 
 PTB  HZ I        12 6 47.20        73.6 0.52            124            147 259 
 TAM  HZ IP     C 12 6 21.92                             129    0.13 9  156 105 
 TAM  HN ES       12 6 42.93                             129   -0.31 9  156 105 
 TAM  HZ I        12 6 44.18        22.7 0.22            128            156 105 
 OCA  HZ EP       12 6 21.78                             129   -0.59 9  160 353 
 OCA  HN ES       12 6 44.77                             129    0.51 9  160 353 
 OCA  HZ I        12 6 53.34        55.7 0.42            123            160 353 
 SPBC HZ EP       12 6 22.52                             128    0.05 9  162 219 
 SPBC HN ES       12 6 44.32                             128   -0.13 9  162 219 
 SPBC HZ I        12 6 48.51        58.9 0.50            123            162 219 
 ZAR  HZ EP     D 12 6 26.17                             122   -0.28 9  203 292 
 ZAR  HE ES       12 6 51.33                             122   -0.20 9  203 292 
 ZAR  HZ I        12 6 57.70        69.6 0.58            116            203 292 
 NOR  HZ EP       12 6 29.56                             118   -0.18 8  234 234 
 NOR  HN ES       12 6 57.61                             118    0.22 8  234 234 
 NOR  HZ I        12 7  5.23        36.0 0.20            113            234 234 
 SML  HZ IP     C 12 6 29.58                             117   -1.14 8  244 336 
 SML  HE ES       12 6 59.22                             117    0.08 8  244 336 
 SML  HZ I        12 7  1.69        89.8 0.10            112            244 336 
 CHI  HZ IP     D 12 6 31.77                             116    0.01 8  248 195 
 CHI  HN ES       12 7  0.96                             116   -0.03 8  248 195 
 CHI  HZ I        12 7  4.43        25.1 0.34            112            248 195 
 ROSC BZ IP     D 12 6 33.37                             116    1.20 8  252 211 
 ROSC BE ES       12 7  1.01                             116   -0.69 8  252 211 
 ROSC BZ I        12 7 11.20        53.9 0.35            111            252 211 
 HEL  HZ EP       12 6 35.16                             114    0.92 8  271 256 
 HEL  HZ I        12 7 11.93        19.8 0.36            109            271 256 
 URE  HZ EP   9   12 6 33.52                             113   -1.60 0  283 292 
 URE  HE ES       12 7  3.94                                   -1.43 7  283 292 
 GUY2CHZ EP       12 6 38.05                             112    0.39 7  300 235 
 GUY2CHE ES       12 7 11.82                             112    0.34 7  300 235 
 GUY2CHZ I        12 7 25.73        18.8 0.52                           300 235 
 VIL  SZ EP       12 6 37.29                             111   -0.23 7  303 191 
 VIL  SN ES       12 7 10.40                             111   -0.83 7  303 191 
 VIL  SZ I        12 7 21.27        41.7 0.34            108            303 191 
 CBOC HZ EP       12 6 41.60                             109    0.63 7  333 252 
 CBOC HE ES       12 7 16.63                             109   -0.74 7  333 252 
 CBOC HZ I        12 7 24.98         6.3 0.38            105            333 252 
 DBB  SZ EP       12 6 42.36                             109    0.82 7  339 274 
 DBB  SZ I        12 7 20.05        38.0 0.38            105            339 274 
 TOL  SZ EP       12 6 42.82                             109    0.49 7  343 225 
 TOL  SN ES       12 7 19.12                             109   -0.67 7  343 225 
 MON  HZ EP   9   12 6 40.62                             108   -2.49 0  353 308 
 MON  HN ES       12 7 17.44                                   -1.25 6  353 308 
 MON  HZ I        12 7 35.96        15.4 0.74            104            353 308 
 ANIL HZ EP       12 6 44.87                             108    0.99 6  357 224 
 ANIL HN ES       12 7 23.79                             108    1.23 6  357 224 
 ANIL HZ I        12 7 28.03         7.1 0.30            104            357 224 
 ARGC HZ EP       12 6 43.58                             108   -0.24 6  359 341 
 ARGC HN ES       12 7 21.93                             108   -0.52 6  359 341 
 PRA  HZ EP       12 6 46.93                             106   -0.70 6  391 209 
 PRA  HN ES       12 7 29.10                             106   -0.13 6  391 209 
 PRA  HZ I        12 7 35.69        30.2 0.38            102            391 209 
 ORTC HZ EP       12 6 47.94                             106   -0.08 6  395 216 
 ORTC HN ES       12 7 29.18                             106   -0.74 6  395 216 
 ORTC HZ I        12 7 36.97        20.4 0.56            102            395 216 
 SJC  HZ EP   9   12 6 47.28                             105   -2.44 0  409 327 
 SJC  HN ES       12 7 28.07                                   -2.44 6  409 327 
 SJC  HZ I        12 7 35.96        11.2 0.26            102            409 327 
 URI  HZ EP   9   12 7  4.02                             100   -3.26 0  557  13 
 URI  HN ES       12 7 55.11                                   -5.84 3  557  13 
                                                                                
