 2017 1125 1756  1.3 L   6.801 -73.114150.5  RSN 13 0.5 2.0LRSN                1
 GAP=115        1.20       3.2     4.1  6.6 -0.6509E+00  0.7114E+01  0.3093E+01E
 Epicentro: LOS SANTOS - SANTANDER                                             3
 ACTION:UPD 17-12-12 20:00 OP:rebc STATUS:               ID:20171125175601 L   I
 OLDACT:UP  17-11-25 23:55 OP:edw  STATUS:               ID:20171125174740d    3
 OLDACT:UP  17-11-25 23:55 OP:edw  STATUS:               ID:20171125174740d    3
 OLDACT:DUP 17-11-25 23:46 OP:edw  STATUS:               ID:20171125174740d    3
 2017-11-25-1748-00M.COL___492                                                 6
 STAT SP IPHASW D HRMM SECON CODA AMPLIT PERI AZIMU VELO AIN AR TRES W  DIS CAZ7
 BAR2 EZ IP       1756 21.43                             170   -0.0610 24.3 198 
 BAR2 EZ ES       1756 37.40                             170    0.1410 24.3 198 
 BAR2 EZ I        1756 39.18        16.3 0.46            169           24.3 198 
 PAM  EZ EP       1756 24.34                             152    0.4710 75.1  38 
 PAM  EN ES       1756 41.46                             152   -0.0310 75.1  38 
 PAM  EZ I        1756 43.69        18.8 0.56            157           75.1  38 
 RUS  HZ EP       1756 25.34                             145   -0.1510  100 178 
 RUS  HE ES       1756 44.49                             145    0.1210  100 178 
 RUS  HZ I        1756 49.29         5.9 0.26            147            100 178 
 PTB  HZ EP       1756 28.30                             132   -0.64 9  151 259 
 PTB  HN ES       1756 50.11                             132   -0.41 9  151 259 
 PTB  HZ I        1756 56.89        12.5 0.44            134            151 259 
 OCA  HZ EP       1756 29.72                             131   -0.27 9  161 352 
 OCA  HN ES       1756 52.12                             131   -0.27 9  161 352 
 OCA  HZ I        1756 57.16        27.2 0.32            135            161 352 
 SPBC HZ EP       1756 30.42                             130    0.07 9  165 220 
 SPBC HN ES       1756 52.68                             130   -0.35 9  165 220 
 SPBC HZ I        1757  0.77        17.8 0.36            132            165 220 
 YPLC HZ EP       1756 31.61                             128    0.35 9  175 152 
 YPLC HN ES       1756 54.58                             128   -0.07 9  175 152 
 YPLC HZ I        1756 59.67         7.5 0.26            131            175 152 
 ZAR  HZ EP       1756 34.15                             123   -0.21 8  207 292 
 ZAR  HN ES       1757  1.70                             123    1.54 8  207 292 
 ZAR  HZ I        1757  5.25        11.1 0.26            126            207 292 
 NOR  HZ EP       1756 37.28                             119   -0.31 8  238 235 
 NOR  HN ES       1757  5.98                             119    0.07 8  238 235 
 NOR  HZ I        1757  7.26         6.9 0.30            121            238 235 
 CHI  HZ EP       1756 38.99                             118   -0.36 8  250 196 
 CHI  HN ES       1757  8.99                             118   -0.05 8  250 196 
 CHI  HZ I        1757 16.53         4.3 0.58            121            250 196 
 DRL03HZ EP   4   1756 44.19                             114    1.04 0  289 352 
 DRL03HN ES   4   1757 14.30                             114   -1.52 0  289 352 
 GUY2CHZ EP   4   1756 48.26                             113    2.83 0  304 235 
 GUY2CHN ES       1757 19.40                             113   -0.47 7  304 235 
 GUY2CHZ I        1757 28.49         4.0 0.24                           304 235 
 PRA  HZ EP       1756 56.24                             107    1.07 6  394 210 
 PRA  HE ES       1757 37.77                             107    0.56 6  394 210 
 PRA  HZ I        1757 40.75         3.2 0.56            109            394 210 
 SJC  HZ EP   9   1756 55.63                             106   -1.58 0  411 327 
 SJC  HN ES       1757 37.43                             106   -1.83 6  411 327 
                                                                                
