 2011 1025 1439  6.2 L   6.721 -73.127147.0  RSN  5 0.2 1.5LRSN                1
 GAP=142        0.45       4.1     6.8  8.4  0.7366E+01 -0.2179E+02 -0.7928E+01E
 Epicentro: JORDAN - SANTANDER                                                 3
 ACTION:UPD 12-07-13 16:05 OP:ep   STATUS:               ID:20111025143906 L   I
 2011-10-25-1436-00S.COL___171                                                 6
 STAT SP IPHASW D HRMM SECON CODA AMPLIT PERI AZIMU VELO AIN AR TRES W  DIS CAZ7
 BAR2 SZ EP       1439 25.63                             174   -0.1810 15.5 203 
 BAR2 SZ ES   3   1439 40.92                             174   -0.21 2 15.5 203 
 BAR2 SZ I        1439 46.15         5.3 0.78                          15.5 203 
 BTL  SZ EP       1439 26.08                             169    0.0710 26.8 325 
 BRR  HZ EP       1439 27.97                             151    0.1610 77.5 303 
 BRR  HZ I        1439 33.15        11.3 0.44                          77.5 303 
 BRR  HN ES   2   1439 44.38                             151   -0.31 5 77.5 303 
 PAM  SZ EP       1439 28.89                             149    0.0410 83.1  35 
 RUS  HZ EP       1439 29.29                             147   -0.1310 91.7 177 
 RUS  HZ I        1439 29.43         4.0 0.60                          91.7 177 
 RUS  HE ES   2   1439 48.05                             147    0.50 5 91.7 177 
                                                                                
