 2017 1025 1055 33.1 L   6.691 -74.083  2.9  RSN  6 0.5 0.9LRSN                1
 GAP= 93        1.13       2.8     2.0  6.0 -0.2650E-01  0.6122E+00  0.1795E+01E
 Epicentro: PUERTO PARRA - SANTANDER                                           3
 ACTION:UPD 17-11-07 19:36 OP:rebc STATUS:               ID:20171025105533 L   I
 OLDACT:REG 17-10-25 20:07 OP:dhb  STATUS:               ID:20171025103939     3
 2017-10-25-1048-00M.COL___434                                                 6
 STAT SP IPHASW D HRMM SECON CODA AMPLIT PERI AZIMU VELO AIN AR TRES W  DIS CAZ7
 PTB  HZ IP     D 1055 40.60                              47    0.0210 44.6 248 
 PTB  HN ES       1055 46.59                              47    0.1410 44.6 248 
 PTB  HZ I        1055 46.70         3.2 0.24             47           44.6 248 
 BRR  HZ EP       1055 43.64                              47    0.4910 61.6  42 
 BRR  HN ES       1055 51.21                              47    0.1910 61.6  42 
 BRR  HZ I        1055 56.99        14.3 0.30             47           61.6  42 
 BAR2 EZ EP       1055 49.00                              47   -0.2410  100  96 
 BAR2 EZ ES       1056  1.16                              47   -0.7010  100  96 
 BAR2 EZ I        1056  3.79         2.7 0.30             47            100  96 
 ZAR  HZ EP       1055 51.61                              47   -0.8810  123 316 
 ZAR  HN ES       1056  7.97                              47    0.3210  123 316 
 ZAR  HZ I        1056  9.72         2.2 0.12             47            123 316 
 RUS  HZ EP       1055 56.20                              47    0.43 9  142 129 
 RUS  HN ES       1056 13.88                              47    0.40 9  142 129 
 RUS  HZ I        1056 15.73         3.0 0.20             47            142 129 
 GUY2CHZ EP   2   1056  6.60                              37    0.58 4  216 221 
 GUY2CHE ES       1056 31.39                              37   -0.34 8  216 221 
 GUY2CHZ I        1056 36.79         1.2 0.24                           216 221 
                                                                                
