 2011  525 1627  2.7 L   6.781 -73.117138.1  RSN  8 0.3 2.1LRSN                1
 GAP=162        0.58       4.9     5.4  5.8 -0.1695E+02 -0.1157E+02  0.1236E+02E
 Epicentro: LOS SANTOS - SANTANDER                                             3
 ACTION:UP  11-06-29 08:56 OP:tino STATUS:               ID:20110525162702 L   I
 2011-05-25-1624-41S.COL___141                                                 6
 STAT SP IPHASW D HRMM SECON CODA AMPLIT PERI AZIMU VELO SNR AR TRES W  DIS CAZ7
 BAR2 SZ EP   1   1627 21.37                             170     0.0 7   22 199 
 BAR2 SZ ES   2   1627 35.70                             170    -0.3 5   22 199 
 BAR2 SZ I        1627 37.62        25.2 0.14                            22 199 
 BTL  SZ EP       1627 21.72                             171     0.310   23 312 
 BRR  HZ EP       1627 23.02                             150    -0.310   75 299 
 BRR  HE ES       1627 39.46                             150     0.110   75 299 
 BRR  HZ I        1627 44.27        27.6 0.20                            75 299 
 PAM  SZ EP   1   1627 24.44                             150     0.3 7   77  37 
 PAM  SN ES   2   1627 40.94                             150     0.1 5   77  37 
 BRI  SZ EP   1   1627 25.95                             140     0.0 7  109  19 
 GRA  SZ EP       1627 27.32                             135    -0.110  127  16 
 GRA  SZ ES   1   1627 46.25                             135    -0.4 7  127  16 
 GRA  SZ I        1627 48.85        16.1 0.26                           127  16 
 NOR  SZ EP   2   1627 38.12                             117    -0.1 4  236 235 
 NOR  SN ES   2   1628  5.62                             117    -0.2 4  236 235 
 PRA  HZ EP   1   1627 56.50                             105     0.5 4  392 210 
 PRA  HN ES   2   1628 36.53                             105    -1.0 3  392 210 
                                                                                
