 2012  725 1107 48.9 L   6.932 -73.235136.5  RSN  4 0.1 1.8LRSN                1
 GAP=241        0.43       5.5     3.6  4.2  0.8431E+01  0.2444E+01 -0.4101E+01E
 Epicentro: BETULIA - SANTANDER                                                3
 ACTION:UPD 12-08-14 11:45 OP:ep   STATUS:               ID:20120725110748 L   I
 2012-07-25-1100-00M.COL___215                                                 6
 STAT SP IPHASW D HRMM SECON CODA AMPLIT PERI AZIMU VELO AIN AR TRES W  DIS CAZ7
 BAR2 SZ EP       11 8  7.92                             164     0.110   38 171 
 BAR2 SZ ES   1   11 8 22.73                             164     0.1 7   38 171 
 BAR2 SZ I        11 8 24.01        12.4 0.24            169             38 171 
 BRR  HZ EP       11 8  8.24                             156     0.010   56 290 
 BRR  HN ES   1   11 8 23.10                             156    -0.2 7   56 290 
 BRR  HZ I        11 8 26.75        11.7 0.31            154             56 290 
 PTB  HZ EP       11 8 14.41                             131    -0.2 9  142 252 
 PTB  HN ES   1   11 8 34.67                             131     0.0 7  142 252 
 PTB  HZ I        11 8 37.02         7.3 0.23            133            142 252 
 ZAR  HZ EP       11 8 19.34                             122     0.1 9  190 289 
 ZAR  HN ES   1   11 8 43.17                             122     0.2 7  190 289 
 ZAR  HZ I        11 8 47.57         7.4 0.32            124            190 289 
