 2016  325 1547 11.5 L   6.812 -73.207140.0  RSN  6 0.2 1.4LRSN                1
 GAP=129        0.38       3.0     2.9  5.6 -0.4227E+01  0.4810E+01  0.2320E+01E
 Epicentro: ZAPATOCA - SANTANDER                                               3
 ACTION:UPD 16-05-13 21:27 OP:cam  STATUS:               ID:20160325154711 L   I
 OLDACT:REG 16-03-25 21:41 OP:dnl  STATUS:               ID:20160325153745     3
 2016-03-25-1537-45M.COL___298                                                 6
 STAT SP IPHASW D HRMM SECON CODA AMPLIT PERI AZIMU VELO AIN AR TRES W  DIS CAZ7
 PAM  EZ EP       1547 33.43                             148    0.1010 80.9  44 
 PAM  EN ES       1547 50.24                             148   -0.1110 80.9  44 
 PAM  EZ I        1547 52.63         5.1 0.48            155           80.9  44 
 RUS  HZ EP   2   1547 34.99                             142    0.15 5  103 172 
 RUS  HN ES   2   1547 53.27                             142    0.23 5  103 172 
 RUS  HZ I        1547 54.37         2.6 0.32            144            103 172 
 PTB  HZ EP   3   1547 36.79                             132   -0.64 2  141 258 
 PTB  HE ES   2   1547 57.94                             132    0.30 5  141 258 
 PTB  HZ I        1548  0.79         2.2 0.26            132            141 258 
 SPBC HZ EP   2   1547 39.06                             128   -0.21 5  160 217 
 SPBC HE ES   2   1548  0.44                             128   -0.48 5  160 217 
 SPBC HZ I        1548  6.14         4.1 0.10            129            160 217 
 ZAR  HE ES   2   1548  7.33                             122   -0.02 4  197 293 
 NOR  HZ EP   3   1547 46.69                             118    0.29 2  230 233 
 NOR  HE ES   2   1548 13.74                             118    0.12 4  230 233 
 NOR  HZ I        1548 20.13         2.1 0.18            119            230 233 
                                                                                
