 2011  125 1635  6.5 L   6.789 -73.159139.6  RSN 13 0.4 2.0LRSN                1
 GAP=135        0.73       3.1     5.5  6.3 -0.3749E+01  0.1539E+02 -0.7482E+00E
 Epicentro: LOS SANTOS - SANTANDER                                             3
 ACTION:UP  11-02-08 08:42 OP:pat  STATUS:               ID:20110125163506 L   I
 2011-01-25-1633-33S.COL___138                                                 6
 STAT SP IPHASW D HRMM SECON CODA AMPLIT PERI AZIMU VELO SNR AR TRES W  DIS CAZ7
 BTL  SZ ES   2   1635 40.47                             172     0.5 5   19 320 
 BAR2 SZ EP       1635 25.28                             171    -0.110   22 187 
 BAR2 SZ ES   2   1635 40.02                             171    -0.1 5   22 187 
 BAR2 SZ I        1635 41.38        18.3 0.27                            22 187 
 GIR2 SZ EP       1635 26.06                             166     0.610   32 353 
 RUS  HZ EP       1635 29.44                             143    -0.210   99 175 
 RUS  HZ I        1635 30.51         8.8 0.16                            99 175 
 RUS  HN ES   1   1635 47.33                             143    -0.3 7   99 175 
 GRA  SZ EP   2   1635 31.16                             135    -0.2 5  127  18 
 GRA  SZ ES   2   1635 50.22                             135    -0.5 5  127  18 
 GRA  SZ I        1635 52.24         9.8 0.31                           127  18 
 OCA  SZ EP       1635 34.69                             128     0.2 9  161 354 
 OCA  SZ ES   2   1635 55.75                             128    -0.5 5  161 354 
 OCA  SZ I        1635 58.67        17.0 0.22                           161 354 
 YOP  SZ EP   2   1635 35.32                             125    -0.8 4  179 153 
 YOP  SZ I        1635 37.45        11.4 0.13                           179 153 
 NOR  SZ IP       1635 41.78                             117     0.1 8  233 235 
 NOR  SN ES   1   1636  9.22                             117     0.1 6  233 235 
 CHI  HZ EP       1635 43.78                             116     0.1 8  247 195 
 CHI  HN ES   1   1636 12.97                             116     0.2 6  247 195 
 CHI  HZ I        1636 20.19         6.3 0.27                           247 195 
 HEL  HZ EP   3   1635 47.23                             114     1.0 2  270 256 
 HEL  HZ I        1636 24.41         8.4 0.31                           270 256 
 GUY  SZ EP   3   1635 50.07                             111     0.4 2  299 235 
 GUY  SN ES   3   1636 23.43                             111     0.1 2  299 235 
 GUY  SZ I        1636 31.62         6.7 0.51                           299 235 
 RREF HZ EP   2   1635 52.47                             110     0.3 3  320 229 
 RREF HZ I        1636 35.19         5.3 0.34                           320 229 
 DBB  SZ EP       1635 53.31                             108    -0.3 7  338 274 
 DBB  SZ ES   2   1636 29.06                             108    -1.3 3  338 274 
                                                                                
