 2012 1225 1339 14.2 L   6.754 -73.142148.5  RSN  6 0.3 1.9LRSN                1
 GAP=139        0.71       4.8     4.6  5.8 -0.2285E+00  0.1440E+01  0.2074E+00E
 Epicentro: LOS SANTOS - SANTANDER                                             3
 ACTION:UPD 13-01-04 14:30 OP:ep   STATUS:               ID:20121225133914 L   I
 2012-12-25-1334-42M.COL___217                                                 6
 STAT SP IPHASW D HRMM SECON CODA AMPLIT PERI AZIMU VELO AIN AR TRES W  DIS CAZ7
 BAR2 SZ EP       1339 34.21                             173    0.1010 18.4 194 
 BAR2 SZ ES       1339 49.69                             173    0.0810 18.4 194 
 BAR2 SZ I        1339 50.97        20.5 0.46                          18.4 194 
 GIR2 SZ EP   1   1339 34.09                             166   -0.29 7 36.4 351 
 BRR  HZ IP     C 1339 36.13                             152    0.2910 74.1 302 
 BRR  HZ I        1339 36.42        11.0 0.17                          74.1 302 
 BRR  HN ES       1339 53.05                             152    0.3510 74.1 302 
 PAM  SZ EP   1   1339 36.93                             150   -0.04 7 81.2  37 
 PAM  SZ I        1339 37.27        13.5 0.20                          81.2  37 
 PAM  SN ES   1   1339 54.20                             150   -0.50 7 81.2  37 
 RUS  HZ EP   1   1339 38.18                             146    0.28 7 95.4 176 
 RUS  HN ES   1   1339 56.25                             146   -0.10 7 95.4 176 
 PTB  HZ EP   1   1339 41.10                             133   -0.27 7  147 261 
 PTB  HN ES   1   1340  1.88                             133   -0.67 7  147 261 
 PTB  HZ I        1340  8.12        11.6 0.39                           147 261 
                                                                                
