 2011 1225 1432 57.8 L   6.789 -73.082136.9  RSN  5 0.3 1.0LRSN                1
 GAP=145        0.57       5.3     5.9  6.8 -0.4128E+01 -0.1121E+01 -0.4309E+01E
 Epicentro: LOS SANTOS - SANTANDER                                             3
 ACTION:UPD 12-07-13 16:18 OP:ep   STATUS:               ID:20111225143257 L   I
 2011-12-25-1430-00M.COL___187                                                 6
 STAT SP IPHASW D HRMM SECON CODA AMPLIT PERI AZIMU VELO AIN AR TRES W  DIS CAZ7
 BAR2 SZ EP   1   1433 16.44                             169    0.00 7 24.4 207 
 BAR2 SZ ES   1   1433 30.79                             169   -0.15 7 24.4 207 
 BAR2 SZ I        1433 33.02         2.8 0.38                          24.4 207 
 GIR2 SZ EP   1   1433 16.25                             165   -0.31 7 34.3 339 
 PAM  SZ EP   1   1433 19.42                             150    0.49 7 74.1  35 
 PAM  SN ES   1   1433 35.25                             150   -0.12 7 74.1  35 
 PAM  SZ I        1433 38.42         2.2 0.36                          74.1  35 
 BRR  HZ EP   1   1433 18.18                             149   -0.29 7 78.0 297 
 BRR  HN ES   1   1433 34.85                             149    0.30 7 78.0 297 
 RUS  HN ES   2   1433 38.60                             142    0.20 5 99.1 180 
 RUS  HZ I        1433 40.12         1.9 0.28                          99.1 180 
                                                                                
