 2013  325 1823 24.4 L   6.814 -73.133146.9  RSN 12 0.6 2.8LRSN                1
 GAP=137        1.26       4.4     5.0  6.3  0.2018E+01  0.1183E+02  0.5975E+01E
 Epicentro: LOS SANTOS - SANTANDER                                             3
 ACTION:UPD 13-04-09 14:04 OP:ep   STATUS:               ID:20130325182324 L   I
 2013-03-25-1820-00M.COL___244                                                 6
 STAT SP IPHASW D HRMM SECON CODA AMPLIT PERI AZIMU VELO AIN AR TRES W  DIS CAZ7
 BAR2 SZ IP     D 1823 44.16                             170   -0.0310 25.1 193 
 BAR2 SZ ES       1823 59.13                             170   -0.5110 25.1 193 
 BAR2 SZ I        1824  0.34       158.1 0.26            169           25.1 193 
 GIR2 SZ EP       1823 44.20                             168    0.0410 30.0 347 
 GIR2 SZ ES       1823 59.85                             168    0.2610 30.0 347 
 BRR  HZ EP       1823 45.90                             153    0.2110 71.7 297 
 BRR  HN ES       1824  2.98                             153    0.6710 71.7 297 
 BRR  HN I        1824  6.22       202.9 0.16            152           71.7 297 
 PAM  SZ EP       1823 46.90                             151    0.3010 75.3  39 
 PAM  SE ES       1824  3.95                             151    0.0210 75.3  39 
 PAM  SE I        1824  6.16        89.6 0.48            155           75.3  39 
 RUS  HZ EP       1823 48.17                             144   -0.1910  102 177 
 RUS  HN ES       1824  6.81                             144   -0.2410  102 177 
 RUS  HN I        1824  8.44        67.6 0.34            144            102 177 
 PTB  HZ EP       1823 50.95                             132   -0.65 9  149 258 
 PTB  HN ES       1824 11.93                             132   -0.90 9  149 258 
 PTB  HN I        1824 14.12        92.9 0.32            132            149 258 
 ZAR  HZ EP       1823 57.69                             122    0.71 9  205 292 
 ZAR  HN ES       1824 22.68                             122    0.27 9  205 292 
 ZAR  HN I        1824 28.19        89.7 0.20            123            205 292 
 CHI  HZ EP       1824  2.36                             117    0.01 8  251 195 
 CHI  HN ES       1824 32.29                             117    0.33 8  251 195 
 CHI  HN I        1824 37.52        40.8 0.46            118            251 195 
 HEL  HZ EP   1   1824  6.38                             115    1.53 6  274 256 
 DBB  SZ EP       1824 11.82                             109   -0.24 7  341 274 
 DBB  SZ ES       1824 48.58                             109   -0.66 7  341 274 
 DBB  SZ I        1824 52.05        13.1 0.38            110            341 274 
 PRA  HZ EP       1824 17.74                             107   -0.45 6  394 210 
 PRA  HN ES       1825  1.33                             107    1.18 6  394 210 
 PRA  HN I        1825  5.50        26.3 0.78            107            394 210 
 SJC  HZ EP       1824 18.56                             106   -1.36 6  409 327 
                                                                                
