 2015 1225 1222  5.7 L   6.690 -73.145148.7  RSN  5 0.3 1.4LRSN                1
 GAP=229        0.75       4.3     4.8  5.5  0.4109E+01  0.3567E+01  0.1923E+01E
 Epicentro: VILLANUEVA - SANTANDER                                             3
 ACTION:UPD 16-02-04 15:07 OP:cam  STATUS:               ID:20151225122205 L   I
 OLDACT:REG 15-12-25 22:15 OP:cara STATUS:               ID:20151225121750     3
 2015-12-25-1217-50M.COL___334                                                 6
 STAT SP IPHASW D HRMM SECON CODA AMPLIT PERI AZIMU VELO AIN AR TRES W  DIS CAZ7
 BAR2 EZ IP       1222 25.77                             175    0.2410 11.6 201 
 BAR2 EZ ES       1222 40.68                             175   -0.3110 11.6 201 
 BAR2 EZ I        1222 42.61         5.9 0.24            172           11.6 201 
 BRR  HZ IP       1222 27.94                             151    0.3710 77.8 306 
 BRR  HN ES       1222 44.67                             151    0.0610 77.8 306 
 BRR  HZ I        1222 50.66         5.2 0.48            150           77.8 306 
 RUS  HZ EP       1222 28.44                             148   -0.5010 88.4 176 
 RUS  HN ES       1222 47.32                             148    0.2710 88.4 176 
 RUS  HZ I        1222 49.77         2.6 0.20            151           88.4 176 
 PTB  HZ EP       1222 32.63                             133   -0.14 9  146 264 
 PTB  HN ES       1222 53.63                             133   -0.24 9  146 264 
 PTB  HZ I        1222 59.59         2.8 0.32            133            146 264 
 SPBC HZ EP       1222 33.59                             131   -0.00 9  154 222 
 SPBC HN ES       1222 55.58                             131    0.25 9  154 222 
 SPBC HZ I        1222 58.99         4.7 0.38            133            154 222 
                                                                                
