 2014  425 1007 24.0 L   6.806 -73.160132.0  RSN 11 0.5 2.0LRSN                1
 GAP=134        1.14       3.4     4.6  8.3 -0.5964E+01  0.1759E+02 -0.4519E+01E
 Epicentro: LOS SANTOS - SANTANDER                                             3
 ACTION:UPD 14-05-13 23:11 OP:nd   STATUS:               ID:20140425100724 L   I
 OLDACT:REG 14-04-25 20:59 OP:nd   STATUS:               ID:20140425100035     3
 2014-04-25-1000-35M.COL___245                                                 6
 STAT SP IPHASW D HRMM SECON CODA AMPLIT PERI AZIMU VELO AIN AR TRES W  DIS CAZ7
 PAM  SZ EP       10 7 45.28                             148    0.5210 77.9  41 
 PAM  SN ES       10 8  1.55                             148    0.5610 77.9  41 
 PAM  SZ I        10 8  4.39        23.6 0.56            153           77.9  41 
 RUS  HZ EP       10 7 46.00                             141   -0.4410  101 175 
 RUS  HN ES       10 8  3.94                             141   -0.0410  101 175 
 RUS  HZ I        10 8  6.34        12.4 0.42            147            101 175 
 PTB  HZ EP       10 7 48.86                             129   -0.84 9  146 258 
 PTB  HN ES       10 8  9.70                             129   -0.08 9  146 258 
 PTB  HZ I        10 8 12.65        21.4 0.14            132            146 258 
 OCA  HZ EP       10 7 51.69                             127    0.54 9  159 354 
 OCA  HN ES       10 8 11.64                             127   -0.72 9  159 354 
 OCA  HZ I        10 8 20.37        15.5 0.30            131            159 354 
 SPBC HZ EP       10 7 51.22                             126   -0.17 9  163 218 
 SPBC HN ES       10 8 12.46                             126   -0.32 9  163 218 
 SPBC HZ I        10 8 17.21        14.5 0.18            131            163 218 
 ZAR  HZ EP       10 7 55.32                             120   -0.04 9  202 292 
 ZAR  HN ES   1   10 8 19.90                             120    0.05 6  202 292 
 ZAR  HZ I        10 8 23.49        13.2 0.46            123            202 292 
 NOR  HZ EP       10 7 58.61                             116   -0.22 8  234 234 
 NOR  HN ES       10 8 25.95                             116   -0.07 8  234 234 
 NOR  HZ I        10 8 30.55         7.9 0.26            120            234 234 
 SML  HZ EP       10 7 58.97                             115   -0.74 8  242 336 
 SML  HN ES   1   10 8 27.72                             115    0.13 6  242 336 
 SML  HZ I        10 8 30.90        14.2 0.10            118            242 336 
 HEL  HZ EP   1   10 8  4.30                             112    0.95 6  271 256 
 HEL  HN ES       10 8 35.07                             112    1.00 8  271 256 
 HEL  HZ I        10 8 41.19         4.7 0.28            116            271 256 
 GUY2CHZ EP   2   10 8  7.46                             110    0.60 4  300 234 
 GUY2CHN ES       10 8 41.13                             110    0.81 7  300 234 
 GUY2CHZ I        10 8 47.60         6.7 0.26                           300 234 
 CBOC HZ EP       10 8 10.27                             107    0.09 7  332 252 
 CBOC HN ES       10 8 46.20                             107   -0.04 7  332 252 
 CBOC HZ I        10 8 47.69         2.4 0.10            111            332 252 
                                                                                
