 2011  625 1302 32.8 L   6.720 -73.222148.6  RSN  4 0.2 1.5LRSN                1
 GAP=176        0.41       7.2    12.1  5.3  0.7000E+02 -0.1031E+02 -0.4370E+00E
 Epicentro: VILLANUEVA - SANTANDER                                             3
 ACTION:UP  11-07-14 19:07 OP:ep   STATUS:               ID:20110625130232 L   I
 2011-06-25-1301-27S.COL___140                                                 6
 STAT SP IPHASW D HRMM SECON CODA AMPLIT PERI AZIMU VELO SNR AR TRES W  DIS CAZ7
 BAR2 SZ EP   2   13 2 52.27                             174    -0.3 5   15 163 
 BAR2 SZ ES   2   13 3  7.80                             174    -0.3 5   15 163 
 BAR2 SZ I        13 3  8.78         6.7 0.24                            15 163 
 BTL  SZ EP   1   13 2 52.65                             171    -0.1 7   22 347 
 BTL  SZ ES   2   13 3  8.61                             171     0.3 5   22 347 
 BRR  HZ EP   1   13 2 54.19                             154     0.1 7   69 308 
 BRR  HZ I        13 3  2.95        14.7 0.63                            69 308 
 BRR  HE ES   1   13 3 10.66                             154    -0.1 7   69 308 
 RUS  HZ EP   1   13 2 56.36                             146     0.1 7   93 170 
 RUS  HN ES   2   13 3 14.60                             146     0.0 5   93 170 
 RUS  HZ I        13 3 16.60         2.8 0.60                            93 170 
                                                                                
