 2010  325 1957 29.2 L   6.925 -72.730143.4  RSN  5 0.5 2.0LRSN                1
 GAP=228        0.93       7.0    21.7 14.1 -0.4436E+02 -0.1504E+03  0.2010E+02E
 Epicentro: CERRITO - SANTANDER                                                3
 ACTION:UP  10-08-24 09:56 OP:vdl  STATUS:               ID:20100325195729 L   I
 2010-03-25-1953-05S.COL___098                                                 6
 STAT SP IPHASW D HRMM SECON CODA AMPLIT PERI AZIMU VELO SNR AR TRES W  DIS CAZ7
 BAR2 SZ EP   1   1957 50.36                             155     0.4 8   62 234 
 BAR2 SZ ES   2   1958  6.07                             155    -0.1 5   62 234 
 BRR  HZ EP   1   1957 53.58                             140     0.8 8  110 281 
 BRR  HN ES   2   1958 10.62                             140    -0.5 5  110 281 
 BRR  HZ I        1958 14.47        15.8 0.18                           110 281 
 OCA  SZ EP       1957 56.87                             129    -0.410  159 336 
 CHI  HZ EP   1   1958  9.45                             114    -0.5 6  277 204 
 CHI  HZ I        1958 12.03         3.7 0.66                           277 204 
 CHI  HN ES   2   1958 40.85                             114    -0.8 4  277 204 
 PRA  HZ EP   1   1958 27.20                             104     0.3 4  428 214 
 PRA  HE ES   2   1959 12.08                             104     0.2 3  428 214 
 PRA  HZ I        1959 13.50         3.5 0.80                           428 214 
                                                                                
