 2014  325 1554 20.6 L   6.826 -73.197138.1  RSN 11 0.4 2.1LRSN                1
 GAP=129        0.95       2.8     4.2  6.1  0.5278E+00  0.6822E+01  0.7516E+00E
 Epicentro: ZAPATOCA - SANTANDER                                               3
 ACTION:UPD 14-04-09 23:20 OP:nd   STATUS:               ID:20140325155420 L   I
 OLDACT:UP  14-03-25 19:29 OP:mh   STATUS:               ID:20140325154806     3
 OLDACT:UP  14-03-25 19:13 OP:mh   STATUS:               ID:20140325154806     3
 OLDACT:UP  14-03-25 19:13 OP:mh   STATUS:               ID:20140325154806     3
 OLDACT:REG 14-03-25 15:59 OP:mh   STATUS:               ID:20140325154806     3
 2014-03-25-1548-06M.COL___249                                                 6
 STAT SP IPHASW D HRMM SECON CODA AMPLIT PERI AZIMU VELO AIN AR TRES W  DIS CAZ7
 BAR2 SZ EP       1554 39.39                             169    0.0710 25.9 176 
 BAR2 SZ ES       1554 54.33                             169    0.3810 25.9 176 
 BAR2 SZ I        1554 55.75        45.3 0.19            168           25.9 176 
 BRR  HZ EP       1554 40.98                             153    0.4710 64.8 299 
 BRR  HN ES   1   1554 56.00                             153   -0.08 7 64.8 299 
 BRR  HZ I        1555  3.51        37.7 0.05            151           64.8 299 
 PAM  SZ EP       1554 42.19                             149    0.1310 79.0  44 
 PAM  SN ES   1   1554 58.63                             149   -0.20 7 79.0  44 
 PAM  SZ I        1555  1.19        15.9 0.46            156           79.0  44 
 RUS  HZ EP       1554 43.52                             141   -0.2910  104 173 
 RUS  HN ES       1555  1.57                             141   -0.3810  104 173 
 RUS  HZ I        1555  3.62        12.6 0.17            145            104 173 
 PTB  HZ EP       1554 46.21                             131   -0.23 9  143 257 
 PTB  HN ES       1555  6.22                             131   -0.42 9  143 257 
 PTB  HZ I        1555 14.20        10.8 0.18            132            143 257 
 OCA  HN ES       1555  9.25                             128   -0.06 9  157 355 
 ZAR  HZ EP       1554 52.17                             122    0.33 9  198 292 
 ZAR  HN ES   1   1555 16.91                             122    0.66 6  198 292 
 ZAR  HZ I        1555 23.44        15.2 0.16            123            198 292 
 NOR  HN ES   1   1555 22.28                             117   -0.53 6  232 233 
 SML  HN ES       1555 23.69                             116   -0.34 8  239 336 
 SML  HZ I        1555 27.47        24.5 0.10            119            239 336 
 CHI  HZ EP       1554 57.50                             115   -0.48 8  250 194 
 CHI  HN ES       1555 28.16                             115    0.98 8  250 194 
 CHI  HZ I        1555 34.61         3.7 0.33            118            250 194 
 GUY2CHZ EP   4   1555  5.66                             111    2.18 0  298 234 
 GUY2CHN ES   4   1555 40.72                             111    3.76 0  298 234 
 RREF HZ EP   4   1555  8.44                             110    2.34 0  319 228 
 RREF HE ES   4   1555 44.75                             110    3.13 0  319 228 
 SJC  HZ EP   4   1555 12.11                             105   -3.11 0  404 327 
 SJC  HN ES   4   1555 54.23                             105   -3.64 0  404 327 
 SJC  HZ I        1555 59.15         4.0 0.47            107            404 327 
                                                                                
