 2016  225 1838 29.9 L   6.798 -73.176143.6  RSN  9 0.4 2.0LRSN                1
 GAP=133        1.02       3.4     4.8  6.5 -0.5057E+01  0.1138E+02  0.8000E+00E
 Epicentro: LOS SANTOS - SANTANDER                                             3
 ACTION:UPD 16-03-04 21:29 OP:rebc STATUS:               ID:20160225183829 L   I
 OLDACT:REG 16-02-25 21:03 OP:drio STATUS:               ID:20160225182748     3
 2016-02-25-1827-48M.COL___304                                                 6
 STAT SP IPHASW D HRMM SECON CODA AMPLIT PERI AZIMU VELO AIN AR TRES W  DIS CAZ7
 BAR2 EZ EP       1838 49.15                             171   -0.0810 22.7 182 
 BAR2 EZ ES       1839  4.45                             171    0.1310 22.7 182 
 BAR2 EZ I        1839  5.31        10.6 0.14            171           22.7 182 
 PAM  EZ EP       1838 52.42                             150    0.4210 79.7  41 
 PAM  EE ES       1839  9.63                             150    0.3810 79.7  41 
 PAM  EZ I        1839 11.93         9.9 0.64            152           79.7  41 
 RUS  HZ EP       1838 53.13                             143   -0.2810  101 174 
 RUS  HE ES       1839 11.74                             143   -0.0310  101 174 
 RUS  HZ I        1839 12.79        19.9 0.30            147            101 174 
 PTB  HZ EP       1838 56.05                             132   -0.31 9  144 259 
 PTB  HE ES       1839 16.88                             132   -0.14 9  144 259 
 PTB  HZ I        1839 19.20        10.1 0.24            131            144 259 
 OCA  HE ES       1839 19.04                             129   -0.90 9  160 354 
 OCA  HZ I        1839 24.63        29.2 0.32            129            160 354 
 SPBC HZ EP       1838 58.17                             129    0.18 9  161 218 
 SPBC HN ES       1839 19.89                             129   -0.03 9  161 218 
 SPBC HZ I        1839 22.43        15.2 0.24            130            161 218 
 ZAR  HZ EP       1839  2.69                             122    0.82 9  201 293 
 ZAR  HN ES   4   1839 28.60                             122    1.78 0  201 293 
 ZAR  HZ I        1839 34.45        16.5 0.28            122            201 293 
 NOR  HZ EP       1839  4.92                             118   -0.25 8  232 234 
 NOR  HN ES       1839 33.28                             118    0.58 8  232 234 
 NOR  HZ I        1839 40.51         7.7 0.16            119            232 234 
 CHI  HZ EP       1839  7.39                             117    0.06 8  248 194 
 CHI  HN ES       1839 35.94                             117   -0.61 8  248 194 
 CHI  HZ I        1839 38.98         3.4 0.42            119            248 194 
 GUY2CHZ EP   4   1839 15.32                             112    2.26 0  298 234 
                                                                                
