 2012  125 1513 34.1 L   6.736 -73.189142.5  RSN  4 0.3 1.0LRSN                1
 GAP=227        0.60       9.1     9.4 15.5  0.4535E+02  0.6920E+02  0.2987E+02E
 Epicentro: VILLANUEVA - SANTANDER                                             3
 ACTION:UP  12-02-03 08:20 OP:REBC STATUS:               ID:20120125151334 L   I
 2012-01-25-1510-00M.COL___187                                                 6
 STAT SP IPHASW D HRMM SECON CODA AMPLIT PERI AZIMU VELO SNR AR TRES W  DIS CAZ7
 BAR2 SZ EP       1513 52.99                             174    -0.210   16 177 
 BAR2 SZ ES   3   1514  7.47                             174    -0.6 2   16 177 
 BRR  HZ EP       1513 55.16                             152     0.310   71 305 
 RUS  HZ EP       1513 57.18                             145     0.110   94 173 
 RUS  HN ES   3   1514 15.28                             145     0.3 2   94 173 
 RUS  HZ I        1514 15.94         1.5 0.60                            94 173 
 PTB  HZ EP       1514  0.03                             132    -0.2 9  142 261 
 PTB  HE ES   3   1514 21.26                             132     0.6 2  142 261 
 PTB  HZ I        1514 23.48         1.5 0.20                           142 261 
                                                                                
