 2011  125 1630 30.0 L   6.846 -72.576124.2  RSN  4 0.1 1.6LRSN                1
 GAP=277        0.37      11.3    69.6 46.0  0.7334E+03 -0.3183E+04 -0.4783E+03E
 Epicentro: CERRITO - SANTANDER                                                3
 ACTION:UP  11-02-08 08:42 OP:pat  STATUS:               ID:20110125163030 L   I
 2011-01-25-1629-21S.COL___138                                                 6
 STAT SP IPHASW D HRMM SECON CODA AMPLIT PERI AZIMU VELO SNR AR TRES W  DIS CAZ7
 BAR2 SZ EP       1630 49.28                             147    -0.110   73 247 
 GIR2 SZ EP   2   1630 49.38                             147     0.2 5   73 291 
 BAR2 SZ ES   2   1631  4.24                             147    -0.2 5   73 247 
 BAR2 SZ I        1631  5.48        13.0 0.44                            73 247 
 BTL  SZ EP       1630 49.53                             146    -0.110   77 276 
 BTL  SZ ES   1   1631  5.03                             146     0.1 7   77 276 
 RUS  HZ EP       1630 53.44                             133     0.110  119 208 
 RUS  HN ES   2   1631 11.41                             133    -0.1 5  119 208 
 RUS  HZ I        1631 13.08         5.1 0.36                           119 208 
                                                                                
