 2017  225 1855 22.8 L   6.800 -73.153144.5  RSN 14 0.3 2.1LRSN                1
 GAP=136        0.85       2.9     3.1  4.5 -0.4580E+00  0.3387E+01  0.3728E+01E
 Epicentro: LOS SANTOS - SANTANDER                                             3
 ACTION:UPD 17-05-24 15:40 OP:jn   STATUS:               ID:20170225185522 L   I
 OLDACT:REG 17-02-25 20:55 OP:edw  STATUS:               ID:20170225184746     3
 2017-02-25-1848-00M.COL___382                                                 6
 STAT SP IPHASW D HRMM SECON CODA AMPLIT PERI AZIMU VELO AIN AR TRES W  DIS CAZ7
 BAR2 EZ EP       1855 42.19                             170   -0.1310 23.2 188 
 BAR2 EZ ES       1855 57.44                             170   -0.0810 23.2 188 
 BAR2 EZ I        1855 58.80        35.0 0.18            168           23.2 188 
 BRR  HZ EP       1855 44.01                             153    0.2010 70.5 299 
 BRR  HE ES       1856  0.85                             153    0.6810 70.5 299 
 BRR  HZ I        1856  4.27        30.8 0.25            149           70.5 299 
 PAM  EZ EP       1855 45.09                             150    0.1310 77.9  40 
 PAM  EN ES       1856  2.12                             150   -0.0910 77.9  40 
 PAM  EZ I        1856  4.31        39.1 0.50            154           77.9  40 
 RUS  HZ EP       1855 46.47                             143   -0.0110  101 176 
 RUS  HN ES       1856  4.70                             143   -0.2110  101 176 
 RUS  HZ I        1856  6.05        17.4 0.34            144            101 176 
 PTB  HZ EP       1855 49.25                             132   -0.38 9  147 259 
 PTB  HN ES       1856  9.99                             132   -0.54 9  147 259 
 PTB  HZ I        1856 14.95         9.7 0.11            130            147 259 
 ZAR  HZ EP       1855 55.10                             122   -0.03 9  203 292 
 ZAR  HN ES       1856 20.45                             122    0.14 9  203 292 
 ZAR  HZ I        1856 27.12        13.0 0.13            122            203 292 
 NOR  HZ EP       1855 57.90                             118   -0.53 8  234 234 
 NOR  HN ES       1856 26.43                             118    0.25 8  234 234 
 CHI  HZ EP       1856  0.51                             117    0.06 8  248 195 
 CHI  HN ES       1856 29.82                             117    0.04 8  248 195 
 CHI  HZ I        1856 35.24         8.8 0.26            117            248 195 
 ROSC BZ EP   9   1856  2.80                             116    1.95 0  252 211 
 ROSC BN ES       1856 33.10                                    0.65 8  252 211 
 ROSC BZ I        1856 35.82        10.4 0.35            117            252 211 
 HEL  HZ EP   4   1856  5.31                             115    2.41 0  271 256 
 HEL  HN ES       1856 33.88                             115   -0.27 8  271 256 
 HEL  HZ I        1856 41.18         5.3 0.34            114            271 256 
 URE  HZ EP   9   1856  2.36                             113   -1.40 0  283 292 
 URE  HN ES       1856 33.45                                   -0.83 7  283 292 
 URE  HZ I        1856 42.72        10.0 0.18            113            283 292 
 DBB  HN ES   4   1856 42.00                             109   -5.09 0  339 274 
 PRA  HZ EP       1856 16.21                             106   -0.06 6  392 209 
 PRA  HN ES       1856 58.60                             106    0.65 6  392 209 
 PRA  HZ I        1857  2.89         5.3 0.44            107            392 209 
 ORTC HZ EP       1856 17.29                             106    0.63 6  395 216 
 ORTC HN ES       1856 58.93                             106    0.29 6  395 216 
 ORTC HZ I        1857  5.33         4.2 0.34            107            395 216 
 SJC  HZ EP   4   1856 16.87                             106   -1.44 0  409 327 
 SJC  HN ES   4   1856 57.29                             106   -4.28 0  409 327 
 SJC  HZ I        1857  3.85         2.0 0.09            106            409 327 
                                                                                
