 2010 1025 1052 29.4 L   6.781 -73.122147.6  RSN  9 0.5 1.9LRSN                1
 GAP=162        1.03       5.6    10.5  9.9 -0.2349E+02  0.1985E+02  0.2358E+01E
 Epicentro: LOS SANTOS - SANTANDER                                             3
 ACTION:UP  11-02-18 11:12 OP:tino STATUS:               ID:20101025105229 L   I
 2010-10-25-1051-57S.COL___124                                                 6
 STAT SP IPHASW D HRMM SECON CODA AMPLIT PERI AZIMU VELO SNR AR TRES W  DIS CAZ7
 BAR2 SZ EP   1   1052 49.18                             171    -0.1 7   22 198 
 BAR2 SZ ES   2   1053  3.89                             171    -0.8 5   22 198 
 BAR2 SZ I        1053  5.39        23.4 0.43                            22 198 
 BRR  HZ IP     C 1052 50.98                             152     0.010   75 299 
 BRR  HN ES   2   1053  8.72                             152     1.0 5   75 299 
 RUS  HZ EP   1   1052 53.02                             145    -0.2 7   98 178 
 RUS  HN ES   2   1053 11.81                             145     0.1 5   98 178 
 RUS  HZ I        1053 13.01         9.0 0.28                            98 178 
 GRA  SZ EP   1   1052 55.83                             137     0.9 7  127  16 
 GRA  SZ I        1052 57.09        11.0 0.12                           127  16 
 GRA  SZ ES   2   1053 15.27                             137     0.4 5  127  16 
 OCA  SZ EP       1052 57.35                             130    -0.8 9  163 352 
 NOR  SZ EP   1   1053  4.92                             119    -0.5 6  236 235 
 NOR  SE ES   2   1053 33.04                             119    -0.4 4  236 235 
 CHI  HZ EP   1   1053  7.21                             118     0.1 6  247 196 
 CHI  HZ I        1053  8.62         4.4 0.46                           247 196 
 CHI  HN ES   2   1053 37.14                             118     0.7 4  247 196 
 RREF HZ EP   1   1053 16.57                             111     0.8 5  322 230 
 RREF HE ES   2   1053 51.83                             111     0.0 3  322 230 
 RREF HZ I        1054  1.32         4.3 0.26                           322 230 
 PRA  HZ EP   1   1053 22.87                             107    -0.1 4  392 210 
                                                                                
