 2010  825 1856 31.9 L   6.782 -73.073140.0  RSN  4 0.1 1.6LRSN                1
 GAP=173        0.45       4.8     9.4  9.1  0.2726E+02 -0.6580E+02 -0.1864E+02E
 Epicentro: LOS SANTOS - SANTANDER                                             3
 ACTION:UP  10-09-07 10:58 OP:vdl  STATUS:               ID:20100825185631 L   I
 2010-08-25-1852-09S.COL___121                                                 6
 STAT SP IPHASW D HRMM SECON CODA AMPLIT PERI AZIMU VELO SNR AR TRES W  DIS CAZ7
 BAR2 SZ EP       1856 50.99                             170     0.210   24 210 
 BAR2 SZ I        1856 51.33        11.3 0.34                            24 210 
 BRR  HZ EP       1856 52.72                             150    -0.210   79 297 
 BRR  HN ES       1857  9.37                             150     0.110   79 297 
 BRR  HZ I        1857 10.33        14.3 0.07                            79 297 
 RUS  HZ EP   1   1856 54.93                             144     0.0 7   98 181 
 RUS  HN ES   2   1857 12.63                             144    -0.2 5   98 181 
 RUS  HZ I        1857 15.20         3.7 1.17                            98 181 
 GUE  SZ EP   1   1856 56.06                             138     0.0 7  117   8 
                                                                                
