 2016  125 1025 10.1 L   6.825 -73.190141.9  RSN 13 0.4 1.9LRSN                1
 GAP=130        0.99       2.5     3.6  5.5 -0.2035E+01  0.7789E+01 -0.5098E+00E
 Epicentro: ZAPATOCA - SANTANDER                                               3
 ACTION:UPD 16-03-09 23:28 OP:cam  STATUS:               ID:20160125102510 L   I
 OLDACT:UP  16-01-25 22:58 OP:ak   STATUS:               ID:20160125101744     3
 OLDACT:REG 16-01-25 21:42 OP:ak   STATUS:               ID:20160125101744     3
 2016-01-25-1017-44M.COL___328                                                 6
 STAT SP IPHASW D HRMM SECON CODA AMPLIT PERI AZIMU VELO AIN AR TRES W  DIS CAZ7
 BAR2 EZ EP       1025 29.49                             169    0.1610 25.7 178 
 BAR2 EZ ES       1025 44.23                             169   -0.0910 25.7 178 
 BAR2 EZ I        1025 46.91        14.0 0.26            170           25.7 178 
 PAM  EZ EP       1025 32.42                             150    0.4310 78.6  44 
 PAM  EN ES       1025 49.23                             150    0.1710 78.6  44 
 PAM  EZ I        1025 51.69         8.9 0.48            155           78.6  44 
 RUS  HZ EP       1025 33.71                             142   -0.0110  104 173 
 RUS  HN ES       1025 51.87                             142   -0.2610  104 173 
 RUS  HZ I        1025 53.23         8.5 0.26            146            104 173 
 PTB  HZ EP       1025 35.39                             132   -0.99 9  144 257 
 PTB  HN ES       1025 56.98                             132    0.11 9  144 257 
 PTB  HZ I        1025 59.31         9.5 0.10            133            144 257 
 OCA  HZ EP       1025 37.47                             129   -0.35 9  157 355 
 OCA  HN ES       1025 59.12                             129   -0.31 9  157 355 
 OCA  HZ I        1026  6.09        11.5 0.32            132            157 355 
 SPBC HZ EP       1025 38.37                             128    0.14 9  162 217 
 SPBC HN ES       1026  0.62                             128    0.45 9  162 217 
 SPBC HZ I        1026  7.54        14.4 0.22            130            162 217 
 ZAR  HZ EP       1025 42.18                             122    0.45 9  198 292 
 ZAR  HN ES       1026  7.07                             122    0.68 9  198 292 
 ZAR  HZ I        1026 12.76         6.3 0.43            124            198 292 
 NOR  HZ EP       1025 45.05                             118   -0.31 8  232 233 
 NOR  HE ES       1026 12.94                             118    0.08 8  232 233 
 NOR  HZ I        1026 18.19         6.0 0.24            120            232 233 
 SML  HZ EP       1025 45.74                             117   -0.29 8  239 336 
 SML  HN ES       1026 13.99                             117   -0.06 8  239 336 
 CHI  HZ EP       1025 47.76                             116    0.01 8  250 194 
 CHI  HE ES       1026 16.74                             116   -0.37 8  250 194 
 CHI  HZ I        1026 19.37         4.7 0.36            119            250 194 
 HEL  HZ EP       1025 50.21                             114    0.53 8  268 255 
 HEL  HN ES       1026 19.58                             114   -0.96 8  268 255 
 HEL  HZ I        1026 29.56         4.6 0.30            116            268 255 
 GUY2CHZ EP       1025 53.78                             112    0.51 7  299 234 
 GUY2CHE ES       1026 26.67                             112   -0.27 7  299 234 
 GUY2CHZ I        1026 35.66         2.8 0.26                           299 234 
 ANIL HZ EP   2   1026  0.58                             108    0.98 3  356 224 
 ANIL HE ES       1026 38.71                             108    0.51 6  356 224 
 ANIL HZ I        1026 45.20         7.0 0.20            110            356 224 
                                                                                
