 2012  925 1635 11.7 L   6.768 -73.138148.6  RSN  8 0.4 2.1LRSN                1
 GAP=139        0.87       4.6     5.2  7.7  0.1223E+01  0.3757E+01  0.6535E+01E
 Epicentro: LOS SANTOS - SANTANDER                                             3
 ACTION:UPD 12-10-22 14:20 OP:ep   STATUS:               ID:20120925163511 L   I
 2012-09-25-1629-49M.COL___218                                                 6
 STAT SP IPHASW D HRMM SECON CODA AMPLIT PERI AZIMU VELO AIN AR TRES W  DIS CAZ7
 BAR2 SZ EP       1635 31.53                             172   -0.0610 20.0 194 
 BAR2 SZ ES   1   1635 47.59                             172    0.47 7 20.0 194 
 BAR2 SZ I        1635 49.03        18.5 0.27                          20.0 194 
 GIR2 SZ EP   1   1635 31.62                             166   -0.17 7 34.9 350 
 BRR  HZ EP       1635 33.44                             152    0.1710 73.7 301 
 BRR  HN ES   1   1635 50.91                             152    0.79 7 73.7 301 
 BRR  HN I        1635 51.43        65.5 0.24                          73.7 301 
 PAM  SZ EP   1   1635 34.34                             151    0.01 7 79.7  37 
 PAM  SN ES   1   1635 51.50                             151   -0.50 7 79.7  37 
 PAM  SN I        1635 53.33        26.1 0.54                          79.7  37 
 RUS  HZ EP   1   1635 35.41                             145   -0.04 7 96.9 176 
 RUS  HN ES   1   1635 53.69                             145   -0.31 7 96.9 176 
 RUS  HZ I        1635 57.25        10.2 0.37                          96.9 176 
 PTB  HN ES   1   1635 59.12                             133   -1.00 7  148 260 
 ZAR  HE ES   1   1636 10.17                             123    0.01 6  206 293 
 CHI  HZ EP   1   1635 49.66                             118    0.48 6  245 196 
 CHI  HZ I        1635 51.61         3.9 0.13                           245 196 
 CHI  HN ES   1   1636 18.65                             118    0.21 6  245 196 
 CHI  HN I        1636 23.46         8.9 0.26                           245 196 
                                                                                
