 2016 1225 1547  3.4 L   6.773 -73.169148.0  RSN  5 0.4 1.0LRSN                1
 GAP=233        0.88       6.9     6.5  6.9  0.2468E+02  0.4530E+01 -0.1195E+01E
 Epicentro: LOS SANTOS - SANTANDER                                             3
 ACTION:UPD 17-01-11 20:19 OP:rebc STATUS:               ID:20161225154703 L   I
 OLDACT:DUP 16-12-26 00:08 OP:edw  STATUS:               ID:20161225153745d    3
 OLDACT:UP  16-12-26 00:06 OP:edw  STATUS:               ID:20161225153744d    3
 OLDACT:DUP 16-12-26 00:03 OP:edw  STATUS:               ID:20161225153744d    3
 2016-12-25-1538-00M.COL___384                                                 6
 STAT SP IPHASW D HRMM SECON CODA AMPLIT PERI AZIMU VELO AIN AR TRES W  DIS CAZ7
 BAR2 EZ EP       1547 23.03                             172   -0.2010 20.1 184 
 BAR2 EZ ES       1547 38.30                             172   -0.4010 20.1 184 
 BAR2 EZ I        1547 39.73         2.2 0.10            169           20.1 184 
 BRR  HZ EP       1547 24.96                             153    0.2310 70.4 302 
 BRR  HN ES       1547 41.63                             153    0.2510 70.4 302 
 RUS  HZ EP       1547 27.51                             145    0.3410 97.9 174 
 RUS  HN ES       1547 45.91                             145    0.2010 97.9 174 
 RUS  HZ I        1547 46.97         1.6 0.26            144           97.9 174 
 PTB  HZ EP       1547 29.49                             133   -0.77 9  145 260 
 PTB  HN ES       1547 51.35                             133    0.13 9  145 260 
 PTB  HZ I        1547 53.41         1.0 0.07            133            145 260 
 ZAR  HZ EP   2   1547 36.36                             123    0.51 4  203 293 
 ZAR  HN ES   2   1548  1.37                             123    0.21 4  203 293 
                                                                                
