 2012 1125 1610 30.4 L   6.809 -73.163137.8  RSN  4 0.1 1.4LRSN                1
 GAP=243        0.37       4.9     3.7  4.7  0.1184E+02  0.2181E+01 -0.3624E+01E
 Epicentro: LOS SANTOS - SANTANDER                                             3
 ACTION:UPD 12-12-05 15:36 OP:}ep  STATUS:               ID:20121125161030 L   I
 2012-11-25-1610-00M.COL___233                                                 6
 STAT SP IPHASW D HRMM SECON CODA AMPLIT PERI AZIMU VELO AIN AR TRES W  DIS CAZ7
 BAR2 SZ EP   1   1610 49.23                             170    0.15 7 24.1 185 
 BAR2 SZ ES   1   1611  3.51                             170   -0.15 7 24.1 185 
 BAR2 SZ I        1611  5.59         7.6 0.18                          24.1 185 
 RUS  HZ EP   1   1610 53.35                             142   -0.10 7  102 175 
 RUS  HN ES   1   1611 11.60                             142    0.16 7  102 175 
 RUS  HZ I        1611 12.20         3.4 0.40                           102 175 
 PTB  HZ EP   1   1610 56.42                             130   -0.15 7  146 258 
 PTB  HN ES   1   1611 16.95                             130   -0.04 7  146 258 
 PTB  HZ I        1611 19.28         3.0 0.32                           146 258 
 ZAR  HN ES   1   1611 26.99                             121    0.14 6  202 292 
                                                                                
