 2014  725 1004 20.9 L   6.724 -73.188144.7  RSN  5 0.1 1.6LRSN                1
 GAP=201        0.36       3.3     3.2  4.3  0.2045E+01  0.3864E+01 -0.4081E+01E
 Epicentro: VILLANUEVA - SANTANDER                                             3
 ACTION:UPD 15-03-16 20:47 OP:nd   STATUS:               ID:20140725100420 L   I
 OLDACT:REG 14-07-25 20:50 OP:fm   STATUS:               ID:20140725095818     3
 2014-07-25-0958-18M.COL___269                                                 6
 STAT SP IPHASW D HRMM SECON CODA AMPLIT PERI AZIMU VELO AIN AR TRES W  DIS CAZ7
 BAR2 SZ EP       10 4 40.22                             174   -0.0210 14.6 178 
 BAR2 SZ ES   1   10 4 55.39                             174    0.05 7 14.6 178 
 BAR2 SZ I        10 4 56.16         6.3 0.50            172           14.6 178 
 PTB  HZ EP       10 4 47.07                             133   -0.15 9  142 262 
 PTB  HN ES   1   10 5  7.76                             133   -0.00 7  142 262 
 PTB  HZ I        10 5 10.26         3.0 0.24            132            142 262 
 OCA  HZ I        10 5 13.13         4.7 0.18            130            168 355 
 ZAR  HZ EP       10 4 53.38                             122    0.23 9  203 295 
 ZAR  HN ES   1   10 5 18.32                             122   -0.01 6  203 295 
 ZAR  HZ I        10 5 25.00         3.7 0.38            122            203 295 
 SML  HN ES   1   10 5 26.96                             117   -0.12 6  249 337 
 SML  HZ I        10 5 27.47         3.4 0.28            118            249 337 
                                                                                
