 2012  125 1618 53.4 L   6.739 -73.206142.4  RSN  5 0.4 1.3LRSN                1
 GAP=169        0.84      10.0    13.9 10.3  0.1026E+03  0.3666E+02  0.2039E+02E
 Epicentro: VILLANUEVA - SANTANDER                                             3
 ACTION:UP  12-02-03 08:20 OP:REBC STATUS:               ID:20120125161853 L   I
 2012-01-25-1610-00M.COL___188                                                 6
 STAT SP IPHASW D HRMM SECON CODA AMPLIT PERI AZIMU VELO SNR AR TRES W  DIS CAZ7
 BAR2 SZ EP   2   1619 11.69                             174    -0.8 5   16 171 
 BAR2 SZ ES   3   1619 26.79                                    -0.6 2   16 171 
 GIR2 SZ EP   3   1619 12.02                             163    -0.9 2   38   2 
 BRR  HZ EP       1619 14.42                             153     0.310   69 306 
 BRR  HZ I        1619 20.03        16.6 0.44                            69 306 
 BRR  HE ES   1   1619 30.23                             153     0.0 7   69 306 
 RUS  HZ EP       1619 16.73                             145     0.310   95 172 
 RUS  HN ES   1   1619 34.11                             145    -0.2 7   95 172 
 RUS  HZ I        1619 35.69         2.0 0.38                            95 172 
 PTB  HZ EP       1619 19.12                             133    -0.3 9  140 261 
 PTB  HZ I        1619 43.51         1.1 0.12                           140 261 
                                                                                
