 2016  925 1932 42.2 L   6.710 -73.190148.7  RSN  6 0.3 1.3LRSN                1
 GAP=225        0.74       4.1     4.3  5.4  0.6614E+01  0.3782E+01 -0.2605E+01E
 Epicentro: VILLANUEVA - SANTANDER                                             3
 ACTION:UPD 17-08-17 21:16 OP:lp   STATUS:               ID:20160925193242 L   I
 OLDACT:UP  16-09-25 23:40 OP:edw  STATUS:               ID:20160925192740     3
 OLDACT:UP  16-09-25 23:39 OP:edw  STATUS:               ID:20160925192740     3
 OLDACT:REG 16-09-25 21:07 OP:y    STATUS:               ID:20160925192740     3
 2016-09-25-1928-00M.COL___330                                                 6
 STAT SP IPHASW D HRMM SECON CODA AMPLIT PERI AZIMU VELO AIN AR TRES W  DIS CAZ7
 BAR2 EZ EP       1933  1.62                             175   -0.4210 13.0 176 
 BAR2 EZ ES       1933 17.41                             175   -0.0910 13.0 176 
 BAR2 EZ I        1933 18.43         6.9 0.07            175           13.0 176 
 BRR  HZ EP       1933  3.38                             153   -0.3810 72.5 307 
 BRR  HN ES       1933 20.71                             153    0.1510 72.5 307 
 RUS  HZ EP       1933  5.92                             147    0.3110 91.1 173 
 RUS  HN ES       1933 24.20                             147    0.3510 91.1 173 
 RUS  HZ I        1933 26.14         1.4 0.20            149           91.1 173 
 PTB  HZ EP       1933  8.89                             134    0.04 9  141 262 
 PTB  HN ES       1933 29.48                             134   -0.15 9  141 262 
 SPBC HN ES       1933 31.28                             132   -0.28 9  152 220 
 ZAR  HZ EP       1933 15.08                             123    0.27 9  204 295 
 ZAR  HN ES       1933 40.54                             123    0.31 9  204 295 
 ZAR  HZ I        1933 47.31         3.1 0.14            123            204 295 
                                                                                
