 2017 1025 1236 33.0 L   5.983 -73.718117.8  RSN  5 0.3 1.2LRSN                1
 GAP=209        0.81       5.5     4.2  7.3  0.1188E+02  0.1276E+02  0.4846E+01E
 Epicentro: GUAVATA - SANTANDER                                                3
 ACTION:UPD 17-11-07 19:36 OP:rebc STATUS:               ID:20171025123633 L   I
 OLDACT:REG 17-10-25 20:22 OP:dhb  STATUS:               ID:20171025122440     3
 2017-10-25-1228-00M.COL___443                                                 6
 STAT SP IPHASW D HRMM SECON CODA AMPLIT PERI AZIMU VELO AIN AR TRES W  DIS CAZ7
 RUS  HZ EP       1236 52.22                             147    0.3310 71.0  98 
 RUS  HN ES       1237  6.67                             147    0.0410 71.0  98 
 RUS  HZ I        1237  8.10         1.7 0.24            147           71.0  98 
 BAR2 EZ EP       1236 53.03                             140    0.1410 89.8  41 
 BAR2 EZ ES       1237  7.80                             140   -0.6110 89.8  41 
 BAR2 EZ I        1237  8.53         5.4 0.14            136           89.8  41 
 PTB  HZ EP       1236 53.43                             136   -0.1710  102 307 
 PTB  HN ES       1237  9.68                             136    0.0110  102 307 
 PTB  HZ I        1237 10.40         1.2 0.07            135            102 307 
 BRR  HZ EP       1236 55.42                             130   -0.1310  124   0 
 BRR  HN ES       1237 13.71                             130    0.5710  124   0 
 BRR  HZ I        1237 22.50         6.1 0.30            127            124   0 
 ZAR  HZ EP       1237  4.11                             115   -0.24 8  209 323 
 ZAR  HN ES       1237 28.82                             115    0.01 8  209 323 
 ZAR  HZ I        1237 32.80         3.2 0.28            115            209 323 
                                                                                
