 2016  425 1524 53.5 L   6.775 -73.173139.3  RSN  6 0.4 1.8LRSN                1
 GAP=134        0.58       4.5     4.6  7.4 -0.8973E+01  0.9961E+01 -0.3575E+00E
 Epicentro: LOS SANTOS - SANTANDER                                             3
 ACTION:UPD 16-05-05 14:24 OP:rebc STATUS:               ID:20160425152453 L   I
 OLDACT:REG 16-04-25 22:23 OP:dnl  STATUS:               ID:20160425151749     3
 2016-04-25-1517-49M.COL___310                                                 6
 STAT SP IPHASW D HRMM SECON CODA AMPLIT PERI AZIMU VELO AIN AR TRES W  DIS CAZ7
 BAR2 EZ EP       1525 12.38                             171    0.0710 20.3 183 
 BAR2 EZ ES   2   1525 26.90                             171   -0.07 5 20.3 183 
 BAR2 EZ I        1525 28.68         9.0 0.34            169           20.3 183 
 PAM  EZ EP       1525 15.40                             148    0.1010 81.4  40 
 PAM  EN ES       1525 32.14                             148   -0.1510 81.4  40 
 PAM  EZ I        1525 34.28        21.9 0.50            154           81.4  40 
 RUS  HZ EP   2   1525 16.48                             143    0.02 5 98.1 174 
 RUS  HN ES   2   1525 34.87                             143    0.52 5 98.1 174 
 RUS  HZ I        1525 36.10         8.8 0.26            146           98.1 174 
 PTB  HZ EP   2   1525 19.01                             131   -0.64 5  144 260 
 PTB  HN ES   2   1525 39.48                             131   -0.55 5  144 260 
 PTB  HZ I        1525 43.55         4.9 0.18            130            144 260 
 SPBC HZ EP   4   1525 18.99                             128   -2.16 0  159 219 
 SPBC HN ES   2   1525 42.55                             128   -0.14 5  159 219 
 SPBC HZ I        1525 49.00         6.3 0.10            129            159 219 
 ZAR  HE ES   2   1525 51.09                             121    0.87 4  202 293 
 ZAR  HZ I        1525 56.39         7.2 0.42            121            202 293 
                                                                                
