 2010  325 1602 53.1 L   6.795 -73.070149.7  RSN 10 0.4 3.3LRSN                1
 GAP=191        0.69       3.7     6.7  6.7 -0.1808E+01  0.1496E+02  0.4152E+01E
 Epicentro: LOS SANTOS - SANTANDER                                             3
 ACTION:UP  10-08-24 09:56 OP:vdl  STATUS:               ID:20100325160253 L   I
 2010-03-25-1601-17S.COL___098                                                 6
 STAT SP IPHASW D HRMM SECON CODA AMPLIT PERI AZIMU VELO SNR AR TRES W  DIS CAZ7
 BAR2 SZ IP       16 3 13.15                             170    -0.110   26 209 
 BAR2 SZ ES   2   16 3 28.41                             170    -0.5 5   26 209 
 BRR  HZ IP       16 3 15.17                             151     0.110   79 296 
 BRR  HZ I        16 3 15.47       829.0 0.16                            79 296 
 BRR  HE ES   2   16 3 32.68                             151     0.4 5   79 296 
 RUS  HZ EP   1   16 3 16.99                             145    -0.2 7  100 181 
 RUS  HE ES   2   16 3 35.98                             145     0.0 5  100 181 
 RUS  HZ I        16 3 39.31       183.8 0.46                           100 181 
 OCA  SZ EP   1   16 3 21.74                             130    -0.1 7  162 350 
 OCA  SZ ES   2   16 3 44.60                             130     0.3 5  162 350 
 CHI  HZ EP   1   16 3 31.12                             118    -0.1 6  250 197 
 CHI  HE ES   2   16 4  0.86                             118     0.0 4  250 197 
 CHI  HZ I        16 4  4.64        69.9 0.46                           250 197 
 ROSC BZ EP   1   16 3 32.83                             117     1.0 6  257 213 
 ROSC BN ES   2   16 4  2.06                             117     0.0 4  257 213 
 ROSC BZ I        16 4  6.90       118.7 0.48                           257 213 
 HEL  HZ EP   1   16 3 34.48                             115     0.1 6  280 256 
 HEL  HE ES   2   16 4  6.00                             115    -0.6 4  280 256 
 HEL  HZ I        16 4 12.89       133.6 0.43                           280 256 
 RREF BZ EP   1   16 3 40.37                             111     0.3 5  328 230 
 RREF BN ES   2   16 4 17.03                             111     0.3 3  328 230 
 RREF BZ I        16 4 22.61       118.8 0.73                           328 230 
 DBB  SZ EP   1   16 3 40.85                             110    -0.8 5  348 274 
 PRA  HZ EP   1   16 3 46.43                             107    -0.7 4  396 211 
 PRA  HN ES   2   16 4 29.43                             107     0.1 3  396 211 
 PRA  HZ I        16 4 34.92        72.9 0.58                           396 211 
                                                                                
