 2011  425 1104 59.2 L   6.791 -73.099144.6  RSN 16 0.5 2.6LRSN                1
 GAP=119        1.11       4.2     7.1  7.1 -0.1235E+02  0.8986E+01  0.3581E+01E
 Epicentro: LOS SANTOS - SANTANDER                                             3
 ACTION:UP  11-06-22 15:33 OP:REBC STATUS:               ID:20110425110459 L   I
 2011-04-25-1103-30S.COL___139                                                 6
 STAT SP IPHASW D HRMM SECON CODA AMPLIT PERI AZIMU VELO SNR AR TRES W  DIS CAZ7
 BTL  SZ IP       11 5 19.02                             170     0.310   23 307 
 BAR2 SZ EP       11 5 18.72                             170     0.010   24 203 
 BAR2 SZ ES   1   11 5 33.80                             170    -0.1 7   24 203 
 BAR2 SZ I        11 5 35.31       310.4 0.09                            24 203 
 GIR2 SZ EP       11 5 18.84                             166     0.010   34 342 
 PAM  SZ EP   1   11 5 21.40                             151     0.2 7   75  36 
 PAM  SN ES   1   11 5 38.23                             151    -0.1 7   75  36 
 PAM  SZ I        11 5 42.13        19.7 0.40                            75  36 
 BRR  HZ IP     D 11 5 20.57                             151     0.010   76 297 
 BRR  HE ES   1   11 5 37.93                             151     0.8 7   76 297 
 BRR  HZ I        11 5 40.85       125.2 0.15                            76 297 
 RUS  HZ EP       11 5 22.51                             144    -0.210   99 179 
 RUS  HE ES   1   11 5 40.62                             144    -0.5 7   99 179 
 RUS  HZ I        11 5 42.43        90.2 0.40                            99 179 
 BRI  SZ EP       11 5 23.24                             141     0.310  108  18 
 GRA  SZ EP       11 5 24.50                             137     0.210  125  15 
 GRA  SZ ES   1   11 5 43.28                             137    -0.6 7  125  15 
 GRA  SZ I        11 5 49.91        54.5 0.28                           125  15 
 OCA  SZ EP       11 5 26.96                             129    -0.6 9  162 351 
 OCA  SZ I        11 5 55.15        55.6 0.10                           162 351 
 YOP  SZ EP   1   11 5 29.03                             127     0.2 7  176 155 
 YOP  SZ I        11 6  1.07        12.9 0.11                           176 155 
 NOR  SZ EP   1   11 5 34.48                             118    -0.8 6  238 235 
 NOR  SN ES   1   11 6  2.40                             118    -1.0 6  238 235 
 CHI  HZ EP   1   11 5 36.72                             117    -0.2 6  249 196 
 CHI  HE ES   1   11 6  7.43                             117     1.1 6  249 196 
 CHI  HZ I        11 6 13.58        16.6 0.46                           249 196 
 HEL  HZ EP   1   11 5 40.40                             114     0.5 6  277 256 
 HEL  HZ I        11 6 17.41        31.8 0.41                           277 256 
 TOL  SZ EP   1   11 5 48.04                             109     0.3 5  346 225 
 ANIL HZ EP   1   11 5 50.27                             108     1.0 5  360 225 
 PRA  HZ EP   1   11 5 52.02                             106    -0.9 4  394 210 
 PRA  HN ES   1   11 6 34.63                             106    -0.1 4  394 210 
                                                                                
