 2012  325 1932 59.9 L   6.782 -73.158148.3  RSN  6 0.4 1.7LRSN                1
 GAP=136        1.01       6.6     6.8 10.4 -0.7364E+01  0.1971E+01 -0.6029E+01E
 ACTION:UP  12-03-31 23:22 OP:EP   STATUS:               ID:20120325193259 L   I
 2012-03-25-1930-00M.COL___196                                                 6
 STAT SP IPHASW D HRMM SECON CODA AMPLIT PERI AZIMU VELO SNR AR TRES W  DIS CAZ7
 BAR2 SZ EP   1   1933 19.63                             172    -0.2 7   21 187 
 BAR2 SZ I        1933 19.92        13.5 0.14                            21 187 
 BRR  HZ EP       1933 21.59                             153     0.310   71 300 
 BRR  HZ I        1933 23.68        12.2 0.11                            71 300 
 BRR  HN ES   1   1933 38.74                             153     0.7 7   71 300 
 PAM  SZ EP       1933 22.54                             151     0.010   80  39 
 PAM  SN ES   1   1933 39.51                             151    -0.7 7   80  39 
 RUS  HZ EP   1   1933 24.08                             145     0.3 7   99 175 
 RUS  HN ES   1   1933 42.43                             145     0.1 7   99 175 
 RUS  HZ I        1933 43.12         5.3 0.23                            99 175 
 PTB  HZ EP   1   1933 26.36                             133    -0.5 7  146 259 
 PTB  HN ES   1   1933 47.43                             133    -0.6 7  146 259 
 PTB  HZ I        1933 52.53         6.2 0.11                           146 259 
 OCA  SZ EP   1   1933 28.66                             130     0.1 7  162 354 
                                                                                
