 2010  425 1737 16.4 L   6.772 -72.981145.1  RSN 12 0.6 2.4LRSN                1
 GAP=164        1.17       6.5     7.3  7.5 -0.3229E+02 -0.1392E+02  0.2003E+02E
 Epicentro: CEPITA - SANTANDER                                                 3
 ACTION:UPD 10-08-24 10:01 OP:vdl  STATUS:               ID:20100425173717 L   I
 2010-04-25-1732-59S.COL___104                                                 6
 STAT SP IPHASW D HRMM SECON CODA AMPLIT PERI AZIMU VELO AIN AR TRES W  DIS CAZ7
 BAR2 SZ EP       1737 35.80                             168    -0.310   30 228 
 BAR2 SZ ES   1   1737 51.22                             168    -0.2 7   30 228 
 BRR  HZ EP       1737 38.27                             148    -0.310   89 295 
 BRR  HZ I        1737 39.86        63.9 0.11                            89 295 
 BRR  HN ES       1737 55.52                             148    -0.310   89 295 
 BRI  SZ EP       1737 40.49                             143     0.510  106  11 
 BRI  SZ ES   2   1737 58.33                             143    -0.2 5  106  11 
 GUE  SZ EP       1737 41.10                             140     0.010  117   3 
 GUE  SZ ES   1   1738  0.86                             140     0.5 7  117   3 
 GRA  SZ EP       1737 41.72                             138     0.310  125   9 
 GRA  SZ ES   1   1738  1.47                             138     0.5 7  125   9 
 OCA  SZ EP       1737 44.63                             129    -0.6 9  166 347 
 OCA  SZ ES   2   1738  7.81                             129     0.1 5  166 347 
 HEL  HZ EP       1737 58.05                             114    -0.4 7  289 257 
 HEL  HN ES   1   1738 31.72                             114     0.5 5  289 257 
 HEL  HZ I        1738 35.19        13.9 0.21                           289 257 
 RREF BZ EP       1738  3.97                             110     0.1 7  334 232 
 RREF BN ES   1   1738 42.95                             110     2.0 5  334 232 
 RREF BZ I        1738 46.95        12.9 0.22                           334 232 
 SDV  BZ EP       1738  5.24                             109     0.2 6  349  48 
 SDV  BZ I        1738  6.40         3.2 0.65                           349  48 
 SDV  BN ES   1   1738 42.76                             109    -0.2 5  349  48 
 TOL  SZ EP       1738  6.41                             109     0.6 6  354 227 
 DBB  SZ EP   1   1738  4.28                             109    -1.7 5  358 275 
 PRA  HZ EP       1738 10.35                             106    -0.3 6  399 212 
 PRA  HE ES   1   1738 51.93                             106    -1.0 4  399 212 
 PRA  HZ I        1738 57.86         9.5 0.85                           399 212 
                                                                                
