 2016 1225 1946 42.6 L   6.743 -72.842  1.5  RSN 19 0.6 2.7LRSN                1
 GAP= 93        2.26       5.3     4.8  8.7  0.1684E+01  0.1393E+02  0.1001E+02E
 Epicentro: SAN ANDRES - SANTANDER                                             3
 ACTION:UPD 17-01-11 20:19 OP:rebc STATUS:               ID:20161225194642 L   I
 OLDACT:UP  16-12-26 01:16 OP:edw  STATUS:               ID:20161225193746d    3
 OLDACT:UP  16-12-26 01:15 OP:edw  STATUS:               ID:20161225193746d    3
 OLDACT:DUP 16-12-26 01:09 OP:edw  STATUS:               ID:20161225193746d    3
 OLDACT:UP  16-12-26 01:07 OP:edw  STATUS:               ID:20161225193745     3
 OLDACT:UP  16-12-26 01:06 OP:edw  STATUS:               ID:20161225193745     3
 OLDACT:UP  16-12-26 01:05 OP:edw  STATUS:               ID:20161225193745     3
 OLDACT:UP  16-12-26 01:00 OP:edw  STATUS:               ID:20161225193745     3
 OLDACT:REG 16-12-25 21:02 OP:edw  STATUS:               ID:20161225193745     3
 2016-12-25-1938-00M.COL___384                                                 6
 STAT SP IPHASW D HRMM SECON CODA AMPLIT PERI AZIMU VELO AIN AR TRES W  DIS CAZ7
 BAR2 EZ IP   9 D 1946 46.47                              47   -3.62 0 41.2 246 
 BAR2 EZ ES       1946 51.02                                   -1.2510 41.2 246 
 BAR2 EZ I        1946 51.61       841.6 0.28             47           41.2 246 
 PAM  EZ IP     C 1946 53.86                              47   -0.5310 67.8  13 
 PAM  EN ES       1947  4.10                              47    0.5610 67.8  13 
 PAM  EZ I        1947  4.75        98.1 0.18             47           67.8  13 
 RUS  HZ IP   9 C 1946 54.43                              47   -4.49 0 97.7 196 
 RUS  HN ES       1947  4.06                                   -3.0610 97.7 196 
 RUS  HZ I        1947  6.00       251.5 0.44             47           97.7 196 
 BRR  HZ IP     C 1946 58.82                              47   -0.5810  104 293 
 BRR  HN ES       1947 12.07                              47   -0.4010  104 293 
 BRR  HZ I        1947 13.17       193.2 0.38             47            104 293 
 TAM  HZ EP     D 1947  2.15                              47    0.1710  121 106 
 TAM  HN ES       1947 16.88                              47   -0.1910  121 106 
 TAM  HZ I        1947 21.40       100.9 0.26             47            121 106 
 PTB  HZ EP   9   1947  9.12                              37   -1.72 0  180 263 
 PTB  HE ES       1947 31.29                              47    0.18 9  180 263 
 ZAR  HZ EP     C 1947 17.60                              37   -0.44 8  238 291 
 ZAR  HN ES       1947 45.59                              37   -0.06 8  238 291 
 ZAR  HZ I        1947 46.90       113.9 0.40             37            238 291 
 CHI  HZ EP       1947 20.15                              37   -0.38 8  254 203 
 CHI  HN ES       1947 51.16                              37    1.09 8  254 203 
 CHI  HZ I        1947 58.57        42.7 0.42             37            254 203 
 PTGC HZ EP   4   1947 22.98                              37   -1.85 0  292 164 
 PTGC HE ES   4   1948  0.11                              37    2.38 0  292 164 
 PTGC HZ I        1948  3.99        31.5 0.32             36            292 164 
 VIL  EZ EP   2   1947 27.49                              36    0.80 4  306 198 
 VIL  EN ES   4   1948  6.69                              36    5.64 0  306 198 
 VIL  EZ I        1948 13.95        43.8 0.54             36            306 198 
 URE  HZ EP   2   1947 28.52                              36    0.54 3  317 291 
 URE  HN ES   4   1948  6.19                              36    2.84 0  317 291 
 URE  HZ I        1948 12.15        26.9 0.18             36            317 291 
 GUY2CHZ EP       1947 28.76                              36   -0.83 7  326 239 
 GUY2CHN ES       1948  6.07                              36   -0.14 7  326 239 
 GUY2CHZ I        1948 10.33        24.6 0.70                           326 239 
 ELA  HZ EP       1947 33.78                              36    0.96 6  352 234 
 ELA  HE ES   4   1948 13.90                              36    1.94 0  352 234 
 ELA  HZ I        1948 13.94        13.5 0.40             36            352 234 
 CBOC HZ EP   4   1947 35.51                              36    1.58 0  364 255 
 CBOC HE ES   4   1948 15.93                              36    2.01 0  364 255 
 CBOC HZ I        1948 21.95         6.2 0.46             36            364 255 
 ANIL HZ EP   4   1947 37.49                              36    1.75 0  377 229 
 ANIL HE ES       1948 17.96                              36    0.81 6  377 229 
 ANIL HZ I        1948 24.00        29.1 0.32             36            377 229 
 ORTC HZ EP   4   1947 41.57                              36    1.96 0  411 221 
 ORTC HE ES   4   1948 28.26                              36    4.23 0  411 221 
 ORTC HZ I        1948 33.99        10.8 0.42             36            411 221 
 SJC  HZ EP       1947 43.67                              36    1.29 5  434 324 
 SJC  HN ES       1948 29.28                              36    0.31 5  434 324 
 CRJC HZ EP   4   1947 59.94                              36   12.64 0  473 359 
 CRJC HE ES   4   1948 41.95                              36    4.23 0  473 359 
 CRJC HZ I        1949  3.19        13.6 0.38             36            473 359 
 MACC HZ EP   4   1947 59.72                              36    6.67 0  520 192 
 MACC HN ES   4   1949  0.36                              36   12.39 0  520 192 
 MACC HZ I        1949 15.95         6.8 0.24             36            520 192 
                                                                                
