 2015  925 1458 59.4 L   6.751 -73.383122.4  RSN  5 0.6 1.9LRSN                1
 GAP=147        1.29       9.2     7.1  9.5  0.9706E+01  0.1595E+02 -0.2607E+02E
 Epicentro: ZAPATOCA - SANTANDER                                               3
 ACTION:UPD 15-10-28 16:28 OP:cam  STATUS:               ID:20150925145859 L   I
 OLDACT:REG 15-09-25 20:42 OP:ar   STATUS:               ID:20150925145748     3
 2015-09-25-1457-48M.COL___361                                                 6
 STAT SP IPHASW D HRMM SECON CODA AMPLIT PERI AZIMU VELO AIN AR TRES W  DIS CAZ7
 BAR2 EZ EP       1459 16.50                             166    0.1610 28.3 128 
 BAR2 EZ ES       1459 29.75                             166    0.1810 28.3 128 
 BAR2 EZ I        1459 30.93        54.5 0.20            175           28.3 128 
 BRR  HZ EP     D 1459 16.89                             155   -0.1410 53.6 317 
 BRR  HN ES       1459 30.81                             155    0.0210 53.6 317 
 BRR  HZ I        1459 36.69        13.0 0.46            153           53.6 317 
 PTB  HZ EP       1459 21.74                             132   -0.2810  121 259 
 PTB  HN ES       1459 38.87                             132   -0.8010  121 259 
 PTB  HZ I        1459 44.81         5.8 0.40            134            121 259 
 ZAR  HZ EP       1459 28.87                             120    0.77 9  182 297 
 ZAR  HE ES       1459 51.47                             120    0.97 9  182 297 
 ZAR  HZ I        1459 54.09         6.5 0.28            122            182 297 
 SML  HZ EP       1459 33.66                             113   -0.64 8  239 342 
 SML  HE ES   2   15 0  0.59                             113   -0.94 4  239 342 
 SML  HZ I        15 0  3.71        11.6 0.24            116            239 342 
                                                                                
