 2016  125 1242 52.7 L   7.471 -73.220128.1  RSN  6 0.4 1.9LRSN                1
 GAP=137        0.96       3.6     4.5  8.8  0.4209E+00  0.1989E+02 -0.4437E+01E
 Epicentro: EL PLAYON - SANTANDER                                              3
 ACTION:UPD 16-03-09 23:28 OP:cam  STATUS:               ID:20160125124252 L   I
 OLDACT:UP  16-01-25 23:50 OP:ak   STATUS:               ID:20160125123739     3
 OLDACT:REG 16-01-25 21:52 OP:ak   STATUS:               ID:20160125123739     3
 2016-01-25-1237-39M.COL___333                                                 6
 STAT SP IPHASW D HRMM SECON CODA AMPLIT PERI AZIMU VELO AIN AR TRES W  DIS CAZ7
 PAM  EZ EP       1243 12.23                             154    0.2110 59.2 104 
 PAM  EN ES       1243 27.55                             154    0.4910 59.2 104 
 PAM  EZ I        1243 30.10        13.3 0.26            160           59.2 104 
 BAR2 EZ EP       1243 14.01                             141   -0.1710 97.2 178 
 BAR2 EZ ES       1243 30.28                             141   -0.6310 97.2 178 
 BAR2 EZ I        1243 31.46        21.1 0.12            145           97.2 178 
 PTB  HZ EP       1243 20.59                             123   -0.06 9  171 233 
 PTB  HN ES       1243 42.10                             123   -0.32 9  171 233 
 PTB  HZ I        1243 45.38         6.2 0.24            127            171 233 
 SML  HZ EP       1243 20.76                             123   -0.21 9  175 328 
 SML  HN ES       1243 42.50                             123   -0.50 9  175 328 
 SML  HZ I        1243 45.13                             126            175 328 
 ZAR  HZ EP       1243 21.95                             122    0.31 9  181 271 
 ZAR  HN ES       1243 44.83                             122    0.64 9  181 271 
 ZAR  HZ I        1243 48.41        10.6 0.42            125            181 271 
 SPBC HZ EP   2   1243 26.16                             116   -0.00 4  222 205 
 SPBC HN ES       1243 52.57                             116    0.33 8  222 205 
                                                                                
