 2012  325 1130 19.0 L   6.823 -73.146146.3  RSN 18 0.5 3.8LRSN 4.0WRSN        1
 SPEC AVERAGE  MO 15.0 ST454.4 OM 18.1 f0 6.57 R  0.23 AL 5.01 WI 32.3 MW  4.0 3
 GAP=103        1.20       3.9     4.4  6.5 -0.1503E+01  0.4151E+01  0.8465E+00E
 SPEC COD HH Z MO 15.1 ST460.5 OM  2.4 f0 6.21 R0.2367 AL 5.75 WI 37.6 MW  4.0 3
 SPEC COD HH Z T1131 6 K 0.020 GD  375 VP 7.60 DE 3.20 Q0230.0 QA 0.60 VS 4.20 3
 SPEC HEL HH Z MO 15.1 ST629.5 OM  2.4 f0 7.35 R0.2000 AL 5.36 WI 29.4 MW  4.0 3
 SPEC HEL HH Z T113058 K 0.020 GD  309 VP 7.60 DE 3.20 Q0230.0 QA 0.60 VS 4.20 3
 SPEC CHI HH Z MO 14.9 ST273.4 OM  2.3 f0 6.14 R0.2394 AL 3.92 WI 30.0 MW  3.9 3
 SPEC CHI HH Z T113056 K 0.020 GD  290 VP 7.60 DE 3.20 Q0230.0 QA 0.60 VS 4.20 3
 ACTION:UP  12-03-31 23:22 OP:EP   STATUS:               ID:20120325113019 L   I
 2012-03-25-1130-00M.COL___196                                                 6
 STAT SP IPHASW D HRMM SECON CODA AMPLIT PERI AZIMU VELO SNR AR TRES W  DIS CAZ7
 BAR2 SZ IP     D 1130 38.83                             170     0.110   26 189 
 BAR2 SZ ES   1   1130 53.37                             170    -0.8 7   26 189 
 BAR2 SZ I        1130 55.23      1391.4 0.19                            26 189 
 BRR  HZ IP       1130 40.61                             153     0.510   70 297 
 BRR  HE ES   1   1130 57.41                             153     0.8 7   70 297 
 BRR  HZ I        1131  0.91      2281.4 0.15                            70 297 
 PAM  SZ EP       1130 41.55                             151     0.410   75  41 
 PAM  SN ES   1   1130 58.52                             151     0.1 7   75  41 
 RUS  HZ EP       1130 42.73                             143    -0.210  103 176 
 RUS  HN ES   1   1131  0.92                             143    -0.8 7  103 176 
 RUS  HZ I        1131  3.30       944.2 0.25                           103 176 
 PTB  HZ EP       1130 45.39                             132    -0.7 9  148 258 
 PTB  HN ES   1   1131  6.37                             132    -0.8 7  148 258 
 PTB  HZ I        1131 10.27       673.3 0.22                           148 258 
 OCA  SZ EP       1130 47.23                             130     0.1 9  158 353 
 YOP  SZ IP       1130 49.70                             126     0.4 9  181 154 
 YOP  SN ES   1   1131 13.85                             126     0.9 7  181 154 
 YOP  SZ I        1131 17.50       362.2 0.32                           181 154 
 ZAR  HZ EP   1   1130 51.64                             123     0.3 6  203 291 
 ZAR  HN ES   1   1131 16.82                             123     0.2 6  203 291 
 ZAR  HZ I        1131 26.85       705.5 0.30                           203 291 
 NOR  SZ EP       1130 54.83                             118    -0.1 8  236 234 
 NOR  SN ES       1131 23.34                             118     0.4 8  236 234 
 CHI  HZ EP       1130 57.06                             117     0.1 8  251 195 
 CHI  HN ES       1131 26.31                             117    -0.3 8  251 195 
 CHI  HZ I        1131 31.86       342.8 0.33                           251 195 
 HEL  HZ EP   1   1130 58.96                             115    -0.3 6  273 255 
 HEL  HN ES   1   1131 30.65                             115    -0.1 6  273 255 
 HEL  HZ I        1131 36.21       414.5 0.45                           273 255 
 GUY  SZ EP       1131  3.57                             112     0.5 7  305 235 
 GUY  SZ I        1131 46.17       641.5 0.33                           305 235 
 DBB  SZ EP   1   1131  7.10                             110     0.6 5  339 274 
 TOL  SZ EP   1   1131  7.89                             109     0.4 5  345 224 
 COD  HZ EP       1131  6.22                             109    -0.9 6  346 355 
 COD  HZ I        1131 52.22       186.0 0.12                           346 355 
 SDV  BZ EP       1131  8.09                             108    -0.8 6  359  50 
 PRA  HZ EP   1   1131 12.32                             106    -0.5 4  394 209 
 YOT  HZ EP       1131 21.72                             103    -0.5 5  474 229 
 YOT  HZ I        1132 23.85        59.9 0.49                           474 229 
                                                                                
