 2010  325 1144  6.6 L   6.809 -73.095147.3  RSN  5 0.4 2.0LRSN                1
 GAP=243        0.65       6.2    12.2  8.1  0.2099E+02  0.1705E+02  0.1982E+02E
 Epicentro: LOS SANTOS - SANTANDER                                             3
 ACTION:UP  10-08-24 09:55 OP:vdl  STATUS:               ID:20100325114406 L   I
 2010-03-25-1139-29S.COL___098                                                 6
 STAT SP IPHASW D HRMM SECON CODA AMPLIT PERI AZIMU VELO SNR AR TRES W  DIS CAZ7
 BAR2 SZ EP   1   1144 26.46                             169     0.0 7   26 202 
 BAR2 SZ ES   2   1144 41.07                             169    -0.9 5   26 202 
 BRR  HZ EP   1   1144 28.23                             151     0.1 7   76 296 
 BRR  HE ES   2   1144 45.32                             151     0.3 5   76 296 
 BRR  HZ I        1144 51.18        18.5 0.20                            76 296 
 RUS  HZ EP   1   1144 30.51                             144     0.0 7  101 179 
 RUS  HE ES   2   1144 49.83                             144     0.6 5  101 179 
 RUS  HZ I        1144 50.40         9.6 0.25                           101 179 
 CHI  HZ EP   1   1144 44.79                             117     0.2 6  251 196 
 CHI  HZ I        1144 46.87         4.9 0.67                           251 196 
 CHI  HE ES   2   1145 14.56                             117     0.2 4  251 196 
 PRA  HZ EP   1   1145  0.25                             106    -0.3 4  396 210 
 PRA  HE ES   2   1145 42.09                             106    -0.6 3  396 210 
 PRA  HZ I        1145 48.12         4.7 0.32                           396 210 
                                                                                
