 2015 1225 1654  8.2 L   6.885 -73.263122.0  RSN  9 0.2 1.6LRSN                1
 GAP=167        0.58       2.0     2.7  3.9  0.7126E+00  0.5194E+01  0.1202E+01E
 Epicentro: BETULIA - SANTANDER                                                3
 ACTION:UPD 16-02-04 15:07 OP:cam  STATUS:               ID:20151225165408 L   I
 OLDACT:REG 15-12-25 20:57 OP:cara STATUS:               ID:20151225164749     3
 2015-12-25-1647-49M.COL___337                                                 6
 STAT SP IPHASW D HRMM SECON CODA AMPLIT PERI AZIMU VELO AIN AR TRES W  DIS CAZ7
 BAR2 EZ IP       1654 25.66                             164    0.3710 33.5 165 
 BAR2 EZ ES       1654 38.77                             164    0.1610 33.5 165 
 BAR2 EZ I        1654 40.87         6.5 0.10            169           33.5 165 
 BRR  HZ IP     C 1654 25.95                             154    0.0510 55.4 296 
 BRR  HE ES       1654 39.85                             154    0.1510 55.4 296 
 BRR  HZ I        1654 48.66         5.1 0.18            154           55.4 296 
 RUS  HZ EP       1654 30.52                             135   -0.1010  112 170 
 RUS  HE ES       1654 47.76                             135   -0.3410  112 170 
 RUS  HZ I        1654 49.23         2.7 0.16            142            112 170 
 PTB  HZ EP   4   1654 30.50                             128   -1.84 0  137 254 
 PTB  HN ES   4   1654 48.93                             128   -2.23 0  137 254 
 PTB  HZ I        1654 51.85         6.7 0.26            132            137 254 
 OCA  HE ES       1654 53.35                             126   -0.31 9  150 358 
 OCA  HZ I        1654 59.01        10.1 0.38            129            150 358 
 ZAR  HZ EP       1654 37.47                             119   -0.08 9  189 291 
 ZAR  HN ES       1655  0.42                             119   -0.02 9  189 291 
 ZAR  HZ I        1655  3.02         6.1 0.26            122            189 291 
 NOR  HN ES       1655  8.27                             113   -0.38 8  230 231 
 NOR  HZ I        1655 11.64         7.4 0.24            118            230 231 
 HEL  HZ EP       1654 46.36                             110    0.18 8  262 253 
 HEL  HN ES       1655 15.68                             110   -0.12 8  262 253 
 HEL  HZ I        1655 19.17         3.5 0.24            114            262 253 
 GUY2CHZ EP       1654 50.53                             108    0.26 7  296 232 
 GUY2CHE ES       1655 23.32                             108    0.23 7  296 232 
 GUY2CHZ I        1655 28.69         2.4 0.44                           296 232 
                                                                                
