 2015 1225 1251 41.6 L   6.764 -73.079155.8  RSN  5 0.3 1.5LRSN                1
 GAP=273        0.80       5.4     5.6  6.5  0.4511E+01  0.4852E+01  0.4562E+01E
 Epicentro: LOS SANTOS - SANTANDER                                             3
 ACTION:UPD 16-02-04 15:07 OP:cam  STATUS:               ID:20151225125141 L   I
 OLDACT:REG 15-12-25 20:45 OP:cara STATUS:               ID:20151225124750     3
 2015-12-25-1247-50M.COL___334                                                 6
 STAT SP IPHASW D HRMM SECON CODA AMPLIT PERI AZIMU VELO AIN AR TRES W  DIS CAZ7
 BAR2 EZ IP       1252  2.03                             172   -0.4010 22.2 211 
 BAR2 EZ ES       1252 18.44                             172   -0.2210 22.2 211 
 BAR2 EZ I        1252 20.87         5.1 0.36            168           22.2 211 
 BRR  HZ EP       1252  4.66                             151    0.3410 79.6 299 
 BRR  HN ES       1252 22.47                             151    0.4410 79.6 299 
 BRR  HZ I        1252 34.14         6.0 0.32            148           79.6 299 
 PTB  HZ EP       1252  9.88                             133   -0.12 9  154 261 
 PTB  HE ES       1252 31.76                             133   -0.38 9  154 261 
 PTB  HZ I        1252 38.57         3.2 0.34            134            154 261 
 SPBC HZ EP       1252 11.29                             131    0.23 9  165 222 
 SPBC HN ES       1252 34.29                             131    0.26 9  165 222 
 SPBC HZ I        1252 38.92         4.7 0.22            134            165 222 
 ZAR  HN ES       1252 41.87                             123   -0.20 8  212 292 
 ZAR  HZ I        1252 48.24         3.4 0.48            125            212 292 
                                                                                
