 2010  925 1455 56.1 L   6.789 -73.043137.3  RSN  5 0.3 1.9LRSN                1
 GAP=203        0.87       7.4    10.6  9.7 -0.2896E+02 -0.3045E+02 -0.1136E+02E
 Epicentro: LOS SANTOS - SANTANDER                                             3
 ACTION:UP  11-02-18 11:05 OP:tino STATUS:               ID:20100925145556 L   I
 2010-09-25-1454-15S.COL___122                                                 6
 STAT SP IPHASW D HRMM SECON CODA AMPLIT PERI AZIMU VELO SNR AR TRES W  DIS CAZ7
 BAR2 SZ EP       1456 14.93                             168     0.110   27 215 
 BAR2 SZ I        1456 15.22        15.6 0.07                            27 215 
 BAR2 SZ ES   1   1456 29.05                             168    -0.4 7   27 215 
 BTL  SZ EP       1456 15.33                             168     0.510   29 300 
 BRR  HZ EP       1456 16.62                             147    -0.410   82 296 
 BRR  HZ I        1456 17.09        23.3 0.09                            82 296 
 BRR  HE ES   1   1456 33.63                             147     0.3 7   82 296 
 GUE  SZ EP       1456 19.78                             138    -0.210  116   6 
 GRA  SZ EP       1456 20.70                             135     0.210  124  12 
 GRA  SZ ES   1   1456 39.42                             135    -0.1 7  124  12 
 GRA  SZ I        1456 41.44         7.7 0.14                           124  12 
                                                                                
