 2015 1025 1143  1.4 L   6.790 -73.152148.6  RSN 11 0.4 1.8LRSN                1
 GAP=136        1.07       3.1     4.4  5.8 -0.8351E+00  0.8668E+01  0.9045E+00E
 Epicentro: LOS SANTOS - SANTANDER                                             3
 ACTION:UPD 15-12-22 20:42 OP:cam  STATUS:               ID:20151025114301 L   I
 OLDACT:REG 15-10-25 20:19 OP:drio STATUS:               ID:20151025113748     3
 2015-10-25-1137-48M.COL___313                                                 6
 STAT SP IPHASW D HRMM SECON CODA AMPLIT PERI AZIMU VELO AIN AR TRES W  DIS CAZ7
 BAR2 EZ EP       1143 21.36                             171   -0.0310 22.1 189 
 BAR2 EZ ES       1143 36.88                             171   -0.0710 22.1 189 
 BAR2 EZ I        1143 39.21         9.9 0.44            169           22.1 189 
 BRR  HZ EP       1143 23.31                             153    0.4110 71.1 300 
 BRR  HN ES       1143 40.67                             153    1.0410 71.1 300 
 BRR  HZ I        1143 43.45         9.7 0.50            152           71.1 300 
 PAM  EZ EP       1143 24.09                             151    0.0510 78.7  39 
 PAM  EN ES       1143 41.60                             151   -0.0710 78.7  39 
 PAM  EZ I        1143 43.85         7.8 0.26            156           78.7  39 
 RUS  HZ EP       1143 25.13                             145   -0.2710 99.5 176 
 RUS  HE ES       1143 43.56                             145   -0.5210 99.5 176 
 RUS  HZ I        1143 45.01         5.1 0.30            146           99.5 176 
 SPBC HZ EP       1143 30.40                             130    0.36 9  162 219 
 SPBC HN ES       1143 52.51                             130    0.17 9  162 219 
 SPBC HZ I        1143 56.42        14.0 0.24            131            162 219 
 ZAR  HZ EP       1143 34.03                             123   -0.02 9  204 293 
 ZAR  HN ES       1143 58.68                             123   -0.81 9  204 293 
 ZAR  HZ I        1144  7.98         7.6 0.30            124            204 293 
 NOR  HZ EP       1143 37.51                             119    0.30 8  233 235 
 NOR  HN ES       1144  4.54                             119   -0.56 8  233 235 
 NOR  HZ I        1144  9.08         7.3 0.18            120            233 235 
 SML  HZ EP       1143 37.96                             118   -0.35 8  244 336 
 SML  HE ES       1144  6.60                             118   -0.47 8  244 336 
 CHI  HZ EP       1143 39.41                             118    0.25 8  247 195 
 CHI  HN ES       1144  8.34                             118   -0.24 8  247 195 
 CHI  HZ I        1144 17.25         2.4 0.58            120            247 195 
 HEL  HZ EP   4   1143 43.22                             115    1.52 0  271 256 
 HEL  HE ES       1144 13.00                             115   -0.09 8  271 256 
 HEL  HZ I        1144 16.19         3.2 0.26            116            271 256 
 GUY2CHZ EP       1143 45.75                             113    0.70 7  300 235 
 GUY2CHN ES   4   1144 20.43                             113    1.38 0  300 235 
 GUY2CHZ I        1144 28.21         3.5 0.28                           300 235 
                                                                                
