 2012  425 1702 26.4 L   6.809 -73.117144.0  RSN 15 0.4 3.2LRSN                1
 GAP=140        0.82       3.3     4.0  5.3 -0.2830E+00  0.6432E+01  0.4038E+01E
 Epicentro: LOS SANTOS - SANTANDER                                             3
 ACTION:UPD 12-07-05 11:55 OP:tino STATUS:               ID:20120425170226 L   I
 2012-04-25-1700-00M.COL___186                                                 6
 STAT SP IPHASW D HRMM SECON CODA AMPLIT PERI AZIMU VELO AIN AR TRES W  DIS CAZ7
 BAR2 SZ EP   1   17 2 45.99                             170     0.2 7   25 197 
 BAR2 SZ ES   1   17 3  0.77                             170    -0.2 7   25 197 
 BAR2 SZ I        17 3  4.39       330.4 0.61                            25 197 
 BRR  HZ EP   1   17 2 47.56                             151     0.1 7   74 297 
 BRR  HN ES   1   17 3  4.29                             151     0.4 7   74 297 
 BRR  HZ I        17 3  5.53       334.5 0.12                            74 297 
 PAM  SZ EP   1   17 2 48.44                             151     0.2 7   75  38 
 PAM  SN ES   1   17 3  5.34                             151     0.1 7   75  38 
 PAM  SZ I        17 3  7.60       323.1 0.32                            75  38 
 RUS  HZ EP   1   17 2 50.04                             143     0.0 7  101 178 
 RUS  HN ES   1   17 3  8.49                             143     0.1 7  101 178 
 RUS  HZ I        17 3 10.73       105.8 0.22                           101 178 
 PTB  HZ EP   1   17 2 52.54                             131    -0.9 7  151 259 
 PTB  HN ES   1   17 3 14.43                             131    -0.2 7  151 259 
 PTB  HZ I        17 3 15.34       145.0 0.23                           151 259 
 OCA  SZ EP   1   17 2 53.80                             129    -0.7 7  160 352 
 ZAR  HZ EP   1   17 2 58.76                             122    -0.2 6  207 292 
 ZAR  HN ES   1   17 3 24.46                             122     0.1 6  207 292 
 ZAR  HZ I        17 3 29.08       367.8 0.33                           207 292 
 NOR  SZ EP   1   17 3  1.99                             118    -0.3 6  238 235 
 NOR  SN ES   1   17 3 30.31                             118    -0.1 6  238 235 
 CHI  HZ EP   1   17 3  4.55                             117     0.4 6  250 196 
 CHI  HN ES   1   17 3 33.65                             117     0.0 6  250 196 
 CHI  HZ I        17 3 41.89        93.1 0.36                           250 196 
 HEL  HZ EP   1   17 3  7.48                             114     0.6 6  275 256 
 HEL  HN ES   1   17 3 38.60                             114     0.2 6  275 256 
 HEL  HZ I        17 3 45.08       148.7 0.52                           275 256 
 VIL  SZ EP   1   17 3 10.25                             112     0.4 5  305 192 
 VIL  SE ES   1   17 3 43.09                             112    -0.7 5  305 192 
 VIL  SZ I        17 3 50.65        89.7 0.49                           305 192 
 GUY  SZ EP   1   17 3 11.46                             112     0.9 5  307 235 
 DBB  SZ EP   1   17 3 14.60                             109     0.5 5  343 274 
 PRA  HZ EP   1   17 3 19.80                             106    -0.3 4  394 210 
 PRA  HN ES   1   17 4  2.43                             106     0.4 4  394 210 
 YOT  HZ EP   1   17 3 29.05                             103    -0.7 3  475 229 
                                                                                
