 2013  225 1421  2.1 L   6.752 -73.175149.0  RSN  5 0.4 1.6LRSN                1
 GAP=230        0.70       6.0     7.1  7.8  0.1380E+02  0.1203E+02 -0.1211E+01E
 Epicentro: VILLANUEVA - SANTANDER                                             3
 ACTION:UPD 13-03-12 09:35 OP:ep   STATUS:               ID:20130225142102 L   I
 2013-02-25-1420-00M.COL___225                                                 6
 STAT SP IPHASW D HRMM SECON CODA AMPLIT PERI AZIMU VELO AIN AR TRES W  DIS CAZ7
 BAR2 SZ EP   1   1421 21.92                             173   -0.10 7 17.7 183 
 BAR2 SZ ES   1   1421 37.12                             173   -0.44 7 17.7 183 
 BAR2 SZ I        1421 38.82        14.0 0.38            171           17.7 183 
 BRR  HZ EP     C 1421 23.77                             153    0.1710 71.2 304 
 BRR  HN ES   1   1421 40.95                             153    0.58 7 71.2 304 
 RUS  HN ES   1   1421 44.43                             146    0.11 7 95.6 174 
 RUS  HZ I        1421 45.56         3.8 0.42            146           95.6 174 
 PTB  HZ EP   1   1421 28.55                             134   -0.42 7  144 261 
 PTB  HN ES   1   1421 49.65                             134   -0.28 7  144 261 
 PTB  HZ I        1421 52.00         5.6 0.38            134            144 261 
 CHI  HN ES   2   1422  8.97                             119    0.59 4  243 195 
                                                                                
