 2012 1025 1241 51.0 L   6.763 -73.094147.1  RSN  4 0.2 1.6LRSN                1
 GAP=173        0.40       7.0     3.7  5.9  0.5006E+01  0.2505E+01  0.1380E+02E
 Epicentro: LOS SANTOS - SANTANDER                                             3
 ACTION:UPD 12-11-22 17:05 OP:ep   STATUS:               ID:20121025124151 L   I
 2012-10-25-1240-00M.COL___234                                                 6
 STAT SP IPHASW D HRMM SECON CODA AMPLIT PERI AZIMU VELO AIN AR TRES W  DIS CAZ7
 BAR2 SZ EP       1242 10.79                             171    0.0210 21.3 207 
 BAR2 SZ I        1242 11.15         8.2 0.11                          21.3 207 
 PAM  SZ EP   1   1242 13.46                             151    0.10 7 77.2  34 
 PAM  SZ I        1242 13.99         6.4 0.18                          77.2  34 
 PAM  SN ES   2   1242 30.71                             151   -0.09 5 77.2  34 
 BRR  HZ EP   2   1242 12.16                             150   -0.55 5 78.1 299 
 BRR  HZ I        1242 28.92        14.8 0.30                          78.1 299 
 BRR  HN ES   1   1242 29.70                             150    0.06 7 78.1 299 
 ZAR  HZ EP   1   1242 24.36                             122    0.11 6  211 293 
 ZAR  HE ES   2   1242 50.16                             122   -0.01 4  211 293 
 ZAR  HZ I        1242 55.62         2.9 0.42                           211 293 
                                                                                
