 2014 1225 1147 54.7 L   7.005 -73.050163.0  RSN 10 0.4 1.8LRSN                1
 GAP=194        0.99       3.9     4.8  6.0  0.2308E+01  0.1423E+01 -0.4062E+01E
 Epicentro: PIEDECUESTA - SANTANDER                                            3
 ACTION:UPD 15-02-10 17:07 OP:nd   STATUS:               ID:20141225114754 L   I
 OLDACT:DUP 14-12-25 23:57 OP:carl STATUS:               ID:20141225113751d    3
 2014-12-25-1137-50M.COL___292                                                 6
 STAT SP IPHASW D HRMM SECON CODA AMPLIT PERI AZIMU VELO AIN AR TRES W  DIS CAZ7
 BAR2 EZ EP       1148 16.78                             163   -0.3010 47.9 198 
 BAR2 EZ ES       1148 34.31                             163   -0.2210 47.9 198 
 BAR2 EZ I        1148 37.34         9.4 0.22            163           47.9 198 
 BRR  HZ IP     D 1148 17.79                             154   -0.1010 74.0 279 
 BRR  HN ES       1148 36.05                             154    0.0810 74.0 279 
 BRR  HZ I        1148 37.73        14.8 0.12            153           74.0 279 
 RUS  HZ EP       1148 21.84                             141    0.0510  123 182 
 RUS  HN ES       1148 43.21                             141    0.2910  123 182 
 RUS  HZ I        1148 44.57         4.6 0.24            143            123 182 
 OCA  HZ EP       1148 23.40                             137    0.76 9  140 348 
 OCA  HN ES   4   1148 43.12                             137   -1.32 0  140 348 
 OCA  HZ I        1148 47.70         9.1 0.28            139            140 348 
 PTB  HZ EP       1148 24.14                             133   -0.39 9  164 252 
 PTB  HN ES       1148 47.66                             133   -0.13 9  164 252 
 PTB  HZ I        1148 52.58         9.7 0.16            133            164 252 
 ZAR  HZ EP       1148 28.36                             126   -0.24 8  207 285 
 ZAR  HN ES       1148 55.42                             126    0.38 8  207 285 
 ZAR  HZ I        1148 57.22         8.9 0.22            126            207 285 
 SML  HZ EP       1148 30.08                             123   -0.68 8  228 331 
 SML  HN ES   4   1148 55.60                             123   -3.29 0  228 331 
 SML  HZ I        1149  2.16        13.8 0.32            124            228 331 
 NOR  HE ES       1149  4.99                             119    0.69 8  257 232 
 CHI  HZ EP       1148 36.11                             118    0.07 8  273 196 
 CHI  HE ES       1149  8.01                             118   -0.27 8  273 196 
 CHI  HZ I        1149 11.63         1.0 0.34            120            273 196 
 HEL  HZ EP       1148 38.35                             117    0.72 7  288 252 
 HEL  HN ES       1149 10.42                             117   -0.69 7  288 252 
 HEL  HZ I        1149 17.87         2.7 0.22            118            288 252 
                                                                                
