 2010  825 1719 39.1 L   6.799 -73.065148.4  RSN 12 0.4 3.2LRSN                1
 GAP=132        0.99       3.5     6.3  5.6 -0.7388E+01  0.2294E+00  0.9178E+00E
 Epicentro: LOS SANTOS - SANTANDER                                             3
 ACTION:UP  10-09-07 10:58 OP:vdl  STATUS:               ID:20100825171939 L   I
 2010-08-25-1716-28S.COL___121                                                 6
 STAT SP IPHASW D HRMM SECON CODA AMPLIT PERI AZIMU VELO SNR AR TRES W  DIS CAZ7
 BAR2 SZ IP       1719 59.16                             169     0.010   26 210 
 BAR2 SZ ES   1   1720 14.31                             169    -0.4 7   26 210 
 BAR2 SZ I        1720 16.01       461.8 0.73                            26 210 
 GIR2 SZ EP       1719 59.23                             166     0.010   34 335 
 GIR2 SZ ES   2   1720 14.28                             166    -0.6 5   34 335 
 BRR  HZ IP     C 1720  1.05                             150     0.010   79 296 
 BRR  HZ I        1720  1.41       553.7 0.22                            79 296 
 BRR  HE ES       1720 18.33                             150     0.210   79 296 
 RUS  HZ IP     D 1720  2.96                             144    -0.210  100 181 
 RUS  HZ I        1720  4.31       112.0 0.16                           100 181 
 RUS  HN ES       1720 22.01                             144     0.210  100 181 
 GUE  SZ EP       1720  4.00                             140     0.010  115   8 
 GUE  SZ I        1720 27.42        72.5 0.49                           115   8 
 GRA  SZ IP       1720  4.96                             138     0.510  123  14 
 GRA  SZ ES   1   1720 23.80                             138    -0.3 7  123  14 
 GRA  SZ I        1720 26.28       338.4 0.18                           123  14 
 OCA  SZ EP       1720  7.39                             130    -0.4 9  162 350 
 OCA  SZ ES   1   1720 30.53                             130     0.4 7  162 350 
 OCA  SZ I        1720 33.05       217.7 0.52                           162 350 
 CVER SZ EP   2   1720 19.77                             115    -0.2 4  276 204 
 CVER SZ I        1720 58.50       122.0 0.59                           276 204 
 DBB  SZ EP       1720 27.00                             109    -0.7 6  348 274 
 DBB  SZ I        1721  6.26        17.8 0.65                           348 274 
 SDV  BZ EP       1720 28.39                             109    -0.1 6  354  49 
 SDV  BZ I        1721  7.95        27.0 1.02                           354  49 
 ANIL HZ EP       1720 30.76                             109     1.0 6  364 226 
 ANIL HN ES   1   1721  8.84                             109    -0.4 5  364 226 
 PRA  HZ EP       1720 32.51                             107    -0.7 6  396 211 
 PRA  HN ES       1721 15.87                             107     0.4 6  396 211 
 PRA  HZ I        1721 18.18       100.7 1.05                           396 211 
                                                                                
