 2010  225 1231 21.7 L   6.797 -73.053147.4  RSN  9 0.3 2.0LRSN                1
 GAP=192        0.60       3.5     7.1  5.2 -0.6463E+00  0.1012E+02  0.6063E+01E
 Epicentro: LOS SANTOS - SANTANDER                                             3
 ACTION:UP  10-08-24 09:50 OP:vdl  STATUS:               ID:20100225123121 L   I
 2010-02-25-1230-08S.COL___094                                                 6
 STAT SP IPHASW D HRMM SECON CODA AMPLIT PERI AZIMU VELO SNR AR TRES W  DIS CAZ7
 BAR2 SZ EP       1231 41.66                             169     0.110   27 213 
 BAR2 SZ ES   1   1231 56.67                             169    -0.4 7   27 213 
 GIR2 SZ EP       1231 42.06                             166     0.410   35 334 
 GIR2 SZ ES   3   1231 57.40                             166     0.2 2   35 334 
 BRR  HZ EP       1231 43.64                             150     0.110   81 295 
 BRR  HZ I        1231 43.94        20.0 0.15                            81 295 
 BRR  HN ES   2   1232  0.78                             150     0.2 5   81 295 
 RUS  BZ EP       1231 45.64                             144     0.110  100 182 
 RUS  BN ES   2   1232  4.04                             144    -0.1 5  100 182 
 RUS  BZ I        1232  5.65         9.7 0.39                           100 182 
 OCA  SZ EP   2   1231 49.83                             129    -0.5 5  162 350 
 OCA  SZ ES   2   1232 11.87                             129    -0.8 5  162 350 
 CHI  HZ EP       1231 59.68                             117    -0.1 8  251 197 
 CHI  HE ES   3   1232 29.53                             117     0.1 2  251 197 
 CHI  HZ I        1232 34.61         3.7 0.28                           251 197 
 RREF BZ EP   2   1232  9.20                             110     0.4 3  329 231 
 RREF BN ES   2   1232 45.69                             110     0.2 3  329 231 
 RREF BZ I        1232 50.07         4.8 0.51                           329 231 
 TOL  SZ EP       1232 10.88                             109     0.1 6  351 226 
 TOL  SZ ES   3   1232 49.49                             109     0.4 2  351 226 
 PRA  HZ EP       1232 15.21                             106    -0.6 6  397 211 
 PRA  HE ES   2   1232 57.75                             106    -0.3 3  397 211 
 PRA  HZ I        1233  2.90         6.2 0.35                           397 211 
                                                                                
