 2012  125 1025 36.4 L   6.754 -73.153145.1  RSN  6 0.4 1.1LRSN                1
 GAP=138        0.85       7.9     7.2  9.1 -0.6924E+00  0.4786E+01  0.2790E+02E
 Epicentro: LOS SANTOS - SANTANDER                                             3
 ACTION:UP  12-02-03 08:20 OP:REBC STATUS:               ID:20120125102536 L   I
 2012-01-25-1020-00M.COL___187                                                 6
 STAT SP IPHASW D HRMM SECON CODA AMPLIT PERI AZIMU VELO SNR AR TRES W  DIS CAZ7
 BAR2 SZ EP       1025 55.90                             172     0.110   18 190 
 BAR2 SZ I        1025 56.26         4.9 0.38                            18 190 
 BAR2 SZ ES   1   1026 10.47                             172    -0.5 7   18 190 
 GIR2 SZ EP       1025 55.81                             165    -0.310   36 353 
 GIR2 SZ ES   3   1026 11.32                             165    -0.2 2   36 353 
 BRR  HZ EP       1025 57.46                             152    -0.110   73 302 
 BRR  HN ES   1   1026 14.75                             152     0.7 7   73 302 
 PAM  SN ES   1   1026 16.30                             149     0.0 7   82  38 
 RUS  HZ EP       1026  0.12                             145     0.410   96 175 
 RUS  HZ I        1026 21.11         1.7 0.48                            96 175 
 PTB  HZ EP   2   1026  2.71                             132    -0.4 5  146 261 
 PTB  HN ES   2   1026 23.70                             132    -0.3 5  146 261 
 PTB  HZ I        1026 32.21         1.1 0.36                           146 261 
                                                                                
