 2016  425 1149 59.3 R   6.806 -73.111116.8  RSN  4 0.2 1.1LRSN                1
 GAP=141        0.40       4.0     4.6  9.5 -0.8666E+01  0.5735E+01 -0.4688E+01E
 Epicentro: LOS SANTOS - SANTANDER                                             3
 *VENEZUELA-SIN REGISTRO EN AGENCIAS INTERNACIONALES                           3
 ACTION:UPD 16-05-05 14:24 OP:rebc STATUS:               ID:20160425114959 L   I
 OLDACT:UP  16-04-25 23:07 OP:dnl  STATUS:               ID:20160425114748     3
 OLDACT:UP  16-04-25 23:04 OP:dnl  STATUS:               ID:20160425114748     3
 OLDACT:REG 16-04-25 22:07 OP:dnl  STATUS:               ID:20160425114748     3
 2016-04-25-1147-48M.COL___285                                                 6
 STAT SP IPHASW D HRMM SECON CODA AMPLIT PERI AZIMU VELO AIN AR TRES W  DIS CAZ7
 BAR2 EZ EP   2   1150 15.44                             167   -0.04 5 24.9 199 
 BAR2 EZ ES   4   1150 30.77                             167    2.65 0 24.9 199 
 BAR2 EZ I        1150 32.23         3.0 0.20            135           24.9 199 
 PAM  EZ EP       1150 18.43                             145    0.1310 74.4  38 
 PAM  EN ES   2   1150 32.91                             145   -0.23 5 74.4  38 
 PAM  EZ I        1150 34.54         4.3 0.12            144           74.4  38 
 RUS  HZ EP   2   1150 19.97                             136   -0.38 5  101 178 
 RUS  HE ES   2   1150 36.96                             136    0.17 5  101 178 
 RUS  HZ I        1151  2.46         2.9 0.22            121            101 178 
 PTB  HZ EP   4   1150 22.10                             123   -2.36 0  152 259 
 PTB  HN ES   2   1150 44.07                             123   -0.02 5  152 259 
 PTB  HZ I        1150 45.03         2.0 0.14            127            152 259 
                                                                                
