 2011  125 1901 32.8 L   6.789 -73.119142.5  RSN 10 0.4 2.2LRSN                1
 GAP=162        0.99       5.3     9.3  7.2 -0.2176E+02  0.3260E+02 -0.5661E+01E
 Epicentro: LOS SANTOS - SANTANDER                                             3
 ACTION:UP  11-02-08 08:42 OP:pat  STATUS:               ID:20110125190132 L   I
 2011-01-25-1901-47S.COL___138                                                 6
 STAT SP IPHASW D HRMM SECON CODA AMPLIT PERI AZIMU VELO SNR AR TRES W  DIS CAZ7
 BTL  SZ EP       19 1 52.09                             171     0.110   22 311 
 BTL  SZ ES   1   19 2  7.23                             171     0.3 7   22 311 
 BAR2 SZ EP       19 1 51.83                             170    -0.210   23 198 
 BAR2 SZ ES   1   19 2  6.97                             170     0.0 7   23 198 
 BAR2 SZ I        19 2  9.74        41.2 0.21                            23 198 
 GIR2 SZ EP       19 1 51.98                             166    -0.110   33 346 
 GIR2 SZ ES   2   19 2  7.13                             166     0.0 5   33 346 
 RUS  HZ EP       19 1 55.72                             144    -0.410   99 178 
 RUS  HN ES   1   19 2 14.76                             144     0.5 7   99 178 
 RUS  HZ I        19 2 16.16        17.8 0.34                            99 178 
 GRA  SZ EP       19 1 57.62                             136    -0.110  126  16 
 GRA  SZ ES   1   19 2 17.18                             136     0.0 7  126  16 
 GRA  SZ I        19 2 18.59        20.3 0.40                           126  16 
 OCA  SZ EP   2   19 2  1.67                             129     0.7 5  162 352 
 OCA  SZ I        19 2 28.14        16.7 0.39                           162 352 
 NOR  SZ EP       19 2  8.09                             118    -0.4 8  237 235 
 NOR  SN ES   2   19 2 35.57                             118    -0.8 4  237 235 
 HEL  HZ EP   2   19 2 13.48                             114     0.4 4  275 256 
 HEL  HZ I        19 2 49.96         9.0 0.57                           275 256 
 GUY  SZ EP       19 2 17.65                             112     1.2 7  303 235 
 GUY  SZ I        19 2 58.16        17.8 0.39                           303 235 
 DBB  SZ EP       19 2 20.11                             109    -0.3 7  342 274 
                                                                                
