 2011  325 1622 43.2 L   6.774 -73.112140.6  RSN  6 0.5 2.1LRSN                1
 GAP=186        0.91       7.3     9.7  8.4 -0.3602E+02 -0.1453E+01  0.1273E+02E
 Epicentro: LOS SANTOS - SANTANDER                                             3
 ACTION:UP  11-06-16 14:35 OP:jfem STATUS:               ID:20110325162243 L   I
 2011-03-25-1621-31S.COL___123                                                 6
 STAT SP IPHASW D HRMM SECON CODA AMPLIT PERI AZIMU VELO SNR AR TRES W  DIS CAZ7
 BAR2 SZ EP       1623  1.98                             171    -0.210   22 202 
 BAR2 SZ ES   1   1623 16.87                             171    -0.1 7   22 202 
 BAR2 SZ I        1623 17.78        12.7 0.21                            22 202 
 BRR  HZ EP   1   1623  3.82                             150    -0.3 7   76 299 
 BRR  HZ I        1623 10.71        22.3 0.12                            76 299 
 BRR  HE ES   1   1623 20.51                             150     0.2 7   76 299 
 GRA  SZ EP   1   1623  8.86                             135     0.7 7  127  15 
 OCA  SZ EP   2   1623 11.01                             128    -0.4 5  164 352 
 OCA  SZ I        1623 37.08        13.9 0.53                           164 352 
 NOR  SZ EP   1   1623 17.99                             117    -0.8 6  236 236 
 NOR  SN ES   1   1623 46.92                             117     0.3 6  236 236 
 PRA  HZ EP   1   1623 36.78                             106     0.3 4  391 210 
 PRA  HN ES   1   1624 18.74                             106     0.7 4  391 210 
 PRA  HZ I        1624 25.31        14.0 0.18                           391 210 
                                                                                
