 2016  725 1046 41.6 L   6.744 -73.153146.6  RSN  5 0.4 1.5LRSN                1
 GAP=232        1.13       6.4     8.1  9.0  0.2348E+02  0.1423E+02  0.6333E+01E
 Epicentro: LOS SANTOS - SANTANDER                                             3
 ACTION:UPD 17-03-29 16:55 OP:lp   STATUS:               ID:20160725104641 L   I
 OLDACT:REG 16-07-25 21:14 OP:ar   STATUS:               ID:20160725103759     3
 2016-07-25-1037-59S.COL___322                                                 6
 STAT SP IPHASW D HRMM SECON CODA AMPLIT PERI AZIMU VELO AIN AR TRES W  DIS CAZ7
 BAR2 EZ EP       1047  0.83                             173   -0.4110 17.1 191 
 BAR2 EZ ES       1047 15.94                             173   -0.6010 17.1 191 
 BAR2 EZ I        1047 18.59         8.9 0.38            170           17.1 191 
 BRR  HZ EP       1047  3.46                             152    0.4610 73.7 303 
 BRR  HN ES       1047 20.15                             152    0.4810 73.7 303 
 RUS  HZ EP       1047  4.76                             146   -0.2610 94.5 175 
 RUS  HN ES       1047 23.89                             146    0.6110 94.5 175 
 RUS  HZ I        1047 24.73         2.6 0.25            146           94.5 175 
 SPBC HZ EP       1047  9.93                             130    0.24 9  158 220 
 SPBC HN ES       1047 31.32                             130   -0.26 9  158 220 
 SPBC HZ I        1047 34.44         6.2 0.30            130            158 220 
 ZAR  HN ES       1047 39.42                             122   -0.36 8  206 294 
 ZAR  HZ I        1047 45.09         2.8 0.30            122            206 294 
 GUY2CHZ EP   4   1047 26.81                             113    2.01 0  297 236 
 GUY2CHN ES   4   1048  3.56                             113    5.09 0  297 236 
                                                                                
