 2017  225 1035 43.4 L   6.750 -73.158145.9  RSN  8 0.5 1.4LRSN                1
 GAP=137        1.23       4.5     5.4  7.3  0.1932E+01  0.1063E+02  0.8742E+01E
 Epicentro: LOS SANTOS - SANTANDER                                             3
 ACTION:UPD 17-05-24 15:40 OP:jn   STATUS:               ID:20170225103543 L   I
 OLDACT:REG 17-02-25 19:56 OP:edw  STATUS:               ID:20170225102739     3
 2017-02-25-1028-00M.COL___369                                                 6
 STAT SP IPHASW D HRMM SECON CODA AMPLIT PERI AZIMU VELO AIN AR TRES W  DIS CAZ7
 BAR2 EZ IP     D 1036  2.88                             173   -0.0610 17.7 189 
 BAR2 EZ ES       1036 18.20                             173    0.0110 17.7 189 
 BAR2 EZ I        1036 19.57         5.7 0.22            170           17.7 189 
 BRR  HZ EP       1036  4.88                             152    0.2310 72.8 303 
 BRR  HN ES       1036 22.17                             152    0.9410 72.8 303 
 PAM  EZ EP       1036  5.74                             149   -0.2010 82.6  38 
 PAM  EN ES       1036 23.03                             149   -0.5010 82.6  38 
 PAM  EZ I        1036 24.73         4.7 0.60            154           82.6  38 
 RUS  HZ EP       1036  7.02                             145    0.2410 95.2 175 
 RUS  HN ES       1036 25.27                             145    0.2510 95.2 175 
 RUS  HZ I        1036 26.66         2.4 0.16            145           95.2 175 
 PTB  HZ EP       1036  9.92                             133   -0.24 9  145 261 
 PTB  HN ES       1036 30.26                             133   -0.78 9  145 261 
 PTB  HZ I        1036 36.71         3.0 0.21            131            145 261 
 ZAR  HZ EP       1036 15.55                             122   -0.39 9  205 294 
 ZAR  HN ES       1036 41.42                             122    0.10 9  205 294 
 ZAR  HZ I        1036 47.36         3.4 0.52            122            205 294 
 CHI  HZ EP       1036 21.09                             118    0.60 8  243 195 
 CHI  HN ES       1036 48.42                             118   -1.00 8  243 195 
 CHI  HZ I        1036 54.10         1.3 0.54            118            243 195 
 PRA  HZ EP       1036 37.30                             107    1.02 6  387 210 
 PRA  HN ES       1037 17.78                             107    0.25 6  387 210 
 PRA  HZ I        1037 25.64         1.4 0.30            107            387 210 
                                                                                
