 2017  225 1017  3.2 L   6.932 -73.189122.2  RSN  6 0.4 1.3LRSN                1
 GAP=124        1.01       5.2     5.6  7.8  0.1105E+02  0.1701E+02  0.5438E+01E
 Epicentro: BETULIA - SANTANDER                                                3
 ACTION:UPD 17-05-24 15:40 OP:jn   STATUS:               ID:20170225101703 L   I
 OLDACT:UP  17-02-25 21:40 OP:edw  STATUS:               ID:20170225100743d    3
 OLDACT:DUP 17-02-25 21:37 OP:edw  STATUS:               ID:20170225100743d    3
 OLDACT:UP  17-02-25 21:37 OP:edw  STATUS:               ID:20170225100742d    3
 OLDACT:DUP 17-02-25 21:32 OP:edw  STATUS:               ID:20170225100742d    3
 OLDACT:REG 17-02-25 19:53 OP:edw  STATUS:               ID:20170225100741     3
 2017-02-25-1008-00M.COL___367                                                 6
 STAT SP IPHASW D HRMM SECON CODA AMPLIT PERI AZIMU VELO AIN AR TRES W  DIS CAZ7
 BAR2 EZ IP     D 1017 20.88                             162    0.4010 37.6 179 
 BAR2 EZ ES       1017 33.76                             162   -0.1710 37.6 179 
 BAR2 EZ I        1017 35.28        13.3 0.18            161           37.6 179 
 BRR  HZ EP       1017 21.43                             152    0.1710 61.0 289 
 BRR  HN ES       1017 35.90                             152    0.5910 61.0 289 
 PAM  EN ES       1017 37.29                             148   -0.3010 70.4  50 
 RUS  HZ EP       1017 26.40                             134    0.3910  116 174 
 RUS  HN ES       1017 43.31                             134   -0.4710  116 174 
 RUS  HZ I        1017 45.01         2.6 0.36            134            116 174 
 PTB  HZ EP   4   1017 26.25                             126   -2.03 0  147 253 
 PTB  HN ES   4   1017 43.44                             126   -4.38 0  147 253 
 PTB  HZ I        1017 48.96         1.7 0.12            126            147 253 
 ZAR  HZ EP       1017 32.93                             118   -0.29 9  194 289 
 ZAR  HN ES       1017 56.09                             118   -0.53 9  194 289 
 ZAR  HZ I        1017 59.84         1.3 0.10            118            194 289 
                                                                                
