 2016 1025 1024 15.7 L   6.801 -73.136151.9  RSN  8 0.3 1.7LRSN                1
 GAP=138        0.74       3.2     3.7  4.7 -0.3095E+01  0.1372E+01  0.4452E+01E
 Epicentro: LOS SANTOS - SANTANDER                                             3
 ACTION:UPD 16-11-09 19:22 OP:rebc STATUS:               ID:20161025102416dL   I
 OLDACT:DUP 16-10-25 22:52 OP:cog  STATUS:               ID:20161025101745d    3
 OLDACT:DUP 16-10-25 22:38 OP:cog  STATUS:               ID:20161025101744d    3
 2016-10-25-1018-00M.COL___343                                                 6
 STAT SP IPHASW D HRMM SECON CODA AMPLIT PERI AZIMU VELO AIN AR TRES W  DIS CAZ7
 BAR2 EZ EP       1024 36.03                             171   -0.0510 23.7 192 
 BAR2 HE ES       1024 51.41                             171   -0.5710 23.7 192 
 BAR2 EZ I        1024 53.72        15.1 0.22            167           23.7 192 
 BRR  HE EP   2   1024 38.16                             153    0.59 5 72.1 298 
 BRR  HN ES       1024 54.88                             153    0.2610 72.1 298 
 BRR  HZ I        1024 57.17        11.3 0.34            151           72.1 298 
 PAM  EZ EP       1024 38.93                             152    0.4010 76.6  39 
 PAM  EE ES       1024 56.29                             152   -0.0510 76.6  39 
 PAM  EZ I        1024 56.78         7.6 0.24            158           76.6  39 
 RUS  HZ EP       1024 39.98                             145   -0.0910  101 177 
 RUS  HE ES       1024 59.32                             145    0.2410  101 177 
 RUS  HZ I        1024 59.69         3.5 0.18            145            101 177 
 PTB  HZ EP       1024 42.83                             133   -0.45 9  149 259 
 PTB  HE ES       1025  4.74                             133   -0.04 9  149 259 
 PTB  HZ I        1025 11.23         7.0 0.31            132            149 259 
 SPBC HZ EP       1024 44.82                             130    0.06 9  164 219 
 SPBC HN ES       1025  7.45                             130    0.03 9  164 219 
 SPBC HZ I        1025 14.75        10.8 0.28            130            164 219 
 NOR  HZ EP   2   1024 51.95                             120    0.05 4  236 235 
 NOR  HN ES   2   1025 20.58                             120    0.45 4  236 235 
 CHI  HZ EP       1024 53.35                             118   -0.45 8  249 195 
 CHI  HN ES       1025 23.91                             118    0.40 8  249 195 
 CHI  HZ I        1025 28.57         3.8 0.52            119            249 195 
                                                                                
