 2017  125 1322 58.5 L   6.798 -73.129140.8  RSN  4 0.4 1.4LRSN                1
 GAP=245        0.71       5.6     7.8  7.2  0.3003E+02  0.2528E+02  0.1223E+02E
 Epicentro: LOS SANTOS - SANTANDER                                             3
 ACTION:UPD 17-05-22 16:03 OP:jn   STATUS:               ID:20170125132258 L   I
 OLDACT:REG 17-01-25 21:27 OP:dnl  STATUS:               ID:20170125131742     3
 2017-01-25-1318-00M.COL___349                                                 6
 STAT SP IPHASW D HRMM SECON CODA AMPLIT PERI AZIMU VELO AIN AR TRES W  DIS CAZ7
 BAR2 EZ EP   2   1323 18.52                             170    1.01 5 23.5 195 
 BAR2 EZ ES       1323 32.22                             170   -0.1310 23.5 195 
 BAR2 EZ I        1323 33.66         8.9 0.28            160           23.5 195 
 RUS  HZ EP       1323 21.35                             143   -0.3610  100 177 
 RUS  HN ES       1323 39.99                             143    0.1610  100 177 
 RUS  HZ I        1323 40.95         2.1 0.28            139            100 177 
 ZAR  HZ EP   2   1323 31.19                             121    0.40 4  206 292 
 ZAR  HE ES       1323 55.97                             121   -0.03 8  206 292 
 ZAR  HZ I        1324  1.35         2.3 0.52            119            206 292 
 CHI  HZ EP   2   1323 35.33                             116   -0.60 4  249 196 
 CHI  HN ES       1324  5.34                             116    0.20 8  249 196 
 CHI  HZ I        1324 11.13         1.4 0.56            115            249 196 
                                                                                
