 2015  125 1308 56.2 L   5.875 -74.095 92.0  RSN  7 0.5 1.7LRSN                1
 GAP=131        1.15       4.6     4.3  7.0 -0.1001E+02  0.1847E+01 -0.3955E+01E
 Epicentro: LA BELLEZA - SANTANDER                                             3
 ACTION:UPD 15-03-02 15:42 OP:nd   STATUS:               ID:20150125130856 L   I
 OLDACT:REG 15-01-25 23:57 OP:carl STATUS:               ID:20150125130749     3
 2015-01-25-1307-49M.COL___274                                                 6
 STAT SP IPHASW D HRMM SECON CODA AMPLIT PERI AZIMU VELO AIN AR TRES W  DIS CAZ7
 SPBC HZ IP     D 13 9  9.14                             164   -0.1110 24.7 174 
 SPBC HN ES       13 9 19.80                             164    0.3810 24.7 174 
 SPBC HZ I        13 9 20.66        26.9 0.10            170           24.7 174 
 PTB  HZ EP       13 9 12.43                             134   -0.5510 83.7 331 
 PTB  HN ES       13 9 25.73                             134   -0.3310 83.7 331 
 PTB  HZ I        13 9 30.64         6.0 0.18            133           83.7 331 
 NOR  HZ EP       13 9 13.46                             131   -0.3710 92.4 248 
 NOR  HN ES       13 9 27.24                             131   -0.3210 92.4 248 
 NOR  HZ I        13 9 29.58        33.0 0.12            133           92.4 248 
 GUY2CHZ EP       13 9 21.20                             116    0.03 9  158 243 
 GUY2CHN ES       13 9 40.21                             116   -0.42 9  158 243 
 GUY2CHZ I        13 9 44.35         9.1 0.42                           158 243 
 HEL  HZ EP       13 9 21.48                             115   -0.06 9  163 282 
 HEL  HE ES       13 9 42.39                             115    1.11 9  163 282 
 HEL  HZ I        13 9 45.17        10.8 0.44            116            163 282 
 RREF HZ EP       13 9 23.10                             113   -0.25 9  176 232 
 RREF HN ES       13 9 45.14                             113    0.63 9  176 232 
 RREF HZ I        13 9 46.88         6.8 0.30            116            176 232 
 PAM  SZ EP       13 9 29.15                             108    0.44 8  224  44 
 PAM  SN ES       13 9 54.29                             108    0.23 8  224  44 
 PAM  SZ I        13 9 58.65         3.6 0.54            109            224  44 
                                                                                
