 2014  225 1850 46.3 L   6.801 -73.145148.4  RSN  6 0.3 1.7LRSN                1
 GAP=136        0.80       2.8     4.3  7.1 -0.2519E+01  0.8687E+01 -0.1986E+01E
 Epicentro: LOS SANTOS - SANTANDER                                             3
 ACTION:UPD 14-03-10 08:13 OP:ep   STATUS:               ID:20140225185046 L   I
 OLDACT:REG 14-02-25 16:05 OP:cam  STATUS:               ID:20140225184818     3
 2014-02-25-1848-18M.COL___242                                                 6
 STAT SP IPHASW D HRMM SECON CODA AMPLIT PERI AZIMU VELO AIN AR TRES W  DIS CAZ7
 PAM  SZ EP       1851  8.99                             151    0.2410 77.3  40 
 PAM  SN ES       1851 26.30                             151    0.0110 77.3  40 
 PAM  SZ I        1851 28.26         5.8 0.20            154           77.3  40 
 RUS  HZ EP       1851 10.01                             144   -0.2710  101 176 
 RUS  HE ES       1851 28.75                             144   -0.2610  101 176 
 RUS  HZ I        1851 29.93         3.5 0.42            144            101 176 
 PTB  HZ EP       1851 13.11                             133   -0.34 9  148 259 
 PTB  HN ES       1851 34.32                             133   -0.33 9  148 259 
 PTB  HZ I        1851 37.49         4.8 0.16            132            148 259 
 SPBC HN ES       1851 37.84                             130    0.47 9  163 219 
 SPBC HZ I        1851 42.91        10.8 0.20            129            163 219 
 SML  HZ EP   1   1851 23.00                             118   -0.02 6  244 335 
 SML  HN ES       1851 52.03                             118    0.33 8  244 335 
 SML  HZ I        1851 54.63        10.1 0.10            119            244 335 
 CHI  HZ EP   1   1851 23.75                             118   -0.37 6  249 195 
 CHI  HE ES       1851 54.28                             118    0.63 8  249 195 
 CHI  HZ I        1852  1.79         1.9 0.40            118            249 195 
                                                                                
