 2014  625 1111 27.2 L   6.848 -73.178142.6  RSN 15 0.4 2.4LRSN                1
 GAP=130        0.84       2.1     3.1  4.5 -0.1157E+01  0.5470E+01  0.9296E+00E
 Epicentro: ZAPATOCA - SANTANDER                                               3
 ACTION:UPD 14-07-01 22:56 OP:nd   STATUS:               ID:20140625111127 L   I
 OLDACT:REG 14-06-25 20:22 OP:carl STATUS:               ID:20140625110817     3
 2014-06-25-1108-17M.COL___253                                                 6
 STAT SP IPHASW D HRMM SECON CODA AMPLIT PERI AZIMU VELO AIN AR TRES W  DIS CAZ7
 BAR2 SZ EP     D 1111 46.62                             168    0.1010 28.2 181 
 BAR2 SZ ES       1112  1.60                             168   -0.0210 28.2 181 
 BAR2 SZ I        1112  3.09        48.3 0.46            167           28.2 181 
 PAM  SZ EP     D 1111 49.35                             151    0.4010 75.8  44 
 PAM  SN ES       1112  6.01                             151    0.0710 75.8  44 
 PAM  SZ I        1112  8.58        32.9 0.42            156           75.8  44 
 RUS  HZ EP       1111 50.70                             142   -0.3110  106 174 
 RUS  HN ES       1112  9.86                             142    0.2410  106 174 
 RUS  HZ I        1112 11.19        24.3 0.34            145            106 174 
 PTB  HZ EP       1111 53.14                             132   -0.51 9  145 257 
 PTB  HN ES       1112 14.03                             132   -0.29 9  145 257 
 PTB  HZ I        1112 21.56        37.5 0.44            131            145 257 
 OCA  HZ EP       1111 54.64                             130   -0.06 9  155 354 
 OCA  HN ES       1112 16.06                             130   -0.11 9  155 354 
 OCA  HZ I        1112 20.28        23.3 0.16            131            155 354 
 ZAR  HZ EP       1111 59.05                             122    0.20 9  199 291 
 ZAR  HN ES       1112 23.86                             122    0.28 9  199 291 
 ZAR  HZ I        1112 32.38        28.1 0.32            122            199 291 
 NOR  HZ EP       1112  2.66                             118   -0.07 8  235 233 
 NOR  HN ES       1112 29.97                             118   -0.51 8  235 233 
 NOR  HZ I        1112 36.49        16.1 0.38            119            235 233 
 SML  HZ EP       1112  2.70                             117   -0.23 8  237 336 
 SML  HN ES       1112 30.58                             117   -0.25 8  237 336 
 SML  HZ I        1112 40.73        29.0 0.10            119            237 336 
 CHI  HZ EP       1112  4.85                             116   -0.29 8  253 194 
 CHI  HN ES       1112 34.56                             116   -0.21 8  253 194 
 CHI  HZ I        1112 37.30        11.9 0.28            118            253 194 
 HEL  HZ EP   4   1112  8.26                             114    1.28 0  270 255 
 HEL  HN ES       1112 38.18                             114    0.15 8  270 255 
 HEL  HZ I        1112 45.26        13.9 0.30            115            270 255 
 URE  HZ EP   4   1112  6.83                             113   -0.66 0  279 291 
 URE  HN ES   4   1112 43.63                             113    4.69 0  279 291 
 GUY2CHZ EP       1112 11.20                             112    0.56 7  301 234 
 GUY2CHE ES       1112 45.21                             112    0.65 7  301 234 
 GUY2CHZ I        1112 53.04        10.3 0.32                           301 234 
 RREF HZ EP   4   1112 15.01                             110    1.76 0  323 228 
 RREF HN ES   4   1112 51.83                             110    2.62 0  323 228 
 RREF HZ I        1112 58.36        12.3 0.26            112            323 228 
 TOL  SZ EP       1112 16.64                             109    1.20 7  345 224 
 TOL  SN ES       1112 53.51                             109    0.42 7  345 224 
 TOL  SZ I        1113  0.01        22.0 0.52            110            345 224 
 PRA  HZ EP       1112 20.19                             106   -0.72 6  395 209 
 PRA  HN ES       1113  2.14                             106   -0.69 6  395 209 
 PRA  HZ I        1113 10.16        13.7 0.46            108            395 209 
 ORTC HZ EP       1112 21.41                             106    0.18 6  398 215 
 ORTC HN ES       1113  3.51                             106    0.11 6  398 215 
 ORTC HZ I        1113  9.13        10.6 0.50            107            398 215 
 SJC  HZ EP   4   1112 21.12                             105   -0.75 0  403 327 
 SJC  HN ES   4   1113  1.31                             105   -3.23 0  403 327 
                                                                                
