 2017 1125 1627 58.8 L   6.846 -73.186150.0  RSN  5 0.2 1.2LRSN                1
 GAP=148        0.53       3.4     3.1  4.5 -0.3662E+01  0.3999E+01 -0.1274E+01E
 Epicentro: ZAPATOCA - SANTANDER                                               3
 ACTION:UPD 17-12-12 20:00 OP:rebc STATUS:               ID:20171125162758 L   I
 OLDACT:REG 17-11-25 22:39 OP:edw  STATUS:               ID:20171125162744     3
 2017-11-25-1628-00M.COL___489                                                 6
 STAT SP IPHASW D HRMM SECON CODA AMPLIT PERI AZIMU VELO AIN AR TRES W  DIS CAZ7
 BAR2 EZ EP       1628 19.01                             169   -0.0710 28.1 179 
 BAR2 EZ ES       1628 35.03                             169    0.1610 28.1 179 
 BAR2 EZ I        1628 42.38         5.7 0.48            170           28.1 179 
 PAM  EZ EP       1628 21.75                             152    0.2910 76.6  45 
 PAM  EN ES       1628 38.94                             152   -0.1610 76.6  45 
 PAM  EZ I        1628 40.60         2.2 0.34            156           76.6  45 
 RUS  HZ EP       1628 23.18                             143   -0.2310  106 174 
 RUS  HN ES       1628 42.62                             143    0.0510  106 174 
 RUS  HZ I        1628 43.67         1.5 0.30            147            106 174 
 PTB  HZ EP       1628 25.92                             134    0.05 9  145 256 
 PTB  HN ES       1628 46.73                             134   -0.22 9  145 256 
 PTB  HZ I        1628 48.54         1.8 0.40            138            145 256 
 NOR  HZ ES   2   1629  3.38                             119    0.60 4  234 233 
                                                                                
