 2010  125 1609 47.7 L   6.789 -72.976148.6  RSN  5 0.4 2.1LRSN                1
 GAP=315        0.59       7.6    11.8  6.4 -0.3055E+02  0.1733E+02  0.9871E+01E
 Epicentro: CEPITA - SANTANDER                                                 3
 ACTION:UP  10-08-24 09:45 OP:vdl  STATUS:               ID:20100125160947 L   I
 2010-01-25-1608-42S.COL___095                                                 6
 STAT SP IPHASW D HRMM SECON CODA AMPLIT PERI AZIMU VELO SNR AR TRES W  DIS CAZ7
 BAR2 SZ EP   1   1610  7.82                             167     0.0 7   32 227 
 BAR2 SZ ES   1   1610 23.31                             167    -0.2 7   32 227 
 RUS  BZ EP   1   1610 11.89                             144     0.2 7  100 187 
 RUS  BN ES   1   1610 30.54                             144     0.2 7  100 187 
 RUS  BZ I        1610 31.82        12.2 0.57                           100 187 
 CHI  HZ EP   1   1610 25.90                             117    -0.1 6  253 199 
 CHI  HN ES   2   1610 55.35                             117    -0.6 4  253 199 
 CHI  HZ I        1611  4.78         5.1 0.45                           253 199 
 RREF BE ES   2   1611 13.70                             110     0.9 3  336 232 
 RREF BZ I        1611 17.69         7.8 0.31                           336 232 
 PRA  HZ EP   1   1610 42.07                             106    -0.2 4  401 212 
 PRA  HE ES   2   1611 24.31                             106    -0.6 3  401 212 
 PRA  HZ I        1611 27.86         7.1 0.53                           401 212 
                                                                                
