 2012 1025 1054 37.0 L   6.762 -73.113138.5  RSN  4 0.3 1.5LRSN                1
 GAP=142        0.47       3.5     4.6  7.4  0.1367E+01 -0.2061E+01 -0.4809E+01E
 Epicentro: LOS SANTOS - SANTANDER                                             3
 ACTION:UPD 12-11-22 17:05 OP:ep   STATUS:               ID:20121025105437 L   I
 2012-10-25-1050-00M.COL___234                                                 6
 STAT SP IPHASW D HRMM SECON CODA AMPLIT PERI AZIMU VELO AIN AR TRES W  DIS CAZ7
 BRR  HZ EP   2   1054 58.00                             149    0.28 5 76.4 300 
 BRR  HZ I        1055  7.46        10.5 0.47                          76.4 300 
 BRR  HE ES   2   1055 14.33                             149    0.47 5 76.4 300 
 PAM  SZ EP       1054 58.58                             149    0.0210 78.5  36 
 PAM  SZ I        1054 58.90         5.6 0.19                          78.5  36 
 PAM  SN ES   2   1055 15.03                             149   -0.31 5 78.5  36 
 RUS  HZ EP   1   1054 59.78                             143    0.02 7 96.2 178 
 RUS  HN ES   1   1055 17.41                             143   -0.08 7 96.2 178 
 RUS  HN I        1055 20.94         3.5 0.21                          96.2 178 
 ZAR  HN ES   2   1055 34.35                             120   -0.55 4  209 293 
 ZAR  HZ I        1055 39.90         1.9 0.22                           209 293 
                                                                                
