 2017  125 1730 55.1 L   6.554 -73.533112.0  RSN 13 0.5 2.2LRSN                1
 GAP= 52        1.02       2.9     2.8  5.2  0.6758E-01  0.4736E+01  0.2482E+01E
 Epicentro: EL CARMEN - SANTANDER                                              3
 ACTION:UPD 17-05-22 16:03 OP:jn   STATUS:               ID:20170125173055 L   I
 OLDACT:UP  17-01-25 23:50 OP:dani STATUS:               ID:20170125172743     3
 OLDACT:UP  17-01-25 23:49 OP:dani STATUS:               ID:20170125172743     3
 OLDACT:REG 17-01-25 21:36 OP:dnl  STATUS:               ID:20170125172743     3
 2017-01-25-1728-00M.COL___360                                                 6
 STAT SP IPHASW D HRMM SECON CODA AMPLIT PERI AZIMU VELO AIN AR TRES W  DIS CAZ7
 BAR2 EZ EP     C 1731 11.39                             159    0.1110 39.0  84 
 BAR2 EZ ES       1731 24.10                             159    0.2410 39.0  84 
 BRR  HZ EP       1731 12.32                             148    0.0210 64.3 342 
 BRR  HE ES       1731 26.01                             148    0.3210 64.3 342 
 BRR  HZ I        1731 33.52        43.1 0.10            148           64.3 342 
 RUS  HZ EP       1731 14.30                             139   -0.4510 88.4 146 
 RUS  HN ES       1731 29.75                             139   -0.2910 88.4 146 
 RUS  HZ I        1731 31.21        28.8 0.24            141           88.4 146 
 PTB  HZ IP   9 C 1731 14.18                             134   -1.06 0  102 269 
 PTB  HN ES       1731 29.10                             134   -0.7510  102 269 
 PTB  HZ I        1731 30.59        73.3 0.50            135            102 269 
 PAM  EZ EP       1731 18.14                             128    0.0210  127  47 
 PAM  EE ES       1731 36.11                             128    0.0610  127  47 
 PAM  EZ I        1731 38.42        16.0 0.36            130            127  47 
 ZAR  HZ EP       1731 23.28                             117    0.34 9  179 305 
 ZAR  HE ES   3   1731 46.84                             117    2.22 2  179 305 
 ZAR  HZ I        1731 51.12        39.4 0.34            118            179 305 
 NOR  HZ EP       1731 22.93                             116   -0.56 9  184 234 
 NOR  HE ES   3   1731 44.45                             116   -1.15 2  184 234 
 NOR  HZ I        1731 48.37        22.8 0.18            118            184 234 
 TAM  HZ EP       1731 24.16                             115   -0.31 9  193  94 
 TAM  HN ES       1731 47.32                             115   -0.02 9  193  94 
 TAM  HZ I        1731 54.12        14.2 0.46            117            193  94 
 CHI  HZ EP       1731 27.17                             113   -0.09 8  214 186 
 CHI  HN ES       1731 52.48                             113    0.17 8  214 186 
 CHI  HZ I        1731 56.22         8.2 0.26            114            214 186 
 URE  HZ EP       1731 31.97                             108    0.22 8  258 301 
 URE  HN ES       1731 59.02                             108   -1.28 8  258 301 
 CBOC HZ EP   3   1731 36.80                             106    1.68 2  285 255 
 CBOC HE ES       1732  6.93                             106    0.63 7  285 255 
 CBOC HZ I        1732 10.33        10.5 0.34            107            285 255 
 ORTC HZ EP       1731 43.33                             102    0.81 6  349 213 
 ORTC HN ES       1732 19.83                             102    0.36 6  349 213 
 ORTC HZ I        1732 27.43         6.2 0.31            103            349 213 
 SJC  HE ES   4   1732 30.44                              99   -2.56 0  412 334 
 CRJC HZ EP   3   1731 59.41                              96   -1.30 1  499   8 
 CRJC HE ES       1732 52.08                              96    0.22 4  499   8 
 CRJC HZ I        1732 55.16         6.9 0.28             97            499   8 
                                                                                
