 2017  325 1551 51.8 L   6.813 -73.155147.3  RSN  9 0.5 2.0LRSN                1
 GAP=135        1.20       4.4     4.9  6.9  0.5876E-01  0.9509E+01  0.8220E+01E
 Epicentro: LOS SANTOS - SANTANDER                                             3
 ACTION:UPD 17-05-25 18:45 OP:jn   STATUS:               ID:20170325155152dL   I
 OLDACT:REG 17-03-25 17:40 OP:dani STATUS:               ID:20170325154741     3
 2017-03-25-1548-00M.COL___373                                                 6
 STAT SP IPHASW D HRMM SECON CODA AMPLIT PERI AZIMU VELO AIN AR TRES W  DIS CAZ7
 BAR2 EZ EP       1552 11.49                             170   -0.1510 24.6 187 
 BAR2 EZ ES       1552 26.22                             170   -0.9010 24.6 187 
 BAR2 EZ I        1552 27.57        29.5 0.32            169           24.6 187 
 BRR  HZ EP       1552 13.32                             153    0.3010 69.6 298 
 BRR  HE ES       1552 30.63                             153    1.0510 69.6 298 
 BRR  HZ I        1552 33.46        14.4 0.28            151           69.6 298 
 PAM  EZ EP       1552 14.54                             151    0.3910 76.9  41 
 PAM  EN ES       1552 31.56                             151   -0.0310 76.9  41 
 PAM  EZ I        1552 33.62        17.7 0.52            154           76.9  41 
 RUS  HZ EP       1552 15.89                             144    0.0810  102 176 
 RUS  HE ES       1552 34.59                             144    0.0510  102 176 
 RUS  HZ I        1552 35.27        10.8 0.24            145            102 176 
 PTB  HZ EP       1552 18.30                             132   -0.52 9  147 258 
 PTB  HE ES       1552 40.12                             132    0.22 9  147 258 
 PTB  HZ I        1552 41.29        11.3 0.14            131            147 258 
 ZAR  HZ EP       1552 23.77                             123   -0.42 9  203 292 
 ZAR  HE ES       1552 48.65                             123   -0.80 9  203 292 
 ZAR  HZ I        1552 56.66                             123            203 292 
 NOR  HZ EP       1552 27.67                             119    0.05 8  235 234 
 NOR  HN ES       1552 55.77                             119    0.22 8  235 234 
 NOR  HZ I        1553  0.22         6.6 0.18            119            235 234 
 CHI  HZ EP       1552 29.64                             117   -0.06 8  250 195 
 CHI  HN ES       1552 58.94                             117   -0.33 8  250 195 
 CHI  HZ I        1553  2.32         5.8 0.43            118            250 195 
 PRA  HZ EP       1552 45.90                             107    0.44 6  393 209 
 PRA  HN ES       1553 28.16                             107    0.84 6  393 209 
 PRA  HZ I        1553 35.62         3.3 0.39            107            393 209 
                                                                                
