 2017  925 1739 55.7 L   6.590 -73.348  4.3  RSN  4 0.3 0.9LRSN                1
 GAP=142        0.70       2.2     2.5  6.6  0.2991E+01  0.7814E+01  0.1206E+01E
 Epicentro: HATO - SANTANDER                                                   3
 ACTION:UPD 17-10-05 19:16 OP:rebc STATUS:               ID:20170925173955 L   I
 OLDACT:REG 17-09-25 21:32 OP:osc  STATUS:               ID:20170925173746     3
 2017-09-25-1738-00M.COL___431                                                 6
 STAT SP IPHASW D HRMM SECON CODA AMPLIT PERI AZIMU VELO AIN AR TRES W  DIS CAZ7
 BAR2 EZ EP       1739 58.97                              91   -0.3910 18.3  89 
 BAR2 EZ ES       1740  2.39                              91    0.2110 18.3  89 
 BAR2 EZ I        1740  3.84        20.2 0.40             97           18.3  89 
 BRR  HZ EP       1740  7.29                              90    0.3710 69.9 325 
 BRR  HE ES       1740 15.40                              90   -0.2410 69.9 325 
 RUS  HZ EP       1740  9.56                              90    0.2110 82.5 159 
 RUS  HN ES       1740 19.82                              90   -0.1510 82.5 159 
 RUS  HZ I        1740 21.30         3.7 0.30             47           82.5 159 
 ZAR  HN ES       1740 48.32                              56   -0.00 9  194 301 
                                                                                
