 2016  125 1659 39.7 L   6.838 -73.325126.1  RSN  5 0.3 1.6LRSN                1
 GAP=128        0.67       2.8     3.6  5.7  0.1933E+01  0.8665E+01 -0.4205E+01E
 Epicentro: ZAPATOCA - SANTANDER                                               3
 ACTION:UPD 16-03-09 23:28 OP:cam  STATUS:               ID:20160125165939 L   I
 OLDACT:REG 16-01-26 00:34 OP:ak   STATUS:               ID:20160125165449     3
 2016-01-25-1654-49M.COL___331                                                 6
 STAT SP IPHASW D HRMM SECON CODA AMPLIT PERI AZIMU VELO AIN AR TRES W  DIS CAZ7
 BAR2 EZ EP       1659 57.40                             165    0.2410 31.4 150 
 BAR2 EZ ES       17 0 10.51                             165   -0.2910 31.4 150 
 BAR2 EZ I        17 0 11.13         6.8 0.10            170           31.4 150 
 PAM  EZ EP       17 0  0.66                             143    0.0410 88.5  51 
 PAM  EN ES       17 0 17.24                             143    0.2910 88.5  51 
 PAM  EZ I        17 0 20.49         4.9 0.38            145           88.5  51 
 RUS  HZ EP       17 0  2.19                             137    0.0510  108 166 
 RUS  HE ES       17 0 19.48                             137   -0.1910  108 166 
 RUS  HZ I        17 0 21.08         4.1 0.26            142            108 166 
 ZAR  HZ EP       17 0  8.79                             120   -0.01 9  184 293 
 ZAR  HN ES       17 0 31.92                             120    0.41 9  184 293 
 ZAR  HZ I        17 0 35.96         5.5 0.44            122            184 293 
 SML  HZ EP       17 0 13.79                             114   -0.19 8  232 339 
 SML  HN ES       17 0 40.24                             114   -0.50 8  232 339 
 SML  HZ I        17 0 46.15        10.5 0.07            116            232 339 
                                                                                
