 2017  825 1051 54.1 L   6.769 -73.177149.5  RSN  5 0.3 1.3LRSN                1
 GAP=232        0.74       4.3     5.3  5.9  0.1034E+02  0.5762E+01  0.2870E+01E
 Epicentro: LOS SANTOS - SANTANDER                                             3
 ACTION:UPD 17-09-04 20:24 OP:rebc STATUS:               ID:20170825105154 L   I
 OLDACT:UP  17-08-25 21:31 OP:edw  STATUS:               ID:20170825104741d    3
 OLDACT:DUP 17-08-25 21:29 OP:edw  STATUS:               ID:20170825104741d    3
 2017-08-25-1048-00M.COL___399                                                 6
 STAT SP IPHASW D HRMM SECON CODA AMPLIT PERI AZIMU VELO AIN AR TRES W  DIS CAZ7
 BAR2 EZ EP       1052 13.85                             172   -0.2310 19.6 182 
 BAR2 EZ ES       1052 29.50                             172   -0.1810 19.6 182 
 BAR2 EZ I        1052 31.50         5.6 0.34            169           19.6 182 
 BRR  HZ EP       1052 15.92                             154    0.3710 69.9 302 
 BRR  HN ES       1052 32.62                             154    0.3210 69.9 302 
 RUS  HZ EP       1052 18.13                             145    0.1610 97.5 174 
 RUS  HN ES       1052 36.44                             145   -0.1710 97.5 174 
 RUS  HZ I        1052 37.79         2.3 0.32            144           97.5 174 
 SPBC HZ EP       1052 22.23                             131   -0.17 9  158 219 
 SPBC HN ES       1052 44.79                             131    0.28 9  158 219 
 SPBC HZ I        1052 48.86         3.0 0.42            130            158 219 
 ZAR  HN ES       1052 51.42                             123   -0.49 9  202 293 
                                                                                
