 2017  825 1030 36.0 L   6.764 -73.133149.5  RSN  4 0.1 1.1LRSN                1
 GAP=236        0.43       4.8     5.4  3.8  0.2173E+02 -0.3564E+00 -0.1622E+01E
 Epicentro: LOS SANTOS - SANTANDER                                             3
 ACTION:UPD 17-09-04 20:24 OP:rebc STATUS:               ID:20170825103036 L   I
 OLDACT:REG 17-08-25 19:48 OP:edw  STATUS:               ID:20170825102737     3
 2017-08-25-1028-00M.COL___402                                                 6
 STAT SP IPHASW D HRMM SECON CODA AMPLIT PERI AZIMU VELO AIN AR TRES W  DIS CAZ7
 BAR2 EZ EP     C 1030 55.75                             172   -0.2210 19.8 196 
 BAR2 EZ ES       1031 11.48                             172   -0.0910 19.8 196 
 BAR2 EZ I        1031 12.84         3.8 0.24            168           19.8 196 
 BRR  HZ EP       1030 57.82                             152    0.1410 74.3 301 
 BRR  HN ES       1031 14.77                             152    0.1410 74.3 301 
 RUS  HZ EP       1030 59.88                             146    0.0910 96.6 177 
 RUS  HN ES       1031 18.42                             146    0.0410 96.6 177 
 RUS  HZ I        1031 20.97         1.3 0.32            144           96.6 177 
 ZAR  HN ES       1031 34.51                             123   -0.14 8  207 293 
                                                                                
