 2013  125 1358  0.6 L   6.777 -73.149146.1  RSN  5 0.4 1.8LRSN                1
 GAP=137        1.15       6.1     5.9  8.4 -0.3427E+01  0.6096E+01  0.2147E+01E
 Epicentro: LOS SANTOS - SANTANDER                                             3
 ACTION:UPD 13-02-15 09:16 OP:ep   STATUS:               ID:20130125135800 L   I
 2013-01-25-1348-39M.COL___195                                                 6
 STAT SP IPHASW D HRMM SECON CODA AMPLIT PERI AZIMU VELO AIN AR TRES W  DIS CAZ7
 BAR2 SZ EP       1358 20.41                             172    0.1410 20.7 190 
 BAR2 SZ I        1358 20.50        17.1 0.40            170           20.7 190 
 BAR2 SZ ES       1358 35.88                             172    0.3110 20.7 190 
 BRR  HZ EP       1358 22.33                             152    0.4510 72.1 300 
 BRR  HN ES       1358 39.02                             152    0.5710 72.1 300 
 BRR  HN I        1358 39.97        31.5 0.16            150           72.1 300 
 PAM  SZ EP       1358 23.25                             150    0.2210 79.6  39 
 PAM  SZ I        1358 23.49        10.6 0.20            153           79.6  39 
 PAM  SN ES       1358 39.69                             150   -0.8010 79.6  39 
 RUS  HZ EP       1358 24.42                             145    0.1710 98.1 176 
 RUS  HE ES       1358 42.50                             145   -0.1610 98.1 176 
 RUS  HN I        1358 44.03         4.0 0.16            145           98.1 176 
 PTB  HZ EP       1358 27.12                             132   -0.44 9  147 260 
 PTB  HN ES       1358 47.98                             132   -0.57 9  147 260 
 PTB  HE I        1358 53.72        10.1 0.36            131            147 260 
                                                                                
