 2015  725 1011 57.2 L   7.220 -74.029 85.3  RSN  6 0.3 1.7LRSN                1
 GAP= 92        0.67       1.8     2.3  7.3  0.9480E+00 -0.6746E+01 -0.3588E+01E
 Epicentro: PUERTO WILCHES - SANTANDER                                         3
 ACTION:UPD 15-09-08 21:50 OP:cam  STATUS:               ID:20150725101157 L   I
 OLDACT:REG 15-07-25 20:16 OP:stll STATUS:               ID:20150725100745     3
 2015-07-25-1007-45M.COL___328                                                 6
 STAT SP IPHASW D HRMM SECON CODA AMPLIT PERI AZIMU VELO AIN AR TRES W  DIS CAZ7
 CPBEREZ EP       1012 13.78                             130   -0.0810 88.8 212 
 CPBEREE ES       1012 26.45                             130   -0.4210 88.8 212 
 ZAR  HZ EP       1012 15.00                             127    0.4310 96.3 288 
 ZAR  HE ES       1012 28.37                             127    0.2410 96.3 288 
 ZAR  HZ I        1012 31.20        12.4 0.10            131           96.3 288 
 BAR2 EZ EP       1012 17.01                             122    0.0810  117 127 
 BAR2 EZ ES       1012 32.55                             122    0.2210  117 127 
 BAR2 EZ I        1012 34.03         8.6 0.22            126            117 127 
 OCA  HZ EP       1012 19.12                             117    0.07 9  137  35 
 OCA  HN ES       1012 36.06                             117   -0.04 9  137  35 
 OCA  HZ I        1012 36.60        20.5 0.14            120            137  35 
 SML  HZ EP       1012 22.63                             111   -0.47 9  175 358 
 SML  HE ES       1012 43.17                             111   -0.15 9  175 358 
 SML  HZ I        1012 49.89         9.5 0.22            113            175 358 
 RUS  HZ EP       1012 24.44                             111    0.10 9  180 144 
 RUS  HN ES       1012 45.44                             111   -0.09 9  180 144 
 RUS  HZ I        1012 46.39         2.9 0.22            114            180 144 
                                                                                
