 2010  425 1910 50.4 L   6.743 -73.085143.2  RSN  8 0.5 2.1LRSN                1
 GAP=194        1.01       9.3     9.1  8.1 -0.5541E+02 -0.1119E+02  0.7148E+01E
 Epicentro: JORDAN - SANTANDER                                                 3
 ACTION:UPD 10-08-24 10:01 OP:vdl  STATUS:               ID:20100425191050 L   I
 2010-04-25-1905-56S.COL___104                                                 6
 STAT SP IPHASW D HRMM SECON CODA AMPLIT PERI AZIMU VELO AIN AR TRES W  DIS CAZ7
 BAR2 SZ ES   1   1911 24.06                             171    -0.6 7   20 213 
 BRR  HZ EP       1911 12.31                             149     0.510   80 300 
 BRR  HE ES       1911 28.77                             149     0.210   80 300 
 BRR  HZ I        1911 30.06        24.5 0.22                            80 300 
 BRI  SZ EP       1911 14.61                             140     0.210  112  16 
 BRI  SZ ES   1   1911 32.73                             140    -0.3 7  112  16 
 GUE  SZ EP       1911 14.96                             138    -0.410  122   8 
 GRA  SZ EP       1911 15.84                             135     0.010  130  14 
 GRA  SZ ES   1   1911 35.72                             135     0.1 7  130  14 
 HEL  HN ES   2   1912  1.38                             114    -1.4 4  277 257 
 HEL  HZ I        1912  8.88         5.9 0.16                           277 257 
 DBB  SZ EP   1   1911 38.24                             108    -0.4 5  347 275 
 PRA  HZ I        1911 45.99         3.0 0.15                           390 211 
 PRA  HN ES   2   1912 26.40                             106     1.3 3  390 211 
                                                                                
