 2013  625 1147 31.9 L   6.542 -73.482121.2  RSN  6 0.4 1.6LRSN                1
 GAP=121        0.81       5.9     4.7  8.5  0.1424E+02  0.7665E+01  0.2365E+00E
 Epicentro: EL CARMEN DE CHUCURI - SANTANDER                                   3
 ACTION:UPD 14-01-08 09:57 OP:ep   STATUS:               ID:20130625114731 L   I
 OLDACT:REG 13-06-25 17:18 OP:carl STATUS:               ID:20130625113959     3
 2013-06-25-1139-59M.COL___266                                                 6
 STAT SP IPHASW D HRMM SECON CODA AMPLIT PERI AZIMU VELO AIN AR TRES W  DIS CAZ7
 BAR2 SZ EP       1147 48.98                             164    0.0710 33.6  81 
 BAR2 SZ ES   1   1148  1.53                             164   -0.63 7 33.6  81 
 BAR2 SZ I        1148  3.12         9.5 0.16            170           33.6  81 
 GIR2 SZ IP     C 1147 50.32                             149   -0.1110 67.3  28 
 BRR  HN ES   1   1148  4.85                             149    0.33 7 67.4 338 
 BRR  HN I        1148  5.29        15.6 0.16            148           67.4 338 
 RUS  HZ EP   1   1147 52.32                             143    0.23 7 84.3 148 
 RUS  HE ES   1   1148  8.31                             143    0.49 7 84.3 148 
 RUS  HZ I        1148  9.04         5.0 0.22            145           84.3 148 
 PTB  HZ EP   1   1147 52.65                             135   -0.64 7  108 270 
 PTB  HE ES   1   1148  9.80                             135   -0.17 7  108 270 
 PTB  HZ I        1148 13.26         4.0 0.16            133            108 270 
 ZAR  HE ES       1148 23.69                             119    0.33 9  185 305 
 ZAR  HE I        1148 30.68         8.1 0.18            119            185 305 
                                                                                
