 2013  225 1630 16.2 L   6.803 -73.151147.9  RSN 13 0.4 2.6LRSN                1
 GAP= 71        0.77       2.8     3.2  5.1  0.9337E+00  0.2699E+01  0.8292E+00E
 Epicentro: LOS SANTOS - SANTANDER                                             3
 ACTION:UPD 13-03-12 09:35 OP:ep   STATUS:               ID:20130225163016 L   I
 2013-02-25-1630-00M.COL___228                                                 6
 STAT SP IPHASW D HRMM SECON CODA AMPLIT PERI AZIMU VELO AIN AR TRES W  DIS CAZ7
 BAR2 SZ EP       1630 36.07                             171    0.0010 23.5 189 
 BAR2 SZ ES   1   1630 51.48                             171   -0.11 7 23.5 189 
 BAR2 SZ I        1630 52.75       160.2 0.20            159           23.5 189 
 BRR  HZ EP     C 1630 37.92                             153    0.3910 70.6 299 
 BRR  HN ES   1   1630 54.85                             153    0.68 7 70.6 299 
 PAM  SZ EP       1630 38.84                             151    0.2110 77.5  40 
 PAM  SE ES   1   1630 55.89                             151   -0.25 7 77.5  40 
 PAM  SZ I        1630 58.23        32.0 0.23            129           77.5  40 
 RUS  HZ EP     D 1630 39.97                             144   -0.2010  101 176 
 RUS  HN ES   1   1630 58.59                             144   -0.29 7  101 176 
 RUS  HZ I        1630 59.98        41.0 0.30            119            101 176 
 PTB  HZ EP       1630 42.92                             133   -0.36 9  147 259 
 PTB  HN ES   1   1631  3.71                             133   -0.71 7  147 259 
 PTB  HZ I        1631  6.43        37.1 0.16            109            147 259 
 TAM  HZ EP   1   1630 44.30                             131    0.21 7  156 105 
 TAM  HE ES   1   1631  5.86                             131    0.01 7  156 105 
 TAM  HZ I        1631 13.03        26.6 0.46            108            156 105 
 OCA  HN ES   1   1631  6.83                             130    0.02 7  160 353 
 ZAR  HN ES   1   1631 14.08                             123    0.01 6  203 292 
 ZAR  HZ I        1631 19.65        50.7 0.52            103            203 292 
 SML  HZ EP   1   1630 52.53                             118   -0.34 6  243 335 
 SML  HE ES   1   1631 21.63                             118    0.14 6  243 335 
 SML  HZ I        1631 24.53        42.4 0.15            100            243 335 
 CHI  HZ EP   1   1630 54.13                             117    0.11 6  249 195 
 CHI  HN ES   1   1631 23.81                             117    0.28 6  249 195 
 CHI  HZ I        1631 29.27        15.7 0.48            100            249 195 
 ROSC BZ EP   4   1630 55.90                             117    1.48 0  253 211 
 HEL  HZ EP   1   1630 57.02                             115    0.57 6  272 256 
 HEL  HZ I        1631 35.50        32.6 0.36             99            272 256 
 RREF HZ EP   1   1631  3.01                             111    0.62 5  322 229 
 RREF HZ I        1631 45.89        30.6 0.26             97            322 229 
 COD  HZ EP   1   1631  3.35                             109   -1.25 5  348 355 
 COD  HZ I        1631 48.40         7.0 0.54             97            348 355 
                                                                                
