 2013  625 1122 56.0 L   6.806 -73.184139.9  RSN  5 0.5 1.3LRSN                1
 GAP=198        0.75       7.5     7.4  8.0  0.2398E+02  0.1927E+02 -0.1015E+02E
 Epicentro: LOS SANTOS - SANTANDER                                             3
 ACTION:UPD 14-01-08 09:57 OP:ep   STATUS:               ID:20130625112256 L   I
 OLDACT:REG 13-06-25 17:18 OP:carl STATUS:               ID:20130625111959     3
 2013-06-25-1119-59M.COL___266                                                 6
 STAT SP IPHASW D HRMM SECON CODA AMPLIT PERI AZIMU VELO AIN AR TRES W  DIS CAZ7
 BAR2 SZ ES       1123 29.84                             170    0.1410 23.7 180 
 BAR2 SZ I        1123 30.90         6.0 0.30            165           23.7 180 
 RUS  HZ EP   1   1123 19.53                             142    0.27 7  102 174 
 RUS  HE ES   2   1123 36.61                             142   -0.79 5  102 174 
 RUS  HZ I        1123 38.77         1.7 0.30            144            102 174 
 PTB  HZ EP   1   1123 21.61                             132   -0.52 7  144 258 
 PTB  HN ES   1   1123 42.45                             132   -0.06 7  144 258 
 PTB  HZ I        1123 47.71         2.1 0.26            128            144 258 
 ZAR  HZ EP   1   1123 28.29                             122    0.66 6  200 292 
 ZAR  HE ES   2   1123 52.44                             122    0.13 4  200 292 
 ZAR  HZ I        1124  0.80         2.3 0.44            120            200 292 
 SML  HE ES   2   1123 59.49                             116   -0.66 4  241 336 
                                                                                
