 2016  725 1451 33.1 L   6.817 -73.157146.5  RSN 21 0.4 2.5LRSN                1
 GAP= 70        0.90       2.6     2.4  4.2 -0.4646E+00  0.3377E+01  0.9256E+00E
 Epicentro: LOS SANTOS - SANTANDER                                             3
 ACTION:UPD 17-03-29 16:55 OP:lp   STATUS:               ID:20160725145133 L   I
 OLDACT:UP  16-07-26 00:21 OP:ar   STATUS:               ID:20160725144759     3
 OLDACT:UP  16-07-26 00:21 OP:ar   STATUS:               ID:20160725144759     3
 OLDACT:REG 16-07-25 21:44 OP:ar   STATUS:               ID:20160725144759     3
 2016-07-25-1447-59S.COL___331                                                 6
 STAT SP IPHASW D HRMM SECON CODA AMPLIT PERI AZIMU VELO AIN AR TRES W  DIS CAZ7
 BAR2 EZ IP     D 1451 52.55                             170   -0.2510 25.1 186 
 BAR2 EZ ES       1452  7.78                             170   -0.4310 25.1 186 
 BAR2 EZ I        1452  8.57       118.7 0.22            169           25.1 186 
 BRR  HZ IP     C 1451 54.34                             153    0.1710 69.2 298 
 BRR  HN IS       1452 11.44                             153    0.8010 69.2 298 
 BRR  HZ I        1452 14.59        51.4 0.11            150           69.2 298 
 PAM  EZ IP     C 1451 55.66                             151    0.3610 76.7  41 
 PAM  EN ES       1452 12.70                             151    0.0410 76.7  41 
 PAM  EZ I        1452 14.74        95.9 0.58            148           76.7  41 
 RUS  HZ EP       1451 56.83                             143   -0.1910  103 175 
 RUS  HN ES       1452 15.38                             143   -0.3310  103 175 
 RUS  HZ I        1452 16.23        34.3 0.28            140            103 175 
 TAM  HZ EP       1452  1.12                             130    0.18 9  157 106 
 TAM  HZ I        1452 21.83        21.0 0.36            127            157 106 
 TAM  HE ES       1452 22.88                             130    0.19 9  157 106 
 SPBC HZ EP       1452  1.36                             129   -0.31 9  164 218 
 SPBC HN ES       1452 23.71                             129   -0.29 9  164 218 
 SPBC HZ I        1452 28.49        54.0 0.10            126            164 218 
 ZAR  HZ EP       1452  5.34                             123   -0.01 9  202 292 
 ZAR  HN ES       1452 30.64                             123    0.09 9  202 292 
 ZAR  HZ I        1452 36.65        49.6 0.32            119            202 292 
 NOR  HZ EP       1452  8.93                             119    0.09 8  235 234 
 NOR  HE ES       1452 36.30                             119   -0.45 8  235 234 
 NOR  HZ I        1452 38.10        22.2 0.16            115            235 234 
 CHI  HZ EP       1452 11.09                             117    0.13 8  250 195 
 CHI  HN ES       1452 40.36                             117   -0.16 8  250 195 
 CHI  HZ I        1452 43.63        13.8 0.44            114            250 195 
 ROSC BZ EP   9   1452 13.36                             117    2.04 0  254 211 
 ROSC BN ES       1452 43.13                             116   -0.08 8  254 211 
 ROSC BZ I        1452 46.50        24.5 0.30            114            254 211 
 HEL  HZ EP       1452 13.53                             115    0.31 8  271 255 
 HEL  HN ES       1452 45.15                             115    0.60 8  271 255 
 HEL  HZ I        1452 50.84        25.8 0.30            112            271 255 
 URE  HZ EP       1452 13.40                             114   -0.55 7  282 292 
 URE  HN ES       1452 45.32                             114   -0.53 7  282 292 
 URE  HZ I        1452 55.21        34.9 0.30            111            282 292 
 GUY2CHZ EP   4   1452 18.21                             112    1.50 0  301 234 
 GUY2CHN ES       1452 51.08                             112    0.32 7  301 234 
 GUY2CHZ I        1452 58.50        16.8 0.40                           301 234 
 PTGC HZ EP   4   1452 16.01                             111   -1.18 0  311 159 
 PTGC HN ES   4   1452 49.59                             111   -2.03 0  311 159 
 PTGC HZ I        1452 54.09        16.4 0.34            109            311 159 
 LL6C HZ EP   4   1452 18.64                             111    0.08 0  323 358 
 LL6C HN ES   4   1452 54.70                             111    0.65 0  323 358 
 LL6C HZ I        1452 59.91         8.5 0.58            108            323 358 
 ELA  HZ EP   9   1452 22.65                             110    2.68 0  329 229 
 ELA  HN ES       1452 59.51                             110    0.27 7  329 229 
 ELA  HZ I        1453 10.57        23.0 0.88            108            329 229 
 CBOC HZ EP       1452 20.56                             110    0.63 7  333 252 
 CBOC HN ES       1452 55.88                             110   -0.61 7  333 252 
 CBOC HZ I        1453 12.03         5.8 0.48            107            333 252 
 PRA  HZ EP       1452 27.40                             107    0.68 6  393 209 
 PRA  HN ES       1453  8.77                             107    0.19 6  393 209 
 PRA  HZ I        1453 12.91        10.3 0.50            104            393 209 
 PAL  HZ EP       1452 28.37                             106    0.14 6  406 239 
 PAL  HN ES       1453 11.83                             106    0.57 6  406 239 
 PAL  HZ I        1453 20.01         5.6 0.18            103            406 239 
 SJC  HZ EP       1452 27.05                             106   -1.32 6  407 327 
 SJC  HN ES   4   1453  7.66                             106   -3.86 0  407 327 
 SJC  HZ I        1453 11.88         8.7 0.40            103            407 327 
 CRJC HZ EP   9   1452 33.18                             103   -2.17 0  466   4 
 CRJC HN ES       1453 21.16                             104   -0.61 5  466   4 
 CRJC HZ I        1453 26.48         7.5 0.48            101            466   4 
                                                                                
