 2016  425 1812 21.6 L   6.733 -73.205134.0  RSN  5 0.4 1.4LRSN                1
 GAP=131        0.62       3.8     4.8  8.0 -0.5648E+01  0.1421E+02 -0.8429E+01E
 Epicentro: VILLANUEVA - SANTANDER                                             3
 ACTION:UPD 16-05-05 14:24 OP:rebc STATUS:               ID:20160425181221 L   I
 OLDACT:REG 16-04-25 22:28 OP:dnl  STATUS:               ID:20160425180748     3
 2016-04-25-1807-48M.COL___313                                                 6
 STAT SP IPHASW D HRMM SECON CODA AMPLIT PERI AZIMU VELO AIN AR TRES W  DIS CAZ7
 BAR2 EZ EP   2   1812 40.04                             173    0.38 5 15.8 171 
 BAR2 EZ ES   2   1812 54.06                             173    0.30 5 15.8 171 
 BAR2 EZ I        1812 56.17         9.6 0.34            170           15.8 171 
 PAM  EZ EP       1812 43.01                             145   -0.2110 87.2  40 
 PAM  EN ES       1813  0.21                             145    0.1210 87.2  40 
 PAM  EZ I        1813  2.12         6.4 0.56            151           87.2  40 
 RUS  HZ EP   2   1812 44.00                             143    0.30 5 93.9 172 
 RUS  HN ES       1813  0.75                             143   -0.2010 93.9 172 
 RUS  HZ I        1813  3.71         1.8 0.40            148           93.9 172 
 PTB  HZ EP   2   1812 47.44                             131    0.54 5  140 261 
 PTB  HN ES   2   1813  7.06                             131    0.42 5  140 261 
 PTB  HZ I        1813 13.32         3.0 0.18            130            140 261 
 ZAR  HZ EP   4   1812 50.41                             120   -2.56 0  201 295 
 ZAR  HN ES   2   1813 16.54                             120   -0.91 4  201 295 
 ZAR  HZ I        1813 24.18         3.4 0.29            121            201 295 
                                                                                
