 2016  625 1222  1.4 L   6.775 -73.156142.0  RSN 12 0.4 2.2LRSN                1
 GAP=136        0.95       3.7     3.7  6.2 -0.1822E+01  0.6015E+01  0.3940E+01E
 Epicentro: LOS SANTOS - SANTANDER                                             3
 ACTION:UPD 16-07-21 22:22 OP:rebc STATUS:               ID:20160625122201 L   I
 OLDACT:REG 16-06-25 20:46 OP:dnl  STATUS:               ID:20160625121745     3
 2016-06-25-1217-45M.COL___333                                                 6
 STAT SP IPHASW D HRMM SECON CODA AMPLIT PERI AZIMU VELO AIN AR TRES W  DIS CAZ7
 BRR  HZ EP     C 1222 22.27                             152    0.1210 71.5 301 
 BRR  HN ES       1222 39.16                             152    0.8210 71.5 301 
 BRR  HZ I        1222 40.32        43.2 0.14                          71.5 301 
 PAM  EZ IP     C 1222 23.23                             150   -0.1510 80.2  39 
 PAM  EN ES       1222 40.30                             150   -0.2310 80.2  39 
 PAM  EZ I        1222 41.31        19.3 0.16                          80.2  39 
 RUS  HZ EP       1222 24.41                             144   -0.1710 98.0 175 
 RUS  HN ES       1222 42.89                             144    0.2210 98.0 175 
 RUS  HZ I        1222 44.01        16.0 0.30                          98.0 175 
 PTB  HZ EP       1222 27.39                             132   -0.51 9  146 260 
 PTB  HE ES       1222 47.53                             132   -1.05 9  146 260 
 PTB  HZ I        1222 48.99        21.9 0.46                           146 260 
 SPBC HZ EP       1222 29.43                             129    0.10 9  160 219 
 SPBC HE ES       1222 51.26                             129    0.14 9  160 219 
 SPBC HZ I        1222 53.84        31.9 0.38                           160 219 
 ZAR  HZ EP       1222 33.30                             122   -0.29 9  204 293 
 ZAR  HE ES       1222 59.09                             122    0.39 9  204 293 
 ZAR  HZ I        1223  5.39        32.9 0.42                           204 293 
 NOR  HZ EP       1222 36.86                             118    0.23 8  232 235 
 NOR  HN ES       1223  4.09                             118   -0.03 8  232 235 
 NOR  HZ I        1223 13.21        14.5 0.50                           232 235 
 CHI  HZ EP   2   1222 39.21                             117    0.65 4  246 195 
 CHI  HE ES   4   1223  9.48                             117    1.93 0  246 195 
 CHI  HZ I        1223 11.74         7.0 0.26                           246 195 
 HEL  HZ EP   2   1222 41.13                             114   -0.08 4  270 256 
 HEL  HE ES       1223 12.57                             114    0.30 8  270 256 
 HEL  HZ I        1223 19.42        11.2 0.30                           270 256 
 GUY2CHZ EP   2   1222 45.15                             112    0.61 4  299 235 
 GUY2CHN ES   2   1223 17.48                             112   -0.72 4  299 235 
 GUY2CHZ I        1223 25.01         6.5 0.44                           299 235 
 PRA  HZ EP   2   1222 54.75                             106    0.32 3  389 210 
 PRA  HE ES   4   1223 37.49                             106    1.68 0  389 210 
 PRA  HZ I        1223 42.00         6.0 0.60                           389 210 
 ORTC HZ EP   2   1222 55.30                             106    0.46 3  393 216 
 ORTC HN ES   4   1223 37.84                             106    1.30 0  393 216 
 ORTC HZ I        1223 41.84         6.6 0.36                           393 216 
                                                                                
