 2017  625 1819 35.3 L   6.521 -73.558104.0  RSN  6 0.3 1.4LRSN                1
 GAP=155        0.85       5.0     4.1  6.6 -0.6908E+01  0.8662E+01  0.5980E+01E
 Epicentro: EL CARMEN - SANTANDER                                              3
 ACTION:UPD 17-09-14 16:55 OP:jn   STATUS:               ID:20170625181935 L   I
 OLDACT:REG 17-06-25 20:31 OP:lv   STATUS:               ID:20170625181737     3
 2017-06-25-1818-00M.COL___349                                                 6
 STAT SP IPHASW D HRMM SECON CODA AMPLIT PERI AZIMU VELO AIN AR TRES W  DIS CAZ7
 BAR2 EZ EP       1819 50.91                             156    0.2710 42.3  79 
 BAR2 EZ ES       1820  2.67                             156    0.0310 42.3  79 
 BRR  HZ EP       1819 51.67                             144   -0.1310 67.1 345 
 BRR  HE ES       1820  4.53                             144   -0.1610 67.1 345 
 PTB  HZ EP       1819 53.72                             133   -0.7310 99.4 271 
 PTB  HN ES       1820  9.70                             133    0.2910 99.4 271 
 PTB  HZ I        1820 12.21         4.4 0.05            133           99.4 271 
 ZAR  HZ EP       1820  3.18                             115    0.55 9  179 307 
 ZAR  HE ES   4   1820 26.11                             115    2.15 0  179 307 
 NOR  HZ EP       1820  2.68                             115   -0.03 9  180 234 
 NOR  HN ES       1820 24.15                             115    0.03 9  180 234 
 NOR  HZ I        1820 28.03         3.9 0.15            115            180 234 
 GUY2CHZ EP   9   1820 13.05                             107    2.22 0  246 234 
 GUY2CHN ES       1820 40.83                                    0.04 8  246 234 
 GUY2CHZ I        1820 46.54         1.7 0.63                           246 234 
                                                                                
