 2011  825 1335 40.7 L   6.822 -73.042140.3  RSN  4 0.2 1.9LRSN                1
 GAP=249        0.50       6.7    11.8  5.3  0.6138E+02 -0.9975E+01 -0.4367E+01E
 Epicentro: CEPITA - SANTANDER                                                 3
 ACTION:UPD 12-07-13 15:53 OP:ep   STATUS:               ID:20110825133540 L   I
 2011-08-25-1335-11S.COL___167                                                 6
 STAT SP IPHASW D HRMM SECON CODA AMPLIT PERI AZIMU VELO AIN AR TRES W  DIS CAZ7
 BAR2 SZ EP   1   1335 59.97                             167    0.11 7 29.8 212 
 BAR2 SZ I        1336  0.48         8.1 0.18                          29.8 212 
 BAR2 SZ ES   1   1336 14.36                             167   -0.42 7 29.8 212 
 BRR  HZ IP     D 1336  1.76                             148   -0.1010 80.5 293 
 BRR  HZ I        1336  1.93        17.2 0.12                          80.5 293 
 BRR  HN ES   1   1336 18.59                             148    0.25 7 80.5 293 
 RUS  HZ EP   1   1336  4.22                             142    0.10 7  103 183 
 RUS  HN ES   1   1336 22.57                             142    0.21 7  103 183 
 RUS  HZ I        1336 24.30         6.9 0.27                           103 183 
 PRA  HZ EP   1   1336 34.74                             105   -0.25 4  400 211 
 PRA  HZ I        1337 19.52         8.5 0.22                           400 211 
                                                                                
