 2013  225 1137 10.3 L   6.798 -73.158145.3  RSN  8 0.4 2.1LRSN                1
 GAP=135        0.75       3.5     4.4  6.0  0.1503E+01  0.4617E+01  0.1234E+01E
 Epicentro: LOS SANTOS - SANTANDER                                             3
 ACTION:UPD 13-03-12 09:35 OP:ep   STATUS:               ID:20130225113710 L   I
 2013-02-25-1130-00M.COL___225                                                 6
 STAT SP IPHASW D HRMM SECON CODA AMPLIT PERI AZIMU VELO AIN AR TRES W  DIS CAZ7
 BAR2 SZ EP       1137 30.00                             171    0.0910 22.9 187 
 BAR2 SZ ES   1   1137 44.68                             171   -0.50 7 22.9 187 
 BAR2 SZ I        1137 46.45        62.0 0.18            167           22.9 187 
 BRR  HZ EP   1   1137 31.91                             153    0.52 7 70.1 299 
 BRR  HN ES   1   1137 48.31                             153    0.51 7 70.1 299 
 BRR  HZ I        1137 49.55        29.1 0.14            149           70.1 299 
 PAM  SZ EP   1   1137 32.91                             150    0.33 7 78.4  40 
 PAM  SE ES   1   1137 49.86                             150   -0.06 7 78.4  40 
 PAM  SZ I        1137 51.98        27.2 0.46            155           78.4  40 
 RUS  HZ EP   1   1137 33.93                             144   -0.11 7  100 175 
 RUS  HN ES   1   1137 52.43                             144   -0.10 7  100 175 
 RUS  HZ I        1137 54.80         5.8 0.24            143            100 175 
 PTB  HZ EP   1   1137 36.52                             132   -0.63 7  146 259 
 PTB  HN ES   1   1137 57.72                             132   -0.34 7  146 259 
 PTB  HZ I        1138  4.86        16.0 0.44            130            146 259 
 ZAR  HZ EP   4   1137 44.76                             122    2.12 0  203 292 
 ZAR  HN ES   1   1138  8.23                             122    0.40 6  203 292 
 ZAR  HZ I        1138 13.64        11.1 0.30            121            203 292 
 SML  HZ EP   1   1137 46.33                             117   -0.58 6  243 336 
 SML  HN ES   2   1138 14.75                             117   -0.68 4  243 336 
 SML  HZ I        1138 19.27        14.5 0.24            118            243 336 
 CHI  HZ EP   1   1137 48.32                             117    0.36 6  248 195 
 CHI  HN ES   1   1138 17.52                             117    0.23 6  248 195 
 CHI  HZ I        1138 25.16         5.3 0.43            117            248 195 
                                                                                
