 2017  425 1755 14.3 L   6.809 -73.130147.3  RSN  5 0.3 1.7LRSN                1
 GAP=196        0.84       6.8     4.5  7.3 -0.1470E+02  0.1100E+01  0.1947E+02E
 Epicentro: LOS SANTOS - SANTANDER                                             3
 ACTION:UPD 17-05-30 21:15 OP:jn   STATUS:               ID:20170425175514 L   I
 OLDACT:REG 17-04-25 21:02 OP:ods  STATUS:               ID:20170425174741     3
 2017-04-25-1748-00M.COL___377                                                 6
 STAT SP IPHASW D HRMM SECON CODA AMPLIT PERI AZIMU VELO AIN AR TRES W  DIS CAZ7
 BRR  HZ EP       1755 35.95                             152    0.2510 72.3 297 
 BRR  HN ES       1755 52.59                             152    0.2210 72.3 297 
 PAM  EZ EP       1755 36.84                             152    0.2510 75.5  39 
 PAM  EN ES       1755 53.75                             152   -0.2010 75.5  39 
 PAM  EZ I        1755 55.67        11.1 0.62            154           75.5  39 
 PTB  HZ EP       1755 40.92                             132   -0.67 9  150 259 
 PTB  HN ES       1756  2.40                             132   -0.45 9  150 259 
 PTB  HZ I        1756  6.90         4.5 0.32            132            150 259 
 ZAR  HZ EP       1755 46.92                             122   -0.08 8  205 292 
 ZAR  HN ES       1756 12.68                             122    0.19 8  205 292 
 ZAR  HZ I        1756 17.90         8.1 0.34            123            205 292 
 NOR  HZ EP       1755 50.48                             119    0.12 8  237 235 
 NOR  HE ES       1756 18.90                             119    0.44 8  237 235 
 NOR  HZ I        1756 20.70         3.1 0.32            120            237 235 
                                                                                
