 2013  125 1837 44.3 L   6.816 -73.224136.1  RSN  5 0.3 1.9LRSN                1
 GAP=124        0.88       5.0     4.8  8.2 -0.6290E+01  0.1306E+02 -0.5246E+01E
 Epicentro: ZAPATOCA - SANTANDER                                               3
 ACTION:UPD 13-02-15 09:16 OP:ep   STATUS:               ID:20130125183744 L   I
 2013-01-25-1828-45M.COL___201                                                 6
 STAT SP IPHASW D HRMM SECON CODA AMPLIT PERI AZIMU VELO AIN AR TRES W  DIS CAZ7
 BAR2 SZ EP   1   1838  2.68                             169   -0.17 7 25.2 169 
 BAR2 SZ ES   1   1838 17.27                             169   -0.02 7 25.2 169 
 BAR2 SZ I        1838 18.65        15.6 0.20            171           25.2 169 
 BRR  HZ EP       1838  4.82                             154    0.8410 62.8 301 
 BRR  HN I        1838 21.86        24.9 0.24            142           62.8 301 
 PAM  SZ EP       1838  5.60                             147   -0.2310 81.9  45 
 PAM  SZ I        1838  5.88        10.1 0.22            145           81.9  45 
 PAM  SN ES       1838 22.45                             147   -0.1410 81.9  45 
 RUS  HZ EP       1838  7.36                             141    0.0010  103 171 
 RUS  HN ES       1838 25.45                             141    0.1310  103 171 
 PTB  HZ EP       1838  9.46                             131   -0.33 9  140 257 
 PTB  HN ES       1838 29.41                             131   -0.22 9  140 257 
 PTB  HN I        1838 35.71         9.4 0.34            125            140 257 
                                                                                
