 2014 1125 1357 42.9 L   6.739 -73.085145.2  RSN  4 0.2 1.6LRSN                1
 GAP=239        0.58       3.5     5.3  4.6  0.3676E+01  0.1451E+01  0.1871E+01E
 Epicentro: JORDAN - SANTANDER                                                 3
 ACTION:UPD 14-12-19 15:47 OP:nd   STATUS:               ID:20141125135742 L   I
 OLDACT:REG 14-11-25 21:39 OP:fm   STATUS:               ID:20141125134746     3
 2014-11-25-1347-46M.COL___303                                                 6
 STAT SP IPHASW D HRMM SECON CODA AMPLIT PERI AZIMU VELO AIN AR TRES W  DIS CAZ7
 BAR2 SZ EP       1358  2.26                             172   -0.1010 19.4 214 
 BAR2 SZ ES       1358 17.68                             172    0.1210 19.4 214 
 BAR2 SZ I        1358 18.56         7.0 0.20            167           19.4 214 
 BRR  HZ EP       1358  4.18                             149   -0.3210 80.4 300 
 BRR  HN ES       1358 21.51                             149    0.1410 80.4 300 
 BRR  HN I        1358 22.78        15.9 0.50            149           80.4 300 
 RUS  HZ EP       1358  6.40                             146    0.3310 93.6 180 
 RUS  HE ES       1358 23.92                             146   -0.2410 93.6 180 
 RUS  HZ I        1358 26.17         3.9 0.28            145           93.6 180 
 SPBC HZ EP       1358 11.36                             129    0.11 9  162 222 
 SPBC HN ES       1358 33.35                             129   -0.04 9  162 222 
 SPBC HZ I        1358 37.36         7.3 0.40            128            162 222 
                                                                                
