 2011  525 1757  6.9 L   6.785 -73.099148.9  RSN 11 0.3 2.7LRSN                1
 GAP=168        0.74       4.6     6.2  6.4 -0.1569E+02  0.1731E+01  0.6365E+01E
 Epicentro: LOS SANTOS - SANTANDER                                             3
 ACTION:UP  11-06-29 08:56 OP:tino STATUS:               ID:20110525175706 L   I
 2011-05-25-1753-02S.COL___141                                                 6
 STAT SP IPHASW D HRMM SECON CODA AMPLIT PERI AZIMU VELO SNR AR TRES W  DIS CAZ7
 BAR2 SZ EP       1757 26.68                             171    -0.210   23 203 
 BAR2 SZ ES   2   1757 41.83                             171    -0.7 5   23 203 
 BAR2 SZ I        1757 43.67        80.4 0.35                            23 203 
 BTL  SZ EP       1757 27.19                             171     0.310   24 309 
 GIR2 SZ EP   1   1757 26.73                             166    -0.3 7   34 342 
 PAM  SZ EP   1   1757 29.62                             152     0.3 7   76  36 
 PAM  SN ES   1   1757 46.89                             152     0.0 7   76  36 
 BRR  HZ IP     C 1757 28.75                             151     0.110   77 298 
 BRR  HZ I        1757 29.05       167.6 0.15                            77 298 
 BRR  HN ES   1   1757 46.01                             151     0.3 7   77 298 
 BRI  SZ EP       1757 31.33                             142     0.210  108  18 
 GRA  SZ EP       1757 32.60                             138     0.210  126  15 
 GRA  SZ ES   1   1757 52.11                             138    -0.3 7  126  15 
 GRA  SZ I        1757 53.38        59.8 0.28                           126  15 
 OCA  SZ EP   1   1757 34.84                             130    -0.8 7  163 351 
 OCA  SZ ES   1   1757 58.35                             130     0.2 7  163 351 
 OCA  SZ I        1758  3.40        58.6 0.29                           163 351 
 NOR  SZ EP   2   1757 42.85                             119    -0.3 4  238 236 
 NOR  SN ES   2   1758 11.25                             119    -0.2 4  238 236 
 HEL  HZ EP   1   1757 47.49                             115    -0.3 6  277 256 
 HEL  HZ I        1758 24.31        14.1 0.46                           277 256 
 PRA  HZ EP   2   1758  0.74                             107     0.1 3  393 210 
 PRA  HN ES   1   1758 43.29                             107     0.7 4  393 210 
                                                                                
