 2013 1225 1237 12.7 L   6.817 -73.135148.4  RSN  6 0.2 1.4LRSN                1
 GAP=202        0.47       2.3     2.9  4.4  0.2357E+00  0.3754E+01 -0.2438E+01E
 Epicentro: LOS SANTOS - SANTANDER                                             3
 ACTION:UPD 14-01-13 10:20 OP:ep   STATUS:               ID:20131225123712 L   I
 OLDACT:REG 13-12-25 14:31 OP:jn   STATUS:               ID:20131225123002d    3
 2013-12-25-1230-00M.COL___285                                                 6
 STAT SP IPHASW D HRMM SECON CODA AMPLIT PERI AZIMU VELO AIN AR TRES W  DIS CAZ7
 BAR2 SZ EP       1237 32.83                             170    0.1810 25.4 192 
 BAR2 SZ ES       1237 48.18                             170   -0.0610 25.4 192 
 BAR2 SZ I        1237 49.13         9.0 0.74            164           25.4 192 
 RUS  HZ EP       1237 36.92                             144    0.1210  102 177 
 RUS  HN ES       1237 55.50                             144   -0.1310  102 177 
 RUS  HZ I        1237 56.63         1.4 0.36            143            102 177 
 PTB  HZ EP       1237 39.81                             132   -0.16 9  149 258 
 PTB  HN ES       1238  1.59                             132    0.31 9  149 258 
 PTB  HZ I        1238  8.22         3.4 0.42            129            149 258 
 SPBC HN ES   1   1238  3.99                             129   -0.12 7  165 219 
 SPBC HZ I        1238 10.97         4.3 0.22            127            165 219 
 NOR  HE ES       1238 16.76                             119   -0.15 8  237 234 
 NOR  HZ I        1238 22.04         1.7 0.18            118            237 234 
 SML  HE ES       1238 17.73                             118   -0.15 8  242 335 
                                                                                
