 2012  625 1202  4.2 L   6.766 -73.187141.1  RSN  4 0.4 1.5LRSN                1
 GAP=230        0.85       9.6     7.8  8.8  0.2503E+02  0.1115E+02  0.2650E+01E
 Epicentro: VILLANUEVA - SANTANDER                                             3
 ACTION:UPD 12-08-06 17:52 OP:ep   STATUS:               ID:20120625120204 L   I
 2012-06-25-1200-00M.COL___199                                                 6
 STAT SP IPHASW D HRMM SECON CODA AMPLIT PERI AZIMU VELO AIN AR TRES W  DIS CAZ7
 BAR2 SZ EP       12 2 23.49                             172    0.3210 19.2 178 
 BAR2 SZ ES   1   12 2 37.20                             172   -0.78 7 19.2 178 
 BAR2 SZ I        12 2 38.88         6.9 0.26                          19.2 178 
 BRR  HZ EP       12 2 24.69                             152   -0.0310 69.2 303 
 BRR  HN ES   1   12 2 41.20                             152    0.47 7 69.2 303 
 BRR  HZ I        12 2 43.64         8.6 0.14                          69.2 303 
 RUS  HZ EP   2   12 2 27.55                             144    0.32 5 97.2 173 
 RUS  HN ES   2   12 2 45.66                             144    0.45 5 97.2 173 
 PTB  HZ EP       12 2 29.89                             132   -0.41 9  143 260 
 PTB  HN ES   1   12 2 50.78                             132    0.11 7  143 260 
 PTB  HZ I        12 2 53.49         4.4 0.22                           143 260 
                                                                                
