 2013 1225 1238  7.0 L   6.818 -73.235148.9  RSN  5 0.0 1.1LRSN                1
 GAP=190        0.30       2.4     2.4  3.5  0.3426E+00  0.3350E+01  0.3262E+00E
 Epicentro: ZAPATOCA - SANTANDER                                               3
 ACTION:UPD 14-01-13 10:20 OP:ep   STATUS:               ID:20131225123807 L   I
 OLDACT:DUP 13-12-25 17:26 OP:jn   STATUS:               ID:20131225123003d    3
 OLDACT:REG 13-12-25 14:31 OP:jn   STATUS:               ID:20131225123002d    3
 2013-12-25-1230-00M.COL___285                                                 6
 STAT SP IPHASW D HRMM SECON CODA AMPLIT PERI AZIMU VELO AIN AR TRES W  DIS CAZ7
 BAR2 SZ ES       1238 42.66                             170   -0.0310 25.7 167 
 RUS  HZ EP       1238 31.31                             143    0.0310  104 171 
 RUS  HN ES       1238 50.24                             143    0.0210  104 171 
 RUS  HZ I        1238 51.13         1.2 0.28            142            104 171 
 PTB  HN ES   2   1238 54.11                             135    0.11 5  139 257 
 NOR  HN ES       1239  9.60                             120   -0.05 8  228 233 
 NOR  HZ I        1239 14.58         1.3 0.20            118            228 233 
 SML  HN ES   2   1239 11.36                             119   -0.03 4  238 337 
                                                                                
