 2013 1225 1958 46.2 L   7.520 -73.224128.2  RSN  6 0.5 1.5LRSN                1
 GAP=200        1.30      11.1     6.1 10.6 -0.1148E+02  0.1684E+02 -0.1185E+02E
 Epicentro: EL PLAYON - SANTANDER                                              3
 ACTION:UPD 14-01-13 10:21 OP:ep   STATUS:               ID:20131225195846 L   I
 OLDACT:REG 13-12-25 15:16 OP:jn   STATUS:               ID:20131225195000     3
 2013-12-25-1950-00M.COL___285                                                 6
 STAT SP IPHASW D HRMM SECON CODA AMPLIT PERI AZIMU VELO AIN AR TRES W  DIS CAZ7
 PAM  SZ EP       1959  5.20                             153   -0.4010 61.3 109 
 PAM  SN ES       1959 20.38                             153   -0.3510 61.3 109 
 PAM  SZ I        1959 21.84         3.7 0.16            154           61.3 109 
 BRR  HZ EP       1959  6.47                             149    1.0310 70.6 230 
 BRR  HN ES       1959 20.52                             149    0.0710 70.6 230 
 BRR  HZ I        1959 22.00        11.4 0.48            149           70.6 230 
 BAR2 SZ EP       1959  8.09                             139    0.0110  103 177 
 BAR2 SZ ES       1959 25.61                             139    0.4610  103 177 
 BAR2 SZ I        1959 26.76        10.9 0.22            139            103 177 
 PTB  HZ EP       1959 13.96                             123   -0.45 9  174 232 
 PTB  HN ES       1959 35.55                             123   -0.87 9  174 232 
 PTB  HZ I        1959 38.11         2.0 0.24            124            174 232 
 ZAR  HE ES   1   1959 37.84                             122    0.27 7  180 269 
 RUS  HZ EP   1   1959 15.97                             122    0.25 7  181 175 
                                                                                
