 2010 1125 1437 16.7 L   6.973 -72.769130.0  RSN  4 0.4 1.4LRSN                1
 GAP=278        0.85       9.7    18.2 12.0  0.1167E+03 -0.1103E+03 -0.3413E+02E
 Epicentro: GUACA - SANTANDER                                                  3
 ACTION:UP  10-12-17 16:55 OP:REBC STATUS:               ID:20101125143716 L   I
 2010-11-25-1432-37S.COL___130                                                 6
 STAT SP IPHASW D HRMM SECON CODA AMPLIT PERI AZIMU VELO SNR AR TRES W  DIS CAZ7
 BAR2 SZ EP   1   1437 36.49                             154     0.5 7   62 227 
 BAR2 SZ I        1437 36.85         7.4 0.10                            62 227 
 BAR2 SZ ES   1   1437 51.55                             154     0.5 7   62 227 
 BRR  HZ EP   1   1437 38.34                             140    -0.3 7  105 278 
 BRR  HZ I        1437 38.79         8.1 0.14                           105 278 
 BRR  HN ES   1   1437 55.62                             140    -0.1 7  105 278 
 RUS  HZ EP   1   1437 40.55                             135    -0.4 7  124 196 
 RUS  HN ES   1   1437 59.45                             135    -0.4 7  124 196 
 RUS  HZ I        1438  0.55         2.4 0.32                           124 196 
 CHI  HZ EP   2   1437 57.49                             111     0.3 4  280 202 
 CHI  HZ I        1437 57.98         1.4 0.42                           280 202 
 CHI  HE ES   2   1438 29.15                             111     0.4 4  280 202 
                                                                                
