 2013  225 1104 19.4 L   5.728 -74.026 88.3  RSN  5 0.4 1.1LRSN                1
 GAP=167        0.70       3.3     4.3 12.1  0.2618E+01  0.5551E+01 -0.6195E+01E
 Epicentro: FLORIAN - SANTANDER                                                3
 ACTION:UPD 13-03-12 09:35 OP:ep   STATUS:               ID:20130225110419 L   I
 2013-02-25-1100-00M.COL___225                                                 6
 STAT SP IPHASW D HRMM SECON CODA AMPLIT PERI AZIMU VELO AIN AR TRES W  DIS CAZ7
 PTB  HZ EP   1   11 4 37.04                             127   -0.48 7  102 332 
 PTB  HN ES   1   11 4 51.82                             127    0.15 7  102 332 
 PTB  HZ I        11 4 55.10         1.5 0.16            131            102 332 
 RUS  HN ES   1   11 4 53.31                             126   -0.27 7  106  80 
 CHI  HN ES   1   11 4 57.19                             121    0.17 7  126 165 
 BAR2 SZ EP   1   11 4 40.80                             119   -0.34 7  134  44 
 BAR2 SZ ES   1   11 4 58.45                             119    0.34 7  134  44 
 BRR  HZ EP   1   11 4 43.97                             115    0.62 7  156  13 
 BRR  HN ES   1   11 5  1.92                             115   -0.12 7  156  13 
 BRR  HZ I        11 5  2.68         5.4 0.64            119            156  13 
                                                                                
