 2016 1125 1741 59.6 L   6.800 -73.146145.0  RSN  9 0.5 1.9LRSN                1
 GAP=150        1.21       5.4     5.3  7.4 -0.3410E+01  0.7860E+01  0.1508E+02E
 Epicentro: LOS SANTOS - SANTANDER                                             3
 ACTION:UPD 17-10-26 21:11 OP:lp   STATUS:               ID:20161125174159 L   I
 OLDACT:UP  16-11-26 00:17 OP:dani STATUS:               ID:20161125173747d    3
 OLDACT:DUP 16-11-26 00:14 OP:dani STATUS:               ID:20161125173747d    3
 OLDACT:REG 16-11-25 20:34 OP:dani STATUS:               ID:20161125173746     3
 2016-11-25-1738-00M.COL___349                                                 6
 STAT SP IPHASW D HRMM SECON CODA AMPLIT PERI AZIMU VELO AIN AR TRES W  DIS CAZ7
 BAR2 EZ EP       1742 18.94                             170   -0.1510 23.3 190 
 BAR2 EZ ES       1742 33.89                             170   -0.4410 23.3 190 
 BAR2 EZ I        1742 36.73        28.2 0.36            167           23.3 190 
 BRR  HZ EP       1742 20.82                             152    0.2010 71.1 299 
 BRR  HN ES       1742 38.05                             152    1.0110 71.1 299 
 BRR  HZ I        1742 42.00        12.4 0.16            151           71.1 299 
 PAM  EZ EP       1742 21.71                             151    0.0210 77.4  40 
 PAM  EN ES       1742 38.82                             151   -0.1310 77.4  40 
 PAM  EZ I        1742 43.58         8.0 0.40            148           77.4  40 
 PTB  HZ EP       1742 25.48                             132   -0.98 9  148 259 
 PTB  HN ES       1742 46.89                             132   -0.55 9  148 259 
 PTB  HZ I        1742 48.27        11.0 0.44            128            148 259 
 ZAR  HZ EP       1742 31.74                             122   -0.20 9  204 292 
 ZAR  HN ES       1742 57.46                             122    0.25 9  204 292 
 ZAR  HZ I        1743  4.05         6.5 0.17            119            204 292 
 NOR  HZ EP       1742 35.59                             118    0.35 8  235 234 
 NOR  HE ES       1743  2.84                             118   -0.23 8  235 234 
 NOR  HZ I        1743  8.41         8.1 0.31            114            235 234 
 CHI  HZ EP       1742 37.39                             117    0.18 8  249 195 
 CHI  HE ES       1743  7.12                             117    0.54 8  249 195 
 CHI  HZ I        1743 12.13         3.1 0.26            113            249 195 
 PRA  HZ EP       1742 54.11                             106    1.06 6  392 210 
 PRA  HZ I        1743 41.33         3.9 0.18            103            392 210 
 ORTC HZ EP       1742 53.12                             106   -0.33 6  395 216 
                                                                                
