 2011  425 1806 52.9 L   6.586 -73.414118.0  RSN  5 0.2 1.6LRSN                1
 GAP= 95        0.58       3.6     4.7  6.7  0.2081E+01  0.1089E+02  0.2795E+01E
 Epicentro: HATO - SANTANDER                                                   3
 ACTION:UP  11-06-22 15:33 OP:REBC STATUS:               ID:20110425180652 L   I
 2011-04-25-1800-00M.COL___137                                                 6
 STAT SP IPHASW D HRMM SECON CODA AMPLIT PERI AZIMU VELO SNR AR TRES W  DIS CAZ7
 BAR2 SZ EP   2   18 7  9.28                             167     0.1 5   26  88 
 BAR2 SZ ES   1   18 7 21.66                             167    -0.3 7   26  88 
 BAR2 SZ I        18 7 23.62        16.6 0.22                            26  88 
 BTL  SZ EP       18 7  9.98                             160     0.310   40  24 
 BRR  HZ EP       18 7 10.65                             148    -0.110   66 330 
 BRR  HZ I        18 7 15.45        14.1 0.40                            66 330 
 BRR  HN ES   1   18 7 24.83                             148     0.1 7   66 330 
 RUS  HZ EP   1   18 7 12.47                             142    -0.3 7   85 154 
 RUS  HN ES   1   18 7 28.56                             142     0.3 7   85 154 
 RUS  HZ I        18 7 29.37         5.3 0.21                            85 154 
 NOR  SE ES   1   18 7 46.37                             116     0.0 6  197 235 
                                                                                
