 2015  925 1631 14.4 L   6.784 -73.195155.5  RSN  8 0.4 2.1LRSN                1
 GAP=200        1.01       4.2     6.7  6.5 -0.5683E+01  0.7386E+01 -0.3443E+01E
 Epicentro: ZAPATOCA - SANTANDER                                               3
 ACTION:UPD 15-10-28 16:28 OP:cam  STATUS:               ID:20150925163114 L   I
 OLDACT:UP  15-09-25 23:57 OP:ar   STATUS:               ID:20150925162749     3
 OLDACT:REG 15-09-25 20:47 OP:ar   STATUS:               ID:20150925162749     3
 2015-09-25-1627-49M.COL___361                                                 6
 STAT SP IPHASW D HRMM SECON CODA AMPLIT PERI AZIMU VELO AIN AR TRES W  DIS CAZ7
 BAR2 EZ EP     C 1631 34.88                             172   -0.2810 21.3 176 
 BAR2 EZ ES       1631 51.00                             172   -0.3610 21.3 176 
 BAR2 EZ I        1631 51.34        15.9 0.34            170           21.3 176 
 BRR  HZ EP     C 1631 36.66                             155    0.2510 67.4 302 
 BRR  HN ES       1631 53.97                             155    0.3910 67.4 302 
 BRR  HZ I        1631 56.05        19.0 0.38            149           67.4 302 
 PTB  HZ EP       1631 41.76                             135    0.08 9  142 259 
 PTB  HN ES       1632  3.00                             135    0.04 9  142 259 
 PTB  HZ I        1632  8.56         7.1 0.28            132            142 259 
 SPBC HZ EP       1631 43.93                             132    0.70 9  158 218 
 SPBC HN ES       1632  6.10                             132    0.39 9  158 218 
 SPBC HZ I        1632  8.56        19.9 0.20            132            158 218 
 ZAR  HZ EP       1631 47.31                             125    0.25 9  200 293 
 ZAR  HN ES   2   1632 12.59                             125    0.06 4  200 293 
 ZAR  HZ I        1632 18.63        18.5 0.26            123            200 293 
 NOR  HZ EP       1631 49.41                             121   -0.73 8  229 234 
 NOR  HN ES       1632 17.28                             121   -0.74 8  229 234 
 NOR  HZ I        1632 21.81         5.9 0.16            121            229 234 
 SML  HZ EP       1631 51.66                             119    0.14 8  243 337 
 SML  HE ES       1632 19.97                             119   -0.51 8  243 337 
 SML  HZ I        1632 27.07        18.0 0.30            119            243 337 
 GUY2CHE ES   4   1632 34.64                             115    2.87 0  296 234 
 GUY2CHZ I        1632 40.19         3.9 0.40                           296 234 
                                                                                
