 2016 1225 1009 59.7 L   6.806 -73.121152.6  RSN  6 0.4 1.2LRSN                1
 GAP=241        0.96       6.7     7.2  6.8  0.2195E+02  0.6425E+01  0.9462E+01E
 Epicentro: LOS SANTOS - SANTANDER                                             3
 ACTION:UPD 17-01-11 20:18 OP:rebc STATUS:               ID:20161225100959 L   I
 OLDACT:UP  16-12-25 21:34 OP:edw  STATUS:               ID:20161225100746d    3
 OLDACT:UP  16-12-25 21:33 OP:edw  STATUS:               ID:20161225100746d    3
 OLDACT:UP  16-12-25 21:30 OP:edw  STATUS:               ID:20161225100746d    3
 OLDACT:UP  16-12-25 21:28 OP:edw  STATUS:               ID:20161225100746d    3
 OLDACT:DUP 16-12-25 21:15 OP:edw  STATUS:               ID:20161225100746d    3
 OLDACT:UP  16-12-25 21:14 OP:edw  STATUS:               ID:20161225100745d    3
 OLDACT:UP  16-12-25 21:12 OP:edw  STATUS:               ID:20161225100745d    3
 OLDACT:DUP 16-12-25 21:05 OP:edw  STATUS:               ID:20161225100745d    3
 2016-12-25-1008-00M.COL___375                                                 6
 STAT SP IPHASW D HRMM SECON CODA AMPLIT PERI AZIMU VELO AIN AR TRES W  DIS CAZ7
 BAR2 EZ EP       1010 20.12                             170   -0.0410 24.5 196 
 BAR2 EZ ES       1010 35.62                             170   -0.5210 24.5 196 
 BAR2 EZ I        1010 36.35         4.3 0.24            166           24.5 196 
 BRR  HZ EP       1010 22.15                             153    0.4610 73.3 297 
 BRR  HN ES       1010 39.39                             153    0.5310 73.3 297 
 RUS  HZ EP       1010 24.12                             145   -0.0310  101 178 
 RUS  HN ES       1010 43.31                             145    0.0810  101 178 
 RUS  HZ I        1010 44.01         3.5 0.30            143            101 178 
 PTB  HZ EP       1010 26.74                             133   -0.73 9  151 259 
 PTB  HN ES       1010 48.95                             133   -0.19 9  151 259 
 PTB  HZ I        1010 50.82         1.3 0.14            131            151 259 
 ZAR  HZ EP   4   1010 25.27                             123   -7.55 0  206 292 
 ZAR  HE ES   4   1010 56.64                             123   -2.02 0  206 292 
 CHI  HZ EP       1010 38.18                             118    0.27 8  250 196 
 CHI  HN ES   2   1011  8.39                             118    0.66 4  250 196 
 CHI  HZ I        1011 11.38         1.0 0.50            117            250 196 
 GUY2CHZ EP   2   1010 44.20                             113    0.29 4  304 235 
 GUY2CHN ES   4   1011 22.10                             113    3.70 0  304 235 
 GUY2CHZ I        1011 26.08         0.9 0.36                           304 235 
 CBOC HE ES   4   1011 36.06                             111   11.78 0  336 252 
 SJC  HZ EP   4   1010 53.79                             107   -1.80 0  410 327 
 SJC  HN ES   4   1011 37.99                             107   -1.21 0  410 327 
                                                                                
