 2016  325 1556 30.4 L   6.853 -73.184132.0  RSN  4 0.5 1.0LRSN                1
 GAP=129        0.57       5.5     6.1  9.4 -0.2764E+01  0.9884E+01 -0.1452E+02E
 Epicentro: ZAPATOCA - SANTANDER                                               3
 ACTION:UPD 16-05-13 21:27 OP:cam  STATUS:               ID:20160325155630 L   I
 OLDACT:REG 16-03-25 21:44 OP:dnl  STATUS:               ID:20160325154748     3
 2016-03-25-1547-48M.COL___298                                                 6
 STAT SP IPHASW D HRMM SECON CODA AMPLIT PERI AZIMU VELO AIN AR TRES W  DIS CAZ7
 BAR2 EZ EP   3   1556 47.88                             167   -0.59 2 28.8 180 
 BAR2 EZ ES   2   1557  2.51                             167   -0.09 5 28.8 180 
 BAR2 EZ I        1557  5.29         6.0 0.32            164           28.8 180 
 PAM  EZ EP       1556 50.95                             149   -0.0810 75.9  45 
 PAM  EN ES   2   1557  7.50                             149    0.34 5 75.9  45 
 PAM  EZ I        1557  9.41         2.6 0.20            158           75.9  45 
 RUS  HZ EP   2   1556 52.79                             140   -0.48 5  107 174 
 RUS  HN ES   2   1557 11.60                             140    0.47 5  107 174 
 RUS  HZ I        1557 16.90         0.4 0.06            141            107 174 
 ZAR  HZ EP   3   1557  3.01                             121    1.71 2  198 291 
 ZAR  HN ES   2   1557 25.32                             121   -0.12 4  198 291 
 ZAR  HZ I        1557 30.52         1.9 0.09            122            198 291 
                                                                                
