 2013  325 1607 19.1 L   6.767 -73.138152.7  RSN  5 0.4 1.7LRSN                1
 GAP=139        0.96       5.3     5.1  7.4 -0.2712E+01  0.3550E+01  0.2829E+01E
 Epicentro: LOS SANTOS - SANTANDER                                             3
 ACTION:UPD 13-04-09 14:04 OP:ep   STATUS:               ID:20130325160719 L   I
 2013-03-25-1600-00M.COL___244                                                 6
 STAT SP IPHASW D HRMM SECON CODA AMPLIT PERI AZIMU VELO AIN AR TRES W  DIS CAZ7
 BAR2 SZ EP       16 7 39.47                             172   -0.0710 19.9 194 
 BAR2 SZ ES   1   16 7 55.66                             172    0.20 7 19.9 194 
 BAR2 SZ I        16 7 57.12         8.7 0.18            170           19.9 194 
 BRR  HZ EP       16 7 41.66                             153    0.4810 73.8 301 
 BRR  HN ES       16 7 58.89                             153    0.5210 73.8 301 
 BRR  HN I        16 7 59.16        13.4 0.30            152           73.8 301 
 PAM  SZ EP     D 16 7 42.37                             151    0.1410 79.7  37 
 PAM  SN ES       16 7 59.65                             151   -0.5910 79.7  37 
 PAM  SN I        16 8  0.48         7.1 0.22            155           79.7  37 
 RUS  HZ EP       16 7 43.46                             146    0.1410 96.9 176 
 RUS  HN ES       16 8  2.21                             146    0.0310 96.9 176 
 RUS  HN I        16 8  3.73         4.2 0.20            147           96.9 176 
 PTB  HZ EP       16 7 46.34                             133   -0.35 9  148 260 
 PTB  HN ES       16 8  7.67                             133   -0.52 9  148 260 
 PTB  HN I        16 8 13.02        10.1 0.28            133            148 260 
                                                                                
