 2016  425 1449 46.2 L   6.759 -73.149136.8  RSN  8 0.5 1.8LRSN                1
 GAP=138        0.69       5.0     4.9  7.8 -0.1364E+02  0.1649E+02  0.1316E+01E
 Epicentro: LOS SANTOS - SANTANDER                                             3
 ACTION:UPD 16-05-05 14:24 OP:rebc STATUS:               ID:20160425144946 L   I
 OLDACT:REG 16-04-25 22:21 OP:dnl  STATUS:               ID:20160425144743     3
 2016-04-25-1447-43M.COL___313                                                 6
 STAT SP IPHASW D HRMM SECON CODA AMPLIT PERI AZIMU VELO AIN AR TRES W  DIS CAZ7
 BAR2 EZ EP   2   1450  4.61                             172   -0.09 5 18.8 191 
 BAR2 EZ ES   2   1450 18.73                             172   -0.37 5 18.8 191 
 BAR2 EZ I        1450 22.93         7.9 0.54            170           18.8 191 
 PAM  EZ EP       1450  7.48                             148   -0.2610 81.1  38 
 PAM  EN ES       1450 24.82                             148    0.3010 81.1  38 
 PAM  EZ I        1450 27.03        10.1 0.62            154           81.1  38 
 RUS  HZ EP   2   1450  9.18                             144    0.40 5 96.1 176 
 RUS  HN ES   2   1450 26.11                             144   -0.26 5 96.1 176 
 RUS  HZ I        1450 28.07         5.3 0.24            147           96.1 176 
 PTB  HZ EP   2   1450 11.41                             130   -0.97 5  147 261 
 PTB  HN ES   2   1450 32.30                             130   -0.46 5  147 261 
 PTB  HZ I        1450 35.40         9.4 0.20            131            147 261 
 ZAR  HZ EP   2   1450 18.78                             120    0.52 4  205 293 
 ZAR  HN ES   2   1450 43.29                             120    0.05 4  205 293 
 ZAR  HZ I        1450 49.65        16.0 0.24            122            205 293 
 NOR  HZ EP   2   1450 20.36                             117   -0.79 4  232 235 
 NOR  HN ES       1450 49.02                             117    0.65 8  232 235 
 NOR  HZ I        1450 54.79         7.3 0.42            119            232 235 
 CHI  HZ EP   3   1450 22.78                             116   -0.18 2  244 195 
 CHI  HN ES   3   1450 51.24                             116   -0.37 2  244 195 
 CHI  HZ I        1450 55.70         2.9 0.19            119            244 195 
 GUY2CHZ EP   2   1450 29.30                             111    0.18 4  298 235 
 GUY2CHN ES   2   1451  2.13                             111   -0.43 4  298 235 
 GUY2CHZ I        1451 12.70         2.6 0.25                           298 235 
                                                                                
