 2015  325 1816 46.2 L   6.823 -73.201140.1  RSN  5 0.4 1.3LRSN                1
 GAP=129        0.93       4.0     5.1  9.3 -0.2461E+01  0.1762E+02 -0.1074E+02E
 Epicentro: ZAPATOCA - SANTANDER                                               3
 ACTION:UPD 15-04-30 16:29 OP:nd   STATUS:               ID:20150325181646 L   I
 OLDACT:REG 15-03-25 20:46 OP:stll STATUS:               ID:20150325180750     3
 2015-03-25-1807-50M.COL___272                                                 6
 STAT SP IPHASW D HRMM SECON CODA AMPLIT PERI AZIMU VELO AIN AR TRES W  DIS CAZ7
 BRR  HZ EP       1817  7.00                             154    0.6010 64.6 299 
 PAM  SZ EP       1817  8.25                             149    0.2610 79.6  44 
 PAM  SN ES       1817 25.03                             149    0.0710 79.6  44 
 PAM  SZ I        1817 26.86         4.9 0.20            156           79.6  44 
 RUS  HZ EP       1817  9.73                             142    0.0710  104 173 
 RUS  HN ES       1817 27.39                             142   -0.5510  104 173 
 RUS  HZ I        1817 29.51         1.5 0.44            146            104 173 
 PTB  HZ EP       1817 12.03                             132   -0.21 9  142 257 
 PTB  HN ES       1817 32.78                             132    0.26 9  142 257 
 PTB  HZ I        1817 40.20         3.8 0.70            134            142 257 
 SML  HZ EP       1817 21.83                             117   -0.19 8  239 336 
 SML  HN ES       1817 49.34                             117   -0.60 8  239 336 
                                                                                
