 2013  825 1727 17.4 L   6.801 -73.181145.5  RSN  5 0.3 1.7LRSN                1
 GAP=198        0.67       3.5     5.1  6.2  0.8341E+01 -0.7380E+01 -0.8334E+01E
 Epicentro: LOS SANTOS - SANTANDER                                             3
 ACTION:UPD 14-01-14 09:06 OP:ep   STATUS:               ID:20130825172717 L   I
 OLDACT:DUP 13-08-25 17:06 OP:nd   STATUS:               ID:20130825171960d    3
 2013-08-25-1719-59M.COL___270                                                 6
 STAT SP IPHASW D HRMM SECON CODA AMPLIT PERI AZIMU VELO AIN AR TRES W  DIS CAZ7
 BRR  HZ EP       1727 38.12                             154   -0.2310 67.7 300 
 BRR  HN ES       1727 55.05                             154    0.3810 67.7 300 
 BRR  HZ I        1728  6.23        12.2 0.34            155           67.7 300 
 RUS  HZ EP       1727 41.34                             144    0.1610  101 174 
 RUS  HN ES       1727 59.50                             144   -0.2110  101 174 
 RUS  HZ I        1728  1.08         3.7 0.28            155            101 174 
 PTB  HZ EP       1727 44.37                             133    0.35 9  144 258 
 PTB  HN ES       1728  4.45                             133   -0.32 9  144 258 
 PTB  HZ I        1728  6.82         5.2 0.16            140            144 258 
 ZAR  HZ EP   4   1727 52.76                             123    3.28 0  200 293 
 ZAR  HN ES   2   1728 14.66                             123    0.19 4  200 293 
 ZAR  HZ I        1728 20.21         6.0 0.14            129            200 293 
 SML  HZ EP       1727 53.89                             118    0.04 8  242 336 
 SML  HN ES       1728 21.98                             118   -0.28 8  242 336 
 SML  HZ I        1728 26.72         7.4 0.07            123            242 336 
                                                                                
