 2016  325 1832 22.7 L   6.805 -73.191140.0  RSN  8 0.3 1.5LRSN                1
 GAP=131        0.41       2.4     2.7  4.6 -0.3354E+01  0.6358E+01 -0.1508E+01E
 Epicentro: ZAPATOCA - SANTANDER                                               3
 ACTION:UPD 16-05-13 21:27 OP:cam  STATUS:               ID:20160325183222 L   I
 OLDACT:REG 16-03-25 21:54 OP:dnl  STATUS:               ID:20160325182748     3
 2016-03-25-1827-48M.COL___298                                                 6
 STAT SP IPHASW D HRMM SECON CODA AMPLIT PERI AZIMU VELO AIN AR TRES W  DIS CAZ7
 BAR2 EZ EP   2   1832 40.98                             170   -0.64 5 23.5 178 
 BAR2 EZ ES   2   1832 56.56                             170    0.17 5 23.5 178 
 BAR2 EZ I        1832 57.59         5.7 0.15            170           23.5 178 
 PAM  EZ EP     C 1832 44.46                             149   -0.0110 80.3  43 
 PAM  EE ES       1833  1.48                             149    0.0210 80.3  43 
 PAM  EZ I        1833  3.63         8.3 0.50            153           80.3  43 
 RUS  HZ EP   2   1832 45.77                             142   -0.17 5  102 173 
 RUS  HE ES       1833  4.16                             142    0.0710  102 173 
 RUS  HZ I        1833  5.31         5.0 0.30            149            102 173 
 PTB  HN ES   2   1833  9.17                             132    0.11 5  143 258 
 PTB  HZ I        1833 16.13         2.7 0.15            131            143 258 
 SPBC HZ EP   2   1832 50.57                             128    0.09 5  160 217 
 SPBC HE ES   2   1833 12.04                             128   -0.13 5  160 217 
 SPBC HZ I        1833 15.19         6.8 0.18            131            160 217 
 ZAR  HN ES   2   1833 18.93                             122    0.05 4  199 293 
 ZAR  HZ I        1833 25.64         2.5 0.30            122            199 293 
 NOR  HZ EP   2   1832 58.10                             118    0.43 4  231 234 
 NOR  HE ES       1833 24.78                             118   -0.19 8  231 234 
 NOR  HZ I        1833 27.97         3.0 0.16            120            231 234 
 GUY2CHZ EP   2   1833  6.26                             111    0.66 4  297 234 
 GUY2CHE ES   2   1833 39.23                             111    0.16 4  297 234 
 GUY2CHZ I        1833 51.86         1.4 0.46                           297 234 
                                                                                
