 2014 1225 1446 54.8 L   6.770 -73.150141.5  RSN  7 0.4 1.6LRSN                1
 GAP=137        1.10       4.3     4.9  6.9  0.2485E+01  0.8895E+01  0.5049E+01E
 Epicentro: LOS SANTOS - SANTANDER                                             3
 ACTION:UPD 15-02-10 17:07 OP:nd   STATUS:               ID:20141225144654 L   I
 OLDACT:REG 14-12-25 23:29 OP:carl STATUS:               ID:20141225143751     3
 2014-12-25-1437-51M.COL___286                                                 6
 STAT SP IPHASW D HRMM SECON CODA AMPLIT PERI AZIMU VELO AIN AR TRES W  DIS CAZ7
 BAR2 EZ ES       1447 28.83                             171    0.1010 20.0 190 
 BAR2 EZ I        1447 29.62         7.4 0.12            171           20.0 190 
 BRR  HZ EP       1447 15.62                             151    0.0410 72.5 301 
 BRR  HN ES       1447 32.34                             151    0.5610 72.5 301 
 BRR  HZ I        1447 36.73         8.2 0.12            149           72.5 301 
 PAM  SZ IP     C 1447 16.57                             149   -0.1910 80.2  38 
 PAM  SN ES       1447 33.58                             149   -0.2910 80.2  38 
 PAM  SZ I        1447 35.74         9.8 0.60            152           80.2  38 
 RUS  HZ EP       1447 18.11                             144    0.1910 97.3 176 
 RUS  HN ES       1447 35.86                             144   -0.0710 97.3 176 
 RUS  HZ I        1447 37.25         4.1 0.32            146           97.3 176 
 PTB  HZ EP       1447 20.78                             131   -0.57 9  147 260 
 PTB  HN ES       1447 42.02                             131   -0.02 9  147 260 
 PTB  HZ I        1447 44.62         5.3 0.14            131            147 260 
 ZAR  HZ EP       1447 28.20                             121    1.12 9  205 293 
 ZAR  HN ES       1447 51.44                             121   -0.81 9  205 293 
 ZAR  HZ I        1447 59.84         5.7 0.36            122            205 293 
 CHI  HZ EP       1447 31.85                             117   -0.08 8  245 195 
 CHI  HN ES       1448  0.86                             117   -0.00 8  245 195 
 CHI  HZ I        1448  5.25         1.5 0.24            118            245 195 
                                                                                
