 2012 1225 1006  4.6 L   6.744 -73.156151.7  RSN  5 0.2 1.3LRSN                1
 GAP=232        0.50       4.8     4.9  4.4  0.1223E+02  0.9817E+00 -0.1028E+01E
 Epicentro: JORDAN - SANTANDER                                                 3
 ACTION:UPD 13-01-04 14:30 OP:ep   STATUS:               ID:20121225100604 L   I
 2012-12-25-1000-00M.COL___242                                                 6
 STAT SP IPHASW D HRMM SECON CODA AMPLIT PERI AZIMU VELO AIN AR TRES W  DIS CAZ7
 BAR2 SZ EP       10 6 24.67                             173   -0.2010 17.0 190 
 BAR2 SZ ES   1   10 6 40.31                             173   -0.34 7 17.0 190 
 BAR2 SZ I        10 6 42.82         6.9 0.47                          17.0 190 
 BRR  HZ EP       10 6 26.76                             153    0.2210 73.4 303 
 BRR  HE ES       10 6 43.75                             153    0.1110 73.4 303 
 BRR  HZ I        10 6 49.10         2.7 0.13                          73.4 303 
 RUS  HZ EP   1   10 6 28.59                             147    0.04 7 94.5 175 
 RUS  HN ES   1   10 6 47.53                             147    0.33 7 94.5 175 
 RUS  HN I        10 6 49.37         2.4 0.21                          94.5 175 
 PTB  HZ EP   1   10 6 31.66                             134   -0.23 7  146 261 
 PTB  HE ES   1   10 6 53.06                             134   -0.10 7  146 261 
 PTB  HZ I        10 6 58.77         3.4 0.43                           146 261 
 ZAR  HZ EP   1   10 6 37.63                             123    0.02 6  205 294 
 ZAR  HZ I        10 7 14.05         2.1 0.43                           205 294 
                                                                                
