 2016 1225 1445 16.2 L   6.785 -73.141144.1  RSN 18 0.3 2.4LRSN                1
 GAP= 72        0.75       2.8     2.4  3.9  0.1167E+01  0.1954E+01  0.1652E+01E
 Epicentro: LOS SANTOS - SANTANDER                                             3
 ACTION:UPD 17-01-11 20:19 OP:rebc STATUS:               ID:20161225144516 L   I
 OLDACT:UP  16-12-25 23:52 OP:edw  STATUS:               ID:20161225143748     3
 OLDACT:UP  16-12-25 23:52 OP:edw  STATUS:               ID:20161225143748     3
 OLDACT:REG 16-12-25 20:35 OP:edw  STATUS:               ID:20161225143748     3
 2016-12-25-1438-00M.COL___384                                                 6
 STAT SP IPHASW D HRMM SECON CODA AMPLIT PERI AZIMU VELO AIN AR TRES W  DIS CAZ7
 BAR2 EZ IP     C 1445 35.39                             171   -0.1610 21.8 192 
 BAR2 EZ ES       1445 50.45                             171   -0.2310 21.8 192 
 BAR2 EZ I        1445 51.78        99.5 0.20            164           21.8 192 
 BRR  HZ EP       1445 37.25                             152    0.0610 72.4 300 
 BRR  HN ES       1445 54.34                             152    0.7410 72.4 300 
 BRR  HZ I        1445 56.89        26.4 0.30            149           72.4 300 
 PAM  EZ EP       1445 38.30                             150    0.0510 78.4  38 
 PAM  EN ES       1445 55.26                             150   -0.2210 78.4  38 
 PAM  EZ I        1445 57.70        28.1 0.62            149           78.4  38 
 RUS  HZ EP       1445 39.46                             144   -0.1510 98.9 176 
 RUS  HN ES       1445 57.78                             144   -0.1310 98.9 176 
 RUS  HZ I        1445 59.22        44.9 0.30            136           98.9 176 
 PTB  HZ EP   9   1445 42.39                             132   -0.61 0  148 260 
 PTB  HN ES       1446  3.18                             132   -0.15 9  148 260 
 PTB  HZ I        1446  4.95        23.4 0.24            125            148 260 
 TAM  HZ EP       1445 43.78                             130    0.17 9  154 104 
 TAM  HN ES       1446  5.06                             130    0.03 9  154 104 
 ZAR  HZ EP       1445 48.84                             122    0.24 9  205 293 
 ZAR  HN ES       1446 13.72                             122   -0.19 9  205 293 
 ZAR  HZ I        1446 20.01        17.6 0.30            117            205 293 
 CHI  HZ EP       1445 53.64                             117    0.04 8  247 195 
 CHI  HN ES       1446 22.95                             117    0.15 8  247 195 
 CHI  HZ I        1446 29.94         9.9 0.42            111            247 195 
 ROSC BZ EP   4   1445 55.74                             116    1.69 0  252 211 
 ROSC BN ES   4   1446 25.90                             116    2.29 0  252 211 
 ROSC BZ I        1446 31.34        19.4 0.50            111            252 211 
 URE  HZ EP   4   1445 54.69                             113   -2.57 0  285 292 
 URE  HE ES   4   1446 26.83                             113   -2.50 0  285 292 
 URE  HZ I        1446 32.82        11.8 0.38            109            285 292 
 GUY2CHZ EP   4   1446  0.84                             112    1.22 0  301 235 
 GUY2CHN ES   4   1446 37.36                             112    3.84 0  301 235 
 GUY2CHZ I        1446 41.99        16.3 0.32                           301 235 
 PTGC HZ EP   4   1445 58.60                             111   -1.14 0  307 159 
 PTGC HZ I        1446 31.52        13.2 0.60            106            307 159 
 PTGC HN ES   4   1446 31.92                             111   -1.81 0  307 159 
 ELA  HZ EP   4   1446  4.22                             110    1.37 0  328 230 
 ELA  HE ES   4   1446 43.41                             110    4.14 0  328 230 
 ELA  HZ I        1446 46.95        10.8 0.30            105            328 230 
 DBB  EZ EP       1446  3.26                             109   -0.37 7  340 275 
 DBB  EE ES       1446 40.21                             109   -0.45 7  340 275 
 DBB  EZ I        1446 41.48         4.3 0.50            105            340 275 
 ANIL HZ EP   2   1446  6.87                             108    1.08 3  356 225 
 ANIL HE ES   4   1446 47.46                             108    2.95 0  356 225 
 ANIL HZ I        1446 50.63        18.5 0.34            104            356 225 
 ORTC HZ EP   4   1446  4.72                             106   -5.17 0  394 216 
 ORTC HN ES   4   1446 53.62                             106    1.81 0  394 216 
 ORTC HZ I        1446 58.84         7.5 0.54            102            394 216 
 PAL  HZ EP   2   1446 10.68                             106   -0.53 3  405 239 
 PAL  HE ES   2   1446 54.18                             106    0.03 3  405 239 
 PAL  HZ I        1447  1.12         3.3 0.40            101            405 239 
 CRJC HZ EP   9   1446 15.15                             103   -3.65 0  469   3 
 CRJC HN ES       1447  2.71                             104   -1.30 5  469   3 
                                                                                
