 2014 1025 1308 28.0 L   6.751 -73.126145.1  RSN  5 0.4 1.4LRSN                1
 GAP=141        0.98       6.2     5.5  8.4 -0.7872E+01  0.6352E+01  0.6100E+01E
 Epicentro: LOS SANTOS - SANTANDER                                             3
 ACTION:UPD 14-11-29 23:56 OP:nd   STATUS:               ID:20141025130828 L   I
 OLDACT:DUP 14-10-28 23:58 OP:spq  STATUS:               ID:20141025125750d    3
 2014-10-25-1257-49M.COL___289                                                 6
 STAT SP IPHASW D HRMM SECON CODA AMPLIT PERI AZIMU VELO AIN AR TRES W  DIS CAZ7
 BAR2 SZ ES   1   13 9  2.19                             172   -0.49 7 18.6 199 
 BAR2 SZ I        13 9  3.83         4.6 0.18            173           18.6 199 
 BRR  HZ EP   1   13 8 49.45                             151    0.07 7 75.7 301 
 BRR  HE ES   1   13 9  7.00                             151    0.98 7 75.7 301 
 BRR  HZ I        13 9 14.03         8.9 0.32            150           75.7 301 
 PAM  SZ EP       13 8 50.58                             150    0.2210 80.3  36 
 PAM  SE ES       13 9  7.41                             150   -0.3610 80.3  36 
 PAM  SZ I        13 9  9.73         7.6 0.58            152           80.3  36 
 RUS  HZ EP       13 8 51.62                             145    0.2910 95.1 177 
 RUS  HN ES   1   13 9  9.75                             145    0.25 7 95.1 177 
 RUS  HZ I        13 9 11.26         1.2 0.30            151           95.1 177 
 PTB  HZ EP       13 8 54.61                             132   -0.45 9  149 261 
 PTB  HN ES       13 9 15.88                             132   -0.25 9  149 261 
 PTB  HZ I        13 9 17.51         4.1 0.12            134            149 261 
                                                                                
