 2013  425 1239  5.9 L   5.801 -73.875105.4  RSN  4 0.5 1.6LRSN                1
 GAP=238        1.00       9.0     6.4 13.5  0.2601E+02  0.2463E+02  0.2526E+02E
 Epicentro: ALBANIA - SANTANDER                                                3
 ACTION:UPD 13-05-22 14:40 OP:EP   STATUS:               ID:20130425123905 L   I
 2013-04-25-1230-00M.COL___250                                                 6
 STAT SP IPHASW D HRMM SECON CODA AMPLIT PERI AZIMU VELO AIN AR TRES W  DIS CAZ7
 RUS  HZ IP     D 1239 25.45                             137    0.5610 88.3  83 
 RUS  HN ES   1   1239 39.42                             137   -0.27 7 88.3  83 
 RUS  HZ I        1239 41.32         5.9 0.24            143           88.3  83 
 PTB  HZ EP       1239 25.46                             132   -0.1510  104 322 
 PTB  HN ES   1   1239 40.97                             132   -0.01 7  104 322 
 PTB  HZ I        1239 43.76         5.8 0.16            135            104 322 
 BAR2 SZ IP     C 1239 27.01                             128   -0.0510  116  41 
 BAR2 SZ ES   1   1239 43.02                             128   -0.54 7  116  41 
 BAR2 SZ I        1239 44.04        15.2 0.46            133            116  41 
 BRR  HZ EP       1239 29.25                             121   -0.43 9  146   7 
 BRR  HN ES   1   1239 49.15                             121    0.93 7  146   7 
 BRR  HZ I        1239 50.51        10.7 0.12            126            146   7 
                                                                                
