 2017  725 1129 29.2 L   6.789 -73.142148.7  RSN  8 0.4 1.9LRSN                1
 GAP=212        0.97       4.6     4.3  5.8  0.8889E+01  0.2749E+01  0.1527E+01E
 Epicentro: LOS SANTOS - SANTANDER                                             3
 ACTION:UPD 17-08-30 15:36 OP:rebc STATUS:               ID:20170725112929 L   I
 OLDACT:REG 17-07-25 20:04 OP:ar   STATUS:               ID:20170725112739     3
 2017-07-25-1128-00M.COL___377                                                 6
 STAT SP IPHASW D HRMM SECON CODA AMPLIT PERI AZIMU VELO AIN AR TRES W  DIS CAZ7
 BAR2 EZ EP       1129 48.85                             171   -0.2810 22.2 192 
 BAR2 EZ ES       1130  4.32                             171   -0.3810 22.2 192 
 BAR2 EZ I        1130  4.96        18.3 0.24            168           22.2 192 
 BRR  HZ EP       1129 50.89                             153    0.2010 72.1 299 
 BRR  HN ES       1130  8.08                             153    0.6110 72.1 299 
 RUS  HZ EP       1129 53.03                             145   -0.1010 99.4 176 
 RUS  HE ES       1130 11.72                             145   -0.0910 99.4 176 
 RUS  HZ I        1130 12.10         8.0 0.26            144           99.4 176 
 PTB  HZ EP       1129 55.54                             133   -0.85 9  148 259 
 PTB  HE ES       1130 17.12                             133   -0.51 9  148 259 
 PTB  HZ I        1130 19.99         8.4 0.48            131            148 259 
 SPBC HZ EP       1129 57.80                             130   -0.03 9  163 219 
 SPBC HE ES       1130 20.34                             130    0.15 9  163 219 
 SPBC HZ I        1130 22.45        16.2 0.20            128            163 219 
 YPLC HZ EP       1129 59.03                             127   -0.03 9  176 151 
 YPLC HN ES       1130 22.89                             127    0.52 9  176 151 
 YPLC HZ I        1130 23.71         6.8 0.26            128            176 151 
 ZAR  HZ EP       1130  1.91                             123    0.02 9  205 292 
 ZAR  HN ES       1130 27.73                             123    0.32 9  205 292 
 ZAR  HZ I        1130 33.81        12.0 0.40            122            205 292 
 NOR  HZ EP       1130  5.53                             119    0.50 8  234 235 
 NOR  HN ES       1130 33.25                             119    0.25 8  234 235 
 NOR  HZ I        1130 38.01         5.3 0.38            118            234 235 
                                                                                
