 2012  625 1110 36.4 L   6.751 -73.210143.8  RSN  5 0.2 1.4LRSN                1
 GAP=225        0.41       5.3     5.0  4.8  0.1666E+02  0.4737E+01  0.7318E+01E
 Epicentro: VILLANUEVA - SANTANDER                                             3
 ACTION:UPD 12-08-06 17:52 OP:ep   STATUS:               ID:20120625111036 L   I
 2012-06-25-1110-00M.COL___199                                                 6
 STAT SP IPHASW D HRMM SECON CODA AMPLIT PERI AZIMU VELO AIN AR TRES W  DIS CAZ7
 BAR2 SZ EP   2   1110 55.45                             172   -0.25 5 17.8 170 
 BAR2 SZ ES   2   1111 10.41                             172   -0.34 5 17.8 170 
 BAR2 SZ I        1111 11.85         5.3 0.38                          17.8 170 
 BRR  HZ EP   1   1110 57.07                             153   -0.09 7 68.0 305 
 BRR  HN ES   1   1111 13.54                             153    0.19 7 68.0 305 
 BRR  HZ I        1111 17.78        10.3 0.46                          68.0 305 
 RUS  HZ EP       1110 59.86                             145    0.2310 96.0 172 
 RUS  HZ I        1111  0.60         2.6 0.12                          96.0 172 
 RUS  HN ES   2   1111 17.63                             145   -0.12 5 96.0 172 
 PTB  HZ EP       1111  2.35                             133   -0.14 9  140 260 
 PTB  HN ES   2   1111 22.93                             133    0.09 5  140 260 
 PTB  HZ I        1111 25.76         2.5 0.12                           140 260 
 ZAR  HN ES   3   1111 33.12                             123    0.01 2  200 294 
 ZAR  HZ I        1111 38.56         4.3 0.52                           200 294 
                                                                                
