 2013  325 1715  5.0 L   6.713 -73.143147.4  RSN  6 0.4 1.9LRSN                1
 GAP=141        0.96       4.8     4.3  6.5  0.2037E+01  0.6992E+01 -0.1754E+01E
 Epicentro: JORDAN - SANTANDER                                                 3
 ACTION:UPD 13-04-09 14:04 OP:ep   STATUS:               ID:20130325171505 L   I
 2013-03-25-1710-00M.COL___244                                                 6
 STAT SP IPHASW D HRMM SECON CODA AMPLIT PERI AZIMU VELO AIN AR TRES W  DIS CAZ7
 BAR2 SZ EP       1715 24.60                             174   -0.0810 14.0 198 
 BAR2 SZ ES       1715 40.15                             174    0.1310 14.0 198 
 BAR2 SZ I        1715 40.56        15.1 0.28            175           14.0 198 
 BRR  HZ EP       1715 26.71                             151    0.0810 76.5 305 
 BRR  HN ES       1715 44.04                             151    0.5510 76.5 305 
 BRR  HN I        1715 44.05        21.1 0.18            151           76.5 305 
 PAM  SZ EP       1715 27.81                             149   -0.0410 84.9  35 
 PAM  SN ES       1715 45.22                             149   -0.4510 84.9  35 
 PAM  SN I        1715 47.15         7.4 0.56            149           84.9  35 
 RUS  HZ EP       1715 28.41                             147    0.1610 91.0 176 
 RUS  HN ES       1715 46.51                             147    0.1310 91.0 176 
 RUS  HN I        1715 47.24        11.9 0.30            148           91.0 176 
 PTB  HZ EP       1715 31.46                             133   -0.52 9  146 263 
 PTB  HN ES       1715 52.43                             133   -0.60 9  146 263 
 PTB  HN I        1715 54.33         9.0 0.24            133            146 263 
 ZAR  HZ EP       1715 38.70                             122    0.73 8  208 295 
 ZAR  HE ES       1716  3.63                             122   -0.05 8  208 295 
 ZAR  HE I        1716  4.92        16.6 0.20            123            208 295 
                                                                                
