 2010  725 1922  1.8 L   6.763 -73.116143.7  RSN  7 0.4 2.0LRSN                1
 GAP=162        1.01       4.8    10.3  8.9 -0.3233E+01 -0.1376E+02 -0.1117E+02E
 Epicentro: LOS SANTOS - SANTANDER                                             3
 ACTION:UPD 10-12-01 15:20 OP:pat  STATUS:               ID:20100725192201 L   I
 2010-07-25-1918-23S.COL___123                                                 6
 STAT SP IPHASW D HRMM SECON CODA AMPLIT PERI AZIMU VELO AIN AR TRES W  DIS CAZ7
 BAR2 SZ IP       1922 21.09                             172    -0.110   20 202 
 BAR2 SZ I        1922 21.25        26.9 0.20                            20 202 
 BAR2 SZ ES   1   1922 36.23                             172     0.0 7   20 202 
 BRR  HZ IP     C 1922 22.98                             151    -0.110   76 300 
 BRR  HZ I        1922 24.29        30.0 0.13                            76 300 
 BRR  HE ES   1   1922 39.25                             151    -0.3 7   76 300 
 RUS  HZ EP   1   1922 24.66                             145    -0.4 7   96 178 
 RUS  HE ES   1   1922 43.57                             145     0.4 7   96 178 
 RUS  HZ I        1922 44.82        10.3 0.34                            96 178 
 GUE  SZ EP       1922 27.18                             138     0.510  120  10 
 GUE  SZ I        1922 30.86         6.1 0.07                           120  10 
 GRA  SZ IP       1922 27.00                             136    -0.210  129  16 
 GRA  SZ I        1922 28.41        15.4 0.22                           129  16 
 GRA  SZ ES   1   1922 46.70                             136    -0.2 7  129  16 
 OCA  SZ EP   1   1922 29.76                             128    -0.7 7  165 352 
 OCA  SZ ES   1   1922 53.31                             128     0.6 7  165 352 
 OCA  SZ I        1922 56.45        16.0 0.25                           165 352 
 HEL  HZ EP   2   1922 43.05                             114     0.9 4  274 257 
 HEL  HZ I        1923 20.18        10.7 0.32                           274 257 
                                                                                
