 2015  325 1118 33.7 L   6.793 -73.143144.0  RSN  8 0.5 1.9LRSN                1
 GAP= 71        1.24       5.0     4.8  7.3  0.4533E+01  0.2638E+01 -0.6685E+01E
 Epicentro: LOS SANTOS - SANTANDER                                             3
 ACTION:UPD 15-04-30 16:29 OP:nd   STATUS:               ID:20150325111833 L   I
 OLDACT:REG 15-03-25 20:20 OP:stll STATUS:               ID:20150325111748     3
 2015-03-25-1117-48M.COL___278                                                 6
 STAT SP IPHASW D HRMM SECON CODA AMPLIT PERI AZIMU VELO AIN AR TRES W  DIS CAZ7
 BAR2 EZ EP       1118 53.17                             171    0.0910 22.7 191 
 BAR2 EZ ES       1119  7.95                             171   -0.2710 22.7 191 
 BAR2 EZ I        1119  9.04        12.1 0.20            171           22.7 191 
 BRR  HZ EP       1118 55.12                             152    0.4410 71.9 299 
 BRR  HN ES       1119 12.02                             152    0.9710 71.9 299 
 BRR  HZ I        1119 16.62        13.8 0.16            151           71.9 299 
 PAM  SZ EP       1118 56.10                             150    0.3710 77.7  39 
 PAM  SZ I        1118 56.27        19.3 0.24            152           77.7  39 
 PAM  SN ES       1119 12.53                             150   -0.3910 77.7  39 
 RUS  HZ EP       1118 57.27                             144    0.0710 99.8 176 
 RUS  HN ES       1119 15.24                             144   -0.3110 99.8 176 
 RUS  HZ I        1119 16.70         7.3 0.30            146           99.8 176 
 PTB  HZ EP       1119  0.64                             131    0.12 9  148 259 
 PTB  HN ES       1119 20.61                             131   -0.85 9  148 259 
 PTB  HZ I        1119 23.53         8.5 0.18            132            148 259 
 TAM  HZ EP       1119  1.38                             130    0.21 9  155 105 
 TAM  HZ I        1119  1.56        17.0 0.18            134            155 105 
 ZAR  HZ EP       1119  6.33                             122    0.26 9  205 292 
 ZAR  HN ES       1119 31.67                             122    0.33 9  205 292 
 ZAR  HZ I        1119 37.95        15.5 0.30            122            205 292 
 SML  HZ EP       1119  9.39                             117   -0.91 8  245 335 
 SML  HN ES       1119 38.27                             117   -0.59 8  245 335 
                                                                                
