 2011 1225 1629 47.7 L   6.761 -73.093138.7  RSN  5 0.4 1.4LRSN                1
 GAP=145        0.78       5.9     7.8  7.4 -0.5511E+01 -0.1020E+02  0.6842E+01E
 Epicentro: LOS SANTOS - SANTANDER                                             3
 ACTION:UPD 12-07-13 16:18 OP:ep   STATUS:               ID:20111225162947 L   I
 2011-12-25-1630-00M.COL___187                                                 6
 STAT SP IPHASW D HRMM SECON CODA AMPLIT PERI AZIMU VELO AIN AR TRES W  DIS CAZ7
 BAR2 SZ EP   1   1630  6.21                             171   -0.23 7 21.1 208 
 BAR2 SZ ES   1   1630 20.82                             171   -0.24 7 21.1 208 
 BAR2 SZ I        1630 22.55         6.8 0.29                          21.1 208 
 GIR2 SZ EP   1   1630  6.32                             164   -0.39 7 36.9 342 
 GIR2 SZ ES   1   1630 21.67                             164    0.13 7 36.9 342 
 PAM  SZ EP       1630  9.21                             150    0.0410 77.3  34 
 PAM  SZ I        1630  9.35         3.4 0.20                          77.3  34 
 PAM  SN ES   1   1630 26.04                             150    0.12 7 77.3  34 
 BRR  HZ EP   1   1630  8.06                             149   -0.47 7 78.4 299 
 BRR  HZ I        1630  8.54        12.6 0.10                          78.4 299 
 BRR  HN ES   1   1630 25.17                             149    0.39 7 78.4 299 
 RUS  HZ EP   1   1630 11.25                             144    0.82 7 96.0 179 
 RUS  HE ES   2   1630 27.74                             144   -0.42 5 96.0 179 
 RUS  HZ I        1630 29.44         1.8 0.28                          96.0 179 
                                                                                
