 2013  425 1627 13.0 L   6.789 -73.160143.9  RSN  7 0.5 2.1LRSN                1
 GAP=135        1.04       4.8     5.8  7.6 -0.4188E+01  0.1209E+02 -0.3649E+01E
 Epicentro: LOS SANTOS - SANTANDER                                             3
 ACTION:UPD 13-05-22 14:40 OP:EP   STATUS:               ID:20130425162713 L   I
 2013-04-25-1620-00M.COL___249                                                 6
 STAT SP IPHASW D HRMM SECON CODA AMPLIT PERI AZIMU VELO AIN AR TRES W  DIS CAZ7
 BAR2 SZ IP     D 1627 32.33                             171   -0.0110 21.9 186 
 BAR2 SZ ES   1   1627 47.13                             171   -0.32 7 21.9 186 
 BAR2 SZ I        1627 48.53        47.0 0.16            170           21.9 186 
 BRR  HZ IP     D 1627 34.45                             152    0.5810 70.4 300 
 BRR  HN ES   1   1627 51.13                             152    0.96 7 70.4 300 
 BRR  HZ I        1627 52.33        29.2 0.14            150           70.4 300 
 PAM  SZ EP       1627 35.13                             150    0.0210 79.4  40 
 PAM  SN ES   1   1627 52.14                             150   -0.23 7 79.4  40 
 PAM  SZ I        1627 54.36        14.5 0.56            154           79.4  40 
 RUS  HZ IP     C 1627 36.25                             144   -0.2110 99.5 175 
 RUS  HN ES   1   1627 54.82                             144    0.05 7 99.5 175 
 RUS  HZ I        1627 56.78         4.7 0.14            146           99.5 175 
 PTB  HZ EP       1627 38.98                             132   -0.64 9  146 259 
 PTB  HN ES   1   1627 59.87                             132   -0.53 7  146 259 
 PTB  HZ I        1628  5.84        14.0 0.16            132            146 259 
 NOR  HZ IP     C 1627 48.95                             118    0.58 8  233 234 
 NOR  HN ES   1   1628 15.89                             118   -0.09 6  233 234 
 NOR  HZ I        1628 21.30        11.2 0.20            119            233 234 
 SML  HZ EP       1627 49.79                             117    0.25 8  244 336 
 SML  HN ES   1   1628 17.16                             117   -0.91 6  244 336 
 SML  HZ I        1628 21.44        21.5 0.10            119            244 336 
                                                                                
