 2015 1225 1633  5.2 L   6.519 -73.535113.0  RSN  8 0.3 1.8LRSN                1
 GAP= 91        0.82       2.5     3.6  5.7  0.3697E-01  0.9798E+01 -0.2522E+01E
 Epicentro: EL CARMEN - SANTANDER                                              3
 ACTION:UPD 16-02-04 15:07 OP:cam  STATUS:               ID:20151225163305 L   I
 OLDACT:REG 15-12-25 20:56 OP:cara STATUS:               ID:20151225162749     3
 2015-12-25-1627-49M.COL___334                                                 6
 STAT SP IPHASW D HRMM SECON CODA AMPLIT PERI AZIMU VELO AIN AR TRES W  DIS CAZ7
 BAR2 EZ IP       1633 21.64                             159    0.1510 39.9  78 
 BAR2 EZ ES       1633 34.01                             159   -0.1810 39.9  78 
 BAR2 EZ I        1633 35.78        33.0 0.38            164           39.9  78 
 BRR  HZ EP       1633 22.63                             147   -0.0710 67.9 343 
 BRR  HN ES       1633 36.29                             147   -0.0510 67.9 343 
 BRR  HZ I        1633 44.73         8.7 0.28            149           67.9 343 
 RUS  HZ IP       1633 24.74                             140    0.0610 85.5 144 
 RUS  HE ES       1633 40.18                             140    0.3310 85.5 144 
 RUS  HZ I        1633 41.76         3.5 0.12            147           85.5 144 
 PTB  HZ IP       1633 24.59                             135   -0.7810  102 271 
 PTB  HN ES   4   1633 39.50                             135   -1.58 0  102 271 
 PTB  HZ I        1633 40.72        12.9 0.18            138            102 271 
 SPBC HN ES       1633 42.88                             132   -0.1210  113 212 
 SPBC HZ I        1633 47.06        14.3 0.22            137            113 212 
 ZAR  HZ EP       1633 33.71                             117    0.43 9  181 306 
 ZAR  HN ES       1633 55.63                             117    0.46 9  181 306 
 ZAR  HZ I        1633 57.59         7.8 0.44            121            181 306 
 NOR  HZ EP       1633 33.56                             117    0.21 9  182 234 
 NOR  HN ES       1633 55.28                             117   -0.01 9  182 234 
 NOR  HZ I        1633 57.68         7.4 0.14            122            182 234 
 SML  HZ IP       1633 41.60                             108   -0.42 8  259 347 
 SML  HN ES       1634 10.79                             108    0.07 8  259 347 
 SML  HZ I        1634 13.65         8.9 0.22            112            259 347 
                                                                                
