 2012  925 1602 34.3 L   6.819 -73.147148.5  RSN 20 0.5 3.8LRSN 3.6WRSN        1
 SPEC AVERAGE  MO 14.5 ST 26.2 OM  3.1 f0 3.78 R0.4515 AL 2.57 WI  8.0 MW  3.6 3
 SPEC SD       MO  0.4 ST 23.9 OM  0.5 f0 1.51 R0.1609 AL      WI      MW  0.2 3
 GAP= 65        0.93       3.5     3.3  4.8  0.6495E+00  0.2902E+01  0.5184E+01E
 Epicentro: LOS SANTOS - SANTANDER                                             3
 SPEC RREFHH Z MO 14.6 ST 77.1 OM  2.7 f0 5.12 R0.2871 AL 3.07 WI  9.0 MW  3.7 3
 SPEC RREFHH Z T16 4 0 K 0.000 GD  355 VS 4.20 DE 3.00 Q0230.0 QA 0.60 VS 4.20 3
 SPEC RUS HH Z MO 14.6 ST  9.8 OM  2.9 f0 2.71 R0.5424 AL 1.81 WI  8.2 MW  3.6 3
 SPEC RUS HH Z T16 316 K 0.020 GD  180 VS 4.20 DE 3.20 Q0230.0 QA 0.60 VS 4.20 3
 SPEC PAM SH N MO 14.5 ST  4.5 OM  2.9 f0 2.19 R0.6712 AL 2.86 WI  6.2 MW  3.6 3
 SPEC PAM SH N T16 313 K 0.000 GD  166 VS 4.20 DE 3.00 Q0230.0 QA 0.60 VS 4.20 3
 SPEC COD HH N MO 14.4 ST  7.4 OM  2.5 f0 2.68 R0.5485 AL 1.49 WI 17.1 MW  3.6 3
 SPEC COD HH N T16 359 K 0.000 GD  376 VS 4.20 DE 3.00 Q0230.0 QA 0.60 VS 4.20 3
 SPEC HEL HH N MO 14.4 ST 41.4 OM  2.5 f0 4.97 R0.2958 AL 2.03 WI  3.6 MW  3.5 3
 SPEC HEL HH N T16 346 K 0.020 GD  309 VS 4.20 DE 3.20 Q0230.0 QA 0.60 VS 4.20 3
 SPEC CHI HH N MO 15.1 ST 25.7 OM  3.2 f0 2.53 R0.5810 AL 1.77 WI  9.1 MW  4.0 3
 SPEC CHI HH N T16 341 K 0.020 GD  291 VS 4.20 DE 3.20 Q0230.0 QA 0.60 VS 4.20 3
 SPEC BRR HH N MO 13.7 ST 17.6 OM  2.1 f0 6.28 R0.2341 AL 4.93 WI  2.6 MW  3.1 3
 SPEC BRR HH N T16 313 K 0.020 GD  164 VS 4.20 DE 3.20 Q0230.0 QA 0.60 VS 4.20 3
 ACTION:UP  12-10-22 14:20 OP:ep   STATUS:               ID:20120925160234 L   I
 2012-09-25-1559-39M.COL___212                                                 6
 STAT SP IPHASW D HRMM SECON CODA AMPLIT PERI AZIMU VELO AIN AR TRES W  DIS CAZ7
 BAR2 SZ IP       16 2 54.31                             170   -0.0310 25.4 189 
 BAR2 SZ ES   1   16 3  9.29                             170   -0.65 7 25.4 189 
 BAR2 SZ I        16 3 11.79      1308.0 0.18                          25.4 189 
 GIR2 SZ IP       16 2 54.35                             168    0.0710 29.1 350 
 GIR2 SZ ES   1   16 3  9.17                             168   -0.67 7 29.1 350 
 BRR  HZ IP     C 16 2 56.06                             153    0.3510 70.0 297 
 BRR  HN ES       16 3 13.27                             153    0.8810 70.0 297 
 BRR  HN I        16 3 13.90      4591.6 0.20                          70.0 297 
 BRR  HZ I        16 3 14.86       831.4 0.14                          70.0 297 
 PAM  SZ EP   1   16 2 57.13                             152    0.38 7 75.9  41 
 PAM  SN ES   1   16 3 14.16                             152   -0.08 7 75.9  41 
 PAM  SZ I        16 3 17.34       509.0 0.42                          75.9  41 
 RUS  HZ IP       16 2 58.23                             144   -0.2810  103 176 
 RUS  HN ES   1   16 3 17.34                             144   -0.03 7  103 176 
 RUS  HZ I        16 3 18.14       582.3 0.25                           103 176 
 GRA  SZ EP   9   16 3  2.19                             138    2.53 0  124  18 
 GRA  SZ ES   9   16 3 21.83                                   -0.12 0  124  18 
 PTB  HN ES   1   16 3 21.84                             133   -0.93 7  148 258 
 PTB  HN I        16 3 27.67       956.0 0.35                           148 258 
 TAM  HZ IP     D 16 3  2.77                             131    0.47 9  156 106 
 TAM  HZ I        16 3  2.93       471.6 0.25                           156 106 
 YOP  SZ EP   1   16 3  5.08                             127    0.31 7  181 154 
 YOP  SE ES   1   16 3 28.52                             127    0.01 7  181 154 
 YOP  SN I        16 3 30.48       676.1 0.46                           181 154 
 ZAR  HZ EP   1   16 3  6.64                             123   -0.22 6  203 292 
 ZAR  HE ES   1   16 3 32.14                             123   -0.09 6  203 292 
 ZAR  HN I        16 3 37.52       851.7 0.39                           203 292 
 NOR  SZ EP   1   16 3 10.19                             119   -0.15 6  236 234 
 NOR  SE ES   1   16 3 38.45                             119    0.03 6  236 234 
 NOR  SN I        16 3 44.79       671.7 0.22                           236 234 
 CHI  HZ EP       16 3 12.28                             117   -0.12 8  251 195 
 CHI  HN ES   1   16 3 41.92                             117   -0.17 6  251 195 
 CHI  HZ I        16 3 45.47       291.8 0.30                           251 195 
 HEL  HZ EP   1   16 3 14.49                             115   -0.23 6  272 255 
 HEL  HN ES   1   16 3 47.05                             115    0.82 6  272 255 
 HEL  HZ I        16 3 53.91       219.0 0.27                           272 255 
 URE  HZ EP   1   16 3 14.13                             114   -1.30 6  283 292 
 GUY  SZ EP   1   16 3 18.78                             113    0.33 5  305 235 
 GUY  SZ I        16 4  0.83       517.5 0.40                           305 235 
 VIL  SZ EP   1   16 3 17.92                             112   -0.19 5  305 191 
 VIL  SN I        16 3 57.91       819.0 0.58                           305 191 
 RREF HZ EP   1   16 3 20.91                             111    0.17 5  323 229 
 RREF HE ES   1   16 3 57.35                             111    0.42 5  323 229 
 RREF HZ I        16 4  6.34       194.2 0.18                           323 229 
 DBB  SZ EP   1   16 3 21.77                             110   -0.11 5  339 274 
 COD  HZ EP   1   16 3 21.76                             109   -0.81 5  346 355 
 ANIL HZ EP   1   16 3 25.40                             109    1.00 5  359 224 
 PRA  HZ EP   1   16 3 27.46                             107   -0.69 4  394 209 
 PRA  HN ES   1   16 4  9.91                             107   -0.22 4  394 209 
 PRA  HN I        16 4 16.68       149.5 0.56                           394 209 
                                                                                
