 2010  225 1343 44.7 L   6.800 -73.051147.1  RSN  7 0.3 1.8LRSN                1
 GAP=209        0.47       3.5     7.4  4.8  0.7830E+01  0.7252E+01  0.3885E+01E
 Epicentro: LOS SANTOS - SANTANDER                                             3
 ACTION:UP  10-08-24 09:50 OP:vdl  STATUS:               ID:20100225134344 L   I
 2010-02-25-1340-38S.COL___094                                                 6
 STAT SP IPHASW D HRMM SECON CODA AMPLIT PERI AZIMU VELO SNR AR TRES W  DIS CAZ7
 BAR2 SZ EP       1344  4.64                             170     0.110   27 213 
 BAR2 SZ ES   2   1344 19.62                             170    -0.4 5   27 213 
 GIR2 SZ EP       1344  4.72                             166     0.110   35 333 
 GIR2 SZ ES   3   1344 20.65                             166     0.5 2   35 333 
 BRR  HZ EP       1344  6.47                             150     0.010   81 295 
 BRR  HZ I        1344  6.81        19.0 0.13                            81 295 
 BRR  HN ES   2   1344 23.11                             150    -0.4 5   81 295 
 RUS  BZ EP       1344  8.58                             144     0.010  100 182 
 RUS  BE ES   1   1344 27.10                             144    -0.1 7  100 182 
 RUS  BZ I        1344 28.50         5.5 0.21                           100 182 
 CHI  HZ EP   1   1344 22.54                             117    -0.2 6  252 197 
 CHI  HZ I        1344 23.34         1.8 0.13                           252 197 
 CHI  HE ES   3   1344 52.25                             117    -0.2 2  252 197 
 RREF BE ES   3   1345 10.04                             110     1.5 2  330 231 
 RREF BZ I        1345 11.38         4.3 0.18                           330 231 
 PRA  HZ EP       1344 38.96                             106     0.1 6  397 211 
 PRA  HE ES   3   1345 20.87                             106    -0.2 1  397 211 
 PRA  HZ I        1345 23.43         2.7 0.38                           397 211 
                                                                                
