 2011 1025 1250 15.8 L   6.942 -73.070149.8  RSN  5 0.3 1.5LRSN                1
 GAP=138        0.52       4.0     5.1  5.5 -0.2137E+01 -0.1080E+00 -0.2910E+01E
 Epicentro: PIEDECUESTA - SANTANDER                                            3
 ACTION:UPD 12-07-13 16:05 OP:ep   STATUS:               ID:20111025125015 L   I
 2011-10-25-1248-24S.COL___172                                                 6
 STAT SP IPHASW D HRMM SECON CODA AMPLIT PERI AZIMU VELO AIN AR TRES W  DIS CAZ7
 BTL  SZ EP   3   1250 36.55                             171    0.61 2 21.9 263 
 BAR2 SZ EP       1250 36.21                             164   -0.2110 40.6 198 
 BAR2 SZ ES   1   1250 52.13                             164   -0.34 7 40.6 198 
 BAR2 SZ I        1250 53.07         5.9 0.20                          40.6 198 
 PAM  SZ EP       1250 37.73                             157    0.1510 60.1  43 
 PAM  SN ES   1   1250 54.55                             157    0.02 7 60.1  43 
 BRR  HZ EP       1250 37.41                             153   -0.1310 73.2 284 
 BRR  HE ES   1   1250 54.78                             153    0.31 7 73.2 284 
 BRR  HZ I        1250 56.77        10.2 0.82                          73.2 284 
 RUS  HZ EP   3   1250 41.40                             141    0.25 2  116 181 
 RUS  HZ I        1250 42.06         3.0 0.32                           116 181 
 RUS  HN ES   1   1251  1.16                             141    0.28 7  116 181 
                                                                                
