 2010  425 1223 31.9 L   6.748 -73.067144.0  RSN  6 0.6 2.3LRSN                1
 GAP=201        1.31      11.6    16.3 16.9 -0.2730E+02 -0.1677E+03 -0.2301E+02E
 Epicentro: LOS SANTOS - SANTANDER                                             3
 ACTION:UPD 10-08-24 10:01 OP:vdl  STATUS:               ID:20100425122331 L   I
 2010-04-25-1219-31S.COL___104                                                 6
 STAT SP IPHASW D HRMM SECON CODA AMPLIT PERI AZIMU VELO AIN AR TRES W  DIS CAZ7
 BAR2 SZ EP       1223 51.19                             171    -0.110   22 217 
 BAR2 SZ ES   2   1224  5.76                             171    -0.7 5   22 217 
 BRR  HZ EP       1223 53.58                             149     0.110   82 299 
 BRR  HN ES       1224 10.64                             149     0.310   82 299 
 BRR  HZ I        1224 14.67        23.8 0.14                            82 299 
 BRI  SZ EP   1   1223 55.98                             140     0.1 7  111  16 
 GUE  SZ EP       1223 56.19                             138    -0.610  121   7 
 GRA  SZ EP       1223 58.20                             136     0.910  129  13 
 GRA  SZ ES   2   1224 17.69                             136     0.6 5  129  13 
 OCA  SZ EP   1   1224  0.05                             128    -0.7 7  167 350 
 OCA  SZ ES   2   1224 21.96                             128    -1.3 5  167 350 
 OCA  SZ I        1224 22.83        27.6 0.54                           167 350 
                                                                                
