 2015  825 1637 22.1 L   6.800 -73.119145.3  RSN 19 0.4 2.2LRSN                1
 GAP=140        0.97       2.5     3.9  5.1 -0.1732E+01  0.7173E+01  0.1376E+01E
 Epicentro: LOS SANTOS - SANTANDER                                             3
 ACTION:UPD 15-09-15 23:05 OP:cam  STATUS:               ID:20150825163722 L   I
 OLDACT:REG 15-08-25 21:39 OP:spq  STATUS:               ID:20150825162748     3
 2015-08-25-1627-48M.COL___334                                                 6
 STAT SP IPHASW D HRMM SECON CODA AMPLIT PERI AZIMU VELO AIN AR TRES W  DIS CAZ7
 BAR2 EZ EP     D 1637 41.48                             170   -0.2010 24.0 197 
 BAR2 EZ ES   1   1637 56.75                             170   -0.21 7 24.0 197 
 BAR2 EZ I        1637 57.65        33.0 0.24            166           24.0 197 
 BRR  HZ EP       1637 43.31                             152   -0.0310 73.8 297 
 BRR  HN ES       1638  0.65                             152    0.7410 73.8 297 
 BRR  HZ I        1638  5.97        33.8 0.70            148           73.8 297 
 PAM  EZ EP       1637 44.57                             151    0.4210 75.5  38 
 PAM  EN ES       1638  1.62                             151    0.2710 75.5  38 
 PAM  EZ I        1638  2.21        14.6 0.22            157           75.5  38 
 RUS  HZ EP       1637 45.50                             144   -0.2910  100 178 
 RUS  HN ES       1638  4.20                             144   -0.0710  100 178 
 RUS  HZ I        1638  5.12        11.6 0.22            145            100 178 
 OCA  HZ EP   1   1637 50.48                             129    0.08 7  161 352 
 OCA  HN ES       1638 12.27                             129   -0.21 9  161 352 
 OCA  HZ I        1638 14.59        28.4 0.34            132            161 352 
 SPBC HZ EP       1637 50.50                             129   -0.23 9  165 220 
 SPBC HN ES       1638 12.35                             129   -0.72 9  165 220 
 SPBC HZ I        1638 17.16        25.9 0.22            129            165 220 
 ZAR  HZ EP   1   1637 54.85                             122    0.06 6  207 292 
 ZAR  HN ES       1638 19.46                             122   -0.83 8  207 292 
 ZAR  HZ I        1638 25.71        13.9 0.34            122            207 292 
 NOR  HZ EP       1637 57.60                             118   -0.45 8  237 235 
 NOR  HN ES       1638 26.09                             118   -0.01 8  237 235 
 NOR  HZ I        1638 30.45         9.5 0.18            119            237 235 
 SML  HZ EP       1637 58.42                             117   -0.40 8  245 335 
 SML  HE ES   1   1638 26.97                             117   -0.50 6  245 335 
 SML  HZ I        1638 31.65        13.8 0.12            119            245 335 
 CHI  HZ EP       1637 59.91                             117    0.06 8  249 196 
 CHI  HN ES       1638 29.15                             117   -0.15 8  249 196 
 CHI  HZ I        1638 34.13         9.1 0.40            118            249 196 
 ROSC BN ES   4   1638 32.42                             116    2.22 0  254 212 
 ROSC BZ I        1638 36.04        24.7 0.40            118            254 212 
 HEL  HZ EP       1638  3.27                             114    0.67 8  275 256 
 HEL  HN ES       1638 34.83                             114    0.64 8  275 256 
 HEL  HZ I        1638 40.04         7.8 0.28            115            275 256 
 URE  HZ EP   4   1638  1.75                             113   -1.69 0  287 292 
 URE  HN ES   4   1638 32.14                             113   -3.56 0  287 292 
 URE  HZ I        1638 43.70        10.5 0.18            114            287 292 
 GUY2CHZ EP       1638  6.60                             112    0.65 7  304 235 
 GUY2CHN ES   4   1638 41.93                             112    1.77 0  304 235 
 GUY2CHZ I        1638 47.90         7.5 0.60                           304 235 
 PTGC HZ EP   4   1638  4.76                             112   -1.05 0  308 159 
 ELA  HZ EP   4   1638 12.06                             110    2.88 0  331 230 
 ELA  HE ES   1   1638 45.85                             110   -0.06 5  331 230 
 ELA  HZ I        1638 54.14         5.7 0.64            111            331 230 
 CBOC HZ EP   1   1638  9.23                             110   -0.08 5  336 252 
 DBB  SZ EP   1   1638  9.72                             109   -0.17 5  342 274 
 DBB  SZ ES   4   1638 45.44                             109   -1.72 0  342 274 
 DBB  SZ I        1638 46.96        17.9 0.38            110            342 274 
 TOL  SZ EP       1638 11.09                             109    0.52 6  346 225 
 TOL  SN ES       1638 49.22                             109    0.84 6  346 225 
 TOL  SZ I        1638 57.87         6.6 0.30            110            346 225 
 SJC  HZ EP   4   1638 15.69                             106   -2.14 0  411 327 
 SJC  HN ES   4   1638 56.08                             106   -5.22 0  411 327 
 SJC  HZ I        1639  0.82         2.1 0.54            107            411 327 
                                                                                
