 2017  725 1029 19.4 L   6.742 -73.175158.0  RSN  5 0.4 1.4LRSN                1
 GAP=230        0.82       7.8     6.2  7.2  0.3122E+02  0.4095E+01 -0.8025E+01E
 Epicentro: VILLANUEVA - SANTANDER                                             3
 ACTION:UPD 17-08-30 15:36 OP:rebc STATUS:               ID:20170725102919 L   I
 OLDACT:REG 17-07-25 20:02 OP:ar   STATUS:               ID:20170725102741     3
 2017-07-25-1028-00M.COL___377                                                 6
 STAT SP IPHASW D HRMM SECON CODA AMPLIT PERI AZIMU VELO AIN AR TRES W  DIS CAZ7
 BAR2 EZ EP       1029 40.37                             174   -0.0310 16.6 183 
 BAR2 EZ ES       1029 56.46                             174   -0.3110 16.6 183 
 BAR2 EZ I        1029 56.91        12.1 0.20            169           16.6 183 
 BRR  HZ EP   2   1029 42.27                             154    0.36 5 71.7 304 
 BRR  HZ I        1029 59.36        11.6 0.38            145           71.7 304 
 BRR  HN ES   2   1029 59.70                             154    0.23 5 71.7 304 
 RUS  HZ EP       1029 44.49                             148    0.5210 94.5 174 
 RUS  HN ES       1030  3.13                             148   -0.0010 94.5 174 
 RUS  HZ I        1030  4.13         2.5 0.46            151           94.5 174 
 PTB  HZ EP       1029 46.40                             135   -0.62 9  143 261 
 PTB  HE ES       1030  8.63                             135    0.07 9  143 261 
 PTB  HZ I        1030 10.17         1.3 0.09            133            143 261 
 YPLC HZ EP   4   1029 45.26                             130   -4.48 0  173 149 
 ZAR  HZ EP   2   1029 52.06                             125   -0.56 4  204 294 
 ZAR  HN ES       1030 18.88                             125    0.35 9  204 294 
 ZAR  HZ I        1030 23.86         1.7 0.08            118            204 294 
                                                                                
