 2012 1125 1146 24.8 L   6.817 -73.149146.8  RSN  9 0.3 2.0LRSN                1
 GAP=135        0.54       2.7     2.9  4.3 -0.6163E+00  0.4560E+01 -0.2897E+01E
 Epicentro: LOS SANTOS - SANTANDER                                             3
 ACTION:UPD 12-12-05 15:36 OP:}ep  STATUS:               ID:20121125114624 L   I
 2012-11-25-1140-00M.COL___233                                                 6
 STAT SP IPHASW D HRMM SECON CODA AMPLIT PERI AZIMU VELO AIN AR TRES W  DIS CAZ7
 BAR2 SZ EP       1146 44.50                             170   -0.1110 25.1 189 
 BAR2 SZ ES   1   1146 59.81                             170   -0.24 7 25.1 189 
 BAR2 SZ I        1147  2.81        32.0 0.40                          25.1 189 
 GIR2 SZ EP   1   1146 44.58                             168    0.01 7 29.4 350 
 GIR2 SZ ES   1   1147  0.30                             168    0.33 7 29.4 350 
 GIR2 SZ I        1147  1.98         9.8 0.34                          29.4 350 
 PAM  SZ EP   1   1146 47.37                             151    0.29 7 76.2  41 
 PAM  SN ES   1   1147  4.49                             151    0.05 7 76.2  41 
 PAM  SZ I        1147  6.74        27.8 0.58                          76.2  41 
 RUS  HZ EP   1   1146 48.87                             144    0.06 7  102 176 
 RUS  HE ES   1   1147  7.34                             144   -0.18 7  102 176 
 RUS  HZ I        1147  9.78        14.0 0.46                           102 176 
 PTB  HZ EP   1   1146 51.43                             132   -0.45 7  148 258 
 PTB  HE ES   1   1147 13.18                             132    0.20 7  148 258 
 PTB  HZ I        1147 14.66        16.1 0.14                           148 258 
 OCA  HZ EP   1   1146 53.16                             130    0.12 7  158 353 
 ZAR  HZ EP   1   1146 57.06                             123   -0.17 6  203 292 
 ZAR  HN ES   1   1147 22.51                             123    0.00 6  203 292 
 ZAR  HZ I        1147 29.52        12.1 0.40                           203 292 
 SML  HZ EP   1   1147  1.71                             118    0.40 6  242 335 
 SML  HN ES   1   1147 29.16                             118   -0.61 6  242 335 
 HEL  HN ES   1   1147 36.95                             115    0.43 6  272 255 
                                                                                
