 2014  225 1453 12.4 L   6.830 -73.405116.1  RSN  4 0.3 1.5LRSN                1
 GAP=155        0.80       3.9     4.5  7.6  0.4976E+01  0.5845E+01 -0.1174E+02E
 Epicentro: SAN VICENTE DE CHUCURI - SANTANDER                                 3
 ACTION:UPD 14-03-10 08:13 OP:ep   STATUS:               ID:20140225145312 L   I
 OLDACT:UP  14-02-25 17:19 OP:cam  STATUS:               ID:20140225144819     3
 OLDACT:UP  14-02-25 17:18 OP:cam  STATUS:               ID:20140225144819     3
 OLDACT:REG 14-02-25 15:50 OP:cam  STATUS:               ID:20140225144819     3
 2014-02-25-1448-19M.COL___226                                                 6
 STAT SP IPHASW D HRMM SECON CODA AMPLIT PERI AZIMU VELO AIN AR TRES W  DIS CAZ7
 BAR2 SZ EP       1453 28.85                             162    0.0210 36.0 137 
 BAR2 SZ ES       1453 41.34                             162   -0.3410 36.0 137 
 BAR2 SZ I        1453 43.94        13.2 0.70            168           36.0 137 
 RUS  HZ EP       1453 33.79                             134   -0.3010  110 161 
 RUS  HE ES       1453 51.63                             134    0.5810  110 161 
 RUS  HN I        1453 52.44         5.2 0.24            140            110 161 
 PTB  HZ EP       1453 34.15                             130   -0.3010  121 255 
 PTB  HE ES       1453 51.78                             130    0.1010  121 255 
 PTB  HZ I        1453 55.82         3.1 0.14            133            121 255 
 SML  HZ EP   1   1453 46.19                             112    0.23 6  230 341 
 SML  HN ES       1454 12.39                             112    0.23 8  230 341 
 SML  HZ I        1454 18.35         6.0 0.10            114            230 341 
                                                                                
