 2016 1025 1925  2.5 L   6.806 -73.181144.0  RSN  6 0.2 1.7LRSN                1
 GAP=144        0.44       2.1     2.5  3.0 -0.1512E+01  0.1786E+01  0.1230E+01E
 Epicentro: ZAPATOCA - SANTANDER                                               3
 ACTION:UPD 16-11-09 19:22 OP:rebc STATUS:               ID:20161025192502 L   I
 OLDACT:UP  16-10-26 01:27 OP:dani STATUS:               ID:20161025191746     3
 OLDACT:UP  16-10-26 01:27 OP:dani STATUS:               ID:20161025191746     3
 OLDACT:UP  16-10-26 01:26 OP:dani STATUS:               ID:20161025191746     3
 OLDACT:REG 16-10-25 22:39 OP:edw  STATUS:               ID:20161025191746     3
 2016-10-25-1918-00M.COL___349                                                 6
 STAT SP IPHASW D HRMM SECON CODA AMPLIT PERI AZIMU VELO AIN AR TRES W  DIS CAZ7
 BAR2 EZ EP       1925 21.76                             170   -0.1310 23.7 180 
 BAR2 EZ ES       1925 37.16                             170    0.1210 23.7 180 
 BAR2 EZ I        1925 39.87        19.2 0.33            169           23.7 180 
 PAM  EZ EP       1925 24.70                             150    0.0910 79.4  42 
 PAM  EN ES       1925 41.97                             150    0.0810 79.4  42 
 PAM  EZ I        1925 45.15         4.5 0.48            155           79.4  42 
 RUS  HZ EP       1925 25.86                             143   -0.2510  102 174 
 RUS  HE ES       1925 44.42                             143   -0.1410  102 174 
 RUS  HZ I        1925 45.96         5.3 0.28            145            102 174 
 PTB  HZ EP       1925 28.82                             132   -0.13 9  144 258 
 PTB  HN ES       1925 49.64                             132    0.03 9  144 258 
 PTB  HZ I        1925 55.93         5.1 0.30            132            144 258 
 NOR  HN ES   4   1926  3.17                             118   -2.18 0  232 234 
 CHI  HZ EP       1925 40.24                             117    0.21 8  248 194 
 CHI  HE ES       1926  9.60                             117    0.27 8  248 194 
 CHI  HZ I        1926 13.46         3.7 0.48            118            248 194 
 GUY2CHZ EP   4   1925 47.27                             112    1.59 0  298 234 
 PRA  HZ EP       1925 55.83                             106    0.06 6  391 209 
 PRA  HN ES   4   1926 38.50                             106    1.15 0  391 209 
 PRA  HZ I        1926 44.29         5.0 0.36            108            391 209 
                                                                                
