 2011  425 1523 33.0 L   6.784 -73.109146.1  RSN 15 0.5 2.6LRSN                1
 GAP=118        1.25       4.9     7.7  8.2 -0.1476E+02  0.1354E+02  0.3635E+01E
 Epicentro: LOS SANTOS - SANTANDER                                             3
 ACTION:UP  11-06-22 15:33 OP:REBC STATUS:               ID:20110425152333 L   I
 2011-04-25-1521-42S.COL___139                                                 6
 STAT SP IPHASW D HRMM SECON CODA AMPLIT PERI AZIMU VELO SNR AR TRES W  DIS CAZ7
 BAR2 SZ EP       1523 52.69                             171     0.110   23 201 
 BTL  SZ IP       1523 52.79                             171     0.210   23 310 
 BAR2 SZ ES   1   1524  7.90                             171     0.0 7   23 201 
 BAR2 SZ I        1524  9.51       179.5 0.29                            23 201 
 PAM  SZ EP   1   1523 55.37                             151     0.2 7   76  36 
 PAM  SN ES   1   1524 12.81                             151     0.4 7   76  36 
 PAM  SZ I        1524 14.89        32.8 0.27                            76  36 
 BRR  HZ IP       1523 54.55                             151     0.210   76 298 
 BRR  HE ES   1   1524 11.99                             151     0.9 7   76 298 
 BRR  HZ I        1524 14.19       145.8 0.11                            76 298 
 RUS  HZ EP       1523 56.49                             144    -0.110   99 178 
 RUS  HN ES   1   1524 14.93                             144    -0.1 7   99 178 
 RUS  HZ I        1524 16.57        61.8 0.26                            99 178 
 BRI  SZ EP       1523 57.20                             141     0.310  109  18 
 BRI  SZ I        1524 23.41        45.9 0.36                           109  18 
 GRA  SZ EP       1523 58.47                             137     0.210  126  15 
 GRA  SZ I        1523 59.95       106.9 0.34                           126  15 
 GRA  SZ ES   1   1524 16.33                             137    -1.7 7  126  15 
 OCA  SZ EP   1   1524  0.88                             129    -0.6 7  163 352 
 OCA  SZ I        1524 29.38        77.7 0.26                           163 352 
 YOP  SZ EP   1   1524  2.88                             127     0.2 7  176 154 
 YOP  SZ I        1524 35.15        18.6 0.35                           176 154 
 NOR  SZ EP   1   1524  8.52                             118    -0.4 6  237 235 
 NOR  SN ES   1   1524 35.84                             118    -1.2 6  237 235 
 CHI  HZ EP   2   1524 10.55                             117    -0.1 4  248 196 
 CHI  HE ES   1   1524 39.82                             117    -0.1 6  248 196 
 CHI  HZ I        1524 48.23        27.1 0.43                           248 196 
 HEL  HZ EP   1   1524 14.30                             114     0.7 6  276 256 
 HEL  HZ I        1524 51.07        30.1 0.24                           276 256 
 DBB  SZ EP   1   1524 20.90                             109     0.0 5  344 274 
 TOL  SZ EP   1   1524 22.00                             109     0.6 5  345 225 
 PRA  HZ EP   1   1524 26.01                             107    -0.5 4  392 210 
 PRA  HN ES   1   1525  8.33                             107     0.0 4  392 210 
                                                                                
