 2011 1225 1306 10.2 L   6.774 -73.165148.0  RSN  9 0.4 2.0LRSN                1
 GAP=135        0.75       4.1     3.9  5.4 -0.1443E+01  0.4978E+01  0.3638E+01E
 Epicentro: LOS SANTOS - SANTANDER                                             3
 ACTION:UPD 12-07-13 16:18 OP:ep   STATUS:               ID:20111225130610 L   I
 2011-12-25-1300-00M.COL___186                                                 6
 STAT SP IPHASW D HRMM SECON CODA AMPLIT PERI AZIMU VELO AIN AR TRES W  DIS CAZ7
 BAR2 SZ EP   1   13 6 29.99                             172   -0.06 7 20.2 185 
 BAR2 SZ ES   1   13 6 45.04                             172   -0.48 7 20.2 185 
 BAR2 SZ I        13 6 46.66        34.3 0.19                          20.2 185 
 GIR2 SZ EP   1   13 6 30.05                             166   -0.16 7 33.8 355 
 GIR2 SZ ES   1   13 6 45.86                             166    0.04 7 33.8 355 
 BRR  HZ EP       13 6 31.80                             153    0.2310 70.7 301 
 BRR  HZ I        13 6 32.15        17.9 0.11                          70.7 301 
 BRR  HN ES   1   13 6 49.25                             153    1.02 7 70.7 301 
 PAM  SZ EP       13 6 32.89                             150    0.0210 81.0  39 
 PAM  SZ I        13 6 33.04        13.3 0.17                          81.0  39 
 PAM  SN ES   1   13 6 50.12                             150   -0.43 7 81.0  39 
 RUS  HZ EP   1   13 6 34.33                             145    0.34 7 97.9 175 
 RUS  HN ES   1   13 6 52.59                             145    0.05 7 97.9 175 
 RUS  HZ I        13 6 53.89        13.7 0.22                          97.9 175 
 PTB  HZ EP   1   13 6 36.87                             133   -0.25 7  145 260 
 PTB  HN ES   1   13 6 57.80                             133   -0.30 7  145 260 
 ZAR  HZ EP   1   13 6 42.20                             123   -0.50 6  203 293 
 ZAR  HE ES   1   13 7  7.96                             123   -0.09 6  203 293 
 NOR  SZ EP   1   13 6 45.90                             119    0.20 6  231 235 
 NOR  SN ES   1   13 7 13.04                             119   -0.34 6  231 235 
 CHI  HZ EP   1   13 6 48.05                             118    0.38 6  245 195 
 CHI  HZ I        13 6 48.51         4.4 0.10                           245 195 
                                                                                
