 2014 1025 1149  7.5 L   6.822 -73.140150.0  RSN  6 0.3 1.4LRSN                1
 GAP=136        0.77       4.1     4.1  5.9 -0.2739E+01  0.8681E+00  0.7619E+01E
 Epicentro: LOS SANTOS - SANTANDER                                             3
 ACTION:UPD 14-11-29 23:56 OP:nd   STATUS:               ID:20141025114907 L   I
 OLDACT:REG 14-10-28 18:55 OP:spq  STATUS:               ID:20141025114750     3
 2014-10-25-1147-50M.COL___289                                                 6
 STAT SP IPHASW D HRMM SECON CODA AMPLIT PERI AZIMU VELO AIN AR TRES W  DIS CAZ7
 BAR2 SZ EP       1149 27.72                             170    0.0010 25.8 190 
 BAR2 SZ ES   1   1149 43.82                             170    0.36 7 25.8 190 
 BAR2 SZ I        1149 47.07         3.3 0.24            165           25.8 190 
 BRR  HZ EP       1149 29.45                             153    0.3510 70.7 297 
 BRR  HE ES       1149 45.83                             153   -0.1010 70.7 297 
 BRR  HZ I        1149 47.70        11.4 0.27            154           70.7 297 
 PAM  SZ IP     C 1149 30.54                             152    0.4810 75.1  40 
 PAM  SN ES       1149 47.20                             152   -0.4410 75.1  40 
 PAM  SZ I        1149 48.05         4.9 0.22            159           75.1  40 
 RUS  HZ EP       1149 31.84                             144   -0.0210  103 177 
 RUS  HN ES   1   1149 50.72                             144   -0.13 7  103 177 
 RUS  HZ I        1149 52.05         1.4 0.20            143            103 177 
 PTB  HZ EP       1149 34.52                             133   -0.42 9  149 258 
 PTB  HE ES       1149 56.41                             133    0.08 9  149 258 
 PTB  HZ I        1150  1.84         3.8 0.40            133            149 258 
 CHI  HZ EP   1   1149 45.17                             118   -0.56 6  251 195 
 CHI  HN ES   1   1150 15.82                             118    0.29 6  251 195 
 CHI  HZ I        1150 24.62         1.6 0.37            118            251 195 
                                                                                
