 2011  225 1510 39.3 L   6.806 -73.134144.3  RSN 13 0.5 3.5LRSN                1
 GAP=104        0.97       3.4     6.0  6.7 -0.4207E+01  0.1079E+02  0.8250E+00E
 Epicentro: LOS SANTOS - SANTANDER                                             3
 ACTION:UP  11-03-28 15:11 OP:jfem STATUS:               ID:20110225151039 L   I
 2011-02-25-1508-38S.COL___136                                                 6
 STAT SP IPHASW D HRMM SECON CODA AMPLIT PERI AZIMU VELO SNR AR TRES W  DIS CAZ7
 BAR2 SZ IP       1510 58.95                             170     0.210   24 193 
 BAR2 SZ ES   1   1511 14.05                             170     0.1 7   24 193 
 BAR2 SZ I        1511 15.79      1105.7 0.31                            24 193 
 RUS  HZ IP     D 1511  2.79                             143    -0.110  101 177 
 RUS  HN ES   1   1511 20.41                             143    -1.0 7  101 177 
 RUS  HZ I        1511 22.96       398.4 0.33                           101 177 
 GRA  SZ IP       1511  4.76                             137     0.510  125  17 
 GRA  SZ ES   1   1511 23.63                             137    -0.2 7  125  17 
 GRA  SZ I        1511 26.33       315.4 0.32                           125  17 
 OCA  SZ EP   1   1511  7.47                             129     0.1 7  160 353 
 OCA  SZ ES   2   1511 29.68                             129     0.3 5  160 353 
 OCA  SZ I        1511 34.02       398.9 0.38                           160 353 
 YOP  SZ IP       1511  9.47                             126     0.3 9  179 154 
 YOP  SN ES   1   1511 33.00                             126     0.4 7  179 154 
 YOP  SZ I        1511 37.37       204.1 0.68                           179 154 
 CHI  HZ EP   1   1511 16.84                             117    -0.1 6  250 195 
 CHI  HN ES   2   1511 47.31                             117     0.9 4  250 195 
 CHI  HZ I        1511 54.64       245.4 0.46                           250 195 
 HEL  HZ EP   1   1511 19.35                             114    -0.2 6  273 256 
 HEL  HN ES   2   1511 50.27                             114    -0.7 4  273 256 
 HEL  HZ I        1511 58.52       236.3 0.28                           273 256 
 VIL  SZ EP       1511 21.85                             112    -0.7 7  303 190 
 VIL  SN ES   1   1511 56.08                             112    -0.2 5  303 190 
 VIL  SZ I        1512  6.08       174.4 0.55                           303 190 
 RREF HZ EP       1511 25.79                             110     0.3 7  323 229 
 RREF HN ES   2   1512  1.98                             110     0.4 3  323 229 
 RREF HZ I        1512  9.57       261.9 0.32                           323 229 
 DBB  SZ EP   2   1511 26.46                             109    -0.4 3  341 274 
 TOL  SZ EP       1511 28.02                             109     0.4 7  345 225 
 SDV  BZ IP     C 1511 28.20                             108    -0.9 6  359  50 
 HORQ SZ EP   2   1511 50.00                             101     0.2 2  534 227 
 HORQ SZ I        1511 52.39        19.3 0.60                           534 227 
                                                                                
