 2017  325 1152 12.5 L   6.649 -73.777 94.2  RSN  4 0.3 1.1LRSN                1
 GAP=147        0.78       5.6     3.4  8.4  0.1154E+02  0.1297E+01 -0.1190E+01E
 Epicentro: EL CARMEN - SANTANDER                                              3
 ACTION:UPD 17-05-25 18:45 OP:jn   STATUS:               ID:20170325115212 L   I
 OLDACT:DUP 17-03-25 20:37 OP:dani STATUS:               ID:20170325114541d    3
 OLDACT:UP  17-03-25 20:36 OP:dani STATUS:               ID:20170325114540     3
 OLDACT:UP  17-03-25 20:36 OP:dani STATUS:               ID:20170325114540     3
 OLDACT:UP  17-03-25 20:35 OP:dani STATUS:               ID:20170325114540     3
 OLDACT:UP  17-03-25 20:30 OP:dani STATUS:               ID:20170325114540     3
 OLDACT:UP  17-03-25 20:30 OP:dani STATUS:               ID:20170325114540     3
 OLDACT:UP  17-03-25 20:26 OP:dani STATUS:               ID:20170325114540     3
 OLDACT:REG 17-03-25 16:46 OP:dani STATUS:               ID:20170325114540     3
 2017-03-25-1148-00M.COL___361                                                 6
 STAT SP IPHASW D HRMM SECON CODA AMPLIT PERI AZIMU VELO AIN AR TRES W  DIS CAZ7
 BAR2 EZ EP       1152 28.43                             143    0.1310 66.1  95 
 BAR2 EZ ES       1152 40.84                             143    0.1910 66.1  95 
 BAR2 EZ I        1152 41.99         5.7 0.32            145           66.1  95 
 PTB  HZ EP       1152 29.07                             138    0.2910 76.0 261 
 PTB  HE ES       1152 41.62                             138    0.1210 76.0 261 
 PTB  HZ I        1152 43.15         3.5 0.09            140           76.0 261 
 RUS  HZ EP       1152 33.00                             126    0.1310  114 137 
 RUS  HN ES       1152 48.25                             126   -0.5210  114 137 
 RUS  HZ I        1152 49.36         1.8 0.12            129            114 137 
 ZAR  HE ES       1152 54.33                             118   -0.42 9  152 308 
                                                                                
