 2014  625 1502  0.2 L   6.818 -73.191143.8  RSN  7 0.5 2.0LRSN                1
 GAP=239        1.24       6.0     7.3  8.3  0.1994E+01  0.1328E+02  0.1126E+02E
 Epicentro: ZAPATOCA - SANTANDER                                               3
 ACTION:UPD 14-07-01 22:56 OP:nd   STATUS:               ID:20140625150200 L   I
 OLDACT:REG 14-06-25 20:32 OP:carl STATUS:               ID:20140625145816     3
 2014-06-25-1458-16M.COL___265                                                 6
 STAT SP IPHASW D HRMM SECON CODA AMPLIT PERI AZIMU VELO AIN AR TRES W  DIS CAZ7
 BAR2 SZ EP       15 2 19.60                             170   -0.0710 25.0 178 
 BAR2 SZ ES       15 2 34.08                             170   -0.7510 25.0 178 
 BAR2 SZ I        15 2 35.69        25.2 0.40            169           25.0 178 
 BRR  HZ EP       15 2 21.35                             154    0.4610 65.8 299 
 BRR  HN ES       15 2 38.06                             154    1.0710 65.8 299 
 BRR  HZ I        15 2 41.46        29.2 0.42            149           65.8 299 
 PTB  HZ EP       15 2 26.10                             132   -0.54 9  143 258 
 PTB  HN ES       15 2 46.77                             132   -0.47 9  143 258 
 PTB  HZ I        15 2 49.39        10.0 0.46            131            143 258 
 SPBC HZ EP       15 2 28.74                             129    0.29 9  162 217 
 SPBC HN ES       15 2 50.63                             129    0.18 9  162 217 
 SPBC HZ I        15 2 55.56         9.7 0.22            129            162 217 
 ZAR  HZ EP       15 2 31.64                             123   -0.36 9  199 292 
 ZAR  HN ES       15 2 56.46                             123   -0.32 9  199 292 
 ZAR  HZ I        15 3  6.92         9.0 0.22            122            199 292 
 NOR  HN ES       15 3  3.20                             118    0.11 8  232 233 
 PRA  HZ EP       15 2 54.00                             106    0.39 6  391 209 
 PRA  HN ES       15 3 35.46                             106    0.22 6  391 209 
 PRA  HZ I        15 3 40.70         2.7 0.40            107            391 209 
                                                                                
