 2016 1225 1218 54.4 L   6.696 -73.300156.8  RSN  4 0.3 0.9LRSN                1
 GAP=176        0.89       8.1     6.6  7.7  0.2685E+02  0.9944E+01  0.1427E+02E
 Epicentro: GALAN - SANTANDER                                                  3
 ACTION:UPD 17-01-11 20:18 OP:rebc STATUS:               ID:20161225121854 L   I
 OLDACT:UP  16-12-25 22:48 OP:edw  STATUS:               ID:20161225121741     3
 OLDACT:REG 16-12-25 20:19 OP:edw  STATUS:               ID:20161225121741     3
 2016-12-25-1218-00M.COL___375                                                 6
 STAT SP IPHASW D HRMM SECON CODA AMPLIT PERI AZIMU VELO AIN AR TRES W  DIS CAZ7
 BAR2 EZ EP       1219 15.91                             173    0.6710 17.4 131 
 BAR2 EZ ES       1219 31.40                             173   -0.1110 17.4 131 
 BAR2 EZ I        1219 31.95         3.8 0.44            171           17.4 131 
 BRR  HN ES       1219 33.34                             157   -0.2010 64.3 315 
 RUS  HZ EP       1219 18.23                             148   -0.4410 92.0 165 
 RUS  HN ES       1219 37.68                             148    0.0710 92.0 165 
 RUS  HZ I        1219 39.64         0.7 0.40            146           92.0 165 
 PTB  HZ EP       1219 20.49                             138   -0.2010  129 262 
 PTB  HN ES       1219 41.42                             138    0.2110  129 262 
 PTB  HZ I        1219 45.54         0.8 0.20            136            129 262 
                                                                                
