 2016 1225 1615 27.4 L   7.243 -74.035 10.9  RSN  6 0.3 1.4LRSN                1
 GAP=159        0.81       2.8     1.5  4.9  0.7657E+00 -0.5870E-01  0.3533E+01E
 Epicentro: PUERTO WILCHES - SANTANDER                                         3
 ACTION:UPD 17-01-11 20:19 OP:rebc STATUS:               ID:20161225161527 L   I
 OLDACT:REG 16-12-25 20:45 OP:edw  STATUS:               ID:20161225160745     3
 2016-12-25-1608-00M.COL___384                                                 6
 STAT SP IPHASW D HRMM SECON CODA AMPLIT PERI AZIMU VELO AIN AR TRES W  DIS CAZ7
 BRR  HZ EP     C 1615 33.90                             101   -0.0310 38.7 113 
 BRR  HZ I        1615 39.29        14.6 0.14            111           38.7 113 
 BRR  HN ES       1615 39.63                             101    0.5810 38.7 113 
 PTB  HZ EP       1615 41.49                              95   -0.2810 90.7 211 
 PTB  HN ES       1615 52.87                              95   -0.1210 90.7 211 
 PTB  HZ I        1615 53.09        11.8 0.32             99           90.7 211 
 ZAR  HZ EP       1615 42.62                              94    0.2210 95.0 287 
 ZAR  HE ES       1615 54.09                              94   -0.0410 95.0 287 
 ZAR  HZ I        1615 56.55         7.1 0.10             99           95.0 287 
 BAR2 EZ EP       1615 46.41                              94    0.2010  119 127 
 BAR2 EZ ES       1616  0.66                              94   -0.2410  119 127 
 BAR2 EZ I        1616  2.68         6.7 0.40             97            119 127 
 PAM  EZ EP       1615 50.78                              93   -0.12 9  148  86 
 PAM  EN ES       1616  8.71                              93   -0.54 9  148  86 
 PAM  EZ I        1616  9.86         8.5 0.20             56            148  86 
 RUS  HZ EP       1615 55.98                              56    0.51 9  183 145 
 RUS  HN ES       1616 17.22                              56   -0.16 9  183 145 
 RUS  HZ I        1616 18.17         7.5 0.32             56            183 145 
                                                                                
