 2016 1025 1149 27.0 L   6.021 -73.764106.8  RSN  5 0.3 1.5LRSN                1
 GAP=128        0.75       2.8     3.5  7.3  0.1865E+01  0.7323E+01  0.5329E+01E
 Epicentro: BOLIVAR - SANTANDER                                                3
 ACTION:UPD 16-11-09 19:22 OP:rebc STATUS:               ID:20161025114927 L   I
 OLDACT:REG 16-10-25 20:42 OP:cog  STATUS:               ID:20161025114742     3
 2016-10-25-1148-00M.COL___343                                                 6
 STAT SP IPHASW D HRMM SECON CODA AMPLIT PERI AZIMU VELO AIN AR TRES W  DIS CAZ7
 RUS  HZ EP       1149 44.76                             142   -0.4210 76.8 101 
 RUS  HN ES       1149 59.26                             142   -0.1310 76.8 101 
 RUS  HZ I        1150  0.88         6.6 0.22            147           76.8 101 
 BAR2 EZ EP       1149 45.71                             137   -0.1910 90.2  46 
 BAR2 HE ES       1150  0.85                             137    0.1910 90.2  46 
 BAR2 EZ I        1150  3.46        11.2 0.48            143           90.2  46 
 PTB  HZ EP       1149 45.72                             135   -0.3310 95.6 307 
 PTB  HN ES       1150  0.90                             135   -0.0410 95.6 307 
 PTB  HZ I        1150  3.79         5.8 0.16            139           95.6 307 
 BRR  HZ EP       1149 48.57                             128    0.2810  120   3 
 BRR  HE ES   2   1150  5.78                             128    0.85 5  120   3 
 CHI  HZ EP       1149 52.58                             120    0.32 9  154 179 
 CHI  HN ES       1150 12.19                             120    0.21 9  154 179 
 CHI  HZ I        1150 15.52         5.4 0.42            125            154 179 
                                                                                
