 2017 1225 1004 46.1 L   6.858 -73.146146.1  RSN 25 0.8 2.4LRSN                1
 GAP= 56        1.58       3.0     3.5  6.8 -0.1582E+01  0.5833E+01  0.1122E+01E
 Epicentro: LOS SANTOS - SANTANDER                                             3
 ACTION:UPD 18-01-04 13:24 OP:rebc STATUS:               ID:20171225100446 L   I
 OLDACT:REG 17-12-25 19:26 OP:dhb  STATUS:               ID:20171225095121     3
 2017-12-25-0958-00M.COL___460                                                 6
 STAT SP IPHASW D HRMM SECON CODA AMPLIT PERI AZIMU VELO AIN AR TRES W  DIS CAZ7
 BAR2 EZ EP       10 5  5.88                             168   -0.0410 29.6 188 
 BAR2 EZ ES       10 5 20.87                             168   -0.5110 29.6 188 
 BAR2 EZ I        10 5 21.97        61.0 0.34            168           29.6 188 
 PAM  EZ EP       10 5  8.74                             152    0.6610 72.6  43 
 PAM  EN ES       10 5 25.46                             152    0.2410 72.6  43 
 PAM  EZ I        10 5 28.10        44.1 0.56            155           72.6  43 
 PTB  HZ EP       10 5 12.65                             132   -0.57 9  149 256 
 PTB  HN ES       10 5 33.49                             132   -0.88 9  149 256 
 PTB  HZ I        10 5 36.58        15.9 0.14            132            149 256 
 OCA  HZ EP       10 5 13.97                             131    0.11 9  154 353 
 OCA  HE ES       10 5 36.09                             131    0.59 9  154 353 
 OCA  HZ I        10 5 42.40        72.7 0.30            132            154 353 
 TAM  HZ IP     D 10 5 14.33                             130    0.35 9  157 107 
 TAM  HN ES       10 5 35.80                             130    0.08 9  157 107 
 TAM  HZ I        10 5 38.40        11.4 0.30            132            157 107 
 SPBC HZ EP       10 5 14.97                             128   -0.14 9  168 218 
 SPBC HN ES       10 5 37.50                             128   -0.22 9  168 218 
 SPBC HZ I        10 5 41.72        40.4 0.22            129            168 218 
 YPLC HZ IP     D 10 5 16.34                             126   -0.14 9  182 152 
 YPLC HE ES       10 5 40.22                             126    0.05 9  182 152 
 YPLC HZ I        10 5 43.01        16.5 0.30            127            182 152 
 ZAR  HZ EP       10 5 18.61                             123    0.28 9  202 290 
 ZAR  HN ES       10 5 43.77                             123    0.30 9  202 290 
 ZAR  HZ I        10 5 49.26        28.6 0.38            123            202 290 
 ROSC BZ EP       10 5 26.19                             116    1.35 8  258 210 
 ROSC BE ES       10 5 54.76                             116   -0.29 8  258 210 
 ROSC BZ I        10 6  0.69        33.9 0.40            117            258 210 
 CVER HZ EP       10 5 28.57                             114    1.43 7  278 202 
 CVER HN ES       10 5 59.25                             114    0.11 7  278 202 
 CVER HZ I        10 6  4.15        15.5 0.58            115            278 202 
 URE  HZ EP       10 5 25.73                             114   -1.20 7  281 291 
 URE  HE ES       10 5 57.10                             114   -1.67 7  281 291 
 URE  HZ I        10 6  7.58        14.9 0.20            114            281 291 
 DRL03HZ EP       10 5 27.63                             114    0.60 7  283 353 
 DRL03HE ES       10 6  0.78                             114    1.84 7  283 353 
 GUY2CHZ EP       10 5 30.92                             112    0.77 7  305 234 
 GUY2CHE ES       10 6  5.14                             112    0.64 7  305 234 
 GUY2CHZ I        10 6 12.14        12.3 0.34                           305 234 
 VIL  EZ EP       10 5 29.87                             112   -0.38 7  310 191 
 VIL  EN ES       10 6  3.56                             112   -1.12 7  310 191 
 VIL  EZ I        10 6 13.60        25.3 0.38            112            310 191 
 PTGC HZ IP     D 10 5 29.05                             111   -1.61 7  315 159 
 PTGC HE ES   3   10 6  3.06                             111   -2.34 2  315 159 
 PTGC HZ I        10 6  7.36        10.7 0.28            112            315 159 
 ELA  HZ EP       10 5 35.10                             110    1.65 7  333 229 
 ELA  HE ES       10 6 11.24                             110    0.87 7  333 229 
 ELA  HZ I        10 6 18.61        10.3 0.48            111            333 229 
 CBOC HZ EP       10 5 34.19                             110    0.93 7  336 251 
 CBOC HE ES       10 6 10.02                             110   -0.02 7  336 251 
 CBOC HZ I        10 6 16.03         3.9 0.38            110            336 251 
 DBB  EZ EP       10 5 33.47                             110   -0.08 7  339 273 
 DBB  HN ES       10 6  9.61                             110   -0.93 7  339 273 
 DBB  EZ I        10 6 10.62         5.6 0.22            110            339 273 
 SDV  BZ EP       10 5 34.90                             108   -0.80 6  356  51 
 SDV  B2 ES       10 6 13.98                             108   -0.40 6  356  51 
 SDV  BZ I        10 6 19.09         3.6 0.75            110            356  51 
 ANIL HZ EP       10 5 36.93                             108    0.48 6  362 224 
 ANIL HE ES       10 6 16.10                             108    0.38 6  362 224 
 ANIL HZ I        10 6 25.93        38.3 0.36            109            362 224 
 PRA  HZ EP       10 5 40.12                             106   -0.17 6  398 209 
 PRA  HN ES       10 6 22.40                             106   -0.15 6  398 209 
 PRA  HZ I        10 6 27.97        13.9 0.74            107            398 209 
 ORTC HZ EP       10 5 40.17                             106   -0.47 6  401 216 
 ORTC HN ES       10 6 22.76                             106   -0.41 6  401 216 
 ORTC HZ I        10 6 27.27         8.5 0.22            107            401 216 
 SJC  HZ IP     C 10 5 40.14                             106   -0.91 6  404 326 
 SJC  HE ES       10 6 23.92                             106    0.01 6  404 326 
 SJC  HZ I        10 6 33.37         4.9 0.30            107            404 326 
 PAL  HZ EP       10 5 41.12                             106   -0.54 6  409 238 
 PAL  HN ES       10 6 25.65                             106    0.66 6  409 238 
 PAL  HZ I        10 6 29.15         3.3 0.72            106            409 238 
 CRJC HZ EP       10 5 46.33                             104   -1.53 5  461   4 
 CRJC HE ES       10 6 34.23                             104   -1.80 5  461   4 
 CRJC HZ I        10 6 38.71         7.6 0.36            104            461   4 
                                                                                
