 2015  425 1113 39.1 L   6.828 -73.114144.7  RSN  6 0.5 2.0LRSN                1
 GAP=139        1.11       6.2     7.7  8.4  0.2651E+02 -0.9721E+01 -0.2262E+02E
 Epicentro: LOS SANTOS - SANTANDER                                             3
 ACTION:UPD 15-06-03 16:57 OP:cam  STATUS:               ID:20150425111339 L   I
 OLDACT:UP  15-04-25 23:33 OP:mh   STATUS:               ID:20150425110749     3
 OLDACT:UP  15-04-25 23:32 OP:mh   STATUS:               ID:20150425110749     3
 OLDACT:REG 15-04-25 22:44 OP:mh   STATUS:               ID:20150425110749     3
 2015-04-25-1107-49M.COL___271                                                 6
 STAT SP IPHASW D HRMM SECON CODA AMPLIT PERI AZIMU VELO AIN AR TRES W  DIS CAZ7
 BAR2 EZ EP       1113 58.56                             169   -0.1410 27.2 196 
 BAR2 EZ ES       1114 13.92                             169   -0.0610 27.2 196 
 BAR2 EZ I        1114 14.91        25.2 0.24            168           27.2 196 
 PAM  SZ EP       1114  1.49                             152    0.5510 72.8  39 
 BRR  HZ EP       1114  0.32                             152    0.0810 72.9 295 
 BRR  HN ES       1114 17.22                             152    0.5010 72.9 295 
 BRR  HZ I        1114 18.12        12.4 0.06            149           72.9 295 
 RUS  HZ EP       1114  2.71                             143   -0.2610  104 178 
 RUS  HN ES       1114 21.27                             143   -0.3210  104 178 
 RUS  HZ I        1114 21.96        11.3 0.36            144            104 178 
 ZAR  HZ EP       1114 12.57                             122    0.87 8  206 291 
 ZAR  HN ES       1114 36.76                             122   -0.36 8  206 291 
 ZAR  HZ I        1114 42.33         7.3 0.38            121            206 291 
 SML  HZ EP       1114 15.25                             117   -0.28 8  242 334 
 SML  HN ES       1114 43.10                             117   -0.84 8  242 334 
 SML  HZ I        1114 47.30        12.9 0.10            117            242 334 
                                                                                
