 2012  625 1423 54.6 L   6.782 -73.177144.6  RSN  5 0.4 2.0LRSN                1
 GAP=133        0.87       6.9     5.5  9.9 -0.7065E+01 -0.1176E+01  0.2215E+02E
 Epicentro: LOS SANTOS - SANTANDER                                             3
 ACTION:UPD 12-08-06 17:52 OP:ep   STATUS:               ID:20120625142354 L   I
 2012-06-25-1420-00M.COL___199                                                 6
 STAT SP IPHASW D HRMM SECON CODA AMPLIT PERI AZIMU VELO AIN AR TRES W  DIS CAZ7
 BAR2 SZ EP       1424 14.09                             171    0.0310 21.0 182 
 BAR2 SZ I        1424 31.19        28.8 0.24                          21.0 182 
 BRR  HZ EP       1424 15.79                             153    0.2710 69.2 301 
 BRR  HN ES   1   1424 32.55                             153    0.72 7 69.2 301 
 BRR  HZ I        1424 36.59        35.0 0.20                          69.2 301 
 PAM  SZ EP       1424 16.91                             149   -0.0210 81.1  41 
 PAM  SZ I        1424 16.97        23.1 0.20                          81.1  41 
 PAM  SN ES   1   1424 33.72                             149   -0.62 7 81.1  41 
 RUS  HZ EP       1424 18.40                             144    0.2710 98.9 174 
 RUS  HN ES   2   1424 36.37                             144   -0.11 5 98.9 174 
 RUS  HZ I        1424 38.20         5.5 0.34                          98.9 174 
 PTB  HZ EP       1424 20.82                             133   -0.32 9  144 259 
 PTB  HN ES   1   1424 41.23                             133   -0.61 7  144 259 
 PTB  HZ I        1424 44.30        15.4 0.16                           144 259 
                                                                                
