 2017 1125 1226 27.3 L   6.786 -73.187127.2  RSN  4 0.3 1.1LRSN                1
 GAP=142        0.90       5.0     5.0  7.6 -0.7807E+01  0.1163E+02 -0.4065E+01E
 Epicentro: ZAPATOCA - SANTANDER                                               3
 ACTION:UPD 17-12-12 20:00 OP:rebc STATUS:               ID:20171125122627 L   I
 OLDACT:DUP 17-11-25 23:32 OP:dhb  STATUS:               ID:20171125121740d    3
 2017-11-25-1218-00M.COL___494                                                 6
 STAT SP IPHASW D HRMM SECON CODA AMPLIT PERI AZIMU VELO AIN AR TRES W  DIS CAZ7
 BAR2 EZ EP       1226 44.54                             170   -0.1010 21.4 179 
 BAR2 EZ ES       1226 58.73                             170    0.5610 21.4 179 
 BAR2 EZ I        1227  1.41         6.5 0.18            176           21.4 179 
 PAM  EZ EP       1226 47.62                             146   -0.2210 81.5  41 
 PAM  EN ES       1227  3.75                             146   -0.1210 81.5  41 
 PAM  EZ I        1227 12.28         2.3 0.46            148           81.5  41 
 RUS  HZ EP       1226 49.45                             140    0.2910 99.5 173 
 RUS  HN ES       1227  5.81                             140   -0.4210 99.5 173 
 RUS  HZ I        1227  8.99         1.9 0.52            148           99.5 173 
 PTB  HZ EP       1226 52.73                             128    0.39 9  143 259 
 PTB  HN ES       1227 11.50                             128   -0.38 9  143 259 
 PTB  HZ I        1227 14.98         1.4 0.18            134            143 259 
                                                                                
