 2012 1025 1745 16.5 L   6.803 -73.128149.2  RSN  6 0.2 1.6LRSN                1
 GAP=139        0.51       3.6     3.6  5.6  0.3348E+01  0.2101E-01  0.2501E+01E
 Epicentro: LOS SANTOS - SANTANDER                                             3
 ACTION:UPD 12-11-22 17:05 OP:ep   STATUS:               ID:20121025174516 L   I
 2012-10-25-1740-00M.COL___234                                                 6
 STAT SP IPHASW D HRMM SECON CODA AMPLIT PERI AZIMU VELO AIN AR TRES W  DIS CAZ7
 BAR2 SZ EP       1745 36.45                             170   -0.0610 24.1 194 
 GIR2 SZ EP   1   1745 36.48                             168   -0.05 7 31.3 347 
 BRR  HZ EP       1745 37.97                             153   -0.0910 72.8 298 
 BRR  HZ I        1745 47.77        17.1 0.39                          72.8 298 
 BRR  HE ES       1745 55.11                             153    0.2010 72.8 298 
 PAM  SZ EP   1   1745 39.43                             152    0.48 7 75.9  39 
 PAM  SN ES   1   1745 56.16                             152   -0.33 7 75.9  39 
 PAM  SZ I        1745 58.80         4.1 0.30                          75.9  39 
 RUS  HZ EP   1   1745 40.51                             144   -0.05 7  101 177 
 RUS  HN ES   1   1745 59.36                             144    0.00 7  101 177 
 RUS  HN I        1746  1.08         3.2 0.22                           101 177 
 ZAR  HN ES   1   1746 14.71                             123   -0.20 6  206 292 
 ZAR  HZ I        1746 20.60         5.5 0.35                           206 292 
                                                                                
