 2017  125 1836 10.4 L   7.004 -73.410109.0  RSN  6 0.5 1.8LRSN                1
 GAP=222        1.09       5.9     6.3  7.3  0.1873E+02  0.9391E+01  0.1270E+02E
 Epicentro: SAN VICENTE DE CHUCURI - SANTANDER                                 3
 ACTION:UPD 17-05-22 16:03 OP:jn   STATUS:               ID:20170125183610 L   I
 OLDACT:UP  17-01-26 00:20 OP:dani STATUS:               ID:20170125182745     3
 OLDACT:UP  17-01-26 00:19 OP:dani STATUS:               ID:20170125182745     3
 OLDACT:REG 17-01-25 21:40 OP:dnl  STATUS:               ID:20170125182745     3
 2017-01-25-1828-00M.COL___360                                                 6
 STAT SP IPHASW D HRMM SECON CODA AMPLIT PERI AZIMU VELO AIN AR TRES W  DIS CAZ7
 BRR  HZ EP     C 1836 25.47                             161   -0.1810 35.2 289 
 BRR  HN ES       1836 38.06                             161    0.4910 35.2 289 
 BAR2 EZ EP       1836 26.57                             153   -0.2410 52.0 151 
 BAR2 EZ ES       1836 39.68                             153    0.0410 52.0 151 
 BAR2 EZ I        1836 40.51        26.2 0.56            148           52.0 151 
 PTB  HZ EP   3   1836 31.48                             127   -1.01 2  127 246 
 PTB  HE ES       1836 49.09                             127   -0.6510  127 246 
 PTB  HZ I        1836 54.31        11.7 0.18            121            127 246 
 RUS  HZ EP       1836 32.59                             127   -0.6910  128 164 
 RUS  HN ES       1836 51.23                             127    0.0910  128 164 
 RUS  HZ I        1836 54.31         5.4 0.36            124            128 164 
 ZAR  HZ EP       1836 37.15                             118    0.31 9  169 289 
 ZAR  HE ES   3   1836 59.04                             118    1.56 2  169 289 
 ZAR  HZ I        1837  1.58        14.5 0.18            116            169 289 
 CHI  HZ EP       1836 48.94                             107    0.71 8  265 188 
 CHI  HE ES       1837 18.36                             107    0.61 8  265 188 
 CHI  HZ I        1837 26.49         2.9 0.63            105            265 188 
                                                                                
