 2010  625 1538 35.1 L   6.799 -73.108142.0  RSN  6 0.5 2.2LRSN                1
 GAP=181        1.01      10.4    17.0 12.8 -0.1132E+03 -0.5352E+02  0.3014E+02E
 Epicentro: LOS SANTOS - SANTANDER                                             3
 ACTION:UP  10-08-24 10:13 OP:vdl  STATUS:               ID:20100625153835 L   I
 2010-06-25-1537-07S.COL___118                                                 6
 STAT SP IPHASW D HRMM SECON CODA AMPLIT PERI AZIMU VELO SNR AR TRES W  DIS CAZ7
 BAR2 SZ EP   1   1538 54.06                             170    -0.2 7   24 200 
 BAR2 SZ ES   2   1539  9.14                             170    -0.1 5   24 200 
 BRR  HZ EP   1   1538 55.83                             151    -0.2 7   75 297 
 BRR  HE ES   2   1539 12.74                             151     0.3 5   75 297 
 BRR  HZ I        1539 13.78        34.4 0.52                            75 297 
 BRI  SZ EP   1   1538 59.54                             141     1.0 7  107  19 
 GUE  SZ EP   1   1538 58.49                             139    -0.9 7  116  10 
 GRA  SZ EP   1   1538 59.85                             136    -0.1 7  125  16 
 GRA  SZ ES   2   1539 19.55                             136     0.3 5  125  16 
 PRA  HZ EP   1   1539 28.85                             106     0.1 4  394 210 
 PRA  HN ES   2   1540 11.27                             106     0.7 3  394 210 
 PRA  HZ I        1540 15.38         3.7 0.29                           394 210 
                                                                                
