 2010  325 1109 57.8 L   6.283 -73.669107.2  RSN 13 0.5 2.6LRSN                1
 GAP= 71        0.82       3.3     4.6  8.6 -0.4124E+01  0.1894E+02  0.1500E+01E
 Epicentro: SANTA HELENA DEL OPON - SANTANDER                                  3
 ACTION:UP  10-08-24 09:55 OP:vdl  STATUS:               ID:20100325110957 L   I
 2010-03-25-1108-30S.COL___098                                                 6
 STAT SP IPHASW D HRMM SECON CODA AMPLIT PERI AZIMU VELO SNR AR TRES W  DIS CAZ7
 BAR2 SZ EP   1   1110 15.00                             147     0.3 7   64  58 
 BAR2 SZ ES   2   1110 27.96                             147     0.0 5   64  58 
 RUS  HZ EP   1   1110 16.01                             141    -0.1 7   78 124 
 RUS  HE ES   2   1110 30.42                             141     0.0 5   78 124 
 RUS  HZ I        1110 31.31        93.0 0.21                            78 124 
 BRR  HZ EP   1   1110 16.40                             136    -0.1 7   91 357 
 BRR  HZ I        1110 16.74       181.3 0.13                            91 357 
 BRR  HN ES   2   1110 31.13                             136     0.0 5   91 357 
 ROSC BZ EP   1   1110 26.27                             117     0.9 7  175 204 
 ROSC BE ES   2   1110 46.01                             117    -0.8 4  175 204 
 ROSC BZ I        1110 50.62        25.9 0.58                           175 204 
 CHI  HZ EP   1   1110 25.78                             115    -0.4 7  183 182 
 CHI  HE ES   2   1110 48.17                             115    -0.2 4  183 182 
 CHI  HZ I        1110 51.78        33.8 0.43                           183 182 
 HEL  HZ EP   1   1110 28.33                             112    -0.4 6  206 267 
 HEL  HE ES   2   1110 52.25                             112    -0.6 4  206 267 
 HEL  HZ I        1110 55.04        51.2 0.34                           206 267 
 OCA  SZ EP   1   1110 30.51                             110     0.5 6  220  10 
 OCA  SZ ES   2   1110 55.01                             110    -0.1 4  220  10 
 RREF BZ EP   1   1110 32.96                             109    -0.1 6  241 231 
 RREF BN ES   2   1111  1.21                             109     0.7 4  241 231 
 RREF BZ I        1111  6.25        46.1 0.18                           241 231 
 TOL  SZ EP   1   1110 35.99                             106     0.8 6  262 224 
 TOL  SZ ES   2   1111  5.18                             106     0.9 4  262 224 
 ANIL BZ EP   1   1110 36.46                             105    -0.3 6  276 224 
 DBB  SZ EP   1   1110 38.17                             104    -0.2 5  292 286 
 DBB  SZ ES   2   1111  9.71                             104    -0.4 4  292 286 
 PRA  HZ EP   1   1110 40.07                             103    -0.9 5  315 205 
 PRA  HE ES   2   1111 14.58                             103    -0.1 3  315 205 
 PRA  HZ I        1111 20.65        26.1 0.27                           315 205 
 SDV  BZ EP   1   1110 56.58                              96     0.2 4  441  49 
 SDV  BZ I        1110 57.87        12.8 0.07                           441  49 
 SDV  B1 ES   2   1111 41.29                              96    -0.9 3  441  49 
                                                                                
