 2016  725 1624  7.3 L   6.589 -73.415122.3  RSN  4 0.3 1.7LRSN                1
 GAP=148        0.68       6.5     7.7  6.3  0.4232E+02  0.2690E+02  0.1640E+02E
 Epicentro: HATO - SANTANDER                                                   3
 ACTION:UPD 17-03-29 16:55 OP:lp   STATUS:               ID:20160725162407 L   I
 OLDACT:REG 16-07-25 22:03 OP:ar   STATUS:               ID:20160725161759     3
 2016-07-25-1617-59S.COL___331                                                 6
 STAT SP IPHASW D HRMM SECON CODA AMPLIT PERI AZIMU VELO AIN AR TRES W  DIS CAZ7
 BAR2 EZ EP       1624 24.18                             167    0.0310 25.7  89 
 BAR2 EZ ES       1624 37.23                             167   -0.0810 25.7  89 
 BAR2 EZ I        1624 38.51        13.4 0.28            175           25.7  89 
 BRR  HZ EP       1624 25.51                             150   -0.1010 66.1 330 
 BRR  HN ES       1624 40.04                             150    0.1210 66.1 330 
 BRR  HZ I        1624 40.59        21.6 0.32            149           66.1 330 
 RUS  HZ EP       1624 28.06                             143    0.4510 85.3 155 
 RUS  HN ES       1624 43.24                             143   -0.2410 85.3 155 
 RUS  HZ I        1624 44.23         6.8 0.28            144           85.3 155 
 ZAR  HZ EP       1624 36.14                             119   -0.45 9  188 302 
 ZAR  HN ES       1624 59.68                             119    0.22 9  188 302 
 ZAR  HZ I        1625  5.42         4.2 0.05            119            188 302 
                                                                                
