 2013  625 1555 39.3 L   6.727 -73.189151.3  RSN  5 0.2 1.6LRSN                1
 GAP=227        0.52       5.7     4.8  5.4  0.1773E+02  0.5590E+01  0.6072E+01E
 Epicentro: VILLANUEVA - SANTANDER                                             3
 ACTION:UPD 14-01-08 09:57 OP:ep   STATUS:               ID:20130625155539 L   I
 OLDACT:REG 13-06-25 17:25 OP:carl STATUS:               ID:20130625154959     3
 2013-06-25-1549-59M.COL___266                                                 6
 STAT SP IPHASW D HRMM SECON CODA AMPLIT PERI AZIMU VELO AIN AR TRES W  DIS CAZ7
 BAR2 SZ EP   1   1555 59.30                             174   -0.17 7 15.0 177 
 BAR2 SZ ES   1   1556 15.12                             174   -0.08 7 15.0 177 
 BAR2 SZ I        1556 15.53         6.3 0.42            159           15.0 177 
 BRR  HZ EP   1   1556  1.33                             153    0.26 7 71.4 306 
 BRR  HN ES       1556 18.18                             153    0.1310 71.4 306 
 RUS  HZ EP   1   1556  3.28                             147    0.19 7 93.0 173 
 RUS  HE ES   2   1556 21.24                             147   -0.41 5 93.0 173 
 RUS  HZ I        1556 25.27         2.1 0.50            139           93.0 173 
 PTB  HZ EP   1   1556  6.20                             135    0.00 7  142 262 
 PTB  HN ES   1   1556 27.44                             135    0.27 7  142 262 
 PTB  HZ I        1556 34.52         4.7 0.20            127            142 262 
 ZAR  HE ES       1556 37.11                             124   -0.39 9  203 295 
 ZAR  HE I        1556 43.22        13.5 0.22            121            203 295 
                                                                                
