 2010 1225 1826  5.8 L   5.750 -73.902  4.0  RSN  5 0.4 1.3LRSN                1
 GAP=155        0.75       8.5     4.3 10.8 -0.2683E+02 -0.2791E+02  0.5839E+02E
 Epicentro: ALBANIA - SANTANDER                                                3
 ACTION:UP  11-01-14 15:27 OP:pat  STATUS:               ID:20101225182605 L   I
 2010-12-25-1821-08S.COL___133                                                 6
 STAT SP IPHASW D HRMM SECON CODA AMPLIT PERI AZIMU VELO SNR AR TRES W  DIS CAZ7
 RUS  HZ EP   1   1826 21.05                              47     0.2 7   92  80 
 RUS  HN ES   1   1826 32.47                              47    -0.2 7   92  80 
 RUS  HZ I        1826 34.33         6.1 0.25                            92  80 
 NOR  SZ EP   2   1826 22.56                              47    -0.5 5  109 259 
 RREF HZ EP   1   1826 34.53                              37    -0.5 7  186 240 
 RREF HZ I        1826 58.71         4.3 0.23                           186 240 
 HEL  HZ EP   1   1826 35.30                              37     0.4 7  187 285 
 HEL  HZ I        1827  2.36         2.2 0.31                           187 285 
 PRA  HZ EP   1   1826 42.89                              37     0.5 6  250 206 
 PRA  HN ES   1   1827 11.00                              37     0.0 6  250 206 
                                                                                
