 2017  225 1116  0.1 L   7.120 -73.169123.4  RSN  4 0.4 1.2LRSN                1
 GAP=267        1.04       9.2     7.8  8.7  0.3881E+02 -0.1633E+01  0.2917E+00E
 Epicentro: BUCARAMANGA - SANTANDER                                            3
 ACTION:UPD 17-05-24 15:40 OP:jn   STATUS:               ID:20170225111600 L   I
 OLDACT:UP  17-04-19 15:26 OP:nlst STATUS:               ID:20170225111600 L   3
 OLDACT:REG 17-02-25 20:04 OP:edw  STATUS:               ID:20170225110744     3
 2017-02-25-1108-00M.COL___370                                                 6
 STAT SP IPHASW D HRMM SECON CODA AMPLIT PERI AZIMU VELO AIN AR TRES W  DIS CAZ7
 BAR2 EZ EP       1116 18.63                             153    0.2210 58.4 181 
 BAR2 EZ ES       1116 32.87                             153    0.1410 58.4 181 
 BAR2 EZ I        1116 36.02         1.7 0.64            160           58.4 181 
 BRR  HZ EP   1   1116 18.84                             152    0.69 7 59.9 269 
 BRR  HN ES       1116 31.85                             152   -0.4210 59.9 269 
 BRR  HZ I        1116 37.99         9.2 0.24            156           59.9 269 
 RUS  HZ EP       1116 24.87                             129    0.06 9  136 176 
 RUS  HN ES       1116 43.86                             129   -0.25 9  136 176 
 RUS  HN I        1116 44.59         2.0 0.52            136            136 176 
 PTB  HZ EP       1116 25.41                             125   -0.72 9  156 246 
 PTB  HN ES       1116 46.98                             125    0.52 9  156 246 
                                                                                
