 2012  325 1003 17.1 L   6.760 -73.137148.7  RSN  7 0.4 1.6LRSN                1
 GAP=139        0.93       5.6     5.7  7.4 -0.1061E+02  0.9197E+01 -0.3127E+01E
 ACTION:UP  12-03-31 23:22 OP:EP   STATUS:               ID:20120325100317 L   I
 2012-03-25-1000-00M.COL___196                                                 6
 STAT SP IPHASW D HRMM SECON CODA AMPLIT PERI AZIMU VELO SNR AR TRES W  DIS CAZ7
 BAR2 SZ EP       10 3 37.12                             172     0.110   19 195 
 BAR2 SZ ES   1   10 3 52.68                             172     0.1 7   19 195 
 BAR2 SZ I        10 3 53.98         7.4 0.22                            19 195 
 BRR  HZ EP       10 3 39.14                             154     0.410   74 301 
 BRR  HN ES   1   10 3 56.15                             154     0.5 7   74 301 
 BRR  HZ I        10 3 58.78        17.1 0.11                            74 301 
 PAM  SZ EP       10 3 39.93                             151     0.110   80  37 
 PAM  SN ES   1   10 3 57.16                             151    -0.4 7   80  37 
 RUS  HZ EP   1   10 3 40.77                             146    -0.1 7   96 176 
 RUS  HN ES   1   10 3 59.16                             146    -0.2 7   96 176 
 RUS  HZ I        10 4  0.79         2.6 0.33                            96 176 
 PTB  HZ EP       10 3 43.78                             134    -0.6 9  148 261 
 PTB  HN ES   1   10 4  4.96                             134    -0.6 7  148 261 
 PTB  HZ I        10 4 11.07         8.0 0.24                           148 261 
 OCA  SZ EP   1   10 3 45.73                             131    -0.3 7  165 353 
 NOR  SZ EP   1   10 3 53.59                             120     0.8 6  233 235 
 NOR  SN ES   1   10 4 20.87                             120     0.2 6  233 235 
                                                                                
