 2013  225 1026 52.2 L   6.788 -73.146139.4  RSN 10 0.5 2.2LRSN                1
 GAP= 71        0.99       4.3     4.0  7.8  0.1606E+01  0.7033E+01  0.7601E+01E
 Epicentro: LOS SANTOS - SANTANDER                                             3
 ACTION:UPD 13-03-12 09:35 OP:ep   STATUS:               ID:20130225102652 L   I
 2013-02-25-1020-00M.COL___225                                                 6
 STAT SP IPHASW D HRMM SECON CODA AMPLIT PERI AZIMU VELO AIN AR TRES W  DIS CAZ7
 BAR2 SZ IP       1027 11.17                             171    0.1410 22.0 191 
 BAR2 SZ ES   1   1027 25.71                             171   -0.02 7 22.0 191 
 BAR2 SZ I        1027 27.20        81.9 0.22            169           22.0 191 
 BRR  HZ EP     C 1027 13.03                             151    0.3410 71.8 299 
 BRR  HN ES   1   1027 29.53                             151    0.84 7 71.8 299 
 BRR  HZ I        1027 31.56        22.3 0.18            151           71.8 299 
 PAM  SZ EP   1   1027 14.10                             149    0.30 7 78.4  39 
 PAM  SE ES   1   1027 30.63                             149   -0.03 7 78.4  39 
 PAM  SZ I        1027 33.19        26.8 0.64            152           78.4  39 
 RUS  HZ EP     C 1027 15.20                             143   -0.0210 99.2 176 
 RUS  HN ES   1   1027 33.12                             143   -0.07 7 99.2 176 
 RUS  HZ I        1027 35.31        20.8 0.26            143           99.2 176 
 PTB  HZ EP   1   1027 18.07                             131   -0.55 7  147 259 
 PTB  HN ES   1   1027 38.01                             131   -1.23 7  147 259 
 PTB  HZ I        1027 41.93        25.1 0.18            131            147 259 
 TAM  HZ EP   2   1027 19.36                             129    0.02 5  155 105 
 TAM  HN ES   1   1027 40.20                             129   -0.32 7  155 105 
 TAM  HZ I        1027 42.30        10.1 0.54            131            155 105 
 OCA  HN ES   1   1027 41.07                             128   -0.88 7  162 353 
 OCA  HZ I        1027 44.70        14.2 0.28            130            162 353 
 ZAR  HN ES   1   1027 49.88                             121    0.57 6  205 292 
 CHI  HZ EP   1   1027 29.07                             116   -0.33 6  247 195 
 CHI  HN ES   1   1027 58.92                             116    0.49 6  247 195 
 CHI  HZ I        1028  4.78         6.4 0.26            117            247 195 
 HEL  HZ EP   1   1027 32.76                             113    0.71 6  272 256 
 HEL  HN ES   1   1028  2.79                             113   -0.35 6  272 256 
 HEL  HZ I        1028 10.27        12.6 0.42            114            272 256 
 URE  HE ES   4   1028  2.25                             112   -2.60 0  284 292 
 RREF HZ EP   4   1027 39.43                             110    1.47 0  321 230 
                                                                                
