 2013  725 1124 40.7 L   6.819 -73.133144.0  RSN 10 0.4 2.3LRSN                1
 GAP=184        0.92       3.1     5.1  6.5  0.2251E+01  0.6871E+01 -0.5510E+00E
 Epicentro: LOS SANTOS - SANTANDER                                             3
 ACTION:UPD 13-08-12 10:40 OP:ep   STATUS:               ID:20130725112440 L   I
 OLDACT:REG 13-07-25 14:55 OP:mh   STATUS:               ID:20130725111959     3
 2013-07-25-1119-59M.COL___267                                                 6
 STAT SP IPHASW D HRMM SECON CODA AMPLIT PERI AZIMU VELO AIN AR TRES W  DIS CAZ7
 BAR2 SZ EP       1125  0.35                             169    0.1610 25.6 192 
 BAR2 SZ ES   1   1125 15.35                             169   -0.02 7 25.6 192 
 BAR2 SZ I        1125 16.76        18.2 0.22            169           25.6 192 
 GIR2 SZ EP       1125  0.17                             168    0.0310 29.5 347 
 GIR2 SZ I        1125 20.31         9.7 0.12            167           29.5 347 
 BRR  HZ EP       1125  2.16                             152    0.4610 71.5 297 
 BRR  HN ES       1125 18.86                             152    0.8010 71.5 297 
 BRR  HN I        1125 23.14        48.0 0.22            151           71.5 297 
 RUS  HZ EP   1   1125  4.45                             143    0.01 7  103 177 
 RUS  HN ES       1125 22.52                             143   -0.4310  103 177 
 RUS  HN I        1125 24.53        16.9 0.38            142            103 177 
 PTB  HZ EP   1   1125  7.34                             131   -0.37 7  150 258 
 PTB  HN ES   1   1125 27.90                             131   -0.86 7  150 258 
 PTB  HN I        1125 33.41        18.4 0.32            130            150 258 
 OCA  HN ES       1125 30.27                             130   -0.28 9  158 353 
 OCA  HN I        1125 33.55        33.6 0.16            129            158 353 
 ZAR  HZ EP   1   1125 13.07                             122   -0.04 6  205 291 
 ZAR  HE ES       1125 38.52                             122    0.15 9  205 291 
 ZAR  HE I        1125 44.91        36.5 0.42            121            205 291 
 NOR  HZ EP   1   1125 16.68                             118    0.08 6  237 234 
 NOR  HN ES   1   1125 44.55                             118   -0.04 6  237 234 
 NOR  HN I        1125 51.73        36.0 0.16            117            237 234 
 SML  HZ EP   1   1125 17.35                             117    0.24 6  242 335 
 SML  HE ES       1125 44.73                             117   -0.76 8  242 335 
 SML  HE I        1125 47.71        19.1 0.26            116            242 335 
 PRA  HZ EP   1   1125 34.90                             106    0.43 4  395 210 
 PRA  HN ES   1   1126 16.47                             106    0.07 4  395 210 
 PRA  HN I        1126 22.23         5.6 0.40            106            395 210 
                                                                                
