 2013  325 1706 19.8 L   6.850 -73.259128.4  RSN  5 0.3 1.5LRSN                1
 GAP=224        0.87       8.5     9.2  6.9  0.6436E+02  0.2162E+02  0.1262E+02E
 Epicentro: ZAPATOCA - SANTANDER                                               3
 ACTION:UPD 13-04-09 14:04 OP:ep   STATUS:               ID:20130325170619 L   I
 2013-03-25-1700-00M.COL___244                                                 6
 STAT SP IPHASW D HRMM SECON CODA AMPLIT PERI AZIMU VELO AIN AR TRES W  DIS CAZ7
 BAR2 SZ EP       17 6 37.53                             166    0.0110 29.7 163 
 BAR2 SZ ES       17 6 51.68                             166    0.3410 29.7 163 
 BAR2 SZ I        17 6 51.83         7.6 0.32            135           29.7 163 
 BRR  HZ EP       17 6 38.09                             154   -0.2310 57.6 300 
 BRR  HN ES       17 6 52.38                             154   -0.3810 57.6 300 
 BRR  HN I        17 6 52.52        20.2 0.26            127           57.6 300 
 RUS  HZ EP       17 6 42.72                             138    0.2610  108 170 
 RUS  HN ES       17 7  0.04                             138   -0.0910  108 170 
 RUS  HN I        17 7  1.15         2.5 0.30            116            108 170 
 PTB  HZ EP       17 6 43.85                             130   -0.53 9  137 256 
 PTB  HN I        17 7  4.65         5.2 0.26            109            137 256 
 ZAR  HZ EP   1   17 6 50.09                             120    0.36 7  190 292 
 ZAR  HN ES       17 7 13.63                             120    0.56 9  190 292 
 ZAR  HN I        17 7 19.04         3.7 0.16            106            190 292 
                                                                                
