 2012  125 1002 53.8 L   6.776 -73.148147.5  RSN  6 0.2 1.2LRSN                1
 GAP=137        0.37       4.5     5.3  3.7  0.1532E+02  0.4084E+01  0.3025E+01E
 Epicentro: LOS SANTOS - SANTANDER                                             3
 ACTION:UP  12-02-03 08:20 OP:REBC STATUS:               ID:20120125100253 L   I
 2012-01-25-1000-00M.COL___187                                                 6
 STAT SP IPHASW D HRMM SECON CODA AMPLIT PERI AZIMU VELO SNR AR TRES W  DIS CAZ7
 BAR2 SZ EP       10 3 13.75                             172     0.110   21 191 
 BAR2 SZ ES   1   10 3 29.13                             172     0.1 7   21 191 
 BAR2 SZ I        10 3 30.96         7.3 0.74                            21 191 
 GIR2 SZ EP   3   10 3 13.11                             166    -0.7 2   34 351 
 BRR  HN ES   1   10 3 31.85                             152    -0.1 7   72 300 
 PAM  SZ EP   3   10 3 16.60                             150     0.2 2   80  38 
 RUS  HZ EP       10 3 17.51                             145    -0.110   98 176 
 RUS  HN ES   1   10 3 36.07                             145     0.0 7   98 176 
 RUS  HZ I        10 3 37.38         2.0 0.26                            98 176 
 PTB  HZ EP       10 3 20.94                             133     0.0 9  147 260 
 PTB  HZ I        10 3 42.68         1.4 0.40                           147 260 
                                                                                
