 2013  125 1801 24.9 L   6.749 -73.157146.1  RSN  9 0.5 2.4LRSN 2.9WRSN        1
 SPEC AVERAGE  MO 13.4 ST  9.7 OM  2.2 f0 5.14 R0.3249 AL 2.33 WI 18.3 MW  2.9 3
 SPEC SD       MO  0.2 ST  9.5 OM  0.5 f0 1.77 R0.1125 AL      WI      MW  0.1 3
 GAP= 95        1.15       4.5     3.6  7.0  0.3004E+01  0.3523E+01  0.5417E+01E
 Epicentro: LOS SANTOS - SANTANDER                                             3
 SPEC ZAR HH N MO 13.7 ST 24.4 OM  1.9 f0 7.23 R0.2033 AL 2.77 WI 22.5 MW  3.1 3
 SPEC ZAR HH N T18 222 K 0.000 GD  251 VS 4.20 DE 3.00 Q0230.0 QA 0.60 VS 4.20 3
 SPEC RUS HH N MO 13.1 ST0.577 OM  1.5 f0 3.19 R0.4608 AL 2.05 WI 15.0 MW  2.7 3
 SPEC RUS HH N T18 2 4 K 0.000 GD  174 VS 4.20 DE 3.00 Q0230.0 QA 0.60 VS 4.20 3
 SPEC CHI HH N MO 13.5 ST  2.1 OM  1.7 f0 3.58 R0.4106 AL 1.61 WI 16.0 MW  3.0 3
 SPEC CHI HH N T18 231 K 0.000 GD  283 VS 4.20 DE 3.00 Q0230.0 QA 0.60 VS 4.20 3
 SPEC BRR HH N MO 13.5 ST 11.7 OM  1.9 f0 6.54 R0.2248 AL 2.89 WI 19.7 MW  2.9 3
 SPEC BRR HH N T18 2 3 K 0.000 GD  163 VS 4.20 DE 3.00 Q0230.0 QA 0.60 VS 4.20 3
 ACTION:UPD 13-02-15 09:16 OP:ep   STATUS:               ID:20130125180124 L   I
 2013-01-25-1758-45M.COL___201                                                 6
 STAT SP IPHASW D HRMM SECON CODA AMPLIT PERI AZIMU VELO AIN AR TRES W  DIS CAZ7
 BAR2 SZ EP       18 1 44.58                             173    0.1110 17.6 189 
 BAR2 SZ ES       18 1 59.43                             173   -0.3110 17.6 189 
 BAR2 SZ I        18 2  1.44        53.3 0.26            170           17.6 189 
 BRR  HZ EP       18 1 46.67                             152    0.4810 73.0 303 
 BRR  HN ES       18 2  3.96                             152    1.1710 73.0 303 
 BRR  HN I        18 2  4.47        60.7 0.18            153           73.0 303 
 PAM  SZ EP       18 1 47.55                             149    0.0810 82.6  38 
 PAM  SN ES       18 2  4.75                             149   -0.3210 82.6  38 
 RUS  HZ EP       18 1 48.25                             145   -0.0510 95.1 175 
 RUS  HN ES       18 2  6.26                             145   -0.2910 95.1 175 
 RUS  HN I        18 2  7.34        34.0 0.34            144           95.1 175 
 PTB  HZ EP       18 1 51.46                             132   -0.24 9  146 261 
 PTB  HN ES       18 2 12.18                             132   -0.42 9  146 261 
 PTB  HN I        18 2 13.58        36.3 0.26            133            146 261 
 TAM  HZ EP       18 1 52.83                             131    0.23 9  155 103 
 TAM  HE ES       18 2 13.88                             131   -0.32 9  155 103 
 ZAR  HE ES       18 2 22.72                             122   -0.16 9  205 294 
 CHI  HZ EP       18 2  2.21                             118    0.21 8  243 195 
 CHI  HN ES       18 2 31.37                             118    0.44 8  243 195 
 CHI  HN I        18 2 36.95        13.3 0.48            118            243 195 
 URE  HN ES       18 2 37.30                             113   -0.93 7  285 293 
                                                                                
