 2010  625 1742  6.6 L   6.796 -73.070138.8  RSN  9 0.5 2.1LRSN                1
 GAP=164        0.99       4.4     8.8  8.5 -0.1349E+02 -0.6279E+00  0.3196E+01E
 Epicentro: LOS SANTOS - SANTANDER                                             3
 ACTION:UP  10-08-24 10:13 OP:vdl  STATUS:               ID:20100625174206 L   I
 2010-06-25-1739-22S.COL___118                                                 6
 STAT SP IPHASW D HRMM SECON CODA AMPLIT PERI AZIMU VELO SNR AR TRES W  DIS CAZ7
 BAR2 SZ EP   2   1742 25.24                             169    -0.2 5   26 209 
 BAR2 SZ ES   2   1742 40.23                             169     0.0 5   26 209 
 BRR  HZ EP       1742 27.06                             149    -0.410   79 296 
 BRR  HN ES   1   1742 43.87                             149     0.1 7   79 296 
 BRR  HZ I        1742 45.83        25.8 0.10                            79 296 
 RUS  HZ EP       1742 29.37                             142    -0.310  100 181 
 RUS  HE ES   1   1742 48.13                             142     0.5 7  100 181 
 RUS  HZ I        1742 49.07        10.1 0.21                           100 181 
 BRI  SZ EP   2   1742 29.87                             140     0.2 5  106  16 
 GUE  SZ EP       1742 31.32                             138     0.710  115   8 
 GRA  SZ EP       1742 31.15                             136     0.010  124  14 
 GRA  SZ ES   1   1742 49.57                             136    -0.6 7  124  14 
 CHI  HZ EP   2   1742 43.27                             115    -0.9 4  251 197 
 CHI  HE ES   2   1743 13.04                             115    -0.4 4  251 197 
 CHI  HZ I        1743 16.13         6.3 0.36                           251 197 
 HEL  HZ EP   1   1742 48.04                             113     0.6 6  280 256 
 HEL  HZ I        1743 24.44         8.9 0.58                           280 256 
 PRA  HZ EP   1   1742 59.91                             105    -0.5 4  396 211 
 PRA  HN ES   1   1743 42.76                             105     0.5 4  396 211 
 PRA  HZ I        1743 47.64         5.3 0.16                           396 211 
                                                                                
