 2014  925 1855 53.6 L   6.829 -73.187143.6  RSN  4 0.2 1.6LRSN                1
 GAP=198        0.59       3.2     4.2  5.4  0.4208E+01  0.1815E+01 -0.7841E+01E
 Epicentro: ZAPATOCA - SANTANDER                                               3
 ACTION:UPD 14-10-03 23:08 OP:nd   STATUS:               ID:20140925185553 L   I
 OLDACT:REG 14-09-25 22:07 OP:spq  STATUS:               ID:20140925184819     3
 2014-09-25-1848-19M.COL___292                                                 6
 STAT SP IPHASW D HRMM SECON CODA AMPLIT PERI AZIMU VELO AIN AR TRES W  DIS CAZ7
 BAR2 SZ EP       1856 13.20                             169    0.2110 26.1 179 
 BAR2 SZ ES       1856 28.10                             169   -0.0510 26.1 179 
 BAR2 SZ I        1856 30.47        11.9 0.26            170           26.1 179 
 RUS  HZ EP       1856 17.43                             142    0.0710  104 174 
 RUS  HN ES       1856 35.82                             142   -0.1110  104 174 
 RUS  HZ I        1856 36.70         3.8 0.22            145            104 174 
 PTB  HZ EP       1856 19.58                             132   -0.43 9  144 257 
 PTB  HN ES       1856 40.89                             132    0.25 9  144 257 
 PTB  HZ I        1856 43.14         7.0 0.14            133            144 257 
 SML  HZ EP       1856 29.81                             117    0.26 8  239 336 
 SML  HN ES       1856 57.43                             117   -0.19 8  239 336 
                                                                                
