 2016 1025 1312 39.8 L   6.791 -73.194142.7  RSN  4 0.2 1.3LRSN                1
 GAP=143        0.46       2.8     2.7  3.9 -0.2306E+01  0.2850E+01 -0.1106E+01E
 Epicentro: ZAPATOCA - SANTANDER                                               3
 ACTION:UPD 16-11-09 19:22 OP:rebc STATUS:               ID:20161025131239 L   I
 OLDACT:REG 16-10-25 21:18 OP:cog  STATUS:               ID:20161025130737     3
 2016-10-25-1308-00M.COL___349                                                 6
 STAT SP IPHASW D HRMM SECON CODA AMPLIT PERI AZIMU VELO AIN AR TRES W  DIS CAZ7
 BAR2 EZ EP       1312 58.83                             171   -0.2210 22.1 177 
 BAR2 EZ ES       1313 13.86                             171   -0.1910 22.1 177 
 BAR2 EZ I        1313 15.02         9.1 0.22            172           22.1 177 
 PAM  EZ EP       1313  1.98                             149    0.0210 81.6  42 
 PAM  EN ES       1313 19.38                             149    0.1410 81.6  42 
 PAM  EZ I        1313 21.34         1.8 0.23            151           81.6  42 
 RUS  HZ EP       1313  3.39                             143    0.1610  100 173 
 RUS  HN ES       1313 21.57                             143    0.0710  100 173 
 RUS  HZ I        1313 22.54         3.2 0.32            146            100 173 
 PTB  HZ EP       1313  5.89                             132   -0.14 9  142 259 
 PTB  HE ES       1313 26.66                             132    0.17 9  142 259 
 PTB  HZ I        1313 29.24         2.2 0.24            133            142 259 
                                                                                
