 2016  825 1905 11.6 L   6.814 -73.155150.6  RSN 41 0.5 3.5LRSN                1
 GAP= 53        0.93       2.2     2.9  3.6 -0.8705E+00  0.1138E+01  0.6604E+00E
 Epicentro: LOS SANTOS - SANTANDER                                             3
 ACTION:UPD 16-10-29 15:39 OP:rebc STATUS:               ID:20160825190511 L   I
 OLDACT:UP  16-08-26 00:12 OP:dani STATUS:               ID:20160825185759     3
 OLDACT:UP  16-08-26 00:09 OP:dani STATUS:               ID:20160825185759     3
 OLDACT:UP  16-08-26 00:09 OP:dani STATUS:               ID:20160825185759     3
 OLDACT:UP  16-08-26 00:08 OP:dani STATUS:               ID:20160825185759     3
 OLDACT:UP  16-08-26 00:08 OP:dani STATUS:               ID:20160825185759     3
 OLDACT:REG 16-08-25 23:23 OP:cara STATUS:               ID:20160825185759     3
 2016-08-25-1857-59S.COL___349                                                 6
 STAT SP IPHASW D HRMM SECON CODA AMPLIT PERI AZIMU VELO AIN AR TRES W  DIS CAZ7
 BAR2 EZ EP       19 5 32.01                             170    0.1710 24.7 187 
 BAR2 EZ ES       19 5 47.27                             170   -0.3610 24.7 187 
 BAR2 EZ I        19 5 48.23       968.5 0.22                          24.7 187 
 BRR  HZ EP       19 5 33.77                             154    0.5810 69.6 298 
 BRR  HE ES       19 5 50.76                             154    0.7410 69.6 298 
 BRR  HZ I        19 5 51.89       395.3 0.16                          69.6 298 
 PAM  EZ EP     D 19 5 34.81                             152    0.5110 76.8  41 
 PAM  EN ES       19 5 51.81                             152   -0.2010 76.8  41 
 PAM  EZ I        19 5 54.15      1034.3 0.48                          76.8  41 
 RUS  HZ EP       19 5 35.91                             144   -0.0410  102 176 
 RUS  HE ES       19 5 54.77                             144   -0.1710  102 176 
 RUS  HZ I        19 5 55.86       531.3 0.30                           102 176 
 PTB  HZ EP     C 19 5 38.30                             133   -0.61 9  147 258 
 PTB  HN ES       19 5 59.60                             133   -0.61 9  147 258 
 PTB  HZ I        19 6  6.73       393.2 0.70                           147 258 
 TAM  HZ IP     D 19 5 40.32                             131    0.52 9  156 105 
 OCA  HZ EP       19 5 39.99                             131   -0.15 9  159 353 
 OCA  HN ES       19 6  1.93                             131   -0.46 9  159 353 
 OCA  HZ I        19 6  5.40       715.0 0.20                           159 353 
 SPBC HZ EP       19 5 40.85                             130    0.31 9  164 218 
 SPBC HN ES       19 6  2.79                             130   -0.31 9  164 218 
 SPBC HZ I        19 6  9.18       480.6 0.26                           164 218 
 ZAR  HZ EP       19 5 44.45                             124    0.23 9  203 292 
 ZAR  HN ES       19 6  9.90                             124    0.25 9  203 292 
 ZAR  HZ I        19 6 20.53       273.5 0.18                           203 292 
 NOR  HZ EP       19 5 47.69                             119    0.06 8  235 234 
 NOR  HN ES       19 6 15.47                             119   -0.26 8  235 234 
 NOR  HZ I        19 6 21.14       285.6 0.46                           235 234 
 CHI  HZ EP       19 5 49.83                             118    0.12 8  250 195 
 CHI  HE ES   4   19 6 17.79                             118   -1.64 0  250 195 
 CHI  HZ I        19 6 22.75       232.3 0.42                           250 195 
 ROSC BZ EP   4   19 5 51.50                             117    1.41 0  254 211 
 ROSC BN ES   4   19 6 22.96                             117    2.86 0  254 211 
 ROSC BZ I        19 6 26.42       301.4 0.45                           254 211 
 HEL  HZ EP   4   19 5 53.58                             116    1.57 0  271 255 
 HEL  HE ES   4   19 6 22.76                             116   -0.76 0  271 255 
 HEL  HZ I        19 6 30.08       210.5 0.26                           271 255 
 URE  HZ EP       19 5 51.95                             115   -0.80 7  282 292 
 GUY2CHZ EP       19 5 55.85                             113    0.40 7  301 234 
 GUY2CHN ES   4   19 6 34.31                             113    4.66 0  301 234 
 GUY2CHZ I        19 6 38.13       208.8 0.28                           301 234 
 SOCV BZ EP       19 5 54.96                             113    0.08 7  301  57 
 LL1C HN ES   4   19 6 32.03                             113    2.77 0  305 352 
 VIL  EZ EP       19 5 55.37                             113   -0.03 7  305 191 
 VIL  EN ES       19 6 29.56                             113    0.00 7  305 191 
 LL1C HZ EP   4   19 5 56.92                             113    1.69 0  305 352 
 VIL  EZ I        19 6 32.66       283.0 0.46                           305 191 
 PTGC HZ EP       19 5 55.11                             112   -0.78 7  311 159 
 PTGC HN ES   4   19 6 27.63                             112   -2.80 0  311 159 
 PTGC HZ I        19 6 33.41       220.9 0.30                           311 159 
 LL6C HZ EP       19 5 56.43                             111   -0.90 7  323 358 
 LL6C HE ES   4   19 6 31.33                             111   -1.67 0  323 358 
 LL6C HZ I        19 6 38.02        98.2 0.42                           323 358 
 ELA  HZ EP   4   19 6  0.23                             111    1.53 0  329 229 
 ELA  HN ES   4   19 6 38.04                             111    2.62 0  329 229 
 ELA  HZ I        19 6 51.43       139.7 0.52                           329 229 
 CBOC HZ EP   4   19 6  0.36                             111    1.69 0  333 252 
 CBOC HZ I        19 6 47.29        88.6 0.38                           333 252 
 DBB  EZ EP       19 5 59.32                             110    0.16 7  338 274 
 DBB  HN ES   4   19 6 35.28                             110   -0.96 0  338 274 
 DBB  EZ I        19 6 39.66        96.9 0.58                           338 274 
 ARGC HZ EP   4   19 6  3.01                             109    1.77 0  357 340 
 ARGC HN ES       19 6 40.70                             109    0.75 6  357 340 
 ARGC HZ I        19 6 50.50        56.7 0.24                           357 340 
 ANIL HZ EP       19 6  2.54                             109    0.89 6  358 224 
 ANIL HN ES   4   19 6 42.02                             109    1.34 0  358 224 
 ANIL HZ I        19 6 46.43       378.3 0.30                           358 224 
 PRA  HZ EP       19 6  5.04                             107   -0.36 6  393 209 
 PRA  HE ES       19 6 47.94                             107    0.58 6  393 209 
 PRA  HZ I        19 6 52.27       105.8 0.24                           393 209 
 PAL  HZ EP       19 6  7.32                             107    0.39 6  406 239 
 PAL  HZ I        19 7  1.38        65.6 0.28                           406 239 
 SJC  HZ EP   4   19 6  5.55                             106   -1.56 0  407 327 
 SJC  HE ES   4   19 6 47.03                             106   -3.38 0  407 327 
 SJC  HZ I        19 6 54.06        62.5 0.60                           407 327 
 LCBC HZ EP       19 6  8.48                             106   -0.05 5  420 303 
 LCBC HE ES   4   19 6 54.88                             106    1.95 0  420 303 
 CRJC HZ EP   4   19 6 12.18                             104   -1.89 0  466   4 
 CRJC HN ES   4   19 6 59.62                             104   -3.16 0  466   4 
 CRJC HZ I        19 7  7.12        91.7 0.40                           466   4 
 YOT  HZ EP       19 6 14.44                             104   -0.38 5  472 229 
 SMAR HZ EP       19 6 16.85                             103   -0.55 4  495 346 
 SMAR HZ I        19 7  8.44        61.9 0.22                           495 346 
 CAP2 HE ES   4   19 7  8.21                             103   -2.84 0  506 294 
 PTA  HZ EP       19 6 19.36                             102   -0.45 4  516 274 
 BET  EZ EP   2   19 6 20.27                             102    0.16 2  517 209 
 MACC HZ EP   4   19 6 18.93                             102   -1.68 0  522 189 
 MACC HE ES   4   19 7 11.10                             102   -3.32 0  522 189 
 MACC HZ I        19 7 14.36        33.7 0.46                           522 189 
 DABV BZ EP       19 6 20.98                             102   -0.81 4  532  31 
 DABV BE ES   4   19 7 12.60                             102   -3.93 0  532  31 
 MARO HZ EP       19 6 22.62                             102   -0.21 4  538 215 
 MARO HZ I        19 7 23.59        16.2 0.30                           538 215 
 URI  HZ EP   4   19 6 22.36                             101   -2.21 0  555  13 
 GARC HZ EP   4   19 6 25.95                             101   -1.13 0  574 207 
 GARC HZ I        19 7 24.11        52.4 0.38                           574 207 
 CONO HZ EP       19 6 33.14                             100    0.98 3  613 216 
 POP2 HZ EP       19 6 31.69                             100   -0.10 3  613 220 
 FLO2 HZ EP   4   19 6 34.06                              99   -0.88 0  641 206 
 SOTO HZ EP       19 6 36.52                              99    0.72 2  644 217 
 BBAC HZ EP       19 6 42.37                              98    0.40 1  698 221 
 BBAC HZ I        19 8  3.51         5.1 0.42                           698 221 
                                                                                
