 2011  725 1603 42.6 L   6.781 -73.119148.0  RSN  5 0.3 1.7LRSN                1
 GAP=239        0.60       4.9     5.4  7.4  0.1879E+01  0.8695E+01  0.1386E+02E
 Epicentro: LOS SANTOS - SANTANDER                                             3
 ACTION:UPD 12-07-25 14:03 OP:epov STATUS:               ID:20110725160342 L   I
 2011-07-25-1601-00S.COL___139                                                 6
 STAT SP IPHASW D HRMM SECON CODA AMPLIT PERI AZIMU VELO AIN AR TRES W  DIS CAZ7
 BRR  HZ EP   1   16 4  4.23                             152    0.0111 74.8 299 
 BRR  HZ I        16 4  7.55        15.9 0.22                          74.8 299 
 BRR  HN ES   1   16 4 21.07                             152    0.0111 74.8 299 
 RUS  HZ EP   1   16 4  6.74                             145    0.3011 98.3 178 
 RUS  HN ES   1   16 4 24.87                             145   -0.1411 98.3 178 
 RUS  HZ I        16 4 26.72         4.5 0.17                          98.3 178 
 NOR  SZ EP   2   16 4 18.19                             119   -0.42 6  236 235 
 NOR  SN ES   1   16 4 46.14                             119   -0.54 9  236 235 
 CHI  HZ EP   1   16 4 20.06                             118   -0.25 9  247 196 
 CHI  HZ I        16 4 20.82         2.4 0.19                           247 196 
 RREF HN ES       16 5  5.64                             111    0.5410  323 230 
 RREF HZ I        16 5 13.31         2.7 0.21                           323 230 
                                                                                
