 2013  725 1459 48.8 L   6.793 -73.145148.0  RSN 12 0.5 2.7LRSN                1
 GAP=137        1.00       3.6     4.3  5.8 -0.1975E+01  0.6912E+01  0.3326E+01E
 Epicentro: LOS SANTOS - SANTANDER                                             3
 ACTION:UPD 13-08-12 10:40 OP:ep   STATUS:               ID:20130725145948 L   I
 OLDACT:UP  13-07-25 21:24 OP:mh   STATUS:               ID:20130725145851     3
 OLDACT:REG 13-07-25 20:24 OP:mh   STATUS:               ID:20130725145851     3
 2013-07-25-1458-51M.COL___234                                                 6
 STAT SP IPHASW D HRMM SECON CODA AMPLIT PERI AZIMU VELO AIN AR TRES W  DIS CAZ7
 BAR2 SZ IP     D 15 0  8.63                             171   -0.0410 22.6 191 
 BAR2 SZ ES   1   15 0 23.69                             171   -0.49 7 22.6 191 
 BAR2 SZ I        15 0 24.77        69.8 0.36            168           22.6 191 
 GIR2 SZ EP       15 0  8.70                             167   -0.0510 32.1 350 
 GIR2 SZ ES   1   15 0 24.49                             167    0.18 7 32.1 350 
 GIR2 SZ I        15 0 31.72        33.7 0.40            166           32.1 350 
 BRR  HZ IP     C 15 0 10.52                             153    0.3210 71.7 299 
 BRR  HN ES       15 0 27.86                             153    0.9510 71.7 299 
 BRR  HN I        15 0 28.82       131.8 0.20            150           71.7 299 
 PAM  SZ EP       15 0 11.43                             151    0.1610 77.9  39 
 PAM  SN ES       15 0 28.83                             151    0.0210 77.9  39 
 PAM  SN I        15 0 29.69        47.9 0.48            157           77.9  39 
 RUS  HZ EP   1   15 0 12.76                             145    0.06 7 99.8 176 
 RUS  HN ES   1   15 0 30.79                             145   -0.56 7 99.8 176 
 RUS  HN I        15 0 33.03        62.3 0.56            146           99.8 176 
 PTB  HZ EP       15 0 15.24                             133   -0.69 9  148 259 
 PTB  HN ES   1   15 0 36.32                             133   -0.78 7  148 259 
 PTB  HZ I        15 0 42.17        51.0 0.44            132            148 259 
 SPBC HZ EP   1   15 0 17.62                             130    0.22 7  163 219 
 SPBC HN ES   1   15 0 39.69                             130   -0.04 7  163 219 
 SPBC HN I        15 0 47.53       144.9 0.20            130            163 219 
 ZAR  HZ EP   1   15 0 21.34                             123   -0.08 6  204 292 
 ZAR  HE ES       15 0 46.79                             123   -0.08 9  204 292 
 ZAR  HZ I        15 0 53.69        64.7 0.34            123            204 292 
 NOR  HZ EP   1   15 0 24.60                             119   -0.00 6  234 235 
 NOR  HN ES       15 0 52.78                             119    0.24 8  234 235 
 NOR  HN I        15 0 58.78        91.7 0.14            120            234 235 
 SML  HZ EP   1   15 0 25.02                             118   -0.60 6  244 335 
 SML  HN ES   1   15 0 53.40                             118   -0.95 6  244 335 
 SML  HN I        15 1  2.37       115.4 0.10            120            244 335 
 CHI  HZ EP   1   15 0 26.73                             118    0.20 6  248 195 
 CHI  HN ES   1   15 0 55.84                             118   -0.13 6  248 195 
 CHI  HN I        15 1  3.82        30.2 0.60            120            248 195 
 GUY2CHZ EP       15 0 33.36                             113    0.90 7  301 235 
 GUY2CHN ES   4   15 1  8.71                             113    2.19 0  301 235 
 RREF HZ EP   4   15 0 36.41                             111    1.43 0  321 229 
 RREF HN ES   4   15 1 13.23                             111    2.23 0  321 229 
                                                                                
