 2014  125 1051  6.8 L   6.783 -73.172138.0  RSN 13 0.7 1.8LRSN                1
 GAP=117        1.56       4.1     5.4  8.2 -0.5062E+01  0.8183E+01  0.6937E+00E
 Epicentro: LOS SANTOS - SANTANDER                                             3
 ACTION:UPD 14-03-13 09:58 OP:ep   STATUS:               ID:20140125105106 L   I
 OLDACT:DUP 14-01-25 18:04 OP:stll STATUS:               ID:20140125104819d    3
 2014-01-25-1048-17M.COL___231                                                 6
 STAT SP IPHASW D HRMM SECON CODA AMPLIT PERI AZIMU VELO AIN AR TRES W  DIS CAZ7
 BAR2 SZ EP       1051 26.31                             171    0.8210 21.1 183 
 BAR2 SZ ES       1051 40.38                             171    0.3410 21.1 183 
 BAR2 SZ I        1051 42.65        20.5 0.20            169           21.1 183 
 PAM  SZ IP     C 1051 29.17                             148    0.7210 80.7  40 
 PAM  SZ I        1051 29.37        12.1 0.20            151           80.7  40 
 PAM  SN ES       1051 45.54                             148    0.2410 80.7  40 
 RUS  HZ EP       1051 29.96                             143    0.2510 98.9 174 
 RUS  HN ES       1051 47.11                             143   -0.4410 98.9 174 
 PTB  HZ EP       1051 33.11                             131    0.23 9  145 259 
 PTB  HN ES       1051 52.34                             131   -0.86 9  145 259 
 PTB  HZ I        1051 56.71         8.3 0.10            131            145 259 
 OCA  HN ES       1051 56.33                             128   -0.12 9  162 354 
 OCA  HZ I        1051 59.28         7.6 0.18            129            162 354 
 ZAR  HN ES       1052  3.56                             121    0.22 9  202 293 
 NOR  HN ES       1052  9.02                             117    0.04 8  231 234 
 NOR  HZ I        1052 16.32         4.6 0.16            117            231 234 
 SML  HZ EP       1051 42.96                             116   -0.14 8  244 336 
 SML  HN ES       1052 10.78                             116   -0.61 8  244 336 
 CHI  HZ EP       1051 44.41                             116    0.58 8  246 195 
 CHI  HN ES       1052 11.06                             116   -1.63 8  246 195 
 CHI  HZ I        1052 21.00         2.4 0.46            116            246 195 
 GUY2CHZ EP       1051 50.50                             111    0.80 7  298 235 
 GUY2CHE ES       1052 22.58                             111   -0.55 7  298 235 
 GUY2CHZ I        1052 34.03         2.1 0.60                           298 235 
 SOCV BZ EP       1051 48.63                             110   -1.31 7  305  57 
 SDV  BZ EP       1051 55.89                             107   -1.11 6  364  50 
 PRA  HZ EP       1052  0.82                             105    1.09 6  389 209 
 PRA  HN ES       1052 41.76                             105    0.77 6  389 209 
 PRA  HZ I        1052 46.83         3.1 0.36            106            389 209 
                                                                                
