 2012 1125 1602 52.4 L   6.754 -73.147143.8  RSN  5 0.4 1.4LRSN                1
 GAP=184        0.72       6.2     5.8  7.6  0.1351E+02  0.1434E+02  0.4500E+01E
 Epicentro: LOS SANTOS - SANTANDER                                             3
 ACTION:UPD 12-12-05 15:36 OP:}ep  STATUS:               ID:20121125160252 L   I
 2012-11-25-1600-00M.COL___233                                                 6
 STAT SP IPHASW D HRMM SECON CODA AMPLIT PERI AZIMU VELO AIN AR TRES W  DIS CAZ7
 BAR2 SZ EP   1   16 3 12.09                             172    0.35 7 18.3 192 
 BAR2 SZ ES   1   16 3 26.43                             172   -0.36 7 18.3 192 
 BAR2 SZ I        16 3 29.51        10.7 0.36                          18.3 192 
 GIR2 SZ EP   1   16 3 11.96                             165   -0.07 7 36.3 352 
 GIR2 SZ ES   1   16 3 27.25                             165   -0.05 7 36.3 352 
 GIR2 SZ I        16 3 28.15         3.3 0.13                          36.3 352 
 RUS  HZ EP   1   16 3 15.45                             145   -0.19 7 95.5 176 
 RUS  HN ES   1   16 3 34.22                             145    0.49 7 95.5 176 
 RUS  HZ I        16 3 35.49         3.0 0.36                          95.5 176 
 PTB  HZ EP   1   16 3 18.72                             132   -0.44 7  147 261 
 PTB  HN ES   1   16 3 39.69                             132   -0.30 7  147 261 
 PTB  HZ I        16 3 41.55         3.3 0.24                           147 261 
 ZAR  HN ES   1   16 3 50.97                             122    0.66 6  206 293 
 ZAR  HZ I        16 3 55.43         3.3 0.34                           206 293 
                                                                                
