 2010  325 1008 27.9 L   6.844 -72.976128.8  RSN  4 0.5 1.4LRSN                1
 GAP=200        0.92       8.0    21.7 15.8  0.9532E+02 -0.1783E+03 -0.6110E+02E
 Epicentro: CEPITA - SANTANDER                                                 3
 ACTION:UP  10-08-24 09:55 OP:vdl  STATUS:               ID:20100325100827 L   I
 2010-03-25-1007-16S.COL___098                                                 6
 STAT SP IPHASW D HRMM SECON CODA AMPLIT PERI AZIMU VELO SNR AR TRES W  DIS CAZ7
 BAR2 SZ EP   1   10 8 45.74                             165    -0.2 7   36 219 
 BAR2 SZ ES   2   10 8 59.69                             165    -0.2 5   36 219 
 BRR  HZ EP   1   10 8 47.65                             145    -0.7 7   86 290 
 BRR  HZ I        10 8 48.00        10.8 0.17                            86 290 
 BRR  HN ES   2   10 9  4.83                             145     0.6 5   86 290 
 RUS  HZ EP   1   10 8 50.47                             139     0.0 7  106 186 
 RUS  HN ES   2   10 9  8.48                             139     0.4 5  106 186 
 RUS  HZ I        10 9 10.69         2.5 0.19                           106 186 
 OCA  SZ EP   1   10 8 55.64                             126     0.8 7  159 346 
 OCA  SZ ES   2   10 9 15.34                             126    -0.5 5  159 346 
                                                                                
