 2013  225 1021 58.0 L   6.712 -73.231145.5  RSN  5 0.3 1.4LRSN                1
 GAP=208        0.66       6.7     6.0  7.1  0.2461E+02  0.7758E+01  0.1981E+01E
 Epicentro: VILLANUEVA - SANTANDER                                             3
 ACTION:UPD 13-03-12 09:35 OP:ep   STATUS:               ID:20130225102158 L   I
 2013-02-25-1020-00M.COL___225                                                 6
 STAT SP IPHASW D HRMM SECON CODA AMPLIT PERI AZIMU VELO AIN AR TRES W  DIS CAZ7
 BAR2 SZ EP   1   1022 17.06                             174   -0.37 7 14.3 158 
 BAR2 SZ ES   1   1022 32.21                             174   -0.39 7 14.3 158 
 BAR2 SZ I        1022 33.11         6.5 0.48            175           14.3 158 
 BRR  HZ EP   1   1022 18.96                             153   -0.01 7 68.8 309 
 BRR  HN ES   1   1022 35.65                             153    0.31 7 68.8 309 
 BRR  HZ I        1022 39.49         6.1 0.16            154           68.8 309 
 RUS  HZ EP   1   1022 21.31                             146    0.20 7 92.1 170 
 RUS  HN ES   1   1022 39.58                             146    0.43 7 92.1 170 
 RUS  HZ I        1022 41.04         3.1 0.34            149           92.1 170 
 PTB  HZ EP   1   1022 23.82                             134   -0.13 7  137 262 
 PTB  HN ES   1   1022 43.80                             134   -0.41 7  137 262 
 PTB  HZ I        1022 46.32         2.8 0.24            136            137 262 
 ZAR  HN ES   1   1022 55.25                             123    0.41 6  199 296 
                                                                                
