 2017 1125 1058 17.4 L   6.804 -73.129139.7  RSN 18 0.8 2.2LRSN                1
 GAP= 67        1.63       3.6     4.1  7.6  0.8052E-01  0.7818E+01  0.2702E+01E
 Epicentro: LOS SANTOS - SANTANDER                                             3
 ACTION:UPD 17-12-12 20:00 OP:rebc STATUS:               ID:20171125105817 L   I
 OLDACT:UP  17-11-25 22:52 OP:dhb  STATUS:               ID:20171125105740     3
 OLDACT:REG 17-11-25 20:27 OP:edw  STATUS:               ID:20171125105740     3
 2017-11-25-1058-00M.COL___479                                                 6
 STAT SP IPHASW D HRMM SECON CODA AMPLIT PERI AZIMU VELO AIN AR TRES W  DIS CAZ7
 BAR2 EZ IP     C 1058 36.37                             170    0.0110 24.1 194 
 BAR2 EZ ES       1058 50.98                             170   -0.1310 24.1 194 
 PAM  EZ IP     C 1058 39.24                             150    0.3210 75.9  39 
 PAM  EE ES       1058 56.22                             150    0.5510 75.9  39 
 RUS  HZ IP     C 1058 40.43                             142   -0.1910  101 177 
 RUS  HE ES       1058 59.05                             142    0.3510  101 177 
 RUS  HZ I        1059  0.44        18.7 0.26            143            101 177 
 PTB  HZ EP       1058 43.04                             130   -1.06 9  150 259 
 PTB  HE ES       1059  4.57                             130   -0.31 9  150 259 
 PTB  HZ I        1059  6.46        11.7 0.32            130            150 259 
 TAM  HZ IP     D 1058 44.83                             129    0.35 9  153 105 
 TAM  HE ES       1059  6.05                             129    0.47 9  153 105 
 OCA  HZ EP       1058 44.57                             128   -0.70 9  160 352 
 OCA  HN ES       1059  5.67                             128   -1.31 9  160 352 
 OCA  HZ I        1059 11.79        33.7 0.22            130            160 352 
 SPBC HZ EP       1058 45.48                             127   -0.14 9  165 219 
 SPBC HN ES       1059  7.46                             127   -0.14 9  165 219 
 SPBC HZ I        1059 17.11        18.7 0.44            127            165 219 
 YPLC HZ EP       1058 46.97                             125    0.22 9  176 152 
 YPLC HE ES       1059  9.57                             125   -0.03 9  176 152 
 YPLC HZ I        1059 13.54        13.0 0.26            127            176 152 
 ZAR  HZ EP       1058 49.60                             121   -0.06 8  206 292 
 ZAR  HE ES       1059 14.80                             121    0.01 8  206 292 
 ZAR  HZ I        1059 20.14        25.4 0.42            121            206 292 
 NOR  HZ EP       1058 52.53                             117   -0.48 8  236 235 
 NOR  HN ES       1059 21.14                             117    0.38 8  236 235 
 NOR  HZ I        1059 26.73        10.2 0.30            117            236 235 
 CHI  HZ EP       1058 55.98                             116    1.07 8  250 196 
 CHI  HE ES       1059 23.77                             116   -0.36 8  250 196 
 CHI  HZ I        1059 28.67         4.8 0.36            116            250 196 
 HEL  HZ EP       1058 58.14                             113    0.58 8  274 256 
 HEL  HN ES       1059 30.85                             113    1.99 8  274 256 
 HEL  HZ I        1059 35.48         7.3 0.52            114            274 256 
 URE  HZ EP   2   1058 56.29                             112   -2.11 4  285 292 
 URE  HE ES   3   1059 27.99                             112   -2.36 2  285 292 
 URE  HZ I        1059 37.73        12.6 0.16            113            285 292 
 DRL03HZ EP       1059  0.09                             112    1.34 7  289 352 
 DRL03HE ES       1059 31.20                             112    0.23 7  289 352 
 GUY2CHZ EP       1059  1.91                             111    0.94 7  303 235 
 GUY2CHE ES   4   1059 38.85                             111    3.92 0  303 235 
 GUY2CHZ I        1059 44.98         5.7 0.68                           303 235 
 PTGC HZ EP       1058 59.76                             110   -1.24 7  308 159 
 PTGC HZ I        1059  2.81        12.3 0.54            112            308 159 
 PTGC HE ES       1059 33.56                             110   -1.41 7  308 159 
 PRA  HZ EP       1059 11.25                             105    0.34 6  393 210 
 PRA  HN ES       1059 52.84                             105    0.23 6  393 210 
 PRA  HZ I        1059 57.65         4.8 0.38            106            393 210 
 ORTC HZ EP       1059 12.07                             105    0.74 6  397 216 
 ORTC HN ES       1059 51.77                             105   -1.59 6  397 216 
 ORTC HZ I        11 0  3.83         2.6 0.62            106            397 216 
                                                                                
