 2013  325 1512 47.2 L   6.795 -73.164150.9  RSN  5 0.3 1.7LRSN                1
 GAP=134        0.92       5.1     4.8  6.7 -0.2370E+01  0.3692E+01  0.1478E+01E
 Epicentro: LOS SANTOS - SANTANDER                                             3
 ACTION:UPD 13-04-09 14:04 OP:ep   STATUS:               ID:20130325151247 L   I
 2013-03-25-1510-00M.COL___244                                                 6
 STAT SP IPHASW D HRMM SECON CODA AMPLIT PERI AZIMU VELO AIN AR TRES W  DIS CAZ7
 BAR2 SZ EP       1513  7.36                             171   -0.0610 22.5 185 
 BAR2 SZ ES       1513 23.45                             171    0.2510 22.5 185 
 BRR  HZ EP       1513  9.22                             154    0.4110 69.7 300 
 BRR  HN ES       1513 26.09                             154    0.4110 69.7 300 
 BRR  HN I        1513 26.25        33.1 0.32            153           69.7 300 
 PAM  SZ EP       1513 10.35                             151    0.3010 79.1  40 
 PAM  SN ES       1513 27.23                             151   -0.6610 79.1  40 
 PAM  SN I        1513 28.40         7.1 0.26            154           79.1  40 
 RUS  HZ EP       1513 11.41                             145   -0.0110  100 175 
 RUS  HN ES       1513 30.31                             145    0.0010  100 175 
 RUS  HN I        1513 31.79         2.7 0.38            145            100 175 
 PTB  HZ EP       1513 14.13                             133   -0.27 9  146 259 
 PTB  HN ES       1513 35.15                             133   -0.46 9  146 259 
 PTB  HN I        1513 40.29         8.6 0.32            133            146 259 
                                                                                
