 2015 1125 1952 51.6 L   6.750 -73.148140.0  RSN  8 0.4 1.9LRSN                1
 GAP=155        0.91       4.5     4.2  5.8 -0.5621E+01  0.6301E+01 -0.2160E+01E
 Epicentro: LOS SANTOS - SANTANDER                                             3
 ACTION:UPD 15-12-28 16:13 OP:cam  STATUS:               ID:20151125195251 L   I
 OLDACT:REG 15-11-25 21:16 OP:ak   STATUS:               ID:20151125194749     3
 2015-11-25-1947-49M.COL___301                                                 6
 STAT SP IPHASW D HRMM SECON CODA AMPLIT PERI AZIMU VELO AIN AR TRES W  DIS CAZ7
 BAR2 EZ EP       1953 10.51                             172    0.1210 17.8 192 
 BAR2 EZ ES       1953 25.01                             172   -0.0710 17.8 192 
 BAR2 EZ I        1953 26.31        21.4 0.30            171           17.8 192 
 BRR  HZ EP       1953 12.22                             151   -0.0210 73.8 302 
 BRR  HN ES       1953 28.74                             151    0.3710 73.8 302 
 PAM  EZ EP       1953 13.35                             148   -0.1010 81.9  37 
 PAM  EN ES       1953 30.45                             148   -0.0810 81.9  37 
 PAM  EZ I        1953 32.27        19.2 0.48            152           81.9  37 
 PTB  HZ EP       1953 17.13                             131   -0.82 9  146 261 
 PTB  HN ES       1953 38.25                             131   -0.28 9  146 261 
 PTB  HZ I        1953 39.57         9.0 0.26            131            146 261 
 SPBC HZ EP       1953 19.70                             128    0.51 9  159 220 
 SPBC HN ES       1953 40.72                             128   -0.02 9  159 220 
 SPBC HZ I        1953 46.78         9.2 0.15            129            159 220 
 ZAR  HZ EP       1953 24.56                             121    0.72 8  206 294 
 ZAR  HN ES       1953 48.96                             121   -0.05 8  206 294 
 ZAR  HZ I        1953 57.66         7.3 0.28            121            206 294 
 SML  HZ EP       1953 28.16                             116   -0.25 8  249 336 
 SML  HN ES   4   1953 55.16                             116   -2.00 0  249 336 
 SJC  HZ EP   4   1953 44.78                             104   -2.69 0  414 327 
 SJC  HN ES   4   1954 25.92                             104   -5.16 0  414 327 
 SJC  HZ I        1954 30.11         2.3 0.52            106            414 327 
                                                                                
