 2017 1125 1800 26.9 L   6.817 -73.162143.0  RSN 16 0.6 2.0LRSN                1
 GAP=110        1.31       3.2     4.2  6.6 -0.1097E+01  0.8000E+01  0.1135E+01E
 Epicentro: LOS SANTOS - SANTANDER                                             3
 ACTION:UPD 17-12-12 20:00 OP:rebc STATUS:               ID:20171125180026 L   I
 OLDACT:UP  17-11-26 00:03 OP:edw  STATUS:               ID:20171125175744     3
 OLDACT:REG 17-11-25 22:46 OP:edw  STATUS:               ID:20171125175744     3
 2017-11-25-1758-00M.COL___492                                                 6
 STAT SP IPHASW D HRMM SECON CODA AMPLIT PERI AZIMU VELO AIN AR TRES W  DIS CAZ7
 BAR2 EZ EP       18 0 46.00                             170   -0.1910 24.9 185 
 BAR2 EZ ES       18 1  1.53                             170    0.2610 24.9 185 
 BAR2 EZ I        18 1  3.08        19.8 0.30            168           24.9 185 
 PAM  EZ EP       18 0 49.02                             150    0.2510 77.2  41 
 PAM  EN ES       18 1  6.16                             150    0.3010 77.2  41 
 PAM  EZ I        18 1  8.63         7.6 0.52            156           77.2  41 
 RUS  HZ EP       18 0 50.17                             143   -0.3110  103 175 
 RUS  HN ES       18 1  9.29                             143    0.3710  103 175 
 RUS  HZ I        18 1  9.81        11.1 0.20            144            103 175 
 PTB  HZ EP       18 0 52.81                             132   -0.66 9  146 258 
 PTB  HN ES       18 1 13.98                             132   -0.25 9  146 258 
 PTB  HZ I        18 1 15.79        11.8 0.14            132            146 258 
 OCA  HZ EP       18 0 54.53                             129   -0.23 9  158 354 
 OCA  HN ES       18 1 16.23                             129   -0.29 9  158 354 
 SPBC HZ EP       18 0 54.91                             128   -0.26 9  163 218 
 SPBC HN ES       18 1 16.63                             128   -0.63 9  163 218 
 SPBC HZ I        18 1 26.43        33.7 0.20            129            163 218 
 YPLC HZ EP       18 0 56.09                             126   -0.61 9  179 151 
 YPLC HN ES       18 1 20.22                             126    0.24 9  179 151 
 YPLC HZ I        18 1 21.39        13.7 0.30            128            179 151 
 ZAR  HZ EP       18 0 58.66                             122   -0.21 9  202 292 
 ZAR  HN ES       18 1 23.93                             122    0.08 9  202 292 
 ZAR  HZ I        18 1 29.29        14.5 0.42            123            202 292 
 NOR  HZ EP       18 1  2.13                             118   -0.25 8  234 234 
 NOR  HN ES       18 1 29.42                             118   -0.67 8  234 234 
 NOR  HZ I        18 1 34.77         6.8 0.18            119            234 234 
 CHI  HZ EP       18 1  4.34                             116   -0.21 8  250 195 
 CHI  HN ES       18 1 33.78                             116   -0.17 8  250 195 
 CHI  HZ I        18 1 36.87         6.8 0.34            118            250 195 
 ROSC BZ EP       18 1  6.83                             116    1.93 8  253 210 
 ROSC BN ES       18 1 35.05                             116    0.48 8  253 210 
 ROSC BZ I        18 1 40.76        11.4 0.40            117            253 210 
 HEL  HZ EP       18 1  7.88                             114    1.10 8  271 255 
 HEL  HN ES       18 1 38.94                             114    1.01 8  271 255 
 HEL  HZ I        18 1 45.19         6.9 0.54            115            271 255 
 DRL03HZ EP       18 1  8.05                             113   -0.05 7  287 353 
 DRL03HN ES   4   18 1 41.87                             113    1.60 0  287 353 
 GUY2CHZ EP   4   18 1 11.75                             112    1.46 0  301 234 
 GUY2CHE ES   4   18 1 46.04                             112    1.87 0  301 234 
 GUY2CHZ I        18 1 51.26         4.1 0.26                           301 234 
 PTGC HZ EP   9   18 1  9.36                             111   -1.50 0  311 158 
 PTGC HE ES       18 1 42.91                             111   -0.78 7  311 158 
 PRA  HZ EP       18 1 20.54                             106    0.18 6  393 209 
 PRA  HN ES       18 2  1.50                             106   -0.60 6  393 209 
 PRA  HZ I        18 2  6.24         4.7 0.74            107            393 209 
                                                                                
