 2016  225 1525 26.3 L   6.778 -73.142143.6  RSN  9 0.4 2.0LRSN                1
 GAP=138        1.05       4.1     4.4  6.6 -0.2997E+01  0.9352E+01  0.4222E+01E
 Epicentro: LOS SANTOS - SANTANDER                                             3
 ACTION:UPD 16-03-04 21:29 OP:rebc STATUS:               ID:20160225152526 L   I
 OLDACT:UP  16-02-25 23:59 OP:drio STATUS:               ID:20160225151751     3
 OLDACT:REG 16-02-25 20:55 OP:drio STATUS:               ID:20160225151751     3
 2016-02-25-1517-51M.COL___319                                                 6
 STAT SP IPHASW D HRMM SECON CODA AMPLIT PERI AZIMU VELO AIN AR TRES W  DIS CAZ7
 BAR2 EZ EP       1525 45.63                             171   -0.0210 21.1 192 
 BAR2 EZ ES       1526  1.18                             171    0.4510 21.1 192 
 BAR2 EZ I        1526  2.13        29.1 0.18            168           21.1 192 
 PAM  EZ EP     C 1525 48.33                             150   -0.0810 79.0  38 
 PAM  EN ES       1526  5.72                             150    0.0910 79.0  38 
 PAM  EZ I        1526  7.78        16.1 0.50            155           79.0  38 
 RUS  HZ EP       1525 49.50                             144   -0.1910 98.2 176 
 RUS  HE ES       1526  7.62                             144   -0.3010 98.2 176 
 RUS  HZ I        1526  9.46        17.4 0.24            144           98.2 176 
 PTB  HZ EP       1525 52.53                             131   -0.58 9  148 260 
 PTB  HN ES       1526 13.55                             131   -0.46 9  148 260 
 PTB  HZ I        1526 19.02         9.3 0.32            132            148 260 
 SPBC HZ EP       1525 54.47                             129   -0.04 9  162 220 
 SPBC HN ES       1526 16.55                             129    0.06 9  162 220 
 SPBC HZ I        1526 19.19        29.0 0.24            129            162 220 
 ZAR  HN ES       1526 24.22                             122    0.15 8  205 293 
 NOR  HZ EP       1526  2.58                             118    0.76 8  234 235 
 NOR  HN ES       1526 29.36                             118   -0.14 8  234 235 
 NOR  HZ I        1526 35.23         7.8 0.16            119            234 235 
 CHI  HZ EP       1526  2.91                             117   -0.75 8  246 195 
 CHI  HN ES       1526 33.30                             117    0.51 8  246 195 
 CHI  HZ I        1526 42.80         4.6 0.54            118            246 195 
 GUY2CHZ EP       1526 10.81                             112    1.09 7  300 235 
 GUY2CHN ES   4   1526 47.14                             112    3.58 0  300 235 
 GUY2CHZ I        1526 53.41         4.1 0.38                           300 235 
 SJC  HZ EP   4   1526 18.52                             105   -3.56 0  411 327 
 SJC  HN ES   4   1527  2.54                             105   -3.02 0  411 327 
                                                                                
