 2010  425 1650  3.6 L   6.757 -73.057146.0  RSN  8 0.6 2.2LRSN                1
 GAP=185        1.23       6.2    10.8 10.8 -0.3570E+02 -0.3484E+02  0.2635E+02E
 Epicentro: LOS SANTOS - SANTANDER                                             3
 ACTION:UPD 10-08-24 10:01 OP:vdl  STATUS:               ID:20100425165011 L   I
 2010-04-25-1644-49S.COL___104                                                 6
 STAT SP IPHASW D HRMM SECON CODA AMPLIT PERI AZIMU VELO AIN AR TRES W  DIS CAZ7
 BAR2 SZ EP       1650 22.69                             171    -0.510   23 217 
 BAR2 SZ ES   2   1650 37.61                             171    -0.9 5   23 217 
 BRR  HZ EP       1650 25.10                             150    -0.310   82 298 
 BRR  HN ES       1650 42.79                             150     0.410   82 298 
 BRR  HZ I        1650 44.90        29.4 0.35                            82 298 
 GUE  SZ EP       1650 28.76                             140     0.210  120   7 
 GUE  SZ ES   1   1650 48.31                             140     0.3 7  120   7 
 GRA  SZ EP       1650 29.48                             138     0.510  128  13 
 GRA  SZ ES   1   1650 49.63                             138     0.8 7  128  13 
 OCA  SZ EP       1650 31.61                             130    -0.9 9  166 350 
 OCA  SZ ES   1   1650 54.38                             130    -0.6 7  166 350 
 CHI  HZ EP   1   1650 40.87                             118    -0.2 6  247 198 
 CHI  HN ES   1   1651 10.84                             118     0.5 6  247 198 
 CHI  HZ I        1651 15.60         9.4 0.75                           247 198 
 HEL  HN ES   2   1651 17.02                             115     0.2 4  280 257 
 HEL  HZ I        1651 22.08         9.4 0.71                           280 257 
 TOL  SZ EP   1   1650 53.38                             110     1.1 5  347 226 
 TOL  SZ ES   2   1651 30.09                             110    -0.1 3  347 226 
                                                                                
