 2017 1225 1159 39.5 L   6.832 -73.140146.3  RSN 14 0.6 2.0LRSN                1
 GAP= 65        1.23       3.4     4.0  7.0  0.8684E+00  0.3452E+01  0.5869E+01E
 Epicentro: LOS SANTOS - SANTANDER                                             3
 ACTION:UPD 18-01-04 13:24 OP:rebc STATUS:               ID:20171225115939 L   I
 OLDACT:REG 17-12-25 19:36 OP:dhb  STATUS:               ID:20171225115226     3
 2017-12-25-1158-00M.COL___460                                                 6
 STAT SP IPHASW D HRMM SECON CODA AMPLIT PERI AZIMU VELO AIN AR TRES W  DIS CAZ7
 BAR2 EZ EP       1159 59.11                             169   -0.1410 26.9 190 
 BAR2 EZ ES       12 0 13.95                             169   -0.7310 26.9 190 
 BAR2 EZ I        12 0 16.60        16.0 0.26            167           26.9 190 
 PAM  EZ IP     C 12 0  2.23                             152    0.6610 74.3  41 
 PAM  EN ES       12 0 19.06                             152    0.2610 74.3  41 
 PAM  EZ I        12 0 21.27        11.7 0.48            153           74.3  41 
 PTB  HZ EP       12 0  5.71                             132   -0.90 9  149 258 
 PTB  HE ES       12 0 28.08                             132    0.30 9  149 258 
 PTB  HZ I        12 0 29.09         7.7 0.12            130            149 258 
 TAM  HZ IP     D 12 0  7.69                             131    0.46 9  155 106 
 OCA  HZ EP       12 0  7.50                             130   -0.01 9  157 353 
 OCA  HE ES       12 0 29.08                             130   -0.29 9  157 353 
 OCA  HZ I        12 0 33.23        15.3 0.32            130            157 353 
 SPBC HZ EP       12 0  8.20                             129   -0.12 9  166 218 
 SPBC HN ES       12 0 31.06                             129    0.24 9  166 218 
 SPBC HZ I        12 0 34.54        11.2 0.34            127            166 218 
 YPLC HE ES       12 0 33.81                             126    0.73 9  180 152 
 YPLC HZ I        12 0 36.38        14.0 0.26            125            180 152 
 ZAR  HZ EP       12 0 11.78                             123   -0.10 9  203 291 
 ZAR  HE ES       12 0 36.83                             123   -0.33 9  203 291 
 ZAR  HZ I        12 0 43.73         8.5 0.16            122            203 291 
 URE  HE ES       12 0 53.44                             114    0.96 7  283 291 
 URE  HZ I        12 1  3.59         5.8 0.22            113            283 291 
 DRL03HZ EP   9   12 0 23.04                             113    2.31 0  285 353 
 DRL03HE ES       12 0 54.90                                   -0.31 7  285 353 
 GUY2CHZ EP   9   12 0 24.68                             112    1.28 0  304 234 
 GUY2CHN ES       12 0 59.32                                    0.38 7  304 234 
 GUY2CHZ I        12 1  5.11         3.3 0.44                           304 234 
 VIL  EZ EP       12 0 23.01                             112   -0.32 7  307 192 
 VIL  EN ES       12 0 57.06                             112   -0.47 7  307 192 
 VIL  EZ I        12 0 59.88         5.1 0.34            111            307 192 
 PTGC HZ EP       12 0 22.81                             111   -0.90 7  312 159 
 PTGC HE ES   2   12 0 56.46                             111   -1.75 3  312 159 
 PTGC HZ I        12 1 15.67         5.3 0.36            111            312 159 
 PRA  HZ EP       12 0 33.83                             106    0.41 6  395 209 
 PRA  HE ES       12 1 16.56                             106    1.07 6  395 209 
 PRA  HZ I        12 1 25.28         2.0 0.74            106            395 209 
                                                                                
