 2012  525 1823 47.6 L   6.824 -73.201135.3  RSN  5 0.3 1.3LRSN                1
 GAP=129        0.71       6.7     5.8  9.3  0.9996E+01  0.2256E+02  0.4036E+01E
 Epicentro: ZAPATOCA - SANTANDER                                               3
 ACTION:UP  12-07-05 12:08 OP:pat  STATUS:               ID:20120525182347 L   I
 2012-05-25-1820-00M.COL___201                                                 6
 STAT SP IPHASW D HRMM SECON CODA AMPLIT PERI AZIMU VELO SNR AR TRES W  DIS CAZ7
 BAR2 SZ ES   1   1824 20.84                             169     0.4 7   26 175 
 BAR2 SZ I        1824 22.00        10.3 0.34                            26 175 
 PAM  SN ES   2   1824 25.11                             148    -0.3 5   79  44 
 RUS  HZ EP   1   1824 10.59                             141     0.0 7  104 173 
 RUS  HN ES   1   1824 28.21                             141    -0.3 7  104 173 
 RUS  HZ I        1824 30.84         3.1 0.46                           104 173 
 PTB  HZ EP   1   1824 13.67                             131     0.4 7  142 257 
 PTB  HN ES   1   1824 33.13                             131    -0.1 7  142 257 
 PTB  HZ I        1824 37.65         1.8 0.18                           142 257 
 ZAR  HN ES   2   1824 42.43                             121    -0.5 4  197 292 
                                                                                
