 2013  525 1152 27.5 L   6.708 -73.131147.0  RSN  7 0.4 1.7LRSN                1
 GAP=142        0.93       4.8     4.4  6.4 -0.9304E+00  0.5115E+01 -0.3780E+00E
 Epicentro: JORDAN - SANTANDER                                                 3
 ACTION:UPD 13-06-20 09:53 OP:ep   STATUS:               ID:20130525115227 L   I
 2013-05-25-1150-00M.COL___261                                                 6
 STAT SP IPHASW D HRMM SECON CODA AMPLIT PERI AZIMU VELO AIN AR TRES W  DIS CAZ7
 BAR2 SZ EP       1152 47.45                             174    0.2810 14.0 204 
 BAR2 SZ ES       1153  2.52                             174    0.0410 14.0 204 
 BAR2 SZ I        1153  4.03         7.5 0.24            172           14.0 204 
 GIR2 SZ EP       1152 47.57                             163   -0.1010 41.5 350 
 GIR2 SZ ES   1   1153  3.51                             163    0.13 7 41.5 350 
 GIR2 SZ I        1153  6.96         6.1 0.44            160           41.5 350 
 BRR  HZ EP       1152 49.41                             150    0.2010 77.9 305 
 BRR  HN ES       1153  6.89                             150    0.7810 77.9 305 
 BRR  HZ I        1153 11.11        16.4 0.47            147           77.9 305 
 PAM  SZ EP       1152 50.35                             149    0.0310 84.5  34 
 PAM  SN ES       1153  7.45                             149   -0.6410 84.5  34 
 PAM  SZ I        1153  9.68         9.0 0.54            151           84.5  34 
 RUS  HZ EP   1   1152 50.95                             147    0.25 7 90.4 177 
 RUS  HN ES       1153  8.68                             147   -0.1010 90.4 177 
 RUS  HZ I        1153 11.02         5.1 0.64            152           90.4 177 
 PTB  HZ EP       1152 54.47                             132   -0.13 9  148 263 
 PTB  HE ES       1153 15.18                             132   -0.54 9  148 263 
 PTB  HZ I        1153 17.11         4.8 0.24            132            148 263 
 ZAR  HN ES   1   1153 26.15                             122   -0.29 6  210 295 
 ZAR  HZ I        1153 37.08         6.0 0.12            122            210 295 
                                                                                
