 2012 1225 1332 23.4 L   6.701 -73.187147.8  RSN  4 0.1 1.3LRSN                1
 GAP=225        0.39       3.4     3.2  4.1  0.4448E+01 -0.5659E+00  0.4980E+00E
 Epicentro: VILLANUEVA - SANTANDER                                             3
 ACTION:UPD 13-01-04 14:30 OP:ep   STATUS:               ID:20121225133223 L   I
 2012-12-25-1330-00M.COL___242                                                 6
 STAT SP IPHASW D HRMM SECON CODA AMPLIT PERI AZIMU VELO AIN AR TRES W  DIS CAZ7
 BAR2 SZ EP   1   1332 42.85                             175   -0.24 7 12.0 178 
 BAR2 SZ ES   2   1332 58.46                             175    0.01 5 12.0 178 
 BAR2 SZ I        1332 59.68         5.3 0.18                          12.0 178 
 BRR  HZ EP       1332 45.05                             152    0.1810 73.4 308 
 BRR  HZ I        1332 49.41         3.6 0.66                          73.4 308 
 BRR  HN ES       1333  1.59                             152   -0.0410 73.4 308 
 RUS  HZ EP   1   1332 46.48                             147   -0.13 7 90.1 173 
 RUS  HN ES   1   1333  4.89                             147    0.16 7 90.1 173 
 RUS  HN I        1333  7.44         2.6 0.17                          90.1 173 
 PTB  HZ EP   1   1332 50.07                             134    0.11 7  142 263 
 PTB  HE ES       1333 10.61                             134   -0.08 9  142 263 
 PTB  HZ I        1333 15.92         2.0 0.13                           142 263 
                                                                                
