 2013 1225 1337 13.7 L   7.111 -74.273 64.4  RSN 11 0.5 1.9LRSN                1
 GAP= 69        1.23       2.5     2.7  8.2 -0.8486E+00 -0.2566E+01 -0.4782E+00E
 Epicentro: BARRANCABERMEJA - SANTANDER                                        3
 ACTION:UPD 14-01-13 10:20 OP:ep   STATUS:               ID:20131225133713 L   I
 OLDACT:REG 13-12-25 14:32 OP:jn   STATUS:               ID:20131225133000     3
 2013-12-25-1330-00M.COL___285                                                 6
 STAT SP IPHASW D HRMM SECON CODA AMPLIT PERI AZIMU VELO AIN AR TRES W  DIS CAZ7
 BRR  HZ EP       1337 26.13                             131   -0.0510 61.9  90 
 BRR  HN ES       1337 36.43                             131    0.5410 61.9  90 
 BRR  HZ I        1337 37.96        60.4 0.14            120           61.9  90 
 PTB  HZ EP       1337 26.15                             128   -0.4710 66.3 198 
 PTB  HN ES       1337 36.12                             128   -0.5610 66.3 198 
 PTB  HZ I        1337 37.47        33.1 0.10            121           66.3 198 
 ZAR  HZ EP       1337 27.45                             124   -0.2410 77.2 303 
 ZAR  HN ES       1337 38.48                             124   -0.1010 77.2 303 
 ZAR  HZ I        1337 40.94        50.7 0.24            110           77.2 303 
 BAR2 SZ EP       1337 34.39                             108    0.1310  133 115 
 BAR2 SZ ES       1337 50.99                             108    0.7110  133 115 
 BAR2 SZ I        1337 51.52        26.7 0.26            100            133 115 
 OCA  HZ EP       1337 37.41                             104   -0.27 9  163  40 
 OCA  HN ES       1337 55.98                             104   -0.38 9  163  40 
 OCA  HZ I        1337 58.89         8.6 0.24             96            163  40 
 SPBC HZ EP       1337 37.15                             104   -0.41 9  163 172 
 SPBC HN ES       1337 55.39                             104   -0.75 9  163 172 
 SPBC HZ I        1337 56.22        16.7 0.82             97            163 172 
 HEL  HZ EP       1337 38.96                             103   -0.06 9  172 234 
 HEL  HN ES       1338  0.19                             103    1.44 9  172 234 
 HEL  HZ I        1338  3.83         6.7 0.22             96            172 234 
 PAM  SZ EP       1337 39.92                             103    0.34 9  176  82 
 PAM  SN ES       1337 59.71                             103   -0.03 9  176  82 
 PAM  SZ I        1338  1.26        27.0 0.32             96            176  82 
 NOR  HE ES       1338  0.92                             102    0.46 9  183 201 
 NOR  HZ I        1338  2.08         6.5 0.48             96            183 201 
 RUS  HZ EP       1337 40.79                             102   -0.33 9  188 136 
 RUS  HN ES       1338  2.49                             102    0.01 9  188 136 
 RUS  HZ I        1338  3.49         3.2 0.18             96            188 136 
 SML  HZ EP       1337 40.36                             102   -0.14 9  188   7 
 SML  HE ES       1338  1.74                             102    0.36 9  188   7 
 SML  HZ I        1338 11.39        20.5 0.22             95            188   7 
                                                                                
