 2014 1125 1421 44.4 L   6.552 -73.520106.8  RSN 25 0.5 2.6LRSN                1
 GAP= 53        1.34       2.5     2.8  5.8 -0.9140E+00  0.5375E+01  0.2258E+01E
 Epicentro: EL CARMEN - SANTANDER                                              3
 ACTION:UPD 14-12-19 15:47 OP:nd   STATUS:               ID:20141125142144 L   I
 OLDACT:DUP 14-11-26 03:52 OP:stll STATUS:               ID:20141125141747d    3
 2014-11-25-1417-46M.COL___303                                                 6
 STAT SP IPHASW D HRMM SECON CODA AMPLIT PERI AZIMU VELO AIN AR TRES W  DIS CAZ7
 BAR2 SZ IP       1422  0.43                             159    0.5010 37.6  83 
 BAR2 SZ ES       1422 12.73                             159    0.7310 37.6  83 
 BRR  HZ IP     C 1422  1.26                             146    0.1410 65.0 341 
 BRR  HN ES       1422 14.61                             146    0.4910 65.0 341 
 BRR  HZ I        1422 16.19       115.4 0.14            144           65.0 341 
 RUS  HZ EP     D 1422  3.33                             138   -0.1710 87.5 146 
 RUS  HZ I        1422  4.43        52.2 0.10            136           87.5 146 
 RUS  HE ES       1422 18.19                             138   -0.1610 87.5 146 
 PTB  HZ IP   9 C 1422  3.28                             132   -0.95 0  104 269 
 PTB  HN ES       1422 18.04                                   -0.6710  104 269 
 PTB  HZ I        1422 19.47       242.2 0.12            128            104 269 
 SPBC HZ EP       1422  5.13                             128   -0.4310  117 212 
 SPBC HN ES       1422 21.45                             128   -0.5710  117 212 
 SPBC HZ I        1422 30.94        98.6 0.28            125            117 212 
 PAM  SZ EP       1422  6.67                             126   -0.2910  126  46 
 PAM  SN ES       1422 24.50                             126   -0.0210  126  46 
 PAM  SZ I        1422 26.14        62.5 0.24            126            126  46 
 ZAR  HZ EP       1422 12.34                             115    0.24 9  181 305 
 ZAR  HE ES       1422 34.52                             115    0.85 9  181 305 
 ZAR  HZ I        1422 36.63       126.5 0.42            113            181 305 
 NOR  HZ EP       1422 12.05                             115   -0.58 9  185 234 
 NOR  HE ES       1422 33.82                             115   -0.80 9  185 234 
 NOR  HZ I        1422 37.86        47.9 0.14            112            185 234 
 OCA  HZ EP       1422 12.68                             114   -0.40 9  188   7 
 OCA  HE ES       1422 34.68                             114   -0.73 9  188   7 
 OCA  HZ I        1422 41.71        71.2 0.60            113            188   7 
 TAM  HZ EP       1422 13.17                             114   -0.18 9  192  94 
 TAM  HZ I        1422 13.46        39.6 0.10            113            192  94 
 TAM  HE ES       1422 35.89                             114   -0.01 9  192  94 
 ROSC BN ES       1422 39.48                             112   -0.67 8  209 205 
 ROSC BZ I        1422 47.46        31.5 0.40            109            209 205 
 CHI  HZ EP       1422 16.51                             111    0.19 8  214 186 
 CHI  HE ES       1422 40.89                             111   -0.29 8  214 186 
 CHI  HZ I        1422 46.26        17.7 0.34            109            214 186 
 HEL  HZ EP       1422 17.72                             110    0.09 8  226 260 
 HEL  HE ES       1422 43.17                             110   -0.34 8  226 260 
 HEL  HZ I        1422 48.44        28.5 0.22            107            226 260 
 GUY2CHZ EP       1422 21.29                             107    0.55 8  252 234 
 GUY2CHE ES       1422 49.37                             107    0.32 8  252 234 
 GUY2CHZ I        1422 59.97        22.6 0.76                           252 234 
 URE  HZ EP       1422 20.53                             106   -0.49 8  259 301 
 URE  HE ES       1422 48.43                             106   -1.12 8  259 301 
 URE  HZ I        1422 57.47        48.2 0.16            104            259 301 
 VIL  SZ EP       1422 22.52                             105   -0.00 8  270 184 
 VIL  SE ES       1422 51.67                             105   -0.55 8  270 184 
 VIL  SZ I        1423  0.90        36.5 0.38            103            270 184 
 RREF HZ EP       1422 23.95                             105    0.56 8  273 228 
 RREF HN ES       1422 53.45                             105   -0.32 8  273 228 
 RREF HZ I        1423  0.82        20.3 0.30            103            273 228 
 CBOC HZ EP       1422 25.13                             104    0.72 7  286 255 
 CBOC HZ I        1423  8.06        10.3 0.62            102            286 255 
 TOL  SZ EP       1422 27.30                             104    1.63 7  295 223 
 TOL  SE ES       1422 57.85                             104    0.02 7  295 223 
 DBB  SZ EP       1422 25.96                             103   -0.20 7  302 280 
 DBB  SZ ES       1422 58.79                             103    0.10 7  302 280 
 ANIL HZ EP       1422 27.82                             103    0.55 7  309 223 
 ANIL HN ES       1423  1.22                             103    0.55 7  309 223 
 MON  HZ EP   9   1422 29.51                             101   -1.28 0  342 316 
 MON  HZ I        1422 30.21        15.4 0.14             99            342 316 
 MON  HN ES       1423  4.47                                   -1.19 7  342 316 
 ORTC HZ EP       1422 32.08                             100    0.31 6  349 213 
 ORTC HN ES       1423  9.55                             100    0.87 6  349 213 
 ORTC HZ I        1423 12.58        16.5 0.18             98            349 213 
 ARGC HZ EP   9   1422 35.56                              99    0.83 0  374 348 
 ARGC HN ES       1423 15.31                                    0.53 6  374 348 
 SJC  HZ EP   9   1422 37.87                              97   -1.56 0  413 334 
 SJC  HE ES       1423 18.76                                   -2.00 6  413 334 
 SJC  HZ I        1423 23.36         9.2 0.26             95            413 334 
                                                                                
