 2012  425 1259  6.7 L   6.741 -73.159151.7  RSN  5 0.2 1.4LRSN                1
 GAP=231        0.50       5.2     4.8  4.9  0.1558E+02  0.2729E+01 -0.2438E+01E
 Epicentro: VILLANUEVA - SANTANDER                                             3
 ACTION:UPD 12-07-05 11:55 OP:tino STATUS:               ID:20120425125906 L   I
 2012-04-25-1257-00S.MAN___186                                                 6
 STAT SP IPHASW D HRMM SECON CODA AMPLIT PERI AZIMU VELO AIN AR TRES W  DIS CAZ7
 BAR2 SZ EP   1   1259 26.77                             174    -0.1 7   17 189 
 BAR2 SZ ES   1   1259 42.65                             174     0.0 7   17 189 
 BAR2 SZ I        1259 44.54         5.6 0.17                            17 189 
 BRR  HZ EP   1   1259 28.87                             153     0.3 7   73 304 
 BRR  HE ES   1   1259 45.64                             153     0.0 7   73 304 
 RUS  HZ EP   1   1259 30.73                             147     0.2 7   94 175 
 RUS  HN ES   1   1259 49.03                             147    -0.2 7   94 175 
 RUS  HZ I        1259 53.06         2.9 0.21                            94 175 
 PTB  HZ EP   1   1259 34.02                             134     0.1 7  145 261 
 PTB  HN ES   1   1259 55.16                             134     0.0 7  145 261 
 PTB  HZ I        13 0  0.26         2.6 0.13                           145 261 
 ZAR  HZ EP   1   1259 39.11                             123    -0.5 6  205 294 
 ZAR  HE ES   1   13 0  5.33                             123     0.0 6  205 294 
 ZAR  HZ I        13 0 11.41         5.0 0.23                           205 294 
                                                                                
