 2010  125 1913 22.8 L   6.750 -72.865155.9  RSN  4 0.4 2.2LRSN                1
 GAP=296        0.79      12.8    14.6 13.8 -0.5891E+02  0.1156E+03 -0.8988E+02E
 Epicentro: SAN ANDRES - SANTANDER                                             3
 ACTION:UP  10-08-24 09:45 OP:vdl  STATUS:               ID:20100125191322 L   I
 2010-01-25-1913-30S.COL___095                                                 6
 STAT SP IPHASW D HRMM SECON CODA AMPLIT PERI AZIMU VELO SNR AR TRES W  DIS CAZ7
 RUS  BZ EP       1913 47.45                             147     0.110   98 194 
 RUS  BE ES   1   1914  6.61                             147     0.1 7   98 194 
 RUS  BZ I        1914  7.90        17.9 0.32                            98 194 
 CHI  HZ EP   1   1914  1.80                             119     0.2 6  253 202 
 CHI  HE ES   1   1914 31.18                             119    -0.6 6  253 202 
 CHI  HZ I        1914 36.34         7.2 0.37                           253 202 
 HEL  HZ EP   1   1914  6.08                             114    -0.6 5  301 258 
 HEL  HZ I        1914 42.89         9.6 0.42                           301 258 
 RREF BZ EP   1   1914 12.04                             111     0.3 5  343 233 
 RREF BN ES   2   1914 50.71                             111     0.8 3  343 233 
 RREF BZ I        1914 55.39         9.1 0.21                           343 233 
                                                                                
