 2012  925 1321 49.2 L   6.412 -73.319151.0  RSN  5 0.3 1.5LRSN                1
 GAP=121        0.65       6.4     6.1  8.1  0.1554E+02 -0.4042E+01 -0.2209E+01E
 Epicentro: PALMAS SOCORRO - SANTANDER                                         3
 ACTION:UPD 12-10-22 14:20 OP:ep   STATUS:               ID:20120925132149 L   I
 2012-09-25-1319-39M.COL___207                                                 6
 STAT SP IPHASW D HRMM SECON CODA AMPLIT PERI AZIMU VELO AIN AR TRES W  DIS CAZ7
 BAR2 SZ EP   1   1322  9.30                             170   -0.20 7 25.0  37 
 BAR2 SZ ES   1   1322 24.88                             170   -0.45 7 25.0  37 
 BAR2 SZ I        1322 25.30        11.1 0.50                          25.0  37 
 RUS  HZ EP   1   1322 11.44                             156    0.22 7 63.1 156 
 RUS  HN ES   1   1322 28.61                             156    0.22 7 63.1 156 
 RUS  HZ I        1322 29.80         4.1 0.20                          63.1 156 
 GIR2 SZ EP   1   1322 11.24                             152   -0.10 7 75.0  11 
 BRR  HN ES   1   1322 30.20                             148    0.52 7 88.3 331 
 PTB  HN ES   1   1322 34.52                             138   -0.23 7  127 276 
                                                                                
