 2015 1025 1425  2.2 L   6.750 -73.108145.7  RSN  4 0.1 1.3LRSN                1
 GAP=144        0.41       2.2     3.3  3.4 -0.1142E+00 -0.7589E+00  0.1852E+00E
 Epicentro: LOS SANTOS - SANTANDER                                             3
 ACTION:UPD 15-12-22 20:43 OP:cam  STATUS:               ID:20151025142502 L   I
 OLDACT:REG 15-10-25 20:28 OP:drio STATUS:               ID:20151025141749     3
 2015-10-25-1417-49M.COL___313                                                 6
 STAT SP IPHASW D HRMM SECON CODA AMPLIT PERI AZIMU VELO AIN AR TRES W  DIS CAZ7
 BAR2 EZ EP       1425 21.47                             172   -0.2810 19.3 205 
 BAR2 EZ ES       1425 36.93                             172   -0.0710 19.3 205 
 BAR2 EZ I        1425 38.27         9.5 0.20            173           19.3 205 
 BRR  HZ EP       1425 23.88                             150    0.1710 77.6 301 
 BRR  HN ES       1425 40.48                             150   -0.0210 77.6 301 
 PAM  EZ EP       1425 24.54                             150    0.0210 79.2  35 
 PAM  EN ES       1425 41.98                             150    0.0510 79.2  35 
 PAM  EZ I        1425 44.19         2.4 0.58            150           79.2  35 
 RUS  HZ EP       1425 25.54                             145    0.0010 94.9 178 
 RUS  HN ES       1425 43.87                             145    0.1210 94.9 178 
 RUS  HZ I        1425 45.54         2.8 0.26            146           94.9 178 
                                                                                
