 2012  325 1034  1.0 L   6.793 -73.147146.3  RSN  5 0.3 1.1LRSN                1
 GAP=137        0.65      10.6     5.5 12.5 -0.8026E+01 -0.1166E+02  0.9141E+02E
 ACTION:UP  12-03-31 23:22 OP:EP   STATUS:               ID:20120325103401 L   I
 2012-03-25-1030-00M.COL___196                                                 6
 STAT SP IPHASW D HRMM SECON CODA AMPLIT PERI AZIMU VELO SNR AR TRES W  DIS CAZ7
 BAR2 SZ EP       1034 20.72                             171     0.110   23 190 
 BAR2 SZ I        1034 21.23         4.2 0.19                            23 190 
 BRR  HZ EP   1   1034 22.62                             152     0.4 7   71 299 
 BRR  HZ I        1034 23.07         5.8 0.10                            71 299 
 BRR  HE ES   1   1034 38.73                             152     0.0 7   71 299 
 PAM  SN ES   2   1034 40.37                             151    -0.3 5   78  39 
 RUS  HZ EP   1   1034 24.75                             144     0.0 7  100 176 
 RUS  HZ I        1034 44.21         0.8 0.31                           100 176 
 PTB  HZ EP   1   1034 27.49                             132    -0.5 7  148 259 
 PTB  HN ES   1   1034 49.09                             132     0.1 7  148 259 
 PTB  HZ I        1034 51.24         1.6 0.08                           148 259 
                                                                                
