 2017 1225 1822 13.1 L   6.847 -73.182129.2  RSN  6 0.3 1.4LRSN                1
 GAP=136        0.67       2.7     3.1  5.0 -0.3259E+01  0.6543E+01 -0.2567E+01E
 Epicentro: ZAPATOCA - SANTANDER                                               3
 ACTION:UPD 18-01-04 13:24 OP:rebc STATUS:               ID:20171225182213 L   I
 OLDACT:REG 17-12-25 20:00 OP:dhb  STATUS:               ID:20171225181742     3
 2017-12-25-1818-00M.COL___454                                                 6
 STAT SP IPHASW D HRMM SECON CODA AMPLIT PERI AZIMU VELO AIN AR TRES W  DIS CAZ7
 BAR2 EZ EP       1822 30.97                             167    0.0910 28.2 180 
 BAR2 EZ ES       1822 44.71                             167   -0.0210 28.2 180 
 BAR2 EZ I        1822 46.67         7.5 0.18            171           28.2 180 
 PAM  EZ EP       1822 33.08                             148   -0.4410 76.2  44 
 PAM  EN ES       1822 49.74                             148    0.3110 76.2  44 
 PAM  EZ I        1822 53.46         2.0 0.20            151           76.2  44 
 PTB  HZ EP       1822 38.23                             128   -0.28 9  145 257 
 PTB  HN ES       1822 58.43                             128    0.11 9  145 257 
 PTB  HZ I        1823  3.49         2.0 0.66            131            145 257 
 OCA  HZ EP       1822 39.83                             127    0.19 9  155 354 
 OCA  HN ES       1823  0.05                             127   -0.27 9  155 354 
 OCA  HZ I        1823  3.99        11.2 0.24            129            155 354 
 SPBC HZ EP       1822 40.78                             125    0.22 9  165 217 
 SPBC HE ES       1823  1.75                             125   -0.21 9  165 217 
 SPBC HZ I        1823  2.22         5.9 0.30            129            165 217 
 ZAR  HZ EP       1822 44.35                             119    0.42 9  198 291 
 ZAR  HN ES       1823  7.90                             119   -0.06 9  198 291 
 ZAR  HZ I        1823 13.19         3.1 0.40            122            198 291 
                                                                                
