 2012 1125 1032 17.0 L   6.789 -73.149143.6  RSN  6 0.2 1.6LRSN                1
 GAP=184        0.43       4.0     3.6  4.0  0.7183E+01  0.6341E+01  0.4895E+01E
 Epicentro: LOS SANTOS - SANTANDER                                             3
 ACTION:UPD 12-12-05 15:36 OP:}ep  STATUS:               ID:20121125103217 L   I
 2012-11-25-1030-00M.COL___233                                                 6
 STAT SP IPHASW D HRMM SECON CODA AMPLIT PERI AZIMU VELO AIN AR TRES W  DIS CAZ7
 BAR2 SZ EP       1032 36.40                             171    0.0410 22.1 190 
 BAR2 SZ ES       1032 51.39                             171   -0.0510 22.1 190 
 BAR2 SZ I        1032 52.58        11.2 0.32                          22.1 190 
 GIR2 SZ ES   1   1032 51.70                             167    0.07 7 32.4 351 
 RUS  HZ EP   1   1032 40.49                             144    0.03 7 99.4 176 
 RUS  HN ES   1   1032 58.77                             144    0.02 7 99.4 176 
 RUS  HZ I        1033  0.64         2.8 0.40                          99.4 176 
 PTB  HZ EP   1   1032 43.29                             132   -0.46 7  147 259 
 PTB  HE ES   1   1033  4.62                             132    0.02 7  147 259 
 PTB  HZ I        1033 10.27         5.3 0.26                           147 259 
 ZAR  HN ES   1   1033 14.71                             122    0.17 6  204 292 
 ZAR  HZ I        1033 20.78         3.6 0.26                           204 292 
 PRA  HZ EP   1   1033 10.77                             106    0.46 4  391 210 
 PRA  HZ I        1033 58.19         1.5 0.36                           391 210 
                                                                                
