 2010  125 1044 42.2 L   6.815 -73.227144.8  RSN  6 0.3 1.6LRSN                1
 GAP=152        0.58       4.0    10.4  7.0  0.1070E+01  0.3226E+02 -0.1495E+01E
 Epicentro: ZAPATOCA - SANTANDER                                               3
 ACTION:UP  10-08-24 09:45 OP:vdl  STATUS:               ID:20100125104442 L   I
 2010-01-25-1039-50S.COL___089                                                 6
 STAT SP IPHASW D HRMM SECON CODA AMPLIT PERI AZIMU VELO SNR AR TRES W  DIS CAZ7
 BAR2 SZ IP       1045  1.48                             170    -0.210   25 169 
 BAR2 SZ ES   1   1045 17.23                             170     0.3 7   25 169 
 GIR2 SZ EP   2   1045  1.53                             168    -0.1 5   29   7 
 RUS  HZ EP   2   1045  5.76                             143    -0.3 5  103 171 
 RUS  HN ES   1   1045 24.40                             143    -0.2 7  103 171 
 RUS  HZ I        1045 25.01         4.5 0.27                           103 171 
 GUE  SZ EP   2   1045  7.50                             139     0.7 5  117  17 
 CHI  HZ EP   1   1045 19.86                             117     0.1 6  248 193 
 CHI  HN ES   1   1045 49.41                             117     0.4 6  248 193 
 CHI  HZ I        1045 51.44         4.3 0.52                           248 193 
 MON  HE ES   2   1046  7.45                             109    -0.1 3  345 309 
                                                                                
