 2012  225 1727 34.5 L   6.807 -73.134140.4  RSN  6 0.1 1.7LRSN                1
 GAP=138        0.31       3.2     3.5  4.0  0.1747E+01 -0.3553E+00  0.1528E+01E
 ACTION:UP  12-03-07 16:34 OP:epov STATUS:               ID:20120225172734 L   I
 2012-02-25-1720-00M.COL___192                                                 6
 STAT SP IPHASW D HRMM SECON CODA AMPLIT PERI AZIMU VELO AIN AR TRES W  DIS CAZ7
 BAR2 SZ ES   2   1728  8.38                             170    0.03 5 24.4 193 
 BAR2 SZ I        1728  9.72         8.9 0.29                          24.4 193 
 GIR2 SZ EP   2   1727 53.20                             167   -0.34 5 30.8 348 
 GIR2 SZ ES   2   1728  8.48                             167    0.11 5 30.8 348 
 BRR  HZ EP   2   1727 54.97                             151   -0.16 5 72.0 297 
 BRR  HZ I        1727 58.59        20.3 0.42                          72.0 297 
 BRR  HE ES   2   1728 11.25                             151    0.03 5 72.0 297 
 PAM  SZ EP   2   1727 56.20                             150    0.13 5 75.9  39 
 RUS  HZ EP   1   1727 57.91                             142    0.12 7  101 177 
 RUS  HN ES   2   1728 15.81                             142   -0.14 5  101 177 
 RUS  HZ I        1728 17.63         3.9 0.48                           101 177 
 PTB  HZ EP   2   1728  1.30                             130    0.11 5  149 259 
 PTB  HE ES   2   1728 21.97                             130   -0.02 5  149 259 
                                                                                
