 2012 1225 1412 14.0 L   6.749 -73.198144.6  RSN  5 0.3 1.6LRSN                1
 GAP=227        0.71       4.6     5.2  6.0  0.8204E+01  0.2927E+01  0.7631E+01E
 Epicentro: VILLANUEVA - SANTANDER                                             3
 ACTION:UPD 13-01-04 14:30 OP:ep   STATUS:               ID:20121225141214 L   I
 2012-12-25-1410-00M.COL___242                                                 6
 STAT SP IPHASW D HRMM SECON CODA AMPLIT PERI AZIMU VELO AIN AR TRES W  DIS CAZ7
 BAR2 SZ EP       1412 33.31                             173   -0.1110 17.4 174 
 BAR2 SZ ES   1   1412 48.05                             173   -0.50 7 17.4 174 
 BAR2 SZ I        1412 49.73        17.4 0.18                          17.4 174 
 BRR  HZ EP       1412 35.44                             153    0.4910 69.2 305 
 BRR  HE ES       1412 51.40                             153    0.1410 69.2 305 
 BRR  HZ I        1412 54.61         5.8 0.13                          69.2 305 
 RUS  HZ EP   1   1412 37.39                             145    0.07 7 95.5 172 
 RUS  HN ES   1   1412 55.61                             145    0.14 7 95.5 172 
 RUS  HN I        1412 56.61         7.1 0.31                          95.5 172 
 PTB  HZ EP       1412 39.87                             133   -0.43 9  141 261 
 PTB  HE ES       1413  0.80                             133    0.01 9  141 261 
 PTB  HZ I        1413  3.83         4.5 0.15                           141 261 
 CHI  HZ EP   1   1412 50.67                             118   -0.25 6  242 194 
 CHI  HE ES   1   1413 20.01                             118    0.33 6  242 194 
                                                                                
