 2011  825 1300 47.3 L   6.689 -73.232161.9  RSN  5 0.2 2.2LRSN                1
 GAP=147        0.56       5.9    11.5  6.4  0.4592E+02 -0.1904E+02  0.2987E+00E
 Epicentro: BARICHARA - SANTANDER                                              3
 ACTION:UPD 12-07-13 15:53 OP:ep   STATUS:               ID:20110825130046 L   I
 2011-08-25-1258-41S.COL___167                                                 6
 STAT SP IPHASW D HRMM SECON CODA AMPLIT PERI AZIMU VELO AIN AR TRES W  DIS CAZ7
 BAR2 SZ EP       13 1  8.52                             176   -0.2510 12.1 153 
 BAR2 SZ I        13 1 25.28        14.8 0.36                          12.1 153 
 GIR2 SZ EP   1   13 1  9.18                             164   -0.11 7 43.3   6 
 BRR  HZ EP       13 1 10.47                             155    0.2510 70.3 311 
 BRR  HN ES       13 1 27.99                             155   -0.0710 70.3 311 
 BRR  HZ I        13 1 29.71        78.3 0.18                          70.3 311 
 RUS  HZ EP   1   13 1 12.41                             150    0.39 7 89.6 169 
 RUS  HN ES   1   13 1 31.31                             150    0.05 7 89.6 169 
 RUS  HZ I        13 1 32.29        12.6 0.31                          89.6 169 
 CHI  HZ EP   1   13 1 24.19                             122   -0.31 6  234 194 
                                                                                
