 2010  825 1750 15.5 L   6.778 -73.075147.6  RSN 15 0.4 3.0LRSN                1
 GAP=164        0.91       3.1     6.1  5.1 -0.5986E+01  0.2855E+01  0.2477E+01E
 Epicentro: LOS SANTOS - SANTANDER                                             3
 ACTION:UP  10-09-07 10:58 OP:vdl  STATUS:               ID:20100825175015 L   I
 2010-08-25-1746-26S.COL___121                                                 6
 STAT SP IPHASW D HRMM SECON CODA AMPLIT PERI AZIMU VELO SNR AR TRES W  DIS CAZ7
 BAR2 SZ IP       1750 35.32                             170     0.010   24 210 
 BAR2 SZ ES   2   1750 50.40                             170    -0.4 5   24 210 
 BAR2 SZ I        1750 51.89       354.6 0.26                            24 210 
 GIR2 SZ EP       1750 35.42                             166    -0.110   36 339 
 GIR2 SZ ES   1   1750 51.09                             166     0.0 7   36 339 
 BRR  HZ IP     D 1750 37.22                             150    -0.110   79 297 
 BRR  HN ES       1750 54.51                             150     0.210   79 297 
 BRR  HZ I        1750 55.80       241.4 0.13                            79 297 
 RUS  HZ EP       1750 39.08                             145    -0.110   98 181 
 RUS  HN ES       1750 57.78                             145     0.010   98 181 
 RUS  HZ I        1750 59.72       166.6 0.85                            98 181 
 BRI  SZ EP       1750 40.01                             142     0.510  108  16 
 BRI  SZ I        1751  1.90        61.4 0.49                           108  16 
 GUE  SZ EP       1750 40.25                             140    -0.210  118   8 
 GUE  SZ I        1751  1.95        39.3 0.10                           118   8 
 GRA  SZ EP       1750 41.12                             137     0.210  126  14 
 GRA  SZ ES   1   1751  0.75                             137     0.0 7  126  14 
 GRA  SZ I        1751  2.00       193.2 0.40                           126  14 
 OCA  SZ EP       1750 43.75                             129    -0.5 9  164 351 
 OCA  SZ ES   1   1751  6.94                             129     0.2 7  164 351 
 OCA  SZ I        1751 10.58       230.5 0.27                           164 351 
 CHI  HZ EP       1750 53.06                             117    -0.2 8  248 197 
 CHI  HZ I        1750 54.33        57.8 0.05                           248 197 
 CVER SZ EP   1   1750 56.52                             115     0.5 6  273 204 
 CVER SZ I        1750 58.18       104.3 0.31                           273 204 
 DBB  SZ EP       1751  3.24                             109    -0.7 6  347 275 
 TOL  SZ EP       1751  5.19                             109     0.9 6  347 226 
 SDV  BZ I        1751 44.13        30.9 0.36                           356  49 
 ANIL HZ EP   1   1751  6.51                                     0.7 5  361 226 
 ANIL HN ES   1   1751 45.33                                     0.3 5  361 226 
 PRA  HZ EP       1751  8.81                             107    -0.5 6  394 211 
 PRA  HZ I        1751 11.11        48.2 0.20                           394 211 
 PRA  HN ES   1   1751 50.79                             107    -0.4 4  394 211 
                                                                                
