 2017  325 1632 44.0 L   6.873 -73.337121.3  RSN 12 0.6 2.0LRSN                1
 GAP=112        1.21       3.9     4.1  6.4 -0.1843E+01  0.9087E+01  0.4815E+01E
 Epicentro: BETULIA - SANTANDER                                                3
 ACTION:UPD 17-05-25 18:45 OP:jn   STATUS:               ID:20170325163244 L   I
 OLDACT:UP  17-03-25 17:55 OP:dani STATUS:               ID:20170325162748     3
 OLDACT:UP  17-03-25 17:54 OP:dani STATUS:               ID:20170325162748     3
 OLDACT:REG 17-03-25 17:41 OP:dani STATUS:               ID:20170325162748     3
 2017-03-25-1628-00M.COL___373                                                 6
 STAT SP IPHASW D HRMM SECON CODA AMPLIT PERI AZIMU VELO AIN AR TRES W  DIS CAZ7
 BAR2 EZ EP     C 1633  1.21                             163    0.1110 35.4 151 
 BAR2 EZ ES       1633 14.19                             163   -0.2210 35.4 151 
 BRR  HZ EP     C 1633  1.52                             157    0.2010 48.9 302 
 BRR  HN ES       1633 15.54                             157    0.7410 48.9 302 
 BRR  HZ I        1633 16.53        45.7 0.12            156           48.9 302 
 PAM  EZ EP       1633  4.63                             142    0.2110 87.3  54 
 PAM  EE ES       1633 20.54                             142    0.2110 87.3  54 
 PAM  EZ I        1633 24.43        11.7 0.40            144           87.3  54 
 RUS  HZ EP       1633  6.34                             135   -0.0910  112 165 
 RUS  HE ES       1633 23.37                             135   -0.5210  112 165 
 RUS  HZ I        1633 24.92        14.4 0.72            136            112 165 
 PTB  HZ EP     C 1633  6.39                             130   -0.9410  129 253 
 PTB  HN ES       1633 24.50                             130   -1.0110  129 253 
 PTB  HZ I        1633 28.16        18.0 0.14            130            129 253 
 SPBC HZ EP       1633 10.30                             124    0.09 9  158 211 
 SPBC HE ES       1633 30.70                             124    0.07 9  158 211 
 SPBC HZ I        1633 32.69        19.3 0.10            125            158 211 
 ZAR  HZ EP       1633 13.23                             120    0.65 9  181 292 
 ZAR  HN ES   3   1633 35.92                             120    1.07 2  181 292 
 ZAR  HZ I        1633 40.18        21.0 0.20            120            181 292 
 NOR  HZ EP       1633 16.54                             114   -0.62 8  223 230 
 NOR  HN ES       1633 43.19                             114    0.19 8  223 230 
 NOR  HZ I        1633 44.80         7.0 0.16            115            223 230 
 CHI  HZ EP       1633 20.97                             111    0.10 8  252 190 
 CHI  HN ES       1633 50.07                             111    0.47 8  252 190 
 CHI  HZ I        1633 54.36         5.1 0.29            112            252 190 
 HEL  HZ EP   3   1633 22.39                             111    1.35 2  254 253 
 HEL  HE ES       1633 50.56                             111    0.65 8  254 253 
 URE  HZ EP       1633 20.74                             110   -0.69 8  261 292 
 URE  HN ES   3   1633 48.71                             110   -1.89 2  261 292 
 PRA  HZ EP       1633 36.67                             102    0.18 6  389 206 
 PRA  HE ES       1634 18.40                             102    1.00 6  389 206 
 PRA  HZ I        1634 24.19         4.5 0.40            103            389 206 
                                                                                
