 2011  325 1405 21.1 L   6.781 -73.162143.5  RSN 12 0.4 2.5LRSN                1
 GAP=135        0.86       3.2     4.9  6.3 -0.3401E+01  0.5037E+01  0.3813E+01E
 Epicentro: LOS SANTOS - SANTANDER                                             3
 ACTION:UP  11-06-16 14:35 OP:jfem STATUS:               ID:20110325140521 L   I
 2011-03-25-1402-45S.COL___122                                                 6
 STAT SP IPHASW D HRMM SECON CODA AMPLIT PERI AZIMU VELO SNR AR TRES W  DIS CAZ7
 BAR2 SZ EP       14 5 39.91                             171    -0.510   21 186 
 BAR2 SZ ES   1   14 5 55.08                             171    -0.4 7   21 186 
 BAR2 SZ I        14 5 56.45       115.1 0.23                            21 186 
 BRR  HZ IP     D 14 5 41.79                             152    -0.110   71 301 
 BRR  HN ES   1   14 5 58.29                             152     0.1 7   71 301 
 BRR  HZ I        14 6  2.80        72.5 0.09                            71 301 
 GRA  SZ EP       14 5 46.75                             136     0.410  128  18 
 GRA  SZ ES   1   14 6  6.29                             136     0.3 7  128  18 
 GRA  SZ I        14 6  7.51        29.8 0.28                           128  18 
 OCA  SZ EP       14 5 49.60                             129     0.2 9  162 354 
 OCA  SZ I        14 6 15.35        42.3 0.34                           162 354 
 YOP  SZ EP   1   14 5 50.61                             126    -0.2 7  178 152 
 YOP  SN ES   1   14 6 14.40                             126     0.3 7  178 152 
 YOP  SZ I        14 6 15.44        29.9 0.32                           178 152 
 NOR  SZ EP   1   14 5 56.12                             118    -0.3 6  232 235 
 NOR  SN ES   1   14 6 23.86                             118    -0.1 6  232 235 
 CHI  HZ EP   1   14 5 57.97                             117    -0.4 6  246 195 
 CHI  HN ES   1   14 6 27.91                             117     0.4 6  246 195 
 CHI  HZ I        14 6 33.38        14.3 0.44                           246 195 
 HEL  HZ EP   1   14 6  0.99                             114     0.1 6  270 256 
 HEL  HZ I        14 6 40.38        23.6 0.35                           270 256 
 VIL  SZ EP   2   14 6  3.56                             112    -0.6 4  301 191 
 VIL  SN ES   2   14 6 38.33                             112     0.6 4  301 191 
 VIL  SZ I        14 6 47.02        11.7 0.41                           301 191 
 RREF HN ES   1   14 6 43.43                             110     1.0 5  319 229 
 RREF HZ I        14 6 49.19        14.9 0.23                           319 229 
 DBB  SZ EP   1   14 6  7.92                             109    -0.3 5  338 275 
 PRA  HZ EP   1   14 6 13.36                             106    -0.8 4  389 209 
 PRA  HE ES   1   14 6 56.04                             106     0.4 4  389 209 
                                                                                
