 2011 1225 1918 17.8 L   6.802 -73.157152.5  RSN  5 0.3 1.4LRSN                1
 GAP=183        0.55       4.7     5.1  5.3  0.6629E+01  0.5089E+01  0.3623E+01E
 Epicentro: LOS SANTOS - SANTANDER                                             3
 ACTION:UPD 12-07-13 16:18 OP:ep   STATUS:               ID:20111225191817 L   I
 2011-12-25-1910-00M.COL___188                                                 6
 STAT SP IPHASW D HRMM SECON CODA AMPLIT PERI AZIMU VELO AIN AR TRES W  DIS CAZ7
 BAR2 SZ ES   1   1918 54.13                             171   -0.07 7 23.4 187 
 BAR2 SZ I        1918 54.80         7.0 0.23                          23.4 187 
 GIR2 SZ EP   1   1918 37.89                             168   -0.39 7 30.9 353 
 GIR2 SZ ES   1   1918 54.10                             168   -0.14 7 30.9 353 
 BRR  HZ EP   1   1918 40.08                             154    0.45 7 70.0 299 
 BRR  HE ES   1   1918 56.94                             154    0.29 7 70.0 299 
 RUS  HZ EP   1   1918 42.24                             145   -0.02 7  101 175 
 RUS  HN ES   1   1919  1.49                             145    0.17 7  101 175 
 RUS  HZ I        1919  2.60         2.5 0.36                           101 175 
 PTB  HZ EP   1   1918 45.22                             134   -0.02 7  147 259 
 PTB  HN ES   1   1919  6.33                             134   -0.29 7  147 259 
                                                                                
