 2013  925 1155 55.8 L   6.683 -73.192147.8  RSN  5 0.2 1.6LRSN                1
 GAP=135        0.57       4.1     3.5  4.8  0.1931E+01  0.1402E+00 -0.5626E+01E
 Epicentro: VILLANUEVA - SANTANDER                                             3
 ACTION:UPD 13-10-22 09:24 OP:ep   STATUS:               ID:20130925115555 L   I
 OLDACT:REG 13-09-25 15:56 OP:stll STATUS:               ID:20130925114850     3
 2013-09-25-1148-50M.COL___250                                                 6
 STAT SP IPHASW D HRMM SECON CODA AMPLIT PERI AZIMU VELO AIN AR TRES W  DIS CAZ7
 BAR2 SZ EP       1156 15.53                             176    0.0910 10.1 174 
 BAR2 SZ I        1156 15.66         8.3 0.18            171           10.1 174 
 BAR2 SZ ES       1156 30.70                             176   -0.0910 10.1 174 
 BRR  HZ EP       1156 17.63                             152    0.3410 74.1 309 
 BRR  HN ES       1156 34.22                             152    0.1310 74.1 309 
 RUS  HN ES       1156 36.97                             148    0.0810 88.3 172 
 RUS  HZ I        1156 38.79         5.5 0.32            145           88.3 172 
 PAM  SZ EP       1156 18.71                             147   -0.3110 90.7  37 
 PAM  SZ I        1156 18.95         9.8 0.24            151           90.7  37 
 PTB  HZ EP       1156 22.27                             134    0.01 9  141 264 
 PTB  HN ES       1156 42.67                             134   -0.27 9  141 264 
 PTB  HZ I        1156 49.13         3.5 0.36            131            141 264 
                                                                                
