 2011 1025 1453 11.4 L   6.762 -73.108138.1  RSN  5 0.2 1.3LRSN                1
 GAP=143        0.41       3.9     4.3  5.4  0.7693E+00 -0.4987E+01 -0.2882E+01E
 Epicentro: LOS SANTOS - SANTANDER                                             3
 ACTION:UPD 12-07-13 16:05 OP:ep   STATUS:               ID:20111025145311 L   I
 2011-10-25-1451-04S.COL___171                                                 6
 STAT SP IPHASW D HRMM SECON CODA AMPLIT PERI AZIMU VELO AIN AR TRES W  DIS CAZ7
 BAR2 SZ EP       1453 30.04                             171    0.0210 20.5 204 
 BAR2 SZ ES   2   1453 44.36                             171   -0.21 5 20.5 204 
 BAR2 SZ I        1453 45.99         7.0 0.64                          20.5 204 
 BTL  SZ EP   3   1453 29.33                             169   -0.78 2 24.7 314 
 BRR  HZ EP       1453 31.86                             149   -0.1810 76.9 300 
 BRR  HE ES   1   1453 48.36                             149    0.20 7 76.9 300 
 PAM  SZ EP       1453 32.99                             149    0.1710 78.2  35 
 PAM  SE ES   2   1453 49.38                             149   -0.18 5 78.2  35 
 RUS  HZ EP   3   1453 33.90                             144   -0.14 2 96.2 178 
 RUS  HE ES   2   1453 51.87                             144    0.14 5 96.2 178 
 RUS  HZ I        1453 53.85         2.3 0.28                          96.2 178 
                                                                                
