 2011  625 1120 41.8 L   6.770 -73.041140.4  RSN  6 0.2 1.4LRSN                1
 GAP=168        0.61       3.9     7.4  6.8 -0.1086E+02 -0.2252E+02  0.4906E+01E
 Epicentro: LOS SANTOS - SANTANDER                                             3
 ACTION:UP  11-07-14 19:07 OP:ep   STATUS:               ID:20110625112041 L   I
 2011-06-25-1120-00M.COL___124                                                 6
 STAT SP IPHASW D HRMM SECON CODA AMPLIT PERI AZIMU VELO SNR AR TRES W  DIS CAZ7
 BTL  SZ EP   1   1121  1.11                             168     0.2 8   30 303 
 BTL  SZ ES   1   1121 15.65                             168    -0.2 8   30 303 
 GIR2 SZ EP   1   1121  0.82                             164    -0.2 8   38 334 
 BRR  HZ EP   1   1121  2.64                             148    -0.5 8   83 297 
 BRR  HZ I        1121  6.06         8.6 0.60                            83 297 
 BRR  HE ES   1   1121 20.04                             148     0.3 8   83 297 
 RUS  HZ EP   1   1121  5.11                             144     0.3 8   97 183 
 RUS  HE ES   2   1121 22.54                             144    -0.1 5   97 183 
 RUS  HZ I        1121 24.82         3.2 0.26                            97 183 
 BRI  SZ EP   1   1121  4.98                             140    -0.2 8  108  14 
 GRA  SZ IP       1121  6.68                             136     0.110  126  12 
 GRA  SZ ES       1121 26.01                                     0.110  126  12 
 GRA  SZ I        1121 27.48         3.1 0.22                           126  12 
                                                                                
