 2013  725 1325 50.3 L   6.780 -73.147147.9  RSN 18 0.4 2.7LRSN                1
 GAP=114        0.87       2.2     2.9  4.4 -0.8211E-01  0.4386E+01  0.1585E+01E
 Epicentro: LOS SANTOS - SANTANDER                                             3
 ACTION:UPD 13-08-12 10:40 OP:ep   STATUS:               ID:20130725132550 L   I
 OLDACT:REG 13-07-25 14:59 OP:mh   STATUS:               ID:20130725131959     3
 2013-07-25-1319-59M.COL___266                                                 6
 STAT SP IPHASW D HRMM SECON CODA AMPLIT PERI AZIMU VELO AIN AR TRES W  DIS CAZ7
 BAR2 SZ EP     C 1326 10.21                             171    0.0210 21.1 191 
 BAR2 SZ ES   1   1326 24.78                             171   -0.90 7 21.1 191 
 BAR2 SZ I        1326 26.09        73.2 0.20            169           21.1 191 
 GIR2 SZ EP       1326 10.50                             167    0.1610 33.5 351 
 GIR2 SZ ES   1   1326 26.10                             167    0.17 7 33.5 351 
 GIR2 SZ I        1326 27.55        91.7 0.40            165           33.5 351 
 BRR  HZ EP       1326 12.28                             153    0.5010 72.2 300 
 BRR  HN ES       1326 28.93                             153    0.4310 72.2 300 
 BRR  HZ I        1326 33.77        62.0 0.14            149           72.2 300 
 PAM  SZ EP       1326 13.36                             151    0.4610 79.2  39 
 PAM  SN ES   1   1326 30.38                             151   -0.11 7 79.2  39 
 PAM  SZ I        1326 33.73        41.0 0.28            155           79.2  39 
 RUS  HZ IP     D 1326 13.85                             145   -0.3010 98.4 176 
 RUS  HN ES   1   1326 32.77                             145    0.05 7 98.4 176 
 RUS  HZ I        1326 34.13        24.5 0.22            147           98.4 176 
 PTB  HZ EP       1326 16.75                             133   -0.69 9  147 260 
 PTB  HN ES   4   1326 37.47                             133   -1.10 0  147 260 
 PTB  HZ I        1326 40.14        60.1 0.44            131            147 260 
 SPBC HZ EP       1326 19.03                             130    0.19 9  161 219 
 SPBC HN ES       1326 40.80                             130   -0.26 9  161 219 
 SPBC HZ I        1326 46.75        63.9 0.26            130            161 219 
 OCA  HZ EP   1   1326 18.92                             130   -0.11 7  162 353 
 OCA  HN ES       1326 40.89                             130   -0.52 9  162 353 
 OCA  HN I        1326 44.43       190.4 0.28            131            162 353 
 YOP  SZ EP   1   1326 20.19                             127   -0.17 7  177 153 
 YOP  SN ES       1326 44.05                             127    0.28 9  177 153 
 ZAR  HZ EP       1326 23.14                             123    0.13 9  205 293 
 ZAR  HE ES       1326 48.84                             123    0.36 9  205 293 
 ZAR  HZ I        1326 54.48        59.2 0.32            123            205 293 
 NOR  HZ EP       1326 25.82                             119   -0.23 8  233 235 
 NOR  HN ES   1   1326 53.64                             119   -0.26 6  233 235 
 NOR  HZ I        1326 59.22        55.2 0.36            119            233 235 
 SML  HZ EP       1326 27.07                             118   -0.24 8  246 336 
 SML  HN ES   1   1326 55.61                             118   -0.53 6  246 336 
 SML  HZ I        1327  1.82        44.6 0.26            119            246 336 
 CHI  HZ EP   1   1326 27.97                             118    0.04 6  246 195 
 CHI  HN ES       1326 57.30                             118    0.06 8  246 195 
 CHI  HZ I        1327  3.09        16.0 0.24            119            246 195 
 HEL  HZ EP       1326 30.82                             115    0.23 8  271 256 
 HEL  HN ES       1327  2.50                             115    0.51 8  271 256 
 HEL  HZ I        1327  9.09        30.7 0.48            116            271 256 
 GUY2CHZ EP       1326 34.55                             113    0.65 7  300 235 
 GUY2CHE ES       1327  7.90                             113    0.04 7  300 235 
 GUY2CHZ I        1327 16.63        35.6 0.38                           300 235 
 RREF HZ EP   4   1326 37.94                             111    1.54 0  320 230 
 RREF HN ES       1327 12.61                             111    0.28 7  320 230 
 RREF HZ I        1327 21.43        26.4 0.30            112            320 230 
 DBB  SZ EP       1326 38.02                             110    0.11 7  339 275 
 DBB  SZ ES   1   1327 13.86                             110   -1.15 5  339 275 
 DBB  SZ I        1327 31.17        15.4 0.52            110            339 275 
 PRA  HZ EP       1326 43.33                             107   -0.38 6  390 210 
 PRA  HN ES   1   1327 24.31                             107   -1.01 4  390 210 
 PRA  HZ I        1327 31.09        17.9 0.40            108            390 210 
                                                                                
