 2012  225 1601 37.0 L   6.805 -73.134148.0  RSN 16 0.4 2.6LRSN                1
 GAP=115        0.71       2.7     3.6  4.5 -0.1716E+01  0.3503E+01  0.2958E+01E
 ACTION:UP  12-03-07 16:34 OP:epov STATUS:               ID:20120225160137 L   I
 2012-02-25-1600-00M.COL___193                                                 6
 STAT SP IPHASW D HRMM SECON CODA AMPLIT PERI AZIMU VELO AIN AR TRES W  DIS CAZ7
 BAR2 SZ IP       16 1 56.71                             170   -0.1810 24.1 193 
 BAR2 SZ ES   1   16 2 12.65                             170    0.23 7 24.1 193 
 BAR2 SZ I        16 2 13.09       159.6 0.14                          24.1 193 
 GIR2 SZ EP   1   16 1 56.78                             168   -0.13 7 31.0 348 
 GIR2 SZ ES   2   16 2 11.72                             168   -0.73 5 31.0 348 
 BRR  HZ IP     C 16 1 58.54                             153    0.1210 72.1 298 
 BRR  HE ES   1   16 2 15.50                             153    0.36 7 72.1 298 
 BRR  HZ I        16 2 18.04       101.9 0.25                          72.1 298 
 PAM  SZ EP       16 1 59.59                             152    0.2310 76.1  39 
 PAM  SN ES   1   16 2 16.80                             152   -0.01 7 76.1  39 
 RUS  HZ EP       16 2  0.60                             144   -0.3810  101 177 
 RUS  HN ES   1   16 2 19.53                             144   -0.17 7  101 177 
 RUS  HZ I        16 2 20.41        33.8 0.28                           101 177 
 PTB  HZ EP       16 2  3.26                             132   -0.99 9  149 259 
 PTB  HE ES   2   16 2 25.29                             132   -0.23 5  149 259 
 OCA  SZ EP   2   16 2  5.83                             130    0.41 5  160 353 
 OCA  SZ ES   2   16 2 28.23                             130    0.62 5  160 353 
 YOP  SZ EP   1   16 2  7.47                             127    0.30 7  179 154 
 YOP  SN ES   2   16 2 31.48                             127    0.76 4  179 154 
 NOR  SZ EP   1   16 2 13.16                             119    0.18 6  236 235 
 NOR  SN ES   1   16 2 41.66                             119    0.59 6  236 235 
 CHI  HZ EP       16 2 14.93                             118    0.04 8  250 195 
 CHI  HN ES   1   16 2 44.27                             118   -0.20 6  250 195 
 CHI  HZ I        16 2 51.43        17.1 0.58                           250 195 
 ROSC BZ EP   2   16 2 15.92                             117    0.58 4  254 211 
 ROSC BN ES   2   16 2 45.96                             117    0.70 4  254 211 
 ROSC BZ I        16 2 51.70        32.8 0.41                           254 211 
 HEL  HZ EP   2   16 2 17.91                             115    0.45 4  273 256 
 HEL  HN ES   2   16 2 49.43                             115    0.40 4  273 256 
 HEL  HZ I        16 2 55.54        26.6 0.47                           273 256 
 RREF HZ EP   2   16 2 23.60                             111    0.23 3  323 229 
 RREF HN ES   2   16 2 59.75                             111    0.20 3  323 229 
 RREF HZ I        16 3  6.18        22.8 0.38                           323 229 
 TOL  SZ EP   2   16 2 26.04                             110    0.57 3  345 225 
 TOL  SZ ES   2   16 3  3.23                             110   -0.07 3  345 225 
 COD  HZ EP   2   16 2 24.76                             109   -0.63 3  348 354 
 COD  HE ES   2   16 3  3.42                             109    0.26 3  348 354 
 COD  HZ I        16 3  5.90        16.7 0.33                           348 354 
 PRA  HZ EP   1   16 2 30.68                             107   -0.02 4  393 210 
 PRA  HE ES   2   16 3 12.81                             107    0.20 3  393 210 
                                                                                
