 2017  725 1337 29.6 L   6.763 -73.137134.0  RSN  7 0.6 1.8LRSN                1
 GAP=210        1.58       8.6     7.9  9.8  0.3160E+02  0.1331E+02  0.8613E+01E
 Epicentro: LOS SANTOS - SANTANDER                                             3
 ACTION:UPD 17-08-30 15:36 OP:rebc STATUS:               ID:20170725133729 L   I
 OLDACT:REG 17-07-25 20:09 OP:ar   STATUS:               ID:20170725132739     3
 2017-07-25-1328-00M.COL___386                                                 6
 STAT SP IPHASW D HRMM SECON CODA AMPLIT PERI AZIMU VELO AIN AR TRES W  DIS CAZ7
 BAR2 EZ IP     C 1337 47.28                             171   -0.4410 19.6 195 
 BAR2 EZ ES       1338  1.89                             171    0.0210 19.6 195 
 BAR2 EZ I        1338  3.41        25.9 0.18            169           19.6 195 
 BRR  HZ EP       1337 49.25                             149   -0.3910 74.0 301 
 BRR  HE ES       1338  5.95                             149    0.6610 74.0 301 
 BRR  HZ I        1338 10.29        15.6 0.70            150           74.0 301 
 RUS  HZ EP       1337 51.70                             143   -0.1810 96.5 176 
 RUS  HN ES       1338  9.79                             143    0.5110 96.5 176 
 RUS  HZ I        1338 11.19         3.9 0.46            144           96.5 176 
 PTB  HZ EP       1337 54.74                             129   -0.89 9  148 260 
 PTB  HN ES       1338 15.23                             129   -0.72 9  148 260 
 PTB  HZ I        1338 17.63         7.6 0.16            130            148 260 
 YPLC HZ EP       1337 57.82                             125   -0.32 9  173 151 
 ZAR  HZ EP       1338  3.03                             119    1.48 8  206 293 
 ZAR  HN ES       1338 26.06                             119   -0.42 8  206 293 
 ZAR  HZ I        1338 28.28         6.1 0.30            121            206 293 
 NOR  HZ EP       1338  5.33                             116    0.85 8  233 235 
 NOR  HN ES       1338 31.95                             116    0.24 8  233 235 
 NOR  HZ I        1338 36.70         5.8 0.52            118            233 235 
                                                                                
