 2016  425 1710 59.6 L   6.811 -73.149141.5  RSN 23 0.5 3.0LRSN                1
 GAP= 71        1.12       2.9     3.1  5.6 -0.1923E+01  0.5297E+01 -0.1592E-02E
 Epicentro: LOS SANTOS - SANTANDER                                             3
 ACTION:UPD 16-05-05 14:24 OP:rebc STATUS:               ID:20160425171059 L   I
 OLDACT:REG 16-04-25 22:27 OP:dnl  STATUS:               ID:20160425170744     3
 2016-04-25-1707-44M.COL___314                                                 6
 STAT SP IPHASW D HRMM SECON CODA AMPLIT PERI AZIMU VELO AIN AR TRES W  DIS CAZ7
 BAR2 EZ IP     C 1711 18.96                             170    0.2210 24.5 189 
 BAR2 EZ ES       1711 33.40                             170   -0.2710 24.5 189 
 BAR2 EZ I        1711 34.74       453.1 0.18            167           24.5 189 
 PAM  EZ IP     D 1711 21.85                             150    0.5410 76.7  40 
 PAM  EN ES       1711 38.68                             150    0.4210 76.7  40 
 PAM  EZ I        1711 41.09       294.7 0.54            154           76.7  40 
 RUS  HZ EP     C 1711 22.91                             143   -0.1110  102 176 
 RUS  HE ES       1711 41.07                             143   -0.2310  102 176 
 RUS  HZ I        1711 42.81       130.3 0.50            142            102 176 
 PTB  HZ IP     C 1711 25.47                             131   -0.74 9  148 258 
 PTB  HN ES       1711 46.35                             131   -0.62 9  148 258 
 PTB  HZ I        1711 50.01       184.7 0.18            130            148 258 
 TAM  HZ EP     D 1711 27.38                             129    0.38 9  156 105 
 TAM  HN ES       1711 48.72                             129    0.34 9  156 105 
 OCA  HZ EP       1711 26.95                             129   -0.51 9  159 353 
 OCA  HN ES       1711 48.73                             129   -0.46 9  159 353 
 OCA  HZ I        1711 52.44       330.8 0.40            130            159 353 
 SPBC HZ IP     C 1711 27.91                             128    0.07 9  164 219 
 SPBC HN ES       1711 49.98                             128    0.11 9  164 219 
 SPBC HZ I        1711 53.96       136.1 0.20            127            164 219 
 ZAR  HZ EP       1711 32.07                             121    0.39 9  203 292 
 ZAR  HE ES       1711 57.67                             121    0.96 9  203 292 
 ZAR  HZ I        1711 59.94       110.0 0.08            121            203 292 
 NOR  HZ EP       1711 34.99                             117   -0.14 8  235 234 
 NOR  HN ES       1712  2.64                             117   -0.20 8  235 234 
 NOR  HZ I        1712  4.85       104.3 0.14            117            235 234 
 CHI  HZ EP   2   1711 37.52                             116    0.34 4  250 195 
 CHI  HN ES       1712  5.97                             116   -0.53 8  250 195 
 CHI  HZ I        1712 12.37        32.5 0.26            116            250 195 
 ROSC BZ EP   4   1711 39.14                             116    1.56 0  254 211 
 ROSC BN ES   4   1712 11.03                             116    3.82 0  254 211 
 ROSC BZ I        1712 15.26        81.3 0.45            115            254 211 
 URE  HZ EP       1711 39.38                             113   -0.99 7  283 292 
 URE  HN ES   4   1712 11.19                             113   -0.99 0  283 292 
 URE  HZ I        1712 13.08        97.7 0.12            113            283 292 
 GUY2CHZ EP       1711 44.07                             111    1.01 7  302 235 
 GUY2CHE ES       1712 17.48                             111    0.52 7  302 235 
 GUY2CHZ I        1712 24.37        73.0 0.24                           302 235 
 VIL  SZ EP   2   1711 43.00                             111    0.05 4  305 191 
 VIL  SE ES       1712 16.07                             111   -0.70 7  305 191 
 ELA  HZ EP   4   1711 48.35                             109    2.02 0  330 229 
 ELA  HN ES       1712 23.45                             109    0.67 7  330 229 
 ELA  HZ I        1712 36.51        31.3 0.34            109            330 229 
 CBOC HZ EP   2   1711 47.16                             109    0.82 3  334 252 
 CBOC HE ES   2   1712 23.53                             109    0.73 3  334 252 
 CBOC HZ I        1712 28.07        23.8 0.40            109            334 252 
 DBB  SZ EP       1711 47.23                             109    0.38 7  339 274 
 DBB  SZ ES   4   1712 22.69                             109   -1.02 0  339 274 
 ANIL HZ EP   4   1711 50.72                             108    1.41 0  358 224 
 ANIL HN ES   2   1712 28.77                             108    0.68 3  358 224 
 ANIL HZ I        1712 41.09        71.8 0.50            108            358 224 
 SDV  BZ EP       1711 48.41                             107   -1.00 6  360  50 
 SDV  BN ES   4   1712 26.32                             107   -1.95 0  360  50 
 ORTC HZ EP   2   1711 53.60                             106    0.14 3  396 216 
 ORTC HN ES   2   1712 35.02                             106   -0.46 3  396 216 
 ORTC HZ I        1712 40.57        20.6 0.60            106            396 216 
 PAL  HZ EP   4   1711 53.56                             105   -1.10 0  406 239 
 PAL  HN ES   4   1712 33.72                             105   -3.88 0  406 239 
 PAL  HZ I        1712 40.00        20.1 0.56            105            406 239 
 SJC  HZ EP   4   1711 53.75                             105   -1.12 0  408 327 
 SJC  HN ES   4   1712 34.51                             105   -3.48 0  408 327 
 SJC  HZ I        1712 38.27        22.9 0.48            105            408 327 
 YOT  HZ EP   4   1712  3.82                             102    1.23 0  472 229 
 YOT  HN ES   4   1712 49.66                             102   -2.06 0  472 229 
 YOT  HZ I        1713  0.18         8.1 0.88            103            472 229 
                                                                                
