 2014 1025 1928 54.4 L   6.812 -73.147150.0  RSN  9 0.4 2.2LRSN                1
 GAP=136        0.95       3.4     4.8  5.5 -0.4589E+01  0.4335E+01  0.9958E+00E
 Epicentro: LOS SANTOS - SANTANDER                                             3
 ACTION:UPD 14-11-29 23:57 OP:nd   STATUS:               ID:20141025192854 L   I
 OLDACT:REG 14-10-28 20:12 OP:spq  STATUS:               ID:20141025191745     3
 2014-10-25-1917-45M.COL___283                                                 6
 STAT SP IPHASW D HRMM SECON CODA AMPLIT PERI AZIMU VELO AIN AR TRES W  DIS CAZ7
 BAR2 SZ EP       1929 14.76                             170    0.1610 24.6 189 
 BAR2 SZ ES       1929 29.77                             170   -0.5610 24.6 189 
 BAR2 SZ I        1929 31.81        18.8 0.08            171           24.6 189 
 BRR  HZ EP       1929 16.17                             153    0.1610 70.5 298 
 BRR  HN ES       1929 33.43                             153    0.6010 70.5 298 
 BRR  HZ I        1929 37.98                             153           70.5 298 
 PAM  SZ EP       1929 17.36                             152    0.3110 76.5  40 
 PAM  SN ES       1929 34.51                             152   -0.1810 76.5  40 
 PAM  SZ I        1929 36.73        39.0 0.54            154           76.5  40 
 RUS  HZ EP       1929 18.69                             144   -0.0110  102 176 
 RUS  HN ES       1929 37.43                             144   -0.1910  102 176 
 RUS  HZ I        1929 39.94        14.6 0.38            148            102 176 
 PTB  HZ EP   1   1929 21.53                             133   -0.24 7  148 258 
 PTB  HN ES       1929 42.65                             133   -0.44 9  148 258 
 PTB  HZ I        1929 45.25        17.8 0.30            134            148 258 
 OCA  HZ EP   1   1929 23.16                             131    0.20 7  159 353 
 OCA  HN ES   1   1929 45.32                             131    0.11 7  159 353 
 OCA  HZ I        1929 49.95        18.9 0.18            132            159 353 
 SPBC HZ EP       1929 23.78                             130    0.43 9  164 219 
 SPBC HN ES       1929 45.95                             130    0.04 9  164 219 
 SPBC HZ I        1929 50.52        26.5 0.18            132            164 219 
 RREF HZ EP   4   1929 38.34                             111   -2.51 0  323 229 
 RREF HN ES   4   1930 16.27                             111   -0.79 0  323 229 
 PRA  HZ EP       1929 48.27                             107    0.04 6  393 209 
 PRA  HN ES       1930 30.60                             107    0.41 6  393 209 
 SJC  HZ EP       1929 48.48                             106   -1.53 6  408 327 
 SJC  HN ES   4   1930 28.72                             106   -4.63 0  408 327 
 SJC  HZ I        1930 34.23         3.7 0.50            108            408 327 
                                                                                
