 2017 1125 1718 10.2 L   6.778 -73.177143.9  RSN  4 0.2 1.2LRSN                1
 GAP=274        0.51       4.9     3.1  4.8  0.1445E+01  0.4824E+01 -0.1875E+01E
 Epicentro: LOS SANTOS - SANTANDER                                             3
 ACTION:UPD 17-12-12 20:00 OP:rebc STATUS:               ID:20171125171810 L   I
 OLDACT:REG 17-11-25 22:43 OP:edw  STATUS:               ID:20171125171743     3
 2017-11-25-1718-00M.COL___492                                                 6
 STAT SP IPHASW D HRMM SECON CODA AMPLIT PERI AZIMU VELO AIN AR TRES W  DIS CAZ7
 BAR2 EZ EP       1718 29.41                             171   -0.1210 20.6 181 
 BAR2 EZ ES       1718 44.72                             171    0.1010 20.6 181 
 BAR2 EZ I        1718 47.83         6.0 0.68            174           20.6 181 
 RUS  HZ EP       1718 33.90                             144    0.3110 98.5 174 
 RUS  HN ES       1718 51.65                             144   -0.2110 98.5 174 
 RUS  HZ I        1718 53.01         1.6 0.22            148           98.5 174 
 PTB  HZ EP       1718 36.43                             132   -0.21 9  144 259 
 PTB  HN ES       1718 57.35                             132    0.08 9  144 259 
 PTB  HZ I        1718 59.78         1.6 0.56            135            144 259 
 NOR  HN ES       1719 12.81                             119    0.04 8  230 234 
                                                                                
