 2015  225 1219  6.3 L   6.812 -73.186145.1  RSN 20 0.4 2.7LRSN                1
 GAP= 69        0.96       2.4     2.5  4.2 -0.6948E+00  0.3361E+01  0.1700E+01E
 Epicentro: ZAPATOCA - SANTANDER                                               3
 ACTION:UPD 15-04-30 21:29 OP:nd   STATUS:               ID:20150225121906 L   I
 OLDACT:REG 15-02-25 20:39 OP:carl STATUS:               ID:20150225121748     3
 2015-02-25-1217-48M.COL___302                                                 6
 STAT SP IPHASW D HRMM SECON CODA AMPLIT PERI AZIMU VELO AIN AR TRES W  DIS CAZ7
 BAR2 EZ EP       1219 25.78                             170   -0.0510 24.3 179 
 BAR2 EZ ES       1219 41.14                             170    0.0410 24.3 179 
 BAR2 EZ I        1219 43.50       128.1 0.26            168           24.3 179 
 BRR  HZ IP     C 1219 27.61                             154    0.5210 66.6 299 
 BRR  HN ES       1219 44.16                             154    0.8210 66.6 299 
 BRR  HZ I        1219 48.55        91.7 0.26            152           66.6 299 
 PAM  SZ EP     C 1219 28.56                             150    0.0310 79.4  43 
 PAM  SN ES       1219 45.83                             150   -0.0710 79.4  43 
 PAM  SZ I        1219 48.81        70.4 0.32            156           79.4  43 
 RUS  HZ EP       1219 29.75                             143   -0.3210  102 174 
 RUS  HN ES       1219 48.48                             143   -0.1610  102 174 
 RUS  HZ I        1219 49.78        52.2 0.26            145            102 174 
 PTB  HZ EP       1219 32.23                             133   -0.57 9  144 258 
 PTB  HN ES       1219 53.19                             133   -0.31 9  144 258 
 TAM  HZ EP       1219 34.12                             130   -0.21 9  160 105 
 TAM  HN ES       1219 56.06                             130   -0.16 9  160 105 
 SPBC HZ EP       1219 34.74                             129    0.20 9  161 217 
 SPBC HN ES       1219 56.58                             129   -0.02 9  161 217 
 SPBC HZ I        1220  2.89        84.0 0.20            130            161 217 
 ZAR  HZ EP       1219 38.02                             123   -0.17 9  199 292 
 ZAR  HN ES       1220  3.74                             123    0.65 9  199 292 
 ZAR  HZ I        1220  8.71        52.6 0.28            124            199 292 
 NOR  HZ EP       1219 41.91                             119    0.27 8  232 234 
 NOR  HN ES       1220  9.07                             119   -0.17 8  232 234 
 NOR  HZ I        1220 16.46        36.6 0.20            120            232 234 
 SML  HZ EP       1219 42.16                             118   -0.36 8  241 336 
 SML  HN ES       1220 10.22                             118   -0.59 8  241 336 
 SML  HZ I        1220 16.86        50.0 0.24            120            241 336 
 CHI  HZ EP       1219 44.03                             117    0.10 8  249 194 
 CHI  HN ES       1220 13.46                             117    0.14 8  249 194 
 CHI  HZ I        1220 19.52        26.0 0.34            119            249 194 
 ROSC BZ EP   4   1219 45.70                             117    1.48 0  252 210 
 ROSC BN ES       1220 13.91                             117    0.09 8  252 210 
 ROSC BZ I        1220 20.18        70.1 0.45            118            252 210 
 GUY2CHZ EP       1219 50.45                             112    0.94 7  298 234 
 GUY2CHN ES       1220 23.13                             112   -0.12 7  298 234 
 GUY2CHZ I        1220 32.03        28.6 0.64                           298 234 
 RREF HZ EP       1219 52.42                             111    0.34 7  319 229 
 RREF HN ES       1220 27.66                             111   -0.16 7  319 229 
 CBOC HZ EP       1219 53.15                             110    0.45 7  330 252 
 CBOC HN ES       1220 28.79                             110   -0.14 7  330 252 
 CBOC HZ I        1220 46.60         7.4 0.46            111            330 252 
 DBB  SZ EP       1219 53.27                             110    0.09 7  335 274 
 DBB  SZ ES       1220 28.57                             110   -1.21 7  335 274 
 DBB  SZ I        1220 33.25        69.6 0.44            111            335 274 
 TOL  SZ EP       1219 55.05                             109    0.82 7  341 224 
 TOL  SN ES       1220 30.32                             109   -1.33 7  341 224 
 TOL  SZ I        1220 42.10        23.0 0.32            111            341 224 
 ANIL HZ EP       1219 55.82                             109    0.04 6  355 224 
 ANIL HN ES       1220 34.38                             109   -0.03 6  355 224 
 ANIL HZ I        1220 45.62         6.6 0.30            110            355 224 
 PRA  HZ EP       1219 59.57                             106   -0.06 6  391 209 
 PRA  HN ES       1220 41.53                             106    0.27 6  391 209 
 PRA  HZ I        1220 48.21        29.8 0.26            108            391 209 
 ORTC HZ EP       1220  0.06                             106    0.09 6  394 216 
 ORTC HN ES       1220 42.17                             106    0.31 6  394 216 
 PAL  HZ EP   4   1220  1.23                             106    0.20 0  402 239 
 PAL  HN ES   4   1220 42.97                             106   -0.77 0  402 239 
                                                                                
