 2012  625 1257 14.0 L   6.515 -73.142144.4  RSN  4 0.5 1.6LRSN                1
 GAP=299        0.83      18.6    11.5 10.3  0.3428E+02  0.3253E+02 -0.2119E+02E
 Epicentro: PINCHOTE - SANTANDER                                               3
 ACTION:UPD 12-08-06 17:52 OP:ep   STATUS:               ID:20120625125714 L   I
 2012-06-25-1250-00M.COL___199                                                 6
 STAT SP IPHASW D HRMM SECON CODA AMPLIT PERI AZIMU VELO AIN AR TRES W  DIS CAZ7
 BAR2 SZ EP   1   1257 33.94                             176    0.64 7 9.60 332 
 BAR2 SZ ES   1   1257 48.04                             176   -0.28 7 9.60 332 
 BAR2 SZ I        1257 50.10         7.4 0.40                          9.60 332 
 BRR  HZ IP     C 1257 35.82                             146   -0.4410 90.8 316 
 BRR  HZ I        1257 35.98        11.6 0.18                          90.8 316 
 BRR  HE ES   2   1257 54.33                             146    0.73 5 90.8 316 
 PTB  HZ EP   2   1257 40.62                             132   -0.05 5  145 271 
 PTB  HN ES   2   1258  1.33                             132   -0.12 5  145 271 
 PTB  HZ I        1258  5.48         2.7 0.16                           145 271 
 ZAR  HZ EP   2   1257 48.40                             120    0.53 4  218 300 
                                                                                
