 2014  525 1804  4.1 L   6.767 -73.150146.8  RSN  6 0.4 1.6LRSN                1
 GAP=200        1.05       4.6     6.1  8.7  0.7303E+01 -0.1222E+01 -0.1151E+02E
 Epicentro: LOS SANTOS - SANTANDER                                             3
 ACTION:UPD 15-03-16 17:00 OP:nd   STATUS:               ID:20140525180404 L   I
 OLDACT:UP  14-05-26 05:42 OP:carl STATUS:               ID:20140525175818     3
 OLDACT:REG 14-05-25 20:51 OP:spq  STATUS:               ID:20140525175818     3
 2014-05-25-1758-18M.COL___230                                                 6
 STAT SP IPHASW D HRMM SECON CODA AMPLIT PERI AZIMU VELO AIN AR TRES W  DIS CAZ7
 BRR  HZ EP       18 4 26.13                             152    0.7410 72.6 301 
 BRR  HN ES       18 4 42.48                             152    0.4510 72.6 301 
 BRR  HZ I        18 4 51.15         6.9 0.44            153           72.6 301 
 RUS  HZ EP       18 4 27.71                             145    0.0610 97.0 176 
 RUS  HN ES       18 4 45.64                             145   -0.4210 97.0 176 
 RUS  HZ I        18 4 47.36         6.4 0.32            153           97.0 176 
 PTB  HZ EP       18 4 31.07                             132    0.06 9  147 260 
 PTB  HN ES       18 4 51.41                             132   -0.62 9  147 260 
 PTB  HZ I        18 4 52.21         3.6 0.14            137            147 260 
 ZAR  HZ EP       18 4 36.55                             122   -0.12 9  205 293 
 ZAR  HN ES       18 5  2.30                             122    0.20 9  205 293 
 NOR  HN ES       18 5  7.44                             119    0.15 8  232 235 
 NOR  HZ I        18 5 12.50         3.1 0.48            124            232 235 
 SML  HZ EP       18 4 41.06                             117   -0.01 8  247 336 
 SML  HN ES       18 5  9.17                             117   -0.78 8  247 336 
 SML  HZ I        18 5 19.03         6.4 0.10            120            247 336 
                                                                                
