 2017  625 1718 47.7 L   6.059 -73.717109.9  RSN 11 0.5 1.7LRSN                1
 GAP= 71        1.15       2.7     2.9  6.9  0.4735E+00  0.1416E+01  0.3479E+01E
 Epicentro: VELEZ - SANTANDER                                                  3
 ACTION:UPD 17-09-14 16:55 OP:jn   STATUS:               ID:20170625171847 L   I
 OLDACT:REG 17-06-25 20:29 OP:lv   STATUS:               ID:20170625170644     3
 2017-06-25-1718-00M.COL___355                                                 6
 STAT SP IPHASW D HRMM SECON CODA AMPLIT PERI AZIMU VELO AIN AR TRES W  DIS CAZ7
 SPBC HZ EP       1719  4.65                             149    0.1510 59.8 221 
 SPBC HN ES       1719 18.03                             149    0.4410 59.8 221 
 BAR2 EZ EP       1719  6.56                             140    0.1810 83.5  45 
 BAR2 EZ ES       1719 20.78                             140   -0.1610 83.5  45 
 BAR2 EZ I        1719 22.88        17.2 0.28            142           83.5  45 
 PTB  HZ EP       1719  6.35                             135   -0.8910 97.6 303 
 PTB  HN ES       1719 21.72                             135   -0.7410 97.6 303 
 PTB  HZ I        1719 24.60         8.7 0.07            138           97.6 303 
 BRR  HZ EP       1719  8.88                             130    0.0210  116   0 
 BRR  HN ES       1719 26.18                             130    0.8310  116   0 
 BRR  HZ I        1719 29.04         6.0 0.10            132            116   0 
 NOR  HZ EP       1719 10.97                             124   -0.21 9  139 247 
 NOR  HN ES       1719 29.73                             124    0.24 9  139 247 
 NOR  HZ I        1719 31.28        10.5 0.04            127            139 247 
 CHI  HZ EP       1719 13.08                             121   -0.55 9  158 181 
 CHI  HE ES       1719 33.23                             121   -0.61 9  158 181 
 CHI  HZ I        1719 36.49         8.7 0.24            123            158 181 
 YPLC HZ EP       1719 13.98                             119    0.04 9  165 116 
 YPLC HN ES       1719 34.26                             119   -0.13 9  165 116 
 YPLC HZ I        1719 38.84         6.4 0.41            121            165 116 
 HEL  HZ EP       1719 19.02                             114    0.77 9  201 274 
 HEL  HN ES       1719 41.79                             114   -0.27 9  201 274 
 HEL  HZ I        1719 46.54         3.0 0.28            116            201 274 
 ZAR  HZ EP       1719 17.61                             113   -0.34 9  203 322 
 ZAR  HE ES       1719 41.65                             113    0.12 9  203 322 
 ZAR  HZ I        1719 43.08        10.6 0.07            116            203 322 
 GUY2CHZ EP       1719 19.12                             113    0.35 9  205 243 
 GUY2CHN ES       1719 43.33                             113    0.33 9  205 243 
 GUY2CHZ I        1719 48.57                                            205 243 
 VIL  EZ EP       1719 19.89                             112    0.35 8  215 179 
 VIL  EN ES       1719 44.78                             112    0.41 8  215 179 
 VIL  EZ I        1719 49.03         9.5 0.27            114            215 179 
                                                                                
