 2010  125 1151 27.3 L   6.752 -73.116140.0  RSN  6 0.4 2.3LRSN                1
 GAP=191        0.79       6.8    17.2 12.0 -0.4882E+01  0.1162E+03  0.4670E+01E
 Epicentro: LOS SANTOS - SANTANDER                                             3
 ACTION:UP  10-08-24 09:45 OP:vdl  STATUS:               ID:20100125115127 L   I
 2010-01-25-1149-46S.COL___094                                                 6
 STAT SP IPHASW D HRMM SECON CODA AMPLIT PERI AZIMU VELO SNR AR TRES W  DIS CAZ7
 BAR2 SZ IP       1151 45.84                             172    -0.310   19 203 
 BAR2 SZ ES   2   1152  0.67                             172    -0.2 5   19 203 
 GIR2 SZ IP       1151 46.90                             164     0.510   37 347 
 RUS  BZ EP   1   1151 49.86                             144    -0.2 7   95 178 
 RUS  BE ES   2   1152  7.56                             144    -0.3 5   95 178 
 RUS  BZ I        1152  9.13        28.4 0.26                            95 178 
 CHI  HZ EP   1   1152  4.18                             116     0.0 6  244 196 
 CHI  HE ES   2   1152 33.78                             116     0.8 4  244 196 
 CHI  HZ I        1152 40.18        10.6 0.28                           244 196 
 HEL  HZ EP   2   1152  7.66                             113     0.2 4  274 257 
 HEL  HZ I        1152 44.95        18.5 0.23                           274 257 
 DBB  SZ EP   2   1152 13.96                             108    -1.0 3  343 275 
                                                                                
