 2014  525 1308 27.3 L   6.706 -73.235142.5  RSN  8 0.4 1.6LRSN                1
 GAP=219        0.82       3.9     5.4  7.8  0.5482E+01  0.9492E+01  0.1187E+02E
 Epicentro: VILLANUEVA - SANTANDER                                             3
 ACTION:UPD 15-03-16 17:00 OP:nd   STATUS:               ID:20140525130827 L   I
 OLDACT:REG 14-05-25 20:23 OP:spq  STATUS:               ID:20140525130817     3
 2014-05-25-1308-17M.COL___230                                                 6
 STAT SP IPHASW D HRMM SECON CODA AMPLIT PERI AZIMU VELO AIN AR TRES W  DIS CAZ7
 BRR  HZ EP       13 8 48.15                             152    0.2310 68.9 310 
 BRR  HN ES       13 9  3.49                             152   -0.5610 68.9 310 
 BRR  HZ I        13 9  6.06         7.9 0.28            149           68.9 310 
 RUS  HE ES   1   13 9  8.24                             146    0.42 7 91.5 169 
 PTB  HZ EP       13 8 52.86                             133   -0.07 9  136 262 
 PTB  HN ES       13 9 13.01                             133    0.06 9  136 262 
 PTB  HZ I        13 9 20.09         5.1 0.44            129            136 262 
 ZAR  HN ES       13 9 23.92                             122    0.17 9  199 296 
 ZAR  HZ I        13 9 30.47         3.4 0.34            121            199 296 
 NOR  HZ EP   1   13 9  1.11                             119   -0.18 6  221 235 
 NOR  HN ES       13 9 28.52                             119    0.69 8  221 235 
 NOR  HZ I        13 9 35.95         2.8 0.24            117            221 235 
 CHI  HZ EP   1   13 9  3.53                             117    0.12 6  236 194 
 CHI  HN ES       13 9 31.14                             117   -0.47 8  236 194 
 CHI  HZ I        13 9 41.28         1.2 0.27            117            236 194 
 GUY2CHE ES   1   13 9 41.81                             113    0.03 5  287 235 
 GUY2CHZ I        13 9 53.01         3.4 0.76                           287 235 
 RREF HE ES   1   13 9 45.62                             111   -0.62 5  307 230 
 RREF HZ I        13 9 58.80         1.9 0.44            110            307 230 
                                                                                
