 2011 1225 1520 25.9 L   6.790 -73.156147.9  RSN 14 0.4 2.6LRSN                1
 GAP=136        0.83       3.2     4.1  5.2 -0.3106E+01  0.5807E+01  0.3254E+01E
 Epicentro: LOS SANTOS - SANTANDER                                             3
 ACTION:UPD 12-07-13 16:18 OP:ep   STATUS:               ID:20111225152025 L   I
 2011-12-25-1520-00M.COL___187                                                 6
 STAT SP IPHASW D HRMM SECON CODA AMPLIT PERI AZIMU VELO AIN AR TRES W  DIS CAZ7
 BAR2 SZ EP       1520 45.73                             171   -0.0810 22.0 188 
 BAR2 SZ ES   1   1521  1.36                             171    0.06 7 22.0 188 
 BAR2 SZ I        1521  2.35        68.5 0.24                          22.0 188 
 GIR2 SZ EP   1   1520 45.87                             167   -0.03 7 32.2 353 
 GIR2 SZ ES   1   1521  1.61                             167    0.15 7 32.2 353 
 BRR  HZ EP       1520 47.67                             153    0.3710 70.7 300 
 BRR  HE ES   1   1521  5.07                             153    1.11 7 70.7 300 
 BRR  HZ I        1521  8.80        79.4 0.14                          70.7 300 
 PAM  SZ EP   1   1520 48.52                             151    0.04 7 79.0  40 
 PAM  SZ I        1520 48.89        48.0 0.20                          79.0  40 
 PAM  SE ES   1   1521  5.83                             151   -0.24 7 79.0  40 
 RUS  HZ EP   1   1520 49.56                             145   -0.27 7 99.5 175 
 RUS  HN ES   1   1521  7.94                             145   -0.52 7 99.5 175 
 RUS  HZ I        1521  9.39        42.3 0.34                          99.5 175 
 BRI  SZ EP   1   1520 50.35                             141    0.20 7  110  21 
 BRI  SZ ES   1   1521  9.33                             141    0.30 7  110  21 
 PTB  HZ EP   1   1520 52.66                             133   -0.30 7  146 259 
 PTB  HN ES   1   1521 13.83                             133   -0.21 7  146 259 
 OCA  SZ EP   1   1520 54.61                             130    0.10 7  161 354 
 OCA  SZ ES   1   1521 15.75                             130   -1.05 7  161 354 
 OCA  SZ I        1521 22.79        68.7 0.36                           161 354 
 ZAR  HZ EP   1   1520 58.21                             123   -0.25 6  203 293 
 ZAR  HN ES   1   1521 23.20                             123   -0.63 6  203 293 
 ZAR  HZ I        1521 29.19        65.0 0.37                           203 293 
 NOR  SZ EP   1   1521  1.92                             119    0.30 6  233 235 
 NOR  SE ES   1   1521 28.86                             119   -0.59 6  233 235 
 CHI  HZ EP   1   1521  3.56                             118   -0.05 6  247 195 
 CHI  HE ES   2   1521 33.12                             118    0.14 4  247 195 
 CHI  HZ I        1521 38.88        25.1 0.33                           247 195 
 HEL  HZ EP   1   1521  6.72                             115    0.61 6  271 256 
 HEL  HZ I        1521 44.08        21.7 0.31                           271 256 
 RREF HZ EP   1   1521 12.52                             111    0.53 5  320 229 
 RREF HZ I        1521 55.24        29.0 0.27                           320 229 
 PRA  HZ EP   1   1521 19.24                             107   -0.11 4  390 210 
 PRA  HN ES   1   1522  1.55                             107    0.54 4  390 210 
                                                                                
