 2011  425 1611  6.2 L   6.738 -73.125144.0  RSN  6 0.5 2.3LRSN                1
 GAP=235        0.95       6.5     7.5 11.1  0.7016E+01  0.2743E+02  0.1456E+02E
 Epicentro: JORDAN - SANTANDER                                                 3
 ACTION:UP  11-06-22 15:33 OP:REBC STATUS:               ID:20110425161106 L   I
 2011-04-25-1600-00S.MAN___127                                                 6
 STAT SP IPHASW D HRMM SECON CODA AMPLIT PERI AZIMU VELO SNR AR TRES W  DIS CAZ7
 BAR2 SZ IP       1611 25.27                             173    -0.210   17 202 
 BAR2 SZ I        1611 42.98        45.2 0.32                            17 202 
 BRR  HZ EP   1   1611 27.27                             151    -0.2 7   77 302 
 BRR  HE ES   1   1611 44.40                             151     0.4 7   77 302 
 BRR  HZ I        1611 46.74        70.1 0.19                            77 302 
 RUS  HZ EP   1   1611 29.01                             146    -0.2 7   94 177 
 RUS  HZ I        1611 30.32        12.8 0.16                            94 177 
 RUS  HN ES   1   1611 47.45                             146     0.2 7   94 177 
 NOR  SZ EP   1   1611 41.15                             119    -0.4 6  233 236 
 NOR  SN ES   1   1612  9.06                             119    -0.1 6  233 236 
 CHI  HE ES   1   1612 12.23                             118     0.3 6  243 196 
 HEL  HZ EP   1   1611 47.56                             115     1.2 6  273 257 
 HEL  HN ES   1   1612 17.07                             115    -0.6 6  273 257 
 HEL  HZ I        1612 23.94        11.4 0.28                           273 257 
                                                                                
