 2011 1225 1854 58.2 L   6.787 -73.167150.0  RSN  5 0.4 1.2LRSN                1
 GAP=180        0.74       7.4     9.9  9.5  0.3587E+02  0.1356E+02  0.2028E+02E
 Epicentro: LOS SANTOS - SANTANDER                                             3
 ACTION:UPD 12-07-13 16:18 OP:ep   STATUS:               ID:20111225185458 L   I
 2011-12-25-1850-00M.COL___187                                                 6
 STAT SP IPHASW D HRMM SECON CODA AMPLIT PERI AZIMU VELO AIN AR TRES W  DIS CAZ7
 BAR2 SZ ES   2   1855 33.42                             171   -0.54 5 21.6 185 
 BAR2 SZ I        1855 34.43         4.8 0.16                          21.6 185 
 GIR2 SZ ES   1   1855 33.81                             167   -0.33 7 32.4 355 
 BRR  HZ EP   1   1855 19.73                             154    0.02 7 69.9 300 
 BRR  HN ES   1   1855 37.11                             154    0.60 7 69.9 300 
 RUS  HZ EP   1   1855 22.18                             145   -0.07 7 99.3 175 
 RUS  HZ I        1855 41.13         2.0 0.30                          99.3 175 
 RUS  HN ES   1   1855 41.34                             145    0.30 7 99.3 175 
 PTB  HN ES   2   1855 45.65                             133   -0.74 5  145 259 
                                                                                
