 2016  825 1039 16.1 L   6.760 -73.176139.4  RSN  7 0.3 1.5LRSN                1
 GAP=134        0.78       3.3     3.4  5.2 -0.1274E+01  0.5909E+01 -0.1306E+01E
 Epicentro: LOS SANTOS - SANTANDER                                             3
 ACTION:UPD 16-10-29 15:39 OP:rebc STATUS:               ID:20160825103916 L   I
 OLDACT:REG 16-08-25 21:25 OP:cara STATUS:               ID:20160825103759     3
 2016-08-25-1037-59S.COL___349                                                 6
 STAT SP IPHASW D HRMM SECON CODA AMPLIT PERI AZIMU VELO AIN AR TRES W  DIS CAZ7
 BAR2 EZ IP       1039 34.69                             172   -0.1410 18.6 182 
 BAR2 HE ES       1039 49.96                             172    0.4910 18.6 182 
 BAR2 EZ I        1039 50.66         6.7 0.34                          18.6 182 
 BRR  HZ IP       1039 36.60                             152    0.1210 70.5 303 
 BRR  HN ES       1039 52.38                             152   -0.0310 70.5 303 
 BRR  HZ I        1039 54.31         5.9 0.44                          70.5 303 
 PAM  EZ EP       1039 37.80                             148   -0.1410 82.9  39 
 PAM  EE ES       1039 55.03                             148    0.0210 82.9  39 
 PAM  EZ I        1039 56.92         4.7 0.60                          82.9  39 
 RUS  HN ES       1039 56.19                             144   -0.5010 96.5 174 
 RUS  HZ I        1039 59.29         6.1 0.86                          96.5 174 
 PTB  HZ EP       1039 41.86                             131   -0.27 9  144 260 
 PTB  HE ES       1040  2.06                             131   -0.41 9  144 260 
 PTB  HZ I        1040  7.15         2.6 0.16                           144 260 
 SPBC HZ EP       1039 43.97                             129    0.43 9  158 219 
 SPBC HN ES       1040  5.32                             129    0.34 9  158 219 
 SPBC HZ I        1040 16.04         4.3 0.10                           158 219 
 ZAR  HZ EP       1039 48.16                             121    0.21 9  203 294 
 ZAR  HN ES       1040 12.78                             121   -0.04 9  203 294 
 ZAR  HZ I        1040 18.56         3.2 0.50                           203 294 
                                                                                
