 2012  825 1501 48.0 L   6.820 -73.160149.3  RSN  5 0.3 1.7LRSN                1
 GAP=134        0.66       4.9     4.0  6.3 -0.4354E+01  0.2438E+01 -0.3402E+01E
 Epicentro: LOS SANTOS - SANTANDER                                             3
 ACTION:UPD 12-09-10 11:58 OP:ep   STATUS:               ID:20120825150148 L   I
 2012-08-25-1500-00M.COL___218                                                 6
 STAT SP IPHASW D HRMM SECON CODA AMPLIT PERI AZIMU VELO AIN AR TRES W  DIS CAZ7
 BAR2 SZ EP   1   15 2  8.03                             170   -0.04 7 25.3 185 
 BAR2 SZ I        15 2  8.49        11.6 0.15                          25.3 185 
 BAR2 SZ ES   1   15 2 24.03                             170    0.29 7 25.3 185 
 BRR  HZ EP       15 2  9.61                             154    0.2410 68.7 298 
 BRR  HZ I        15 2  9.85        19.5 0.13                          68.7 298 
 BRR  HE ES   1   15 2 26.46                             154    0.40 7 68.7 298 
 PAM  SZ EP       15 2 10.68                             151    0.1510 76.7  42 
 PAM  SZ I        15 2 11.03        19.1 0.17                          76.7  42 
 PAM  SN ES   1   15 2 27.51                             151   -0.61 7 76.7  42 
 RUS  HZ EP   2   15 2 12.26                             144    0.02 5  103 175 
 RUS  HN ES   1   15 2 31.12                             144   -0.05 7  103 175 
 RUS  HZ I        15 2 33.74         1.5 0.28                           103 175 
 PTB  HZ EP   1   15 2 14.97                             133   -0.16 7  147 258 
 PTB  HN ES       15 2 35.95                             133   -0.36 9  147 258 
 PTB  HZ I        15 2 41.25         4.0 0.14                           147 258 
                                                                                
