 2016  425 1905  4.7 L   6.801 -73.179138.0  RSN 11 0.4 2.3LRSN                1
 GAP=132        0.69       2.8     3.0  4.9 -0.1309E+01  0.5512E+01 -0.3783E+00E
 Epicentro: LOS SANTOS - SANTANDER                                             3
 ACTION:UPD 16-05-05 14:24 OP:rebc STATUS:               ID:20160425190504 L   I
 OLDACT:REG 16-04-25 22:35 OP:dnl  STATUS:               ID:20160425185744     3
 2016-04-25-1857-44M.COL___313                                                 6
 STAT SP IPHASW D HRMM SECON CODA AMPLIT PERI AZIMU VELO AIN AR TRES W  DIS CAZ7
 BAR2 EZ EP       19 5 23.27                             170   -0.1210 23.1 181 
 BAR2 EZ ES       19 5 37.93                             170   -0.0410 23.1 181 
 BAR2 EZ I        19 5 40.02        71.2 0.30            168           23.1 181 
 PAM  EZ IP     C 19 5 26.11                             149   -0.1210 79.7  42 
 PAM  EN ES       19 5 43.23                             149    0.2010 79.7  42 
 PAM  EZ I        19 5 45.77        33.6 0.62            153           79.7  42 
 RUS  HZ EP       19 5 27.28                             142   -0.4410  101 174 
 RUS  HN ES       19 5 46.00                             142    0.3110  101 174 
 RUS  HZ I        19 5 46.79        19.3 0.24            144            101 174 
 PTB  HZ EP   2   19 5 29.74                             131   -0.97 5  144 258 
 PTB  HN ES       19 5 50.70                             131   -0.30 9  144 258 
 PTB  HZ I        19 5 56.75        28.2 0.19            129            144 258 
 SPBC HZ EP       19 5 32.32                             128   -0.08 9  161 218 
 SPBC HE ES       19 5 54.35                             128    0.34 9  161 218 
 SPBC HZ I        19 5 57.26        29.1 0.28            127            161 218 
 ZAR  HZ EP       19 5 36.81                             121    0.52 9  201 292 
 ZAR  HE ES       19 6  0.92                             121   -0.01 9  201 292 
 ZAR  HZ I        19 6  7.91        24.1 0.40            120            201 292 
 NOR  HZ EP   2   19 5 39.51                             117   -0.16 4  232 234 
 NOR  HN ES   2   19 6  6.74                             117   -0.21 4  232 234 
 NOR  HZ I        19 6 13.67        10.1 0.20            117            232 234 
 CHI  HZ EP   4   19 5 39.23                             116   -2.66 0  248 194 
 CHI  HN ES   2   19 6 10.45                             116   -0.44 4  248 194 
 CHI  HZ I        19 6 14.99         9.2 0.44            117            248 194 
 ROSC BZ EP   2   19 5 42.69                             115    0.48 4  251 210 
 ROSC BE ES   4   19 6 13.23                             115    1.76 0  251 210 
 ROSC BZ I        19 6 18.02        24.1 0.40            116            251 210 
 URE  HZ EP   4   19 5 46.59                             112    1.58 0  280 292 
 URE  HE ES   4   19 6 14.64                             112   -1.81 0  280 292 
 URE  HZ I        19 6 27.32        13.8 0.36            112            280 292 
 GUY2CHZ EP   2   19 5 48.25                             111    0.63 4  298 234 
 GUY2CHN ES   2   19 6 21.54                             111    0.43 4  298 234 
 GUY2CHZ I        19 6 29.00         6.3 0.40                           298 234 
                                                                                
