 2011  525 1041 37.6 L   6.764 -73.155150.7  RSN 11 0.4 2.4LRSN                1
 GAP=151        0.70       5.3     6.5  4.8 -0.1901E+02 -0.3127E+01  0.3792E+01E
 Epicentro: LOS SANTOS - SANTANDER                                             3
 ACTION:UP  11-06-29 08:56 OP:tino STATUS:               ID:20110525104137 L   I
 2011-05-25-1039-16S.COL___141                                                 6
 STAT SP IPHASW D HRMM SECON CODA AMPLIT PERI AZIMU VELO SNR AR TRES W  DIS CAZ7
 BAR2 SZ EP       1041 57.74                             172     0.010   19 189 
 BAR2 SZ ES   2   1042 12.53                             172    -0.9 5   19 189 
 BAR2 SZ I        1042 13.87        62.6 0.21                            19 189 
 BTL  SZ EP       1041 58.01                             172     0.310   21 324 
 BTL  SZ ES       1042 13.93                             172     0.410   21 324 
 GIR2 SZ EP       1041 57.79                             166    -0.110   35 353 
 GIR2 SZ ES   2   1042 13.62                             166    -0.2 5   35 353 
 BRR  HZ IP     C 1041 59.53                             153     0.210   72 302 
 BRR  HZ I        1041 59.80        89.6 0.12                            72 302 
 BRR  HN ES   1   1042 16.35                             153     0.1 7   72 302 
 PAM  SZ EP       1042  0.72                             151     0.210   81  38 
 PAM  SN ES   2   1042 17.86                             151    -0.6 5   81  38 
 BRI  SZ EP   1   1042  2.19                             141    -0.1 7  113  21 
 GRA  SZ EP       1042  3.53                             137    -0.110  130  17 
 GRA  SZ I        1042  5.03        15.0 0.32                           130  17 
 OCA  SZ EP   1   1042  6.35                             130    -0.3 7  164 354 
 OCA  SZ ES   2   1042 28.56                             130    -0.7 5  164 354 
 OCA  SZ I        1042 36.68        25.3 0.26                           164 354 
 NOR  SZ EP   1   1042 13.19                             120    -0.1 6  232 235 
 NOR  SE ES   2   1042 40.44                             120    -0.6 4  232 235 
 RREF HZ EP   2   1042 23.68                             112     0.1 3  318 230 
 RREF HZ I        1043  9.91        10.0 0.36                           318 230 
 PRA  HZ EP   2   1042 30.90                             108     0.1 3  388 210 
 PRA  HN ES   2   1043 11.44                             108    -0.9 3  388 210 
                                                                                
