 2010 1225 1345 42.7 L   6.813 -72.999139.1  RSN  8 0.3 1.9LRSN                1
 GAP=175        0.69       3.4    11.0  6.5 -0.1220E+02  0.2194E+02  0.2386E+00E
 Epicentro: CEPITA - SANTANDER                                                 3
 ACTION:UP  11-01-14 15:27 OP:pat  STATUS:               ID:20101225134542 L   I
 2010-12-25-1343-04S.COL___135                                                 6
 STAT SP IPHASW D HRMM SECON CODA AMPLIT PERI AZIMU VELO SNR AR TRES W  DIS CAZ7
 BAR2 SZ IP       1346  1.95                             166     0.210   32 220 
 BAR2 SZ ES   1   1346 16.48                             166    -0.1 7   32 220 
 BAR2 SZ I        1346 18.25        17.8 0.15                            32 220 
 BTL  SZ EP       1346  2.07                             166     0.310   32 291 
 RUS  HZ EP   1   1346  6.05                             142     0.1 7  102 185 
 RUS  HN ES   2   1346 23.61                             142    -0.5 5  102 185 
 RUS  HZ I        1346 26.14        12.0 0.25                           102 185 
 GRA  SZ EP   1   1346  6.75                             137    -0.2 7  120  10 
 GRA  SZ ES   1   1346 26.05                             137     0.2 7  120  10 
 GRA  SZ I        1346 29.06        20.1 0.19                           120  10 
 OCA  SZ EP   1   1346 10.62                             128     0.0 7  162 347 
 OCA  SZ ES   1   1346 31.87                             128    -0.6 7  162 347 
 OCA  SZ I        1346 35.65        12.7 0.33                           162 347 
 CHI  HZ EP   1   1346 20.45                             115    -0.3 6  255 199 
 CHI  HZ I        1346 55.79         4.7 0.57                           255 199 
 HEL  HZ EP   1   1346 24.88                             112     0.5 5  288 256 
 PRA  HZ EP   1   1346 36.64                             105    -0.5 4  401 211 
                                                                                
