 2012  325 1639 19.9 L   6.523 -73.546108.9  RSN  8 0.5 2.0LRSN                1
 GAP= 91        1.25       5.9     5.0  9.8 -0.1326E+01  0.2046E+02  0.2476E+01E
 ACTION:UP  12-03-31 23:22 OP:EP   STATUS:               ID:20120325163919 L   I
 2012-03-25-1635-41M.COL___175                                                 6
 STAT SP IPHASW D HRMM SECON CODA AMPLIT PERI AZIMU VELO SNR AR TRES W  DIS CAZ7
 BAR2 SZ EP       1639 36.05                             158     0.310   41  79 
 BAR2 SZ ES       1639 48.52                             158     0.410   41  79 
 BAR2 SZ I        1639 49.57       118.9 0.45                            41  79 
 BRR  HZ EP       1639 36.91                             146     0.010   67 344 
 BRR  HN ES   1   1639 50.49                             146     0.3 7   67 344 
 BRR  HZ I        1639 54.98        16.9 0.12                            67 344 
 RUS  HZ EP   1   1639 39.22                             139     0.2 7   86 144 
 RUS  HN ES   1   1639 54.15                             139     0.2 7   86 144 
 RUS  HZ I        1639 56.18        13.9 0.32                            86 144 
 PTB  HZ EP   1   1639 38.91                             134    -0.7 7  101 271 
 PTB  HN ES   1   1639 53.92                             134    -1.0 7  101 271 
 PTB  HZ I        1639 57.39        14.5 0.17                           101 271 
 PAM  SZ EP   1   1639 42.58                             126    -0.4 7  130  46 
 PAM  SN ES   1   1640  0.10                             126    -0.9 7  130  46 
 ZAR  HZ EP   1   1639 47.72                             116     0.1 7  180 307 
 ZAR  HN ES   1   1640 10.09                             116     0.9 7  180 307 
 ZAR  HZ I        1640 12.65        30.6 0.34                           180 307 
 NOR  SZ EP   1   1639 47.77                             116     0.1 7  181 234 
 NOR  SN ES   1   1640  9.08                             116    -0.3 7  181 234 
 HEL  HZ EP   1   1639 53.52                             111     0.8 6  222 261 
 HEL  HZ I        1639 55.66         3.2 0.13                           222 261 
                                                                                
