 2017 1225 1536 32.7 L   6.842 -73.174137.8  RSN 12 0.4 2.1LRSN                1
 GAP=138        0.91       2.7     3.6  5.2 -0.3191E+01  0.5267E+01 -0.5769E+00E
 Epicentro: ZAPATOCA - SANTANDER                                               3
 ACTION:UPD 18-01-04 13:24 OP:rebc STATUS:               ID:20171225153632 L   I
 OLDACT:UP  17-12-25 21:42 OP:dhb  STATUS:               ID:20171225152749d    3
 OLDACT:DUP 17-12-25 21:34 OP:dhb  STATUS:               ID:20171225152749d    3
 OLDACT:REG 17-12-25 19:48 OP:dhb  STATUS:               ID:20171225152748     3
 2017-12-25-1528-00M.COL___451                                                 6
 STAT SP IPHASW D HRMM SECON CODA AMPLIT PERI AZIMU VELO AIN AR TRES W  DIS CAZ7
 BAR2 EZ IP     D 1536 51.26                             168   -0.2010 27.6 182 
 BAR2 EZ ES       1537  6.36                             168    0.2610 27.6 182 
 BAR2 EZ I        1537  9.46        11.6 0.46            169           27.6 182 
 PAM  EZ IP     C 1536 54.08                             150    0.1010 76.0  44 
 PAM  EE ES       1537 10.59                             150    0.0110 76.0  44 
 PAM  EZ I        1537 12.93        24.7 0.50            152           76.0  44 
 PTB  HZ IP     C 1536 57.95                             131   -0.87 9  146 257 
 PTB  HN ES       1537 19.52                             131    0.32 9  146 257 
 PTB  HZ I        1537 21.37         8.1 0.22            130            146 257 
 OCA  HZ EP       1536 59.89                             129   -0.03 9  155 354 
 OCA  HE ES       1537 20.88                             129   -0.27 9  155 354 
 OCA  HZ I        1537 25.15        34.8 0.16            129            155 354 
 SPBC HZ EP       1537  0.41                             127   -0.34 9  165 217 
 SPBC HN ES       1537 22.23                             127   -0.41 9  165 217 
 SPBC HZ I        1537 26.69        13.3 0.16            127            165 217 
 ZAR  HZ EP       1537  4.68                             121    0.54 9  199 291 
 ZAR  HN ES       1537 29.41                             121    0.74 9  199 291 
 ZAR  HZ I        1537 34.96        21.4 0.28            121            199 291 
 URE  HE ES       1537 43.48                             112   -0.71 7  279 291 
 URE  HZ I        1537 51.25        12.9 0.30            112            279 291 
 GUY2CHZ EP   9   1537 17.09                             111    1.13 0  301 234 
 GUY2CHE ES       1537 50.85                                    0.01 7  301 234 
 GUY2CHZ I        1538  0.24         2.9 0.32                           301 234 
 DRL02HZ EP       1537 17.63                             109    0.12 7  320 358 
 DRL02HE ES       1537 52.63                             109    0.15 7  320 358 
 PRA  HZ EP       1537 26.69                             105    0.45 6  395 209 
 PRA  HE ES     C 1538  8.43                             105    0.42 6  395 209 
 PRA  HZ I        1538 16.42         4.7 0.32            106            395 209 
 ORTC HZ EP       1537 26.84                             105    0.27 6  397 215 
 ORTC HN ES       1538  8.99                             105    0.39 6  397 215 
 ORTC HZ I        1538 12.35         3.3 0.44            106            397 215 
 SJC  HZ EP   9   1537 24.91                             105   -2.43 0  404 327 
 SJC  HN ES       1538  7.72                                    0.18 6  404 327 
 SJC  HZ I        1538 24.74         1.9 0.72            105            404 327 
                                                                                
