 2014  825 1210 36.0 L   6.788 -73.140148.9  RSN  7 0.4 1.7LRSN                1
 GAP= 99        0.95       4.8     4.3  6.2 -0.3243E+01  0.6324E-01  0.6266E+01E
 Epicentro: LOS SANTOS - SANTANDER                                             3
 ACTION:UPD 14-09-15 21:53 OP:nd   STATUS:               ID:20140825121036 L   I
 OLDACT:REG 14-08-25 21:07 OP:stll STATUS:               ID:20140825120821     3
 2014-08-25-1208-21M.COL___260                                                 6
 STAT SP IPHASW D HRMM SECON CODA AMPLIT PERI AZIMU VELO AIN AR TRES W  DIS CAZ7
 BAR2 SZ EP       1210 55.84                             171   -0.1910 22.1 192 
 BAR2 SZ I        1210 56.26        16.3 0.38            172           22.1 192 
 BAR2 SZ ES       1211 11.23                             171   -0.3810 22.1 192 
 BRR  HZ EP       1210 57.90                             153    0.3010 72.4 299 
 BRR  HE ES       1211 15.15                             153    0.7410 72.4 299 
 PAM  SN ES       1211 15.95                             151   -0.3010 78.0  39 
 PAM  SZ I        1211 18.02         8.2 0.20            152           78.0  39 
 RUS  HZ EP       1211  0.03                             145    0.0210 99.2 176 
 RUS  HZ I        1211  0.88         3.3 0.48            146           99.2 176 
 RUS  HN ES       1211 18.82                             145    0.1210 99.2 176 
 PTB  HZ EP       1211  2.77                             133   -0.53 9  148 259 
 PTB  HN ES       1211 24.11                             133   -0.45 9  148 259 
 PTB  HZ I        1211 29.65         7.9 0.24            132            148 259 
 TAM  HZ EP       1211  4.13                             131    0.25 9  154 105 
 SPBC HZ EP       1211  4.84                             130    0.12 9  163 219 
 SPBC HN ES       1211 27.35                             130    0.26 9  163 219 
                                                                                
