 2014  625 1131  9.6 L   6.836 -73.196141.1  RSN 18 0.4 2.6LRSN                1
 GAP=129        0.84       1.9     3.0  4.3 -0.1067E+01  0.5273E+01  0.4542E+00E
 Epicentro: ZAPATOCA - SANTANDER                                               3
 ACTION:UPD 14-07-01 22:56 OP:nd   STATUS:               ID:20140625113109 L   I
 OLDACT:REG 14-06-25 20:23 OP:carl STATUS:               ID:20140625112816     3
 2014-06-25-1128-16M.COL___253                                                 6
 STAT SP IPHASW D HRMM SECON CODA AMPLIT PERI AZIMU VELO AIN AR TRES W  DIS CAZ7
 BAR2 SZ EP       1131 28.91                             169    0.1710 27.0 177 
 BAR2 SZ ES       1131 44.21                             169    0.5310 27.0 177 
 BAR2 SZ I        1131 45.46        36.1 0.30            168           27.0 177 
 PAM  SZ EP       1131 31.79                             150    0.4410 78.1  45 
 PAM  SN ES       1131 48.28                             150   -0.0510 78.1  45 
 PAM  SZ I        1131 50.97        29.1 0.20            155           78.1  45 
 RUS  HZ EP       1131 32.94                             142   -0.2810  105 173 
 RUS  HN ES       1131 51.18                             142   -0.4710  105 173 
 RUS  HZ I        1131 53.49        31.1 0.22            144            105 173 
 PTB  HZ EP       1131 35.38                             132   -0.38 9  143 257 
 PTB  HN ES       1131 56.36                             132    0.18 9  143 257 
 PTB  HZ I        1131 58.95        72.2 0.14            131            143 257 
 OCA  HZ EP       1131 37.05                             129   -0.06 9  156 355 
 OCA  HN ES       1131 58.17                             129   -0.40 9  156 355 
 OCA  HZ I        1132  3.73        52.8 0.40            131            156 355 
 SPBC HZ EP       1131 37.88                             128    0.17 9  163 217 
 SPBC HN ES       1131 59.60                             128   -0.05 9  163 217 
 ZAR  HZ EP       1131 41.33                             122    0.28 9  197 292 
 ZAR  HN ES       1132  5.47                             122   -0.11 9  197 292 
 ZAR  HZ I        1132 13.89        43.5 0.32            122            197 292 
 NOR  HZ EP       1131 45.07                             118    0.24 8  233 233 
 NOR  HE ES       1132 12.49                             118    0.18 8  233 233 
 NOR  HZ I        1132 18.39        22.6 0.22            118            233 233 
 SML  HZ EP       1131 44.96                             117   -0.35 8  238 336 
 SML  HE ES       1132 13.23                             117    0.06 8  238 336 
 SML  HZ I        1132 17.95        48.7 0.10            119            238 336 
 CHI  HZ EP       1131 47.07                             116   -0.24 8  251 194 
 CHI  HN ES       1132 16.46                             116   -0.27 8  251 194 
 CHI  HZ I        1132 24.22        14.6 0.32            118            251 194 
 ROSC BZ EP   4   1131 49.35                             116    1.82 0  253 209 
 ROSC BN ES   4   1132 17.88                             116    0.75 0  253 209 
 HEL  HZ EP   4   1131 50.50                             114    1.42 0  268 255 
 HEL  HN ES   4   1132 21.53                             114    1.64 0  268 255 
 HEL  HZ I        1132 28.31        26.4 0.30            115            268 255 
 URE  HZ EP   4   1131 48.38                             113   -1.31 0  277 292 
 URE  HN ES   4   1132 19.00                             113   -1.97 0  277 292 
 GUY2CHZ EP   4   1131 54.41                             112    1.67 0  299 234 
 GUY2CHN ES   4   1132 28.77                             112    2.37 0  299 234 
 GUY2CHZ I        1132 35.41        16.8 0.58                           299 234 
 RREF HZ EP       1131 55.62                             110    0.26 7  320 228 
 RREF HE ES       1132 30.24                             110   -0.82 7  320 228 
 RREF HZ I        1132 38.93        16.2 0.32            111            320 228 
 DBB  SZ EP       1131 56.22                             109    0.01 7  334 274 
 DBB  SZ ES       1132 32.43                             109   -0.14 7  334 274 
 DBB  SZ I        1132 38.49        45.5 0.38            110            334 274 
 TOL  SZ EP       1131 58.57                             108    1.02 7  343 224 
 TOL  SN ES       1132 34.71                             108   -0.25 7  343 224 
 TOL  SZ I        1132 42.65        29.1 0.52            110            343 224 
 PRA  HZ EP       1132  2.69                             106   -0.36 6  393 209 
 PRA  HN ES       1132 44.40                             106   -0.34 6  393 209 
 PRA  HZ I        1132 51.49        18.0 0.30            107            393 209 
 ORTC HZ EP       1132  3.62                             106    0.26 6  395 215 
 ORTC HE ES       1132 46.35                             106    1.06 6  395 215 
 ORTC HZ I        1132 51.73        13.0 0.38            107            395 215 
 SJC  HZ EP   4   1132  2.67                             105   -1.58 0  403 327 
 SJC  HN ES   4   1132 43.60                             105   -3.28 0  403 327 
 SJC  HZ I        1132 48.42         6.9 0.64            106            403 327 
                                                                                
