 2015  725 1132 11.2 L   6.865 -73.121139.4  RSN  6 0.5 1.8LRSN                1
 GAP=186        1.18       4.6     6.6  9.5  0.3083E+01  0.1261E+02 -0.1821E+02E
 Epicentro: LOS SANTOS - SANTANDER                                             3
 ACTION:UPD 15-09-08 21:50 OP:cam  STATUS:               ID:20150725113211 L   I
 OLDACT:REG 15-07-25 20:29 OP:stll STATUS:               ID:20150725112748     3
 2015-07-25-1127-48M.COL___328                                                 6
 STAT SP IPHASW D HRMM SECON CODA AMPLIT PERI AZIMU VELO AIN AR TRES W  DIS CAZ7
 BAR2 EZ IP     D 1132 30.46                             167    0.2610 30.9 193 
 BAR2 EZ I        1132 30.53        14.3 0.40            172           30.9 193 
 BAR2 EZ ES       1132 45.11                             167    0.0510 30.9 193 
 RUS  HZ EP   1   1132 34.65                             140   -0.16 7  108 178 
 RUS  HN ES       1132 53.07                             140   -0.2010  108 178 
 RUS  HZ I        1132 53.97         4.5 0.44            148            108 178 
 CPBEREZ EP       1132 37.18                             130   -0.82 9  152 256 
 CPBEREE ES       1132 59.06                             130    0.12 9  152 256 
 OCA  HZ EP     D 1132 38.68                             129    0.34 9  154 352 
 OCA  HN ES       1132 59.75                             129    0.21 9  154 352 
 OCA  HZ I        1133  8.18        15.0 0.34            131            154 352 
 ZAR  HZ EP       1132 43.75                             121    0.57 9  204 290 
 ZAR  HN ES       1133  8.60                             121    0.43 9  204 290 
 ZAR  HZ I        1133 15.76         6.8 0.18            124            204 290 
 SML  HZ EP       1132 47.17                             117    0.32 8  238 334 
 SML  HN ES       1133 13.43                             117   -1.26 8  238 334 
 SML  HZ I        1133 18.86         7.6 0.34            119            238 334 
                                                                                
