 2014  525 1934 43.7 L   7.479 -73.234133.3  RSN  5 0.4 1.6LRSN                1
 GAP=239        1.09       5.0     8.1  8.8 -0.1792E+02  0.6444E+01 -0.3484E+00E
 Epicentro: EL PLAYON - SANTANDER                                              3
 ACTION:UPD 15-03-16 17:00 OP:nd   STATUS:               ID:20140525193443 L   I
 OLDACT:REG 14-05-25 20:59 OP:spq  STATUS:               ID:20140525192819     3
 2014-05-25-1928-19M.COL___227                                                 6
 STAT SP IPHASW D HRMM SECON CODA AMPLIT PERI AZIMU VELO AIN AR TRES W  DIS CAZ7
 BRR  HZ EP       1935  2.83                             152   -0.4110 66.9 232 
 BRR  HN ES       1935 18.54                             152    0.0310 66.9 232 
 BRR  HZ I        1935 19.61         9.1 0.12            150           66.9 232 
 OCA  HZ EP       1935  4.94                             146    0.3510 84.6 354 
 OCA  HN ES       1935 21.15                             146    0.2610 84.6 354 
 OCA  HZ I        1935 23.28         7.7 0.42            147           84.6 354 
 PTB  HZ EP       1935 11.46                             125   -0.42 9  170 233 
 PTB  HN ES       1935 33.73                             125   -0.14 9  170 233 
 PTB  HZ I        1935 38.21         3.1 0.10            125            170 233 
 SML  HZ EP       1935 11.99                             124   -0.11 9  173 328 
 SML  HN ES       1935 33.51                             124   -0.76 9  173 328 
 SML  HZ I        1935 35.64         7.3 0.28            125            173 328 
 ZAR  HZ EP       1935 13.62                             123    0.85 9  179 271 
 ZAR  HN ES       1935 35.77                             123    0.32 9  179 271 
 ZAR  HZ I        1935 39.15         4.1 0.28            123            179 271 
                                                                                
