 2011  925 1801 57.4 L   6.758 -73.218146.0  RSN  4 0.2 1.5LRSN                1
 GAP=223        0.39      11.8    18.6  8.3  0.1995E+03 -0.6899E+02 -0.2039E+02E
 Epicentro: VILLANUEVA - SANTANDER                                             3
 ACTION:UPD 12-07-13 15:59 OP:ep   STATUS:               ID:20110925180157 L   I
 2011-09-25-1758-44S.COL___164                                                 6
 STAT SP IPHASW D HRMM SECON CODA AMPLIT PERI AZIMU VELO AIN AR TRES W  DIS CAZ7
 BAR2 SZ EP   3   18 2 16.27                             172   -0.71 2 18.8 168 
 BRR  HZ EP       18 2 18.26                             154   -0.0710 66.8 305 
 BRR  HZ I        18 2 18.56         5.6 0.28                          66.8 305 
 BRR  HN ES   1   18 2 34.78                             154    0.12 7 66.8 305 
 RUS  HZ EP       18 2 21.00                             145    0.0910 96.9 171 
 RUS  HN ES   3   18 2 38.82                             145   -0.43 2 96.9 171 
 ZAR  HN ES   3   18 2 53.96                             123   -0.20 2  198 294 
 ZAR  HZ I        18 3  1.24         3.7 0.26                           198 294 
                                                                                
