 2013  825 1121 16.7 L   6.777 -73.158147.0  RSN  7 0.4 1.7LRSN                1
 GAP=136        0.94       4.5     4.2  6.2  0.1259E+01  0.4501E+01 -0.4048E+01E
 Epicentro: LOS SANTOS - SANTANDER                                             3
 ACTION:UPD 14-01-14 09:06 OP:ep   STATUS:               ID:20130825112116 L   I
 OLDACT:REG 13-08-25 14:29 OP:nd   STATUS:               ID:20130825111959     3
 2013-08-25-1119-59M.COL___270                                                 6
 STAT SP IPHASW D HRMM SECON CODA AMPLIT PERI AZIMU VELO AIN AR TRES W  DIS CAZ7
 BAR2 SZ EP       1121 36.41                             172    0.0110 20.6 187 
 BAR2 SZ ES       1121 51.26                             172   -0.5310 20.6 187 
 BAR2 SZ I        1121 53.02         9.5 0.14            173           20.6 187 
 BRR  HZ EP     D 1121 38.47                             153    0.5110 71.3 301 
 BRR  HN ES       1121 55.27                             153    0.7110 71.3 301 
 BRR  HZ I        1121 59.69        10.0 0.46            151           71.3 301 
 PAM  SZ EP       1121 39.39                             150    0.2010 80.2  39 
 PAM  SN ES       1121 56.51                             150   -0.2410 80.2  39 
 PAM  SZ I        1121 58.18         9.2 0.62            152           80.2  39 
 RUS  HZ EP       1121 40.49                             145    0.1210 98.1 175 
 RUS  HN ES       1121 58.87                             145    0.0110 98.1 175 
 RUS  HZ I        1122  0.84         2.5 0.38            149           98.1 175 
 PTB  HZ EP       1121 43.48                             133   -0.10 9  146 260 
 PTB  HN ES       1122  4.30                             133   -0.26 9  146 260 
 PTB  HZ I        1122  6.64         4.4 0.14            133            146 260 
 ZAR  HZ EP   4   1121 51.03                             123    1.86 0  204 293 
 ZAR  HN ES       1122 14.29                             123   -0.22 9  204 293 
 ZAR  HZ I        1122 21.19         7.3 0.32            123            204 293 
 SML  HZ EP       1121 53.04                             117   -0.52 8  245 336 
 SML  HN ES   4   1122 20.93                             117   -1.39 0  245 336 
 SML  HZ I        1122 25.97         5.0 0.10            119            245 336 
                                                                                
