 2014  525 1229  0.8 L   6.844 -73.237145.3  RSN  5 0.4 1.4LRSN                1
 GAP=255        0.93       5.3     9.2  9.0 -0.1851E+02 -0.4847E+01  0.2035E+01E
 Epicentro: ZAPATOCA - SANTANDER                                               3
 ACTION:UPD 15-03-16 17:00 OP:nd   STATUS:               ID:20140525122900 L   I
 OLDACT:REG 14-05-25 20:18 OP:spq  STATUS:               ID:20140525121817     3
 2014-05-25-1218-17M.COL___230                                                 6
 STAT SP IPHASW D HRMM SECON CODA AMPLIT PERI AZIMU VELO AIN AR TRES W  DIS CAZ7
 BRR  HZ EP       1229 21.85                             156    0.5610 60.0 299 
 BRR  HE ES       1229 37.18                             156   -0.1110 60.0 299 
 BRR  HZ I        1229 39.72         5.7 0.27            152           60.0 299 
 PTB  HZ EP       1229 26.83                             134   -0.09 9  139 256 
 PTB  HN ES       1229 47.10                             134   -0.22 9  139 256 
 PTB  HZ I        1229 50.45         2.7 0.22            131            139 256 
 ZAR  HZ EP       1229 31.91                             124   -0.15 9  193 292 
 ZAR  HN ES       1229 57.09                             124    0.64 9  193 292 
 ZAR  HZ I        1229 59.36         2.5 0.29            122            193 292 
 NOR  HE ES       1230  3.09                             119   -0.25 8  229 232 
 NOR  HZ I        1230 10.68         1.7 0.40            118            229 232 
 SML  HN ES       1230  3.72                             118   -0.58 8  235 337 
 SML  HZ I        1230 10.72         2.3 0.12            117            235 337 
                                                                                
