 2017  325 1501 38.4 L   6.800 -73.128143.1  RSN  6 0.4 1.3LRSN                1
 GAP=139        0.99       4.9     4.4  7.2  0.1829E+01  0.6513E+01  0.7065E+00E
 Epicentro: LOS SANTOS - SANTANDER                                             3
 ACTION:UPD 17-05-25 18:45 OP:jn   STATUS:               ID:20170325150138 L   I
 OLDACT:UP  17-03-25 18:45 OP:dani STATUS:               ID:20170325145600     3
 OLDACT:UP  17-03-25 18:45 OP:dani STATUS:               ID:20170325145600     3
 OLDACT:UP  17-03-25 18:43 OP:dani STATUS:               ID:20170325145600     3
 OLDACT:REG 17-03-25 17:00 OP:dani STATUS:               ID:20170325145600     3
 2017-03-25-1458-00M.COL___373                                                 6
 STAT SP IPHASW D HRMM SECON CODA AMPLIT PERI AZIMU VELO AIN AR TRES W  DIS CAZ7
 BAR2 EZ EP       15 1 57.49                             170   -0.2310 23.8 195 
 BAR2 EZ ES       15 2 12.15                             170   -0.6410 23.8 195 
 BAR2 EZ I        15 2 13.64         7.6 0.16            173           23.8 195 
 BRR  HZ EP       15 1 59.78                             151    0.4210 72.9 298 
 BRR  HN ES       15 2 16.10                             151    0.3910 72.9 298 
 BRR  HZ I        15 2 22.87         5.5 0.25            152           72.9 298 
 PAM  EZ EP       15 2  0.44                             151    0.1810 76.1  38 
 PAM  EN ES       15 2 17.22                             151   -0.0810 76.1  38 
 PAM  EZ I        15 2 20.20         1.9 0.52            153           76.1  38 
 RUS  HZ EP       15 2  2.05                             143    0.1610  101 177 
 RUS  HE ES       15 2 20.57                             143    0.3710  101 177 
 RUS  HZ I        15 2 21.65         1.7 0.19            148            101 177 
 PTB  HZ EP       15 2  4.61                             131   -0.72 9  150 259 
 PTB  HN ES       15 2 26.52                             131    0.18 9  150 259 
 PTB  HZ I        15 2 27.87         3.3 0.14            134            150 259 
 ZAR  HE ES       15 2 36.07                             121   -0.12 8  206 292 
                                                                                
