 2011  325 1349 40.0 L   6.706 -73.098140.0  RSN  7 0.4 2.1LRSN                1
 GAP=183        0.78       4.4     5.8  6.8 -0.1056E+02  0.3904E+01  0.9255E+01E
 Epicentro: JORDAN - SANTANDER                                                 3
 ACTION:UP  11-06-16 14:35 OP:jfem STATUS:               ID:20110325134940 L   I
 2011-03-25-1348-40S.COL___123                                                 6
 STAT SP IPHASW D HRMM SECON CODA AMPLIT PERI AZIMU VELO SNR AR TRES W  DIS CAZ7
 BAR2 SZ EP       1349 58.88                             173     0.110   16 217 
 BAR2 SZ ES   1   1350 13.84                             173     0.4 7   16 217 
 BAR2 SZ I        1350 15.39        50.5 0.14                            16 217 
 BRR  HZ EP       1350  0.73                             148    -0.410   81 303 
 BRR  HN ES   1   1350 17.28                             148    -0.3 7   81 303 
 BRR  HZ I        1350 21.73        29.3 0.08                            81 303 
 GRA  SZ EP   1   1350  5.62                             134     0.1 7  134  14 
 GRA  SZ ES   1   1350 25.46                             134     0.1 7  134  14 
 GRA  SZ I        1350 26.43        10.7 0.47                           134  14 
 NOR  SZ EP   1   1350 14.99                             117    -0.3 6  233 237 
 NOR  SN ES   1   1350 42.27                             117    -0.5 6  233 237 
 CHI  HZ EP   1   1350 16.53                             117     0.1 6  240 197 
 CHI  HE ES   1   1350 44.78                             117    -0.1 6  240 197 
 CHI  HZ I        1350 56.43         6.3 0.34                           240 197 
 HEL  HZ EP   1   1350 20.67                             113     0.4 6  275 258 
 HEL  HN ES   1   1350 52.47                             113     0.8 6  275 258 
 HEL  HZ I        1350 59.36         9.6 0.53                           275 258 
 PRA  HZ EP   1   1350 32.82                             106     0.2 4  386 211 
                                                                                
