 2013  125 1029 11.0 L   6.786 -73.128147.1  RSN  9 0.5 2.0LRSN 2.8WRSN        1
 SPEC AVERAGE  MO 13.2 ST  4.0 OM  1.8 f0 4.88 R0.3159 AL 2.37 WI 18.1 MW  2.8 3
 SPEC SD       MO  0.3 ST  2.3 OM  0.6 f0 1.02 R0.0726 AL      WI      MW  0.2 3
 GAP=139        1.26       4.2     5.1  7.5  0.5903E+00  0.1205E+02  0.5226E+01E
 Epicentro: LOS SANTOS - SANTANDER                                             3
 SPEC ZAR HH N MO 13.4 ST  7.5 OM  1.6 f0 6.14 R0.2394 AL 2.62 WI 22.7 MW  2.9 3
 SPEC ZAR HH N T1030 8 K 0.000 GD  253 VS 4.20 DE 3.00 Q0230.0 QA 0.60 VS 4.20 3
 SPEC OCA HH N MO 13.6 ST  4.1 OM  1.9 f0 4.18 R0.3517 AL 2.85 WI 18.8 MW  3.0 3
 SPEC OCA HH N T1030 1 K 0.000 GD  218 VS 4.20 DE 3.00 Q0230.0 QA 0.60 VS 4.20 3
 SPEC PTB HH N MO 13.2 ST  4.1 OM  1.5 f0 5.75 R0.2557 AL 1.98 WI 22.7 MW  2.7 3
 SPEC PTB HH N T102958 K 0.000 GD  209 VS 4.20 DE 3.00 Q0230.0 QA 0.60 VS 4.20 3
 SPEC CHI HH E MO 12.7 ST0.278 OM  0.9 f0 3.35 R0.4388 AL 1.52 WI 10.3 MW  2.4 3
 SPEC CHI HH E T103017 K 0.000 GD  288 VS 4.20 DE 3.00 Q0230.0 QA 0.60 VS 4.20 3
 SPEC BRR HH Z MO 13.4 ST  3.9 OM  1.0 f0 5.00 R0.2940 AL 2.87 WI 15.9 MW  2.8 3
 SPEC BRR HH Z T102932 K 0.000 GD  164 VP 7.60 DE 3.00 Q0230.0 QA 0.60 VS 4.20 3
 ACTION:UPD 13-02-15 09:16 OP:ep   STATUS:               ID:20130125102911 L   I
 2013-01-25-1028-48M.COL___174                                                 6
 STAT SP IPHASW D HRMM SECON CODA AMPLIT PERI AZIMU VELO AIN AR TRES W  DIS CAZ7
 BAR2 SZ EP       1029 30.60                             171   -0.1810 22.2 196 
 BAR2 SZ ES       1029 46.07                             171   -0.1310 22.2 196 
 BAR2 SZ I        1029 47.52        16.6 0.40            170           22.2 196 
 BRR  HZ EP       1029 32.60                             152    0.1510 73.7 299 
 BRR  HZ I        1029 32.84        15.1 0.20            151           73.7 299 
 BRR  HE ES       1029 49.94                             152    0.7810 73.7 299 
 PAM  SZ EP       1029 33.43                             151    0.0610 77.4  38 
 PAM  SN ES       1029 51.09                             151    0.2910 77.4  38 
 PAM  SN I        1029 51.90        10.1 0.50            153           77.4  38 
 RUS  HZ EP       1029 34.84                             145    0.0710 98.9 177 
 RUS  HN ES       1029 52.91                             145   -0.3910 98.9 177 
 RUS  HN I        1029 53.92         8.7 0.32            146           98.9 177 
 PTB  HZ EP       1029 37.61                             132   -0.63 9  149 260 
 PTB  HN ES       1029 58.57                             132   -0.90 9  149 260 
 PTB  HN I        1030  4.03        25.0 0.52            132            149 260 
 OCA  HN ES       1030  1.70                             130   -0.19 9  162 353 
 OCA  HN I        1030  4.79        47.3 0.24            131            162 353 
 ZAR  HZ EP       1029 43.17                             122   -0.62 8  206 292 
 ZAR  HN ES       1030  9.13                             122   -0.23 8  206 292 
 ZAR  HN I        1030 14.85         9.7 0.22            122            206 292 
 CHI  HZ EP       1029 48.66                             117   -0.02 8  248 196 
 CHI  HE ES       1030 18.54                             117    0.49 8  248 196 
 CHI  HN I        1030 22.97         4.8 0.28            118            248 196 
 HEL  HZ EP       1029 52.56                             115    1.10 8  274 256 
 HEL  HN ES       1030 23.95                             115    0.94 8  274 256 
                                                                                
