 2016  925 1151 49.3 L   6.775 -73.100146.8  RSN  6 0.3 1.3LRSN                1
 GAP=240        0.74       5.3     5.2  6.4  0.1373E+02  0.6663E+01 -0.2918E+01E
 Epicentro: LOS SANTOS - SANTANDER                                             3
 ACTION:UPD 17-08-17 21:16 OP:lp   STATUS:               ID:20160925115149 L   I
 OLDACT:UP  16-09-25 22:05 OP:and  STATUS:               ID:20160925114742     3
 OLDACT:UP  16-09-25 22:01 OP:and  STATUS:               ID:20160925114742     3
 OLDACT:REG 16-09-25 20:25 OP:y    STATUS:               ID:20160925114742     3
 2016-09-25-1148-00M.COL___327                                                 6
 STAT SP IPHASW D HRMM SECON CODA AMPLIT PERI AZIMU VELO AIN AR TRES W  DIS CAZ7
 BAR2 EZ EP       1152  9.21                             171    0.1410 22.1 204 
 BAR2 EZ ES       1152 24.14                             171   -0.3210 22.1 204 
 BAR2 EZ I        1152 26.33         5.6 0.08            174           22.1 204 
 BRR  HZ EP       1152 11.08                             151    0.1510 77.0 299 
 BRR  HE ES       1152 28.07                             151    0.3010 77.0 299 
 BRR  HZ I        1152 33.34         5.5 0.34            151           77.0 299 
 RUS  HZ EP   2   1152 13.65                             145    0.68 5 97.6 179 
 RUS  HE ES       1152 31.41                             145   -0.0010 97.6 179 
 RUS  HZ I        1152 33.59         1.9 0.17            150           97.6 179 
 PTB  HZ EP       1152 16.22                             132   -0.57 9  152 260 
 PTB  HN ES       1152 38.09                             132   -0.12 9  152 260 
 PTB  HZ I        1152 38.89         1.8 0.15            134            152 260 
 SPBC HZ EP   4   1152 20.58                             129    2.56 0  164 221 
 SPBC HN ES   2   1152 41.03                             129    0.64 5  164 221 
 ZAR  HZ EP   4   1152 23.63                             122    1.19 0  210 292 
 ZAR  HE ES       1152 48.28                             122    0.02 8  210 292 
 ZAR  HZ I        1152 53.96         2.1 0.15            124            210 292 
                                                                                
