 2014  225 1304 11.7 L   6.802 -73.194148.0  RSN  5 0.3 1.3LRSN                1
 GAP=197        0.67       4.3     5.6 10.4  0.1039E+02 -0.7975E+01 -0.2151E+02E
 Epicentro: ZAPATOCA - SANTANDER                                               3
 ACTION:UPD 14-03-10 08:13 OP:ep   STATUS:               ID:20140225130411 L   I
 OLDACT:UP  14-02-25 16:49 OP:cam  STATUS:               ID:20140225125818     3
 OLDACT:UP  14-02-25 16:49 OP:cam  STATUS:               ID:20140225125818     3
 OLDACT:REG 14-02-25 15:41 OP:cam  STATUS:               ID:20140225125818     3
 2014-02-25-1258-18M.COL___223                                                 6
 STAT SP IPHASW D HRMM SECON CODA AMPLIT PERI AZIMU VELO AIN AR TRES W  DIS CAZ7
 BAR2 SZ EP   1   13 4 31.45                             171   -0.19 8 23.3 177 
 RUS  HZ EP   1   13 4 35.17                             144   -0.60 7  101 173 
 RUS  HE ES       13 4 54.77                             144    0.2610  101 173 
 RUS  HZ I        13 4 57.80         1.5 0.24            150            101 173 
 PTB  HZ EP   1   13 4 38.68                             134    0.24 7  143 258 
 PTB  HN ES       13 4 59.12                             134   -0.14 9  143 258 
 PTB  HZ I        13 5  3.23         2.0 0.12            138            143 258 
 SML  HE ES       13 5 16.84                             118    0.14 8  241 336 
 SML  HZ I        13 5 19.62         3.3 0.10            122            241 336 
 CHI  HZ EP   2   13 4 50.05                             118    0.60 4  248 194 
                                                                                
