 2010  925 1759 29.3 L   6.783 -73.112138.5  RSN 14 0.4 2.6LRSN                1
 GAP=181        0.79       4.5     6.5  5.5 -0.1759E+02  0.6820E+01  0.1363E+01E
 Epicentro: LOS SANTOS - SANTANDER                                             3
 ACTION:UP  11-02-18 11:05 OP:tino STATUS:               ID:20100925175929 L   I
 2010-09-25-1758-04S.COL___122                                                 6
 STAT SP IPHASW D HRMM SECON CODA AMPLIT PERI AZIMU VELO SNR AR TRES W  DIS CAZ7
 BAR2 SZ IP       1759 48.11                             170     0.110   23 201 
 BTL  SZ EP       1759 48.35                             170     0.310   23 311 
 BAR2 SZ I        1759 48.56        68.5 0.15                            23 201 
 BAR2 SZ ES   1   18 0  2.38                             170    -0.3 7   23 201 
 GIR2 SZ EP       1759 48.01                             166    -0.210   34 345 
 GIR2 SZ ES   2   18 0  2.93                             166     0.0 5   34 345 
 BRR  HZ IP     D 1759 49.79                             150    -0.110   75 298 
 BRR  HZ I        1759 49.99       127.9 0.11                            75 298 
 BRR  HE ES   1   18 0  6.38                             150     0.4 7   75 298 
 GUE  SZ EP   1   1759 52.91                             137    -0.5 7  118  10 
 GRA  SZ EP       1759 54.68                             135     0.710  126  16 
 GRA  SZ ES   1   18 0 12.72                             135    -0.5 7  126  16 
 GRA  SZ I        18 0 15.44        48.1 0.32                           126  16 
 OCA  SZ EP       1759 57.14                             127    -0.1 9  163 352 
 OCA  SZ I        18 0 22.92        51.2 0.23                           163 352 
 NOR  SZ EP       18 0  4.22                             117    -0.6 8  237 235 
 NOR  SE ES   2   18 0 32.76                             117     0.2 4  237 235 
 CHI  HZ EP   1   18 0  6.67                             116     0.2 6  248 196 
 CHI  HN ES   3   18 0 35.69                             116     0.1 2  248 196 
 ROSC BE ES   2   18 0 37.00                             115     0.5 4  253 212 
 ROSC BZ I        18 0 41.85        23.0 0.45                           253 212 
 HEL  HZ EP   2   18 0  9.79                             113     0.3 4  275 256 
 HEL  HE ES   3   18 0 41.02                             113     0.2 2  275 256 
 HEL  HZ I        18 0 46.60        13.4 0.38                           275 256 
 RREF HZ EP   2   18 0 15.60                             109     0.3 3  323 230 
 RREF HE ES   2   18 0 50.68                             109    -0.5 3  323 230 
 RREF HZ I        18 0 58.34        19.8 0.38                           323 230 
 DBB  SZ EP       18 0 17.05                             108     0.1 7  343 275 
 ANIL HZ EP   2   18 0 18.97                             107     0.0 3  359 225 
 ANIL HN ES   2   18 0 58.01                             107     0.3 3  359 225 
 ANIL HZ I        18 1  1.81        32.3 0.12                           359 225 
                                                                                
