 2014  125 1323 40.4 L   6.717 -73.120139.6  RSN  5 0.4 1.5LRSN                1
 GAP=162        1.09       5.8     6.0  8.3 -0.9846E+01  0.3870E+00  0.1966E+02E
 Epicentro: JORDAN - SANTANDER                                                 3
 ACTION:UPD 14-03-13 09:58 OP:ep   STATUS:               ID:20140125132340 L   I
 OLDACT:REG 14-01-25 16:14 OP:stll STATUS:               ID:20140125131815     3
 2014-01-25-1318-15M.COL___237                                                 6
 STAT SP IPHASW D HRMM SECON CODA AMPLIT PERI AZIMU VELO AIN AR TRES W  DIS CAZ7
 BAR2 SZ EP       1323 59.72                             173    0.5610 15.4 207 
 BAR2 SZ ES       1324 13.97                             173    0.1910 15.4 207 
 BAR2 SZ I        1324 17.06        11.5 0.18            172           15.4 207 
 BRR  HZ EP       1324  1.47                             149    0.1410 78.4 303 
 BRR  HN ES       1324 18.13                             149    0.4810 78.4 303 
 PAM  SZ EP       1324  2.41                             148    0.0810 83.1  34 
 PAM  SN ES       1324 18.75                             148   -0.6910 83.1  34 
 PAM  SZ I        1324 21.60         4.1 0.46            151           83.1  34 
 PTB  HZ EP       1324  6.49                             130   -0.51 9  149 263 
 PTB  HN ES       1324 27.37                             130   -0.37 9  149 263 
 PTB  HZ I        1324 33.14         6.2 0.18            131            149 263 
 CHI  HZ EP       1324 17.30                             117    0.42 8  241 196 
 CHI  HZ I        1324 18.81         1.3 0.20            118            241 196 
 CHI  HE ES       1324 44.90                             117   -0.43 8  241 196 
                                                                                
