 2011  925 1252 31.4 L   6.722 -73.118142.3  RSN  6 0.3 1.7LRSN                1
 GAP=143        0.45       6.1     4.3  8.4  0.4939E+00  0.4382E+00  0.5804E+01E
 Epicentro: JORDAN - SANTANDER                                                 3
 ACTION:UPD 12-07-13 15:59 OP:ep   STATUS:               ID:20110925125231 L   I
 2011-09-25-1251-00S.COL___164                                                 6
 STAT SP IPHASW D HRMM SECON CODA AMPLIT PERI AZIMU VELO AIN AR TRES W  DIS CAZ7
 BAR2 SZ EP       1252 50.54                             173    0.0810 16.0 206 
 BAR2 SZ I        1253  6.50         5.7 0.24                          16.0 206 
 BTL  SZ EP   2   1252 50.78                             169    0.10 5 27.3 323 
 BRR  HZ EP       1252 52.60                             150    0.0310 78.2 303 
 BRR  HN ES   2   1253  9.50                             150    0.40 5 78.2 303 
 BRR  HZ I        1253 12.77        19.6 0.32                          78.2 303 
 PAM  SZ EP       1252 53.54                             149    0.0010 82.5  34 
 PAM  SN ES   2   1253 10.52                             149   -0.31 5 82.5  34 
 RUS  HN ES   3   1253 11.33                             145   -0.60 2 91.8 178 
 ZAR  HE ES   2   1253 29.25                             121   -0.63 4  210 294 
 ZAR  HZ I        1253 35.22         4.1 0.36                           210 294 
                                                                                
