 2011  525 1813 40.8 L   6.763 -73.131150.1  RSN  5 0.3 1.9LRSN                1
 GAP=181        0.57       6.1     6.9  7.3 -0.1991E+02 -0.1082E+02  0.9828E+01E
 Epicentro: LOS SANTOS - SANTANDER                                             3
 ACTION:UP  11-06-29 08:56 OP:tino STATUS:               ID:20110525181340 L   I
 2011-05-25-1809-17S.COL___141                                                 6
 STAT SP IPHASW D HRMM SECON CODA AMPLIT PERI AZIMU VELO SNR AR TRES W  DIS CAZ7
 BAR2 SZ EP       1814  0.94                             172     0.110   20 197 
 BAR2 SZ ES   2   1814 16.25                             172    -0.3 5   20 197 
 BAR2 SZ I        1814 17.47        24.5 0.14                            20 197 
 BTL  SZ EP       1814  1.20                             171     0.310   23 319 
 BRR  HZ EP       1814  2.56                             152    -0.110   75 301 
 BRR  HZ I        1814  3.04        20.3 0.15                            75 301 
 BRR  HE ES   1   1814 19.69                             152     0.1 7   75 301 
 GRA  SZ EP   1   1814  6.75                             137     0.0 7  129  16 
 GRA  SZ ES   2   1814 26.46                             137    -0.5 5  129  16 
 GRA  SZ I        1814 29.23         4.0 0.35                           129  16 
 NOR  SZ EP   2   1814 15.84                             119    -0.8 4  234 236 
 NOR  SN ES   2   1814 44.77                             119     0.1 4  234 236 
                                                                                
