 2013  125 1005  5.8 L   6.784 -73.197142.9  RSN  6 0.2 1.5LRSN                1
 GAP=131        0.57       4.8     6.0  5.2 -0.2112E+01  0.8977E+01  0.2333E+01E
 Epicentro: ZAPATOCA - SANTANDER                                               3
 ACTION:UPD 13-02-15 09:16 OP:ep   STATUS:               ID:20130125100505 L   I
 2013-01-25-0958-49M.COL___174                                                 6
 STAT SP IPHASW D HRMM SECON CODA AMPLIT PERI AZIMU VELO AIN AR TRES W  DIS CAZ7
 BAR2 SZ EP       10 5 24.92                             171   -0.1110 21.3 176 
 BAR2 SZ ES       10 5 40.08                             171    0.0410 21.3 176 
 BAR2 SZ I        10 5 43.64         8.6 0.26            171           21.3 176 
 BRR  HZ EP       10 5 26.74                             153    0.3410 67.2 302 
 BRR  HZ I        10 5 32.01         6.8 0.22            149           67.2 302 
 PAM  SZ EP       10 5 27.93                             149   -0.0710 82.4  42 
 RUS  HZ EP       10 5 29.03                             144   -0.1410 99.4 173 
 PTB  HZ EP       10 5 31.70                             133   -0.28 9  142 259 
 CHI  HZ EP       10 5 43.27                             117    0.29 8  246 194 
 CHI  HZ I        10 5 45.83         1.4 0.44            118            246 194 
                                                                                
