 2015 1225 1522 26.6 L   6.795 -73.174141.0  RSN  8 0.2 1.7LRSN                1
 GAP=180        0.64       2.2     3.4  5.0  0.1306E+01  0.2672E+01 -0.1692E+01E
 Epicentro: LOS SANTOS - SANTANDER                                             3
 ACTION:UPD 16-02-04 15:07 OP:cam  STATUS:               ID:20151225152226 L   I
 OLDACT:REG 15-12-25 20:53 OP:cara STATUS:               ID:20151225151745     3
 2015-12-25-1517-45M.COL___334                                                 6
 STAT SP IPHASW D HRMM SECON CODA AMPLIT PERI AZIMU VELO AIN AR TRES W  DIS CAZ7
 BAR2 EZ IP       1522 45.62                             171   -0.0210 22.5 182 
 BAR2 EZ ES       1523  0.11                             171   -0.3810 22.5 182 
 BAR2 EZ I        1523  1.58        14.9 0.36            171           22.5 182 
 BRR  HZ IP       1522 47.18                             152    0.0910 68.7 300 
 BRR  HN ES       1523  3.51                             152    0.4310 68.7 300 
 BRR  HZ I        1523  8.19         8.6 0.44            149           68.7 300 
 RUS  HZ EP       1522 49.68                             143   -0.1810  100 174 
 RUS  HN ES       1523  8.25                             143    0.2410  100 174 
 RUS  HZ I        1523  8.86         3.2 0.26            147            100 174 
 PTB  HZ EP       1522 53.14                             132    0.25 9  145 259 
 PTB  HN ES       1523 13.05                             132   -0.35 9  145 259 
 PTB  HZ I        1523 20.26         4.2 0.18            131            145 259 
 OCA  HN ES       1523 16.42                             128    0.05 9  160 354 
 OCA  HZ I        1523 23.90         9.6 0.22            129            160 354 
 SPBC HN ES       1523 16.30                             128    0.02 9  161 218 
 SPBC HZ I        1523 21.06         7.0 0.28            130            161 218 
 ZAR  HZ EP   4   1523  0.18                             122    1.73 0  201 293 
 ZAR  HE ES       1523 23.29                             122   -0.01 9  201 293 
 ZAR  HZ I        1523 30.32         4.8 0.42            122            201 293 
 SML  HZ EP   4   1523  1.55                             116   -1.32 0  243 336 
 SML  HN ES       1523 30.92                             116   -0.24 8  243 336 
 SML  HZ I        1523 34.17         8.3 0.28            117            243 336 
                                                                                
