 2011 1225 1505 19.2 L   6.235 -73.652110.3  RSN  6 0.2 1.7LRSN                1
 GAP=170        0.50       3.2     2.6  5.0  0.1147E+01  0.2143E+01  0.6690E+00E
 Epicentro: LA PAZ - SANTANDER                                                 3
 ACTION:UPD 12-07-13 16:18 OP:ep   STATUS:               ID:20111225150519 L   I
 2011-12-25-1500-00M.COL___188                                                 6
 STAT SP IPHASW D HRMM SECON CODA AMPLIT PERI AZIMU VELO AIN AR TRES W  DIS CAZ7
 BAR2 SZ EP       15 5 36.74                             147    0.1610 65.3  53 
 BAR2 SZ ES   1   15 5 49.75                             147   -0.39 7 65.3  53 
 BAR2 SZ I        15 5 51.48        13.5 0.41                          65.3  53 
 RUS  HZ EP   1   15 5 37.72                             144    0.21 7 73.4 121 
 RUS  HN ES   1   15 5 51.81                             144    0.03 7 73.4 121 
 PTB  HZ IP       15 5 38.54                             136   -0.0110 95.2 291 
 PTB  HN ES   1   15 5 53.44                             136   -0.19 7 95.2 291 
 BRR  HZ EP   1   15 5 38.58                             135   -0.07 7 96.7 356 
 BRR  HZ I        15 5 38.89         9.2 0.13                          96.7 356 
 BRR  HE ES   1   15 5 54.19                             135    0.37 7 96.7 356 
 GIR2 SZ EP   1   15 5 39.71                             133    0.03 7  106  28 
 GIR2 SZ ES   1   15 5 55.74                             133    0.09 7  106  28 
 PAM  SZ EP   1   15 5 45.17                             120   -0.40 7  161  41 
                                                                                
