 2015  125 1709 31.6 L   6.806 -73.152148.0  RSN 15 0.5 2.5LRSN                1
 GAP= 71        1.12       3.2     3.3  5.6 -0.8540E+00  0.3616E+01  0.2324E+01E
 Epicentro: LOS SANTOS - SANTANDER                                             3
 ACTION:UPD 15-03-02 15:42 OP:nd   STATUS:               ID:20150125170931 L   I
 OLDACT:REG 15-01-26 00:01 OP:carl STATUS:               ID:20150125170745     3
 2015-01-25-1707-45M.COL___274                                                 6
 STAT SP IPHASW D HRMM SECON CODA AMPLIT PERI AZIMU VELO AIN AR TRES W  DIS CAZ7
 BAR2 EZ EP       17 9 51.46                             170   -0.0010 23.9 188 
 BAR2 EZ ES       1710  6.76                             170   -0.2410 23.9 188 
 BAR2 EZ I        1710  8.10        79.5 0.22            170           23.9 188 
 BRR  HZ EP       17 9 53.38                             153    0.4910 70.2 298 
 BRR  HN ES       1710 10.69                             153    1.1510 70.2 298 
 BRR  HZ I        1710 14.59        70.3 0.24            150           70.2 298 
 PAM  SZ IP     C 17 9 54.25                             151    0.2410 77.3  40 
 PAM  SN ES       1710 11.66                             151    0.1410 77.3  40 
 PAM  SZ I        1710 13.74        46.6 0.50            153           77.3  40 
 RUS  HZ EP       17 9 55.22                             144   -0.3610  101 176 
 RUS  HN ES       1710 14.05                             144   -0.2710  101 176 
 RUS  HZ I        1710 15.31        27.3 0.22            146            101 176 
 PTB  HZ EP       17 9 58.19                             133   -0.46 9  147 259 
 PTB  HN ES       1710 19.44                             133   -0.35 9  147 259 
 PTB  HZ I        1710 22.45        34.7 0.12            131            147 259 
 TAM  HZ EP       17 9 59.64                             131    0.15 9  156 105 
 TAM  HN ES       1710 21.50                             131    0.22 9  156 105 
 OCA  HZ EP       17 9 59.62                             130   -0.35 9  160 353 
 OCA  HN ES       1710 21.18                             130   -0.95 9  160 353 
 OCA  HZ I        1710 31.35        27.8 0.18            130            160 353 
 SPBC HZ EP       1710  0.32                             130    0.09 9  163 219 
 SPBC HN ES       1710 22.82                             130    0.22 9  163 219 
 SPBC HZ I        1710 24.61        72.3 0.12            130            163 219 
 ZAR  HZ EP       1710  4.02                             123   -0.03 9  203 292 
 ZAR  HN ES       1710 29.26                             123   -0.13 9  203 292 
 ZAR  HZ I        1710 34.64        25.5 0.40            122            203 292 
 NOR  HZ EP       1710  7.28                             119   -0.11 8  234 234 
 NOR  HN ES       1710 35.26                             119   -0.08 8  234 234 
 NOR  HZ I        1710 39.56        28.8 0.18            119            234 234 
 SML  HZ EP   4   1710  5.94                             118   -2.26 0  243 335 
 SML  HN ES   4   1710 36.30                             118   -0.49 0  243 335 
 SML  HZ I        1710 41.80        40.5 0.26            118            243 335 
 CHI  HZ EP       1710  9.38                             118   -0.04 8  249 195 
 CHI  HN ES       1710 38.40                             118   -0.57 8  249 195 
 CHI  HZ I        1710 47.11        13.5 0.40            118            249 195 
 GUY2CHZ EP       1710 16.30                             113    1.06 7  301 235 
 GUY2CHE ES   4   1710 52.57                             113    3.25 0  301 235 
 GUY2CHZ I        1710 57.88        14.1 0.26                           301 235 
 RREF HZ EP   4   1710 18.26                             111    0.48 0  322 229 
 RREF HE ES   4   1710 54.89                             111    1.06 0  322 229 
 RREF HZ I        1711  3.88        20.2 0.38            112            322 229 
 CBOC HZ EP       1710 18.83                             110    0.33 7  333 252 
 CBOC HN ES   4   1710 55.76                             110    0.64 0  333 252 
 CBOC HZ I        1711  4.59        13.3 0.92            110            333 252 
 PAL  HZ EP   4   1710 26.55                             106   -0.20 0  405 239 
 PAL  HN ES   4   1711 11.86                             106    2.05 0  405 239 
                                                                                
