 2012 1125 1002 17.0 L   6.774 -73.184152.7  RSN  5 0.2 1.4LRSN                1
 GAP=175        0.49       3.4     3.8  5.1 -0.3472E+00  0.4625E+01 -0.7063E+01E
 Epicentro: LOS SANTOS - SANTANDER                                             3
 ACTION:UPD 12-12-05 15:36 OP:}ep  STATUS:               ID:20121125100217 L   I
 2012-11-25-1000-00M.COL___233                                                 6
 STAT SP IPHASW D HRMM SECON CODA AMPLIT PERI AZIMU VELO AIN AR TRES W  DIS CAZ7
 BAR2 SZ EP   1   10 2 37.79                             172    0.40 7 20.1 179 
 BAR2 SZ ES   1   10 2 53.05                             172   -0.26 7 20.1 179 
 BAR2 SZ I        10 2 54.52         9.2 0.38                          20.1 179 
 GIR2 SZ EP       10 2 37.55                             167    0.0110 33.8 358 
 GIR2 SZ ES   1   10 2 53.76                             167    0.17 7 33.8 358 
 GIR2 SZ I        10 2 54.61         2.8 0.34                          33.8 358 
 RUS  HN ES   1   10 3  0.00                             146   -0.17 7 98.1 173 
 RUS  HZ I        10 3  1.41         2.6 0.42                          98.1 173 
 PTB  HZ EP   1   10 2 43.82                             134   -0.28 7  143 260 
 PTB  HN ES       10 3  5.40                             134    0.14 9  143 260 
 PTB  HZ I        10 3  8.49         3.2 0.10                           143 260 
 SML  HZ EP   1   10 2 54.16                             119    0.06 6  245 336 
 SML  HN ES   1   10 3 22.81                             119   -0.25 6  245 336 
                                                                                
