 2017  925 1041 13.7 L   6.869 -73.109148.9  RSN 12 0.6 1.9LRSN                1
 GAP=109        0.99       3.9     3.4  6.2  0.2333E+01  0.6845E+01  0.9793E+01E
 Epicentro: LOS SANTOS - SANTANDER                                             3
 ACTION:UPD 17-10-05 19:16 OP:rebc STATUS:               ID:20170925104113 L   I
 OLDACT:REG 17-09-25 20:19 OP:osc  STATUS:               ID:20170925103737     3
 2017-09-25-1038-00M.COL___405                                                 6
 STAT SP IPHASW D HRMM SECON CODA AMPLIT PERI AZIMU VELO AIN AR TRES W  DIS CAZ7
 BAR2 EZ EP     D 1041 33.51                             167   -0.3810 31.7 195 
 BAR2 EZ ES       1041 49.65                             167    0.0010 31.7 195 
 BAR2 EZ I        1041 57.50        11.7 0.56            167           31.7 195 
 PAM  EZ EP       1041 36.08                             154    0.3110 68.9  41 
 PAM  EE ES       1041 53.16                             154    0.1810 68.9  41 
 PAM  EZ I        1041 55.19        18.3 0.42            159           68.9  41 
 BRR  HZ EP       1041 35.16                             153   -0.0510 71.7 292 
 BRR  HE ES       1041 52.11                             153    0.1210 71.7 292 
 RUS  HZ EP       1041 38.06                             142   -0.2410  108 179 
 RUS  HE ES   4   1041 56.21                             142   -1.27 0  108 179 
 RUS  HZ I        1041 57.97         5.5 0.58            145            108 179 
 TAM  HE ES   2   1042  2.98                             132   -0.14 5  153 108 
 YPLC HZ EP       1041 44.13                             126   -0.06 9  182 154 
 YPLC HE ES       1042  8.03                             126    0.05 9  182 154 
 YPLC HZ I        1042 10.71        11.0 0.34            130            182 154 
 ZAR  HZ EP       1041 46.84                             123    0.38 9  205 290 
 ZAR  HE ES       1042 11.61                             123   -0.40 9  205 290 
 ZAR  HZ I        1042 18.23        10.7 0.10            126            205 290 
 NOR  HZ EP       1041 50.27                             118   -0.18 8  243 234 
 NOR  HE ES       1042 18.87                             118   -0.24 8  243 234 
 NOR  HZ I        1042 19.99         6.0 0.20            121            243 234 
 CHI  HZ EP       1041 52.37                             117   -0.12 8  257 196 
 CHI  HE ES       1042 22.44                             117   -0.30 8  257 196 
 CHI  HZ I        1042 27.67         3.3 0.24            120            257 196 
 HEL  HZ EP   4   1041 56.03                             115    1.30 0  278 254 
 HEL  HE ES       1042 27.32                             115    0.59 7  278 254 
 HEL  HZ I        1042 31.58         5.7 0.28            118            278 254 
 URE  HE ES   2   1042 24.28                             114   -3.01 4  285 290 
 GUY2CHZ EP       1041 59.01                             112    0.68 7  309 234 
 GUY2CHE ES       1042 33.87                             112    0.73 7  309 234 
 GUY2CHZ I        1042 42.14         7.2 0.42                           309 234 
                                                                                
