 2011  425 1436 45.2 L   6.820 -73.121147.6  RSN  5 0.3 1.7LRSN                1
 GAP=161        0.60       3.4     5.8  8.0 -0.3703E+01  0.1797E+02  0.8455E+00E
 Epicentro: LOS SANTOS - SANTANDER                                             3
 ACTION:UP  11-06-22 15:33 OP:REBC STATUS:               ID:20110425143645 L   I
 2011-04-25-1434-32S.COL___139                                                 6
 STAT SP IPHASW D HRMM SECON CODA AMPLIT PERI AZIMU VELO SNR AR TRES W  DIS CAZ7
 BAR2 SZ EP   1   1437  4.69                             169    -0.4 8   26 195 
 BRR  HZ EP   1   1437  7.01                             152     0.4 8   73 296 
 BRR  HN ES   1   1437 23.39                             152     0.0 8   73 296 
 BRR  HZ I        1437 28.90         9.1 0.11                            73 296 
 RUS  HE ES       1437 28.19                             144     0.110  103 178 
 RUS  HZ I        1437 29.59         8.0 0.43                           103 178 
 GRA  SZ ES   1   1437 29.95                             138    -0.1 7  123  17 
 NOR  SZ EP   1   1437 21.64                             118     0.2 6  238 234 
 NOR  SE ES   1   1437 49.38                             118    -0.3 6  238 234 
                                                                                
