 2012  125 1902 28.2 L   6.774 -73.149141.4  RSN  6 0.2 1.6LRSN                1
 GAP=137        0.56       4.3     4.8  6.0 -0.1901E+01  0.7774E+01  0.8848E+01E
 Epicentro: LOS SANTOS - SANTANDER                                             3
 ACTION:UP  12-02-03 08:20 OP:REBC STATUS:               ID:20120125190228 L   I
 2012-01-25-1900-00M.COL___188                                                 6
 STAT SP IPHASW D HRMM SECON CODA AMPLIT PERI AZIMU VELO SNR AR TRES W  DIS CAZ7
 BAR2 SZ EP       19 2 47.28                             171     0.010   20 190 
 BAR2 SZ I        19 2 47.51        14.8 0.42                            20 190 
 GIR2 SZ EP       19 2 47.44                             166     0.010   34 352 
 GIR2 SZ ES   1   19 3  2.22                             166    -0.2 7   34 352 
 BRR  HZ EP       19 2 49.20                             151     0.310   72 301 
 BRR  HZ I        19 2 49.49        14.6 0.26                            72 301 
 BRR  HE ES   2   19 3  5.49                             151     0.4 5   72 301 
 PAM  SZ EP       19 2 50.15                             149     0.110   80  38 
 PAM  SN ES   1   19 3  6.97                             149    -0.2 7   80  38 
 RUS  HZ EP       19 2 51.34                             144     0.010   98 176 
 RUS  HN ES   2   19 3  9.38                             144     0.0 5   98 176 
 RUS  HZ I        19 3 11.18         3.9 0.26                            98 176 
 PTB  HZ EP       19 2 54.37                             131    -0.3 9  147 260 
 PTB  HZ I        19 3 21.14         3.8 0.36                           147 260 
                                                                                
