 2015 1225 1036 46.9 L   7.429 -73.198129.2  RSN  6 0.4 1.6LRSN                1
 GAP=187        1.12       4.1     7.6  8.6 -0.2671E+01  0.2408E+02 -0.6057E+01E
 Epicentro: EL PLAYON - SANTANDER                                              3
 ACTION:UPD 16-02-04 15:07 OP:cam  STATUS:               ID:20151225103646 L   I
 OLDACT:UP  15-12-25 21:22 OP:cara STATUS:               ID:20151225102747     3
 OLDACT:REG 15-12-25 20:15 OP:cara STATUS:               ID:20151225102747     3
 2015-12-25-1027-47M.COL___337                                                 6
 STAT SP IPHASW D HRMM SECON CODA AMPLIT PERI AZIMU VELO AIN AR TRES W  DIS CAZ7
 BRR  HZ IP       1037  6.41                             151    0.3710 67.0 238 
 BRR  HN ES       1037 21.47                             151    0.5210 67.0 238 
 BRR  HZ I        1037 25.51         7.5 0.32            153           67.0 238 
 OCA  HN ES       1037 24.33                             143    0.1810 90.5 352 
 OCA  HZ I        1037 28.51         8.3 0.16            146           90.5 352 
 BAR2 EZ ES       1037 24.08                             142   -0.5510 92.6 179 
 BAR2 EZ I        1037 25.69         6.2 0.30            147           92.6 179 
 PTB  HZ IP       1037 15.12                             124    0.31 9  170 235 
 PTB  HN ES       1037 36.12                             124   -0.46 9  170 235 
 PTB  HZ I        1037 38.01         3.3 0.24            127            170 235 
 SML  HZ EP       1037 15.97                             122    0.23 9  180 328 
 SML  HN ES       1037 37.48                             122   -0.75 9  180 328 
 SML  HZ I        1037 38.74         6.9 0.10            126            180 328 
 ZAR  HZ IP       1037 15.55                             121   -0.59 9  183 272 
 ZAR  HZ EPg      1037 16.52                             121    0.38 9  183 272 
 ZAR  HN ES       1037 39.19                             121    0.24 9  183 272 
 ZAR  HZ I        1037 42.73         4.9 0.54            125            183 272 
                                                                                
