 2017  825 1647  7.3 L   6.119 -73.657121.2  RSN  4 0.2 1.3LRSN                1
 GAP=207        0.60       6.1     6.9  8.5  0.3026E+02  0.3640E+02  0.1322E+02E
 Epicentro: CHIPATA - SANTANDER                                                3
 ACTION:UPD 17-09-04 20:24 OP:rebc STATUS:               ID:20170825164707 L   I
 OLDACT:UP  17-08-25 22:07 OP:edw  STATUS:               ID:20170825163740     3
 OLDACT:REG 17-08-25 20:24 OP:edw  STATUS:               ID:20170825163740     3
 2017-08-25-1638-00M.COL___408                                                 6
 STAT SP IPHASW D HRMM SECON CODA AMPLIT PERI AZIMU VELO AIN AR TRES W  DIS CAZ7
 RUS  HN ES       1647 41.17                             149   -0.0910 68.3 111 
 BAR2 EZ EP       1647 26.71                             146    0.3010 74.2  45 
 BAR2 EZ ES       1647 41.43                             146    0.1310 74.2  45 
 BAR2 EZ I        1647 44.04         4.3 0.16            143           74.2  45 
 BRR  HZ EP       1647 28.48                             135   -0.3310  109 357 
 BRR  HE ES       1647 45.44                             135   -0.1410  109 357 
 ZAR  HN ES       1648  2.17                             117    0.17 9  202 319 
                                                                                
