 2015 1125 1323  9.8 L   5.951 -73.744111.7  RSN 14 0.5 2.3LRSN                1
 GAP=121        1.12       2.9     3.1  5.8 -0.3275E+01  0.4489E+01 -0.2521E+01E
 Epicentro: GUAVATA - SANTANDER                                                3
 ACTION:UPD 15-12-28 16:13 OP:cam  STATUS:               ID:20151125132309 L   I
 OLDACT:REG 15-11-25 20:54 OP:ak   STATUS:               ID:20151125131749     3
 2015-11-25-1317-49M.COL___206                                                 6
 STAT SP IPHASW D HRMM SECON CODA AMPLIT PERI AZIMU VELO AIN AR TRES W  DIS CAZ7
 SPBC HZ EP     C 1323 25.84                             155   -0.3310 49.1 228 
 SPBC HN ES       1323 38.68                             155   -0.2510 49.1 228 
 SPBC HZ I        1323 39.66        61.8 0.22            154           49.1 228 
 RUS  HZ EP       1323 28.94                             144    0.6910 73.5  95 
 RUS  HN ES       1323 42.81                             144    0.1710 73.5  95 
 RUS  HZ I        1323 43.43        21.9 0.34            145           73.5  95 
 PTB  HZ EP   4 C 1323 28.59                             134   -1.29 0  102 310 
 PTB  HN ES       1323 45.10                             134   -0.4310  102 310 
 PTB  HZ I        1323 48.05        22.2 0.24            132            102 310 
 BRR  HZ EP       1323 32.31                             127    0.0810  128   2 
 BRR  HN ES       1323 49.67                             127   -0.0510  128   2 
 BRR  HZ I        1323 53.81        36.0 0.14            126            128   2 
 NOR  HZ EP       1323 31.71                             126   -0.9710  132 251 
 NOR  HN ES       1323 50.42                             126   -0.1110  132 251 
 PAM  EZ EP       1323 39.86                             116    0.28 9  192  37 
 PAM  EN ES       1324  2.70                             116   -0.10 9  192  37 
 PAM  EZ I        1324 12.14         9.9 0.46            115            192  37 
 HEL  HZ EP       1323 40.13                             115   -0.09 9  199 278 
 HEL  HN ES       1324  4.77                             115    0.82 9  199 278 
 HEL  HZ I        1324  8.28        34.1 0.24            113            199 278 
 ZAR  HZ EP       1323 41.04                             113    0.06 8  210 324 
 ZAR  HE ES       1324  6.03                             113    0.73 8  210 324 
 ZAR  HZ I        1324  9.57        25.7 0.35            112            210 324 
 ELA  HZ EP   4   1323 44.55                             112    1.85 0  220 237 
 ELA  HN ES       1324  9.01                             112    0.66 8  220 237 
 ELA  HZ I        1324 13.33        10.1 0.36            111            220 237 
 ANIL HZ EP       1323 45.34                             109    0.08 8  245 229 
 ANIL HN ES       1324 13.72                             109    0.80 8  245 229 
 ANIL HZ I        1324 17.37        44.8 0.28            109            245 229 
 CBOC HZ EP       1323 46.12                             109    0.25 8  251 268 
 CBOC HE ES       1324 13.82                             109   -0.19 8  251 268 
 CBOC HZ I        1324 22.10         7.1 0.38            108            251 268 
 ORTC HZ EP       1323 48.81                             106   -0.30 7  281 216 
 ORTC HN ES       1324 18.99                             106   -0.78 7  281 216 
 ORTC HZ I        1324 24.85        12.0 0.60            106            281 216 
 SML  HZ EP       1323 52.72                             104   -0.66 7  317 353 
 SML  HN ES       1324 27.21                             104   -0.15 7  317 353 
 SML  HZ I        1324 32.06        19.9 0.09            103            317 353 
 MON  HE ES       1324 39.72                             100   -0.50 6  378 326 
 SOCV BZ EP   4   1324  3.30                              99   -1.24 0  410  51 
 SOCV BN ES   4   1324 45.05                              99   -2.19 0  410  51 
                                                                                
