 2012 1225 1143  5.3 L   6.764 -73.146147.8  RSN  4 0.2 1.1LRSN                1
 GAP=235        0.61       7.3     4.8  5.7  0.1014E+02  0.1278E+01  0.8245E+01E
 Epicentro: LOS SANTOS - SANTANDER                                             3
 ACTION:UPD 13-01-04 14:30 OP:ep   STATUS:               ID:20121225114305 L   I
 2012-12-25-1140-00M.COL___242                                                 6
 STAT SP IPHASW D HRMM SECON CODA AMPLIT PERI AZIMU VELO AIN AR TRES W  DIS CAZ7
 BAR2 SZ EP       1143 24.71                             172   -0.3410 19.4 192 
 BAR2 SZ ES       1143 40.47                             172   -0.0310 19.4 192 
 BAR2 SZ I        1143 41.53         4.3 0.35                          19.4 192 
 BRR  HZ EP       1143 26.99                             152    0.2610 73.1 301 
 BRR  HN ES       1143 43.50                             152    0.0210 73.1 301 
 BRR  HZ I        1143 46.90         2.5 0.36                          73.1 301 
 RUS  HZ EP   1   1143 29.33                             145    0.41 7 96.6 176 
 RUS  HZ I        1143 50.69         1.6 0.19                          96.6 176 
 PTB  HZ EP   1   1143 32.01                             133   -0.30 7  147 260 
 PTB  HN ES       1143 53.44                             133    0.02 9  147 260 
 PTB  HZ I        1143 57.76         1.5 0.18                           147 260 
                                                                                
