 2016 1025 1819 24.9 L   6.732 -73.135144.8  RSN  6 0.2 1.8LRSN                1
 GAP=141        0.80       4.5     6.3  6.2 -0.1525E+02  0.1039E+01 -0.2259E+01E
 Epicentro: JORDAN - SANTANDER                                                 3
 ACTION:UPD 16-11-09 19:22 OP:rebc STATUS:               ID:20161025181924 L   I
 OLDACT:UP  16-10-26 01:35 OP:edw  STATUS:               ID:20161025181745     3
 OLDACT:REG 16-10-25 22:35 OP:edw  STATUS:               ID:20161025181745     3
 2016-10-25-1818-00M.COL___349                                                 6
 STAT SP IPHASW D HRMM SECON CODA AMPLIT PERI AZIMU VELO AIN AR TRES W  DIS CAZ7
 BAR2 EZ EP       1819 44.26                             173   -0.0510 16.2 199 
 BAR2 EZ ES       1819 59.69                             173    0.2610 16.2 199 
 BAR2 EZ I        1820  0.30        12.1 0.26            173           16.2 199 
 BRR  HZ EP       1819 46.45                             151    0.2110 76.0 303 
 BRR  HE ES   4   1820  3.62                             151    0.75 0 76.0 303 
 PAM  EZ EP       1819 47.40                             148    0.0510 82.7  36 
 PAM  EN ES       1820  4.51                             148   -0.3410 82.7  36 
 PAM  EZ I        1820  6.91        10.5 0.48            150           82.7  36 
 RUS  HZ EP       1819 48.08                             145    0.0510 92.9 176 
 RUS  HN ES       1820  6.00                             145   -0.0610 92.9 176 
 RUS  HZ I        1820  7.59         8.5 0.32            146           92.9 176 
 PTB  HZ EP   9   1819 51.18                             131   -0.61 0  148 262 
 PTB  HN ES       1820 11.37                             132   -0.77 9  148 262 
 PTB  HZ I        1820 13.75         4.4 0.16            132            148 262 
 SPBC HZ EP   4   1819 51.46                             129   -1.40 0  158 221 
 SPBC HN ES       1820 14.52                             129   -0.14 9  158 221 
 SPBC HZ I        1820 16.64        12.8 0.24            130            158 221 
 GUY2CHZ EP   4   1820 11.29                             112    3.19 0  298 236 
 GUY2CHN ES   4   1820 45.03                             112    3.25 0  298 236 
                                                                                
