 2014  725 1830 29.0 L   6.828 -73.203131.3  RSN  4 0.2 1.4LRSN                1
 GAP=147        0.49       3.6     3.7  6.9 -0.6007E+01  0.2662E+01  0.4025E+01E
 Epicentro: ZAPATOCA - SANTANDER                                               3
 ACTION:UPD 15-03-16 20:47 OP:nd   STATUS:               ID:20140725183029 L   I
 OLDACT:REG 14-07-25 21:13 OP:fm   STATUS:               ID:20140725182819     3
 2014-07-25-1828-19M.COL___266                                                 6
 STAT SP IPHASW D HRMM SECON CODA AMPLIT PERI AZIMU VELO AIN AR TRES W  DIS CAZ7
 PAM  SZ EP   1   1830 49.99                             147    0.19 8 79.3  44 
 PAM  SN ES   1   1831  5.83                             147   -0.21 8 79.3  44 
 PAM  SZ I        1831  7.94         4.3 0.20            154           79.3  44 
 RUS  HZ EP       1830 51.53                             139   -0.0910  104 173 
 RUS  HN ES   1   1831  9.58                             139    0.30 7  104 173 
 RUS  HZ I        1831 11.41         2.7 0.24            143            104 173 
 PTB  HN ES   1   1831 14.21                             130    0.20 7  142 257 
 PTB  HZ I        1831 16.44         3.2 0.20            133            142 257 
 SPBC HZ EP   1   1830 56.29                             126    0.02 7  162 217 
 SPBC HN ES   1   1831 17.18                             126   -0.37 7  162 217 
 SPBC HZ I        1831 22.76         5.0 0.56            129            162 217 
                                                                                
