 2011  925 1556 33.5 L   6.644 -73.277153.8  RSN  5 0.5 1.5LRSN                1
 GAP=133        0.65      12.2    16.9 10.1  0.1578E+03 -0.2898E+02 -0.3435E+02E
 Epicentro: GALAN - SANTANDER                                                  3
 ACTION:UPD 12-07-13 15:59 OP:ep   STATUS:               ID:20110925155633 L   I
 2011-09-25-1554-57S.COL___165                                                 6
 STAT SP IPHASW D HRMM SECON CODA AMPLIT PERI AZIMU VELO AIN AR TRES W  DIS CAZ7
 BAR2 SZ EP       1556 53.76                             176   -0.1210 11.9 119 
 BAR2 SZ ES   2   1557  9.52                             176   -0.30 5 11.9 119 
 BTL  SZ EP       1556 54.06                             169   -0.1410 30.3   2 
 BRR  HZ EP       1556 55.57                             154    0.1510 70.2 317 
 BRR  HZ I        1556 55.70         7.9 0.14                          70.2 317 
 BRR  HN ES   2   1557 13.06                             154    0.50 5 70.2 317 
 RUS  HZ EP   2   1556 57.79                             149    0.76 5 85.8 166 
 RUS  HN ES   2   1557 15.23                             149   -0.20 5 85.8 166 
 RUS  HZ I        1557 17.36         2.6 0.28                          85.8 166 
 ZAR  HE ES   3   1557 29.44                             124   -1.68 2  198 298 
 ZAR  HZ I        1557 33.03         3.1 0.46                           198 298 
                                                                                
