 2015 1125 1236 16.7 L   6.811 -73.134147.5  RSN 15 0.4 2.4LRSN                1
 GAP=184        0.94       2.6     4.0  5.4 -0.1022E+01  0.1891E+01  0.3575E+00E
 Epicentro: LOS SANTOS - SANTANDER                                             3
 ACTION:UPD 15-12-28 16:13 OP:cam  STATUS:               ID:20151125123616 L   I
 OLDACT:UP  15-12-10 15:31 OP:cam  STATUS:               ID:20151125123616 L   3
 OLDACT:UP  15-12-01 10:58 OP:ak   STATUS:               ID:20151125123616 L   3
 OLDACT:REG 15-11-25 20:52 OP:ak   STATUS:               ID:20151125122749     3
 2015-11-25-1227-49M.COL___206                                                 6
 STAT SP IPHASW D HRMM SECON CODA AMPLIT PERI AZIMU VELO AIN AR TRES W  DIS CAZ7
 BRR  HZ EP     C 1236 38.43                             153    0.3810 71.8 297 
 BRR  HN ES       1236 55.42                             153    0.7010 71.8 297 
 BRR  HZ I        1237  0.18        34.0 0.12            152           71.8 297 
 RUS  HZ EP       1236 40.35                             144   -0.3310  102 177 
 RUS  HN ES       1236 58.99                             144   -0.4110  102 177 
 RUS  HZ I        1236 59.84        12.6 0.32            147            102 177 
 PTB  HZ EP       1236 43.53                             132   -0.39 9  149 258 
 PTB  HN ES       1237  4.69                             132   -0.48 9  149 258 
 PTB  HZ I        1237 12.09        28.3 0.34            133            149 258 
 OCA  HZ EP       1236 45.20                             130    0.17 9  159 353 
 OCA  HN ES       1237  7.36                             130    0.21 9  159 353 
 OCA  HZ I        1237 12.29        54.3 0.44            134            159 353 
 SPBC HZ EP       1236 45.51                             129    0.04 9  165 219 
 SPBC HN ES       1237  8.15                             129    0.22 9  165 219 
 SPBC HZ I        1237 13.29        41.5 0.12            131            165 219 
 ZAR  HZ EP       1236 49.39                             123    0.08 9  205 292 
 ZAR  HN ES       1237 14.37                             123   -0.40 9  205 292 
 ZAR  HZ I        1237 20.76        26.4 0.30            125            205 292 
 NOR  HZ EP       1236 52.40                             119   -0.29 8  236 234 
 NOR  HN ES       1237 20.37                             119   -0.41 8  236 234 
 NOR  HZ I        1237 24.17        23.8 0.18            121            236 234 
 SML  HZ EP       1236 53.06                             118   -0.28 8  243 335 
 SML  HN ES       1237 21.46                             118   -0.48 8  243 335 
 SML  HZ I        1237 25.78        35.4 0.10            121            243 335 
 ROSC BZ EP       1236 55.55                             117    0.48 8  254 211 
 ROSC BN ES   4   1237 28.69                             117    3.67 0  254 211 
 ROSC BZ I        1237 34.04        23.5 0.45            119            254 211 
 HEL  HZ EP       1236 57.98                             115    0.83 8  274 256 
 HEL  HN ES       1237 29.14                             115    0.43 8  274 256 
 HEL  HZ I        1237 35.14        11.8 0.36            117            274 256 
 URE  HZ EP       1236 57.31                             114   -0.60 7  285 292 
 URE  HE ES   4   1237 28.46                             114   -1.62 0  285 292 
 URE  HZ I        1237 29.76        10.8 0.10            116            285 292 
 SOCV BZ EP   4   1236 58.10                             113   -1.52 0  300  57 
 SOCV BN ES   4   1237 29.62                             113   -3.49 0  300  57 
 CBOC HZ EP       1237  4.36                             110    0.52 7  335 252 
 CBOC HN ES       1237 40.54                             110   -0.09 7  335 252 
 MON  HZ EP   9   1237  4.43                             109   -1.35 0  354 308 
 MON  HE ES       1237 42.57                             109   -0.16 6  354 308 
 MON  HZ I        1237 44.71         5.2 0.44            111            354 308 
 ANIL HN ES   4   1237 47.48                             109    1.68 0  359 225 
 ORTC HZ EP   1   1237 10.88                             107    0.03 4  397 216 
 ORTC HN ES       1237 53.62                             107    0.51 6  397 216 
 ORTC HZ I        1237 59.40         8.0 0.46            109            397 216 
 SJC  HZ EP   4   1237 10.85                             106   -1.41 0  409 327 
 SJC  HE ES   4   1237 51.90                             106   -3.72 0  409 327 
 SJC  HZ I        1237 56.27         4.9 0.50            108            409 327 
                                                                                
