 2014  725 1906 30.2 L   6.767 -73.180142.5  RSN  5 0.5 1.5LRSN                1
 GAP=197        1.11       7.6    11.0 10.8  0.4011E+02  0.6256E+01 -0.8955E+01E
 Epicentro: LOS SANTOS - SANTANDER                                             3
 ACTION:UPD 15-03-16 20:47 OP:nd   STATUS:               ID:20140725190630 L   I
 OLDACT:REG 14-07-25 21:14 OP:fm   STATUS:               ID:20140725185820     3
 2014-07-25-1858-20M.COL___260                                                 6
 STAT SP IPHASW D HRMM SECON CODA AMPLIT PERI AZIMU VELO AIN AR TRES W  DIS CAZ7
 BAR2 SZ ES   1   19 7  3.81                             172   -0.52 7 19.4 181 
 BAR2 SZ I        19 7  5.54         6.0 0.18            169           19.4 181 
 BRR  HZ EP       19 6 51.22                             152    0.2810 69.7 303 
 BRR  HN ES       19 7  7.74                             152    0.6510 69.7 303 
 BRR  HZ I        19 7  9.31         8.0 0.34            148           69.7 303 
 RUS  HZ EP   1   19 6 53.90                             144    0.48 7 97.3 174 
 RUS  HE ES   1   19 7 10.92                             144   -0.59 7 97.3 174 
 RUS  HZ I        19 7 12.67         3.3 0.44            144           97.3 174 
 PTB  HZ EP   1   19 6 56.44                             132   -0.08 7  143 260 
 PTB  HN ES   1   19 7 16.68                             132   -0.36 7  143 260 
 PTB  HZ I        19 7 22.83         4.4 0.42            129            143 260 
 SML  HN ES   1   19 7 34.42                             116   -1.01 6  245 336 
 SML  HZ I        19 7 38.99         5.0 0.28            117            245 336 
                                                                                
