 2013  325 1443 31.7 L   6.784 -73.149148.0  RSN  6 0.4 1.9LRSN                1
 GAP=137        0.91       4.6     4.1  6.3  0.1905E+01  0.5794E+01 -0.6134E+00E
 Epicentro: LOS SANTOS - SANTANDER                                             3
 ACTION:UPD 13-04-09 14:04 OP:ep   STATUS:               ID:20130325144331 L   I
 2013-03-25-1440-00M.COL___244                                                 6
 STAT SP IPHASW D HRMM SECON CODA AMPLIT PERI AZIMU VELO AIN AR TRES W  DIS CAZ7
 BAR2 SZ EP       1443 51.48                             171   -0.0510 21.5 190 
 BAR2 SZ ES       1444  7.14                             171    0.1210 21.5 190 
 BAR2 SZ I        1444 12.23         9.2 0.20            170           21.5 190 
 BRR  HZ EP       1443 53.28                             153    0.1910 71.8 300 
 BRR  HN ES       1444 10.41                             153    0.6110 71.8 300 
 BRR  HN I        1444 10.65        48.6 0.22            153           71.8 300 
 PAM  SZ IP     D 1443 54.37                             151    0.1510 79.0  39 
 PAM  SE ES       1444 11.24                             151   -0.5610 79.0  39 
 PAM  SE I        1444 12.49         9.6 0.28            155           79.0  39 
 RUS  HZ EP       1443 55.56                             145    0.0510 98.8 176 
 RUS  HN ES       1444 14.28                             145    0.1710 98.8 176 
 RUS  HN I        1444 17.09         6.4 0.44            147           98.8 176 
 PTB  HZ EP       1443 58.34                             133   -0.41 9  147 259 
 PTB  HN ES       1444 19.28                             133   -0.60 9  147 259 
 PTB  HN I        1444 21.58        12.7 0.44            134            147 259 
 ZAR  HZ EP   1   1444  4.74                             123    0.45 6  204 293 
 ZAR  HN ES       1444 29.78                             123    0.04 9  204 293 
 ZAR  HN I        1444 36.72        14.6 0.34            125            204 293 
                                                                                
