 2016 1125 1739 28.8 L   6.753 -73.135143.5  RSN  5 0.3 1.7LRSN                1
 GAP=160        0.68       5.6     3.3  5.4 -0.4147E+01  0.3981E+01  0.5710E+00E
 Epicentro: LOS SANTOS - SANTANDER                                             3
 ACTION:UPD 17-10-26 21:11 OP:lp   STATUS:               ID:20161125173928 L   I
 OLDACT:REG 16-11-25 20:34 OP:dani STATUS:               ID:20161125173746     3
 2016-11-25-1738-00M.COL___349                                                 6
 STAT SP IPHASW D HRMM SECON CODA AMPLIT PERI AZIMU VELO AIN AR TRES W  DIS CAZ7
 BAR2 EZ EP       1739 48.31                             172    0.2710 18.5 196 
 BAR2 EZ ES       1740  3.14                             172    0.0710 18.5 196 
 BAR2 EZ I        1740  4.55        12.4 0.18            174           18.5 196 
 BRR  HZ EP       1739 50.28                             151    0.3910 74.8 302 
 BRR  HN ES       1740  6.52                             151    0.1710 74.8 302 
 BRR  HZ I        1740  9.39         7.7 0.33            148           74.8 302 
 PAM  EZ EP       1739 50.82                             149   -0.1310 80.7  37 
 PAM  EN ES       1740  7.95                             149   -0.3010 80.7  37 
 PAM  EZ I        1740 10.34         9.2 0.51            149           80.7  37 
 PTB  HZ EP       1739 55.29                             131   -0.29 9  148 261 
 PTB  HN ES       1740 16.16                             131   -0.32 9  148 261 
 PTB  HZ I        1740 18.28         4.9 0.19            132            148 261 
 ZAR  HN ES       1740 26.91                             121    0.07 8  207 293 
 ZAR  HZ I        1740 32.75         5.0 0.25            121            207 293 
                                                                                
