 2012  125 1041 49.8 L   6.932 -73.284132.0  RSN  7 0.4 1.3LRSN                1
 GAP=108        0.86       6.4     8.1 10.1  0.2658E+00 -0.2230E+02  0.4854E+01E
 Epicentro: BETULIA - SANTANDER                                                3
 ACTION:UP  12-02-03 08:20 OP:REBC STATUS:               ID:20120125104149 L   I
 2012-01-25-1040-00M.COL___187                                                 6
 STAT SP IPHASW D HRMM SECON CODA AMPLIT PERI AZIMU VELO SNR AR TRES W  DIS CAZ7
 GIR2 SZ EP   3   1042  7.52                             171    -0.1 2   19  32 
 BAR2 SZ EP       1042  8.26                             163     0.010   39 163 
 BAR2 SZ ES   3   1042 21.13                             163    -1.6 2   39 163 
 BAR2 SZ I        1042 22.31         6.2 0.54                            39 163 
 BRR  HZ EP       1042  8.92                             158     0.510   51 292 
 BRR  HZ I        1042 14.60         5.4 0.60                            51 292 
 BRR  HN ES   1   1042 22.75                             158    -0.2 7   51 292 
 PAM  SE ES   2   1042 27.68                             148     0.7 5   79  55 
 RUS  HZ EP       1042 13.51                             136    -0.110  117 169 
 RUS  HZ I        1042 32.42         1.4 0.26                           117 169 
 PTB  HZ EP   3   1042 14.48                             131    -0.2 2  137 252 
 PTB  HN ES   2   1042 34.11                             131     0.1 5  137 252 
 PTB  HZ I        1042 35.41         2.1 0.16                           137 252 
 OCA  SZ EP       1042 15.23                             130    -0.4 9  145 358 
 OCA  SZ I        1042 20.23         6.2 0.33                           145 358 
                                                                                
