 2013  525 1042 47.6 L   6.919 -73.384117.4  RSN  4 0.2 1.2LRSN                1
 GAP=110        0.50       5.2     3.6  5.2 -0.1477E+01  0.4625E+01 -0.1503E+00E
 Epicentro: SAN VICENTE DE CHUCURI - SANTANDER                                 3
 ACTION:UPD 13-06-20 09:53 OP:ep   STATUS:               ID:20130525104247 L   I
 2013-05-25-1040-00M.COL___261                                                 6
 STAT SP IPHASW D HRMM SECON CODA AMPLIT PERI AZIMU VELO AIN AR TRES W  DIS CAZ7
 GIR2 SZ EP       1043  3.78                             166    0.0110 27.5  50 
 GIR2 SZ ES       1043 16.24                             166   -0.1710 27.5  50 
 GIR2 SZ I        1043 17.43         5.1 0.30            167           27.5  50 
 BRR  HZ EP   1   1043  4.44                             159    0.35 7 41.8 300 
 BRR  HN ES   1   1043 17.04                             159    0.07 7 41.8 300 
 BRR  HZ I        1043 19.57         2.7 0.26            158           41.8 300 
 BAR2 SZ EP   1   1043  4.20                             159   -0.27 7 42.4 148 
 BAR2 SZ ES       1043 17.82                             159    0.1710 42.4 148 
 BAR2 SZ I        1043 18.43         6.0 0.38            163           42.4 148 
 PTB  HN ES   1   1043 27.76                             130   -0.18 7  126 251 
                                                                                
