 2010  625 1038 48.9 L   6.794 -73.036148.4  RSN  5 0.1 1.9LRSN                1
 GAP=177        0.29       2.6     5.3  3.7  0.2081E+01 -0.4088E+01 -0.9842E+00E
 Epicentro: CEPITA - SANTANDER                                                 3
 ACTION:UP  10-08-24 10:13 OP:vdl  STATUS:               ID:20100625103848 L   I
 2010-06-25-1037-05S.COL___118                                                 6
 STAT SP IPHASW D HRMM SECON CODA AMPLIT PERI AZIMU VELO SNR AR TRES W  DIS CAZ7
 BAR2 SZ EP   1   1039  8.97                             169     0.0 7   28 216 
 BAR2 SZ ES   2   1039 24.47                             169    -0.1 5   28 216 
 BRR  HZ EP   1   1039 10.93                             149    -0.1 7   82 295 
 BRR  HN ES   2   1039 28.36                                     0.1 5   82 295 
 BRR  HZ I        1039 29.91        15.4 0.14                            82 295 
 RUS  HZ EP   1   1039 12.94                             145     0.1 7  100 183 
 RUS  HN ES   2   1039 31.54                             145     0.0 5  100 183 
 RUS  HZ I        1039 32.93        10.0 0.58                           100 183 
 GUE  SZ EP   1   1039 13.78                             140     0.0 7  115   6 
 PRA  HZ EP   1   1039 43.10                             107    -0.1 4  398 211 
 PRA  HZ I        1040 29.15         2.3 0.41                           398 211 
                                                                                
