 2016  425 1232 35.7 L   6.804 -73.185139.1  RSN  8 0.4 1.7LRSN                1
 GAP=131        0.63       4.4     3.6  6.7 -0.8298E+01  0.7680E+01  0.8333E+00E
 Epicentro: ZAPATOCA - SANTANDER                                               3
 ACTION:UPD 16-05-05 14:24 OP:rebc STATUS:               ID:20160425123235 L   I
 OLDACT:REG 16-04-25 22:11 OP:dnl  STATUS:               ID:20160425122743     3
 2016-04-25-1227-43M.COL___286                                                 6
 STAT SP IPHASW D HRMM SECON CODA AMPLIT PERI AZIMU VELO AIN AR TRES W  DIS CAZ7
 BAR2 EZ EP       1232 54.49                             170   -0.0710 23.4 179 
 BAR2 EZ ES   2   1233  9.11                             170   -0.14 5 23.4 179 
 BAR2 EZ I        1233 10.65        14.9 0.12            170           23.4 179 
 PAM  EZ EP       1232 57.47                             149    0.0710 79.9  42 
 PAM  EN ES       1233 14.37                             149    0.0710 79.9  42 
 PAM  EZ I        1233 16.22         5.5 0.15            155           79.9  42 
 RUS  HZ EP   2   1232 58.97                             142    0.07 5  101 174 
 RUS  HE ES   2   1233 17.00                             142    0.04 5  101 174 
 RUS  HZ I        1233 18.72         3.7 0.36            146            101 174 
 PTB  HZ EP       1233  1.33                             131   -0.45 9  144 258 
 PTB  HN ES       1233 21.86                             131   -0.23 9  144 258 
 PTB  HZ I        1233 25.65         7.6 0.12            132            144 258 
 SPBC HZ EP   2   1233  3.14                             128   -0.36 5  161 218 
 SPBC HN ES   2   1233 25.92                             128    0.76 5  161 218 
 SPBC HZ I        1233 32.43        10.1 0.22            130            161 218 
 ZAR  HZ EP   2   1233  8.28                             121    0.97 4  200 292 
 ZAR  HN ES   2   1233 32.27                             121    0.33 4  200 292 
 ZAR  HZ I        1233 38.57         5.6 0.14            123            200 292 
 NOR  HZ EP   4   1233 12.41                             117    1.68 0  231 234 
 NOR  HN ES       1233 38.35                             117    0.33 8  231 234 
 NOR  HZ I        1233 40.68         5.2 0.20            120            231 234 
 GUY2CHZ EP   4   1233 20.02                             111    1.36 0  298 234 
 GUY2CHN ES   4   1233 50.88                             111   -1.27 0  298 234 
 GUY2CHZ I        1234  1.32         2.5 0.30                           298 234 
                                                                                
