 2013  525 1524 23.5 L   6.821 -73.182142.1  RSN  5 0.5 1.4LRSN                1
 GAP=131        1.17       6.6     6.2  9.2 -0.7741E+01  0.8549E+01  0.3030E+01E
 Epicentro: ZAPATOCA - SANTANDER                                               3
 ACTION:UPD 13-06-20 09:53 OP:ep   STATUS:               ID:20130525152423 L   I
 2013-05-25-1520-00M.COL___261                                                 6
 STAT SP IPHASW D HRMM SECON CODA AMPLIT PERI AZIMU VELO AIN AR TRES W  DIS CAZ7
 BAR2 SZ EP       1524 42.38                             169   -0.3210 25.3 180 
 BAR2 SZ ES       1524 57.70                             169    0.0010 25.3 180 
 BAR2 SZ I        1524 59.04         9.7 0.28            170           25.3 180 
 BRR  HE ES   1   1525  0.86                             153    0.91 7 66.6 298 
 PAM  SZ EP       1524 46.04                             150    0.6910 78.3  43 
 PAM  SN ES       1525  1.78                             150   -0.6410 78.3  43 
 PAM  SZ I        1525  4.81         5.0 0.20            152           78.3  43 
 RUS  HZ EP       1524 46.85                             142   -0.2010  103 174 
 RUS  HE ES       1525  5.78                             142    0.3310  103 174 
 RUS  HZ I        1525  7.17         2.9 0.32            144            103 174 
 PTB  HZ EP       1524 49.83                             132    0.01 9  144 258 
 PTB  HN ES       1525  9.95                             132   -0.43 9  144 258 
 PTB  HZ I        1525 14.48         3.1 0.08            133            144 258 
                                                                                
