 2014  825 1734 49.5 L   6.757 -73.173147.8  RSN  5 0.3 1.9LRSN                1
 GAP=231        0.92       5.4     5.8  6.7  0.6689E+01  0.5020E+01  0.3399E+01E
 Epicentro: LOS SANTOS - SANTANDER                                             3
 ACTION:UPD 14-09-15 21:53 OP:nd   STATUS:               ID:20140825173449 L   I
 OLDACT:DUP 14-08-26 01:14 OP:stll STATUS:               ID:20140825172821d    3
 2014-08-25-1728-19M.COL___246                                                 6
 STAT SP IPHASW D HRMM SECON CODA AMPLIT PERI AZIMU VELO AIN AR TRES W  DIS CAZ7
 BAR2 SZ EP       1735  9.04                             173   -0.2310 18.2 183 
 BAR2 SZ ES       1735 24.12                             173   -0.5810 18.2 183 
 BAR2 SZ I        1735 25.52        23.4 0.20            168           18.2 183 
 BRR  HZ EP       1735 11.03                             153    0.1810 71.1 303 
 BRR  HN ES       1735 28.03                             153    0.5210 71.1 303 
 RUS  HZ EP       1735 13.04                             145   -0.0810 96.1 174 
 RUS  HN ES       1735 31.99                             145    0.4410 96.1 174 
 RUS  HZ I        1735 33.34         7.4 0.26            145           96.1 174 
 PTB  HZ EP       1735 15.94                             133   -0.34 9  144 260 
 PTB  HN ES       1735 36.94                             133   -0.23 9  144 260 
 PTB  HZ I        1735 44.40         7.8 0.30            131            144 260 
 SPBC HZ EP       1735 17.97                             131    0.35 9  158 219 
 SPBC HN ES       1735 39.50                             131   -0.06 9  158 219 
 SPBC HZ I        1735 42.76        13.7 0.22            129            158 219 
                                                                                
