 2010 1125 1455 21.1 L   6.890 -74.120 13.5  RSN  5 0.5 1.5LRSN                1
 GAP=178        1.14      10.4     5.5 15.1  0.1267E+02  0.4978E+02  0.1244E+03E
 Epicentro: PUERTO PARRA - SANTANDER                                           3
 ACTION:UP  10-12-17 16:55 OP:REBC STATUS:               ID:20101125145521 L   I
 2010-11-25-1450-50S.COL___131                                                 6
 STAT SP IPHASW D HRMM SECON CODA AMPLIT PERI AZIMU VELO SNR AR TRES W  DIS CAZ7
 BRR  HZ IP     D 1455 29.89                             102     0.310   51  62 
 BRR  HE ES   1   1455 35.86                             102    -0.4 7   51  62 
 BRR  HZ I        1455 36.11        27.7 0.12                            51  62 
 BAR2 SZ IP       1455 38.55                              95     0.010  109 108 
 BAR2 SZ ES   2   1455 51.11                              95    -0.9 5  109 108 
 BAR2 SZ I        1455 58.75         6.3 0.46                           109 108 
 RUS  HZ EP   1   1455 46.77                              56     0.7 7  159 134 
 RUS  HN ES   1   1456  5.37                              56    -0.1 7  159 134 
 RUS  HZ I        1456  8.20        12.1 0.54                           159 134 
 HEL  HZ EP   2   1455 48.54                              56     0.8 4  174 244 
 HEL  HE ES   1   1456  7.72                              56    -0.8 7  174 244 
 HEL  HZ I        1456  9.05         5.1 0.39                           174 244 
 RREF HZ EP   1   1455 58.25                              56    -0.4 6  259 212 
 RREF HZ I        1455 59.52         3.1 0.20                           259 212 
 RREF HN ES   1   1456 28.52                              56     0.6 6  259 212 
                                                                                
