 2016 1225 1335 36.6 L   6.718 -73.209154.7  RSN  4 0.4 1.1LRSN                1
 GAP=220        0.97       7.8     7.3  7.8  0.2742E+02  0.5517E+01  0.1648E+01E
 Epicentro: VILLANUEVA - SANTANDER                                             3
 ACTION:UPD 17-01-11 20:19 OP:rebc STATUS:               ID:20161225133536 L   I
 OLDACT:UP  16-12-25 23:01 OP:edw  STATUS:               ID:20161225132745     3
 OLDACT:REG 16-12-25 20:27 OP:edw  STATUS:               ID:20161225132745     3
 2016-12-25-1328-00M.COL___375                                                 6
 STAT SP IPHASW D HRMM SECON CODA AMPLIT PERI AZIMU VELO AIN AR TRES W  DIS CAZ7
 BAR2 EZ EP       1335 56.62                             175   -0.5010 14.2 168 
 BAR2 EZ ES       1336 12.71                             175   -0.4510 14.2 168 
 BAR2 EZ I        1336 13.27         3.0 0.38            174           14.2 168 
 BRR  HZ EP       1335 58.77                             154    0.1410 70.3 308 
 BRR  HE ES       1336 16.33                             154    0.4910 70.3 308 
 BRR  HZ I        1336 18.31         3.6 0.54            153           70.3 308 
 RUS  HZ EP       1336  1.12                             148    0.4810 92.3 171 
 RUS  HN ES       1336 19.62                             148    0.1910 92.3 171 
 RUS  HZ I        1336 20.42         1.8 0.32            149           92.3 171 
 PTB  HZ EP       1336  3.27                             136   -0.27 9  139 262 
 PTB  HN ES       1336 24.46                             136   -0.13 9  139 262 
 PTB  HZ I        1336 27.35         1.2 0.26            135            139 262 
                                                                                
