 2015  125 1954 43.0 L   6.806 -73.138145.8  RSN 13 0.5 2.5LRSN                1
 GAP=137        1.18       3.0     4.3  6.0 -0.2425E+01  0.7773E+01  0.3817E-02E
 Epicentro: LOS SANTOS - SANTANDER                                             3
 ACTION:UPD 15-03-02 15:42 OP:nd   STATUS:               ID:20150125195443 L   I
 OLDACT:DUP 15-01-26 01:31 OP:carl STATUS:               ID:20150125194749d    3
 2015-01-25-1947-47M.COL___271                                                 6
 STAT SP IPHASW D HRMM SECON CODA AMPLIT PERI AZIMU VELO AIN AR TRES W  DIS CAZ7
 BAR2 EZ EP       1955  2.77                             170    0.0710 24.2 192 
 BAR2 EZ ES       1955 17.65                             170   -0.3810 24.2 192 
 BAR2 EZ I        1955 18.72       100.4 0.36            170           24.2 192 
 BRR  HZ EP       1955  4.60                             152    0.3810 71.6 298 
 BRR  HN ES       1955 21.59                             152    0.8510 71.6 298 
 BRR  HZ I        1955 24.79        78.0 0.32            150           71.6 298 
 PAM  SZ IP     D 1955  5.61                             151    0.4110 76.3  39 
 PAM  SN ES       1955 22.60                             151    0.1210 76.3  39 
 PAM  SZ I        1955 24.70        85.1 0.54            154           76.3  39 
 RUS  HZ EP       1955  6.75                             144   -0.1010  101 177 
 RUS  HN ES       1955 25.40                             144   -0.0110  101 177 
 RUS  HZ I        1955 26.48        25.3 0.30            147            101 177 
 PTB  HZ EP       1955  9.96                             132   -0.15 9  149 259 
 PTB  HN ES       1955 30.32                             132   -0.89 9  149 259 
 PTB  HZ I        1955 32.85        46.3 0.44            131            149 259 
 OCA  HZ EP       1955 10.65                             130   -0.65 9  160 353 
 OCA  HN ES       1955 33.09                             130   -0.25 9  160 353 
 OCA  HZ I        1955 36.05        39.2 0.20            131            160 353 
 SPBC HN ES       1955 34.38                             129    0.42 9  164 219 
 SPBC HZ I        1955 41.04        35.0 0.22            130            164 219 
 ZAR  HZ EP       1955 16.54                             122    0.99 9  205 292 
 ZAR  HN ES       1955 41.03                             122    0.13 9  205 292 
 ZAR  HZ I        1955 47.32        54.1 0.28            122            205 292 
 NOR  HZ EP       1955 18.60                             118   -0.30 8  236 234 
 NOR  HN ES       1955 46.34                             118   -0.52 8  236 234 
 NOR  HZ I        1955 53.27        12.7 0.44            119            236 234 
 SML  HZ EP       1955 19.08                             117   -0.56 8  243 335 
 SML  HN ES       1955 47.57                             117   -0.62 8  243 335 
 SML  HZ I        1955 56.84        59.5 0.22            118            243 335 
 CHI  HZ EP       1955 21.11                             117    0.27 8  250 195 
 CHI  HN ES       1955 49.85                             117   -0.48 8  250 195 
 HEL  HZ EP       1955 24.10                             115    0.73 8  273 256 
 HEL  HN ES       1955 55.39                             115    0.56 8  273 256 
 HEL  HZ I        1956  0.86        12.9 0.38            115            273 256 
 GUY2CHZ EP       1955 26.92                             112    0.14 7  302 235 
 GUY2CHN ES       1956  0.46                             112   -0.44 7  302 235 
 GUY2CHZ I        1956 14.78         7.2 0.26                           302 235 
                                                                                
