 2017  125 1711 42.9 L   6.795 -73.165144.0  RSN 10 0.4 2.4LRSN                1
 GAP=134        0.91       3.4     3.7  5.1  0.3171E+00  0.5274E+01  0.4707E+01E
 Epicentro: LOS SANTOS - SANTANDER                                             3
 ACTION:UPD 17-05-22 16:03 OP:jn   STATUS:               ID:20170125171142 L   I
 OLDACT:UP  17-01-25 23:37 OP:dani STATUS:               ID:20170125170743     3
 OLDACT:UP  17-01-25 23:36 OP:dani STATUS:               ID:20170125170743     3
 OLDACT:UP  17-01-25 23:36 OP:dani STATUS:               ID:20170125170743     3
 OLDACT:REG 17-01-25 21:35 OP:dnl  STATUS:               ID:20170125170743     3
 2017-01-25-1708-00M.COL___360                                                 6
 STAT SP IPHASW D HRMM SECON CODA AMPLIT PERI AZIMU VELO AIN AR TRES W  DIS CAZ7
 BAR2 EZ EP     C 1712  2.11                             171   -0.1510 22.5 185 
 BAR2 EZ ES       1712 17.34                             171   -0.0610 22.5 185 
 BAR2 EZ I        1712 19.93        97.0 0.28            167           22.5 185 
 BRR  HZ IP     D 1712  3.94                             153    0.2010 69.7 300 
 BRR  HN ES       1712 20.64                             153    0.6310 69.7 300 
 BRR  HZ I        1712 24.92        49.9 0.28            151           69.7 300 
 PAM  EZ EP       1712  5.04                             150    0.0410 79.2  40 
 PAM  EN ES       1712 22.21                             150   -0.0610 79.2  40 
 PAM  EZ I        1712 25.18        26.9 0.32            157           79.2  40 
 RUS  HZ EP       1712  6.11                             144   -0.3010  100 175 
 RUS  HE ES       1712 24.86                             144    0.0810  100 175 
 RUS  HZ I        1712 26.04        30.9 0.36            145            100 175 
 PTB  HZ EP       1712  8.62                             132   -0.87 9  146 259 
 PTB  HN ES       1712 29.60                             132   -0.66 9  146 259 
 PTB  HZ I        1712 36.88        18.4 0.48            132            146 259 
 ZAR  HZ EP       1712 14.78                             122   -0.24 9  202 293 
 ZAR  HN ES       1712 40.50                             122    0.40 9  202 293 
 ZAR  HZ I        1712 45.33        26.4 0.24            124            202 293 
 NOR  HZ EP       1712 18.40                             118    0.13 8  233 234 
 NOR  HN ES       1712 46.03                             118    0.14 8  233 234 
 NOR  HZ I        1712 52.93        13.8 0.24            119            233 234 
 CHI  HZ EP       1712 20.47                             117    0.13 8  248 195 
 CHI  HN ES       1712 49.81                             117    0.24 8  248 195 
 CHI  HZ I        1712 55.19        12.9 0.30            119            248 195 
 ROSC BZ EP       1712 21.22                             117    0.51 8  251 211 
 ROSC BN ES   4   1712 52.71                             117    2.47 0  251 211 
 ROSC BZ I        1712 56.86        35.3 0.45            118            251 211 
 ORTC HZ EP       1712 36.77                             106    0.25 6  394 216 
 ORTC HN ES   3   1713 19.87                             106    1.50 1  394 216 
 ORTC HZ I        1713 26.08         6.9 0.37            108            394 216 
                                                                                
