 2013  925 1740 13.5 L   7.157 -73.325  0.0  RSN  4 0.6 1.2LRSN                1
 GAP=266        1.40      23.5    15.8 24.6  0.3501E+03  0.3462E+03  0.5179E+03E
 Epicentro: LEBRIJA - SANTANDER                                                3
 ACTION:UPD 13-10-22 09:25 OP:ep   STATUS:               ID:20130925174013 L   I
 OLDACT:REG 13-09-25 16:16 OP:stll STATUS:               ID:20130925173848     3
 2013-09-25-1738-48M.COL___252                                                 6
 STAT SP IPHASW D HRMM SECON CODA AMPLIT PERI AZIMU VELO AIN AR TRES W  DIS CAZ7
 BRR  HZ EP       1740 20.49                              47   -0.7010 43.1 263 
 BRR  HZ I        1740 27.48        14.0 0.26             47           43.1 263 
 BRR  HN ES       1740 28.03                              47    0.8310 43.1 263 
 RUS  HZ EP       1740 37.11                              47    0.38 9  142 169 
 RUS  HN ES       1740 54.67                              47   -0.19 9  142 169 
 RUS  HZ I        1741  0.17         2.2 0.28             47            142 169 
 PTB  HZ EP       1740 35.75                              47   -0.51 9  143 241 
 PTB  HN ES       1740 53.63                              47   -0.40 9  143 241 
 PTB  HZ I        1740 55.96         3.4 0.26             47            143 241 
 SPBC HZ EP       1740 43.41                              37    0.66 9  186 206 
 SPBC HZ I        1741  6.48         4.0 0.36             37            186 206 
                                                                                
