 2014 1025 1051 28.5 L   6.932 -73.116159.4  RSN 11 0.4 1.6LRSN                1
 GAP=133        0.99       3.6     5.4  6.4 -0.1624E+01  0.4429E+01  0.2998E+01E
 Epicentro: PIEDECUESTA - SANTANDER                                            3
 ACTION:UPD 14-11-29 23:56 OP:nd   STATUS:               ID:20141025105128 L   I
 OLDACT:REG 14-10-28 18:45 OP:spq  STATUS:               ID:20141025104745     3
 2014-10-25-1047-45M.COL___283                                                 6
 STAT SP IPHASW D HRMM SECON CODA AMPLIT PERI AZIMU VELO AIN AR TRES W  DIS CAZ7
 BAR2 SZ EP       1051 50.39                             166    0.2410 38.3 191 
 BAR2 SZ ES   1   1052  6.74                             166   -0.29 7 38.3 191 
 BAR2 SZ I        1052  8.26         5.1 0.26            168           38.3 191 
 PAM  SZ EP       1051 51.82                             157    0.2810 64.4  46 
 PAM  SN ES       1052  8.96                             157   -0.5310 64.4  46 
 PAM  SZ I        1052 11.39         9.5 0.46            159           64.4  46 
 BRR  HZ EP       1051 51.69                             155    0.6610 68.6 286 
 BRR  HN ES       1052  9.33                             155    0.7510 68.6 286 
 BRR  HZ I        1052 15.93        12.5 0.24            155           68.6 286 
 RUS  HZ EP       1051 54.80                             143    0.1410  115 178 
 RUS  HE ES   1   1052 14.73                             143   -0.31 7  115 178 
 RUS  HZ I        1052 16.02         2.4 0.28            147            115 178 
 OCA  HZ EP   1   1051 56.84                             135    0.15 7  146 351 
 OCA  HN ES       1052 18.50                             135   -0.17 9  146 351 
 OCA  HZ I        1052 27.50         5.0 0.30            137            146 351 
 PTB  HZ EP       1051 56.77                             134   -0.44 9  154 254 
 PTB  HE ES       1052 19.26                             134   -0.33 9  154 254 
 PTB  HZ I        1052 21.76         4.5 0.20            135            154 254 
 SML  HZ EP   1   1052  4.21                             121   -0.51 6  232 333 
 SML  HN ES   1   1052 32.44                             121   -0.51 6  232 333 
 CHI  HZ EP   1   1052  9.08                             118    0.48 6  264 195 
 CHI  HN ES   1   1052 39.54                             118   -0.33 6  264 195 
 CHI  HZ I        1052 43.68         2.4 0.42            121            264 195 
 GUY2CHZ EP   1   1052 13.46                             114   -0.58 5  312 233 
 GUY2CHN ES   4   1052 53.01                             114    3.46 0  312 233 
 GUY2CHZ I        1053  0.63         2.8 0.36                           312 233 
 MON  HZ EP   4   1052 15.53                             111   -1.84 0  347 306 
 MON  HN ES   4   1052 53.10                             111   -2.37 0  347 306 
 MON  HZ I        1052 57.03         1.1 0.30            113            347 306 
 SJC  HZ EP   4   1052 21.78                             108   -1.58 0  399 325 
 SJC  HN ES   4   1053  0.42                             108   -5.72 0  399 325 
 SJC  HZ I        1053  7.62         1.8 0.26            110            399 325 
                                                                                
