 2013 1125 1352 23.5 L   6.801 -73.144154.3  RSN  6 0.4 2.1LRSN                1
 GAP=151        0.91       6.7     5.9  7.6  0.1842E+01 -0.2886E+01 -0.1560E+02E
 Epicentro: LOS SANTOS - SANTANDER                                             3
 ACTION:UPD 14-01-09 16:31 OP:ep   STATUS:               ID:20131125135223 L   I
 OLDACT:UP  13-11-25 16:13 OP:cam  STATUS:               ID:20131125135000     3
 OLDACT:REG 13-11-25 15:41 OP:cam  STATUS:               ID:20131125135000     3
 2013-11-25-1350-00M.COL___282                                                 6
 STAT SP IPHASW D HRMM SECON CODA AMPLIT PERI AZIMU VELO AIN AR TRES W  DIS CAZ7
 BAR2 SZ EP       1352 44.09                             171   -0.0510 23.4 190 
 BAR2 SZ ES   1   1352 59.64                             171   -0.61 7 23.4 190 
 BAR2 SZ I        1353  0.63        19.8 0.22            174           23.4 190 
 BRR  HZ EP       1352 45.90                             154    0.3410 71.3 298 
 BRR  HN ES       1353  3.28                             154    0.4910 71.3 298 
 PAM  SZ EP   1   1352 46.89                             152    0.29 7 77.2  39 
 PTB  HZ EP       1352 51.09                             134   -0.08 9  148 259 
 PTB  HN ES       1353 12.28                             134   -0.49 9  148 259 
 PTB  HZ I        1353 14.73        10.8 0.36            133            148 259 
 ZAR  HZ EP   1   1352 56.71                             124    0.20 6  204 292 
 ZAR  HN ES   1   1353 22.75                             124    0.48 6  204 292 
 ZAR  HZ I        1353 28.03         6.8 0.36            123            204 292 
 SML  HZ EP       1353  0.50                             119   -0.10 8  244 335 
 SML  HN ES   1   1353 28.66                             119   -0.89 6  244 335 
 SML  HZ I        1353 36.41        15.2 0.10            118            244 335 
                                                                                
