 2012 1025 1133 52.3 L   6.782 -73.125144.0  RSN 13 0.3 2.9LRSN                1
 GAP= 67        0.71       2.7     2.8  4.2  0.6711E+00  0.2248E+01  0.3865E+01E
 Epicentro: LOS SANTOS - SANTANDER                                             3
 XNEAR  100.0 XFAR  800.0 SDEP 100.0                                           3
 ACTION:UP  12-11-22 17:05 OP:ep   STATUS:               ID:20121025113352 L   I
 2012-10-25-1130-00M.COL___234                                                 6
 STAT SP IPHASW D HRMM SECON CODA AMPLIT PERI AZIMU VELO AIN AR TRES W  DIS CAZ7
 BAR2 SZ IP       1134 11.62                             171   -0.0710 22.0 197 
 BAR2 SZ ES   1   1134 26.96                             171    0.14 7 22.0 197 
 BAR2 SZ I        1134 27.86       356.7 0.18                          22.0 197 
 GIR2 SZ EP       1134 11.73                             166   -0.1010 33.7 347 
 BRR  HZ EP       1134 13.59                             151    0.1610 74.2 299 
 BRR  HN ES       1134 30.45                             151    0.5310 74.2 299 
 BRR  HZ I        1134 34.94       107.8 0.20                          74.2 299 
 PAM  SZ EP       1134 14.48                             150    0.1410 77.5  37 
 PAM  SZ I        1134 14.84       173.9 0.24                          77.5  37 
 PAM  SE ES       1134 30.94                             150   -0.5810 77.5  37 
 RUS  HZ EP       1134 15.54                             144   -0.1910 98.5 177 
 RUS  HN ES       1134 33.65                             144   -0.3510 98.5 177 
 RUS  HN I        1134 35.14                                           98.5 177 
 TAM  HZ EP       1134 19.93                             131    0.35 9  152 104 
 TAM  HZ I        1134 20.09        71.2 0.19                           152 104 
 YOP  SZ EP       1134 22.21                             126    0.27 9  176 154 
 YOP  SN ES   1   1134 45.53                             126    0.47 7  176 154 
 YOP  SZ I        1134 49.18        62.3 0.54                           176 154 
 ZAR  HZ EP   1   1134 24.80                             121   -0.13 6  207 292 
 ZAR  HE ES   1   1134 50.24                             121   -0.15 6  207 292 
 ZAR  HZ I        1134 57.11        46.4 0.33                           207 292 
 CHI  HZ EP   1   1134 29.51                             117   -0.25 6  247 196 
 CHI  HE ES   2   1134 59.47                             117    0.49 4  247 196 
 ROSC BZ EP   1   1134 30.63                             116    0.35 6  252 212 
 ROSC BZ I        1135  7.78        42.9 0.63                           252 212 
 HEL  HZ EP   1   1134 32.50                             114   -0.13 6  274 256 
 HEL  HN ES   1   1135  3.87                             114   -0.21 6  274 256 
 HEL  HZ I        1135 10.45        28.3 0.45                           274 256 
 RREF HZ EP   1   1134 38.81                             110    0.38 5  322 230 
 RREF HN ES   1   1135 14.38                             110   -0.02 5  322 230 
 RREF HZ I        1135 23.24        31.9 0.27                           322 230 
 PRA  HZ EP       1134 45.03                             106   -0.67 6  391 210 
 PRA  HN ES   1   1135 26.84                             106   -0.51 4  391 210 
 PRA  HZ I        1135 33.42        28.0 0.32                           391 210 
                                                                                
