 2016  525 1518 10.9 L   6.867 -73.350125.2  RSN  8 0.4 1.9LRSN                1
 GAP= 95        1.15       3.7     4.9  7.3 -0.4539E+01  0.4828E+01 -0.5822E+00E
 Epicentro: SAN VICENTE DE CHUCURI - SANTANDER                                 3
 ACTION:UPD 16-08-18 17:49 OP:cam  STATUS:               ID:20160525151810 L   I
 OLDACT:UP  16-06-01 05:06 OP:dnl  STATUS:               ID:20160525151810 L   3
 OLDACT:REG 16-05-25 21:42 OP:ar   STATUS:               ID:20160525150744     3
 2016-05-25-1507-44M.COL___313                                                 6
 STAT SP IPHASW D HRMM SECON CODA AMPLIT PERI AZIMU VELO AIN AR TRES W  DIS CAZ7
 BAR2 EZ IP     C 1518 28.53                             163    0.0710 35.6 149 
 BAR2 EZ ES       1518 41.70                             163   -0.4210 35.6 149 
 BAR2 EZ I        1518 42.83        51.9 0.26            164           35.6 149 
 BRR  HZ EP       1518 28.89                             158    0.2810 48.0 304 
 BRR  HN ES       1518 43.10                             158    0.7010 48.0 304 
 PAM  EZ EP       1518 31.87                             143    0.0510 88.9  54 
 PAM  EN ES       1518 48.00                             143   -0.1010 88.9  54 
 PAM  EZ I        1518 50.24        14.2 0.24            137           88.9  54 
 RUS  HZ EP       1518 33.97                             136    0.3310  112 165 
 RUS  HN ES       1518 50.98                             136   -0.3710  112 165 
 RUS  HZ I        1518 52.02         6.5 0.26            131            112 165 
 PTB  HZ EP       1518 33.76                             131   -0.6310  128 254 
 PTB  HE ES       1518 51.99                             131   -0.7010  128 254 
 PTB  HZ I        1518 55.38        13.2 0.40            122            128 254 
 OCA  HZ EP       1518 36.45                             126   -0.44 9  152   1 
 OCA  HZ I        1518 52.92        29.3 0.22            118            152   1 
 OCA  HN ES       1518 57.33                             126    0.20 9  152   1 
 SPBC HZ EP       1518 37.67                             125    0.42 9  156 211 
 SPBC HN ES       1518 58.40                             125    0.63 9  156 211 
 SPBC HZ I        1519  9.78         7.6 0.10            118            156 211 
 URE  HN ES   4   1519 17.49                             111   -0.09 0  260 292 
 URE  HZ I        1519 27.91         4.1 0.14            104            260 292 
                                                                                
