 2012  425 1915  4.8 L   7.403 -73.201131.2  RSN  6 0.3 1.4LRSN                1
 GAP=184        0.64       5.1     3.6  6.5  0.1890E+01  0.4957E+01  0.2327E+01E
 Epicentro: EL PLAYON - SANTANDER                                              3
 ACTION:UPD 12-07-05 11:55 OP:tino STATUS:               ID:20120425191504 L   I
 2012-04-25-1910-00M.COL___186                                                 6
 STAT SP IPHASW D HRMM SECON CODA AMPLIT PERI AZIMU VELO AIN AR TRES W  DIS CAZ7
 PAM  SZ EP   1   1915 24.50                             156     0.3 7   56  97 
 PAM  SN ES   1   1915 39.38                             156     0.0 7   56  97 
 PAM  SZ I        1915 41.23         3.1 0.16                            56  97 
 BRR  HZ EP   1   1915 24.30                             152     0.3 7   65 240 
 BRR  HN ES   1   1915 38.94                             152    -0.1 7   65 240 
 BRR  HZ I        1915 40.90         7.8 0.15                            65 240 
 BAR2 SZ EP   1   1915 25.96                             144     0.0 7   90 179 
 BAR2 SZ ES   1   1915 42.25                             144    -0.2 7   90 179 
 BAR2 SZ I        1915 43.96         6.4 0.09                            90 179 
 PTB  HZ EP   1   1915 32.61                             124     0.0 7  168 236 
 PTB  HE ES   1   1915 54.90                             124     0.5 7  168 236 
 PTB  HZ I        1915 57.91         2.5 0.14                           168 236 
 RUS  HZ EP   1   1915 32.73                             125    -0.4 7  168 176 
 RUS  HE ES   1   1915 55.41                             125     0.1 7  168 176 
 ZAR  HN ES   1   1915 56.60                             122    -0.4 7  183 273 
                                                                                
