 2016 1225 1941 45.8 L   6.715 -72.860  1.7  RSN 18 0.4 2.7LRSN                1
 GAP= 91        2.03       5.4     4.5  8.6  0.4097E+01  0.1293E+02  0.1133E+02E
 Epicentro: MOLAGAVITA - SANTANDER                                             3
 ACTION:UPD 17-01-11 20:19 OP:rebc STATUS:               ID:20161225194145 L   I
 OLDACT:UP  16-12-26 01:07 OP:edw  STATUS:               ID:20161225193745     3
 OLDACT:UP  16-12-26 01:06 OP:edw  STATUS:               ID:20161225193745     3
 OLDACT:UP  16-12-26 01:05 OP:edw  STATUS:               ID:20161225193745     3
 OLDACT:UP  16-12-26 01:00 OP:edw  STATUS:               ID:20161225193745     3
 OLDACT:REG 16-12-25 21:02 OP:edw  STATUS:               ID:20161225193745     3
 2016-12-25-1938-00M.COL___384                                                 6
 STAT SP IPHASW D HRMM SECON CODA AMPLIT PERI AZIMU VELO AIN AR TRES W  DIS CAZ7
 BAR2 EZ IP   9 D 1941 49.77                              47   -2.95 0 38.1 249 
 BAR2 HN ES       1941 54.09                              47   -1.1010 38.1 249 
 BAR2 EZ I        1941 54.92       555.4 0.28             47           38.1 249 
 PAM  EZ IP       1941 57.19                              47   -0.8110 71.3  14 
 PAM  EE ES       1942  7.99                              47    0.4510 71.3  14 
 PAM  EZ I        1942  8.39       130.1 0.16             47           71.3  14 
 RUS  HZ IP   9 C 1941 57.75                              47   -3.74 0 94.3 195 
 RUS  HE ES       1942  7.83                                   -2.1810 94.3 195 
 RUS  HZ I        1942  9.07       269.7 0.20             47           94.3 195 
 BRR  HZ EP       1942  2.20                              47   -0.2010  104 295 
 BRR  HN ES       1942 15.39                              47    0.0210  104 295 
 BRR  HZ I        1942 17.27       212.2 0.14             47            104 295 
 TAM  HZ EP     D 1942  5.45                              47    0.1910  122 105 
 TAM  HN ES       1942 20.45                              47   -0.0010  122 105 
 TAM  HZ I        1942 24.75       108.6 0.24             47            122 105 
 PTB  HZ EP   9   1942 12.30                              47   -1.32 0  178 264 
 PTB  HE ES       1942 34.63                              47    0.61 9  178 264 
 ZAR  HZ EP       1942 21.38                              37    0.35 8  237 291 
 ZAR  HN ES       1942 48.17                              37   -0.37 8  237 291 
 ZAR  HZ I        1942 50.25       129.1 0.40             37            237 291 
 CHI  HZ EP       1942 23.41                              37    0.24 8  250 203 
 CHI  HN ES       1942 52.72                              37    0.38 8  250 203 
 CHI  HZ I        1943  1.89        47.6 0.42             37            250 203 
 PTGC HZ EP   4   1942 28.90                              37    1.27 0  290 164 
 PTGC HE ES   4   1943  2.98                              37    2.71 0  290 164 
 PTGC HZ I        1943  8.45        29.7 0.34             37            290 164 
 VIL  EZ EP   4   1942 31.02                              36    1.67 0  302 198 
 VIL  EN ES   4   1943 10.99                              36    7.65 0  302 198 
 VIL  EZ I        1943 18.34        43.0 0.58             36            302 198 
 URE  HZ EP   4   1942 32.43                              36    1.45 0  317 291 
 URE  HN ES   4   1943 10.41                              36    4.17 0  317 291 
 URE  HZ I        1943 15.88        29.8 0.20             36            317 291 
 GUY2CHZ EP   4   1942 32.04                              36   -0.24 0  323 239 
 GUY2CHE ES   4   1943  8.90                              36    0.35 0  323 239 
 GUY2CHZ I        1943 13.53        30.8 0.30                           323 239 
 ELA  HZ EP   4   1942 36.68                              36    1.19 0  348 234 
 ELA  HE ES   4   1943 17.08                              36    2.81 0  348 234 
 ELA  HZ I        1943 17.30        15.6 0.44             36            348 234 
 CBOC HZ EP   4   1942 39.01                              36    2.33 0  361 255 
 CBOC HE ES   4   1943 21.17                              36    4.78 0  361 255 
 ANIL HZ EP   4   1942 40.44                              36    2.05 0  374 229 
 ANIL HN ES   4   1943 23.94                              36    4.50 0  374 229 
 ANIL HZ I        1943 26.86        41.7 0.44             36            374 229 
 ORTC HZ EP   4   1942 45.07                              36    2.82 0  408 221 
 ORTC HN ES   4   1943 35.22                              36    8.92 0  408 221 
 ORTC HZ I        1943 37.56        14.4 0.28             36            408 221 
 SJC  HZ EP   4   1942 47.08                              36    1.45 0  435 324 
 SJC  HN ES   4   1943 34.68                              36    2.37 0  435 324 
 SJC  HZ I        1943 56.84         5.1 0.70             36            435 324 
 CRJC HZ EP   4   1943  3.59                              36   12.83 0  476 360 
 CRJC HE ES   4   1943 58.20                              36   16.75 0  476 360 
 CRJC HZ I        1944  6.69         9.6 0.28             36            476 360 
 YOT  HZ EP   4   1943  0.88                              36    8.33 0  490 232 
 YOT  HE ES   4   1943 52.62                              36    7.98 0  490 232 
 MACC HZ EP   4   1943  7.45                              36   11.72 0  517 192 
 MACC HN ES   4   1944  3.06                              36   12.77 0  517 192 
 MACC HZ I        1944  9.35         9.8 0.34             36            517 192 
                                                                                
