 2010 1025 1520 57.7 L   6.803 -73.083148.1  RSN  5 0.3 1.7LRSN                1
 GAP=171        0.51       3.7     9.1  7.2 -0.2010E+01 -0.1202E+02  0.6716E+01E
 Epicentro: LOS SANTOS - SANTANDER                                             3
 ACTION:UP  11-02-18 11:12 OP:tino STATUS:               ID:20101025152057 L   I
 2010-10-25-1517-55S.COL___125                                                 6
 STAT SP IPHASW D HRMM SECON CODA AMPLIT PERI AZIMU VELO SNR AR TRES W  DIS CAZ7
 BRR  HZ EP   1   1521 19.40                             151     0.010   77 296 
 BRR  HE ES   2   1521 36.47                             151     0.1 6   77 296 
 BRR  HZ I        1521 37.03        17.0 0.20                            77 296 
 RUS  HZ EP   1   1521 21.89                             144     0.210  101 180 
 RUS  HZ I        1521 22.87         4.8 0.17                           101 180 
 RUS  HN ES   2   1521 39.94                             144    -0.4 6  101 180 
 GUE  SZ EP   1   1521 22.50                             140     0.0 9  115   9 
 CHI  HZ EP       1521 35.82                             117     0.110  251 197 
 CHI  HE ES   2   1522  5.91                             117     0.5 5  251 197 
 PRA  HZ EP   1   1521 51.10                             107    -0.6 6  396 210 
                                                                                
