 2017 1025 1157 34.4 L   7.264 -73.992 17.2  RSN  5 0.4 1.1LRSN                1
 GAP=162        0.96       3.5     2.1  4.2  0.1574E+01 -0.3375E+01 -0.2634E+01E
 Epicentro: PUERTO WILCHES - SANTANDER                                         3
 ACTION:UPD 17-11-07 19:36 OP:rebc STATUS:               ID:20171025115734 L   I
 OLDACT:REG 17-10-25 20:15 OP:dhb  STATUS:               ID:20171025114743     3
 2017-10-25-1148-00M.COL___437                                                 6
 STAT SP IPHASW D HRMM SECON CODA AMPLIT PERI AZIMU VELO AIN AR TRES W  DIS CAZ7
 BRR  HZ IP     D 1157 40.75                             113    0.0010 35.5 119 
 BRR  HN ES       1157 45.86                             113    0.1510 35.5 119 
 BRR  HZ I        1157 46.87        13.0 0.16            104           35.5 119 
 PTB  HZ EP       1157 49.37                              98   -0.1810 95.2 213 
 PTB  HE ES       1158  0.97                              98   -0.4210 95.2 213 
 PTB  HZ I        1158  1.47         3.5 0.22             95           95.2 213 
 ZAR  HZ EP       1157 50.43                              98    0.3310 98.9 285 
 ZAR  HN ES       1158  2.41                              98    0.0410 98.9 285 
 ZAR  HZ I        1158  4.96         2.9 0.42             94           98.9 285 
 PAM  EZ EP       1157 57.12                              56    0.16 9  143  87 
 PAM  EN ES       1158 13.89                              56   -0.69 9  143  87 
 PAM  EZ I        1158 15.79         4.9 0.22             93            143  87 
 RUS  HN ES       1158 23.96                              56    0.70 9  182 146 
 RUS  HZ I        1158 25.57         2.0 0.23             56            182 146 
                                                                                
