 2010 1025 1843 37.4 L   6.154 -73.667103.9  RSN  7 0.3 2.0LRSN                1
 GAP= 86        0.58       3.2     4.3  8.1 -0.3009E+01  0.1692E+02  0.1543E+00E
 Epicentro: LA PAZ - SANTANDER                                                 3
 ACTION:UP  11-02-18 11:12 OP:tino STATUS:               ID:20101025184337 L   I
 2010-10-25-1838-38S.COL___125                                                 6
 STAT SP IPHASW D HRMM SECON CODA AMPLIT PERI AZIMU VELO SNR AR TRES W  DIS CAZ7
 RUS  HZ EP   1   1843 54.81                             143    -0.1 7   71 114 
 RUS  HN ES   2   1844  7.77                             143    -0.7 5   71 114 
 RUS  HZ I        1844 12.34         8.5 0.36                            71 114 
 BAR2 SZ EP   1   1843 54.81                             143     0.2 7   72  48 
 BAR2 SZ ES   2   1844  8.29                             143     0.2 5   72  48 
 BAR2 SZ I        1844  9.96        98.3 0.20                            72  48 
 BRR  HZ EP   1   1843 56.88                             131    -0.2 7  106 357 
 BRR  HZ I        1843 57.21        35.9 0.12                           106 357 
 BRR  HE ES   2   1844 12.86                             131     0.4 5  106 357 
 NOR  SZ EP   1   1844  1.24                             120    -0.2 7  149 244 
 NOR  SN ES   2   1844 20.31                             120     0.1 5  149 244 
 CHI  HZ EP   1   1844  4.26                             117     0.2 7  169 182 
 CHI  HN ES   2   1844 25.49                             117     0.6 5  169 182 
 CHI  HZ I        1844 32.14         6.7 0.37                           169 182 
 GUE  SZ EP   1   1844  7.80                             112     0.1 6  203  24 
 HEL  HZ EP   1   1844  8.07                             111    -0.1 6  206 271 
 HEL  HZ I        1844 37.55         8.9 0.65                           206 271 
                                                                                
