 2012  925 1929 41.7 L   6.785 -73.190141.0  RSN  6 0.2 1.6LRSN                1
 GAP=174        0.40       4.2     3.8  5.2  0.9896E+01  0.2697E+01  0.1323E+01E
 Epicentro: LOS SANTOS - SANTANDER                                             3
 ACTION:UPD 12-10-22 14:20 OP:ep   STATUS:               ID:20120925192941 L   I
 2012-09-25-1926-38M.COL___215                                                 6
 STAT SP IPHASW D HRMM SECON CODA AMPLIT PERI AZIMU VELO AIN AR TRES W  DIS CAZ7
 BAR2 SZ EP   2   1930  0.48                             171   -0.26 5 21.4 178 
 BAR2 SZ ES   1   1930 15.70                             171    0.13 7 21.4 178 
 BAR2 SZ I        1930 16.38        10.6 0.29                          21.4 178 
 GIR2 SZ EP   2   1930  0.88                             166    0.02 5 32.4 359 
 BRR  HN ES   1   1930 17.92                             153   -0.18 7 67.8 302 
 BRR  HZ I        1930 22.16        17.1 0.09                          67.8 302 
 RUS  HZ EP   1   1930  4.90                             143   -0.02 7 99.4 173 
 RUS  HN ES   1   1930 23.12                             143    0.11 7 99.4 173 
 RUS  HZ I        1930 24.93         2.8 0.31                          99.4 173 
 PTB  HE ES   1   1930 28.00                             132   -0.20 7  143 259 
 ZAR  HE ES   1   1930 38.53                             122    0.33 6  200 293 
                                                                                
