 2016  625 1526 46.2 L   6.812 -73.143145.5  RSN 13 0.4 2.3LRSN                1
 GAP=103        0.89       3.3     2.7  5.4 -0.6619E+00  0.2388E+01  0.4871E+01E
 Epicentro: LOS SANTOS - SANTANDER                                             3
 ACTION:UPD 16-07-21 22:22 OP:rebc STATUS:               ID:20160625152646 L   I
 OLDACT:REG 16-06-25 20:53 OP:dnl  STATUS:               ID:20160625151740     3
 2016-06-25-1517-40M.COL___333                                                 6
 STAT SP IPHASW D HRMM SECON CODA AMPLIT PERI AZIMU VELO AIN AR TRES W  DIS CAZ7
 BRR  HZ EP       1527  7.41                             152    0.1610 70.8 297 
 BRR  HN ES       1527 24.33                             152    0.6310 70.8 297 
 BRR  HZ I        1527 25.45        42.3 0.14                          70.8 297 
 PAM  EZ EP       1527  8.40                             151    0.1410 76.1  40 
 PAM  EN ES       1527 25.44                             151   -0.0710 76.1  40 
 PAM  EZ I        1527 27.27        18.8 0.22                          76.1  40 
 RUS  HZ EP       1527  9.61                             143   -0.3610  102 176 
 RUS  HN ES       1527 28.33                             143   -0.2210  102 176 
 RUS  HZ I        1527 29.38        24.4 0.36                           102 176 
 PTB  HZ EP       1527 12.28                             132   -0.87 9  148 258 
 PTB  HE ES       1527 33.77                             132   -0.43 9  148 258 
 PTB  HZ I        1527 35.75        27.3 0.24                           148 258 
 TAM  HZ EP       1527 13.97                             130    0.16 9  155 106 
 TAM  HN ES       1527 35.37                             130   -0.02 9  155 106 
 TAM  HZ I        1527 41.89        18.3 0.48                           155 106 
 SPBC HZ EP       1527 14.60                             129   -0.15 9  164 219 
 SPBC HN ES       1527 37.29                             129    0.24 9  164 219 
 SPBC HZ I        1527 39.35        30.3 0.24                           164 219 
 ZAR  HZ EP       1527 19.31                             122    0.76 9  204 292 
 ZAR  HN ES       1527 43.49                             122   -0.34 9  204 292 
 ZAR  HZ I        1527 49.66        23.8 0.54                           204 292 
 NOR  HZ EP       1527 21.86                             118   -0.11 8  236 234 
 NOR  HN ES       1527 49.79                             118   -0.13 8  236 234 
 NOR  HZ I        1527 53.81        22.1 0.18                           236 234 
 CHI  HZ EP   2   1527 24.05                             117    0.06 4  250 195 
 CHI  HN ES   2   1527 53.57                             117    0.07 4  250 195 
 CHI  HZ I        1528  0.54        10.3 0.44                           250 195 
 ROSC BZ EP   4   1527 25.68                             116    1.28 0  254 211 
 ROSC BE ES   4   1527 56.14                             116    1.91 0  254 211 
 ROSC BZ I        1528  2.50        19.6 0.35                           254 211 
 GUY2CHZ EP   4   1527 31.25                             112    1.39 0  302 235 
 GUY2CHN ES   2   1528  3.89                             112   -0.07 4  302 235 
 GUY2CHZ I        1528 10.60         9.3 0.22                           302 235 
 PRA  HZ EP       1527 39.98                             106    0.16 6  393 210 
 PRA  HN ES       1528 22.68                             106    1.00 6  393 210 
 PRA  HZ I        1528 28.46        14.5 0.26                           393 210 
 ORTC HZ EP       1527 40.43                             106    0.22 6  397 216 
 ORTC HN ES   2   1528 22.69                             106    0.31 3  397 216 
 ORTC HZ I        1528 27.68         8.1 0.62                           397 216 
                                                                                
