 2012  125 1443 51.5 L   6.396 -73.592112.2  RSN  4 0.3 1.3LRSN                1
 GAP=145        0.62       4.9     4.2 10.1  0.1021E+01  0.1043E+02  0.1020E+02E
 Epicentro: SANTA HELENA DEL OPON - SANTANDER                                  3
 ACTION:UP  12-02-03 08:20 OP:REBC STATUS:               ID:20120125144351 L   I
 2012-01-25-1440-00M.COL___187                                                 6
 STAT SP IPHASW D HRMM SECON CODA AMPLIT PERI AZIMU VELO SNR AR TRES W  DIS CAZ7
 BAR2 SZ EP       1444  8.20                             154     0.010   50  64 
 BAR2 SZ I        1444 21.89        11.5 0.22                            50  64 
 RUS  HZ EP       1444 10.73                             142     0.310   79 135 
 RUS  HN ES   2   1444 24.56                             142    -0.6 5   79 135 
 GIR2 SZ EP       1444 10.47                             139    -0.110   87  30 
 GIR2 SZ ES   1   1444 25.52                             139     0.1 7   87  30 
 PTB  HZ EP       1444 11.02                             136    -0.210   97 279 
 PTB  HZ I        1444 16.56         2.0 0.78                            97 279 
 PTB  HN ES   2   1444 26.89                             136     0.4 5   97 279 
                                                                                
