 2014  525 1336  8.1 L   6.805 -73.149137.6  RSN 10 0.4 1.9LRSN                1
 GAP=183        1.02       2.8     5.2  6.8  0.2807E+00  0.3924E+01  0.1541E+01E
 Epicentro: LOS SANTOS - SANTANDER                                             3
 ACTION:UPD 15-03-16 17:00 OP:nd   STATUS:               ID:20140525133608 L   I
 OLDACT:UP  14-05-26 00:45 OP:spq  STATUS:               ID:20140525132817     3
 OLDACT:REG 14-05-25 20:24 OP:spq  STATUS:               ID:20140525132817     3
 2014-05-25-1328-17M.COL___230                                                 6
 STAT SP IPHASW D HRMM SECON CODA AMPLIT PERI AZIMU VELO AIN AR TRES W  DIS CAZ7
 BRR  HZ IP     D 1336 29.03                             151    0.6910 70.6 298 
 BRR  HN ES       1336 44.98                             151    0.8510 70.6 298 
 BRR  HZ I        1336 46.70        16.7 0.12            152           70.6 298 
 RUS  HZ EP   1   1336 31.04                             142   -0.06 7  101 176 
 RUS  HN ES       1336 48.80                             142   -0.2410  101 176 
 RUS  HZ I        1336 51.70        11.0 0.25            144            101 176 
 PTB  HZ EP       1336 34.11                             130   -0.28 9  147 259 
 PTB  HN ES       1336 54.41                             130   -0.49 9  147 259 
 PTB  HZ I        1336 57.03        12.0 0.20            132            147 259 
 OCA  HN ES       1336 56.56                             128   -0.73 9  160 353 
 OCA  HZ I        1337  1.73         7.0 0.34            129            160 353 
 SPBC HZ EP       1336 35.62                             127   -0.38 9  163 219 
 SPBC HN ES       1336 57.68                             127   -0.09 9  163 219 
 SPBC HZ I        1337  0.78        15.5 0.20            129            163 219 
 ZAR  HZ EP       1336 39.96                             121   -0.01 9  204 292 
 ZAR  HN ES       1337  4.70                             121   -0.13 9  204 292 
 ZAR  HZ I        1337 10.86        10.8 0.36            122            204 292 
 NOR  HZ EP       1336 43.44                             117    0.07 8  235 234 
 NOR  HN ES       1337 10.46                             117   -0.42 8  235 234 
 NOR  HZ I        1337 13.98         5.5 0.32            118            235 234 
 SML  HZ EP   1   1336 44.93                             116    0.71 6  243 335 
 SML  HN ES       1337 12.23                             116   -0.15 8  243 335 
 SML  HZ I        1337 18.28         8.2 0.26            117            243 335 
 CHI  HZ EP   1   1336 45.55                             115    0.14 6  249 195 
 CHI  HN ES       1337 14.65                             115    0.15 8  249 195 
 CHI  HZ I        1337 20.10         2.8 0.38            117            249 195 
 GUY2CHZ EP       1336 51.70                             111    0.36 7  301 235 
 GUY2CHN ES       1337 25.57                             111    0.50 7  301 235 
 GUY2CHZ I        1337 33.59         2.2 0.28                           301 235 
                                                                                
