 2011 1125 1035 42.7 L   6.786 -73.164142.0  RSN 10 0.4 2.4LRSN                1
 GAP=135        0.73       3.6     4.9  6.5 -0.1337E+01  0.1727E+02  0.2378E+01E
 Epicentro: LOS SANTOS - SANTANDER                                             3
 ACTION:UPD 12-07-13 16:12 OP:ep   STATUS:               ID:20111125103542 L   I
 2011-11-25-1020-00M.COL___170                                                 6
 STAT SP IPHASW D HRMM SECON CODA AMPLIT PERI AZIMU VELO AIN AR TRES W  DIS CAZ7
 BAR2 SZ EP   1   1036  1.65                             171   -0.18 7 21.5 185 
 BAR2 SZ ES   1   1036 16.85                             171    0.10 7 21.5 185 
 BAR2 SZ I        1036 18.20        73.1 0.20                          21.5 185 
 BRR  HZ EP       1036  3.55                             152    0.1810 70.2 300 
 PAM  SZ EP   1   1036  4.46                             150   -0.19 7 79.9  40 
 PAM  SE ES   1   1036 21.93                             150    0.14 7 79.9  40 
 PAM  SZ I        1036 23.88        26.7 0.50                          79.9  40 
 RUS  HZ EP   1   1036  5.58                             144   -0.39 7 99.2 175 
 RUS  HN ES   1   1036 24.57                             144    0.45 7 99.2 175 
 RUS  HZ I        1036 26.03        27.7 0.31                          99.2 175 
 ZAR  HZ EP   1   1036 14.16                             122   -0.59 6  203 293 
 ZAR  HN ES   1   1036 39.55                             122   -0.22 6  203 293 
 ZAR  HZ I        1036 46.60        16.3 0.34                           203 293 
 NOR  SZ EP   1   1036 17.64                             118   -0.28 6  232 234 
 NOR  SN ES   1   1036 45.08                             118   -0.33 6  232 234 
 CHI  HZ EP   1   1036 19.69                             117   -0.27 6  247 195 
 CHI  HN ES   1   1036 48.48                             117   -0.55 6  247 195 
 CHI  HZ I        1036 57.12        11.0 0.49                           247 195 
 HEL  HZ EP   1   1036 23.39                             114    0.94 6  270 256 
 HEL  HZ I        1036 59.64        13.0 0.32                           270 256 
 GUY  SZ EP   1   1036 26.63                             112    0.53 5  301 235 
 GUY  SZ I        1037  9.06        27.1 0.39                           301 235 
 RREF HZ EP   1   1036 29.04                             110    0.67 5  319 229 
 RREF HE ES   2   1037  4.58                             110    0.57 3  319 229 
 RREF HZ I        1037 13.58        16.8 0.55                           319 229 
                                                                                
