 2014  625 1855 40.6 L   6.550 -73.623102.7  RSN  5 0.2 1.7LRSN                1
 GAP=122        0.53       3.0     2.6  4.9 -0.3216E+01  0.4129E+01  0.7697E+00E
 Epicentro: EL CARMEN DE CHUCURI - SANTANDER                                   3
 ACTION:UPD 14-07-01 22:56 OP:nd   STATUS:               ID:20140625185540 L   I
 OLDACT:DUP 14-06-25 23:24 OP:carl STATUS:               ID:20140625184821d    3
 2014-06-25-1848-20M.COL___262                                                 6
 STAT SP IPHASW D HRMM SECON CODA AMPLIT PERI AZIMU VELO AIN AR TRES W  DIS CAZ7
 BAR2 SZ EP     C 1855 55.95                             153   -0.2510 49.0  84 
 BAR2 SZ ES       1856  8.46                             153    0.1110 49.0  84 
 BRR  HZ EP     D 1855 56.87                             146    0.1810 62.4 351 
 PTB  HZ IP     D 1855 58.73                             134   -0.3110 92.1 269 
 PTB  HN ES       1856 13.43                             134    0.0310 92.1 269 
 PTB  HZ I        1856 15.15        12.2 0.26            136           92.1 269 
 SPBC HZ EP       1856  1.11                             129    0.2510  111 207 
 SPBC HN ES       1856 16.49                             129   -0.1610  111 207 
 SPBC HZ I        1856 20.63        11.0 0.22            130            111 207 
 NOR  HZ EP       1856  7.62                             115    0.06 9  176 232 
 NOR  HN ES       1856 28.71                             115    0.13 9  176 232 
 NOR  HZ I        1856 30.74         4.7 0.58            117            176 232 
                                                                                
