 2013  225 1218 25.0 L   6.769 -73.162139.6  RSN  6 0.3 1.6LRSN                1
 GAP=136        0.63       3.6     4.2  6.1 -0.1684E+01  0.3059E+01  0.3789E+01E
 Epicentro: LOS SANTOS - SANTANDER                                             3
 ACTION:UPD 13-03-12 09:35 OP:ep   STATUS:               ID:20130225121825 L   I
 2013-02-25-1216-52M.COL___199                                                 6
 STAT SP IPHASW D HRMM SECON CODA AMPLIT PERI AZIMU VELO AIN AR TRES W  DIS CAZ7
 BAR2 SZ EP       1218 43.71                             172   -0.0810 19.7 187 
 BAR2 SZ ES   1   1218 58.29                             172   -0.17 7 19.7 187 
 BAR2 SZ I        1218 59.54        10.4 0.18            172           19.7 187 
 BRR  HZ EP   1   1218 45.61                             151    0.14 7 71.4 302 
 BRR  HN ES   1   1219  1.91                             151    0.46 7 71.4 302 
 PAM  SZ EP   1   1218 46.71                             148   -0.06 7 81.1  39 
 PAM  SN ES   1   1219  3.55                             148   -0.22 7 81.1  39 
 PAM  SZ I        1219  5.60        10.0 0.50            151           81.1  39 
 RUS  HZ EP   1   1218 47.74                             143   -0.14 7 97.3 175 
 RUS  HN ES   1   1219  6.14                             143    0.39 7 97.3 175 
 RUS  HZ I        1219  7.40         5.0 0.26            146           97.3 175 
 PTB  HZ EP   1   1218 51.64                             131    0.41 7  145 260 
 PTB  HN ES   1   1219 11.08                             131   -0.62 7  145 260 
 PTB  HZ I        1219 15.38         3.5 0.24            132            145 260 
 CHI  HE ES   1   1219 30.64                             116   -0.11 6  245 195 
                                                                                
