 2014  125 1038 36.2 L   6.898 -73.183146.0  RSN  4 0.4 1.0LRSN                1
 GAP=280        0.95       8.3     7.5 12.0  0.1451E+02 -0.1340E+02  0.2501E+01E
 Epicentro: BETULIA - SANTANDER                                                3
 ACTION:UPD 14-03-13 09:58 OP:ep   STATUS:               ID:20140125103836 L   I
 OLDACT:REG 14-01-25 16:10 OP:stll STATUS:               ID:20140125103818     3
 2014-01-25-1038-18M.COL___231                                                 6
 STAT SP IPHASW D HRMM SECON CODA AMPLIT PERI AZIMU VELO AIN AR TRES W  DIS CAZ7
 BAR2 SZ EP       1038 56.60                             166    0.4510 33.8 180 
 RUS  HZ EP       1039  0.77                             141   -0.0710  112 174 
 RUS  HN ES       1039 19.71                             141   -0.3210  112 174 
 RUS  HZ I        1039 22.18         1.4 0.42            145            112 174 
 PTB  HN ES       1039 23.92                             132   -0.11 9  146 254 
 PTB  HZ I        1039 32.20         1.6 0.50            132            146 254 
 CHI  HZ EP       1039 14.37                             116   -0.61 8  258 194 
 CHI  HN ES       1039 45.84                             116    0.64 8  258 194 
                                                                                
