 2012  525 1632 35.9 L   6.809 -73.191141.1  RSN  9 0.3 2.1LRSN                1
 GAP=130        0.65       3.5     3.7  6.1 -0.1801E+01  0.1029E+02 -0.3623E+00E
 Epicentro: ZAPATOCA - SANTANDER                                               3
 ACTION:UP  12-07-05 12:08 OP:pat  STATUS:               ID:20120525163235 L   I
 2012-05-25-1630-00M.COL___201                                                 6
 STAT SP IPHASW D HRMM SECON CODA AMPLIT PERI AZIMU VELO SNR AR TRES W  DIS CAZ7
 BAR2 SZ EP   1   1632 54.95                             170     0.0 7   24 178 
 BAR2 SZ ES   1   1633  9.70                             170    -0.2 7   24 178 
 BAR2 SZ I        1633 10.72        43.3 0.27                            24 178 
 PAM  SZ EP   1   1632 57.84                             149     0.1 7   80  43 
 PAM  SE ES   1   1633 14.88                             149     0.0 7   80  43 
 RUS  HZ EP   1   1632 59.19                             142    -0.1 7  102 173 
 RUS  HN ES   1   1633 18.02                             142     0.4 7  102 173 
 RUS  HZ I        1633 18.93         9.0 0.46                           102 173 
 PTB  HZ EP   1   1633  1.74                             132    -0.3 7  143 258 
 PTB  HN ES   1   1633 22.48                             132     0.0 7  143 258 
 PTB  HZ I        1633 24.69        13.7 0.14                           143 258 
 OCA  HN ES   2   1633 24.74                             129    -0.7 5  159 355 
 ZAR  HZ EP   1   1633  8.15                             122     0.6 6  199 292 
 ZAR  HN ES   1   1633 32.60                             122     0.4 6  199 292 
 ZAR  HZ I        1633 39.49        20.0 0.41                           199 292 
 NOR  SZ EP   1   1633 10.83                             118    -0.2 6  231 234 
 NOR  SN ES   1   1633 37.86                             118    -0.5 6  231 234 
 HEL  HZ EP   2   1633 15.37                             114     0.0 4  267 255 
 PRA  HN ES   2   1634 10.95                             106     0.4 3  390 209 
                                                                                
