 2015 1025 1311 31.1 L   6.800 -73.117150.5  RSN 16 0.5 2.4LRSN                1
 GAP=122        1.18       2.8     4.1  5.7 -0.4495E+00  0.5327E+01  0.2765E+01E
 Epicentro: LOS SANTOS - SANTANDER                                             3
 ACTION:UPD 15-12-22 20:43 OP:cam  STATUS:               ID:20151025131131 L   I
 OLDACT:REG 15-10-25 20:24 OP:drio STATUS:               ID:20151025130751     3
 2015-10-25-1307-51M.COL___313                                                 6
 STAT SP IPHASW D HRMM SECON CODA AMPLIT PERI AZIMU VELO AIN AR TRES W  DIS CAZ7
 BAR2 EZ EP       1311 51.48                             170    0.2110 24.1 198 
 BAR2 EZ ES       1312  6.29                             170   -0.7510 24.1 198 
 BAR2 EZ I        1312  8.27        72.1 0.16            169           24.1 198 
 BRR  HZ EP       1311 53.32                             152    0.4410 74.0 297 
 BRR  HN ES       1312 10.70                             152    0.8110 74.0 297 
 BRR  HZ I        1312 14.35        27.4 0.18            149           74.0 297 
 PAM  EZ EP       1311 54.31                             152    0.6510 75.4  38 
 PAM  EN ES       1312 11.63                             152    0.3410 75.4  38 
 PAM  EZ I        1312 13.72        39.6 0.44            155           75.4  38 
 RUS  HZ EP       1311 55.48                             145    0.2110  100 178 
 RUS  HN ES       1312 14.27                             145    0.1210  100 178 
 RUS  HZ I        1312 15.88        32.4 0.42            147            100 178 
 OCA  HZ EP       1311 59.63                             131   -0.15 9  161 352 
 OCA  HE ES       1312 21.50                             131   -0.68 9  161 352 
 OCA  HZ I        1312 28.33        37.4 0.26            131            161 352 
 SPBC HZ EP       1312  0.20                             130    0.08 9  165 220 
 SPBC HE ES       1312 22.44                             130   -0.34 9  165 220 
 SPBC HZ I        1312 27.03        46.8 0.34            130            165 220 
 ZAR  HZ EP       1312  4.07                             123   -0.05 8  207 292 
 ZAR  HN ES       1312 29.51                             123   -0.40 8  207 292 
 ZAR  HZ I        1312 31.89        14.5 0.32            122            207 292 
 NOR  HZ EP       1312  7.42                             119    0.07 8  237 235 
 NOR  HN ES       1312 35.01                             119   -0.64 8  237 235 
 NOR  HZ I        1312 38.85        15.1 0.16            119            237 235 
 SML  HZ EP       1312  7.64                             118   -0.46 8  245 335 
 SML  HN ES       1312 36.24                             118   -0.75 8  245 335 
 SML  HZ I        1312 42.06        31.9 0.28            118            245 335 
 CHI  HZ EP       1312  9.46                             118    0.34 8  250 196 
 CHI  HN ES       1312 38.86                             118    0.06 8  250 196 
 CHI  HZ I        1312 43.18        14.0 0.82            119            250 196 
 HEL  HZ EP   4   1312 13.51                             115    1.65 0  275 256 
 HEL  HN ES       1312 43.95                             115    0.27 8  275 256 
 HEL  HZ I        1312 50.48        13.9 0.24            115            275 256 
 GUY2CHZ EP       1312 15.96                             113    0.77 7  304 235 
 GUY2CHE ES       1312 50.41                             113    0.81 7  304 235 
 GUY2CHZ I        1312 55.91         7.6 0.52                           304 235 
 PTGC HZ EP       1312 14.71                             112   -0.30 7  308 159 
 PTGC HN ES       1312 48.29                             112   -0.99 7  308 159 
 ELA  HZ EP   4   1312 20.06                             111    1.66 0  332 230 
 ELA  HN ES   4   1312 53.29                             111   -2.02 0  332 230 
 ELA  HZ I        1313  2.76         9.2 0.30            111            332 230 
 MON  HZ EP   4   1312 18.50                             109   -2.04 0  356 308 
 MON  HN ES   4   1312 56.62                             109   -2.51 0  356 308 
 MON  HZ I        1313 13.62         3.8 0.38            109            356 308 
 ORTC HZ EP       1312 25.58                             107    0.21 6  397 217 
 ORTC HE ES       1313  6.82                             107   -0.91 6  397 217 
 ORTC HZ I        1313 14.93         5.2 0.56            107            397 217 
                                                                                
