 2015  325 1356 15.2 L   6.791 -73.193135.8  RSN  5 0.4 1.7LRSN                1
 GAP=131        0.99       7.3     5.1  7.7 -0.1045E+02  0.5105E+00  0.1524E+02E
 Epicentro: ZAPATOCA - SANTANDER                                               3
 ACTION:UPD 15-04-30 16:29 OP:nd   STATUS:               ID:20150325135615 L   I
 OLDACT:DUP 15-03-26 01:42 OP:stll STATUS:               ID:20150325134749d    3
 OLDACT:REG 15-03-25 20:27 OP:stll STATUS:               ID:20150325134748     3
 2015-03-25-1347-48M.COL___278                                                 6
 STAT SP IPHASW D HRMM SECON CODA AMPLIT PERI AZIMU VELO AIN AR TRES W  DIS CAZ7
 BAR2 EZ EP       1356 33.56                             170   -0.0410 22.1 177 
 BAR2 EZ ES       1356 48.24                             170    0.2810 22.1 177 
 BAR2 EZ I        1356 49.38         9.4 0.40            173           22.1 177 
 BRR  HZ EP       1356 35.77                             152    0.7410 67.1 301 
 BRR  HN ES       1356 50.72                             152    0.2110 67.1 301 
 BRR  HZ I        1356 56.68        10.7 0.42            150           67.1 301 
 PAM  SZ EP       1356 36.64                             148    0.0210 81.5  42 
 PAM  SZ I        1356 36.79        21.7 0.24            150           81.5  42 
 PAM  SN ES       1356 52.82                             148   -0.5210 81.5  42 
 RUS  HZ EP       1356 37.91                             142   -0.0310  100 173 
 PTB  HZ EP       1356 40.61                             131   -0.25 9  142 259 
 PTB  HN ES       1357  0.39                             131   -0.50 9  142 259 
 PTB  HZ I        1357  4.03         6.1 0.10            131            142 259 
                                                                                
