 2017  625 1035 46.3 L   6.803 -73.165145.3  RSN  6 0.2 1.6LRSN                1
 GAP=246        0.59       3.4     3.6  4.5  0.3464E+00  0.3653E+01  0.3350E+01E
 Epicentro: LOS SANTOS - SANTANDER                                             3
 ACTION:UPD 17-09-14 16:55 OP:jn   STATUS:               ID:20170625103546 L   I
 OLDACT:DUP 17-06-25 20:56 OP:lv   STATUS:               ID:20170625102741d    3
 2017-06-25-1028-00M.COL___346                                                 6
 STAT SP IPHASW D HRMM SECON CODA AMPLIT PERI AZIMU VELO AIN AR TRES W  DIS CAZ7
 BAR2 EZ EP       1036  5.74                             170   -0.1010 23.4 185 
 BAR2 EZ ES       1036 21.13                             170    0.0210 23.4 185 
 BAR2 EZ I        1036 22.29        10.4 0.11            169           23.4 185 
 BRR  HZ EP       1036  7.66                             153    0.4110 69.2 299 
 BRR  HN ES       1036 23.63                             153    0.0110 69.2 299 
 BRR  HZ I        1036 25.81         5.5 0.14            152           69.2 299 
 PTB  HZ EP       1036 12.65                             132   -0.36 9  146 259 
 PTB  HN ES       1036 33.76                             132   -0.11 9  146 259 
 PTB  HZ I        1036 35.89         4.3 0.20            132            146 259 
 SPBC HZ EP       1036 14.51                             129   -0.12 9  162 218 
 SPBC HN ES       1036 36.60                             129   -0.15 9  162 218 
 SPBC HZ I        1036 39.52         9.4 0.14            129            162 218 
 ZAR  HN ES       1036 43.50                             123   -0.08 9  202 292 
 ZAR  HZ I        1036 46.37         2.2 0.13            123            202 292 
 NOR  HZ EP   1   1036 22.06                             119    0.26 6  233 234 
 NOR  HN ES       1036 49.93                             119    0.41 8  233 234 
 NOR  HZ I        1036 52.98         2.2 0.07            119            233 234 
                                                                                
