 2014 1025 1106 25.3 L   6.716 -73.123145.7  RSN  4 0.2 0.9LRSN                1
 GAP=234        0.50       5.5     5.2  5.0  0.1765E+02  0.5329E+01  0.8307E+01E
 Epicentro: JORDAN - SANTANDER                                                 3
 ACTION:UPD 14-11-29 23:56 OP:nd   STATUS:               ID:20141025110625 L   I
 OLDACT:DUP 14-10-28 22:11 OP:spq  STATUS:               ID:20141025105747d    3
 2014-10-25-1057-45M.COL___280                                                 6
 STAT SP IPHASW D HRMM SECON CODA AMPLIT PERI AZIMU VELO AIN AR TRES W  DIS CAZ7
 BAR2 SZ EP   1   11 6 44.59                             174   -0.16 7 15.2 206 
 BAR2 SZ ES   1   11 6 59.59                             174   -0.35 7 15.2 206 
 BAR2 SZ I        11 7  0.74         3.7 0.25            163           15.2 206 
 BRR  HN ES       11 7  3.82                             150    0.2010 78.2 304 
 RUS  HZ EP       11 6 48.54                             146    0.1910 91.2 177 
 RUS  HE ES   1   11 7  6.46                             146    0.11 7 91.2 177 
 RUS  HZ I        11 7  8.76         0.8 0.28            142           91.2 177 
 PTB  HZ EP       11 6 52.14                             132   -0.18 9  149 263 
 PTB  HN ES   1   11 7 13.40                             132   -0.02 7  149 263 
 PTB  HZ I        11 7 18.07         0.9 0.36            129            149 263 
                                                                                
