 2011  325 1448 49.7 L   6.730 -73.141140.0  RSN  6 0.3 2.2LRSN                1
 GAP=136        0.63       4.1     5.0  5.6 -0.9213E+01 -0.2867E+01  0.6905E+01E
 Epicentro: JORDAN - SANTANDER                                                 3
 ACTION:UP  11-06-16 14:35 OP:jfem STATUS:               ID:20110325144849 L   I
 2011-03-25-1447-42S.COL___123                                                 6
 STAT SP IPHASW D HRMM SECON CODA AMPLIT PERI AZIMU VELO SNR AR TRES W  DIS CAZ7
 BAR2 SZ EP       1449  8.34                             173    -0.110   16 197 
 BAR2 SZ ES   1   1449 23.12                             173     0.0 7   16 197 
 BAR2 SZ I        1449 24.43        37.9 0.29                            16 197 
 BRR  HZ EP       1449 10.13                             150    -0.310   76 304 
 BRR  HZ I        1449 10.49        34.2 0.14                            76 304 
 BRR  HN ES   1   1449 27.01                             150     0.3 7   76 304 
 GRA  SZ IP       1449 15.02                             134     0.010  133  16 
 GRA  SZ I        1449 16.15        29.3 0.28                           133  16 
 GRA  SZ ES   1   1449 35.11                             134     0.3 7  133  16 
 YOP  SZ EP   1   1449 18.86                             126     0.2 7  172 152 
 NOR  SZ EP   1   1449 24.49                             118    -0.2 6  231 236 
 NOR  SN ES   1   1449 52.07                             118     0.1 6  231 236 
 RREF HZ EP   1   1449 35.58                             110     0.5 5  317 230 
 RREF HZ I        1450 17.53         4.9 0.13                           317 230 
                                                                                
