 2015  125 1902 42.0 L   6.908 -73.368  9.2  RSN  7 0.5 1.5LRSN                1
 GAP=117        1.20       2.5     2.4  7.7  0.4225E+00  0.5721E+01 -0.4573E+01E
 Epicentro: SAN VICENTE DE CHUCURI - SANTANDER                                 3
 ACTION:UPD 15-03-02 15:42 OP:nd   STATUS:               ID:20150125190242 L   I
 OLDACT:REG 15-01-26 00:04 OP:carl STATUS:               ID:20150125185748     3
 2015-01-25-1857-48M.COL___274                                                 6
 STAT SP IPHASW D HRMM SECON CODA AMPLIT PERI AZIMU VELO AIN AR TRES W  DIS CAZ7
 BAR2 EZ EP       19 2 48.80                              98   -0.2210 40.5 150 
 BAR2 EZ ES       19 2 54.02                              98   -0.4910 40.5 150 
 BAR2 EZ I        19 2 56.78        30.0 0.12             47           40.5 150 
 BRR  HZ EP       19 2 49.06                              97   -0.2210 43.9 300 
 BRR  HN ES       19 2 54.98                              97    0.0110 43.9 300 
 BRR  HZ I        19 2 55.99        27.8 0.20             47           43.9 300 
 PAM  SZ EP       19 2 56.95                              94    0.5310 87.9  57 
 PAM  SN ES       19 3  7.72                              94    0.0410 87.9  57 
 PAM  SZ I        19 3 10.34        10.8 0.12             47           87.9  57 
 RUS  HZ EP       19 3  0.77                              93   -0.0110  117 164 
 RUS  HN ES       19 3 15.04                              93   -0.4010  117 164 
 RUS  HZ I        19 3 17.71         4.9 0.40             47            117 164 
 PTB  HZ EP       19 3  1.41                              92   -0.4510  127 251 
 PTB  HN ES       19 3 17.27                              92   -0.1010  127 251 
 PTB  HZ I        19 3 22.41        16.7 0.84             47            127 251 
 SPBC HZ EP       19 3  7.91                              92    1.09 9  159 209 
 SPBC HN ES       19 3 26.96                              92    0.77 9  159 209 
 SPBC HZ I        19 3 34.41        12.0 0.26             47            159 209 
 ZAR  HZ EP       19 3  9.09                              56    0.18 9  177 292 
 ZAR  HN ES       19 3 29.33                              56   -0.58 9  177 292 
 ZAR  HZ I        19 3 30.80         9.1 0.28             47            177 292 
                                                                                
