 2013  525 1445 15.5 L   6.766 -73.157144.6  RSN  6 0.3 1.4LRSN                1
 GAP=137        0.68       3.5     3.4  4.9 -0.1263E+01  0.4375E+01  0.8679E+00E
 Epicentro: LOS SANTOS - SANTANDER                                             3
 ACTION:UPD 13-06-20 09:53 OP:ep   STATUS:               ID:20130525144515 L   I
 2013-05-25-1440-00M.COL___261                                                 6
 STAT SP IPHASW D HRMM SECON CODA AMPLIT PERI AZIMU VELO AIN AR TRES W  DIS CAZ7
 BAR2 SZ EP       1445 35.01                             172    0.1210 19.4 188 
 BAR2 SZ ES       1445 49.93                             172   -0.1110 19.4 188 
 BAR2 SZ I        1445 51.20         8.7 0.22            172           19.4 188 
 GIR2 SZ EP   1   1445 35.06                             166   -0.05 7 34.8 353 
 GIR2 SZ ES       1445 50.65                             166    0.2210 34.8 353 
 GIR2 SZ I        1445 52.54         5.6 0.44            167           34.8 353 
 PAM  SZ EP       1445 37.94                             149    0.1410 81.1  39 
 PAM  SN ES       1445 54.89                             149   -0.3210 81.1  39 
 PAM  SZ I        1445 56.06         4.8 0.18            151           81.1  39 
 RUS  HZ EP       1445 38.99                             144    0.1410 96.9 175 
 RUS  HN ES       1445 57.27                             144    0.1810 96.9 175 
 RUS  HZ I        1445 58.44         2.6 0.20            146           96.9 175 
 PTB  HZ EP       1445 41.81                             132   -0.36 9  146 260 
 PTB  HN ES       1446  2.65                             132   -0.35 9  146 260 
 PTB  HZ I        1446  3.97         4.9 0.22            134            146 260 
 ZAR  HN ES   1   1446 13.81                             122    0.67 6  204 293 
                                                                                
