 2017  225 1045 22.8 L   6.347 -72.785  0.0  RSN  8 0.7 1.7LRSN                1
 GAP=158        1.52       3.8     8.7  9.6  0.1317E+02  0.5101E+02  0.1063E+02E
 Epicentro: ONZAGA - SANTANDER                                                 3
 ACTION:UPD 17-05-24 15:40 OP:jn   STATUS:               ID:20170225104522 L   I
 OLDACT:UP  17-02-25 22:06 OP:edw  STATUS:               ID:20170225103741d    3
 OLDACT:UP  17-02-25 22:04 OP:edw  STATUS:               ID:20170225103741d    3
 OLDACT:DUP 17-02-25 21:59 OP:edw  STATUS:               ID:20170225103741d    3
 OLDACT:UP  17-02-25 21:58 OP:edw  STATUS:               ID:20170225103740d    3
 OLDACT:DUP 17-02-25 21:54 OP:edw  STATUS:               ID:20170225103740d    3
 2017-02-25-1038-00M.COL___369                                                 6
 STAT SP IPHASW D HRMM SECON CODA AMPLIT PERI AZIMU VELO AIN AR TRES W  DIS CAZ7
 BAR2 EZ IP     C 1045 31.47                              47   -0.5110 51.6 302 
 BAR2 EZ ES       1045 39.07                              47   -0.1110 51.6 302 
 BAR2 EZ I        1045 39.22        50.2 0.14             47           51.6 302 
 RUS  HZ IP     D 1045 32.74                              47   -0.8010 60.1 213 
 RUS  HN ES       1045 41.55                              47   -0.4110 60.1 213 
 RUS  HZ I        1045 42.52        26.5 0.24             47           60.1 213 
 PAM  EZ EP   2   1045 40.25                              47   -0.86 5  110   5 
 PAM  EZ I        1045 54.58        10.0 0.18             47            110   5 
 PAM  EN ES   2   1045 54.61                              47   -0.81 5  110   5 
 BRR  HZ IP       1045 45.16                              47    1.1710  133 309 
 BRR  HE ES       1046  0.62                              47    0.0610  133 309 
 BRR  HZ I        1046  3.83        16.4 0.62             47            133 309 
 PTB  HZ EP   9   1045 52.96                              37    1.00 0  186 277 
 PTB  HN ES       1046 16.42                              37    0.68 9  186 277 
 PTB  HZ I        1046 17.07        17.5 0.32             47            186 277 
 CHI  HZ EP   2   1045 56.94                              37    0.64 4  217 209 
 CHI  HN ES       1046 23.07                              37    0.60 8  217 209 
 CHI  HZ I        1046 31.23         5.4 0.88             37            217 209 
 PTGC HZ EP       1046  0.67                              37    0.95 8  248 163 
 PTGC HN ES   4   1046 31.53                              37    2.98 0  248 163 
 ZAR  HZ EP   4   1046  3.11                              37    1.71 0  262 299 
 ZAR  HN ES   4   1046 34.48                              37    2.93 0  262 299 
 ZAR  HZ I        1046 38.01         4.8 0.38             37            262 299 
                                                                                
