 2016  425 1600 45.2 L   6.811 -73.144141.5  RSN  8 0.4 1.9LRSN                1
 GAP=136        0.70       3.3     3.5  5.5 -0.2188E+01  0.8376E+01  0.4575E+00E
 Epicentro: LOS SANTOS - SANTANDER                                             3
 ACTION:UPD 16-05-05 14:24 OP:rebc STATUS:               ID:20160425160045 L   I
 OLDACT:REG 16-04-25 22:25 OP:dnl  STATUS:               ID:20160425155749     3
 2016-04-25-1557-49M.COL___310                                                 6
 STAT SP IPHASW D HRMM SECON CODA AMPLIT PERI AZIMU VELO AIN AR TRES W  DIS CAZ7
 BAR2 EZ EP       16 1  4.11                             170   -0.1910 24.6 190 
 BAR2 EZ ES       16 1 19.00                             170   -0.2410 24.6 190 
 BAR2 EZ I        16 1 20.50        20.2 0.18            169           24.6 190 
 PAM  EZ EP       16 1  7.07                             150    0.2210 76.3  40 
 PAM  EN ES       16 1 24.01                             150    0.2310 76.3  40 
 PAM  EZ I        16 1 26.36         9.4 0.50            155           76.3  40 
 RUS  HZ EP       16 1  8.29                             143   -0.2910  102 176 
 RUS  HN ES       16 1 27.09                             143    0.2410  102 176 
 RUS  HZ I        16 1 27.97         5.0 0.20            146            102 176 
 PTB  HZ EP   2   16 1 10.89                             131   -0.93 5  148 258 
 PTB  HN ES   2   16 1 31.89                             131   -0.73 5  148 258 
 PTB  HZ I        16 1 37.86        12.3 0.42            132            148 258 
 SPBC HZ EP       16 1 13.21                             128   -0.22 9  164 219 
 SPBC HE ES   2   16 1 35.48                             128   -0.01 5  164 219 
 SPBC HZ I        16 1 41.33        11.8 0.30            130            164 219 
 ZAR  HZ EP   2   16 1 17.53                             121    0.23 4  204 292 
 ZAR  HN ES       16 1 42.36                             121   -0.01 9  204 292 
 ZAR  HZ I        16 1 47.66        11.1 0.40            123            204 292 
 NOR  HZ EP   2   16 1 20.93                             117    0.19 4  236 234 
 NOR  HN ES       16 1 49.02                             117    0.53 8  236 234 
 NOR  HZ I        16 1 50.29         8.9 0.20            119            236 234 
 GUY2CHZ EP   2   16 1 28.90                             111    0.23 4  302 235 
 GUY2CHN ES   2   16 2  3.66                             111    1.05 4  302 235 
 GUY2CHZ I        16 2 10.55         3.2 0.44                           302 235 
                                                                                
