 2017 1025 1205  2.0 L   6.814 -73.225137.4  RSN  6 0.4 1.3LRSN                1
 GAP=124        1.01       5.0     4.2  7.6  0.1955E+01  0.6009E+01  0.2440E+01E
 Epicentro: ZAPATOCA - SANTANDER                                               3
 ACTION:UPD 17-11-07 19:36 OP:rebc STATUS:               ID:20171025120502 L   I
 OLDACT:UP  17-10-25 22:25 OP:dhb  STATUS:               ID:20171025114919d    3
 OLDACT:DUP 17-10-25 22:19 OP:dhb  STATUS:               ID:20171025114919d    3
 OLDACT:REG 17-10-25 20:17 OP:dhb  STATUS:               ID:20171025114918     3
 2017-10-25-1158-00M.COL___437                                                 6
 STAT SP IPHASW D HRMM SECON CODA AMPLIT PERI AZIMU VELO AIN AR TRES W  DIS CAZ7
 BAR2 EZ EP       12 5 20.58                             169   -0.0510 24.9 169 
 BAR2 EZ ES       12 5 35.41                             169    0.2210 24.9 169 
 BAR2 EZ I        12 5 36.66         5.3 0.30            173           24.9 169 
 BRR  HN ES       12 5 36.71                             154   -0.4710 62.9 301 
 BRR  HZ I        12 5 40.27         7.6 0.37            152           62.9 301 
 PAM  EZ EP       12 5 23.84                             148    0.2310 82.1  45 
 PAM  EN ES       12 5 40.68                             148    0.2010 82.1  45 
 PAM  EZ I        12 5 44.07         2.9 0.32            149           82.1  45 
 RUS  HZ EP       12 5 24.75                             141   -0.3510  103 171 
 RUS  HN ES       12 5 42.85                             141   -0.2910  103 171 
 RUS  HZ I        12 5 43.65         2.0 0.19            146            103 171 
 PTB  HZ EP       12 5 27.78                             132    0.27 9  140 258 
 PTB  HN ES       12 5 48.20                             132    0.77 9  140 258 
 PTB  HZ I        12 5 50.70         1.3 0.13            132            140 258 
 ZAR  HN ES       12 5 56.60                             122   -0.57 9  195 293 
 ZAR  HZ I        12 6  4.02         2.5 0.40            122            195 293 
                                                                                
