 2012  225 1927 21.8 L   6.759 -73.331127.0  RSN  6 0.4 1.7LRSN                1
 GAP= 95        0.55       4.9     4.6  6.9  0.1807E+01  0.2004E+01  0.1247E+02E
 ACTION:UP  12-03-07 16:34 OP:epov STATUS:               ID:20120225192721 L   I
 2012-02-25-1920-00M.COL___192                                                 6
 STAT SP IPHASW D HRMM SECON CODA AMPLIT PERI AZIMU VELO AIN AR TRES W  DIS CAZ7
 BAR2 SZ EP   2   1927 38.53                             168   -0.64 5 24.7 138 
 BAR2 SZ ES   2   1927 52.49                             168   -0.26 5 24.7 138 
 BAR2 SZ I        1927 53.01        15.3 0.34                          24.7 138 
 GIR2 SZ EP   1   1927 39.29                             162   -0.16 7 38.5  23 
 GIR2 SZ ES   2   1927 53.08                             162   -0.18 5 38.5  23 
 BRR  HZ EP   2   1927 39.91                             154   -0.18 5 57.1 312 
 BRR  HZ I        1927 41.30        12.2 0.36                          57.1 312 
 BRR  HE ES   1   1927 54.49                             154    0.10 7 57.1 312 
 PAM  SN ES   2   1928  0.59                             141    0.56 5 94.8  47 
 RUS  HZ EP   1   1927 43.59                             140   -0.04 7 99.6 164 
 RUS  HE ES   2   1928  1.15                             140    0.45 5 99.6 164 
 PTB  HZ EP   2   1927 45.96                             132    0.67 5  127 259 
 PTB  HN ES   2   1928  3.49                             132   -0.16 5  127 259 
                                                                                
