 2013  625 1237 46.1 L   6.796 -73.128149.2  RSN 10 0.4 2.2LRSN                1
 GAP=139        0.71       2.9     3.8  5.2 -0.1146E+01  0.4166E+01  0.7960E+00E
 Epicentro: LOS SANTOS - SANTANDER                                             3
 ACTION:UPD 14-01-08 09:57 OP:ep   STATUS:               ID:20130625123746 L   I
 OLDACT:REG 13-06-25 17:20 OP:carl STATUS:               ID:20130625122959     3
 2013-06-25-1229-59M.COL___266                                                 6
 STAT SP IPHASW D HRMM SECON CODA AMPLIT PERI AZIMU VELO AIN AR TRES W  DIS CAZ7
 BAR2 SZ EP       1238  6.07                             171   -0.0310 23.3 195 
 BAR2 SZ ES   1   1238 21.59                             171   -0.15 7 23.3 195 
 BAR2 SZ I        1238 22.24        31.8 0.14            169           23.3 195 
 GIR2 SZ EP       1238  5.89                             167   -0.2810 32.1 347 
 BRR  HZ EP       1238  7.98                             152    0.2910 73.1 298 
 BRR  HN ES   1   1238 25.19                             152    0.63 7 73.1 298 
 BRR  HN I        1238 25.55        54.8 0.26            150           73.1 298 
 PAM  SZ EP       1238  8.85                             152    0.2510 76.6  38 
 PAM  SE ES   1   1238 26.12                             152   -0.05 7 76.6  38 
 PAM  SZ I        1238 28.48        12.3 0.56            154           76.6  38 
 RUS  HZ EP       1238  9.92                             145   -0.1910  100 177 
 RUS  HN ES   1   1238 28.96                             145    0.09 7  100 177 
 RUS  HZ I        1238 30.20        11.5 0.24            145            100 177 
 PTB  HZ EP   1   1238 13.09                             132   -0.38 7  150 259 
 PTB  HN ES   1   1238 33.98                             132   -0.87 7  150 259 
 PTB  HZ I        1238 35.35        16.4 0.16            131            150 259 
 ZAR  HZ EP   1   1238 19.08                             123    0.15 6  206 292 
 ZAR  HE ES   2   1238 45.09                             123    0.52 4  206 292 
 ZAR  HZ I        1238 51.03        18.3 0.52            122            206 292 
 NOR  HZ EP   1   1238 22.39                             119    0.26 6  236 235 
 NOR  HN ES   1   1238 50.50                             119    0.24 6  236 235 
 NOR  HN I        1238 56.26        43.0 0.18            118            236 235 
 SML  HZ EP   1   1238 23.19                             118    0.17 6  245 335 
 SML  HN ES   2   1238 50.78                             118   -1.06 4  245 335 
 SML  HZ I        1238 55.47        14.1 0.26            118            245 335 
 CHI  HZ EP   1   1238 23.95                             118   -0.01 6  249 196 
 CHI  HN ES       1238 53.58                             118    0.06 8  249 196 
 CHI  HZ I        1238 59.03         5.4 0.40            118            249 196 
                                                                                
