 2013  125 1659  6.4 L   6.775 -73.152147.3  RSN  5 0.4 1.6LRSN                1
 GAP=137        1.03       5.5     5.3  7.5 -0.2791E+01  0.4809E+01  0.1700E+01E
 Epicentro: LOS SANTOS - SANTANDER                                             3
 ACTION:UPD 13-02-15 09:16 OP:ep   STATUS:               ID:20130125165906 L   I
 2013-01-25-1648-36M.COL___201                                                 6
 STAT SP IPHASW D HRMM SECON CODA AMPLIT PERI AZIMU VELO AIN AR TRES W  DIS CAZ7
 BAR2 SZ EP       1659 26.14                             172    0.0110 20.5 189 
 BAR2 SZ I        1659 26.54         7.7 0.20            171           20.5 189 
 BAR2 SZ ES       1659 41.92                             172    0.3810 20.5 189 
 BRR  HZ EP       1659 27.98                             153    0.2610 71.9 301 
 BRR  HN ES       1659 44.92                             153    0.5510 71.9 301 
 BRR  HN I        1659 45.50        19.6 0.22            151           71.9 301 
 PAM  SZ EP       1659 28.87                             150   -0.0310 79.9  39 
 PAM  SN ES       1659 45.89                             150   -0.5810 79.9  39 
 RUS  HZ EP       1659 30.47                             145    0.3910 97.9 176 
 RUS  HZ I        1659 31.35         2.4 0.14            145           97.9 176 
 RUS  HE ES       1659 48.29                             145   -0.2810 97.9 176 
 PTB  HZ EP       1659 33.17                             133   -0.18 9  147 260 
 PTB  HN ES       1659 53.75                             133   -0.64 9  147 260 
 PTB  HN I        1659 56.61         6.7 0.24            132            147 260 
                                                                                
