 2017  325 1224 12.0 L   6.796 -73.143147.0  RSN 20 0.6 2.8LRSN                1
 GAP=120        0.99       2.7     3.4  4.4 -0.2225E+00  0.3399E+01  0.1937E+01E
 Epicentro: LOS SANTOS - SANTANDER                                             3
 ACTION:UPD 17-05-25 18:45 OP:jn   STATUS:               ID:20170325122412 L   I
 OLDACT:UP  17-03-25 19:49 OP:dani STATUS:               ID:20170325121660d    3
 OLDACT:UP  17-03-25 19:49 OP:dani STATUS:               ID:20170325121660d    3
 OLDACT:UP  17-03-25 19:48 OP:dani STATUS:               ID:20170325121660d    3
 OLDACT:UP  17-03-25 19:44 OP:dani STATUS:               ID:20170325121660d    3
 OLDACT:UP  17-03-25 19:44 OP:dani STATUS:               ID:20170325121660d    3
 OLDACT:DUP 17-03-25 19:37 OP:dani STATUS:               ID:20170325121660d    3
 2017-03-25-1218-00M.COL___367                                                 6
 STAT SP IPHASW D HRMM SECON CODA AMPLIT PERI AZIMU VELO AIN AR TRES W  DIS CAZ7
 BAR2 EZ EP     D 1224 31.75                             171   -0.0410 23.0 191 
 BAR2 EZ ES       1224 46.70                             171   -0.5110 23.0 191 
 BAR2 EZ I        1224 47.85       140.4 0.38            167           23.0 191 
 BRR  HZ EP     C 1224 33.60                             152    0.2710 71.7 299 
 BRR  HN ES       1224 50.70                             152    0.7510 71.7 299 
 BRR  HZ I        1224 53.78        63.7 0.28            150           71.7 299 
 PAM  EZ EP     C 1224 34.56                             151    0.1910 77.5  39 
 PAM  EE ES       1224 51.65                             151   -0.1510 77.5  39 
 PAM  EZ I        1224 53.94        84.4 0.52            156           77.5  39 
 RUS  HZ EP       1224 35.74                             144   -0.1210  100 176 
 RUS  HN ES       1224 54.65                             144    0.2010  100 176 
 RUS  HZ I        1224 56.04        50.1 0.46            144            100 176 
 PTB  HZ EP     D 1224 38.49                             132   -0.62 9  148 259 
 PTB  HN ES       1224 59.66                             132   -0.58 9  148 259 
 PTB  HZ I        1225  5.83        50.9 0.24            131            148 259 
 SPBC HZ EP       1224 40.80                             129    0.20 9  163 219 
 SPBC HN ES       1225  3.05                             129    0.15 9  163 219 
 SPBC HZ I        1225  9.17        80.1 0.20            128            163 219 
 ZAR  HZ EP       1224 44.34                             122   -0.25 9  205 292 
 ZAR  HN ES       1225  9.82                             122   -0.18 9  205 292 
 ZAR  HZ I        1225 14.95        62.3 0.36            122            205 292 
 CHI  HZ EP       1224 49.97                             117    0.22 8  248 195 
 CHI  HN ES       1225 19.26                             117    0.08 8  248 195 
 CHI  HZ I        1225 22.75        37.3 0.64            118            248 195 
 HEL  HZ EP       1224 53.33                             115    1.01 8  272 256 
 HEL  HN ES       1225 23.81                             115    0.06 8  272 256 
 HEL  HZ I        1225 29.82        31.7 0.28            115            272 256 
 URE  HZ EP   3   1224 51.60                             114   -1.60 2  284 292 
 URE  HN ES   4   1225 21.16                             114   -4.16 0  284 292 
 URE  HZ I        1225 30.84        30.2 0.12            114            284 292 
 VIL  EZ EP       1224 55.66                             112    0.20 7  303 192 
 VIL  EN ES       1225 29.74                             112    0.41 7  303 192 
 VIL  EZ I        1225 39.43        52.3 0.44            113            303 192 
 PTGC HZ EP       1224 55.00                             112   -0.87 7  308 159 
 PTGC HN ES   3   1225 28.07                             112   -2.01 2  308 159 
 PTGC HZ I        1225 30.14        25.1 0.26            113            308 159 
 RECRCHN ES   4   1225 36.46                             111    3.17 0  318 230 
 ELA  HZ EP   3   1225  0.15                             110    1.23 2  329 230 
 ELA  HE ES   4   1225 38.73                             110    3.23 0  329 230 
 ELA  HZ I        1225 44.46        22.9 0.52            111            329 230 
 CBOC HZ EP       1224 59.38                             110    0.37 7  334 252 
 CBOC HN ES       1225 35.09                             110   -0.57 7  334 252 
 CBOC HZ I        1225 41.34         8.1 0.40            110            334 252 
 DBB  EZ EP       1224 59.59                             110    0.00 7  340 274 
 DBB  EN ES   3   1225 35.14                             110   -1.55 2  340 274 
 DBB  EZ I        1225 37.42        14.4 0.33            110            340 274 
 PRA  HZ EP       1225  5.19                             107   -0.37 6  392 210 
 PRA  HE ES       1225 46.98                             107   -0.34 6  392 210 
 PRA  HZ I        1225 53.83        28.4 0.74            107            392 210 
 ORTC HZ EP       1225  6.08                             106    0.11 6  395 216 
 ORTC HN ES   3   1225 49.54                             106    1.50 1  395 216 
 ORTC HZ I        1225 53.15        20.7 0.24            107            395 216 
 PAL  HZ EP       1225  7.29                             106    0.06 6  406 239 
 PAL  HN ES   4   1225 52.65                             106    2.36 0  406 239 
 PAL  HZ I        1225 54.86        54.1 1.04            106            406 239 
 VALLCHZ EP       1225  9.33                             106    1.58 6  411 358 
 VALLCHN ES       1225 50.30                             106   -0.92 6  411 358 
 CRJC HZ EP   3   1225 12.00                             103   -2.60 1  468   3 
 CRJC HN ES   4   1225 59.25                             103   -4.16 0  468   3 
 CRJC HZ I        1226  7.12        16.4 0.36            105            468   3 
                                                                                
