 2016  925 1254 29.4 L   6.793 -73.129144.9  RSN  7 0.2 1.7LRSN                1
 GAP=139        0.52       2.5     2.5  4.5 -0.5284E-01  0.2629E+01  0.1627E+01E
 Epicentro: LOS SANTOS - SANTANDER                                             3
 ACTION:UPD 17-08-17 21:16 OP:lp   STATUS:               ID:20160925125429 L   I
 OLDACT:UP  16-09-25 23:24 OP:and  STATUS:               ID:20160925124744     3
 OLDACT:REG 16-09-25 20:31 OP:y    STATUS:               ID:20160925124744     3
 2016-09-25-1248-00M.COL___327                                                 6
 STAT SP IPHASW D HRMM SECON CODA AMPLIT PERI AZIMU VELO AIN AR TRES W  DIS CAZ7
 BAR2 EZ EP       1254 48.74                             170   -0.1510 23.0 195 
 BAR2 EZ ES   2   1255  4.02                             170   -0.09 5 23.0 195 
 BAR2 EZ I        1255  4.75        20.5 0.30            170           23.0 195 
 BRR  HZ EP     C 1254 50.46                             152   -0.0810 73.2 298 
 BRR  HE ES       1255  7.31                             152    0.2610 73.2 298 
 PAM  EZ IP     D 1254 51.60                             151    0.1410 76.8  38 
 PAM  EE ES       1255  8.67                             151   -0.0110 76.8  38 
 PAM  EZ I        1255 10.84         9.0 0.52            154           76.8  38 
 RUS  HZ EP       1254 52.89                             144   -0.0810 99.7 177 
 RUS  HE ES       1255 11.33                             144   -0.0610 99.7 177 
 RUS  HZ I        1255 12.44         3.9 0.34            147           99.7 177 
 PTB  HZ EP   2   1254 56.52                             132    0.10 5  149 259 
 PTB  HN ES   3   1255 16.66                             132   -0.86 2  149 259 
 PTB  HZ I        1255 23.60         4.5 0.18            131            149 259 
 ZAR  HE ES       1255 27.04                             122   -0.35 8  206 292 
 ZAR  HZ I        1255 33.62         5.1 0.28            122            206 292 
 NOR  HE ES       1255 33.51                             118    0.42 8  236 235 
                                                                                
