 2011  625 1410 59.6 L   6.503 -73.589106.1  RSN  5 0.2 1.7LRSN                1
 GAP=115        0.45       2.8     3.4  5.4 -0.4245E+01  0.4890E+01 -0.2642E+01E
 Epicentro: SANTA HELENA DEL OPON - SANTANDER                                  3
 ACTION:UP  11-07-14 19:07 OP:ep   STATUS:               ID:20110625141059 L   I
 2011-06-25-1406-27S.COL___140                                                 6
 STAT SP IPHASW D HRMM SECON CODA AMPLIT PERI AZIMU VELO SNR AR TRES W  DIS CAZ7
 BAR2 SZ EP       1411 15.51                             155     0.110   46  78 
 BAR2 SZ ES   1   1411 27.43                             155    -0.3 7   46  78 
 BAR2 SZ I        1411 29.23        29.8 0.29                            46  78 
 BRR  HZ EP   2   1411 16.43                             145     0.0 5   68 348 
 BRR  HZ I        1411 22.16        19.2 0.07                            68 348 
 BRR  HN ES   2   1411 29.67                             145     0.2 5   68 348 
 RUS  HZ EP   1   1411 18.74                             137     0.2 7   88 140 
 RUS  HN ES   2   1411 33.41                             137     0.0 5   88 140 
 RUS  HZ I        1411 35.03         3.2 0.39                            88 140 
 GRA  SZ I        1411 51.03         7.8 0.35                           176  30 
 NOR  SN ES   1   1411 47.75                             116    -0.1 7  176 234 
 GRA  SZ EP   1   1411 26.50                             116    -0.3 7  176  30 
 GRA  SZ ES   1   1411 48.18                             116     0.1 7  176  30 
                                                                                
