 2016 1025 1156 25.4 L   6.810 -73.143151.7  RSN  5 0.2 1.3LRSN                1
 GAP=141        0.56       3.4     3.8  6.4 -0.3813E+00  0.2487E+00 -0.3745E+01E
 Epicentro: LOS SANTOS - SANTANDER                                             3
 ACTION:UPD 16-11-09 19:22 OP:rebc STATUS:               ID:20161025115625 L   I
 OLDACT:UP  16-10-26 00:18 OP:dani STATUS:               ID:20161025114743d    3
 OLDACT:UP  16-10-26 00:17 OP:dani STATUS:               ID:20161025114743d    3
 OLDACT:UP  16-10-26 00:14 OP:dani STATUS:               ID:20161025114743d    3
 OLDACT:DUP 16-10-26 00:09 OP:dani STATUS:               ID:20161025114743d    3
 OLDACT:REG 16-10-25 20:42 OP:cog  STATUS:               ID:20161025114742     3
 2016-10-25-1148-00M.COL___343                                                 6
 STAT SP IPHASW D HRMM SECON CODA AMPLIT PERI AZIMU VELO AIN AR TRES W  DIS CAZ7
 BRR  HZ I        1157  6.76        10.2 0.33            151           70.9 298 
 PAM  EZ EP       1156 48.32                             152    0.1510 76.3  40 
 RUS  HN ES       1157  8.67                             145   -0.1710  102 176 
 RUS  HZ I        1157  9.20         2.3 0.38            144            102 176 
 PTB  HZ EP       1156 52.52                             133   -0.36 9  148 258 
 PTB  HN ES       1157 14.52                             133    0.19 9  148 258 
 PTB  HZ I        1157 18.20         2.1 0.17            132            148 258 
 CHI  HZ EP       1157  3.61                             118    0.08 8  250 195 
 CHI  HN ES       1157 33.47                             118    0.17 8  250 195 
 CHI  HZ I        1157 39.88         0.9 0.43            118            250 195 
                                                                                
