 2010  325 1230 43.9 L   6.818 -73.124143.2  RSN 11 0.5 2.7LRSN                1
 GAP=185        0.81       4.2     6.8  7.7 -0.1437E+01  0.1963E+02  0.6442E+01E
 Epicentro: LOS SANTOS - SANTANDER                                             3
 ACTION:UP  10-08-24 09:55 OP:vdl  STATUS:               ID:20100325123043 L   I
 2010-03-25-1228-16S.COL___098                                                 6
 STAT SP IPHASW D HRMM SECON CODA AMPLIT PERI AZIMU VELO SNR AR TRES W  DIS CAZ7
 BAR2 SZ IP       1231  3.12                             169    -0.110   26 195 
 BAR2 SZ ES   2   1231 18.09                             169    -0.3 5   26 195 
 BRR  HZ IP       1231  5.06                             151     0.210   72 296 
 BRR  HN ES   2   1231 22.11                             151     0.9 5   72 296 
 BRR  HZ I        1231 25.53       127.6 0.17                            72 296 
 RUS  HZ EP   1   1231  7.14                             143    -0.4 7  102 177 
 RUS  HE ES   2   1231 25.75                             143    -0.2 5  102 177 
 RUS  HZ I        1231 26.75        57.6 0.23                           102 177 
 OCA  SZ EP   1   1231 11.47                             130    -0.4 7  159 352 
 OCA  SZ ES   2   1231 33.66                             130     0.0 5  159 352 
 CHI  HZ EP   1   1231 21.34                             116    -0.4 6  251 196 
 CHI  HN ES   2   1231 50.87                             116    -0.4 4  251 196 
 CHI  HZ I        1231 57.91        26.2 0.49                           251 196 
 ROSC BZ EP   1   1231 23.31                             116     1.1 6  256 211 
 ROSC BE ES   2   1231 52.83                             116     0.8 4  256 211 
 ROSC BZ I        1231 59.38        28.0 0.43                           256 211 
 HEL  HZ EP   1   1231 24.46                             114     0.2 6  275 256 
 HEL  HE ES   2   1231 54.84                             114    -0.9 4  275 256 
 HEL  HZ I        1232  2.27        17.5 0.52                           275 256 
 RREF BZ EP   1   1231 30.22                             110     0.0 5  325 229 
 RREF BN ES   2   1232  6.31                             110    -0.1 3  325 229 
 RREF BZ I        1232 15.13        30.5 0.30                           325 229 
 DBB  SZ EP   1   1231 31.27                             109    -0.2 5  342 274 
 DBB  SZ ES   2   1232  7.48                             109    -1.2 3  342 274 
 TOL  SZ EP   1   1231 32.74                             109     0.3 5  347 225 
 TOL  SZ ES   2   1232 10.74                             109     0.5 3  347 225 
 PRA  HZ EP   1   1231 37.56                             106    -0.1 4  395 210 
 PRA  HN ES   2   1232 19.81                             106     0.2 3  395 210 
 PRA  HZ I        1232 26.53        27.7 0.59                           395 210 
                                                                                
