 2010  725 1224 54.0 L   5.904 -73.776108.0  RSN 15 0.4 3.5LRSN                1
 GAP= 87        0.91       2.8     4.1  8.1 -0.5203E+01  0.1646E+02 -0.4899E+01E
 Epicentro: JESUS MARIA - SANTANDER                                            3
 ACTION:UPD 10-12-01 15:20 OP:pat  STATUS:               ID:20100725122454 L   I
 2010-07-25-1221-08S.COL___123                                                 6
 STAT SP IPHASW D HRMM SECON CODA AMPLIT PERI AZIMU VELO AIN AR TRES W  DIS CAZ7
 RUS  HZ IP     C 1225 12.50                             143     0.210   77  91 
 RUS  HN ES   1   1225 26.65                             143     0.1 7   77  91 
 RUS  HZ I        1225 28.69       400.7 0.37                            77  91 
 BAR2 SZ IP       1225 14.15                             134     0.310  100  41 
 BAR2 SZ ES   1   1225 29.34                             134    -0.1 7  100  41 
 BAR2 SZ I        1225 31.48      3615.4 0.50                           100  41 
 BRR  HZ IP     D 1225 16.40                             125    -0.310  133   3 
 BRR  HN ES   1   1225 34.72                             125     0.4 7  133   3 
 BRR  HZ I        1225 38.04       664.9 0.15                           133   3 
 CHI  HZ IP     C 1225 18.17                             124     0.2 9  141 178 
 CHI  HE ES   1   1225 35.76                             124    -1.0 7  141 178 
 CHI  HZ I        1225 40.01       182.7 0.33                           141 178 
 CVER SZ EP   2   1225 20.73                             121     1.1 5  156 192 
 CVER SZ I        1225 47.47       324.7 0.63                           156 192 
 GUY  SZ EP   1   1225 23.91                             115     0.4 7  192 247 
 GUY  SZ I        1225 52.73       744.2 0.52                           192 247 
 HEL  HZ EP       1225 23.96                             114     0.1 9  197 279 
 HEL  HN ES   1   1225 46.99                             114    -0.3 6  197 279 
 HEL  HZ I        1225 51.64       198.0 0.26                           197 279 
 TOL  SZ EP   2   1225 27.59                             111     0.5 4  225 230 
 GUE  SZ IP       1225 27.47                             110    -0.5 8  233  24 
 GUE  SZ I        1225 29.44       172.1 0.10                           233  24 
 ANIL HZ EP   1   1225 29.06                             109     0.5 6  239 229 
 ANIL HN ES   1   1225 55.57                             109     0.0 6  239 229 
 ANIL HZ I        1226  2.23       503.9 0.41                           239 229 
 GRA  SZ IP       1225 28.96                             108    -0.1 8  244  26 
 GRA  SZ ES   1   1225 56.45                             108     0.1 6  244  26 
 GRA  SZ I        1226  1.10       414.0 0.29                           244  26 
 OCA  SZ EP       1225 30.70                             107    -0.6 8  263  11 
 OCA  SZ ES   1   1226  0.77                             107     0.4 6  263  11 
 OCA  SZ I        1226  5.24       354.0 0.62                           263  11 
 PRA  HZ EP   1   1225 31.97                             106    -0.1 6  272 207 
 PRA  HE ES   1   1226  1.87                             106     0.0 6  272 207 
 PRA  HZ I        1226  7.99       224.0 0.42                           272 207 
 DBB  SZ EP   1   1225 34.58                             104    -0.5 5  296 295 
 SDV  BZ EP   2   1225 57.07                              96    -0.1 2  478  46 
 SDV  BZ I        1226 50.17        39.8 0.51                           478  46 
                                                                                
