 2017  625 1322 34.4 L   6.544 -73.254142.7  RSN  4 0.3 1.6LRSN                1
 GAP=214        0.85       9.4     5.9  7.9  0.1817E+02  0.1525E+02  0.1183E+02E
 Epicentro: PALMAR - SANTANDER                                                 3
 ACTION:UPD 17-09-14 16:55 OP:jn   STATUS:               ID:20170625132234 L   I
 OLDACT:UP  17-06-25 21:22 OP:lv   STATUS:               ID:20170625131736     3
 OLDACT:REG 17-06-25 20:09 OP:lv   STATUS:               ID:20170625131736     3
 2017-06-25-1318-00M.COL___343                                                 6
 STAT SP IPHASW D HRMM SECON CODA AMPLIT PERI AZIMU VELO AIN AR TRES W  DIS CAZ7
 BAR2 HZ EP       1322 53.32                             176   -0.1810 9.55  56 
 BAR2 HZ ES       1323  8.60                             176    0.2410 9.55  56 
 BAR2 HZ I        1323 10.04         3.3 0.06            175           9.55  56 
 BRR  HZ EP       1322 55.41                             149   -0.4010 80.3 321 
 BRR  HE ES       1323 12.50                             149    0.0310 80.3 321 
 PTB  HZ EP       1323  0.41                             134    0.5710  133 270 
 PTB  HN ES       1323 19.26                             134   -0.3910  133 270 
 PTB  HZ I        1323 24.23        12.9 0.04            134            133 270 
 ZAR  HN ES       1323 32.39                             121    0.20 8  206 301 
                                                                                
