 2017  225 1629 20.3 L   6.767 -73.132138.0  RSN  6 0.4 1.3LRSN                1
 GAP=140        0.99       5.1     4.6  7.5 -0.1129E+01  0.1360E+02 -0.2062E+01E
 Epicentro: LOS SANTOS - SANTANDER                                             3
 ACTION:UPD 17-05-24 15:40 OP:jn   STATUS:               ID:20170225162920 L   I
 OLDACT:REG 17-02-25 20:46 OP:edw  STATUS:               ID:20170225162741     3
 2017-02-25-1628-00M.COL___376                                                 6
 STAT SP IPHASW D HRMM SECON CODA AMPLIT PERI AZIMU VELO AIN AR TRES W  DIS CAZ7
 BAR2 EZ EP       1629 38.74                             171   -0.2010 20.2 196 
 BAR2 EZ ES       1629 53.58                             171    0.1110 20.2 196 
 BAR2 EZ I        1629 54.60        10.0 0.29            172           20.2 196 
 PAM  EZ EP       1629 41.85                             149    0.0310 79.3  37 
 PAM  EN ES       1629 58.48                             149   -0.1210 79.3  37 
 PAM  EZ I        1630  0.21         3.6 0.28            150           79.3  37 
 RUS  HZ EP       1629 42.81                             143   -0.2210 96.9 177 
 RUS  HN ES       1630  1.21                             143    0.4610 96.9 177 
 RUS  HZ I        1630  2.18         1.9 0.25            144           96.9 177 
 PTB  HZ EP       1629 46.55                             130   -0.18 9  149 260 
 PTB  HN ES       1630  6.58                             130   -0.76 9  149 260 
 PTB  HZ I        1630  7.96         2.0 0.11            131            149 260 
 ZAR  HE ES       1630 18.39                             120    0.69 8  207 293 
 CBOC HZ EP       1630  7.52                             108    0.57 7  334 253 
                                                                                
