 2013  625 1431 26.5 L   5.724 -73.916 99.2  RSN  6 0.5 1.7LRSN                1
 GAP=173        1.03       6.2     4.1 18.5 -0.1017E+02  0.2001E+02  0.1362E+02E
 Epicentro: ALBANIA - SANTANDER                                                3
 ACTION:UPD 14-01-08 09:57 OP:ep   STATUS:               ID:20130625143126 L   I
 OLDACT:REG 13-06-25 17:22 OP:carl STATUS:               ID:20130625142959     3
 2013-06-25-1429-59M.COL___266                                                 6
 STAT SP IPHASW D HRMM SECON CODA AMPLIT PERI AZIMU VELO AIN AR TRES W  DIS CAZ7
 RUS  HZ EP   1   1431 45.65                             134    0.17 7 94.1  79 
 RUS  HN ES       1432  0.16                             134   -0.1010 94.1  79 
 RUS  HZ I        1432  2.44         1.9 0.22            139           94.1  79 
 NOR  HZ EP   1   1431 45.21                             129   -0.88 7  107 261 
 NOR  HN ES   1   1432  1.75                             129    0.40 7  107 261 
 NOR  HZ I        1432  2.87        16.7 0.40            134            107 261 
 PTB  HZ EP   4   1431 44.24                             129   -1.91 0  108 326 
 PTB  HN ES   1   1432  0.76                             129   -0.69 7  108 326 
 PTB  HZ I        1432  3.93         5.3 0.30            133            108 326 
 BAR2 SZ ES   1   1432  4.99                             125   -0.06 7  126  40 
 BAR2 SZ I        1432  6.52        15.7 0.50            129            126  40 
 BRR  HN ES   1   1432 10.65                             119    0.75 7  155   8 
 BRR  HN I        1432 11.03        25.1 0.18            123            155   8 
 GUY2CHN ES       1432 14.37                             116    0.41 9  170 251 
                                                                                
