 2013  225 1738 54.3 L   6.838 -73.152145.4  RSN  7 0.4 1.7LRSN                1
 GAP=134        0.84       4.8     5.3  9.2  0.1438E+01  0.1602E+02 -0.7791E+01E
 Epicentro: LOS SANTOS - SANTANDER                                             3
 ACTION:UPD 13-03-12 09:35 OP:ep   STATUS:               ID:20130225173854 L   I
 2013-02-25-1737-52M.COL___200                                                 6
 STAT SP IPHASW D HRMM SECON CODA AMPLIT PERI AZIMU VELO AIN AR TRES W  DIS CAZ7
 BAR2 SZ EP   1   1739 13.97                             169   -0.04 7 27.4 187 
 BAR2 SZ ES   1   1739 28.91                             169   -0.44 7 27.4 187 
 BAR2 SZ I        1739 30.13        12.1 0.34            171           27.4 187 
 BRR  HZ EP   1   1739 15.84                             153    0.54 7 68.7 296 
 BRR  HN ES   4   1739 33.12                             153    1.46 0 68.7 296 
 BRR  HZ I        1739 36.88        11.8 0.38            150           68.7 296 
 PAM  SZ EP   1   1739 16.73                             152    0.38 7 74.6  42 
 PAM  SN ES   1   1739 33.64                             152    0.12 7 74.6  42 
 PAM  SZ I        1739 35.79        10.7 0.54            154           74.6  42 
 RUS  HZ EP   1   1739 18.07                             142   -0.29 7  105 176 
 RUS  HN ES   1   1739 37.30                             142    0.20 7  105 176 
 PTB  HZ EP   1   1739 20.83                             132   -0.46 7  148 257 
 PTB  HN ES   1   1739 42.22                             132   -0.10 7  148 257 
 PTB  HZ I        1739 45.23         4.0 0.18            133            148 257 
 ZAR  HN ES   1   1739 52.40                             123    0.76 6  202 291 
 ZAR  HZ I        1739 57.77         6.1 0.28            124            202 291 
 SML  HE ES   1   1739 57.85                             118   -0.85 6  240 335 
                                                                                
