 2013  425 1239  7.4 L   5.968 -73.811105.2  RSN  7 0.5 1.6LRSN                1
 GAP=110        1.03       4.7     4.2  9.9 -0.5961E+01  0.4950E+01  0.1176E+02E
 Epicentro: EL PEON - SANTANDER                                                3
 ACTION:UPD 13-05-22 14:40 OP:EP   STATUS:               ID:20130425123907 L   I
 2013-04-25-1237-48M.COL___205                                                 6
 STAT SP IPHASW D HRMM SECON CODA AMPLIT PERI AZIMU VELO AIN AR TRES W  DIS CAZ7
 RUS  HZ EP     D 1239 25.45                             140   -0.3310 81.0  96 
 RUS  HN ES   1   1239 39.62                             140   -0.51 7 81.0  96 
 RUS  HZ I        1239 41.33         5.9 0.24            101           81.0  96 
 PTB  HZ EP       1239 25.45                             134   -0.8710 95.4 312 
 PTB  HN ES   1   1239 40.77                             134   -0.31 7 95.4 312 
 PTB  HZ I        1239 43.84         6.2 0.24             99           95.4 312 
 BAR2 SZ IP     C 1239 27.01                             134    0.1510 98.0  45 
 BAR2 SZ ES   1   1239 42.81                             134    0.78 7 98.0  45 
 BAR2 SZ I        1239 44.04        15.2 0.46             98           98.0  45 
 NOR  HZ EP       1239 29.41                             126    0.2210  125 249 
 NOR  HN ES   1   1239 46.80                             126    0.62 7  125 249 
 NOR  HZ I        1239 48.70        10.4 0.14             98            125 249 
 BRR  HZ EP     D 1239 29.32                             125    0.1010  126   5 
 BRR  HN ES   2   1239 46.82                             125    0.58 5  126   5 
 BRR  HZ I        1239 50.51        10.7 0.12             56            126   5 
 GIR2 SZ EP       1239 31.07                             122    0.24 9  141  29 
 GIR2 SZ I        1239 50.51         5.8 0.50             56            141  29 
 PRA  HZ EP       1239 45.96                             105   -0.03 7  276 206 
 PRA  HN ES   1   1240 16.47                             105    0.37 6  276 206 
 PRA  HZ I        1240 21.73         2.3 0.20             56            276 206 
                                                                                
