 2016  125 1541 32.4 L   6.788 -73.137140.2  RSN  6 0.4 1.6LRSN                1
 GAP=138        0.85       3.3     5.2  6.6  0.3255E+01  0.1307E+02  0.8177E+00E
 Epicentro: LOS SANTOS - SANTANDER                                             3
 ACTION:UPD 16-03-09 23:28 OP:cam  STATUS:               ID:20160125154132 L   I
 OLDACT:REG 16-01-25 22:06 OP:ak   STATUS:               ID:20160125153749     3
 2016-01-25-1537-49M.COL___333                                                 6
 STAT SP IPHASW D HRMM SECON CODA AMPLIT PERI AZIMU VELO AIN AR TRES W  DIS CAZ7
 BAR2 EZ EP       1541 51.39                             171    0.0210 22.2 193 
 BAR2 EZ ES       1542  5.73                             171   -0.4210 22.2 193 
 BAR2 EZ I        1542  7.35        17.4 0.24            170           22.2 193 
 PAM  EZ EP       1541 54.23                             150    0.1510 77.8  38 
 PAM  EN ES       1542 11.32                             150    0.3510 77.8  38 
 PAM  EZ I        1542 13.32         7.4 0.60            152           77.8  38 
 RUS  HZ EP       1541 55.52                             143   -0.0210 99.2 177 
 RUS  HN ES       1542 13.64                             143    0.0810 99.2 177 
 RUS  HZ I        1542 15.17         4.1 0.48            146           99.2 177 
 ZAR  HZ EP   2   1542  5.38                             121    0.72 4  205 292 
 ZAR  HE ES       1542 30.34                             121    0.53 8  205 292 
 ZAR  HZ I        1542 35.81         4.4 0.13            121            205 292 
 SML  HZ EP   4   1542  6.86                             116   -2.06 0  245 335 
 SML  HN ES       1542 36.57                             116   -0.82 8  245 335 
 CHI  HZ EP       1542  9.49                             116   -0.22 8  248 195 
 CHI  HN ES   2   1542 38.70                             116   -0.10 4  248 195 
                                                                                
