 2013 1225 1034 58.4 L   6.303 -73.672108.0  RSN  4 0.2 1.0LRSN                1
 GAP=162        0.46       5.4     2.5  5.6  0.5451E+01  0.4493E+01  0.1118E+02E
 Epicentro: SANTA HELENA DEL OPON - SANTANDER                                  3
 ACTION:UPD 14-01-13 10:20 OP:ep   STATUS:               ID:20131225103458 L   I
 OLDACT:REG 13-12-25 14:27 OP:jn   STATUS:               ID:20131225103000     3
 2013-12-25-1030-00M.COL___285                                                 6
 STAT SP IPHASW D HRMM SECON CODA AMPLIT PERI AZIMU VELO AIN AR TRES W  DIS CAZ7
 BAR2 SZ ES       1035 28.56                             148   -0.0510 62.9  59 
 BAR2 SZ I        1035 29.77        11.6 0.32            152           62.9  59 
 RUS  HZ EP       1035 16.73                             141   -0.1510 79.5 125 
 RUS  HN ES   2   1035 31.89                             141    0.55 5 79.5 125 
 RUS  HN I        1035 32.16         0.8 0.34            145           79.5 125 
 PTB  HZ EP       1035 17.12                             137    0.0110 90.6 287 
 PTB  HN ES       1035 31.74                             137   -0.0010 90.6 287 
 PTB  HZ I        1035 34.62         1.6 0.10            139           90.6 287 
 SML  HZ EP   2   1035 37.80                             105    0.41 4  280 351 
                                                                                
