 2016  425 1333 55.4 L   6.815 -73.149147.4  RSN 15 0.4 2.4LRSN                1
 GAP=119        0.70       2.2     2.9  4.3 -0.1530E+01  0.4167E+01  0.2180E+00E
 Epicentro: LOS SANTOS - SANTANDER                                             3
 ACTION:UPD 16-05-05 14:24 OP:rebc STATUS:               ID:20160425133355 L   I
 OLDACT:REG 16-04-25 22:16 OP:dnl  STATUS:               ID:20160425132742     3
 2016-04-25-1327-42M.COL___302                                                 6
 STAT SP IPHASW D HRMM SECON CODA AMPLIT PERI AZIMU VELO AIN AR TRES W  DIS CAZ7
 BAR2 EZ EP       1334 15.29                             170   -0.0110 24.9 188 
 BAR2 EZ ES       1334 30.66                             170   -0.1310 24.9 188 
 BAR2 EZ I        1334 33.07        35.2 0.26            169           24.9 188 
 PAM  EZ EP       1334 18.10                             151    0.3310 76.4  41 
 PAM  EN ES       1334 35.44                             151    0.2510 76.4  41 
 PAM  EZ I        1334 37.61        26.1 0.48            155           76.4  41 
 RUS  HZ EP       1334 19.15                             144   -0.3210  102 176 
 RUS  HN ES       1334 38.12                             144   -0.0910  102 176 
 RUS  HZ I        1334 39.16        19.2 0.38            146            102 176 
 PTB  HZ EP       1334 22.22                             132   -0.31 9  148 258 
 PTB  HN ES       1334 43.14                             132   -0.53 9  148 258 
 PTB  HZ I        1334 49.20        34.8 0.28            132            148 258 
 OCA  HZ EP   2   1334 24.39                             130    0.67 5  159 353 
 OCA  HN ES       1334 45.74                             130   -0.04 9  159 353 
 OCA  HZ I        1334 51.32        71.8 0.22            132            159 353 
 SPBC HZ EP       1334 24.17                             129    0.01 9  164 219 
 SPBC HE ES       1334 46.91                             129    0.35 9  164 219 
 SPBC HZ I        1334 50.48        45.2 0.07            130            164 219 
 ZAR  HZ EP       1334 27.68                             123   -0.21 9  203 292 
 ZAR  HE ES       1334 53.38                             123    0.18 9  203 292 
 ZAR  HZ I        1334 59.80        33.1 0.24            123            203 292 
 NOR  HZ EP   2   1334 30.82                             119   -0.51 4  235 234 
 NOR  HN ES       1334 59.49                             119    0.17 8  235 234 
 NOR  HZ I        1335  3.05        27.9 0.18            119            235 234 
 CHI  HZ EP   2   1334 33.22                             117   -0.16 4  250 195 
 CHI  HN ES   2   1335  2.50                             117   -0.49 4  250 195 
 CHI  HZ I        1335  8.35         9.7 0.56            119            250 195 
 ROSC BZ EP   4   1334 34.89                             117    1.12 0  254 211 
 ROSC BN ES   4   1335  5.74                             117    2.06 0  254 211 
 ROSC BZ I        1335 10.18        26.0 0.60            118            254 211 
 URE  HZ EP   2   1334 35.91                             114   -0.57 4  283 292 
 URE  HE ES   4   1335  5.50                             114   -2.99 0  283 292 
 URE  HZ I        1335 13.84        15.4 0.18            115            283 292 
 SOCV BZ EP   2   1334 37.85                             112   -0.64 4  301  57 
 SOCV BE ES   4   1335  9.22                             112   -2.86 0  301  57 
 GUY2CHZ EP   4   1334 40.18                             112    0.99 0  302 234 
 GUY2CHN ES   2   1335 14.15                             112    0.83 4  302 234 
 GUY2CHZ I        1335 20.27        18.2 0.32                           302 234 
 ORTC HZ EP       1334 50.19                             106    0.65 6  397 216 
 ORTC HN ES       1335 32.37                             106    0.63 6  397 216 
 ORTC HZ I        1335 36.66         6.5 0.20            108            397 216 
 SJC  HZ EP   4   1334 49.45                             106   -1.41 0  408 327 
 SJC  HN ES   4   1335 30.52                             106   -3.58 0  408 327 
 SJC  HZ I        1335 36.11         5.7 0.48            107            408 327 
                                                                                
