 2017  425 1045  0.0 L   6.779 -73.114146.0  RSN 20 0.5 2.5LRSN                1
 GAP=123        1.10       3.4     3.8  5.4 -0.1010E+01  0.2728E+01  0.5737E+01E
 Epicentro: LOS SANTOS - SANTANDER                                             3
 ACTION:UPD 17-05-30 21:15 OP:jn   STATUS:               ID:20170425104500 L   I
 OLDACT:UP  17-04-25 22:14 OP:ar   STATUS:               ID:20170425102458     3
 OLDACT:REG 17-04-25 20:25 OP:ods  STATUS:               ID:20170425102458     3
 2017-04-25-1038-00M.COL___368                                                 6
 STAT SP IPHASW D HRMM SECON CODA AMPLIT PERI AZIMU VELO AIN AR TRES W  DIS CAZ7
 BAR2 EZ IP     D 1045 19.59                             171   -0.0510 22.0 200 
 BAR2 EZ ES       1045 35.31                             171    0.3610 22.0 200 
 BAR2 EZ I        1045 36.09       127.9 0.28            166           22.0 200 
 BRR  HZ IP     C 1045 21.36                             151   -0.0610 75.3 299 
 BRR  HN ES       1045 38.51                             151    0.3910 75.3 299 
 BRR  HZ I        1045 42.45        65.2 0.32            150           75.3 299 
 PAM  EZ EP       1045 22.56                             151    0.3310 77.1  36 
 PAM  EE ES       1045 39.67                             151    0.1110 77.1  36 
 PAM  EZ I        1045 41.70        63.6 0.50            153           77.1  36 
 PTB  HZ EP       1045 26.10                             132   -1.16 9  151 260 
 PTB  HN ES       1045 48.16                             132   -0.36 9  151 260 
 PTB  HZ I        1045 53.65        26.0 0.44            128            151 260 
 SPBC HZ EP       1045 28.63                             129    0.07 9  164 220 
 SPBC HN ES       1045 51.05                             129    0.21 9  164 220 
 SPBC HZ I        1045 55.26        80.8 0.24            125            164 220 
 ZAR  HZ EP       1045 33.02                             122    0.13 8  208 292 
 ZAR  HN ES       1045 57.79                             122   -0.74 8  208 292 
 ZAR  HZ I        1046  4.29        33.6 0.38            120            208 292 
 TABC EZ EP   2   1045 36.98                             120    1.23 4  230 212 
 TABC EZ ES       1046  3.83                             120    0.20 8  230 212 
 TABC EZ I        1046  8.52        42.8 0.66            116            230 212 
 NOR  HZ EP       1045 35.79                             119   -0.12 8  236 235 
 NOR  HE ES       1046  3.19                             119   -0.72 8  236 235 
 NOR  HZ I        1046 11.27        20.6 0.14            116            236 235 
 CHI  HZ EP       1045 37.88                             118    0.30 8  247 196 
 CHI  HN ES       1046  7.09                             118    0.21 8  247 196 
 CHI  HZ I        1046 10.32        19.9 0.44            114            247 196 
 ROSC BZ EP   9   1045 40.06                             117    1.94 0  253 212 
 ROSC BN ES       1046 10.41                             117    0.62 8  253 212 
 ROSC BZ I        1046 13.35        48.2 0.45            114            253 212 
 HEL  HZ EP       1045 41.19                             115    0.65 8  275 256 
 HEL  HN ES   4   1046 15.57                             115    3.41 0  275 256 
 HEL  HZ I        1046 19.77         9.5 0.36            112            275 256 
 VIL  EZ EP   4   1045 39.91                             112   -3.35 0  302 192 
 VIL  EZ I        1046 22.51        34.0 0.60            110            302 192 
 PTGC HZ EP       1045 42.73                             112   -0.76 7  305 159 
 PTGC HN ES       1046 16.43                             112   -0.97 7  305 159 
 PTGC HZ I        1046 22.40        13.2 0.26            110            305 159 
 ELA  HZ EP   4   1045 48.77                             110    1.77 0  330 230 
 ELA  HN ES   4   1046 28.07                             110    4.42 0  330 230 
 ELA  HZ I        1046 36.09        13.0 0.48            108            330 230 
 CBOC HZ EP       1045 47.82                             110    0.59 7  336 253 
 CBOC HN ES       1046 24.59                             110    0.53 7  336 253 
 CBOC HZ I        1046 31.81         5.2 0.38            108            336 253 
 DBB  EZ EP       1045 48.14                             110    0.23 7  343 275 
 DBB  EN ES   4   1046 23.44                             110   -1.83 0  343 275 
 DBB  EZ I        1046 24.23         5.1 0.36            108            343 275 
 ANIL HZ EP   9   1045 51.83                             109    1.92 0  358 225 
 ANIL HN ES       1046 31.26                             109    0.51 6  358 225 
 PRA  HZ EP       1045 53.47                             107   -0.03 6  392 210 
 PRA  HN ES       1046 35.43                             107    0.20 6  392 210 
 PRA  HZ I        1046 41.72        22.1 0.30            105            392 210 
 ORTC HZ EP       1045 54.52                             107    0.56 6  396 217 
 ORTC HN ES   4   1046 38.24                             107    2.20 0  396 217 
 ORTC HZ I        1046 42.92         9.8 0.46            105            396 217 
 SJC  HZ EP   4   1045 53.76                             106   -2.27 0  413 327 
 SJC  HN ES   4   1046 33.51                             106   -6.21 0  413 327 
 SJC  HZ I        1046 41.49         6.6 0.66            105            413 327 
                                                                                
