 2011  625 1258 11.6 L   6.775 -73.001147.8  RSN  5 0.2 1.6LRSN                1
 GAP=175        0.48       4.2     7.6  5.3  0.8479E+01 -0.1009E+02  0.1228E+01E
 Epicentro: CEPITA - SANTANDER                                                 3
 ACTION:UP  11-07-14 19:07 OP:ep   STATUS:               ID:20110625125811 L   I
 2011-06-25-1253-56S.COL___140                                                 6
 STAT SP IPHASW D HRMM SECON CODA AMPLIT PERI AZIMU VELO SNR AR TRES W  DIS CAZ7
 BAR2 SZ EP   1   1258 31.59                             169     0.0 7   28 225 
 BAR2 SZ ES   1   1258 47.45                             169     0.2 7   28 225 
 BAR2 SZ I        1258 47.54        10.2 0.43                            28 225 
 BTL  SZ EP   1   1258 31.80                             167     0.1 7   33 298 
 BTL  SZ ES   1   1258 47.56                             167     0.1 7   33 298 
 BRR  HZ EP   1   1258 34.00                             148     0.1 7   87 295 
 BRR  HZ I        1258 41.84        15.0 0.50                            87 295 
 BRR  HE ES   1   1258 51.12                             148    -0.2 7   87 295 
 RUS  HZ EP   1   1258 35.46                             145     0.1 7   98 185 
 RUS  HN ES   2   1258 53.40                             145    -0.5 5   98 185 
 RUS  HZ I        1258 55.40         4.3 0.52                            98 185 
 GRA  SZ ES   2   1258 56.49                             138    -0.2 5  125  10 
 GRA  SZ I        1259  0.06         4.5 0.32                           125  10 
                                                                                
