 2012 1225 1205  8.6 L   6.742 -73.155155.9  RSN  5 0.2 1.4LRSN                1
 GAP=232        0.41       3.9     3.8  4.0  0.6646E+01  0.8415E+00  0.1841E+01E
 Epicentro: JORDAN - SANTANDER                                                 3
 ACTION:UPD 13-01-04 14:30 OP:ep   STATUS:               ID:20121225120508 L   I
 2012-12-25-1200-00M.COL___242                                                 6
 STAT SP IPHASW D HRMM SECON CODA AMPLIT PERI AZIMU VELO AIN AR TRES W  DIS CAZ7
 BAR2 SZ EP       12 5 29.22                             174   -0.0910 16.8 190 
 BAR2 SZ I        12 5 29.35         6.9 0.23                          16.8 190 
 BRR  HZ EP     C 12 5 31.05                             153    0.1010 73.6 303 
 BRR  HN ES       12 5 48.43                             153    0.0210 73.6 303 
 BRR  HZ I        12 5 53.06         3.3 0.13                          73.6 303 
 RUS  HZ EP   1   12 5 32.92                             148    0.02 7 94.3 175 
 RUS  HN ES   1   12 5 51.97                             148    0.08 7 94.3 175 
 RUS  HN I        12 5 52.33         2.3 0.38                          94.3 175 
 PTB  HZ EP       12 5 35.97                             135   -0.22 9  146 261 
 PTB  HE ES   1   12 5 57.66                             135   -0.08 7  146 261 
 PTB  HZ I        12 5 59.35         2.5 0.17                           146 261 
 HEL  HZ EP   1   12 5 49.44                             117    0.40 6  270 257 
 HEL  HZ I        12 6  9.38         3.0 0.39                           270 257 
                                                                                
