 2016  725 1810 46.3 L   6.822 -73.145145.0  RSN 21 0.5 2.9LRSN                1
 GAP= 70        1.16       3.9     3.3  5.3 -0.1571E+01  0.5981E+01  0.3171E+01E
 Epicentro: LOS SANTOS - SANTANDER                                             3
 ACTION:UPD 17-03-29 16:55 OP:lp   STATUS:               ID:20160725181046 L   I
 OLDACT:UP  16-07-26 01:07 OP:ar   STATUS:               ID:20160725180759     3
 OLDACT:UP  16-07-26 01:06 OP:ar   STATUS:               ID:20160725180759     3
 OLDACT:REG 16-07-25 22:09 OP:ar   STATUS:               ID:20160725180759     3
 2016-07-25-1807-59S.COL___331                                                 6
 STAT SP IPHASW D HRMM SECON CODA AMPLIT PERI AZIMU VELO AIN AR TRES W  DIS CAZ7
 BAR2 EZ IP     D 1811  5.59                             170   -0.2810 25.8 189 
 BAR2 EZ ES       1811 20.71                             170   -0.4410 25.8 189 
 BAR2 EZ I        1811 21.82       206.2 0.24            163           25.8 189 
 BRR  HZ IP     C 1811  7.39                             153    0.1110 70.1 297 
 BRR  HN ES       1811 24.51                             153    0.8410 70.1 297 
 BRR  HZ I        1811 32.52        65.9 0.54            158           70.1 297 
 PAM  EZ EP       1811  8.56                             151    0.2610 75.4  41 
 PAM  EN ES       1811 25.56                             151    0.0910 75.4  41 
 PAM  EZ I        1811 27.75       115.9 0.48            149           75.4  41 
 RUS  HZ EP       1811  9.54                             143   -0.5910  103 176 
 RUS  HN ES       1811 28.49                             143   -0.2510  103 176 
 RUS  HZ I        1811 29.34        91.0 0.26            137            103 176 
 TAM  HZ EP       1811 13.97                             130    0.02 9  156 106 
 TAM  HZ I        1811 35.05        38.9 0.38            125            156 106 
 TAM  HN ES       1811 35.80                             130    0.27 9  156 106 
 SPBC HZ EP       1811 14.59                             128   -0.32 9  165 218 
 SPBC HN ES       1811 37.28                             128    0.05 9  165 218 
 SPBC HZ I        1811 40.98       138.2 0.22            126            165 218 
 ZAR  HZ EP       1811 18.67                             122    0.08 9  203 291 
 ZAR  HN ES       1811 43.11                             122   -0.68 9  203 291 
 ZAR  HZ I        1811 48.76        78.1 0.31            123            203 291 
 NOR  HZ EP       1811 21.74                             118   -0.38 8  236 234 
 NOR  HE ES       1811 49.78                             118   -0.30 8  236 234 
 NOR  HZ I        1811 58.95        43.0 0.12            116            236 234 
 CHI  HZ EP       1811 23.76                             117   -0.43 8  251 195 
 CHI  HN ES   4   1811 53.08                             117   -0.69 0  251 195 
 CHI  HZ I        1811 58.01        40.5 0.46            114            251 195 
 ROSC BZ EP       1811 25.69                             116    1.10 8  255 211 
 ROSC BN ES   4   1811 56.94                             116    2.47 0  255 211 
 ROSC BZ I        1812  0.27       117.9 0.40            114            255 211 
 HEL  HZ EP       1811 27.38                             114    0.85 8  273 255 
 HEL  HN ES       1811 58.10                             114    0.18 8  273 255 
 HEL  HZ I        1812  3.65        46.5 0.28            114            273 255 
 URE  HZ EP       1811 26.18                             113   -1.04 7  283 291 
 URE  HN ES   4   1811 56.05                             113   -3.10 0  283 291 
 URE  HZ I        1812  8.27        44.9 0.18            113            283 291 
 GUY2CHZ EP       1811 29.89                             112   -0.13 7  303 234 
 GUY2CHN ES       1812  4.43                             112    0.29 7  303 234 
 GUY2CHZ I        1812 11.85        45.6 0.36                           303 234 
 PTGC HZ EP   4   1811 28.68                             111   -1.68 0  311 159 
 PTGC HN ES   4   1812  2.63                             111   -2.11 0  311 159 
 PTGC HZ I        1812 52.42       111.2 0.28            108            311 159 
 ELA  HZ EP       1811 34.52                             110    1.23 7  331 229 
 ELA  HN ES   4   1812 11.66                             110    1.71 0  331 229 
 ELA  HZ I        1812 17.36        26.6 0.44            108            331 229 
 ARGC HZ EP       1811 35.36                             108   -0.28 6  357 340 
 ARGC HN ES   4   1812 11.17                             108   -2.97 0  357 340 
 ANIL HZ EP   4   1811 36.47                             108    0.21 0  359 224 
 ANIL HZ EPg      1811 37.21                             108    0.95 6  359 224 
 ANIL HN ES       1812 14.99                             108   -0.26 6  359 224 
 ANIL HZ I        1812 21.27        96.1 0.28            107            359 224 
 PRA  HZ EP       1811 39.48                             106   -0.55 6  394 209 
 PRA  HN ES   4   1812 20.27                             106   -1.68 0  394 209 
 PRA  HZ I        1812 25.81        40.9 0.48            104            394 209 
 PAL  HZ EP       1811 41.28                             106   -0.29 6  407 239 
 PAL  HN ES       1812 25.16                             106    0.46 6  407 239 
 PAL  HZ I        1812 29.44        15.6 0.80            104            407 239 
 SJC  HZ EP   4   1811 39.90                             106   -1.68 0  407 327 
 SJC  HN ES   4   1812 21.33                             106   -3.38 0  407 327 
 SJC  HZ I        1812 29.51        10.1 0.54            105            407 327 
 CRJC HZ EP   4   1811 45.87                             103   -2.59 0  465   4 
 CRJC HN ES   4   1812 32.62                             103   -4.35 0  465   4 
 CRJC HZ I        1812 38.05        17.0 0.15            102            465   4 
                                                                                
