 2011  725 1426 56.7 L   6.787 -73.112144.8  RSN  5 0.4 1.7LRSN                1
 GAP=240        0.61       6.0     6.5  7.2  0.2691E+01  0.6485E+01  0.9917E+01E
 Epicentro: LOS SANTOS - SANTANDER                                             3
 ACTION:UPD 12-07-25 14:03 OP:epov STATUS:               ID:20110725142656 L   I
 2011-07-25-1424-22S.COL___143                                                 6
 STAT SP IPHASW D HRMM SECON CODA AMPLIT PERI AZIMU VELO AIN AR TRES W  DIS CAZ7
 BAR2 SZ EP       1427 16.27                             171    0.0810 22.9 200 
 BAR2 SZ ES   1   1427 30.98                             171   -0.42 7 22.9 200 
 BAR2 SZ I        1427 32.84        12.2 0.14                          22.9 200 
 BRR  HZ EP   1   1427 18.05                             151    0.10 7 75.1 298 
 BRR  HE ES   1   1427 34.74                             151    0.20 7 75.1 298 
 BRR  HZ I        1427 38.55        12.0 0.26                          75.1 298 
 RUS  HZ EP   2   1427 19.65                             144   -0.57 5 99.0 178 
 RUS  HN ES   2   1427 39.34                             144    0.76 5 99.0 178 
 RUS  HZ I        1427 40.63         6.2 0.39                          99.0 178 
 NOR  SE ES   1   1428  0.41                             118   -0.19 6  237 235 
 PRA  HZ EP   2   1427 50.33                             106    0.09 3  393 210 
                                                                                
