 2012  225 1004 42.6 L   6.795 -73.115144.0  RSN  6 0.4 1.4LRSN                1
 GAP=193        0.71       5.9     7.6  7.1  0.1077E+02  0.6685E+01  0.1927E+02E
 ACTION:UP  12-03-07 16:34 OP:epov STATUS:               ID:20120225100442 L   I
 2012-02-25-1000-00M.COL___192                                                 6
 STAT SP IPHASW D HRMM SECON CODA AMPLIT PERI AZIMU VELO AIN AR TRES W  DIS CAZ7
 BAR2 SZ EP   1   10 5  2.04                             170    0.02 7 23.6 198 
 BAR2 SZ ES   2   10 5 16.78                             170   -0.39 5 23.6 198 
 BAR2 SZ I        10 5 18.41         5.7 0.29                          23.6 198 
 GIR2 SZ EP   1   10 5  1.64                             167   -0.45 7 32.6 345 
 GIR2 SZ ES   1   10 5 17.39                             167    0.09 7 32.6 345 
 BRR  HZ EP   1   10 5  3.79                             151    0.05 7 74.4 298 
 BRR  HN ES   1   10 5 20.91                             151    0.68 7 74.4 298 
 BRR  HZ I        10 5 22.35         9.6 0.16                          74.4 298 
 RUS  HZ EP   1   10 5  6.40                             144    0.28 7 99.8 178 
 RUS  HN ES   2   10 5 24.15                             144   -0.32 5 99.8 178 
 RUS  HZ I        10 5 26.54         2.1 0.27                          99.8 178 
 PTB  HZ EP   1   10 5  9.11                             131   -0.60 7  151 259 
 PTB  HN ES   2   10 5 30.42                             131   -0.44 5  151 259 
 CHI  HZ EP   1   10 5 20.59                             117    0.36 6  249 196 
 CHI  HE ES   2   10 5 49.99                             117    0.40 4  249 196 
 CHI  HZ I        10 5 57.46         2.0 0.43                           249 196 
                                                                                
