 2017 1125 1211 27.7 L   6.830 -73.111141.3  RSN 25 0.9 2.4LRSN                1
 GAP=103        1.71       3.5     4.3  7.6 -0.4349E+00  0.9875E+01  0.2779E+01E
 Epicentro: LOS SANTOS - SANTANDER                                             3
 ACTION:UPD 17-12-12 20:00 OP:rebc STATUS:               ID:20171125121127 L   I
 OLDACT:UP  17-11-25 23:20 OP:dhb  STATUS:               ID:20171125120739     3
 OLDACT:REG 17-11-25 22:18 OP:edw  STATUS:               ID:20171125120739     3
 2017-11-25-1208-00M.COL___494                                                 6
 STAT SP IPHASW D HRMM SECON CODA AMPLIT PERI AZIMU VELO AIN AR TRES W  DIS CAZ7
 BAR2 EZ IP     C 1211 47.01                             169    0.1310 27.5 197 
 BAR2 EZ ES       1212  1.25                             169   -0.6010 27.5 197 
 BAR2 EZ I        1212  3.29       156.2 0.20            164           27.5 197 
 PAM  EZ IP     C 1211 49.92                             151    0.7910 72.4  39 
 PAM  EN ES       1212  6.63                             151    0.7710 72.4  39 
 PAM  EZ I        1212  9.22        84.6 0.50            149           72.4  39 
 RUS  HZ EP       1211 51.21                             142   -0.0310  104 178 
 RUS  HN ES       1212  9.24                             142   -0.3710  104 178 
 RUS  HZ I        1212 10.27        17.2 0.18            136            104 178 
 PTB  HZ EP       1211 53.91                             130   -0.80 9  152 258 
 PTB  HN ES       1212 15.29                             130   -0.50 9  152 258 
 PTB  HZ I        1212 17.01        42.2 0.14            125            152 258 
 OCA  HZ IP     D 1211 55.46                             129    0.07 9  157 352 
 OCA  HN ES       1212 17.30                             129    0.30 9  157 352 
 YPLC HZ EP       1211 57.84                             125    0.57 9  178 153 
 YPLC HE ES       1212 21.45                             125    1.10 9  178 153 
 YPLC HZ I        1212 23.85        19.5 0.28            119            178 153 
 ZAR  HZ EP       1212  0.41                             121    0.31 8  206 291 
 ZAR  HN ES       1212 25.61                             121    0.24 8  206 291 
 ZAR  HZ I        1212 33.84        39.4 0.48            117            206 291 
 TABC EZ EP       1212  3.95                             118    0.25 8  235 211 
 TABC EZ I        1212 38.71        12.1 0.40            113            235 211 
 NOR  HZ IP     C 1212  3.74                             117    0.03 8  240 234 
 NOR  HN ES       1212 32.01                             117    0.20 8  240 234 
 NOR  HZ I        1212 36.60        13.7 0.42            112            240 234 
 CHI  HZ EP       1212  5.96                             116    0.35 8  253 196 
 CHI  HE ES       1212 34.49                             116   -0.69 8  253 196 
 CHI  HZ I        1212 38.28         4.9 0.30            111            253 196 
 HEL  HZ EP       1212  9.04                             113    0.85 7  277 255 
 HEL  HE ES       1212 39.49                             113   -0.29 7  277 255 
 HEL  HZ I        1212 46.56        10.8 0.48            109            277 255 
 DRL03HZ EP       1212  8.84                             112    0.07 7  286 352 
 DRL03HE ES       1212 40.88                             112    0.06 7  286 352 
 URE  HZ EP       1212  7.96                             112   -0.85 7  286 291 
 URE  HE ES       1212 39.17                             112   -1.72 7  286 291 
 URE  HZ I        1212 40.96        29.3 0.38            109            286 291 
 GUY2CHZ EP       1212 12.69                             111    1.02 7  306 235 
 GUY2CHE ES       1212 47.98                             111    2.00 7  306 235 
 GUY2CHZ I        1212 55.00        10.1 0.60                           306 235 
 PTGC HZ EP       1212 10.64                             110   -0.90 7  310 160 
 PTGC HZ I        1212 42.88        10.2 0.46            106            310 160 
 PTGC HE ES  3    1212 43.18                             110   -2.57 7  310 160 
 ELA  HZ EP       1212 16.62                             109    1.68 7  334 229 
 ELA  HE ES       1212 52.19                             109    0.39 7  334 229 
 ELA  HZ I        1212 59.51         6.7 0.42            105            334 229 
 CBOC HZ EP       1212 15.17                             109    0.21 7  338 252 
 CBOC HE ES       1212 50.80                             109   -1.04 7  338 252 
 CBOC HZ I        1213  6.58         4.7 0.58            105            338 252 
 DBB  HN ES       1212 50.80                             108   -1.83 7  343 274 
 DBB  EZ I        1212 55.21        10.6 0.50            105            343 274 
 SDV  BZ EP       1212 16.88                             108   -0.09 6  355  50 
 SDV  B2 ES   3   1212 51.96                             108   -3.45 2  355  50 
 SDV  BZ I        1212 56.41         5.2 0.45            104            355  50 
 ANIL HE ES       1212 57.45                             107    0.36 6  362 225 
 ANIL HZ I        1213  4.97        18.5 0.26            103            362 225 
 PRA  HZ EP       1212 21.67                             105    0.05 6  397 210 
 PRA  HE ES       1213  3.68                             105   -0.01 6  397 210 
 PRA  HZ I        1213  7.68         9.6 0.28            102            397 210 
 ORTC HZ EP       1212 21.04                             105   -1.00 6  400 216 
 ORTC HE ES       1213  4.21                             105   -0.23 6  400 216 
 ORTC HZ I        1213 11.27         4.4 0.44            102            400 216 
 PAL  HZ EP       1212 22.93                             105   -0.36 6  411 239 
 PAL  HN ES       1213  7.91                             105    1.24 6  411 239 
 PAL  HZ I        1213 10.38         3.5 0.18            101            411 239 
 CRJC HZ IP   2 C 1212 27.96                             103   -1.68 2  464   3 
 CRJC HE ES   3   1213 14.86                             103   -3.11 1  464   3 
 CRJC HZ I        1213 27.86         9.2 0.72            100            464   3 
 CAP2 HZ EP       1212 34.79                             101   -0.21 4  510 293 
 CAP2 HE ES   4   1213 23.41                             101   -4.10 0  510 293 
 CAP2 HZ I        1213 35.77         4.6 0.66             98            510 293 
                                                                                
