 2012  425 1716 48.8 L.  6.765 -73.159144.4  RSN  5 0.4 1.6LRSN                1
 GAP=136        0.94       7.1     6.8  9.3  0.1982E+01  0.2789E+01 -0.2730E+01E
 Epicentro: LOS SANTOS - SANTANDER                                             3
 ACTION:UPD 12-07-05 11:55 OP:tino STATUS:               ID:20120425171648 L   I
 2012-04-25-1710-00M.COL___186                                                 6
 STAT SP IPHASW D HRMM SECON CODA AMPLIT PERI AZIMU VELO AIN AR TRES W  DIS CAZ7
 BAR2 SZ EP   1   1717  7.28                             172    -0.9 7   19 188 
 BAR2 SZ ES   1   1717 23.09                             172    -0.2 7   19 188 
 BAR2 SZ I        1717 24.80         9.8 0.28                            19 188 
 BRR  HZ EP   1   1717  9.75                             152     0.0 7   72 302 
 BRR  HZ I        1717 17.36        15.4 0.45                            72 302 
 BRR  HN ES   1   1717 26.75                             152     0.6 7   72 302 
 PAM  SZ EP   1   1717 11.25                             149     0.2 7   81  39 
 PAM  SN ES   2   1717 28.26                             149    -0.2 5   81  39 
 RUS  HZ EP   1   1717 12.62                             145     0.5 7   97 175 
 RUS  HE ES   1   1717 30.47                             145     0.2 7   97 175 
 RUS  HZ I        1717 32.68         3.7 0.39                            97 175 
 PTB  HZ EP   1   1717 15.47                             132     0.1 7  146 260 
 PTB  HN ES   1   1717 35.88                             132    -0.3 7  146 260 
 PTB  HZ I        1717 38.88         3.6 0.12                           146 260 
                                                                                
