 2016 1225 1429 16.7 L   6.785 -73.125148.1  RSN  5 0.2 1.5LRSN                1
 GAP=140        0.41       2.2     2.8  3.2  0.5490E+00  0.6080E+00 -0.3305E-01E
 Epicentro: LOS SANTOS - SANTANDER                                             3
 ACTION:UPD 17-01-11 20:19 OP:rebc STATUS:               ID:20161225142916 L   I
 OLDACT:REG 16-12-25 20:34 OP:edw  STATUS:               ID:20161225142745     3
 2016-12-25-1428-00M.COL___384                                                 6
 STAT SP IPHASW D HRMM SECON CODA AMPLIT PERI AZIMU VELO AIN AR TRES W  DIS CAZ7
 BAR2 EZ EP       1429 36.51                             171   -0.0610 22.2 197 
 BAR2 EZ ES       1429 52.03                             171   -0.0610 22.2 197 
 BAR2 EZ I        1429 54.15         7.9 0.34            172           22.2 197 
 BRR  HZ EP       1429 38.26                             152    0.0110 74.0 299 
 BRR  HN ES       1429 55.26                             152    0.1910 74.0 299 
 BRR  HZ I        1429 57.15         4.6 0.38            152           74.0 299 
 PAM  EZ EP       1429 39.33                             151    0.1810 77.3  37 
 PAM  EN ES       1429 56.52                             151   -0.1510 77.3  37 
 PAM  EZ I        1429 58.54         6.4 0.46            153           77.3  37 
 RUS  HZ EP       1429 40.50                             145   -0.0410 98.7 177 
 RUS  HN ES       1429 59.17                             145    0.0310 98.7 177 
 RUS  HZ I        1430  0.24         8.1 0.32            147           98.7 177 
 ZAR  HZ EP   2   1429 49.57                             122    0.01 4  207 292 
 ZAR  HN ES   2   1430 14.60                             122   -0.61 4  207 292 
 ZAR  HZ I        1430 17.47         2.2 0.28            124            207 292 
                                                                                
