 2012  625 1905 46.6 L   6.782 -73.178146.7  RSN  6 0.4 2.4LRSN                1
 GAP=133        0.96       6.2     6.6  8.2 -0.1542E+01  0.1095E+02  0.7564E+00E
 Epicentro: LOS SANTOS - SANTANDER                                             3
 ACTION:UPD 12-08-06 17:52 OP:ep   STATUS:               ID:20120625190546 L   I
 2012-06-25-1900-00M.COL___199                                                 6
 STAT SP IPHASW D HRMM SECON CODA AMPLIT PERI AZIMU VELO AIN AR TRES W  DIS CAZ7
 BAR2 SZ IP       19 6  6.37                             171    0.0510 21.0 181 
 BAR2 SZ ES   1   19 6 20.98                             171   -0.71 7 21.0 181 
 BAR2 SZ I        19 6 23.76        56.3 0.22                          21.0 181 
 BRR  HZ IP     C 19 6  8.15                             153    0.3910 69.1 301 
 BRR  HZ I        19 6  8.24       102.5 0.32                          69.1 301 
 BRR  HN ES   1   19 6 25.03                             153    0.79 7 69.1 301 
 PAM  SZ IP       19 6  9.32                             150    0.1510 81.2  41 
 PAM  SZ I        19 6  9.47        18.7 0.16                          81.2  41 
 PAM  SN ES   1   19 6 26.21                             150   -0.54 7 81.2  41 
 RUS  HZ EP       19 6 10.38                             144    0.0310 99.0 174 
 RUS  HN ES   1   19 6 29.30                             144    0.44 7 99.0 174 
 PTB  HZ EP       19 6 12.83                             133   -0.49 9  144 259 
 PTB  HN ES   2   19 6 33.64                             133   -0.50 5  144 259 
 PTB  HZ I        19 6 36.29        17.8 0.14                           144 259 
 ZAR  HZ EP   2   19 6 18.53                             123   -0.34 4  202 293 
 ZAR  HZ I        19 6 50.50        26.1 0.46                           202 293 
                                                                                
