 2015  425 1246  5.9 L   6.281 -74.018 32.1  RSN  7 0.5 1.6LRSN                1
 GAP= 80        1.11       2.9     2.3 11.9 -0.2431E+00  0.3754E+00  0.2104E+01E
 Epicentro: CIMITARRA - SANTANDER                                              3
 ACTION:UPD 15-06-03 16:57 OP:cam  STATUS:               ID:20150425124605 L   I
 OLDACT:UP  15-04-26 00:04 OP:mh   STATUS:               ID:20150425123747     3
 OLDACT:UP  15-04-26 00:03 OP:mh   STATUS:               ID:20150425123747     3
 OLDACT:REG 15-04-25 22:45 OP:mh   STATUS:               ID:20150425123747     3
 2015-04-25-1237-47M.COL___277                                                 6
 STAT SP IPHASW D HRMM SECON CODA AMPLIT PERI AZIMU VELO AIN AR TRES W  DIS CAZ7
 PTB  HZ IP     D 1246 15.81                              61   -0.0210 56.3 301 
 PTB  HN ES       1246 23.59                              61   -0.0110 56.3 301 
 PTB  HZ I        1246 24.67        26.9 0.30            111           56.3 301 
 SPBC HZ EP       1246 17.96                              61    0.3610 69.8 185 
 SPBC HN ES       1246 26.48                              61   -0.2710 69.8 185 
 SPBC HZ I        1246 27.86        42.7 0.24            106           69.8 185 
 BRR  HZ EP       1246 21.17                              61    0.2210 97.4  20 
 BRR  HN ES   1   1246 32.99                              61    0.28 7 97.4  20 
 BRR  HZ I        1246 34.57        14.3 0.42             61           97.4  20 
 BAR2 EZ EP       1246 21.77                              61    0.3910 98.6  70 
 BAR2 EZ ES       1246 32.69                              61   -0.7910 98.6  70 
 BAR2 EZ I        1246 35.94        12.9 0.36             61           98.6  70 
 RUS  HZ EP       1246 23.68                              61    0.3210  112 112 
 RUS  HN ES       1246 37.06                              61    0.0510  112 112 
 RUS  HZ I        1246 37.69        19.1 0.34             61            112 112 
 HEL  HZ EP       1246 29.17                              61   -0.99 9  168 267 
 HEL  HN ES       1246 49.31                              61    0.21 9  168 267 
 HEL  HZ I        1246 50.63         4.7 0.26             61            168 267 
 GUY2CHZ EP   1   1246 33.89                              61    0.85 7  190 232 
 GUY2CHN ES   1   1246 53.95                              61   -0.27 7  190 232 
 GUY2CHZ I        1246 56.93         2.1 0.40                           190 232 
                                                                                
