 2010  925 1625 31.3 L   6.744 -73.143147.1  RSN  7 0.3 1.8LRSN                1
 GAP=179        0.88       5.9     7.7  7.4 -0.3031E+02 -0.8102E+01  0.1239E+02E
 Epicentro: JORDAN - SANTANDER                                                 3
 ACTION:UP  11-02-18 11:05 OP:tino STATUS:               ID:20100925162531 L   I
 2010-09-25-1622-55S.COL___122                                                 6
 STAT SP IPHASW D HRMM SECON CODA AMPLIT PERI AZIMU VELO SNR AR TRES W  DIS CAZ7
 BAR2 SZ EP       1625 50.66                             173    -0.310   17 195 
 BAR2 SZ ES   1   1626  6.24                             173    -0.1 7   17 195 
 BAR2 SZ I        1626  7.32        14.0 0.20                            17 195 
 BTL  SZ EP       1625 51.67                             170     0.610   24 324 
 BRR  HZ EP       1625 52.89                             152     0.110   75 303 
 BRR  HZ I        1625 54.39        13.2 0.12                            75 303 
 BRR  HE ES   1   1626  9.82                             152     0.3 7   75 303 
 GUE  SZ EP       1625 56.19                             138    -0.410  123  11 
 GRA  SZ EP       1625 57.37                             136     0.310  132  17 
 GRA  SZ ES   1   1626 16.73                             136    -0.5 7  132  17 
 NOR  SZ EP       1626  6.71                             119     0.0 8  232 236 
 NOR  SN ES       1626 34.00                             119    -0.4 8  232 236 
 CHI  HZ EP       1626  8.50                             118     0.1 8  243 196 
 CHI  HE ES   3   1626 37.35                             118     0.0 2  243 196 
 CHI  HZ I        1626 43.74         3.2 0.34                           243 196 
                                                                                
