 2017  125 1658 54.6 L   6.791 -73.143144.0  RSN  9 0.4 2.0LRSN                1
 GAP=137        1.03       3.9     4.2  6.4  0.3215E+00  0.6996E+01  0.4430E+01E
 Epicentro: LOS SANTOS - SANTANDER                                             3
 ACTION:UPD 17-05-22 16:03 OP:jn   STATUS:               ID:20170125165854 L   I
 OLDACT:UP  17-01-25 23:27 OP:dani STATUS:               ID:20170125165744     3
 OLDACT:UP  17-01-25 23:27 OP:dani STATUS:               ID:20170125165744     3
 OLDACT:UP  17-01-25 23:26 OP:dani STATUS:               ID:20170125165744     3
 OLDACT:UP  17-01-25 23:26 OP:dani STATUS:               ID:20170125165744     3
 OLDACT:UP  17-01-25 23:24 OP:dani STATUS:               ID:20170125165744     3
 OLDACT:UP  17-01-25 23:23 OP:dani STATUS:               ID:20170125165744     3
 OLDACT:REG 17-01-25 21:35 OP:dnl  STATUS:               ID:20170125165744     3
 2017-01-25-1658-00M.COL___360                                                 6
 STAT SP IPHASW D HRMM SECON CODA AMPLIT PERI AZIMU VELO AIN AR TRES W  DIS CAZ7
 BAR2 EZ EP       1659 13.76                             171   -0.1910 22.4 191 
 BAR2 EZ ES       1659 28.95                             171   -0.1310 22.4 191 
 BAR2 EZ I        1659 31.48        30.3 0.18            167           22.4 191 
 BRR  HZ EP       1659 15.51                             152   -0.0510 72.0 299 
 BRR  HN ES       1659 32.76                             152    0.8210 72.0 299 
 BRR  HZ I        1659 37.42        24.8 0.31            150           72.0 299 
 PAM  EZ EP       1659 16.56                             151   -0.0610 78.0  39 
 PAM  EN ES       1659 33.90                             151    0.0710 78.0  39 
 PAM  EZ I        1659 35.93        23.4 0.52            157           78.0  39 
 RUS  HZ EP       1659 17.73                             144   -0.3310 99.5 176 
 RUS  HN ES       1659 36.39                             144    0.0010 99.5 176 
 RUS  HZ I        1659 37.67        20.5 0.31            145           99.5 176 
 PTB  HZ EP       1659 20.86                             132   -0.53 9  148 259 
 PTB  HN ES       1659 41.60                             132   -0.72 9  148 259 
 PTB  HZ I        1659 47.25         9.3 0.16            131            148 259 
 ZAR  HZ EP       1659 27.52                             122    0.57 9  205 292 
 ZAR  HE ES       1659 52.03                             122   -0.20 9  205 292 
 ZAR  HZ I        1659 57.48        10.1 0.27            123            205 292 
 NOR  HZ EP   4   1659 32.28                             118    2.14 0  234 235 
 NOR  HN ES       1659 58.22                             118    0.32 8  234 235 
 NOR  HZ I        17 0  5.58         8.4 0.25            119            234 235 
 CHI  HZ EP       1659 31.99                             117   -0.07 8  248 195 
 CHI  HE ES       17 0  2.02                             117    0.71 8  248 195 
 CHI  HZ I        17 0  5.41         4.8 0.28            118            248 195 
 ROSC BZ EP   3   1659 33.96                             117    1.46 2  252 211 
 ROSC BN ES   4   17 0  5.28                             117    3.19 0  252 211 
 ROSC BZ I        17 0 10.99         8.9 0.34            118            252 211 
                                                                                
