 2011 1125 1313 38.9 L   6.761 -73.154148.8  RSN  5 0.4 1.8LRSN                1
 GAP=137        0.77       5.4     5.8  7.8  0.7505E+01  0.5833E+01 -0.9036E+00E
 Epicentro: LOS SANTOS - SANTANDER                                             3
 ACTION:UPD 12-07-13 16:12 OP:ep   STATUS:               ID:20111125131339 L   I
 2011-11-25-1300-00M.COL___170                                                 6
 STAT SP IPHASW D HRMM SECON CODA AMPLIT PERI AZIMU VELO AIN AR TRES W  DIS CAZ7
 BAR2 SZ EP       1313 58.87                             172    0.0110 18.9 190 
 BAR2 SZ ES   1   1314 14.19                             172   -0.21 7 18.9 190 
 BAR2 SZ I        1314 15.40        30.7 0.12                          18.9 190 
 BRR  HZ EP       1314  0.78                             152    0.2810 72.6 302 
 BRR  HZ I        1314  0.96        31.2 0.13                          72.6 302 
 BRR  HE ES   1   1314 18.00                             152    0.68 7 72.6 302 
 PAM  SZ EP   1   1314  1.77                             150    0.05 7 81.3  38 
 PAM  SN ES   1   1314 19.08                             150   -0.40 7 81.3  38 
 PAM  SZ I        1314 20.99         3.6 0.53                          81.3  38 
 RUS  HZ EP   1   1314  2.79                             145    0.09 7 96.3 175 
 RUS  HZ I        1314  3.56         4.9 0.25                          96.3 175 
 RUS  HE ES   1   1314 21.08                             145   -0.15 7 96.3 175 
 ZAR  HE ES   1   1314 36.43                             123   -0.78 6  205 293 
 ZAR  HZ I        1314 43.15         8.2 0.37                           205 293 
                                                                                
