 2011 1025 1504 15.5 L   6.786 -73.149140.7  RSN  5 0.1 1.6LRSN                1
 GAP=137        0.29       1.9     2.8  2.8 -0.6053E-01 -0.4938E+00  0.1907E+00E
 Epicentro: LOS SANTOS - SANTANDER                                             3
 ACTION:UPD 12-07-13 16:05 OP:ep   STATUS:               ID:20111025150415 L   I
 2011-10-25-1501-14S.COL___171                                                 6
 STAT SP IPHASW D HRMM SECON CODA AMPLIT PERI AZIMU VELO AIN AR TRES W  DIS CAZ7
 BTL  SZ EP   3   15 4 34.76                             172    0.34 2 19.6 318 
 BAR2 SZ EP       15 4 34.42                             171   -0.0410 21.7 190 
 BAR2 SZ ES   1   15 4 49.34                             171    0.07 7 21.7 190 
 BAR2 SZ I        15 4 51.06        14.5 0.18                          21.7 190 
 BRR  HZ EP       15 4 36.12                             151    0.0210 71.6 300 
 BRR  HE ES   1   15 4 52.14                             151   -0.04 7 71.6 300 
 BRR  HZ I        15 4 55.34        17.6 0.30                          71.6 300 
 PAM  SZ EP       15 4 37.33                             149    0.0910 78.8  39 
 PAM  SN ES   1   15 4 54.11                             149   -0.10 7 78.8  39 
 RUS  HZ EP       15 4 38.54                             143   -0.0810 99.1 176 
 RUS  HE ES   1   15 4 56.72                             143    0.05 7 99.1 176 
 RUS  HZ I        15 4 58.05         2.7 0.40                          99.1 176 
                                                                                
