 2012  525 1318 37.3 L   6.806 -73.171140.1  RSN  9 0.4 2.2LRSN                1
 GAP=133        0.88       4.5     4.9  7.4 -0.9126E+00  0.1407E+02  0.4600E+01E
 Epicentro: LOS SANTOS - SANTANDER                                             3
 ACTION:UP  12-07-05 12:08 OP:pat  STATUS:               ID:20120525131837 L   I
 2012-05-25-1310-00M.COL___201                                                 6
 STAT SP IPHASW D HRMM SECON CODA AMPLIT PERI AZIMU VELO SNR AR TRES W  DIS CAZ7
 BAR2 SZ EP       1318 56.16                             170    -0.110   24 183 
 BAR2 SZ ES   1   1319 10.63                             170    -0.4 7   24 183 
 BAR2 SZ I        1319 14.44        30.9 0.23                            24 183 
 PAM  SZ EP   1   1318 59.03                             149     0.0 7   79  41 
 PAM  SN ES   1   1319 16.02                             149     0.1 7   79  41 
 RUS  HZ EP   1   1319  0.36                             142    -0.2 7  101 174 
 RUS  HN ES   1   1319 19.59                             142     0.9 7  101 174 
 RUS  HZ I        1319 20.70        22.0 0.26                           101 174 
 PTB  HZ EP   1   1319  2.81                             131    -0.8 7  145 258 
 PTB  HN ES   1   1319 23.93                             131    -0.1 7  145 258 
 PTB  HZ I        1319 26.34        16.8 0.12                           145 258 
 ZAR  HZ EP   1   1319  9.99                             121     0.9 6  201 292 
 ZAR  HN ES   1   1319 34.03                             121     0.1 6  201 292 
 ZAR  HZ I        1319 40.79        25.7 0.29                           201 292 
 NOR  SZ EP   1   1319 12.61                             117     0.1 6  233 234 
 NOR  SN ES   1   1319 40.05                             117     0.1 6  233 234 
 CHI  HZ EP   1   1319 14.57                             116    -0.1 6  249 194 
 CHI  HN ES   1   1319 43.69                             116    -0.2 6  249 194 
 CHI  HZ I        1319 48.39         9.8 0.47                           249 194 
 HEL  HZ EP   2   1319 17.33                             114     0.4 4  269 256 
 PRA  HZ EP   1   1319 30.51                             106     0.0 4  391 209 
                                                                                
