 2011  225 1136 54.3 L   6.798 -73.108144.0  RSN 12 0.4 2.7LRSN                1
 GAP=105        0.87       3.3     4.9  6.1 -0.4350E+01  0.9602E+01 -0.1825E+01E
 Epicentro: LOS SANTOS - SANTANDER                                             3
 ACTION:UP  11-03-28 15:11 OP:jfem STATUS:               ID:20110225113654 L   I
 2011-02-25-1135-52S.COL___137                                                 6
 STAT SP IPHASW D HRMM SECON CODA AMPLIT PERI AZIMU VELO SNR AR TRES W  DIS CAZ7
 BAR2 SZ IP       1137 13.85                             170     0.210   24 200 
 BAR2 SZ ES   1   1137 28.36                             170    -0.5 7   24 200 
 BAR2 SZ I        1137 30.03       142.0 0.50                            24 200 
 RUS  HZ IP       1137 17.66                             143    -0.110  100 178 
 RUS  HN ES   1   1137 36.28                             143     0.1 7  100 178 
 RUS  HZ I        1137 37.83        43.5 0.61                           100 178 
 GRA  SZ IP       1137 19.62                             137     0.410  125  16 
 GRA  SZ ES   1   1137 39.23                             137     0.5 7  125  16 
 GRA  SZ I        1137 41.00        80.6 0.36                           125  16 
 OCA  SZ EP       1137 22.10                             129    -0.4 9  161 352 
 OCA  SZ I        1137 49.94        77.2 0.22                           161 352 
 YOP  SZ EP       1137 24.23                             126     0.3 9  177 154 
 YOP  SN ES   2   1137 46.67                             126    -0.5 4  177 154 
 YOP  SZ I        1137 48.97        23.4 0.07                           177 154 
 CHI  HZ IP       1137 31.76                             117    -0.2 8  250 196 
 CHI  HN ES   1   1138  1.48                             117     0.1 6  250 196 
 CHI  HZ I        1138  9.09        26.8 0.41                           250 196 
 HEL  HZ EP       1137 35.16                             114     0.4 7  276 256 
 HEL  HN ES   1   1138  6.15                             114    -0.3 6  276 256 
 HEL  HZ I        1138 12.56        45.1 0.27                           276 256 
 RREF HZ EP       1137 40.81                             110     0.2 7  325 230 
 RREF HN ES   2   1138 17.31                             110     0.5 3  325 230 
 RREF HZ I        1138 26.01        33.9 0.44                           325 230 
 DBB  SZ EP       1137 41.38                             109    -0.7 7  344 274 
 TOL  SZ EP       1137 43.29                             109     0.5 6  346 225 
 SDV  BZ EP       1137 43.33                             108    -0.5 6  357  50 
 SJA  SZ EP   3   1137 47.48                             106    -1.3 1  401 194 
                                                                                
