 2017  625 1027 10.2 L   6.763 -73.244138.4  RSN  5 0.4 1.5LRSN                1
 GAP=214        0.99       5.6     6.2  7.3  0.5849E+01  0.1154E+02  0.2358E+01E
 Epicentro: ZAPATOCA - SANTANDER                                               3
 ACTION:UPD 17-09-14 16:55 OP:jn   STATUS:               ID:20170625102710 L   I
 OLDACT:REG 17-06-25 19:50 OP:lv   STATUS:               ID:20170625101739     3
 2017-06-25-1018-00M.COL___346                                                 6
 STAT SP IPHASW D HRMM SECON CODA AMPLIT PERI AZIMU VELO AIN AR TRES W  DIS CAZ7
 BAR2 EZ EP       1027 28.47                             171   -0.4210 20.1 160 
 BAR2 EZ ES       1027 43.31                             171   -0.1510 20.1 160 
 BRR  HZ EP       1027 30.47                             154    0.3010 64.2 306 
 BRR  HE ES       1027 46.11                             154    0.3710 64.2 306 
 BRR  HZ I        1027 48.33         7.1 0.47            150           64.2 306 
 PTB  HZ EP       1027 35.45                             133   -0.09 9  136 260 
 PTB  HN ES       1027 55.69                             133    0.39 9  136 260 
 SPBC HZ EP       1027 37.81                             129    0.60 9  153 217 
 SPBC HN ES       1027 57.86                             129   -0.40 9  153 217 
 SPBC HZ I        1028  1.66         4.1 0.07            129            153 217 
 ZAR  HZ EP       1027 41.25                             122   -0.07 9  196 294 
 ZAR  HN ES       1028  4.91                             122   -0.67 9  196 294 
 ZAR  HZ I        1028 11.77         2.0 0.29            121            196 294 
                                                                                
