 2011 1125 1951  9.3 L   6.796 -73.123148.0  RSN  4 0.3 1.6LRSN                1
 GAP=140        0.51       3.7     4.9  6.0 -0.4099E+00  0.7038E+00  0.6116E+00E
 Epicentro: LOS SANTOS - SANTANDER                                             3
 ACTION:UPD 12-07-13 16:12 OP:ep   STATUS:               ID:20111125195109 L   I
 2011-11-25-1947-53S.COL___159                                                 6
 STAT SP IPHASW D HRMM SECON CODA AMPLIT PERI AZIMU VELO AIN AR TRES W  DIS CAZ7
 BRR  HZ EP   1   1951 31.02                             152    0.17 7 73.6 298 
 BRR  HN ES   1   1951 47.71                             152    0.08 7 73.6 298 
 BRR  HZ I        1951 51.58         8.7 0.16                          73.6 298 
 PAM  SZ EP       1951 31.90                             151    0.2010 76.2  38 
 PAM  SZ I        1951 32.15         8.4 0.17                          76.2  38 
 PAM  SN ES   1   1951 48.87                             151   -0.29 7 76.2  38 
 RUS  HZ EP   1   1951 33.23                             144   -0.02 7100.0 177 
 RUS  HN ES   1   1951 51.85                             144   -0.06 7100.0 177 
 RUS  HZ I        1951 53.73         3.7 0.28                         100.0 177 
 ZAR  HZ EP   2   1951 41.44                             122   -0.72 4  207 292 
 ZAR  HZ I        1952 12.26         4.5 0.42                           207 292 
                                                                                
