 2016  625 1229 42.2 L   6.791 -73.140149.2  RSN 11 0.3 2.1LRSN                1
 GAP=138        0.71       2.9     3.0  4.8 -0.9798E+00  0.2549E+01  0.3971E+01E
 Epicentro: LOS SANTOS - SANTANDER                                             3
 ACTION:UPD 16-07-21 22:22 OP:rebc STATUS:               ID:20160625122942 L   I
 OLDACT:REG 16-06-25 20:47 OP:dnl  STATUS:               ID:20160625122741     3
 2016-06-25-1227-41M.COL___333                                                 6
 STAT SP IPHASW D HRMM SECON CODA AMPLIT PERI AZIMU VELO AIN AR TRES W  DIS CAZ7
 BRR  HZ EP   2   1230  3.95                             153    0.22 5 72.2 299 
 BRR  HE ES       1230 21.15                             153    0.5910 72.2 299 
 BRR  HZ I        1230 26.32        14.3 0.12                          72.2 299 
 PAM  EZ EP       1230  4.98                             151    0.2310 77.7  39 
 PAM  EN ES       1230 22.09                             151   -0.2910 77.7  39 
 PAM  EZ I        1230 24.27        22.5 0.56                          77.7  39 
 RUS  HZ EP       1230  5.98                             145   -0.1910 99.5 176 
 RUS  HE ES       1230 24.85                             145   -0.0510 99.5 176 
 RUS  HZ I        1230 26.33        13.1 0.46                          99.5 176 
 PTB  HZ EP       1230  8.87                             133   -0.57 9  148 259 
 PTB  HE ES       1230 30.40                             133   -0.32 9  148 259 
 PTB  HZ I        1230 32.19        14.4 0.14                           148 259 
 SPBC HZ EP       1230 11.02                             130    0.14 9  163 219 
 SPBC HN ES       1230 33.43                             130    0.14 9  163 219 
 SPBC HZ I        1230 38.16        26.0 0.20                           163 219 
 ZAR  HZ EP   2   1230 14.67                             123   -0.25 4  205 292 
 ZAR  HE ES       1230 40.45                             123   -0.03 9  205 292 
 ZAR  HZ I        1230 45.68        14.9 0.48                           205 292 
 NOR  HZ EP   2   1230 17.86                             119   -0.22 4  235 235 
 NOR  HN ES       1230 45.85                             119   -0.25 8  235 235 
 NOR  HZ I        1230 48.47         9.0 0.20                           235 235 
 CHI  HZ EP   2   1230 20.17                             118    0.21 4  248 195 
 CHI  HN ES   2   1230 49.24                             118   -0.20 4  248 195 
 CHI  HZ I        1230 55.53         6.3 0.58                           248 195 
 GUY2CHZ EP       1230 26.38                             113    0.46 7  301 235 
 GUY2CHN ES   4   1231  2.91                             113    2.86 0  301 235 
 GUY2CHZ I        1231  8.78         9.5 0.74                           301 235 
 PRA  HZ EP       1230 36.23                             107    0.50 6  391 210 
 PRA  HN ES   2   1231 17.97                             107    0.45 3  391 210 
 PRA  HZ I        1231 23.83         6.1 0.36                           391 210 
 SJC  HZ EP   4   1230 36.19                             106   -1.78 0  410 327 
 SJC  HE ES   4   1231 18.44                             106   -3.06 0  410 327 
 SJC  HZ I        1231 23.05         2.3 0.38                           410 327 
                                                                                
