 2011 1225 1542 42.9 L   6.752 -73.158145.7  RSN  6 0.4 1.4LRSN                1
 GAP=137        0.87       5.9     5.9  7.6 -0.3968E+01  0.5087E+01  0.5009E+01E
 Epicentro: LOS SANTOS - SANTANDER                                             3
 ACTION:UPD 12-07-13 16:18 OP:ep   STATUS:               ID:20111225154242 L   I
 2011-12-25-1540-00M.COL___187                                                 6
 STAT SP IPHASW D HRMM SECON CODA AMPLIT PERI AZIMU VELO AIN AR TRES W  DIS CAZ7
 BAR2 SZ EP   1   1543  2.42                             173    0.01 7 17.8 189 
 BAR2 SZ ES   1   1543 17.26                             173   -0.38 7 17.8 189 
 BAR2 SZ I        1543 19.53         6.5 0.31                          17.8 189 
 GIR2 SZ EP   1   1543  2.61                             165   -0.09 7 36.4 354 
 GIR2 SZ ES   1   1543 18.78                             165    0.63 7 36.4 354 
 BRR  HZ EP   1   1543  4.58                             152    0.46 7 72.8 303 
 BRR  HE ES   1   1543 21.19                             152    0.51 7 72.8 303 
 BRR  HZ I        1543 31.03         7.7 0.41                          72.8 303 
 PAM  SZ EP   1   1543  5.42                             149    0.02 7 82.4  38 
 PAM  SN ES   1   1543 22.18                             149   -0.78 7 82.4  38 
 PAM  SZ I        1543 24.18         4.0 0.66                          82.4  38 
 RUS  HZ EP   1   1543  6.53                             145    0.27 7 95.4 175 
 RUS  HN ES   1   1543 24.65                             145    0.16 7 95.4 175 
 RUS  HZ I        1543 26.44         3.6 0.32                          95.4 175 
 PTB  HZ EP   1   1543  9.41                             132   -0.24 7  146 261 
 PTB  HN ES   1   1543 29.86                             132   -0.66 7  146 261 
                                                                                
