 2010  125 1221 50.3 L   6.796 -73.145148.7  RSN 15 0.6 4.2LRSN                1
 GAP=183        1.20       4.4     9.0  9.3 -0.5406E+01  0.4706E+02 -0.8105E+00E
 Epicentro: LOS SANTOS - SANTANDER                                             3
 ACTION:UP  10-08-24 09:45 OP:vdl  STATUS:               ID:20100125122149 L   I
 2010-01-25-1220-10S.COL___094                                                 6
 STAT SP IPHASW D HRMM SECON CODA AMPLIT PERI AZIMU VELO SNR AR TRES W  DIS CAZ7
 BAR2 SZ IP       1222 10.13                             171    -0.210   23 191 
 BAR2 SZ ES   1   1222 25.40                             171    -0.5 7   23 191 
 GIR2 SZ IP       1222 11.18                             167     0.810   32 350 
 RUS  BZ IP       1222 13.92                             144    -0.410  100 176 
 RUS  BE ES       1222 33.22                             144     0.210  100 176 
 RUS  BZ I        1222 33.73      1016.4 0.26                           100 176 
 OCA  SZ IP       1222 18.50                             130    -0.4 9  161 353 
 OCA  SZ ES   1   1222 41.36                             130     0.2 7  161 353 
 OCA  SZ I        1222 45.39      5296.3 0.47                           161 353 
 CHI  HZ IP       1222 27.68                             118    -0.4 8  248 195 
 CHI  HE ES       1222 57.23                             118    -0.4 8  248 195 
 CHI  HZ I        1223  5.79       604.9 0.44                           248 195 
 ROSC BZ IP       1222 29.52                             117     1.0 8  252 211 
 ROSC BZ I        1223  4.67       738.7 0.52                           252 211 
 HEL  HZ EP   2   1222 30.06                             115    -0.6 4  272 256 
 HEL  HE ES   1   1223  1.56                             115    -0.6 6  272 256 
 HEL  HZ I        1223  7.94       839.9 0.63                           272 256 
 GUY  HZ EP   1   1222 34.52                             113     0.5 5  301 235 
 RREF BZ EP   1   1222 36.85                             111     0.3 5  322 229 
 RREF BN ES   1   1223 13.70                             111     1.1 5  322 229 
 RREF BZ I        1223 22.31       691.1 0.17                           322 229 
 DBB  SZ IP       1222 37.81                             110    -0.1 7  340 274 
 TOL  SZ EP   2   1222 38.36                             110    -0.3 3  343 225 
 MON  HN ES   2   1223 16.73                             109    -1.0 3  353 308 
 MON  HZ I        1223 30.87       298.8 0.62                           353 308 
 ANIL BZ IP       1222 40.71                             109     0.5 6  357 225 
 ANIL BZ I        1223 27.89       983.3 0.26                           357 225 
 PRA  HZ EP   1   1222 42.96                             107    -0.9 4  392 210 
 PRA  HN ES   1   1223 25.50                             107    -0.2 4  392 210 
 PRA  HZ I        1223 31.10       569.2 0.36                           392 210 
 MARA BZ EP   1   1223  0.25                             102    -1.1 3  537 216 
                                                                                
