 2014 1025 1026 15.4 L   6.797 -73.157144.0  RSN 14 0.4 1.7LRSN                1
 GAP=135        0.90       2.7     4.1  5.5 -0.1705E+01  0.5532E+01  0.1345E+01E
 Epicentro: LOS SANTOS - SANTANDER                                             3
 ACTION:UPD 14-11-29 23:56 OP:nd   STATUS:               ID:20141025102615 L   I
 OLDACT:DUP 14-10-28 21:07 OP:spq  STATUS:               ID:20141025101742d    3
 2014-10-25-1017-40M.COL___283                                                 6
 STAT SP IPHASW D HRMM SECON CODA AMPLIT PERI AZIMU VELO AIN AR TRES W  DIS CAZ7
 BAR2 SZ EP       1026 34.88                             171    0.0310 22.8 187 
 BAR2 SZ ES   1   1026 49.45                             171   -0.54 7 22.8 187 
 BAR2 SZ I        1026 50.72        10.8 0.20            170           22.8 187 
 BRR  HZ IP     C 1026 36.57                             153    0.2210 70.3 299 
 BRR  HE ES       1026 53.47                             153    0.8110 70.3 299 
 BRR  HZ I        1026 57.44        14.2 0.16            150           70.3 299 
 PAM  SZ EP       1026 37.55                             150    0.0110 78.4  40 
 PAM  SN ES       1026 55.01                             150    0.2410 78.4  40 
 PAM  SZ I        1026 58.93         4.3 0.36            153           78.4  40 
 RUS  HZ EP       1026 39.08                             144    0.0710  100 175 
 RUS  HN ES       1026 57.44                             144    0.0610  100 175 
 RUS  HZ I        1026 58.81         6.4 0.26            144            100 175 
 PTB  HZ EP       1026 41.68                             132   -0.47 9  146 259 
 PTB  HE ES       1027  3.04                             132    0.06 9  146 259 
 PTB  HZ I        1027  4.65         6.7 0.23            130            146 259 
 OCA  HE ES   1   1027  4.71                             129   -0.92 7  160 354 
 OCA  HZ I        1027  8.83         9.5 0.22            129            160 354 
 SPBC HZ EP   1   1026 43.63                             129   -0.08 7  162 219 
 SPBC HN ES       1027  5.18                             129   -0.57 9  162 219 
 SPBC HZ I        1027  9.40         7.6 0.38            128            162 219 
 SML  HZ EP   1   1026 51.47                             117   -0.48 6  244 336 
 SML  HE ES       1027 20.20                             117   -0.22 8  244 336 
 CHI  HZ EP   1   1026 53.19                             117    0.22 6  248 195 
 CHI  HE ES   1   1027 22.10                             117   -0.15 6  248 195 
 CHI  HZ I        1027 30.08         2.8 0.60            117            248 195 
 HEL  HZ EP   1   1026 56.23                             115    0.80 6  271 256 
 HEL  HN ES   2   1027 26.67                             115    0.06 4  271 256 
 HEL  HZ I        1027 33.31         2.8 0.39            114            271 256 
 GUY2CHZ EP   1   1026 59.39                             112    0.55 5  300 235 
 GUY2CHN ES   4   1027 34.68                             112    2.00 0  300 235 
 GUY2CHZ I        1027 41.18         1.5 0.54                           300 235 
 MON  HZ EP   4   1027  2.33                             108   -1.96 0  353 309 
 MON  HN ES   4   1027 40.97                             108   -1.42 0  353 309 
 MON  HZ I        1027 54.82         1.9 0.26            108            353 309 
 PRA  HN ES       1027 50.49                             106    0.08 6  391 209 
 PRA  HZ I        1027 57.61         2.7 0.22            106            391 209 
 SJC  HZ EP   4   1027  8.91                             106   -1.99 0  409 327 
 SJC  HN ES   4   1027 49.28                             106   -4.88 0  409 327 
 SJC  HZ I        1027 54.70         1.7 0.56            106            409 327 
                                                                                
