 2014  125 1528 33.1 L   6.802 -73.148139.4  RSN  6 0.5 1.7LRSN                1
 GAP=141        1.20       6.0     6.6  8.6 -0.1493E+02  0.1417E+02  0.1086E+02E
 Epicentro: LOS SANTOS - SANTANDER                                             3
 ACTION:UPD 14-03-13 09:58 OP:ep   STATUS:               ID:20140125152833 L   I
 OLDACT:DUP 14-01-25 19:43 OP:stll STATUS:               ID:20140125152820d    3
 2014-01-25-1528-19M.COL___237                                                 6
 STAT SP IPHASW D HRMM SECON CODA AMPLIT PERI AZIMU VELO AIN AR TRES W  DIS CAZ7
 BAR2 SZ EP       1528 51.84                             170   -0.1610 23.5 189 
 BAR2 SZ ES       1529  7.09                             170    0.3710 23.5 189 
 BAR2 SZ I        1529  8.15        16.1 0.38            170           23.5 189 
 PAM  SZ EP       1528 54.58                             150   -0.1010 77.4  40 
 PAM  SN ES       1529 11.68                             150    0.2010 77.4  40 
 PAM  SZ I        1529 14.23         9.1 0.34            151           77.4  40 
 RUS  HZ EP       1528 55.72                             142   -0.5610  101 176 
 RUS  HN ES       1529 14.45                             142    0.1110  101 176 
 RUS  HZ I        1529 17.02         5.9 0.48            144            101 176 
 PTB  HN ES       1529 19.50                             131   -0.69 9  148 259 
 CHI  HZ EP       1529 10.09                             116   -0.41 8  249 195 
 CHI  HZ I        1529 10.25         3.2 0.18            117            249 195 
 CHI  HE ES       1529 39.64                             116   -0.01 8  249 195 
 GUY2CHZ EP       1529 17.83                             111    1.39 7  301 235 
 GUY2CHN ES       1529 50.83                             111    0.61 7  301 235 
 GUY2CHZ I        1529 57.19         3.4 0.28                           301 235 
                                                                                
