 2011  325 1442 29.2 L   6.729 -73.115140.4  RSN  4 0.3 2.2LRSN                1
 GAP=192        0.65       9.5    10.2 11.2 -0.8309E+02 -0.6733E+02  0.7433E+02E
 Epicentro: JORDAN - SANTANDER                                                 3
 ACTION:UP  11-06-16 14:35 OP:jfem STATUS:               ID:20110325144229 L   I
 2011-03-25-1438-48S.COL___123                                                 6
 STAT SP IPHASW D HRMM SECON CODA AMPLIT PERI AZIMU VELO SNR AR TRES W  DIS CAZ7
 BAR2 SZ EP   1   1442 48.07                             173     0.0 8   17 207 
 BAR2 SZ I        1443  5.17        59.1 0.58                            17 207 
 BRR  HZ EP   1   1442 49.71                             149    -0.5 8   78 302 
 BRR  HN ES   1   1443  6.82                             149     0.2 8   78 302 
 BRR  HZ I        1443 10.94        29.0 0.12                            78 302 
 GRA  SZ EP       1442 54.83                             134     0.310  132  15 
 GRA  SZ ES   1   1443 14.11                             134    -0.2 7  132  15 
 GRA  SZ I        1443 15.39        11.4 0.29                           132  15 
 NOR  SZ EP       1443  4.53                             117     0.0 8  233 237 
 NOR  SN ES   1   1443 32.00                             117     0.0 6  233 237 
                                                                                
