 2013  725 1337  2.6 L   6.837 -73.359117.6  RSN  5 0.1 1.8LRSN                1
 GAP=130        0.40       3.8     4.1  4.4  0.1105E+02  0.7215E+00 -0.5347E+00E
 Epicentro: ZAPATOCA - SANTANDER                                               3
 ACTION:UPD 13-08-12 10:40 OP:ep   STATUS:               ID:20130725133702 L   I
 OLDACT:REG 13-07-25 14:59 OP:mh   STATUS:               ID:20130725132959     3
 2013-07-25-1329-59M.COL___266                                                 6
 STAT SP IPHASW D HRMM SECON CODA AMPLIT PERI AZIMU VELO AIN AR TRES W  DIS CAZ7
 GIR2 SZ EP       1337 18.86                             164   -0.0710 32.4  34 
 BAR2 SZ EP       1337 19.28                             163    0.1710 33.3 144 
 BAR2 SZ ES   1   1337 31.87                             163   -0.15 7 33.3 144 
 BAR2 SZ I        1337 33.28        36.1 0.40            160           33.3 144 
 BRR  HZ EP       1337 19.30                             156   -0.1410 49.2 307 
 BRR  HN ES   1   1337 32.84                             156    0.23 7 49.2 307 
 BRR  HN I        1337 33.71        13.9 0.16            153           49.2 307 
 RUS  HZ EP   1   1337 24.49                             134    0.14 7  109 164 
 RUS  HN ES   1   1337 41.26                             134   -0.09 7  109 164 
 RUS  HZ I        1337 44.12         2.9 0.38            133            109 164 
 ZAR  HE ES   1   1337 52.78                             119   -0.06 7  181 294 
 ZAR  HE I        1337 56.00        21.5 0.44            118            181 294 
                                                                                
