 2014  525 1201  1.3 L   6.734 -73.047136.8  RSN 10 0.5 1.9LRSN                1
 GAP=193        1.14       3.8     7.0  8.3 -0.3965E+01  0.6420E+00  0.4722E+01E
 Epicentro: ARATOCA - SANTANDER                                                3
 ACTION:UPD 15-03-16 17:00 OP:nd   STATUS:               ID:20140525120101 L   I
 OLDACT:REG 14-05-25 20:15 OP:spq  STATUS:               ID:20140525115818     3
 2014-05-25-1158-18M.COL___224                                                 6
 STAT SP IPHASW D HRMM SECON CODA AMPLIT PERI AZIMU VELO AIN AR TRES W  DIS CAZ7
 BRR  HZ IP     C 12 1 22.91                             146    0.6410 84.2 299 
 BRR  HE ES       12 1 39.17                             146    0.5110 84.2 299 
 BRR  HZ I        12 1 55.48        11.4 0.38            147           84.2 299 
 RUS  HN ES       12 1 40.36                             144   -0.6510 93.1 182 
 RUS  HZ I        12 1 45.01         7.4 0.24            152           93.1 182 
 PTB  HZ EP       12 1 27.76                             128   -0.65 9  157 262 
 PTB  HN ES       12 1 49.08                             128   -0.51 9  157 262 
 PTB  HZ I        12 1 56.30        12.7 0.42            132            157 262 
 SPBC HZ EP       12 1 29.79                             126    0.54 9  165 224 
 SPBC HN ES       12 1 51.40                             126    0.32 9  165 224 
 SPBC HZ I        12 1 55.01        14.7 0.14            133            165 224 
 OCA  HZ EP   1   12 1 29.01                             126   -0.74 7  169 350 
 OCA  HN ES       12 1 51.90                             126   -0.07 9  169 350 
 OCA  HZ I        12 1 57.71         9.5 0.28            132            169 350 
 NOR  HZ EP       12 1 36.97                             116   -0.05 8  240 237 
 NOR  HN ES       12 2  4.83                             116   -0.08 8  240 237 
 NOR  HZ I        12 2  8.80         4.7 0.13            122            240 237 
 CHI  HZ EP       12 1 38.68                             115    0.63 8  245 198 
 CHI  HN ES       12 2  6.87                             115    0.13 8  245 198 
 CHI  HZ I        12 2 16.63         2.2 0.40            123            245 198 
 SML  HZ EP   4   12 1 37.35                             114   -1.29 0  255 334 
 SML  HN ES   4   12 2  6.67                             114   -1.13 0  255 334 
 SML  HZ I        12 2 11.05        10.9 0.10            120            255 334 
 URE  HZ EP   4   12 1 45.22                             111    1.86 0  297 292 
 URE  HN ES   4   12 2 14.79                             111   -1.41 0  297 292 
 URE  HZ I        12 2 25.99         4.1 0.14            116            297 292 
 GUY2CHZ EP   1   12 1 44.36                             110   -0.67 5  306 237 
 GUY2CHE ES   1   12 2 19.06                             110   -0.11 5  306 237 
 GUY2CHZ I        12 2 28.38         3.5 0.38                           306 237 
                                                                                
