 2017 1125 1214 51.7 L   6.857 -73.272146.6  RSN  5 0.2 1.3LRSN                1
 GAP=155        0.51       3.4     2.8  4.9 -0.2798E+01  0.5411E+01  0.1342E+01E
 Epicentro: ZAPATOCA - SANTANDER                                               3
 ACTION:UPD 17-12-12 20:00 OP:rebc STATUS:               ID:20171125121451 L   I
 OLDACT:DUP 17-11-25 23:23 OP:dhb  STATUS:               ID:20171125120740d    3
 OLDACT:UP  17-11-25 23:20 OP:dhb  STATUS:               ID:20171125120739     3
 OLDACT:REG 17-11-25 22:18 OP:edw  STATUS:               ID:20171125120739     3
 2017-11-25-1208-00M.COL___494                                                 6
 STAT SP IPHASW D HRMM SECON CODA AMPLIT PERI AZIMU VELO AIN AR TRES W  DIS CAZ7
 BAR2 EZ EP       1215 11.80                             168    0.1810 30.9 161 
 BAR2 EZ ES       1215 27.13                             168   -0.0210 30.9 161 
 BAR2 EZ I        1215 29.58         7.5 0.26            169           30.9 161 
 PAM  EN ES       1215 32.08                             149    0.0810 82.8  50 
 PAM  EZ I        1215 33.99         2.5 0.48            154           82.8  50 
 RUS  HZ EP       1215 16.23                             142    0.0910  109 169 
 RUS  HN ES       1215 35.02                             142   -0.1810  109 169 
 RUS  HZ I        1215 35.58         2.9 0.24            144            109 169 
 PTB  HZ EP       1215 17.33                             135   -0.34 9  136 255 
 PTB  HN ES       1215 37.88                             135   -0.04 9  136 255 
 PTB  HZ I        1215 41.59         1.7 0.16            134            136 255 
 NOR  HN ES       1215 54.30                             119    0.29 8  227 231 
 NOR  HZ I        1216  3.65         1.7 0.18            120            227 231 
                                                                                
