 2013  625 1008 13.1 L   6.796 -73.174148.8  RSN  7 0.5 1.6LRSN                1
 GAP=133        0.99       4.8     5.7  7.6  0.3103E+01  0.1053E+02 -0.8390E+01E
 Epicentro: LOS SANTOS - SANTANDER                                             3
 ACTION:UPD 14-01-08 09:57 OP:ep   STATUS:               ID:20130625100813 L   I
 OLDACT:REG 13-06-25 17:14 OP:carl STATUS:               ID:20130625095946     3
 2013-06-25-0959-46M.COL___225                                                 6
 STAT SP IPHASW D HRMM SECON CODA AMPLIT PERI AZIMU VELO AIN AR TRES W  DIS CAZ7
 BAR2 SZ EP   1   10 8 33.06                             171    0.00 7 22.5 182 
 BAR2 SZ ES   1   10 8 48.15                             171   -0.49 7 22.5 182 
 BAR2 SZ I        10 8 49.37         7.1 0.14            170           22.5 182 
 BRR  HZ EP   1   10 8 34.93                             154    0.51 7 68.7 300 
 BRR  HN ES   1   10 8 51.86                             154    0.80 7 68.7 300 
 BRR  HN I        10 8 52.65        37.3 0.18            151           68.7 300 
 PAM  SZ EP       10 8 35.89                             150    0.1310 79.8  41 
 PAM  SN ES   1   10 8 53.48                             150    0.03 7 79.8  41 
 PAM  SZ I        10 8 54.69         2.9 0.16            154           79.8  41 
 RUS  HZ EP       10 8 37.07                             145   -0.0510  100 174 
 RUS  HN ES       10 8 55.76                             145   -0.1110  100 174 
 RUS  HZ I        10 8 56.85         2.3 0.36            147            100 174 
 PTB  HZ EP       10 8 39.82                             133   -0.19 9  145 259 
 PTB  HN ES   1   10 9  0.39                             133   -0.63 7  145 259 
 PTB  HN I        10 9  5.95         9.4 0.52            132            145 259 
 ZAR  HZ EP       10 8 46.25                             123    0.81 9  201 293 
 ZAR  HE ES   2   10 9 10.74                             123    0.05 4  201 293 
 ZAR  HZ I        10 9 17.55         3.7 0.28            123            201 293 
 SML  HZ EP   1   10 8 48.80                             118   -0.98 6  243 336 
 SML  HN ES   1   10 9 17.78                             118   -0.63 6  243 336 
                                                                                
