 2012  925 1813 40.2 L   6.802 -73.162144.5  RSN  9 0.4 2.2LRSN                1
 GAP=134        0.79       4.1     5.0  6.2  0.2745E+01  0.3432E+01  0.7756E+01E
 Epicentro: LOS SANTOS - SANTANDER                                             3
 ACTION:UPD 12-10-22 14:20 OP:ep   STATUS:               ID:20120925181340 L   I
 2012-09-25-1809-49M.COL___218                                                 6
 STAT SP IPHASW D HRMM SECON CODA AMPLIT PERI AZIMU VELO AIN AR TRES W  DIS CAZ7
 BAR2 SZ EP   1   1813 59.65                             171   -0.06 7 23.3 186 
 BAR2 SZ ES   1   1814 14.70                             171   -0.21 7 23.3 186 
 BAR2 SZ I        1814 15.75        68.3 0.32                          23.3 186 
 GIR2 SZ EP   1   1813 59.61                             167   -0.13 7 30.8 354 
 GIR2 SZ ES   1   1814 15.16                             167    0.20 7 30.8 354 
 BRR  HZ EP       1814  1.38                             153    0.2310 69.5 299 
 BRR  HN ES   1   1814 18.34                             153    0.88 7 69.5 299 
 PAM  SZ EP   1   1814  2.33                             150   -0.04 7 78.3  41 
 PAM  SN I        1814 22.20        17.2 0.50                          78.3  41 
 RUS  HZ EP   1   1814  3.58                             144   -0.31 7  101 175 
 RUS  HN ES   1   1814 22.08                             144   -0.26 7  101 175 
 RUS  HZ I        1814 23.73        13.6 0.21                           101 175 
 PTB  HN ES   1   1814 27.00                             132   -0.77 7  146 259 
 ZAR  HE ES   1   1814 37.11                             122   -0.40 6  202 292 
 CHI  HZ EP   1   1814 18.02                             117    0.18 6  248 195 
 CHI  HN ES   1   1814 47.21                             117    0.04 6  248 195 
 CHI  HZ I        1814 51.13         6.3 0.35                           248 195 
 PRA  HZ EP   1   1814 33.59                             106   -0.04 4  391 209 
 PRA  HN ES   1   1815 16.31                             106    1.03 4  391 209 
 PRA  HN I        1815 20.37         8.4 0.69                           391 209 
                                                                                
