 2011  325 1112 58.5 L   6.776 -73.185143.4  RSN 13 0.5 2.7LRSN                1
 GAP=133        1.24       4.0     7.0  8.8 -0.4755E+01  0.8867E+01  0.1245E+02E
 Epicentro: LOS SANTOS - SANTANDER                                             3
 ACTION:UP  11-06-16 14:35 OP:jfem STATUS:               ID:20110325111258 L   I
 2011-03-25-1109-53S.COL___123                                                 6
 STAT SP IPHASW D HRMM SECON CODA AMPLIT PERI AZIMU VELO SNR AR TRES W  DIS CAZ7
 BAR2 SZ EP       1113 17.34                             171    -0.510   20 180 
 BAR2 SZ ES   1   1113 31.83                             171    -1.0 7   20 180 
 BAR2 SZ I        1113 35.23       189.6 0.30                            20 180 
 BRR  HZ EP       1113 19.17                             153    -0.110   69 302 
 BRR  HE ES   1   1113 36.18                             153     0.7 7   69 302 
 BRR  HZ I        1113 38.70        92.2 0.11                            69 302 
 GRA  SZ IP       1113 24.13                             135     0.210  130  19 
 GRA  SZ ES       1113 44.43                             135     0.710  130  19 
 GRA  SZ I        1113 45.13        65.3 0.39                           130  19 
 OCA  SZ EP   1   1113 26.31                             129    -0.6 7  162 355 
 OCA  SZ ES   1   1113 48.41                             129    -0.6 7  162 355 
 OCA  SZ I        1113 52.57        59.7 0.40                           162 355 
 YOP  SZ EP       1113 28.08                             126    -0.3 9  179 152 
 YOP  SN ES   1   1113 52.33                             126     0.7 7  179 152 
 YOP  SZ I        1113 52.76        55.1 0.24                           179 152 
 NOR  SZ EP   1   1113 33.51                             118    -0.1 6  230 234 
 NOR  SN ES   1   1114  0.82                             118    -0.1 6  230 234 
 CHI  HZ EP   1   1113 35.44                             117    -0.3 6  245 194 
 CHI  HZ I        1113 36.22        30.4 0.16                           245 194 
 CHI  HE ES       1114  5.03                             117     0.3 8  245 194 
 ROSC BZ EP   1   1113 37.22                             117     1.2 6  248 210 
 HEL  HZ EP   1   1113 38.50                             115     0.4 6  267 256 
 HEL  HZ I        1114 16.26        32.1 0.39                           267 256 
 VIL  SZ EP   1   1113 41.01                             112    -0.4 5  300 191 
 VIL  SN ES   1   1114 15.01                             112     0.1 5  300 191 
 VIL  SZ I        1114 24.63        22.9 0.41                           300 191 
 DBB  SZ EP   1   1113 45.13                             109    -0.3 5  335 275 
 DBB  SZ I        1114 24.15         5.1 0.42                           335 275 
 PRA  HZ EP   1   1113 51.41                             106     0.0 4  388 209 
 PRA  HN ES   1   1114 33.31                             106     0.6 4  388 209 
 SJA  SZ EP   1   1113 52.10                             106    -0.5 4  397 192 
 SJA  SZ I        1114 46.50        33.4 0.42                           397 192 
                                                                                
