 2016  725 1745  9.8 L   6.782 -73.120146.9  RSN  5 0.5 1.6LRSN                1
 GAP=141        1.25       6.5     7.1  9.9  0.9763E+01  0.8075E+01 -0.7381E+00E
 Epicentro: LOS SANTOS - SANTANDER                                             3
 ACTION:UPD 17-03-29 16:55 OP:lp   STATUS:               ID:20160725174509 L   I
 OLDACT:REG 16-07-25 22:08 OP:ar   STATUS:               ID:20160725173759     3
 2016-07-25-1737-59S.COL___331                                                 6
 STAT SP IPHASW D HRMM SECON CODA AMPLIT PERI AZIMU VELO AIN AR TRES W  DIS CAZ7
 BAR2 EZ EP       1745 28.98                             171   -0.5310 22.1 198 
 BAR2 EZ ES       1745 45.00                             171    0.1010 22.1 198 
 BAR2 EZ I        1745 45.68         7.1 0.22            170           22.1 198 
 BRR  HZ EP       1745 32.29                             152    1.0610 74.7 299 
 BRR  HN ES       1745 48.26                             152    0.2910 74.7 299 
 BRR  HZ I        1745 59.82        15.7 0.36            149           74.7 299 
 PAM  EZ EP       1745 32.13                             151    0.0410 77.2  37 
 PAM  EE ES       1745 49.22                             151   -0.2810 77.2  37 
 PAM  EZ I        1745 51.42        12.6 0.62            155           77.2  37 
 RUS  HZ EP       1745 33.34                             145   -0.1310 98.4 178 
 RUS  HN ES       1745 51.96                             145   -0.0010 98.4 178 
 RUS  HZ I        1745 52.89         2.8 0.28            151           98.4 178 
 ZAR  HN ES       1746  7.51                             122   -0.76 8  207 292 
                                                                                
