 2016 1225 1215 29.3 L   7.155 -73.831 84.9  RSN  5 0.4 1.3LRSN                1
 GAP=184        1.01       5.8     4.0  7.2  0.1322E+02  0.4967E+01  0.8108E+01E
 Epicentro: BARRANCABERMEJA - SANTANDER                                        3
 ACTION:UPD 17-01-11 20:18 OP:rebc STATUS:               ID:20161225121529 L   I
 OLDACT:UP  16-12-25 22:44 OP:edw  STATUS:               ID:20161225120746d    3
 OLDACT:DUP 16-12-25 22:41 OP:edw  STATUS:               ID:20161225120746d    3
 2016-12-25-1208-00M.COL___375                                                 6
 STAT SP IPHASW D HRMM SECON CODA AMPLIT PERI AZIMU VELO AIN AR TRES W  DIS CAZ7
 BRR  HZ IP     D 1215 40.31                             170   -0.7610 14.1 112 
 BRR  HN ES       1215 50.21                             170   -0.0210 14.1 112 
 BRR  HZ I        1215 50.86        23.0 0.10            172           14.1 112 
 BAR2 EZ EP       1215 47.21                             128    0.3610 94.9 131 
 BAR2 EZ ES       1216  0.81                             128    0.2910 94.9 131 
 BAR2 EZ I        1216  2.25         8.0 0.24            129           94.9 131 
 PTB  HZ EP       1215 46.19                             127   -0.5710 97.0 225 
 PTB  HN ES       1216  0.38                             127    0.0210 97.0 225 
 PTB  HZ I        1216  1.64         3.0 0.14            127           97.0 225 
 ZAR  HZ EP       1215 49.14                             121    0.0910  119 288 
 ZAR  HE ES       1216  4.97                             121    0.5310  119 288 
 ZAR  HZ I        1216 10.46         2.6 0.22            120            119 288 
 RUS  HZ EP       1215 54.38                             113   -0.02 9  162 149 
 RUS  HE ES       1216 14.12                             113    0.16 9  162 149 
 RUS  HZ I        1216 15.97         2.8 0.22            114            162 149 
                                                                                
