 2017  325 1308 31.1 L   6.809 -73.129142.9  RSN  4 0.2 1.3LRSN                1
 GAP=138        0.47       2.5     3.6  3.8 -0.2023E+00 -0.9028E+00  0.4669E+00E
 Epicentro: LOS SANTOS - SANTANDER                                             3
 ACTION:UPD 17-05-25 18:45 OP:jn   STATUS:               ID:20170325130831 L   I
 OLDACT:DUP 17-03-25 19:21 OP:dani STATUS:               ID:20170325125728d    3
 2017-03-25-1258-00M.COL___367                                                 6
 STAT SP IPHASW D HRMM SECON CODA AMPLIT PERI AZIMU VELO AIN AR TRES W  DIS CAZ7
 BAR2 EZ EP       13 8 50.14                             170   -0.2710 24.6 194 
 BAR2 EZ ES       13 9  5.48                             170    0.0010 24.6 194 
 BAR2 EZ I        13 9  6.54         8.2 0.72            171           24.6 194 
 BRR  HZ EP       13 8 51.96                             152   -0.0510 72.4 297 
 BRR  HN ES       13 9  8.39                             152    0.0810 72.4 297 
 BRR  HZ I        13 9 10.99         9.3 0.23            153           72.4 297 
 PAM  HZ EP       13 8 53.18                             151    0.2810 75.5  39 
 PAM  EE ES       13 9  9.78                             151   -0.1210 75.5  39 
 PAM  HZ I        13 9 12.41         2.4 0.38            152           75.5  39 
 RUS  HZ EP       13 8 54.62                             143   -0.0110  101 177 
 RUS  HN ES       13 9 13.08                             143    0.0910  101 177 
 RUS  HZ I        13 9 14.48         1.7 0.20            146            101 177 
                                                                                
