 2011  925 1909 42.6 L   6.793 -73.082135.2  RSN  6 0.4 2.0LRSN                1
 GAP=189        0.90       6.7    11.0 12.1  0.2588E+02 -0.4343E+02 -0.3566E+02E
 Epicentro: LOS SANTOS - SANTANDER                                             3
 ACTION:UPD 12-07-13 15:59 OP:ep   STATUS:               ID:20110925190942 L   I
 2011-09-25-1904-09S.COL___164                                                 6
 STAT SP IPHASW D HRMM SECON CODA AMPLIT PERI AZIMU VELO AIN AR TRES W  DIS CAZ7
 BTL  SZ EP       1910  1.12                             169    0.1110 24.7 304 
 BAR2 SZ EP       1910  0.80                             169   -0.2110 24.8 206 
 BAR2 SZ ES   2   1910 15.15                             169   -0.21 5 24.8 206 
 BAR2 SZ I        1910 16.51        17.5 0.30                          24.8 206 
 BRR  HZ EP       1910  2.71                             148   -0.3310 77.8 297 
 BRR  HN ES   1   1910 19.61                             148    0.64 7 77.8 297 
 BRR  HZ I        1910 20.74        21.1 0.14                          77.8 297 
 RUS  HN ES   2   1910 23.03                             142    0.09 5 99.6 180 
 OCA  SZ EP       1910 10.92                             127    0.63 9  162 351 
 OCA  SZ ES   1   1910 31.18                             127   -0.70 7  162 351 
 OCA  SZ I        1910 34.68        17.4 0.40                           162 351 
 ZAR  HN ES   2   1910 39.96                             119   -0.51 4  211 292 
 ZAR  HZ I        1910 45.68         7.3 0.28                           211 292 
                                                                                
