 2013  425 1850  5.2 L   6.754 -73.119148.4  RSN  8 0.5 1.9LRSN                1
 GAP=142        1.01       5.3     5.2  7.2 -0.1387E+01  0.1081E+02  0.5847E+01E
 Epicentro: LOS SANTOS - SANTANDER                                             3
 ACTION:UPD 13-05-22 14:40 OP:EP   STATUS:               ID:20130425185005 L   I
 2013-04-25-1850-00M.COL___249                                                 6
 STAT SP IPHASW D HRMM SECON CODA AMPLIT PERI AZIMU VELO AIN AR TRES W  DIS CAZ7
 BAR2 SZ EP       1850 24.82                             172   -0.2510 19.2 201 
 BAR2 SZ ES   1   1850 41.07                             172    0.50 7 19.2 201 
 BAR2 SZ I        1850 43.05        10.4 0.34            168           19.2 201 
 BRR  HZ EP     C 1850 26.91                             151   -0.0110 76.2 301 
 BRR  HN ES   1   1850 44.64                             151    0.78 7 76.2 301 
 BRR  HZ I        1850 56.01        19.6 0.38            149           76.2 301 
 PAM  SZ EP       1850 27.80                             151   -0.0310 79.6  36 
 PAM  SN ES   1   1850 45.15                             151   -0.33 7 79.6  36 
 PAM  SZ I        1850 47.14         7.1 0.20            157           79.6  36 
 RUS  HZ EP       1850 28.81                             146   -0.0310 95.4 178 
 RUS  HN ES   1   1850 47.18                             146   -0.11 7 95.4 178 
 RUS  HZ I        1850 48.79         4.3 0.40            151           95.4 178 
 PTB  HZ EP       1850 31.88                             132   -0.68 9  150 261 
 PTB  HN ES   1   1850 53.04                             132   -0.86 7  150 261 
 PTB  HZ I        1851  0.59        11.3 0.36            133            150 261 
 ZAR  HZ EP       1850 39.01                             122    0.72 8  209 293 
 ZAR  HN ES   1   1851  3.75                             122   -0.35 6  209 293 
 ZAR  HZ I        1851  9.41         9.6 0.14            124            209 293 
 NOR  HZ EP       1850 41.05                             119    0.03 8  234 236 
 NOR  HN ES   1   1851  9.51                             119    0.54 6  234 236 
 NOR  HZ I        1851 12.67         9.0 0.20            122            234 236 
 PRA  HZ EP       1850 59.33                             107    0.87 6  389 210 
 PRA  HN ES   2   1851 39.40                             107   -0.61 3  389 210 
 PRA  HZ I        1851 46.27         4.3 0.32            111            389 210 
 SJC  HZ EP   4   1850 59.78                             106   -1.75 0  415 327 
 SJC  HN ES   4   1851 42.63                             106   -2.84 0  415 327 
                                                                                
