 2014  825 1538 23.1 L   6.791 -73.152147.9  RSN  6 0.4 1.7LRSN                1
 GAP=136        1.01       5.3     5.6  7.2 -0.8361E+00 -0.5000E+00 -0.1359E+01E
 Epicentro: LOS SANTOS - SANTANDER                                             3
 ACTION:UPD 14-09-15 21:53 OP:nd   STATUS:               ID:20140825153823 L   I
 OLDACT:REG 14-08-25 21:16 OP:stll STATUS:               ID:20140825152821     3
 2014-08-25-1528-21M.COL___226                                                 6
 STAT SP IPHASW D HRMM SECON CODA AMPLIT PERI AZIMU VELO AIN AR TRES W  DIS CAZ7
 BAR2 SZ EP       1538 43.10                             171    0.1010 22.3 189 
 BAR2 SZ ES       1538 57.92                             171   -0.5810 22.3 189 
 BAR2 SZ I        1538 59.65        31.2 0.28            167           22.3 189 
 BRR  HZ EP       1538 44.40                             153   -0.1110 71.0 299 
 BRR  HN ES       1539  1.92                             153    0.7510 71.0 299 
 PAM  SZ EP       1538 45.66                             151    0.0110 78.6  40 
 PAM  SZ I        1538 46.16        13.2 0.22            156           78.6  40 
 RUS  HZ EP       1538 47.07                             144    0.0310 99.7 176 
 RUS  HN ES       1539  5.71                             144    0.0410 99.7 176 
 RUS  HZ I        1539  6.86         5.7 0.20            143           99.7 176 
 PTB  HZ EP       1538 49.84                             133   -0.36 9  147 259 
 PTB  HN ES       1539 10.72                             133   -0.58 9  147 259 
 PTB  HZ I        1539 15.85         3.1 0.22            130            147 259 
 SPBC HZ EP       1538 51.93                             130    0.24 9  162 219 
 SPBC HE ES       1539 14.41                             130    0.46 9  162 219 
 SPBC HZ I        1539 21.67         5.4 0.52            128            162 219 
                                                                                
