 2010  925 1529 34.0 L   7.115 -73.382109.3  RSN  7 0.4 2.1LRSN                1
 GAP=113        1.02       4.9     9.5 10.1 -0.6072E+01 -0.6166E+01 -0.1849E+02E
 Epicentro: LEBRIJA - SANTANDER                                                3
 ACTION:UP  11-02-18 11:05 OP:tino STATUS:               ID:20100925152934 L   I
 2010-09-25-1526-15S.COL___122                                                 6
 STAT SP IPHASW D HRMM SECON CODA AMPLIT PERI AZIMU VELO SNR AR TRES W  DIS CAZ7
 BTL  SZ EP       1529 49.95                             166     0.710   25 150 
 BRR  HZ EP   3   1529 49.77                             160     0.4 2   36 269 
 BRR  HZ I        1529 49.99        43.7 0.20                            36 269 
 BRR  HE ES   1   1530  0.89                             160    -0.4 7   36 269 
 BAR2 SZ EP       1529 50.96                             148    -0.110   62 159 
 BAR2 SZ ES       1530  4.25                             148    -0.110   62 159 
 BAR2 SZ I        1530  5.69        65.9 0.48                            62 159 
 GUE  SZ EP       1529 53.03                             136    -0.510   94  33 
 GRA  SZ ES   2   1530 10.62                             132     0.3 5  106  37 
 GRA  SZ I        1530 15.33        16.9 0.47                           106  37 
 OCA  SZ EP       1529 55.95                             127    -0.210  125   3 
 OCA  SZ ES   1   1530 13.92                             127     0.6 7  125   3 
 OCA  SZ I        1530 15.42        22.1 0.19                           125   3 
 NOR  SN ES   2   1530 35.21                             109     0.3 4  238 224 
                                                                                
