 2010  925 1902 40.0 L   6.761 -73.150147.8  RSN  7 0.4 1.6LRSN                1
 GAP=159        0.93       5.5    12.6 12.8  0.6431E+01 -0.8233E+02 -0.1708E+02E
 Epicentro: LOS SANTOS - SANTANDER                                             3
 ACTION:UP  11-02-18 11:05 OP:tino STATUS:               ID:20100925190240 L   I
 2010-09-25-1901-00S.COL___122                                                 6
 STAT SP IPHASW D HRMM SECON CODA AMPLIT PERI AZIMU VELO SNR AR TRES W  DIS CAZ7
 BAR2 SZ EP       19 2 59.43                             172    -0.310   19 191 
 BAR2 SZ I        19 3 15.70         9.3 0.13                            19 191 
 BTL  SZ EP       19 3  0.10                             171     0.310   22 323 
 BRR  HZ EP       19 3  1.51                             153     0.110   73 302 
 BRR  HN ES   1   19 3 18.29                             153     0.1 7   73 302 
 BRR  HZ I        19 3 22.97        12.0 0.05                            73 302 
 RUS  HZ EP       19 3  3.71                             146     0.110   96 176 
 RUS  HN ES   2   19 3 21.77                             146    -0.3 5   96 176 
 RUS  HZ I        19 3 24.01         4.3 0.35                            96 176 
 GUE  SZ EP       19 3  4.92                             139    -0.310  121  12 
 GRA  SZ EP       19 3  6.47                             136     0.710  130  17 
 GRA  SZ ES   2   19 3 25.81                             136     0.0 5  130  17 
 OCA  SZ EP       19 3  8.37                             129    -0.5 9  165 353 
 OCA  SZ ES   3   19 3 30.44                             129    -0.9 2  165 353 
                                                                                
