 2017  225 1130 50.6 L   6.798 -73.139147.8  RSN 16 0.4 2.6LRSN                1
 GAP=120        1.11       3.8     5.1  5.7  0.1353E+01  0.7439E+01  0.4383E+01E
 Epicentro: LOS SANTOS - SANTANDER                                             3
 ACTION:UPD 17-05-24 15:40 OP:jn   STATUS:               ID:20170225113050 L   I
 OLDACT:UP  17-02-25 22:37 OP:edw  STATUS:               ID:20170225112747     3
 OLDACT:REG 17-02-25 20:07 OP:edw  STATUS:               ID:20170225112747     3
 2017-02-25-1128-00M.COL___370                                                 6
 STAT SP IPHASW D HRMM SECON CODA AMPLIT PERI AZIMU VELO AIN AR TRES W  DIS CAZ7
 BAR2 EZ IP     D 1131 10.44                             171   -0.0210 23.2 192 
 BAR2 EZ ES       1131 25.53                             171   -0.4310 23.2 192 
 BAR2 EZ I        1131 28.31       137.8 0.28            166           23.2 192 
 BRR  HZ IP     C 1131 12.24                             152    0.2410 71.9 298 
 BRR  HN ES       1131 29.38                             152    0.6810 71.9 298 
 BRR  HZ I        1131 33.33        72.1 0.28            149           71.9 298 
 PAM  EZ IP     C 1131 13.26                             151    0.2510 77.1  39 
 PAM  EN ES       1131 30.58                             151    0.0910 77.1  39 
 PAM  EZ I        1131 33.75        29.9 0.42            156           77.1  39 
 RUS  HZ EP     D 1131 14.36                             144   -0.1610  100 176 
 RUS  HN ES       1131 32.84                             144   -0.3510  100 176 
 PTB  HZ EP   9   1131 17.22                             132   -0.56 0  148 259 
 PTB  HN ES       1131 38.24                             133   -0.19 9  148 259 
 PTB  HZ I        1131 43.40        31.5 0.10            129            148 259 
 ZAR  HZ EP       1131 23.07                             122   -0.18 9  205 292 
 ZAR  HN ES       1131 48.19                             122   -0.53 9  205 292 
 ZAR  HZ I        1131 54.31        37.2 0.36            121            205 292 
 CHI  HZ IP     D 1131 28.67                             117    0.27 8  249 195 
 CHI  HN ES       1131 57.95                             117    0.06 8  249 195 
 CHI  HZ I        1132  4.10        16.5 0.32            117            249 195 
 ROSC BZ EP   4   1131 30.39                             117    1.55 0  253 211 
 ROSC BN ES   4   1132  1.20                             117    2.53 0  253 211 
 ROSC BZ I        1132  5.11        49.4 0.40            116            253 211 
 HEL  HZ EP   4   1131 32.06                             115    1.08 0  273 256 
 HEL  HN ES   4   1132  3.81                             115    1.33 0  273 256 
 HEL  HZ I        1132 10.78        14.5 0.34            114            273 256 
 PTGC HZ EP   9 D 1131 33.53                             112   -0.96 0  308 159 
 PTGC HN ES       1132  6.65                             113   -1.12 7  308 159 
 PTGC HZ I        1132 12.43        18.4 0.26            112            308 159 
 LL6C HN EP   4   1131 17.36                             110   -19.1 0  325 357 
 LL6C HN ES   4   1131 51.02                             110   -21.1 0  325 357 
 CBOC HZ EP       1131 38.05                             110    0.39 7  334 252 
 CBOC HN ES   4   1132 13.48                             110   -0.89 0  334 252 
 CBOC HZ I        1132 25.45         4.6 0.40            109            334 252 
 PRA  HZ EP       1131 44.13                             107   -0.07 6  392 210 
 PRA  HN ES   4   1132 25.43                             107   -0.58 0  392 210 
 PRA  HZ I        1132 32.66        27.7 0.40            106            392 210 
 ORTC HZ EP       1131 45.00                             106    0.39 6  396 216 
 ORTC HN ES       1132 26.54                             106   -0.20 6  396 216 
 ORTC HZ I        1132 34.28        11.5 0.44            106            396 216 
 SJC  HZ IP   9 C 1131 44.63                             106   -1.66 0  410 327 
 SJC  HN ES       1132 26.24                             107   -1.83 6  410 327 
 SJC  HZ I        1132 29.80         5.8 0.30            106            410 327 
 CRJC HZ EP   9   1131 50.80                             103   -2.37 0  468   3 
 CRJC HN ES       1132 38.66                             105   -0.95 5  468   3 
 CRJC HZ I        1132 48.88         9.7 0.38            104            468   3 
 SMAR HZ EP       1131 55.50                             102   -1.07 4  497 346 
 SMAR HN ES   4   1132 43.37                             102   -4.65 0  497 346 
                                                                                
