 2014 1125 1252  7.5 L   6.800 -73.147144.3  RSN 15 0.5 2.4LRSN                1
 GAP=183        1.19       3.5     4.9  6.0 -0.4208E+00  0.6880E+01  0.2372E+01E
 Epicentro: LOS SANTOS - SANTANDER                                             3
 ACTION:UPD 14-12-19 15:47 OP:nd   STATUS:               ID:20141125125207 L   I
 OLDACT:UP  14-11-25 22:55 OP:cam  STATUS:               ID:20141125124748     3
 OLDACT:UP  14-11-25 22:55 OP:cam  STATUS:               ID:20141125124748     3
 OLDACT:REG 14-11-25 21:35 OP:fm   STATUS:               ID:20141125124748     3
 2014-11-25-1247-48M.COL___303                                                 6
 STAT SP IPHASW D HRMM SECON CODA AMPLIT PERI AZIMU VELO AIN AR TRES W  DIS CAZ7
 BAR2 SZ EP     C 1252 26.88                             170   -0.0710 23.3 190 
 BAR2 SZ ES       1252 41.60                             170   -0.5210 23.3 190 
 BAR2 SZ I        1252 44.89        28.5 0.18            166           23.3 190 
 BRR  HZ EP     C 1252 28.78                             152    0.2910 71.1 299 
 BRR  HN ES       1252 45.77                             152    0.9210 71.1 299 
 BRR  HZ I        1252 48.42        31.8 0.16            149           71.1 299 
 RUS  HZ EP       1252 30.71                             144   -0.4010  101 176 
 RUS  HN ES       1252 49.77                             144    0.2610  101 176 
 PTB  HZ EP       1252 33.78                             132   -0.56 9  148 259 
 PTB  HN ES       1252 54.64                             132   -0.62 9  148 259 
 PTB  HZ I        1253  2.33        50.7 0.44            130            148 259 
 OCA  HZ EP       1252 35.87                             129    0.17 9  160 353 
 OCA  HN ES       1252 57.31                             129   -0.38 9  160 353 
 OCA  HZ I        1253  1.79        36.4 0.44            132            160 353 
 SPBC HZ EP       1252 35.88                             129    0.00 9  163 219 
 SPBC HN ES       1252 58.37                             129    0.36 9  163 219 
 SPBC HZ I        1253  5.02        58.2 0.34            129            163 219 
 ZAR  HZ EP     D 1252 39.61                             122   -0.23 9  204 292 
 ZAR  HN ES       1253  5.65                             122    0.59 9  204 292 
 ZAR  HZ I        1253 11.12        30.7 0.18            122            204 292 
 NOR  HZ EP       1252 42.26                             118   -0.87 8  235 234 
 NOR  HN ES       1253 11.16                             118    0.24 8  235 234 
 NOR  HZ I        1253 14.58        27.8 0.16            119            235 234 
 CHI  HZ EP       1252 44.82                             117   -0.29 8  249 195 
 CHI  HN ES       1253 15.09                             117    0.65 8  249 195 
 CHI  HZ I        1253 22.04         8.3 0.26            118            249 195 
 HEL  HZ EP       1252 48.43                             115    0.80 8  272 256 
 HEL  HN ES       1253 17.97                             115   -0.95 8  272 256 
 HEL  HZ I        1253 26.51        11.0 0.24            115            272 256 
 GUY2CHZ EP       1252 51.75                             112    0.72 7  301 235 
 GUY2CHN ES       1253 24.67                             112   -0.31 7  301 235 
 GUY2CHZ I        1253 31.83        15.3 0.32                           301 235 
 RREF HZ EP       1252 53.71                             111    0.14 7  322 229 
 CBOC HZ EP       1252 54.45                             110    0.11 7  333 252 
 CBOC HN ES   4   1253 32.40                             110    1.53 0  333 252 
 CBOC HZ I        1253 42.37         5.1 0.62            111            333 252 
 TOL  SZ EP   4   1252 56.59                             109    0.90 0  343 225 
 TOL  SN ES   4   1253 34.74                             109    1.47 0  343 225 
 TOL  SZ I        1253 39.80        26.3 0.50            110            343 225 
 MON  HZ EP   4   1252 52.73                             108   -3.71 0  354 308 
 ORTC HZ EP       1253  1.73                             106    0.37 6  395 216 
 PAL  HZ EP   4   1253  0.79                             106   -1.81 0  406 239 
                                                                                
