 2014  225 1558 54.3 L   6.815 -73.120152.5  RSN 12 0.4 2.2LRSN                1
 GAP=139        1.00       3.0     4.6  5.3 -0.6524E+00  0.8328E+01 -0.7500E-01E
 Epicentro: LOS SANTOS - SANTANDER                                             3
 ACTION:UPD 14-03-10 08:13 OP:ep   STATUS:               ID:20140225155854 L   I
 OLDACT:REG 14-02-25 15:58 OP:cam  STATUS:               ID:20140225155818     3
 2014-02-25-1558-18M.COL___235                                                 6
 STAT SP IPHASW D HRMM SECON CODA AMPLIT PERI AZIMU VELO AIN AR TRES W  DIS CAZ7
 BAR2 SZ EP   1   1559 13.98                             170   -0.82 7 25.6 196 
 BAR2 SZ ES       1559 30.31                             170   -0.4710 25.6 196 
 BAR2 SZ I        1559 32.59        49.9 0.28            168           25.6 196 
 BRR  HZ EP       1559 16.84                             153    0.5410 73.0 296 
 BRR  HN ES       1559 34.17                             153    0.7410 73.0 296 
 BRR  HZ I        1559 39.06        22.4 0.16            151           73.0 296 
 PAM  SZ EP       1559 17.65                             153    0.5710 74.3  39 
 PAM  SN ES       1559 34.96                             153    0.1310 74.3  39 
 PAM  SZ I        1559 36.98        37.5 0.54            158           74.3  39 
 RUS  HZ EP       1559 18.75                             145   -0.0910  102 178 
 RUS  HN ES       1559 37.68                             145   -0.2910  102 178 
 RUS  HZ I        1559 39.07         9.5 0.46            148            102 178 
 PTB  HZ EP       1559 21.93                             133   -0.19 9  151 258 
 PTB  HN ES   4   1559 42.52                             133   -1.29 0  151 258 
 PTB  HZ I        1559 50.21        24.7 0.40            133            151 258 
 SPBC HZ EP       1559 23.75                             130    0.12 9  166 219 
 SPBC HN ES       1559 46.29                             130   -0.20 9  166 219 
 SPBC HZ I        1559 50.89        21.7 0.22            131            166 219 
 ZAR  HZ EP       1559 27.53                             123    0.11 8  206 291 
 ZAR  HE ES       1559 53.23                             123   -0.00 8  206 291 
 ZAR  HZ I        1559 59.32        16.7 0.50            124            206 291 
 NOR  HZ EP       1559 30.84                             119    0.04 8  238 235 
 NOR  HN ES       1559 59.04                             119   -0.21 8  238 235 
 NOR  HZ I        16 0  2.32        10.2 0.26            121            238 235 
 SML  HZ EP       1559 31.01                             119   -0.29 8  243 335 
 SML  HN ES       1559 59.55                             119   -0.59 8  243 335 
 SML  HZ I        16 0  5.11        18.2 0.10            121            243 335 
 CHI  HZ EP       1559 32.93                             118    0.28 8  251 196 
 CHI  HN ES   1   16 0  2.63                             118    0.08 6  251 196 
 CHI  HZ I        16 0  8.49         5.8 0.32            121            251 196 
 GUY2CHZ EP       1559 39.17                             113    0.55 7  304 235 
 GUY2CHN ES   4   16 0 17.84                             113    4.67 0  304 235 
 GUY2CHZ I        16 0 21.68        12.7 0.72                           304 235 
 SJC  HZ EP       1559 49.10                             107   -1.03 6  409 326 
 SJC  HN ES   4   16 0 30.52                             107   -3.14 0  409 326 
                                                                                
