 2012  725 1729  8.4 L   6.777 -73.144144.0  RSN  7 0.4 1.9LRSN                1
 GAP=138        0.82       5.9     5.2  7.8  0.4205E+01  0.1140E+02  0.3361E+01E
 Epicentro: LOS SANTOS - SANTANDER                                             3
 ACTION:UPD 12-08-14 11:45 OP:ep   STATUS:               ID:20120725172908 L   I
 2012-07-25-1727-50M.COL___205                                                 6
 STAT SP IPHASW D HRMM SECON CODA AMPLIT PERI AZIMU VELO AIN AR TRES W  DIS CAZ7
 BAR2 SZ EP       1729 27.89                             171     0.110   21 192 
 BAR2 SZ I        1729 28.29        18.6 0.34            171             21 192 
 BAR2 SZ ES   1   1729 43.17                             171     0.3 7   21 192 
 BRR  HZ EP       1729 29.62                             152     0.210   73 300 
 BRR  HZ I        1729 30.09        28.4 0.16            148             73 300 
 BRR  HN ES   1   1729 46.09                             152     0.2 7   73 300 
 PAM  SN ES   2   1729 47.40                             150    -0.4 5   79  38 
 RUS  HZ EP   1   1729 32.05                             144     0.2 7   98 176 
 RUS  HZ I        1729 33.26         7.4 0.16            145             98 176 
 RUS  HN ES   2   1729 49.46                             144    -0.6 5   98 176 
 PTB  HZ EP   1   1729 34.60                             132    -0.6 7  147 260 
 PTB  HN ES   1   1729 55.48                             132    -0.6 7  147 260 
 PTB  HZ I        1729 58.06         5.8 0.12            129            147 260 
 ZAR  HZ EP   1   1729 40.89                             122     0.0 6  205 293 
 ZAR  HN ES   1   1730  6.26                             122     0.1 6  205 293 
 ZAR  HZ I        1730 12.27         9.0 0.31            120            205 293 
 NOR  SN ES   1   1730 12.09                             118     0.5 6  233 235 
