 2010  625 1515 18.8 L   6.803 -73.046138.4  RSN  4 0.1 1.4LRSN                1
 GAP=176        0.35       3.6     7.3  6.1  0.1109E+02 -0.2254E+02 -0.9718E+01E
 Epicentro: LOS SANTOS - SANTANDER                                             3
 ACTION:UP  10-08-24 10:13 OP:vdl  STATUS:               ID:20100625151518 L   I
 2010-06-25-1512-42S.COL___118                                                 6
 STAT SP IPHASW D HRMM SECON CODA AMPLIT PERI AZIMU VELO SNR AR TRES W  DIS CAZ7
 BAR2 SZ EP   1   1515 37.62                             168     0.0 7   28 213 
 BAR2 SZ ES   2   1515 52.18                             168    -0.2 5   28 213 
 BRR  HZ EP   1   1515 39.59                             148    -0.2 7   81 295 
 BRR  HZ I        1515 56.24        10.1 0.38                            81 295 
 BRR  HE ES   2   1515 56.33                             148     0.2 5   81 295 
 RUS  HZ EP   1   1515 41.91                             142     0.1 7  101 182 
 RUS  HN ES   2   1515 59.83                             142     0.0 5  101 182 
 RUS  HZ I        1516  0.98         2.3 0.14                           101 182 
 GUE  SZ EP   1   1515 42.72                             138     0.1 7  114   7 
                                                                                
