 2013  325 1402  5.8 L   7.163 -73.037 16.0  RSN  5 0.3 1.3LRSN                1
 GAP=157        0.70       2.6     1.9  4.1 -0.2457E+01 -0.1389E+01  0.2468E+01E
 Epicentro: BUCARAMANGA - SANTANDER                                            3
 ACTION:UPD 13-04-09 14:04 OP:ep   STATUS:               ID:20130325140205 L   I
 2013-03-25-1400-00M.COL___244                                                 6
 STAT SP IPHASW D HRMM SECON CODA AMPLIT PERI AZIMU VELO AIN AR TRES W  DIS CAZ7
 GIR2 SZ EP       14 2  9.97                             130   -0.1710 19.6 242 
 GIR2 SZ ES       14 2 14.07                             130    0.5410 19.6 242 
 GIR2 SZ I        14 2 14.48        24.4 0.10            132           19.6 242 
 PAM  SZ EP       14 2 13.37                             111   -0.2210 42.1  62 
 PAM  SN ES       14 2 19.88                             111    0.2210 42.1  62 
 PAM  SN I        14 2 21.14        22.8 0.44            111           42.1  62 
 BAR2 SZ EP   2   14 2 16.66                             103   -0.03 5 65.1 194 
 BAR2 SZ ES       14 2 24.96                             103   -0.2310 65.1 194 
 BRR  HZ IP     C 14 2 17.57                             101   -0.3110 74.8 265 
 BRR  HN ES       14 2 27.29                             101   -0.0110 74.8 265 
 BRR  HN I        14 2 27.51        24.2 0.32            101           74.8 265 
 RUS  HZ EP   2   14 2 28.64                              56    0.44 5  141 182 
 RUS  HN ES   2   14 2 45.99                              56    0.33 5  141 182 
 RUS  HN I        14 2 46.05         2.3 0.34             56            141 182 
                                                                                
