 2017 1025 1421 30.3 L   6.787 -73.145144.9  RSN 10 0.3 1.8LRSN                1
 GAP=112        0.83       2.9     3.1  4.8  0.1212E+01  0.3746E+01  0.2619E+01E
 Epicentro: LOS SANTOS - SANTANDER                                             3
 ACTION:UPD 17-11-07 19:36 OP:rebc STATUS:               ID:20171025142130 L   I
 OLDACT:REG 17-10-25 20:36 OP:dhb  STATUS:               ID:20171025141136     3
 2017-10-25-1418-00M.COL___442                                                 6
 STAT SP IPHASW D HRMM SECON CODA AMPLIT PERI AZIMU VELO AIN AR TRES W  DIS CAZ7
 BAR2 EZ IP     C 1421 49.70                             171   -0.0510 21.9 191 
 BAR2 EZ ES       1422  4.47                             171   -0.4910 21.9 191 
 BAR2 EZ I        1422  7.57        10.9 0.36            169           21.9 191 
 BRR  HZ IP     C 1421 51.53                             152    0.1810 71.9 299 
 BRR  HN ES       1422  8.13                             152    0.3310 71.9 299 
 BRR  HZ I        1422 12.60        16.9 0.36            152           71.9 299 
 PAM  EZ IP     D 1421 52.68                             151    0.2410 78.4  39 
 PAM  EN ES       1422  9.79                             151    0.0510 78.4  39 
 PAM  EZ I        1422 11.91        18.0 0.50            155           78.4  39 
 RUS  HZ EP       1421 53.86                             144    0.0410 99.2 176 
 RUS  HN ES       1422 12.30                             144    0.1010 99.2 176 
 RUS  HZ I        1422 13.62        17.3 0.34            146           99.2 176 
 PTB  HZ EP       1421 56.88                             132   -0.25 9  148 259 
 PTB  HN ES       1422 18.11                             132    0.02 9  148 259 
 PTB  HZ I        1422 23.10         5.1 0.36            132            148 259 
 YPLC HN ES       1422 22.79                             127   -0.16 9  176 151 
 YPLC HZ I        1422 25.10        10.1 0.24            130            176 151 
 ZAR  HZ EP       1422  2.80                             122    0.10 9  205 293 
 ZAR  HN ES       1422 27.79                             122   -0.22 9  205 293 
 ZAR  HZ I        1422 33.40         8.0 0.32            124            205 293 
 NOR  HZ EP       1422  4.90                             118   -0.95 8  234 235 
 NOR  HN ES       1422 33.96                             118    0.35 8  234 235 
 NOR  HZ I        1422 41.14         3.8 0.42            120            234 235 
 CHI  HZ EP       1422  8.03                             117    0.28 8  247 195 
 CHI  HE ES       1422 37.38                             117    0.37 8  247 195 
 CHI  HZ I        1422 40.74         3.5 0.42            119            247 195 
 GUY2CHZ EP   9   1422 16.64                             112    2.91 0  300 235 
 GUY2CHE ES       1422 51.25                                    0.69 7  300 235 
 GUY2CHZ I        1422 59.95         3.2 0.42                           300 235 
                                                                                
