 2017 1225 1238  6.4 L   6.739 -73.137148.0  RSN  4 0.2 1.2LRSN                1
 GAP=161        0.62       4.1     4.1  5.3 -0.8363E+01  0.6890E+01 -0.5665E+01E
 Epicentro: LOS SANTOS - SANTANDER                                             3
 ACTION:UPD 18-01-04 13:24 OP:rebc STATUS:               ID:20171225123806 L   I
 OLDACT:REG 17-12-25 19:39 OP:dhb  STATUS:               ID:20171225123426     3
 2017-12-25-1238-00M.COL___451                                                 6
 STAT SP IPHASW D HRMM SECON CODA AMPLIT PERI AZIMU VELO AIN AR TRES W  DIS CAZ7
 BAR2 HZ EP       1238 26.38                             173    0.2310 17.0 197 
 BAR2 HZ ES       1238 41.57                             173   -0.0110 17.0 197 
 BAR2 HZ I        1238 42.99         3.2 0.54            172           17.0 197 
 PAM  EZ EP       1238 29.22                             150    0.1210 82.2  36 
 PAM  EN ES       1238 46.64                             150   -0.2010 82.2  36 
 PAM  EZ I        1238 51.28         1.3 0.48            152           82.2  36 
 PTB  HZ EP       1238 33.58                             133    0.09 9  148 261 
 PTB  HN ES       1238 54.52                             133   -0.13 9  148 261 
 PTB  HZ I        1239  1.77         1.6 0.40            133            148 261 
 OCA  HZ EP       1238 35.04                             129   -0.45 9  167 353 
 OCA  HN ES       1238 58.54                             129    0.33 9  167 353 
 OCA  HZ I        1239  1.24         5.0 0.52            130            167 353 
                                                                                
