 2016  625 1402 47.4 L   6.785 -73.147147.7  RSN 14 0.4 2.4LRSN                1
 GAP=137        0.93       3.4     3.7  5.8 -0.1854E+01  0.4685E+01  0.5617E+01E
 Epicentro: LOS SANTOS - SANTANDER                                             3
 ACTION:UPD 16-07-21 22:22 OP:rebc STATUS:               ID:20160625140247 L   I
 OLDACT:REG 16-06-25 20:51 OP:dnl  STATUS:               ID:20160625135744     3
 2016-06-25-1357-44M.COL___333                                                 6
 STAT SP IPHASW D HRMM SECON CODA AMPLIT PERI AZIMU VELO AIN AR TRES W  DIS CAZ7
 BRR  HZ EP   2   14 3  9.23                             153    0.43 5 71.9 300 
 BRR  HN ES       14 3 26.24                             153    0.7510 71.9 300 
 BRR  HZ I        14 3 30.55        33.7 0.16                          71.9 300 
 PAM  EZ EP       14 3 10.04                             151    0.1410 78.8  39 
 PAM  EN ES       14 3 27.18                             151   -0.2810 78.8  39 
 PAM  EZ I        14 3 29.65        19.6 0.58                          78.8  39 
 RUS  HZ EP       14 3 10.99                             145   -0.2410 98.9 176 
 RUS  HN ES       14 3 29.84                             145    0.0310 98.9 176 
 RUS  HZ I        14 3 30.83        21.0 0.32                          98.9 176 
 PTB  HZ EP       14 3 14.09                             133   -0.39 9  147 259 
 PTB  HN ES       14 3 34.75                             133   -0.86 9  147 259 
 PTB  HZ I        14 3 42.38        28.9 0.40                           147 259 
 SPBC HZ EP       14 3 16.02                             130    0.10 9  162 219 
 SPBC HN ES       14 3 38.24                             130    0.08 9  162 219 
 SPBC HZ I        14 3 43.21        37.5 0.18                           162 219 
 ZAR  HZ EP       14 3 19.74                             123   -0.28 9  205 293 
 ZAR  HE ES       14 3 45.82                             123    0.35 9  205 293 
 ZAR  HZ I        14 3 52.09        26.9 0.48                           205 293 
 NOR  HZ EP       14 3 23.21                             119    0.09 8  234 235 
 NOR  HN ES       14 3 50.58                             119   -0.41 8  234 235 
 NOR  HZ I        14 3 56.43        19.5 0.36                           234 235 
 CHI  HZ EP   2   14 3 24.78                             118   -0.25 4  247 195 
 CHI  HN ES   2   14 3 54.67                             118    0.29 4  247 195 
 CHI  HZ I        14 3 59.90        10.3 0.18                           247 195 
 ROSC BZ EP   4   14 3 27.03                             117    1.57 0  251 211 
 ROSC BE ES   2   14 3 54.50                             117   -0.65 4  251 211 
 ROSC BZ I        14 4  4.81        27.6 0.35                           251 211 
 URE  HZ EP   4   14 3 27.50                             114   -1.11 0  284 292 
 URE  HN ES   4   14 3 58.33                             114   -2.43 0  284 292 
 URE  HZ I        14 4 11.28        12.3 0.36                           284 292 
 GUY2CHZ EP   4   14 3 31.61                             113    0.64 0  300 235 
 GUY2CHN ES       14 4  5.24                             113    0.28 7  300 235 
 GUY2CHZ I        14 4 13.57        15.1 0.62                           300 235 
 PRA  HZ EP       14 3 40.81                             107    0.00 6  390 210 
 PRA  HN ES       14 4 23.29                             107    0.82 6  390 210 
 PRA  HZ I        14 4 29.44        11.3 0.26                           390 210 
 ORTC HZ EP       14 3 41.97                             107    0.75 6  394 216 
 ORTC HE ES   4   14 4 24.59                             107    1.40 0  394 216 
 ORTC HZ I        14 4 30.86         7.9 0.52                           394 216 
 SJC  HZ EP   4   14 3 41.42                             106   -1.76 0  411 327 
 SJC  HN ES   4   14 4 22.74                             106   -3.94 0  411 327 
 SJC  HZ I        14 4 32.09         3.7 0.32                           411 327 
                                                                                
