 2012  325 1418 25.2 L   6.783 -73.170147.6  RSN  5 0.3 1.6LRSN                1
 GAP=134        0.78       5.5     5.2  8.0 -0.4941E+01  0.1764E+01  0.1018E+01E
 ACTION:UP  12-03-31 23:22 OP:EP   STATUS:               ID:20120325141825 L   I
 2012-03-25-1415-35M.COL___175                                                 6
 STAT SP IPHASW D HRMM SECON CODA AMPLIT PERI AZIMU VELO SNR AR TRES W  DIS CAZ7
 BAR2 SZ ES   2   1419  0.14                             171    -0.4 5   21 184 
 BAR2 SZ I        1419  2.97        11.0 0.53                            21 184 
 BRR  HZ EP   1   1418 46.81                             153     0.3 7   70 301 
 BRR  HN ES   1   1419  3.58                             153     0.5 7   70 301 
 BRR  HZ I        1419  5.54         8.1 0.20                            70 301 
 PAM  SZ EP       1418 47.87                             150     0.010   81  40 
 PAM  SN ES   1   1419  5.13                             150    -0.3 7   81  40 
 PAM  SZ I        1419  7.39         4.4 0.53                            81  40 
 RUS  HZ EP   1   1418 49.30                             145     0.3 7   99 174 
 RUS  HN ES   1   1419  7.69                             145     0.1 7   99 174 
 RUS  HZ I        1419  9.08         5.2 0.41                            99 174 
 PTB  HZ EP   1   1418 51.61                             133    -0.5 7  145 259 
 PTB  HE ES   1   1419 12.75                             133    -0.3 7  145 259 
 PTB  HZ I        1419 15.45         4.3 0.18                           145 259 
                                                                                
