 2017  225 1010 25.8 L   6.796 -73.144142.7  RSN  8 0.3 1.5LRSN                1
 GAP=137        0.64       2.6     2.8  3.9  0.5529E+00  0.3179E+01  0.1938E+01E
 Epicentro: LOS SANTOS - SANTANDER                                             3
 ACTION:UPD 17-05-24 15:40 OP:jn   STATUS:               ID:20170225101025 L   I
 OLDACT:REG 17-02-25 19:53 OP:edw  STATUS:               ID:20170225100741     3
 2017-02-25-1008-00M.COL___367                                                 6
 STAT SP IPHASW D HRMM SECON CODA AMPLIT PERI AZIMU VELO AIN AR TRES W  DIS CAZ7
 BAR2 EZ EP     C 1010 45.00                             170   -0.0310 22.9 191 
 BAR2 EZ ES       1010 59.84                             170   -0.2010 22.9 191 
 BAR2 EZ I        1011  1.20         8.4 0.22            169           22.9 191 
 BRR  HZ EP       1010 47.02                             152    0.4110 71.5 299 
 BRR  HN ES       1011  3.04                             152    0.1810 71.5 299 
 BRR  HZ I        1011  6.34        10.7 0.40            151           71.5 299 
 PAM  EZ IP     C 1010 47.92                             150    0.2410 77.7  39 
 PAM  EN ES       1011  4.67                             150   -0.1010 77.7  39 
 PAM  EZ I        1011  7.43         4.7 0.50            153           77.7  39 
 RUS  HZ EP       1010 49.12                             143   -0.0710  100 176 
 RUS  HN ES       1011  7.40                             143   -0.0510  100 176 
 RUS  HZ I        1011  9.32         5.4 0.28            144            100 176 
 PTB  HZ EP       1010 52.07                             131   -0.43 9  148 259 
 PTB  HN ES       1011 13.18                             131   -0.16 9  148 259 
 PTB  HZ I        1011 15.71         3.0 0.22            131            148 259 
 ZAR  HZ EP       1010 57.70                             122   -0.35 9  204 292 
 ZAR  HN ES       1011 23.42                             122    0.19 9  204 292 
 ZAR  HZ I        1011 29.55         3.1 0.22            122            204 292 
 CHI  HZ EP   2   1011  3.42                             116    0.16 4  248 195 
 CHI  HN ES   2   1011 33.40                             116    0.91 4  248 195 
 CHI  HZ I        1011 36.19         1.1 0.60            117            248 195 
 PRA  HZ EP       1011 18.93                             106   -0.22 6  392 210 
 PRA  HN ES       1012  1.24                             106    0.46 6  392 210 
 PRA  HZ I        1012  8.09         1.2 0.34            107            392 210 
                                                                                
