 2017  825 1251  7.7 L   6.714 -73.219146.5  RSN  4 0.1 1.5LRSN                1
 GAP=214        0.42       4.5     5.2  3.7  0.1960E+02  0.2272E+01  0.6619E+00E
 Epicentro: VILLANUEVA - SANTANDER                                             3
 ACTION:UPD 17-09-04 20:24 OP:rebc STATUS:               ID:20170825125107 L   I
 OLDACT:REG 17-08-25 19:58 OP:edw  STATUS:               ID:20170825124743     3
 2017-08-25-1248-00M.COL___408                                                 6
 STAT SP IPHASW D HRMM SECON CODA AMPLIT PERI AZIMU VELO AIN AR TRES W  DIS CAZ7
 BAR2 EZ EP       1251 27.02                             174   -0.2410 14.1 163 
 BAR2 EZ ES       1251 42.49                             174   -0.0310 14.1 163 
 BAR2 EZ I        1251 43.37         6.7 0.20            172           14.1 163 
 BRR  HZ EP       1251 28.95                             153    0.1210 69.7 309 
 BRR  HN ES       1251 45.43                             153    0.1010 69.7 309 
 RUS  HZ EP       1251 31.05                             146    0.1310 92.1 171 
 RUS  HN ES       1251 49.03                             146   -0.0110 92.1 171 
 RUS  HZ I        1251 50.97         5.0 0.26            145           92.1 171 
 ZAR  HN ES       1252  4.76                             123   -0.11 9  200 296 
                                                                                
