 2010  825 1419 37.1 L   6.756 -73.079152.0  RSN  5 0.2 1.6LRSN                1
 GAP=167        0.49       4.2     8.2  8.6  0.9633E+01 -0.5395E+02 -0.1305E+02E
 Epicentro: LOS SANTOS - SANTANDER                                             3
 ACTION:UP  10-09-07 10:58 OP:vdl  STATUS:               ID:20100825141937 L   I
 2010-08-25-1414-38S.COL___121                                                 6
 STAT SP IPHASW D HRMM SECON CODA AMPLIT PERI AZIMU VELO SNR AR TRES W  DIS CAZ7
 BAR2 SZ ES   3   1420 12.53                             172    -0.8 2   22 212 
 BAR2 SZ I        1420 13.76        12.4 0.78                            22 212 
 BRR  HZ EP       1419 59.37                             151     0.010   80 299 
 BRR  HN ES       1420 16.87                             151     0.010   80 299 
 BRR  HZ I        1420 19.40        14.9 0.60                            80 299 
 RUS  HZ EP   1   1420  0.99                             147    -0.1 7   95 180 
 RUS  HN ES   2   1420 20.12                             147     0.3 5   95 180 
 RUS  HZ I        1420 21.37         3.5 0.04                            95 180 
 GUE  SZ EP       1420  2.52                             140    -0.110  120   8 
 GUE  SZ I        1420  4.16         2.4 0.05                           120   8 
 GRA  SZ EP       1420  3.26                             138     0.210  128  14 
 GRA  SZ I        1420  4.40         7.8 0.42                           128  14 
                                                                                
