 2012  625 1141 38.6 L   6.740 -73.177152.2  RSN  4 0.2 1.5LRSN                1
 GAP=229        0.38       5.5     6.1  7.1  0.1770E+02 -0.1828E+02 -0.9465E+01E
 Epicentro: VILLANUEVA - SANTANDER                                             3
 ACTION:UPD 12-08-06 17:52 OP:ep   STATUS:               ID:20120625114138 L   I
 2012-06-25-1140-00M.COL___199                                                 6
 STAT SP IPHASW D HRMM SECON CODA AMPLIT PERI AZIMU VELO AIN AR TRES W  DIS CAZ7
 BAR2 SZ EP       1141 58.78                             174   -0.1410 16.4 182 
 BAR2 SZ I        1142 16.13         4.7 0.28                          16.4 182 
 BRR  HZ EP       1142  0.62                             153    0.1110 71.7 304 
 BRR  HZ I        1142 12.57         8.0 0.46                          71.7 304 
 BRR  HN ES   1   1142 17.58                             153    0.01 7 71.7 304 
 RUS  HZ EP   3   1142  3.16                             147    0.57 2 94.3 174 
 RUS  HN ES   2   1142 21.34                             147    0.07 5 94.3 174 
 PTB  HE ES   2   1142 26.72                             134   -0.15 5  143 261 
                                                                                
