 2017  125 1049 25.1 L   6.287 -73.658112.0  RSN  5 0.1 1.3LRSN                1
 GAP=163        0.32       2.1     1.6  3.4  0.1238E+01  0.1969E+01  0.9597E+00E
 Epicentro: SANTA HELENA DEL OPON - SANTANDER                                  3
 ACTION:UPD 17-05-22 16:03 OP:jn   STATUS:               ID:20170125104925 L   I
 OLDACT:REG 17-01-25 21:20 OP:dnl  STATUS:               ID:20170125104740     3
 2017-01-25-1048-00M.COL___349                                                 6
 STAT SP IPHASW D HRMM SECON CODA AMPLIT PERI AZIMU VELO AIN AR TRES W  DIS CAZ7
 BAR2 EZ IP     C 1049 42.46                             149   -0.0110 62.5  57 
 BAR2 EZ ES       1049 55.98                             149   -0.0410 62.5  57 
 BAR2 EZ I        1049 56.47         6.1 0.18            151           62.5  57 
 RUS  HZ EP   2   1049 43.73                             143   -0.10 5 77.2 124 
 RUS  HN ES       1049 58.51                             143    0.0610 77.2 124 
 RUS  HZ I        1050  0.77         1.9 0.48            147           77.2 124 
 BRR  HZ EP   2   1049 43.97                             138   -0.23 5 90.8 356 
 BRR  HN ES       1049 59.15                             138    0.0510 90.8 356 
 BRR  HZ I        1050  2.36         8.5 0.36            138           90.8 356 
 PTB  HZ EP       1049 44.32                             137   -0.0410 92.6 288 
 PTB  HN ES       1049 59.38                             137   -0.0210 92.6 288 
 PTB  HZ I        1050  1.75         3.7 0.10            137           92.6 288 
 ZAR  HZ EP   2   1049 54.20                             116    0.40 4  188 315 
 ZAR  HN ES   4   1050 18.31                             116    2.11 0  188 315 
 ZAR  HZ I        1050 21.65         4.1 0.44            116            188 315 
                                                                                
