 2012  525 2057 34.7 L   6.613 -73.448119.8  RSN  6 0.3 1.7LRSN                1
 GAP=104        0.64       5.5     4.7  8.5  0.2894E+01  0.2245E+02  0.5394E+01E
 Epicentro: EL CARMEN DE CHUCURI - SANTANDER                                   3
 ACTION:UP  12-07-05 12:08 OP:pat  STATUS:               ID:20120525205734 L   I
 2012-05-25-2050-00M.COL___201                                                 6
 STAT SP IPHASW D HRMM SECON CODA AMPLIT PERI AZIMU VELO SNR AR TRES W  DIS CAZ7
 BAR2 SZ EP       2057 51.66                             165     0.310   29  94 
 BAR2 SZ I        2057 51.83        20.0 0.34                            29  94 
 BAR2 SZ ES   2   2058  4.28                             165    -0.1 5   29  94 
 RUS  HZ EP       2057 55.00                             141    -0.110   89 153 
 RUS  HN ES   1   2058 10.99                             141     0.0 7   89 153 
 RUS  HZ I        2058 12.82         9.2 0.48                            89 153 
 PTB  HZ EP       2057 55.89                             134    -0.410  112 266 
 PTB  HN ES   2   2058 13.46                             134     0.3 5  112 266 
 PTB  HZ I        2058 14.70         6.9 0.18                           112 266 
 PAM  SN ES   2   2058 15.00                             133     0.1 5  115  46 
 ZAR  HE ES   3   2058 25.71                             119    -0.1 2  184 302 
 NOR  SZ EP       2058  5.04                             117     0.3 9  195 234 
                                                                                
