 2013  425 2137 11.7 L   6.832 -73.188141.7  RSN  5 0.3 1.8LRSN                1
 GAP=147        0.70       4.2     3.8  6.3 -0.6534E+01  0.9693E+01  0.7367E+00E
 Epicentro: ZAPATOCA - SANTANDER                                               3
 ACTION:UPD 13-05-22 14:40 OP:EP   STATUS:               ID:20130425213711 L   I
 2013-04-25-2128-47M.COL___213                                                 6
 STAT SP IPHASW D HRMM SECON CODA AMPLIT PERI AZIMU VELO AIN AR TRES W  DIS CAZ7
 PAM  SZ EP       2137 33.83                             150    0.3510 77.8  44 
 PAM  SN ES       2137 50.34                             150   -0.1510 77.8  44 
 RUS  HZ EP       2137 35.29                             142   -0.0210  104 174 
 RUS  HN ES       2137 53.75                             142   -0.0110  104 174 
 RUS  HN I        2137 54.33         6.9 0.26             47            104 174 
 PTB  HZ EP       2137 37.58                             132   -0.38 9  144 257 
 PTB  HN ES       2137 58.62                             132    0.15 9  144 257 
 PTB  HN I        2138  3.84        11.6 0.62             47            144 257 
 NOR  HZ EP       2137 46.53                             118   -0.46 8  233 233 
 NOR  HE ES       2138 14.66                             118    0.13 8  233 233 
 NOR  HN I        2138 23.42         9.1 0.18             37            233 233 
 GUY  HZ EP       2137 55.66                             111    0.50 7  302 234 
 GUY  HN I        2138 37.97         1.7 0.40             37            302 234 
                                                                                
