 2015  525 2314 36.2 L   6.783 -73.316129.0  RSN  6 0.4 1.5LRSN                1
 GAP=129        1.14       4.5     5.7  9.7  0.5349E+01  0.5091E+01 -0.1003E+01E
 Epicentro: ZAPATOCA - SANTANDER                                               3
 ACTION:UPD 15-09-10 22:07 OP:cam  STATUS:               ID:20150525231436 L   I
 OLDACT:UP  15-05-26 10:24 OP:mh   STATUS:               ID:20150525230752d    3
 OLDACT:DUP 15-05-26 10:16 OP:mh   STATUS:               ID:20150525230752d    3
 OLDACT:UP  15-05-26 07:11 OP:mh   STATUS:               ID:20150525230750d    3
 OLDACT:DUP 15-05-26 07:11 OP:mh   STATUS:               ID:20150525230750d    3
 2015-05-25-2307-49M.COL___300                                                 6
 STAT SP IPHASW D HRMM SECON CODA AMPLIT PERI AZIMU VELO AIN AR TRES W  DIS CAZ7
 BAR2 EZ EP       2314 54.31                             168    0.4510 25.8 145 
 BAR2 EZ ES   1   2315  7.66                             168    0.01 7 25.8 145 
 BAR2 EZ I        2315  8.19        16.3 0.22            170           25.8 145 
 BRR  HZ EP       2314 55.26                             155    0.5510 56.5 309 
 BRR  HN ES       2315  9.31                             155    0.1510 56.5 309 
 BRR  HZ I        2315 13.20        14.7 0.32            157           56.5 309 
 PAM  SZ EP       2314 57.37                             143   -0.2810 91.8  48 
 PAM  SN ES       2315 14.86                             143    0.4610 91.8  48 
 PAM  SZ I        2315 17.13         4.9 0.32            145           91.8  48 
 RUS  HZ EP       2314 58.54                             140    0.1210  102 165 
 RUS  HN ES       2315 15.09                             140   -0.6810  102 165 
 RUS  HZ I        2315 17.44         1.5 0.34            143            102 165 
 OCA  HE ES       2315 23.69                             125   -0.80 9  161 360 
 ZAR  HN ES       2315 28.84                             121   -0.13 9  188 295 
                                                                                
