 2013  125 2047 22.7 L   6.810 -73.161145.7  RSN 13 0.5 2.9LRSN 3.1WRSN        1
 SPEC AVERAGE  MO 13.7 ST 11.8 OM  2.2 f0 5.26 R0.2978 AL 1.98 WI 24.0 MW  3.1 3
 SPEC SD       MO  0.2 ST  7.1 OM  0.3 f0 1.23 R0.0789 AL      WI      MW  0.1 3
 GAP= 80        0.91       3.6     3.2  6.0 -0.8753E+00  0.2398E+01  0.6917E+01E
 Epicentro: LOS SANTOS - SANTANDER                                             3
 SPEC ZAR HH Z MO 13.9 ST 25.8 OM  2.1 f0 6.21 R0.2367 AL 1.70 WI 23.4 MW  3.2 3
 SPEC ZAR HH Z T204815 K 0.000 GD  249 VS 4.20 DE 3.20 Q0300.0 QA 0.60 VS 4.20 3
 SPEC TAM HH Z MO 13.3 ST  7.5 OM  1.6 f0 6.36 R0.2311 AL 3.90 WI 35.6 MW  2.8 3
 SPEC TAM HH Z T2048 4 K 0.000 GD  214 VS 4.20 DE 3.20 Q0300.0 QA 0.60 VS 4.20 3
 SPEC PTB HH Z MO 13.6 ST 13.5 OM  1.9 f0 6.21 R0.2367 AL 1.43 WI 20.9 MW  3.0 3
 SPEC PTB HH Z T2048 7 K 0.000 GD  206 VS 4.20 DE 3.20 Q0300.0 QA 0.60 VS 4.20 3
 SPEC NOR HH Z MO 13.7 ST 12.1 OM  1.9 f0 5.43 R0.2707 AL 0.45 WI 16.5 MW  3.1 3
 SPEC NOR HH Z T204824 K 0.000 GD  275 VS 4.20 DE 3.20 Q0300.0 QA 0.60 VS 4.20 3
 SPEC OCA HH Z MO 13.9 ST  6.1 OM  2.2 f0 3.74 R0.3930 AL 1.39 WI 41.6 MW  3.2 3
 SPEC OCA HH Z T204810 K 0.000 GD  215 VS 4.20 DE 3.20 Q0300.0 QA 0.60 VS 4.20 3
 SPEC HEL HH Z MO 13.7 ST  4.9 OM  1.8 f0 4.18 R0.3517 AL 2.65 WI 31.8 MW  3.1 3
 SPEC HEL HH Z T204829 K 0.000 GD  307 VS 4.20 DE 3.20 Q0300.0 QA 0.60 VS 4.20 3
 SPEC CHI HH Z MO 13.7 ST  2.1 OM  1.8 f0 3.25 R0.4523 AL 2.82 WI 16.5 MW  3.0 3
 SPEC CHI HH Z T204827 K 0.000 GD  288 VS 4.20 DE 3.20 Q0300.0 QA 0.60 VS 4.20 3
 SPEC BRR HH Z MO 13.6 ST 18.9 OM  2.0 f0 6.98 R0.2106 AL 2.02 WI 16.1 MW  3.0 3
 SPEC BRR HH Z T204757 K 0.000 GD  161 VS 4.20 DE 3.20 Q0300.0 QA 0.60 VS 4.20 3
 SPEC BAR2SH Z MO 14.0 ST 15.4 OM  2.4 f0 4.94 R0.2976 AL 1.44 WI 13.7 MW  3.3 3
 SPEC BAR2SH Z T204754 K 0.000 GD  147 VS 4.20 DE 3.20 Q0300.0 QA 0.60 VS 4.20 3
 ACTION:UPD 13-02-15 09:16 OP:ep   STATUS:               ID:20130125204722 L   I
 2013-01-25-2040-00M.COL___240                                                 6
 STAT SP IPHASW D HRMM SECON CODA AMPLIT PERI AZIMU VELO AIN AR TRES W  DIS CAZ7
 BAR2 SZ EP       2047 42.32                             170   -0.0410 24.2 185 
 BAR2 SZ ES   1   2047 57.11                             170   -0.56 7 24.2 185 
 BAR2 SZ I        2047 58.30       455.5 0.30            171           24.2 185 
 BRR  HZ IP       2047 44.04                             153    0.3010 69.1 298 
 BRR  HN ES   1   2048  1.18                             153    1.04 7 69.1 298 
 BRR  HZ I        2048  2.22       158.1 0.18            153           69.1 298 
 PAM  SZ EP       2047 45.24                             151    0.3010 77.7  41 
 PAM  SN ES   1   2048  2.15                             151   -0.13 7 77.7  41 
 PAM  SZ I        2048  4.71       115.3 0.56            152           77.7  41 
 PTB  HZ IP     C 2047 48.67                             132   -0.87 9  146 258 
 PTB  HN ES   1   2048  9.61                             132   -0.85 7  146 258 
 PTB  HZ I        2048 13.10        85.9 0.28            133            146 258 
 TAM  HZ EP       2047 50.77                             130    0.20 9  157 105 
 TAM  HN ES   1   2048 12.38                             130    0.08 7  157 105 
 TAM  HZ I        2048 19.61        29.1 0.28            132            157 105 
 OCA  HZ EP   1   2047 50.50                             130   -0.40 7  159 354 
 OCA  HN ES   1   2048 12.55                             130   -0.34 7  159 354 
 OCA  HZ I        2048 20.69       109.1 0.50            131            159 354 
 ZAR  HZ EP   1   2047 55.06                             123    0.11 6  202 292 
 ZAR  HN ES   1   2048 20.21                             123    0.12 6  202 292 
 ZAR  HZ I        2048 25.67        85.4 0.30            123            202 292 
 CTAB SZ EP   4   2047 59.78                             119    1.31 0  230 210 
 NOR  HZ EP       2047 58.52                             118    0.16 8  234 234 
 NOR  HN ES   1   2048 26.02                             118   -0.14 6  234 234 
 NOR  HZ I        2048 31.37        47.8 0.18            120            234 234 
 CHI  HZ EP       2048  0.52                             117    0.04 8  249 195 
 CHI  HN ES   1   2048 29.93                             117    0.00 6  249 195 
 CHI  HZ I        2048 32.37        47.3 0.34            118            249 195 
 HEL  HZ EP   1   2048  3.42                             115    0.65 6  271 255 
 HEL  HN ES   1   2048 34.76                             115    0.75 6  271 255 
 HEL  HZ I        2048 40.72        44.0 0.30            116            271 255 
 URE  HZ EP   4   2048  5.29                             114    1.73 0  282 292 
 URE  HE ES   4   2048 33.19                             114   -2.22 0  282 292 
 VIL  SZ EP       2048  6.14                             112   -0.07 7  304 191 
 VIL  SE ES   1   2048 40.41                             112    0.27 5  304 191 
 VIL  SZ I        2048 43.29        46.4 0.34            113            304 191 
 DBB  SZ EP   1   2048  9.88                             109   -0.10 5  338 274 
 DBB  SZ ES   4   2048 46.09                             109   -0.76 0  338 274 
 DBB  SZ I        2048 50.03        42.9 0.38            110            338 274 
 SDV  BZ EP   2   2048 12.00                             108   -0.83 3  361  50 
 SJC  HN ES   4   2048 55.82                             106   -5.40 0  407 327 
                                                                                
