 2013  325 2035 48.4 L   6.651 -73.208138.0  RSN  4 0.1 1.6LRSN                1
 GAP=204        0.34       4.3     2.9  5.0  0.1636E+01  0.1455E+00  0.6715E+01E
 Epicentro: BARICHARA - SANTANDER                                              3
 ACTION:UPD 13-04-09 14:04 OP:ep   STATUS:               ID:20130325203547 L   I
 2013-03-25-2030-00M.COL___244                                                 6
 STAT SP IPHASW D HRMM SECON CODA AMPLIT PERI AZIMU VELO AIN AR TRES W  DIS CAZ7
 BAR2 SZ EP   1   2036  6.69                             177   -0.14 7 7.09 156 
 BAR2 SZ I        2036 23.46        10.5 0.24            161           7.09 156 
 BRR  HZ EP   1   2036  8.97                             150    0.06 7 75.1 312 
 BRR  HZ I        2036 13.07         3.0 0.30            154           75.1 312 
 BRR  HN ES       2036 24.99                             150    0.0510 75.1 312 
 BRR  HN I        2036 31.03         8.7 0.18            154           75.1 312 
 PTB  HZ EP   1   2036 14.01                             132    0.15 7  139 265 
 PTB  HN ES       2036 33.72                             132   -0.02 9  139 265 
 PTB  HN I        2036 34.94         5.1 0.22            137            139 265 
 ZAR  HN ES       2036 45.25                             120   -0.09 9  205 297 
 ZAR  HN I        2036 51.85         5.6 0.16            121            205 297 
                                                                                
