 2017  725 2000 22.5 L   6.813 -73.153143.9  RSN  8 0.3 2.5LRSN                1
 GAP=213        0.89       4.6     4.8  6.0  0.1100E+02 -0.5308E+01 -0.1880E+01E
 Epicentro: LOS SANTOS - SANTANDER                                             3
 ACTION:UPD 17-08-30 15:36 OP:rebc STATUS:               ID:20170725200022 L   I
 OLDACT:REG 17-07-26 04:00 OP:lv   STATUS:               ID:20170725195744     3
 2017-07-25-1958-00M.COL___398                                                 6
 STAT SP IPHASW D HRMM SECON CODA AMPLIT PERI AZIMU VELO AIN AR TRES W  DIS CAZ7
 BAR2 EZ EP       20 0 41.80                             170   -0.1210 24.6 188 
 BAR2 EZ ES       20 0 56.51                             170   -0.5710 24.6 188 
 BAR2 EZ I        20 0 57.97        33.0 0.19            166           24.6 188 
 BRR  HZ IP     D 20 0 43.65                             153    0.3010 69.8 298 
 BRR  HN ES       20 1  0.17                             153    0.5410 69.8 298 
 RUS  HN ES       20 1  4.53                             143   -0.1010  102 176 
 RUS  HZ I        20 1  5.64        15.5 0.26            140            102 176 
 PTB  HZ EP   9   20 0 48.63                             132   -0.62 0  147 258 
 PTB  HN ES       20 1  9.28                                   -0.23 9  147 258 
 PTB  HZ I        20 1 11.46         6.6 0.12            128            147 258 
 SPBC HZ EP       20 0 50.72                             128   -0.17 9  164 218 
 SPBC HN ES       20 1 13.01                             128   -0.05 9  164 218 
 SPBC HZ I        20 1 18.52      11.9e4 0.02            125            164 218 
 YPLC HZ EP       20 0 52.18                             126   -0.12 9  178 151 
 YPLC HN ES       20 1 16.09                             126    0.53 9  178 151 
 YPLC HZ I        20 1 17.15         6.7 0.14            125            178 151 
 ZAR  HZ EP   3   20 0 54.29                             122   -0.38 2  203 292 
 ZAR  HN ES       20 1 19.56                             122   -0.22 9  203 292 
 ZAR  HZ I        20 1 25.00        10.5 0.19            120            203 292 
 GUY2CHZ EP   9   20 1  7.16                             112    1.14 0  301 234 
 GUY2CHN ES       20 1 41.91                                    0.79 7  301 234 
 GUY2CHZ I        20 1 48.12         4.2 0.08                           301 234 
                                                                                
