 2017 1125 2117 55.3 L   6.823 -73.194141.3  RSN  4 0.3 1.1LRSN                1
 GAP=146        0.91       5.5     5.2  7.7 -0.9005E+01  0.1138E+02 -0.4032E+01E
 Epicentro: ZAPATOCA - SANTANDER                                               3
 ACTION:UPD 17-12-12 20:00 OP:rebc STATUS:               ID:20171125211755 L   I
 OLDACT:DUP 17-11-26 06:58 OP:lv   STATUS:               ID:20171125210748d    3
 2017-11-25-2108-00M.COL___489                                                 6
 STAT SP IPHASW D HRMM SECON CODA AMPLIT PERI AZIMU VELO AIN AR TRES W  DIS CAZ7
 BAR2 EZ EP       2118 14.42                             169   -0.0110 25.6 177 
 BAR2 EZ ES       2118 30.02                             169    0.6610 25.6 177 
 BAR2 EZ I        2118 30.67         3.9 0.32            172           25.6 177 
 PAM  EZ EP       2118 17.41                             149    0.2810 79.0  44 
 PAM  EN ES       2118 33.70                             149   -0.4710 79.0  44 
 PAM  EZ I        2118 37.20         2.4 0.42            151           79.0  44 
 RUS  HZ EP       2118 18.84                             142    0.0210  104 173 
 RUS  HN ES       2118 36.83                             142   -0.3610  104 173 
 RUS  HZ I        2118 38.51         1.3 0.32            146            104 173 
 PTB  HZ EP       2118 21.54                             132    0.08 9  143 257 
 PTB  HN ES       2118 41.64                             132   -0.24 9  143 257 
 PTB  HZ I        2118 45.45         1.3 0.20            133            143 257 
                                                                                
