 2010  525 2204 54.8 L   6.798 -73.128150.3  RSN 12 0.5 2.9LRSN                1
 GAP=145        0.91       4.4     6.9  8.3 -0.1360E+02  0.1409E+02  0.8197E+01E
 Epicentro: LOS SANTOS - SANTANDER                                             3
 ACTION:UP  10-08-24 10:06 OP:vdl  STATUS:               ID:20100525220454 L   I
 2010-05-25-2203-22S.COL___108                                                 6
 STAT SP IPHASW D HRMM SECON CODA AMPLIT PERI AZIMU VELO SNR AR TRES W  DIS CAZ7
 BAR2 SZ IP       22 5 14.83                             170    -0.110   24 195 
 BAR2 SZ ES   2   22 5 30.05                             170    -0.7 5   24 195 
 GUE  SZ EP       22 5 19.85                             141    -0.110  116  11 
 GUE  SZ ES   2   22 5 39.26                             141    -0.2 5  116  11 
 GRA  SZ IP       22 5 20.66                             138     0.210  125  17 
 GRA  SZ ES   1   22 5 40.89                             138     0.5 7  125  17 
 OCA  SZ EP       22 5 23.29                             131    -0.2 9  161 352 
 OCA  SZ ES   1   22 5 46.11                             131     0.2 7  161 352 
 OCA  SZ I        22 5 50.19       161.5 0.49                           161 352 
 CHI  HZ EP       22 5 32.45                             118    -0.3 8  249 196 
 CHI  HN ES   2   22 6  2.33                             118    -0.1 4  249 196 
 CHI  HZ I        22 6  8.11        30.3 0.40                           249 196 
 CVER SZ EP   2   22 5 35.89                             116     0.5 4  273 203 
 HEL  HZ EP       22 5 36.18                             115     0.7 8  274 256 
 HEL  HZ I        22 6 13.87        46.7 0.47                           274 256 
 RREF BZ EP       22 5 41.87                             112     0.6 7  323 230 
 RREF BN ES   2   22 6 17.45                             112    -0.1 3  323 230 
 RREF BZ I        22 6 26.39        48.1 0.33                           323 230 
 DBB  SZ EP       22 5 42.44                             110    -0.2 7  341 274 
 MON  HE ES   2   22 6 20.87                             109    -1.7 3  354 308 
 MON  HZ I        22 6 36.83        25.9 0.56                           354 308 
 SDV  BZ IP     C 22 5 44.22                             109    -0.6 6  359  50 
 SDV  BZ I        22 6 23.38        15.2 0.26                           359  50 
 ANIL BZ EP   2   22 5 45.64                             109     0.7 3  359 225 
 ANIL BN ES   2   22 6 23.15                             109    -0.8 3  359 225 
                                                                                
