 2015  225 2047 46.7 L   6.916 -73.204136.9  RSN  8 0.4 2.2LRSN                1
 GAP=173        0.87       4.0     4.8  7.2 -0.1051E+02  0.1168E+02  0.3719E+01E
 Epicentro: BETULIA - SANTANDER                                                3
 ACTION:UPD 15-04-30 21:29 OP:nd   STATUS:               ID:20150225204746 L   I
 OLDACT:REG 15-02-26 02:52 OP:fm   STATUS:               ID:20150225203748     3
 2015-02-25-2037-48M.COL___302                                                 6
 STAT SP IPHASW D HRMM SECON CODA AMPLIT PERI AZIMU VELO AIN AR TRES W  DIS CAZ7
 PAM  SZ EP     D 2048  7.85                             151    0.1410 72.8  50 
 PAM  SN ES       2048 24.15                             151    0.0710 72.8  50 
 PAM  SZ I        2048 25.54        22.4 0.22            154           72.8  50 
 PTB  HZ EP       2048 11.72                             131   -0.96 9  145 253 
 PTB  HN ES       2048 32.98                             131    0.05 9  145 253 
 PTB  HZ I        2048 35.25        26.8 0.32            130            145 253 
 SML  HZ EP       2048 20.95                             117   -0.34 8  229 335 
 SML  HE ES       2048 48.63                             117    0.37 8  229 335 
 SML  HZ I        2048 55.92        14.0 0.10            118            229 335 
 NOR  HZ EP       2048 21.86                             116   -0.37 8  237 231 
 NOR  HE ES       2048 49.73                             116   -0.20 8  237 231 
 NOR  HZ I        2048 52.76        16.5 0.22            117            237 231 
 GUY2CHZ EP       2048 30.51                             110    0.30 7  304 232 
 GUY2CHE ES       2049  3.86                             110   -0.27 7  304 232 
 GUY2CHZ I        2049 12.11        10.6 0.30                           304 232 
 RREF HZ EP       2048 33.58                             109    0.66 7  326 227 
 RREF HN ES       2049  9.28                             109    0.32 7  326 227 
 RREF HZ I        2049 20.60         7.0 0.44            110            326 227 
 CBOC HZ EP       2048 33.14                             108    0.08 7  332 250 
 CBOC HN ES       2049  9.67                             108    0.47 7  332 250 
 CBOC HZ I        2049 15.02         2.7 0.24            109            332 250 
 TOL  SZ EP       2048 35.35                             107    0.16 6  348 222 
 TOL  SN ES       2049 13.36                             107    0.36 6  348 222 
 TOL  SZ I        2049 22.20        10.8 0.46            108            348 222 
                                                                                
