 2017 1125 2050 31.5 L   6.816 -73.163139.6  RSN 11 0.4 1.9LRSN                1
 GAP=134        0.86       3.1     3.4  5.1 -0.1645E+01  0.6587E+01  0.2254E+01E
 Epicentro: LOS SANTOS - SANTANDER                                             3
 ACTION:UPD 17-12-12 20:00 OP:rebc STATUS:               ID:20171125205031 L   I
 OLDACT:REG 17-11-26 04:58 OP:lv   STATUS:               ID:20171125204744     3
 2017-11-25-2048-00M.COL___480                                                 6
 STAT SP IPHASW D HRMM SECON CODA AMPLIT PERI AZIMU VELO AIN AR TRES W  DIS CAZ7
 BAR2 EZ EP       2050 50.36                             169   -0.0310 24.8 185 
 BAR2 EZ ES       2051  5.22                             169    0.0710 24.8 185 
 BAR2 EZ I        2051  6.60        16.0 0.30            168           24.8 185 
 PAM  EZ EP       2050 53.07                             150    0.0510 77.3  41 
 PAM  EE ES       2051  9.90                             150    0.0710 77.3  41 
 PAM  EZ I        2051 12.13        19.7 0.50            154           77.3  41 
 RUS  HZ EP       2050 54.48                             142   -0.2810  103 175 
 RUS  HN ES       2051 13.26                             142    0.3310  103 175 
 RUS  HZ I        2051 14.86        14.7 0.38            144            103 175 
 PTB  HZ EP       2050 57.09                             131   -0.70 9  146 258 
 PTB  HN ES       2051 18.05                             131   -0.28 9  146 258 
 PTB  HZ I        2051 21.09         9.4 0.18            131            146 258 
 SPBC HZ EP       2050 59.38                             128   -0.13 9  163 218 
 SPBC HN ES       2051 21.52                             128    0.13 9  163 218 
 SPBC HZ I        2051 26.49        18.2 0.24            128            163 218 
 ZAR  HZ EP       2051  3.59                             121    0.33 9  202 292 
 ZAR  HN ES       2051 27.93                             121   -0.13 9  202 292 
 ZAR  HZ I        2051 33.69         8.0 0.22            122            202 292 
 TABC EZ EP   4   2051  8.51                             118    1.60 0  230 210 
 NOR  HZ EP       2051  6.92                             117    0.14 8  234 234 
 NOR  HE ES       2051 34.73                             117    0.39 8  234 234 
 NOR  HZ I        2051 40.10         6.4 0.20            118            234 234 
 CHI  HZ EP       2051  8.99                             116    0.03 8  250 195 
 CHI  HN ES       2051 37.28                             116   -0.93 8  250 195 
 CHI  HZ I        2051 41.44         4.3 0.26            117            250 195 
 GUY2CHZ EP       2051 14.97                             111    0.24 7  301 234 
 GUY2CHN ES       2051 49.05                             111    0.57 7  301 234 
 GUY2CHZ I        2051 54.84         3.6 0.42                           301 234 
 PRA  HZ EP       2051 25.77                             105    0.92 6  393 209 
 PRA  HN ES       2052  6.42                             105   -0.07 6  393 209 
 PRA  HZ I        2052 12.90         3.8 0.30            107            393 209 
 SJC  HZ EP   4   2051 24.83                             105   -1.70 0  407 327 
 SJC  HN ES   4   2052  5.76                             105   -3.72 0  407 327 
 SJC  HZ I        2052 10.86         2.2 0.30            106            407 327 
                                                                                
