 2011  925 2014 36.2 L   6.775 -73.110143.6  RSN  9 0.3 2.2LRSN                1
 GAP=186        0.47       2.7     3.6  4.5 -0.7689E+00  0.2567E+01  0.1880E-01E
 Epicentro: LOS SANTOS - SANTANDER                                             3
 ACTION:UPD 12-07-13 15:59 OP:ep   STATUS:               ID:20110925201436 L   I
 2011-09-25-2013-02S.COL___165                                                 6
 STAT SP IPHASW D HRMM SECON CODA AMPLIT PERI AZIMU VELO AIN AR TRES W  DIS CAZ7
 BAR2 SZ IP       2014 55.54                             171    0.0210 21.7 201 
 BAR2 SZ ES   2   2015 10.25                             171   -0.36 5 21.7 201 
 BAR2 SZ I        2015 11.35        38.6 0.10                          21.7 201 
 BTL  SZ EP       2014 55.82                             170    0.2610 23.5 312 
 BRR  HZ EP       2014 57.49                             151    0.1110 75.9 299 
 BRR  HE ES   1   2015 14.25                             151    0.34 7 75.9 299 
 BRR  HZ I        2015 15.54        37.6 0.35                          75.9 299 
 RUS  HZ EP   1   2014 59.55                             144    0.04 7 97.7 178 
 RUS  HN ES   2   2015 17.23                             144   -0.48 5 97.7 178 
 RUS  HZ I        2015 19.72        21.1 0.31                          97.7 178 
 OCA  SZ EP       2015  4.29                             129   -0.34 9  163 352 
 OCA  SZ ES   2   2015 26.70                             129   -0.12 5  163 352 
 OCA  SZ I        2015 28.36        15.8 0.69                           163 352 
 ZAR  HZ EP   2   2015  8.59                             121   -0.38 4  209 292 
 ZAR  HE ES   2   2015 34.23                             121   -0.31 4  209 292 
 ZAR  HZ I        2015 41.58        15.5 0.18                           209 292 
 NOR  SZ EP   1   2015 12.10                             118    0.14 6  236 236 
 NOR  SN ES   2   2015 39.55                             118   -0.32 4  236 236 
 HEL  HZ EP   2   2015 16.74                             114    0.11 4  275 257 
 HEL  HN ES   2   2015 47.85                             114   -0.34 4  275 257 
 HEL  HZ I        2015 54.97         8.3 0.34                           275 257 
 RREF HZ EP   2   2015 22.59                             110    0.22 3  323 230 
 RREF HN ES   2   2015 58.76                             110    0.36 3  323 230 
 RREF HZ I        2016  3.64         7.2 0.71                           323 230 
                                                                                
