 2017  525 2307 38.4 L   7.139 -73.337115.3  RSN 21 0.4 2.7LRSN                1
 GAP=185        0.90       3.3     3.5  4.9  0.4846E+01 -0.2367E+00  0.8173E+00E
 Epicentro: LEBRIJA - SANTANDER                                                3
 ACTION:UPD 17-06-16 13:38 OP:jn   STATUS:               ID:20170525230738 L   I
 OLDACT:UP  17-05-26 06:05 OP:edw  STATUS:               ID:20170525224811     3
 OLDACT:UP  17-05-26 06:03 OP:edw  STATUS:               ID:20170525224811     3
 OLDACT:UP  17-05-26 06:03 OP:edw  STATUS:               ID:20170525224811     3
 OLDACT:UP  17-05-26 06:02 OP:edw  STATUS:               ID:20170525224811     3
 OLDACT:REG 17-05-26 03:12 OP:edw  STATUS:               ID:20170525224811     3
 2017-05-25-2258-00M.COL___338                                                 6
 STAT SP IPHASW D HRMM SECON CODA AMPLIT PERI AZIMU VELO AIN AR TRES W  DIS CAZ7
 BRR  HZ IP     C 23 7 54.64                             159    0.0210 41.5 265 
 BRR  HN ES       23 8  7.47                             159    0.1610 41.5 265 
 BRR  HZ I        23 8  8.15       233.2 0.30            152           41.5 265 
 PTB  HZ EP   9 C 23 8  0.65                             126   -1.64 0  140 242 
 PTB  HN ES       23 8 19.99                             126    0.67 9  140 242 
 PTB  HZ I        23 8 21.99        99.9 0.32            119            140 242 
 RUS  HZ EP       23 8  2.29                             126   -0.66 9  141 168 
 RUS  HN ES       23 8 21.72                             126   -0.41 9  141 168 
 RUS  HZ I        23 8 24.93        33.4 0.20            121            141 168 
 ZAR  HZ EP       23 8  5.68                             120    0.10 9  172 283 
 ZAR  HN ES       23 8 26.89                             120    0.07 9  172 283 
 ZAR  HZ I        23 8 30.24       103.6 0.42            113            172 283 
 SPBC HZ EP       23 8  7.13                             118    0.27 9  183 206 
 SPBC HN ES       23 8 29.62                             118    0.52 9  183 206 
 SPBC HZ I        23 8 34.83        81.4 0.18            113            183 206 
 YPLC HZ EP       23 8 11.16                             113    0.29 8  220 151 
 YPLC HN ES       23 8 36.86                             113    0.63 8  220 151 
 YPLC HZ I        23 8 39.66        43.9 0.32            109            220 151 
 NOR  HZ EP       23 8 12.93                             111   -0.54 8  243 224 
 NOR  HN ES       23 8 40.47                             111   -0.39 8  243 224 
 NOR  HZ I        23 8 43.52        75.3 0.30            105            243 224 
 HEL  HZ EP       23 8 17.13                             109    0.85 8  264 247 
 HEL  HN ES       23 8 45.63                             109   -0.23 8  264 247 
 HEL  HZ I        23 8 50.89        30.7 0.38            104            264 247 
 ROSC BZ EP   4   23 8 19.63                             108    1.88 0  277 203 
 ROSC BN ES   4   23 8 53.08                             108    4.59 0  277 203 
 ROSC BZ I        23 8 53.86        26.8 0.40            103            277 203 
 CHI  HZ EP       23 8 18.28                             108   -0.01 7  281 189 
 CHI  HN ES       23 8 49.57                             108    0.13 7  281 189 
 CHI  HZ I        23 8 54.10        13.4 0.30            103            281 189 
 LL6C HN EP   4   23 7 59.20                             107   -19.3 0  287   1 
 LL6C HN ES   4   23 8 34.55                             107   -15.3 0  287   1 
 ARGC HZ EP   4   23 8 23.14                             105    1.13 0  317 342 
 ARGC HN ES   4   23 9  0.72                             105    4.66 0  317 342 
 ARGC HZ I        23 9 12.13        20.1 0.40            100            317 342 
 DBB  EZ EP       23 8 22.02                             105   -0.17 7  318 268 
 DBB  EN ES   4   23 8 54.48                             105   -1.90 0  318 268 
 DBB  EZ I        23 8 58.80        13.7 0.16            100            318 268 
 RECRCHZ EP   4   23 8 25.69                             104    1.66 0  328 223 
 RECRCHN ES   4   23 9  1.69                             104    2.03 0  328 223 
 CBOC HZ EP       23 8 23.02                             104   -0.47 7  328 245 
 CBOC HN ES   4   23 8 53.19                             104   -5.51 0  328 245 
 CBOC HZ I        23 9 11.61         8.4 0.26             99            328 245 
 VIL  EZ EP   2   23 8 24.93                             104    0.39 3  337 187 
 VIL  EE ES   2   23 8 59.77                             104   -0.80 3  337 187 
 VIL  EZ I        23 9 13.47        25.3 0.32             99            337 187 
 ELA  HZ EP   2   23 8 26.05                             104    0.65 3  340 222 
 ELA  HN ES   4   23 9  3.23                             104    1.14 0  340 222 
 ELA  HZ I        23 9 11.01        27.8 0.46             99            340 222 
 PTGC HN ES   4   23 9  0.75                             103   -2.57 0  351 158 
 SJC  HZ EP       23 8 27.78                             102   -0.16 6  366 327 
 SJC  HN ES   4   23 9  4.10                             102   -2.52 0  366 327 
 SJC  HZ I        23 9 15.69         9.8 0.70             97            366 327 
 APAC HZ EP   9   23 8 26.86                             102   -1.16 0  368 283 
 APAC HN ES       23 9  5.44                             102   -0.16 6  368 283 
 APAC HZ I        23 9 12.14        16.3 0.42             97            368 283 
 ANIL HZ EP   4   23 8 31.55                             102    2.69 0  372 218 
 ANIL HE ES   4   23 9 11.45                             102    3.20 0  372 218 
 ANIL HZ I        23 9 14.43        51.5 0.28             97            372 218 
 PAL  HZ EP       23 8 32.64                             100   -0.44 6  409 233 
 PAL  HN ES   4   23 9 14.33                             100   -1.43 0  409 233 
 PAL  HZ I        23 9 22.74         7.2 0.32             95            409 233 
 ORTC HZ EP       23 8 34.32                             100    0.56 6  415 211 
 ORTC HN ES       23 9 16.43                             100   -0.54 6  415 211 
 ORTC HZ I        23 9 25.38        14.3 0.54             94            415 211 
 CAP2 HZ EP   4   23 8 38.15                              98   -2.65 0  474 291 
 CAP2 HN ES   4   23 9 22.04                              98   -7.48 0  474 291 
 CAP2 HZ I        23 9 29.00        14.2 0.16                           474 291 
                                                                                
