 2016  725 2348 34.7 L   5.995 -73.998 88.7  RSN  9 0.5 1.8LRSN                1
 GAP= 96        1.24       3.7     3.0  8.2 -0.3168E+01  0.4980E+01 -0.5317E+01E
 Epicentro: LA BELLEZA - SANTANDER                                             3
 ACTION:UPD 17-03-29 16:55 OP:lp   STATUS:               ID:20160725234834 L   I
 OLDACT:DUP 16-07-26 04:07 OP:dnl  STATUS:               ID:20160725233760d    3
 2016-07-25-2337-59S.COL___334                                                 6
 STAT SP IPHASW D HRMM SECON CODA AMPLIT PERI AZIMU VELO AIN AR TRES W  DIS CAZ7
 SPBC HZ EP     D 2348 48.12                             155    0.1610 38.8 192 
 SPBC HE ES       2348 58.87                             155    0.5610 38.8 192 
 SPBC HZ I        2349  0.39        33.3 0.10            158           38.8 192 
 PTB  HZ EP     D 2348 49.88                             135   -0.8510 78.7 320 
 PTB  HN ES       2349  2.56                             135   -0.6810 78.7 320 
 PTB  HZ I        2349  4.04        12.5 0.14            137           78.7 320 
 RUS  HZ EP       2348 53.46                             127   -0.0710  102  96 
 RUS  HN ES       2349  7.71                             127   -0.5010  102  96 
 NOR  HZ EP       2348 53.48                             125   -0.0410  108 244 
 NOR  HN ES       2349  7.98                             125   -0.2210  108 244 
 NOR  HZ I        2349 10.45        20.6 0.18            128            108 244 
 BAR2 EZ EP       2348 54.36                             124    0.1810  112  54 
 BAR2 EZ ES       2349  9.97                             124    0.5910  112  54 
 BAR2 EZ I        2349 11.45        40.8 0.44            127            112  54 
 BRR  HZ EP       2348 54.96                             120   -0.4910  127  14 
 BRR  HN ES       2349 12.01                             120    0.3710  127  14 
 BRR  HZ I        2349 15.10        13.0 0.10            123            127  14 
 HEL  HZ EP       2349  1.22                             113    0.44 9  171 277 
 HEL  HN ES       2349 21.91                             113    0.79 9  171 277 
 HEL  HZ I        2349 24.48         7.0 0.20            115            171 277 
 GUY2CHZ EP       2349  1.58                             112    0.33 9  174 241 
 GUY2CHN ES       2349 21.45                             112   -0.51 9  174 241 
 GUY2CHZ I        2349 27.89         5.8 0.60                           174 241 
 ZAR  HZ EP   4   2349  1.23                             110   -1.40 0  191 330 
 ZAR  HN ES       2349 24.64                             110    0.21 9  191 330 
 ZAR  HZ I        2349 25.73        10.1 0.26            112            191 330 
                                                                                
