 2017  725 2021 58.1 L   6.769 -73.170139.2  RSN 12 0.5 2.0LRSN                1
 GAP=111        1.54       5.2     5.1  8.8  0.2744E+01  0.7041E+01  0.3762E+01E
 Epicentro: LOS SANTOS - SANTANDER                                             3
 ACTION:UPD 17-08-30 15:36 OP:rebc STATUS:               ID:20170725202158 L   I
 OLDACT:DUP 17-07-26 04:24 OP:lv   STATUS:               ID:20170725201631d    3
 OLDACT:UP  17-07-26 04:23 OP:lv   STATUS:               ID:20170725201630     3
 OLDACT:REG 17-07-26 04:01 OP:lv   STATUS:               ID:20170725201630     3
 2017-07-25-2018-00M.COL___398                                                 6
 STAT SP IPHASW D HRMM SECON CODA AMPLIT PERI AZIMU VELO AIN AR TRES W  DIS CAZ7
 BAR2 EZ EP       2022 16.83                             172   -0.0110 19.6 184 
 BAR2 EZ ES       2022 31.36                             172   -0.1210 19.6 184 
 BAR2 EZ I        2022 33.18        17.6 0.23            169           19.6 184 
 BRR  HZ IP     D 2022 18.62                             152    0.1410 70.6 302 
 BRR  HN ES       2022 35.13                             152    0.7310 70.6 302 
 BRR  HZ I        2022 37.57        20.5 0.07            143           70.6 302 
 PAM  EZ EP       2022 19.78                             148   -0.0910 81.7  39 
 PAM  EN ES       2022 36.52                             148   -0.3510 81.7  39 
 PAM  EZ I        2022 39.03        20.1 0.07            143           81.7  39 
 RUS  HZ EP       2022 20.38                             143   -0.5710 97.4 174 
 RUS  HN ES       2022 39.74                             143    0.9410 97.4 174 
 RUS  HZ I        2022 40.68        17.8 0.39            137           97.4 174 
 PTB  HZ EP       2022 23.57                             131   -0.64 9  144 260 
 PTB  HN ES       2022 44.16                             131   -0.43 9  144 260 
 SPBC HZ EP       2022 25.76                             128    0.10 9  159 219 
 SPBC HN ES       2022 47.36                             128    0.19 9  159 219 
 SPBC HZ I        2022 50.51        20.3 0.13            121            159 219 
 YPLC HZ EP       2022 26.98                             125   -0.25 9  175 150 
 YPLC HN ES       2022 49.92                             125   -0.06 9  175 150 
 YPLC HZ I        2022 52.33        14.6 0.16            119            175 150 
 ZAR  HZ EP       2022 31.04                             121    1.07 9  203 293 
 ZAR  HN ES       2022 54.15                             121   -0.71 9  203 293 
 ZAR  HZ I        2022 57.20         7.9 0.09            114            203 293 
 NOR  HN ES       2023  0.13                             118   -0.07 8  231 235 
 NOR  HZ I        2023  5.53         8.1 0.18            111            231 235 
 HEL  HZ EP   3   2022 38.94                             114    1.37 2  269 256 
 HEL  HZ I        2023 16.47         4.6 0.42            107            269 256 
 GUY2CHZ EP   9   2022 42.14                             111    1.23 0  297 235 
 GUY2CHN ES       2023 13.82                                   -1.73 7  297 235 
 GUY2CHZ I        2023 22.97         3.8 0.06                           297 235 
 PTGC HZ EP   9   2022 40.01                             110   -1.38 0  307 158 
 PTGC HN ES       2023 12.37                                   -1.43 7  307 158 
                                                                                
