 2010  725 2250 29.0 L   6.847 -72.989140.6  RSN  6 0.5 1.9LRSN                1
 GAP=256        0.88       5.8    10.7 10.5  0.1551E+02  0.2229E+02  0.2288E+02E
 Epicentro: CEPITA - SANTANDER                                                 3
 ACTION:UPD 10-12-01 15:20 OP:pat  STATUS:               ID:20100725225029 L   I
 2010-07-25-2246-11S.COL___123                                                 6
 STAT SP IPHASW D HRMM SECON CODA AMPLIT PERI AZIMU VELO AIN AR TRES W  DIS CAZ7
 BAR2 SZ EP   1   2250 48.52                             165     0.2 7   36 217 
 BAR2 SZ ES   2   2251  2.85                             165    -0.6 5   36 217 
 BAR2 SZ I        2251  4.72        19.0 0.59                            36 217 
 BRR  HZ EP       2250 50.32                             147    -0.110   85 290 
 BRR  HN ES       2251  7.23                             147     0.110   85 290 
 RUS  HN ES   1   2251 11.30                             141     0.2 7  106 186 
 RUS  HZ I        2251 12.64         8.0 0.67                           106 186 
 CHI  HN ES   1   2251 37.78                             115     0.2 6  259 199 
 CHI  HZ I        2251 44.23         3.4 0.52                           259 199 
 RREF HN ES   1   2251 54.78                             109     0.6 5  338 231 
 RREF HZ I        2251 57.39         3.3 0.19                           338 231 
 PRA  HN ES   1   2252  5.48                             105    -1.3 4  405 211 
 PRA  HZ I        2252 10.32         4.1 0.13                           405 211 
                                                                                
