 2012  625 2334  2.3 L   6.765 -73.146144.7  RSN  4 0.3 1.4LRSN                1
 GAP=235        0.47       5.5     5.0  6.6  0.1286E+02 -0.2970E+01 -0.7891E+01E
 Epicentro: LOS SANTOS - SANTANDER                                             3
 ACTION:UPD 12-08-06 17:52 OP:ep   STATUS:               ID:20120625233402 L   I
 2012-06-25-2330-00M.COL___200                                                 6
 STAT SP IPHASW D HRMM SECON CODA AMPLIT PERI AZIMU VELO AIN AR TRES W  DIS CAZ7
 BAR2 SZ EP   1   2334 21.66                             172   -0.12 7 19.5 192 
 BAR2 SZ ES   2   2334 36.61                             172   -0.32 5 19.5 192 
 BAR2 SZ I        2334 37.63         4.7 0.26                          19.5 192 
 BRR  HZ EP   1   2334 23.42                             152   -0.07 7 73.1 301 
 BRR  HZ I        2334 31.77        11.1 0.51                          73.1 301 
 BRR  HN ES   2   2334 40.48                             152    0.50 5 73.1 301 
 RUS  HZ EP   1   2334 25.66                             145   -0.05 7 96.7 176 
 RUS  HN ES   1   2334 44.11                             145    0.17 7 96.7 176 
 RUS  HZ I        2334 45.11         3.5 0.23                          96.7 176 
 PTB  HZ EP   2   2334 29.62                             132    0.46 5  147 260 
 PTB  HE ES   1   2334 49.86                             132   -0.21 7  147 260 
 PTB  HZ I        2334 51.68         3.1 0.11                           147 260 
                                                                                
