 2012  825 2122 44.7 L   6.825 -73.147147.7  RSN 14 0.4 3.2LRSN 3.5WRSN        1
 SPEC AVERAGE  MO 14.3 ST 21.6 OM  3.2 f0 4.07 R0.3623 AL 3.28 WI 13.5 MW  3.5 3
 SPEC SD       MO  0.2 ST  9.3 OM  0.6 f00.172 R0.0158 AL      WI      MW  0.1 3
 GAP= 65        0.75       2.7     2.6  4.5  0.4657E+00  0.1792E+01  0.2771E+01E
 Epicentro: LOS SANTOS - SANTANDER                                             3
 SPEC PTB HH E MO 14.1 ST 11.5 OM  2.4 f0 4.08 R0.3603 AL 3.20 WI 10.9 MW  3.3 3
 SPEC PTB HH E T212332 K 0.000 GD  209 VS 4.20 DE 3.00 Q0230.0 QA 0.60 VS 4.20 3
 SPEC RUS HH N MO 14.6 ST 39.4 OM  3.0 f0 4.08 R0.3603 AL 2.72 WI 10.6 MW  3.7 3
 SPEC RUS HH N T212325 K 0.000 GD  180 VS 4.20 DE 3.00 Q0230.0 QA 0.60 VS 4.20 3
 SPEC TAM HH E MO 14.4 ST 26.1 OM  2.7 f0 4.22 R0.3483 AL 3.97 WI  8.5 MW  3.5 3
 SPEC TAM HH E T212334 K 0.000 GD  214 VS 4.20 DE 3.00 Q0230.0 QA 0.60 VS 4.20 3
 SPEC HEL HH N MO 14.3 ST 13.3 OM  2.4 f0 3.75 R0.3920 AL 3.18 WI 24.6 MW  3.5 3
 SPEC HEL HH N T212355 K 0.000 GD  310 VS 4.20 DE 3.00 Q0230.0 QA 0.60 VS 4.20 3
 SPEC CHI HH N MO 14.3 ST 18.7 OM  2.5 f0 3.98 R0.3693 AL 3.29 WI 14.6 MW  3.5 3
 SPEC CHI HH N T212351 K 0.000 GD  291 VS 4.20 DE 3.00 Q0230.0 QA 0.60 VS 4.20 3
 SPEC BRR HH N MO 14.3 ST 20.7 OM  2.7 f0 4.28 R0.3435 AL 3.31 WI 11.6 MW  3.5 3
 SPEC BRR HH N T212323 K 0.000 GD  163 VS 4.20 DE 3.00 Q0230.0 QA 0.60 VS 4.20 3
 ACTION:UPD 12-09-10 11:58 OP:ep   STATUS:               ID:20120825212244 L   I
 2012-08-25-2120-00M.COL___218                                                 6
 STAT SP IPHASW D HRMM SECON CODA AMPLIT PERI AZIMU VELO AIN AR TRES W  DIS CAZ7
 BAR2 SZ EP       2123  4.60                             170   -0.0310 26.0 189 
 BAR2 SZ ES   1   2123 20.35                             170    0.19 7 26.0 189 
 BAR2 SZ I        2123 22.39       731.5 0.43                          26.0 189 
 GIR2 SZ EP       2123  4.60                             168    0.0610 28.5 350 
 GIR2 SZ ES   1   2123 20.15                             168    0.14 7 28.5 350 
 BRR  HZ EP   1   2123  6.48                             153    0.49 7 69.8 297 
 BRR  HN ES   1   2123 23.18                             153    0.60 7 69.8 297 
 BRR  HZ I        2123 27.80       144.2 0.17                          69.8 297 
 PAM  SZ EP       2123  7.28                             152    0.2610 75.4  41 
 PAM  SZ I        2123  7.86       320.4 0.22                          75.4  41 
 PAM  SN ES   1   2123 24.33                             152   -0.08 7 75.4  41 
 RUS  HZ EP       2123  8.53                             143   -0.3210  103 176 
 RUS  HN ES   1   2123 26.90                             143   -0.78 7  103 176 
 RUS  HZ I        2123 29.19       184.5 0.46                           103 176 
 PTB  HZ EP   1   2123 11.10                             132   -0.77 7  148 258 
 PTB  HE ES   1   2123 32.89                             132   -0.17 7  148 258 
 PTB  HZ I        2123 34.28       160.6 0.36                           148 258 
 TAM  HZ EP       2123 12.87                             131    0.24 9  156 106 
 TAM  HZ I        2123 13.22       203.0 0.36                           156 106 
 TAM  HE ES   1   2123 34.36                             131   -0.03 7  156 106 
 OCA  HZ EP   1   2123 12.61                             131   -0.31 7  158 353 
 OCA  HE ES   1   2123 34.29                             131   -0.62 7  158 353 
 YOP  SZ EP   1   2123 15.28                             126    0.14 7  181 154 
 YOP  SN ES   1   2123 39.09                             126    0.21 7  181 154 
 YOP  SZ I        2123 40.16       273.3 0.26                           181 154 
 ZAR  HZ EP   1   2123 17.34                             123    0.18 6  203 291 
 ZAR  HE ES   1   2123 42.49                             123    0.02 6  203 291 
 ZAR  HZ I        2123 49.30       159.3 0.43                           203 291 
 NOR  SZ EP   1   2123 20.64                             119   -0.07 6  236 234 
 NOR  SN ES   1   2123 49.53                             119    0.74 6  236 234 
 NOR  SZ I        2123 54.19       178.3 0.25                           236 234 
 CHI  HZ EP   1   2123 22.77                             117   -0.03 6  251 195 
 CHI  HN ES   1   2123 52.44                             117   -0.07 6  251 195 
 CHI  HZ I        2123 59.17       107.2 0.36                           251 195 
 HEL  HZ EP   1   2123 25.16                             115    0.08 6  273 255 
 HEL  HN ES   1   2123 55.91                             115   -0.66 6  273 255 
 HEL  HZ I        2124  4.70       129.1 0.49                           273 255 
 ANIL HZ EP   1   2123 35.55                             109    0.74 5  359 224 
                                                                                
