 2012 1125 2021 14.2 L   6.802 -73.177143.4  RSN  8 0.2 1.9LRSN                1
 GAP=133        0.48       1.7     2.6  3.2 -0.3742E+00  0.3156E+01  0.6124E+00E
 Epicentro: LOS SANTOS - SANTANDER                                             3
 ACTION:UPD 12-12-05 15:36 OP:}ep  STATUS:               ID:20121125202114 L   I
 2012-11-25-2020-00M.COL___233                                                 6
 STAT SP IPHASW D HRMM SECON CODA AMPLIT PERI AZIMU VELO AIN AR TRES W  DIS CAZ7
 BAR2 SZ ES       2021 48.74                             170    0.1710 23.2 182 
 BAR2 SZ I        2021 52.54        16.4 0.46                          23.2 182 
 PAM  SZ EP       2021 36.44                             150    0.2110 79.4  42 
 PAM  SZ I        2021 36.63        10.5 0.46                          79.4  42 
 PAM  SN ES       2021 53.45                             150   -0.0110 79.4  42 
 RUS  HZ EP       2021 37.61                             143   -0.0910  101 174 
 RUS  HN ES       2021 55.73                             143   -0.3410  101 174 
 RUS  HN I        2021 57.78        15.1 0.40                           101 174 
 PTB  HZ EP       2021 40.41                             132   -0.21 9  144 258 
 PTB  HN ES       2022  1.40                             132    0.13 9  144 258 
 PTB  HN I        2022  7.03        15.0 0.36                           144 258 
 NOR  HZ EP       2021 49.38                             118   -0.08 8  232 234 
 NOR  HN I        2022 23.64        13.9 0.20                           232 234 
 SML  HE ES       2022 18.66                             117   -0.13 8  242 336 
 CHI  HZ EP       2021 51.73                             117    0.09 8  248 194 
 CHI  HZ I        2021 53.64         2.5 0.16                           248 194 
 CHI  HN ES       2022 21.14                             117    0.25 8  248 194 
 PRA  HZ EP       2022  7.57                             106    0.16 6  391 209 
 PRA  HZ I        2022  9.15         2.2 0.20                           391 209 
                                                                                
