 2017  525 2058 38.0 L   6.713 -73.253145.7  RSN  4 0.3 1.4LRSN                1
 GAP=218        0.70       5.6     5.6  7.0  0.2071E+02  0.9391E+00 -0.1007E+01E
 Epicentro: BARICHARA - SANTANDER                                              3
 ACTION:UPD 17-06-16 13:38 OP:jn   STATUS:               ID:20170525205838 L   I
 OLDACT:REG 17-05-26 03:04 OP:edw  STATUS:               ID:20170525205738     3
 2017-05-25-2058-00M.COL___350                                                 6
 STAT SP IPHASW D HRMM SECON CODA AMPLIT PERI AZIMU VELO AIN AR TRES W  DIS CAZ7
 BRR  HZ EP       2058 58.84                             154   -0.0710 66.8 311 
 BRR  HN ES       2059 15.39                             154    0.1810 66.8 311 
 BRR  HZ I        2059 16.72         9.5 0.44            152           66.8 311 
 RUS  HZ EP       2059  0.96                             146   -0.2410 92.7 168 
 RUS  HN ES       2059 19.27                             146   -0.0210 92.7 168 
 RUS  HZ I        2059 21.08         3.9 0.44            144           92.7 168 
 PTB  HZ EP       2059  4.33                             135    0.5410  134 262 
 PTB  HN ES       2059 23.82                             135   -0.0810  134 262 
 PTB  HZ I        2059 31.21         2.3 0.36            132            134 262 
 ZAR  HN ES       2059 34.13                             123   -0.36 9  197 296 
                                                                                
