 2012  725 2249  3.7 L   6.760 -73.153152.0  RSN  5 0.3 1.7LRSN                1
 GAP=233        0.76       7.8     8.3  7.5  0.4918E+02  0.1098E+02  0.2730E+01E
 Epicentro: LOS SANTOS - SANTANDER                                             3
 ACTION:UPD 12-08-14 11:45 OP:ep   STATUS:               ID:20120725224903 L   I
 2012-07-25-2247-46M.COL___205                                                 6
 STAT SP IPHASW D HRMM SECON CODA AMPLIT PERI AZIMU VELO AIN AR TRES W  DIS CAZ7
 BAR2 SZ EP   1   2249 23.81                             173    -0.2 7   19 190 
 BAR2 SZ ES   1   2249 39.17                             173    -0.6 7   19 190 
 BAR2 SZ I        2249 40.59        18.2 0.23            169             19 190 
 BRR  HZ EP   1   2249 25.78                             153     0.2 7   73 302 
 BRR  HN ES       2249 43.01                             153     0.310   73 302 
 BRR  HZ I        2249 45.61        15.6 0.11            153             73 302 
 RUS  HZ EP   1   2249 27.72                             146     0.0 7   96 175 
 RUS  HN ES       2249 46.75                             146     0.210   96 175 
 RUS  HZ I        2249 49.32         4.0 0.30            146             96 175 
 PTB  HZ EP   1   2249 30.81                             134    -0.2 7  146 260 
 PTB  HN ES   2   2249 52.21                             134    -0.1 5  146 260 
 PTB  HZ I        2249 55.33         3.6 0.09            134            146 260 
 ZAR  HN ES       2250  2.18                             124    -0.1 9  205 293 
