 2016  425 2147  8.2 L   6.788 -73.170137.0  RSN  4 0.4 1.9LRSN                1
 GAP=134        1.03       5.2     4.8 10.4 -0.5797E+00  0.2057E+02 -0.5936E+01E
 Epicentro: LOS SANTOS - SANTANDER                                             3
 ACTION:UPD 16-05-05 14:24 OP:rebc STATUS:               ID:20160425214708 L   I
 OLDACT:REG 16-04-26 05:51 OP:ar   STATUS:               ID:20160425213744     3
 2016-04-25-2137-44M.COL___315                                                 6
 STAT SP IPHASW D HRMM SECON CODA AMPLIT PERI AZIMU VELO AIN AR TRES W  DIS CAZ7
 PAM  EZ EP       2147 29.52                             148   -0.1310 80.1  40 
 PAM  EE ES       2147 46.27                             148   -0.1310 80.1  40 
 PAM  EZ I        2147 48.29        25.2 0.52            154           80.1  40 
 RUS  HZ EP       2147 31.13                             142    0.1210 99.5 174 
 RUS  HN ES       2147 49.17                             142    0.3610 99.5 174 
 RUS  HZ I        2147 50.59         7.2 0.28            148           99.5 174 
 PTB  HZ EP       2147 33.76                             130   -0.43 9  145 259 
 PTB  HN ES       2147 53.81                             130   -0.66 9  145 259 
 PTB  HZ I        2148  1.46        10.5 0.46            132            145 259 
 ZAR  HZ EP       2147 40.08                             121    0.21 9  202 293 
 ZAR  HN ES       2148  5.37                             121    0.79 9  202 293 
 ZAR  HZ I        2148 13.24         9.2 0.18            123            202 293 
                                                                                
