 2016  925 2339 43.5 L   6.861 -73.288123.2  RSN 22 0.5 2.5LRSN                1
 GAP= 55        1.18       2.8     2.8  5.0 -0.1098E+01  0.3308E+01  0.2438E+01E
 Epicentro: BETULIA - SANTANDER                                                3
 ACTION:UPD 17-08-17 21:16 OP:lp   STATUS:               ID:20160925233943 L   I
 OLDACT:REG 16-09-26 02:54 OP:lv   STATUS:               ID:20160925233745     3
 2016-09-25-2338-00M.COL___327                                                 6
 STAT SP IPHASW D HRMM SECON CODA AMPLIT PERI AZIMU VELO AIN AR TRES W  DIS CAZ7
 BAR2 EZ EP       2340  0.49                             165   -0.1410 32.0 158 
 BAR2 EZ ES       2340 13.55                             165   -0.4710 32.0 158 
 BRR  HZ IP     D 2340  1.12                             155   -0.1110 54.1 300 
 BRR  HN ES       2340 15.52                             155    0.4410 54.1 300 
 BRR  HZ I        2340 16.16        80.5 0.14            154           54.1 300 
 PAM  EZ EP       2340  3.68                             144   -0.1110 83.8  51 
 PAM  EE ES       2340 20.35                             144    0.7110 83.8  51 
 PAM  EZ I        2340 22.45        41.0 0.30            140           83.8  51 
 RUS  HZ EP       2340  5.43                             136   -0.3810  109 168 
 RUS  HN ES       2340 23.07                             136   -0.1710  109 168 
 RUS  HZ I        2340 25.08        38.2 0.32            130            109 168 
 PTB  HZ IP   9 C 2340  5.88                             129   -1.49 0  134 255 
 PTB  HN ES       2340 23.47                                   -1.0510  134 255 
 PTB  HZ I        2340 28.24        64.6 0.42            126            134 255 
 OCA  HZ EP       2340  8.78                             125   -0.56 9  152 359 
 OCA  HN ES       2340 29.00                             125   -0.52 9  152 359 
 OCA  HZ I        2340 34.89       105.6 0.26            122            152 359 
 SPBC HZ EP       2340  9.12                             124   -0.83 9  159 213 
 SPBC HN ES       2340 30.56                             124   -0.05 9  159 213 
 SPBC HZ I        2340 33.81        35.2 0.16            120            159 213 
 TAM  HZ IP     D 2340 11.34                             122    0.14 9  172 106 
 TAM  HN ES       2340 33.27                             122    0.45 9  172 106 
 TAM  HZ I        2340 36.69        20.6 0.21            117            172 106 
 ZAR  HZ EP       2340 13.13                             119    0.42 9  187 292 
 ZAR  HN ES       2340 35.84                             119    0.33 9  187 292 
 ZAR  HZ I        2340 40.14        44.0 0.27            116            187 292 
 NOR  HZ EP       2340 17.26                             114    0.21 8  226 231 
 NOR  HN ES       2340 43.06                             114   -0.19 8  226 231 
 NOR  HZ I        2340 46.97        24.8 0.20            110            226 231 
 ROSC BZ EP   9   2340 21.62                             112    1.36 0  251 207 
 ROSC BN ES       2340 51.48                                    1.16 8  251 207 
 ROSC BZ I        2340 57.39        15.6 0.35            108            251 207 
 CHI  HZ EP       2340 20.28                             112   -0.08 8  252 191 
 CHI  HN ES       2340 49.80                             112    0.67 8  252 191 
 CHI  HZ I        2340 54.54        13.2 0.44            108            252 191 
 HEL  HZ EP       2340 21.73                             111    0.63 8  259 253 
 HEL  HN ES       2340 49.79                             111   -0.67 8  259 253 
 HEL  HZ I        2340 55.83        17.5 0.32            108            259 253 
 GUY2CHZ EP       2340 26.09                             108    0.95 7  293 232 
 GUY2CHE ES       2340 57.96                             108    0.32 7  293 232 
 GUY2CHZ I        2341  1.84        13.8 0.56                           293 232 
 VIL  EZ EP       2340 25.99                             107   -0.43 7  307 188 
 VIL  EE ES       2340 59.65                             107   -0.26 7  307 188 
 VIL  EZ I        2341  7.43        24.8 0.36            103            307 188 
 PTGC HZ EP       2340 27.56                             106   -0.29 7  321 156 
 PTGC HN ES   4   2341  0.43                             106   -2.04 0  321 156 
 PTGC HZ I        2341  5.33        18.7 0.35            103            321 156 
 CBOC HZ EP       2340 28.95                             106    0.90 7  321 250 
 CBOC HN ES       2341  2.89                             106    0.06 7  321 250 
 CBOC HZ I        2341  6.24        12.3 0.48            103            321 250 
 ELA  HZ EP   4   2340 31.79                             106    3.17 0  322 227 
 ELA  HE ES   4   2341  8.61                             106    4.77 0  322 227 
 ELA  HZ I        2341 12.39        11.9 0.31            103            322 227 
 SJC  HZ EP   2   2340 36.13                             102   -0.56 3  395 328 
 SJC  HE ES   4   2341 17.10                             102   -1.10 0  395 328 
 SJC  HZ I        2341 18.76         6.0 0.42             99            395 328 
 PAL  HZ EP       2340 36.39                             102   -0.41 6  396 237 
 PAL  HE ES       2341 19.05                             102    0.65 6  396 237 
 PAL  HZ I        2341 23.56         7.4 0.30             99            396 237 
 CRJC HZ EP       2340 44.98                             100    0.22 5  462   6 
 CRJC HN ES   4   2341 29.12                             100   -3.45 0  462   6 
 CRJC HZ I        2341 38.29        18.3 0.34             97            462   6 
 YOT  HZ EP       2340 44.80                             100   -0.31 5  465 227 
 YOT  HN ES       2341 32.38                             100   -0.81 5  465 227 
                                                                                
