 2014 1225 2324  9.2 L   6.695 -73.219171.8  RSN  5 0.4 1.4LRSN                1
 GAP=220        0.87       7.4     7.8  8.4  0.3699E+02 -0.1746E+01 -0.6722E+01E
 Epicentro: VILLANUEVA - SANTANDER                                             3
 ACTION:UPD 15-02-10 17:07 OP:nd   STATUS:               ID:20141225232409 L   I
 OLDACT:DUP 14-12-26 04:55 OP:fm   STATUS:               ID:20141225231751d    3
 OLDACT:UP  14-12-26 04:53 OP:fm   STATUS:               ID:20141225231750d    3
 OLDACT:UP  14-12-26 04:51 OP:fm   STATUS:               ID:20141225231750d    3
 OLDACT:UP  14-12-26 04:50 OP:fm   STATUS:               ID:20141225231750d    3
 OLDACT:DUP 14-12-26 04:45 OP:fm   STATUS:               ID:20141225231750d    3
 2014-12-25-2317-49M.COL___283                                                 6
 STAT SP IPHASW D HRMM SECON CODA AMPLIT PERI AZIMU VELO AIN AR TRES W  DIS CAZ7
 BRR  HZ EP       2324 33.49                             156    0.2510 71.1 310 
 BRR  HE ES       2324 52.20                             156    0.2310 71.1 310 
 BRR  HZ I        2324 54.55         5.0 0.30            154           71.1 310 
 RUS  HZ EP   1   2324 35.23                             151    0.25 7 90.0 170 
 RUS  HE ES       2324 54.63                             151   -0.4310 90.0 170 
 RUS  HZ I        2324 56.69         2.4 0.34            154           90.0 170 
 PTB  HN ES       2325  0.10                             139    0.30 9  138 263 
 PTB  HZ I        2325  2.34         2.1 0.12            138            138 263 
 SPBC HZ EP   1   2324 39.00                             137    0.35 7  149 219 
 ZAR  HZ EP   1   2324 42.57                             128   -0.68 6  201 296 
 ZAR  HE ES       2325  9.29                             128   -0.49 9  201 296 
 ZAR  HZ I        2325 18.53         2.3 0.26            128            201 296 
                                                                                
