 2015  725 2304 34.9 L   6.436 -73.653103.7  RSN  7 0.4 1.4LRSN                1
 GAP=101        0.79       3.5     3.2  9.2 -0.1819E+01  0.1784E+02  0.9604E+00E
 Epicentro: SANTA HELENA DEL OPON - SANTANDER                                  3
 ACTION:UPD 15-09-08 21:50 OP:cam  STATUS:               ID:20150725230434 L   I
 OLDACT:DUP 15-07-26 07:11 OP:spq  STATUS:               ID:20150725225747d    3
 2015-07-25-2257-46M.COL___328                                                 6
 STAT SP IPHASW D HRMM SECON CODA AMPLIT PERI AZIMU VELO AIN AR TRES W  DIS CAZ7
 BAR2 EZ EP       23 4 50.97                             150   -0.0110 54.8  72 
 BAR2 EZ ES   1   23 5  4.14                             150    0.65 7 54.8  72 
 BAR2 EZ I        23 5  4.93        13.8 0.14            153           54.8  72 
 RUS  HZ EP       23 4 53.85                             137    0.1710 87.1 134 
 RUS  HE ES   1   23 5  7.72                             137   -0.58 7 87.1 134 
 RUS  HZ I        23 5  8.94         3.0 0.44            141           87.1 134 
 PAM  EN ES       23 5 18.14                             121   -0.00 9  145  46 
 PAM  EZ I        23 5 19.38         3.7 0.26            124            145  46 
 NOR  HZ EP       23 5  0.80                             117   -0.03 9  166 234 
 NOR  HE ES       23 5 20.80                             117   -0.23 9  166 234 
 NOR  HZ I        23 5 23.35         6.0 0.28            120            166 234 
 ZAR  HN ES       23 5 22.74                             115   -0.43 9  177 311 
 ZAR  HZ I        23 5 24.35         5.0 0.33            118            177 311 
 HEL  HZ EP       23 5  6.01                             111   -0.10 8  209 263 
 HEL  HE ES   1   23 5 31.12                             111    0.70 6  209 263 
 HEL  HZ I        23 5 31.45         1.9 0.40            113            209 263 
 GUY2CHZ EP   1   23 5  9.28                             108    0.41 6  232 235 
 GUY2CHN ES   4   23 5 36.38                             108    1.05 0  232 235 
 GUY2CHZ I        23 5 41.19         2.7 0.34                           232 235 
                                                                                
