 2012  725 2148  4.9 L   6.769 -73.175148.0  RSN  7 0.3 1.7LRSN                1
 GAP=134        0.81       6.1     5.9  9.3  0.1303E+02 -0.8174E+01 -0.8548E+00E
 Epicentro: LOS SANTOS - SANTANDER                                             3
 ACTION:UPD 12-08-14 11:45 OP:ep   STATUS:               ID:20120725214804 L   I
 2012-07-25-2140-00M.COL___215                                                 6
 STAT SP IPHASW D HRMM SECON CODA AMPLIT PERI AZIMU VELO AIN AR TRES W  DIS CAZ7
 BAR2 SZ EP   1   2148 24.40                             172    -0.3 7   20 182 
 BAR2 SZ I        2148 25.06        13.0 0.14            171             20 182 
 BRR  HZ EP       2148 26.23                             153     0.010   70 302 
 BRR  HZ I        2148 26.54        18.2 0.19            154             70 302 
 BRR  HE ES   1   2148 43.34                             153     0.4 7   70 302 
 PAM  SZ EP   1   2148 27.39                             150    -0.3 7   82  40 
 RUS  HZ EP   1   2148 29.08                             145     0.4 7   97 174 
 RUS  HN ES   1   2148 47.16                             145     0.0 7   97 174 
 RUS  HZ I        2148 48.58         8.5 0.28            145             97 174 
 PTB  HZ EP   1   2148 31.47                             133    -0.3 7  144 260 
 PTB  HN ES   1   2148 52.08                             133    -0.6 7  144 260 
 PTB  HZ I        2148 54.39         3.6 0.12            134            144 260 
 ZAR  HN ES   1   2149  3.02                             123     0.4 6  202 293 
 CHI  HZ EP   1   2148 42.72                             118     0.4 6  244 195 
