 2015  425 2245 58.6 L   6.812 -73.152144.3  RSN  9 0.5 2.3LRSN                1
 GAP=135        1.22       4.0     4.7  7.6 -0.2780E+01  0.1046E+02 -0.9357E+00E
 Epicentro: LOS SANTOS - SANTANDER                                             3
 ACTION:UPD 15-06-03 16:57 OP:cam  STATUS:               ID:20150425224558 L   I
 OLDACT:REG 15-04-26 03:47 OP:drio STATUS:               ID:20150425223745     3
 2015-04-25-2237-45M.COL___277                                                 6
 STAT SP IPHASW D HRMM SECON CODA AMPLIT PERI AZIMU VELO AIN AR TRES W  DIS CAZ7
 BRR  HZ EP       2246 19.79                             153    0.2610 70.0 298 
 BRR  HE ES       2246 36.40                             153    0.5510 70.0 298 
 BRR  HZ I        2246 40.55        42.5 0.12            150           70.0 298 
 PAM  SZ EP       2246 20.83                             151    0.2010 76.8  41 
 PAM  SN ES       2246 37.93                             151    0.1210 76.8  41 
 PAM  SZ I        2246 39.59        13.9 0.30            156           76.8  41 
 RUS  HZ EP     D 2246 22.81                             143    0.4910  102 176 
 RUS  HN ES       2246 40.28                             143   -0.5410  102 176 
 RUS  HZ I        2246 41.71        23.8 0.24            147            102 176 
 PTB  HZ EP       2246 24.92                             132   -0.50 9  147 258 
 PTB  HN ES       2246 46.10                             132   -0.24 9  147 258 
 PTB  HZ I        2246 53.17        27.8 0.30            132            147 258 
 SPBC HZ EP       2246 26.96                             129   -0.10 9  164 219 
 SPBC HN ES       2246 49.16                             129   -0.09 9  164 219 
 SPBC HZ I        2246 55.20        30.9 0.24            131            164 219 
 ZAR  HZ EP       2246 30.68                             122   -0.16 9  203 292 
 ZAR  HN ES       2246 56.30                             122    0.31 9  203 292 
 ZAR  HZ I        2247  1.52        28.7 0.52            123            203 292 
 NOR  HZ EP       2246 34.17                             118   -0.11 8  235 234 
 NOR  HN ES       2247  1.38                             118   -0.73 8  235 234 
 NOR  HZ I        2247  8.13        16.3 0.16            120            235 234 
 SML  HZ EP       2246 34.51                             117   -0.48 8  242 335 
 SML  HN ES       2247  2.43                             117   -0.93 8  242 335 
 SML  HZ I        2247  9.67        20.9 0.10            120            242 335 
 HEL  HZ EP       2246 40.10                             114    1.38 8  272 255 
 HEL  HE ES       2247 10.48                             114    0.48 8  272 255 
 HEL  HZ I        2247 17.94        10.3 0.24            116            272 255 
 URE  HZ EP   4   2246 42.26                             113    2.78 0  283 292 
 GUY2CHZ EP   4   2246 43.58                             112    1.40 0  301 234 
 GUY2CHN ES   4   2247 18.31                             112    2.15 0  301 234 
                                                                                
