 2014  425 2118 21.7 L   6.747 -73.146141.5  RSN  5 0.3 1.6LRSN                1
 GAP=139        0.82       3.9     4.1  7.3 -0.4049E+01  0.2385E+01  0.2582E+01E
 Epicentro: LOS SANTOS - SANTANDER                                             3
 ACTION:UPD 14-05-13 23:11 OP:nd   STATUS:               ID:20140425211821 L   I
 OLDACT:REG 14-04-26 05:06 OP:stll STATUS:               ID:20140425210813     3
 2014-04-25-2108-13M.COL___251                                                 6
 STAT SP IPHASW D HRMM SECON CODA AMPLIT PERI AZIMU VELO AIN AR TRES W  DIS CAZ7
 BRR  HZ EP       2118 42.74                             151    0.1910 74.2 303 
 BRR  HN ES       2118 59.37                             151    0.5410 74.2 303 
 PAM  SZ EP       2118 43.67                             148   -0.0710 82.0  37 
 PAM  SN ES       2119  0.51                             148   -0.4310 82.0  37 
 PAM  SZ I        2119  2.84        10.8 0.52            152           82.0  37 
 RUS  HZ EP       2118 44.91                             145    0.3110 94.7 176 
 RUS  HN ES       2119  2.57                             145    0.1010 94.7 176 
 RUS  HZ I        2119  5.90         3.6 0.38            145           94.7 176 
 PTB  HZ EP       2118 48.11                             131   -0.11 9  147 261 
 PTB  HN ES       2119  8.53                             131   -0.38 9  147 261 
 PTB  HZ I        2119 11.63         5.4 0.12            133            147 261 
 SPBC HE ES       2119 10.79                             129   -0.28 9  159 220 
 SPBC HZ I        2119 14.62         7.6 0.28            131            159 220 
                                                                                
