 2016  825 2007  3.3 L   6.878 -73.372122.0  RSN 10 0.5 2.2LRSN                1
 GAP= 91        0.91       2.8     3.4  7.0 -0.2650E+01  0.1052E+02 -0.4182E+01E
 Epicentro: SAN VICENTE DE CHUCURI - SANTANDER                                 3
 ACTION:UPD 16-10-29 15:39 OP:rebc STATUS:               ID:20160825200703 L   I
 OLDACT:REG 16-08-26 04:05 OP:ndl  STATUS:               ID:20160825195741     3
 2016-08-25-1958-00M.COL___374                                                 6
 STAT SP IPHASW D HRMM SECON CODA AMPLIT PERI AZIMU VELO AIN AR TRES W  DIS CAZ7
 BAR2 EZ EP       20 7 20.64                             162    0.0710 38.0 146 
 BAR2 EZ ES       20 7 33.90                             162   -0.1110 38.0 146 
 BAR2 EZ I        20 7 34.97       140.7 0.38                          38.0 146 
 BRR  HZ EP       20 7 21.02                             158    0.5010 45.3 304 
 BRR  HE ES   3   20 7 33.36                             158   -0.57 2 45.3 304 
 BRR  HZ I        20 7 43.29        37.2 0.28                          45.3 304 
 PAM  EZ EP       20 7 23.93                             142   -0.0710 90.1  56 
 PAM  EN ES       20 7 40.81                             142    0.6910 90.1  56 
 PAM  EZ I        20 7 42.40        27.3 0.22                          90.1  56 
 RUS  HZ EP       20 7 25.79                             135   -0.1310  114 164 
 RUS  HE ES       20 7 43.01                             135   -0.5410  114 164 
 RUS  HZ I        20 7 44.29         8.7 0.24                           114 164 
 PTB  HZ EP       20 7 25.91                             131   -0.4410  126 253 
 PTB  HN ES       20 7 44.09                             131   -0.2210  126 253 
 PTB  HZ I        20 7 47.74        23.7 0.40                           126 253 
 OCA  HZ EP       20 7 28.77                             126   -0.16 9  151   2 
 OCA  HN ES       20 7 48.49                             126   -0.41 9  151   2 
 OCA  HZ I        20 7 54.36        42.6 0.22                           151   2 
 SPBC HZ EP   2   20 7 29.13                             124   -0.28 5  156 210 
 SPBC HE ES       20 7 50.11                             124    0.36 9  156 210 
 SPBC HZ I        20 7 52.43        12.3 0.44                           156 210 
 ZAR  HZ EP   3   20 7 31.43                             121   -0.08 2  178 293 
 ZAR  HN ES   3   20 7 55.63                             121    2.14 2  178 293 
 ZAR  HZ I        20 7 57.57        21.3 0.22                           178 293 
 URE  HZ EP   3   20 7 40.95                             111    0.63 2  257 292 
 URE  HE ES       20 8  9.00                             111   -0.17 8  257 292 
 URE  HZ I        20 8 10.68         9.9 0.16                           257 292 
 GUY2CHZ EP   3   20 7 44.69                             109    0.44 2  287 230 
 GUY2CHN ES       20 8 16.95                             109    0.78 7  287 230 
 GUY2CHZ I        20 8 24.27         4.7 0.38                           287 230 
                                                                                
