 2012  925 2056 48.0 L   6.775 -73.105139.4  RSN  6 0.3 2.5LRSN                1
 GAP= 97        0.67       3.3     4.3  4.8 -0.2739E+01 -0.4609E+01  0.5823E+01E
 Epicentro: LOS SANTOS - SANTANDER                                             3
 ACTION:UPD 12-10-22 14:20 OP:ep   STATUS:               ID:20120925205648 L   I
 2012-09-25-2050-00M.COL___214                                                 6
 STAT SP IPHASW D HRMM SECON CODA AMPLIT PERI AZIMU VELO AIN AR TRES W  DIS CAZ7
 BAR2 SZ EP       2057  6.75                             171   -0.1210 22.0 203 
 BAR2 SZ ES       2057 21.47                             171   -0.0910 22.0 203 
 BAR2 SZ I        2057 22.78        95.6 0.32                          22.0 203 
 BRR  HZ IP     C 2057  8.53                             149   -0.2910 76.4 299 
 BRR  HZ I        2057  8.77       118.3 0.22                          76.4 299 
 BRR  HN ES       2057 25.48                             149    0.4610 76.4 299 
 PAM  SZ EP       2057  9.59                             150    0.0410 76.8  36 
 PAM  SE ES       2057 26.06                             150   -0.2610 76.8  36 
 PAM  SZ I        2057 29.72        28.5 0.57                          76.8  36 
 RUS  HZ EP       2057 10.83                             143   -0.1210 97.6 179 
 RUS  HE ES   1   2057 28.84                             143    0.02 7 97.6 179 
 TAM  HZ EP       2057 15.24                             130    0.49 9  150 104 
 CHI  HZ EP       2057 25.09                             116   -0.15 8  247 196 
 CHI  HN ES   1   2057 54.35                             116    0.10 6  247 196 
 CHI  HZ I        2057 56.87        13.5 0.39                           247 196 
                                                                                
