 2011 1225 2352 36.6 L   6.785 -73.138155.3  RSN  5 0.3 1.3LRSN                1
 GAP=138        0.58       4.6     5.1  6.5 -0.2335E-01 -0.2682E+00  0.2874E+01E
 Epicentro: LOS SANTOS - SANTANDER                                             3
 ACTION:UPD 12-07-13 16:18 OP:ep   STATUS:               ID:20111225235236 L   I
 2011-12-25-2350-00M.COL___187                                                 6
 STAT SP IPHASW D HRMM SECON CODA AMPLIT PERI AZIMU VELO AIN AR TRES W  DIS CAZ7
 GIR2 SZ EP   1   2352 57.72                             167    0.24 7 33.1 349 
 GIR2 SZ ES   2   2353 13.48                             167   -0.26 5 33.1 349 
 BRR  HZ EP   2   2352 59.12                             154    0.23 5 72.8 299 
 BRR  HZ I        2353  0.64         4.5 0.15                          72.8 299 
 BRR  HE ES   1   2353 16.68                             154    0.42 7 72.8 299 
 PAM  SZ EP   1   2352 59.91                             152    0.01 7 78.1  38 
 PAM  SN ES   2   2353 17.44                             152   -0.62 5 78.1  38 
 RUS  HZ EP   1   2353  1.16                             146   -0.04 7 98.8 177 
 RUS  HZ I        2353  1.67         2.0 0.28                          98.8 177 
 RUS  HE ES   1   2353 20.50                             146    0.13 7 98.8 177 
 PTB  HZ EP   1   2353  4.22                             134   -0.21 7  148 260 
 PTB  HE ES   2   2353 25.39                             134   -0.73 5  148 260 
                                                                                
