 2013 1125 2007 51.8 L   6.796 -73.135144.6  RSN 14 0.5 2.1LRSN 2.6WRSN        1
 SPEC AVERAGE  MO 13.0 ST 86.2 OM  1.3 f0 17.8 R0.2225 AL 0.00 WI 20.0 MW  2.6 3
 SPEC SD       MO  0.5 ST141.2 OM  0.6 f0 12.1 R0.2137 AL      WI      MW  0.4 3
 GAP=138        1.28       3.2     4.6  6.3 -0.3236E+01  0.5443E+01  0.2445E+01E
 Epicentro: LOS SANTOS - SANTANDER                                             3
 SPEC BAR2SH Z MO 13.0 ST118.7 OM  1.2 f0 26.0 R0.0740 AL-0.00 WI 20.0 MW  2.6 3
 SPEC BAR2SH Z T20 824 K 0.050 GD  146 VS 5.20 DE 3.20 Q0750.0 QA 1.50 VS 5.20 3
 SPEC BRR HH Z MO 13.1 ST 25.2 OM  1.2 f0 15.0 R0.1283 AL-0.00 WI 20.0 MW  2.7 3
 SPEC BRR HH Z T20 828 K 0.050 GD  161 VS 5.20 DE 3.20 Q0750.0 QA 1.50 VS 5.20 3
 SPEC RUS HH Z MO 12.5 ST 20.5 OM  0.6 f0 21.6 R0.0891 AL-0.00 WI 20.0 MW  2.3 3
 SPEC RUS HH Z T20 832 K 0.050 GD  175 VS 5.20 DE 3.20 Q0750.0 QA 1.50 VS 5.20 3
 SPEC NOR HH Z MO 12.9 ST 16.8 OM  0.8 f0 14.9 R0.1291 AL-0.00 WI 20.0 MW  2.6 3
 SPEC NOR HH Z T20 853 K 0.050 GD  275 VS 5.20 DE 3.20 Q0750.0 QA 1.50 VS 5.20 3
 SPEC SML HH Z MO 13.0 ST421.0 OM  0.9 f0 40.0 R0.0481 AL-0.00 WI 20.0 MW  2.6 3
 SPEC SML HH Z T20 854 K 0.050 GD  284 VS 5.20 DE 3.20 Q0750.0 QA 1.50 VS 5.20 3
 SPEC CHI HH Z MO 13.0 ST0.192 OM  0.9 f0 3.07 R0.6267 AL-0.00 WI 20.0 MW  2.6 3
 SPEC CHI HH Z T20 856 K 0.050 GD  287 VS 5.20 DE 3.20 Q0750.0 QA 1.50 VS 5.20 3
 SPECGUY2CHH Z MO 13.1 ST  0.3 OM  0.9 f0 3.22 R 0.598 AL-0.00 WI 20.0 MW  2.7 3
 SPECGUY2CHH Z T20 9 9 K 0.050 GD334.8 VS 5.20 DE 3.20 Q0750.0 QA 1.50 VS 5.20 3
 SPEC PRA HH Z MO 13.2 ST0.695 OM  0.9 f0 4.16 R0.4625 AL-0.00 WI 20.0 MW  2.7 3
 SPEC PRA HH Z T20 924 K 0.050 GD  417 VS 5.20 DE 3.20 Q0750.0 QA 1.50 VS 5.20 3
 OLDACT:REG 13-11-25 22:58 OP:stll STATUS:               ID:20131125195818     3
 ACTION:UPD 14-01-09 16:31 OP:ep   STATUS:               ID:20131125200751 L   I
 OLDACT:UP  13-11-25 23:58 OP:stll STATUS:               ID:20131125195818     3
 2013-11-25-1958-18M.COL___247                                                 6
 STAT SP IPHASW D HRMM SECON CODA AMPLIT PERI AZIMU VELO AIN AR TRES W  DIS CAZ7
 BAR2 SZ EP       20 8 11.38                             171    0.1110 23.1 193 
 BAR2 SZ ES       20 8 25.98                             171   -0.4910 23.1 193 
 BAR2 SZ I        20 8 30.41        27.7 0.40            170           23.1 193 
 BRR  HZ EP       20 8 13.41                             152    0.5410 72.4 298 
 BRR  HN ES       20 8 30.40                             152    1.0710 72.4 298 
 BRR  HZ I        20 8 36.57        15.8 0.18            152           72.4 298 
 PAM  SZ EP       20 8 14.21                             151    0.3610 77.0  39 
 PAM  SN ES       20 8 31.12                             151    0.0510 77.0  39 
 PAM  SZ I        20 8 33.64        12.7 0.48            154           77.0  39 
 RUS  HZ EP       20 8 15.45                             144    0.0710  100 177 
 RUS  HN ES       20 8 33.66                             144   -0.1210  100 177 
 PTB  HZ EP       20 8 18.28                             132   -0.46 9  149 259 
 PTB  HN ES       20 8 38.89                             132   -0.89 9  149 259 
 PTB  SZ I        20 8 42.14         9.4 0.08            133            149 259 
 CAPV BZ EP       20 8 19.25                             132    0.20 9  149  37 
 OCA  HE ES       20 8 41.82                             129   -0.30 9  161 353 
 SPBC HZ EP       20 8 20.39                             129    0.17 9  164 219 
 SPBC HN ES       20 8 42.46                             129    0.05 9  164 219 
 SPBC SZ I        20 8 47.00        17.6 0.14            131            164 219 
 ZAR  HN ES       20 8 49.80                             122    0.18 8  205 292 
 NOR  HZ EP       20 8 27.58                             118    0.07 8  235 235 
 NOR  HN ES       20 8 54.85                             118   -0.53 8  235 235 
 NOR  SZ I        20 8 57.71         8.9 0.32            120            235 235 
 SML  HZ EP       20 8 27.55                             117   -0.89 8  245 335 
 SML  HN ES       20 8 56.45                             117   -0.58 8  245 335 
 SML  SZ I        20 9  3.47        19.5 0.08            119            245 335 
 CHI  HZ EP       20 8 28.98                             117   -0.41 8  248 195 
 CHI  HN ES       20 8 58.37                             117   -0.36 8  248 195 
 CHI  SZ I        20 9  2.50         4.8 0.36            119            248 195 
 GUY2CHZ EP       20 8 36.12                             112    0.71 7  302 235 
 GUY2CHN ES       20 9 10.89                             112    1.45 7  302 235 
 GUY2CSZ I        20 9 15.65         6.6 0.98                           302 235 
 PRA  HZ EP       20 8 45.66                             106    0.39 6  392 210 
 PRA  HN ES       20 9 26.46                             106   -0.54 6  392 210 
 PRA  SZ I        20 9 34.61         5.5 0.26            108            392 210 
                                                                                
