 2013  225 2358 59.4 L   6.785 -73.127151.9  RSN 11 0.4 1.9LRSN                1
 GAP=140        0.79       2.8     3.9  5.4 -0.1740E+00  0.4792E+01 -0.1113E+01E
 Epicentro: LOS SANTOS - SANTANDER                                             3
 ACTION:UPD 13-03-12 09:35 OP:ep   STATUS:               ID:20130225235859 L   I
 2013-02-25-2357-50M.COL___191                                                 6
 STAT SP IPHASW D HRMM SECON CODA AMPLIT PERI AZIMU VELO AIN AR TRES W  DIS CAZ7
 BAR2 SZ EP       2359 19.71                             171   -0.0810 22.2 196 
 BAR2 SZ ES   1   2359 35.53                             171   -0.13 7 22.2 196 
 BAR2 SZ I        2359 37.81        22.6 0.30            168           22.2 196 
 BRR  HZ IP     C 2359 21.72                             153    0.3210 73.8 299 
 BRR  HN ES   1   2359 39.35                             153    0.83 7 73.8 299 
 BRR  HZ I        2359 41.22        11.2 0.32            150           73.8 299 
 PAM  SZ EP       2359 22.71                             152    0.4010 77.4  38 
 PAM  SZ IP       2359 22.80                                           77.4  38 
 PAM  SN ES   1   2359 39.83                             152   -0.32 7 77.4  38 
 PAM  SZ I        2359 42.04         5.5 0.56            157           77.4  38 
 RUS  HZ EP       2359 23.74                             146    0.0610 98.9 177 
 RUS  HN ES   1   2359 42.33                             146   -0.26 7 98.9 177 
 RUS  HZ I        2359 43.60         5.0 0.26            147           98.9 177 
 PTB  HZ EP       2359 26.64                             133   -0.43 9  149 260 
 PTB  HN ES   1   2359 48.10                             133   -0.52 7  149 260 
 PTB  HZ I        2359 55.14        16.9 0.24            132            149 260 
 OCA  HN ES   1   2359 51.22                             131    0.22 7  162 352 
 OCA  HZ I        2359 54.77        16.3 0.30            133            162 352 
 ZAR  HZ EP       2359 32.54                             123   -0.01 8  207 292 
 ZAR  HN ES   1   2359 58.79                             123    0.42 6  207 292 
 ZAR  HZ I        24 0  6.00         7.2 0.42            124            207 292 
 SML  HZ EP   1   2359 36.10                             118   -0.57 6  246 335 
 SML  HN ES   1   24 0  4.83                             118   -0.87 6  246 335 
 CHI  HZ EP   1   2359 37.79                             119    0.41 6  248 196 
 CHI  HN ES   1   24 0  6.69                             119   -0.28 6  248 196 
 CHI  HZ I        24 0 12.39         3.2 0.62            120            248 196 
 HEL  HZ EP   2   2359 40.32                             116    0.17 4  274 256 
 HEL  HE ES   1   24 0 11.92                             116    0.02 6  274 256 
 HEL  HZ I        24 0 19.02         7.0 0.30            116            274 256 
 COD  HZ EP   1   2359 48.78                             110    0.51 5  350 354 
 COD  HN ES   1   24 0 25.90                             110   -0.46 5  350 354 
                                                                                
