 2017  225 2301  9.7 L   6.735 -73.097144.8  RSN  6 0.5 1.6LRSN                1
 GAP=146        1.21       6.0     5.5  8.2  0.2896E+01  0.1159E+02 -0.2594E+01E
 Epicentro: JORDAN - SANTANDER                                                 3
 ACTION:UPD 17-05-24 15:40 OP:jn   STATUS:               ID:20170225230109 L   I
 OLDACT:REG 17-02-26 09:22 OP:ar   STATUS:               ID:20170225225744     3
 2017-02-25-2258-00M.COL___382                                                 6
 STAT SP IPHASW D HRMM SECON CODA AMPLIT PERI AZIMU VELO AIN AR TRES W  DIS CAZ7
 BAR2 EZ EP       23 1 29.06                             172   -0.1110 18.4 211 
 BAR2 EZ ES       23 1 44.61                             172    0.2910 18.4 211 
 BAR2 EZ I        23 1 49.09         6.5 0.18            172           18.4 211 
 BRR  HZ EP       23 1 31.01                             150   -0.2710 79.4 301 
 BRR  HN ES       23 1 48.91                             150    0.8310 79.4 301 
 PAM  EZ EP       23 1 31.96                             150   -0.0610 80.0  33 
 PAM  EN ES       23 1 48.88                             150   -0.5110 80.0  33 
 PAM  EZ I        23 1 50.47         6.8 0.20            153           80.0  33 
 RUS  HZ EP       23 1 33.15                             146    0.2710 93.2 179 
 RUS  HN ES       23 1 50.88                             146   -0.0410 93.2 179 
 RUS  HZ I        23 1 52.59         4.3 0.30            147           93.2 179 
 PTB  HZ EP       23 1 36.85                             131   -0.16 9  152 262 
 PTB  HN ES       23 1 57.47                             131   -0.81 9  152 262 
 PTB  HZ I        23 1 59.05         7.6 0.12            133            152 262 
 ZAR  HZ EP       23 1 43.84                             121    0.91 8  212 293 
 ZAR  HE ES       23 2  8.52                             121   -0.30 8  212 293 
                                                                                
