 2014  525 2357 57.7 L   6.721 -73.169153.2  RSN  6 0.4 1.7LRSN                1
 GAP=229        1.07       5.3     6.4  8.4  0.9512E+01  0.4926E+01 -0.3316E+01E
 Epicentro: VILLANUEVA - SANTANDER                                             3
 ACTION:UPD 15-03-16 17:00 OP:nd   STATUS:               ID:20140525235757 L   I
 OLDACT:DUP 14-05-26 07:42 OP:carl STATUS:               ID:20140525234815d    3
 2014-05-25-2348-14M.COL___227                                                 6
 STAT SP IPHASW D HRMM SECON CODA AMPLIT PERI AZIMU VELO AIN AR TRES W  DIS CAZ7
 BRR  HZ IP     C 2358 19.96                             153    0.1510 73.6 305 
 BRR  HN ES       2358 37.52                             153    0.4810 73.6 305 
 BRR  HZ I        2358 41.23         8.9 0.14            151           73.6 305 
 RUS  HZ EP       2358 21.66                             148    0.0210 92.1 174 
 RUS  HN ES       2358 40.23                             148   -0.0610 92.1 174 
 RUS  HZ I        2358 41.27         4.7 0.38            150           92.1 174 
 PTB  HZ EP       2358 24.57                             135   -0.38 9  144 262 
 PTB  HN ES       2358 45.58                             135   -0.62 9  144 262 
 PTB  HZ I        2358 48.37         7.9 0.12            134            144 262 
 SPBC HN ES       2358 47.62                             132   -0.50 9  155 220 
 SPBC HZ I        2358 50.02         7.7 0.18            133            155 220 
 ZAR  HZ EP       2358 30.58                             124   -0.19 9  205 295 
 ZAR  HN ES       2358 56.46                             124   -0.09 9  205 295 
 ZAR  HZ I        2359  2.91         6.4 0.48            124            205 295 
 NOR  HZ EP       2358 33.54                             121    0.39 8  228 236 
 NOR  HN ES       2359  1.77                             121    0.99 8  228 236 
 NOR  HZ I        2359  7.01         3.7 0.44            122            228 236 
                                                                                
