 2011  725 2106 49.5 L   6.750 -73.143138.5  RSN  5 0.2 1.8LRSN                1
 GAP=156        0.51       3.0     4.4  5.5 -0.3969E+01  0.4094E+00  0.6234E+00E
 Epicentro: LOS SANTOS - SANTANDER                                             3
 ACTION:UPD 12-07-25 14:03 OP:epov STATUS:               ID:20110725210649 L   I
 2011-07-25-2102-15S.COL___143                                                 6
 STAT SP IPHASW D HRMM SECON CODA AMPLIT PERI AZIMU VELO AIN AR TRES W  DIS CAZ7
 BAR2 SZ EP   1   21 7  8.20                             172    0.00 7 18.0 194 
 BAR2 SZ I        21 7  8.73        17.4 0.15                          18.0 194 
 BAR2 SZ ES   1   21 7 22.27                             172   -0.48 7 18.0 194 
 BRR  HZ EP   2   21 7 10.03                             150   -0.06 5 74.3 302 
 BRR  HZ I        21 7 10.47        27.5 0.12                          74.3 302 
 BRR  HN ES   1   21 7 26.25                             150    0.13 7 74.3 302 
 RUS  HZ EP   1   21 7 12.00                             144   -0.18 7 95.1 176 
 RUS  HN ES   1   21 7 30.24                             144    0.40 7 95.1 176 
 RUS  HZ I        21 7 32.33         4.9 0.47                          95.1 176 
 BRI  SZ EP   1   21 7 13.09                             138   -0.06 7  113  20 
 BRI  SZ ES   1   21 7 31.76                             138    0.20 7  113  20 
 BRI  SZ I        21 7 32.75        12.7 0.48                           113  20 
 NOR  SN ES   1   21 7 51.88                             117    0.03 6  232 236 
                                                                                
