 2011 1225 2352 36.6 L   6.790 -73.157155.1  RSN  6 0.4 1.5LRSN                1
 GAP=136        0.65       6.4     5.7  8.6  0.4119E+01  0.9841E+01  0.1427E+02E
 Epicentro: LOS SANTOS - SANTANDER                                             3
 ACTION:UPD 12-07-13 16:18 OP:ep   STATUS:               ID:20111225235237dL   I
 2011-12-25-2350-00M.COL___187                                                 6
 STAT SP IPHASW D HRMM SECON CODA AMPLIT PERI AZIMU VELO AIN AR TRES W  DIS CAZ7
 GIR2 SZ EP   2   2352 57.71                             168    0.32 5 32.2 353 
 GIR2 SZ ES   2   2353 13.56                             168   -0.05 5 32.2 353 
 BRR  HZ EP   1   2352 59.17                             154    0.45 7 70.7 300 
 BRR  HZ I        2353  0.64         5.2 0.15                          70.7 300 
 BRR  HE ES   2   2353 16.83                             154    0.85 5 70.7 300 
 PAM  SZ EP   2   2352 59.80                             152   -0.09 5 79.0  40 
 PAM  SN ES   2   2353 17.37                             152   -0.70 5 79.0  40 
 RUS  HZ EP   1   2353  1.08                             146   -0.11 7 99.6 175 
 RUS  HE ES   2   2353 20.49                             146    0.10 5 99.6 175 
 PTB  HZ EP   1   2353  4.04                             134   -0.16 7  146 259 
 PTB  HN ES   2   2353 25.18                             134   -0.57 5  146 259 
 ZAR  HN ES   2   2353 34.78                             124   -0.54 4  203 293 
                                                                                
