 2017 1225 2026 18.7 L   6.759 -73.132150.7  RSN  5 0.3 1.5LRSN                1
 GAP=160        0.74       4.4     3.8  6.2 -0.5456E+01  0.7278E+01 -0.6171E+01E
 Epicentro: LOS SANTOS - SANTANDER                                             3
 ACTION:UPD 18-01-04 13:24 OP:rebc STATUS:               ID:20171225202618 L   I
 OLDACT:REG 17-12-26 04:02 OP:dani STATUS:               ID:20171225201739     3
 2017-12-25-2018-00M.COL___451                                                 6
 STAT SP IPHASW D HRMM SECON CODA AMPLIT PERI AZIMU VELO AIN AR TRES W  DIS CAZ7
 BAR2 EZ EP       2026 39.09                             172    0.2510 19.3 197 
 BAR2 EZ ES       2026 54.79                             172    0.2310 19.3 197 
 BAR2 EZ I        2026 55.25        10.7 0.25            174           19.3 197 
 PAM  EZ EP       2026 41.80                             151    0.2210 80.0  37 
 PAM  EN ES       2026 59.08                             151   -0.3610 80.0  37 
 PAM  EZ I        2027  3.92         2.3 0.56            152           80.0  37 
 PTB  HZ EP       2026 45.94                             133   -0.18 9  148 261 
 PTB  HE ES       2027  7.09                             133   -0.42 9  148 261 
 PTB  HZ I        2027 12.86         3.2 0.62            135            148 261 
 OCA  HZ EP       2026 47.59                             130   -0.23 9  165 353 
 OCA  HN ES       2027 10.63                             130    0.09 9  165 353 
 OCA  HZ I        2027 13.73         9.7 0.22            131            165 353 
 ZAR  HE ES       2027 17.99                             123    0.41 8  207 293 
                                                                                
