 2012  225 2120 22.8 L   6.784 -73.127145.8  RSN  9 0.2 1.8LRSN                1
 GAP=140        0.43       2.2     3.3  3.6 -0.1975E+01  0.2387E+01  0.5901E+00E
 ACTION:UP  12-03-07 16:34 OP:epov STATUS:               ID:20120225212022 L   I
 2012-02-25-2120-00M.COL___193                                                 6
 STAT SP IPHASW D HRMM SECON CODA AMPLIT PERI AZIMU VELO AIN AR TRES W  DIS CAZ7
 BAR2 SZ EP   1   2120 42.47                             171    0.12 7 22.0 196 
 BAR2 SZ ES   1   2120 57.53                             171   -0.11 7 22.0 196 
 BAR2 SZ I        2120 58.90        36.2 0.31                          22.0 196 
 GIR2 SZ EP   1   2120 42.60                             166    0.12 7 33.4 347 
 BRR  HZ EP   1   2120 44.07                             152    0.02 7 73.8 299 
 BRR  HE ES   1   2121  0.92                             152    0.26 7 73.8 299 
 BRR  HZ I        2121  4.32        14.8 0.16                          73.8 299 
 PAM  SZ EP   1   2120 45.29                             151    0.32 7 77.5  38 
 PAM  SE ES   1   2121  2.06                             151   -0.24 7 77.5  38 
 RUS  HZ EP   1   2120 46.41                             144    0.05 7 98.7 177 
 RUS  HN ES   1   2121  4.66                             144   -0.12 7 98.7 177 
 RUS  HZ I        2121  6.12         4.3 0.17                          98.7 177 
 PTB  HZ EP   1   2120 49.48                             132   -0.39 7  149 260 
 OCA  SZ EP   1   2120 51.15                             129   -0.10 7  162 353 
 NOR  SN ES   1   2121 26.42                             118   -0.05 6  235 235 
 CHI  HZ EP   1   2121  0.10                             117   -0.22 6  247 196 
 CHI  HN ES   1   2121 29.92                             117    0.30 6  247 196 
 CHI  HZ I        2121 32.39         3.5 0.43                           247 196 
                                                                                
