 2012  925 2335 39.6 L   6.767 -73.087139.5  RSN  6 0.2 2.3LRSN                1
 GAP=146        0.42       2.3     3.1  3.4  0.1220E+01 -0.7093E+00 -0.1054E+00E
 Epicentro: LOS SANTOS - SANTANDER                                             3
 ACTION:UPD 12-10-22 14:20 OP:ep   STATUS:               ID:20120925233539 L   I
 2012-09-25-2330-00M.COL___214                                                 6
 STAT SP IPHASW D HRMM SECON CODA AMPLIT PERI AZIMU VELO AIN AR TRES W  DIS CAZ7
 BAR2 SZ EP       2335 58.47                             171    0.0410 22.0 209 
 BAR2 SZ ES       2336 13.26                             171    0.1310 22.0 209 
 BAR2 SZ I        2336 14.42        41.1 0.22                          22.0 209 
 PAM  SZ EP       2336  1.32                             150    0.2510 76.4  34 
 PAM  SZ I        2336  1.60        38.1 0.26                          76.4  34 
 PAM  SE ES   1   2336 17.55                             150   -0.29 7 76.4  34 
 BRR  HZ IP     C 2336  0.45                             149   -0.0510 78.7 299 
 BRR  HZ I        2336  0.93        63.4 0.22                          78.7 299 
 BRR  HE ES       2336 16.84                             149    0.0110 78.7 299 
 RUS  HZ EP       2336  2.22                             144   -0.2110 96.7 180 
 RUS  HN ES       2336 20.27                             144    0.0110 96.7 180 
 ZAR  HE ES   2   2336 37.83                             120   -0.17 4  211 292 
 ZAR  HZ I        2336 43.02        16.1 0.55                           211 292 
 CHI  HZ EP   2   2336 16.82                             116    0.08 4  247 197 
                                                                                
