 2014 1225 2030 19.8 L   6.797 -73.142140.5  RSN 29 0.5 2.8LRSN                1
 GAP= 71        1.14       2.3     2.8  4.6 -0.8589E+00  0.3378E+01  0.1065E+01E
 Epicentro: LOS SANTOS - SANTANDER                                             3
 ACTION:UPD 15-02-10 17:07 OP:nd   STATUS:               ID:20141225203019 L   I
 OLDACT:REG 14-12-26 03:34 OP:fm   STATUS:               ID:20141225202749     3
 2014-12-25-2027-49M.COL___286                                                 6
 STAT SP IPHASW D HRMM SECON CODA AMPLIT PERI AZIMU VELO AIN AR TRES W  DIS CAZ7
 BAR2 EZ IP     D 2030 39.15                             170    0.3610 23.0 191 
 BAR2 EZ ES       2030 53.50                             170   -0.1010 23.0 191 
 BAR2 EZ I        2030 55.42       149.1 0.22            168           23.0 191 
 BRR  HZ IP     D 2030 41.02                             151    0.6110 71.7 299 
 BRR  HN ES       2030 57.47                             151    0.9910 71.7 299 
 BRR  HZ I        2031  2.02       160.5 0.48            149           71.7 299 
 PAM  SZ IP     D 2030 41.98                             150    0.5210 77.4  39 
 PAM  SE ES       2030 58.89                             150    0.5410 77.4  39 
 PAM  SZ I        2031  1.90        76.8 0.28            153           77.4  39 
 RUS  HZ EP     D 2030 43.03                             143    0.0210  100 176 
 RUS  HE ES       2031  0.32                             143   -0.7910  100 176 
 RUS  HZ I        2031  2.63        86.1 0.54            144            100 176 
 PTB  HZ EP       2030 45.72                             131   -0.65 9  148 259 
 PTB  HE ES       2031  6.54                             131   -0.56 9  148 259 
 PTB  HZ I        2031  9.17       107.5 0.62            129            148 259 
 TAM  HZ EP       2030 47.50                             129    0.48 9  155 105 
 TAM  HN ES       2031  7.72                             129   -0.53 9  155 105 
 TAM  HZ I        2031  9.73        63.2 0.42            133            155 105 
 OCA  HZ EP       2030 47.37                             128   -0.37 9  161 353 
 OCA  HE ES       2031  9.18                             128   -0.36 9  161 353 
 OCA  HZ I        2031 14.30       109.9 0.14            129            161 353 
 SPBC HZ EP       2030 48.19                             128    0.29 9  163 219 
 SPBC HE ES       2031  9.75                             128   -0.06 9  163 219 
 SPBC HZ I        2031 11.26       138.7 0.84            127            163 219 
 ZAR  HZ EP       2030 51.70                             121   -0.26 9  205 292 
 ZAR  HN ES       2031 17.12                             121    0.08 9  205 292 
 ZAR  HZ I        2031 23.28       157.7 0.46            121            205 292 
 NOR  HZ EP     D 2030 55.64                             117    0.40 8  235 235 
 NOR  HE ES       2031 22.26                             117   -0.62 8  235 235 
 NOR  HZ I        2031 28.60        50.7 0.20            117            235 235 
 SML  HZ EP       2030 55.72                             116   -0.47 8  244 335 
 SML  HN ES       2031 24.03                             116   -0.54 8  244 335 
 SML  HZ I        2031 31.08       122.3 0.10            117            244 335 
 CHI  HZ EP       2030 57.44                             116    0.25 8  248 195 
 CHI  HN ES       2031 25.97                             116   -0.37 8  248 195 
 CHI  HZ I        2031 34.01        27.6 0.46            116            248 195 
 ROSC BZ EP       2030 58.89                             116    1.26 8  253 211 
 ROSC BE ES       2031 26.75                             116   -0.38 8  253 211 
 ROSC BZ I        2031 35.71        50.8 0.35            116            253 211 
 HEL  HZ EP       2031  0.44                             114    0.66 8  272 256 
 HEL  HN ES       2031 31.85                             114    0.88 8  272 256 
 HEL  HZ I        2031 38.29        56.5 0.38            113            272 256 
 URE  HZ EP   4   2030 58.87                             112   -1.81 0  284 292 
 URE  HE ES   4   2031 29.84                             112   -2.72 0  284 292 
 URE  HZ I        2031 43.80        78.6 0.18            112            284 292 
 VIL  SZ EP       2031  2.97                             111    0.02 7  303 192 
 VIL  SN ES       2031 36.27                             111   -0.34 7  303 192 
 VIL  SZ I        2031 41.86        38.8 0.28            112            303 192 
 PTGC HZ EP   4   2031  2.34                             111   -1.03 0  308 159 
 PTGC HN ES   4   2031 35.30                             111   -2.05 0  308 159 
 PTGC HZ I        2031 43.95        23.9 0.58            112            308 159 
 RREF HN ES   4   2031 43.16                             110    1.61 0  322 229 
 CBOC HZ EP       2031  6.84                             109    0.31 7  334 252 
 CBOC HN ES       2031 42.73                             109   -0.25 7  334 252 
 CBOC HZ I        2031 57.82        10.7 0.50            109            334 252 
 DBB  SZ EP       2031  6.88                             108   -0.24 7  340 274 
 DBB  SZ ES       2031 43.88                             108   -0.14 7  340 274 
 TOL  SZ EP       2031  8.45                             108    0.60 7  344 225 
 TOL  SN ES       2031 45.13                             108   -0.20 7  344 225 
 TOL  SZ I        2031 56.66        43.9 0.40            109            344 225 
 MON  HZ EP   4   2031  6.62                             108   -2.04 0  354 308 
 MON  HN ES   4   2031 44.72                             108   -2.06 0  354 308 
 MON  HZ I        2032  0.77        26.7 0.46            108            354 308 
 ANIL HZ EP       2031  9.01                             108   -0.40 6  357 225 
 ANIL HN ES       2031 47.86                             108   -0.24 6  357 225 
 ANIL HZ I        2031 59.44         7.0 0.26            108            357 225 
 ARGC HZ EP   1   2031  9.21                             107   -0.10 5  360 340 
 ARGC HN ES       2031 47.01                             107   -0.92 6  360 340 
 ARGC HZ I        2031 50.23        21.0 0.22            108            360 340 
 SDV  BZ EP       2031  8.88                             107   -0.76 6  360  50 
 SDV  BE ES   4   2031 44.87                             107   -3.64 0  360  50 
 SDV  BZ I        2031 48.96        13.9 0.40            109            360  50 
 ORTC HZ EP       2031 13.28                             105   -0.26 6  395 216 
 ORTC HN ES       2031 55.56                             105    0.11 6  395 216 
 ORTC HZ I        2032  3.62        17.5 0.20            106            395 216 
 PAL  HZ EP       2031 15.20                             105    0.39 6  406 239 
 PAL  HN ES       2031 57.61                             105   -0.10 6  406 239 
 PAL  HZ I        2032  2.09        11.2 0.30            105            406 239 
 SJC  HZ EP   4   2031 13.22                             105   -2.03 0  410 327 
 SJC  HN ES   4   2031 53.44                             105   -5.07 0  410 327 
 SJC  HZ I        2031 58.33        17.3 0.42            105            410 327 
 YOT  HZ EP   1   2031 22.32                             102   -0.39 4  472 229 
 MACC HZ EP   4   2031 26.36                             101   -1.99 0  520 189 
 MACC HN ES   4   2032 15.74                             101   -6.08 0  520 189 
 MACC HZ I        2032 25.06         5.9 0.54            101            520 189 
                                                                                
