 2010  925 2048 35.2 L   6.799 -73.050141.7  RSN  5 0.2 1.2LRSN                1
 GAP=175        0.52       5.2    11.2  8.2  0.2669E+02 -0.3584E+02 -0.8721E+01E
 Epicentro: LOS SANTOS - SANTANDER                                             3
 ACTION:UP  11-02-18 11:05 OP:tino STATUS:               ID:20100925204835 L   I
 2010-09-25-2046-54S.COL___122                                                 6
 STAT SP IPHASW D HRMM SECON CODA AMPLIT PERI AZIMU VELO SNR AR TRES W  DIS CAZ7
 BAR2 SZ IP     D 2048 54.42                             169     0.010   27 213 
 BTL  SZ EP   1   2048 54.90                             169     0.5 7   27 299 
 BAR2 SZ ES   2   2049  9.01                             169    -0.4 5   27 213 
 BAR2 SZ I        2049 11.19         6.4 0.68                            27 213 
 BRR  HZ EP   1   2048 56.29                             149    -0.2 7   81 295 
 BRR  HE ES   2   2049 13.10                             149     0.0 5   81 295 
 RUS  HZ EP       2048 58.38                             143    -0.110  100 182 
 RUS  HN ES   2   2049 17.02                             143     0.3 5  100 182 
 RUS  HZ I        2049 18.07         1.9 0.28                           100 182 
 GUE  SZ EP   2   2048 59.28                             139    -0.1 5  115   7 
 GUE  SZ ES   3   2049 18.22                             139     0.0 2  115   7 
                                                                                
