 2012  425 2209 30.2 L   6.792 -73.150145.4  RSN 12 0.3 2.6LRSN                1
 GAP=136        0.87       3.1     3.6  4.7 -0.1694E+01  0.4795E+01  0.2061E+01E
 Epicentro: LOS SANTOS - SANTANDER                                             3
 ACTION:UPD 12-07-05 11:55 OP:tino STATUS:               ID:20120425220930 L   I
 2012-04-25-2205-00S.COL___186                                                 6
 STAT SP IPHASW D HRMM SECON CODA AMPLIT PERI AZIMU VELO AIN AR TRES W  DIS CAZ7
 BAR2 SZ EP       22 9 49.90                             171     0.210   22 189 
 BAR2 SZ ES       2210  5.17                             171     0.210   22 189 
 BAR2 SZ I        2210  6.44        61.2 0.30                            22 189 
 BRR  HZ EP       22 9 51.80                             152     0.510   71 299 
 BRR  HN ES       2210  8.22                             152     0.510   71 299 
 BRR  HZ I        2210 12.78       133.4 0.22                            71 299 
 PAM  SZ EP       22 9 52.55                             150     0.210   78  39 
 PAM  SN ES       2210  9.33                             150    -0.410   78  39 
 RUS  HZ EP       22 9 53.79                             144     0.010  100 176 
 RUS  HN ES       2210 12.05                             144    -0.210  100 176 
 RUS  HZ I        2210 13.81        29.1 0.42                           100 176 
 PTB  HZ EP       22 9 56.58                             132    -0.5 9  147 259 
 PTB  HN ES       2210 17.52                             132    -0.5 9  147 259 
 OCA  SZ EP       22 9 58.33                             129    -0.2 9  161 353 
 ZAR  HZ EP       2210  2.41                             122    -0.2 9  204 292 
 ZAR  HE ES   1   2210 27.38                             122    -0.5 6  204 292 
 ZAR  HZ I        2210 33.55        69.7 0.52                           204 292 
 NOR  SZ EP       2210  5.81                             118     0.0 8  234 235 
 NOR  SE ES   1   2210 33.80                             118     0.2 6  234 235 
 CHI  HZ EP   1   2210  7.94                             117     0.2 6  248 195 
 CHI  HN ES   1   2210 36.94                             117    -0.1 6  248 195 
 CHI  HZ I        2210 47.39        20.2 0.52                           248 195 
 HEL  HE ES   1   2210 41.88                             115     0.3 6  271 256 
 HEL  HZ I        2210 49.52        20.0 0.48                           271 256 
 RREF HZ EP   1   2210 16.60                             111     0.4 5  321 229 
 RREF HN ES   1   2210 52.65                             111     0.6 5  321 229 
 RREF HZ I        2211  0.19        34.7 0.51                           321 229 
 PRA  HZ EP       2210 23.73                             106     0.2 6  391 210 
 PRA  HN ES       2211  4.63                             106    -0.6 6  391 210 
                                                                                
