 2017 1025 2046 18.5 L   6.164 -73.892  8.9  RSN 10 0.4 1.5LRSN                1
 GAP= 66        1.17       2.2     2.0  5.2 -0.1288E+01  0.5843E+00 -0.4571E+00E
 Epicentro: LANDAZURI - SANTANDER                                              3
 ACTION:UPD 17-11-07 19:36 OP:rebc STATUS:               ID:20171025204618 L   I
 OLDACT:REG 17-10-26 02:46 OP:l    STATUS:               ID:20171025203743     3
 2017-10-25-2038-00M.COL___450                                                 6
 STAT SP IPHASW D HRMM SECON CODA AMPLIT PERI AZIMU VELO AIN AR TRES W  DIS CAZ7
 SPBC HZ EP       2046 28.77                              94    0.4610 60.0 199 
 SPBC HN ES       2046 36.47                              94    0.5110 60.0 199 
 SPBC HZ I        2046 37.15        26.3 0.08             92           60.0 199 
 PTB  HZ IP     C 2046 30.35                              93   -0.1410 75.0 304 
 PTB  HE ES       2046 39.82                              93   -0.0310 75.0 304 
 PTB  HZ I        2046 40.42        26.6 0.16             92           75.0 304 
 BAR2 EZ EP       2046 33.30                              93    0.0610 91.7  59 
 BAR2 EZ ES       2046 44.07                              93   -0.6810 91.7  59 
 BAR2 EZ I        2046 46.28         7.7 0.23             92           91.7  59 
 RUS  HZ EP       2046 34.00                              93    0.0810 94.4 109 
 RUS  HN ES       2046 45.56                              93   -0.4010 94.4 109 
 RUS  HZ I        2046 46.57        11.8 0.26             92           94.4 109 
 BRR  HZ EP       2046 35.35                              92    0.1610  106  11 
 BRR  HE ES       2046 48.62                              92    0.4110  106  11 
 BRR  HZ I        2046 51.94        23.3 0.26             91            106  11 
 NOR  HZ EP       2046 38.26                              92   -0.1410  127 239 
 NOR  HN ES       2046 53.42                              92   -0.5010  127 239 
 NOR  HZ I        2046 54.31         6.5 0.52             91            127 239 
 CHI  HZ EP   9   2046 46.91                              56    1.75 0  171 174 
 CHI  HN ES       2047  8.76                                    1.05 9  171 174 
 CHI  HZ I        2047 10.45         2.4 0.30             56            171 174 
 ZAR  HZ EP       2046 45.70                              56   -0.34 9  182 324 
 ZAR  HE ES   4   2047  4.63                              56   -2.90 0  182 324 
 PAM  EZ EP       2046 47.79                              56    0.73 9  185  45 
 PAM  EN ES       2047  9.63                              56    0.29 9  185  45 
 PAM  HE ES       2047  9.78                              56            185  45 
 PAM  EZ I        2047 10.76         7.3 0.38             56            185  45 
 GUY2CHZ EP       2046 48.22                              56    0.13 9  193 238 
 GUY2CHN ES       2047 10.56                              56   -0.61 9  193 238 
 GUY2CHZ I        2047 12.95         2.2 0.24                           193 238 
                                                                                
