 2012  925 2047 49.4 L   6.747 -73.106144.5  RSN 12 0.3 2.9LRSN                1
 GAP= 94        0.59       2.5     2.7  3.6 -0.1142E+01  0.1088E+01  0.2604E+01E
 Epicentro: LOS SANTOS - SANTANDER                                             3
 ACTION:UPD 12-10-22 14:20 OP:ep   STATUS:               ID:20120925204749 L   I
 2012-09-25-2040-00M.COL___214                                                 6
 STAT SP IPHASW D HRMM SECON CODA AMPLIT PERI AZIMU VELO AIN AR TRES W  DIS CAZ7
 BAR2 SZ EP       2048  8.77                             172   -0.0510 19.1 206 
 BAR2 SZ ES   1   2048 24.25                             172    0.30 7 19.1 206 
 BAR2 SZ I        2048 25.90       273.9 0.40                          19.1 206 
 BRR  HZ IP     C 2048 10.67                             150   -0.1610 77.9 301 
 BRR  HZ I        2048 10.97       271.1 0.24                          77.9 301 
 BRR  HE ES       2048 27.90                             150    0.3810 77.9 301 
 PAM  SZ EP       2048 11.54                             150   -0.0910 79.4  34 
 PAM  SN ES       2048 28.67                             150   -0.2810 79.4  34 
 PAM  SZ I        2048 31.35        73.0 0.61                          79.4  34 
 RUS  HZ EP       2048 12.71                             145    0.0910 94.5 178 
 RUS  HE ES       2048 30.55                             145   -0.1610 94.5 178 
 RUS  HZ I        2048 33.11        71.5 0.42                          94.5 178 
 TAM  HZ EP       2048 16.84                             131    0.36 9  149 103 
 PTB  HE ES   1   2048 37.32                             131   -0.45 7  151 261 
 ZAR  HZ EP   1   2048 22.33                             121   -0.11 6  210 293 
 ZAR  HZ I        2048 53.93       107.2 0.41                           210 293 
 NOR  SZ EP   1   2048 24.78                             118   -0.33 6  235 236 
 NOR  SZ I        2048 59.93        42.8 0.36                           235 236 
 CHI  HZ EP   1   2048 26.64                             117    0.07 6  244 197 
 CHI  HN ES   1   2048 55.46                             117   -0.09 6  244 197 
 HEL  HZ EP   1   2048 30.48                             114    0.59 6  275 257 
 HEL  HZ I        2049  7.77        26.7 0.35                           275 257 
 RREF HZ EP   1   2048 35.68                             111    0.21 5  321 231 
 RREF HE ES   1   2049 11.66                             111    0.29 5  321 231 
 RREF HZ I        2049 17.53        38.3 0.38                           321 231 
 PRA  HZ EP   1   2048 41.91                             106   -0.66 4  389 211 
 PRA  HE ES   1   2049 24.03                             106    0.01 4  389 211 
 PRA  HZ I        2049 30.43        21.7 0.42                           389 211 
                                                                                
