 2016  925 2327  4.2 L   7.381 -73.089158.0  RSN  6 0.3 1.6LRSN                1
 GAP=136        0.77       4.7     3.8  5.8  0.1082E+01  0.4051E+01 -0.1933E+01E
 Epicentro: MATANZA - SANTANDER                                                3
 ACTION:UPD 17-08-17 21:16 OP:lp   STATUS:               ID:20160925232704 L   I
 OLDACT:DUP 16-09-26 04:48 OP:lv   STATUS:               ID:20160925231742d    3
 2016-09-25-2318-00M.COL___327                                                 6
 STAT SP IPHASW D HRMM SECON CODA AMPLIT PERI AZIMU VELO AIN AR TRES W  DIS CAZ7
 PAM  EZ EP       2327 26.41                             164    0.2310 43.2  96 
 PAM  EE ES       2327 43.01                             164   -0.3210 43.2  96 
 PAM  EZ I        2327 45.05         9.8 0.38            167           43.2  96 
 BRR  HZ EP       2327 27.39                             153    0.5110 75.2 246 
 BRR  HN ES       2327 44.79                             153    0.2110 75.2 246 
 BRR  HZ I        2327 47.33         6.8 0.11            153           75.2 246 
 RUS  HZ EP       2327 34.54                             132    0.22 9  165 180 
 RUS  HN ES       2327 57.52                             132   -0.31 9  165 180 
 RUS  HZ I        2328  0.80         1.3 0.29            133            165 180 
 PTB  HZ EP       2327 34.73                             129   -0.14 9  177 238 
 PTB  HN ES       2327 58.65                             129   -0.16 9  177 238 
 PTB  HZ I        2328  0.78         5.8 0.14            130            177 238 
 ZAR  HN ES       2328  1.85                             126   -0.07 9  196 274 
 ZAR  HZ I        2328  6.47         3.4 0.13            127            196 274 
 SJC  HZ EP       2327 53.94                             110   -0.66 6  361 321 
 SJC  HN ES   4   2328 32.41                             110   -1.52 0  361 321 
                                                                                
