 2016  525 2304 32.0 L   6.514 -73.701 96.0  RSN 15 0.4 2.3LRSN                1
 GAP= 87        1.01       2.6     3.0  6.7 -0.3283E+01  0.1017E+02 -0.2730E+01E
 Epicentro: SANTA HELENA DEL OPON - SANTANDER                                  3
 ACTION:UPD 16-08-18 17:49 OP:cam  STATUS:               ID:20160525230431 L   I
 OLDACT:UP  16-06-01 05:06 OP:dnl  STATUS:               ID:20160525230431 L   3
 OLDACT:UP  16-05-26 06:23 OP:drio STATUS:               ID:20160525225746     3
 OLDACT:UP  16-05-26 06:22 OP:drio STATUS:               ID:20160525225746     3
 OLDACT:UP  16-05-26 06:22 OP:drio STATUS:               ID:20160525225746     3
 OLDACT:UP  16-05-26 06:19 OP:drio STATUS:               ID:20160525225746     3
 OLDACT:REG 16-05-26 05:14 OP:dani STATUS:               ID:20160525225746     3
 2016-05-25-2257-46M.COL___319                                                 6
 STAT SP IPHASW D HRMM SECON CODA AMPLIT PERI AZIMU VELO AIN AR TRES W  DIS CAZ7
 BAR2 EZ EP       23 4 47.65                             147    0.2210 58.0  81 
 BAR2 EZ ES       23 5  0.12                             147    0.6510 58.0  81 
 BAR2 EZ I        23 5  2.02        53.4 0.28            151           58.0  81 
 BRR  HZ EP       23 4 47.64                             143    0.0110 65.6 359 
 BRR  HE ES   4   23 5  0.79                             143    0.96 0 65.6 359 
 BRR  HZ I        23 5  1.22        48.9 0.30            146           65.6 359 
 PTB  HZ IP     C 23 4 48.17                             136   -0.9310 83.6 272 
 PTB  HN ES   4   23 5  0.99                             136   -1.45 0 83.6 272 
 PTB  HZ I        23 5  2.90        59.4 0.12            135           83.6 272 
 RUS  HZ EP       23 4 50.64                             132   -0.3010 96.9 135 
 RUS  HE ES       23 5  5.36                             132   -0.3510 96.9 135 
 RUS  HZ I        23 5  8.23        18.5 0.32            133           96.9 135 
 SPBC HZ EP       23 4 50.79                             129   -0.2510  104 203 
 SPBC HN ES       23 5  5.97                             129    0.0810  104 203 
 SPBC HZ I        23 5 10.07        81.8 0.20            129            104 203 
 PAM  EZ EP       23 4 55.53                             120   -0.08 9  143  50 
 PAM  EN ES       23 5 13.82                             120   -0.20 9  143  50 
 PAM  EZ I        23 5 15.63        56.5 0.40            123            143  50 
 NOR  HZ EP       23 4 57.06                             116   -0.52 9  167 231 
 NOR  HE ES       23 5 17.14                             116   -0.39 9  167 231 
 NOR  HZ I        23 5 20.89        40.3 0.16            116            167 231 
 OCA  HZ EP       23 5  0.79                             112   -0.17 9  195  12 
 OCA  HE ES       23 5 24.02                             112    0.48 9  195  12 
 OCA  HZ I        23 5 27.29        71.1 0.46            113            195  12 
 HEL  HZ EP       23 5  2.52                             111    0.15 8  205 260 
 HEL  HN ES       23 5 26.48                             111    0.42 8  205 260 
 HEL  HZ I        23 5 32.59        11.4 0.28            111            205 260 
 CHI  HZ EP       23 5  2.37                             111   -0.41 8  208 181 
 CHI  HN ES       23 5 27.34                             111    0.56 8  208 181 
 CHI  HZ I        23 5 33.61        11.0 0.34            111            208 181 
 URE  HZ EP   4   23 5  5.22                             107   -1.26 0  244 304 
 URE  HN ES   4   23 5 30.62                             107   -2.75 0  244 304 
 URE  HZ I        23 5 35.42        10.8 0.14            108            244 304 
 CBOC HZ EP       23 5  9.47                             106    0.26 8  266 254 
 CBOC HN ES       23 5 38.60                             106    0.37 8  266 254 
 CBOC HZ I        23 5 47.98         3.9 0.20            106            266 254 
 ANIL HZ EP       23 5 12.79                             104    0.22 7  293 220 
 ANIL HE ES   4   23 5 46.09                             104    1.88 0  293 220 
 ANIL HZ I        23 5 51.74        39.5 0.22            104            293 220 
 ORTC HZ EP       23 5 17.43                             102    0.06 7  335 211 
 ORTC HN ES   4   23 5 55.02                             102    2.26 0  335 211 
 ORTC HZ I        23 6  0.94         6.7 0.60            102            335 211 
 PRA  HZ EP       23 5 18.25                             102    0.73 7  336 203 
 PRA  HE ES       23 5 53.66                             102    0.63 7  336 203 
 PRA  HZ I        23 6  2.07        10.1 0.20            102            336 203 
                                                                                
