 2015  725 2341  9.6 L   6.816 -73.131143.2  RSN 18 0.4 2.3LRSN                1
 GAP=138        0.81       2.1     3.9  5.1 -0.1496E+01  0.1069E+02  0.6835E+00E
 Epicentro: LOS SANTOS - SANTANDER                                             3
 ACTION:UPD 15-09-08 21:50 OP:cam  STATUS:               ID:20150725234109 L   I
 OLDACT:REG 15-07-26 03:59 OP:spq  STATUS:               ID:20150725233747     3
 2015-07-25-2337-47M.COL___328                                                 6
 STAT SP IPHASW D HRMM SECON CODA AMPLIT PERI AZIMU VELO AIN AR TRES W  DIS CAZ7
 BAR2 EZ EP       2341 28.84                             169   -0.1010 25.4 193 
 BAR2 EZ ES   1   2341 43.88                             169   -0.16 7 25.4 193 
 BAR2 EZ I        2341 45.22        57.2 0.18            166           25.4 193 
 PAM  EZ EP       2341 31.61                             151    0.2310 75.0  39 
 PAM  EN ES       2341 48.86                             151    0.4810 75.0  39 
 PAM  EZ I        2341 49.45        14.7 0.22            157           75.0  39 
 RUS  HZ EP       2341 32.79                             143   -0.4110  102 177 
 RUS  HN ES       2341 51.68                             143    0.0610  102 177 
 RUS  HZ I        2341 52.63        15.9 0.30            144            102 177 
 OCA  HZ EP   1   2341 37.48                             129   -0.07 7  159 352 
 OCA  HN ES       2341 59.09                             129   -0.27 9  159 352 
 OCA  HZ I        2342  2.10        42.1 0.20            132            159 352 
 ZAR  HZ EP   1   2341 41.98                             122    0.03 6  205 292 
 ZAR  HE ES       2342  7.23                             122    0.03 9  205 292 
 ZAR  HZ I        2342 15.45        16.9 0.58            122            205 292 
 NOR  HZ EP       2341 45.28                             118   -0.13 8  237 234 
 NOR  HE ES       2342 12.73                             118   -0.63 8  237 234 
 NOR  HZ I        2342 18.46        20.3 0.50            118            237 234 
 SML  HZ EP       2341 45.23                             117   -0.74 8  243 335 
 SML  HE ES   1   2342 14.47                             117    0.12 6  243 335 
 SML  HZ I        2342 19.88        21.6 0.26            119            243 335 
 CHI  HZ EP       2341 47.05                             116   -0.32 8  251 195 
 CHI  HN ES       2342 16.67                             116   -0.17 8  251 195 
 CHI  HZ I        2342 23.33         8.1 0.40            118            251 195 
 ROSC BZ EP   1   2341 48.12                             116    0.30 6  255 211 
 ROSC BE ES       2342 17.64                             116    0.00 8  255 211 
 ROSC BZ I        2342 26.62        20.0 0.35            117            255 211 
 HEL  HZ EP       2341 50.67                             114    0.78 8  274 256 
 HEL  HN ES   4   2342 23.41                             114    2.09 0  274 256 
 HEL  HZ I        2342 28.77         9.6 0.22            115            274 256 
 GUY2CHZ EP       2341 53.67                             112    0.33 7  304 235 
 GUY2CHE ES   1   2342 28.26                             112    0.80 5  304 235 
 GUY2CHZ I        2342 35.42        18.4 0.36                           304 235 
 PTGC HZ EP   4   2341 51.95                             111   -1.49 0  310 159 
 PTGC HE ES   4   2342 25.86                             111   -1.79 0  310 159 
 PTGC HZ I        2342 32.97        18.9 0.42            113            310 159 
 DBB  SZ EP       2341 57.26                             109    0.13 7  341 274 
 TOL  SZ EP       2341 58.88                             109    0.87 6  346 225 
 TOL  SE ES   1   2342 35.27                             109   -0.51 5  346 225 
 TOL  SZ I        2342 45.43        11.0 0.44            110            346 225 
 MON  HN ES   4   2342 33.83                             108   -2.84 0  354 308 
 MON  HZ I        2342 37.87         4.0 0.34            109            354 308 
 ORTC HZ EP   1   2342  3.53                             106   -0.16 4  398 216 
 ORTC HN ES       2342 46.25                             106    0.35 6  398 216 
 ORTC HZ I        2342 51.98         7.5 0.52            107            398 216 
 PAL  HZ EP       2342  4.78                             105   -0.15 6  408 239 
 SJC  HZ EP   4   2342  3.22                             105   -1.78 0  409 327 
 SJC  HN ES   4   2342 44.60                             105   -3.62 0  409 327 
 SJC  HZ I        2342 47.53         3.1 0.48            107            409 327 
                                                                                
