 2017 1225 2223 45.9 L   6.844 -73.177148.1  RSN  6 0.5 1.6LRSN                1
 GAP=137        1.18       6.3     5.9  9.2 -0.1494E+02  0.1639E+02 -0.9164E+01E
 Epicentro: ZAPATOCA - SANTANDER                                               3
 ACTION:UPD 18-01-04 13:24 OP:rebc STATUS:               ID:20171225222345 L   I
 OLDACT:UP  17-12-26 06:51 OP:dani STATUS:               ID:20171225221031     3
 OLDACT:UP  17-12-26 06:50 OP:dani STATUS:               ID:20171225221031     3
 OLDACT:REG 17-12-26 05:13 OP:dani STATUS:               ID:20171225221031     3
 2017-12-25-2218-00M.COL___448                                                 6
 STAT SP IPHASW D HRMM SECON CODA AMPLIT PERI AZIMU VELO AIN AR TRES W  DIS CAZ7
 BAR2 EZ EP       2224  5.91                             169    0.0010 27.8 181 
 BAR2 EZ ES       2224 21.21                             169   -0.3110 27.8 181 
 BAR2 EZ I        2224 21.98         9.5 0.48            168           27.8 181 
 PAM  EZ EP       2224  8.69                             152    0.3910 76.1  44 
 PAM  EN ES       2224 25.86                             152    0.1010 76.1  44 
 PAM  EZ I        2224 28.58         3.3 0.42            154           76.1  44 
 PTB  HZ EP       2224 12.39                             133   -0.46 9  145 257 
 PTB  HN ES       2224 33.13                             133   -0.73 9  145 257 
 PTB  HZ I        2224 35.21         3.2 0.13            134            145 257 
 OCA  HZ EP       2224 13.37                             131   -0.55 9  155 354 
 OCA  HN ES   3   2224 37.67                             131    1.90 2  155 354 
 OCA  HZ I        2224 38.73         7.7 0.13            133            155 354 
 SPBC HZ EP       2224 14.95                             129    0.21 9  165 217 
 SPBC HE ES       2224 37.83                             129    0.60 9  165 217 
 SPBC HZ I        2224 45.90        11.9 0.06            130            165 217 
 ZAR  HE ES       2224 43.77                             124    0.76 9  199 291 
                                                                                
