 2014  325 2140  7.8 L   6.797 -73.154144.6  RSN  5 0.4 1.6LRSN                1
 GAP=136        0.94       5.6     4.5  8.6 -0.1666E+01  0.8561E+01  0.6966E+01E
 Epicentro: LOS SANTOS - SANTANDER                                             3
 OLDACT:REG 14-03-25 23:45 OP:fm   STATUS:               ID:20140325213814     3
 ACTION:UPD 14-04-09 23:20 OP:nd   STATUS:               ID:20140325214007 L   I
 OLDACT:UP  14-03-26 00:22 OP:fm   STATUS:               ID:20140325213814     3
 2014-03-25-2138-14M.COL___250                                                 6
 STAT SP IPHASW D HRMM SECON CODA AMPLIT PERI AZIMU VELO AIN AR TRES W  DIS CAZ7
 BRR  HZ EP   1   2140 29.05                             153    0.24 7 70.5 299 
 BRR  HN ES   1   2140 45.86                             153    0.68 7 70.5 299 
 BRR  HZ I        2140 46.53        13.7 0.32            154           70.5 299 
 PAM  SZ EP       2140 30.17                             150    0.2010 78.2  40 
 PAM  SN ES       2140 46.76                             150   -0.4810 78.2  40 
 PAM  HZ I        2140 48.99         5.8 0.48            155           78.2  40 
 RUS  HZ EP       2140 31.58                             143    0.1410  100 175 
 RUS  HN ES   1   2140 50.26                             143    0.39 7  100 175 
 RUS  HZ I        2140 54.92         3.8 1.48            145            100 175 
 PTB  HZ EP       2140 34.27                             132   -0.34 9  147 259 
 PTB  HN ES       2140 54.88                             132   -0.62 9  147 259 
 PTB  HZ I        2140 57.45         6.0 0.12            134            147 259 
 ZAR  HZ EP   1   2140 40.20                             122    0.09 6  203 292 
 ZAR  HE ES   1   2141  5.79                             122    0.49 6  203 292 
 ZAR  HZ I        2141 10.12         4.7 0.32            125            203 292 
                                                                                
