 2016  925 2109 45.3 L   5.877 -73.744114.7  RSN  6 0.3 1.2LRSN                1
 GAP=147        0.70       3.5     2.6  5.8 -0.2010E+01  0.8618E+00 -0.6750E+01E
 Epicentro: JESUS MARIA - SANTANDER                                            3
 ACTION:UPD 17-08-17 21:16 OP:lp   STATUS:               ID:20160925210945 L   I
 OLDACT:REG 16-09-26 02:43 OP:lv   STATUS:               ID:20160925210744     3
 2016-09-25-2108-00M.COL___330                                                 6
 STAT SP IPHASW D HRMM SECON CODA AMPLIT PERI AZIMU VELO AIN AR TRES W  DIS CAZ7
 SPBC HN ES       2110 14.19                             158   -0.3410 44.0 236 
 RUS  HZ EP       2110  4.05                             146    0.0610 73.2  89 
 RUS  HE ES       2110 18.59                             146   -0.0110 73.2  89 
 RUS  HZ I        2110 21.71         1.4 0.23            147           73.2  89 
 BAR2 EZ EP       2110  5.94                             136    0.1910  101  38 
 BAR2 EZ ES       2110 21.87                             136    0.1310  101  38 
 PTB  HZ EP       2110  5.60                             134   -0.4610  108 313 
 PTB  HN ES       2110 22.30                             134    0.0210  108 313 
 PTB  HZ I        2110 22.82         3.0 0.16            135            108 313 
 NOR  HN ES       2110 26.45                             128    0.4910  129 254 
 NOR  HZ I        2110 27.95         3.1 0.11            131            129 254 
 BRR  HZ EP       2110  8.54                             126   -0.16 9  136   1 
 BRR  HN ES       2110 27.08                             126    0.10 9  136   1 
 BRR  HZ I        2110 32.29         8.0 0.22            128            136   1 
                                                                                
