 2012 1225 2115 53.3 L   6.742 -73.185143.3  RSN  6 0.4 1.9LRSN                1
 GAP=175        1.12       7.6     7.2  9.0  0.2834E+02  0.8164E+01 -0.4238E+01E
 Epicentro: VILLANUEVA - SANTANDER                                             3
 ACTION:UPD 13-01-04 14:30 OP:ep   STATUS:               ID:20121225211553 L   I
 2012-12-25-2110-00M.COL___242                                                 6
 STAT SP IPHASW D HRMM SECON CODA AMPLIT PERI AZIMU VELO AIN AR TRES W  DIS CAZ7
 BAR2 SZ ES       2116 26.77                             173   -0.7010 16.6 179 
 BAR2 SZ I        2116 28.15        16.1 0.30                          16.6 179 
 GIR2 SZ EP       2116 12.55                             165   -0.2810 37.2 359 
 BRR  HZ IP     C 2116 14.27                             152    0.1310 70.8 305 
 BRR  HN ES       2116 31.15                             152    0.7410 70.8 305 
 BRR  HN I        2116 31.73        30.8 0.32                          70.8 305 
 RUS  HZ EP       2116 16.86                             145    0.5010 94.6 173 
 RUS  HN ES       2116 34.51                             145    0.1510 94.6 173 
 RUS  HN I        2116 36.64         6.0 0.38                          94.6 173 
 PTB  HZ EP       2116 19.11                             132   -0.44 9  142 261 
 PTB  HN ES       2116 39.99                             132   -0.06 9  142 261 
 PTB  HN I        2116 45.07        12.5 0.28                           142 261 
 ZAR  HN ES       2116 50.32                             122   -0.15 9  203 294 
 ZAR  HN I        2116 56.01         7.4 0.16                           203 294 
                                                                                
