 2011  625 2316 36.8 L   6.024 -73.774104.0  RSN  4 0.2 1.6LRSN                1
 GAP=175        0.51       5.9     3.3  8.0 -0.4179E+01  0.1467E+02 -0.1256E+02E
 Epicentro: BOLIVAR - SANTANDER                                                3
 ACTION:UP  11-07-14 19:08 OP:ep   STATUS:               ID:20110625231636 L   I
 2011-06-25-2313-18S.COL___140                                                 6
 STAT SP IPHASW D HRMM SECON CODA AMPLIT PERI AZIMU VELO SNR AR TRES W  DIS CAZ7
 RUS  HZ EP   1   2316 54.93                             141     0.1 7   78 101 
 RUS  HE ES   1   2317  8.77                             141    -0.1 7   78 101 
 RUS  HZ I        2317 10.39         4.8 0.32                            78 101 
 BAR2 SZ EP   1   2316 55.46                             136    -0.1 7   91  46 
 BAR2 SZ ES   1   2317 10.32                             136     0.2 7   91  46 
 BAR2 SZ I        2317 11.32        21.4 0.16                            91  46 
 HEL  HZ EP   2   2317  6.94                             113     0.6 4  195 276 
 HEL  HE ES   1   2317 29.28                             113    -0.2 6  195 276 
 HEL  HZ I        2317 34.69         3.8 0.13                           195 276 
 BRI  SZ EP   1   2317  8.26                             110    -0.3 6  216  30 
 BRI  SZ I        2317 34.80         4.4 0.21                           216  30 
                                                                                
