 2016  725 2308 15.8 L   6.744 -73.180147.0  RSN  5 0.3 1.5LRSN                1
 GAP=229        0.85       6.7     6.1  7.4  0.2314E+02  0.9538E+01 -0.2591E+01E
 Epicentro: VILLANUEVA - SANTANDER                                             3
 ACTION:UPD 17-03-29 16:55 OP:lp   STATUS:               ID:20160725230815 L   I
 OLDACT:REG 16-07-26 03:01 OP:dnl  STATUS:               ID:20160725225759     3
 2016-07-25-2257-59S.COL___334                                                 6
 STAT SP IPHASW D HRMM SECON CODA AMPLIT PERI AZIMU VELO AIN AR TRES W  DIS CAZ7
 BAR2 EZ EP       23 8 35.16                             173   -0.2810 16.8 181 
 BAR2 EZ ES       23 8 50.22                             173   -0.5710 16.8 181 
 BAR2 EZ I        23 8 51.73         5.9 0.20            172           16.8 181 
 BRR  HZ EP       23 8 37.28                             153    0.2210 71.2 304 
 BRR  HN ES       23 8 54.17                             153    0.5110 71.2 304 
 BRR  HZ I        23 8 57.92        12.3 0.30            151           71.2 304 
 RUS  HZ EP   2   23 8 39.47                             146    0.23 5 94.7 174 
 RUS  HN ES       23 8 57.91                             146    0.3710 94.7 174 
 RUS  HZ I        23 8 59.88         1.7 0.38            148           94.7 174 
 PTB  HZ EP       23 8 42.35                             133   -0.06 9  143 261 
 PTB  HN ES       23 9  3.06                             133   -0.13 9  143 261 
 PTB  HZ I        23 9  6.48         4.0 0.34            133            143 261 
 ZAR  HN ES       23 9 13.31                             123   -0.17 9  203 294 
 ZAR  HZ I        23 9 19.26         6.1 0.46            123            203 294 
                                                                                
