 2011  325 2231  6.6 L   6.830 -73.174153.4  RSN  4 0.4 1.7LRSN                1
 GAP=254        0.65       9.5     6.1  9.5 -0.3073E+01  0.1912E+02  0.1129E+02E
 Epicentro: LOS SANTOS - SANTANDER                                             3
 ACTION:UP  11-06-16 14:35 OP:jfem STATUS:               ID:20110325223106 L   I
 2011-03-25-2230-20S.COL___136                                                 6
 STAT SP IPHASW D HRMM SECON CODA AMPLIT PERI AZIMU VELO SNR AR TRES W  DIS CAZ7
 BRR  HZ EP   1   2231 28.37                             155     0.0 7   67 297 
 BRR  HZ I        2231 33.29        11.7 0.41                            67 297 
 BRR  HE ES   2   2231 45.55                             155     0.2 5   67 297 
 PAM  SZ EP   1   2231 29.66                             152     0.0 7   77  43 
 PAM  SZ I        2231 29.88         7.7 0.23                            77  43 
 PAM  SN ES   2   2231 46.71                             152    -0.9 5   77  43 
 GRA  SZ EP   1   2231 32.66                             139     0.3 7  124  19 
 GRA  SZ ES   1   2231 52.60                             139     0.1 7  124  19 
 GRA  SZ I        2231 53.11         8.0 0.27                           124  19 
 MON  HZ EP   2   2231 54.76                             110    -0.6 3  348 308 
 MON  HE ES   1   2232 33.31                             110    -0.1 5  348 308 
 MON  HZ I        2232 35.48         1.5 0.28                           348 308 
                                                                                
