 2016  325 2132 10.2 L   6.822 -73.161140.0  RSN  9 0.4 1.6LRSN                1
 GAP=134        0.90       3.1     3.9  7.8 -0.1256E+01  0.1251E+02  0.4772E+01E
 Epicentro: LOS SANTOS - SANTANDER                                             3
 ACTION:UPD 16-05-13 21:27 OP:cam  STATUS:               ID:20160325213210 L   I
 OLDACT:UP  16-03-26 06:37 OP:mh   STATUS:               ID:20160325212747     3
 OLDACT:UP  16-03-26 06:30 OP:mh   STATUS:               ID:20160325212747     3
 OLDACT:UP  16-03-26 06:26 OP:mh   STATUS:               ID:20160325212747     3
 OLDACT:REG 16-03-26 03:38 OP:mh   STATUS:               ID:20160325212747     3
 2016-03-25-2127-47M.COL___298                                                 6
 STAT SP IPHASW D HRMM SECON CODA AMPLIT PERI AZIMU VELO AIN AR TRES W  DIS CAZ7
 PAM  EZ EP       2132 32.00                             150    0.1910 76.6  42 
 PAM  EN ES       2132 48.87                             150    0.2510 76.6  42 
 PAM  EZ I        2132 50.83         5.5 0.50            154           76.6  42 
 RUS  HZ EP       2132 33.50                             142   -0.1310  103 175 
 RUS  HN ES       2132 52.00                             142    0.1410  103 175 
 RUS  HZ I        2132 53.19         2.7 0.26            146            103 175 
 PTB  HZ EP       2132 36.04                             131   -0.60 9  147 258 
 PTB  HN ES       2132 57.05                             131   -0.18 9  147 258 
 PTB  HZ I        2133  0.69         5.5 0.16            132            147 258 
 OCA  HN ES       2132 58.96                             129   -0.45 9  158 354 
 OCA  HZ I        2133  3.95        14.0 0.52            131            158 354 
 ZAR  HZ EP   1   2132 42.33                             122    0.27 6  202 292 
 ZAR  HN ES   1   2133  7.50                             122    0.62 6  202 292 
 ZAR  HZ I        2133 14.97         3.9 0.32            123            202 292 
 NOR  HZ EP   1   2132 44.99                             117   -0.66 6  235 234 
 NOR  HN ES   1   2133 13.80                             117    0.53 6  235 234 
 NOR  HZ I        2133 19.56         3.6 0.22            119            235 234 
 CHI  HZ EP   1   2132 48.26                             116    0.42 6  251 195 
 CHI  HE ES       2133 16.71                             116   -0.46 8  251 195 
 CHI  HZ I        2133 19.79         1.7 0.23            119            251 195 
 HEL  HE ES       2133 21.33                             114    0.22 8  271 255 
 GUY2CHZ EP   1   2132 54.62                             111    1.02 5  301 234 
 GUY2CHN ES   4   2133 28.65                             111    1.24 0  301 234 
 GUY2CHZ I        2133 33.07         2.0 0.28                           301 234 
                                                                                
