 2017 1225 2113 15.9 L   6.883 -73.141141.3  RSN 11 0.8 2.1LRSN                1
 GAP=102        1.57       7.4     6.4  9.1 -0.2514E+02  0.2131E+01  0.7930E+01E
 Epicentro: LOS SANTOS - SANTANDER                                             3
 ACTION:UPD 18-01-04 13:24 OP:rebc STATUS:               ID:20171225211315 L   I
 OLDACT:UP  17-12-26 06:13 OP:dani STATUS:               ID:20171225205711d    3
 OLDACT:UP  17-12-26 06:11 OP:dani STATUS:               ID:20171225205711d    3
 OLDACT:REG 17-12-26 04:15 OP:dani STATUS:               ID:20171225205711d    3
 2017-12-25-2108-00M.COL___463                                                 6
 STAT SP IPHASW D HRMM SECON CODA AMPLIT PERI AZIMU VELO AIN AR TRES W  DIS CAZ7
 BAR2 EZ EP       2113 35.18                             166   -0.0510 32.4 188 
 BAR2 EZ ES       2113 50.25                             166   -0.0510 32.4 188 
 BAR2 EZ I        2113 51.05        26.6 0.32            172           32.4 188 
 PAM  EZ EP       2113 37.94                             152    0.7010 70.2  44 
 PAM  EE ES       2113 54.75                             152    0.8810 70.2  44 
 PAM  EZ I        2113 56.95        23.5 0.52            144           70.2  44 
 PTB  HZ EP       2113 41.75                             130   -1.01 9  150 255 
 PTB  HN ES       2114  2.81                             130   -0.88 9  150 255 
 PTB  HZ I        2114  5.68        12.0 0.12            125            150 255 
 OCA  HZ EP   3   2113 44.05                             130    1.02 2  151 353 
 OCA  HZ I        2114  9.40        33.9 0.20            122            151 353 
 SPBC HZ EP       2113 44.53                             127   -0.27 9  171 217 
 SPBC HN ES       2114  6.50                             127   -0.84 9  171 217 
 SPBC HZ I        2114 13.27        21.1 0.32            125            171 217 
 YPLC HZ EP       2113 45.75                             124   -0.42 9  185 153 
 ZAR  HZ EP   1   2113 48.16                             122    0.38 6  201 290 
 ZAR  HN ES   1   2114 13.10                             122    0.46 6  201 290 
 URE  HN ES   3   2114 25.91                             113   -2.16 2  281 290 
 GUY2CHZ EP       2114  0.78                             111    0.80 7  307 233 
 GUY2CHN ES       2114 35.17                             111    0.83 7  307 233 
 GUY2CHZ I        2114 43.29         4.8 0.64                           307 233 
 SDV  BZ EP       2114  4.59                             108   -0.48 6  354  51 
 SDV  B2 ES       2114 42.45                             108   -0.96 6  354  51 
 SDV  BZ I        2114 44.74         2.5 0.35            104            354  51 
 PRA  HZ EP       2114 10.86                             105    0.61 6  400 209 
 PRA  HN ES       2114 54.53                             105    1.90 6  400 209 
 PRA  HZ I        2114 55.92         5.6 0.34            103            400 209 
                                                                                
