 2011  225 2233 53.8 L   6.725 -73.051142.9  RSN  5 0.1 2.1LRSN                1
 GAP=170        0.31       2.0     5.6  3.9 -0.5470E+01  0.9967E+01 -0.1852E+01E
 Epicentro: ARATOCA - SANTANDER                                                3
 ACTION:UP  11-03-28 15:11 OP:jfem STATUS:               ID:20110225223353 L   I
 2011-02-25-2231-06S.COL___136                                                 6
 STAT SP IPHASW D HRMM SECON CODA AMPLIT PERI AZIMU VELO SNR AR TRES W  DIS CAZ7
 BAR2 SZ IP       2234 12.92                             172    -0.110   21 225 
 BAR2 SZ ES   2   2234 27.89                             172    -0.1 5   21 225 
 BAR2 SZ I        2234 29.78        39.0 0.30                            21 225 
 RUS  HZ EP       2234 16.68                             145     0.010   92 182 
 RUS  HN ES   1   2234 34.57                             145     0.1 7   92 182 
 RUS  HZ I        2234 36.45        35.5 0.26                            92 182 
 GRA  SZ EP   1   2234 19.22                                     0.0 7  131  12 
 GRA  SZ ES   1   2234 39.10                             134     0.0 7  131  12 
 GRA  SZ I        2234 42.22        11.9 0.30                           131  12 
 CHI  HZ EP   2   2234 30.66                             117    -0.1 4  244 198 
 CHI  HE ES   3   2234 59.25                             117    -0.4 2  244 198 
 CHI  HZ I        2235  2.15         6.0 0.32                           244 198 
 HEL  HZ EP   1   2234 34.88                             113     0.1 6  280 258 
 HEL  HZ I        2235 12.20         9.7 0.38                           280 258 
                                                                                
