 2016  225 2053 39.5 L   6.797 -73.159143.6  RSN  8 0.3 1.9LRSN                1
 GAP=135        0.69       2.6     2.9  4.4 -0.8716E+00  0.4677E+01  0.9673E+00E
 Epicentro: LOS SANTOS - SANTANDER                                             3
 ACTION:UPD 16-03-04 21:29 OP:rebc STATUS:               ID:20160225205339 L   I
 OLDACT:REG 16-02-26 05:58 OP:cara STATUS:               ID:20160225205000     3
 2016-02-25-2049-59S.COL___208                                                 6
 STAT SP IPHASW D HRMM SECON CODA AMPLIT PERI AZIMU VELO AIN AR TRES W  DIS CAZ7
 BAR2 EZ IP       2053 58.73                             171   -0.1110 22.8 187 
 BAR2 EZ ES       2054 13.93                             171   -0.0110 22.8 187 
 BAR2 EZ I        2054 14.67        28.3 0.16            169           22.8 187 
 PAM  EZ EP       2054  1.57                             150    0.0310 78.6  40 
 PAM  EE ES       2054 18.91                             150    0.1610 78.6  40 
 PAM  EZ I        2054 19.66         6.9 0.14            154           78.6  40 
 RUS  HZ EP       2054  2.55                             143   -0.4610  100 175 
 RUS  HN ES       2054 21.54                             143    0.1910  100 175 
 RUS  HZ I        2054 22.14        10.8 0.28            145            100 175 
 PTB  HZ EP       2054  5.71                             132   -0.43 9  146 259 
 PTB  HN ES       2054 26.45                             132   -0.48 9  146 259 
 PTB  HZ I        2054 30.10        11.2 0.16            131            146 259 
 SPBC HZ EP       2054  7.69                             129   -0.02 9  162 219 
 SPBC HN ES       2054 29.86                             129    0.14 9  162 219 
 SPBC HZ I        2054 35.45        19.4 0.26            129            162 219 
 ZAR  HZ EP       2054 11.70                             122    0.03 9  203 292 
 ZAR  HN ES       2054 37.23                             122    0.46 9  203 292 
 ZAR  HZ I        2054 45.49        10.9 0.26            122            203 292 
 CHI  HZ EP       2054 17.32                             117    0.33 8  248 195 
 CHI  HN ES       2054 46.31                             117    0.08 8  248 195 
 CHI  HZ I        2054 50.12         5.5 0.74            118            248 195 
 GUY2CHZ EP       2054 23.12                             112    0.28 7  300 235 
 GUY2CHN ES       2054 56.92                             112    0.27 7  300 235 
 GUY2CHZ I        2055  3.29         3.6 0.44                           300 235 
                                                                                
