 2016  525 2348 19.6 L   6.779 -73.112150.9  RSN 10 0.4 2.2LRSN                1
 GAP=123        0.87       3.3     3.6  5.9 -0.9955E+00  0.2169E+01  0.7375E+01E
 Epicentro: LOS SANTOS - SANTANDER                                             3
 ACTION:UPD 16-08-18 17:49 OP:cam  STATUS:               ID:20160525234819 L   I
 OLDACT:REG 16-05-26 05:25 OP:dani STATUS:               ID:20160525233743     3
 2016-05-25-2337-43M.COL___319                                                 6
 STAT SP IPHASW D HRMM SECON CODA AMPLIT PERI AZIMU VELO AIN AR TRES W  DIS CAZ7
 BRR  HZ EP       2348 41.62                             152    0.0510 75.6 299 
 BRR  HN ES       2348 58.80                             152    0.1110 75.6 299 
 BRR  HZ I        2349  2.70        35.8 0.26            149           75.6 299 
 PAM  EZ EP       2348 42.79                             152    0.4310 77.0  36 
 PAM  EN ES       2348 59.79                             152   -0.3110 77.0  36 
 PAM  EZ I        2349  2.36        16.8 0.42            154           77.0  36 
 RUS  HZ EP       2348 43.85                             146    0.1510 98.0 178 
 RUS  HE ES       2349  2.60                             146    0.1110 98.0 178 
 RUS  HZ I        2349  3.88        18.1 0.30            148           98.0 178 
 PTB  HZ EP       2348 46.73                             132   -0.56 9  151 260 
 PTB  HN ES   4   2349  7.59                             132   -1.29 0  151 260 
 PTB  HZ I        2349 14.22        16.3 0.36            132            151 260 
 SPBC HZ EP       2348 48.76                             130    0.19 9  164 221 
 SPBC HN ES       2349 11.16                             130    0.01 9  164 221 
 SPBC HZ I        2349 15.69        28.8 0.22            130            164 221 
 NOR  HZ EP       2348 55.81                             119   -0.02 8  236 235 
 NOR  HE ES       2349 23.72                             119   -0.35 8  236 235 
 NOR  HZ I        2349 29.35         9.6 0.26            120            236 235 
 CHI  HZ EP       2348 58.04                             118    0.57 8  247 196 
 CHI  HE ES       2349 27.54                             118    0.55 8  247 196 
 CHI  HZ I        2349 31.15        11.3 0.46            120            247 196 
 HEL  HZ EP   4   2349  1.54                             115    1.11 0  275 256 
 HEL  HN ES       2349 32.06                             115   -0.20 8  275 256 
 HEL  HZ I        2349 36.21         6.4 0.46            116            275 256 
 PTGC HZ EP       2349  3.09                             113   -0.22 7  305 159 
 PTGC HN ES       2349 36.45                             113   -0.94 7  305 159 
 SJC  HZ EP   4   2349 12.25                             106   -3.57 0  413 327 
 SJC  HN ES   4   2349 54.21                             106   -5.45 0  413 327 
 SJC  HZ I        2350  9.90         3.4 0.42            107            413 327 
                                                                                
