 2012 1025 2225 25.0 L   6.808 -73.146148.8  RSN 11 0.4 3.0LRSN 3.3WRSN        1
 SPEC AVERAGE  MO 14.1 ST 27.1 OM  3.0 f0 5.38 R0.2758 AL 3.59 WI 11.6 MW  3.3 3
 SPEC SD       MO  0.3 ST  9.4 OM  0.8 f00.526 R0.0246 AL      WI      MW  0.2 3
 GAP=136        0.82       3.3     5.4  6.1  0.9232E+00  0.1217E+02  0.3046E+01E
 Epicentro: LOS SANTOS - SANTANDER                                             3
 SPEC PRA HH N MO 13.7 ST 17.9 OM  1.7 f0 6.27 R0.2344 AL 3.57 WI 13.0 MW  3.1 3
 SPEC PRA HH N T222659 K 0.000 GD  420 VS 4.20 DE 3.20 Q0230.0 QA 0.60 VS 4.20 3
 SPEC OCA HH N MO 14.3 ST 38.6 OM  2.6 f0 5.06 R0.2905 AL 2.95 WI 19.4 MW  3.5 3
 SPEC OCA HH N T222614 K 0.000 GD  217 VS 4.20 DE 3.20 Q0230.0 QA 0.60 VS 4.20 3
 SPEC RUS HH N MO 13.9 ST 17.8 OM  2.3 f0 5.24 R0.2805 AL 4.51 WI  6.3 MW  3.2 3
 SPEC RUS HH N T2226 6 K 0.000 GD  179 VS 4.20 DE 3.20 Q0230.0 QA 0.60 VS 4.20 3
 SPEC BRR HH N MO 14.3 ST 34.2 OM  2.7 f0 4.94 R0.2976 AL 3.32 WI  7.8 MW  3.5 3
 SPEC BRR HH N T2226 3 K 0.000 GD  164 VS 4.20 DE 3.20 Q0230.0 QA 0.60 VS 4.20 3
 ACTION:UPD 12-11-22 17:05 OP:ep   STATUS:               ID:20121025222525 L   I
 2012-10-25-2219-48M.COL___204                                                 6
 STAT SP IPHASW D HRMM SECON CODA AMPLIT PERI AZIMU VELO AIN AR TRES W  DIS CAZ7
 BAR2 SZ EP   1   2225 44.97                             170   -0.01 7 24.2 190 
 BAR2 SZ ES   1   2225 59.87                             170   -0.72 7 24.2 190 
 BAR2 SZ I        2226  1.31       439.9 0.22                          24.2 190 
 GIR2 SZ EP   1   2225 45.24                             168    0.26 7 30.4 350 
 BRR  HZ EP       2225 46.79                             153    0.3710 70.8 298 
 BRR  HZ I        2225 46.99       358.2 0.12                          70.8 298 
 BRR  HN ES   1   2226  4.07                             153    0.92 7 70.8 298 
 PAM  SZ EP   1   2225 47.93                             151    0.47 7 76.7  40 
 PAM  SN ES   1   2226  5.12                             151    0.11 7 76.7  40 
 PAM  SN I        2226  6.29       123.6 0.26                          76.7  40 
 RUS  HZ EP   1   2225 48.92                             144   -0.16 7  101 176 
 RUS  HN ES   1   2226  7.54                             144   -0.35 7  101 176 
 RUS  HN I        2226  8.52       178.6 0.22                           101 176 
 OCA  HZ EP   1   2225 53.31                             130   -0.12 7  159 353 
 OCA  HN ES   1   2226 14.84                             130   -0.79 7  159 353 
 ZAR  HZ EP   1   2225 57.29                             123   -0.29 6  204 292 
 ZAR  HN ES   1   2226 22.79                             123   -0.22 6  204 292 
 CHI  HZ EP   1   2226  3.16                             118    0.23 6  250 195 
 CHI  HZ I        2226  3.62        34.8 0.19                           250 195 
 CHI  HE ES   1   2226 32.63                             118    0.09 6  250 195 
 ROSC BZ EP   9   2226  4.73                             117    1.39 0  254 211 
 ROSC BE ES   9   2226 35.21                                    0.55 0  254 211 
 ROSC BZ I        2226 39.22        66.1 0.35                           254 211 
 DBB  SZ EP       2226 12.20                             110   -0.36 7  339 274 
 PRA  HZ EP   1   2226 18.67                             107   -0.01 4  393 210 
 PRA  HN ES   1   2227  0.70                             107    0.12 4  393 210 
 PRA  HZ I        2227  6.70        20.6 0.62                           393 210 
                                                                                
