 2012  225 2055 47.6 L   6.752 -73.212141.1  RSN  6 0.4 2.1LRSN                1
 GAP=128        0.83       4.9     6.2  7.4  0.4322E+01  0.2934E+00  0.4393E+01E
 ACTION:UP  12-03-07 16:34 OP:epov STATUS:               ID:20120225205547 L   I
 2012-02-25-2050-00M.COL___196                                                 6
 STAT SP IPHASW D HRMM SECON CODA AMPLIT PERI AZIMU VELO AIN AR TRES W  DIS CAZ7
 BAR2 SZ EP   1   2056  6.57                             173    0.04 7 18.0 170 
 BAR2 SZ ES   1   2056 21.37                             173    0.04 7 18.0 170 
 BAR2 SZ I        2056 22.74        59.6 0.29                          18.0 170 
 BRR  HZ EP       2056  8.27                             153    0.2610 67.8 305 
 BRR  HE ES   1   2056 24.62                             153    0.66 7 67.8 305 
 BRR  HZ I        2056 29.72        38.7 0.15                          67.8 305 
 PAM  SZ EP   1   2056  9.23                             147   -0.60 7 86.1  41 
 RUS  HZ EP   1   2056 10.45                             144   -0.08 7 96.2 171 
 RUS  HN ES   1   2056 28.23                             144   -0.22 7 96.2 171 
 RUS  HZ I        2056 29.95        14.5 0.28                          96.2 171 
 PTB  HZ EP   1   2056 13.40                             133    0.00 7  140 260 
 PTB  HN ES   1   2056 32.73                             133   -0.84 7  140 260 
 CHI  HZ EP   1   2056 24.77                             117    0.53 6  242 194 
 CHI  HE ES   1   2056 53.02                             117    0.16 6  242 194 
 CHI  HZ I        2057  1.20         5.5 0.29                           242 194 
                                                                                
