 2011  725 2350 28.2 L   6.771 -73.116151.3  RSN 11 0.3 2.4LRSN                1
 GAP=142        0.58       2.5     4.5  4.0 -0.4698E+01  0.9497E+00  0.1354E+01E
 Epicentro: LOS SANTOS - SANTANDER                                             3
 ACTION:UPD 12-07-25 14:03 OP:epov STATUS:               ID:20110725235028 L   I
 2011-07-25-2347-43S.COL___143                                                 6
 STAT SP IPHASW D HRMM SECON CODA AMPLIT PERI AZIMU VELO AIN AR TRES W  DIS CAZ7
 BAR2 SZ EP   1   2350 48.29                             172   -0.19 7 21.1 200 
 BAR2 SZ ES   1   2351  4.17                             172   -0.11 7 21.1 200 
 BAR2 SZ I        2351  5.09        48.1 0.37                          21.1 200 
 GIR2 SZ EP   1   2350 48.49                             166   -0.17 7 35.1 346 
 GIR2 SZ ES   1   2351  5.21                             166    0.61 7 35.1 346 
 BRR  HZ IP     C 2350 50.19                             152   -0.0410 75.7 299 
 BRR  HZ I        2350 50.51       139.1 0.17                          75.7 299 
 BRR  HE ES   1   2351  7.39                             152    0.01 7 75.7 299 
 PAM  SZ EP   1   2350 51.23                             152    0.17 7 77.9  36 
 PAM  SN ES   2   2351  9.02                             152    0.15 5 77.9  36 
 RUS  HZ EP   1   2350 52.47                             146    0.18 7 97.2 178 
 RUS  HN ES   1   2351 10.95                             146   -0.11 7 97.2 178 
 RUS  HZ I        2351 12.19        23.2 0.27                          97.2 178 
 BRI  SZ EP   1   2350 52.86                             142    0.07 7  110  19 
 BRI  SZ ES   1   2351 11.83                             142   -0.12 7  110  19 
 BRI  SZ I        2351 13.54        25.2 0.24                           110  19 
 GRA  SZ EP   1   2350 54.13                             138   -0.02 7  128  16 
 GRA  SZ ES   1   2351 13.83                             138   -0.53 7  128  16 
 GRA  SZ I        2351 14.79        37.6 0.32                           128  16 
 OCA  SZ EP   1   2350 57.02                             130   -0.29 7  164 352 
 OCA  SZ ES   1   2351 20.44                             130    0.45 7  164 352 
 OCA  SZ I        2351 24.78        44.2 0.27                           164 352 
 NOR  SN ES   1   2351 32.14                             120   -0.43 6  236 236 
 CHI  HZ EP   1   2351  5.90                             118   -0.10 6  246 196 
 CHI  HZ I        2351  8.39         8.8 0.14                           246 196 
 PRA  HZ EP   1   2351 22.74                             107    0.93 4  391 210 
 PRA  HN ES   2   2352  4.10                             107    0.49 3  391 210 
                                                                                
