 2011  925 2231 52.0 L   6.797 -73.104144.0  RSN  8 0.3 2.2LRSN                1
 GAP=187        0.41       2.5     4.3  4.8  0.4058E-01  0.3052E+01  0.3234E+00E
 Epicentro: LOS SANTOS - SANTANDER                                             3
 ACTION:UPD 12-07-13 15:59 OP:ep   STATUS:               ID:20110925223152 L   I
 2011-09-25-2226-29S.COL___165                                                 6
 STAT SP IPHASW D HRMM SECON CODA AMPLIT PERI AZIMU VELO AIN AR TRES W  DIS CAZ7
 BTL  SZ EP   1   2232 11.58                             171    0.20 7 22.5 306 
 BAR2 SZ EP   1   2232 11.45                             170    0.03 7 24.3 201 
 BAR2 SZ ES   2   2232 26.22                             170   -0.36 5 24.3 201 
 BAR2 SZ I        2232 27.73        37.3 0.21                          24.3 201 
 BRR  HZ EP   1   2232 13.17                             151   -0.02 7 75.5 297 
 BRR  HN ES   2   2232 30.25                             151    0.53 5 75.5 297 
 BRR  HZ I        2232 32.65        35.8 0.29                          75.5 297 
 RUS  HZ EP   2   2232 15.36                             144   -0.16 5  100 179 
 RUS  HN ES   2   2232 33.73                             144   -0.15 5  100 179 
 RUS  HZ I        2232 35.45        20.8 0.28                           100 179 
 OCA  SZ EP   1   2232 19.96                             129   -0.28 7  161 352 
 OCA  SZ ES   2   2232 42.44                             129    0.16 5  161 352 
 OCA  SZ I        2232 46.42        21.8 0.24                           161 352 
 ZAR  HN ES   2   2232 50.16                             121   -0.19 4  208 292 
 ZAR  HZ I        2232 55.85        19.5 0.25                           208 292 
 NOR  SZ EP   1   2232 28.08                             118    0.08 6  238 235 
 NOR  SN ES   2   2232 55.67                             118   -0.43 4  238 235 
 CHI  HZ EP   2   2232 29.77                             117    0.08 4  250 196 
 CHI  HE ES   2   2232 59.61                             117    0.51 4  250 196 
 CHI  HZ I        2233  6.25         8.3 0.54                           250 196 
                                                                                
