 2014  225 2105 13.5 L   6.812 -73.161146.6  RSN  8 0.5 1.8LRSN                1
 GAP=134        1.34       4.8     6.1  9.1  0.3553E+01  0.1607E+02  0.3001E+00E
 Epicentro: LOS SANTOS - SANTANDER                                             3
 ACTION:UPD 14-03-10 08:13 OP:ep   STATUS:               ID:20140225210513 L   I
 OLDACT:REG 14-02-26 00:39 OP:carl STATUS:               ID:20140225205950     3
 2014-02-25-2059-50M.COL___238                                                 6
 STAT SP IPHASW D HRMM SECON CODA AMPLIT PERI AZIMU VELO AIN AR TRES W  DIS CAZ7
 BAR2 SZ ES       21 5 48.21                             170   -0.4610 24.4 185 
 BAR2 SZ I        21 5 49.29        20.6 0.30            169           24.4 185 
 BRR  HN ES       21 5 52.16                             153    1.0610 69.0 298 
 BRR  HN I        21 5 55.41        32.5 0.20            152           69.0 298 
 PAM  SZ EP       21 5 36.27                             151    0.4610 77.5  41 
 PAM  SN ES       21 5 52.98                             151   -0.2410 77.5  41 
 PAM  SZ I        21 5 55.22         6.7 0.50            154           77.5  41 
 RUS  HZ EP       21 5 37.52                             144    0.0810  102 175 
 RUS  HN ES       21 5 56.06                             144   -0.0610  102 175 
 RUS  HZ I        21 5 57.96         5.0 0.20            144            102 175 
 PTB  HZ EP       21 5 39.66                             133   -0.75 9  146 258 
 PTB  HE ES       21 6  1.00                             133   -0.40 9  146 258 
 PTB  HZ I        21 6  3.60         6.8 0.18            132            146 258 
 ZAR  HZ EP       21 5 46.45                             123    0.67 9  202 292 
 ZAR  HN ES       21 6 11.07                             123    0.10 9  202 292 
 ZAR  HZ I        21 6 18.30         4.5 0.44            123            202 292 
 SML  HN ES       21 6 17.59                             118   -0.81 8  242 336 
 CHI  HN ES       21 6 21.03                             117    0.18 8  249 195 
 CHI  HZ I        21 6 28.08         2.9 0.46            118            249 195 
                                                                                
