 2016 1225 2149 33.4 L   6.775 -73.147150.8  RSN  4 0.2 0.9LRSN                1
 GAP=137        0.64       4.3     4.2  6.5  0.4124E+01 -0.6455E+01 -0.4950E+01E
 Epicentro: LOS SANTOS - SANTANDER                                             3
 ACTION:UPD 17-01-11 20:19 OP:rebc STATUS:               ID:20161225214933 L   I
 OLDACT:DUP 16-12-26 04:36 OP:and  STATUS:               ID:20161225214745d    3
 2016-12-25-2148-00M.COL___384                                                 6
 STAT SP IPHASW D HRMM SECON CODA AMPLIT PERI AZIMU VELO AIN AR TRES W  DIS CAZ7
 BRR  HZ EP       2149 55.38                             153    0.1810 72.4 301 
 BRR  HN ES       2150 12.01                             153   -0.1710 72.4 301 
 PAM  EZ IP     C 2149 56.39                             151    0.0710 79.6  38 
 RUS  HZ EP       2149 57.66                             146    0.1610 97.8 176 
 RUS  HN ES       2150 16.15                             146   -0.1110 97.8 176 
 RUS  HZ I        2150 18.27         1.2 0.21            144           97.8 176 
 PTB  HZ EP       2150  0.30                             133   -0.46 9  147 260 
 PTB  HE ES       2150 22.38                             133    0.31 9  147 260 
 PTB  HZ I        2150 26.68         1.2 0.35            132            147 260 
                                                                                
