 2017  325 2138 44.0 L   6.831 -73.197142.0  RSN  4 0.2 1.5LRSN                1
 GAP=147        0.57       3.4     3.3  4.9 -0.3556E+01  0.4809E+01 -0.1648E+01E
 Epicentro: ZAPATOCA - SANTANDER                                               3
 ACTION:UPD 17-05-25 18:45 OP:jn   STATUS:               ID:20170325213844 L   I
 OLDACT:UP  17-03-26 04:02 OP:edw  STATUS:               ID:20170325213515     3
 OLDACT:REG 17-03-26 03:15 OP:edw  STATUS:               ID:20170325213515     3
 2017-03-25-2138-00M.COL___373                                                 6
 STAT SP IPHASW D HRMM SECON CODA AMPLIT PERI AZIMU VELO AIN AR TRES W  DIS CAZ7
 BAR2 EZ ES       2139 17.91                             169   -0.3610 26.4 177 
 PAM  EZ EP       2139  5.93                             150    0.0110 78.6  44 
 PAM  EN ES       2139 23.15                             150    0.1610 78.6  44 
 PAM  EZ I        2139 25.03         5.0 0.56            152           78.6  44 
 RUS  HZ EP       2139  7.63                             142   -0.0710  104 173 
 RUS  HN ES       2139 26.38                             142    0.2210  104 173 
 RUS  HZ I        2139 27.87         5.9 0.34            144            104 173 
 PTB  HZ EP       2139 10.09                             132   -0.16 9  143 257 
 PTB  HN ES       2139 30.89                             132    0.19 9  143 257 
 PTB  HZ I        2139 33.57         4.1 0.34            133            143 257 
                                                                                
