 2014  725 2352 18.0 L   6.559 -73.612107.4  RSN  5 0.4 1.4LRSN                1
 GAP=127        0.94       6.6     4.5  9.5  0.1458E+02  0.9329E+01 -0.3896E+01E
 Epicentro: EL CARMEN - SANTANDER                                              3
 ACTION:UPD 15-03-16 20:47 OP:nd   STATUS:               ID:20140725235218 L   I
 OLDACT:UP  14-07-29 06:40 OP:FM   STATUS:               ID:20140725235218 L   3
 OLDACT:REG 14-07-26 05:09 OP:stll STATUS:               ID:20140725234818     3
 2014-07-25-2348-18M.COL___263                                                 6
 STAT SP IPHASW D HRMM SECON CODA AMPLIT PERI AZIMU VELO AIN AR TRES W  DIS CAZ7
 BAR2 SZ EP       2352 34.19                             154    0.1910 47.7  86 
 BAR2 SZ ES       2352 46.29                             154   -0.2110 47.7  86 
 BRR  HZ EP       2352 35.07                             148    0.5910 61.6 350 
 BRR  HZ I        2352 52.12         6.3 0.60            125           61.6 350 
 PTB  HZ EP       2352 37.01                             136    0.1010 93.4 269 
 PTB  HN ES       2352 51.80                             136    0.1110 93.4 269 
 PTB  HZ I        2352 53.19         6.7 0.12            126           93.4 269 
 RUS  HZ EP       2352 37.16                             136   -0.4710 94.1 142 
 RUS  HZ I        2352 38.36         3.7 0.10            131           94.1 142 
 RUS  HN ES       2352 53.04                             136    0.0810 94.1 142 
 ZAR  HN ES   1   2353  4.72                             117   -0.84 7  172 307 
 ZAR  HZ I        2353 10.81         3.7 0.44            107            172 307 
                                                                                
