 2017  125 2243 49.0 L   6.787 -73.141144.0  RSN  8 0.3 1.8LRSN                1
 GAP=138        0.74       3.2     3.1  4.9 -0.7818E+00  0.4261E+01 -0.1219E+01E
 Epicentro: LOS SANTOS - SANTANDER                                             3
 ACTION:UPD 17-05-22 16:03 OP:jn   STATUS:               ID:20170125224349 L   I
 OLDACT:DUP 17-01-26 04:14 OP:cara STATUS:               ID:20170125223749d    3
 OLDACT:DUP 17-01-26 03:48 OP:cara STATUS:               ID:20170125223748d    3
 2017-01-25-2238-00M.COL___354                                                 6
 STAT SP IPHASW D HRMM SECON CODA AMPLIT PERI AZIMU VELO AIN AR TRES W  DIS CAZ7
 BAR2 HZ EP       2244  8.32                             171   -0.0410 22.0 192 
 BAR2 HZ ES       2244 23.21                             171   -0.2810 22.0 192 
 BAR2 HZ I        2244 25.13        17.5 0.34            169           22.0 192 
 BRR  HZ EP       2244 10.38                             152    0.3910 72.4 299 
 BRR  HE ES       2244 26.85                             152    0.4610 72.4 299 
 BRR  HZ I        2244 32.62        11.2 0.15            150           72.4 299 
 PAM  EZ IP       2244 11.28                             150    0.2410 78.1  39 
 PAM  EE ES       2244 27.85                             150   -0.4110 78.1  39 
 PAM  EZ I        2244 29.66         6.8 0.46            155           78.1  39 
 RUS  HZ EP       2244 12.60                             144    0.1610 99.1 176 
 RUS  HN ES       2244 30.81                             144    0.0610 99.1 176 
 RUS  HZ I        2244 32.25         7.3 0.30            146           99.1 176 
 PTB  HZ EP       2244 15.49                             131   -0.33 9  148 259 
 PTB  HN ES       2244 36.94                             131    0.18 9  148 259 
 PTB  HZ I        2244 41.60         8.2 0.20            131            148 259 
 ZAR  HZ EP       2244 21.39                             122   -0.02 9  205 292 
 ZAR  HN ES       2244 46.42                             122   -0.29 9  205 292 
 ZAR  HZ I        2244 53.51        13.9 0.28            123            205 292 
 NOR  HE ES       2244 51.94                             118   -0.37 8  234 235 
 NOR  HZ I        2244 55.25         4.2 0.23            119            234 235 
 CHI  HZ EP   9   2244 26.69                             117    0.26 0  247 195 
 CHI  HE ES       2244 56.17                                    0.26 8  247 195 
 CHI  HZ I        2245  1.51         2.9 0.30            119            247 195 
                                                                                
