 2012  225 2214 21.9 L   6.696 -73.231147.8  RSN  4 0.3 1.7LRSN                1
 GAP=164        0.53       5.3     6.4  7.1  0.1645E+02 -0.2810E+01 -0.3117E+01E
 ACTION:UP  12-03-07 16:34 OP:epov STATUS:               ID:20120225221421 L   I
 2012-02-25-2210-00M.COL___192                                                 6
 STAT SP IPHASW D HRMM SECON CODA AMPLIT PERI AZIMU VELO AIN AR TRES W  DIS CAZ7
 GIR2 SZ EP   1   2214 41.71                             163   -0.44 7 42.6   6 
 BRR  HZ EP   1   2214 43.60                             153    0.42 7 69.9 311 
 BRR  HZ I        2214 43.99        13.2 0.25                          69.9 311 
 BRR  HE ES   1   2214 59.85                             153    0.05 7 69.9 311 
 RUS  HZ EP   1   2214 45.18                             147    0.05 7 90.3 170 
 RUS  HN ES   1   2215  3.30                             147    0.04 7 90.3 170 
 RUS  HZ I        2215  4.48         6.6 0.24                          90.3 170 
 PTB  HZ EP   1   2214 48.02                             135   -0.01 7  137 263 
 PTB  HN ES   2   2215  8.14                             135   -0.29 5  137 263 
                                                                                
