 2016 1125 2054 28.3 L   6.793 -73.156144.0  RSN 13 0.4 2.4LRSN                1
 GAP=100        0.97       4.0     3.0  5.8 -0.6880E+00  0.2725E+01  0.9038E+01E
 Epicentro: LOS SANTOS - SANTANDER                                             3
 ACTION:UPD 17-10-26 21:11 OP:lp   STATUS:               ID:20161125205428 L   I
 OLDACT:UP  16-11-26 03:28 OP:ar   STATUS:               ID:20161125204743     3
 OLDACT:UP  16-11-26 03:28 OP:ar   STATUS:               ID:20161125204743     3
 OLDACT:REG 16-11-26 03:01 OP:ar   STATUS:               ID:20161125204743     3
 2016-11-25-2048-00M.COL___349                                                 6
 STAT SP IPHASW D HRMM SECON CODA AMPLIT PERI AZIMU VELO AIN AR TRES W  DIS CAZ7
 BAR2 EZ EP       2054 47.52                             171   -0.1710 22.4 187 
 BAR2 EZ ES       2055  2.25                             171   -0.5710 22.4 187 
 BAR2 EZ I        2055  5.38        76.9 0.32            167           22.4 187 
 BRR  HZ EP       2054 49.50                             152    0.2910 70.5 300 
 BRR  HN ES       2055  6.41                             152    0.8810 70.5 300 
 BRR  HZ I        2055  7.36        28.9 0.20            152           70.5 300 
 PAM  EZ EP       2054 50.58                             150    0.1810 78.7  40 
 PAM  EN ES       2055  7.53                             150   -0.1110 78.7  40 
 PAM  EZ I        2055 10.75        22.9 0.50            154           78.7  40 
 PTB  HZ EP       2054 55.09                             132    0.10 9  146 259 
 PTB  HN ES       2055 15.13                             132   -0.69 9  146 259 
 PTB  HZ I        2055 21.50        24.3 0.28            130            146 259 
 TAM  HZ EP       2054 55.97                             130    0.06 9  156 105 
 TAM  HN ES       2055 17.50                             130    0.04 9  156 105 
 ZAR  HZ EP       2055  0.21                             122   -0.32 9  203 292 
 ZAR  HN ES       2055 25.46                             122   -0.23 9  203 292 
 ZAR  HZ I        2055 30.61        31.1 0.36            122            203 292 
 NOR  HZ EP       2055  3.30                             118   -0.46 8  233 234 
 NOR  HN ES       2055 32.07                             118    0.64 8  233 234 
 NOR  HZ I        2055 40.72        15.2 0.44            117            233 234 
 CHI  HZ EP       2055  5.81                             117    0.04 8  248 195 
 CHI  HN ES       2055 35.12                             117    0.11 8  248 195 
 CHI  HZ I        2055 38.88        15.3 0.50            116            248 195 
 PTGC HZ EP   4   2055 10.72                             111   -1.31 0  308 158 
 PTGC HN ES   4   2055 43.51                             111   -2.64 0  308 158 
 PTGC HZ I        2055 56.25        12.7 0.70            111            308 158 
 ELA  HZ EP   4   2055 17.52                             110    2.62 0  328 229 
 ELA  HN ES   4   2055 55.44                             110    4.18 0  328 229 
 ELA  HZ I        2056  4.42        10.6 0.48            109            328 229 
 ANIL HN ES   4   2055 58.57                             108    2.04 0  356 224 
 ORTC HZ EP       2055 22.03                             106    0.04 6  394 216 
 ORTC HN ES       2056  4.17                             106    0.29 6  394 216 
 ORTC HZ I        2056  8.87         8.9 0.22            106            394 216 
 SJC  HZ EP   4   2055 20.97                             105   -2.82 0  409 327 
 SJC  HE ES   4   2056  2.64                             105   -4.44 0  409 327 
 SJC  HZ I        2056 11.59         4.0 0.40            106            409 327 
 CRJC HZ EP   4   2055 27.94                             103   -2.90 0  468   4 
 CRJC HN ES   4   2056 15.70                             103   -3.93 0  468   4 
 CRJC HZ I        2056 22.93         7.6 0.32            104            468   4 
                                                                                
