 2013  725 2051 41.1 L   6.758 -73.170148.8  RSN  6 0.4 1.7LRSN                1
 GAP=178        0.94       4.9     6.1  6.0  0.7583E+01  0.3961E+01 -0.3215E+01E
 Epicentro: LOS SANTOS - SANTANDER                                             3
 ACTION:UPD 13-08-12 10:40 OP:ep   STATUS:               ID:20130725205141 L   I
 OLDACT:REG 13-07-25 23:03 OP:nd   STATUS:               ID:20130725204959     3
 2013-07-25-2049-59M.COL___266                                                 6
 STAT SP IPHASW D HRMM SECON CODA AMPLIT PERI AZIMU VELO AIN AR TRES W  DIS CAZ7
 BAR2 SZ EP     D 2052  1.21                             173    0.1610 18.4 184 
 BAR2 SZ ES       2052 16.26                             173   -0.3210 18.4 184 
 BAR2 SZ I        2052 17.98        10.7 0.16            170           18.4 184 
 GIR2 SZ EP       2052  1.20                             166   -0.1010 35.6 356 
 GIR2 SZ ES       2052 16.81                             166   -0.2110 35.6 356 
 GIR2 SZ I        2052 18.47         6.7 0.26            164           35.6 356 
 BRR  HZ IP     C 2052  3.01                             153    0.3810 71.2 303 
 BRR  HN ES       2052 20.09                             153    0.7110 71.2 303 
 BRR  HZ I        2052 24.96        10.2 0.26            149           71.2 303 
 RUS  HZ EP     D 2052  5.33                             146    0.4410 96.2 174 
 RUS  HN ES       2052 23.03                             146   -0.3810 96.2 174 
 RUS  HZ I        2052 24.83         6.5 0.26            148           96.2 174 
 PTB  HZ EP       2052  8.02                             133   -0.03 9  144 260 
 PTB  HN ES       2052 28.76                             133   -0.28 9  144 260 
 PTB  HZ I        2052 34.83         5.3 0.18            132            144 260 
 SML  HZ EP       2052 17.77                             118   -0.51 8  247 336 
 SML  HN ES   2   2052 46.73                             118   -0.52 4  247 336 
 SML  HZ I        2052 50.30         8.8 0.28            119            247 336 
                                                                                
