 2011 1025 2341 36.8 L   6.766 -73.134150.0  RSN  7 0.3 2.3LRSN                1
 GAP=140        0.69       3.3     4.7  6.0 -0.3466E+01  0.6093E+01 -0.6470E+00E
 Epicentro: LOS SANTOS - SANTANDER                                             3
 ACTION:UPD 12-07-13 16:06 OP:ep   STATUS:               ID:20111025234136 L   I
 2011-10-25-2339-13S.COL___176                                                 6
 STAT SP IPHASW D HRMM SECON CODA AMPLIT PERI AZIMU VELO AIN AR TRES W  DIS CAZ7
 BAR2 SZ EP       2341 56.98                             172    0.0710 20.0 196 
 BAR2 SZ ES   1   2342 12.14                             172   -0.43 7 20.0 196 
 BAR2 SZ I        2342 13.86        34.1 0.14                          20.0 196 
 BRR  HZ IP     C 2341 58.86                             152    0.2510 74.2 301 
 BRR  HE ES   1   2342 16.19                             152    0.59 7 74.2 301 
 BRR  HZ I        2342 17.43        24.6 0.18                          74.2 301 
 PAM  SZ EP       2341 59.74                             151    0.1110 79.5  37 
 PAM  SN ES   1   2342 17.01                             151   -0.39 7 79.5  37 
 RUS  HZ EP   1   2342  0.48                             146   -0.26 7 96.8 177 
 RUS  HE ES   1   2342 19.65                             146    0.27 7 96.8 177 
 RUS  HZ I        2342 22.37        23.0 0.43                          96.8 177 
 OCA  SZ EP   1   2342  5.70                             130   -0.14 7  164 353 
 OCA  SZ ES   1   2342 28.46                             130    0.00 7  164 353 
 OCA  SZ I        2342 32.17        30.0 0.22                           164 353 
 ZAR  HE ES   2   2342 34.61                             123   -0.96 4  207 293 
 ZAR  HZ I        2342 41.60        14.9 0.22                           207 293 
 RREF HE ES       2342 58.89                             112   -0.13 7  320 230 
 RREF HZ I        2343  8.60        12.0 0.34                           320 230 
                                                                                
