 2017  225 2059 49.5 L   6.743 -73.149153.8  RSN  5 0.4 1.5LRSN                1
 GAP=139        1.10       6.1     5.9  8.0 -0.3371E+01  0.5143E+01  0.1514E+01E
 Epicentro: LOS SANTOS - SANTANDER                                             3
 ACTION:UPD 17-05-24 15:40 OP:jn   STATUS:               ID:20170225205949 L   I
 OLDACT:REG 17-02-26 09:17 OP:ar   STATUS:               ID:20170225205742     3
 2017-02-25-2058-00M.COL___382                                                 6
 STAT SP IPHASW D HRMM SECON CODA AMPLIT PERI AZIMU VELO AIN AR TRES W  DIS CAZ7
 BAR2 EZ EP       21 0 10.08                             173    0.1110 17.1 192 
 BAR2 EZ ES       21 0 25.75                             173   -0.2010 17.1 192 
 BAR2 EZ I        21 0 25.99        10.0 0.26            172           17.1 192 
 BRR  HZ EP       21 0 11.79                             153    0.1310 74.1 303 
 BRR  HN ES       21 0 29.85                             153    0.9010 74.1 303 
 PAM  EZ EP       21 0 12.83                             151   -0.0210 82.5  37 
 PAM  EN ES       21 0 30.58                             151   -0.5110 82.5  37 
 PAM  EZ I        21 0 32.56         2.4 0.16            153           82.5  37 
 RUS  HZ EP       21 0 13.94                             147    0.3410 94.4 176 
 RUS  HN ES       21 0 32.46                             147    0.0410 94.4 176 
 RUS  HZ I        21 0 33.78         4.2 0.28            148           94.4 176 
 PTB  HZ EP       21 0 16.74                             134   -0.24 9  146 261 
 PTB  HN ES       21 0 37.77                             134   -0.66 9  146 261 
 PTB  HZ I        21 0 43.64         6.5 0.46            133            146 261 
                                                                                
