 2013 1025 2258  3.9 L   6.811 -73.099149.1  RSN  5 0.4 1.5LRSN                1
 GAP=205        0.69       4.2     7.0 11.6  0.7952E+01 -0.6668E+01 -0.2987E+02E
 Epicentro: LOS SANTOS - SANTANDER                                             3
 ACTION:UPD 13-11-25 09:23 OP:ep   STATUS:               ID:20131025225803 L   I
 OLDACT:REG 13-10-26 05:48 OP:mh   STATUS:               ID:20131025225640     3
 2013-10-25-2256-40M.COL___230                                                 6
 STAT SP IPHASW D HRMM SECON CODA AMPLIT PERI AZIMU VELO AIN AR TRES W  DIS CAZ7
 RUS  HZ EP   1   2258 28.19                             144    0.13 8  102 179 
 RUS  HN ES   1   2258 46.79                             144   -0.11 8  102 179 
 RUS  HZ I        2258 49.03         2.5 0.26            155            102 179 
 PTB  HZ EP       2258 31.32                             132   -0.3010  153 259 
 PTB  HN ES   2   2258 52.34                             132   -0.90 5  153 259 
 PTB  HZ I        2258 55.33         2.9 0.25            139            153 259 
 SPBC HN ES   1   2258 56.28                             129    0.48 7  167 220 
 ZAR  HN ES   2   2259  3.64                             123    0.80 5  208 291 
 SML  HZ EP       2258 40.88                             118    0.04 9  245 334 
 SML  HE ES       2259  9.72                             118    0.07 9  245 334 
 SML  HZ I        2259 17.80         4.7 0.09            123            245 334 
                                                                                
