 2017  225 2101 23.4 L   6.797 -73.149148.8  RSN  5 0.3 1.3LRSN                1
 GAP=136        0.80       7.2     4.7  8.1 -0.1341E+02 -0.2942E+01  0.2149E+02E
 Epicentro: LOS SANTOS - SANTANDER                                             3
 ACTION:UPD 17-05-24 15:40 OP:jn   STATUS:               ID:20170225210123 L   I
 OLDACT:DUP 17-02-26 09:50 OP:ar   STATUS:               ID:20170225205743d    3
 OLDACT:REG 17-02-26 09:17 OP:ar   STATUS:               ID:20170225205742     3
 2017-02-25-2058-00M.COL___382                                                 6
 STAT SP IPHASW D HRMM SECON CODA AMPLIT PERI AZIMU VELO AIN AR TRES W  DIS CAZ7
 BAR2 EZ EP       21 1 43.36                             171    0.0010 22.9 189 
 BAR2 EZ I        21 2  0.47         5.6 0.70            164           22.9 189 
 BRR  HZ EP       21 1 44.96                             153    0.1210 71.0 299 
 BRR  HN ES       21 2  2.12                             153    0.5310 71.0 299 
 PAM  EZ EP       21 1 46.10                             151    0.1610 77.9  40 
 PAM  EN ES       21 2  3.11                             151   -0.4410 77.9  40 
 PAM  EZ I        21 2  5.02         3.5 0.50            148           77.9  40 
 RUS  HZ EP   2   21 1 47.53                             145    0.13 5  100 176 
 RUS  HN ES   2   21 2  6.44                             145    0.30 5  100 176 
 RUS  HZ I        21 2  7.81         2.6 0.48            137            100 176 
 PTB  HZ EP       21 1 50.50                             133   -0.05 9  147 259 
 PTB  HN ES       21 2 11.23                             133   -0.51 9  147 259 
 PTB  HZ I        21 2 12.65         3.3 0.18            131            147 259 
                                                                                
