 2011  725 2003 30.1 L   6.769 -73.106150.3  RSN  6 0.2 2.1LRSN                1
 GAP=161        0.48       2.3     4.1  4.2 -0.2888E+01  0.2602E+01 -0.4758E+00E
 Epicentro: LOS SANTOS - SANTANDER                                             3
 ACTION:UPD 12-07-25 14:03 OP:epov STATUS:               ID:20110725200330 L   I
 2011-07-25-2001-58S.COL___141                                                 6
 STAT SP IPHASW D HRMM SECON CODA AMPLIT PERI AZIMU VELO AIN AR TRES W  DIS CAZ7
 BAR2 SZ EP   1   20 3 50.17                             172   -0.10 7 21.3 203 
 BAR2 SZ ES   1   20 4  5.91                             172   -0.06 7 21.3 203 
 BAR2 SZ I        20 4  6.70        44.9 0.20                          21.3 203 
 BRR  HZ EP   1   20 3 52.05                             151   -0.03 7 76.7 299 
 BRR  HN ES   1   20 4  9.45                             151    0.25 7 76.7 299 
 BRR  HZ I        20 4 10.40        36.1 0.10                          76.7 299 
 RUS  HZ EP   1   20 3 54.04                             146   -0.04 7 97.0 179 
 RUS  HE ES   1   20 4 12.88                             146    0.12 7 97.0 179 
 RUS  HZ I        20 4 14.53        21.0 0.52                          97.0 179 
 BRI  SZ EP   1   20 3 54.96                             142    0.37 7  110  18 
 BRI  SZ ES   1   20 4 13.30                             142   -0.36 7  110  18 
 BRI  SZ I        20 4 18.85         8.7 0.44                           110  18 
 OCA  SZ EP   1   20 3 59.46                             130    0.29 7  164 352 
 OCA  SZ ES   1   20 4 21.62                             130   -0.19 7  164 352 
 OCA  SZ I        20 4 27.46        15.2 0.19                           164 352 
 NOR  SZ EP   1   20 4  5.93                             119   -0.38 6  236 236 
 NOR  SN ES   1   20 4 34.52                             119    0.00 6  236 236 
                                                                                
