 2010 1025 2230 24.8 L   6.755 -73.120145.9  RSN 11 0.3 2.2LRSN                1
 GAP=138        0.67       2.8     5.1  6.1 -0.1700E+01  0.1635E+01 -0.4736E+00E
 Epicentro: LOS SANTOS - SANTANDER                                             3
 ACTION:UP  11-02-18 11:12 OP:tino STATUS:               ID:20101025223024 L   I
 2010-10-25-2227-16S.COL___125                                                 6
 STAT SP IPHASW D HRMM SECON CODA AMPLIT PERI AZIMU VELO SNR AR TRES W  DIS CAZ7
 BAR2 SZ IP       2230 44.34                             172    -0.110   19 201 
 BAR2 SZ I        2230 44.61        54.8 0.18                            19 201 
 BRR  HZ IP     D 2230 46.45                             151     0.210   76 301 
 BRR  HZ I        2230 46.85        79.7 0.30                            76 301 
 BRR  HN ES   1   2231  3.25                             151     0.2 7   76 301 
 RUS  HZ IP     D 2230 48.10                             145    -0.110   95 178 
 RUS  HN ES   1   2231  6.50                             145     0.0 7   95 178 
 RUS  HZ I        2231  7.88        39.8 0.30                            95 178 
 GUE  SZ EP   1   2230 49.81                             138    -0.1 7  121  10 
 GRA  SZ IP       2230 50.61                             136     0.210  130  16 
 GRA  SZ I        2230 51.90        26.5 0.23                           130  16 
 OCA  SZ EP   1   2230 53.44                             129    -0.2 7  166 352 
 OCA  SZ ES   2   2231 15.29                             129    -0.8 5  166 352 
 OCA  SZ I        2231 25.55        26.2 0.21                           166 352 
 YOP  SZ EP   2   2230 54.88                             127     0.6 4  173 153 
 NOR  SZ EP   1   2231  0.05                             119    -0.5 6  234 236 
 NOR  SE ES   2   2231 28.00                             119    -0.4 4  234 236 
 NOR  SZ I        2231 34.77         3.4 0.20                           234 236 
 CHI  HZ EP   1   2231  2.23                             118     0.1 6  245 196 
 CHI  HE ES   1   2231 30.83                             118    -0.3 6  245 196 
 CHI  HZ I        2231 34.29         9.0 0.35                           245 196 
 HEL  HZ EP   1   2231  5.74                             115     0.5 6  274 257 
 HEL  HZ I        2231 42.92        14.1 0.47                           274 257 
 DBB  SZ EP   1   2231 12.63                             109     0.0 5  343 275 
 DBB  SZ I        2231 16.81         1.3 0.62                           343 275 
                                                                                
