 2013  625 2331 31.1 L   6.697 -73.197152.4  RSN  4 0.1 1.1LRSN                1
 GAP=223        0.41       3.9     3.5  3.9  0.7601E+01  0.1937E+01  0.1366E+00E
 Epicentro: VILLANUEVA - SANTANDER                                             3
 ACTION:UPD 14-01-08 09:57 OP:ep   STATUS:               ID:20130625233131 L   I
 OLDACT:REG 13-06-26 01:31 OP:cam  STATUS:               ID:20130625232959     3
 2013-06-25-2329-59M.COL___267                                                 6
 STAT SP IPHASW D HRMM SECON CODA AMPLIT PERI AZIMU VELO AIN AR TRES W  DIS CAZ7
 BAR2 SZ ES   1   2332  7.12                             175   -0.04 7 11.7 172 
 BRR  HZ EP   1   2331 52.80                             153   -0.26 7 72.8 309 
 BRR  HE ES   1   2332 10.36                             153    0.17 7 72.8 309 
 RUS  HZ EP       2331 54.79                             148    0.0010 89.8 172 
 RUS  HN ES       2332 13.27                             148    0.0110 89.8 172 
 RUS  HZ I        2332 14.73         1.7 0.24            145           89.8 172 
 PTB  HZ EP       2331 58.16                             135    0.19 9  140 263 
 PTB  HN ES       2332 18.81                             135   -0.12 9  140 263 
 PTB  HZ I        2332 24.65         1.7 0.26            131            140 263 
                                                                                
