 2014  525 2232 22.0 L   7.508 -73.193129.9  RSN  4 0.4 1.8LRSN                1
 GAP=266        1.01       5.1     9.6 10.3 -0.5154E+01 -0.1400E+02 -0.1238E+02E
 Epicentro: EL PLAYON - SANTANDER                                              3
 ACTION:UPD 15-03-16 17:00 OP:nd   STATUS:               ID:20140525223222 L   I
 OLDACT:DUP 14-05-26 06:58 OP:carl STATUS:               ID:20140525222820d    3
 2014-05-25-2228-19M.COL___227                                                 6
 STAT SP IPHASW D HRMM SECON CODA AMPLIT PERI AZIMU VELO AIN AR TRES W  DIS CAZ7
 BRR  HZ EP       2232 41.66                             149    0.1810 72.4 232 
 BRR  HN ES       2232 56.97                             149    0.2510 72.4 232 
 BRR  HZ I        2232 57.72        17.5 0.12            148           72.4 232 
 SML  HZ EP       2232 50.11                             123   -0.00 9  173 326 
 SML  HN ES       2233 11.60                             123   -0.48 9  173 326 
 SML  HZ I        2233 15.84        10.8 0.28            123            173 326 
 PTB  HZ EP       2232 50.26                             123   -0.21 9  176 233 
 PTB  HN ES       2233 11.94                             123   -0.78 9  176 233 
 PTB  HZ I        2233 13.49         5.8 0.30            123            176 233 
 ZAR  HZ EP       2232 51.71                             122    0.44 9  184 270 
 ZAR  HN ES       2233 14.66                             122    0.52 9  184 270 
 ZAR  HZ I        2233 18.13         5.3 0.14            121            184 270 
                                                                                
