 2011 1125 2008 25.0 L   6.788 -73.136143.8  RSN  9 0.4 2.6LRSN                1
 GAP=138        0.86       3.3     5.0  6.5 -0.1362E+01  0.7222E+01  0.3513E+01E
 Epicentro: LOS SANTOS - SANTANDER                                             3
 ACTION:UPD 12-07-13 16:12 OP:ep   STATUS:               ID:20111125200825 L   I
 2011-11-25-2005-04S.COL___167                                                 6
 STAT SP IPHASW D HRMM SECON CODA AMPLIT PERI AZIMU VELO AIN AR TRES W  DIS CAZ7
 BAR2 SZ IP       20 8 44.64                             171    0.2310 22.2 193 
 BAR2 SZ ES   1   20 8 59.61                             171    0.09 7 22.2 193 
 BAR2 SZ I        20 9  0.89       121.5 0.19                          22.2 193 
 BRR  HZ EP   1   20 8 46.53                             152    0.47 7 72.8 299 
 BRR  HN ES   1   20 9  3.14                             152    0.68 7 72.8 299 
 BRR  HZ I        20 9  5.87       143.1 0.16                          72.8 299 
 PAM  SZ EP       20 8 47.44                             150    0.3810 77.8  38 
 PAM  SN ES   1   20 9  3.57                             150   -0.68 7 77.8  38 
 RUS  HZ EP       20 8 48.63                             144    0.1410 99.2 177 
 RUS  HN ES   1   20 9  6.37                             144   -0.41 7 99.2 177 
 RUS  HZ I        20 9  8.69        32.4 0.26                          99.2 177 
 OCA  SZ EP   1   20 8 52.57                             129   -0.76 7  162 353 
 OCA  SZ ES   1   20 9 15.19                             129   -0.21 7  162 353 
 OCA  SZ I        20 9 19.74        49.9 0.19                           162 353 
 ZAR  HZ EP   1   20 8 57.23                             122   -0.27 6  206 292 
 ZAR  HN ES   1   20 9 22.81                             122   -0.02 6  206 292 
 ZAR  HZ I        20 9 28.58        70.4 0.32                           206 292 
 NOR  SN ES   1   20 9 27.58                             118   -0.86 6  235 235 
 CHI  HZ EP   1   20 9  2.35                             117   -0.16 6  248 195 
 CHI  HN ES   1   20 9 31.64                             117   -0.10 6  248 195 
 CHI  HZ I        20 9 39.63        17.6 0.38                           248 195 
 PRA  HZ EP   1   20 9 19.14                             106    0.73 4  391 210 
 PRA  HN ES   1   2010  0.09                             106    0.05 4  391 210 
                                                                                
