 2015  225 2235  2.4 L   6.802 -73.358117.6  RSN  4 0.4 1.6LRSN                1
 GAP=116        1.06       8.9     5.2  8.6 -0.2107E+02  0.5868E+01 -0.4699E+00E
 Epicentro: ZAPATOCA - SANTANDER                                               3
 ACTION:UPD 15-04-30 21:29 OP:nd   STATUS:               ID:20150225223502 L   I
 OLDACT:REG 15-02-26 02:57 OP:fm   STATUS:               ID:20150225222746     3
 2015-02-25-2227-46M.COL___296                                                 6
 STAT SP IPHASW D HRMM SECON CODA AMPLIT PERI AZIMU VELO AIN AR TRES W  DIS CAZ7
 BAR2 EZ EP       2235 19.25                             165    0.4510 30.3 140 
 BAR2 EZ ES       2235 31.63                             165   -0.0010 30.3 140 
 BAR2 EZ I        2235 33.82        17.6 0.26            171           30.3 140 
 BRR  HZ EP       2235 19.73                             155    0.3710 51.7 311 
 BRR  HN ES       2235 33.04                             155    0.4210 51.7 311 
 BRR  HZ I        2235 37.12        11.0 0.40            154           51.7 311 
 PAM  SZ EP       2235 22.54                             139   -0.3610 93.9  51 
 PAM  SE ES       2235 38.56                             139   -0.3710 93.9  51 
 PAM  SZ I        2235 40.97         8.2 0.28            143           93.9  51 
 PTB  HZ EP       2235 25.13                             130    0.1710  125 257 
 PTB  HN ES       2235 41.87                             130   -0.7210  125 257 
 PTB  HZ I        2235 46.43         5.4 0.24            133            125 257 
                                                                                
