 2014  825 2000 39.1 L   6.836 -73.177137.1  RSN  9 0.5 2.1LRSN                1
 GAP=131        1.19       4.0     4.6  7.0 -0.1841E+01  0.1181E+02 -0.2356E+01E
 Epicentro: ZAPATOCA - SANTANDER                                               3
 ACTION:UPD 14-09-15 21:53 OP:nd   STATUS:               ID:20140825200039 L   I
 OLDACT:REG 14-08-26 02:29 OP:cam  STATUS:               ID:20140825200000     3
 2014-08-25-2000-00M.COL___288                                                 6
 STAT SP IPHASW D HRMM SECON CODA AMPLIT PERI AZIMU VELO AIN AR TRES W  DIS CAZ7
 BAR2 SZ EP     C 20 0 57.87                             168    0.0510 27.0 181 
 BAR2 SZ ES       20 1 12.04                             168   -0.3510 27.0 181 
 BAR2 SZ I        20 1 14.90        46.3 0.64            170           27.0 181 
 BRR  HZ EP     C 20 0 59.41                             153    0.3410 66.2 297 
 BRR  HN ES       20 1 14.92                             153    0.3010 66.2 297 
 BRR  HZ I        20 1 17.01        29.6 0.30            151           66.2 297 
 PAM  SZ EP       20 1  0.64                             149    0.2410 76.7  43 
 PAM  SN ES       20 1 17.57                             149    0.5910 76.7  43 
 PAM  SZ I        20 1 19.89        23.2 0.52            153           76.7  43 
 RUS  HZ EP       20 1  1.86                             141   -0.5210  105 174 
 RUS  HN ES       20 1 20.36                             141   -0.1510  105 174 
 RUS  HZ I        20 1 21.99         6.4 0.12            145            105 174 
 PTB  HZ EP       20 1  4.38                             130   -0.80 9  145 257 
 PTB  HN ES       20 1 25.07                             130   -0.42 9  145 257 
 PTB  HZ I        20 1 27.90        20.9 0.14            131            145 257 
 ZAR  HZ EP       20 1 11.05                             121    0.51 9  199 291 
 ZAR  HN ES       20 1 35.32                             121    0.29 9  199 291 
 ZAR  HZ I        20 1 45.14        10.7 0.10            122            199 291 
 NOR  HZ ES       20 1 41.73                             117   -0.06 8  234 233 
 NOR  HZ I        20 1 45.62        11.1 0.44            119            234 233 
 SML  HZ EP     C 20 1 14.47                             116   -0.26 8  239 336 
 SML  HN ES       20 1 41.55                             116   -0.95 8  239 336 
 SML  HZ I        20 1 45.27        20.1 0.10            118            239 336 
 GUY2CHZ EP       20 1 23.30                             111    0.99 7  301 234 
 GUY2CHN ES       20 1 56.52                             111    0.54 7  301 234 
 GUY2CHZ I        20 2  4.00         7.8 0.38                           301 234 
                                                                                
