 2011  725 2100 20.2 L   6.748 -73.100145.7  RSN  5 0.4 1.5LRSN                1
 GAP=162        0.71       4.4     6.5  7.9 -0.9473E+01 -0.2035E+01  0.2807E+01E
 Epicentro: LOS SANTOS - SANTANDER                                             3
 ACTION:UPD 12-07-25 14:03 OP:epov STATUS:               ID:20110725210020 L   I
 2011-07-25-2057-11S.COL___143                                                 6
 STAT SP IPHASW D HRMM SECON CODA AMPLIT PERI AZIMU VELO AIN AR TRES W  DIS CAZ7
 BAR2 SZ EP   1   21 0 39.65                             172   -0.06 7 19.5 208 
 BAR2 SZ I        21 0 40.01        12.4 0.10                          19.5 208 
 BAR2 SZ ES   1   21 0 54.36                             172   -0.60 7 19.5 208 
 BRR  HN ES   1   21 0 58.60                             150    0.05 7 78.5 300 
 RUS  HZ EP   1   21 0 43.48                             145    0.00 7 94.6 179 
 RUS  HN ES   1   21 1  2.06                             145    0.38 7 94.6 179 
 RUS  HZ I        21 1  2.90         3.1 0.31                          94.6 179 
 BRI  SZ EP   1   21 0 43.93                             140   -0.40 7  112  17 
 BRI  SZ ES   1   21 1  3.71                             140    0.52 7  112  17 
 BRI  SZ I        21 1  4.66         5.7 0.28                           112  17 
 NOR  SE ES   1   21 1 24.09                             118    0.16 6  236 236 
                                                                                
