 2016  125 2340 15.7 L   6.807 -73.153149.3  RSN 13 0.4 2.3LRSN                1
 GAP=135        0.99       2.6     4.3  6.6 -0.1358E+01  0.8515E+01  0.4789E+00E
 Epicentro: LOS SANTOS - SANTANDER                                             3
 ACTION:UPD 16-03-09 23:28 OP:cam  STATUS:               ID:20160125234015 L   I
 OLDACT:UP  16-02-23 20:55 OP:AR   STATUS:               ID:20160125234015 L   3
 OLDACT:REG 16-01-26 04:49 OP:mh   STATUS:               ID:20160125233745     3
 2016-01-25-2337-45M.COL___327                                                 6
 STAT SP IPHASW D HRMM SECON CODA AMPLIT PERI AZIMU VELO AIN AR TRES W  DIS CAZ7
 BAR2 EZ EP   1   2340 35.67                             170   -0.05 7 24.0 188 
 BAR2 EZ I        2340 53.44        18.1 0.23            167           24.0 188 
 PAM  EZ EP       2340 38.77                             151    0.5310 77.3  40 
 PAM  EN ES       2340 56.03                             151    0.1710 77.3  40 
 PAM  EZ I        2340 57.84        19.2 0.50            151           77.3  40 
 RUS  HZ EP       2340 39.34                             144   -0.4710  101 176 
 RUS  HN ES       2340 58.12                             144   -0.5310  101 176 
 RUS  HZ I        2340 59.04        12.6 0.38            140            101 176 
 PTB  HZ EP       2340 42.56                             133   -0.29 9  147 258 
 PTB  HN ES       2341  3.84                             133   -0.22 9  147 258 
 PTB  HZ I        2341 10.89        22.4 0.50            128            147 258 
 OCA  HZ EP       2340 44.31                             130    0.15 9  159 353 
 OCA  HN ES       2341  6.54                             130    0.15 9  159 353 
 OCA  HZ I        2341 11.55        49.6 0.20            127            159 353 
 SPBC HZ EP   1   2340 44.52                             130    0.09 7  163 219 
 SPBC HN ES       2341  6.86                             130   -0.02 9  163 219 
 SPBC HZ I        2341 13.51        30.8 0.26            125            163 219 
 ZAR  HZ EP       2340 47.35                             123   -0.87 9  203 292 
 ZAR  HN ES       2341 14.03                             123    0.41 9  203 292 
 ZAR  HZ I        2341 19.04        25.4 0.40            119            203 292 
 NOR  HZ EP   1   2340 51.66                             119    0.09 6  234 234 
 NOR  HZ I        2341 26.77        12.7 0.36            115            234 234 
 SML  HZ EP       2340 51.64                             118   -0.73 8  243 335 
 SML  HN ES       2341 21.33                             118    0.33 8  243 335 
 SML  HZ I        2341 25.16        30.4 0.10            115            243 335 
 CHI  HZ EP   1   2340 53.73                             118    0.12 6  249 195 
 CHI  HN ES       2341 23.97                             118    0.76 8  249 195 
 CHI  HZ I        2341 28.75         7.8 0.30            114            249 195 
 ROSC BZ EP       2340 54.19                             117    0.20 8  253 211 
 ROSC BN ES   4   2341 26.34                             117    2.44 0  253 211 
 GUY2CHZ EP   1   2341  0.06                             113    0.66 5  301 235 
 GUY2CHN ES   4   2341 36.70                             113    3.18 0  301 235 
 SOCV BZ EP   4   2340 57.18                             113   -1.72 0  302  57 
 SOCV BN ES   4   2341 28.07                             113   -4.56 0  302  57 
 DBB  SZ EP   4   2341  2.04                             110   -1.13 0  339 274 
 PRA  HZ EP   4   2341  3.13                             107   -6.20 0  392 209 
 PRA  HE ES       2341 51.85                             107    0.66 6  392 209 
 PRA  HZ I        2341 58.99         8.2 0.24            104            392 209 
                                                                                
