 2011  925 2255 50.8 L   6.763 -73.127140.0  RSN  8 0.3 2.0LRSN                1
 GAP=185        0.44       3.1     4.0  5.5  0.6593E-01  0.7179E+01 -0.1457E+01E
 Epicentro: LOS SANTOS - SANTANDER                                             3
 ACTION:UPD 12-07-13 15:59 OP:ep   STATUS:               ID:20110925225550 L   I
 2011-09-25-2240-00M.COL___167                                                 6
 STAT SP IPHASW D HRMM SECON CODA AMPLIT PERI AZIMU VELO AIN AR TRES W  DIS CAZ7
 BAR2 SZ EP   1   2256  9.37                             172   -0.31 7 19.8 198 
 BAR2 SZ ES   2   2256 24.43                             172    0.03 5 19.8 198 
 BAR2 SZ I        2256 27.72        27.5 0.66                          19.8 198 
 BTL  SZ EP   1   2256 10.03                             170    0.28 7 23.2 318 
 BRR  HZ IP     C 2256 11.37                             150   -0.2010 75.0 301 
 BRR  HE ES   2   2256 28.07                             150    0.31 5 75.0 301 
 BRR  HZ I        2256 29.57        33.1 0.23                          75.0 301 
 RUS  HZ EP   2   2256 13.46                             144   -0.23 5 96.4 177 
 RUS  HN ES   2   2256 31.76                             144    0.22 5 96.4 177 
 RUS  HZ I        2256 33.59         6.7 0.41                          96.4 177 
 OCA  SZ EP   2   2256 19.66                             128    0.56 5  165 353 
 OCA  SZ ES   2   2256 41.17                             128    0.01 5  165 353 
 OCA  SZ I        2256 44.48        14.3 0.37                           165 353 
 ZAR  HZ EP   2   2256 23.12                             121   -0.13 4  208 293 
 ZAR  HN ES   2   2256 48.13                             121   -0.43 4  208 293 
 ZAR  HZ I        2256 50.67        11.9 0.32                           208 293 
 NOR  SZ EP   2   2256 26.30                             117    0.16 4  234 236 
 NOR  SN ES   2   2256 53.74                             117    0.04 4  234 236 
 HEL  HZ EP   2   2256 31.11                             114    0.26 4  273 257 
 HEL  HE ES   2   2257  2.40                             114    0.31 4  273 257 
 HEL  HZ I        2257 10.09         4.2 0.23                           273 257 
                                                                                
