 2016  725 2314 34.4 L   6.847 -73.158138.6  RSN  4 0.3 1.6LRSN                1
 GAP=245        0.64       7.3     5.1  7.1  0.1713E+02  0.8075E+01 -0.1260E+02E
 Epicentro: LOS SANTOS - SANTANDER                                             3
 ACTION:UPD 17-03-29 16:55 OP:lp   STATUS:               ID:20160725231434 L   I
 OLDACT:DUP 16-07-26 04:14 OP:dnl  STATUS:               ID:20160725230760d    3
 2016-07-25-2307-59S.COL___334                                                 6
 STAT SP IPHASW D HRMM SECON CODA AMPLIT PERI AZIMU VELO AIN AR TRES W  DIS CAZ7
 BAR2 EZ EP       2314 53.44                             167    0.2010 28.3 185 
 BAR2 EZ ES       2315  7.70                             167   -0.2610 28.3 185 
 BAR2 EZ I        2315 10.32         6.8 0.26            170           28.3 185 
 RUS  HZ EP   2   2314 57.69                             140   -0.11 5  106 176 
 RUS  HE ES       2315 16.38                             140    0.2910  106 176 
 PTB  HZ EP       2315  0.46                             130   -0.26 9  148 257 
 PTB  HN ES       2315 21.17                             130   -0.12 9  148 257 
 PTB  HZ I        2315 26.44         4.5 0.12            131            148 257 
 ZAR  HE ES   2   2315 31.43                             121    0.73 4  201 291 
 ZAR  HZ I        2315 36.85         5.2 0.28            122            201 291 
                                                                                
