 2016 1025 2230 16.9 L   5.883 -73.687125.7  RSN  7 0.3 1.6LRSN                1
 GAP= 93        0.68       2.2     2.6  4.9 -0.8209E+00  0.2746E+00 -0.2026E+00E
 Epicentro: PUENTE NACIONAL - SANTANDER                                        3
 ACTION:UPD 16-11-09 19:22 OP:rebc STATUS:               ID:20161025223016 L   I
 OLDACT:REG 16-10-26 03:14 OP:ar   STATUS:               ID:20161025222738     3
 2016-10-25-2228-00M.COL___355                                                 6
 STAT SP IPHASW D HRMM SECON CODA AMPLIT PERI AZIMU VELO AIN AR TRES W  DIS CAZ7
 SPBC HZ EP       2230 34.86                             157    0.0510 49.7 239 
 SPBC HE ES       2230 48.87                             157    0.0710 49.7 239 
 RUS  HZ EP       2230 36.55                             150    0.2310 66.9  89 
 RUS  HE ES       2230 51.55                             150    0.0510 66.9  89 
 RUS  HZ I        2230 52.12         5.4 0.26            151           66.9  89 
 BAR2 EZ EP       2230 38.17                             140    0.1610 96.3  35 
 BAR2 EZ ES       2230 54.27                             140   -0.2310 96.3  35 
 BAR2 EZ I        2230 55.41        16.5 0.18            141           96.3  35 
 PTB  HZ EP       2230 38.61                             135   -0.3610  112 311 
 PTB  HN ES       2230 55.82                             135   -0.4010  112 311 
 PTB  HZ I        2230 56.52         5.1 0.12            137            112 311 
 BRR  HZ EP       2230 41.08                             130    0.01 9  135 359 
 BRR  HE ES       2231  0.25                             130    0.30 9  135 359 
 BRR  HZ I        2231  1.50        10.3 0.34            131            135 359 
 NOR  HN ES       2231  0.57                             130    0.46 9  136 255 
 CHI  HZ EP       2230 41.87                             129   -0.06 9  139 182 
 CHI  HN ES       2231  1.20                             129   -0.28 9  139 182 
 CHI  HZ I        2231  4.55         3.8 0.26            130            139 182 
                                                                                
