 2016  225 2158 59.2 L   6.803 -73.142148.9  RSN 11 0.3 2.4LRSN                1
 GAP=137        0.61       1.9     2.4  3.6 -0.5732E+00  0.3610E+01  0.5396E+00E
 Epicentro: LOS SANTOS - SANTANDER                                             3
 ACTION:UPD 16-03-04 21:29 OP:rebc STATUS:               ID:20160225215859 L   I
 OLDACT:REG 16-02-26 06:29 OP:cara STATUS:               ID:20160225215749     3
 2016-02-25-2157-49M.COL___319                                                 6
 STAT SP IPHASW D HRMM SECON CODA AMPLIT PERI AZIMU VELO AIN AR TRES W  DIS CAZ7
 BAR2 EZ EP       2159 19.08                             171   -0.1110 23.7 191 
 BAR2 EZ ES       2159 34.71                             171   -0.0910 23.7 191 
 BAR2 EZ I        2159 36.49        39.5 0.22            172           23.7 191 
 PAM  EZ EP       2159 21.83                             151    0.1310 76.9  39 
 PAM  EN ES       2159 39.15                             151   -0.1110 76.9  39 
 PAM  EZ I        2159 41.33        29.1 0.54            154           76.9  39 
 RUS  HZ EP       2159 23.44                             144    0.1810  101 176 
 RUS  HN ES       2159 42.05                             144    0.0110  101 176 
 RUS  HZ I        2159 43.26        18.6 0.18            148            101 176 
 PTB  HZ EP       2159 26.10                             133   -0.34 9  148 259 
 PTB  HN ES       2159 47.31                             133   -0.40 9  148 259 
 PTB  HZ I        2159 52.79        33.5 0.42            133            148 259 
 OCA  HN ES       2159 50.07                             130    0.11 9  160 353 
 OCA  HZ I        22 0  0.19        73.4 0.10            132            160 353 
 SPBC HZ IP       2159 28.07                             130    0.11 9  164 219 
 SPBC HN ES       2159 50.60                             130    0.18 9  164 219 
 SPBC HZ I        2159 53.46        44.2 0.12            132            164 219 
 ZAR  HZ EP       2159 31.76                             123   -0.09 9  204 292 
 ZAR  HE ES       2159 57.94                             123    0.60 9  204 292 
 ZAR  HZ I        22 0  4.16        21.5 0.34            124            204 292 
 NOR  HZ EP       2159 34.71                             119   -0.43 8  235 234 
 NOR  HN ES       22 0  2.90                             119   -0.30 8  235 234 
 NOR  HZ I        22 0  7.68        14.3 0.22            121            235 234 
 CHI  HZ EP       2159 37.13                             118    0.04 8  249 195 
 CHI  HN ES       22 0  7.09                             118    0.42 8  249 195 
 CHI  HZ I        22 0 14.19         6.4 0.58            120            249 195 
 GUY2CHZ EP       2159 43.06                             113    0.07 7  302 235 
 GUY2CHE ES       22 0 17.33                             113    0.17 7  302 235 
 GUY2CHZ I        22 0 25.25         8.7 0.46                           302 235 
 DBB  SZ EP       2159 46.59                             110   -0.23 7  340 274 
 DBB  SZ ES       22 0 24.21                             110    0.22 7  340 274 
 DBB  SZ I        22 0 25.83        18.6 0.28            111            340 274 
                                                                                
