 2014 1225 2137 29.8 L   6.793 -73.152142.7  RSN 13 0.4 1.7LRSN                1
 GAP=136        0.92       2.8     3.4  5.3 -0.6341E+00  0.5511E+01  0.2669E+01E
 Epicentro: LOS SANTOS - SANTANDER                                             3
 ACTION:UPD 15-02-10 17:07 OP:nd   STATUS:               ID:20141225213729 L   I
 OLDACT:REG 14-12-26 03:35 OP:fm   STATUS:               ID:20141225212750     3
 2014-12-25-2127-50M.COL___283                                                 6
 STAT SP IPHASW D HRMM SECON CODA AMPLIT PERI AZIMU VELO AIN AR TRES W  DIS CAZ7
 BAR2 EZ EP       2137 49.11                             171    0.0610 22.5 189 
 BAR2 EZ ES       2138  4.24                             171    0.1810 22.5 189 
 BAR2 EZ I        2138  5.67         8.2 0.26            171           22.5 189 
 BRR  HZ EP       2137 51.00                             152    0.3910 70.9 299 
 BRR  HE ES       2138  7.32                             152    0.4810 70.9 299 
 BRR  HZ I        2138 12.22         8.9 0.12            144           70.9 299 
 PAM  SZ EP       2137 52.05                             150    0.2910 78.4  40 
 PAM  SN ES       2138  8.61                             150   -0.2710 78.4  40 
 PAM  SZ I        2138  9.64         8.5 0.20            145           78.4  40 
 RUS  HZ EP       2137 53.30                             143    0.0910 99.9 176 
 RUS  HE ES       2138 10.85                             143   -0.6110 99.9 176 
 PTB  HZ EP       2137 56.10                             131   -0.35 9  147 259 
 PTB  HN ES       2138 16.78                             131   -0.45 9  147 259 
 PTB  HZ I        2138 19.73         5.4 0.46            125            147 259 
 SPBC HZ EP       2137 58.34                             128    0.36 9  162 219 
 SPBC HN ES       2138 19.94                             128   -0.01 9  162 219 
 SPBC HZ I        2138 26.63         7.4 0.26            124            162 219 
 ZAR  HN ES       2138 27.42                             122    0.28 9  204 292 
 ZAR  HZ I        2138 33.05         5.6 0.54            116            204 292 
 NOR  HZ EP       2138  4.74                             118   -0.51 8  234 235 
 NOR  HN ES       2138 33.47                             118    0.57 8  234 235 
 NOR  HZ I        2138 39.48         3.9 0.20            113            234 235 
 SML  HE ES       2138 34.20                             117   -0.57 8  244 336 
 SML  HZ I        2138 39.03         6.2 0.24            111            244 336 
 CHI  HZ EP       2138  7.70                             116    0.46 8  248 195 
 CHI  HN ES       2138 36.28                             116   -0.16 8  248 195 
 CHI  HZ I        2138 44.13         2.2 0.50            112            248 195 
 HEL  HZ EP   1   2138  9.46                             114   -0.31 6  271 256 
 HEL  HN ES       2138 40.45                             114   -0.49 8  271 256 
 HEL  HZ I        2138 45.90         3.0 0.34            109            271 256 
 TOL  SN ES       2138 55.52                             109    0.25 7  342 225 
 TOL  SZ I        2139  2.70         5.1 0.20            105            342 225 
 SJC  HZ EP   4   2138 23.03                             105   -2.27 0  409 327 
 SJC  HZ I        2139  7.16         1.4 0.74            101            409 327 
                                                                                
