 2010  125 2357 15.0 L   6.830 -73.084140.8  RSN  5 0.3 1.5LRSN                1
 GAP=189        0.50       2.8    16.6  6.0 -0.1224E+02  0.4159E+02 -0.3851E+01E
 Epicentro: LOS SANTOS - SANTANDER                                             3
 ACTION:UP  10-08-24 09:45 OP:vdl  STATUS:               ID:20100125235715 L   I
 2010-01-25-2356-10S.COL___095                                                 6
 STAT SP IPHASW D HRMM SECON CODA AMPLIT PERI AZIMU VELO SNR AR TRES W  DIS CAZ7
 BAR2 SZ EP   2   2357 33.91                             168    -0.2 5   29 203 
 BAR2 SZ ES   2   2357 48.77                             168    -0.3 5   29 203 
 GIR2 SZ EP   2   2357 33.46                             168    -0.6 5   30 336 
 GIR2 SZ ES   3   2357 49.10                             168     0.2 3   30 336 
 RUS  BZ EP       2357 38.64                             142     0.210  104 180 
 RUS  BE ES   1   2357 56.88                             142     0.1 7  104 180 
 RUS  BZ I        2357 58.58         5.5 0.28                           104 180 
 OCA  SZ EP       2357 42.74                             129     0.1 9  158 351 
 OCA  SZ ES   3   2358  5.12                             129     0.8 2  158 351 
 CHI  HZ EP       2357 52.70                             115    -0.2 8  254 196 
 CHI  HZ I        2357 53.16         1.8 0.16                           254 196 
 CHI  HN ES   1   2358 22.73                             115     0.2 6  254 196 
                                                                                
