 2016  525 2250 26.0 L   6.770 -73.164147.9  RSN  4 0.4 1.1LRSN                1
 GAP=136        1.09       6.0     5.7  9.6 -0.3890E+01  0.4393E+01  0.7197E+01E
 Epicentro: LOS SANTOS - SANTANDER                                             3
 ACTION:UPD 16-08-18 17:49 OP:cam  STATUS:               ID:20160525225026 L   I
 OLDACT:DUP 16-05-26 06:13 OP:drio STATUS:               ID:20160525224747d    3
 2016-05-25-2247-46M.COL___319                                                 6
 STAT SP IPHASW D HRMM SECON CODA AMPLIT PERI AZIMU VELO AIN AR TRES W  DIS CAZ7
 BRR  HZ EP       2250 47.60                             153    0.1910 71.1 302 
 BRR  HE ES       2251  4.83                             153    0.7510 71.1 302 
 PAM  EZ EP       2250 48.72                             150    0.0110 81.3  39 
 PAM  EE ES       2251  5.89                             150   -0.5110 81.3  39 
 PAM  EZ I        2251 12.68         1.9 0.36            152           81.3  39 
 RUS  HZ EP       2250 50.04                             145    0.2710 97.4 175 
 RUS  HE ES       2251  8.30                             145    0.0110 97.4 175 
 RUS  HZ I        2251  9.22         1.8 0.20            150           97.4 175 
 PTB  HZ EP       2250 52.80                             133   -0.14 9  145 260 
 PTB  HE ES       2251 13.25                             133   -0.68 9  145 260 
 PTB  HZ I        2251 19.16         2.7 0.42            136            145 260 
                                                                                
