 2014  125 2153 46.5 L   6.817 -73.158145.2  RSN 15 0.4 2.3LRSN                1
 GAP=134        0.96       2.3     3.4  4.7 -0.1470E+01  0.4222E+01  0.1297E+01E
 Epicentro: LOS SANTOS - SANTANDER                                             3
 ACTION:UPD 14-03-13 09:58 OP:ep   STATUS:               ID:20140125215346 L   I
 OLDACT:REG 14-01-25 21:30 OP:carl STATUS:               ID:20140125215000     3
 2014-01-25-2150-00M.COL___285                                                 6
 STAT SP IPHASW D HRMM SECON CODA AMPLIT PERI AZIMU VELO AIN AR TRES W  DIS CAZ7
 BAR2 SZ EP       2154  6.15                             170    0.0510 24.9 186 
 BAR2 SZ ES       2154 20.98                             170   -0.4010 24.9 186 
 BAR2 SZ I        2154 22.67       101.9 0.34            169           24.9 186 
 BRR  HZ IP     D 2154  7.95                             153    0.4810 69.2 298 
 BRR  HN ES       2154 24.86                             153    1.0210 69.2 298 
 BRR  HZ I        2154 29.94        39.1 0.16            151           69.2 298 
 PAM  SZ EP       2154  8.94                             151    0.3210 76.8  41 
 PAM  SN ES       2154 25.90                             151    0.0210 76.8  41 
 PAM  SZ I        2154 28.29        31.8 0.54            155           76.8  41 
 RUS  HZ EP       2154 10.15                             143   -0.1810  103 175 
 RUS  HN ES       2154 28.57                             143   -0.3610  103 175 
 RUS  HZ I        2154 29.80        17.0 0.30            146            103 175 
 PTB  HN ES       2154 33.56                             132   -0.71 9  147 258 
 PTB  HZ I        2154 35.96        16.9 0.14            132            147 258 
 OCA  HZ EP       2154 14.27                             130   -0.31 9  158 354 
 OCA  HN ES       2154 36.54                             130    0.06 9  158 354 
 OCA  HZ I        2154 41.63        20.6 0.16            131            158 354 
 SPBC HZ EP       2154 15.12                             129    0.11 9  164 218 
 SPBC HN ES       2154 37.28                             129    0.03 9  164 218 
 SPBC HZ I        2154 41.42        30.6 0.42            130            164 218 
 ZAR  HZ EP       2154 18.25                             122   -0.46 9  202 292 
 ZAR  HN ES       2154 44.04                             122    0.20 9  202 292 
 ZAR  HZ I        2154 49.33        22.7 0.14            123            202 292 
 NOR  HZ EP       2154 22.27                             118    0.08 8  235 234 
 NOR  HE ES       2154 49.92                             118   -0.12 8  235 234 
 NOR  HZ I        2154 58.07        10.8 0.22            119            235 234 
 SML  HZ EP       2154 22.24                             118   -0.61 8  241 335 
 SML  HE ES       2154 50.91                             118   -0.30 8  241 335 
 SML  HZ I        2154 54.51        25.3 0.26            119            241 335 
 CHI  HZ EP       2154 24.46                             117    0.14 8  250 195 
 CHI  HN ES       2154 53.78                             117   -0.04 8  250 195 
 CHI  HZ I        2154 57.19        12.7 0.64            119            250 195 
 HEL  HN ES       2154 57.76                             115   -0.10 8  271 255 
 HEL  HN I        2155  3.57         9.1 0.42            116            271 255 
 GUY2CHZ EP       2154 30.87                             112    0.79 7  301 234 
 GUY2CHE ES       2155  3.58                             112   -0.49 7  301 234 
 GUY2CHZ I        2155 10.38         8.1 0.30                           301 234 
 PRA  HZ EP       2154 40.06                             106   -0.05 6  393 209 
 PRA  HN ES       2155 22.50                             106    0.58 6  393 209 
 PRA  HZ I        2155 28.31        10.8 0.74            108            393 209 
 ORTC HZ EP       2154 40.62                             106    0.14 6  396 216 
 ORTC HN ES       2155 23.14                             106    0.55 6  396 216 
 ORTC HZ I        2155 27.59         7.0 0.28            107            396 216 
                                                                                
