 2017  225 2318 29.0 L   6.790 -73.145148.6  RSN  6 0.3 1.4LRSN                1
 GAP=137        0.80       3.7     4.2  5.6 -0.2222E+01  0.1418E+01  0.6562E+01E
 Epicentro: LOS SANTOS - SANTANDER                                             3
 ACTION:UPD 17-05-24 15:40 OP:jn   STATUS:               ID:20170225231829 L   I
 OLDACT:REG 17-02-26 09:23 OP:ar   STATUS:               ID:20170225230745     3
 2017-02-25-2308-00M.COL___382                                                 6
 STAT SP IPHASW D HRMM SECON CODA AMPLIT PERI AZIMU VELO AIN AR TRES W  DIS CAZ7
 BAR2 EZ EP       2318 48.93                             171   -0.0210 22.3 191 
 BAR2 EZ ES       2319  4.57                             171    0.0610 22.3 191 
 BAR2 EZ I        2319  4.97         7.1 0.30            170           22.3 191 
 BRR  HE ES       2319  7.76                             153    0.5110 71.8 299 
 PAM  EZ EP       2318 51.69                             151    0.1310 78.2  39 
 PAM  EE ES       2319  8.92                             151   -0.2410 78.2  39 
 PAM  EZ I        2319 10.91         6.0 0.52            152           78.2  39 
 RUS  HZ EP       2318 53.25                             145    0.3010 99.5 176 
 RUS  HN ES       2319 11.27                             145   -0.3710 99.5 176 
 RUS  HZ I        2319 13.00         3.1 0.46            144           99.5 176 
 PTB  HZ EP       2318 55.64                             133   -0.55 9  148 259 
 PTB  HE ES       2319 17.19                             133   -0.21 9  148 259 
 PTB  HZ I        2319 17.79         2.8 0.16            133            148 259 
 CHI  HZ EP       2319  6.91                             118    0.16 8  248 195 
 CHI  HN ES       2319 36.51                             118    0.32 8  248 195 
 CHI  HZ I        2319 39.60         1.9 0.52            118            248 195 
                                                                                
