 2012  625 2026 47.8 L   6.784 -73.131144.3  RSN  6 0.4 2.0LRSN                1
 GAP=139        0.69       4.6     4.4  6.5  0.5111E+00  0.4948E+01 -0.1478E+01E
 Epicentro: LOS SANTOS - SANTANDER                                             3
 ACTION:UPD 12-08-06 17:52 OP:ep   STATUS:               ID:20120625202647 L   I
 2012-06-25-2019-45M.COL___183                                                 6
 STAT SP IPHASW D HRMM SECON CODA AMPLIT PERI AZIMU VELO AIN AR TRES W  DIS CAZ7
 BAR2 SZ EP   1   2027  7.22                             171   -0.03 7 21.9 195 
 BAR2 SZ ES   1   2027 22.72                             171    0.31 7 21.9 195 
 BAR2 SZ I        2027 23.98        25.4 0.22                          21.9 195 
 BRR  HZ IP     C 2027  9.12                             151    0.1710 73.5 299 
 BRR  HZ I        2027  9.40        50.3 0.24                          73.5 299 
 BRR  HN ES   1   2027 25.94                             151    0.51 7 73.5 299 
 PAM  SZ EP   1   2027 10.22                             150    0.31 7 77.8  38 
 PAM  SN ES   1   2027 26.46                             150   -0.68 7 77.8  38 
 RUS  HZ EP   1   2027 11.22                             144   -0.07 7 98.7 177 
 RUS  HN ES   1   2027 29.53                             144   -0.07 7 98.7 177 
 RUS  HZ I        2027 31.08         9.1 0.35                          98.7 177 
 PTB  HZ EP   2   2027 14.30                             131   -0.49 5  149 260 
 PTB  HN ES   1   2027 35.38                             131   -0.44 7  149 260 
 PTB  HZ I        2027 38.18         6.4 0.15                           149 260 
 ZAR  HZ EP   2   2027 20.65                             122    0.25 4  206 292 
 ZAR  HN ES   2   2027 45.49                             122   -0.32 4  206 292 
 ZAR  HZ I        2027 52.23        10.2 0.37                           206 292 
                                                                                
