 2013 1225 2026  7.7 L   6.792 -73.139146.0  RSN 13 0.5 2.1LRSN                1
 GAP= 72        1.12       3.2     3.8  6.1 -0.8854E+00  0.3110E+01  0.1503E+00E
 Epicentro: LOS SANTOS - SANTANDER                                             3
 ACTION:UPD 14-01-13 10:21 OP:ep   STATUS:               ID:20131225202607 L   I
 OLDACT:UP  13-12-25 21:27 OP:cam  STATUS:               ID:20131225202000     3
 OLDACT:REG 13-12-25 21:09 OP:cam  STATUS:               ID:20131225202000     3
 2013-12-25-2020-00M.COL___285                                                 6
 STAT SP IPHASW D HRMM SECON CODA AMPLIT PERI AZIMU VELO AIN AR TRES W  DIS CAZ7
 BAR2 SZ EP       2026 27.41                             171    0.0310 22.6 192 
 BAR2 SZ ES       2026 42.38                             171   -0.3310 22.6 192 
 BAR2 SZ I        2026 43.46        41.2 0.18            171           22.6 192 
 BRR  HZ EP       2026 29.56                             152    0.5910 72.2 299 
 BRR  HN ES       2026 46.48                             152    0.9410 72.2 299 
 BRR  HZ I        2026 50.71        22.4 0.12            151           72.2 299 
 PAM  SZ EP       2026 30.41                             151    0.4110 77.6  39 
 PAM  SE ES       2026 47.31                             151   -0.0410 77.6  39 
 PAM  SZ I        2026 50.32         9.0 0.28            152           77.6  39 
 RUS  HZ IP     C 2026 31.27                             144   -0.1810 99.6 176 
 RUS  HN ES       2026 49.58                             144   -0.3610 99.6 176 
 RUS  HZ I        2026 50.53        16.1 0.22            147           99.6 176 
 PTB  HZ EP       2026 34.15                             132   -0.62 9  148 259 
 PTB  HN ES       2026 55.32                             132   -0.54 9  148 259 
 PTB  HZ I        2026 57.43        15.8 0.18            132            148 259 
 TAM  HZ EP       2026 35.67                             131    0.32 9  154 105 
 TAM  HN ES   2   2026 56.97                             131    0.08 5  154 105 
 OCA  HN ES       2026 57.89                             129   -0.44 9  161 353 
 SPBC HZ EP       2026 36.31                             129    0.08 9  163 219 
 SPBC HN ES       2026 58.24                             129   -0.22 9  163 219 
 SPBC HZ I        2027  3.26        16.1 0.22            130            163 219 
 ZAR  HE ES       2027  6.37                             122    0.67 9  205 292 
 NOR  HZ EP     C 2026 43.89                             118    0.40 8  235 235 
 NOR  HN ES       2027 11.59                             118    0.22 8  235 235 
 NOR  HZ I        2027 16.67        12.3 0.18            119            235 235 
 SML  HZ EP       2026 44.33                             117   -0.17 8  245 335 
 SML  HN ES       2027 12.24                             117   -0.93 8  245 335 
 SML  HZ I        2027 21.60        17.5 0.10            118            245 335 
 CHI  HZ EP   2   2026 45.49                             117    0.11 4  248 195 
 HEL  HZ EP   4   2026 49.64                             115    1.62 0  273 256 
 GUY2CHZ EP   4   2026 52.63                             112    1.26 0  301 235 
 SJC  HZ EP   2   2027  2.49                             106   -0.95 3  410 327 
                                                                                
