 2011 1125 2330 29.9 L   6.764 -73.111143.7  RSN  5 0.3 1.9LRSN                1
 GAP=143        0.60       4.1     4.4  5.7  0.4006E+01  0.5973E+01 -0.1206E+01E
 Epicentro: LOS SANTOS - SANTANDER                                             3
 ACTION:UPD 12-07-13 16:12 OP:ep   STATUS:               ID:20111125233029 L   I
 2011-11-25-2329-19S.COL___160                                                 6
 STAT SP IPHASW D HRMM SECON CODA AMPLIT PERI AZIMU VELO AIN AR TRES W  DIS CAZ7
 BAR2 SZ EP   1   2330 48.91                             171   -0.27 7 20.6 202 
 BAR2 SZ ES   1   2331  3.94                             171   -0.32 7 20.6 202 
 BAR2 SZ I        2331  5.47        26.9 0.36                          20.6 202 
 BRR  HZ EP   1   2330 51.25                             150    0.16 7 76.4 300 
 BRR  HN ES   1   2331  8.20                             150    0.55 7 76.4 300 
 BRR  HZ I        2331  9.60        22.4 0.17                          76.4 300 
 PAM  SZ EP   1   2330 52.08                             150    0.18 7 78.2  36 
 PAM  SN ES   1   2331  8.91                             150   -0.18 7 78.2  36 
 PAM  SZ I        2331 11.59         9.4 0.38                          78.2  36 
 RUS  HZ EP   1   2330 53.09                             145   -0.02 7 96.5 178 
 RUS  HN ES   1   2331 11.41                             145    0.17 7 96.5 178 
 RUS  HZ I        2331 13.27         7.6 0.38                          96.5 178 
 ZAR  HZ EP   1   2331  2.81                             121    0.12 6  209 293 
 ZAR  HN ES   1   2331 27.80                             121   -0.50 6  209 293 
 ZAR  HZ I        2331 30.33        10.6 0.20                           209 293 
                                                                                
