 2014 1225 2216 50.5 L   6.770 -73.128135.4  RSN  5 0.5 1.3LRSN                1
 GAP=140        1.19       5.7     5.2  9.5  0.2225E+01  0.1321E+02  0.1941E+01E
 Epicentro: LOS SANTOS - SANTANDER                                             3
 ACTION:UPD 15-02-10 17:07 OP:nd   STATUS:               ID:20141225221650 L   I
 OLDACT:DUP 14-12-26 04:19 OP:fm   STATUS:               ID:20141225220752d    3
 2014-12-25-2207-50M.COL___286                                                 6
 STAT SP IPHASW D HRMM SECON CODA AMPLIT PERI AZIMU VELO AIN AR TRES W  DIS CAZ7
 BRR  HZ EP     D 2217 10.98                             149    0.2410 74.5 300 
 BRR  HN ES       2217 27.10                             149    0.5810 74.5 300 
 BRR  HZ I        2217 31.97         5.4 0.32            151           74.5 300 
 PAM  SZ EP       2217 11.33                             148   -0.3810 78.8  37 
 PAM  SN ES       2217 28.08                             148   -0.1710 78.8  37 
 PAM  SZ I        2217 30.99         2.7 0.50            153           78.8  37 
 RUS  HZ EP       2217 13.78                             143    0.7910 97.2 177 
 RUS  HE ES       2217 30.13                             143   -0.4010 97.2 177 
 RUS  HZ I        2217 33.36         1.6 0.36            147           97.2 177 
 PTB  HZ EP       2217 16.09                             129   -0.68 9  149 260 
 PTB  HN ES       2217 37.14                             129   -0.11 9  149 260 
 PTB  HZ I        2217 39.93         3.2 0.80            132            149 260 
 ZAR  HZ EP       2217 23.02                             120    0.40 8  207 293 
 ZAR  HE ES       2217 47.29                             120   -0.37 8  207 293 
 ZAR  HZ I        2217 52.69         2.7 0.36            123            207 293 
                                                                                
