 2017  625 2340 42.7 L   6.782 -73.164150.0  RSN  5 0.4 1.6LRSN                1
 GAP=245        0.99       6.7     6.6  8.8  0.5139E+01  0.1265E+02  0.3011E+00E
 Epicentro: LOS SANTOS - SANTANDER                                             3
 ACTION:UPD 17-09-14 16:55 OP:jn   STATUS:               ID:20170625234042 L   I
 OLDACT:REG 17-06-26 05:08 OP:cog  STATUS:               ID:20170625233742     3
 2017-06-25-2338-00M.COL___361                                                 6
 STAT SP IPHASW D HRMM SECON CODA AMPLIT PERI AZIMU VELO AIN AR TRES W  DIS CAZ7
 BAR2 EZ EP       2341  2.50                             172   -0.3210 21.0 186 
 BAR2 EZ ES       2341 18.54                             172    0.0510 21.0 186 
 BAR2 EZ I        2341 19.02         8.7 0.26            165           21.0 186 
 BRR  HZ EP       2341  4.53                             154    0.2410 70.4 301 
 BRR  HN ES       2341 21.22                             154    0.1110 70.4 301 
 BRR  HZ I        2341 21.90         8.7 0.10            154           70.4 301 
 PTB  HZ EP       2341  9.53                             134   -0.29 9  145 259 
 PTB  HN ES       2341 30.19                             134   -0.78 9  145 259 
 PTB  HZ I        2341 32.28         3.4 0.50            132            145 259 
 SPBC HZ EP   3   2341 11.87                             131    0.59 2  160 219 
 SPBC HN ES       2341 34.13                             131    0.57 9  160 219 
 SPBC HZ I        2341 40.95         6.3 0.30            128            160 219 
 ZAR  HN ES       2341 41.23                             124    0.46 9  203 293 
                                                                                
