 2017 1025 2323 49.0 L   6.536 -73.538110.9  RSN 10 0.5 1.7LRSN                1
 GAP= 67        1.36       4.5     4.2  7.6  0.7531E+01  0.3457E+01 -0.1881E+01E
 Epicentro: EL CARMEN - SANTANDER                                              3
 ACTION:UPD 17-11-07 19:36 OP:rebc STATUS:               ID:20171025232349 L   I
 OLDACT:UP  17-10-26 05:29 OP:lv   STATUS:               ID:20171025231202d    3
 OLDACT:DUP 17-10-26 05:17 OP:lv   STATUS:               ID:20171025231202d    3
 2017-10-25-2318-00M.COL___450                                                 6
 STAT SP IPHASW D HRMM SECON CODA AMPLIT PERI AZIMU VELO AIN AR TRES W  DIS CAZ7
 BAR2 EZ EP       2324  5.27                             159    0.1810 39.9  81 
 BAR2 EZ ES       2324 17.20                             159   -0.3910 39.9  81 
 BRR  HZ EP       2324  5.98                             147   -0.2210 66.0 343 
 BRR  HN ES       2324 20.27                             147    0.6910 66.0 343 
 RUS  HZ EP       2324  8.72                             139    0.2810 87.1 145 
 RUS  HN ES       2324 23.68                             139    0.1110 87.1 145 
 RUS  HZ I        2324 25.44         6.8 0.36            141           87.1 145 
 PTB  HZ IP     C 2324  8.16                             134   -0.8310  102 270 
 PTB  HE ES       2324 23.94                             134   -0.6010  102 270 
 PTB  HZ I        2324 27.80         7.3 0.10            135            102 270 
 SPBC HZ EP       2324 10.32                             131    0.0910  114 211 
 SPBC HN ES       2324 27.35                             131    0.6010  114 211 
 SPBC HZ I        2324 32.46         8.8 0.20            131            114 211 
 PAM  EZ EP       2324 11.89                             127   -0.2310  128  46 
 PAM  EN ES   4   2324 28.79                             127   -1.32 0  128  46 
 PAM  EZ I        2324 31.19         4.4 0.38            131            128  46 
 YPLC HZ EP       2324 17.44                             117    0.55 9  180 134 
 YPLC HN ES       2324 37.92                             117   -0.69 9  180 134 
 YPLC HZ I        2324 40.99         9.7 0.32            119            180 134 
 ZAR  HZ EP       2324 17.39                             117    0.54 9  180 306 
 ZAR  HN ES       2324 39.22                             117    0.69 9  180 306 
 ZAR  HZ I        2324 41.83        11.4 0.56            118            180 306 
 GUY2CHZ EP   9   2324 26.44                             109    1.26 0  249 234 
 GUY2CHN ES       2324 53.50                                   -1.12 8  249 234 
 GUY2CHZ I        2325  0.08         3.8 0.26                           249 234 
 URE  HZ EP       2324 25.29                             108   -0.38 8  258 302 
 URE  HN ES       2324 53.75                             108   -0.49 8  258 302 
 URE  HZ I        2324 56.33         3.5 0.36            109            258 302 
                                                                                
