 2013  925 2252 24.6 L   5.771 -73.982102.7  RSN  8 0.5 1.9LRSN                1
 GAP=123        1.21       3.2     4.2  7.5 -0.3034E+01 -0.9252E-02 -0.2695E+01E
 Epicentro: FLORIAN - SANTANDER                                                3
 ACTION:UPD 13-10-22 09:25 OP:ep   STATUS:               ID:20130925225224 L   I
 OLDACT:REG 13-09-25 21:30 OP:carl STATUS:               ID:20130925224959     3
 2013-09-25-2249-59M.COL___272                                                 6
 STAT SP IPHASW D HRMM SECON CODA AMPLIT PERI AZIMU VELO AIN AR TRES W  DIS CAZ7
 SPBC HE ES       2252 49.83                             170    0.1310 16.5 217 
 PTB  HZ EP       2252 42.57                             132   -1.1610 99.9 328 
 PTB  HE ES       2252 58.96                             132    0.3210 99.9 328 
 PTB  HZ I        2253  0.81        16.7 0.12            133           99.9 328 
 NOR  HZ EP       2252 43.86                             132   -0.0210  101 257 
 NOR  HN ES       2252 58.90                             132   -0.0010  101 257 
 NOR  HZ I        2253  0.85        21.1 0.26            132            101 257 
 BAR2 SZ EP       2252 46.35                             125   -0.2610  127  44 
 BAR2 SZ ES       2253  3.27                             125   -0.4910  127  44 
 BAR2 SZ I        2253  5.03        13.5 0.38            126            127  44 
 CHI  HZ EP       2252 47.19                             124    0.1010  129 168 
 CHI  HN ES       2253  4.77                             124    0.1510  129 168 
 CHI  HZ I        2253 10.66         4.3 0.34            125            129 168 
 BRR  HZ EP       2252 49.13                             119    0.35 9  151  11 
 BRR  HN ES       2253  8.33                             119    0.72 9  151  11 
 BRR  HZ I        2253  9.51        31.6 0.14            121            151  11 
 RREF HZ EP       2252 53.01                             115    0.30 9  179 238 
 RREF HN ES       2253 14.32                             115   -0.29 9  179 238 
 RREF HZ I        2253 19.57         6.3 0.24            115            179 238 
 ZAR  HZ EP       2252 56.54                             110    0.77 8  214 333 
 ZAR  HN ES       2253 19.69                             110   -0.38 8  214 333 
 ZAR  HZ I        2253 24.95        14.2 0.18            111            214 333 
                                                                                
