 2016 1225 2315 56.6 L   6.788 -73.155149.2  RSN  5 0.3 1.3LRSN                1
 GAP=136        0.73       3.8     3.4  6.4  0.8955E+00  0.3486E+01  0.2464E+01E
 Epicentro: LOS SANTOS - SANTANDER                                             3
 ACTION:UPD 17-01-11 20:19 OP:rebc STATUS:               ID:20161225231556 L   I
 OLDACT:UP  16-12-26 05:21 OP:and  STATUS:               ID:20161225230745     3
 OLDACT:REG 16-12-26 03:28 OP:and  STATUS:               ID:20161225230745     3
 2016-12-25-2308-00M.COL___378                                                 6
 STAT SP IPHASW D HRMM SECON CODA AMPLIT PERI AZIMU VELO AIN AR TRES W  DIS CAZ7
 BRR  HZ EP       2316 18.25                             153    0.1410 70.9 300 
 BRR  HN ES       2316 35.41                             153    0.5210 70.9 300 
 PAM  EZ IP     D 2316 19.39                             151    0.1010 79.0  40 
 PAM  EN ES       2316 36.58                             151   -0.4010 79.0  40 
 PAM  EZ I        2316 38.68         4.0 0.48            153           79.0  40 
 RUS  HZ EP       2316 20.72                             145    0.1110 99.4 175 
 RUS  HN ES       2316 39.36                             145    0.0210 99.4 175 
 RUS  HZ I        2316 40.38         3.2 0.34            146           99.4 175 
 PTB  HZ EP       2316 23.65                             133   -0.09 9  146 259 
 PTB  HE ES       2316 44.49                             133   -0.42 9  146 259 
 PTB  HZ I        2316 47.89         1.7 0.14            134            146 259 
 ZAR  HZ EP   4   2316 31.67                             123    2.44 0  204 293 
 ZAR  HN ES       2316 54.61                             123   -0.07 9  204 293 
                                                                                
