 2012 1125 2122 13.4 L   7.210 -74.282  8.2  RSN  4 0.2 1.7LRSN                1
 GAP=201        0.46       1.7     2.4  3.5  0.2018E+01 -0.4800E+01  0.4381E-02E
 Epicentro: PUERTO WILCHES - SANTANDER                                         3
 ACTION:UPD 12-12-05 15:36 OP:}ep  STATUS:               ID:20121125212213 L   I
 2012-11-25-2120-00M.COL___233                                                 6
 STAT SP IPHASW D HRMM SECON CODA AMPLIT PERI AZIMU VELO AIN AR TRES W  DIS CAZ7
 ZAR  HZ EP       2122 24.68                              94   -0.0710 70.9 296 
 ZAR  HN ES       2122 33.62                              94    0.0110 70.9 296 
 ZAR  HN I        2122 34.57        33.3 0.10                          70.9 296 
 PTB  HZ EP       2122 25.57                              93   -0.0610 76.6 195 
 PTB  HN ES       2122 35.18                              93    0.0110 76.6 195 
 NOR  HN ES       2123  5.29                              56    0.06 9  193 200 
 RUS  HZ EP       2122 43.85                              56    0.35 9  197 138 
 RUS  HN ES       2123  6.72                              56   -0.26 9  197 138 
                                                                                
