 2016 1225 2322 47.0 L   6.752 -73.112145.6  RSN  7 0.3 1.4LRSN                1
 GAP=143        0.77       3.9     3.5  5.2  0.1259E+01  0.4665E+01 -0.9957E+00E
 Epicentro: LOS SANTOS - SANTANDER                                             3
 ACTION:UPD 17-01-11 20:19 OP:rebc STATUS:               ID:20161225232247 L   I
 OLDACT:UP  16-12-26 05:27 OP:and  STATUS:               ID:20161225231704     3
 OLDACT:UP  16-12-26 05:26 OP:and  STATUS:               ID:20161225231704     3
 OLDACT:REG 16-12-26 03:29 OP:and  STATUS:               ID:20161225231704     3
 2016-12-25-2318-00M.COL___378                                                 6
 STAT SP IPHASW D HRMM SECON CODA AMPLIT PERI AZIMU VELO AIN AR TRES W  DIS CAZ7
 BAR2 EZ EP       2323  6.43                             172   -0.0910 19.3 204 
 BAR2 EZ ES       2323 21.50                             172   -0.2610 19.3 204 
 BRR  HZ IP     C 2323  8.51                             151    0.0510 77.1 301 
 BRR  HE ES       2323 25.76                             151    0.5510 77.1 301 
 BRR  HZ I        2323 29.76         3.7 0.19            151           77.1 301 
 PAM  EZ EP       2323  9.41                             150    0.1110 79.4  35 
 PAM  EN ES       2323 26.40                             150   -0.3210 79.4  35 
 PAM  EZ I        2323 27.67         3.7 0.19            153           79.4  35 
 RUS  HZ EP       2323 10.49                             145    0.1610 95.0 178 
 RUS  HN ES       2323 28.83                             145    0.2910 95.0 178 
 RUS  HZ I        2323 29.90         3.4 0.19            148           95.0 178 
 PTB  HZ EP       2323 13.96                             131   -0.23 9  151 261 
 PTB  HN ES       2323 34.88                             131   -0.53 9  151 261 
 PTB  HZ I        2323 37.22         4.1 0.06            133            151 261 
 ZAR  HZ EP       2323 19.95                             122   -0.04 8  210 293 
 ZAR  HE ES       2323 46.01                             122    0.28 8  210 293 
 GUY2CHZ EP   4   2323 33.42                             112    2.83 0  301 236 
 GUY2CHN ES   4   2324  9.32                             112    4.72 0  301 236 
 GUY2CHZ I        2324 11.65         1.3 0.38                           301 236 
                                                                                
