 2017 1025 2156 56.3 L   6.829 -73.154146.4  RSN 18 0.5 2.3LRSN                1
 GAP= 64        1.13       2.9     3.2  5.2 -0.1440E+01  0.3004E+01  0.1148E+01E
 Epicentro: LOS SANTOS - SANTANDER                                             3
 ACTION:UPD 17-11-07 19:36 OP:rebc STATUS:               ID:20171025215656 L   I
 OLDACT:UP  17-10-26 04:59 OP:lv   STATUS:               ID:20171025214112     3
 OLDACT:REG 17-10-26 03:04 OP:l    STATUS:               ID:20171025214112     3
 2017-10-25-2148-00M.COL___459                                                 6
 STAT SP IPHASW D HRMM SECON CODA AMPLIT PERI AZIMU VELO AIN AR TRES W  DIS CAZ7
 BAR2 EZ EP       2157 16.06                             170   -0.0210 26.4 187 
 BAR2 EZ ES       2157 31.03                             170   -0.4810 26.4 187 
 BAR2 EZ I        2157 32.30        51.5 0.28            169           26.4 187 
 BRR  HZ EP       2157 17.91                             153    0.5110 68.9 297 
 BRR  HN ES       2157 34.73                             153    0.8810 68.9 297 
 BRR  HZ I        2157 37.40        36.2 0.30            151           68.9 297 
 PAM  EZ EP       2157 18.99                             151    0.5010 75.6  42 
 PAM  EN ES       2157 35.93                             151    0.1510 75.6  42 
 PAM  EZ I        2157 38.21        32.2 0.50            154           75.6  42 
 RUS  HZ EP       2157 20.05                             143   -0.3110  104 176 
 RUS  HE ES       2157 38.92                             143   -0.2010  104 176 
 RUS  HZ I        2157 39.86        17.6 0.26            144            104 176 
 PTB  HZ EP       2157 23.03                             132   -0.28 9  147 258 
 PTB  HN ES       2157 43.77                             132   -0.59 9  147 258 
 PTB  HZ I        2157 45.93        13.8 0.12            131            147 258 
 TAM  HZ EP       2157 24.60                             130    0.40 9  157 106 
 TAM  HN ES       2157 46.31                             130    0.35 9  157 106 
 SPBC HZ EP       2157 25.12                             129    0.08 9  165 218 
 SPBC HN ES       2157 46.97                             129   -0.48 9  165 218 
 SPBC HZ I        2157 51.58        32.8 0.21            129            165 218 
 ZAR  HZ EP       2157 28.30                             123   -0.29 9  202 291 
 ZAR  HN ES       2157 53.96                             123    0.20 9  202 291 
 ZAR  HZ I        2157 59.22        23.5 0.38            122            202 291 
 NOR  HZ EP       2157 32.17                             118   -0.03 8  236 234 
 NOR  HN ES       2157 59.83                             118   -0.36 8  236 234 
 NOR  HZ I        2158  5.54        10.5 0.18            118            236 234 
 CHI  HZ EP       2157 34.33                             117   -0.03 8  251 195 
 CHI  HN ES       2158  3.63                             117   -0.40 8  251 195 
 CHI  HZ I        2158  7.15        14.7 0.66            117            251 195 
 ROSC BZ EP   9   2157 36.75                             117    2.04 0  255 210 
 ROSC BN ES       2158  6.31                                   -0.39 8  255 210 
 ROSC BZ I        2158 10.62        31.0 0.45            117            255 210 
 GUY2CHZ EP       2157 40.63                             112    0.56 7  302 234 
 GUY2CHN ES       2158 15.63                             112    1.42 7  302 234 
 GUY2CHZ I        2158 22.54         9.4 0.56                           302 234 
 VIL  EN ES       2158 13.81                             112   -0.43 7  306 191 
 PTGC HZ EP   9   2157 39.36                             111   -1.21 0  312 159 
 PTGC HN ES       2158 13.22                                   -0.66 7  312 159 
 LL6C HZ EP       2157 40.85                             111   -0.82 7  322 358 
 LL6C HN ES       2158 16.22                             111   -0.83 7  322 358 
 PRA  HZ EP       2157 50.31                             106    0.18 6  394 209 
 PRA  HN ES       2158 31.63                             106   -0.47 6  394 209 
 PRA  HZ I        2158 36.37         9.3 0.48            107            394 209 
 ORTC HZ EP       2157 50.73                             106    0.24 6  397 216 
 ORTC HN ES   4   2158 33.96                             106    1.21 0  397 216 
 ORTC HZ I        2158 37.51         6.7 0.30            107            397 216 
 SJC  HZ EP   4   2157 50.30                             106   -1.22 0  406 327 
 SJC  HN ES   4   2158 32.44                             106   -2.14 0  406 327 
 SJC  HZ I        2158 43.50         2.9 0.28            106            406 327 
 CRJC HZ EP   4   2157 56.62                             103   -1.83 0  464   4 
 CRJC HN ES   4   2158 44.48                             103   -2.45 0  464   4 
                                                                                
