 2010  825 2044 26.4 L   6.725 -73.151152.0  RSN  5 0.3 1.7LRSN                1
 GAP=164        0.57       7.6    13.1  8.5  0.7674E+02 -0.6509E+02 -0.3517E+02E
 Epicentro: VILLANUEVA - SANTANDER                                             3
 ACTION:UP  10-09-07 10:58 OP:vdl  STATUS:               ID:20100825204426 L   I
 2010-08-25-2041-43S.COL___121                                                 6
 STAT SP IPHASW D HRMM SECON CODA AMPLIT PERI AZIMU VELO SNR AR TRES W  DIS CAZ7
 BAR2 SZ EP   2   2044 46.40                             174    -0.2 5   15 194 
 BAR2 SZ ES   2   2045  2.48                             174     0.1 5   15 194 
 BAR2 SZ I        2045  2.94        17.7 0.26                            15 194 
 GIR2 SZ EP   2   2044 46.56                             165    -0.4 5   39 353 
 BRR  HZ EP       2044 48.27                             152    -0.110   75 304 
 BRR  HZ I        2044 48.50        23.1 0.16                            75 304 
 BRR  HN ES       2045  5.69                             152     0.110   75 304 
 RUS  HZ EP   2   2044 50.78                             148     0.6 5   92 175 
 RUS  HN ES   1   2045  8.64                             148    -0.1 7   92 175 
 RUS  HZ I        2045 10.20         6.1 0.16                            92 175 
 GUE  SZ EP   2   2044 52.63                             139     0.3 5  125  12 
 GUE  SZ I        2045 14.61         2.3 0.10                           125  12 
                                                                                
