 2013  725 2015 11.8 L   6.789 -73.150138.0  RSN  8 0.5 1.9LRSN                1
 GAP=137        1.31       5.1     5.3  8.1 -0.3673E+01  0.1276E+02  0.8879E+01E
 Epicentro: LOS SANTOS - SANTANDER                                             3
 ACTION:UPD 13-08-12 10:40 OP:ep   STATUS:               ID:20130725201511 L   I
 OLDACT:DUP 13-07-25 23:22 OP:nd   STATUS:               ID:20130725200960d    3
 2013-07-25-2009-59M.COL___266                                                 6
 STAT SP IPHASW D HRMM SECON CODA AMPLIT PERI AZIMU VELO AIN AR TRES W  DIS CAZ7
 GIR2 SZ EP       2015 30.21                             166   -0.3810 32.4 351 
 GIR2 SZ ES       2015 44.96                             166   -0.2810 32.4 351 
 GIR2 SZ I        2015 47.40        12.5 0.56            166           32.4 351 
 BRR  HZ IP     C 2015 32.04                             151   -0.1010 71.4 300 
 BRR  HN ES       2015 48.79                             151    0.8010 71.4 300 
 BRR  HZ I        2015 52.83        12.5 0.16            151           71.4 300 
 PAM  SZ EP       2015 32.93                             149   -0.3510 78.6  39 
 PAM  SN ES       2015 50.36                             149    0.3310 78.6  39 
 PAM  SZ I        2015 52.40        23.3 0.58            153           78.6  39 
 RUS  HZ EP       2015 34.72                             143   -0.0010 99.4 176 
 RUS  HN ES       2015 52.89                             143    0.3010 99.4 176 
 RUS  HZ I        2015 53.86         3.9 0.18            146           99.4 176 
 PTB  HZ EP       2015 37.21                             130   -0.89 9  147 259 
 PTB  HN ES       2015 57.67                             130   -0.93 9  147 259 
 PTB  HZ I        2016  0.13        10.3 0.16            132            147 259 
 SPBC HZ EP       2015 39.61                             127   -0.00 9  162 219 
 SPBC HN ES       2016  1.17                             127   -0.12 9  162 219 
 SPBC HZ I        2016  7.29        13.7 0.22            130            162 219 
 ZAR  HZ EP       2015 44.69                             121    0.92 9  204 292 
 ZAR  HE ES       2016  8.72                             121    0.03 9  204 292 
 ZAR  HZ I        2016 14.90        16.9 0.42            123            204 292 
 GUY2CHZ EP       2015 55.51                             111    0.56 7  300 235 
 GUY2CHN ES       2016 29.38                             111    0.78 7  300 235 
 GUY2CHZ I        2016 35.83         2.9 0.26                           300 235 
                                                                                
