 2016  725 2335  2.5 L   6.404 -73.502121.3  RSN  5 0.3 1.5LRSN                1
 GAP=138        0.63       4.2     3.9  6.4  0.8073E+01  0.5169E+01  0.2885E+01E
 Epicentro: CONTRATACION - SANTANDER                                           3
 ACTION:UPD 17-03-29 16:55 OP:lp   STATUS:               ID:20160725233502 L   I
 OLDACT:REG 16-07-26 03:03 OP:dnl  STATUS:               ID:20160725232759     3
 2016-07-25-2327-59S.COL___334                                                 6
 STAT SP IPHASW D HRMM SECON CODA AMPLIT PERI AZIMU VELO AIN AR TRES W  DIS CAZ7
 BAR2 EZ EP   2   2335 19.00                             160   -0.80 5 41.1  59 
 BAR2 EZ ES   2   2335 32.51                             160   -0.77 5 41.1  59 
 BAR2 EZ I        2335 34.27         8.3 0.48            147           41.1  59 
 RUS  HZ EP       2335 21.91                             147    0.0010 73.1 141 
 RUS  HN ES       2335 37.23                             147    0.1910 73.1 141 
 RUS  HZ I        2335 39.00         3.6 0.28            141           73.1 141 
 BRR  HZ EP       2335 21.91                             144    0.1510 81.2 343 
 BRR  HZ I        2335 36.07         7.7 0.32            129           81.2 343 
 BRR  HN ES       2335 36.94                             144    0.1610 81.2 343 
 PTB  HZ EP       2335 23.80                             136    0.0110  107 278 
 PTB  HN ES       2335 40.26                             136   -0.1310  107 278 
 PTB  HZ I        2335 44.06         5.6 0.46            126            107 278 
 ZAR  HZ EP   4   2335 35.48                             118    3.28 0  192 309 
 ZAR  HE ES   4   2335 56.86                             118    1.49 0  192 309 
 ZAR  HZ I        2336  2.68         4.2 0.38            109            192 309 
                                                                                
