 2017  225 2323 38.3 L   6.798 -73.140150.8  RSN  7 0.5 1.7LRSN                1
 GAP=137        1.17       5.5     5.0  7.8 -0.1703E+01  0.1030E+02  0.5516E+01E
 Epicentro: LOS SANTOS - SANTANDER                                             3
 ACTION:UPD 17-05-24 15:40 OP:jn   STATUS:               ID:20170225232338 L   I
 OLDACT:UP  17-02-26 10:26 OP:ar   STATUS:               ID:20170225231747     3
 OLDACT:REG 17-02-26 09:23 OP:ar   STATUS:               ID:20170225231747     3
 2017-02-25-2318-00M.COL___382                                                 6
 STAT SP IPHASW D HRMM SECON CODA AMPLIT PERI AZIMU VELO AIN AR TRES W  DIS CAZ7
 BAR2 EZ EP       2323 58.90                             171    0.3510 23.3 192 
 BAR2 EZ ES       2324 13.95                             171   -0.3810 23.3 192 
 BAR2 EZ I        2324 15.02        11.2 0.48            171           23.3 192 
 BRR  HZ EP       2324  0.28                             153    0.2410 71.8 298 
 BRR  HN ES       2324 17.82                             153    0.8210 71.8 298 
 PAM  EZ EP       2324  1.26                             152    0.2110 77.1  39 
 PAM  EN ES       2324 18.56                             152   -0.2310 77.1  39 
 PAM  EZ I        2324 20.87         5.4 0.62            154           77.1  39 
 RUS  HZ EP       2324  2.52                             145   -0.0210  100 176 
 RUS  HN ES       2324 21.27                             145   -0.1810  100 176 
 RUS  HZ I        2324 23.62         5.9 0.48            147            100 176 
 PTB  HZ EP       2324  5.36                             133   -0.39 9  148 259 
 PTB  HN ES       2324 26.65                             133   -0.50 9  148 259 
 PTB  HZ I        2324 33.72         7.2 0.38            133            148 259 
 ZAR  HE ES       2324 36.19                             123   -0.59 9  205 292 
 ZAR  HZ I        2324 42.44         7.6 0.40            124            205 292 
 NOR  HZ EP       2324 14.00                             119   -0.38 8  235 235 
 NOR  HE ES       2324 43.48                             119    0.97 8  235 235 
                                                                                
