 2010 1225 2044  2.7 L   6.826 -73.137143.6  RSN  9 0.3 1.8LRSN                1
 GAP=137        0.66       2.9     5.4  5.3 -0.6487E+01  0.7843E+01 -0.6282E+00E
 Epicentro: LOS SANTOS - SANTANDER                                             3
 ACTION:UP  11-01-14 15:27 OP:pat  STATUS:               ID:20101225204402 L   I
 2010-12-25-2042-28S.COL___133                                                 6
 STAT SP IPHASW D HRMM SECON CODA AMPLIT PERI AZIMU VELO SNR AR TRES W  DIS CAZ7
 BAR2 SZ EP       2044 22.22                             169     0.010   26 191 
 BAR2 SZ ES   1   2044 37.57                             169     0.2 7   26 191 
 BAR2 SZ I        2044 39.98        18.7 0.63                            26 191 
 RUS  HZ EP       2044 26.59                             143     0.110  103 177 
 RUS  HN ES   1   2044 45.01                             143     0.0 7  103 177 
 GRA  SZ IP       2044 27.03                             137    -0.510  123  17 
 GRA  SZ ES   1   2044 46.70                             137    -0.2 7  123  17 
 GRA  SZ I        2044 49.59         9.3 0.57                           123  17 
 OCA  SZ EP       2044 31.08                             130     0.5 9  157 353 
 OCA  SZ I        2044 59.65         7.7 0.17                           157 353 
 YOP  SZ IP       2044 32.88                             125     0.0 9  181 154 
 YOP  SZ I        2044 33.62         4.1 0.46                           181 154 
 NOR  SZ EP       2044 38.73                             118     0.1 8  237 234 
 NOR  SN ES   1   2045  6.13                             118    -0.5 6  237 234 
 CHI  HZ EP   2   2044 40.57                             116    -0.1 4  252 195 
 CHI  HN ES   2   2045  9.84                             116    -0.4 4  252 195 
 CHI  HZ I        2045 13.44         3.2 0.59                           252 195 
 RREF HZ EP   3   2044 50.38                             110     1.3 2  324 229 
 RREF HN ES   3   2045 25.49                             110     0.3 2  324 229 
 RREF HZ I        2045 34.62         4.7 0.32                           324 229 
 PRA  HZ EP       2044 56.49                             106     0.0 6  395 209 
 PRA  HN ES   2   2045 38.19                             106    -0.3 3  395 209 
                                                                                
