 2015 1125 2108 53.8 L   6.802 -73.160138.6  RSN  6 0.4 1.8LRSN                1
 GAP=145        0.73       6.5     5.7  8.5 -0.2015E+02  0.2362E+02 -0.9430E+00E
 Epicentro: LOS SANTOS - SANTANDER                                             3
 ACTION:UPD 15-12-28 16:13 OP:cam  STATUS:               ID:20151125210853 L   I
 OLDACT:REG 15-11-26 07:10 OP:dnl  STATUS:               ID:20151125210749     3
 2015-11-25-2107-49M.COL___304                                                 6
 STAT SP IPHASW D HRMM SECON CODA AMPLIT PERI AZIMU VELO AIN AR TRES W  DIS CAZ7
 BAR2 EZ EP       21 9 12.73                             170    0.2110 23.3 186 
 BAR2 EZ ES   2   21 9 26.68                             170   -0.48 5 23.3 186 
 BAR2 EZ I        21 9 29.57         7.9 0.30            169           23.3 186 
 PAM  EZ EP       21 9 15.38                             149    0.1110 78.3  41 
 PAM  EE ES       21 9 32.06                             149    0.0210 78.3  41 
 PAM  EZ I        21 9 34.49         8.2 0.31            156           78.3  41 
 PTB  HZ EP       21 9 19.32                             131   -0.68 9  146 259 
 PTB  HE ES   2   21 9 40.24                             131   -0.24 5  146 259 
 PTB  HZ I        21 9 43.18        34.8 0.04            132            146 259 
 SPBC HZ EP   2   21 9 22.22                             127    0.59 5  162 218 
 SPBC HE ES   2   21 9 43.96                             127    0.59 5  162 218 
 SPBC HZ I        21 9 50.01         6.9 0.22            131            162 218 
 ZAR  HZ EP   1   21 9 25.95                             121    0.37 6  202 292 
 ZAR  HE ES   2   21 9 50.96                             121    0.56 4  202 292 
 ZAR  HZ I        21 9 56.63         4.5 0.13            124            202 292 
 NOR  HZ EP   2   21 9 28.45                             117   -0.50 4  234 234 
 NOR  HE ES   2   21 9 56.48                             117    0.08 4  234 234 
                                                                                
