 2017  125 2317  3.1 L   6.742 -73.198137.8  RSN  5 0.2 1.4LRSN                1
 GAP=227        0.67       5.0     4.6  5.4  0.1407E+02  0.4711E+01  0.1087E+01E
 Epicentro: VILLANUEVA - SANTANDER                                             3
 ACTION:UPD 17-05-22 16:03 OP:jn   STATUS:               ID:20170125231703 L   I
 OLDACT:REG 17-01-26 02:41 OP:edw  STATUS:               ID:20170125230750     3
 2017-01-25-2308-00M.COL___354                                                 6
 STAT SP IPHASW D HRMM SECON CODA AMPLIT PERI AZIMU VELO AIN AR TRES W  DIS CAZ7
 BAR2 EZ EP       2317 21.27                             173   -0.3710 16.6 174 
 BAR2 EZ ES       2317 35.97                             173   -0.1310 16.6 174 
 BAR2 EZ I        2317 37.52         8.7 0.20            172           16.6 174 
 BRR  HZ EP       2317 23.12                             152   -0.1710 69.7 305 
 BRR  HN ES       2317 39.44                             152    0.3910 69.7 305 
 RUS  HZ EP     C 2317 25.99                             144    0.3510 94.8 172 
 RUS  HN ES       2317 43.23                             144    0.0110 94.8 172 
 RUS  HZ I        2317 44.52         2.1 0.22            145           94.8 172 
 PTB  HZ EP       2317 28.95                             132    0.16 9  141 261 
 PTB  HN ES       2317 48.63                             132   -0.20 9  141 261 
 PTB  HZ I        2317 51.16         4.0 0.14            130            141 261 
 ZAR  HE ES       2317 59.36                             121   -0.06 9  201 294 
 ZAR  HZ I        2318  5.50         3.9 0.28            121            201 294 
                                                                                
