 2012  825 2151 33.1 L   6.781 -73.153145.0  RSN  9 0.3 2.2LRSN                1
 GAP=137        0.62       3.6     3.6  4.9  0.5576E+00  0.4886E+01  0.4078E+01E
 Epicentro: LOS SANTOS - SANTANDER                                             3
 ACTION:UPD 12-09-10 11:58 OP:ep   STATUS:               ID:20120825215133 L   I
 2012-08-25-2150-00M.COL___218                                                 6
 STAT SP IPHASW D HRMM SECON CODA AMPLIT PERI AZIMU VELO AIN AR TRES W  DIS CAZ7
 BAR2 SZ EP   1   2151 52.74                             171    0.10 7 21.1 189 
 BAR2 SZ ES   1   2152  7.60                             171   -0.24 7 21.1 189 
 BAR2 SZ I        2152  9.16        79.6 0.23                          21.1 189 
 GIR2 SZ EP   1   2151 52.63                             166   -0.15 7 33.2 352 
 GIR2 SZ ES   1   2152  8.46                             166    0.37 7 33.2 352 
 BRR  HZ EP   1   2151 54.53                             152    0.30 7 71.6 300 
 BRR  HN ES   1   2152 11.07                             152    0.40 7 71.6 300 
 BRR  HZ I        2152 15.93        27.9 0.15                          71.6 300 
 PAM  SZ EP   1   2151 55.48                             150    0.08 7 79.5  39 
 PAM  SZ I        2151 55.88        48.0 0.20                          79.5  39 
 PAM  SN ES   1   2152 12.37                             150   -0.39 7 79.5  39 
 RUS  HZ EP   2   2151 56.41                             144   -0.26 5 98.6 176 
 RUS  HN ES   1   2152 15.11                             144    0.09 7 98.6 176 
 PTB  HZ EP   1   2151 59.25                             132   -0.69 7  147 260 
 PTB  HN ES   1   2152 20.45                             132   -0.40 7  147 260 
 PTB  HZ I        2152 22.62        16.4 0.13                           147 260 
 ZAR  HN ES   1   2152 30.86                             122    0.04 6  204 293 
 ZAR  HZ I        2152 38.68        13.3 0.33                           204 293 
 CHI  HZ EP   1   2152 10.95                             117    0.39 6  246 195 
 CHI  HZ I        2152 12.44         7.3 0.22                           246 195 
 CHI  HN ES   2   2152 39.89                             117    0.15 4  246 195 
 HEL  HZ EP   1   2152 13.51                             115    0.33 6  271 256 
 HEL  HZ I        2152 52.68         9.8 0.39                           271 256 
                                                                                
