 2011  725 2048  2.1 L   6.752 -73.092144.2  RSN  8 0.3 2.1LRSN                1
 GAP=162        0.47       2.2     4.0  4.3 -0.2803E+01  0.1908E+01  0.1281E+01E
 Epicentro: LOS SANTOS - SANTANDER                                             3
 ACTION:UPD 12-07-25 14:03 OP:epov STATUS:               ID:20110725204802 L   I
 2011-07-25-2045-29S.COL___143                                                 6
 STAT SP IPHASW D HRMM SECON CODA AMPLIT PERI AZIMU VELO AIN AR TRES W  DIS CAZ7
 BAR2 SZ EP   1   2048 21.40                             172   -0.13 7 20.3 209 
 BAR2 SZ ES   1   2048 36.43                             172   -0.22 7 20.3 209 
 BAR2 SZ I        2048 37.49        47.9 0.25                          20.3 209 
 BTL  SZ EP   1   2048 22.02                             169    0.35 7 26.8 314 
 BRR  HZ EP   1   2048 23.38                             150   -0.21 7 79.0 300 
 BRR  HZ I        2048 23.67        31.3 0.16                          79.0 300 
 BRR  HN ES   1   2048 40.50                             150    0.19 7 79.0 300 
 RUS  HZ EP   1   2048 25.47                             145    0.12 7 95.0 179 
 RUS  HN ES   1   2048 43.58                             145    0.13 7 95.0 179 
 RUS  HZ I        2048 45.15        11.6 0.20                          95.0 179 
 BRI  SZ EP   1   2048 26.08                             140   -0.05 7  112  17 
 BRI  SZ ES   1   2048 44.74                             140   -0.10 7  112  17 
 BRI  SZ I        2048 51.13        15.5 0.39                           112  17 
 OCA  SZ ES   1   2048 53.32                             128   -0.03 7  166 351 
 OCA  SZ I        2048 56.42        15.6 0.33                           166 351 
 NOR  SN ES   1   2049  6.03                             118    0.09 6  237 236 
 PRA  HZ EP   1   2048 55.83                             106    0.41 4  390 211 
 PRA  HE ES   1   2049 36.20                             106   -0.78 4  390 211 
                                                                                
