 2012  825 2140 14.5 L   6.819 -73.152146.3  RSN 14 0.4 3.2LRSN 3.5WRSN        1
 SPEC AVERAGE  MO 14.3 ST 31.8 OM  3.2 f0 4.40 R0.3410 AL 3.07 WI 16.2 MW  3.5 3
 SPEC SD       MO  0.1 ST 21.5 OM  0.6 f00.635 R0.0490 AL      WI      MW  0.1 3
 GAP= 65        0.87       3.0     3.0  5.1  0.6972E+00  0.2896E+01  0.4468E+01E
 Epicentro: LOS SANTOS - SANTANDER                                             3
 SPEC TAM HH N MO 14.3 ST 12.1 OM  2.6 f0 3.53 R0.4164 AL 3.54 WI  7.0 MW  3.5 3
 SPEC TAM HH N T2141 3 K 0.000 GD  213 VS 4.20 DE 3.00 Q0230.0 QA 0.60 VS 4.20 3
 SPEC PTB HH N MO 14.1 ST 13.2 OM  2.4 f0 4.28 R0.3435 AL 2.32 WI 16.3 MW  3.3 3
 SPEC PTB HH N T2141 0 K 0.000 GD  208 VS 4.20 DE 3.00 Q0230.0 QA 0.60 VS 4.20 3
 SPEC RUS HH N MO 14.5 ST 61.5 OM  2.9 f0 5.12 R0.2871 AL 3.02 WI 10.1 MW  3.6 3
 SPEC RUS HH N T214056 K 0.000 GD  178 VS 4.20 DE 3.00 Q0230.0 QA 0.60 VS 4.20 3
 SPEC HEL HH N MO 14.4 ST 25.7 OM  2.5 f0 4.34 R0.3387 AL 3.27 WI 29.4 MW  3.5 3
 SPEC HEL HH N T214125 K 0.000 GD  308 VS 4.20 DE 3.00 Q0230.0 QA 0.60 VS 4.20 3
 SPEC CHI HH N MO 14.3 ST 16.7 OM  2.5 f0 3.84 R0.3828 AL 2.67 WI 17.4 MW  3.5 3
 SPEC CHI HH N T214121 K 0.000 GD  289 VS 4.20 DE 3.00 Q0230.0 QA 0.60 VS 4.20 3
 SPEC BRR HH N MO 14.5 ST 61.8 OM  2.9 f0 5.30 R0.2774 AL 3.58 WI 16.7 MW  3.6 3
 SPEC BRR HH N T214052 K 0.000 GD  162 VS 4.20 DE 3.00 Q0230.0 QA 0.60 VS 4.20 3
 ACTION:UPD 12-09-10 11:58 OP:ep   STATUS:               ID:20120825214014 L   I
 2012-08-25-2140-00M.COL___218                                                 6
 STAT SP IPHASW D HRMM SECON CODA AMPLIT PERI AZIMU VELO AIN AR TRES W  DIS CAZ7
 BAR2 SZ EP       2140 34.21                             170   -0.0210 25.3 188 
 BAR2 SZ ES   1   2140 49.60                             170   -0.03 7 25.3 188 
 BAR2 SZ I        2140 50.73       633.6 0.23                          25.3 188 
 GIR2 SZ EP   1   2140 34.23                             168    0.06 7 29.1 351 
 GIR2 SZ ES   1   2140 49.66                             168    0.13 7 29.1 351 
 BRR  HZ EP       2140 36.01                             153    0.4010 69.6 297 
 BRR  HN ES   1   2140 52.99                             153    0.90 7 69.6 297 
 BRR  HZ I        2140 57.69       196.6 0.20                          69.6 297 
 PAM  SZ IP       2140 36.93                             151    0.2310 76.2  41 
 PAM  SZ I        2140 37.44       334.9 0.21                          76.2  41 
 PAM  SN ES   1   2140 53.96                             151   -0.06 7 76.2  41 
 RUS  HZ EP       2140 38.14                             143   -0.3110  103 176 
 RUS  HN ES   1   2140 56.67                             143   -0.47 7  103 176 
 RUS  HZ I        2140 58.15       171.0 0.38                           103 176 
 PTB  HZ EP       2140 40.70                             132   -0.78 9  148 258 
 PTB  HN ES   1   2141  1.75                             132   -0.79 7  148 258 
 PTB  HZ I        2141  5.59       114.0 0.11                           148 258 
 TAM  HZ IP     C 2140 42.49                             130    0.17 9  156 106 
 TAM  HZ I        2140 42.78       187.2 0.22                           156 106 
 TAM  HN ES   1   2141  4.06                             130    0.03 7  156 106 
 OCA  HZ EP   1   2140 42.39                             130   -0.25 7  158 353 
 OCA  HN ES   1   2141  3.76                             130   -0.84 7  158 353 
 YOP  SZ EP   1   2140 44.94                             126    0.15 7  181 153 
 YOP  SN ES   1   2141  8.74                             126    0.32 7  181 153 
 YOP  SZ I        2141 12.35       226.9 0.47                           181 153 
 ZAR  HZ EP   1   2140 47.02                             123    0.19 6  203 292 
 ZAR  HE ES   1   2141 12.46                             123    0.41 6  203 292 
 ZAR  HZ I        2141 18.35       156.4 0.47                           203 292 
 CHI  HZ EP       2140 52.14                             117   -0.28 8  250 195 
 CHI  HN ES   1   2141 21.85                             117   -0.16 6  250 195 
 CHI  HZ I        2141 29.25        90.7 0.48                           250 195 
 HEL  HZ EP   1   2140 55.50                             115    0.78 6  272 255 
 HEL  HN ES   1   2141 26.06                             115   -0.04 6  272 255 
 HEL  HZ I        2141 34.34       106.3 0.49                           272 255 
 TOL  SZ EP   1   2141  3.46                             109    0.57 5  345 224 
 TOL  SZ ES   1   2141 41.21                             109    0.57 5  345 224 
 TOL  SZ I        2141 51.32        64.1 0.63                           345 224 
 PRA  HZ EP   1   2141  7.99                             106   -0.21 4  394 209 
 PRA  HN ES   1   2141 50.76                             106    0.66 4  394 209 
                                                                                
