 2017 1125 2158 19.8 L   6.523 -73.507103.8  RSN 10 0.6 1.6LRSN                1
 GAP= 68        1.36       3.5     5.0  8.3 -0.3383E+01  0.1021E+02 -0.5685E+01E
 Epicentro: EL CARMEN - SANTANDER                                              3
 ACTION:UPD 17-12-12 20:00 OP:rebc STATUS:               ID:20171125215819 L   I
 OLDACT:REG 17-11-26 05:08 OP:lv   STATUS:               ID:20171125214738     3
 2017-11-25-2148-00M.COL___489                                                 6
 STAT SP IPHASW D HRMM SECON CODA AMPLIT PERI AZIMU VELO AIN AR TRES W  DIS CAZ7
 BAR2 EZ IP     D 2158 34.96                             158    0.0710 36.7  78 
 BAR2 EZ ES       2158 47.20                             158    0.5310 36.7  78 
 RUS  HZ EP       2158 38.01                             138   -0.2810 84.0 146 
 RUS  HN ES       2158 53.03                             138    0.3210 84.0 146 
 RUS  HZ I        2158 53.85         8.5 0.28            126           84.0 146 
 PTB  HZ IP   9 D 2158 37.73                             131   -1.73 0  105 271 
 PTB  HN ES       2158 52.63                                   -0.4410  105 271 
 PTB  HZ I        2158 54.09         6.9 0.10            114            105 271 
 SPBC HZ EP       2158 39.74                             128   -0.7510  115 213 
 SPBC HN ES       2158 55.86                             128   -0.7710  115 213 
 SPBC HZ I        2158 58.65        15.0 0.14            113            115 213 
 PAM  EZ EP       2158 42.06                             125   -0.1510  127  45 
 PAM  EN ES       2158 59.54                             125   -0.1610  127  45 
 PAM  EZ I        2159  0.98         7.2 0.18            113            127  45 
 NOR  HN ES       2159  7.68                                   -0.47 9  184 235 
 ZAR  HN ES       2159 10.24                             114    0.91 9  184 306 
 NOR  HZ EP   9   2158 46.35                             114   -1.40 0  184 235 
 NOR  HZ I        2159 10.04         5.2 0.56            103            184 235 
 ZAR  HZ EP       2158 47.36                             114   -0.27 9  184 306 
 ZAR  HZ I        2159 11.91        10.2 0.38            103            184 306 
 OCA  HZ EP       2158 49.26                             113    0.65 9  191   6 
 OCA  HN ES       2159 10.24                             113   -0.85 9  191   6 
 CHI  HZ EP       2158 51.98                             110    0.79 8  211 187 
 CHI  HN ES       2159 15.95                             110    0.27 8  211 187 
 CHI  HZ I        2159 19.90         2.3 0.46            102            211 187 
 GUY2CHZ EP   4   2158 58.55                             106    2.65 0  251 235 
 GUY2CHN ES   4   2159 25.08                             106    1.02 0  251 235 
 GUY2CHZ I        2159 28.73         3.5 0.42                           251 235 
                                                                                
