 2014  725 2227 29.5 L   6.840 -73.175139.3  RSN 19 0.5 2.6LRSN                1
 GAP= 68        1.14       2.8     3.4  5.3 -0.8213E+00  0.5572E+01  0.3321E+01E
 Epicentro: ZAPATOCA - SANTANDER                                               3
 ACTION:UPD 15-03-16 20:47 OP:nd   STATUS:               ID:20140725222729 L   I
 OLDACT:REG 14-07-26 05:07 OP:stll STATUS:               ID:20140725221814     3
 2014-07-25-2218-14M.COL___263                                                 6
 STAT SP IPHASW D HRMM SECON CODA AMPLIT PERI AZIMU VELO AIN AR TRES W  DIS CAZ7
 BAR2 SZ EP       2227 48.95                             168    0.4810 27.4 182 
 BAR2 SZ ES       2228  3.02                             168   -0.2310 27.4 182 
 BAR2 SZ I        2228  5.82        69.3 0.22            166           27.4 182 
 BRR  HZ IP     C 2227 50.44                             153    0.7410 66.3 296 
 BRR  HE ES       2228  5.71                             153    0.2810 66.3 296 
 BRR  HZ I        2228 10.71        62.3 0.18            152           66.3 296 
 PAM  SZ IP     D 2227 51.24                             150    0.2610 76.2  44 
 PAM  SN ES       2228  7.80                             150    0.0810 76.2  44 
 PAM  SZ I        2228 10.34        71.6 0.46            153           76.2  44 
 RUS  HZ EP       2227 53.04                             141    0.0410  105 174 
 RUS  HN ES       2228 11.23                             141   -0.0810  105 174 
 RUS  HZ I        2228 13.45        22.5 0.30            140            105 174 
 PTB  HZ EP       2227 55.46                             131   -0.30 9  146 257 
 PTB  HN ES       2228 16.23                             131   -0.00 9  146 257 
 PTB  HZ I        2228 19.15        35.3 0.18            129            146 257 
 OCA  HN ES       2228 17.36                             129   -0.87 9  155 354 
 TAM  HZ IP     D 2227 57.20                             128    0.09 9  159 106 
 TAM  HZ I        2227 57.36        76.9 0.38            129            159 106 
 SPBC HZ EP       2227 58.20                             127    0.52 9  165 217 
 SPBC HZ I        2228 28.19        39.7 0.24            126            165 217 
 ZAR  HZ EP       2228  1.15                             122    0.08 9  199 291 
 ZAR  HE ES       2228 25.94                             122    0.27 9  199 291 
 ZAR  HZ I        2228 32.23        49.6 0.42            121            199 291 
 NOR  HZ EP       2228  5.37                             117    0.49 8  235 233 
 NOR  HE ES       2228 32.14                             117   -0.32 8  235 233 
 SML  HZ EP       2228  4.50                             117   -0.70 8  238 336 
 SML  HE ES       2228 32.34                             117   -0.70 8  238 336 
 SML  HZ I        2228 38.48        26.4 0.10            117            238 336 
 CHI  HZ EP       2228  5.95                             115   -1.30 8  252 194 
 CHI  HE ES       2228 36.34                             115   -0.34 8  252 194 
 CHI  HZ I        2228 44.74        12.0 0.54            115            252 194 
 HEL  HZ EP       2228 10.29                             114    1.10 8  270 255 
 HEL  HE ES       2228 40.37                             114    0.24 8  270 255 
 HEL  HZ I        2228 48.27        13.3 0.44            113            270 255 
 GUY2CHZ EP       2228 13.85                             111    1.02 7  301 234 
 GUY2CHN ES       2228 46.12                             111   -0.49 7  301 234 
 GUY2CHZ I        2228 56.92        19.6 0.34                           301 234 
 DBB  SZ EP       2228 16.65                             108    0.32 7  336 274 
 DBB  SZ ES       2228 52.73                             108   -0.11 7  336 274 
 DBB  SZ I        2228 56.72        42.9 0.54            108            336 274 
 TOL  SZ EP       2228 17.16                             108   -0.47 7  344 224 
 TOL  SN ES       2228 54.39                             108   -0.76 7  344 224 
 ANIL HE ES       2228 57.92                             107   -0.01 6  358 224 
 ANIL HZ I        2229  3.76        29.6 0.30            107            358 224 
 PRA  HZ EP       2228 23.31                             105    0.22 6  394 209 
 PRA  HN ES       2229  4.45                             105   -0.43 6  394 209 
 PRA  HZ I        2229 11.43        12.6 0.28            105            394 209 
 ORTC HZ EP       2228 23.32                             105   -0.10 6  397 215 
 ORTC HN ES       2229  5.37                             105   -0.10 6  397 215 
 ORTC HZ I        2229 12.18         8.0 0.48            105            397 215 
                                                                                
