 2011  525 2321  8.2 L   6.787 -73.106137.0  RSN  7 0.1 1.5LRSN                1
 GAP=142        0.36       3.4     6.1  4.3 -0.1332E+01 -0.3382E+01 -0.7196E+01E
 Epicentro: LOS SANTOS - SANTANDER                                             3
 ACTION:UP  11-06-29 08:56 OP:tino STATUS:               ID:20110525232108 L   I
 2011-05-25-2318-43S.COL___114                                                 6
 STAT SP IPHASW D HRMM SECON CODA AMPLIT PERI AZIMU VELO SNR AR TRES W  DIS CAZ7
 BTL  SZ EP       2321 26.89                             170     0.110   23 309 
 BTL  SZ ES   2   2321 41.07                             170    -0.2 5   23 309 
 BAR2 SZ EP       2321 26.67                             170    -0.110   23 201 
 BAR2 SZ ES   1   2321 41.35                             170     0.1 7   23 201 
 BAR2 SZ I        2321 42.52        11.6 0.43                            23 201 
 GIR2 SZ EP       2321 26.74                             165    -0.210   34 343 
 GIR2 SZ ES   3   2321 41.95                             165     0.5 2   34 343 
 BRR  HZ I        2321 32.33        11.4 0.43                            76 298 
 PAM  SZ EP   2   2321 29.53                             150     0.1 5   76  36 
 BRR  HZ EP       2321 28.77                             149     0.110   76 298 
 RUS  HZ EP   2   2321 31.13                             142     0.1 5   99 179 
 RUS  HN ES   2   2321 48.74                             142     0.0 5   99 179 
 RUS  HZ I        2321 50.11         2.6 0.15                            99 179 
 GRA  SZ EP       2321 32.68                             135     0.010  126  15 
 GRA  SZ I        2321 33.70         5.8 0.45                           126  15 
                                                                                
