 2014  625 2244 46.2 L   6.761 -73.110146.2  RSN  7 0.4 1.9LRSN                1
 GAP=238        0.88       5.2     6.0  8.2  0.7737E+01  0.1670E+01  0.3020E+01E
 Epicentro: LOS SANTOS - SANTANDER                                             3
 ACTION:UPD 14-07-01 22:56 OP:nd   STATUS:               ID:20140625224446 L   I
 OLDACT:UP  14-06-26 03:02 OP:mh   STATUS:               ID:20140625223812     3
 OLDACT:UP  14-06-26 03:02 OP:mh   STATUS:               ID:20140625223812     3
 OLDACT:UP  14-06-26 03:02 OP:mh   STATUS:               ID:20140625223812     3
 OLDACT:UP  14-06-26 03:02 OP:mh   STATUS:               ID:20140625223812     3
 OLDACT:UP  14-06-26 03:02 OP:mh   STATUS:               ID:20140625223812     3
 OLDACT:REG 14-06-26 02:34 OP:mh   STATUS:               ID:20140625223812     3
 2014-06-25-2238-12M.COL___259                                                 6
 STAT SP IPHASW D HRMM SECON CODA AMPLIT PERI AZIMU VELO AIN AR TRES W  DIS CAZ7
 BAR2 SZ EP       2245  5.77                             172   -0.0610 20.3 203 
 BAR2 SZ I        2245 22.26        23.0 0.25            174           20.3 203 
 BRR  HZ EP       2245  8.24                             151    0.5110 76.8 300 
 BRR  HN ES       2245 24.04                             151   -0.4710 76.8 300 
 BRR  HZ I        2245 29.24        14.4 0.12            154           76.8 300 
 RUS  HZ EP   1   2245  9.94                             145    0.26 7 96.0 178 
 RUS  HN ES   1   2245 28.38                             145    0.40 7 96.0 178 
 RUS  HZ I        2245 29.84         9.2 0.45            148           96.0 178 
 PTB  HZ EP       2245 13.36                             131   -0.13 9  151 261 
 PTB  HN ES   1   2245 35.16                             131    0.38 7  151 261 
 PTB  HZ I        2245 37.34        10.7 0.09            136            151 261 
 SPBC HZ EP       2245 13.90                             129   -0.76 9  162 221 
 SPBC HN ES   1   2245 36.74                             129   -0.12 7  162 221 
 ZAR  HZ EP   1   2245 19.47                             122    0.24 6  209 293 
 ZAR  HN ES   1   2245 45.16                             122    0.17 6  209 293 
 NOR  HN ES   1   2245 50.27                             118    0.27 6  235 236 
 NOR  HZ I        2245 52.41         5.4 0.17            122            235 236 
 URE  HN ES   4   2245 57.59                             113   -2.82 0  289 292 
                                                                                
