 2014  225 2109 45.1 L   6.806 -73.154144.8  RSN 10 0.4 1.9LRSN                1
 GAP=135        0.93       2.8     3.7  5.2 -0.5358E+00  0.5563E+01  0.1612E+01E
 Epicentro: LOS SANTOS - SANTANDER                                             3
 ACTION:UPD 14-03-10 08:13 OP:ep   STATUS:               ID:20140225210945 L   I
 OLDACT:REG 14-02-26 00:40 OP:carl STATUS:               ID:20140225210943     3
 2014-02-25-2109-43M.COL___245                                                 6
 STAT SP IPHASW D HRMM SECON CODA AMPLIT PERI AZIMU VELO AIN AR TRES W  DIS CAZ7
 BAR2 SZ EP       2110  4.59                             170   -0.0610 23.8 188 
 BAR2 SZ ES       2110 19.44                             170   -0.4410 23.8 188 
 BAR2 SZ I        2110 20.66        26.1 0.16            170           23.8 188 
 BRR  HZ EP       2110  6.56                             153    0.4510 70.1 298 
 BRR  HN ES       2110 23.24                             153    0.7710 70.1 298 
 BRR  HZ I        2110 24.84        14.1 0.46            150           70.1 298 
 PAM  SZ EP       2110  7.52                             151    0.2810 77.4  40 
 PAM  SN ES       2110 24.59                             151    0.1010 77.4  40 
 PAM  SZ I        2110 25.56         8.0 0.18            152           77.4  40 
 RUS  HZ EP       2110  8.59                             143   -0.2410  101 176 
 RUS  HE ES       2110 27.15                             143   -0.1710  101 176 
 RUS  HZ I        2110 28.03         7.7 0.20            144            101 176 
 PTB  HZ EP       2110 11.29                             132   -0.66 9  147 259 
 PTB  HN ES       2110 32.45                             132   -0.42 9  147 259 
 PTB  HZ I        2110 36.25         9.2 0.36            130            147 259 
 ZAR  HE ES       2110 42.44                             122   -0.13 9  203 292 
 ZAR  HZ I        2110 48.82        11.5 0.28            121            203 292 
 NOR  HZ EP       2110 20.62                             118   -0.15 8  234 234 
 NOR  HN ES       2110 48.66                             118    0.10 8  234 234 
 NOR  HZ I        2110 52.94        10.3 0.20            118            234 234 
 SML  HZ EP       2110 21.44                             117   -0.16 8  243 335 
 SML  HN ES       2110 49.66                             117   -0.38 8  243 335 
 SML  HZ I        2110 58.56         9.0 0.24            117            243 335 
 CHI  HZ EP       2110 22.84                             117    0.02 8  249 195 
 CHI  HE ES       2110 52.53                             117    0.32 8  249 195 
 CHI  HZ I        2110 59.90         2.1 0.26            117            249 195 
 GUY2CHZ EP       2110 29.36                             112    0.71 7  301 235 
 GUY2CHN ES       2111  2.90                             112    0.30 7  301 235 
 GUY2CHZ I        2111 11.22         6.1 0.38                           301 235 
                                                                                
