 2016  625 2220  6.1 L   6.761 -73.125153.3  RSN  8 0.4 1.8LRSN                1
 GAP=237        0.99       5.5     6.4  8.7  0.5085E+01  0.3150E+01 -0.7275E+01E
 Epicentro: LOS SANTOS - SANTANDER                                             3
 ACTION:UPD 16-07-21 22:22 OP:rebc STATUS:               ID:20160625222006 L   I
 OLDACT:UP  16-06-26 05:24 OP:dani STATUS:               ID:20160625221745     3
 OLDACT:UP  16-06-26 05:24 OP:dani STATUS:               ID:20160625221745     3
 OLDACT:REG 16-06-26 03:27 OP:dani STATUS:               ID:20160625221745     3
 2016-06-25-2217-45M.COL___333                                                 6
 STAT SP IPHASW D HRMM SECON CODA AMPLIT PERI AZIMU VELO AIN AR TRES W  DIS CAZ7
 BRR  HZ EP       2220 28.58                             152    0.3310 75.3 301 
 BRR  HN ES       2220 45.85                             152    0.2910 75.3 301 
 BRR  HZ I        2220 52.18        14.3 0.46                          75.3 301 
 RUS  HZ EP       2220 30.29                             147    0.0410 96.2 177 
 RUS  HE ES       2220 48.87                             147   -0.2610 96.2 177 
 RUS  HZ I        2220 50.42         8.4 0.26                          96.2 177 
 PTB  HZ EP       2220 33.21                             133   -0.57 9  149 261 
 PTB  HE ES       2220 54.72                             133   -0.69 9  149 261 
 PTB  HZ I        2220 55.54         8.0 0.26                           149 261 
 SPBC HN ES       2220 57.83                             131    0.30 9  161 221 
 ZAR  HZ EP       2220 39.49                             123    0.10 8  208 293 
 ZAR  HE ES   4   2221  3.89                             123   -1.49 0  208 293 
 ZAR  HZ I        2221 10.07         7.2 0.52                           208 293 
 NOR  HE ES       2221 10.90                             120    0.56 8  234 236 
 HEL  HZ EP   4   2220 48.64                             116    1.84 0  273 257 
 HEL  HZ I        2221 12.57         2.8 0.52                           273 257 
 HEL  HN ES   4   2221 17.80                             116   -0.77 0  273 257 
 GUY2CHZ EP   4   2220 52.62                             114    2.66 0  301 236 
 GUY2CHN ES   4   2221 28.57                             114    4.36 0  301 236 
 GUY2CHZ I        2221 32.10         2.9 0.32                           301 236 
                                                                                
