 2013  825 2153 11.6 L   6.797 -73.152140.0  RSN 10 0.5 2.0LRSN                1
 GAP=136        1.07       4.5     4.6  6.5 -0.3184E+01  0.8485E+01  0.4276E+01E
 Epicentro: LOS SANTOS - SANTANDER                                             3
 ACTION:UPD 14-01-14 09:06 OP:ep   STATUS:               ID:20130825215311 L   I
 OLDACT:REG 13-08-25 23:05 OP:jn   STATUS:               ID:20130825214959     3
 2013-08-25-2149-59M.COL___271                                                 6
 STAT SP IPHASW D HRMM SECON CODA AMPLIT PERI AZIMU VELO AIN AR TRES W  DIS CAZ7
 BAR2 SZ EP   1   2153 30.97                             170    0.45 7 22.9 189 
 BAR2 SZ ES       2153 45.45                             170    0.1710 22.9 189 
 BAR2 SZ I        2153 47.43        21.1 0.38            168           22.9 189 
 BRR  HZ IP     D 2153 32.09                             152   -0.0010 70.8 299 
 BRR  HN ES       2153 48.91                             152    0.8210 70.8 299 
 BRR  HZ I        2153 52.28        17.9 0.38            151           70.8 299 
 PAM  SZ EP       2153 33.02                             150   -0.2210 78.1  40 
 PAM  SN ES       2153 49.91                             150   -0.2110 78.1  40 
 PAM  SZ I        2153 52.04        12.6 0.56            155           78.1  40 
 RUS  HZ EP       2153 34.62                             143   -0.1310  100 176 
 RUS  HN ES       2153 52.57                             143   -0.2510  100 176 
 RUS  HZ I        2153 55.24        10.1 0.34            144            100 176 
 PTB  HZ EP   1   2153 37.15                             131   -0.88 7  147 259 
 PTB  HN ES       2153 57.93                             131   -0.72 9  147 259 
 PTB  HZ I        2153 59.71        14.3 0.24            131            147 259 
 SPBC HZ EP       2153 39.84                             128    0.25 9  162 219 
 SPBC HN ES   1   2154  1.65                             128    0.23 7  162 219 
 SPBC HZ I        2154  9.24        10.1 0.26            129            162 219 
 ZAR  HZ EP   1   2153 44.04                             121    0.42 6  204 292 
 ZAR  HN ES   1   2154  7.95                             121   -0.65 6  204 292 
 ZAR  HZ I        2154 13.53        14.4 0.26            123            204 292 
 NOR  HZ EP   1   2153 46.43                             117   -0.48 6  234 234 
 NOR  HN ES       2154 14.54                             117    0.08 8  234 234 
 NOR  HZ I        2154 21.64         9.4 0.22            119            234 234 
 GUY2CHZ EP       2153 55.87                             111    1.02 7  300 235 
 GUY2CHZ I        2154 39.20         5.0 0.34                           300 235 
 PRA  HZ EP   2   2154  4.94                             106    0.10 3  391 210 
                                                                                
