 2011  225 2323 44.0 L   6.813 -73.139145.2  RSN 12 0.4 2.4LRSN                1
 GAP=103        0.86       3.5     5.5  6.7 -0.6620E+01  0.1249E+02 -0.1492E+01E
 Epicentro: LOS SANTOS - SANTANDER                                             3
 ACTION:UP  11-03-28 15:11 OP:jfem STATUS:               ID:20110225232344 L   I
 2011-02-25-2321-04S.COL___136                                                 6
 STAT SP IPHASW D HRMM SECON CODA AMPLIT PERI AZIMU VELO SNR AR TRES W  DIS CAZ7
 BAR2 SZ IP       2324  3.64                             170     0.110   25 191 
 BAR2 SZ ES   1   2324 19.08                             170     0.2 7   25 191 
 BAR2 SZ I        2324 20.38        62.5 0.21                            25 191 
 RUS  HZ EP       2324  7.52                             143    -0.310  102 177 
 RUS  HE ES   1   2324 25.96                             143    -0.4 7  102 177 
 RUS  HZ I        2324 27.57        20.8 0.41                           102 177 
 GRA  SZ EP       2324  9.44                             137     0.410  124  17 
 GRA  SZ ES   1   2324 28.80                             137     0.2 7  124  17 
 GRA  SZ I        2324 30.17        38.4 0.34                           124  17 
 OCA  SZ EP   1   2324 12.40                             129     0.3 7  159 353 
 OCA  SZ ES   2   2324 33.57                             129    -0.5 5  159 353 
 OCA  SZ I        2324 39.65        33.5 0.30                           159 353 
 YOP  SZ EP   2   2324 13.92                                    -0.2 4  180 154 
 YOP  SZ I        2324 14.76        14.9 0.17                           180 154 
 CHI  HZ EP       2324 21.72                             116    -0.1 8  250 195 
 CHI  HE ES   1   2324 51.77                             116     0.4 6  250 195 
 CHI  HZ I        2324 59.87        13.5 0.55                           250 195 
 ROSC BN ES   2   2324 52.36                                     0.3 4  254 211 
 ROSC BZ I        2324 58.19        40.1 0.18                           254 211 
 HEL  HZ EP   1   2324 23.89                             114    -0.4 6  273 256 
 HEL  HE ES   1   2324 54.93                             114    -0.8 6  273 256 
 HEL  HZ I        2325  4.18        17.6 0.34                           273 256 
 RREF HZ EP   1   2324 30.86                             110     0.6 5  323 229 
 RREF HN ES   2   2325  7.05                             110     0.7 3  323 229 
 RREF HZ I        2325 15.27        20.4 0.40                           323 229 
 DBB  SZ EP   1   2324 31.14                             109    -0.4 5  340 274 
 DBB  SZ ES   2   2325  8.05                             109    -0.5 3  340 274 
 DBB  SZ I        2325  9.66         2.8 0.39                           340 274 
 TOL  SZ EP   1   2324 33.15                             109     0.8 5  345 225 
 SDV  BZ EP   1   2324 33.01                                    -0.8 5  359  50 
 SDV  BZ I        2325 12.53         4.8 0.32                           359  50 
                                                                                
