 2014  525 2232 57.0 L   6.912 -73.202157.4  RSN  6 0.5 1.8LRSN                1
 GAP=236        1.11       6.1    10.4 11.8 -0.3503E+02 -0.2614E+01  0.1077E+02E
 Epicentro: BETULIA - SANTANDER                                                3
 ACTION:UPD 15-03-16 17:00 OP:nd   STATUS:               ID:20140525223257 L   I
 OLDACT:DUP 14-05-26 07:02 OP:carl STATUS:               ID:20140525222821d    3
 2014-05-25-2228-19M.COL___227                                                 6
 STAT SP IPHASW D HRMM SECON CODA AMPLIT PERI AZIMU VELO AIN AR TRES W  DIS CAZ7
 BRR  HZ EP       2233 19.37                             158    0.4710 60.3 291 
 BRR  HN ES       2233 36.39                             158    0.4210 60.3 291 
 BRR  HZ I        2233 39.92         8.9 0.30            146           60.3 291 
 PTB  HZ EP       2233 24.49                             135   -0.20 9  145 254 
 PTB  HN ES       2233 45.61                             135   -0.66 9  145 254 
 PTB  HZ I        2233 47.83         6.4 0.16            130            145 254 
 OCA  HN ES       2233 46.67                             135   -0.36 9  147 355 
 ZAR  HZ EP   2   2233 30.21                             127    0.98 4  194 289 
 ZAR  HN ES       2233 54.96                             127    0.60 9  194 289 
 ZAR  HZ I        2234  4.88         4.7 0.12            121            194 289 
 SML  HN ES       2234  0.35                             122   -0.49 8  230 335 
 SML  HZ I        2234  8.44         6.9 0.24            118            230 335 
 NOR  HN ES       2234  2.12                             121   -0.21 8  237 231 
                                                                                
