 2013  525 2107 30.7 L   6.803 -73.154148.6  RSN 11 0.5 2.0LRSN                1
 GAP=135        0.94       3.6     4.6  6.7  0.6377E+00  0.1072E+02  0.6694E+01E
 Epicentro: LOS SANTOS - SANTANDER                                             3
 ACTION:UPD 13-06-20 09:53 OP:ep   STATUS:               ID:20130525210730 L   I
 2013-05-25-2100-00M.COL___261                                                 6
 STAT SP IPHASW D HRMM SECON CODA AMPLIT PERI AZIMU VELO AIN AR TRES W  DIS CAZ7
 BAR2 SZ EP   1   21 7 50.68                             171    0.01 7 23.5 188 
 BAR2 SZ ES   1   21 8  5.88                             171   -0.38 7 23.5 188 
 BAR2 SZ I        21 8  7.31        19.7 0.18            168           23.5 188 
 GIR2 SZ EP   1   21 7 50.63                             168   -0.06 7 30.8 352 
 GIR2 SZ ES   1   21 8  6.55                             168    0.26 7 30.8 352 
 GIR2 SZ I        21 8  7.28        20.5 0.30            168           30.8 352 
 BRR  HN ES   1   21 8  9.97                             153    1.18 7 70.2 299 
 PAM  SZ EP   1   21 7 53.63                             151    0.40 7 77.7  40 
 PAM  SN ES       21 8 10.71                             151   -0.1110 77.7  40 
 PAM  SZ I        21 8 12.86        21.2 0.46            155           77.7  40 
 RUS  HZ EP   1   21 7 54.74                             144   -0.02 7  101 176 
 RUS  HN ES   1   21 8 13.17                             144   -0.36 7  101 176 
 RUS  HZ I        21 8 14.45        12.0 0.26            144            101 176 
 PTB  HZ EP   1   21 7 57.32                             133   -0.50 7  147 259 
 PTB  HN ES   1   21 8 18.52                             133   -0.46 7  147 259 
 PTB  HZ I        21 8 21.42         7.9 0.12            131            147 259 
 ZAR  HE ES       21 8 28.15                             123   -0.45 9  203 292 
 ZAR  HZ I        21 8 35.43         7.4 0.34            122            203 292 
 NOR  HZ EP   1   21 8  7.30                             119    0.77 6  234 234 
 NOR  HN ES   1   21 8 35.40                             119    0.92 6  234 234 
 NOR  HZ I        21 8 40.32         7.4 0.14            118            234 234 
 SML  HN ES       21 8 35.66                             118   -0.38 8  243 335 
 CHI  HZ EP   1   21 8  8.78                             118    0.22 6  249 195 
 CHI  HN ES   1   21 8 37.74                             118   -0.36 6  249 195 
 CHI  HZ I        21 8 41.73         5.1 0.46            118            249 195 
 PRA  HZ EP   1   21 8 24.77                             107    0.48 4  392 209 
 PRA  HN ES   1   21 9  5.54                             107   -0.56 4  392 209 
 PRA  HZ I        21 9 12.64         3.4 0.30            107            392 209 
                                                                                
