 2010  425 2005 50.8 L   6.871 -73.112150.0  RSN  9 0.4 2.0LRSN                1
 GAP=144        0.85       7.3     7.9  9.5 -0.3818E+02 -0.3780E+02  0.4124E+02E
 Epicentro: LOS SANTOS - SANTANDER                                             3
 ACTION:UPD 10-08-24 10:01 OP:vdl  STATUS:               ID:20100425200555 L   I
 2010-04-25-2005-33S.COL___104                                                 6
 STAT SP IPHASW D HRMM SECON CODA AMPLIT PERI AZIMU VELO AIN AR TRES W  DIS CAZ7
 BAR2 SZ EP   2   20 6 10.15                             168    -1.0 5   32 194 
 BRR  HZ EP       20 6 12.54                             153     0.210   71 291 
 BRR  HZ I        20 6 12.72        32.1 0.17                            71 291 
 BRR  HE ES   1   20 6 29.20                             153     0.0 7   71 291 
 BRI  SZ EP       20 6 14.74                             144     0.310  100  20 
 BRI  SZ ES   1   20 6 33.60                             144     0.7 7  100  20 
 GUE  SZ EP   1   20 6 15.01                             142    -0.2 7  108  11 
 GRA  SZ EP       20 6 15.91                             140     0.210  117  17 
 GRA  SZ ES   2   20 6 34.18                             140    -1.0 5  117  17 
 OCA  SZ EP   1   20 6 18.48                             132    -0.3 7  153 351 
 OCA  SZ ES       20 6 40.26                             132    -0.3 9  153 351 
 OCA  SZ I        20 6 46.24        16.1 0.20                           153 351 
 HEL  HZ EP   2   20 6 31.79                             115     0.0 4  278 254 
 HEL  HE ES   2   20 7  4.03                             115     0.2 4  278 254 
 HEL  HZ I        20 7  9.70         3.6 0.30                           278 254 
 SDV  BZ EP       20 6 39.78                             109    -0.3 6  352  51 
 SDV  BZ I        20 7 19.16         2.0 0.39                           352  51 
 PRA  HZ EP   1   20 6 45.52                             107     0.1 4  401 209 
 PRA  HN ES   2   20 7 27.91                             107    -0.2 3  401 209 
 PRA  HZ I        20 7 34.37         3.5 0.51                           401 209 
                                                                                
