 2014  725 2359 33.1 L   6.789 -73.147139.9  RSN 12 0.5 2.3LRSN                1
 GAP=137        1.14       3.5     4.2  6.0 -0.3857E+01  0.9270E+01 -0.8072E-01E
 Epicentro: LOS SANTOS - SANTANDER                                             3
 ACTION:UPD 15-03-16 20:47 OP:nd   STATUS:               ID:20140725235933 L   I
 OLDACT:DUP 14-07-26 08:09 OP:stll STATUS:               ID:20140725234819d    3
 2014-07-25-2348-18M.COL___263                                                 6
 STAT SP IPHASW D HRMM SECON CODA AMPLIT PERI AZIMU VELO AIN AR TRES W  DIS CAZ7
 BAR2 SZ EP       2359 52.02                             171    0.0410 22.1 190 
 BAR2 SZ I        2359 52.37        44.3 0.42            169           22.1 190 
 BAR2 SZ ES       24 0  6.73                             171    0.0110 22.1 190 
 BRR  HZ IP     C 2359 54.16                             151    0.5310 71.7 299 
 BRR  HZ I        2359 54.43        58.3 0.24            149           71.7 299 
 BRR  HE ES       24 0 10.14                             151    0.4910 71.7 299 
 PAM  SZ EP     C 2359 54.99                             149    0.2510 78.4  39 
 PAM  SZ I        2359 55.41        51.6 0.24            152           78.4  39 
 PAM  SN ES       24 0 11.92                             149    0.2910 78.4  39 
 RUS  HZ IP     C 2359 56.20                             143    0.0310 99.3 176 
 RUS  HN ES       24 0 14.22                             143    0.0410 99.3 176 
 RUS  HZ I        24 0 15.57        14.1 0.22            144           99.3 176 
 PTB  HZ EP       2359 59.28                             131   -0.27 9  147 259 
 PTB  HN ES       24 0 19.69                             131   -0.50 9  147 259 
 PTB  HZ I        24 0 23.62        18.9 0.16            130            147 259 
 OCA  HZ EP       24 0  0.75                             128   -0.31 9  161 353 
 OCA  HE ES       24 0 21.89                             128   -0.99 9  161 353 
 SPBC HZ EP       24 0  0.99                             128   -0.05 9  162 219 
 SPBC HN ES       24 0 21.79                             128   -1.05 9  162 219 
 SPBC HZ I        24 0 24.40        23.9 0.20            128            162 219 
 ZAR  HZ EP       24 0  4.97                             121   -0.22 9  204 292 
 ZAR  HN ES       24 0 30.79                             121    0.56 9  204 292 
 ZAR  HZ I        24 0 36.51        25.4 0.54            121            204 292 
 NOR  HZ IP     C 24 0  8.73                             117    0.34 8  234 235 
 NOR  HE ES       24 0 36.37                             117    0.44 8  234 235 
 NOR  HZ I        24 0 40.39        14.6 0.20            117            234 235 
 HEL  HZ EP       24 0 12.24                             114   -0.72 8  272 256 
 HEL  HN ES       24 0 44.41                             114    0.35 8  272 256 
 HEL  HZ I        24 0 51.53         7.7 0.54            114            272 256 
 GUY2CHZ EP       24 0 17.09                             111    0.75 7  300 235 
 GUY2CHN ES       24 0 49.86                             111   -0.21 7  300 235 
 GUY2CHZ I        24 0 58.74         8.7 0.36                           300 235 
 DBB  SZ EP       24 0 20.78                             108    0.45 7  339 274 
                                                                                
