 2011 1225 2333 46.4 L   6.804 -73.138145.2  RSN  6 0.3 1.3LRSN                1
 GAP=137        0.54       3.9     3.6  6.4 -0.1211E+01  0.1378E+01  0.9447E+01E
 Epicentro: LOS SANTOS - SANTANDER                                             3
 ACTION:UPD 12-07-13 16:18 OP:ep   STATUS:               ID:20111225233346 L   I
 2011-12-25-2330-00M.COL___187                                                 6
 STAT SP IPHASW D HRMM SECON CODA AMPLIT PERI AZIMU VELO AIN AR TRES W  DIS CAZ7
 BRR  HZ EP       2334  7.58                             152    0.0410 71.7 298 
 BRR  HE ES   1   2334 24.49                             152    0.48 7 71.7 298 
 BRR  HZ I        2334 29.88         5.1 0.13                          71.7 298 
 PAM  SZ EP   1   2334  8.65                             151    0.12 7 76.5  39 
 PAM  SE ES   1   2334 25.51                             151   -0.26 7 76.5  39 
 RUS  HZ EP   1   2334 10.33                             144    0.18 7  101 177 
 RUS  HN ES   2   2334 28.18                             144   -0.48 5  101 177 
 RUS  HZ I        2334 30.26         2.9 0.28                           101 177 
 PTB  HZ EP   1   2334 13.07                             132   -0.36 7  149 259 
 PTB  HE ES   1   2334 34.41                             132   -0.08 7  149 259 
 ZAR  HN ES   2   2334 43.75                             122   -0.47 4  205 292 
 CHI  HZ EP   2   2334 24.61                             117    0.45 4  249 195 
 CHI  HE ES   2   2334 53.74                             117    0.14 4  249 195 
                                                                                
