 2010 1225 2222 21.5 L   6.793 -73.135140.0  RSN 11 0.3 2.2LRSN                1
 GAP=137        0.66       2.8     4.8  6.6 -0.4534E+01  0.1261E+02  0.4673E+00E
 Epicentro: LOS SANTOS - SANTANDER                                             3
 ACTION:UP  11-01-14 15:27 OP:pat  STATUS:               ID:20101225222221 L   I
 2010-12-25-2218-35S.COL___133                                                 6
 STAT SP IPHASW D HRMM SECON CODA AMPLIT PERI AZIMU VELO SNR AR TRES W  DIS CAZ7
 BAR2 SZ EP       2222 40.21                             170    -0.210   23 194 
 BAR2 SZ I        2222 58.02        42.2 0.47                            23 194 
 RUS  HZ EP       2222 44.55                             143    -0.110  100 177 
 RUS  HN ES   1   2223  2.98                             143     0.3 7  100 177 
 RUS  HZ I        2223  4.17        31.6 0.17                           100 177 
 GRA  SZ EP       2222 46.15                             136    -0.110  126  17 
 GRA  SZ ES   1   2223  5.81                             136     0.2 7  126  17 
 GRA  SZ I        2223  7.20        33.2 0.31                           126  17 
 OCA  SZ EP       2222 49.39                             128    -0.1 9  161 353 
 OCA  SZ I        2223 15.00        16.1 0.47                           161 353 
 YOP  SZ EP       2222 51.11                             125     0.1 9  178 154 
 YOP  SN ES   3   2223 14.24                             125     0.2 2  178 154 
 YOP  SZ I        2223 15.90        17.3 0.24                           178 154 
 NOR  SZ EP   1   2222 56.99                             117     0.0 6  235 235 
 NOR  SN ES   1   2223 24.10                             117    -0.5 6  235 235 
 CHI  HZ EP       2222 58.56                             116    -0.3 8  248 195 
 CHI  HN ES   3   2223 28.20                             116     0.2 2  248 195 
 CHI  HZ I        2223 31.47         9.8 0.46                           248 195 
 HEL  HZ EP   1   2223  2.26                             114     0.7 6  273 256 
 HEL  HN ES   3   2223 32.30                             114    -0.4 2  273 256 
 HEL  HZ I        2223 40.78         7.8 0.45                           273 256 
 RREF HZ EP   2   2223  8.33                             110     0.9 3  322 230 
 RREF HN ES   2   2223 43.51                             110     0.2 3  322 230 
 TOL  SZ EP       2223 10.03                             108     0.5 7  344 225 
 PRA  HZ EP       2223 14.34                             106    -0.5 6  392 210 
 PRA  HN ES   2   2223 56.42                             106     0.0 3  392 210 
                                                                                
