 2014  925 2108  5.6 L   6.826 -73.169147.5  RSN  9 0.4 1.8LRSN                1
 GAP=132        0.96       3.2     4.2  6.6 -0.1620E+00  0.7894E+01  0.1554E+01E
 Epicentro: LOS SANTOS - SANTANDER                                             3
 ACTION:UPD 14-10-03 23:08 OP:nd   STATUS:               ID:20140925210805 L   I
 OLDACT:REG 14-09-26 09:17 OP:carl STATUS:               ID:20140925205819     3
 2014-09-25-2058-19M.COL___292                                                 6
 STAT SP IPHASW D HRMM SECON CODA AMPLIT PERI AZIMU VELO AIN AR TRES W  DIS CAZ7
 BAR2 SZ EP       21 8 25.28                             170   -0.1610 25.9 183 
 BAR2 SZ ES       21 8 40.69                             170   -0.2610 25.9 183 
 BAR2 SZ I        21 8 42.13        17.8 0.28            168           25.9 183 
 PAM  SZ EP       21 8 28.43                             151    0.5110 76.9  42 
 PAM  SN ES       21 8 45.31                             151   -0.0610 76.9  42 
 PAM  SZ I        21 8 47.61         9.9 0.58            156           76.9  42 
 RUS  HZ EP       21 8 29.34                             143   -0.3510  104 175 
 RUS  HN ES       21 8 48.80                             143    0.2810  104 175 
 RUS  HZ I        21 8 49.66         4.9 0.52            145            104 175 
 PTB  HZ EP       21 8 31.91                             133   -0.57 9  146 258 
 PTB  HN ES       21 8 53.77                             133    0.28 9  146 258 
 PTB  HZ I        21 8 59.14         8.1 0.54            133            146 258 
 SPBC HZ EP       21 8 34.41                             129    0.17 9  164 218 
 SPBC HN ES       21 8 56.10                             129   -0.52 9  164 218 
 SPBC HZ I        21 9  1.49         9.2 0.14            130            164 218 
 ZAR  HN ES       21 9  3.17                             123    0.30 9  201 292 
 SML  HN ES       21 9 10.21                             118   -0.00 8  240 336 
 CHI  HZ EP       21 8 43.31                             117   -0.26 8  251 194 
 CHI  HN ES       21 9 14.09                             117    0.86 8  251 194 
 CHI  HZ I        21 9 16.87         2.6 0.40            119            251 194 
 GUY2CHZ EP   4   21 8 50.65                             113    1.46 0  301 234 
 GUY2CHE ES   4   21 9 25.69                             113    2.46 0  301 234 
 GUY2CHZ I        21 9 32.07         3.5 0.74                           301 234 
                                                                                
