 2014  125 2303 10.6 L   6.800 -73.131152.0  RSN  8 0.4 1.7LRSN                1
 GAP=202        1.05       3.6     6.3  6.2  0.2523E+01  0.4360E+01 -0.1973E+00E
 Epicentro: LOS SANTOS - SANTANDER                                             3
 ACTION:UPD 14-03-13 09:58 OP:ep   STATUS:               ID:20140125230310 L   I
 OLDACT:REG 14-01-25 21:31 OP:carl STATUS:               ID:20140125230000     3
 2014-01-25-2300-00M.COL___285                                                 6
 STAT SP IPHASW D HRMM SECON CODA AMPLIT PERI AZIMU VELO AIN AR TRES W  DIS CAZ7
 BAR2 SZ ES       23 3 46.27                             171   -0.6010 23.7 194 
 BRR  HZ EP       23 3 32.93                             153    0.4410 72.6 298 
 BRR  HN ES       23 3 50.38                             153    0.8110 72.6 298 
 BRR  HZ I        23 3 54.20         5.9 0.16            150           72.6 298 
 RUS  HZ EP       23 3 35.16                             145    0.2110  101 177 
 RUS  HN ES       23 3 53.82                             145   -0.1310  101 177 
 RUS  HZ I        23 3 56.21         5.6 0.48            144            101 177 
 PTB  HZ EP       23 3 37.80                             133   -0.41 9  149 259 
 PTB  HN ES       23 3 59.11                             133   -0.64 9  149 259 
 PTB  HZ I        23 4  2.30         7.3 0.16            131            149 259 
 SPBC HZ EP       23 3 39.49                             130   -0.17 9  164 219 
 SPBC HN ES       23 4  2.90                             130    0.56 9  164 219 
 SPBC HZ I        23 4 12.13         6.9 0.30            129            164 219 
 NOR  HZ EP       23 3 46.63                             120   -0.19 8  236 235 
 NOR  HN ES       23 4 15.21                             120    0.13 8  236 235 
 NOR  HZ I        23 4 22.27         5.3 0.18            119            236 235 
 SML  HZ EP       23 3 47.46                             119   -0.18 8  244 335 
 SML  HN ES       23 4 16.34                             119   -0.20 8  244 335 
 SML  HZ I        23 4 18.85         6.6 0.32            120            244 335 
 CHI  HZ EP       23 3 49.08                             118    0.40 8  249 196 
 CHI  HN ES       23 4 18.22                             118   -0.18 8  249 196 
 CHI  HZ I        23 4 27.74         1.8 0.62            118            249 196 
                                                                                
