 2016  625 2308 58.8 L   5.983 -73.761111.7  RSN 17 0.5 2.2LRSN                1
 GAP= 74        1.21       3.0     2.9  6.0 -0.3527E+00  0.1090E+01  0.1555E+01E
 Epicentro: BOLIVAR - SANTANDER                                                3
 ACTION:UPD 16-07-21 22:22 OP:rebc STATUS:               ID:20160625230858 L   I
 OLDACT:UP  16-06-26 06:20 OP:dani STATUS:               ID:20160625230742     3
 OLDACT:REG 16-06-26 03:35 OP:dani STATUS:               ID:20160625230742     3
 2016-06-25-2307-42M.COL___333                                                 6
 STAT SP IPHASW D HRMM SECON CODA AMPLIT PERI AZIMU VELO AIN AR TRES W  DIS CAZ7
 SPBC HZ EP       23 9 15.39                             154    0.1310 50.2 223 
 SPBC HN ES       23 9 27.81                             154   -0.2510 50.2 223 
 SPBC HZ I        23 9 29.65        78.3 0.36                          50.2 223 
 RUS  HZ IP     D 23 9 17.99                             144    0.5410 75.7  98 
 RUS  HE ES       23 9 32.00                             144    0.0410 75.7  98 
 RUS  HZ I        23 9 33.93        23.3 0.32                          75.7  98 
 PTB  HZ IP     D 23 9 17.98                             136   -0.6110 98.5 309 
 PTB  HE ES       23 9 34.25                             136    0.2510 98.5 309 
 PTB  HZ I        23 9 36.35        18.0 0.24                          98.5 309 
 BRR  HZ EP       23 9 21.70                             128    0.7710  124   3 
 BRR  HN ES   4   23 9 39.54                             128    1.37 0  124   3 
 BRR  HZ I        23 9 42.88        38.2 0.36                           124   3 
 NOR  HZ EP       23 9 22.03                             127    0.3710  131 249 
 NOR  HN ES       23 9 39.32                             127   -0.1310  131 249 
 NOR  HZ I        23 9 41.21        66.7 0.16                           131 249 
 ROSC BZ EP   9   23 9 24.30                             125    1.25 0  141 206 
 ROSC BE ES       23 9 44.17                             125    0.98 9  141 206 
 ROSC BZ I        23 9 47.37        17.8 0.45                           141 206 
 CHI  HZ EP       23 9 23.80                             123   -0.19 9  150 179 
 CHI  HE ES       23 9 43.05                             123   -0.55 9  150 179 
 CHI  HZ I        23 9 47.17         9.4 0.26                           150 179 
 PAM  EZ EP   4   23 9 29.61                             116    1.17 0  191  38 
 GUY2CHZ EP       23 9 29.56                             115    0.48 9  196 245 
 GUY2CHE ES       23 9 53.34                             115    0.68 9  196 245 
 GUY2CHZ I        2310  2.10        10.5 0.44                           196 245 
 HEL  HZ EP       23 9 29.19                             115    0.19 9  197 277 
 HEL  HN ES     D 23 9 52.38                             115   -0.14 9  197 277 
 HEL  HZ I        2310  0.62         8.8 0.22                           197 277 
 ZAR  HZ EP       23 9 29.68                             114    0.10 8  206 324 
 ZAR  HE ES       23 9 52.72                             114   -0.83 8  206 324 
 ZAR  HZ I        23 9 56.58        21.0 0.40                           206 324 
 VIL  SZ EP       23 9 30.62                             114    0.81 8  207 178 
 TAM  HZ EP   4   23 9 32.76                             112    1.18 0  224  77 
 TAM  HE ES       23 9 56.73                             112   -0.39 8  224  77 
 TAM  HZ I        23 9 57.70        19.2 0.24                           224  77 
 ANIL HZ EP       23 9 33.92                             109   -0.48 8  246 228 
 ANIL HE ES       2310  1.68                             109   -0.46 8  246 228 
 ANIL HZ I        2310  5.56        25.6 0.32                           246 228 
 PTGC HZ EP       23 9 36.32                             107   -0.23 8  267 137 
 PTGC HE ES   4   2310  4.18                             107   -1.79 0  267 137 
 PTGC HZ I        2310 17.72        19.0 0.36                           267 137 
 PRA  HZ EP       23 9 37.51                             106   -0.59 7  280 206 
 PRA  HN ES       2310  9.40                             106    0.67 7  280 206 
 PRA  HZ I        2310 14.18        16.9 0.22                           280 206 
 ORTC HZ EP       23 9 38.17                             106   -0.18 7  282 216 
 ORTC HE ES       2310  8.58                             106   -0.58 7  282 216 
 ORTC HZ I        2310 13.16         8.7 0.26                           282 216 
 SJC  HZ EP   4 D 23 9 58.24                              97   -1.41 0  460 340 
 SJC  HE ES   4   2310 44.38                              97   -2.71 0  460 340 
 SJC  HZ I        2311  0.88         3.3 0.50                           460 340 
                                                                                
