 2012  225 2025 43.2 L   6.490 -73.527 21.2  RSN  9 0.4 2.3LRSN                1
 GAP= 92        0.82       2.4     2.1  3.9  0.3556E+00  0.3730E+01  0.1745E+01E
 ACTION:UP  12-03-07 16:34 OP:epov STATUS:               ID:20120225202543 L   I
 2012-02-25-2020-00M.COL___192                                                 6
 STAT SP IPHASW D HRMM SECON CODA AMPLIT PERI AZIMU VELO AIN AR TRES W  DIS CAZ7
 BAR2 SZ IP       2025 50.76                             116    0.1010 39.7  73 
 BAR2 SZ ES   1   2025 56.05                             116   -0.44 7 39.7  73 
 BAR2 SZ I        2025 57.16       205.9 0.32                          39.7  73 
 BRR  HZ EP   1   2025 54.79                             104   -0.12 7 71.3 343 
 BRR  HN ES   1   2026  4.02                             104   -0.04 7 71.3 343 
 BRR  HZ I        2026  6.59       103.1 0.11                          71.3 343 
 GIR2 SZ EP       2025 55.52                             104   -0.0610 74.8  29 
 RUS  HZ IP     C 2025 57.30                             103    0.2510 82.3 143 
 RUS  HN ES   1   2026  7.45                             103   -0.41 7 82.3 143 
 RUS  HZ I        2026  8.70       208.9 0.28                          82.3 143 
 PTB  HZ IP     D 2025 59.79                             100    0.1710  103 273 
 PTB  HN ES   1   2026 12.36                             100   -0.08 7  103 273 
 PAM  SZ EP       2026  4.25                              56    0.3010  131  44 
 NOR  SZ EP   1   2026 10.50                              56    0.90 7  180 236 
 NOR  SN ES   1   2026 29.62                              56   -0.58 7  180 236 
 OCA  SZ EP   1   2026 11.15                              56   -0.36 6  195   7 
 HEL  HZ EP   1   2026 15.95                              56    0.54 6  224 262 
 HEL  HN ES   1   2026 39.76                              56   -0.79 6  224 262 
 HEL  HZ I        2026 42.18        10.5 0.17                           224 262 
                                                                                
