 2011 1225 2236 24.4 L   6.724 -73.063139.6  RSN  8 0.4 1.7LRSN                1
 GAP=151        0.68       4.5     5.4  6.3 -0.9372E+01 -0.6572E+00  0.8993E+01E
 Epicentro: JORDAN - SANTANDER                                                 3
 ACTION:UPD 12-07-13 16:18 OP:ep   STATUS:               ID:20111225223624 L   I
 2011-12-25-2230-00M.COL___187                                                 6
 STAT SP IPHASW D HRMM SECON CODA AMPLIT PERI AZIMU VELO AIN AR TRES W  DIS CAZ7
 BAR2 SZ EP   1   2236 43.12                             172   -0.08 7 19.6 222 
 BAR2 SZ I        2236 43.34        11.4 0.10                          19.6 222 
 BAR2 SZ ES   1   2236 57.24                             172   -0.64 7 19.6 222 
 GIR2 SZ EP   2   2236 43.62                             162   -0.05 5 41.8 340 
 GIR2 SZ ES   2   2236 58.14                             162   -0.57 5 41.8 340 
 PAM  SZ EP       2236 46.13                             149    0.0810 79.0  30 
 PAM  SN ES   1   2237  3.33                             149    0.38 7 79.0  30 
 BRR  HZ EP   1   2236 45.12                             147   -0.50 7 83.3 301 
 BRR  HN ES   1   2237  2.69                             147    0.50 7 83.3 301 
 BRR  HZ I        2237  4.36        11.0 0.15                          83.3 301 
 RUS  HZ EP   1   2236 47.11                             145    0.20 7 91.9 181 
 RUS  HN ES   2   2237  4.86                             145    0.38 5 91.9 181 
 RUS  HZ I        2237  7.16         3.4 0.17                          91.9 181 
 NOR  SN ES   1   2237 28.12                             117    0.21 6  238 237 
 CHI  HZ EP   2   2237  0.56                             116   -0.58 4  243 198 
 CHI  HN ES   2   2237 30.21                             116    0.39 4  243 198 
 CHI  HZ I        2237 34.27         4.3 0.49                           243 198 
 RREF HZ EP   2   2237 10.51                             109    0.05 3  323 232 
 RREF HZ I        2237 54.80         3.5 0.41                           323 232 
                                                                                
