 2010  425 2210 58.5 L   6.924 -73.203148.0  RSN  4 0.3 1.7LRSN                1
 GAP=263        0.56      32.1    25.7 17.0 -0.8054E+03 -0.3881E+03  0.4947E+03E
 Epicentro: BETULIA - SANTANDER                                                3
 ACTION:UPD 10-08-24 10:01 OP:vdl  STATUS:               ID:20100425221057 L   I
 2010-04-25-2207-43S.COL___104                                                 6
 STAT SP IPHASW D HRMM SECON CODA AMPLIT PERI AZIMU VELO AIN AR TRES W  DIS CAZ7
 BRR  HZ EP       2211 19.29                             156     0.010   60 290 
 BRR  HE ES   1   2211 35.62                             156     0.1 7   60 290 
 BRR  HZ I        2211 37.32        10.1 0.14                            60 290 
 BRI  SZ EP   1   2211 21.73                             144    -0.2 7   98  27 
 BRI  SZ ES   1   2211 40.15                             144     0.0 7   98  27 
 GUE  SZ EP   1   2211 22.84                             142     0.3 7  105  17 
 GUE  SZ ES   2   2211 40.57                             142    -0.7 5  105  17 
 GRA  SZ ES   1   2211 42.53                             140     0.2 7  115  23 
                                                                                
