 2017 1025 2233 50.0 L   6.783 -73.107137.6  RSN  8 0.4 1.7LRSN                1
 GAP=142        1.08       4.2     4.4  6.6 -0.2233E+01  0.9198E+01  0.1877E+01E
 Epicentro: LOS SANTOS - SANTANDER                                             3
 ACTION:UPD 17-11-07 19:36 OP:rebc STATUS:               ID:20171025223350 L   I
 OLDACT:UP  17-10-26 05:08 OP:lv   STATUS:               ID:20171025222443     3
 OLDACT:REG 17-10-26 03:06 OP:l    STATUS:               ID:20171025222443     3
 2017-10-25-2228-00M.COL___459                                                 6
 STAT SP IPHASW D HRMM SECON CODA AMPLIT PERI AZIMU VELO AIN AR TRES W  DIS CAZ7
 BAR2 EZ EP       2234  8.47                             170   -0.1810 22.7 201 
 BAR2 EZ ES       2234 22.67                             170   -0.5110 22.7 201 
 BAR2 EZ I        2234 25.28        11.3 0.20            171           22.7 201 
 BRR  HZ EP       2234 10.42                             149   -0.1410 75.8 298 
 BRR  HN ES       2234 27.18                             149    0.5910 75.8 298 
 BRR  HZ I        2234 31.38        15.7 0.14            149           75.8 298 
 PAM  EZ IP     C 2234 11.30                             150    0.0110 76.2  36 
 PAM  EE ES       2234 28.19                             150    0.3010 76.2  36 
 PAM  EZ I        2234 30.53        12.7 0.62            152           76.2  36 
 RUS  HZ EP       2234 12.69                             143   -0.1210 98.5 178 
 RUS  HN ES       2234 30.62                             143    0.0210 98.5 178 
 RUS  HZ I        2234 32.00         3.1 0.32            146           98.5 178 
 PTB  HZ EP       2234 16.52                             129   -0.16 9  152 260 
 PTB  HE ES       2234 37.10                             129   -0.39 9  152 260 
 PTB  HZ I        2234 38.94         9.2 0.12            131            152 260 
 SPBC HZ EP       2234 17.30                             127   -0.72 9  164 221 
 SPBC HN ES       2234 40.56                             127    0.69 9  164 221 
 SPBC HZ I        2234 42.07         6.6 0.10            129            164 221 
 ZAR  HZ EP       2234 22.93                             120    0.51 8  209 292 
 ZAR  HN ES       2234 47.09                             120   -0.61 8  209 292 
 ZAR  HZ I        2234 52.40         7.1 0.34            122            209 292 
 NOR  HZ EP       2234 26.22                             116    0.68 8  237 235 
 NOR  HN ES       2234 53.50                             116    0.25 8  237 235 
 NOR  HZ I        2234 55.56         3.4 0.20            119            237 235 
 GUY2CHN ES   4   2235  9.17                             110    1.70 0  304 236 
                                                                                
