 2011  425 2351 30.7 L   6.783 -73.125137.0  RSN 11 0.4 2.1LRSN                1
 GAP=140        0.96       4.1     5.8  7.3 -0.1077E+02  0.1338E+02 -0.1541E+01E
 Epicentro: LOS SANTOS - SANTANDER                                             3
 ACTION:UP  11-06-22 15:33 OP:REBC STATUS:               ID:20110425235130 L   I
 2011-04-25-2340-00M.COL___141                                                 6
 STAT SP IPHASW D HRMM SECON CODA AMPLIT PERI AZIMU VELO SNR AR TRES W  DIS CAZ7
 BTL  SZ EP   1   2351 50.20                             171     0.9 7   22 314 
 BAR2 SZ EP   1   2351 49.24                             170     0.0 7   22 197 
 BAR2 SZ ES   1   2352  3.22                             170    -0.5 7   22 197 
 BAR2 SZ I        2352  5.70        34.4 0.27                            22 197 
 GIR2 SZ EP   1   2351 49.39                             165     0.0 7   34 347 
 BRR  HZ IP     C 2351 51.09                             150     0.010   74 299 
 BRR  HN ES   1   2352  7.59                             150     0.6 7   74 299 
 BRR  HZ I        2352  8.99        38.9 0.11                            74 299 
 PAM  SZ EP   1   2351 52.18                             149     0.2 7   77  37 
 PAM  SN ES   1   2352  8.98                             149     0.4 7   77  37 
 RUS  HZ EP   1   2351 53.59                             142     0.1 7   99 177 
 RUS  HN ES   1   2352 10.96                             142    -0.2 7   99 177 
 RUS  HZ I        2352 13.46        11.7 0.24                            99 177 
 BRI  SZ EP   1   2351 53.82                             139     0.0 7  109  19 
 BRI  SZ ES   1   2352 11.76                             139    -0.2 7  109  19 
 BRI  SZ I        2352 17.04        22.4 0.41                           109  19 
 GRA  SZ EP   1   2351 55.08                             135    -0.2 7  127  16 
 GRA  SZ ES   1   2352 14.41                             135     0.0 7  127  16 
 GRA  SZ I        2352 15.54        22.5 0.43                           127  16 
 OCA  SZ EP   1   2351 58.43                             127    -0.1 7  162 352 
 OCA  SZ ES   1   2352 19.56                             127    -0.7 7  162 352 
 OCA  SZ I        2352 23.34        18.5 0.33                           162 352 
 NOR  SZ EP   1   2352  5.19                             116    -0.8 6  235 235 
 NOR  SN ES   1   2352 33.46                             116    -0.1 6  235 235 
 HEL  HZ EP   1   2352 11.56                             113     0.9 6  274 256 
 HEL  HN ES   1   2352 41.64                             113    -0.2 6  274 256 
 HEL  HZ I        2352 47.63         8.0 0.37                           274 256 
                                                                                
