 2017  125 2208 25.4 L   7.391 -73.181132.3  RSN 10 0.2 2.0LRSN                1
 GAP=134        0.45       2.1     2.0  2.9  0.5624E+00  0.2182E+01  0.5269E+00E
 Epicentro: EL PLAYON - SANTANDER                                              3
 ACTION:UPD 17-05-22 16:03 OP:jn   STATUS:               ID:20170125220825 L   I
 OLDACT:UP  17-01-26 04:13 OP:edw  STATUS:               ID:20170125220740     3
 OLDACT:REG 17-01-26 02:37 OP:edw  STATUS:               ID:20170125220740     3
 2017-01-25-2208-00M.COL___354                                                 6
 STAT SP IPHASW D HRMM SECON CODA AMPLIT PERI AZIMU VELO AIN AR TRES W  DIS CAZ7
 PAM  EZ IP     C 22 8 45.13                             157    0.2310 53.5  96 
 PAM  EN ES       22 8 59.99                             157   -0.0810 53.5  96 
 PAM  EZ I        22 9  1.39        13.7 0.42            160           53.5  96 
 BRR  HZ EP       22 8 44.82                             152   -0.0510 66.5 242 
 BRR  HN ES       22 9  0.14                             152    0.1210 66.5 242 
 BRR  HZ I        22 9  0.63        30.6 0.12            150           66.5 242 
 BAR2 EZ IP     C 22 8 46.73                             144    0.1010 88.3 180 
 BAR2 EZ ES       22 9  3.11                             144   -0.0410 88.3 180 
 RUS  HZ EP       22 8 53.72                             126   -0.04 9  166 176 
 RUS  HN ES       22 9 15.52                             126   -0.32 9  166 176 
 RUS  HZ I        22 9 16.87         6.0 0.36            126            166 176 
 PTB  HZ EP   2   22 8 53.34                             125   -0.13 5  169 236 
 PTB  HN ES   2   22 9 14.86                             125   -0.47 5  169 236 
 PTB  HZ I        22 9 17.91        13.0 0.22            125            169 236 
 ZAR  HZ EP       22 8 54.91                             122   -0.19 9  185 274 
 ZAR  HN ES       22 9 18.37                             122    0.15 9  185 274 
 ZAR  HZ I        22 9 21.45        16.8 0.40            122            185 274 
 NOR  HZ EP       22 9  5.23                             112    0.28 8  275 223 
 NOR  HN ES       22 9 36.01                             112    0.24 8  275 223 
 NOR  HZ I        22 9 40.15         5.0 0.20            112            275 223 
 CHI  HZ EP   4   22 9 10.91                             109    1.35 0  311 191 
 CHI  HE ES       22 9 44.05                             109    0.09 7  311 191 
 DBB  EZ EP       22 9 11.78                             107   -0.35 7  337 263 
 DBB  EN ES   4   22 9 44.62                             107   -3.91 0  337 263 
 DBB  EZ I        22 9 49.82         3.0 0.26            108            337 263 
 SJC  HZ EP   2   22 9 13.88                             106   -0.18 3  354 322 
                                                                                
