 2013  125 2359 57.7 L   6.231 -73.634 24.4  RSN 11 0.6 2.5LRSN 3.0WRSN        1
 SPEC AVERAGE  MO 13.5 ST  8.5 OM  2.3 f0 4.96 R0.3134 AL 2.08 WI 18.9 MW  3.0 3
 SPEC SD       MO  0.2 ST  5.6 OM  0.5 f0 1.09 R0.0772 AL      WI      MW  0.1 3
 GAP= 62        1.56       3.6     3.8  7.1 -0.2002E+01  0.1843E+02 -0.4577E+01E
 Epicentro: LA PAZ - SANTANDER                                                 3
 SPEC ZAR HH N MO 13.6 ST 12.8 OM  2.1 f0 6.09 R0.2414 AL 2.97 WI 21.4 MW  3.0 3
 SPEC ZAR HH N T 0 045 K 0.000 GD  139 VS 4.20 DE 3.00 Q0230.0 QA 0.60 VS 4.20 3
 SPEC RUS HH N MO 13.3 ST  1.2 OM  2.1 f0 3.41 R0.4311 AL 1.44 WI 12.2 MW  2.8 3
 SPEC RUS HH N T 0 018 K 0.000 GD 75.6 VS 4.20 DE 3.00 Q0230.0 QA 0.60 VS 4.20 3
 SPEC PAM SH Z MO 13.7 ST 16.2 OM  1.4 f0 5.93 R0.2479 AL 2.27 WI 17.7 MW  3.1 3
 SPEC PAM SH Z T 0 021 K 0.000 GD  161 VP 7.60 DE 3.00 Q0230.0 QA 0.60 VS 4.20 3
 SPEC HEL HH N MO 13.2 ST  1.1 OM  1.7 f0 3.61 R0.4072 AL 1.26 WI 28.1 MW  2.8 3
 SPEC HEL HH N T 0 050 K 0.000 GD  144 VS 4.20 DE 3.00 Q0230.0 QA 0.60 VS 4.20 3
 SPEC BRR HH N MO 13.6 ST  9.7 OM  2.2 f0 5.75 R0.2557 AL 3.02 WI 26.1 MW  3.0 3
 SPEC BRR HH N T 0 025 K 0.000 GD  100 VS 4.20 DE 3.00 Q0230.0 QA 0.60 VS 4.20 3
 SPEC BAR2SH Z MO 13.8 ST 10.0 OM  1.8 f0 4.95 R0.2970 AL 1.52 WI  8.2 MW  3.1 3
 SPEC BAR2SH Z T 0 0 9 K 0.000 GD 68.5 VP 7.60 DE 3.00 Q0230.0 QA 0.60 VS 4.20 3
 ACTION:UPD 13-02-15 09:16 OP:ep   STATUS:               ID:20130125235957 L   I
 2013-01-25-2358-50M.COL___175                                                 6
 STAT SP IPHASW D HRMM SECON CODA AMPLIT PERI AZIMU VELO AIN AR TRES W  DIS CAZ7
 BAR2 SZ IP     C 24 0  9.12                             109    0.4010 64.0  51 
 BAR2 SZ ES       24 0 17.92                             109    0.5810 64.0  51 
 BAR2 SZ I        24 0 18.96       711.8 0.52            102           64.0  51 
 RUS  HZ EP       24 0  9.82                             108   -0.2710 71.6 122 
 RUS  HE ES       24 0 18.81                             108   -0.9810 71.6 122 
 RUS  HN I        24 0 20.12       200.3 0.10            100           71.6 122 
 PTB  HZ IP     D 24 0 13.13                              71   -0.1410 97.1 291 
 PTB  HN ES       24 0 24.63                              71   -0.8210 97.1 291 
 PTB  HE I        24 0 26.06       111.1 0.16             98           97.1 291 
 BRR  HZ EP       24 0 13.49                              71    0.2210 97.2 355 
 BRR  HE ES       24 0 25.81                              71    0.3710 97.2 355 
 BRR  HE I        24 0 26.70       224.5 0.20             98           97.2 355 
 PAM  SZ EP       24 0 21.72                              56   -0.08 9  160  40 
 PAM  SN ES       24 0 40.13                              56   -0.49 9  160  40 
 PAM  SE I        24 0 43.27        45.7 0.28             56            160  40 
 CHI  HZ EP       24 0 24.98                              56    1.13 9  177 183 
 CHI  HN I        24 0 49.94        14.2 0.58             56            177 183 
 ZAR  HZ EP       24 0 25.11                              56   -0.35 9  194 316 
 TAM  HZ EP       24 0 26.45                              56   -0.42 9  205  84 
 HEL  HZ EP       24 0 27.99                              56    0.16 8  210 269 
 HEL  HE ES       24 0 50.29                              56   -1.07 8  210 269 
 RREF HZ EP       24 0 33.01                              56    1.06 8  240 232 
 RREF HE ES       24 0 59.56                              56    0.86 8  240 232 
 URE  HZ EP       24 0 35.15                              55    0.37 8  269 309 
                                                                                
