 2010  825 2227 52.1 L   6.776 -73.053141.5  RSN 13 0.4 3.6LRSN                1
 GAP=133        0.83       3.1     5.3  4.8 -0.6454E+01 -0.3053E+01  0.2815E+01E
 Epicentro: LOS SANTOS - SANTANDER                                             3
 ACTION:UP  10-09-07 10:58 OP:vdl  STATUS:               ID:20100825222752 L   I
 2010-08-25-2225-52S.COL___121                                                 6
 STAT SP IPHASW D HRMM SECON CODA AMPLIT PERI AZIMU VELO SNR AR TRES W  DIS CAZ7
 BAR2 SZ IP     C 2228 11.36                             170     0.110   25 215 
 BAR2 SZ ES   1   2228 25.66                             170    -0.5 7   25 215 
 BAR2 SZ I        2228 27.15       826.0 0.19                            25 215 
 GIR2 SZ EP       2228 11.50                             165     0.110   37 335 
 GIR2 SZ ES   1   2228 26.61                             165     0.1 7   37 335 
 BRR  HZ IP     C 2228 13.33                             149    -0.110   82 297 
 BRR  HN ES       2228 30.24                             149     0.210   82 297 
 BRR  HZ I        2228 34.71       798.4 0.18                            82 297 
 RUS  HZ EP       2228 15.43                             144     0.210   98 182 
 RUS  HE ES   1   2228 33.42                             144     0.1 7   98 182 
 RUS  HZ I        2228 35.45       282.6 0.28                            98 182 
 GUE  SZ EP   1   2228 16.42                             138    -0.1 7  117   7 
 GUE  SZ I        2228 36.61       229.8 0.15                           117   7 
 GRA  SZ IP       2228 17.44                             136     0.510  126  13 
 GRA  SZ ES   1   2228 36.76                             136     0.4 7  126  13 
 GRA  SZ I        2228 37.95       851.0 0.39                           126  13 
 OCA  SZ EP       2228 20.02                             128    -0.5 9  164 350 
 OCA  SZ ES   1   2228 41.87                             128    -0.7 7  164 350 
 OCA  SZ I        2228 45.18       749.5 0.33                           164 350 
 CHI  HZ EP   1   2228 29.29                             116    -0.3 6  249 198 
 CHI  HE ES   2   2228 58.31                             116    -0.6 4  249 198 
 GUY  SZ EP   1   2228 37.17                             111     0.8 5  308 236 
 GUY  SE ES   1   2229 10.67                             111    -0.2 5  308 236 
 GUY  SZ I        2229 22.29       255.0 0.46                           308 236 
 TOL  SZ EP   1   2228 41.10                             108     0.3 5  349 226 
 SDV  BZ EP       2228 41.12                             108    -0.2 6  354  49 
 SDV  BZ I        2229 23.13        96.0 0.50                           354  49 
 ANIL HZ EP   2   2228 42.41                             107     0.0 3  363 226 
 ANIL HE ES   1   2229 21.83                             107     0.2 5  363 226 
 ANIL HZ I        2229 29.46       215.7 0.34                           363 226 
 PRA  HZ EP   1   2228 45.20                             106    -0.6 4  395 211 
 PRA  HN ES   2   2229 27.26                             106    -0.5 3  395 211 
 PRA  HZ I        2229 32.17       125.1 0.35                           395 211 
                                                                                
