 2016  925 2300 41.6 L   6.591 -73.568110.0  RSN  6 0.4 1.3LRSN                1
 GAP=142        0.87       4.1     3.3  9.4 -0.5632E+01  0.4063E+01 -0.8963E+01E
 Epicentro: EL CARMEN - SANTANDER                                              3
 ACTION:UPD 17-08-17 21:16 OP:lp   STATUS:               ID:20160925230041 L   I
 OLDACT:REG 16-09-26 02:52 OP:lv   STATUS:               ID:20160925225744     3
 2016-09-25-2258-00M.COL___327                                                 6
 STAT SP IPHASW D HRMM SECON CODA AMPLIT PERI AZIMU VELO AIN AR TRES W  DIS CAZ7
 BAR2 EZ EP   2   23 0 58.45                             157    0.75 5 42.7  90 
 BAR2 EZ ES   2   23 1 10.85                             157    0.62 5 42.7  90 
 RUS  HZ EP       23 1  2.00                             136    0.4910 94.1 145 
 RUS  HE ES       23 1 16.56                             136   -0.4610 94.1 145 
 PTB  HZ IP     D 23 1  1.25                             135    0.0210 98.4 267 
 PTB  HE ES       23 1 16.56                             135    0.0510 98.4 267 
 PTB  HZ I        23 1 22.53         3.2 0.15            136           98.4 267 
 SPBC HN ES       23 1 20.11                             129    0.2810  118 208 
 PAM  EZ EP       23 1  4.43                             127   -0.0410  127  49 
 PAM  EN ES       23 1 22.01                             127   -0.2810  127  49 
 PAM  EZ I        23 1 24.18         4.0 0.27            132            127  49 
 NOR  HE ES       23 1 31.27                             116   -0.51 9  183 232 
 NOR  HZ I        23 1 34.43         2.9 0.17            120            183 232 
                                                                                
