 2013 1125 2205 20.4 L   7.454 -73.184128.0  RSN 13 0.5 2.3LRSN 2.9WRSN        1
 SPEC AVERAGE  MO 13.4 ST509.2 OM  1.7 f0 29.7 R0.1028 AL 0.00 WI 20.0 MW  2.9 3
 SPEC SD       MO  0.3 ST382.6 OM  0.4 f0 14.6 R0.0773 AL      WI      MW  0.2 3
 GAP= 74        1.20       3.1     3.0  6.0 -0.1085E+01  0.1101E+01  0.1707E+01E
 Epicentro: EL PLAYON - SANTANDER                                              3
 SPEC PAM SH Z MO 13.1 ST  6.2 OM  1.3 f0 9.13 R0.2107 AL-0.00 WI 20.0 MW  2.7 3
 SPEC PAM SH Z T22 553 K 0.050 GD  139 VS 5.20 DE 3.20 Q0750.0 QA 1.50 VS 5.20 3
 SPEC BRR HH Z MO 13.3 ST858.9 OM  1.5 f0 40.0 R0.0481 AL-0.00 WI 20.0 MW  2.8 3
 SPEC BRR HH Z T22 552 K 0.050 GD  145 VS 5.20 DE 3.20 Q0750.0 QA 1.50 VS 5.20 3
 SPEC BAR2SH Z MO 13.7 ST 21.4 OM  1.8 f0 9.01 R0.2135 AL-0.00 WI 20.0 MW  3.1 3
 SPEC BAR2SH Z T22 556 K 0.050 GD  159 VS 5.20 DE 3.20 Q0750.0 QA 1.50 VS 5.20 3
 SPEC PTB HH Z MO 13.1 ST504.7 OM  1.1 f0 40.0 R0.0481 AL-0.00 WI 20.0 MW  2.7 3
 SPEC PTB HH Z T22 6 8 K 0.050 GD  215 VS 5.20 DE 3.20 Q0750.0 QA 1.50 VS 5.20 3
 SPEC SML HH Z MO 13.8 ST999.9 OM  1.8 f0 40.0 R0.0481 AL-0.00 WI 20.0 MW  3.2 3
 SPEC SML HH Z T22 6 9 K 0.050 GD  219 VS 5.20 DE 3.20 Q0750.0 QA 1.50 VS 5.20 3
 SPEC ZAR HH Z MO 13.2 ST664.2 OM  1.2 f0 40.0 R0.0481 AL-0.00 WI 20.0 MW  2.8 3
 SPEC ZAR HH Z T22 611 K 0.050 GD  224 VS 5.20 DE 3.20 Q0750.0 QA 1.50 VS 5.20 3
 SPECGUY2CHH Z MO 12.8 ST  2.0 OM  0.6 f0 8.05 R 0.239 AL-0.00 WI 20.0 MW  2.5 3
 SPECGUY2CHH Z T22 644 K 0.050 GD368.0 VS 5.20 DE 3.20 Q0750.0 QA 1.50 VS 5.20 3
 OLDACT:REG 13-11-25 23:10 OP:stll STATUS:               ID:20131125220000     3
 ACTION:UPD 14-01-09 16:31 OP:ep   STATUS:               ID:20131125220520 L   I
 OLDACT:UP  13-11-26 01:45 OP:stll STATUS:               ID:20131125220000     3
 2013-11-25-2200-00M.COL___282                                                 6
 STAT SP IPHASW D HRMM SECON CODA AMPLIT PERI AZIMU VELO AIN AR TRES W  DIS CAZ7
 PAM  SZ EP       22 5 39.94                             156    0.5110 55.0 103 
 PAM  SN ES       22 5 54.63                             156    0.3410 55.0 103 
 PAM  SZ I        22 5 55.99        39.5 0.16            162           55.0 103 
 BRR  HZ EP       22 5 39.66                             150    0.1110 69.8 237 
 BRR  HN ES       22 5 54.33                             150   -0.1710 69.8 237 
 BRR  SZ I        22 5 55.45        40.9 0.10            156           69.8 237 
 OCA  HZ EP       22 5 41.47                             143    0.4710 88.0 350 
 OCA  HN ES       22 5 57.43                             143    0.3410 88.0 350 
 OCA  SZ I        22 6 42.68        34.7 0.10            144           88.0 350 
 BAR2 SZ EP       22 5 41.63                             141   -0.0310 95.3 180 
 BAR2 SZ ES       22 5 57.93                             141   -0.3410 95.3 180 
 BAR2 SZ I        22 5 59.45        44.2 0.22            153           95.3 180 
 CAPV BZ EP       22 5 43.46                             138    0.9510  106  65 
 CAPV BZ ES       22 5 59.87                             138    0.1010  106  65 
 PTB  HZ EP       22 5 48.26                             123   -0.23 9  173 234 
 PTB  HE ES       22 6 10.07                             123   -0.35 9  173 234 
 PTB  SZ I        22 6 13.06        21.0 0.18            131            173 234 
 SML  HZ EP       22 5 48.58                             122   -0.40 9  178 327 
 SML  HN ES       22 6 10.52                             122   -0.76 9  178 327 
 SML  SZ I        22 6 12.12        50.3 0.08            126            178 327 
 ZAR  HZ EP       22 5 49.69                             121    0.01 9  185 271 
 ZAR  HN ES       22 6 12.68                             121    0.14 9  185 271 
 ZAR  SZ I        22 6 14.14        24.1 0.20            127            185 271 
 TAM  HZ EP       22 5 50.71                             120    0.35 9  191 126 
 TAM  HN ES       22 6 13.25                             120   -0.50 9  191 126 
 TAM  SZ I        22 6 13.50        14.4 0.40            129            191 126 
 SPBC HN ES       22 6 19.57                             116   -0.31 8  222 206 
 SOCV BZ EP       22 5 59.27                             111   -0.11 8  273  70 
 SOCV BZ ES       22 6 28.13                             111   -1.67 8  273  70 
 CHI  HZ EP       22 6  5.56                             108    0.44 7  318 191 
 CHI  HN ES       22 6 40.12                             108    0.10 7  318 191 
 CHI  SZ I        22 6 54.56         6.8 3.28            114            318 191 
 GUY2CHZ EP       22 6  8.50                             106    0.17 7  345 224 
 GUY2CSZ I        22 6 55.42         4.3 0.44                           345 224 
                                                                                
