 2010  825 2232 33.1 L   6.812 -73.103147.1  RSN  8 0.2 1.8LRSN                1
 GAP=163        0.46       2.9     5.8  4.6 -0.3516E+01 -0.6046E+01  0.1538E+01E
 Epicentro: LOS SANTOS - SANTANDER                                             3
 ACTION:UP  10-09-07 10:58 OP:vdl  STATUS:               ID:20100825223233 L   I
 2010-08-25-2229-52S.COL___121                                                 6
 STAT SP IPHASW D HRMM SECON CODA AMPLIT PERI AZIMU VELO SNR AR TRES W  DIS CAZ7
 BAR2 SZ EP   1   2232 52.84                             170    -0.1 7   26 200 
 BAR2 SZ ES   1   2233  8.05                             170    -0.3 7   26 200 
 BAR2 SZ I        2233 10.34        13.7 0.29                            26 200 
 GIR2 SZ EP   2   2232 52.85                             167     0.0 5   31 341 
 BRR  HZ EP   1   2232 54.43                             151    -0.1 7   75 296 
 BRR  HE ES   1   2233 11.50                             151     0.2 7   75 296 
 BRR  HZ I        2233 12.65        12.0 0.13                            75 296 
 RUS  HZ EP   1   2232 57.14                             144     0.1 7  102 179 
 RUS  HN ES   2   2233 16.09                             144     0.4 5  102 179 
 RUS  HZ I        2233 16.57         7.8 0.21                           102 179 
 GUE  SZ EP   1   2232 57.56                             140    -0.2 7  114  10 
 GUE  SZ I        2233 18.50         2.6 0.13                           114  10 
 GRA  SZ EP   2   2232 58.34                             138     0.1 5  123  16 
 GRA  SZ ES   1   2233 17.97                             138     0.2 7  123  16 
 GRA  SZ I        2233 19.46         9.9 0.29                           123  16 
 CHI  HZ EP   2   2233 10.92                             117    -0.2 4  251 196 
 CHI  HZ I        2233 43.55         3.6 0.35                           251 196 
 PRA  HZ EP   2   2233 27.34                             106     0.3 3  395 210 
 PRA  HZ I        2233 58.25         4.8 0.40                           395 210 
                                                                                
