 2017 1125 2100 41.9 L   6.829 -73.165125.2  RSN  5 0.4 1.3LRSN                1
 GAP=133        0.96       4.4     4.2  9.8 -0.2207E+01  0.1911E+02  0.4851E+01E
 Epicentro: LOS SANTOS - SANTANDER                                             3
 ACTION:UPD 17-12-12 20:00 OP:rebc STATUS:               ID:20171125210041 L   I
 OLDACT:REG 17-11-26 05:03 OP:lv   STATUS:               ID:20171125205737     3
 2017-11-25-2058-00M.COL___489                                                 6
 STAT SP IPHASW D HRMM SECON CODA AMPLIT PERI AZIMU VELO AIN AR TRES W  DIS CAZ7
 PAM  EZ EP       21 1  1.72                             147   -0.1710 76.3  42 
 PAM  EE ES       21 1 17.69                             147    0.2010 76.3  42 
 PAM  EZ I        21 1 20.77         4.1 0.60            152           76.3  42 
 RUS  HZ EP       21 1  3.50                             138   -0.4510  104 175 
 RUS  HN ES       21 1 21.42                             138    0.2610  104 175 
 RUS  HZ I        21 1 23.46         3.1 0.30            141            104 175 
 PTB  HZ EP       21 1  7.20                             127    0.07 9  146 257 
 PTB  HN ES       21 1 26.05                             127   -0.76 9  146 257 
 PTB  HZ I        21 1 29.24         4.1 0.40            130            146 257 
 ZAR  HN ES       21 1 37.16                             118    0.35 9  201 292 
 NOR  HZ EP       21 1 16.80                             114    0.27 8  235 234 
 NOR  HN ES       21 1 44.06                             114    0.50 8  235 234 
 NOR  HZ I        21 1 48.01         1.8 0.20            117            235 234 
                                                                                
