 2017 1025 2316 49.9 L   6.767 -73.132143.2  RSN  7 0.3 1.3LRSN                1
 GAP=140        0.79       3.3     3.4  5.3 -0.6408E+00  0.3784E+01  0.1450E+01E
 Epicentro: LOS SANTOS - SANTANDER                                             3
 ACTION:UPD 17-11-07 19:36 OP:rebc STATUS:               ID:20171025231649 L   I
 OLDACT:UP  17-10-26 05:16 OP:lv   STATUS:               ID:20171025230451     3
 OLDACT:REG 17-10-26 03:08 OP:l    STATUS:               ID:20171025230451     3
 2017-10-25-2308-00M.COL___459                                                 6
 STAT SP IPHASW D HRMM SECON CODA AMPLIT PERI AZIMU VELO AIN AR TRES W  DIS CAZ7
 BAR2 EZ EP       2317  9.16                             172    0.0310 20.1 196 
 BAR2 EZ ES       2317 23.96                             172   -0.1910 20.1 196 
 BAR2 EZ I        2317 25.59         4.1 0.16            171           20.1 196 
 BRR  HZ EP       2317 10.89                             151   -0.0310 74.2 300 
 BRR  HN ES       2317 28.12                             151    0.7810 74.2 300 
 PAM  EZ EP       2317 11.79                             150   -0.1410 79.3  37 
 PAM  EN ES       2317 28.90                             150   -0.2410 79.3  37 
 PAM  EZ I        2317 31.06         5.0 0.60            151           79.3  37 
 RUS  HZ EP     D 2317 13.38                             144    0.2810 96.9 177 
 RUS  HN ES       2317 31.14                             144   -0.0810 96.9 177 
 RUS  HZ I        2317 32.51         3.0 0.54            145           96.9 177 
 PTB  HZ EP       2317 16.79                             131    0.09 9  149 260 
 PTB  HE ES       2317 37.36                             131   -0.27 9  149 260 
 PTB  HZ I        2317 38.17         1.1 0.16            133            149 260 
 SPBC HZ EP       2317 18.19                             129    0.20 9  161 220 
 SPBC HN ES       2317 39.77                             129   -0.16 9  161 220 
 SPBC HZ I        2317 41.68         3.8 0.20            130            161 220 
 ZAR  HE ES       2317 47.42                             121   -0.41 8  207 293 
                                                                                
