 2012  125 2232 54.6 L   6.787 -73.176144.0  RSN  8 0.3 1.6LRSN                1
 GAP=133        0.40       3.0     3.3  5.1  0.5298E-01  0.3267E+01  0.5558E+01E
 Epicentro: LOS SANTOS - SANTANDER                                             3
 ACTION:UP  12-02-03 08:20 OP:REBC STATUS:               ID:20120125223254 L   I
 2012-01-25-2230-00M.COL___188                                                 6
 STAT SP IPHASW D HRMM SECON CODA AMPLIT PERI AZIMU VELO SNR AR TRES W  DIS CAZ7
 BAR2 SZ ES   3   2233 28.03                                    -1.1 2   22 182 
 GIR2 SZ EP   3   2233 14.50                                     0.4 2   32 357 
 GIR2 SZ ES   2   2233 29.52                             167     0.2 5   32 357 
 BRR  HZ EP   3   2233 15.60                                     0.2 2   69 301 
 PAM  SZ EP   1   2233 16.97                             150     0.1 7   81  41 
 PAM  SN ES   2   2233 34.05                             150    -0.1 5   81  41 
 RUS  HZ EP       2233 17.97                             144    -0.110   99 174 
 RUS  HE ES   2   2233 36.72                             144     0.3 5   99 174 
 RUS  HZ I        2233 38.06         5.5 0.37                            99 174 
 PTB  HZ EP   1   2233 21.00                             133    -0.1 7  144 259 
 PTB  HN ES   2   2233 41.76                             133     0.0 5  144 259 
 ZAR  HE ES   2   2233 51.77                             123     0.1 4  201 293 
 ZAR  HZ I        2233 57.50         5.7 0.16                           201 293 
 CHI  HZ EP   1   2233 31.94                             117     0.0 6  246 194 
 CHI  HN ES   2   2234  1.49                             117     0.4 4  246 194 
 CHI  HZ I        2234  7.20         1.9 0.35                           246 194 
                                                                                
