 2015  525 2317 50.0 L   6.682 -73.195 23.4  RSN  8 0.5 2.1LRSN                1
 GAP=135        1.10       2.5     3.7  3.4 -0.1385E+01  0.7243E+01 -0.9319E+00E
 Epicentro: VILLANUEVA - SANTANDER                                             3
 ACTION:UPD 15-09-10 22:07 OP:cam  STATUS:               ID:20150525231750 L   I
 OLDACT:UP  15-05-26 07:11 OP:mh   STATUS:               ID:20150525230750d    3
 OLDACT:UP  15-05-26 07:11 OP:mh   STATUS:               ID:20150525230750d    3
 OLDACT:DUP 15-05-26 07:11 OP:mh   STATUS:               ID:20150525230750d    3
 2015-05-25-2307-49M.COL___300                                                 6
 STAT SP IPHASW D HRMM SECON CODA AMPLIT PERI AZIMU VELO AIN AR TRES W  DIS CAZ7
 BAR2 EZ EP     C 2317 54.79                             157    0.2710 10.0 172 
 BAR2 EZ ES       2317 58.51                             157    0.5010 10.0 172 
 BAR2 EZ I        2317 59.60       252.7 0.32            154           10.0 172 
 BRR  HZ EP       2318  1.99                             106   -0.2710 74.0 309 
 BRR  HN ES   1   2318 11.40                             106   -0.38 7 74.0 309 
 BRR  HZ I        2318 13.51        40.6 0.12            101           74.0 309 
 RUS  HZ EP     D 2318  4.52                             104   -0.3410 88.2 172 
 RUS  HN ES   1   2318 15.42                             104   -0.99 7 88.2 172 
 RUS  HZ I        2318 15.82        39.1 0.16            100           88.2 172 
 PAM  SZ EP     C 2318  5.40                             103    0.1310 91.0  37 
 PAM  SN ES       2318 16.87                             103   -0.2710 91.0  37 
 PAM  SZ I        2318 17.85        41.6 0.26             99           91.0  37 
 SPBC HZ EP       2318 12.44                              56   -0.02 9  150 221 
 SPBC HN ES       2318 30.60                              56    0.66 9  150 221 
 SPBC HZ I        2318 36.95        24.7 0.24             56            150 221 
 OCA  HZ EP   1   2318 16.16                              56    0.74 7  173 355 
 OCA  HN ES   4   2318 38.04                              56    2.84 0  173 355 
 OCA  HZ I        2318 42.28        46.8 0.52             56            173 355 
 ZAR  HZ EP   1   2318 19.88                              56    0.67 6  204 296 
 ZAR  HE ES       2318 41.90                              56   -0.05 9  204 296 
 ZAR  HZ I        2318 45.69        11.5 0.26             56            204 296 
 HEL  HN ES       2318 55.31                              56   -0.64 8  264 258 
                                                                                
