 2011  525 2110 26.4 L   6.777 -73.049148.0  RSN 13 0.3 2.3LRSN                1
 GAP=150        0.60       3.0     5.0  3.7 -0.4222E+01  0.3714E+01  0.2264E+01E
 Epicentro: LOS SANTOS - SANTANDER                                             3
 ACTION:UP  11-06-29 08:56 OP:tino STATUS:               ID:20110525211026 L   I
 2011-05-25-2109-17S.COL___115                                                 6
 STAT SP IPHASW D HRMM SECON CODA AMPLIT PERI AZIMU VELO SNR AR TRES W  DIS CAZ7
 BAR2 SZ IP       2110 46.21                             170    -0.210   25 216 
 BAR2 SZ ES   1   2111  1.63                             170    -0.3 7   25 216 
 BAR2 SZ I        2111  4.10        35.1 0.24                            25 216 
 BTL  SZ IP       2110 46.65                             168     0.210   29 303 
 BTL  SZ ES   2   2111  2.42                             168     0.4 5   29 303 
 GIR2 SZ EP       2110 46.40                             165    -0.110   37 334 
 GIR2 SZ ES   1   2111  2.36                             165     0.2 7   37 334 
 PAM  SZ EP   2   2110 49.05                             153     0.4 5   73  32 
 PAM  SN ES   1   2111  6.38                             153     0.4 7   73  32 
 BRR  HZ IP       2110 48.10                             149    -0.310   82 297 
 BRR  HN ES   1   2111  5.83                             149     0.2 7   82 297 
 BRR  HZ I        2111  8.41        48.9 0.13                            82 297 
 RUS  HZ EP       2110 50.06                             145    -0.110   98 182 
 RUS  HN ES   1   2111  8.72                             145     0.0 7   98 182 
 RUS  HZ I        2111 10.58        16.3 0.26                            98 182 
 GRA  SZ EP       2110 51.77                             138    -0.110  125  12 
 GRA  SZ I        2111 12.93        15.1 0.26                           125  12 
 OCA  SZ EP   2   2110 55.67                             129     0.4 5  164 350 
 OCA  SZ ES   2   2111 17.07                             129    -0.7 5  164 350 
 OCA  SZ I        2111 22.40        18.0 0.26                           164 350 
 NOR  SZ EP   3   2111  2.51                             118    -0.6 2  242 236 
 GUY  SZ EP   2   2111 11.79                             112     0.6 3  311 237 
 RREF HZ EP       2111 13.45                             111     0.0 7  328 231 
 RREF HN ES   2   2111 50.32                             111     0.3 3  328 231 
 RREF HZ I        2111 57.46         9.6 0.47                           328 231 
 TOL  SZ EP       2111 15.70                             109     0.3 6  349 226 
 PRA  HZ EP       2111 20.70                             107     0.3 6  395 211 
 PRA  HN ES   3   2112  1.42                             107    -1.1 1  395 211 
 PRA  HZ I        2112  8.36        26.1 0.22                           395 211 
                                                                                
