 2016  225 2301 11.0 L   6.807 -73.167144.5  RSN  7 0.2 1.6LRSN                1
 GAP=143        0.66       3.2     3.4  4.5 -0.4116E+01  0.3705E+01  0.1709E+01E
 Epicentro: LOS SANTOS - SANTANDER                                             3
 ACTION:UPD 16-03-04 21:29 OP:rebc STATUS:               ID:20160225230111 L   I
 OLDACT:REG 16-02-26 06:35 OP:cara STATUS:               ID:20160225225748     3
 2016-02-25-2257-48M.COL___319                                                 6
 STAT SP IPHASW D HRMM SECON CODA AMPLIT PERI AZIMU VELO AIN AR TRES W  DIS CAZ7
 BAR2 EZ IP       23 1 30.58                             170    0.1210 23.8 184 
 BAR2 EZ ES       23 1 45.75                             170    0.0910 23.8 184 
 BAR2 EZ I        23 1 46.54        13.2 0.16            169           23.8 184 
 PAM  EZ IP     C 23 1 33.34                             150    0.2310 78.4  41 
 PAM  EN ES       23 1 50.43                             150    0.0510 78.4  41 
 PAM  EZ I        23 1 52.87         4.5 0.50            154           78.4  41 
 RUS  HZ EP       23 1 34.31                             143   -0.3510  102 175 
 RUS  HN ES       23 1 53.03                             143   -0.1110  102 175 
 RUS  HZ I        23 1 53.92         3.7 0.30            144            102 175 
 PTB  HZ EP       23 1 37.39                             132   -0.25 9  146 258 
 PTB  HN ES       23 1 58.13                             132   -0.31 9  146 258 
 PTB  HZ I        23 2  4.21         7.9 0.52            131            146 258 
 NOR  HZ EP       23 1 46.77                             118    0.31 8  233 234 
 NOR  HN ES       23 2 14.54                             118    0.39 8  233 234 
 NOR  HZ I        23 2 19.64         4.9 0.48            119            233 234 
 CHI  HZ EP       23 1 48.47                             117   -0.14 8  249 195 
 CHI  HN ES       23 2 18.09                             117    0.12 8  249 195 
 CHI  HZ I        23 2 24.60         2.0 0.28            118            249 195 
 GUY2CHZ EP   9   23 1 56.96                             112    2.61 0  300 234 
 GUY2CHN ES       23 2 31.42                                    0.62 7  300 234 
 GUY2CHZ I        23 2 37.13         4.0 0.68                           300 234 
                                                                                
