 2017 1225 2231  0.4 L   6.768 -73.097146.8  RSN  7 0.5 1.6LRSN                1
 GAP=102        0.88       3.9     5.2  6.9 -0.7221E+01  0.1291E+02 -0.2748E+01E
 Epicentro: LOS SANTOS - SANTANDER                                             3
 ACTION:UPD 18-01-04 13:24 OP:rebc STATUS:               ID:20171225223100 L   I
 OLDACT:UP  17-12-26 06:59 OP:dani STATUS:               ID:20171225222437     3
 OLDACT:UP  17-12-26 06:59 OP:dani STATUS:               ID:20171225222437     3
 OLDACT:UP  17-12-26 06:57 OP:dani STATUS:               ID:20171225222437     3
 OLDACT:REG 17-12-26 05:16 OP:dani STATUS:               ID:20171225222437     3
 2017-12-25-2228-00M.COL___448                                                 6
 STAT SP IPHASW D HRMM SECON CODA AMPLIT PERI AZIMU VELO AIN AR TRES W  DIS CAZ7
 BAR2 EZ EP       2231 20.03                             171   -0.1110 21.6 206 
 BAR2 EZ ES       2231 35.30                             171   -0.2210 21.6 206 
 BAR2 EZ I        2231 36.81         9.4 0.12            170           21.6 206 
 PAM  EZ EP       2231 23.20                             151    0.4810 76.9  35 
 PAM  EE ES       2231 40.05                             151   -0.0610 76.9  35 
 PAM  EZ I        2231 42.32         6.7 0.52            154           76.9  35 
 TAM  HZ EP   3   2231 25.40                             132   -2.22 2  149 104 
 PTB  HZ EP       2231 27.35                             131   -0.55 9  152 261 
 PTB  HN ES   3   2231 48.27                             131   -1.06 2  152 261 
 PTB  HZ I        2231 49.10         3.7 0.14            132            152 261 
 OCA  HZ EP       2231 28.98                             129   -0.23 9  164 351 
 OCA  HN ES       2231 51.88                             129    0.22 9  164 351 
 SPBC HZ EP       2231 29.48                             129    0.41 9  164 221 
 SPBC HN ES       2231 51.86                             129    0.44 9  164 221 
 SPBC HZ I        2231 56.36         5.8 0.12            130            164 221 
 ZAR  HZ EP   3   2231 34.59                             122    1.00 2  210 292 
 ZAR  HE ES       2231 59.18                             122   -0.27 8  210 292 
 ZAR  HZ I        2232  4.38         4.8 0.22            123            210 292 
                                                                                
