 2013  825 2058 28.0 L   6.751 -73.196155.4  RSN  5 0.3 1.4LRSN                1
 GAP=228        0.72       5.1     5.5  7.3  0.1473E+02 -0.6440E+00 -0.9900E+00E
 Epicentro: VILLANUEVA - SANTANDER                                             3
 ACTION:UPD 14-01-14 09:06 OP:ep   STATUS:               ID:20130825205828 L   I
 OLDACT:REG 13-08-25 23:47 OP:jn   STATUS:               ID:20130825205648     3
 2013-08-25-2056-48M.COL___230                                                 6
 STAT SP IPHASW D HRMM SECON CODA AMPLIT PERI AZIMU VELO AIN AR TRES W  DIS CAZ7
 BRR  HZ EP   1   2058 50.15                             155    0.07 7 69.3 305 
 BRR  HN ES       2059  7.53                             155    0.2210 69.3 305 
 BRR  HZ I        2059 12.11         6.0 0.34            153           69.3 305 
 RUS  HZ EP       2058 52.59                             147    0.2310 95.7 172 
 RUS  HN ES       2059 11.06                             147   -0.3210 95.7 172 
 RUS  HZ I        2059 12.58         2.4 0.34            153           95.7 172 
 PTB  HZ EP       2058 54.96                             136   -0.23 9  141 261 
 PTB  HN ES       2059 16.10                             136   -0.31 9  141 261 
 PTB  HZ I        2059 19.22         2.9 0.30            137            141 261 
 SPBC HE ES   1   2059 19.46                             133    0.66 7  155 219 
 ZAR  HN ES   1   2059 26.32                             125   -0.03 6  201 294 
 ZAR  HZ I        2059 31.99         3.7 0.38            126            201 294 
                                                                                
