 2017 1125 2056 37.9 L   6.600 -73.111170.2  RSN  7 0.4 1.8LRSN                1
 GAP=149        1.02       5.4     4.6  6.9 -0.5457E+01  0.9509E+01 -0.4070E+01E
 Epicentro: CURITI - SANTANDER                                                 3
 ACTION:UPD 17-12-12 20:00 OP:rebc STATUS:               ID:20171125205637 L   I
 OLDACT:DUP 17-11-26 06:48 OP:lv   STATUS:               ID:20171125204747d    3
 OLDACT:REG 17-11-26 04:58 OP:lv   STATUS:               ID:20171125204744     3
 2017-11-25-2048-00M.COL___480                                                 6
 STAT SP IPHASW D HRMM SECON CODA AMPLIT PERI AZIMU VELO AIN AR TRES W  DIS CAZ7
 BAR2 EZ EP       2057  0.02                             177   -0.2810 7.91 263 
 BAR2 EZ ES       2057 17.45                             177   -0.3110 7.91 263 
 BAR2 EZ I        2057 18.78        17.4 0.34            174           7.91 263 
 RUS  HZ IP     D 2057  3.19                             154    0.3710 78.3 178 
 RUS  HN ES       2057 22.84                             154    0.5810 78.3 178 
 RUS  HZ I        2057 24.13        17.7 0.72            157           78.3 178 
 PAM  EZ EP       2057  4.02                             150    0.3410 93.5  29 
 PAM  EE ES       2057 23.34                             150   -0.4510 93.5  29 
 PAM  EZ I        2057 26.85         4.2 0.28            151           93.5  29 
 PTB  HZ EP       2057  6.90                             137   -0.16 9  149 267 
 PTB  HN ES       2057 29.70                             137   -0.09 9  149 267 
 PTB  HZ I        2057 31.66         5.0 0.14            137            149 267 
 ZAR  HZ EP       2057 13.46                             126    0.16 8  217 297 
 ZAR  HN ES       2057 41.67                             126    0.77 8  217 297 
 ZAR  HZ I        2057 48.54         8.6 0.30            126            217 297 
 NOR  HZ EP       2057 13.60                             124   -0.67 8  226 240 
 NOR  HE ES       2057 42.29                             124   -0.34 8  226 240 
 NOR  HZ I        2057 47.25         2.4 0.26            125            226 240 
 GUY2CHZ EP   9   2057 25.83                             117    4.05 0  292 239 
 GUY2CHN ES       2057 59.90                             111   -0.15 7  292 239 
 GUY2CHZ I        2058  5.63         1.9 0.26                           292 239 
 SJC  HZ EP   4   2057 35.07                             108   -1.68 0  430 328 
 SJC  HN ES   4   2058 19.50                             108   -3.15 0  430 328 
                                                                                
