 2013  625 2040 51.1 L   6.788 -73.182152.0  RSN  4 0.2 1.5LRSN                1
 GAP=197        0.51       8.9    20.3  9.5  0.1684E+03 -0.1299E+03 -0.5686E+02E
 Epicentro: LOS SANTOS - SANTANDER                                             3
 ACTION:UPD 14-01-08 09:57 OP:ep   STATUS:               ID:20130625204051 L   I
 OLDACT:REG 13-06-26 01:18 OP:cam  STATUS:               ID:20130625203959     3
 2013-06-25-2039-59M.COL___266                                                 6
 STAT SP IPHASW D HRMM SECON CODA AMPLIT PERI AZIMU VELO AIN AR TRES W  DIS CAZ7
 BAR2 SZ EP   1   2041 11.70                             171    0.24 7 21.7 180 
 BAR2 SZ ES   2   2041 27.46                             171    0.13 5 21.7 180 
 BAR2 SZ I        2041 28.16         9.8 0.24            171           21.7 180 
 BRR  HN ES   1   2041 29.84                             154    0.15 7 68.3 301 
 RUS  HZ EP   1   2041 15.53                             145    0.11 7 99.6 174 
 RUS  HN ES   1   2041 34.02                             145   -0.35 7 99.6 174 
 RUS  HZ I        2041 35.54         3.5 0.34            146           99.6 174 
 SML  HN ES   1   2041 56.52                             119   -0.33 6  243 336 
                                                                                
