 2012 1025 2017 20.8 L   6.735 -73.115141.2  RSN  6 0.3 1.7LRSN                1
 GAP=143        0.62       4.7     4.6  5.9  0.3752E+01  0.3425E+01  0.3836E+01E
 Epicentro: JORDAN - SANTANDER                                                 3
 ACTION:UPD 12-11-22 17:05 OP:ep   STATUS:               ID:20121025201720 L   I
 2012-10-25-2010-00M.COL___234                                                 6
 STAT SP IPHASW D HRMM SECON CODA AMPLIT PERI AZIMU VELO AIN AR TRES W  DIS CAZ7
 BAR2 SZ EP   1   2017 39.74                             173    0.01 7 17.4 205 
 BAR2 SZ ES   1   2017 54.24                             173   -0.30 7 17.4 205 
 BAR2 SZ I        2017 55.97        16.5 0.16                          17.4 205 
 GIR2 SZ EP   1   2017 40.08                             164   -0.05 7 39.0 347 
 GIR2 SZ ES   1   2017 54.89                             164   -0.35 7 39.0 347 
 BRR  HZ EP   1   2017 41.98                             149    0.17 7 77.8 302 
 BRR  HZ I        2017 42.71        11.8 0.12                          77.8 302 
 BRR  HN ES   1   2017 58.82                             149    0.58 7 77.8 302 
 PAM  SZ EP   1   2017 42.95                             149    0.23 7 81.1  34 
 PAM  SN ES   1   2017 59.84                             149   -0.01 7 81.1  34 
 PAM  SN I        2018  4.30         4.3 0.44                          81.1  34 
 RUS  HZ EP   1   2017 43.28                             145   -0.25 7 93.2 178 
 RUS  HE ES   2   2018  1.86                             145    0.56 5 93.2 178 
 ZAR  HE ES   1   2018 18.71                             120   -0.39 6  210 294 
                                                                                
