 2016  425 2040 37.0 L   6.828 -73.127145.5  RSN 24 0.5 3.0LRSN 3.6WRSN        1
 SPEC AVERAGE  MO 14.5 ST0.320 OM  2.5 f0 1.10 R2.3646 AL 0.00 WI 30.0 MW  3.6 3
 SPEC SD       MO  0.3 ST0.587 OM  0.4 f00.882 R1.8226 AL      WI      MW  0.2 3
 GAP= 61        1.19       3.0     3.2  5.3 -0.3527E+01  0.1791E+01  0.1315E+01E
 Epicentro: LOS SANTOS - SANTANDER                                             3
 SPEC BAR2EH Z MO 14.2 ST0.752 OM  2.3 f0 2.00 R0.9620 AL-0.00 WI 30.0 MW  3.4 3
 SPEC BAR2EH Z T204110 K 0.000 GD  147 VS 5.20 DE 3.50 Q0750.0 QA 1.50 VS 3.50 3
 SPEC PAM EH Z MO 14.2 ST0.179 OM  2.3 f0 1.20 R1.6033 AL-0.00 WI 30.0 MW  3.4 3
 SPEC PAM EH Z T204115 K 0.000 GD  163 VS 5.20 DE 3.50 Q0750.0 QA 1.50 VS 3.50 3
 SPEC RUS HH Z MO 14.5 ST0.221 OM  2.5 f0 1.07 R1.7981 AL-0.00 WI 30.0 MW  3.6 3
 SPEC RUS HH Z T204118 K 0.000 GD  178 VS 5.20 DE 3.50 Q0750.0 QA 1.50 VS 3.50 3
 SPEC OCA HH Z MO 14.2 ST  1.2 OM  2.2 f0 2.24 R0.8589 AL-0.00 WI 30.0 MW  3.4 3
 SPEC OCA HH Z T204125 K 0.000 GD  214 VS 5.20 DE 3.50 Q0750.0 QA 1.50 VS 3.50 3
 SPEC CHI HH Z MO 14.5 ST0.087 OM  2.3 f00.778 R2.4730 AL-0.00 WI 30.0 MW  3.6 3
 SPEC CHI HH Z T204142 K 0.000 GD  290 VS 5.20 DE 3.50 Q0750.0 QA 1.50 VS 3.50 3
 SPEC ROSCBH Z MO 14.4 ST0.203 OM  2.2 f0 1.11 R1.7333 AL-0.00 WI 30.0 MW  3.5 3
 SPEC ROSCBH Z T204144 K 0.000 GD  294 VS 5.20 DE 3.50 Q0750.0 QA 1.50 VS 3.50 3
 SPEC SOCVBH Z MO 15.1 ST0.012 OM  2.9 f00.245 R7.8531 AL-0.00 WI 30.0 MW  4.0 3
 SPEC SOCVBH Z T204150 K 0.000 GD  331 VS 5.20 DE 3.50 Q0750.0 QA 1.50 VS 3.50 3
 SPECGUY2CHH Z MO 14.5 ST0.114 OM  2.3 f00.809 R2.3782 AL-0.00 WI 30.0 MW  3.6 3
 SPECGUY2CHH Z T204154 K 0.000 GD  337 VS 5.20 DE 3.50 Q0750.0 QA 1.50 Q1 0.00 3
 SPEC CBOCHH Z MO 14.4 ST0.074 OM  2.1 f00.797 R2.4141 AL-0.00 WI 30.0 MW  3.5 3
 SPEC CBOCHH Z T204159 K 0.000 GD  367 VS 5.20 DE 3.50 Q0750.0 QA 1.50 VS 3.50 3
 SPEC DBB SH Z MO 15.1 ST0.377 OM  2.8 f00.797 R2.4141 AL-0.00 WI 30.0 MW  4.0 3
 SPEC DBB SH Z T204158 K 0.000 GD  370 VS 5.20 DE 3.50 Q0750.0 QA 1.50 VS 3.50 3
 SPEC ANILHH Z MO 14.5 ST0.473 OM  2.2 f0 1.34 R1.4358 AL-0.00 WI 30.0 MW  3.6 3
 SPEC ANILHH Z T2042 5 K 0.000 GD  389 VS 5.20 DE 3.50 Q0750.0 QA 1.50 VS 3.50 3
 SPEC ORTCHH Z MO 14.5 ST0.118 OM  2.2 f00.820 R2.3463 AL-0.00 WI 30.0 MW  3.6 3
 SPEC ORTCHH Z T204213 K 0.000 GD  424 VS 5.20 DE 3.50 Q0750.0 QA 1.50 VS 3.50 3
 SPEC MACCHH Z MO 14.6 ST0.128 OM  2.2 f00.775 R2.4826 AL-0.00 WI 30.0 MW  3.7 3
 SPEC MACCHH Z T204234 K 0.000 GD  543 VS 5.20 DE 3.50 Q0750.0 QA 1.50 VS 3.50 3
 OLDACT:UP  16-04-26 06:41 OP:ar   STATUS:               ID:20160425203744     3
 OLDACT:REG 16-04-26 05:49 OP:ar   STATUS:               ID:20160425203744     3
 ACTION:UPD 16-05-05 14:24 OP:rebc STATUS:               ID:20160425204037 L   I
 OLDACT:UP  16-04-26 06:44 OP:ar   STATUS:               ID:20160425203744     3
 2016-04-25-2037-44M.COL___316                                                 6
 STAT SP IPHASW D HRMM SECON CODA AMPLIT PERI AZIMU VELO AIN AR TRES W  DIS CAZ7
 BAR2 EZ EP       2040 56.78                             169    0.1310 26.8 193 
 BAR2 EZ ES       2041 11.93                             169   -0.0610 26.8 193 
 BAR2 EZ I        2041 13.05       215.0 0.22            168           26.8 193 
 PAM  EZ EP       2040 59.68                             152    0.7410 73.7  40 
 PAM  EN ES       2041 16.67                             152    0.5910 73.7  40 
 PAM  EZ I        2041 18.92       274.7 0.48            152           73.7  40 
 RUS  HZ EP       2041  1.08                             143    0.1610  104 177 
 RUS  HN ES       2041 19.67                             143    0.0810  104 177 
 RUS  HZ I        2041 20.38       138.7 0.26            142            104 177 
 PTB  HZ EP       2041  3.36                             132   -0.80 9  150 258 
 PTB  HN ES       2041 24.35                             132   -1.02 9  150 258 
 PTB  HZ I        2041 26.56        58.8 0.32            130            150 258 
 TAM  HZ IP     D 2041  5.21                             131    0.69 9  154 106 
 OCA  HZ EP       2041  5.19                             130    0.19 9  157 352 
 OCA  HN ES       2041 26.72                             130   -0.14 9  157 352 
 OCA  HZ I        2041 30.22       189.1 0.20            129            157 352 
 SPBC HZ EP       2041  5.52                             128   -0.29 9  167 219 
 SPBC HN ES       2041 28.09                             128   -0.20 9  167 219 
 SPBC HZ I        2041 32.64       166.8 0.24            127            167 219 
 ZAR  HZ EP       2041  9.37                             122   -0.11 9  205 291 
 ZAR  HN ES       2041 34.58                             122   -0.26 9  205 291 
 ZAR  HZ I        2041 37.23        62.4 0.24            121            205 291 
 NOR  HZ EP       2041 12.62                             118   -0.44 8  238 234 
 NOR  HN ES       2041 41.17                             118   -0.04 8  238 234 
 NOR  HZ I        2041 43.30        73.0 0.18            117            238 234 
 CHI  HZ EP       2041 15.05                             117    0.01 8  252 195 
 CHI  HN ES       2041 44.33                             117   -0.41 8  252 195 
 CHI  HZ I        2041 47.70        61.3 0.62            116            252 195 
 ROSC BZ EP   4   2041 16.67                             116    1.18 0  256 211 
 ROSC BE ES       2041 45.88                             116    0.35 8  256 211 
 ROSC BZ I        2041 48.93        90.7 0.35            115            256 211 
 URE  HZ EP   4   2041 16.45                             113   -1.67 0  285 291 
 URE  HE ES   4   2041 47.56                             113   -2.65 0  285 291 
 URE  HZ I        2041 59.55        44.9 0.26            112            285 291 
 SOCV BZ EP       2041 19.62                             112   -0.00 7  298  57 
 SOCV BE ES       2041 51.84                             112   -1.05 7  298  57 
 LL1C HZ EP   4   2041 22.24                             112    1.99 0  304 351 
 LL1C HN ES   4   2041 57.04                             112    3.05 0  304 351 
 GUY2CHZ EP       2041 21.97                             112    1.00 7  305 235 
 GUY2CHN ES       2041 56.20                             112    0.92 7  305 235 
 GUY2CHZ I        2042  3.13        56.3 0.32                           305 235 
 VIL  SZ EP       2041 20.46                             112   -0.31 7  307 192 
 VIL  SN ES       2041 54.94                             112    0.01 7  307 192 
 PTGC HZ EP       2041 19.97                             111   -1.10 7  311 159 
 PTGC HN ES   4   2041 53.06                             111   -2.39 0  311 159 
 PTGC HZ I        2041 58.37        57.7 0.46            111            311 159 
 CBOC HZ EP       2041 25.21                             110    0.99 7  337 252 
 CBOC HN ES       2042  1.44                             110    0.38 7  337 252 
 CBOC HZ I        2042  4.81        16.7 0.46            109            337 252 
 DBB  SZ EP       2041 25.09                             109    0.44 7  341 274 
 DBB  SZ ES   4   2042  0.18                             109   -1.66 0  341 274 
 DBB  SZ I        2042  9.14       101.0 0.40            108            341 274 
 SDV  BZ EP       2041 26.36                             108   -0.23 6  357  50 
 SDV  BN ES   4   2042  4.08                             108   -1.21 0  357  50 
 SDV  BZ I        2042  6.74        22.4 0.40            108            357  50 
 ANIL HZ EP   4   2041 28.19                             108    1.00 0  361 224 
 ANIL HN ES       2042  7.07                             108    0.71 6  361 224 
 ANIL HZ I        2042 11.24       102.0 0.30            107            361 224 
 ORTC HZ EP       2041 31.08                             106   -0.24 6  399 216 
 ORTC HN ES   4   2042 14.61                             106    0.90 0  399 216 
 ORTC HZ I        2042 20.60        33.8 0.54            105            399 216 
 PAL  HZ EP       2041 32.40                             106   -0.12 6  409 239 
 PAL  HN ES       2042 14.93                             106   -0.92 6  409 239 
 PAL  HZ I        2042 18.47        18.1 0.22            105            409 239 
 YOT  HZ EP   4   2041 41.42                             103    0.98 0  476 229 
 YOT  HN ES   4   2042 30.99                             103    1.05 0  476 229 
 MACC HZ EP   4   2041 43.61                             101   -2.47 0  524 189 
 MACC HZ I        2042 25.77        14.0 0.26            101            524 189 
 MACC HN ES   4   2042 35.66                             101   -4.33 0  524 189 
 GARC HZ EP   4   2041 50.92                             100   -1.75 0  576 207 
 GARC HE ES   4   2042 46.28                             100   -5.43 0  576 207 
 GARC HZ I        2042 53.16        12.3 0.24            100            576 207 
                                                                                
