 2015  225 2315 48.9 L   6.283 -73.368131.0  RSN  5 0.5 1.6LRSN                1
 GAP=159        1.17       6.1     6.5 10.5 -0.1320E+01  0.2447E+02 -0.2653E+02E
 Epicentro: GUAPOTA - SANTANDER                                                3
 ACTION:UPD 15-04-30 21:29 OP:nd   STATUS:               ID:20150225231548 L   I
 OLDACT:DUP 15-02-26 08:22 OP:fm   STATUS:               ID:20150225230748d    3
 2015-02-25-2307-47M.COL___299                                                 6
 STAT SP IPHASW D HRMM SECON CODA AMPLIT PERI AZIMU VELO AIN AR TRES W  DIS CAZ7
 RUS  HZ EP       2316  9.04                             157    0.8510 53.5 144 
 RUS  HE ES       2316 22.83                             157   -0.4110 53.5 144 
 RUS  HZ I        2316 26.37         4.1 0.48            161           53.5 144 
 PTB  HZ EP       2316 11.92                             134   -0.5410  124 283 
 PTB  HN ES       2316 30.95                             134    0.0910  124 283 
 PTB  HZ I        2316 32.03        13.3 0.46            136            124 283 
 ZAR  HZ EP       2316 20.90                             118   -0.37 8  212 309 
 GUY2CHZ EP       2316 25.59                             114   -0.47 8  250 242 
 GUY2CHN ES       2316 55.64                             114    0.58 8  250 242 
 GUY2CHZ I        2317  6.65         1.7 0.22                           250 242 
 SML  HZ EP       2316 29.71                             110   -0.14 7  289 344 
 SML  HE ES       2317  2.27                             110    0.47 7  289 344 
 SML  HZ I        2317 11.26         4.0 0.24            111            289 344 
                                                                                
