 2013  825 2209 12.4 L   6.805 -73.139144.9  RSN 11 0.5 1.8LRSN                1
 GAP=137        1.09       3.8     5.2  7.8 -0.1458E+01  0.9429E+01  0.1121E+01E
 Epicentro: LOS SANTOS - SANTANDER                                             3
 ACTION:UPD 14-01-14 09:06 OP:ep   STATUS:               ID:20130825220912 L   I
 OLDACT:REG 13-08-25 23:47 OP:jn   STATUS:               ID:20130825220648     3
 2013-08-25-2206-48M.COL___229                                                 6
 STAT SP IPHASW D HRMM SECON CODA AMPLIT PERI AZIMU VELO AIN AR TRES W  DIS CAZ7
 BAR2 SZ EP   1   22 9 32.01                             170    0.12 7 24.1 192 
 BAR2 SZ ES       22 9 47.19                             170    0.0610 24.1 192 
 BAR2 SZ I        22 9 48.82        14.4 0.22            171           24.1 192 
 BRR  HZ EP       22 9 33.98                             152    0.5610 71.6 298 
 BRR  HN ES   1   22 9 50.96                             152    1.10 7 71.6 298 
 BRR  HZ I        22 9 55.18        10.8 0.22            149           71.6 298 
 PAM  SZ EP       22 9 35.03                             151    0.6210 76.4  39 
 PAM  SN ES       22 9 51.18                             151   -0.4410 76.4  39 
 PAM  SZ I        22 9 52.85         5.7 0.18            153           76.4  39 
 RUS  HZ EP       22 9 36.19                             143    0.1410  101 177 
 RUS  HN ES       22 9 54.05                             143   -0.4910  101 177 
 RUS  HZ I        22 9 55.57         7.2 0.44            147            101 177 
 PTB  HN ES       22 9 59.90                             131   -0.46 9  149 259 
 PTB  HZ I        2210  3.48         8.0 0.40            132            149 259 
 OCA  HN ES   1   2210  1.98                             129   -0.55 7  160 353 
 OCA  HZ I        2210  6.58        11.3 0.46            130            160 353 
 SPBC HZ EP   1   22 9 40.31                             128   -0.56 7  164 219 
 SPBC HN ES   1   2210  3.00                             128   -0.11 7  164 219 
 SPBC HZ I        2210  4.54        13.0 0.20            130            164 219 
 ZAR  HN ES   1   2210 10.04                             122   -0.05 6  205 292 
 ZAR  HZ I        2210 16.26        13.9 0.30            122            205 292 
 SML  HN ES   1   2210 16.63                             117   -0.78 6  243 335 
 CHI  HN ES   1   2210 19.83                             117    0.32 6  249 195 
 GUY2CHZ EP   1   22 9 56.13                             112    0.10 5  302 235 
 GUY2CHZ I        2210 40.98         3.7 0.50                           302 235 
                                                                                
