 2012 1225 2317 33.6 L   6.810 -73.124149.8  RSN 14 0.5 2.8LRSN 3.0WRSN        1
 SPEC AVERAGE  MO 13.6 ST  1.9 OM  2.4 f0 3.18 R0.4782 AL 2.42 WI 18.8 MW  3.0 3
 SPEC SD       MO  0.1 ST  1.1 OM  0.6 f00.579 R0.0917 AL      WI      MW  0.1 3
 GAP=113        1.15       3.3     3.7  5.9  0.2024E+01  0.3993E+01  0.2273E+01E
 Epicentro: LOS SANTOS - SANTANDER                                             3
 SPEC TAM HH N MO 13.6 ST0.759 OM  1.9 f0 2.35 R0.6255 AL 2.37 WI 11.4 MW  3.0 3
 SPEC TAM HH N T231821 K 0.000 GD  214 VS 4.20 DE 3.20 Q0300.0 QA 0.60 VS 4.20 3
 SPEC PTB HH N MO 13.6 ST  2.5 OM  1.9 f0 3.49 R0.4212 AL 2.14 WI 19.5 MW  3.0 3
 SPEC PTB HH N T231820 K 0.000 GD  211 VS 4.20 DE 3.20 Q0300.0 QA 0.60 VS 4.20 3
 SPEC RUS HH N MO 13.5 ST  1.4 OM  1.8 f0 3.29 R0.4468 AL 3.27 WI 13.6 MW  2.9 3
 SPEC RUS HH N T231814 K 0.000 GD  181 VS 4.20 DE 3.20 Q0300.0 QA 0.60 VS 4.20 3
 SPEC HEL HH N MO 13.5 ST  1.6 OM  1.6 f0 3.33 R0.4414 AL 2.08 WI 26.0 MW  2.9 3
 SPEC HEL HH N T231844 K 0.000 GD  313 VS 4.20 DE 3.20 Q0300.0 QA 0.60 VS 4.20 3
 SPEC CHI HH N MO 13.7 ST  1.1 OM  1.8 f0 2.56 R0.5742 AL 1.69 WI 16.3 MW  3.1 3
 SPEC CHI HH N T231839 K 0.000 GD  291 VS 4.20 DE 3.20 Q0300.0 QA 0.60 VS 4.20 3
 SPEC BRR HH N MO 13.6 ST  3.9 OM  2.0 f0 4.08 R0.3603 AL 2.94 WI 26.1 MW  3.0 3
 SPEC BRR HH N T231811 K 0.000 GD  166 VS 4.20 DE 3.20 Q0300.0 QA 0.60 VS 4.20 3
 ACTION:UPD 13-01-04 14:30 OP:ep   STATUS:               ID:20121225231733 L   I
 2012-12-25-2310-00M.COL___242                                                 6
 STAT SP IPHASW D HRMM SECON CODA AMPLIT PERI AZIMU VELO AIN AR TRES W  DIS CAZ7
 BAR2 SZ EP       2317 53.67                             170   -0.0610 24.9 195 
 GIR2 SZ EP       2317 53.88                             168    0.1610 30.7 346 
 GIR2 SZ ES       2318  9.79                             168    0.3610 30.7 346 
 BRR  HZ EP       2317 55.52                             153    0.2610 72.8 297 
 BRR  HN ES       2318 12.94                             153    0.7710 72.8 297 
 BRR  HN I        2318 13.47       116.4 0.30                          72.8 297 
 RUS  HZ EP       2317 57.67                             144   -0.1310  102 177 
 RUS  HN ES       2318 15.89                             144   -0.8010  102 177 
 RUS  HN I        2318 18.07        56.0 0.40                           102 177 
 PTB  HZ EP       2318  0.74                             132   -0.37 9  150 259 
 PTB  HN ES       2318 22.01                             132   -0.57 9  150 259 
 PTB  HN I        2318 27.33        72.2 0.28                           150 259 
 TAM  HZ EP       2318  1.94                             132    0.54 9  153 106 
 TAM  HN ES       2318 22.92                             132   -0.18 9  153 106 
 TAM  HN I        2318 24.41        86.7 0.40                           153 106 
 OCA  HZ EP       2318  1.74                             131   -0.40 9  160 352 
 OCA  HN ES       2318 24.57                             131    0.15 9  160 352 
 OCA  HN I        2318 28.28       161.7 0.30                           160 352 
 ZAR  HZ EP       2318  6.63                             123    0.15 8  206 292 
 ZAR  HN ES       2318 31.84                             123   -0.30 8  206 292 
 ZAR  HN I        2318 38.09        28.3 0.18                           206 292 
 SML  HZ EP       2318  9.93                             118   -0.51 8  244 335 
 SML  HN ES       2318 38.77                             118   -0.42 8  244 335 
 SML  HN I        2318 44.93        88.8 0.12                           244 335 
 CHI  HZ EP       2318 11.54                             118   -0.15 8  250 196 
 CHI  HN ES       2318 41.27                             118   -0.14 8  250 196 
 CHI  HN I        2318 44.98        26.1 0.20                           250 196 
 ROSC BZ EP       2318 12.90                             117    0.74 8  255 211 
 ROSC BZ I        2318 51.50        29.0 0.40                           255 211 
 HEL  HZ EP       2318 15.17                             115    0.88 8  275 256 
 HEL  HN ES       2318 46.42                             115    0.39 8  275 256 
 URE  HZ EP       2318 14.17                             114   -0.88 7  286 292 
 URE  HN I        2318 53.55        25.0 0.28                           286 292 
 RREF HZ EP       2318 20.93                             111    0.74 7  324 230 
                                                                                
