 2012 1125 2305 43.1 L   6.831 -73.196135.7  RSN 14 0.6 2.3LRSN                1
 GAP=129        1.20       3.1     4.7  7.0 -0.3350E+00  0.1514E+02 -0.4883E+00E
 Epicentro: ZAPATOCA - SANTANDER                                               3
 ACTION:UPD 12-12-05 15:36 OP:}ep  STATUS:               ID:20121125230543 L   I
 2012-11-25-2300-00M.COL___233                                                 6
 STAT SP IPHASW D HRMM SECON CODA AMPLIT PERI AZIMU VELO AIN AR TRES W  DIS CAZ7
 BAR2 SZ EP       23 6  1.68                             168    0.1010 26.4 177 
 BAR2 SZ ES       23 6 15.62                             168   -0.3810 26.4 177 
 BAR2 SZ I        23 6 17.50        51.5 0.30                          26.4 177 
 GIR2 SZ EP       23 6  1.75                             168    0.2910 27.4   1 
 GIR2 SZ I        23 6 18.30        19.2 0.42                          27.4   1 
 PAM  SZ EP       23 6  4.54                             148    0.2210 78.5  44 
 PAM  SN ES       23 6 21.02                             148    0.1510 78.5  44 
 PAM  SN I        23 6 22.29        21.0 0.62                          78.5  44 
 RUS  HZ EP       23 6  5.71                             140   -0.4610  105 173 
 RUS  HN ES       23 6 23.84                             140   -0.3210  105 173 
 RUS  HN I        23 6 25.70        23.4 0.22                           105 173 
 PTB  HZ EP       23 6  8.33                             130   -0.49 9  143 257 
 PTB  HN ES       23 6 28.75                             130   -0.13 9  143 257 
 PTB  HN I        23 6 31.61        33.5 0.22                           143 257 
 OCA  HN ES       23 6 31.62                             128    0.18 9  156 355 
 OCA  HN I        23 6 34.24        93.1 0.20                           156 355 
 ZAR  HZ EP       23 6 14.32                             121    0.10 9  198 292 
 ZAR  HN ES       23 6 39.04                             121    0.53 9  198 292 
 ZAR  HN I        23 6 41.15        23.6 0.24                           198 292 
 NOR  HZ EP       23 6 18.08                             116    0.09 8  232 233 
 NOR  HN ES       23 6 44.91                             116   -0.30 8  232 233 
 NOR  HN I        23 6 48.25        23.9 0.14                           232 233 
 SML  HZ EP       23 6 18.13                             116   -0.45 8  238 336 
 SML  HE ES       23 6 46.95                             116    0.69 8  238 336 
 SML  HN I        23 6 54.34        39.1 0.10                           238 336 
 CHI  HZ EP       23 6 20.27                             115   -0.19 8  251 194 
 CHI  HN ES       23 6 50.49                             115    0.87 8  251 194 
 HEL  HZ EP       23 6 22.84                             113    0.54 8  268 255 
 HEL  HN I        23 7  7.67         4.4 0.22                           268 255 
 RREF HZ EP       23 6 29.74                             109    1.15 7  320 228 
 MON  HN ES       23 7  7.30                             107   -1.01 6  347 308 
 MON  HN I        23 7 10.42         5.7 0.48                           347 308 
 SJC  HN EP       23 6 35.92                             104   -1.72 6  403 327 
                                                                                
