 2017  125 2238 20.4 L   6.892 -73.280  4.0  RSN  8 0.3 1.8LRSN                1
 GAP=116        0.84       1.7     1.7  3.7  0.4543E+00  0.1225E+01  0.9136E+00E
 Epicentro: BETULIA - SANTANDER                                                3
 ACTION:UPD 17-05-22 16:03 OP:jn   STATUS:               ID:20170125223820 L   I
 OLDACT:DUP 17-01-26 03:48 OP:cara STATUS:               ID:20170125223748d    3
 2017-01-25-2238-00M.COL___354                                                 6
 STAT SP IPHASW D HRMM SECON CODA AMPLIT PERI AZIMU VELO AIN AR TRES W  DIS CAZ7
 BAR2 EZ IP     C 2238 26.36                              47   -0.1210 34.9 162 
 BAR2 EZ ES       2238 30.77                              47   -0.4910 34.9 162 
 BAR2 EZ I        2238 33.32        91.6 0.22             47           34.9 162 
 BRR  HZ EP     D 2238 29.27                              47    0.2510 53.3 296 
 BRR  HN ES       2238 35.33                              47   -0.4510 53.3 296 
 BRR  HZ I        2238 38.01        42.9 0.18             47           53.3 296 
 PAM  EZ EP       2238 34.00                              47    0.2810 81.0  52 
 PAM  HN ES       2238 43.92                              47   -0.2310 81.0  52 
 PAM  EZ I        2238 44.57        20.1 0.42             47           81.0  52 
 RUS  HZ EP       2238 38.65                              47    0.1210  113 169 
 RUS  HN ES       2238 52.78                              47    0.0710  113 169 
 RUS  HZ I        2238 53.46        16.2 0.16             47            113 169 
 PTB  HZ EP       2238 42.00                              47    0.46 9  136 253 
 PTB  HN ES       2238 57.80                              47   -0.26 9  136 253 
 PTB  HZ I        2239  1.11        21.5 0.24             47            136 253 
 ZAR  HZ EP       2238 49.28                              37    0.35 9  186 291 
 ZAR  HN ES       2239 10.91                              37   -0.31 9  186 291 
 ZAR  HZ I        2239 12.75        18.8 0.20             37            186 291 
 NOR  HZ EP       2238 54.87                              37    0.55 8  229 230 
 NOR  HN ES       2239 20.81                              37   -0.01 8  229 230 
 NOR  HZ I        2239 24.08         9.2 0.28             37            229 230 
 CHI  HZ EP   9   2239  1.51                              37    3.50 0  255 191 
 CHI  HN ES       2239 31.28                                    0.40 8  255 191 
 CHI  HZ I        2239 36.15         2.3 0.40             37            255 191 
                                                                                
