 2016 1025 2019 50.0 L   6.810 -73.157146.2  RSN  8 0.4 1.8LRSN                1
 GAP=135        1.01       4.2     4.6  6.1 -0.5201E+01  0.4267E+01  0.6541E+01E
 Epicentro: LOS SANTOS - SANTANDER                                             3
 ACTION:UPD 16-11-09 19:22 OP:rebc STATUS:               ID:20161025201950 L   I
 OLDACT:REG 16-10-26 02:54 OP:ar   STATUS:               ID:20161025201743     3
 2016-10-25-2018-00M.COL___349                                                 6
 STAT SP IPHASW D HRMM SECON CODA AMPLIT PERI AZIMU VELO AIN AR TRES W  DIS CAZ7
 BAR2 EZ EP       2020  9.38                             170   -0.3110 24.3 187 
 BAR2 EZ ES       2020 24.37                             170   -0.6910 24.3 187 
 BAR2 EZ I        2020 26.05        20.2 0.18            167           24.3 187 
 BRR  HZ EP       2020 11.30                             153    0.2110 69.5 298 
 BRR  HN ES       2020 28.33                             153    0.7710 69.5 298 
 BRR  HZ I        2020 30.99        13.8 0.28            153           69.5 298 
 PAM  EZ EP       2020 12.51                             151    0.2710 77.3  41 
 PAM  EE ES       2020 29.61                             151    0.0010 77.3  41 
 PAM  EZ I        2020 31.94         8.6 0.60            156           77.3  41 
 RUS  HZ EP       2020 13.71                             144   -0.1610  102 175 
 RUS  HE ES       2020 32.72                             144    0.2210  102 175 
 RUS  HZ I        2020 34.17         7.5 0.26            143            102 175 
 PTB  HZ EP       2020 16.59                             132   -0.31 9  147 258 
 PTB  HN ES       2020 37.15                             132   -0.74 9  147 258 
 PTB  HZ I        2020 40.55         8.8 0.14            132            147 258 
 SPBC HZ EP       2020 18.37                             129   -0.16 9  163 218 
 SPBC HE ES       2020 41.24                             129    0.45 9  163 218 
 SPBC HZ I        2020 45.36        15.1 0.32            129            163 218 
 NOR  HZ EP       2020 25.76                             119    0.06 8  234 234 
 NOR  HE ES       2020 53.75                             119    0.19 8  234 234 
 NOR  HZ I        2021  1.44         5.2 0.18            119            234 234 
 CHI  HZ EP       2020 27.82                             117    0.03 8  249 195 
 CHI  HN ES       2020 57.60                             117    0.32 8  249 195 
 CHI  HZ I        2021  6.93         3.4 0.40            118            249 195 
                                                                                
