 2010  725 2237 37.5 L   6.814 -73.010140.9  RSN  8 0.4 2.1LRSN                1
 GAP=197        1.02       4.1     8.2 10.0 -0.2095E+00 -0.1272E+02  0.7554E+01E
 Epicentro: CEPITA - SANTANDER                                                 3
 ACTION:UPD 10-12-01 15:20 OP:pat  STATUS:               ID:20100725223737 L   I
 2010-07-25-2233-28S.COL___123                                                 6
 STAT SP IPHASW D HRMM SECON CODA AMPLIT PERI AZIMU VELO AIN AR TRES W  DIS CAZ7
 BAR2 SZ EP       2237 56.81                             167     0.010   31 218 
 BAR2 SZ I        2238 12.94        23.8 0.20                            31 218 
 BRR  HZ EP       2237 58.57                             148    -0.410   84 293 
 BRR  HN ES       2238 15.57                             148    -0.110   84 293 
 BRR  HZ I        2238 16.61        32.7 0.36                            84 293 
 RUS  HZ EP       2238  0.86                             142    -0.110  102 185 
 RUS  HN ES   1   2238 19.68                             142     0.5 7  102 185 
 RUS  HZ I        2238 21.38        13.6 0.49                           102 185 
 OCA  SZ EP       2238  6.28                             128     0.7 9  161 348 
 OCA  SZ ES   1   2238 26.87                             128    -0.5 7  161 348 
 OCA  SZ I        2238 30.11        12.1 0.10                           161 348 
 CHI  HZ EP   1   2238 15.10                             115    -0.5 6  255 198 
 CHI  HN ES   1   2238 45.24                             115    -0.1 6  255 198 
 CHI  HZ I        2238 48.03         5.2 1.13                           255 198 
 ROSC BN ES   2   2238 46.78                             115     0.0 4  262 214 
 HEL  HN ES   1   2238 52.17                             112     0.5 5  287 256 
 HEL  HZ I        2238 55.96         8.5 1.46                           287 256 
 PRA  HN ES   1   2239 14.06                             105    -0.3 4  401 211 
 PRA  HZ I        2239 19.03         6.9 0.08                           401 211 
                                                                                
