 2015  625 2330 56.8 L   6.793 -73.162136.0  RSN  4 0.3 1.6LRSN                1
 GAP=235        0.72       7.7     8.8  5.6  0.5701E+02  0.5149E+01 -0.1690E+01E
 Epicentro: LOS SANTOS - SANTANDER                                             3
 ACTION:UPD 15-09-10 22:15 OP:cam  STATUS:               ID:20150625233056 L   I
 OLDACT:REG 15-06-26 05:00 OP:stll STATUS:               ID:20150625232749     3
 2015-06-25-2327-49M.COL___331                                                 6
 STAT SP IPHASW D HRMM SECON CODA AMPLIT PERI AZIMU VELO AIN AR TRES W  DIS CAZ7
 BAR2 EZ EP       2331 15.14                             170   -0.1210 22.3 186 
 BAR2 EZ ES       2331 29.86                             170    0.2210 22.3 186 
 BAR2 EZ I        2331 31.41        11.5 0.26            161           22.3 186 
 BRR  HZ EP       2331 17.11                             151    0.2510 70.0 300 
 BRR  HE ES       2331 32.23                             151   -0.2610 70.0 300 
 RUS  HZ EP       2331 19.13                             142   -0.4510 99.9 175 
 RUS  HE ES       2331 37.53                             142    0.2010 99.9 175 
 RUS  HZ I        2331 39.05         5.1 0.30            139           99.9 175 
 ZAR  HZ EP       2331 28.88                             120    0.36 9  203 293 
 ZAR  HN ES       2331 53.10                             120   -0.13 9  203 293 
 ZAR  HZ I        2331 59.22         4.4 0.26            119            203 293 
                                                                                
