 2012  325 2102  8.2 L   6.762 -73.166140.0  RSN  6 0.4 1.4LRSN                1
 GAP=136        0.83       4.6     5.3  8.7  0.4772E+01  0.4848E+01  0.1464E+01E
 ACTION:UP  12-03-31 23:22 OP:EP   STATUS:               ID:20120325210208 L   I
 2012-03-25-2100-00M.COL___196                                                 6
 STAT SP IPHASW D HRMM SECON CODA AMPLIT PERI AZIMU VELO SNR AR TRES W  DIS CAZ7
 BAR2 SZ EP   1   21 2 26.95                             172    -0.1 7   19 185 
 BAR2 SZ I        21 2 27.61         6.6 0.13                            19 185 
 BAR2 SZ ES   2   21 2 41.03                             172    -0.7 5   19 185 
 BRR  HZ EP   1   21 2 29.20                             151     0.5 7   71 302 
 BRR  HZ I        21 2 29.57        13.7 0.09                            71 302 
 BRR  HN ES       21 2 45.09                             151     0.410   71 302 
 PAM  SZ EP   1   21 2 29.96                             148    -0.1 7   82  39 
 PAM  SZ I        21 2 30.42         2.8 0.26                            82  39 
 PAM  SN ES   1   21 2 46.93                             148    -0.2 7   82  39 
 RUS  HZ EP   1   21 2 31.12                             144     0.1 7   97 175 
 RUS  HN ES       21 2 48.93                             144     0.010   97 175 
 RUS  HZ I        21 2 50.58         2.6 0.32                            97 175 
 ZAR  HN ES   1   21 3  4.44                             121    -0.7 6  204 293 
 NOR  SN ES   2   21 3 10.13                             118    -0.2 4  230 235 
                                                                                
