 2014  825 2048 22.3 L   6.817 -73.177145.4  RSN 14 0.4 2.6LRSN                1
 GAP=132        0.98       2.8     3.8  4.8 -0.2366E+00  0.5771E+01  0.7554E+00E
 Epicentro: ZAPATOCA - SANTANDER                                               3
 ACTION:UPD 14-09-15 21:53 OP:nd   STATUS:               ID:20140825204822 L   I
 OLDACT:UP  14-08-26 02:52 OP:cam  STATUS:               ID:20140825204000     3
 OLDACT:REG 14-08-26 02:30 OP:cam  STATUS:               ID:20140825204000     3
 2014-08-25-2040-00M.COL___288                                                 6
 STAT SP IPHASW D HRMM SECON CODA AMPLIT PERI AZIMU VELO AIN AR TRES W  DIS CAZ7
 BAR2 SZ EP     C 2048 41.84                             170   -0.1010 24.9 181 
 BAR2 SZ ES       2048 57.10                             170   -0.1410 24.9 181 
 BAR2 SZ I        2048 59.60       162.5 0.28            169           24.9 181 
 BRR  HZ EP     C 2048 43.61                             154    0.4010 67.2 299 
 BRR  HN ES       2049  0.28                             154    0.7810 67.2 299 
 BRR  HZ I        2049  3.14        63.0 0.30            153           67.2 299 
 PAM  SZ EP     C 2048 44.65                             150    0.1010 78.2  42 
 PAM  SN ES       2049  1.92                             150    0.0410 78.2  42 
 PAM  SZ I        2049  5.05        48.4 0.50            155           78.2  42 
 RUS  HZ EP       2048 45.72                             143   -0.4710  103 174 
 RUS  HN ES       2049  4.81                             143   -0.0010  103 174 
 RUS  HZ I        2049  5.91        32.6 0.32            145            103 174 
 PTB  HZ EP       2048 48.58                             133   -0.40 9  145 258 
 PTB  HN ES       2049  8.99                             133   -0.79 9  145 258 
 PTB  HZ I        2049 12.18        31.9 0.14            133            145 258 
 SPBC HZ EP       2048 50.68                             129   -0.04 9  162 218 
 SPBC HN ES       2049 12.70                             129   -0.18 9  162 218 
 SPBC HZ I        2049 17.02        58.2 0.40            130            162 218 
 ZAR  HZ EP       2048 54.50                             123    0.16 9  200 292 
 ZAR  HE ES       2049 19.86                             123    0.55 9  200 292 
 ZAR  HZ I        2049 25.02        53.6 0.28            124            200 292 
 NOR  HZ EP     D 2048 57.97                             119    0.13 8  233 234 
 NOR  HE ES       2049 25.27                             119   -0.28 8  233 234 
 NOR  HZ I        2049 33.83        25.3 0.36            120            233 234 
 SML  HZ EP       2048 58.23                             118   -0.35 8  241 336 
 SML  HN ES       2049 26.20                             118   -0.67 8  241 336 
 SML  HZ I        2049 30.43        33.1 0.10            120            241 336 
 CHI  HZ EP       2049  0.38                             117    0.28 8  250 194 
 CHI  HN ES       2049 29.55                             117   -0.02 8  250 194 
 CHI  HZ I        2049 34.69        31.7 0.32            119            250 194 
 ROSC BZ EP       2049  0.97                             117    0.57 8  253 210 
 HEL  HZ EP       2049  2.35                             115    0.16 8  269 255 
 URE  HZ EP       2049  2.64                             114   -0.29 7  280 292 
 GUY2CHZ EP       2049  6.50                             112    0.79 7  299 234 
                                                                                
