 2014  625 2252 16.5 L   6.780 -73.165145.1  RSN  6 0.4 1.8LRSN                1
 GAP=244        0.92       6.6     6.7  8.2 -0.8704E+00  0.8857E+01  0.1363E+02E
 Epicentro: LOS SANTOS - SANTANDER                                             3
 ACTION:UPD 14-07-01 22:56 OP:nd   STATUS:               ID:20140625225216 L   I
 OLDACT:UP  14-06-26 03:06 OP:mh   STATUS:               ID:20140625224820     3
 OLDACT:UP  14-06-26 03:06 OP:mh   STATUS:               ID:20140625224820     3
 OLDACT:REG 14-06-26 02:35 OP:mh   STATUS:               ID:20140625224820     3
 2014-06-25-2248-20M.COL___259                                                 6
 STAT SP IPHASW D HRMM SECON CODA AMPLIT PERI AZIMU VELO AIN AR TRES W  DIS CAZ7
 BAR2 SZ EP       2252 36.05                             171    0.0410 20.8 185 
 BAR2 SZ ES   1   2252 50.81                             171   -0.40 7 20.8 185 
 BAR2 SZ I        2252 52.32        14.0 0.34            168           20.8 185 
 BRR  HZ EP       2252 37.49                             153   -0.0510 70.4 301 
 BRR  HN ES   1   2252 54.50                             153    0.56 7 70.4 301 
 BRR  HZ I        2252 58.49        14.0 0.15            153           70.4 301 
 PTB  HZ EP       2252 42.62                             132   -0.57 9  145 260 
 PTB  HN ES   1   2253  3.31                             132   -0.69 7  145 260 
 PTB  HZ I        2253  6.30         6.6 0.11            134            145 260 
 SPBC HZ EP       2252 45.10                             129    0.44 9  160 219 
 SPBC HN ES   1   2253  7.24                             129    0.63 7  160 219 
 SPBC HZ I        2253 12.28         7.0 0.35            131            160 219 
 ZAR  HN ES   1   2253 14.46                             122    0.49 6  203 293 
 NOR  HZ EP       2252 51.87                             119    0.00 8  232 235 
 NOR  HN ES   1   2253 19.16                             119   -0.29 6  232 235 
 NOR  HZ I        2253 21.99         3.2 0.26            121            232 235 
 RREF HZ EP   4   2252 57.64                             111   -4.63 0  319 229 
 RREF HN ES   4   2253 10.53                             111   -27.4 0  319 229 
                                                                                
