 2011  125 2230  9.0 L   6.769 -73.134144.5  RSN  6 0.2 1.6LRSN                1
 GAP=184        0.51       3.6     6.0  5.3 -0.4920E+01  0.5342E+01 -0.5997E+00E
 Epicentro: LOS SANTOS - SANTANDER                                             3
 ACTION:UP  11-02-08 08:42 OP:pat  STATUS:               ID:20110125223009 L   I
 2011-01-25-2227-50S.COL___138                                                 6
 STAT SP IPHASW D HRMM SECON CODA AMPLIT PERI AZIMU VELO SNR AR TRES W  DIS CAZ7
 BAR2 SZ EP   1   2230 28.30                             172    -0.1 7   20 196 
 BAR2 SZ I        2230 46.14         9.9 0.22                            20 196 
 BTL  SZ EP   1   2230 28.42                             171     0.0 7   22 318 
 BTL  SZ ES   1   2230 43.66                             171     0.1 7   22 318 
 RUS  HZ EP   1   2230 31.95                             145    -0.4 7   97 177 
 RUS  HN ES   1   2230 50.73                             145     0.2 7   97 177 
 RUS  HZ I        2230 52.56         3.7 0.23                            97 177 
 OCA  SZ EP   1   2230 37.65                             129     0.1 7  164 353 
 OCA  SZ I        2231  5.31         7.0 0.25                           164 353 
 NOR  SE ES   1   2231 12.18                             118    -0.1 6  234 235 
 CHI  HZ EP   1   2230 46.65                             117     0.4 6  246 196 
                                                                                
