 2010  925 2216 46.8 L   6.789 -73.115146.7  RSN 11 0.4 1.8LRSN                1
 GAP=162        0.82       4.4     8.7  8.3 -0.1192E+02  0.5614E+01  0.1119E+00E
 Epicentro: LOS SANTOS - SANTANDER                                             3
 ACTION:UP  11-02-18 11:05 OP:tino STATUS:               ID:20100925221646 L   I
 2010-09-25-2215-07S.COL___122                                                 6
 STAT SP IPHASW D HRMM SECON CODA AMPLIT PERI AZIMU VELO SNR AR TRES W  DIS CAZ7
 BTL  SZ EP   1   2217  7.48                             171     1.0 7   22 310 
 BAR2 SZ EP   1   2217  6.40                             171    -0.1 7   23 199 
 BAR2 SZ ES   2   2217 21.34                             171    -0.5 5   23 199 
 BAR2 SZ I        2217 24.16        12.9 0.68                            23 199 
 GIR2 SZ EP   1   2217  6.79                             167     0.2 7   33 345 
 GIR2 SZ ES   3   2217 21.94                             167    -0.1 2   33 345 
 BRR  HZ EP   1   2217  8.17                             152     0.0 7   75 298 
 BRR  HZ I        2217  8.40        20.5 0.11                            75 298 
 BRR  HE ES   2   2217 25.27                             152     0.3 5   75 298 
 RUS  HZ EP   1   2217 10.30                             144    -0.2 7   99 178 
 RUS  HN ES   2   2217 28.98                             144     0.0 5   99 178 
 GUE  SZ EP   1   2217 11.01                             140    -0.6 7  117  10 
 GRA  SZ EP   1   2217 12.30                             137     0.2 7  126  16 
 OCA  SZ EP   1   2217 14.93                             130    -0.4 7  162 352 
 OCA  SZ ES   2   2217 37.61                             130     0.1 5  162 352 
 OCA  SZ I        2217 41.33         6.9 0.30                           162 352 
 NOR  SZ EP   1   2217 22.24                             119    -0.5 6  237 235 
 NOR  SN ES   2   2217 50.35                             119    -0.5 4  237 235 
 CHI  HZ EP   1   2217 24.80                             117     0.3 6  248 196 
 CHI  HN ES   2   2217 54.10                             117     0.2 4  248 196 
 CHI  HZ I        2218  0.18         3.1 0.68                           248 196 
 HEL  HZ EP   2   2217 28.01                             115     0.7 4  275 256 
 HEL  HZ I        2218  6.53         3.9 0.29                           275 256 
                                                                                
