 2017 1025 2116 38.2 L   6.806 -73.393116.0  RSN  7 0.5 1.8LRSN                1
 GAP= 99        1.26       5.0     4.9  8.6 -0.3497E+01  0.9109E+01 -0.1077E+01E
 Epicentro: SAN VICENTE DE CHUCURI - SANTANDER                                 3
 ACTION:UPD 17-11-07 19:36 OP:rebc STATUS:               ID:20171025211638 L   I
 OLDACT:REG 17-10-26 02:48 OP:l    STATUS:               ID:20171025210121     3
 2017-10-25-2108-00M.COL___459                                                 6
 STAT SP IPHASW D HRMM SECON CODA AMPLIT PERI AZIMU VELO AIN AR TRES W  DIS CAZ7
 BAR2 EZ EP       2116 54.64                             163    0.0310 33.2 136 
 BAR2 EZ ES       2117  7.60                             163    0.2310 33.2 136 
 BAR2 EZ I        2117  8.93        24.2 0.50            168           33.2 136 
 BRR  HZ EP       2116 55.03                             156    0.1210 48.5 313 
 BRR  HE ES       2117  8.42                             156    0.5010 48.5 313 
 BRR  HZ I        2117 10.06        16.2 0.12            154           48.5 313 
 PAM  EZ EP       2116 58.80                             138   -0.0710 96.6  52 
 PAM  EN ES       2117 14.14                             138   -0.8210 96.6  52 
 PAM  EZ I        2117 16.44        12.4 0.22            141           96.6  52 
 RUS  HZ EP       2116 59.96                             135    0.2410  107 161 
 RUS  HN ES       2117 17.01                             135    0.5310  107 161 
 PTB  HZ EP       2116 59.95                             130   -0.4410  121 256 
 PTB  HN ES       2117 17.21                             130   -0.4510  121 256 
 PTB  HZ I        2117 21.74         6.4 0.14            131            121 256 
 SPBC HZ EP   4   2117  4.48                             124    1.38 0  148 211 
 SPBC HN ES       2117 21.83                             124   -0.66 9  148 211 
 ZAR  HZ EP       2117  7.03                             119    0.85 9  179 295 
 ZAR  HN ES   4   2117 29.66                             119    1.68 0  179 295 
 ZAR  HZ I        2117 31.56         8.0 0.24            120            179 295 
                                                                                
