 2015  825 2114 17.7 L   6.819 -73.086141.5  RSN  7 0.3 2.1LRSN                1
 GAP=223        0.48       2.2     4.3  4.2 -0.1595E+01  0.8163E+01 -0.1517E+01E
 Epicentro: LOS SANTOS - SANTANDER                                             3
 ACTION:UPD 15-09-15 23:05 OP:cam  STATUS:               ID:20150825211417 L   I
 OLDACT:REG 15-08-26 02:49 OP:ar   STATUS:               ID:20150825210748     3
 2015-08-25-2107-48M.COL___358                                                 6
 STAT SP IPHASW D HRMM SECON CODA AMPLIT PERI AZIMU VELO AIN AR TRES W  DIS CAZ7
 BAR2 EZ EP       2114 37.16                             169    0.2510 27.3 203 
 BAR2 EZ ES       2114 51.78                             169   -0.1110 27.3 203 
 BAR2 EZ I        2114 53.46        25.0 0.22            163           27.3 203 
 ZAR  HN ES   2   2115 15.40                             121   -0.57 4  209 291 
 ZAR  HZ I        2115 20.91        14.3 0.52            119            209 291 
 NOR  HZ EP       2114 53.76                             117   -0.15 8  241 235 
 NOR  HN ES       2115 22.30                             117    0.15 8  241 235 
 NOR  HZ I        2115 26.19         8.0 0.46            115            241 235 
 SML  HZ EP       2114 53.94                             116   -0.26 8  245 334 
 SML  HN ES       2115 22.89                             116    0.23 8  245 334 
 SML  HZ I        2115 25.33        14.4 0.10            116            245 334 
 CHI  HZ EP   2   2114 55.58                             116   -0.01 4  252 196 
 CHI  HN ES   2   2115 24.63                             116   -0.51 4  252 196 
 CHI  HZ I        2115 31.89         5.1 0.52            115            252 196 
 GUY2CHZ EP   4   2115  3.74                             111    1.86 0  308 235 
 GUY2CHN ES   2   2115 36.61                             111    0.29 4  308 235 
 GUY2CHZ I        2115 45.08         3.4 0.28                           308 235 
 PRA  HZ EP   2   2115 11.58                             106   -0.11 3  397 210 
 PRA  HN ES   2   2115 54.28                             106    0.49 3  397 210 
 PRA  HZ I        2115 59.61         6.3 0.26            105            397 210 
                                                                                
