 2010  425 2130 24.1 L   6.755 -73.023143.3  RSN 11 0.4 2.4LRSN                1
 GAP=198        0.95       5.1     7.0  6.7 -0.2365E+02 -0.7283E+01  0.1242E+02E
 Epicentro: CEPITA - SANTANDER                                                 3
 ACTION:UPD 10-08-24 10:01 OP:vdl  STATUS:               ID:20100425213031 L   I
 2010-04-25-2128-34S.COL___104                                                 6
 STAT SP IPHASW D HRMM SECON CODA AMPLIT PERI AZIMU VELO AIN AR TRES W  DIS CAZ7
 BAR2 SZ EP   1   2130 43.59                             169     0.1 7   25 225 
 BAR2 SZ ES   1   2130 58.14                             169    -0.5 7   25 225 
 BRR  HZ EP       2130 46.20                             148     0.310   86 297 
 BRR  HE ES       2131  3.49                             148     0.610   86 297 
 BRR  HZ I        2131  5.94        31.6 0.12                            86 297 
 BRI  SZ EP       2130 48.36                             141     0.510  109  13 
 BRI  SZ ES   1   2131  6.14                             141    -0.2 7  109  13 
 GUE  SZ EP       2130 48.86                             139     0.010  119   5 
 GRA  SZ IP       2130 49.64                             137     0.310  127  11 
 GRA  SZ ES   1   2131  8.27                             137    -0.6 7  127  11 
 OCA  SZ EP       2130 52.34                             128    -0.6 9  167 349 
 OCA  SZ ES   1   2131 15.08                             128    -0.3 7  167 349 
 OCA  SZ I        2131 20.32        39.5 0.31                           167 349 
 ROSC BZ EP   2   2131  2.78                             116     0.3 4  256 214 
 ROSC BE ES   2   2131 31.92                             116    -0.5 4  256 214 
 ROSC BZ I        2131 39.88        15.4 0.46                           256 214 
 HEL  HZ EP   1   2131  5.30                             114    -0.3 6  284 257 
 HEL  HN ES   1   2131 37.32                             114    -0.6 6  284 257 
 HEL  HZ I        2131 42.27         6.6 0.26                           284 257 
 RREF BZ EP   1   2131 10.79                             110    -0.2 5  329 232 
 RREF BE ES   2   2131 47.31                             110    -0.3 3  329 232 
 RREF BZ I        2131 52.28        11.5 0.30                           329 232 
 ANIL BZ EP   1   2131 15.48                             108     0.9 5  364 227 
 ANIL BE ES   2   2131 53.42                             108    -0.5 3  364 227 
 PRA  HZ EP       2131 17.50                             106    -0.4 6  395 212 
 PRA  HN ES   1   2131 59.95                             106     0.1 4  395 212 
 PRA  HZ I        2132  5.58        11.6 0.31                           395 212 
                                                                                
