 2016  726 0339 31.5 L   6.733 -73.146141.5  RSN  4 0.3 1.2LRSN                1
 GAP=232        0.82       6.3     6.2  6.6  0.1964E+02  0.4602E+01  0.1056E+01E
 Epicentro: LOS SANTOS - SANTANDER                                             3
 ACTION:UPD 17-03-29 16:55 OP:lp   STATUS:               ID:20160726033932dL   I
 OLDACT:DUP 16-07-26 15:58 OP:ar   STATUS:               ID:20160726033760d    3
 2016-07-26-0337-59S.COL___334                                                 6
 STAT SP IPHASW D HRMM SECON CODA AMPLIT PERI AZIMU VELO AIN AR TRES W  DIS CAZ7
 BAR2 EZ EP        339 50.41                             173   -0.1110 16.1 195 
 BAR2 EZ ES        340  5.00                             173   -0.3310 16.1 195 
 BAR2 EZ I         340  7.33         4.3 0.28            169           16.1 195 
 BRR  HZ EP        339 52.29                             150   -0.1610 75.0 304 
 BRR  HN ES        340  9.16                             150    0.4010 75.0 304 
 RUS  HZ EP        339 54.87                             145    0.5410 93.2 176 
 RUS  HN ES        340 12.07                             145   -0.0510 93.2 176 
 RUS  HZ I         340 15.96         1.2 0.32            144           93.2 176 
 PTB  HZ EP        339 57.65                             131   -0.39 9  147 262 
 PTB  HN ES        340 18.77                             131    0.06 9  147 262 
 PTB  HZ I         340 20.43         3.2 0.16            132            147 262 
                                                                                
