 2013  526 0340 40.2 L   6.824 -73.094138.0  RSN 11 0.5 2.0LRSN                1
 GAP=188        1.01       4.3     6.1  8.5 -0.4108E+01  0.1148E+02  0.8464E+01E
 Epicentro: LOS SANTOS - SANTANDER                                             3
 ACTION:UPD 13-06-20 09:53 OP:ep   STATUS:               ID:20130526034040 L   I
 2013-05-26-0340-00M.COL___261                                                 6
 STAT SP IPHASW D HRMM SECON CODA AMPLIT PERI AZIMU VELO AIN AR TRES W  DIS CAZ7
 BAR2 SZ ES   1    341 13.27                             168   -0.38 7 27.4 201 
 GIR2 SZ EP   1    340 58.65                             167   -0.28 7 30.3 339 
 BRR  HZ EP   1    341  1.66                             150    0.91 7 75.1 295 
 BRR  HN ES        341 17.43                             150    0.6510 75.1 295 
 BRR  HN I         341 23.21        19.2 0.20            149           75.1 295 
 RUS  HZ EP   1    341  3.85                             141    0.47 7  103 179 
 RUS  HN ES   1    341 21.45                             141   -0.01 7  103 179 
 RUS  HN I         341 23.27         9.5 0.36            145            103 179 
 PTB  HZ EP   1    341  6.57                             129   -0.55 7  154 258 
 PTB  HN ES        341 27.61                             129   -0.51 9  154 258 
 PTB  HN I         341 33.34        12.2 0.44            130            154 258 
 OCA  HN ES        341 28.77                             128   -0.46 9  158 351 
 OCA  HN I         341 33.94        20.9 0.24            130            158 351 
 ZAR  HZ EP   4    341 26.28                             120   13.67 0  208 291 
 ZAR  HN ES   4    341 37.05                             120   -0.84 0  208 291 
 ZAR  HN I         341 39.84        13.5 0.14            121            208 291 
 NOR  HE ES        341 44.08                             116   -0.14 8  241 235 
 NOR  HE I         341 48.05         7.8 0.18            118            241 235 
 HEL  HN ES   1    341 52.82                             113    0.49 6  278 256 
 GUY2CHZ EP   1    341 24.37                             110    0.20 5  307 235 
 GUY2CHN I         342  4.58         2.7 0.34                           307 235 
 PRA  HN ES        342 15.85                             105   -0.23 6  397 210 
 PRA  HN I         342 20.70         1.8 0.32            107            397 210 
                                                                                
