 2011  426 0925 20.1 L   6.796 -73.151144.5  RSN 11 0.4 2.3LRSN                1
 GAP=136        0.96       3.9     6.7  7.1 -0.8521E+01  0.5096E+01  0.9494E+00E
 Epicentro: LOS SANTOS - SANTANDER                                             3
 ACTION:UP  11-06-22 15:33 OP:REBC STATUS:               ID:20110426092519 L   I
 2011-04-26-0924-02S.COL___137                                                 6
 STAT SP IPHASW D HRMM SECON CODA AMPLIT PERI AZIMU VELO SNR AR TRES W  DIS CAZ7
 BAR2 SZ EP        925 39.36                             172    -0.210   23 189 
 BAR2 SZ ES   1    925 54.45                             172    -0.3 7   23 189 
 BAR2 SZ I         925 57.04        57.1 0.32                            23 189 
 BRR  HZ IP     C  925 41.17                             154     0.110   71 299 
 BRR  HN ES   1    925 57.86                             154     0.4 7   71 299 
 BRR  HZ I         926  2.01        85.2 0.19                            71 299 
 PAM  SZ EP        925 42.43                             150     0.210   78  40 
 PAM  SN ES   2    925 59.15                             150    -0.3 5   78  40 
 PAM  SZ I         926  1.85        10.6 0.50                            78  40 
 RUS  HZ EP   1    925 43.38                             145    -0.3 7  100 176 
 RUS  HN ES   1    926  2.23                             145     0.1 7  100 176 
 RUS  HZ I         926  4.45        34.9 0.32                           100 176 
 BRI  SZ EP   1    925 45.01                             141     1.1 7  109  21 
 BRI  SZ I         926  7.84        13.9 0.31                           109  21 
 GRA  SZ EP   1    925 45.24                             136     0.0 7  126  18 
 GRA  SZ I         926  9.21        19.8 0.35                           126  18 
 OCA  SZ EP   1    925 47.47                             130    -0.9 7  161 353 
 OCA  SZ ES   1    926 10.11                             130    -0.3 7  161 353 
 OCA  SZ I         926 13.96        40.5 0.32                           161 353 
 NOR  SZ EP   1    925 55.28                             120    -0.4 6  234 234 
 NOR  SN ES   1    926 23.50                             120     0.1 6  234 234 
 CHI  HZ EP   1    925 57.75                             118     0.1 6  248 195 
 CHI  HN ES   1    926 27.11                             118     0.2 6  248 195 
 CHI  HZ I         926 30.19        21.0 0.36                           248 195 
 HEL  HZ EP   2    926  1.09                                     0.9 4  271 256 
 HEL  HN ES   3    926 30.88                                    -0.6 2  271 256 
 HEL  HZ I         926 38.91        23.5 0.51                           271 256 
 PRA  HZ EP   1    926 13.27                             107    -0.2 4  391 210 
                                                                                
