 2015  226 0052 25.1 L   6.778 -73.157141.1  RSN  9 0.6 2.0LRSN                1
 GAP=136        1.33       4.5     5.7  7.5 -0.7386E+01  0.1427E+02 -0.1426E+01E
 Epicentro: LOS SANTOS - SANTANDER                                             3
 ACTION:UPD 15-04-30 21:29 OP:nd   STATUS:               ID:20150226005225 L   I
 OLDACT:DUP 15-02-26 15:33 OP:stll STATUS:               ID:20150226004749d    3
 2015-02-26-0047-48M.COL___302                                                 6
 STAT SP IPHASW D HRMM SECON CODA AMPLIT PERI AZIMU VELO AIN AR TRES W  DIS CAZ7
 BAR2 EZ EP        052 44.48                             171    0.3910 20.7 188 
 BAR2 EZ ES        052 58.98                             171    0.0510 20.7 188 
 BAR2 EZ I         053  0.98        20.5 0.14            170           20.7 188 
 BRR  HZ EP        052 46.39                             151    0.6610 71.3 301 
 BRR  HN ES        053  2.48                             151    0.6410 71.3 301 
 BRR  HZ I         053  6.74        14.3 0.24            150           71.3 301 
 PAM  SZ EP        052 47.23                             149    0.2710 80.0  39 
 PAM  SZ I         052 47.37         9.8 0.22            154           80.0  39 
 PAM  SN ES        053  3.53                             149   -0.5010 80.0  39 
 RUS  HZ EP        052 48.40                             143    0.2010 98.2 175 
 RUS  HN ES        053  5.74                             143   -0.4910 98.2 175 
 RUS  HZ I         053  8.33         8.2 0.30            146           98.2 175 
 PTB  HZ EP        052 51.22                             131   -0.29 9  146 260 
 PTB  HE ES        053 11.96                             131   -0.17 9  146 260 
 PTB  HZ I         053 17.95        11.7 0.28            132            146 260 
 SPBC HZ EP        052 53.46                             128    0.50 9  161 219 
 SPBC HN ES        053 14.29                             128   -0.43 9  161 219 
 NOR  HZ EP        052 59.30                             118   -0.97 8  232 235 
 NOR  HN ES        053 26.88                             118   -0.85 8  232 235 
 NOR  HZ I         053 34.12        11.3 0.14            119            232 235 
 SML  HZ EP        053  1.41                             116   -0.22 8  245 336 
 SML  HN ES        053 29.54                             116   -0.60 8  245 336 
 GUY2CHZ EP        053  8.58                             111    0.38 7  299 235 
 GUY2CHN ES        053 43.08                             111    1.25 7  299 235 
 GUY2CHZ I         053 50.76        10.6 0.34                           299 235 
                                                                                
