 2011 1026 0509 59.6 L   6.861 -73.284121.6  RSN  9 0.2 2.3LRSN                1
 GAP=109        0.35       1.9     2.4  3.8  0.4051E+00  0.4070E+01  0.2898E+00E
 Epicentro: ZAPATOCA - SANTANDER                                               3
 ACTION:UPD 12-07-13 16:06 OP:ep   STATUS:               ID:20111026050959 L   I
 2011-10-26-0505-19S.COL___169                                                 6
 STAT SP IPHASW D HRMM SECON CODA AMPLIT PERI AZIMU VELO AIN AR TRES W  DIS CAZ7
 BTL  SZ IP        510 16.29                             177    0.2610 6.57  16 
 BAR2 SZ IP        510 16.64                             165    0.1110 31.8 159 
 BAR2 SZ ES   2    510 29.57                             165   -0.20 5 31.8 159 
 BAR2 SZ I         510 31.15       174.2 0.43                          31.8 159 
 BRR  HZ IP     C  510 17.04                             154   -0.1210 54.6 300 
 BRR  HZ I         510 17.39        69.5 0.15                          54.6 300 
 BRR  HE ES   2    510 31.21                             154    0.32 5 54.6 300 
 PAM  SZ EP   1    510 19.68                             143   -0.01 7 83.4  51 
 PAM  SE ES   2    510 35.24                             143   -0.15 5 83.4  51 
 RUS  HZ EP   1    510 21.61                             136   -0.14 7  109 168 
 RUS  HE ES        510 38.93                             136   -0.1410  109 168 
 RUS  HZ I         510 40.32        20.8 0.19                           109 168 
 ZAR  HZ EP   2    510 28.51                             119   -0.23 4  187 292 
 ZAR  HN ES   2    510 51.45                             119   -0.06 4  187 292 
 ZAR  HZ I         510 55.21        27.0 0.37                           187 292 
 HEL  HZ EP   2    510 37.00                             111   -0.17 4  259 254 
 HEL  HN ES   2    511  6.29                             111   -0.22 4  259 254 
 HEL  HZ I         511 10.92         7.7 0.55                           259 254 
 RREF HZ EP   2    510 44.24                             106    0.27 3  315 227 
 RREF HN ES   2    511 18.74                             106    0.13 3  315 227 
 RREF HZ I         511 24.79         5.6 0.23                           315 227 
 PRA  HZ EP   2    510 52.19                             102    0.00 3  391 207 
 PRA  HN ES   2    511 33.64                             102    0.39 3  391 207 
                                                                                
