 2010  626 0539 55.5 L   6.793 -73.092140.9  RSN 12 0.4 2.0LRSN                1
 GAP=162        0.88       4.4     8.7  7.4 -0.1984E+02  0.2026E+02 -0.5034E+01E
 Epicentro: LOS SANTOS - SANTANDER                                             3
 ACTION:UP  10-08-24 10:13 OP:vdl  STATUS:               ID:20100626053955 L   I
 2010-06-26-0537-21S.COL___118                                                 6
 STAT SP IPHASW D HRMM SECON CODA AMPLIT PERI AZIMU VELO SNR AR TRES W  DIS CAZ7
 BAR2 SZ EP        540 14.55                             170     0.010   24 205 
 BAR2 SZ ES   1    540 29.64                             170     0.2 7   24 205 
 BRR  HZ IP     C  540 16.66                             149     0.210   77 297 
 BRR  HZ I         540 17.00        36.0 0.16                            77 297 
 BRR  HN ES   2    540 32.18                             149    -0.6 5   77 297 
 RUS  HZ EP   2    540 18.91                             143     0.2 5  100 179 
 RUS  HN ES   2    540 36.29                             143    -0.5 5  100 179 
 RUS  HZ I         540 38.35        12.0 0.27                           100 179 
 BRI  SZ IP        540 19.31                             141     0.510  107  18 
 BRI  SZ ES   1    540 36.67                             141    -0.4 7  107  18 
 BRI  SZ I         540 42.65         7.5 0.86                           107  18 
 GUE  SZ EP        540 19.38                             138    -0.410  116   9 
 GRA  SZ ES   2    540 40.47                             136     0.9 5  125  15 
 OCA  SZ EP        540 23.06                             128    -0.5 9  162 351 
 OCA  SZ ES   2    540 45.43                             128    -0.1 5  162 351 
 OCA  SZ I         540 50.86        19.0 0.22                           162 351 
 CHI  HZ EP   3    540 32.63                             116    -0.4 2  249 197 
 CHI  HN ES   2    541  2.29                             116     0.0 4  249 197 
 CHI  HZ I         541  8.29         3.2 0.44                           249 197 
 ROSC BN ES   2    541  2.75                             115    -0.6 4  255 212 
 ROSC BZ I         541  8.67         7.4 0.42                           255 212 
 HEL  HZ EP        540 36.71                             113     0.6 7  278 256 
 HEL  HZ I         541 14.24         7.6 0.17                           278 256 
 RREF HZ EP   3    540 42.34                             109     0.5 2  326 230 
 RREF HN ES   3    541 17.94                             109    -0.1 2  326 230 
 RREF HZ I         541 24.97         7.6 0.31                           326 230 
 PRA  HZ EP   2    540 48.50                             105    -0.6 3  394 210 
 PRA  HN ES   3    541 30.84                             105    -0.1 1  394 210 
 PRA  HZ I         541 39.07         5.2 0.29                           394 210 
                                                                                
