 2013  326 0735 15.2 L   6.804 -73.130142.1  RSN  8 0.5 1.7LRSN                1
 GAP=185        0.92       4.7     5.8  6.8  0.3323E+01  0.1374E+02  0.1579E+01E
 Epicentro: LOS SANTOS - SANTANDER                                             3
 ACTION:UPD 13-04-09 14:05 OP:ep   STATUS:               ID:20130326073515 L   I
 2013-03-26-0730-00M.COL___244                                                 6
 STAT SP IPHASW D HRMM SECON CODA AMPLIT PERI AZIMU VELO AIN AR TRES W  DIS CAZ7
 BAR2 SZ EP        735 34.29                             170   -0.1210 24.1 194 
 BAR2 SZ ES        735 49.58                             170    0.1910 24.1 194 
 BAR2 SZ I         735 50.52        22.6 0.26            165           24.1 194 
 BRR  HZ IP     C  735 36.09                             151    0.0610 72.5 298 
 BRR  HN ES   1    735 52.72                             151    0.44 7 72.5 298 
 BRR  HZ I         735 56.88        10.1 0.46            147           72.5 298 
 RUS  HZ EP        735 38.16                             143   -0.4610  101 177 
 RUS  HN ES   1    735 57.22                             143    0.34 7  101 177 
 RUS  HZ I         735 57.94         7.0 0.24            145            101 177 
 PTB  HZ EP   1    735 41.14                             131   -0.89 7  150 259 
 PTB  HN ES   1    736  2.20                             131   -0.77 7  150 259 
 PTB  HZ I         736  8.94         5.9 0.34            129            150 259 
 OCA  HN ES   1    736  4.95                             129   -0.11 7  160 353 
 ZAR  HZ EP   1    735 48.05                             121    0.49 6  205 292 
 ZAR  HN ES   2    736 12.22                             121   -0.58 4  205 292 
 ZAR  HZ I         736 17.98         5.3 0.30            121            205 292 
 NOR  HZ EP   1    735 51.06                             118    0.16 6  236 235 
 NOR  HN ES   1    736 18.99                             118    0.25 6  236 235 
 NOR  HZ I         736 23.06         3.6 0.20            118            236 235 
 HEL  HZ EP        735 56.23                             114    0.80 8  274 256 
 HEL  HN ES   2    736 27.11                             114    0.31 4  274 256 
 HEL  HZ I         736 32.53         2.2 0.34            114            274 256 
                                                                                
