 2012  526 0514  2.9 L   6.843 -73.194150.0  RSN  4 0.2 1.4LRSN                1
 GAP=148        0.50       7.7     4.6  6.2 -0.1576E+02  0.9551E+01  0.6691E+01E
 Epicentro: ZAPATOCA - SANTANDER                                               3
 ACTION:UP  12-07-05 12:08 OP:pat  STATUS:               ID:20120526051402 L   I
 2012-05-26-0510-00M.COL___198                                                 6
 STAT SP IPHASW D HRMM SECON CODA AMPLIT PERI AZIMU VELO SNR AR TRES W  DIS CAZ7
 BAR2 SZ EP        514 23.17                             169     0.010   28 177 
 BAR2 SZ ES   1    514 39.10                             169     0.2 7   28 177 
 BAR2 SZ I         514 42.44         4.4 0.38                            28 177 
 PAM  SE ES   1    514 43.10                             152    -0.1 7   77  45 
 RUS  HZ EP   2    514 27.05                             143    -0.4 5  106 173 
 PTB  HZ EP        514 30.00                             134     0.2 9  144 257 
 PTB  HN ES   1    514 50.64                             134    -0.2 7  144 257 
 PTB  HZ I         514 57.02         3.2 0.42                           144 257 
                                                                                
