 2015  326 0339  0.3 L   6.738 -73.194154.7  RSN  7 0.5 1.4LRSN                1
 GAP=227        1.15       6.3     6.7  7.5  0.1595E+02  0.1089E+02 -0.1097E+01E
 Epicentro: VILLANUEVA - SANTANDER                                             3
 ACTION:UPD 15-04-30 16:29 OP:nd   STATUS:               ID:20150326033900 L   I
 OLDACT:REG 15-03-26 12:49 OP:fm   STATUS:               ID:20150326033740     3
 2015-03-26-0337-40M.COL___281                                                 6
 STAT SP IPHASW D HRMM SECON CODA AMPLIT PERI AZIMU VELO AIN AR TRES W  DIS CAZ7
 BAR2 EZ EP        339 21.13                             174    0.2110 16.1 176 
 BAR2 EZ ES        339 36.69                             174   -0.2910 16.1 176 
 BAR2 EZ I         339 37.33         4.3 0.28            169           16.1 176 
 BRR  HZ EP        339 22.91                             154    0.5010 70.4 306 
 BRR  HN ES        339 40.00                             154    0.3710 70.4 306 
 BRR  HZ I         339 43.91         7.3 0.42            152           70.4 306 
 RUS  HZ EP        339 24.27                             147   -0.2810 94.2 173 
 RUS  HN ES        339 43.12                             147   -0.3110 94.2 173 
 RUS  HZ I         339 45.71         2.1 0.30            147           94.2 173 
 PTB  HZ EP        339 27.06                             135   -0.43 9  141 261 
 PTB  HE ES        339 48.47                             135   -0.19 9  141 261 
 PTB  HZ I         339 51.07         3.8 0.58            133            141 261 
 SPBC HZ EP   1    339 28.45                             133   -0.29 7  154 219 
 SPBC HE ES        339 51.78                             133    0.88 9  154 219 
 SPBC HZ I         339 59.33         3.9 0.26            131            154 219 
 ZAR  HZ EP        339 33.78                             125    0.62 9  202 295 
 ZAR  HN ES        339 57.99                             125   -0.78 9  202 295 
 ZAR  HZ I         340  5.32         3.2 0.22            125            202 295 
 CBOC HZ EP        339 46.51                             112   -0.32 7  326 253 
                                                                                
