 2012  226 0946 55.4 L   6.566 -73.551110.0  RSN 12 0.4 1.6LRSN                1
 GAP= 75        0.73       3.4     3.6  6.3 -0.1963E+01  0.6266E+01  0.8225E+01E
 ACTION:UP  12-03-07 16:34 OP:epov STATUS:               ID:20120226094655 L   I
 2012-02-26-0940-00M.COL___192                                                 6
 STAT SP IPHASW D HRMM SECON CODA AMPLIT PERI AZIMU VELO AIN AR TRES W  DIS CAZ7
 BAR2 SZ EP        947 11.41                             158   -0.0210 40.9  86 
 BAR2 SZ ES   1    947 23.93                             158    0.03 7 40.9  86 
 BAR2 SZ I         947 25.26        43.9 0.25                          40.9  86 
 BRR  HZ EP   1    947 12.28                             148    0.01 7 62.4 344 
 BRR  HZ I         947 19.67         9.0 0.20                          62.4 344 
 BRR  HE ES   1    947 26.11                             148    0.72 7 62.4 344 
 GIR2 SZ EP        947 12.87                             146   -0.0510 69.2  35 
 GIR2 SZ ES   2    947 26.46                             146   -0.10 5 69.2  35 
 RUS  HZ EP   1    947 14.55                             138   -0.50 7 90.7 145 
 RUS  HN ES   2    947 30.15                             138   -0.18 5 90.7 145 
 RUS  HZ I         947 31.81         4.7 0.46                          90.7 145 
 PTB  HZ EP   1    947 14.29                             134   -0.90 7  100 268 
 PTB  HE ES   2    947 30.07                             134   -0.52 5  100 268 
 PAM  SZ EP   2    947 19.09                             128    0.76 5  127  48 
 PAM  SN ES   2    947 35.89                             128   -0.29 5  127  48 
 NOR  SZ EP   2    947 23.52                             116   -0.07 4  183 233 
 NOR  SE ES   2    947 46.12                             116    0.58 4  183 233 
 OCA  SZ EP   2    947 24.11                             116    0.00 4  187   8 
 CHI  HZ EP        947 27.59                             112    0.00 8  215 185 
 CHI  HN ES   1    947 53.22                             112    0.55 6  215 185 
 CHI  HZ I         947 59.44         1.6 0.36                           215 185 
 HEL  HZ EP   2    947 29.10                             111    0.70 4  223 259 
 HEL  HN ES   2    947 53.60                             111   -0.51 4  223 259 
 HEL  HZ I         947 59.24         3.1 0.36                           223 259 
 GUY  SZ EP   2    947 32.57                             108    0.67 4  252 234 
 GUY  SN ES   2    948  0.51                             108    0.17 4  252 234 
 GUY  SZ I         948  6.11         5.8 0.38                           252 234 
 RREF HZ EP   2    947 34.66                             107    0.34 4  271 227 
 RREF HZ I         948 11.47         3.2 0.34                           271 227 
                                                                                
