 2010  926 0904 31.6 L   6.783 -73.040147.7  RSN  6 0.2 1.5LRSN                1
 GAP=194        0.46       4.2     9.6  6.3  0.1707E+02 -0.2060E+02 -0.2170E+01E
 Epicentro: CEPITA - SANTANDER                                                 3
 ACTION:UP  11-02-18 11:05 OP:tino STATUS:               ID:20100926090431 L   I
 2010-09-26-0903-19S.COL___122                                                 6
 STAT SP IPHASW D HRMM SECON CODA AMPLIT PERI AZIMU VELO SNR AR TRES W  DIS CAZ7
 BAR2 SZ EP   2    9 4 51.44                             169    -0.1 5   27 217 
 BAR2 SZ ES   2    9 5  6.60                             169    -0.5 5   27 217 
 BAR2 SZ I         9 5  8.70         9.5 0.24                            27 217 
 BTL  SZ EP   2    9 4 51.66                             168     0.0 5   29 301 
 BRR  HZ EP   1    9 4 53.49                             149    -0.2 7   83 296 
 BRR  HZ I         9 4 53.78         7.8 0.11                            83 296 
 BRR  HE ES   1    9 5 10.98                             149     0.2 7   83 296 
 RUS  HZ EP   2    9 4 55.71                             145     0.3 5   99 183 
 RUS  HN ES   2    9 5 14.32                             145     0.3 5   99 183 
 RUS  HZ I         9 5 16.02         3.9 0.38                            99 183 
 OCA  SZ EP   2    9 5  0.59                             129     0.2 5  164 349 
 OCA  SZ I         9 5 27.91         3.9 0.24                           164 349 
 CHI  HZ EP   2    9 5  9.34                             117    -0.3 4  250 198 
 CHI  HN ES   2    9 5 39.16                             117    -0.1 4  250 198 
 CHI  HZ I         9 5 44.92         1.6 0.29                           250 198 
                                                                                
