 2010 1026 0039 14.8 L   6.784 -73.100150.2  RSN 18 0.4 4.2LRSN                1
 GAP=105        0.94       2.6     4.0  5.3 -0.2359E+01  0.2527E+01  0.2409E+01E
 Epicentro: LOS SANTOS - SANTANDER                                             3
 ACTION:UP  11-02-18 11:12 OP:tino STATUS:               ID:20101026003914 L   I
 2010-10-26-0036-53S.COL___125                                                 6
 STAT SP IPHASW D HRMM SECON CODA AMPLIT PERI AZIMU VELO SNR AR TRES W  DIS CAZ7
 BAR2 SZ IP        039 34.95                             171     0.010   23 203 
 BAR2 SZ ES   1    039 50.43                             171    -0.3 7   23 203 
 BAR2 SZ I         039 51.42      3444.1 0.37                            23 203 
 BRR  HZ IP     C  039 36.87                             152     0.110   77 298 
 BRR  HZ I         039 37.29      5303.2 0.36                            77 298 
 BRR  HN ES   1    039 54.33                             152     0.5 7   77 298 
 RUS  HZ IP     C  039 38.84                             145     0.010   99 179 
 RUS  HN ES   1    039 57.42                             145    -0.2 7   99 179 
 RUS  HZ I         039 59.00      2029.4 0.44                            99 179 
 GUE  SZ EP        039 40.08                             140     0.110  117  10 
 GRA  SZ EP        039 40.80                             138     0.310  126  15 
 GRA  SZ ES   1    040  0.36                             138    -0.2 7  126  15 
 GRA  SZ I         040  1.55      3475.8 0.34                           126  15 
 OCA  SZ IP        039 43.42                             130    -0.3 9  163 351 
 OCA  SZ ES   1    040  6.12                             130    -0.1 7  163 351 
 OCA  SZ I         040 10.25      2256.7 0.09                           163 351 
 YOP  SZ IP        039 45.43                             128     0.6 9  175 155 
 YOP  SN ES   1    040  8.41                             128     0.2 7  175 155 
 NOR  SZ EP        039 50.61                             119    -0.6 8  238 236 
 NOR  SE ES   1    040 19.36                             119    -0.2 6  238 236 
 CHI  HZ IP     D  039 52.64                             118    -0.1 8  248 196 
 CHI  HE ES   1    040 21.94                             118    -0.4 6  248 196 
 ROSC BZ IP     D  039 54.49                             117     1.2 8  254 212 
 ROSC BN ES   1    040 23.45                             117     0.1 6  254 212 
 ROSC BZ I         040 29.91       798.8 0.69                           254 212 
 HEL  HZ EP   1    039 55.98                             115     0.2 6  277 256 
 HEL  HN ES   1    040 27.38                             115    -0.3 6  277 256 
 HEL  HZ I         040 34.17       714.6 0.33                           277 256 
 VIL  SZ EP   1    039 57.84                             113    -0.3 5  301 191 
 VIL  SE ES   1    040 31.26                             113    -0.7 5  301 191 
 GUY  SZ EP        039 59.69                             113     0.7 7  304 236 
 GUY  SN ES   1    040 33.06                             113    -0.4 5  304 236 
 GUY  SZ I         040 41.69      1632.2 0.29                           304 236 
 DBB  SZ IP        040  2.76                             110    -0.3 7  345 274 
 DBB  SZ I         040 43.22       176.5 0.65                           345 274 
 TOL  SZ EP   1    040  3.67                             110     0.1 5  346 225 
 SDV  BZ EP        040  4.23                             109    -0.5 6  358  49 
 SDV  BZ I         040 43.86       264.7 0.37                           358  49 
 PRA  HZ EP        040  8.25                             107    -0.4 6  393 210 
 PRA  HZ I         040 10.66      1545.8 0.14                           393 210 
 PRA  HE ES   1    040 51.20                             107     0.6 4  393 210 
 GUA  SZ EP   1    040 16.59                             104    -1.2 4  472 174 
 GUA  SZ ES   1    041  6.89                             104    -0.1 4  472 174 
                                                                                
