 2012  726 0236 11.1 L   6.766 -73.139138.2  RSN  6 0.4 1.7LRSN                1
 GAP=236        0.90       7.0     6.5  8.6  0.1345E+02  0.1282E+02  0.6256E+00E
 Epicentro: LOS SANTOS - SANTANDER                                             3
 ACTION:UPD 12-08-14 11:45 OP:ep   STATUS:               ID:20120726023611 L   I
 2012-07-26-0230-00M.COL___215                                                 6
 STAT SP IPHASW D HRMM SECON CODA AMPLIT PERI AZIMU VELO AIN AR TRES W  DIS CAZ7
 BAR2 SZ EP   1    236 29.85                             172     0.1 7   20 194 
 BAR2 SZ ES   1    236 43.80                             172    -0.5 7   20 194 
 BAR2 SZ I         236 46.95        13.6 0.24            171             20 194 
 BRR  HZ EP        236 31.76                             150     0.210   74 301 
 BRR  HZ I         236 32.13        22.8 0.11            151             74 301 
 BRR  HN ES   1    236 48.15                             150     0.6 7   74 301 
 RUS  HZ EP   1    236 34.05                             143     0.2 7   97 176 
 RUS  HN ES   2    236 51.47                             143    -0.1 5   97 176 
 RUS  HZ I         236 54.39         3.4 0.38            146             97 176 
 PTB  HZ EP   1    236 36.71                             130    -0.7 7  148 260 
 PTB  HN ES   1    236 57.70                             130    -0.3 7  148 260 
 ZAR  HZ EP   1    236 43.23                             120     0.0 6  206 293 
 ZAR  HN ES   1    237  8.12                             120    -0.3 6  206 293 
 ZAR  HZ I         237 13.99         5.5 0.44            122            206 293 
 NOR  SN ES   1    237 14.19                             117     0.6 6  233 235 
