 2015 1126 0305 23.2 L   6.565 -73.479113.7  RSN 14 0.5 2.0LRSN                1
 GAP= 65        1.31       3.3     3.9  6.9 -0.3482E+01  0.9880E+01 -0.3750E+01E
 Epicentro: EL CARMEN - SANTANDER                                              3
 ACTION:UPD 15-12-28 16:13 OP:cam  STATUS:               ID:20151126030523 L   I
 OLDACT:REG 15-11-26 13:00 OP:drio STATUS:               ID:20151126025747     3
 2015-11-26-0257-47M.COL___307                                                 6
 STAT SP IPHASW D HRMM SECON CODA AMPLIT PERI AZIMU VELO AIN AR TRES W  DIS CAZ7
 BAR2 EZ EP     C  3 5 39.36                             163    0.0810 33.0  85 
 BAR2 EZ ES        3 5 51.55                             163   -0.2810 33.0  85 
 BAR2 EZ I         3 5 53.91        43.2 0.22            162           33.0  85 
 BRR  HZ EP     D  3 5 40.87                             148    0.2910 65.3 337 
 BRR  HN ES        3 5 55.38                             148    1.2310 65.3 337 
 BRR  HZ I         3 5 57.09        17.5 0.12            141           65.3 337 
 RUS  HZ EP        3 5 42.75                             141   -0.0310 86.3 149 
 RUS  HN ES        3 5 58.41                             141    0.3510 86.3 149 
 RUS  HZ I         3 5 59.33        38.3 0.22            139           86.3 149 
 PTB  HZ EP        3 5 43.27                             133   -0.6710  108 269 
 PTB  HN ES        3 5 59.36                             133   -0.7810  108 269 
 PTB  HZ I         3 6  3.18        21.9 0.34            128            108 269 
 SPBC HZ EP        3 5 45.33                             130    0.1610  120 213 
 SPBC HN ES        3 6  2.24                             130   -0.0810  120 213 
 SPBC HZ I         3 6  4.72        25.6 0.26            126            120 213 
 PAM  EZ EP        3 5 45.45                             130   -0.3610  122  45 
 PAM  EE ES        3 6  3.19                             130   -0.2710  122  45 
 PAM  EZ I         3 6  7.20        16.3 0.42            125            122  45 
 ZAR  HZ EP        3 5 51.78                             117    0.26 9  184 304 
 ZAR  HN ES        3 6 14.21                             117    0.58 9  184 304 
 ZAR  HZ I         3 6 19.30        15.3 0.38            112            184 304 
 OCA  HZ EP        3 5 52.49                             117    0.53 9  186   5 
 OCA  HN ES        3 6 13.62                             117   -0.80 9  186   5 
 NOR  HZ EP        3 5 52.39                             116    0.17 9  190 234 
 NOR  HN ES        3 6 14.19                             116   -0.69 9  190 234 
 NOR  HZ I         3 6 20.47        14.5 0.14            112            190 234 
 HEL  HZ EP   4    3 5 58.32                             111    1.13 0  230 260 
 HEL  HN ES   4    3 6 22.46                             111   -1.26 0  230 260 
 HEL  HZ I         3 6 30.71         6.3 0.54            107            230 260 
 SML  HZ EP        3 5 59.33                             109   -0.29 8  256 345 
 SML  HN ES        3 6 27.72                             109   -0.33 8  256 345 
 SML  HZ I         3 6 34.17        21.1 0.10            104            256 345 
 GUY2CHZ EP        3 6  0.85                             109    0.59 8  256 235 
 GUY2CHE ES   4    3 6 31.25                             109    2.07 0  256 235 
 GUY2CHZ I         3 6 38.74         7.9 0.48                           256 235 
 CBOC HZ EP        3 6  4.79                             106    0.87 7  291 255 
 CBOC HN ES        3 6 35.30                             106   -0.40 7  291 255 
 CBOC HZ I         3 6 39.67         2.3 0.18            102            291 255 
 MON  HZ EP   4    3 6  8.08                             103   -1.86 0  344 316 
 MON  HN ES   4    3 6 45.39                             103   -1.03 0  344 316 
 MON  HZ I         3 6 46.51         2.8 0.44             99            344 316 
 SJC  HZ EP   4    3 6 16.10                              99   -2.28 0  413 333 
 SJC  HN ES   4    3 6 55.72                              99   -5.71 0  413 333 
                                                                                
