 2016  826 0247 16.5 L   6.796 -72.999147.6  RSN  7 0.5 1.5LRSN                1
 GAP=252        1.15       6.0     8.2  9.3  0.1647E+02  0.1524E+02  0.1486E+02E
 Epicentro: CEPITA - SANTANDER                                                 3
 ACTION:UPD 16-10-29 15:39 OP:rebc STATUS:               ID:20160826024716 L   I
 OLDACT:REG 16-08-26 12:46 OP:ak   STATUS:               ID:20160826023731     3
 2016-08-26-0238-00M.COL___374                                                 6
 STAT SP IPHASW D HRMM SECON CODA AMPLIT PERI AZIMU VELO AIN AR TRES W  DIS CAZ7
 BRR  HZ EP        247 38.43                             148   -0.2610 86.0 294 
 BRR  HN ES        247 55.69                             148   -0.3510 86.0 294 
 BRR  HZ I         247 59.43         7.6 0.50                          86.0 294 
 RUS  HZ EP        247 40.66                             144    0.3010  100 185 
 RUS  HN ES        247 59.57                             144    0.5510  100 185 
 RUS  HZ I         248  0.79         2.0 0.22                           100 185 
 PTB  HZ EP   4    247 43.81                             129   -1.23 0  164 260 
 PTB  HN ES   4    248  4.61                             129   -2.72 0  164 260 
 PTB  HZ I         248  6.64         3.0 0.12                           164 260 
 SPBC HZ EP        247 45.81                             128   -0.27 9  174 223 
 SPBC HN ES        248  8.37                             128   -0.82 9  174 223 
 SPBC HZ I         248 15.10         3.5 0.25                           174 223 
 ZAR  HN ES        248 17.76                             121    0.52 8  219 291 
 GUY2CHZ EP        248  2.11                             112    0.48 7  314 237 
 GUY2CHN ES        248 37.72                             112    0.85 7  314 237 
 GUY2CHZ I         248 45.06         1.1 0.40                           314 237 
 PRA  HZ EP        248 10.36                             106   -0.60 6  400 212 
 PRA  HN ES        248 52.96                             106   -0.51 6  400 212 
 PRA  HZ I         248 59.61         2.0 0.24                           400 212 
                                                                                
