 2015  826 0848 33.8 L   6.848 -72.975142.5  RSN  6 0.3 1.4LRSN                1
 GAP=200        0.79       3.2     6.5  5.5  0.1877E+01  0.5572E+01 -0.9232E+00E
 Epicentro: CEPITA - SANTANDER                                                 3
 ACTION:UPD 15-09-15 23:05 OP:cam  STATUS:               ID:20150826084833 L   I
 OLDACT:UP  15-08-26 19:24 OP:mh   STATUS:               ID:20150826083748     3
 OLDACT:REG 15-08-26 15:09 OP:ak   STATUS:               ID:20150826083748     3
 2015-08-26-0837-48M.COL___337                                                 6
 STAT SP IPHASW D HRMM SECON CODA AMPLIT PERI AZIMU VELO AIN AR TRES W  DIS CAZ7
 BAR2 EZ EP        848 53.76                             165    0.3410 36.4 219 
 BAR2 EZ ES        849  8.43                             165   -0.2610 36.4 219 
 BAR2 EZ I         849 10.81         3.3 0.14            169           36.4 219 
 BRR  HZ EP        848 55.55                             147   -0.0310 86.4 289 
 BRR  HN ES        849 13.03                             147    0.5010 86.4 289 
 RUS  HZ EP        848 57.79                             141    0.0910  106 186 
 RUS  HN ES        849 16.17                             141   -0.1410  106 186 
 RUS  HZ I         849 18.88         2.5 0.36            145            106 186 
 OCA  HN ES        849 23.16                             129   -0.31 9  158 346 
 OCA  HZ I         849 28.53         7.3 0.30            129            158 346 
 SML  HZ EP        849 10.49                             116   -0.21 8  248 331 
 SML  HN ES   4    849 40.50                             116    1.05 0  248 331 
 SML  HZ I         849 44.76         2.4 0.10            117            248 331 
 GUY2CHZ EP        849 19.80                             110    0.39 7  320 236 
 GUY2CHE ES        849 54.34                             110   -0.62 7  320 236 
 GUY2CHZ I         850  5.72         1.2 0.48                           320 236 
                                                                                
