 2011  926 0857 23.3 L   6.376 -74.052 32.1  RSN  6 0.4 1.7LRSN                1
 GAP=109        0.73       3.1     2.5 12.3  0.1034E+00 -0.1157E+01 -0.8462E+01E
 Epicentro: CIMITARRA - SANTANDER                                              3
 ACTION:UPD 12-07-13 15:59 OP:ep   STATUS:               ID:20110926085723 L   I
 2011-09-26-0840-00M.COL___167                                                 6
 STAT SP IPHASW D HRMM SECON CODA AMPLIT PERI AZIMU VELO AIN AR TRES W  DIS CAZ7
 BRR  HZ EP   1    857 36.99                              61   -0.32 8 89.2  25 
 BRR  HN ES   1    857 48.56                              61    0.30 8 89.2  25 
 BRR  HZ I         857 49.36        35.5 0.10                          89.2  25 
 RUS  HZ EP   1    857 41.80                              61    0.06 8  120 116 
 RUS  HN ES   1    857 55.72                              61   -0.42 8  120 116 
 RUS  HZ I         857 57.41        10.7 0.13                           120 116 
 GIR2 SZ EP   1    857 42.02                              61    0.35 8  123  51 
 NOR  SZ EP   1    857 42.79                              61    0.63 8  127 225 
 ZAR  HZ EP   1    857 44.69                              61   -0.50 8  152 324 
 ZAR  HN ES   1    858  2.31                              61    0.01 8  152 324 
 HEL  HZ EP        857 47.34                              61    0.1510  165 263 
 HEL  HN ES   1    858  5.42                              61   -0.43 7  165 263 
 HEL  HZ I         858  6.35         6.5 0.29                           165 263 
                                                                                
