 2017  226 0945 24.8 L   6.766 -73.163135.4  RSN  5 0.4 0.9LRSN                1
 GAP=136        1.01       5.1     5.0  7.4 -0.2206E+01  0.5042E+01  0.1604E+01E
 Epicentro: LOS SANTOS - SANTANDER                                             3
 ACTION:UPD 17-05-24 15:40 OP:jn   STATUS:               ID:20170226094524 L   I
 OLDACT:DUP 17-02-26 12:25 OP:lv   STATUS:               ID:20170226092824d    3
 2017-02-26-0938-00M.COL___357                                                 6
 STAT SP IPHASW D HRMM SECON CODA AMPLIT PERI AZIMU VELO AIN AR TRES W  DIS CAZ7
 BAR2 EZ EP        945 42.71                             171   -0.3810 19.3 186 
 BAR2 EZ ES        945 57.84                             171    0.4710 19.3 186 
 BAR2 EZ I         945 58.86         2.7 0.16            172           19.3 186 
 BRR  HZ EP        945 44.86                             150    0.0210 71.5 302 
 BRR  HE ES        946  0.49                             150    0.0010 71.5 302 
 PAM  EZ EP        945 45.74                             147   -0.4410 81.5  39 
 PAM  EN ES        946  2.98                             147    0.1210 81.5  39 
 PAM  EZ I         946  5.15         0.9 0.22            149           81.5  39 
 RUS  HZ EP        945 47.66                             143    0.4010 96.9 175 
 RUS  HN ES        946  4.44                             143   -0.3510 96.9 175 
 RUS  HZ I         946  6.43         1.2 0.35            144           96.9 175 
 PTB  HZ EP        945 51.34                             130    0.65 9  145 260 
 PTB  HN ES        946 10.44                             130   -0.46 9  145 260 
 PTB  HZ I         946 13.75         1.1 0.14            131            145 260 
                                                                                
