 2015  726 0426 58.9 L   6.816 -73.202135.9  RSN 11 0.4 1.8LRSN                1
 GAP=129        0.86       2.2     3.4  5.8 -0.1997E+00  0.1040E+02  0.9867E+00E
 Epicentro: ZAPATOCA - SANTANDER                                               3
 ACTION:UPD 15-09-08 21:50 OP:cam  STATUS:               ID:20150726042658 L   I
 OLDACT:REG 15-07-26 13:00 OP:ak   STATUS:               ID:20150726041749     3
 2015-07-26-0417-49M.COL___340                                                 6
 STAT SP IPHASW D HRMM SECON CODA AMPLIT PERI AZIMU VELO AIN AR TRES W  DIS CAZ7
 BAR2 EZ EP        427 17.59                             169    0.2410 24.9 175 
 BAR2 EZ ES        427 31.27                             169   -0.4910 24.9 175 
 BAR2 EZ I         427 33.71         5.5 0.38            170           24.9 175 
 PAM  EZ EP        427 20.50                             148    0.2810 80.2  44 
 PAM  EN ES        427 37.32                             148    0.4410 80.2  44 
 PAM  EZ I         427 39.33        16.9 0.52            151           80.2  44 
 RUS  HZ EP        427 21.46                             141   -0.3810  103 173 
 RUS  HN ES        427 40.15                             141    0.3810  103 173 
 RUS  HZ I         427 41.81         5.9 0.26            144            103 173 
 OCA  HZ EP        427 25.74                             128   -0.45 9  158 355 
 OCA  HE ES        427 47.13                             128   -0.38 9  158 355 
 OCA  HZ I         427 51.54        20.4 0.40            129            158 355 
 ZAR  HZ EP   1    427 30.31                             121    0.31 6  198 292 
 ZAR  HN ES        427 54.64                             121    0.35 9  198 292 
 ZAR  HZ I         428  1.08         7.7 0.06            121            198 292 
 SML  HZ EP   4    427 31.48                             116   -3.01 0  239 336 
 SML  HN ES        428  2.07                             116   -0.21 8  239 336 
 SML  HZ I         428 11.07         7.8 0.06            117            239 336 
 CHI  HZ EP        427 36.15                             115    0.09 8  249 194 
 CHI  HN ES        428  4.57                             115   -0.50 8  249 194 
 CHI  HZ I         428  8.62         2.3 0.30            117            249 194 
 HEL  HN ES        428  8.33                             113   -0.13 8  266 255 
 URE  HZ EP   4    427 40.82                             112    2.08 0  277 292 
 URE  HE ES        428  9.99                             112    0.15 7  277 292 
 URE  HZ I         428 16.65         4.0 0.18            113            277 292 
 GUY2CHZ EP        427 41.48                             111   -0.09 7  297 234 
 GUY2CHE ES        428 15.24                             111    0.35 7  297 234 
 GUY2CHZ I         428 25.73         3.8 0.69                           297 234 
 TOL  SZ EP   1    427 47.33                             108    0.95 5  340 224 
 TOL  SN ES        428 23.12                             108   -0.33 7  340 224 
 TOL  SZ I         428 32.73         1.6 0.18            109            340 224 
                                                                                
