 2012  626 0816  0.7 L   6.845 -73.292127.5  RSN  7 0.4 1.7LRSN                1
 GAP=106        0.77       4.4     4.3  7.1  0.2497E+00  0.8802E+01 -0.7402E+01E
 Epicentro: ZAPATOCA - SANTANDER                                               3
 ACTION:UPD 12-08-06 17:52 OP:ep   STATUS:               ID:20120626081600 L   I
 2012-06-26-0810-00M.COL___201                                                 6
 STAT SP IPHASW D HRMM SECON CODA AMPLIT PERI AZIMU VELO AIN AR TRES W  DIS CAZ7
 BAR2 SZ EP        816 18.57                             166    0.2910 30.4 156 
 BAR2 SZ ES   1    816 31.92                             166   -0.11 7 30.4 156 
 BRR  HZ EP   1    816 18.94                             155    0.02 7 54.7 302 
 BRR  HZ I         816 19.45        14.3 0.09                          54.7 302 
 BRR  HE ES   1    816 33.06                             155   -0.10 7 54.7 302 
 PAM  SZ EP   1    816 21.91                             144    0.40 7 85.3  50 
 PAM  SN ES   1    816 37.83                             144    0.06 7 85.3  50 
 RUS  HN ES   1    816 40.67                             137   -0.18 7  108 168 
 PTB  HZ EP   1    816 23.88                             131   -0.92 7  133 255 
 PTB  HN ES   2    816 43.84                             131    0.20 5  133 255 
 PTB  HZ I         816 46.62         4.5 0.12                           133 255 
 OCA  HZ EP   1    816 26.74                             126   -0.27 7  154 359 
 OCA  HN ES   2    816 46.73                             126   -0.84 5  154 359 
 ZAR  HZ EP   1    816 30.59                             120    0.41 7  187 293 
 ZAR  HN ES   1    816 53.73                             120    0.51 7  187 293 
 ZAR  HZ I         816 57.18         5.6 0.33                           187 293 
                                                                                
