 2015  626 0816 50.1 L   6.840 -73.167144.7  RSN 25 0.5 2.7LRSN                1
 GAP=181        0.98       2.0     3.4  4.6 -0.3556E+00  0.5491E+01  0.8343E+00E
 Epicentro: ZAPATOCA - SANTANDER                                               3
 ACTION:UPD 15-09-10 22:15 OP:cam  STATUS:               ID:20150626081650 L   I
 OLDACT:UP  15-06-26 16:30 OP:ak   STATUS:               ID:20150626080748     3
 OLDACT:REG 15-06-26 13:39 OP:mh   STATUS:               ID:20150626080748     3
 2015-06-26-0807-48M.COL___313                                                 6
 STAT SP IPHASW D HRMM SECON CODA AMPLIT PERI AZIMU VELO AIN AR TRES W  DIS CAZ7
 BAR2 EZ IP     C  817  9.76                             169    0.1110 27.5 184 
 BAR2 EZ ES        817 24.13                             169   -0.8110 27.5 184 
 BAR2 EZ I         817 26.79        83.8 0.25            166           27.5 184 
 BRR  HZ EP        817 11.45                             154    0.5810 67.1 296 
 BRR  HN ES        817 28.05                             154    0.9610 67.1 296 
 BRR  HZ I         817 32.59        49.1 0.33            150           67.1 296 
 RUS  HZ EP        817 13.94                             142   -0.1110  105 175 
 RUS  HN ES        817 32.40                             142   -0.3610  105 175 
 RUS  HZ I         817 33.61        68.4 0.30            144            105 175 
 OCA  HZ EP        817 18.05                             130    0.20 9  156 354 
 OCA  HN ES        817 39.70                             130    0.18 9  156 354 
 OCA  HZ I         817 44.50        94.7 0.46            133            156 354 
 ZAR  HZ EP        817 22.08                             123    0.04 9  200 291 
 ZAR  HE ES        817 47.39                             123    0.40 9  200 291 
 ZAR  HZ I         817 56.67        28.7 0.09            123            200 291 
 NOR  HZ EP        817 25.72                             118   -0.09 8  235 233 
 NOR  HN ES        817 53.16                             118   -0.53 8  235 233 
 NOR  HZ I         817 58.51        43.9 0.22            118            235 233 
 SML  HZ EP        817 26.04                             118   -0.04 8  239 335 
 SML  HE ES        817 54.21                             118    0.03 8  239 335 
 SML  HZ I         817 58.05        72.4 0.08            119            239 335 
 CHI  HZ EP        817 27.97                             116   -0.14 8  252 194 
 CHI  HN ES        817 57.33                             116   -0.45 8  252 194 
 CHI  HZ I         818  0.73        32.0 0.45            118            252 194 
 ROSC BZ EP   1    817 29.21                             116    0.80 6  255 210 
 ROSC BN ES        817 58.79                             116    0.46 8  255 210 
 ROSC BZ I         818  7.83        50.7 0.35            117            255 210 
 HEL  HZ EP        817 30.61                             115    0.51 8  271 255 
 HEL  HN ES        818  1.01                             115   -0.31 8  271 255 
 HEL  HZ I         818  9.49        23.5 0.43            115            271 255 
 URE  HZ EP   1    817 30.02                             114   -0.63 6  280 291 
 URE  HN ES        818  1.36                             114   -0.95 7  280 291 
 URE  HZ I         818 12.38        22.8 0.26            114            280 291 
 LL2C HZ EP   1    817 32.85                             112   -0.22 5  302 354 
 LL2C HN ES   1    818  5.83                             112   -0.78 5  302 354 
 GUY2CHZ EP        817 34.31                             112    0.61 7  302 234 
 GUY2CHN ES        818  8.10                             112    0.36 7  302 234 
 GUY2CHZ I         818 19.92        30.0 0.52                           302 234 
 PTGC HZ EP   4    817 32.95                             111   -1.49 0  314 159 
 PTGC HN ES   4    818  6.40                             111   -2.65 0  314 159 
 PTGC HZ I         818 11.34        43.6 0.24            113            314 159 
 CBOC HZ EP        817 37.49                             110    0.65 7  333 251 
 CBOC HN ES        818 13.38                             110    0.06 7  333 251 
 CBOC HZ I         818 31.03         9.6 0.48            110            333 251 
 DBB  SZ EP        817 37.17                             109   -0.02 7  337 274 
 DBB  SZ ES        818 13.40                             109   -0.55 7  337 274 
 DBB  SZ I         818 17.31        64.0 0.68            110            337 274 
 TOL  SZ EP   1    817 39.26                             109    0.81 5  345 224 
 TOL  SN ES        818 16.30                             109    0.10 7  345 224 
 TOL  SZ I         818 23.25        23.7 0.54            110            345 224 
 MON  HZ EP   4    817 36.80                             109   -1.69 0  349 308 
 MON  HN ES        818 15.40                             109   -0.86 6  349 308 
 MON  HZ I         818 17.21         6.6 0.23            110            349 308 
 ANIL HZ EP        817 39.99                             108   -0.02 6  359 224 
 ANIL HE ES        818 19.30                             108    0.34 6  359 224 
 PRA  HZ EP        817 43.49                             106   -0.38 6  395 209 
 PRA  HN ES        818 25.40                             106   -0.43 6  395 209 
 PRA  HZ I         818 34.14        17.8 0.31            107            395 209 
 ORTC HZ EP        817 43.90                             106   -0.31 6  398 216 
 ORTC HN ES        818 26.79                             106    0.35 6  398 216 
 ORTC HZ I         818 31.08        12.3 0.32            107            398 216 
 SJC  HZ EP   1    817 44.02                             106   -0.98 4  404 327 
 SJC  HN ES   4    818 25.02                             106   -2.83 0  404 327 
 SJC  HZ I         818 29.34         8.4 0.59            107            404 327 
 PAL  HZ EP        817 45.50                             106    0.28 6  406 238 
 PAL  HN ES        818 27.82                             106   -0.43 6  406 238 
 PAL  HZ I         818 33.74         9.5 0.43            107            406 238 
 YOT  HZ EP   1    817 52.95                             103   -0.27 4  473 228 
 YOT  HE ES        818 42.68                             103    0.20 5  473 228 
 MACC HZ EP   4    817 56.78                             101   -2.45 0  525 188 
 MACC HN ES   4    818 45.81                             101   -7.37 0  525 188 
 MACC HZ I         819 21.66         5.2 0.69            103            525 188 
                                                                                
