 2012  126 0500 19.2 L   6.781 -73.153137.8  RSN  6 0.3 2.1LRSN                1
 GAP=137        0.77       3.9     4.9  6.5 -0.2701E+01  0.2681E+01 -0.5134E+01E
 Epicentro: LOS SANTOS - SANTANDER                                             3
 ACTION:UP  12-02-03 08:20 OP:REBC STATUS:               ID:20120126050019 L   I
 2012-01-26-0500-00M.COL___188                                                 6
 STAT SP IPHASW D HRMM SECON CODA AMPLIT PERI AZIMU VELO SNR AR TRES W  DIS CAZ7
 BAR2 SZ EP   1    5 0 37.59                             171    -0.3 7   21 189 
 BAR2 SZ ES   1    5 0 52.41                             171     0.0 7   21 189 
 BAR2 SZ I         5 0 54.58        16.3 0.38                            21 189 
 BRR  HZ IP     C  5 0 39.66                             151     0.110   72 300 
 BRR  HE ES   1    5 0 55.58                             151     0.2 7   72 300 
 BRR  HZ I         5 1  0.23        24.7 0.23                            72 300 
 PAM  SZ EP        5 0 40.68                             149    -0.110   80  39 
 PAM  SN ES   1    5 0 57.51                             149     0.0 7   80  39 
 RUS  HZ EP   1    5 0 41.78                             143    -0.3 7   98 175 
 RUS  HN ES   1    5 1  0.06                             143     0.2 7   98 175 
 PTB  HZ EP   1    5 0 45.02                             130    -0.4 7  147 260 
 PTB  HE ES   1    5 1  5.93                             130     0.0 7  147 260 
 OCA  SZ EP        5 0 47.76                             127     0.6 9  162 354 
 OCA  SZ ES   1    5 1  8.26                             127    -0.6 7  162 354 
 OCA  SZ I         5 1 16.49        22.5 0.71                           162 354 
                                                                                
