 2015  426 0602 36.9 L   6.812 -73.187143.9  RSN 23 0.6 2.5LRSN                1
 GAP=131        1.18       2.7     3.7  5.1 -0.1155E+01  0.5548E+01  0.4529E+00E
 Epicentro: ZAPATOCA - SANTANDER                                               3
 ACTION:UPD 15-06-03 16:57 OP:cam  STATUS:               ID:20150426060236 L   I
 OLDACT:REG 15-04-26 13:09 OP:ak   STATUS:               ID:20150426055749     3
 2015-04-26-0557-49M.COL___271                                                 6
 STAT SP IPHASW D HRMM SECON CODA AMPLIT PERI AZIMU VELO AIN AR TRES W  DIS CAZ7
 BAR2 EZ IP     C  6 2 56.18                             170   -0.1810 24.3 179 
 BAR2 EZ ES        6 3 11.17                             170   -0.3510 24.3 179 
 BAR2 EZ I         6 3 12.88        55.6 0.14            169           24.3 179 
 BRR  HZ IP     C  6 2 57.98                             154    0.3510 66.6 299 
 BRR  HN ES        6 3 14.58                             154    0.8110 66.6 299 
 BRR  HZ I         6 3 19.99        35.4 0.16            149           66.6 299 
 PAM  SZ IP     C  6 2 59.26                             150    0.1910 79.4  43 
 PAM  SE ES        6 3 16.20                             150   -0.1510 79.4  43 
 PAM  SZ I         6 3 18.38        61.5 0.42            154           79.4  43 
 RUS  HZ IP     C  6 3  0.45                             143   -0.1810  102 174 
 RUS  HN ES        6 3 19.06                             143   -0.0610  102 174 
 RUS  HZ I         6 3 19.96        38.1 0.24            145            102 174 
 PTB  HZ EP        6 3  2.81                             132   -0.56 9  144 258 
 PTB  HN ES        6 3 24.00                             132    0.01 9  144 258 
 PTB  HZ I         6 3 25.10        31.2 0.21            130            144 258 
 SPBC HZ EP        6 3  5.15                             129    0.03 9  161 217 
 SPBC HN ES        6 3 26.71                             129   -0.40 9  161 217 
 SPBC HZ I         6 3 30.03        50.6 0.10            129            161 217 
 ZAR  HZ EP        6 3  8.51                             123   -0.26 9  199 292 
 ZAR  HE ES        6 3 33.72                             123    0.11 9  199 292 
 ZAR  HZ I         6 3 39.91        24.1 0.34            121            199 292 
 NOR  HZ EP        6 3 12.35                             118    0.11 8  232 234 
 NOR  HN ES        6 3 39.66                             118   -0.13 8  232 234 
 NOR  HZ I         6 3 48.15        28.4 0.16            118            232 234 
 SML  HZ EP        6 3 12.71                             117   -0.41 8  241 336 
 SML  HE ES   2    6 3 40.94                             117   -0.41 4  241 336 
 SML  HZ I         6 3 45.25        52.3 0.10            117            241 336 
 CHI  HZ IP     D  6 3 14.56                             117    0.02 8  249 194 
 CHI  HN ES        6 3 43.90                             117    0.02 8  249 194 
 CHI  HZ I         6 3 47.02        17.4 0.36            118            249 194 
 ROSC BZ EP        6 3 15.68                             116    0.86 8  252 210 
 ROSC BN ES        6 3 44.09                             116   -0.29 8  252 210 
 HEL  HZ EP        6 3 17.64                             115    1.04 8  268 255 
 HEL  HN ES        6 3 47.46                             115   -0.08 8  268 255 
 URE  HZ EP   1    6 3 16.82                             114   -0.57 6  279 292 
 URE  HN ES        6 3 48.22                             114   -0.72 7  279 292 
 URE  HZ I         6 3 58.89        17.2 0.20            113            279 292 
 GUY2CHZ EP   4    6 3 21.90                             112    1.77 0  298 234 
 GUY2CHE ES        6 3 54.74                             112    0.92 7  298 234 
 GUY2CHZ I         6 4  2.38        15.0 0.28                           298 234 
 VIL  SZ EP        6 3 19.97                             112   -0.34 7  304 191 
 VIL  SN ES        6 3 53.65                             112   -0.50 7  304 191 
 VIL  SZ I         6 3 57.13        27.6 0.44            113            304 191 
 LL2C HZ EP        6 3 20.52                             111    0.29 7  305 355 
 LL2C HN ES        6 3 54.75                             111    0.74 7  305 355 
 PTGC HZ IP   4 C  6 3 19.48                             111   -1.56 0  312 158 
 PTGC HN ES   4    6 3 52.44                             111   -3.00 0  312 158 
 PTGC HZ I         6 3 54.56        22.3 0.28            113            312 158 
 CBOC HZ EP        6 3 24.22                             110    0.90 7  330 252 
 CBOC HN ES        6 3 58.94                             110   -0.57 7  330 252 
 CBOC HZ I         6 4 17.92         4.1 0.80            110            330 252 
 TOL  SZ EP        6 3 25.77                             109    0.91 7  341 224 
 TOL  SN ES        6 4  2.73                             109    0.49 7  341 224 
 TOL  SZ I         6 4 10.26         9.8 0.36            110            341 224 
 MON  HZ IP     C  6 3 23.33                             108   -2.03 6  349 309 
 MON  HN ES   4    6 4  1.67                             108   -1.46 0  349 309 
 MON  HZ I         6 4 17.60         5.5 0.30            109            349 309 
 ORTC HZ EP        6 3 30.59                             106   -0.01 6  394 216 
 ORTC HN ES   4    6 4 13.66                             106    1.19 0  394 216 
 ORTC HZ I         6 4 17.61         8.4 0.32            107            394 216 
 SJC  HZ EP   4    6 3 30.16                             105   -1.85 0  406 327 
 SJC  HN ES   4    6 4 11.08                             105   -3.90 0  406 327 
 SJC  HZ I         6 4 16.30         3.6 0.22            106            406 327 
 CRJC HZ EP   4    6 3 36.59                             103   -2.67 0  467   4 
 CRJC HN ES   4    6 4 24.36                             103   -3.52 0  467   4 
 CRJC HZ I         6 4 33.31         7.5 0.16            104            467   4 
 URI  HZ EP   4    6 3 46.80                             100   -3.07 0  556  14 
 URI  HN ES   4    6 4 46.29                             100   -0.46 0  556  14 
                                                                                
