 2011 1126 0132 52.6 L   6.793 -73.086147.7  RSN 17 0.3 3.1LRSN                1
 GAP=120        0.49       2.0     2.7  4.1 -0.2211E+00  0.2628E+01  0.1742E+01E
 Epicentro: LOS SANTOS - SANTANDER                                             3
 ACTION:UPD 12-07-13 16:12 OP:ep   STATUS:               ID:20111126013252 L   I
 2011-11-26-0131-19S.COL___159                                                 6
 STAT SP IPHASW D HRMM SECON CODA AMPLIT PERI AZIMU VELO AIN AR TRES W  DIS CAZ7
 BAR2 SZ IP        133 12.47                             170   -0.0610 24.6 206 
 BAR2 SZ ES   2    133 27.72                             170   -0.32 5 24.6 206 
 BAR2 SZ I         133 29.29       248.5 0.31                          24.6 206 
 PAM  SZ IP        133 15.20                             152    0.3310 74.0  35 
 PAM  SN ES   2    133 32.42                             152    0.22 5 74.0  35 
 BRR  HZ IP     C  133 14.37                             151    0.0210 77.4 297 
 BRR  HN ES   2    133 31.80                             151    0.51 5 77.4 297 
 BRR  HZ I         133 36.37       206.0 0.25                          77.4 297 
 RUS  HZ IP     D  133 16.34                             144   -0.1610 99.5 180 
 RUS  HN ES   2    133 34.60                             144   -0.52 5 99.5 180 
 RUS  HZ I         133 35.98        92.9 0.46                          99.5 180 
 OCA  SZ EP   1    133 21.16                             130   -0.10 7  162 351 
 OCA  SZ ES   2    133 43.21                             130   -0.37 5  162 351 
 OCA  SZ I         133 49.16       129.1 0.17                           162 351 
 YOP  SZ IP        133 22.95                             127    0.48 9  175 155 
 YOP  SZ I         133 23.72        64.3 0.57                           175 155 
 YOP  SN ES   2    133 45.87                             127    0.13 4  175 155 
 ZAR  HZ EP   2    133 25.38                             122   -0.49 4  210 292 
 ZAR  HN ES   2    133 51.58                             122   -0.21 4  210 292 
 ZAR  HZ I         133 56.97       156.2 0.34                           210 292 
 NOR  SZ EP   2    133 28.43                             118   -0.58 4  240 236 
 NOR  SN ES   2    133 57.57                             118    0.20 4  240 236 
 CHI  HZ EP   2    133 30.42                             117   -0.13 4  250 197 
 CHI  HN ES   2    133 59.59                             117   -0.54 4  250 197 
 CHI  HZ I         134  5.89        60.4 0.29                           250 197 
 HEL  HZ EP   2    133 33.90                             115    0.27 4  278 256 
 HEL  HN ES   2    134  6.07                             115    0.46 4  278 256 
 HEL  HZ I         134 11.44        48.6 0.26                           278 256 
 VIL  SZ EP   2    133 36.03                             112   -0.18 4  304 193 
 VIL  SN ES   2    134  9.72                             112   -0.47 4  304 193 
 VIL  SZ I         134 16.91        37.2 0.84                           304 193 
 GUY  SZ EP   2    133 37.45                             112    0.29 4  308 236 
 GUY  SN ES   2    134 12.02                             112    0.14 4  308 236 
 GUY  SZ I         134 20.01       115.5 0.31                           308 236 
 RREF HZ EP   2    133 39.40                             111    0.03 3  326 230 
 RREF HN ES   2    134 16.08                             111    0.25 3  326 230 
 RREF HZ I         134 24.13        92.3 0.39                           326 230 
 DBB  SZ EP   2    133 40.91                             109   -0.04 3  346 274 
 COD  HZ EP   2    133 41.19                             109   -0.07 3  350 354 
 COD  HN ES   2    134 18.47                             109   -0.72 3  350 354 
 COD  HZ I         134 23.73        76.8 0.67                           350 354 
 ANIL HZ EP   2    133 43.60                             109    0.61 3  361 225 
 ANIL HN ES   2    134 22.39                             109    0.13 3  361 225 
 ANIL HZ I         134 29.15       168.6 0.49                           361 225 
 PRA  HZ EP        133 45.94                             107   -0.59 6  395 210 
 PRA  HN ES   2    134 28.59                             107    0.03 3  395 210 
                                                                                
