 2012  726 0744  2.1 L   6.675 -73.218154.8  RSN  4 0.2 1.4LRSN                1
 GAP=205        0.43       7.5     4.8  6.8 -0.1464E+01 -0.7451E+01  0.1490E+02E
 Epicentro: BARICHARA - SANTANDER                                              3
 ACTION:UPD 12-08-14 11:45 OP:ep   STATUS:               ID:20120726074402 L   I
 2012-07-26-0740-00M.COL___215                                                 6
 STAT SP IPHASW D HRMM SECON CODA AMPLIT PERI AZIMU VELO AIN AR TRES W  DIS CAZ7
 BAR2 SZ EP   1    744 22.38                             176    -0.2 7   10 156 
 BAR2 SZ I         744 42.37         3.2 0.18            156             10 156 
 BRR  HZ EP        744 24.37                             153     0.110   73 311 
 BRR  HN ES   1    744 41.68                             153     0.1 7   73 311 
 PTB  HZ EP   1    744 29.08                             136     0.2 7  138 264 
 PTB  HN ES   1    744 49.82                             136     0.0 7  138 264 
 PTB  HZ I         744 57.87         2.4 0.42            136            138 264 
 ZAR  HZ EP   2    744 34.95                             124     0.0 4  202 297 
 ZAR  HE ES   2    745  0.20                             124    -0.4 4  202 297 
 ZAR  HZ I         745  5.99         3.7 0.32            129            202 297 
