 2014 1126 0432  4.6 L   6.803 -73.152134.3  RSN 10 0.4 1.7LRSN                1
 GAP= 71        0.93       3.4     4.0  6.3 -0.2445E+01  0.9078E+01  0.1352E+00E
 Epicentro: LOS SANTOS - SANTANDER                                             3
 ACTION:UPD 14-12-19 15:47 OP:nd   STATUS:               ID:20141126043204 L   I
 OLDACT:UP  14-11-26 17:16 OP:mh   STATUS:               ID:20141126042738     3
 OLDACT:REG 14-11-26 14:14 OP:mh   STATUS:               ID:20141126042738     3
 2014-11-26-0427-38M.COL___303                                                 6
 STAT SP IPHASW D HRMM SECON CODA AMPLIT PERI AZIMU VELO AIN AR TRES W  DIS CAZ7
 BAR2 SZ EP   1    432 23.04                             170    0.16 7 23.5 188 
 BAR2 SZ ES        432 36.99                             170   -0.1310 23.5 188 
 BAR2 SZ I         432 38.92                             169           23.5 188 
 PAM  SZ EP     C  432 26.11                             148    0.4610 77.6  40 
 PAM  SN ES        432 42.61                             148    0.5610 77.6  40 
 PAM  SZ I         432 45.17         9.9 0.66            153           77.6  40 
 RUS  HZ EP        432 27.02                             141   -0.2710  101 176 
 RUS  HN ES        432 44.98                             141    0.0110  101 176 
 RUS  HZ I         432 47.21         8.3 0.12            145            101 176 
 PTB  HZ EP   1    432 30.19                             129   -0.44 7  147 259 
 PTB  HN ES   1    432 50.41                             129   -0.50 7  147 259 
 PTB  HZ I         432 53.67         9.3 0.45            129            147 259 
 TAM  HZ EP   1    432 31.43                             127   -0.06 7  156 105 
 TAM  HN ES   4    433  0.34                             127    7.90 0  156 105 
 OCA  HN ES        432 52.63                             127   -0.79 9  160 353 
 OCA  HZ I         432 56.46         4.3 0.07            128            160 353 
 SPBC HZ EP   1    432 31.73                             126   -0.52 7  163 219 
 SPBC HN ES   1    432 53.78                             126   -0.02 7  163 219 
 SPBC HZ I         432 59.36         8.5 0.12            128            163 219 
 ZAR  HN ES   1    433  1.44                             120    0.48 6  203 292 
 ZAR  HZ I         433  8.98         5.5 0.55            120            203 292 
 HEL  HZ EP        432 44.49                             112    0.28 8  271 256 
 HEL  HN ES   1    433 15.82                             112    0.73 6  271 256 
 HEL  HZ I         433 22.34         2.3 1.66            113            271 256 
 GUY2CHZ EP   1    432 48.01                             110    0.32 5  301 235 
 GUY2CHN ES   4    433 23.08                             110    1.81 0  301 235 
 GUY2CHZ I         433 29.83         2.0 0.47                           301 235 
                                                                                
