 2016  626 0811 49.5 L   6.039 -73.812109.8  RSN  5 0.5 1.2LRSN                1
 GAP=209        1.27       6.0     7.9 10.8 -0.1085E+02  0.2031E+02 -0.1993E+02E
 Epicentro: LANDAZURI - SANTANDER                                              3
 ACTION:UP  16-12-29 15:01 OP:rebc STATUS:               ID:20160626081149 L   I
 OLDACT:UPD 16-11-10 20:16 OP:rebc STATUS:               ID:20160626081149 L   3
 OLDACT:UP  16-06-26 16:28 OP:+mh  STATUS:               ID:20160626080745     3
 OLDACT:UP  16-06-26 16:28 OP:+mh  STATUS:               ID:20160626080745     3
 OLDACT:UP  16-06-26 16:21 OP:+mh  STATUS:               ID:20160626080745     3
 OLDACT:UP  16-06-26 16:20 OP:+mh  STATUS:               ID:20160626080745     3
 OLDACT:UP  16-06-26 16:18 OP:+mh  STATUS:               ID:20160626080745     3
 OLDACT:UP  16-06-26 16:18 OP:+mh  STATUS:               ID:20160626080745     3
 OLDACT:UP  16-06-26 16:16 OP:+mh  STATUS:               ID:20160626080745     3
 OLDACT:REG 16-06-26 13:45 OP:ak   STATUS:               ID:20160626080745     3
 2016-06-26-0807-45M.COL___318                                                 6
 STAT SP IPHASW D HRMM SECON CODA AMPLIT PERI AZIMU VELO AIN AR TRES W  DIS CAZ7
 SPBC HZ EP   1    812  5.40                             153   -0.44 7 51.6 214 
 SPBC HE ES        812 18.98                             153    0.4410 51.6 214 
 SPBC HZ I         812 20.14         4.6 0.15                          51.6 214 
 PTB  HZ EP        812  7.96                             138   -0.4710 90.2 308 
 PTB  HN ES        812 22.48                             138   -0.6810 90.2 308 
 PTB  HZ I         812 25.14         2.6 0.12                          90.2 308 
 BRR  HZ EP   1    812 10.05                             129   -0.89 7  119   5 
 BRR  HE ES        812 28.19                             129    0.5710  119   5 
 BRR  HZ I         812 30.41         2.7 0.37                           119   5 
 HEL  HZ EP        812 19.66                             115    0.74 9  191 275 
 HEL  HE ES        812 41.75                             115   -0.07 9  191 275 
 HEL  HZ I         812 47.40         1.5 0.34                           191 275 
 ZAR  HZ EP   1    812 19.67                             114    0.42 6  198 324 
 ZAR  HN ES        812 42.71                             114    0.29 9  198 324 
 ZAR  HZ I         812 44.37         2.7 0.25                           198 324 
                                                                                
