 2012  326 0341 17.1 L   6.773 -73.135149.1  RSN  6 0.4 1.1LRSN                1
 GAP=139        0.92       6.1     7.3  8.1 -0.5219E+00  0.1210E+02  0.2469E+01E
 ACTION:UP  12-03-31 23:22 OP:EP   STATUS:               ID:20120326034117 L   I
 2012-03-26-0340-00M.COL___196                                                 6
 STAT SP IPHASW D HRMM SECON CODA AMPLIT PERI AZIMU VELO SNR AR TRES W  DIS CAZ7
 BAR2 SZ EP        341 36.72                             172    -0.410   21 195 
 BAR2 SZ ES   1    341 52.03                             172    -0.7 7   21 195 
 BRR  HZ EP        341 38.98                             152     0.210   74 300 
 BRR  HN ES   1    341 56.28                             152     0.6 7   74 300 
 BRR  HZ I         341 58.96         3.3 0.30                            74 300 
 PAM  SZ EP        341 39.83                             151     0.010   79  38 
 PAM  SN ES   1    341 57.39                             151    -0.1 7   79  38 
 RUS  HZ EP        341 41.28                             145     0.310   98 177 
 RUS  HN ES   1    341 59.89                             145     0.3 7   98 177 
 RUS  HZ I         342  1.25         1.9 0.32                            98 177 
 PTB  HZ EP        341 44.19                             132    -0.2 9  148 260 
 PTB  HZ I         342 12.67         1.2 0.46                           148 260 
 ZAR  HE ES   3    342 14.52                             123    -1.1 2  206 293 
                                                                                
