 2014  926 0838 40.5 L   6.766 -73.131141.1  RSN  4 0.2 0.9LRSN                1
 GAP=140        0.67       5.0     9.1  9.8  0.2570E+02 -0.5530E+02 -0.2156E+02E
 Epicentro: LOS SANTOS - SANTANDER                                             3
 ACTION:UPD 14-10-03 23:08 OP:nd   STATUS:               ID:20140926083840 L   I
 OLDACT:REG 14-09-26 15:32 OP:mh   STATUS:               ID:20140926083805     3
 2014-09-26-0838-05M.COL___286                                                 6
 STAT SP IPHASW D HRMM SECON CODA AMPLIT PERI AZIMU VELO AIN AR TRES W  DIS CAZ7
 BAR2 SZ EP        838 59.52                             172    0.0610 20.1 197 
 BAR2 SZ I         838 59.86         3.0 0.10            171           20.1 197 
 BRR  HZ EP        839  0.92                             151   -0.3810 74.5 300 
 BRR  HN ES        839 17.75                             151    0.2010 74.5 300 
 PAM  SZ EP        839  2.28                             149   -0.0210 79.3  37 
 PAM  SZ I         839  2.51         1.3 0.18            149           79.3  37 
 RUS  HZ EP        839  3.82                             144    0.3510 96.7 177 
 RUS  HZ I         839  4.38         1.0 0.46            143           96.7 177 
 RUS  HE ES        839 21.21                             144   -0.2110 96.7 177 
                                                                                
