 2011 1026 0035 42.2 L   6.774 -73.078147.5  RSN 16 0.2 2.9LRSN                1
 GAP=121        0.35       1.6     2.1  2.7 -0.4814E+00  0.1709E+01  0.9017E+00E
 Epicentro: LOS SANTOS - SANTANDER                                             3
 ACTION:UPD 12-07-13 16:06 OP:ep   STATUS:               ID:20111026003542 L   I
 2011-10-26-0034-08S.COL___176                                                 6
 STAT SP IPHASW D HRMM SECON CODA AMPLIT PERI AZIMU VELO AIN AR TRES W  DIS CAZ7
 BAR2 SZ IP        036  1.93                             171   -0.1410 23.1 210 
 BAR2 SZ I         036  2.53       150.4 0.43                          23.1 210 
 BAR2 SZ ES   1    036 17.45                             171   -0.09 7 23.1 210 
 BTL  SZ EP        036  2.30                             169    0.1610 26.3 307 
 PAM  SZ IP        036  4.73                             152    0.2210 75.3  34 
 PAM  SN ES   1    036 21.95                             152    0.06 7 75.3  34 
 BRR  HZ EP        036  3.83                             150   -0.2110 79.1 298 
 BRR  HZ I         036  4.11       192.6 0.13                          79.1 298 
 BRR  HE ES   1    036 21.27                             150    0.23 7 79.1 298 
 RUS  HZ IP     C  036  5.77                             145   -0.1710 97.5 180 
 RUS  HN ES   2    036 24.45                             145    0.03 5 97.5 180 
 RUS  HZ I         036 25.85        59.0 0.35                          97.5 180 
 OCA  SZ EP   1    036 10.77                             129   -0.28 7  164 351 
 OCA  SZ ES   2    036 33.45                             129   -0.07 5  164 351 
 OCA  SZ I         036 37.15        79.9 0.25                           164 351 
 YOP  SE ES   2    036 35.01                             128    0.08 4  173 155 
 YOP  SZ I         036 37.46        32.2 0.48                           173 155 
 ZAR  HZ EP   2    036 15.63                             122    0.01 4  212 292 
 ZAR  HN ES   2    036 41.54                             122   -0.12 4  212 292 
 ZAR  HZ I         036 47.11       100.4 0.31                           212 292 
 NOR  SZ EP   1    036 18.31                             118   -0.24 6  239 236 
 NOR  SN ES   2    036 46.71                             118   -0.16 4  239 236 
 ROSC BZ EP   2    036 21.06                             117    0.44 4  254 213 
 ROSC BN ES   2    036 50.32                             117   -0.23 4  254 213 
 ROSC BZ I         036 59.11        56.4 0.42                           254 213 
 HEL  HZ EP   2    036 23.28                             114    0.01 4  279 257 
 HEL  HN ES   2    036 55.49                             114    0.23 4  279 257 
 HEL  HZ I         036 59.35        29.3 0.64                           279 257 
 VIL  SE ES   2    036 59.41                             112    0.00 4  302 193 
 VIL  SZ I         037  5.72        20.5 0.41                           302 193 
 GUY  SZ EP   2    036 27.14                             112    0.44 4  308 236 
 GUY  SN ES   2    037  1.39                             112    0.01 4  308 236 
 GUY  SZ I         037  8.20        66.2 0.39                           308 236 
 RREF HZ EP   1    036 28.92                             111    0.02 5  326 231 
 RREF HN ES   2    037  5.49                             111    0.21 3  326 231 
 RREF HZ I         037 14.35        59.1 0.47                           326 231 
 DBB  SZ EP   2    036 30.86                             109    0.19 3  347 275 
 PRA  HZ EP   1    036 36.42                             107    0.45 4  393 211 
 PRA  HN ES   2    037 18.16                             107    0.29 3  393 211 
                                                                                
