 2011  726 0309 35.1 L   6.743 -73.094141.6  RSN 13 0.3 2.2LRSN                1
 GAP=146        0.48       2.2     3.6  3.1 -0.3107E+01  0.1980E+01  0.1261E+01E
 Epicentro: JORDAN - SANTANDER                                                 3
 ACTION:UPD 12-07-25 14:03 OP:epov STATUS:               ID:20110726030935 L   I
 2011-07-26-0308-04S.COL___142                                                 6
 STAT SP IPHASW D HRMM SECON CODA AMPLIT PERI AZIMU VELO AIN AR TRES W  DIS CAZ7
 BAR2 SZ EP   1    3 9 54.11                             172   -0.05 7 19.4 210 
 BAR2 SZ ES   1    310  8.58                             172   -0.44 7 19.4 210 
 BAR2 SZ I         310 10.60        46.3 0.22                          19.4 210 
 BTL  SZ EP   1    3 9 54.51                             169    0.18 7 27.3 315 
 BTL  SZ ES   1    310  9.52                             169    0.20 7 27.3 315 
 GIR2 SZ EP   1    3 9 54.35                             164   -0.17 7 38.7 343 
 GIR2 SZ ES   2    310  9.21                             164   -0.44 5 38.7 343 
 PAM  SZ EP   1    3 9 57.33                             149    0.35 7 79.0  33 
 PAM  SN ES   2    310 14.49                             149    0.45 5 79.0  33 
 BRR  HZ IP     C  3 9 56.08                             149   -0.2210 79.3 301 
 BRR  HE ES   1    310 13.00                             149    0.18 7 79.3 301 
 BRR  HZ I         310 14.63        36.8 0.18                          79.3 301 
 RUS  HZ EP   1    3 9 57.94                             145   -0.05 7 94.1 179 
 RUS  HZ I         3 9 58.98        13.7 0.15                          94.1 179 
 RUS  HN ES   2    310 16.30                             145    0.47 5 94.1 179 
 BRI  SZ EP   1    3 9 58.80                             139   -0.13 7  112  17 
 BRI  SZ ES   1    310 17.42                             139   -0.08 7  112  17 
 OCA  SZ EP   1    310  3.36                             127   -0.41 7  167 351 
 OCA  SZ ES   1    310 26.41                             127    0.29 7  167 351 
 OCA  SZ I         310 27.88        20.8 0.20                           167 351 
 NOR  SZ EP   1    310 11.17                             117    0.44 6  236 237 
 NOR  SE ES   2    310 38.37                             117   -0.14 4  236 237 
 CHI  HZ EP   2    310 11.96                             117   -0.14 4  244 197 
 CHI  HE ES   2    310 40.97                             117    0.02 4  244 197 
 CHI  HZ I         310 48.44         7.8 0.46                           244 197 
 HEL  HZ EP   1    310 15.81                             113    0.23 6  276 257 
 RREF HZ EP   1    310 21.00                             110   -0.12 5  322 231 
 RREF HN ES   2    310 56.93                             110   -0.08 3  322 231 
 RREF HZ I         311  8.33        10.1 0.39                           322 231 
 PRA  HZ EP   2    310 28.24                             106    0.05 3  389 211 
 PRA  HN ES   2    311  9.56                             106   -0.04 3  389 211 
                                                                                
