 2011 1026 0309 46.4 L   6.784 -73.085142.7  RSN 12 0.3 2.0LRSN                1
 GAP=145        0.44       2.5     3.0  4.1 -0.1831E+01  0.3566E+01  0.5922E+00E
 Epicentro: LOS SANTOS - SANTANDER                                             3
 ACTION:UPD 12-07-13 16:06 OP:ep   STATUS:               ID:20111026030946 L   I
 2011-10-26-0300-00M.COL___177                                                 6
 STAT SP IPHASW D HRMM SECON CODA AMPLIT PERI AZIMU VELO AIN AR TRES W  DIS CAZ7
 BAR2 SZ IP        310  5.57                             170   -0.0610 23.7 207 
 BAR2 SZ ES   2    310 20.11                             170   -0.55 5 23.7 207 
 BAR2 SZ I         310 21.67        21.1 0.07                          23.7 207 
 BTL  SZ EP   2    310  5.84                             170    0.18 5 25.1 306 
 GIR2 SZ EP   1    310  5.68                             166   -0.09 7 34.7 340 
 GIR2 SZ ES   2    310 21.15                             166    0.24 5 34.7 340 
 PAM  SZ EP        310  8.37                             151    0.2710 74.8  35 
 PAM  SN ES   2    310 25.42                             151    0.37 5 74.8  35 
 BRR  HZ IP     D  310  7.49                             150   -0.0910 77.9 297 
 BRR  HZ I         310  7.89        39.2 0.07                          77.9 297 
 BRR  HE ES   2    310 24.47                             150    0.34 5 77.9 297 
 RUS  HZ EP   1    310  9.51                             144   -0.15 7 98.5 180 
 RUS  HN ES   2    310 27.68                             144   -0.16 5 98.5 180 
 RUS  HZ I         310 29.16         8.3 0.25                          98.5 180 
 OCA  SZ EP   1    310 14.67                             128   -0.02 7  163 351 
 OCA  SZ ES   2    310 36.16                             128   -0.63 5  163 351 
 OCA  SZ I         310 43.19        11.6 0.10                           163 351 
 ZAR  HZ EP   2    310 18.86                             121   -0.46 4  211 292 
 ZAR  HN ES   2    310 45.00                             121   -0.03 4  211 292 
 ZAR  HZ I         310 49.83        15.4 0.49                           211 292 
 NOR  SZ EP   2    310 22.05                             117   -0.34 4  239 236 
 NOR  SE ES   2    310 50.84                             117    0.34 4  239 236 
 HEL  HZ EP   2    310 27.25                             114    0.16 4  278 257 
 HEL  HN ES   2    310 58.96                             114    0.10 4  278 257 
 HEL  HZ I         311  5.81         5.0 0.36                           278 257 
 RREF HZ EP   2    310 33.20                             110    0.38 3  326 230 
 RREF HE ES   2    311  9.64                             110    0.58 3  326 230 
 RREF HZ I         311 12.97         4.2 0.35                           326 230 
 PRA  HN ES   2    311 21.74                             106   -0.07 3  394 211 
                                                                                
