 2014 1026 0244 23.6 L   6.774 -73.126150.0  RSN 11 0.3 1.9LRSN                1
 GAP=140        0.81       2.9     3.4  4.4 -0.2765E+01  0.4196E+01  0.1438E+01E
 Epicentro: LOS SANTOS - SANTANDER                                             3
 ACTION:UPD 14-11-29 23:57 OP:nd   STATUS:               ID:20141026024423 L   I
 OLDACT:UP  14-10-29 15:23 OP:cam  STATUS:               ID:20141026023810     3
 OLDACT:REG 14-10-29 13:00 OP:cam  STATUS:               ID:20141026023810     3
 2014-10-26-0238-10M.COL___280                                                 6
 STAT SP IPHASW D HRMM SECON CODA AMPLIT PERI AZIMU VELO AIN AR TRES W  DIS CAZ7
 BAR2 SZ EP     C  244 43.61                             172   -0.1310 21.0 197 
 BAR2 SZ ES        244 59.40                             172   -0.0210 21.0 197 
 BAR2 SZ I         245  1.56        15.8 0.24            171           21.0 197 
 BRR  HZ IP     C  244 45.54                             152    0.1010 74.5 300 
 BRR  HN ES        245  3.13                             152    0.7010 74.5 300 
 BRR  HZ I         245  5.22        13.0 0.44            152           74.5 300 
 PAM  SZ EP        244 46.35                             151   -0.0210 78.4  37 
 PAM  SN ES        245  3.95                             151   -0.1410 78.4  37 
 PAM  SZ I         245  5.55         7.5 0.54            155           78.4  37 
 RUS  HZ EP        244 47.44                             146   -0.1610 97.5 177 
 RUS  HN ES        245  6.39                             146    0.1010 97.5 177 
 RUS  HZ I         245  8.79         4.8 0.48            147           97.5 177 
 PTB  HZ EP        244 50.62                             133   -0.48 9  149 260 
 PTB  HN ES        245 11.79                             133   -0.73 9  149 260 
 PTB  HZ I         245 13.60        15.6 0.12            133            149 260 
 SPBC HZ EP        244 52.56                             130    0.17 9  162 220 
 SPBC HN ES        245 15.03                             130    0.22 9  162 220 
 SPBC HZ I         245 21.68        18.6 0.30            131            162 220 
 OCA  HZ EP   1    244 52.84                             130    0.26 7  163 353 
 OCA  HN ES        245 15.00                             130   -0.15 9  163 353 
 OCA  HZ I         245 18.51        12.9 0.34            132            163 353 
 CHI  HZ EP        245  1.04                             118   -0.30 8  246 196 
 HEL  HZ EP        245  4.57                             115    0.34 8  273 257 
 HEL  HN ES        245 35.66                             115   -0.22 8  273 257 
 HEL  HZ I         245 43.29         6.0 0.24            117            273 257 
 GUY2CHZ EP        245  8.09                             113    0.63 7  301 235 
 GUY2CHE ES        245 41.71                             113    0.07 7  301 235 
 GUY2CHZ I         245 48.50         6.0 0.32                           301 235 
 CBOC HZ EP        245 10.99                             111    0.12 7  335 253 
 MON  HZ EP   4    245 10.16                             109   -3.05 0  357 309 
 MON  HN ES   4    245 48.62                             109   -3.26 0  357 309 
                                                                                
