 2016 1126 0655  3.8 L   6.684 -73.121143.8  RSN  4 0.2 1.0LRSN                1
 GAP=181        0.52       5.3     3.2  4.2 -0.8526E+01  0.8758E+00  0.2788E+01E
 Epicentro: VILLANUEVA - SANTANDER                                             3
 ACTION:UPD 17-10-26 21:11 OP:lp   STATUS:               ID:20161126065503 L   I
 OLDACT:UP  16-11-26 15:06 OP:dani STATUS:               ID:20161126064748d    3
 OLDACT:DUP 16-11-26 15:04 OP:dani STATUS:               ID:20161126064748d    3
 OLDACT:UP  16-11-26 15:02 OP:dani STATUS:               ID:20161126064747     3
 OLDACT:UP  16-11-26 14:58 OP:dani STATUS:               ID:20161126064747     3
 OLDACT:UP  16-11-26 14:58 OP:dani STATUS:               ID:20161126064747     3
 OLDACT:UP  16-11-26 14:58 OP:dani STATUS:               ID:20161126064747     3
 OLDACT:UP  16-11-26 14:58 OP:dani STATUS:               ID:20161126064747     3
 OLDACT:UP  16-11-26 14:58 OP:dani STATUS:               ID:20161126064747     3
 OLDACT:REG 16-11-26 12:07 OP:dani STATUS:               ID:20161126064747     3
 2016-11-26-0648-00M.COL___349                                                 6
 STAT SP IPHASW D HRMM SECON CODA AMPLIT PERI AZIMU VELO AIN AR TRES W  DIS CAZ7
 BAR2 EZ EP        655 22.78                             175   -0.2610 12.2 214 
 BAR2 EZ ES        655 38.20                             175    0.1710 12.2 214 
 BAR2 EZ I         655 40.15         2.9 0.27            172           12.2 214 
 BRR  HZ EP        655 25.25                             149   -0.0510 80.4 306 
 BRR  HN ES        655 42.17                             149    0.1110 80.4 306 
 BRR  HZ I         655 44.22         1.7 0.22            148           80.4 306 
 PAM  EZ EP        655 26.51                             148    0.1410 86.1  33 
 PAM  EN ES        655 43.82                             148   -0.1410 86.1  33 
 PAM  EZ I         655 45.60         2.0 0.54            151           86.1  33 
 PTB  HZ EP        655 30.95                             131    0.25 9  149 264 
 PTB  HN ES        655 51.44                             131   -0.23 9  149 264 
 PTB  HZ I         655 58.32         0.8 0.14            132            149 264 
                                                                                
