 2017  526 0511 39.2 L   6.780 -73.168143.6  RSN  8 0.5 1.5LRSN                1
 GAP=209        1.11       5.0     5.1  7.5  0.1358E+02  0.1789E+01  0.2355E+01E
 Epicentro: LOS SANTOS - SANTANDER                                             3
 ACTION:UPD 17-06-16 13:38 OP:jn   STATUS:               ID:20170526051139 L   I
 OLDACT:UP  17-05-26 16:41 OP:ar   STATUS:               ID:20170526050742     3
 OLDACT:REG 17-05-26 12:47 OP:ar   STATUS:               ID:20170526050742     3
 2017-05-26-0508-00M.COL___338                                                 6
 STAT SP IPHASW D HRMM SECON CODA AMPLIT PERI AZIMU VELO AIN AR TRES W  DIS CAZ7
 BRR  HZ EP        511 59.92                             153   -0.1810 70.1 301 
 BRR  HN ES        512 16.86                             153    0.5010 70.1 301 
 BRR  HZ I         512 20.94         4.9 0.40            153           70.1 301 
 RUS  HZ EP        512  1.85                             144   -0.7910 98.6 175 
 RUS  HN ES        512 20.77                             144   -0.1210 98.6 175 
 RUS  HZ I         512 21.44         3.0 0.32            147           98.6 175 
 PTB  HZ EP        512  5.72                             132   -0.05 9  145 259 
 PTB  HN ES        512 25.95                             132   -0.52 9  145 259 
 PTB  HZ I         512 33.33         4.9 0.42            134            145 259 
 SPBC HZ EP        512  7.85                             129    0.59 9  160 219 
 SPBC HN ES        512 29.03                             129   -0.09 9  160 219 
 SPBC HZ I         512 31.32         4.4 0.20            132            160 219 
 YPLC HZ EP        512  8.14                             126   -0.67 9  176 150 
 YPLC HE ES        512 32.71                             126    0.83 9  176 150 
 YPLC HZ I         512 33.61         2.4 0.24            130            176 150 
 ZAR  HZ EP        512 11.67                             122    0.28 9  203 293 
 ZAR  HE ES        512 36.30                             122   -0.17 9  203 293 
 ZAR  HZ I         512 38.54         5.7 0.36            125            203 293 
 CHI  HZ EP        512 16.94                             117    0.42 8  246 195 
 CHI  HN ES        512 45.43                             117   -0.17 8  246 195 
 PTGC HE ES   4    512 53.90                             111   -3.01 0  308 158 
 CBOC HZ EP        512 26.12                             110    0.41 7  331 252 
 CBOC HN ES        513  2.21                             110    0.25 7  331 252 
                                                                                
