 2012  126 0248 21.8 L   6.735 -73.081146.7  RSN  4 0.4 1.3LRSN                1
 GAP=240        0.85      10.2    12.7 11.1  0.7765E+02  0.9037E+01 -0.8404E+01E
 Epicentro: JORDAN - SANTANDER                                                 3
 ACTION:UP  12-02-03 08:20 OP:REBC STATUS:               ID:20120126024821 L   I
 2012-01-26-0240-00M.COL___188                                                 6
 STAT SP IPHASW D HRMM SECON CODA AMPLIT PERI AZIMU VELO SNR AR TRES W  DIS CAZ7
 BAR2 SZ EP   2    248 40.79                             171    -0.6 5   19 216 
 BRR  HZ EP   1    248 43.12                             149    -0.5 8   81 301 
 BRR  HN ES   1    249  0.94                             149     0.3 8   81 301 
 BRR  HZ I         249 13.46         7.6 0.50                            81 301 
 RUS  HZ EP   2    248 45.23                             146     0.1 5   93 180 
 RUS  HE ES   1    249  3.33                             146     0.1 8   93 180 
 RUS  HZ I         249  5.63         1.9 0.16                            93 180 
 PTB  HZ EP        248 49.75                             131     0.410  154 262 
 PTB  HE ES   2    249 10.15                             131    -0.7 5  154 262 
                                                                                
