 2010  526 0036  6.7 L   6.461 -73.099128.5  RSN  7 0.5 2.0LRSN                1
 GAP=187        0.87       6.6    11.0  6.6 -0.5506E+02  0.1975E+02 -0.5443E+01E
 Epicentro: VALLE DE SAN JOSE - SANTANDER                                      3
 ACTION:UP  10-08-24 10:06 OP:vdl  STATUS:               ID:20100526003606 L   I
 2010-05-26-0032-05S.COL___108                                                 6
 STAT SP IPHASW D HRMM SECON CODA AMPLIT PERI AZIMU VELO SNR AR TRES W  DIS CAZ7
 BAR2 SZ EP        036 24.40                             172     0.310   17 327 
 BAR2 SZ ES        036 37.58                             172    -0.110   17 327 
 GUE  SZ EP        036 33.39                             127     0.2 9  153   7 
 GUE  SZ ES   2    036 54.04                             127     0.2 5  153   7 
 GRA  SZ EP   2    036 33.36                             125    -0.4 5  161  12 
 OCA  SZ EP        036 37.13                             119    -0.5 9  198 353 
 OCA  SZ I         037  5.08        13.9 0.41                           198 353 
 CHI  HZ EP   1    036 39.39                             117    -0.3 6  214 199 
 CHI  HE ES   2    037  4.47                             117    -1.0 4  214 199 
 CHI  HZ I         037  5.80         6.3 0.10                           214 199 
 HEL  HN ES   3    037 14.86                             111    -1.6 2  271 264 
 HEL  HZ I         037 16.96         4.2 0.68                           271 264 
 RREF BZ EP        036 50.53                             109     0.6 7  303 235 
 RREF BN ES        037 23.78                             109     0.1 7  303 235 
 RREF BZ I         037 28.06         6.6 0.69                           303 235 
                                                                                
