 2012  926 0742  9.9 L   6.743 -73.195161.3  RSN  6 0.2 1.5LRSN                1
 GAP=133        0.43       4.9     4.3  8.7  0.1042E+02 -0.1627E+02 -0.1406E+02E
 Epicentro: VILLANUEVA - SANTANDER                                             3
 ACTION:UPD 12-10-22 14:20 OP:ep   STATUS:               ID:20120926074209 L   I
 2012-09-26-0740-00M.COL___217                                                 6
 STAT SP IPHASW D HRMM SECON CODA AMPLIT PERI AZIMU VELO AIN AR TRES W  DIS CAZ7
 BAR2 SZ EP   1    742 31.26                             174   -0.08 7 16.7 175 
 BAR2 SZ I         742 49.36         7.4 0.28                          16.7 175 
 BRR  HZ EP   1    742 33.14                             155    0.42 7 69.9 305 
 BRR  HN ES   2    742 50.56                             155    0.07 5 69.9 305 
 BRR  HZ I         742 54.22         5.1 0.10                          69.9 305 
 PAM  SZ EP   1    742 34.16                             151   -0.15 7 85.7  40 
 PAM  SZ I         742 34.41         4.7 0.24                          85.7  40 
 RUS  HZ EP   1    742 34.82                             148   -0.06 7 94.9 173 
 RUS  HN ES   2    742 54.30                             148   -0.02 5 94.9 173 
 RUS  HZ I         742 55.01         3.0 0.28                          94.9 173 
 PTB  HN ES   2    742 59.32                             137    0.03 5  141 261 
 ZAR  HE ES   1    743  8.90                             126   -0.23 6  202 294 
                                                                                
