 2013 1226 0234 30.9 L   6.825 -73.173142.6  RSN  9 0.4 1.9LRSN                1
 GAP= 77        1.01       4.1     3.9  6.2 -0.1227E+01  0.1607E+01 -0.1002E+01E
 Epicentro: LOS SANTOS - SANTANDER                                             3
 ACTION:UPD 14-01-13 10:21 OP:ep   STATUS:               ID:20131226023430 L   I
 OLDACT:UP  13-12-26 10:17 OP:mh   STATUS:               ID:20131226023000     3
 OLDACT:REG 13-12-26 08:44 OP:mh   STATUS:               ID:20131226023000     3
 2013-12-26-0230-00M.COL___285                                                 6
 STAT SP IPHASW D HRMM SECON CODA AMPLIT PERI AZIMU VELO AIN AR TRES W  DIS CAZ7
 BAR2 SZ EP        234 50.23                             169    0.0610 25.7 182 
 BAR2 SZ ES        235  4.80                             169   -0.4210 25.7 182 
 BAR2 SZ I         235  6.36        40.2 0.23            172           25.7 182 
 BRR  HZ EP   1    234 52.09                             153    0.64 7 67.2 298 
 BRR  HN ES        235  7.99                             153    0.4810 67.2 298 
 BRR  HZ I         235 10.26        15.4 0.18            150           67.2 298 
 PAM  SZ EP        234 53.13                             150    0.3810 77.3  43 
 PAM  SN ES   1    235 10.01                             150    0.20 7 77.3  43 
 PAM  SZ I         235 12.18         8.9 0.53            151           77.3  43 
 PTB  HZ EP        234 56.89                             132   -0.47 9  145 258 
 PTB  HN ES        235 17.65                             132   -0.37 9  145 258 
 PTB  HZ I         235 21.18         9.9 0.18            131            145 258 
 OCA  HZ EP   1    234 58.57                             129   -0.08 7  157 354 
 OCA  HN ES        235 20.12                             129   -0.19 9  157 354 
 TAM  HZ IP     D  234 58.45                             129   -0.19 9  159 106 
 ZAR  HZ EP        235  3.54                             122    0.83 9  200 292 
 ZAR  HN ES        235 27.96                             122    0.41 9  200 292 
 ZAR  HZ I         235 31.07         8.2 0.16            122            200 292 
 NOR  HZ EP   1    235  6.25                             118   -0.07 6  234 233 
 NOR  HN ES   1    235 33.74                             118   -0.23 6  234 233 
 NOR  HZ I         235 38.53         5.0 0.21            118            234 233 
 SML  HZ EP   1    235  6.47                             117   -0.44 6  240 336 
 SML  HN ES        235 34.21                             117   -0.82 8  240 336 
 SML  HZ I         235 45.85         7.5 0.11            117            240 336 
 GUY2CHZ EP   4    235 16.12                             112    1.89 0  300 234 
                                                                                
