 2013  726 0837 12.2 L   6.821 -73.114152.7  RSN 10 0.4 2.1LRSN                1
 GAP=140        0.86       3.6     3.9  5.9  0.3682E+00  0.6237E+01 -0.6966E+00E
 Epicentro: LOS SANTOS - SANTANDER                                             3
 ACTION:UPD 13-08-12 10:40 OP:ep   STATUS:               ID:20130726083712 L   I
 OLDACT:UP  13-07-26 10:29 OP:cam  STATUS:               ID:20130726082959     3
 OLDACT:REG 13-07-26 08:32 OP:cam  STATUS:               ID:20130726082959     3
 2013-07-26-0829-59M.COL___266                                                 6
 STAT SP IPHASW D HRMM SECON CODA AMPLIT PERI AZIMU VELO AIN AR TRES W  DIS CAZ7
 BAR2 SZ EP     D  837 32.59                             170   -0.0910 26.5 197 
 BAR2 SZ ES   1    837 48.70                             170    0.02 7 26.5 197 
 BAR2 SZ I         837 49.42        17.5 0.21            170           26.5 197 
 GIR2 SZ EP   1    837 32.74                             168    0.13 7 29.8 343 
 BRR  HZ EP     C  837 34.28                             153    0.1210 73.3 296 
 BRR  HN ES        837 51.65                             153    0.3210 73.3 296 
 BRR  HZ I         837 56.29        18.1 0.22            149           73.3 296 
 PAM  SZ EP   1    837 35.35                             153    0.47 7 73.3  39 
 PAM  SN ES   1    837 52.81                             153    0.21 7 73.3  39 
 RUS  HZ EP        837 36.50                             145   -0.2410  103 178 
 RUS  HN ES        837 55.55                             145   -0.3710  103 178 
 RUS  HZ I         837 56.60         8.3 0.38            149            103 178 
 PTB  HZ EP   1    837 39.57                             133   -0.47 7  152 258 
 PTB  HN ES   1    838  0.86                             133   -0.93 7  152 258 
 PTB  HZ I         838  6.56        24.3 0.38            132            152 258 
 ZAR  HZ EP   1    837 45.24                             123   -0.06 6  206 291 
 ZAR  HE ES        838 10.99                             123   -0.17 8  206 291 
 ZAR  HZ I         838 17.16        21.7 0.54            123            206 291 
 NOR  HZ EP        837 48.85                             119    0.11 8  239 234 
 NOR  HN ES        838 18.27                             119    0.99 8  239 234 
 NOR  HZ I         838 22.35         9.4 0.24            120            239 234 
 SML  HZ EP   1    837 49.06                             119   -0.05 6  243 334 
 SML  HE ES   1    838 17.45                             119   -0.48 6  243 334 
 SML  HZ I         838 29.06        18.9 0.22            119            243 334 
 HEL  HN ES   1    838 25.44                             116    0.29 6  276 256 
                                                                                
