 2011  726 0849 36.5 L   7.427 -73.223123.5  RSN  4 0.2 1.3LRSN                1
 GAP=166        0.54       4.7     6.4  7.0 -0.1791E+02 -0.5175E+01  0.4346E+00E
 Epicentro: EL PLAYON - SANTANDER                                              3
 ACTION:UPD 12-07-25 14:03 OP:epov STATUS:               ID:20110726084936 L   I
 2011-07-26-0846-25S.COL___143                                                 6
 STAT SP IPHASW D HRMM SECON CODA AMPLIT PERI AZIMU VELO AIN AR TRES W  DIS CAZ7
 BRI  SZ EP   1    849 55.10                             154    0.41 7 56.8  56 
 BRR  HZ EP   1    849 55.07                             151    0.20 7 64.6 237 
 BRR  HZ I         850  8.81         5.7 0.50                          64.6 237 
 BRR  HN ES   1    850  9.12                             151   -0.09 7 64.6 237 
 GRA  SZ EP   1    849 55.11                             149   -0.23 7 68.5  42 
 GRA  SZ ES   1    850  9.95                             149   -0.09 7 68.5  42 
 GRA  SZ I         850 11.91         4.6 0.43                          68.5  42 
 BAR2 SZ EP   1    849 56.79                             141   -0.34 7 92.5 177 
 BAR2 SZ ES   1    850 13.38                             141    0.15 7 92.5 177 
 BAR2 SZ I         850 14.60         3.9 0.22                          92.5 177 
                                                                                
