 2013  526 0903 11.9 L   6.790 -73.108144.2  RSN 13 0.5 2.3LRSN                1
 GAP= 73        1.06       4.2     5.7  6.2 -0.3062E+01  0.5683E+01  0.6365E+01E
 Epicentro: LOS SANTOS - SANTANDER                                             3
 ACTION:UPD 13-06-20 09:53 OP:ep   STATUS:               ID:20130526090312 L   I
 OLDACT:UP  13-05-27 02:15 OP:CF   STATUS:               ID:20130526090312 L   3
 2013-05-26-0900-00M.COL___261                                                 6
 STAT SP IPHASW D HRMM SECON CODA AMPLIT PERI AZIMU VELO AIN AR TRES W  DIS CAZ7
 BAR2 SZ IP     D  9 3 31.46                             170    0.1210 23.4 201 
 BAR2 SZ ES   1    9 3 46.12                             170   -0.38 7 23.4 201 
 BAR2 SZ I         9 3 48.85        29.3 0.34            167           23.4 201 
 GIR2 SZ EP     C  9 3 31.51                             167    0.0710 33.3 343 
 GIR2 SZ ES   1    9 3 46.58                             167   -0.10 7 33.3 343 
 GIR2 SZ I         9 3 48.22        17.2 0.38            165           33.3 343 
 BRR  HZ IP     C  9 3 33.30                             151    0.1810 75.4 298 
 BRR  HN ES        9 3 50.49                             151    0.8110 75.4 298 
 BRR  HN I         9 3 53.92       111.1 0.14            149           75.4 298 
 PAM  SZ EP        9 3 34.26                             151    0.4210 75.7  37 
 PAM  SN ES   1    9 3 50.81                             151   -0.15 7 75.7  37 
 PAM  SN I         9 3 53.49        36.9 0.46            156           75.7  37 
 RUS  HZ EP        9 3 35.46                             144    0.0610 99.3 178 
 RUS  HN ES   1    9 3 53.44                             144   -0.29 7 99.3 178 
 RUS  HN I         9 3 54.53        31.8 0.30            145           99.3 178 
 TAM  HZ EP   1    9 3 39.52                             131    0.47 7  151 105 
 PTB  HZ EP   1    9 3 38.00                             131   -1.09 7  152 260 
 PTB  HN ES   4    9 3 58.87                             131   -1.44 0  152 260 
 PTB  HZ I         9 4  5.19        16.5 0.40            130            152 260 
 OCA  HZ EP        9 3 39.93                             129   -0.31 9  162 352 
 OCA  HN ES        9 4  1.46                             129   -0.89 9  162 352 
 NOR  HZ EP   1    9 3 47.32                             118   -0.51 6  237 235 
 NOR  HE ES   2    9 4 15.20                             118   -0.67 4  237 235 
 NOR  HE I         9 4 17.09        45.8 0.16            119            237 235 
 SML  HZ EP   4    9 3 48.00                             117   -0.73 0  246 335 
 SML  HN ES   4    9 4 16.59                             117   -0.88 0  246 335 
 CHI  HZ EP   2    9 3 49.55                             117    0.04 4  249 196 
 CHI  HN ES   4    9 4 17.47                             117   -1.39 0  249 196 
 HEL  HZ EP        9 3 53.32                             114    0.87 7  276 256 
 HEL  HN ES   2    9 4 24.49                             114    0.41 4  276 256 
 HEL  HN I         9 4 30.68         7.8 0.44            115            276 256 
 GUY2CHZ EP   1    9 3 56.23                             112    0.48 5  304 235 
 GUY2CHN ES   4    9 4 31.83                             112    1.88 0  304 235 
 GUY2CHN I         9 4 41.37        13.6 0.52                           304 235 
 PRA  HZ EP        9 4  4.86                             106   -0.63 6  393 210 
 PRA  HN ES   2    9 4 46.92                             106   -0.38 3  393 210 
 PRA  HN I         9 4 53.43         3.5 0.24            108            393 210 
                                                                                
