 2017 1026 0628 52.5 L   6.794 -73.054146.6  RSN  8 0.7 1.6LRSN                1
 GAP=246        1.52       7.1     7.9  8.9  0.7619E+01  0.1353E+02  0.3354E+01E
 Epicentro: LOS SANTOS - SANTANDER                                             3
 ACTION:UPD 17-11-07 19:37 OP:rebc STATUS:               ID:20171026062852 L   I
 OLDACT:UP  17-10-26 18:34 OP:dani STATUS:               ID:20171026062736     3
 OLDACT:REG 17-10-26 13:12 OP:dani STATUS:               ID:20171026062736     3
 2017-10-26-0628-00M.COL___399                                                 6
 STAT SP IPHASW D HRMM SECON CODA AMPLIT PERI AZIMU VELO AIN AR TRES W  DIS CAZ7
 BAR2 EZ EP        629 12.38                             170    0.0310 26.4 212 
 BAR2 EZ ES        629 28.17                             170    0.3810 26.4 212 
 BAR2 EZ I         629 29.25         7.3 0.18            165           26.4 212 
 BRR  HZ EP     C  629 14.38                             150    0.0410 80.5 296 
 BRR  HN ES        629 31.73                             150    0.4010 80.5 296 
 BRR  HZ I         629 34.05         6.1 0.12            147           80.5 296 
 RUS  HZ EP        629 16.25                             144   -0.0710 99.7 182 
 RUS  HN ES        629 34.91                             144    0.0410 99.7 182 
 RUS  HZ I         629 35.82         4.6 0.25            144           99.7 182 
 PTB  HZ EP   9    629 18.88                             130   -1.60 0  158 260 
 PTB  HN ES        629 40.40                             131   -0.27 9  158 260 
 PTB  HZ I         629 46.20         2.7 0.18            129            158 260 
 SPBC HZ EP        629 21.27                             128   -0.42 9  169 222 
 SPBC HN ES        629 43.39                             128   -1.03 9  169 222 
 SPBC HZ I         629 50.32         5.6 0.06            128            169 222 
 ZAR  HZ EP        629 25.09                             121   -0.96 8  214 291 
 ZAR  HN ES        629 51.94                             121   -0.23 8  214 291 
 ZAR  HZ I         629 56.65         3.2 0.28            121            214 291 
 NOR  HZ EP        629 29.85                             118    0.67 8  243 236 
 NOR  HN ES        629 56.85                             118   -0.90 8  243 236 
 NOR  HZ I         630  3.04         3.3 0.15            118            243 236 
 GUY2CHZ EP        629 38.09                             112    1.00 7  309 236 
 GUY2CHN ES        630 13.54                             112    1.70 7  309 236 
 GUY2CHZ I         630 18.64         1.7 0.33                           309 236 
                                                                                
