 2011  426 0920 22.7 L   6.780 -73.133140.6  RSN  8 0.3 1.9LRSN                1
 GAP=139        0.80       3.6     5.7  6.5 -0.6869E+01  0.3343E+01 -0.3880E+01E
 Epicentro: LOS SANTOS - SANTANDER                                             3
 ACTION:UP  11-06-22 15:33 OP:REBC STATUS:               ID:20110426092022 L   I
 2011-04-26-0917-56S.COL___137                                                 6
 STAT SP IPHASW D HRMM SECON CODA AMPLIT PERI AZIMU VELO SNR AR TRES W  DIS CAZ7
 BAR2 SZ EP        920 41.66                             171     0.010   21 195 
 BAR2 SZ ES   1    920 56.06                             171    -0.4 7   21 195 
 BAR2 SZ I         920 57.70        18.5 0.11                            21 195 
 BRR  HZ EP        920 43.63                             151     0.210   73 300 
 BRR  HZ I         920 44.03        34.1 0.10                            73 300 
 BRR  HN ES   1    921  0.10                             151     0.5 7   73 300 
 PAM  SZ EP        920 44.76                             149     0.410   78  38 
 PAM  SZ I         920 45.45         6.4 0.17                            78  38 
 PAM  SN ES   1    921  1.45                             149     0.1 7   78  38 
 RUS  HZ EP   1    920 45.70                             143     0.0 7   98 177 
 RUS  HN ES   1    921  3.55                             143    -0.2 7   98 177 
 RUS  HZ I         921  5.34        10.8 0.34                            98 177 
 BRI  SZ EP   1    920 46.49                             140     0.3 7  110  20 
 BRI  SZ I         921  6.76        20.7 0.30                           110  20 
 GRA  SZ EP   1    920 47.43                             135    -0.2 7  128  17 
 GRA  SZ ES   1    921  6.93                             135    -0.1 7  128  17 
 GRA  SZ I         921  8.58        16.5 0.50                           128  17 
 OCA  SZ EP        920 50.48                             128    -0.3 9  163 353 
 OCA  SZ ES   1    921 12.19                             128    -0.6 7  163 353 
 OCA  SZ I         921 13.48        12.6 0.24                           163 353 
 NOR  SN ES   1    921 25.50                             117    -0.2 6  235 235 
                                                                                
