 2016  526 0031 33.8 L   6.825 -73.122145.1  RSN 14 0.6 2.4LRSN                1
 GAP=138        1.25       3.7     5.1  6.5 -0.4785E+01  0.9068E+01  0.4237E+01E
 Epicentro: LOS SANTOS - SANTANDER                                             3
 ACTION:UPD 16-08-18 17:49 OP:cam  STATUS:               ID:20160526003133 L   I
 OLDACT:UP  16-05-26 14:28 OP:mher STATUS:               ID:20160526002743     3
 OLDACT:UP  16-05-26 14:28 OP:mher STATUS:               ID:20160526002743     3
 OLDACT:UP  16-05-26 14:27 OP:mher STATUS:               ID:20160526002743     3
 OLDACT:REG 16-05-26 12:28 OP:mh   STATUS:               ID:20160526002743     3
 2016-05-26-0027-43M.COL___319                                                 6
 STAT SP IPHASW D HRMM SECON CODA AMPLIT PERI AZIMU VELO AIN AR TRES W  DIS CAZ7
 BAR2 EZ IP     D  031 53.56                             169    0.1610 26.6 195 
 BAR2 EZ ES        032  8.77                             169    0.0710 26.6 195 
 BAR2 EZ I         032 11.28        42.7 0.30            167           26.6 195 
 BRR  HZ EP        031 54.97                             152    0.0610 72.3 296 
 BRR  HN ES        032 12.11                             152    0.7110 72.3 296 
 BRR  HZ I         032 16.46        26.9 0.18            149           72.3 296 
 PAM  EZ EP        031 56.25                             152    0.5510 73.6  39 
 PAM  EN ES        032 13.15                             152    0.3610 73.6  39 
 PAM  EZ I         032 15.49        61.4 0.56            156           73.6  39 
 RUS  HZ EP     D  031 57.43                             143   -0.2210  103 178 
 RUS  HN ES        032 15.95                             143   -0.3210  103 178 
 RUS  HZ I         032 17.38        16.8 0.50            146            103 178 
 PTB  HZ EP        032  0.05                             131   -0.92 9  151 258 
 PTB  HN ES        032 21.30                             131   -0.89 9  151 258 
 PTB  HZ I         032 27.23        39.5 0.22            131            151 258 
 OCA  HZ EP        032  1.90                             130    0.09 9  158 352 
 OCA  HN ES        032 22.75                             130   -0.92 9  158 352 
 OCA  HZ I         032 31.87        46.4 0.20            132            158 352 
 SPBC HZ EP        032  2.30                             128   -0.29 9  167 219 
 SPBC HN ES        032 25.13                             128    0.07 9  167 219 
 SPBC HZ I         032 32.86        45.8 0.38            129            167 219 
 CHI  HZ EP   1    032 11.48                             117   -0.32 6  252 196 
 CHI  HN ES        032 40.71                             117   -0.75 8  252 196 
 CHI  HZ I         032 44.67        10.8 0.44            119            252 196 
 ROSC BZ EP        032 13.22                             116    0.95 8  256 211 
 ROSC BN ES   1    032 42.99                             116    0.70 6  256 211 
 ROSC BZ I         032 51.06        25.5 0.45            118            256 211 
 HEL  HZ EP        032 14.08                             114   -0.23 7  275 255 
 HEL  HN ES        032 46.29                             114    0.36 7  275 255 
 HEL  HZ I         032 51.86        16.3 0.36            115            275 255 
 URE  HZ EP   4    032 16.37                             113    1.40 0  285 291 
 URE  HN ES   4    032 44.92                             113   -2.19 0  285 291 
 URE  HZ I         032 54.03        12.5 0.24            114            285 291 
 CBOC HZ EP   1    032 21.89                             110    0.84 5  337 252 
 CBOC HN ES        032 58.78                             110    0.86 7  337 252 
 CBOC HZ I         033  3.95         4.3 0.46            111            337 252 
 ANIL HZ EP        032 24.30                             108    0.30 6  361 225 
 ANIL HN ES   4    033  5.08                             108    1.91 0  361 225 
 PRA  HZ EP   1    032 27.09                             106   -0.62 4  396 210 
 PRA  HN ES        033 10.24                             106    0.47 6  396 210 
 PRA  HZ I         033 14.82        12.7 0.62            108            396 210 
                                                                                
