 2012  326 0502 56.3 L   6.468 -73.610106.4  RSN  6 0.3 1.7LRSN                1
 GAP=137        0.58       4.9     3.4  6.6  0.4850E+01  0.5133E+01  0.1177E+02E
 ACTION:UP  12-03-31 23:22 OP:EP   STATUS:               ID:20120326050256 L   I
 2012-03-26-0500-00M.COL___196                                                 6
 STAT SP IPHASW D HRMM SECON CODA AMPLIT PERI AZIMU VELO SNR AR TRES W  DIS CAZ7
 BAR2 SZ IP        5 3 12.32                             153     0.010   49  74 
 BAR2 SZ ES   1    5 3 24.63                             153    -0.2 7   49  74 
 BAR2 SZ I         5 3 25.84        29.6 0.32                            49  74 
 BRR  HZ IP     D  5 3 13.25                             143    -0.210   72 351 
 BRR  HN ES   1    5 3 27.05                             143     0.3 7   72 351 
 BRR  HZ I         5 3 29.55         6.6 0.12                            72 351 
 RUS  HZ EP        5 3 15.49                             138     0.210   86 137 
 RUS  HN ES   3    5 3 30.13                             138     0.1 2   86 137 
 PTB  HZ EP        5 3 15.07                             135    -0.210   94 275 
 PTB  HN ES   1    5 3 29.93                             135     0.0 7   94 275 
 PAM  SZ EP   3    5 3 19.24                             123    -0.9 2  139  46 
 ZAR  HZ EP   2    5 3 24.47                             116     0.8 4  178 309 
                                                                                
