 2016 1026 0713 30.4 L   6.799 -73.129140.0  RSN 12 0.4 1.6LRSN                1
 GAP=139        0.97       2.9     4.1  5.2 -0.2738E+01  0.4599E+01  0.2214E+01E
 Epicentro: LOS SANTOS - SANTANDER                                             3
 ACTION:UPD 16-11-09 19:23 OP:rebc STATUS:               ID:20161026071330 L   I
 OLDACT:UP  16-10-26 19:13 OP:cog  STATUS:               ID:20161026070645d    3
 OLDACT:UP  16-10-26 19:12 OP:cog  STATUS:               ID:20161026070645d    3
 OLDACT:UP  16-10-26 19:12 OP:cog  STATUS:               ID:20161026070645d    3
 OLDACT:DUP 16-10-26 19:06 OP:cog  STATUS:               ID:20161026070645d    3
 OLDACT:REG 16-10-26 13:50 OP:cog  STATUS:               ID:20161026070644     3
 2016-10-26-0707-00M.COL___325                                                 6
 STAT SP IPHASW D HRMM SECON CODA AMPLIT PERI AZIMU VELO AIN AR TRES W  DIS CAZ7
 BAR2 EZ EP        713 49.27                             170   -0.1210 23.6 195 
 BAR2 EZ ES        714  4.03                             170   -0.1410 23.6 195 
 BAR2 EZ I         714  7.09        12.8 0.34            169           23.6 195 
 BRR  HZ EP        713 51.14                             151    0.0610 72.9 298 
 BRR  HN ES        714  7.92                             151    0.7510 72.9 298 
 BRR  HZ I         714 13.50         9.9 0.12            152           72.9 298 
 PAM  EZ EP        713 52.12                             150    0.1310 76.3  38 
 PAM  EN ES        714  9.01                             150    0.2210 76.3  38 
 PAM  EZ I         714 11.16        15.4 0.50            154           76.3  38 
 RUS  HZ EP        713 53.73                             143    0.1110  100 177 
 RUS  HN ES        714 11.79                             143    0.0910  100 177 
 RUS  HZ I         714 13.29         5.1 0.38            144            100 177 
 PTB  HZ EP        713 57.35                             130    0.23 9  150 259 
 PTB  HN ES        714 17.51                             130   -0.42 9  150 259 
 PTB  HZ I         714 19.41         6.4 0.24            132            150 259 
 OCA  HZ EP        713 58.04                             128   -0.31 9  161 352 
 OCA  HN ES        714 19.46                             128   -0.65 9  161 352 
 SPBC HZ EP        713 58.47                             127   -0.15 9  164 220 
 SPBC HN ES        714 19.95                             127   -0.64 9  164 220 
 SPBC HZ I         714 23.31         6.6 0.12            129            164 220 
 NOR  HN ES   4    714 32.32                             117   -1.43 0  236 235 
 CHI  HZ EP        714  8.75                             116    0.87 8  249 196 
 CHI  HN ES        714 36.54                             116   -0.53 8  249 196 
 CHI  HZ I         714 39.89         1.8 0.18            118            249 196 
 HEL  HZ EP        714 10.36                             113   -0.22 8  274 256 
 HEL  HN ES        714 42.52                             113    0.64 8  274 256 
 GUY2CHZ EP   4    714 15.20                             111    1.23 0  303 235 
 GUY2CHN ES   4    714 51.78                             111    3.87 0  303 235 
 GUY2CHZ I         714 54.18         1.9 0.26                           303 235 
 PRA  HZ EP        714 23.96                             105    0.09 6  393 210 
 PRA  HN ES   4    715  4.54                             105   -1.01 0  393 210 
 PRA  HZ I         715 10.95         1.2 0.54            107            393 210 
 ORTC HZ EP   2    714 24.38                             105    0.08 3  396 216 
 ORTC HN ES   2    715  6.78                             105    0.48 3  396 216 
 ORTC HZ I         715 11.23         0.9 0.30            107            396 216 
                                                                                
