 2015  426 0245 36.3 L   6.799 -73.167131.5  RSN 19 0.5 2.1LRSN                1
 GAP=134        1.04       2.6     3.3  4.9 -0.7085E+00  0.6224E+01  0.1194E+01E
 Epicentro: LOS SANTOS - SANTANDER                                             3
 ACTION:UPD 15-06-03 16:57 OP:cam  STATUS:               ID:20150426024536 L   I
 OLDACT:REG 15-04-26 12:40 OP:ak   STATUS:               ID:20150426023747     3
 2015-04-26-0237-47M.COL___274                                                 6
 STAT SP IPHASW D HRMM SECON CODA AMPLIT PERI AZIMU VELO AIN AR TRES W  DIS CAZ7
 BAR2 EZ IP     C  245 54.12                             170   -0.0310 22.9 184 
 BAR2 EZ ES        246  7.61                             170   -0.5110 22.9 184 
 BAR2 EZ I         246  9.91        31.2 0.20            168           22.9 184 
 BRR  HZ IP     C  245 56.11                             150    0.3610 69.2 300 
 BRR  HN ES        246 11.38                             150    0.4210 69.2 300 
 PAM  SZ IP     C  245 57.21                             147    0.1410 79.0  41 
 PAM  SN ES        246 13.70                             147    0.3910 79.0  41 
 PAM  SZ I         246 16.02        50.3 0.46            153           79.0  41 
 RUS  HZ EP        245 58.17                             141   -0.4610  101 175 
 RUS  HN ES        246 16.04                             141   -0.0410  101 175 
 RUS  HZ I         246 18.24        19.4 0.42            143            101 175 
 PTB  HZ EP        246  1.01                             129   -0.86 9  145 259 
 PTB  HN ES        246 21.50                             129   -0.35 9  145 259 
 PTB  HZ I         246 26.08        10.6 0.15            129            145 259 
 SPBC HZ EP        246  3.47                             126   -0.07 9  162 218 
 SPBC HN ES        246 24.89                             126    0.07 9  162 218 
 SPBC HZ I         246 28.34        20.6 0.22            127            162 218 
 ZAR  HZ EP        246  7.61                             119    0.03 9  202 292 
 ZAR  HN ES        246 32.49                             119    0.47 9  202 292 
 ZAR  HZ I         246 39.19        14.4 0.25            120            202 292 
 NOR  HZ EP        246 10.90                             115   -0.07 8  233 234 
 NOR  HE ES        246 38.17                             115    0.11 8  233 234 
 NOR  HZ I         246 45.42         8.0 0.18            117            233 234 
 SML  HZ EP   4    246 10.75                             114   -1.27 0  243 336 
 SML  HN ES        246 39.84                             114   -0.08 8  243 336 
 SML  HZ I         246 42.58        24.1 0.04            116            243 336 
 CHI  HZ EP        246 14.01                             114    0.89 8  248 195 
 CHI  HN ES        246 41.62                             114   -0.25 8  248 195 
 CHI  HZ I         246 44.96         6.4 0.21            116            248 195 
 HEL  HZ EP        246 16.00                             112    0.49 8  270 256 
 HEL  HN ES        246 45.27                             112   -0.87 8  270 256 
 HEL  HZ I         246 51.18         6.6 0.28            113            270 256 
 URE  HZ EP        246 15.57                             111   -0.85 7  282 292 
 URE  HE ES        246 47.43                             111   -0.33 7  282 292 
 URE  HZ I         246 58.65         9.2 0.14            112            282 292 
 GUY2CHZ EP        246 18.87                             110   -0.14 7  299 235 
 GUY2CHN ES        246 53.11                             110    0.75 7  299 235 
 GUY2CHZ I         246 59.11         5.1 0.28                           299 235 
 LL2C HZ EP        246 18.99                             109   -0.23 7  306 354 
 LL2C HN ES   4    246 54.84                             109    2.11 0  306 354 
 CBOC HZ EP        246 23.02                             107    0.67 7  331 252 
 CBOC HE ES        246 58.60                             107    0.30 7  331 252 
 CBOC HZ I         247  2.41         2.6 0.54            108            331 252 
 TOL  SZ IP        246 24.20                             107    0.43 7  342 224 
 TOL  SE ES        247  1.73                             107    0.90 7  342 224 
 TOL  SZ I         247  8.71         4.9 0.40            108            342 224 
 MON  HZ IP   4 D  246 21.95                             106   -2.58 0  352 309 
 MON  HN ES   4    246 59.03                             106   -3.16 0  352 309 
 MON  HZ I         247  1.26         4.7 0.18            107            352 309 
 ORTC HZ EP        246 29.14                             104   -0.40 6  394 216 
 ORTC HN ES        247 10.64                             104   -0.47 6  394 216 
 ORTC HZ I         247 17.14         4.1 0.48            105            394 216 
 SJC  HZ EP   4    246 29.18                             103   -2.06 0  408 327 
 SJC  HE ES   4    247  9.82                             103   -4.31 0  408 327 
 SJC  HZ I         247 13.84         6.6 0.50            105            408 327 
                                                                                
