 2017  326 0549 29.2 L   6.788 -73.163149.4  RSN  4 0.3 1.4LRSN                1
 GAP=135        0.79       4.4     4.2  6.9 -0.2147E+01  0.2285E+01  0.4055E+01E
 Epicentro: LOS SANTOS - SANTANDER                                             3
 ACTION:UPD 17-05-25 18:45 OP:jn   STATUS:               ID:20170326054929 L   I
 OLDACT:REG 17-03-26 12:46 OP:cog  STATUS:               ID:20170326054745     3
 2017-03-26-0548-00M.COL___355                                                 6
 STAT SP IPHASW D HRMM SECON CODA AMPLIT PERI AZIMU VELO AIN AR TRES W  DIS CAZ7
 BRR  HZ EP        549 50.93                             153    0.2410 70.2 300 
 BRR  HE ES        550  7.85                             153    0.4010 70.2 300 
 PAM  EZ EP        549 52.14                             151    0.2010 79.6  40 
 PAM  EN ES        550  9.24                             151   -0.4310 79.6  40 
 PAM  EZ I         550 11.26         7.2 0.48            151           79.6  40 
 RUS  HZ EP        549 53.07                             145   -0.1610 99.4 175 
 RUS  HE ES        550 12.17                             145    0.1910 99.4 175 
 RUS  HZ I         550 12.94         2.9 0.32            146           99.4 175 
 PTB  HZ EP        549 56.21                             133   -0.07 9  146 259 
 PTB  HN ES        550 16.97                             133   -0.43 9  146 259 
                                                                                
