 2011  226 0637 52.4 L   6.819 -73.158140.1  RSN  4 0.3 1.4LRSN                1
 GAP=167        0.58       3.5    18.7  7.1 -0.6113E+01 -0.6839E+00 -0.1009E+02E
 Epicentro: LOS SANTOS - SANTANDER                                             3
 ACTION:UP  11-03-28 15:11 OP:jfem STATUS:               ID:20110226063752 L   I
 2011-02-26-0636-04S.COL___136                                                 6
 STAT SP IPHASW D HRMM SECON CODA AMPLIT PERI AZIMU VELO SNR AR TRES W  DIS CAZ7
 BAR2 SZ EP   1    638 11.54                             169     0.1 7   25 186 
 BAR2 SZ ES   1    638 26.43                             169     0.2 7   25 186 
 BAR2 SZ I         638 28.08         9.4 0.18                            25 186 
 RUS  HZ EP   1    638 15.51                             142    -0.3 7  103 175 
 RUS  HZ I         638 16.39         3.1 0.11                           103 175 
 RUS  HN ES   1    638 33.83                             142    -0.2 7  103 175 
 GRA  SZ EP   1    638 17.28                             136     0.3 7  124  18 
 GRA  SZ ES   2    638 35.96                             136    -0.2 5  124  18 
 GRA  SZ I         638 39.88         3.5 0.45                           124  18 
 OCA  SZ EP   1    638 20.18                             129     0.1 7  158 354 
 OCA  SZ ES   2    638 41.05                             129    -0.6 5  158 354 
 OCA  SZ I         638 46.56         3.2 0.40                           158 354 
                                                                                
