 2012  626 0429 51.1 L   6.727 -73.202154.6  RSN  4 0.3 1.0LRSN                1
 GAP=225        0.55       6.1     6.0  7.4  0.1827E+02 -0.5736E+01 -0.3767E+01E
 Epicentro: VILLANUEVA - SANTANDER                                             3
 ACTION:UPD 12-08-06 17:52 OP:ep   STATUS:               ID:20120626042951 L   I
 2012-06-26-0430-00M.COL___201                                                 6
 STAT SP IPHASW D HRMM SECON CODA AMPLIT PERI AZIMU VELO AIN AR TRES W  DIS CAZ7
 BAR2 SZ EP   1    430 11.28                             174   -0.33 7 15.1 172 
 BRR  HZ EP   1    430 13.05                             154   -0.06 7 70.3 307 
 BRR  HE ES   1    430 30.49                             154    0.18 7 70.3 307 
 RUS  HZ EP   1    430 15.69                             148    0.51 7 93.2 172 
 RUS  HN ES   1    430 33.84                             148   -0.17 7 93.2 172 
 RUS  HZ I         430 36.49         1.5 0.20                          93.2 172 
 PTB  HZ EP   1    430 17.94                             135   -0.16 7  140 262 
 PTB  HN ES   1    430 39.21                             135    0.02 7  140 262 
 PTB  HZ I         430 41.80         1.6 0.16                           140 262 
                                                                                
