 2016 1226 0733 13.7 L   6.723 -73.197147.4  RSN  4 0.3 0.9LRSN                1
 GAP=225        0.68       5.4     5.3  6.8  0.1463E+02 -0.3893E+01 -0.2519E+01E
 Epicentro: VILLANUEVA - SANTANDER                                             3
 ACTION:UPD 17-01-11 20:19 OP:rebc STATUS:               ID:20161226073313 L   I
 OLDACT:REG 16-12-26 12:58 OP:edw  STATUS:               ID:20161226072745     3
 2016-12-26-0728-00M.COL___360                                                 6
 STAT SP IPHASW D HRMM SECON CODA AMPLIT PERI AZIMU VELO AIN AR TRES W  DIS CAZ7
 BAR2 HZ EP        733 33.13                             174   -0.2310 14.6 174 
 BRR  HZ EP        733 34.87                             153   -0.1210 71.0 307 
 BRR  HN ES        733 51.78                             153    0.1710 71.0 307 
 RUS  HZ EP        733 36.94                             146   -0.1010 92.7 172 
 RUS  HN ES        733 55.40                             146    0.1410 92.7 172 
 RUS  HZ I         733 55.44         1.2 0.48            146           92.7 172 
 PTB  HZ EP        733 40.63                             134    0.48 9  141 262 
 PTB  HN ES        734  0.48                             134   -0.32 9  141 262 
                                                                                
