 2013  626 0859 51.0 L   6.790 -73.138146.7  RSN 12 0.5 2.1LRSN                1
 GAP=138        1.07       3.4     5.0  5.9 -0.2462E+01  0.9616E+01  0.2645E+01E
 Epicentro: LOS SANTOS - SANTANDER                                             3
 ACTION:UPD 14-01-08 09:57 OP:ep   STATUS:               ID:20130626085951 L   I
 OLDACT:REG 13-06-26 09:37 OP:jn   STATUS:               ID:20130626085836     3
 2013-06-26-0858-36M.COL___229                                                 6
 STAT SP IPHASW D HRMM SECON CODA AMPLIT PERI AZIMU VELO AIN AR TRES W  DIS CAZ7
 BAR2 SZ EP        9 0 10.84                             171    0.1710 22.4 193 
 BAR2 SZ ES        9 0 25.84                             171   -0.2210 22.4 193 
 BAR2 SZ I         9 0 27.82        28.9 0.30            168           22.4 193 
 GIR2 SZ EP        9 0 10.90                             167    0.1310 32.6 349 
 BRR  HZ IP     C  9 0 12.65                             152    0.3810 72.5 299 
 BRR  HN ES        9 0 29.61                             152    0.7010 72.5 299 
 BRR  HZ I         9 0 33.84        23.2 0.22            150           72.5 299 
 PAM  SZ EP     C  9 0 13.54                             151    0.2610 77.7  38 
 PAM  SN ES        9 0 30.78                             151    0.0810 77.7  38 
 PAM  SZ I         9 0 31.52        12.0 0.18            156           77.7  38 
 RUS  HZ EP        9 0 14.95                             144    0.2410 99.4 177 
 RUS  HN ES        9 0 32.64                             144   -0.6010 99.4 177 
 RUS  HZ I         9 0 34.23        16.7 0.44            145           99.4 177 
 PTB  HZ EP        9 0 17.37                             132   -0.68 9  148 259 
 PTB  HZ EPg  1    9 0 17.83                             132   -0.22 7  148 259 
 PTB  HN ES   1    9 0 39.31                             132    0.12 7  148 259 
 PTB  HZ I         9 0 40.60        15.1 0.58            131            148 259 
 OCA  HN ES   1    9 0 40.57                             130   -1.11 7  162 353 
 OCA  HZ I         9 0 45.16        21.3 0.16            131            162 353 
 NOR  HZ EP        9 0 26.66                             119   -0.08 8  235 235 
 NOR  HN ES   1    9 0 54.11                             119   -0.55 6  235 235 
 NOR  HZ I         9 1  0.12        15.0 0.28            119            235 235 
 SML  HZ EP        9 0 27.45                             117   -0.33 8  245 335 
 SML  HN ES   1    9 0 55.95                             117   -0.56 6  245 335 
 CHI  HZ EP        9 0 29.40                             117    0.79 8  248 195 
 CHI  HE ES   1    9 0 58.11                             117    0.13 6  248 195 
 CHI  HZ I         9 1  5.87         4.7 0.28            118            248 195 
 HEL  HZ EP   1    9 0 32.00                             115    0.72 6  273 256 
 HEL  HE ES   1    9 1  3.44                             115    0.71 6  273 256 
 HEL  HZ I         9 1 10.21        10.8 0.26            115            273 256 
 PRA  HZ EP        9 0 44.35                             107   -0.09 6  391 210 
 PRA  HN ES        9 1 25.30                             107   -0.86 6  391 210 
 PRA  HZ I         9 1 35.20         6.5 0.32            107            391 210 
                                                                                
