 2013 1126 0445 23.5 L   6.798 -73.116143.6  RSN 10 0.4 1.8LRSN                1
 GAP=140        0.99       3.0     4.7  6.1 -0.1766E+01  0.9704E+01 -0.1729E+01E
 Epicentro: LOS SANTOS - SANTANDER                                             3
 ACTION:UPD 14-01-09 16:31 OP:ep   STATUS:               ID:20131126044523 L   I
 OLDACT:DUP 13-11-26 09:25 OP:mh   STATUS:               ID:20131126044001d    3
 OLDACT:REG 13-11-26 08:08 OP:mh   STATUS:               ID:20131126044000     3
 2013-11-26-0440-00M.COL___282                                                 6
 STAT SP IPHASW D HRMM SECON CODA AMPLIT PERI AZIMU VELO AIN AR TRES W  DIS CAZ7
 BAR2 SZ EP        445 43.01                             170    0.0910 23.9 198 
 BAR2 SZ ES   1    445 57.47                             170   -0.57 7 23.9 198 
 BAR2 SZ I         445 59.11        21.6 0.17            167           23.9 198 
 BRR  HZ EP        445 44.91                             151    0.2810 74.2 297 
 BRR  HN ES        446  1.47                             151    0.4010 74.2 297 
 BRR  HZ I         446  4.99         8.8 0.18            146           74.2 297 
 PAM  SZ EP   1    445 45.99                             151    0.58 7 75.5  38 
 PAM  SN ES        446  2.74                             151    0.2710 75.5  38 
 PAM  SZ I         446  5.04         9.9 0.53            152           75.5  38 
 RUS  HZ EP        445 47.44                             143    0.3910  100 178 
 RUS  HN ES        446  4.99                             143   -0.4010  100 178 
 RUS  HZ I         446  6.78         3.4 0.31            143            100 178 
 PTB  HZ EP        445 50.03                             131   -0.59 9  151 259 
 PTB  HZ I         446 12.84         8.3 0.16            127            151 259 
 OCA  HZ EP        445 51.43                             129   -0.31 9  161 352 
 OCA  HN ES        446 13.01                             129   -0.73 9  161 352 
 OCA  HZ I         446 17.21         4.8 0.14            127            161 352 
 SPBC HZ EP   1    445 52.47                             128    0.42 7  165 220 
 SPBC HN ES        446 14.29                             128   -0.01 9  165 220 
 ZAR  HZ EP        445 56.36                             121    0.20 8  207 292 
 ZAR  HN ES        446 21.70                             121    0.09 8  207 292 
 ZAR  HZ I         446 27.95         6.7 0.27            118            207 292 
 NOR  HZ EP        445 59.44                             118    0.02 8  237 235 
 NOR  HN ES   1    446 27.35                             118   -0.05 6  237 235 
 NOR  HZ I         446 31.47         3.0 0.20            115            237 235 
 SML  HZ EP        445 59.59                             117   -0.62 8  245 335 
 SML  HN ES   1    446 29.77                             117    0.95 6  245 335 
 SML  HZ I         446 32.45        10.3 0.12            115            245 335 
                                                                                
