 2014  426 0814 26.7 L   6.803 -73.138141.3  RSN 10 0.4 1.8LRSN                1
 GAP=184        0.69       2.5     4.1  6.3  0.7136E+00  0.9554E+00 -0.2741E+00E
 Epicentro: LOS SANTOS - SANTANDER                                             3
 OLDACT:REG 14-04-26 15:37 OP:spq  STATUS:               ID:20140426080814     3
 ACTION:UPD 14-05-13 23:11 OP:nd   STATUS:               ID:20140426081426 L   I
 OLDACT:UP  14-04-26 18:34 OP:spq  STATUS:               ID:20140426080814     3
 2014-04-26-0808-14M.COL___242                                                 6
 STAT SP IPHASW D HRMM SECON CODA AMPLIT PERI AZIMU VELO AIN AR TRES W  DIS CAZ7
 RUS  HZ EP        814 49.87                             143   -0.1610  101 177 
 RUS  HE ES   1    815  8.28                             143    0.05 7  101 177 
 PTB  HZ EP        814 53.32                             131   -0.06 9  149 259 
 PTB  HN ES        815 14.54                             131    0.34 9  149 259 
 PTB  HZ I         815 20.19         5.7 0.24            132            149 259 
 OCA  HN ES   1    815 16.41                             129   -0.01 7  160 353 
 SPBC HZ EP        814 55.42                             128    0.49 9  164 219 
 SPBC HN ES        815 16.66                             128   -0.29 9  164 219 
 SPBC HZ I         815 24.46         7.9 0.44            130            164 219 
 ZAR  HZ EP        814 58.44                             121   -0.48 9  205 292 
 ZAR  HE ES        815 24.29                             121    0.24 9  205 292 
 ZAR  HZ I         815 30.75         4.3 0.18            123            205 292 
 NOR  HZ EP        815  2.59                             117    0.33 8  236 235 
 NOR  HN ES   1    815 29.37                             117   -0.64 6  236 235 
 NOR  HZ I         815 35.67         2.6 0.68            120            236 235 
 SML  HZ EP   2    815  3.51                             116    0.44 4  244 335 
 SML  HE ES   1    815 30.99                             116   -0.46 6  244 335 
 SML  HZ I         815 35.51         8.7 0.08            120            244 335 
 GUY2CHZ EP   1    815 10.59                             111    0.39 5  302 235 
 GUY2CHE ES   4    815 47.02                             111    2.89 0  302 235 
 GUY2CHZ I         815 58.03         3.5 1.86                           302 235 
 RREF HZ EP   1    815 13.15                             110    0.41 5  323 229 
 RREF HN ES   1    815 48.35                             110   -0.32 5  323 229 
 PRA  HZ EP   2    815 19.35                             106   -0.80 3  393 210 
 PRA  HE ES   1    816  1.55                             106   -0.29 4  393 210 
                                                                                
