 2017 1026 0024 56.9 L   6.771 -73.164145.0  RSN  6 0.4 1.4LRSN                1
 GAP=136        0.99       5.0     5.2  9.9  0.5689E+01 -0.8067E+01 -0.9933E+01E
 Epicentro: LOS SANTOS - SANTANDER                                             3
 ACTION:UPD 17-11-07 19:36 OP:rebc STATUS:               ID:20171026002456 L   I
 OLDACT:REG 17-10-26 12:39 OP:dani STATUS:               ID:20171026001636     3
 2017-10-26-0018-00M.COL___459                                                 6
 STAT SP IPHASW D HRMM SECON CODA AMPLIT PERI AZIMU VELO AIN AR TRES W  DIS CAZ7
 BRR  HZ EP        025 17.96                             152   -0.0510 71.1 302 
 BRR  HN ES        025 34.83                             152    0.4010 71.1 302 
 BRR  HZ I         025 36.59         8.5 0.51            154           71.1 302 
 PAM  EZ EP        025 18.99                             149   -0.3210 81.1  39 
 RUS  HZ EP        025 20.56                             144    0.1510 97.6 175 
 RUS  HN ES        025 38.62                             144   -0.0910 97.6 175 
 RUS  HZ I         025 40.11         4.6 0.26            147           97.6 175 
 PTB  HZ EP        025 23.90                             132    0.28 9  145 260 
 PTB  HN ES        025 43.51                             132   -0.92 9  145 260 
 PTB  HZ I         025 46.65         1.5 0.16            134            145 260 
 SPBC HE ES        025 47.28                             130    0.34 9  159 219 
 ZAR  HN ES        025 54.75                             122    0.25 9  203 293 
                                                                                
