 2017  326 0537 54.6 L   6.756 -73.144151.6  RSN  6 0.4 2.1LRSN                1
 GAP=121        0.98       4.5     4.8  6.5  0.3087E+01 -0.1013E+01  0.8161E+01E
 Epicentro: LOS SANTOS - SANTANDER                                             3
 ACTION:UPD 17-05-25 18:45 OP:jn   STATUS:               ID:20170326053754 L   I
 OLDACT:REG 17-03-26 12:45 OP:cog  STATUS:               ID:20170326052740     3
 2017-03-26-0528-00M.COL___355                                                 6
 STAT SP IPHASW D HRMM SECON CODA AMPLIT PERI AZIMU VELO AIN AR TRES W  DIS CAZ7
 BAR2 EZ EP        538 14.97                             173    0.0910 18.6 193 
 BAR2 EZ ES        538 30.52                             173   -0.1610 18.6 193 
 BAR2 EZ I         538 32.84        26.0 0.40            172           18.6 193 
 BRR  HZ EP        538 16.76                             153    0.2010 73.8 302 
 BRR  HN ES        538 34.09                             153    0.4310 73.8 302 
 BRR  HZ I         538 37.99        22.7 0.20            152           73.8 302 
 PAM  EZ EP        538 17.79                             151    0.1010 81.1  37 
 PAM  EE ES        538 35.16                             151   -0.5210 81.1  37 
 PAM  EZ I         538 37.20        30.4 0.48            154           81.1  37 
 RUS  HZ EP        538 19.19                             146    0.5610 95.7 176 
 RUS  HE ES        538 37.71                             146    0.3710 95.7 176 
 RUS  HZ I         538 38.91        20.3 0.34            148           95.7 176 
 PTB  HZ EP        538 21.80                             133   -0.22 9  147 261 
 PTB  HN ES        538 42.74                             133   -0.64 9  147 261 
 PTB  HZ I         538 48.41        10.3 0.22            134            147 261 
 PTGC HZ EP        538 38.20                             113   -0.04 7  304 158 
 PTGC HN ES        539 11.65                             113   -0.60 7  304 158 
                                                                                
