 2013  226 0011  2.6 L   6.074 -73.688117.1  RSN  7 0.4 1.9LRSN                1
 GAP=119        0.94       4.8     4.4  8.6  0.8875E+01  0.1150E+02  0.2506E+01E
 Epicentro: BOLIVAR - SANTANDER                                                3
 ACTION:UPD 13-03-12 09:35 OP:ep   STATUS:               ID:20130226001102 L   I
 2013-02-26-0008-50M.COL___191                                                 6
 STAT SP IPHASW D HRMM SECON CODA AMPLIT PERI AZIMU VELO AIN AR TRES W  DIS CAZ7
 RUS  HZ EP        011 21.35                             147    0.0410 69.9 107 
 RUS  HN ES        011 35.85                             147   -0.0810 69.9 107 
 RUS  HN I         011 37.13        13.4 0.24            149           69.9 107 
 BAR2 SZ EP        011 22.02                             143    0.3710 80.0  44 
 BAR2 SZ ES        011 36.09                             143   -0.4510 80.0  44 
 BAR2 SZ I         011 37.73        75.2 0.40            143           80.0  44 
 PTB  HZ IP     D  011 22.07                             137   -0.7810 99.3 301 
 PTB  HZ I         011 22.34         5.4 0.22            138           99.3 301 
 PTB  HN ES        011 38.97                             137    0.2910 99.3 301 
 BRR  HZ EP        011 24.21                             132    0.0910  114 359 
 BRR  HN ES        011 41.30                             132    0.3610  114 359 
 BRR  HN I         011 44.10        16.1 0.16            133            114 359 
 CHI  HN ES   2    011 50.55                             122    0.73 5  160 182 
 PAM  SZ EP   2    011 31.45                             119    0.40 4  178  38 
 ZAR  HN ES        011 57.09                             115   -0.05 9  203 321 
                                                                                
