 2017  826 0955 13.2 L   6.771 -73.130144.0  RSN  7 0.3 1.3LRSN                1
 GAP=114        0.60       2.8     3.2  4.5  0.2186E+01 -0.1892E+01 -0.3670E+00E
 Epicentro: LOS SANTOS - SANTANDER                                             3
 ACTION:UPD 17-09-04 20:24 OP:rebc STATUS:               ID:20170826095513 L   I
 OLDACT:UP  17-08-26 17:20 OP:and  STATUS:               ID:20170826094738     3
 OLDACT:UP  17-08-26 17:19 OP:and  STATUS:               ID:20170826094738     3
 OLDACT:UP  17-08-26 17:19 OP:and  STATUS:               ID:20170826094738     3
 OLDACT:REG 17-08-26 17:14 OP:and  STATUS:               ID:20170826094738     3
 2017-08-26-0948-00M.COL___408                                                 6
 STAT SP IPHASW D HRMM SECON CODA AMPLIT PERI AZIMU VELO AIN AR TRES W  DIS CAZ7
 BAR2 EZ IP     D  955 32.43                             172   -0.0910 20.6 196 
 BAR2 EZ ES        955 47.68                             172    0.0510 20.6 196 
 BAR2 EZ I         955 48.82         7.4 0.16            172           20.6 196 
 BRR  HZ IP     D  955 34.00                             151   -0.3010 74.3 300 
 BRR  HN ES        955 51.01                             151    0.2310 74.3 300 
 PAM  EZ IP     C  955 35.15                             150   -0.1310 78.9  37 
 PAM  EN ES   2    955 52.31                             150   -0.22 5 78.9  37 
 PAM  EZ I         955 54.33         3.7 0.56            150           78.9  37 
 RUS  HZ EP        955 36.61                             145    0.1110 97.3 177 
 RUS  HN ES        955 54.92                             145    0.2210 97.3 177 
 RUS  HZ I         955 55.81         2.1 0.52            146           97.3 177 
 SPBC HN ES        956  3.04                             129   -0.37 9  162 220 
 YPLC HZ EP        955 42.57                             127    0.10 9  173 151 
 ZAR  HZ EP   3    955 47.73                             122    1.95 2  207 293 
 ZAR  HN ES        956 11.36                             122    0.14 8  207 293 
 ZAR  HZ I         956 17.08         2.3 0.31            121            207 293 
                                                                                
