 2016 1126 0633 37.8 L   6.730 -73.175150.0  RSN  5 0.4 1.2LRSN                1
 GAP=145        0.57       6.2     3.3  4.9 -0.2208E+00  0.1184E+01 -0.6507E+01E
 Epicentro: VILLANUEVA - SANTANDER                                             3
 ACTION:UPD 17-10-26 21:11 OP:lp   STATUS:               ID:20161126063337 L   I
 OLDACT:UP  16-11-26 14:48 OP:dani STATUS:               ID:20161126062747d    3
 OLDACT:DUP 16-11-26 14:46 OP:dani STATUS:               ID:20161126062747d    3
 OLDACT:UP  16-11-26 14:46 OP:dani STATUS:               ID:20161126062746d    3
 OLDACT:DUP 16-11-26 14:44 OP:dani STATUS:               ID:20161126062746d    3
 2016-11-26-0628-00M.COL___349                                                 6
 STAT SP IPHASW D HRMM SECON CODA AMPLIT PERI AZIMU VELO AIN AR TRES W  DIS CAZ7
 BAR2 EZ ES        634 13.54                             174    0.1410 15.3 183 
 BRR  HZ EP        633 59.59                             153    0.1210 72.5 305 
 BRR  HN ES        634 16.53                             153    0.1510 72.5 305 
 BRR  HZ I         634 17.49         2.2 0.27            148           72.5 305 
 PAM  EZ EP        634  0.68                             149   -0.2610 85.4  38 
 PTB  HZ EP        634  4.70                             134   -0.00 9  143 262 
 PTB  HN ES        634 25.50                             134   -0.20 9  143 262 
 PTB  HZ I         634 30.55         1.9 0.13            131            143 262 
 ZAR  HZ EP   3    634 12.35                             124    1.83 2  204 294 
 ZAR  HN ES        634 35.97                             124   -0.07 9  204 294 
 ZAR  HZ I         634 42.21         1.9 0.47            121            204 294 
                                                                                
