 2015  126 0116 44.1 L   6.773 -73.150143.4  RSN  5 0.3 1.7LRSN                1
 GAP=137        0.86       4.4     3.9  7.2  0.1330E+01  0.6051E+01  0.2116E+01E
 Epicentro: LOS SANTOS - SANTANDER                                             3
 ACTION:UPD 15-03-02 15:42 OP:nd   STATUS:               ID:20150126011644 L   I
 OLDACT:DUP 15-01-26 15:19 OP:cam  STATUS:               ID:20150126010815d    3
 2015-01-26-0108-14M.COL___274                                                 6
 STAT SP IPHASW D HRMM SECON CODA AMPLIT PERI AZIMU VELO AIN AR TRES W  DIS CAZ7
 BRR  HZ EP   1    117  5.08                             152    0.07 7 72.2 301 
 BRR  HN ES        117 21.85                             152    0.5010 72.2 301 
 BRR  HZ I         117 26.22        10.8 0.14            153           72.2 301 
 PAM  SZ EP     D  117  6.05                             150   -0.1310 80.0  38 
 PAM  SN ES        117 23.13                             150   -0.3110 80.0  38 
 PAM  SZ I         117 25.25         6.7 0.66            152           80.0  38 
 RUS  HZ EP        117  7.73                             144    0.3710 97.6 176 
 RUS  HE ES        117 25.61                             144    0.0610 97.6 176 
 RUS  HN I         117 26.83         7.0 0.22            148           97.6 176 
 PTB  HZ EP        117 10.42                             132   -0.31 9  147 260 
 PTB  HN ES        117 30.92                             132   -0.62 9  147 260 
 PTB  HZ I         117 33.17         7.1 0.12            135            147 260 
 ZAR  HZ EP   1    117 16.61                             122    0.19 6  205 293 
 ZAR  HN ES        117 41.96                             122    0.30 9  205 293 
                                                                                
