 2011  326 0354  0.5 L   6.734 -73.109143.1  RSN  5 0.4 1.8LRSN                1
 GAP=174        0.90       6.9     9.0  9.1 -0.1386E+02 -0.1621E+02 -0.8306E+01E
 Epicentro: JORDAN - SANTANDER                                                 3
 ACTION:UP  11-06-16 14:35 OP:jfem STATUS:               ID:20110326035400 L   I
 2011-03-26-0351-42S.COL___139                                                 6
 STAT SP IPHASW D HRMM SECON CODA AMPLIT PERI AZIMU VELO SNR AR TRES W  DIS CAZ7
 BAR2 SZ EP   1    354 20.31                             173     0.6 7   18 208 
 BAR2 SZ ES   1    354 34.09                             173    -0.6 7   18 208 
 BAR2 SZ I         354 35.92        16.6 0.35                            18 208 
 BRR  HZ IP        354 21.65                             150    -0.110   78 302 
 BRR  HZ I         354 21.92        22.8 0.13                            78 302 
 BRR  HE ES   1    354 38.63                             150     0.3 7   78 302 
 PAM  SZ IP        354 22.90                             149     0.310   81  34 
 PAM  SZ I         354 23.18         6.3 0.18                            81  34 
 PAM  SE ES   2    354 40.17                             149     0.3 5   81  34 
 GRA  SZ EP        354 25.64                             135    -0.410  132  15 
 GRA  SZ I         354 26.81         7.2 0.29                           132  15 
 GRA  SZ ES   1    354 45.83                             135    -0.1 7  132  15 
 OCA  SZ EP   2    354 28.77                             127    -0.6 5  168 352 
 OCA  SZ ES   1    354 52.00                             127     0.2 7  168 352 
 OCA  SZ I         354 58.72         5.7 0.46                           168 352 
                                                                                
