 2016  326 0424 52.0 L   6.775 -73.151140.5  RSN  5 0.2 1.1LRSN                1
 GAP=137        0.64       3.3     3.0  5.0 -0.1694E+00  0.5740E+01 -0.2693E+01E
 Epicentro: LOS SANTOS - SANTANDER                                             3
 ACTION:UPD 16-05-13 21:27 OP:cam  STATUS:               ID:20160326042452 L   I
 OLDACT:DUP 16-03-26 15:26 OP:ak   STATUS:               ID:20160326041745d    3
 2016-03-26-0417-44M.COL___292                                                 6
 STAT SP IPHASW D HRMM SECON CODA AMPLIT PERI AZIMU VELO AIN AR TRES W  DIS CAZ7
 BAR2 EZ EP        425 10.81                             171   -0.1110 20.5 190 
 BAR2 EZ ES        425 25.50                             171   -0.2010 20.5 190 
 BAR2 EZ I         425 27.03         4.1 0.26            171           20.5 190 
 PAM  EZ EP        425 13.76                             149   -0.0310 79.9  39 
 PAM  EE ES        425 30.81                             149    0.0010 79.9  39 
 PAM  EZ I         425 32.84         3.4 0.54            152           79.9  39 
 RUS  HZ EP        425 15.22                             143    0.2010 97.9 176 
 RUS  HN ES        425 33.28                             143    0.2910 97.9 176 
 RUS  HZ I         425 34.08         0.9 0.16            148           97.9 176 
 PTB  HZ EP        425 18.01                             131   -0.41 9  147 260 
 PTB  HN ES        425 38.84                             131   -0.21 9  147 260 
 PTB  HZ I         425 44.22         1.9 0.18            131            147 260 
 ZAR  HZ EP        425 24.22                             121    0.08 9  205 293 
 ZAR  HE ES        425 49.69                             121    0.47 9  205 293 
 ZAR  HZ I         425 56.01         2.1 0.24            122            205 293 
                                                                                
