 2013  226 0054 55.7 L   6.774 -73.154145.4  RSN  6 0.3 1.8LRSN                1
 GAP= 98        0.71       3.8     3.5  5.1 -0.1111E+01  0.1105E+01  0.1047E+01E
 Epicentro: LOS SANTOS - SANTANDER                                             3
 ACTION:UPD 13-03-12 09:35 OP:ep   STATUS:               ID:20130226005455 L   I
 2013-02-26-0048-50M.COL___191                                                 6
 STAT SP IPHASW D HRMM SECON CODA AMPLIT PERI AZIMU VELO AIN AR TRES W  DIS CAZ7
 BAR2 SZ EP        055 15.20                             172    0.0010 20.3 189 
 BAR2 SZ I         055 15.54        15.4 0.32            169           20.3 189 
 BAR2 SZ ES        055 30.11                             172   -0.3310 20.3 189 
 BRR  HZ EP        055 17.02                             152    0.2010 71.8 301 
 BRR  HN ES        055 33.80                             152    0.4910 71.8 301 
 BRR  HN I         055 34.58        15.1 0.18            151           71.8 301 
 PAM  SZ EP        055 18.17                             150    0.1510 80.2  39 
 PAM  SN ES        055 35.16                             150   -0.2910 80.2  39 
 RUS  HZ EP        055 19.25                             145    0.0610 97.8 175 
 RUS  HN ES        055 37.76                             145    0.2310 97.8 175 
 RUS  HN I         055 39.11         5.1 0.16            144           97.8 175 
 PTB  HZ EP        055 22.08                             132   -0.40 9  146 260 
 PTB  HN ES        055 43.18                             132   -0.20 9  146 260 
 PTB  HN I         055 48.28        17.1 0.22            131            146 260 
 TAM  HZ EP   2    055 23.43                             130    0.09 5  155 104 
                                                                                
