 2012 1026 0030 51.2 L   6.749 -73.105139.4  RSN  4 0.1 1.5LRSN                1
 GAP=144        0.35       3.2     3.6  6.0  0.1884E+01  0.1291E+01  0.1694E+01E
 Epicentro: LOS SANTOS - SANTANDER                                             3
 ACTION:UPD 12-11-22 17:05 OP:ep   STATUS:               ID:20121026003051 L   I
 2012-10-26-0030-00M.COL___228                                                 6
 STAT SP IPHASW D HRMM SECON CODA AMPLIT PERI AZIMU VELO AIN AR TRES W  DIS CAZ7
 BRR  HZ EP   1    031 11.93                             149   -0.18 7 77.9 301 
 BRR  HN ES   2    031 28.48                             149    0.10 5 77.9 301 
 BRR  HN I         031 31.30        11.1 0.18                          77.9 301 
 PAM  SZ EP   1    031 12.82                             149   -0.07 7 79.2  34 
 PAM  SN ES   2    031 29.86                             149    0.09 5 79.2  34 
 RUS  HZ EP   1    031 14.14                             144    0.20 7 94.7 179 
 RUS  HE ES   2    031 31.49                             144   -0.15 5 94.7 179 
 RUS  HN I         031 34.42         2.4 0.24                          94.7 179 
 ZAR  HE ES   2    031 49.53                             120    0.08 4  210 293 
 ZAR  HN I         031 54.43         4.4 0.24                           210 293 
                                                                                
