 2015  826 0434 58.8 L   6.789 -73.081142.2  RSN 11 0.4 1.8LRSN                1
 GAP=189        0.86       2.6     4.2  4.9  0.1528E+00  0.7034E+01  0.2717E+01E
 Epicentro: LOS SANTOS - SANTANDER                                             3
 ACTION:UPD 15-09-15 23:05 OP:cam  STATUS:               ID:20150826043458 L   I
 OLDACT:REG 15-08-26 13:46 OP:ak   STATUS:               ID:20150826042745     3
 2015-08-26-0427-45M.COL___346                                                 6
 STAT SP IPHASW D HRMM SECON CODA AMPLIT PERI AZIMU VELO AIN AR TRES W  DIS CAZ7
 BAR2 EZ EP        435 18.37                             170    0.3410 24.5 207 
 BAR2 EZ ES        435 33.11                             170    0.0910 24.5 207 
 BAR2 EZ I         435 34.26        10.3 0.13            166           24.5 207 
 BRR  HZ EP        435 20.34                             150    0.3610 78.1 297 
 BRR  HN ES        435 37.07                             150    0.5810 78.1 297 
 BRR  HZ I         435 42.40         6.7 0.15            148           78.1 297 
 RUS  HZ EP        435 22.02                             143   -0.0810 99.1 180 
 RUS  HN ES        435 39.95                             143   -0.3210 99.1 180 
 RUS  HZ I         435 42.16         4.9 0.42            144           99.1 180 
 OCA  HZ EP        435 26.84                             128   -0.20 9  162 351 
 OCA  HN ES        435 48.41                             128   -0.67 9  162 351 
 OCA  HZ I         435 49.79        15.1 0.41            131            162 351 
 ZAR  HZ EP   1    435 32.53                             121    0.78 6  211 292 
 ZAR  HN ES        435 56.85                             121   -0.61 8  211 292 
 ZAR  HZ I         436  3.26         9.1 0.36            121            211 292 
 CHI  HZ EP   1    435 35.70                             116   -0.69 6  249 197 
 CHI  HN ES        436  5.68                             116   -0.03 8  249 197 
 CHI  HZ I         436 12.49         2.2 0.25            117            249 197 
 HEL  HZ EP        435 40.19                             113    0.62 7  279 256 
 HEL  HE ES        436 11.14                             113   -0.24 7  279 256 
 GUY2CHZ EP        435 42.58                             111   -0.25 7  306 236 
 GUY2CHN ES        436 17.24                             111    0.06 7  306 236 
 GUY2CHZ I         436 25.21         1.9 0.19                           306 236 
 TOL  SZ EP   2    435 47.47                             108    0.07 3  348 226 
 TOL  SN ES        436 25.11                             108   -0.20 6  348 226 
 TOL  SZ I         436 31.40         2.5 0.35            109            348 226 
 PRA  HZ EP        435 52.81                             106    0.31 6  395 211 
 PRA  HN ES        436 34.12                             106   -0.26 6  395 211 
 PRA  HZ I         436 40.99         3.2 0.80            107            395 211 
 ORTC HZ EP        435 53.17                             106    0.18 6  399 217 
 ORTC HN ES        436 35.30                             106    0.05 6  399 217 
 ORTC HZ I         436 40.01         1.5 0.39            107            399 217 
 SJC  HZ EP   4    435 52.27                             105   -2.56 0  414 326 
 SJC  HN ES   4    436 33.89                             105   -4.64 0  414 326 
                                                                                
