 2013  726 0206 24.7 L   6.784 -73.141152.8  RSN  8 0.4 1.9LRSN                1
 GAP=186        0.89       4.4     5.4  6.5  0.9851E+01  0.1482E+01 -0.5017E+01E
 Epicentro: LOS SANTOS - SANTANDER                                             3
 ACTION:UPD 13-08-12 10:40 OP:ep   STATUS:               ID:20130726020624 L   I
 OLDACT:REG 13-07-26 08:10 OP:cam  STATUS:               ID:20130726015959     3
 2013-07-26-0159-59M.COL___266                                                 6
 STAT SP IPHASW D HRMM SECON CODA AMPLIT PERI AZIMU VELO AIN AR TRES W  DIS CAZ7
 BAR2 SZ EP        2 6 45.09                             172   -0.0210 21.7 192 
 BAR2 SZ ES   1    2 7  1.03                             172   -0.02 7 21.7 192 
 BAR2 SZ I         2 7  1.91        11.2 0.28            172           21.7 192 
 GIR2 SZ EP   1    2 6 45.23                             167    0.01 7 33.1 350 
 GIR2 SZ ES   1    2 7  1.15                             167   -0.10 7 33.1 350 
 BRR  HZ IP     C  2 6 46.96                             153    0.3210 72.5 300 
 BRR  HN ES        2 7  4.43                             153    0.6410 72.5 300 
 BRR  HZ I         2 7 10.50        10.3 0.22            151           72.5 300 
 RUS  HZ EP        2 6 49.46                             146    0.4710 98.8 176 
 RUS  HN ES        2 7  7.34                             146   -0.6210 98.8 176 
 RUS  HZ I         2 7  8.89         7.2 0.26            150           98.8 176 
 PTB  HZ EP        2 6 52.10                             134   -0.12 9  148 260 
 PTB  HN ES        2 7 13.59                             134   -0.13 9  148 260 
 PTB  HZ I         2 7 14.96         7.0 0.14            134            148 260 
 ZAR  HE ES        2 7 23.32                             124   -0.13 9  205 293 
 ZAR  HZ I         2 7 30.12        11.6 0.32            124            205 293 
 SML  HZ EP   1    2 7  1.76                             119   -0.12 6  246 335 
 SML  HN ES        2 7 30.32                             119   -0.60 8  246 335 
 SML  HZ I         2 7 33.35        11.6 0.10            120            246 335 
 SJC  HZ EP   4    2 7 19.41                             107   -1.26 0  411 327 
 SJC  HN ES   4    2 8  2.70                             107   -1.65 0  411 327 
 SJC  HZ I         2 8  7.61         1.8 0.38            108            411 327 
                                                                                
