 2011  126 0735  1.4 L   6.810 -72.971140.2  RSN  4 0.4 1.1LRSN                1
 GAP=178        0.57       7.4    30.9  8.6 -0.1943E+03 -0.6473E+02  0.1404E+02E
 Epicentro: CEPITA - SANTANDER                                                 3
 ACTION:UP  11-02-08 08:42 OP:pat  STATUS:               ID:20110126073501 L   I
 2011-01-26-0731-21S.COL___137                                                 6
 STAT SP IPHASW D HRMM SECON CODA AMPLIT PERI AZIMU VELO SNR AR TRES W  DIS CAZ7
 BAR2 SZ ES   2    735 35.53                             166    -0.1 5   34 224 
 RUS  HZ EP   1    735 24.87                             142     0.1 7  102 187 
 RUS  HE ES   2    735 42.76                             142    -0.2 5  102 187 
 RUS  HZ I         735 44.65         2.0 0.39                           102 187 
 GRA  SZ EP   1    735 25.85                             137     0.1 7  120   9 
 GRA  SZ ES   2    735 44.51                             137    -0.1 5  120   9 
 GRA  SZ I         735 46.69         2.4 0.40                           120   9 
 CHI  HZ EP   2    735 38.63                             115    -0.9 4  255 199 
 CHI  HN ES   2    736  9.88                             115     0.6 4  255 199 
                                                                                
