 2017  626 0513 14.2 L   6.784 -73.124142.2  RSN 21 0.5 2.1LRSN                1
 GAP=107        0.90       2.7     2.6  4.5  0.5651E+00  0.1616E+01 -0.1224E+01E
 Epicentro: LOS SANTOS - SANTANDER                                             3
 ACTION:UPD 17-09-14 16:55 OP:jn   STATUS:               ID:20170626051314 L   I
 OLDACT:UP  17-06-26 15:14 OP:and  STATUS:               ID:20170626050736     3
 OLDACT:UP  17-06-26 15:13 OP:and  STATUS:               ID:20170626050736     3
 OLDACT:UP  17-06-26 15:13 OP:and  STATUS:               ID:20170626050736     3
 OLDACT:UP  17-06-26 15:13 OP:and  STATUS:               ID:20170626050736     3
 OLDACT:UP  17-06-26 15:11 OP:and  STATUS:               ID:20170626050736     3
 OLDACT:UP  17-06-26 15:10 OP:and  STATUS:               ID:20170626050736     3
 OLDACT:UP  17-06-26 15:08 OP:and  STATUS:               ID:20170626050736     3
 OLDACT:UP  17-06-26 15:05 OP:and  STATUS:               ID:20170626050736     3
 OLDACT:UP  17-06-26 15:04 OP:and  STATUS:               ID:20170626050736     3
 OLDACT:REG 17-06-26 13:03 OP:and  STATUS:               ID:20170626050736     3
 2017-06-26-0508-00M.COL___358                                                 6
 STAT SP IPHASW D HRMM SECON CODA AMPLIT PERI AZIMU VELO AIN AR TRES W  DIS CAZ7
 BAR2 EZ IP     C  513 33.00                             171   -0.3410 22.1 197 
 BAR2 EZ ES        513 48.06                             171   -0.2410 22.1 197 
 BAR2 EZ I         513 53.46        25.0 0.26            169           22.1 197 
 BRR  HZ IP     C  513 35.08                             151   -0.0210 74.2 299 
 BRR  HN ES        513 52.10                             151    0.6710 74.2 299 
 BRR  HZ I         513 53.11        32.6 0.20            149           74.2 299 
 PTB  HZ EP   9    513 40.01                             131   -1.02 0  150 260 
 PTB  HN ES        514  0.24                             131   -0.72 9  150 260 
 PTB  HZ I         514  6.90        16.7 0.29            130            150 260 
 TAM  HZ IP     C  513 41.30                             130   -0.00 9  152 105 
 TAM  HN ES        514  2.79                             130    0.32 9  152 105 
 TAM  HZ I         514  3.35        15.0 0.26            134            152 105 
 SPBC HZ EP        513 41.85                             128   -0.55 9  163 220 
 SPBC HN ES        514  4.23                             128   -0.20 9  163 220 
 SPBC HZ I         514  7.76        21.2 0.05            128            163 220 
 YPLC HZ IP     C  513 43.18                             126   -0.25 9  174 152 
 YPLC HN ES        514  6.32                             126    0.06 9  174 152 
 YPLC HZ I         514  9.50         8.9 0.20            129            174 152 
 ZAR  HZ EP        513 46.13                             121   -0.55 8  207 292 
 ZAR  HE ES   2    514 12.23                             121    0.19 4  207 292 
 ZAR  HZ I         514 17.34        20.6 0.52            121            207 292 
 NOR  HZ EP        513 49.61                             118   -0.18 8  236 235 
 NOR  HN ES   2    514 17.34                             118   -0.23 4  236 235 
 NOR  HZ I         514 23.38        17.1 0.28            118            236 235 
 CHI  HZ EP   2    513 50.94                             117   -0.61 4  248 196 
 CHI  HN ES        514 20.72                             117    0.02 8  248 196 
 CHI  HZ I         514 23.63         3.2 0.22            118            248 196 
 ROSC BZ EP   4    513 53.18                             116    1.12 0  252 212 
 ROSC BN ES   4    514 24.61                             116    2.99 0  252 212 
 ROSC BZ I         514 30.59        10.7 0.40            117            252 212 
 HEL  HZ EP        513 55.10                             114    0.69 8  274 256 
 HEL  HN ES        514 26.02                             114    0.22 8  274 256 
 HEL  HZ I         514 31.66         8.3 0.32            114            274 256 
 GUY2CHZ EP        513 57.87                             112    0.15 7  302 235 
 GUY2CHN ES   3    514 33.22                             112    1.54 2  302 235 
 GUY2CHZ I         514 39.16         8.2 0.34                           302 235 
 PTGC HZ EP   9    513 55.90                             111   -1.67 0  306 159 
 PTGC HN ES        514 29.12                             112   -0.64 7  306 159 
 PTGC HZ I         514 30.13         6.9 0.22            113            306 159 
 LL6C HZ EP        514  0.41                             109    0.47 7  327 357 
 CBOC HZ EP        514  1.02                             109   -0.11 7  335 253 
 CBOC HN ES        514 38.37                             109    0.60 7  335 253 
 CBOC HZ I         514 45.31         3.6 0.36            110            335 253 
 DBB  EZ EP   3    514  0.76                             109   -1.03 2  342 275 
 DBB  EN ES   4    514 36.80                             109   -2.14 0  342 275 
 DBB  EZ I         514 40.61         3.4 0.21            109            342 275 
 ARGC HZ EP   3    514  5.18                             107    1.20 2  362 340 
 ARGC HN ES        514 43.42                             107    0.59 6  362 340 
 ARGC HZ I         514 53.80         3.2 0.38            109            362 340 
 APAC HN ES   3    514 49.38                             105   -1.62 1  401 288 
 APAC HZ I         515  0.32         3.8 0.46            106            401 288 
 SJC  HZ EP   4    514  7.49                             105   -2.45 0  412 327 
 SJC  HN ES   3    514 49.93                             105   -3.52 1  412 327 
 SJC  HZ I         514 53.57         3.9 0.50            106            412 327 
 VALLCHN ES        514 52.88                             105   -0.52 6  412 358 
 CRJC HZ EP   4    514 14.20                             103   -2.56 0  469   3 
 CRJC HN ES   4    515  2.40                             103   -3.19 0  469   3 
 CRJC HZ I         515  6.29         3.6 0.22            104            469   3 
                                                                                
