 2016  326 0335  7.9 L   6.824 -73.142143.9  RSN 11 0.3 1.5LRSN                1
 GAP=136        0.79       2.5     3.1  4.6 -0.2080E+01  0.5244E+01  0.1900E-01E
 Epicentro: LOS SANTOS - SANTANDER                                             3
 ACTION:UPD 16-05-13 21:27 OP:cam  STATUS:               ID:20160326033507 L   I
 OLDACT:REG 16-03-26 12:47 OP:ak   STATUS:               ID:20160326032744     3
 2016-03-26-0327-44M.COL___293                                                 6
 STAT SP IPHASW D HRMM SECON CODA AMPLIT PERI AZIMU VELO AIN AR TRES W  DIS CAZ7
 BAR2 EZ EP        335 27.48                             169    0.1610 26.1 190 
 BAR2 EZ ES        335 42.88                             169    0.3710 26.1 190 
 BAR2 EZ I         335 44.08         3.3 0.16            163           26.1 190 
 PAM  EZ EP        335 30.10                             151    0.3610 75.0  41 
 PAM  EN ES        335 46.39                             151   -0.4110 75.0  41 
 PAM  EZ I         335 49.48         2.7 0.18            149           75.0  41 
 RUS  HZ EP        335 31.59                             143   -0.0310  103 176 
 RUS  HN ES        335 50.32                             143    0.1610  103 176 
 RUS  HZ I         335 51.25         1.9 0.34            135            103 176 
 PTB  HZ EP   2    335 34.00                             131   -0.76 5  149 258 
 PTB  HN ES        335 55.37                             131   -0.38 9  149 258 
 PTB  HZ I         336  0.81         4.5 0.09            126            149 258 
 OCA  HZ EP        335 35.58                             130   -0.20 9  158 353 
 OCA  HN ES        335 57.49                             130   -0.06 9  158 353 
 SPBC HZ EP        335 36.25                             128   -0.19 9  166 219 
 SPBC HN ES        335 58.44                             128   -0.30 9  166 219 
 SPBC HZ I         336  5.62         6.6 0.16            122            166 219 
 ZAR  HZ EP        335 39.82                             122   -0.30 9  203 291 
 ZAR  HE ES        336  5.96                             122    0.67 9  203 291 
 ZAR  HZ I         336 10.93         3.9 0.29            118            203 291 
 NOR  HZ EP        335 43.74                             118    0.05 8  237 234 
 NOR  HE ES        336 11.23                             118   -0.41 8  237 234 
 NOR  HZ I         336 15.04         3.0 0.20            113            237 234 
 CHI  HZ EP        335 45.64                             116   -0.11 8  251 195 
 CHI  HZ I         336 16.99         1.7 0.42            111            251 195 
 HEL  HZ EP   2    335 48.37                             114    0.27 4  273 255 
 HEL  HN ES   2    336 19.57                             114    0.08 4  273 255 
 HEL  HZ I         336 26.65         2.6 0.30            110            273 255 
 GUY2CHZ EP        335 52.30                             112    0.70 7  303 234 
 GUY2CHN ES        336 25.96                             112    0.24 7  303 234 
 GUY2CHZ I         336 36.09         1.9 0.38                           303 234 
                                                                                
