 2013  126 0919 20.4 L   6.834 -73.172142.2  RSN  6 0.4 1.5LRSN                1
 GAP=106        1.01       7.7     5.3  9.1  0.3881E+01 -0.6562E+01 -0.2889E+02E
 Epicentro: LOS SANTOS - SANTANDER                                             3
 ACTION:UPD 13-02-15 09:16 OP:ep   STATUS:               ID:20130126091920 L   I
 2013-01-26-0918-41M.COL___183                                                 6
 STAT SP IPHASW D HRMM SECON CODA AMPLIT PERI AZIMU VELO AIN AR TRES W  DIS CAZ7
 BAR2 SZ ES        919 54.24                             169   -0.4510 26.7 182 
 BAR2 SZ I         919 57.48         6.2 0.40            170           26.7 182 
 BRR  HZ EP        919 40.92                             153    0.0210 66.9 297 
 PAM  SZ EP        919 42.64                             150    0.4810 76.5  43 
 RUS  HZ EP        919 44.37                             142    0.3010  105 175 
 RUS  HN ES        920  2.75                             142    0.2010  105 175 
 PTB  HZ EP        919 46.19                             132   -0.67 9  146 257 
 PTB  HE ES        920  7.88                             132    0.36 9  146 257 
 PTB  HN I         920 12.83         5.8 0.26            132            146 257 
 TAM  HZ EP        919 47.79                             129   -0.34 9  159 106 
                                                                                
