 2014  226 0708 49.5 L   6.793 -73.163136.2  RSN 12 0.6 1.8LRSN                1
 GAP=135        1.41       3.6     5.2  7.9 -0.3367E+01  0.1647E+02  0.1056E+01E
 Epicentro: LOS SANTOS - SANTANDER                                             3
 OLDACT:REG 14-02-26 11:02 OP:stll STATUS:               ID:20140226070811     3
 ACTION:UPD 14-03-10 08:13 OP:ep   STATUS:               ID:20140226070850dL   I
 OLDACT:UP  14-02-26 12:24 OP:stll STATUS:               ID:20140226070811     3
 2014-02-26-0708-11M.COL___233                                                 6
 STAT SP IPHASW D HRMM SECON CODA AMPLIT PERI AZIMU VELO AIN AR TRES W  DIS CAZ7
 BAR2 SZ EP        7 9  8.34                             170    0.4110 22.3 185 
 BAR2 SZ ES        7 9 22.68                             170    0.3610 22.3 185 
 BAR2 SZ I         7 9 24.75        18.3 0.28            170           22.3 185 
 PAM  SZ EP        7 9 11.15                             148    0.3510 79.2  40 
 PAM  SN ES        7 9 27.67                             148    0.2510 79.2  40 
 PAM  SZ I         7 9 29.92         6.7 0.58            152           79.2  40 
 RUS  HZ EP        7 9 12.24                             142   -0.0110 99.9 175 
 RUS  HN ES        7 9 30.06                             142    0.0510 99.9 175 
 RUS  SZ I         7 9 31.96         7.4 0.74            145           99.9 175 
 PTB  HZ EP        7 9 15.15                             130   -0.34 9  146 259 
 PTB  HN ES        7 9 35.50                             130   -0.27 9  146 259 
 PTB  SZ I         7 9 42.37         6.7 0.48            131            146 259 
 OCA  HZ EP        7 9 17.18                             127    0.07 9  161 354 
 OCA  HN ES        7 9 37.95                             127   -0.72 9  161 354 
 OCA  SZ I         7 9 43.91         5.8 0.52            129            161 354 
 ZAR  HN ES        7 9 45.99                             120    0.12 9  203 293 
 NOR  HZ EP        7 9 24.32                             117   -0.12 8  233 234 
 NOR  HN ES        7 9 50.91                             117   -0.81 8  233 234 
 NOR  SZ I         7 9 53.59         2.9 0.52            118            233 234 
 SML  HZ EP        7 9 24.73                             115   -0.84 8  244 336 
 SML  HE ES        7 9 53.34                             115   -0.39 8  244 336 
 SML  SZ I         7 9 58.29         6.9 0.08            117            244 336 
 CHI  HZ EP        7 9 26.49                             115   -0.03 8  247 195 
 CHI  HE ES        7 9 53.87                             115   -1.54 8  247 195 
 CHI  SZ I         7 9 59.95         5.1 1.86            117            247 195 
 HEL  HZ EP        7 9 30.44                             113    1.46 8  270 256 
 HEL  HN ES        710  0.23                             113    0.43 8  270 256 
 HEL  SZ I         710  6.69         3.7 0.68            114            270 256 
 GUY2CHZ EP        7 9 33.50                             111    1.08 7  299 235 
 GUY2CHE ES        710  6.95                             111    1.03 7  299 235 
 GUY2CSZ I         710 14.48         3.9 1.14                           299 235 
 PRA  HZ EP        7 9 42.36                             105   -0.13 6  390 209 
 PRA  HN ES        710 23.34                             105   -0.49 6  390 209 
 PRA  SZ I         710 31.94         4.8 2.12            107            390 209 
                                                                                
