 2017  926 0820 47.3 L   6.841 -73.047153.2  RSN  7 0.4 1.5LRSN                1
 GAP=250        1.00       5.1     6.7  7.6  0.1110E+02  0.1943E+02  0.1277E+02E
 Epicentro: LOS SANTOS - SANTANDER                                             3
 ACTION:UPD 17-10-05 19:16 OP:rebc STATUS:               ID:20170926082047 L   I
 OLDACT:UP  17-09-26 18:31 OP:osc  STATUS:               ID:20170926081737     3
 OLDACT:UP  17-09-26 18:30 OP:osc  STATUS:               ID:20170926081737     3
 OLDACT:UP  17-09-26 18:29 OP:osc  STATUS:               ID:20170926081737     3
 OLDACT:REG 17-09-26 13:21 OP:osc  STATUS:               ID:20170926081737     3
 2017-09-26-0818-00M.COL___438                                                 6
 STAT SP IPHASW D HRMM SECON CODA AMPLIT PERI AZIMU VELO AIN AR TRES W  DIS CAZ7
 BAR2 EZ EP        821  8.71                             168    0.7210 31.3 209 
 BAR2 EZ ES        821 24.02                             168   -0.1210 31.3 209 
 BAR2 EZ I         821 24.72         7.4 0.18            168           31.3 209 
 BRR  HZ EP        821  8.98                             151   -0.7210 79.1 292 
 BRR  HN ES        821 27.60                             151    0.4310 79.1 292 
 RUS  HZ EP   4    821 13.20                             144    1.11 0  105 182 
 RUS  HN ES        821 31.22                             144   -0.2110  105 182 
 RUS  HZ I         821 33.23         3.1 0.34            144            105 182 
 ZAR  HN ES        821 47.13                             123   -0.35 8  213 290 
 NOR  HE ES        821 53.81                             119   -0.04 8  246 235 
 CHI  HZ EP        821 26.20                             118   -0.01 8  256 197 
 CHI  HN ES        821 56.30                             118   -0.26 8  256 197 
 GUY2CHZ EP        821 32.88                             113    0.33 7  313 235 
 GUY2CHE ES        822  8.20                             113    0.36 7  313 235 
 GUY2CHZ I         822 16.96         1.8 0.64                           313 235 
                                                                                
