 2010  226 0958 59.2 L   7.364 -73.897 18.2  RSN  4 0.4 1.6LRSN                1
 GAP=242        0.73       2.9    12.7  6.7  0.5992E+01  0.1228E+02  0.2582E+00E
 Epicentro: PUERTO WILCHES - SANTANDER                                         3
 ACTION:UP  10-08-24 09:50 OP:vdl  STATUS:               ID:20100226095859 L   I
 2010-02-26-0956-59S.COL___093                                                 6
 STAT SP IPHASW D HRMM SECON CODA AMPLIT PERI AZIMU VELO SNR AR TRES W  DIS CAZ7
 BRR  HZ IP        959  5.69                             116     0.210   35 144 
 BRR  HN ES   2    959 10.71                             116     0.2 5   35 144 
 BRR  HZ I         959 12.56        61.4 0.16                            35 144 
 BAR2 SZ EP   2    959 17.61                              98    -0.1 5  116 137 
 BAR2 SZ ES   2    959 31.61                              98    -0.6 5  116 137 
 OCA  SZ EP        959 17.58                              98     0.010  116  33 
 OCA  SZ ES   2    959 32.19                              98     0.2 5  116  33 
 OCA  SZ I         959 35.75        24.3 0.39                           116  33 
 RUS  BZ EP   2    959 26.14                              56    -0.9 4  186 151 
 RUS  BN ES   2    959 49.51                              56     0.7 4  186 151 
 RUS  BZ I         959 50.09         3.2 0.50                           186 151 
                                                                                
