 2017  126 0648 37.6 L   6.849 -73.166132.8  RSN 15 0.5 2.2LRSN                1
 GAP=108        1.08       4.0     3.2  6.0  0.8131E-01  0.8834E+01  0.9163E+00E
 Epicentro: ZAPATOCA - SANTANDER                                               3
 ACTION:UPD 17-05-22 16:03 OP:jn   STATUS:               ID:20170126064837 L   I
 OLDACT:REG 17-01-26 13:54 OP:lv   STATUS:               ID:20170126063744     3
 2017-01-26-0638-00M.COL___349                                                 6
 STAT SP IPHASW D HRMM SECON CODA AMPLIT PERI AZIMU VELO AIN AR TRES W  DIS CAZ7
 BAR2 EZ IP     C  648 55.94                             167    0.1710 28.5 184 
 BAR2 EZ ES        649 10.41                             167    0.4510 28.5 184 
 BAR2 EZ I         649 12.06        69.7 0.18            168           28.5 184 
 BRR  HZ IP     C  648 57.87                             152    0.8010 66.7 295 
 PAM  EZ IP     D  648 58.99                             149    0.7310 74.8  44 
 PAM  EN ES        649 13.42                             149   -0.9710 74.8  44 
 PAM  EZ I         649 18.34        18.1 0.24            153           74.8  44 
 RUS  HZ EP        649  0.39                             139   -0.1210  106 175 
 RUS  HN ES        649 18.42                             139    0.0310  106 175 
 RUS  HZ I         649 19.51        22.1 0.30            142            106 175 
 PTB  HZ EP        649  3.07                             129   -0.35 9  147 257 
 PTB  HN ES        649 23.35                             129   -0.22 9  147 257 
 PTB  HZ I         649 26.08        29.8 0.24            129            147 257 
 TAM  HZ IP     C  649  4.34                             127   -0.27 9  159 107 
 TAM  HN ES        649 25.49                             127   -0.21 9  159 107 
 TAM  HZ I         649 26.45        22.5 0.56            131            159 107 
 ZAR  HZ EP        649  9.10                             120    0.33 9  200 291 
 ZAR  HN ES   4    649 34.84                             120    1.73 0  200 291 
 ZAR  HZ I         649 40.97        39.3 0.02            121            200 291 
 CHI  HZ EP        649 14.60                             114   -0.51 8  253 194 
 CHI  HN ES   4    649 45.81                             114    1.43 0  253 194 
 CHI  HZ I         649 49.34         6.0 0.26            116            253 194 
 ROSC BZ EP        649 16.06                             113    0.65 8  256 210 
 ROSC BE ES        649 44.96                             113    0.03 8  256 210 
 ROSC BZ I         649 52.03        17.2 0.40            115            256 210 
 URE  HZ EP        649 17.33                             111   -0.25 7  280 291 
 URE  HN ES        649 49.00                             111    0.22 7  280 291 
 URE  HZ I         650  0.49        15.9 0.20            112            280 291 
 PTGC HZ EP   4    649 19.30                             109   -2.26 0  315 159 
 PTGC HN ES   4    649 52.42                             109   -3.45 0  315 159 
 PTGC HZ I         649 58.79         6.4 0.42            111            315 159 
 CBOC HZ EP        649 24.27                             107    0.34 7  333 251 
 CBOC HN ES        649 59.63                             107   -0.46 7  333 251 
 CBOC HZ I         650  4.66         3.1 0.34            109            333 251 
 DBB  EZ EP        649 24.21                             107   -0.04 7  337 273 
 DBB  EN ES        649 59.98                             107   -0.68 7  337 273 
 DBB  EZ I         650  3.53         5.5 0.33            108            337 273 
 SJC  HZ EP   4    649 30.99                             104   -1.06 0  403 327 
 SJC  HN ES   4    650 12.23                             104   -2.32 0  403 327 
 SJC  HZ I         650 15.73         5.9 0.48            105            403 327 
 PAL  HZ EP        649 32.04                             104   -0.40 6  407 238 
 PAL  HN ES        650 15.17                             104   -0.06 6  407 238 
 PAL  HZ I         650 16.02         2.7 0.26            105            407 238 
                                                                                
