 2014  526 0634 26.0 L   6.830 -73.173152.1  RSN  5 0.4 1.5LRSN                1
 GAP=180        1.04       4.6     7.8 10.9 -0.4963E+01 -0.1362E+02  0.8737E+01E
 Epicentro: LOS SANTOS - SANTANDER                                             3
 ACTION:UPD 15-03-16 17:00 OP:nd   STATUS:               ID:20140526063426 L   I
 OLDACT:UP  14-05-26 17:36 OP:mh   STATUS:               ID:20140526062812     3
 OLDACT:REG 14-05-26 13:05 OP:mh   STATUS:               ID:20140526062812     3
 2014-05-26-0628-12M.COL___227                                                 6
 STAT SP IPHASW D HRMM SECON CODA AMPLIT PERI AZIMU VELO AIN AR TRES W  DIS CAZ7
 BRR  HZ EP        634 48.27                             155    0.6610 67.0 297 
 BRR  HN ES   1    635  5.15                             155    0.68 7 67.0 297 
 BRR  HZ I         635  6.11         6.7 0.18            154           67.0 297 
 RUS  HZ EP        634 50.75                             144    0.1210  104 175 
 RUS  HN ES   1    635  9.32                             144   -0.52 7  104 175 
 RUS  HZ I         635 11.53         2.5 0.14            148            104 175 
 PTB  HZ EP        634 52.87                             134   -0.42 9  146 257 
 PTB  HN ES        635 14.16                             134   -0.42 9  146 257 
 PTB  HZ I         635 20.43         5.6 0.73            135            146 257 
 OCA  HN ES        635 16.25                             132   -0.44 9  157 354 
 OCA  HZ I         635 21.16         4.8 0.45            133            157 354 
 SPBC HZ EP        634 55.14                             130    0.08 9  164 217 
 SPBC HN ES        635 17.92                             130    0.19 9  164 217 
 SPBC HZ I         635 19.37         3.2 0.09            133            164 217 
                                                                                
