 2012  426 0354 20.4 L   6.729 -73.150148.0  RSN  7 0.4 1.6LRSN                1
 GAP=139        1.00       6.0     5.3  9.0  0.8934E+00  0.1453E+02 -0.1166E+01E
 Epicentro: JORDAN - SANTANDER                                                 3
 ACTION:UPD 12-07-05 11:56 OP:tino STATUS:               ID:20120426035420 L   I
 2012-04-26-0350-00M.COL___186                                                 6
 STAT SP IPHASW D HRMM SECON CODA AMPLIT PERI AZIMU VELO AIN AR TRES W  DIS CAZ7
 BAR2 SZ EP   1    354 39.97                             174    -0.2 9   16 193 
 BAR2 SZ ES   1    354 55.63                             174     0.1 9   16 193 
 BAR2 SZ I         354 57.44         8.3 0.15                            16 193 
 BRR  HZ EP   1    354 42.22                             152     0.3 9   75 304 
 BRR  HN ES   1    354 59.65                             152     0.8 9   75 304 
 PAM  SZ EP   1    354 43.11                             149    -0.1 9   84  36 
 PAM  SN ES   1    355  0.47                             149    -0.6 9   84  36 
 PAM  SZ I         355  2.52         6.8 0.26                            84  36 
 RUS  HZ EP   1    354 43.70                             146    -0.1 9   93 175 
 RUS  HN ES   1    355  2.34                             146     0.3 9   93 175 
 RUS  HZ I         355  4.70         5.0 0.36                            93 175 
 PTB  HZ EP   1    354 47.44                             133     0.1 8  146 262 
 PTB  HN ES   1    355  8.05                             133    -0.4 8  146 262 
 PTB  HZ I         355 13.62         5.1 0.17                           146 262 
 ZAR  HZ EP   1    354 54.13                             122     0.9 7  207 294 
 ZAR  HN ES        355 18.43                             122    -0.410  207 294 
 ZAR  HZ I         355 22.60         4.7 0.10                           207 294 
 NOR  SN ES   1    355 22.82                             120    -0.5 7  230 236 
                                                                                
