 2010  926 0936  7.5 L   6.799 -73.075141.2  RSN 10 0.4 1.8LRSN                1
 GAP=167        0.64       3.6     5.6  6.1 -0.6498E+01  0.2575E+01  0.3279E+01E
 Epicentro: LOS SANTOS - SANTANDER                                             3
 ACTION:UP  11-02-18 11:05 OP:tino STATUS:               ID:20100926093607 L   I
 2010-09-26-0932-36S.COL___122                                                 6
 STAT SP IPHASW D HRMM SECON CODA AMPLIT PERI AZIMU VELO SNR AR TRES W  DIS CAZ7
 BTL  SZ EP   2    936 27.17                             169     0.5 6   25 302 
 BAR2 SZ EP   1    936 26.83                             169     0.2 9   26 208 
 BAR2 SZ ES   2    936 40.86                             169    -0.7 6   26 208 
 BAR2 SZ I         936 42.89        12.7 0.11                            26 208 
 BRR  HZ EP   1    936 28.68                             149     0.1 9   78 296 
 BRR  HE ES   1    936 45.24                             149     0.2 9   78 296 
 BRR  HZ I         936 49.64        26.8 0.17                            78 296 
 RUS  HZ EP   2    936 30.79                             143     0.0 6  100 181 
 RUS  HE ES   2    936 49.11                             143     0.1 6  100 181 
 RUS  HZ I         936 50.67         5.2 0.40                           100 181 
 GUE  SZ EP   1    936 31.78                             139     0.1 9  115   8 
 GRA  SZ EP   2    936 32.59                             136     0.4 6  124  14 
 GRA  SZ ES   2    936 51.70                             136     0.3 6  124  14 
 GRA  SZ I         936 53.03        12.9 0.36                           124  14 
 OCA  SZ EP   2    936 35.13                             128    -0.5 6  161 350 
 OCA  SZ ES   2    936 56.65                             128    -0.8 6  161 350 
 OCA  SZ I         937  0.59        10.5 0.37                           161 350 
 NOR  SZ EP        936 43.32                             117    -0.410  241 236 
 NOR  SN ES   2    937 11.78                             117    -0.1 5  241 236 
 CHI  HZ EP   2    936 45.20                             116     0.0 5  251 197 
 CHI  HE ES   2    937 14.42                             116    -0.2 5  251 197 
 CHI  HZ I         937 18.74         2.5 0.21                           251 197 
 HEL  HZ EP   2    936 48.60                             113     0.3 5  280 256 
 HEL  HN ES   2    937 20.90                             113     0.7 5  280 256 
 HEL  HZ I         937 25.23         4.0 0.40                           280 256 
                                                                                
