 2015 1226 0226 41.4 L   6.723 -73.164145.4  RSN  6 0.4 1.3LRSN                1
 GAP=229        0.94       7.7     7.6  8.3  0.3040E+02  0.2696E+02  0.2327E+02E
 Epicentro: VILLANUEVA - SANTANDER                                             3
 ACTION:UPD 16-02-04 15:07 OP:cam  STATUS:               ID:20151226022641 L   I
 OLDACT:REG 15-12-26 12:52 OP:dnl  STATUS:               ID:20151226021749     3
 2015-12-26-0217-49M.COL___337                                                 6
 STAT SP IPHASW D HRMM SECON CODA AMPLIT PERI AZIMU VELO AIN AR TRES W  DIS CAZ7
 BAR2 EZ EP   2    227  0.90                             175    0.02 5 14.6 188 
 BAR2 EZ ES        227 15.28                             175   -0.7610 14.6 188 
 BAR2 EZ I         227 17.23         3.9 0.12            176           14.6 188 
 BRR  HZ EP   2    227  3.06                             151    0.36 5 73.9 305 
 BRR  HE ES        227 19.95                             151    0.6610 73.9 305 
 BRR  HZ I         227 23.18         3.0 0.19            152           73.9 305 
 RUS  HZ EP   2    227  4.78                             146    0.21 5 92.3 174 
 RUS  HN ES   2    227 23.50                             146    0.89 5 92.3 174 
 RUS  HZ I         227 24.38         2.9 0.17            149           92.3 174 
 PTB  HZ EP        227  8.11                             132    0.05 9  144 262 
 PTB  HE ES        227 28.72                             132   -0.11 9  144 262 
 SPBC HZ EP        227  9.09                             130   -0.07 9  155 220 
 SPBC HE ES   2    227 30.79                             130   -0.00 5  155 220 
 ZAR  HN ES        227 39.19                             122   -0.22 8  206 295 
 ZAR  HZ I         227 41.53         3.0 0.08            123            206 295 
                                                                                
