 2017  326 0914 26.8 L   6.798 -73.198134.0  RSN  5 0.4 1.6LRSN                1
 GAP=130        0.79       4.3     4.2  6.6 -0.4546E+01  0.8913E+01 -0.3819E+01E
 Epicentro: ZAPATOCA - SANTANDER                                               3
 ACTION:UPD 17-05-25 18:45 OP:jn   STATUS:               ID:20170326091426 L   I
 OLDACT:UP  17-03-26 15:52 OP:cog  STATUS:               ID:20170326090741d    3
 OLDACT:DUP 17-03-26 15:45 OP:cog  STATUS:               ID:20170326090741d    3
 2017-03-26-0908-00M.COL___353                                                 6
 STAT SP IPHASW D HRMM SECON CODA AMPLIT PERI AZIMU VELO AIN AR TRES W  DIS CAZ7
 BAR2 EZ EP        914 44.83                             170   -0.1610 22.8 176 
 BAR2 EZ ES        914 58.81                             170   -0.3910 22.8 176 
 BAR2 EZ I         915  0.89         9.4 0.16            173           22.8 176 
 BRR  HZ EP        914 46.89                             152    0.5010 66.3 301 
 BRR  HN ES   3    915  3.62                             152    1.95 2 66.3 301 
 BRR  HZ I         915  7.63         7.9 0.30            151           66.3 301 
 PAM  EZ EP        914 47.85                             147   -0.1710 81.3  43 
 PAM  EN ES        915  4.59                             147    0.0110 81.3  43 
 PAM  EZ I         915  6.69        16.6 0.54            151           81.3  43 
 RUS  HZ EP        914 49.49                             141    0.0610  101 173 
 RUS  HN ES        915  7.35                             141    0.2610  101 173 
 RUS  HZ I         915  8.83         6.0 0.32            147            101 173 
 PTB  HZ EP        914 52.31                             130    0.02 9  142 258 
 PTB  HN ES        915 11.89                             130   -0.28 9  142 258 
 PTB  HZ I         915 15.90         5.7 0.12            132            142 258 
                                                                                
