 2017 1226 0342 47.8 L   6.813 -73.176152.0  RSN  8 0.4 1.5LRSN                1
 GAP=140        0.95       4.0     4.6  7.0 -0.7943E+01  0.1459E+02 -0.9378E+01E
 Epicentro: ZAPATOCA - SANTANDER                                               3
 ACTION:UPD 18-01-04 13:24 OP:rebc STATUS:               ID:20171226034247 L   I
 OLDACT:REG 17-12-26 13:01 OP:osc  STATUS:               ID:20171226033408     3
 2017-12-26-0338-00M.COL___469                                                 6
 STAT SP IPHASW D HRMM SECON CODA AMPLIT PERI AZIMU VELO AIN AR TRES W  DIS CAZ7
 BAR2 EZ EP        343  8.21                             170   -0.0110 24.4 182 
 BAR2 EZ ES        343 23.91                             170   -0.2210 24.4 182 
 BAR2 EZ I         343 25.33         4.7 0.60            172           24.4 182 
 PAM  EZ EP        343 11.13                             152    0.3710 78.5  42 
 PAM  EN ES        343 28.41                             152   -0.2510 78.5  42 
 PAM  EZ I         343 30.40         6.8 0.54            155           78.5  42 
 PTB  HZ EP        343 15.13                             134    0.10 9  145 258 
 PTB  HE ES        343 37.05                             134    0.79 9  145 258 
 PTB  HZ I         343 43.31         1.8 0.20            135            145 258 
 OCA  HZ EP        343 16.71                             131    0.25 9  159 354 
 OCA  HE ES        343 38.71                             131   -0.09 9  159 354 
 OCA  HZ I         343 43.58         9.4 0.30            133            159 354 
 SPBC HN ES        343 39.05                             131   -0.19 9  162 218 
 SPBC HZ I         343 42.10         5.7 0.16            133            162 218 
 ZAR  HZ EP        343 20.81                             124    0.50 9  200 292 
 ZAR  HN ES        343 45.21                             124   -0.44 9  200 292 
 ZAR  HZ I         343 51.90         3.7 0.38            125            200 292 
 GUY2CHE ES        344  4.93                             114   -0.65 7  299 234 
 GUY2CHZ I         344 18.65         0.8 0.44                           299 234 
 SJC  HZ EP        343 42.35                             107   -0.89 6  406 327 
 SJC  HN ES        344 26.24                             107   -0.23 6  406 327 
                                                                                
