 2012  826 0534 11.3 L   6.807 -73.149141.1  RSN  7 0.4 2.0LRSN                1
 GAP=149        0.95       5.8     5.0  8.9 -0.8122E+01  0.8212E+01 -0.7579E+01E
 Epicentro: LOS SANTOS - SANTANDER                                             3
 ACTION:UPD 12-09-10 11:58 OP:ep   STATUS:               ID:20120826053412dL   I
 2012-08-26-0530-00M.COL___218                                                 6
 STAT SP IPHASW D HRMM SECON CODA AMPLIT PERI AZIMU VELO AIN AR TRES W  DIS CAZ7
 BAR2 SZ EP   1    534 30.29                             170   -0.10 7 24.0 189 
 BAR2 SZ I         534 30.70        23.5 0.09                          24.0 189 
 BAR2 SZ ES   1    534 45.00                             170   -0.27 7 24.0 189 
 GIR2 SZ EP   1    534 30.26                             167   -0.14 7 30.5 351 
 BRR  HZ EP        534 32.05                             152    0.1410 70.5 298 
 BRR  HZ I         534 32.51        26.8 0.09                          70.5 298 
 BRR  HN ES   1    534 48.97                             152    0.98 7 70.5 298 
 PAM  SZ EP   1    534 33.18                             150    0.17 7 77.0  40 
 PAM  SN ES   1    534 50.12                             150    0.19 7 77.0  40 
 PTB  HZ EP   1    534 37.91                             131    0.03 7  148 259 
 PTB  HN ES        534 58.12                             131   -0.48 9  148 259 
 PTB  HZ I         535  0.84         5.7 0.13                           148 259 
 OCA  HZ EP   1    534 39.73                             129    0.55 7  159 353 
 OCA  HN ES        535  0.21                             129   -0.72 9  159 353 
 OCA  HZ I         535  3.82        15.7 0.31                           159 353 
 ZAR  HN ES        535  8.61                             121    0.20 9  203 292 
                                                                                
