 2012  726 0403 20.6 L   6.369 -73.604103.7  RSN  5 0.5 1.3LRSN                1
 GAP=149        1.14       8.4     7.2 13.6  0.2852E+02  0.3750E+02  0.1743E+02E
 Epicentro: SANTA HELENA DEL OPON - SANTANDER                                  3
 ACTION:UPD 12-08-14 11:45 OP:ep   STATUS:               ID:20120726040320 L   I
 2012-07-26-0400-00M.COL___215                                                 6
 STAT SP IPHASW D HRMM SECON CODA AMPLIT PERI AZIMU VELO AIN AR TRES W  DIS CAZ7
 BAR2 SZ EP   1    4 3 36.69                             151     0.2 7   53  62 
 BAR2 SZ ES   1    4 3 49.56                             151     0.6 7   53  62 
 BAR2 SZ I         4 3 50.55        33.1 0.28            146             53  62 
 RUS  HZ EP   1    4 3 39.21                             140     0.6 7   78 132 
 RUS  HN ES   1    4 3 51.88                             140    -0.8 7   78 132 
 RUS  HZ I         4 3 56.68         1.6 0.39            136             78 132 
 BRR  HZ EP   1    4 3 37.68                             138    -0.6 7   82 352 
 BRR  HZ I         4 3 45.73         6.1 0.07            135             82 352 
 BRR  HN ES   1    4 3 51.82                             138    -0.2 7   82 352 
 PTB  HZ EP   1    4 3 39.28                             133    -0.2 7   96 281 
 PTB  HN ES   1    4 3 54.53                             133     0.3 7   96 281 
 PTB  HZ I         4 3 55.72         3.5 0.19            132             96 281 
 ZAR  HZ EP   2    4 3 49.48                             114     0.8 4  186 312 
 ZAR  HN ES   2    4 4 10.10                             114    -0.5 4  186 312 
