 2014  526 0115 33.5 L   6.810 -73.147149.5  RSN  9 0.4 1.8LRSN                1
 GAP=183        0.84       2.7     5.6  6.4 -0.1683E+01 -0.5404E+01  0.8696E+00E
 Epicentro: LOS SANTOS - SANTANDER                                             3
 ACTION:UPD 15-03-16 17:00 OP:nd   STATUS:               ID:20140526011533 L   I
 OLDACT:UP  14-05-26 16:46 OP:mh   STATUS:               ID:20140526010814     3
 OLDACT:UP  14-05-26 16:46 OP:mh   STATUS:               ID:20140526010814     3
 OLDACT:UP  14-05-26 16:45 OP:mh   STATUS:               ID:20140526010814     3
 OLDACT:UP  14-05-26 16:45 OP:mh   STATUS:               ID:20140526010814     3
 OLDACT:UP  14-05-26 16:45 OP:mh   STATUS:               ID:20140526010814     3
 OLDACT:REG 14-05-26 12:43 OP:mh   STATUS:               ID:20140526010814     3
 2014-05-26-0108-14M.COL___227                                                 6
 STAT SP IPHASW D HRMM SECON CODA AMPLIT PERI AZIMU VELO AIN AR TRES W  DIS CAZ7
 BRR  HZ EP   1    115 55.71                             153    0.65 7 70.5 298 
 BRR  HN ES        116 12.12                             153    0.2710 70.5 298 
 BRR  HZ I         116 16.09        12.9 0.14            151           70.5 298 
 RUS  HZ EP        115 58.13                             144    0.3810  102 176 
 RUS  HN ES   1    116 16.32                             144   -0.31 7  102 176 
 RUS  HZ I         116 19.05         6.0 0.33            146            102 176 
 PTB  HZ EP        116  0.34                             133   -0.49 9  148 258 
 PTB  HN ES   1    116 21.92                             133   -0.19 7  148 258 
 PTB  HZ I         116 26.22         7.9 0.10            132            148 258 
 OCA  HZ EP   1    116  1.91                             131   -0.13 7  159 353 
 OCA  HN ES   1    116 24.20                             131   -0.07 7  159 353 
 OCA  HZ I         116 29.71         6.5 0.20            133            159 353 
 SPBC HZ EP   4    116  2.21                             130   -0.20 0  164 219 
 SPBC HN ES        116 24.32                             130   -0.60 9  164 219 
 SPBC HZ I         116 30.14         6.7 0.28            130            164 219 
 NOR  HZ EP        116  9.78                             119    0.23 8  235 234 
 NOR  HN ES        116 38.23                             119    0.59 8  235 234 
 NOR  HZ I         116 45.80         4.4 0.34            120            235 234 
 SML  HZ EP        116 10.24                             118   -0.03 8  243 335 
 SML  HN ES   1    116 38.46                             118   -0.45 6  243 335 
 CHI  HZ EP        116 11.40                             118   -0.17 8  250 195 
 CHI  HN ES        116 41.26                             118    0.03 8  250 195 
 CHI  HZ I         116 45.00         3.6 0.17            120            250 195 
 GUY2CHZ EP   4    116 19.94                             113    2.55 0  302 235 
 GUY2CHN ES   4    116 53.97                             113    2.38 0  302 235 
 PTGC HZ EP   4    116 16.38                             112   -1.32 0  310 159 
 PTGC HN ES   4    116 47.93                             112   -4.21 0  310 159 
 RREF HZ EP   4    116 22.47                             111    2.55 0  322 229 
 RREF HN ES   4    117  0.34                             111    4.24 0  322 229 
 RREF HZ I         117  4.07         3.4 0.13            113            322 229 
 SJC  HZ EP   4    116 28.07                             106   -1.04 0  408 327 
 SJC  HN ES   4    117  8.78                             106   -3.67 0  408 327 
                                                                                
