 2017  226 0953 39.5 L   6.754 -73.160145.4  RSN  5 0.3 0.9LRSN                1
 GAP=137        0.94       5.0     4.8  6.9 -0.2188E+01  0.4002E+01  0.1218E+01E
 Epicentro: LOS SANTOS - SANTANDER                                             3
 ACTION:UPD 17-05-24 15:40 OP:jn   STATUS:               ID:20170226095339 L   I
 OLDACT:DUP 17-02-26 12:19 OP:lv   STATUS:               ID:20170226093443d    3
 2017-02-26-0948-00M.COL___357                                                 6
 STAT SP IPHASW D HRMM SECON CODA AMPLIT PERI AZIMU VELO AIN AR TRES W  DIS CAZ7
 BAR2 EZ EP        953 58.84                             173   -0.1910 18.0 188 
 BAR2 EZ ES        954 14.99                             173    0.7510 18.0 188 
 BAR2 EZ I         954 17.12         2.1 0.23            172           18.0 188 
 BRR  HZ EP        954  0.98                             152    0.2610 72.5 303 
 BRR  HN ES        954 17.12                             152   -0.1210 72.5 303 
 PAM  EZ EP        954  2.00                             149   -0.0210 82.3  38 
 PAM  EN ES        954 19.25                             149   -0.3110 82.3  38 
 PAM  EZ I         954 21.60         1.4 0.29            153           82.3  38 
 RUS  HZ EP        954  3.25                             145    0.3510 95.6 175 
 RUS  HN ES        954 20.61                             145   -0.5210 95.6 175 
 RUS  HZ I         954 22.39         0.7 0.22            148           95.6 175 
 PTB  HZ EP        954  6.20                             132   -0.05 9  145 261 
 PTB  HN ES        954 26.91                             132   -0.18 9  145 261 
 PTB  HZ I         954 32.63         1.1 0.06            133            145 261 
                                                                                
