 2012 1226 0752 58.6 L   6.816 -73.097150.9  RSN 10 0.5 2.1LRSN                1
 GAP=142        0.92       4.2     5.5  6.5  0.1472E+00  0.1324E+02 -0.2330E+01E
 Epicentro: LOS SANTOS - SANTANDER                                             3
 ACTION:UPD 13-01-04 14:30 OP:ep   STATUS:               ID:20121226075258 L   I
 2012-12-26-0750-00M.COL___242                                                 6
 STAT SP IPHASW D HRMM SECON CODA AMPLIT PERI AZIMU VELO AIN AR TRES W  DIS CAZ7
 BAR2 SZ EP   1    753 18.98                             170    0.04 7 26.5 201 
 BAR2 SZ ES   1    753 34.39                             170   -0.39 7 26.5 201 
 BAR2 SZ I         753 35.69        33.3 0.40                          26.5 201 
 GIR2 SZ EP   1    753 18.82                             168   -0.08 7 30.9 340 
 GIR2 SZ ES   1    753 35.00                             168    0.29 7 30.9 340 
 GIR2 SZ I         753 35.83         9.3 0.12                          30.9 340 
 PAM  SZ EP   1    753 21.79                             153    0.66 7 72.7  37 
 PAM  SN ES   1    753 39.08                             153    0.41 7 72.7  37 
 PAM  SZ I         753 41.25         9.0 0.48                          72.7  37 
 BRR  HZ IP     C  753 20.83                             152    0.2710 75.1 295 
 BRR  HE ES   1    753 38.27                             152    0.62 7 75.1 295 
 RUS  HZ EP   1    753 22.89                             144   -0.11 7  102 179 
 RUS  HN ES   1    753 41.23                             144   -0.77 7  102 179 
 RUS  HZ I         753 42.81         9.6 0.26                           102 179 
 PTB  HZ EP   1    753 26.03                             132   -0.49 7  153 259 
 PTB  HZ I         753 54.24        18.7 0.30                           153 259 
 OCA  HZ EP   1    753 27.12                             131   -0.13 7  159 351 
 OCA  HN ES   1    753 49.03                             131   -0.54 7  159 351 
 OCA  HZ I         753 54.91        17.3 0.18                           159 351 
 ZAR  HZ EP   1    753 32.10                             123    0.24 6  208 291 
 ZAR  HE ES   1    753 57.08                             123   -0.69 6  208 291 
 ZAR  HZ I         754  4.08        14.1 0.36                           208 291 
 SML  HZ EP   1    753 35.41                             118   -0.21 6  244 334 
 SML  HN ES   1    754  3.74                             118   -0.73 6  244 334 
 SML  HZ I         754  7.67        16.4 0.10                           244 334 
 HEL  HZ EP   1    753 40.08                             115    0.35 6  278 256 
 HEL  HN ES   1    754 12.78                             115    1.00 6  278 256 
 HEL  HZ I         754 17.31         7.1 0.32                           278 256 
 URE  HZ EP   4    753 42.93                             114    2.50 0  288 291 
 URE  HE ES   4    754 14.05                             114    1.01 0  288 291 
 MON  HZ EP   4    753 46.59                             109   -1.61 0  357 308 
 MON  HN ES   4    754 24.70                             109   -2.15 0  357 308 
                                                                                
