 2010  726 0406  1.7 L   6.798 -73.130147.7  RSN  4 0.3 1.4LRSN                1
 GAP=160        0.69       4.1     8.2  9.1 -0.2182E+01 -0.2221E+02 -0.3225E+01E
 Epicentro: LOS SANTOS - SANTANDER                                             3
 ACTION:UPD 10-12-01 15:20 OP:pat  STATUS:               ID:20100726040601 L   I
 2010-07-26-0403-00S.COL___123                                                 6
 STAT SP IPHASW D HRMM SECON CODA AMPLIT PERI AZIMU VELO AIN AR TRES W  DIS CAZ7
 BAR2 SZ EP   1    4 6 21.07                             170    -0.5 7   24 195 
 BRR  HZ IP     C  4 6 23.08                             152    -0.110   73 298 
 BRR  HZ I         4 6 23.33        10.8 0.15                            73 298 
 BRR  HN ES   1    4 6 40.03                             152     0.1 7   73 298 
 RUS  HZ EP   1    4 6 26.12                             144     0.5 7  100 177 
 RUS  HE ES   1    4 6 44.20                             144    -0.1 7  100 177 
 RUS  HZ I         4 6 45.28         2.2 0.33                           100 177 
 GRA  SZ EP        4 6 27.10                             137     0.010  125  17 
 GRA  SZ ES   1    4 6 46.98                             137     0.1 7  125  17 
 GRA  SZ I         4 6 47.87         2.9 0.09                           125  17 
                                                                                
