 2013  326 0856 36.6 L   6.739 -73.196137.8  RSN  5 0.5 1.3LRSN                1
 GAP=227        0.94       9.4     8.7  9.2  0.5306E+02  0.1674E+02 -0.4172E+00E
 Epicentro: VILLANUEVA - SANTANDER                                             3
 ACTION:UPD 13-04-09 14:05 OP:ep   STATUS:               ID:20130326085636 L   I
 2013-03-26-0850-00M.COL___244                                                 6
 STAT SP IPHASW D HRMM SECON CODA AMPLIT PERI AZIMU VELO AIN AR TRES W  DIS CAZ7
 BAR2 SZ EP   1    856 54.78                             173   -0.35 7 16.3 175 
 BAR2 SZ ES   1    857  8.94                             173   -0.65 7 16.3 175 
 BAR2 SZ I         857 10.71         9.1 0.36            159           16.3 175 
 BRR  HZ EP   2    856 56.58                             151   -0.23 5 70.0 306 
 BRR  HN ES   1    857 13.26                             151    0.68 7 70.0 306 
 RUS  HZ EP   1    856 58.94                             144   -0.17 7 94.5 172 
 RUS  HZ I         857 15.83         3.4 0.50            127           94.5 172 
 RUS  HN ES   1    857 17.40                             144    0.72 7 94.5 172 
 PTB  HZ EP   1    857  2.71                             131    0.41 7  141 261 
 PTB  HN ES   1    857 21.68                             131   -0.68 7  141 261 
 PTB  HZ I         857 26.21         1.5 0.16            121            141 261 
 ZAR  HZ EP   1    857  8.26                             121   -0.01 6  202 294 
 ZAR  HN ES   1    857 33.14                             121    0.16 6  202 294 
 ZAR  HZ I         857 38.39         1.6 0.48            112            202 294 
                                                                                
