 2014  826 0953 38.7 L   5.788 -74.002104.8  RSN  7 0.3 1.3LRSN                1
 GAP=162        0.68       3.6     3.5  5.3 -0.3055E+01  0.8892E+00 -0.4816E+01E
 Epicentro: FLORIAN - SANTANDER                                                3
 ACTION:UPD 14-09-15 21:53 OP:nd   STATUS:               ID:20140826095338 L   I
 OLDACT:REG 14-08-26 13:14 OP:fm   STATUS:               ID:20140826094819     3
 2014-08-26-0948-19M.COL___254                                                 6
 STAT SP IPHASW D HRMM SECON CODA AMPLIT PERI AZIMU VELO AIN AR TRES W  DIS CAZ7
 SPBC HZ EP        953 52.82                             170   -0.2310 16.9 207 
 SPBC HN ES        954  4.27                             170    0.0210 16.9 207 
 SPBC HZ I         954  5.78         6.3 0.18            170           16.9 207 
 PTB  HZ EP   1    953 57.27                             134   -0.48 7 97.2 329 
 PTB  HN ES        954 12.70                             134    0.1010 97.2 329 
 PTB  HZ I         954 14.52         2.9 0.40            130           97.2 329 
 BAR2 SZ EP        954  0.96                             125    0.1010  127  46 
 BAR2 SZ ES   1    954 18.33                             125    0.18 7  127  46 
 GUY2CHZ EP   1    954  5.73                             118    0.78 7  163 248 
 GUY2CHN ES   1    954 25.22                             118   -0.20 7  163 248 
 GUY2CHZ I         954 32.68         2.2 0.62                           163 248 
 ZAR  HN ES   1    954 33.91                             111    0.14 6  211 333 
 ZAR  HZ I         954 40.26         2.1 0.52            110            211 333 
 PRA  HN ES   4    954 37.98                             107   -3.78 0  249 203 
 PRA  HZ I         954 41.78         1.5 0.22            107            249 203 
 SML  HZ EP   1    954 23.50                             101   -0.51 5  333 359 
 SML  HN ES   4    954 57.42                             101   -1.94 0  333 359 
 SML  HZ I         955  2.93         2.8 0.24            100            333 359 
                                                                                
