 2013  426 0338 57.2 L   6.795 -73.143146.6  RSN 11 0.5 2.3LRSN                1
 GAP=137        0.92       4.2     5.2  7.2 -0.2605E+01  0.9353E+01  0.1632E+01E
 Epicentro: LOS SANTOS - SANTANDER                                             3
 ACTION:UPD 13-05-22 14:40 OP:EP   STATUS:               ID:20130426033857 L   I
 2013-04-26-0328-50M.COL___211                                                 6
 STAT SP IPHASW D HRMM SECON CODA AMPLIT PERI AZIMU VELO AIN AR TRES W  DIS CAZ7
 BAR2 SZ EP        339 16.97                             171    0.0310 22.8 191 
 BAR2 SZ ES   1    339 32.28                             171   -0.05 7 22.8 191 
 BAR2 SZ I         339 34.47        19.5 0.28            165           22.8 191 
 GIR2 SZ EP   1    339 17.09                             167    0.08 7 31.9 350 
 BRR  HZ IP     C  339 18.88                             152    0.3910 71.8 299 
 BRR  HZ EP        339 18.88                             152    0.3910 71.8 299 
 BRR  HN ES   1    339 36.02                             152    0.94 7 71.8 299 
 BRR  HN I         339 36.45        42.5 0.28            146           71.8 299 
 PAM  SZ EP        339 19.80                             151    0.2610 77.6  39 
 PAM  SZ I         339 19.89        30.6 0.22            156           77.6  39 
 PAM  SN ES   1    339 36.36                             151   -0.59 7 77.6  39 
 RUS  HZ EP        339 20.95                             144   -0.0610  100 176 
 RUS  HN ES   1    339 39.26                             144   -0.31 7  100 176 
 RUS  HN I         339 41.24        25.2 0.42            144            100 176 
 PTB  HZ EP   1    339 23.76                             132   -0.51 7  148 259 
 PTB  HN ES   1    339 44.56                             132   -0.82 7  148 259 
 PTB  HZ I         339 50.65        15.8 0.40            128            148 259 
 OCA  HN ES   2    339 47.15                             130   -0.68 5  161 353 
 OCA  HN I         339 50.45        52.7 0.18            129            161 353 
 NOR  HZ EP   1    339 32.70                             119   -0.29 6  235 235 
 NOR  HN ES   2    340  0.81                             119   -0.08 4  235 235 
 SML  HN ES   1    340  1.88                             117   -0.74 6  244 335 
 SML  HN I         340  4.45        49.5 0.10            117            244 335 
 URE  HZ EP   4    339 40.05                             114    1.67 0  284 292 
 URE  HN ES   4    340  9.06                             114   -1.44 0  284 292 
 URE  HN I         340 22.10         9.1 0.22            112            284 292 
 GUY  HZ EP   1    339 41.15                             112    0.03 5  303 235 
 GUY  HN ES   2    340 16.25                             112    0.88 4  303 235 
 GUY  HN I         340 25.74         5.1 0.42            111            303 235 
                                                                                
