 2013 1126 0203  9.6 L   6.823 -73.129145.9  RSN 15 0.5 2.3LRSN                1
 GAP= 87        0.94       2.8     4.9  5.5 -0.4275E+01  0.8389E+00  0.1167E+01E
 Epicentro: LOS SANTOS - SANTANDER                                             3
 ACTION:UPD 14-01-09 16:31 OP:ep   STATUS:               ID:20131126020309 L   I
 OLDACT:REG 13-11-26 08:06 OP:mh   STATUS:               ID:20131126020000     3
 2013-11-26-0200-00M.COL___282                                                 6
 STAT SP IPHASW D HRMM SECON CODA AMPLIT PERI AZIMU VELO AIN AR TRES W  DIS CAZ7
 BAR2 SZ EP        2 3 29.29                             169   -0.0610 26.2 193 
 BAR2 SZ ES   1    2 3 44.44                             169   -0.28 7 26.2 193 
 BAR2 SZ I         2 3 46.01        69.8 0.21            157           26.2 193 
 BRR  HZ EP        2 3 31.15                             152    0.3110 71.7 296 
 BRR  HN ES        2 3 47.83                             152    0.4610 71.7 296 
 BRR  HZ I         2 3 52.40        21.8 0.15            147           71.7 296 
 PAM  SZ EP   1    2 3 32.07                             152    0.38 7 74.2  40 
 PAM  SZ I         2 3 51.45        37.8 0.18            137           74.2  40 
 PTB  HZ EP   1    2 3 36.19                             132   -0.65 7  150 258 
 PTB  HZ I         2 4  3.11        29.8 0.22            119            150 258 
 TAM  HZ EP   1    2 3 37.43                             131    0.20 7  154 106 
 TAM  HZ I         2 3 58.29        15.0 0.38            114            154 106 
 OCA  HZ EP        2 3 37.47                             130   -0.28 9  158 352 
 OCA  HN ES        2 3 59.40                             130   -0.28 9  158 352 
 OCA  HZ I         2 4  5.40        20.1 0.34            118            158 352 
 SPBC HZ EP        2 3 38.27                             128   -0.19 9  166 219 
 SPBC HN ES        2 4  0.72                             128   -0.21 9  166 219 
 SPBC HZ I         2 4  5.44        45.0 0.20            114            166 219 
 ZAR  HZ EP   1    2 3 42.04                             122   -0.14 6  205 291 
 ZAR  HZ I         2 4 13.62        28.3 0.27            111            205 291 
 NOR  HZ EP        2 3 45.37                             118   -0.34 8  238 234 
 NOR  HN ES        2 4 13.49                             118   -0.34 8  238 234 
 NOR  HZ I         2 4 20.59        18.0 0.25            107            238 234 
 SML  HZ EP        2 3 46.18                             118    0.06 8  242 335 
 SML  HN ES        2 4 14.30                             118   -0.26 8  242 335 
 SML  HZ I         2 4 18.47        49.0 0.07            107            242 335 
 CHI  HZ EP        2 3 47.27                             117   -0.40 8  252 195 
 CHI  HZ I         2 4 22.65         8.7 0.23            105            252 195 
 ROSC BZ EP        2 3 49.08                             116    0.96 8  256 211 
 ROSC BN ES   4    2 4 20.83                             116    2.71 0  256 211 
 HEL  HZ EP        2 3 50.96                             115    0.82 8  275 255 
 HEL  HZ I         2 4 27.72        11.6 0.50            105            275 255 
 GUY2CHZ EP   4    2 3 53.28                             112   -0.32 0  304 235 
 GUY2CHN ES   4    2 4 32.23                             112    4.35 0  304 235 
 CBOC HZ EP        2 3 57.08                             110    0.22 7  336 252 
 CBOC HN ES   1    2 4 33.84                             110    0.15 5  336 252 
 CBOC HZ I         2 4 41.79         3.5 0.48            102            336 252 
 COD  HZ EP   1    2 3 56.45                             109   -1.31 5  346 354 
 COD  HN ES        2 4 35.87                             109    0.59 6  346 354 
 COD  HZ I         2 4 40.27         5.1 0.34            101            346 354 
                                                                                
