 2014 1026 0032  4.6 L   6.836 -73.173149.4  RSN 12 0.5 2.3LRSN                1
 GAP=131        1.20       3.7     5.2  7.1 -0.2073E+01  0.1290E+02 -0.3550E+01E
 Epicentro: ZAPATOCA - SANTANDER                                               3
 ACTION:UPD 14-11-29 23:57 OP:nd   STATUS:               ID:20141026003204 L   I
 OLDACT:UP  14-10-29 14:47 OP:cam  STATUS:               ID:20141026002812     3
 OLDACT:UP  14-10-29 14:47 OP:cam  STATUS:               ID:20141026002812     3
 OLDACT:UP  14-10-29 14:47 OP:cam  STATUS:               ID:20141026002812     3
 OLDACT:REG 14-10-29 12:55 OP:cam  STATUS:               ID:20141026002812     3
 2014-10-26-0028-12M.COL___280                                                 6
 STAT SP IPHASW D HRMM SECON CODA AMPLIT PERI AZIMU VELO AIN AR TRES W  DIS CAZ7
 BAR2 SZ EP        032 24.70                             169    0.0010 26.9 182 
 BAR2 SZ ES        032 39.89                             169   -0.5210 26.9 182 
 BAR2 SZ I         032 40.71        28.8 0.26            166           26.9 182 
 BRR  HZ IP     C  032 26.38                             155    0.5210 66.7 297 
 BRR  HN ES        032 43.37                             155    0.9010 66.7 297 
 BRR  HN I         032 44.09        79.6 0.24            148           66.7 297 
 PAM  SZ EP        032 27.53                             152    0.4310 76.4  43 
 PAM  SN ES        032 44.78                             152    0.1010 76.4  43 
 PAM  SZ I         032 46.94        31.0 0.84            148           76.4  43 
 RUS  HZ EP        032 28.66                             143   -0.3010  105 175 
 RUS  HN ES        032 47.62                             143   -0.3810  105 175 
 RUS  HZ I         032 48.37        15.0 0.28            137            105 175 
 PTB  HZ EP        032 30.98                             133   -0.66 9  146 257 
 PTB  HN ES        032 52.05                             133   -0.71 9  146 257 
 PTB  HZ I         032 54.06        12.4 0.12            126            146 257 
 SPBC HN ES        032 56.48                             130    0.49 9  164 217 
 SPBC HN I         033  1.19        44.5 0.24            122            164 217 
 SML  HZ EP        032 41.04                             119    0.17 8  239 336 
 SML  HN ES        033  8.87                             119   -0.33 8  239 336 
 SML  HZ I         033 13.59        14.5 0.28            113            239 336 
 CHI  HN ES        033 12.53                             118   -0.08 8  252 194 
 CHI  HN I         033 14.71        25.4 0.40            112            252 194 
 HEL  HZ EP        032 45.35                             116    0.60 8  270 255 
 HEL  HZ I         033 22.82         7.5 0.30            110            270 255 
 GUY2CHZ EP   4    032 49.82                             113    1.50 0  301 234 
 GUY2CHN ES        033 22.94                             113    0.48 7  301 234 
 GUY2CHN I         033 33.01         8.1 0.58                           301 234 
 MON  HZ EP   4    032 51.48                             109   -1.67 0  349 308 
 MON  HN ES        033 30.41                             109   -0.64 6  349 308 
 MON  HZ I         033 30.96         2.9 0.18            104            349 308 
 SJC  HZ EP   1    032 58.86                             106   -0.81 4  404 327 
                                                                                
