 2017 1126 0104 55.2 L   6.789 -73.172144.7  RSN  4 0.1 1.2LRSN                1
 GAP=141        0.40       3.3     2.5  3.8 -0.9588E-01  0.7701E+00 -0.4927E+01E
 Epicentro: LOS SANTOS - SANTANDER                                             3
 ACTION:UPD 17-12-12 20:00 OP:rebc STATUS:               ID:20171126010455 L   I
 OLDACT:UP  17-11-26 16:13 OP:dani STATUS:               ID:20171126005741d    3
 OLDACT:DUP 17-11-26 16:13 OP:dani STATUS:               ID:20171126005741d    3
 OLDACT:UP  17-11-26 16:12 OP:dani STATUS:               ID:20171126005740     3
 OLDACT:UP  17-11-26 16:12 OP:dani STATUS:               ID:20171126005740     3
 OLDACT:REG 17-11-26 12:50 OP:dani STATUS:               ID:20171126005740     3
 2017-11-26-0058-00M.COL___492                                                 6
 STAT SP IPHASW D HRMM SECON CODA AMPLIT PERI AZIMU VELO AIN AR TRES W  DIS CAZ7
 BAR2 EZ EP        1 5 14.62                             171   -0.0410 21.8 183 
 BAR2 EZ ES        1 5 29.73                             171   -0.1110 21.8 183 
 BAR2 EZ I         1 5 32.08         7.1 0.22            171           21.8 183 
 PAM  HZ EP        1 5 17.57                             150    0.1110 80.2  41 
 RUS  HZ EP        1 5 18.57                             144   -0.1910 99.6 174 
 RUS  HE ES        1 5 37.32                             144    0.1710 99.6 174 
 RUS  HZ I         1 5 38.66         2.8 0.28            146           99.6 174 
 PTB  HZ EP        1 5 21.84                             132    0.05 9  145 259 
 PTB  HE ES        1 5 42.54                             132    0.01 9  145 259 
 PTB  HZ I         1 5 47.13         1.3 0.24            133            145 259 
                                                                                
