 2016  926 0906 44.1 L   6.765 -73.178147.0  RSN  7 0.3 1.3LRSN                1
 GAP=134        0.84       4.8     4.4  5.6  0.7674E+01  0.1903E+01 -0.2677E+01E
 Epicentro: LOS SANTOS - SANTANDER                                             3
 ACTION:UPD 17-08-17 21:16 OP:lp   STATUS:               ID:20160926090644 L   I
 OLDACT:DUP 16-09-26 19:24 OP:dani STATUS:               ID:20160926085746d    3
 OLDACT:UP  16-09-26 19:23 OP:dani STATUS:               ID:20160926085745     3
 OLDACT:UP  16-09-26 19:22 OP:dani STATUS:               ID:20160926085745     3
 OLDACT:UP  16-09-26 19:22 OP:dani STATUS:               ID:20160926085745     3
 OLDACT:REG 16-09-26 13:44 OP:dani STATUS:               ID:20160926085745     3
 2016-09-26-0858-00M.COL___327                                                 6
 STAT SP IPHASW D HRMM SECON CODA AMPLIT PERI AZIMU VELO AIN AR TRES W  DIS CAZ7
 BAR2 EZ EP        9 7  3.70                             172   -0.0910 19.1 181 
 BAR2 EZ ES        9 7 18.99                             172   -0.1610 19.1 181 
 BAR2 EZ I         9 7 20.04         4.7 0.28            157           19.1 181 
 BRR  HZ EP        9 7  5.35                             153    0.0510 70.0 303 
 BRR  HN ES        9 7 22.30                             153    0.4510 70.0 303 
 BRR  HZ I         9 7 24.82         2.3 0.29            143           70.0 303 
 PAM  EZ EP        9 7  6.38                             149   -0.3710 82.6  40 
 RUS  HZ EP        9 7  7.89                             145    0.1810 97.1 174 
 RUS  HE ES        9 7 26.28                             145    0.1510 97.1 174 
 RUS  HZ I         9 7 27.94         2.9 0.35            130           97.1 174 
 PTB  HZ EP        9 7 10.34                             133   -0.43 9  144 260 
 PTB  HN ES        9 7 30.99                             133   -0.59 9  144 260 
 PTB  HZ I         9 7 34.65         3.2 0.15            120            144 260 
 SPBC HZ EP        9 7 12.56                             130    0.37 9  158 219 
 SPBC HZ I         9 7 41.94         3.7 0.17            117            158 219 
 ZAR  HZ EP        9 7 16.75                             123    0.33 9  202 294 
 ZAR  HE ES        9 7 41.83                             123    0.19 9  202 294 
 ZAR  HZ I         9 7 49.96         1.3 0.31            113            202 294 
                                                                                
