 2010 1026 0542 57.5 L   6.784 -73.130141.6  RSN  9 0.5 1.9LRSN                1
 GAP=161        1.06       4.0     7.6  8.1 -0.1062E+02  0.8288E+01  0.3103E+01E
 Epicentro: LOS SANTOS - SANTANDER                                             3
 ACTION:UP  11-02-18 11:12 OP:tino STATUS:               ID:20101026054257 L   I
 2010-10-26-0538-50S.COL___124                                                 6
 STAT SP IPHASW D HRMM SECON CODA AMPLIT PERI AZIMU VELO SNR AR TRES W  DIS CAZ7
 BAR2 SZ EP   1    543 16.67                             171     0.1 7   22 196 
 BAR2 SZ ES   1    543 31.27                             171    -0.2 7   22 196 
 BAR2 SZ I         543 33.06        24.6 0.16                            22 196 
 BRR  HZ IP     D  543 18.36                             151     0.010   74 299 
 BRR  HZ I         543 25.18        16.7 0.14                            74 299 
 BRR  HE ES   1    543 35.16                             151     0.6 7   74 299 
 RUS  HZ EP   1    543 20.55                             143    -0.2 7   99 177 
 RUS  HN ES   1    543 38.22                             143    -0.6 7   99 177 
 RUS  HZ I         543 40.63         7.9 0.29                            99 177 
 GRA  SZ IP        543 23.33                             135     0.810  127  16 
 GRA  SZ I         543 24.58         8.9 0.30                           127  16 
 GRA  SZ ES   1    543 42.02                             135     0.1 7  127  16 
 OCA  SZ EP   1    543 24.84                             128    -0.8 7  162 353 
 OCA  SZ ES   1    543 47.00                             128    -0.7 7  162 353 
 OCA  SZ I         543 49.95        15.5 0.19                           162 353 
 NOR  SZ EP   2    543 32.77                             117    -0.3 4  235 235 
 NOR  SN ES   1    544  0.92                             117     0.1 6  235 235 
 CHI  HZ EP   1    543 34.92                             116     0.1 6  247 196 
 CHI  HE ES   1    544  4.60                             116     0.6 6  247 196 
 CHI  HZ I         544  9.43         3.3 0.69                           247 196 
 HEL  HZ EP   2    543 37.03                             114    -0.6 4  273 256 
 HEL  HN ES   2    544  8.61                             114    -0.4 4  273 256 
 HEL  HZ I         544 15.67         3.2 0.48                           273 256 
 PRA  HZ EP   1    543 50.69                             106    -0.1 4  391 210 
 PRA  HE ES   1    544 32.59                             106     0.2 4  391 210 
 PRA  HZ I         544 39.29        12.3 0.24                           391 210 
                                                                                
