 2012 1126 0412  3.1 L   6.837 -73.229136.4  RSN  5 0.2 1.4LRSN                1
 GAP=123        0.60       2.6     3.2  6.8 -0.7912E+00  0.7566E+01 -0.2480E+01E
 Epicentro: ZAPATOCA - SANTANDER                                               3
 ACTION:UPD 12-12-05 15:36 OP:}ep  STATUS:               ID:20121126041203 L   I
 2012-11-26-0410-00M.COL___233                                                 6
 STAT SP IPHASW D HRMM SECON CODA AMPLIT PERI AZIMU VELO AIN AR TRES W  DIS CAZ7
 BAR2 SZ EP        412 21.65                             168   -0.0710 27.6 169 
 PAM  SZ EP        412 24.47                             148   -0.0810 80.7  46 
 PAM  SN ES        412 41.09                             148   -0.1810 80.7  46 
 PAM  SN I         412 41.83         4.1 0.38                          80.7  46 
 RUS  HZ EP        412 26.24                             140   -0.1110  106 171 
 RUS  HN ES        412 44.85                             140    0.3810  106 171 
 RUS  HN I         412 46.09         3.4 0.56                           106 171 
 PTB  HZ EP        412 28.55                             131   -0.03 9  140 256 
 PTB  HN ES        412 48.21                             131   -0.23 9  140 256 
 PTB  HN I         412 51.74         4.1 0.22                           140 256 
 SML  HE ES        413  6.36                             116    0.43 8  236 337 
                                                                                
