 2012  226 0643 20.4 L   6.785 -73.119150.0  RSN 13 0.4 2.1LRSN                1
 GAP=141        0.54       2.7     3.5  4.0 -0.2378E+01  0.3236E+01  0.2241E+01E
 ACTION:UP  12-03-07 16:34 OP:epov STATUS:               ID:20120226064320 L   I
 2012-02-26-0640-00M.COL___192                                                 6
 STAT SP IPHASW D HRMM SECON CODA AMPLIT PERI AZIMU VELO AIN AR TRES W  DIS CAZ7
 BAR2 SZ EP   1    643 40.33                             171   -0.16 7 22.4 198 
 BAR2 SZ ES   1    643 56.24                             171    0.05 7 22.4 198 
 BAR2 SZ I         643 57.00        46.3 0.27                          22.4 198 
 GIR2 SZ EP   1    643 40.40                             167   -0.21 7 33.5 346 
 GIR2 SZ ES   2    643 56.09                             167   -0.30 5 33.5 346 
 BRR  HZ EP   1    643 42.22                             152    0.05 7 74.5 299 
 BRR  HN ES   1    643 59.87                             152    0.70 7 74.5 299 
 BRR  HZ I         644  3.48        18.6 0.18                          74.5 299 
 PAM  SZ EP   1    643 43.13                             152    0.12 7 76.9  37 
 PAM  SE ES   2    644  0.44                             152   -0.23 5 76.9  37 
 RUS  HZ EP   1    643 44.15                             145   -0.26 7 98.7 178 
 RUS  HE ES   1    644  3.46                             145    0.30 7 98.7 178 
 RUS  HZ I         644  4.47         8.7 0.19                          98.7 178 
 PTB  HZ EP   2    643 47.19                             133   -0.72 5  150 260 
 PTB  HN ES   2    644  8.33                             133   -1.07 5  150 260 
 OCA  SZ EP   2    643 49.39                             130    0.19 5  162 352 
 OCA  SZ ES   2    644 11.65                             130   -0.04 5  162 352 
 NOR  SZ EP   1    643 56.34                             119   -0.16 6  236 235 
 NOR  SE ES   1    644 24.59                             119   -0.09 6  236 235 
 CHI  HZ EP   1    643 58.35                             118    0.13 6  248 196 
 CHI  HN ES   2    644 27.61                             118   -0.13 4  248 196 
 CHI  HZ I         644 36.28         4.6 0.45                           248 196 
 ROSC BZ EP   2    643 58.90                             118    0.17 4  253 212 
 ROSC BE ES   2    644 28.84                             118    0.18 4  253 212 
 ROSC BZ I         644 35.68        10.6 0.76                           253 212 
 HEL  HZ EP   1    644  1.13                             116    0.06 6  274 256 
 HEL  HE ES   2    644 32.98                             116    0.17 4  274 256 
 HEL  HZ I         644 36.85         4.3 0.53                           274 256 
 RREF HZ EP   2    644  7.63                             112    0.80 3  323 230 
 RREF HN ES   2    644 43.37                             112    0.31 3  323 230 
 RREF HZ I         644 48.59         8.8 0.56                           323 230 
 PRA  HZ EP   2    644 13.97                             107   -0.07 3  392 210 
 PRA  HE ES   2    644 55.89                             107   -0.01 3  392 210 
                                                                                
