 2012  326 0343 29.1 L   6.763 -73.170143.3  RSN  6 0.5 1.8LRSN                1
 GAP=135        1.09       6.9     6.6  9.4 -0.2903E+01  0.7934E+01  0.1724E+01E
 ACTION:UP  12-03-31 23:22 OP:EP   STATUS:               ID:20120326034329 L   I
 2012-03-26-0340-00M.COL___196                                                 6
 STAT SP IPHASW D HRMM SECON CODA AMPLIT PERI AZIMU VELO SNR AR TRES W  DIS CAZ7
 BAR2 SZ EP        343 48.05                             172    -0.310   19 184 
 BAR2 SZ ES   1    344  3.21                             172    -0.2 7   19 184 
 BAR2 SZ I         344  4.99        13.4 0.36                            19 184 
 BRR  HZ IP     C  343 50.32                             152     0.310   71 302 
 BRR  HZ I         343 50.50        19.8 0.16                            71 302 
 BRR  HN ES   1    344  7.29                             152     1.0 7   71 302 
 PAM  SZ IP        343 51.51                             149     0.110   82  39 
 PAM  SN ES   1    344  8.06                             149    -0.7 7   82  39 
 RUS  HZ EP        343 52.66                             144     0.310   97 174 
 RUS  HE ES   1    344 10.65                             144     0.2 7   97 174 
 PTB  HZ EP        343 55.27                             132    -0.3 9  144 260 
 PTB  HN ES   1    344 15.53                             132    -0.7 7  144 260 
 ZAR  HZ EP   3    344  1.96                             122     0.6 2  203 294 
 ZAR  HN ES   3    344 25.81                             122    -0.6 2  203 294 
 ZAR  HZ I         344 32.01         4.0 0.34                           203 294 
                                                                                
