 2015  326 0611 10.4 L   6.769 -73.198141.7  RSN  6 0.4 1.4LRSN                1
 GAP=229        0.96       5.2     5.9  7.5  0.1092E+02  0.1378E+02  0.2792E+01E
 Epicentro: ZAPATOCA - SANTANDER                                               3
 ACTION:UPD 15-04-30 16:29 OP:nd   STATUS:               ID:20150326061110 L   I
 OLDACT:REG 15-03-26 12:56 OP:fm   STATUS:               ID:20150326060743     3
 2015-03-26-0607-43M.COL___281                                                 6
 STAT SP IPHASW D HRMM SECON CODA AMPLIT PERI AZIMU VELO AIN AR TRES W  DIS CAZ7
 BAR2 EZ EP        611 29.42                             172   -0.0910 19.6 175 
 BAR2 EZ ES        611 44.28                             172   -0.1010 19.6 175 
 BAR2 EZ I         611 46.52         4.8 0.18            170           19.6 175 
 BRR  HZ EP        611 31.28                             153    0.3110 68.0 303 
 BRR  HN ES        611 47.50                             153    0.5210 68.0 303 
 BRR  HZ I         611 54.97         3.6 0.30            150           68.0 303 
 RUS  HN ES        611 51.16                             144   -0.4710 97.7 173 
 PTB  HZ EP        611 36.29                             132   -0.21 9  141 260 
 PTB  HN ES        611 56.71                             132   -0.12 9  141 260 
 PTB  HZ I         612  2.03         3.4 0.30            133            141 260 
 SPBC HZ EP        611 38.34                             129    0.31 9  157 218 
 SPBC HE ES        611 59.97                             129    0.42 9  157 218 
 SPBC HZ I         612  5.10         3.2 0.22            131            157 218 
 ZAR  HN ES        612  6.29                             122   -0.70 9  200 294 
 ZAR  HZ I         612 13.56         4.5 0.38            123            200 294 
                                                                                
