 2013 1026 0142  6.1 L   6.808 -73.144144.0  RSN 14 0.4 2.0LRSN                1
 GAP=136        1.00       2.6     4.4  5.7 -0.1228E+01  0.9983E+01  0.1783E+01E
 Epicentro: LOS SANTOS - SANTANDER                                             3
 ACTION:UPD 13-11-25 09:23 OP:ep   STATUS:               ID:20131026014206 L   I
 OLDACT:UP  13-10-26 09:44 OP:carl STATUS:               ID:20131026013849     3
 OLDACT:REG 13-10-26 08:36 OP:carl STATUS:               ID:20131026013849     3
 2013-10-26-0138-49M.COL___230                                                 6
 STAT SP IPHASW D HRMM SECON CODA AMPLIT PERI AZIMU VELO AIN AR TRES W  DIS CAZ7
 BAR2 SZ EP        142 25.54                             170    0.0310 24.3 190 
 BAR2 SZ ES        142 40.48                             170   -0.1910 24.3 190 
 BAR2 SZ I         142 42.19        27.0 0.24            168           24.3 190 
 BRR  HZ EP        142 27.33                             152    0.3110 71.0 298 
 PAM  SE ES        142 45.85                             151    0.6610 76.5  40 
 RUS  HZ EP        142 29.38                             143   -0.3410  101 176 
 RUS  HN ES        142 48.38                             143    0.2210  101 176 
 RUS  HZ I         142 50.75         7.7 0.46            146            101 176 
 PTB  HZ EP        142 32.61                             132   -0.32 9  148 258 
 PTB  HN ES        142 53.83                             132   -0.05 9  148 258 
 PTB  HZ I         143  1.03        12.3 0.34            131            148 258 
 OCA  HN ES        142 55.60                             129   -0.47 9  159 353 
 OCA  HZ I         143  7.56         7.0 0.26            131            159 353 
 SPBC HZ EP        142 34.51                             129   -0.01 9  164 219 
 SPBC HN ES        142 56.11                             129   -0.60 9  164 219 
 SPBC HZ I         143  1.49        16.6 0.16            129            164 219 
 ZAR  HN ES        143  4.47                             122    0.88 9  204 292 
 ZAR  HZ I         143  9.04        11.4 0.36            122            204 292 
 NOR  HZ EP        142 41.71                             118   -0.07 8  235 234 
 NOR  HN ES        143  9.47                             118   -0.16 8  235 234 
 NOR  HZ I         143 16.75         6.5 0.30            119            235 234 
 SML  HZ EP        142 41.94                             117   -0.58 8  243 335 
 SML  HN ES        143 10.51                             117   -0.44 8  243 335 
 SML  HZ I         143 15.14        17.0 0.10            118            243 335 
 CHI  HZ EP     D  142 43.63                             117   -0.15 8  250 195 
 CHI  HN ES        143 13.05                             117   -0.14 8  250 195 
 CHI  HZ I         143 18.82         4.1 0.24            119            250 195 
 GUY2CHZ EP        142 50.86                             112    1.18 7  302 235 
 GUY2CHE ES   4    143 26.56                             112    2.86 0  302 235 
 GUY2CHZ I         143 32.12         6.9 0.78                           302 235 
 RREF HZ EP   1    142 52.82                             110    0.59 5  323 229 
 RREF HE ES        143 28.28                             110    0.05 7  323 229 
 RREF HZ I         143 37.19         5.7 0.34            112            323 229 
 PRA  HZ EP        142 59.63                             106   -0.01 6  393 210 
 PRA  HE ES        143 41.68                             106    0.26 6  393 210 
 PRA  HZ I         143 49.59         4.8 0.50            108            393 210 
                                                                                
