 2015  826 0857 59.0 L   6.793 -72.971141.7  RSN  6 0.3 1.4LRSN                1
 GAP=201        0.81       3.2     6.5  5.6  0.7351E+00  0.5055E+01 -0.1500E+01E
 Epicentro: CEPITA - SANTANDER                                                 3
 ACTION:UPD 15-09-15 23:05 OP:cam  STATUS:               ID:20150826085759 L   I
 OLDACT:DUP 15-08-26 15:43 OP:ak   STATUS:               ID:20150826084745d    3
 OLDACT:UP  15-08-26 15:42 OP:ak   STATUS:               ID:20150826084744d    3
 OLDACT:DUP 15-08-26 15:34 OP:ak   STATUS:               ID:20150826084744d    3
 OLDACT:UP  15-08-26 15:33 OP:ak   STATUS:               ID:20150826084743     3
 OLDACT:REG 15-08-26 15:10 OP:ak   STATUS:               ID:20150826084743     3
 2015-08-26-0847-43M.COL___337                                                 6
 STAT SP IPHASW D HRMM SECON CODA AMPLIT PERI AZIMU VELO AIN AR TRES W  DIS CAZ7
 BAR2 EZ EP        858 18.39                             167   -0.0210 32.3 226 
 BAR2 EZ ES        858 33.98                             167    0.4710 32.3 226 
 BAR2 EZ I         858 35.22         4.8 0.09            168           32.3 226 
 BRR  HZ EP        858 20.69                             146   -0.1910 88.9 293 
 BRR  HN ES        858 37.42                             146   -0.4910 88.9 293 
 BRR  HZ I         858 41.89         2.9 0.22            147           88.9 293 
 RUS  HZ EP        858 22.56                             143    0.1810  100 187 
 RUS  HN ES        858 40.25                             143   -0.3410  100 187 
 RUS  HZ I         858 43.37         1.5 0.35            147            100 187 
 OCA  HZ EP   1    858 27.48                             128    0.04 7  164 346 
 OCA  HN ES        858 49.97                             128    0.38 9  164 346 
 OCA  HZ I         858 53.84         7.0 0.32            129            164 346 
 SML  HZ EP   1    858 35.94                             116   -0.53 6  253 331 
 SML  HN ES   4    859  3.93                             116   -1.73 0  253 331 
 SML  HZ I         859  8.23         3.3 0.08            117            253 331 
 GUY2CHZ EP        858 44.23                             110   -0.01 7  317 237 
 GUY2CHN ES        859 19.99                             110    0.49 7  317 237 
 GUY2CHZ I         859 25.26         2.1 0.60                           317 237 
                                                                                
