 2014  726 0201 56.0 L   6.793 -73.143150.1  RSN 19 0.4 2.1LRSN                1
 GAP=137        0.87       2.5     3.5  4.7 -0.1370E+01  0.3407E+01  0.7620E+00E
 Epicentro: LOS SANTOS - SANTANDER                                             3
 ACTION:UPD 15-03-16 20:47 OP:nd   STATUS:               ID:20140726020156 L   I
 OLDACT:REG 14-07-26 13:28 OP:fm   STATUS:               ID:20140726015818     3
 2014-07-26-0158-18M.COL___263                                                 6
 STAT SP IPHASW D HRMM SECON CODA AMPLIT PERI AZIMU VELO AIN AR TRES W  DIS CAZ7
 BAR2 SZ EP        2 2 16.03                             171   -0.1110 22.6 191 
 BAR2 SZ ES   1    2 2 31.92                             171    0.07 7 22.6 191 
 BAR2 SZ I         2 2 32.84        24.4 0.44            168           22.6 191 
 BRR  HZ EP        2 2 17.91                             153    0.2510 71.8 299 
 BRR  HN ES        2 2 35.39                             153    0.8510 71.8 299 
 BRR  HZ I         2 2 41.51        13.6 0.24            150           71.8 299 
 PAM  SZ EP   1    2 2 18.86                             151    0.15 7 77.8  39 
 PAM  SN ES   1    2 2 36.12                             151   -0.30 7 77.8  39 
 PAM  SZ I         2 2 40.16         9.5 0.48            156           77.8  39 
 RUS  HZ EP        2 2 20.17                             145    0.0410 99.8 176 
 RUS  HN ES        2 2 38.61                             145   -0.3310 99.8 176 
 RUS  HZ I         2 2 39.68        11.5 0.26            146           99.8 176 
 PTB  HZ EP        2 2 22.70                             133   -0.64 9  148 259 
 PTB  HN ES        2 2 44.10                             133   -0.56 9  148 259 
 PTB  HZ I         2 2 45.78        14.0 0.18            132            148 259 
 OCA  HZ EP        2 2 24.97                             130    0.23 9  161 353 
 OCA  HN ES        2 2 47.08                             130   -0.06 9  161 353 
 OCA  HZ I         2 2 51.95        14.0 0.20            132            161 353 
 SPBC HZ EP        2 2 25.04                             130    0.24 9  163 219 
 SPBC HE ES        2 2 47.36                             130    0.11 9  163 219 
 SPBC HZ I         2 2 49.48        16.6 0.32            130            163 219 
 ZAR  HZ EP   1    2 2 29.31                             123    0.51 6  205 292 
 ZAR  HE ES        2 2 54.22                             123   -0.15 9  205 292 
 ZAR  HZ I         2 3  0.13        18.5 0.38            123            205 292 
 NOR  HZ EP        2 2 32.14                             119    0.17 8  234 235 
 NOR  HN ES        2 2 59.67                             119   -0.34 8  234 235 
 NOR  HZ I         2 3  7.35        11.2 0.20            120            234 235 
 SML  HZ EP   1    2 2 32.90                             118   -0.07 6  245 335 
 SML  HE ES   1    2 3  0.87                             118   -0.93 6  245 335 
 SML  HZ I         2 3  3.91        18.1 0.10            119            245 335 
 CHI  HZ EP   1    2 2 33.26                             118   -0.62 6  248 195 
 CHI  HN ES   4    2 3  3.71                             118    0.30 0  248 195 
 CHI  HZ I         2 3  9.27         7.1 0.32            119            248 195 
 ROSC BN ES   1    2 3  4.92                             118    0.74 6  252 211 
 ROSC BZ I         2 3  9.71        14.5 0.45            118            252 211 
 HEL  HZ EP   1    2 2 36.74                             116    0.29 6  272 256 
 HEL  HN ES   1    2 3  7.92                             116   -0.08 6  272 256 
 HEL  HZ I         2 3 15.28         4.7 0.26            116            272 256 
 URE  HE ES   4    2 3  6.74                             114   -2.86 0  284 292 
 GUY2CHZ EP   4    2 2 41.08                             113    1.29 0  301 235 
 GUY2CHN ES   4    2 3 15.26                             113    1.32 0  301 235 
 GUY2CHZ I         2 3 24.78         4.8 0.34                           301 235 
 RREF HN ES   4    2 3 20.28                             112    1.86 0  321 230 
 RREF HZ I         2 3 27.50         8.6 0.32            112            321 230 
 CBOC HZ EP   1    2 2 43.49                             111    0.38 5  334 252 
 CBOC HN ES   4    2 3 17.15                             111   -2.69 0  334 252 
 CBOC HZ I         2 3 25.24         1.9 0.42            111            334 252 
 TOL  SZ EP   1    2 2 44.94                             110    0.54 5  343 225 
 TOL  SE ES   4    2 3 23.82                             110    1.68 0  343 225 
 TOL  SZ I         2 3 29.47        13.3 0.36            111            343 225 
 PRA  HZ EP   1    2 2 49.21                             107   -0.41 4  391 210 
 PRA  HN ES   1    2 3 31.80                             107    0.37 4  391 210 
 PRA  HZ I         2 3 37.69         5.8 0.44            108            391 210 
 SJC  HZ EP   4    2 2 50.17                             106   -1.64 0  410 327 
 SJC  HN ES   4    2 3 31.69                             106   -3.65 0  410 327 
 SJC  HZ I         2 3 37.51         2.0 0.56            107            410 327 
                                                                                
