 2014  826 0248 39.2 L   6.064 -73.722110.4  RSN 11 0.4 1.6LRSN                1
 GAP= 75        0.91       2.9     3.1  7.2 -0.1147E+01  0.5181E+01  0.9650E+00E
 Epicentro: VELEZ - SANTANDER                                                  3
 ACTION:UPD 14-09-15 21:53 OP:nd   STATUS:               ID:20140826024839 L   I
 OLDACT:DUP 14-08-26 14:16 OP:fm   STATUS:               ID:20140826023819d    3
 2014-08-26-0238-18M.COL___254                                                 6
 STAT SP IPHASW D HRMM SECON CODA AMPLIT PERI AZIMU VELO AIN AR TRES W  DIS CAZ7
 SPBC HZ EP        248 56.17                             149    0.1110 59.8 220 
 SPBC HN ES   1    249  9.50                             149    0.31 7 59.8 220 
 SPBC HZ I         249 11.23        16.8 0.18            149           59.8 220 
 RUS  HZ EP        248 57.48                             144   -0.0510 73.3 105 
 RUS  HN ES   1    249 11.28                             144   -0.53 7 73.3 105 
 RUS  HZ I         249 12.49         3.9 0.10            149           73.3 105 
 BAR2 SZ EP        248 58.18                             140    0.2410 83.5  46 
 BAR2 SZ ES   1    249 12.51                             140   -0.02 7 83.5  46 
 PTB  HZ EP        248 58.06                             135   -0.6610 96.7 303 
 PTB  HN ES        249 13.38                             135   -0.5310 96.7 303 
 PTB  HZ I         249 15.66         6.7 0.12            135           96.7 303 
 BRR  HZ EP        249  0.70                             130    0.3410  115   1 
 BRR  HE ES        249 17.43                             130    0.6010  115   1 
 BRR  HZ I         249 18.44         6.2 0.44            131            115   1 
 NOR  HZ EP        249  2.92                             124    0.23 9  139 246 
 NOR  HE ES   1    249 21.43                             124    0.44 7  139 246 
 NOR  HZ I         249 23.59        18.0 0.14            125            139 246 
 CHI  HN ES   1    249 25.35                             120   -0.16 7  159 180 
 CHI  HZ I         249 27.10         3.3 0.22            123            159 180 
 HEL  HN ES   1    249 33.19                             114   -0.29 6  200 274 
 HEL  HZ I         249 37.69         3.1 0.46            115            200 274 
 ZAR  HZ EP   1    249  9.16                             113   -0.23 6  202 322 
 ZAR  HE ES   1    249 32.55                             113   -0.36 6  202 322 
 ZAR  HZ I         249 38.17         7.0 0.46            115            202 322 
 GUY2CHE ES   1    249 35.21                             113    0.72 6  204 243 
 GUY2CHZ I         249 39.84         3.9 0.58                           204 243 
 PRA  HN ES   1    249 50.65                             105   -0.49 5  290 206 
                                                                                
