 2015  426 0131  0.2 L   6.794 -73.123147.8  RSN 17 0.5 2.1LRSN                1
 GAP=140        1.00       2.7     3.7  5.1 -0.1830E+01  0.5435E+01 -0.2443E-01E
 Epicentro: LOS SANTOS - SANTANDER                                             3
 ACTION:UPD 15-06-03 16:57 OP:cam  STATUS:               ID:20150426013100 L   I
 OLDACT:REG 15-04-26 12:35 OP:ak   STATUS:               ID:20150426012747     3
 2015-04-26-0127-47M.COL___274                                                 6
 STAT SP IPHASW D HRMM SECON CODA AMPLIT PERI AZIMU VELO AIN AR TRES W  DIS CAZ7
 BAR2 EZ IP     D  131 20.24                             171    0.1610 23.3 196 
 BAR2 EZ ES        131 35.27                             171   -0.3110 23.3 196 
 BAR2 EZ I         131 38.05        18.2 0.17            168           23.3 196 
 BRR  HZ EP        131 22.12                             152    0.4010 73.7 298 
 BRR  HE ES        131 38.78                             152    0.2910 73.7 298 
 BRR  HZ I         131 42.95        16.6 0.10            149           73.7 298 
 PAM  SZ EP        131 21.95                             152   -0.6210 76.3  38 
 PAM  SN ES        131 40.23                             152    0.2210 76.3  38 
 PAM  SZ I         131 42.78        17.4 0.27            156           76.3  38 
 RUS  HZ EP        131 24.17                             144    0.0710 99.8 177 
 RUS  HN ES        131 43.08                             144    0.3410 99.8 177 
 RUS  HZ I         131 45.93         7.5 0.24            146           99.8 177 
 PTB  HZ EP        131 26.99                             132   -0.56 9  150 259 
 PTB  HN ES        131 47.94                             132   -0.94 9  150 259 
 PTB  HZ I         131 55.47        26.6 0.42            131            150 259 
 SPBC HZ EP        131 29.27                             129    0.30 9  164 220 
 SPBC HE ES        131 51.64                             129    0.24 9  164 220 
 SPBC HZ I         131 58.88        17.9 0.11            129            164 220 
 ZAR  HZ EP   1    131 33.15                             122    0.10 6  207 292 
 ZAR  HE ES        131 59.00                             122    0.33 8  207 292 
 NOR  HZ EP        131 36.12                             119   -0.12 8  236 235 
 NOR  HE ES        132  4.36                             119    0.02 8  236 235 
 NOR  HZ I         132  9.97        11.5 0.34            119            236 235 
 SML  HZ EP        131 36.64                             118   -0.48 8  245 335 
 SML  HE ES        132  6.52                             118    0.60 8  245 335 
 SML  HZ I         132 15.80        17.6 0.10            119            245 335 
 CHI  HZ EP   1    131 37.38                             118   -0.65 6  249 196 
 CHI  HN ES        132  7.17                             118   -0.35 8  249 196 
 CHI  HZ I         132 17.38         4.7 0.33            119            249 196 
 HEL  HZ EP   2    131 40.65                             115   -0.13 4  274 256 
 HEL  HN ES        132 11.86                             115   -0.56 8  274 256 
 HEL  HZ I         132 19.28         9.4 0.32            115            274 256 
 GUY2CHZ EP   1    131 44.96                             113    0.86 5  303 235 
 GUY2CHN ES        132 19.16                             113    0.82 7  303 235 
 GUY2CHZ I         132 26.40         6.2 0.31                           303 235 
 LL2C HZ EP   1    131 44.50                             112    0.52 5  307 354 
 LL2C HN ES   1    132 17.67                             112   -0.46 5  307 354 
 TOL  SZ EP   4    131 50.17                             110    1.47 0  345 225 
 TOL  SN ES   4    132 28.02                             110    1.50 0  345 225 
 TOL  SZ I         132 31.69         5.1 0.47            110            345 225 
 MON  HZ EP   4    131 46.97                             109   -2.59 0  356 308 
 MON  HN ES   4    132 25.80                             109   -2.26 0  356 308 
 MON  HZ I         132 41.75         2.9 0.35            110            356 308 
 ORTC HZ EP   1    131 54.54                             107    0.23 4  396 217 
 ORTC HN ES        132 36.71                             107    0.20 6  396 217 
 ORTC HZ I         132 43.21         2.8 0.46            108            396 217 
 SJC  HZ EP   4    131 54.12                             106   -1.94 0  411 327 
 SJC  HN ES   4    132 35.24                             106   -4.39 0  411 327 
 SJC  HZ I         132 39.94         2.7 0.46            107            411 327 
                                                                                
