 2017 1226 0209  2.3 L   6.820 -73.230137.9  RSN  5 0.0 1.0LRSN                1
 GAP=123        0.28       1.6     1.4  2.7 -0.6156E+00  0.1417E+01 -0.7565E+00E
 Epicentro: ZAPATOCA - SANTANDER                                               3
 ACTION:UPD 18-01-04 13:24 OP:rebc STATUS:               ID:20171226020902 L   I
 OLDACT:REG 17-12-26 12:54 OP:osc  STATUS:               ID:20171226020556     3
 2017-12-26-0208-00M.COL___469                                                 6
 STAT SP IPHASW D HRMM SECON CODA AMPLIT PERI AZIMU VELO AIN AR TRES W  DIS CAZ7
 BAR2 EZ EP        2 9 21.04                             169   -0.0110 25.7 168 
 BAR2 EZ ES        2 9 35.66                             169    0.0010 25.7 168 
 BAR2 EZ I         2 9 41.13         2.1 0.24            168           25.7 168 
 PAM  EZ EP        2 9 24.06                             148    0.0710 82.0  46 
 PAM  EN ES        2 9 40.86                             148   -0.0410 82.0  46 
 PAM  EZ I         2 9 42.42         1.5 0.14            154           82.0  46 
 PTB  HZ EP        2 9 27.78                             132   -0.07 9  139 257 
 PTB  HN ES        2 9 47.83                             132    0.05 9  139 257 
 PTB  HZ I         2 9 51.04         1.6 0.24            136            139 257 
 OCA  HN ES        2 9 51.11                             128    0.00 9  157 356 
 ZAR  HN ES        2 9 57.41                             122   -0.01 9  195 293 
                                                                                
