 2012 1226 0352  0.2 L   6.789 -73.114148.9  RSN 10 0.5 1.8LRSN                1
 GAP=186        0.93       3.9     5.8  6.4  0.3295E+01  0.1085E+02  0.3806E-01E
 Epicentro: LOS SANTOS - SANTANDER                                             3
 ACTION:UPD 13-01-04 14:30 OP:ep   STATUS:               ID:20121226035200 L   I
 2012-12-26-0350-00M.COL___242                                                 6
 STAT SP IPHASW D HRMM SECON CODA AMPLIT PERI AZIMU VELO AIN AR TRES W  DIS CAZ7
 BAR2 SZ EP   1    352 20.31                             171    0.07 7 23.0 199 
 BAR2 SZ ES        352 35.71                             171   -0.1310 23.0 199 
 BAR2 SZ I         352 37.16        31.4 0.20                          23.0 199 
 GIR2 SZ EP   1    352 20.56                             167    0.23 7 33.2 345 
 GIR2 SZ ES   1    352 35.71                             167   -0.30 7 33.2 345 
 GIR2 SZ I         352 37.01         8.2 0.12                          33.2 345 
 BRR  HZ EP   1    352 22.29                             152    0.36 7 74.9 298 
 BRR  HN ES        352 39.57                             152    0.7110 74.9 298 
 BRR  HZ I         352 41.95        11.5 0.14                          74.9 298 
 RUS  HZ EP   1    352 24.18                             145   -0.01 7 99.2 178 
 RUS  HN ES   1    352 42.91                             145    0.02 7 99.2 178 
 RUS  HZ I         352 44.28        10.4 0.26                          99.2 178 
 PTB  HZ EP   1    352 27.29                             132   -0.46 7  151 260 
 PTB  HN ES   1    352 48.24                             132   -0.97 7  151 260 
 PTB  HZ I         352 50.02         8.7 0.24                           151 260 
 OCA  HN ES   1    352 51.36                             130    0.02 7  162 352 
 OCA  HZ I         352 56.25         4.7 0.32                           162 352 
 ZAR  HZ EP   2    352 33.53                             123    0.26 4  208 292 
 ZAR  HN ES   1    352 58.65                             123   -0.38 6  208 292 
 ZAR  HZ I         353  5.13         6.4 0.46                           208 292 
 SML  HZ EP   1    352 36.62                             118   -0.69 6  246 335 
 SML  HN ES   1    353  5.80                             118   -0.44 6  246 335 
 SML  HZ I         353 14.59         7.5 0.10                           246 335 
 CHI  HN ES   1    353  7.29                             118   -0.32 6  248 196 
 HEL  HZ EP   1    352 42.10                             115    1.15 6  275 256 
 HEL  HE ES   1    353 13.17                             115    0.46 6  275 256 
 HEL  HZ I         353 19.34         4.0 0.50                           275 256 
                                                                                
