 2013  626 0011 56.9 L   6.698 -73.653120.8  RSN  4 0.2 1.1LRSN                1
 GAP=114        0.47       3.1     2.4  4.1  0.2772E+01  0.1501E+01  0.3533E+01E
 Epicentro: EL CARMEN DE CHUCURI - SANTANDER                                   3
 ACTION:UPD 14-01-08 09:57 OP:ep   STATUS:               ID:20130626001156 L   I
 OLDACT:REG 13-06-26 07:27 OP:jn   STATUS:               ID:20130626000959     3
 2013-06-26-0009-59M.COL___267                                                 6
 STAT SP IPHASW D HRMM SECON CODA AMPLIT PERI AZIMU VELO AIN AR TRES W  DIS CAZ7
 BRR  HZ EP        012 14.01                             158    0.0310 45.7 352 
 BRR  HN ES        012 27.49                             158    0.1910 45.7 352 
 BRR  HZ I         012 28.80         5.5 0.38            160           45.7 352 
 BAR2 SZ EP        012 14.66                             155   -0.0410 53.3 103 
 BAR2 SZ ES        012 28.31                             155   -0.2710 53.3 103 
 BAR2 SZ I         012 28.99         3.7 0.16            156           53.3 103 
 PTB  HZ EP        012 16.84                             141    0.0110 90.5 259 
 PTB  HE ES        012 32.27                             141   -0.0910 90.5 259 
 PTB  HZ I         012 33.67         2.6 0.12            142           90.5 259 
 RUS  HZ EP        012 18.95                             135   -0.0610  109 145 
 RUS  HE ES        012 36.48                             135    0.2410  109 145 
 RUS  HZ I         012 37.62         0.9 0.62            137            109 145 
                                                                                
