 2015  126 0351 46.4 L   6.692 -73.190148.6  RSN  4 0.2 1.2LRSN                1
 GAP=224        0.47       3.9     4.2  5.3  0.9256E+01  0.4000E+01 -0.2309E+01E
 Epicentro: VILLANUEVA - SANTANDER                                             3
 ACTION:UPD 15-03-02 15:42 OP:nd   STATUS:               ID:20150126035146 L   I
 OLDACT:REG 15-01-26 14:44 OP:\cam STATUS:               ID:20150126034817     3
 2015-01-26-0348-17M.COL___274                                                 6
 STAT SP IPHASW D HRMM SECON CODA AMPLIT PERI AZIMU VELO AIN AR TRES W  DIS CAZ7
 BRR  HZ EP        352  7.77                             152   -0.2310 73.7 309 
 BRR  HN ES        352 24.93                             152    0.0910 73.7 309 
 BRR  HN I         352 28.07         5.2 0.40            152           73.7 309 
 RUS  HE ES        352 27.83                             148    0.0410 89.2 172 
 PTB  HZ EP        352 13.21                             134    0.21 9  141 263 
 PTB  HN ES        352 33.58                             134   -0.17 9  141 263 
 PTB  HZ I         352 38.92         0.9 0.30            134            141 263 
 ZAR  HN ES        352 44.64                             123    0.10 9  204 296 
                                                                                
