 2014 1126 0932 52.3 L   6.539 -73.479115.2  RSN  9 0.6 1.9LRSN                1
 GAP= 99        1.34       5.2     4.1  9.1 -0.3968E+01  0.1603E+02  0.1680E+01E
 Epicentro: EL CARMEN - SANTANDER                                              3
 ACTION:UPD 14-12-19 15:47 OP:nd   STATUS:               ID:20141126093252 L   I
 OLDACT:REG 14-11-26 15:44 OP:mh   STATUS:               ID:20141126092746     3
 2014-11-26-0927-46M.COL___297                                                 6
 STAT SP IPHASW D HRMM SECON CODA AMPLIT PERI AZIMU VELO AIN AR TRES W  DIS CAZ7
 BAR2 SZ IP     C  933  8.98                             163    0.4210 33.4  80 
 BAR2 SZ ES        933 21.56                             163    0.3010 33.4  80 
 BAR2 SZ I         933 22.90        51.4 0.65            162           33.4  80 
 RUS  HZ EP        933 11.88                             142    0.0510 83.8 148 
 RUS  HN ES        933 26.92                             142   -0.1610 83.8 148 
 RUS  HZ I         933 29.75         5.2 0.14            140           83.8 148 
 PTB  HZ IP     C  933 11.76                             134   -1.4110  108 270 
 PTB  HN ES   4    933 26.51                             134   -2.95 0  108 270 
 PTB  HZ I         933 27.52        29.7 0.26            134            108 270 
 PAM  SZ EP        933 15.87                             130    0.6510  124  44 
 PAM  SN ES        933 33.11                             130    0.0010  124  44 
 PAM  SZ I         933 34.85        14.5 0.26            130            124  44 
 ZAR  HZ EP   1    933 20.86                             117   -0.02 7  185 305 
 ZAR  HN ES        933 43.27                             117    0.08 9  185 305 
 ZAR  HZ I         933 45.25        15.0 0.36            117            185 305 
 TAM  HZ EP        933 20.96                             117   -0.16 9  187  93 
 TAM  HN ES        933 43.19                             117   -0.43 9  187  93 
 TAM  HZ I         933 46.78        10.7 0.62            116            187  93 
 GUY2CHZ EP        933 29.11                             110   -0.12 8  254 235 
 GUY2CHN ES        933 57.60                             110   -0.45 8  254 235 
 GUY2CHZ I         934  2.04         3.8 0.24                           254 235 
 RREF HZ EP        933 32.48                             108    0.67 8  275 229 
 RREF HN ES        934  3.59                             108    0.95 8  275 229 
 RREF HZ I         934  9.30         3.3 0.28            107            275 229 
 MON  HZ EP   4    933 37.70                             103   -1.63 0  346 316 
 MON  HN ES   4    934 13.30                             103   -2.73 0  346 316 
 MON  HZ I         934 17.70         2.0 0.48            103            346 316 
                                                                                
