 2010  326 0338 51.2 L   6.783 -73.035143.0  RSN  6 0.3 1.9LRSN                1
 GAP=209        0.49       3.0     7.8  4.7 -0.1067E+01 -0.4730E+01  0.2756E+01E
 Epicentro: CEPITA - SANTANDER                                                 3
 ACTION:UP  10-08-24 09:56 OP:vdl  STATUS:               ID:20100326033851 L   I
 2010-03-26-0336-40S.COL___098                                                 6
 STAT SP IPHASW D HRMM SECON CODA AMPLIT PERI AZIMU VELO SNR AR TRES W  DIS CAZ7
 BAR2 SZ IP        339 10.78                             169     0.210   27 218 
 BAR2 SZ ES   1    339 25.65                             169     0.0 7   27 218 
 BRR  HZ IP        339 12.75                             148     0.010   83 296 
 BRR  HE ES   1    339 29.60                             148     0.0 7   83 296 
 BRR  HZ I         339 32.55        18.5 0.13                            83 296 
 OCA  SZ EP   1    339 19.37                             128    -0.3 7  164 349 
 OCA  SZ ES   1    339 41.93                             128     0.1 7  164 349 
 OCA  SZ I         339 45.95        16.2 0.22                           164 349 
 CHI  HZ EP   1    339 28.70                             116    -0.3 6  250 198 
 CHI  HE ES   3    339 58.57                             116     0.2 2  250 198 
 CHI  HZ I         340  5.83         2.8 0.27                           250 198 
 TOL  SZ EP   2    339 41.18                             108     1.0 3  351 226 
 PRA  HZ EP   2    339 45.15                             106     0.0 3  397 211 
 PRA  HE ES   2    340 26.71                             106    -0.6 3  397 211 
 PRA  HZ I         340 32.49         2.9 0.64                           397 211 
                                                                                
