 2017 1026 0703 30.0 L   6.768 -73.144134.7  RSN  6 0.4 1.2LRSN                1
 GAP=138        1.12       5.3     4.8  7.6  0.2370E+01  0.1022E+02 -0.1884E+01E
 Epicentro: LOS SANTOS - SANTANDER                                             3
 ACTION:UPD 17-11-07 19:37 OP:rebc STATUS:               ID:20171026070330 L   I
 OLDACT:DUP 17-10-26 19:29 OP:dhb  STATUS:               ID:20171026065738d    3
 OLDACT:DUP 17-10-26 19:25 OP:dhb  STATUS:               ID:20171026065737d    3
 2017-10-26-0658-00M.COL___399                                                 6
 STAT SP IPHASW D HRMM SECON CODA AMPLIT PERI AZIMU VELO AIN AR TRES W  DIS CAZ7
 BAR2 EZ EP        7 3 48.05                             171   -0.2210 19.9 192 
 BAR2 EZ ES        7 4  2.14                             171   -0.3410 19.9 192 
 BAR2 EZ I         7 4  4.21         3.7 0.22            169           19.9 192 
 BRR  HZ EP        7 3 49.96                             150   -0.1510 73.1 301 
 BRR  HN ES        7 4  6.62                             150    0.8510 73.1 301 
 BRR  HZ I         7 4 24.17         5.6 0.40            146           73.1 301 
 PAM  EZ EP        7 3 50.99                             148   -0.2610 80.0  38 
 PAM  EN ES        7 4  7.69                             148   -0.1110 80.0  38 
 PAM  EZ I         7 4 10.21         4.2 0.64            152           80.0  38 
 RUS  HZ EP        7 3 52.53                             142    0.0810 97.1 176 
 RUS  HN ES        7 4 10.28                             142    0.3510 97.1 176 
 RUS  HZ I         7 4 11.30         2.2 0.24            153           97.1 176 
 PTB  HZ EP        7 3 56.63                             129    0.55 9  147 260 
 PTB  HN ES        7 4 15.51                             129   -0.89 9  147 260 
 PTB  HZ I         7 4 19.65         1.0 0.14            132            147 260 
 ZAR  HZ EP        7 4  2.14                             120    0.19 8  206 293 
 ZAR  HN ES        7 4 26.78                             120   -0.06 8  206 293 
 ZAR  HZ I         7 4 37.99         3.3 0.32            122            206 293 
                                                                                
