 2012  726 0424 14.8 L   6.782 -73.133150.1  RSN  7 0.5 1.5LRSN                1
 GAP=184        1.11       7.7    10.3 11.4  0.4016E+02  0.7415E+01  0.2453E+01E
 Epicentro: LOS SANTOS - SANTANDER                                             3
 ACTION:UPD 12-08-14 11:45 OP:ep   STATUS:               ID:20120726042414 L   I
 2012-07-26-0420-00M.COL___215                                                 6
 STAT SP IPHASW D HRMM SECON CODA AMPLIT PERI AZIMU VELO AIN AR TRES W  DIS CAZ7
 BAR2 SZ EP   1    424 34.46                             171    -0.5 7   22 195 
 BAR2 SZ ES   1    424 49.86                             171    -0.8 7   22 195 
 BAR2 SZ I         424 51.87         9.7 0.20            168             22 195 
 BRR  HZ EP        424 37.12                             152     0.610   73 299 
 BRR  HN ES   1    424 54.11                             152     0.6 7   73 299 
 RUS  HZ EP        424 38.69                             145    -0.210   98 177 
 RUS  HN ES   1    424 58.19                             145     0.6 7   98 177 
 RUS  HZ I         424 59.05         3.1 0.17            145             98 177 
 PTB  HZ EP   2    424 41.97                             133    -0.3 5  149 260 
 PTB  HN ES   2    425  2.97                             133    -0.6 5  149 260 
 PTB  HZ I         425  5.65         2.7 0.14            131            149 260 
 OCA  HN ES   2    425  5.81                             130    -0.4 5  162 353 
 ZAR  HN ES   1    425 13.14                             123    -0.3 6  206 293 
 ZAR  HZ I         425 18.45         3.9 0.29            122            206 293 
 CHI  HN ES   2    425 22.01                             118     0.0 4  247 196 
