 2016  726 0515  4.4 L   6.773 -73.165150.3  RSN  5 0.3 1.4LRSN                1
 GAP=135        0.79       5.2     4.8  6.2  0.5454E+01 -0.2670E+01 -0.5321E+01E
 Epicentro: LOS SANTOS - SANTANDER                                             3
 ACTION:UPD 17-03-29 16:55 OP:lp   STATUS:               ID:20160726051504 L   I
 OLDACT:DUP 16-07-26 17:30 OP:ar   STATUS:               ID:20160726050760d    3
 OLDACT:UP  16-07-26 17:29 OP:ar   STATUS:               ID:20160726050759     3
 OLDACT:REG 16-07-26 13:41 OP:ar   STATUS:               ID:20160726050759     3
 2016-07-26-0507-59S.COL___334                                                 6
 STAT SP IPHASW D HRMM SECON CODA AMPLIT PERI AZIMU VELO AIN AR TRES W  DIS CAZ7
 BAR2 EZ EP        515 24.47                             172   -0.0510 20.0 185 
 BAR2 EZ ES        515 39.63                             172   -0.5810 20.0 185 
 BAR2 EZ I         515 41.99         8.5 0.26            170           20.0 185 
 BRR  HZ EP        515 26.26                             153    0.2410 70.9 302 
 BRR  HN ES        515 43.19                             153    0.3010 70.9 302 
 BRR  HZ I         515 48.18         9.6 0.32            149           70.9 302 
 PAM  EZ EP        515 27.36                             150    0.0410 81.1  39 
 PAM  EZ I         515 46.96         5.4 0.26            137           81.1  39 
 RUS  HZ EP        515 28.37                             145   -0.0310 97.7 175 
 RUS  HN ES        515 47.52                             145    0.4010 97.7 175 
 RUS  HZ I         515 49.01         1.6 0.34            150           97.7 175 
 PTB  HZ EP        515 31.15                             134   -0.35 9  145 260 
 PTB  HN ES        515 52.64                             134   -0.01 9  145 260 
 PTB  HZ I         515 54.69         3.1 0.14            136            145 260 
                                                                                
