 2014  526 0022 46.1 L   6.802 -73.161139.2  RSN  9 0.4 1.7LRSN                1
 GAP=181        0.92       2.8     5.2  7.2  0.1721E+01  0.4118E+01 -0.7636E+00E
 Epicentro: LOS SANTOS - SANTANDER                                             3
 ACTION:UPD 15-03-16 17:00 OP:nd   STATUS:               ID:20140526002246 L   I
 OLDACT:UP  14-05-26 15:29 OP:mh   STATUS:               ID:20140526001814     3
 OLDACT:REG 14-05-26 12:41 OP:mh   STATUS:               ID:20140526001814     3
 2014-05-26-0018-14M.COL___227                                                 6
 STAT SP IPHASW D HRMM SECON CODA AMPLIT PERI AZIMU VELO AIN AR TRES W  DIS CAZ7
 BRR  HZ EP        023  7.16                             152    0.6810 69.6 299 
 BRR  HN ES   1    023 21.97                             152   -0.38 7 69.6 299 
 BRR  HZ I         023 29.18         8.3 0.11            152           69.6 299 
 RUS  HZ EP        023  9.11                             142   -0.1510  101 175 
 RUS  HN ES        023 27.53                             142    0.2210  101 175 
 RUS  HZ I         023 28.83         3.9 0.25            149            101 175 
 PTB  HZ EP        023 12.82                             131    0.41 9  146 259 
 PTB  HN ES   1    023 32.65                             131   -0.27 7  146 259 
 PTB  HZ I         023 37.35         5.9 0.16            134            146 259 
 OCA  HZ EP   4    023 11.75                             128   -2.15 0  160 354 
 OCA  HN ES        023 35.41                             128   -0.15 9  160 354 
 OCA  HZ I         023 41.03         7.3 0.22            132            160 354 
 SPBC HZ EP        023 14.04                             128    0.00 9  162 218 
 SPBC HN ES        023 35.43                             128   -0.38 9  162 218 
 SPBC HZ I         023 40.91                             133            162 218 
 ZAR  HZ EP        023 17.33                             121   -0.65 9  202 292 
 ZAR  HN ES        023 43.39                             121    0.57 9  202 292 
 NOR  HZ EP        023 21.79                             117    0.45 8  233 234 
 NOR  HN ES   1    023 48.48                             117   -0.33 6  233 234 
 NOR  HZ I         023 52.72         3.9 0.16            122            233 234 
 SML  HZ EP   1    023 22.03                             116   -0.26 6  243 336 
 SML  HN ES        023 50.26                             116   -0.24 8  243 336 
 SML  HZ I         023 59.34        10.2 0.09            120            243 336 
 CHI  HZ EP   1    023 22.90                             116   -0.54 6  248 195 
 CHI  HN ES   4    023 54.41                             116    1.86 0  248 195 
 GUY2CHN ES   4    024  4.88                             111    1.92 0  300 235 
 SJC  HZ EP   4    023 39.74                             105   -1.61 0  408 327 
 SJC  HN ES   4    024 17.03                             105   -7.39 0  408 327 
                                                                                
