 2010 1026 0315 39.0 L   6.792 -73.080150.1  RSN  7 0.4 1.5LRSN                1
 GAP=166        0.73       4.9     7.5  7.0 -0.1813E+00  0.4610E+01  0.2544E+01E
 Epicentro: LOS SANTOS - SANTANDER                                             3
 ACTION:UP  11-02-18 11:12 OP:tino STATUS:               ID:20101026031539 L   I
 2010-10-26-0311-15S.COL___125                                                 6
 STAT SP IPHASW D HRMM SECON CODA AMPLIT PERI AZIMU VELO SNR AR TRES W  DIS CAZ7
 BAR2 SZ IP        315 59.15                             170     0.010   25 207 
 BAR2 SZ ES   1    316 15.22                             170     0.3 7   25 207 
 BAR2 SZ I         316 17.01         7.2 0.21                            25 207 
 BRR  HZ EP   1    316  1.04                             151     0.0 7   78 297 
 BRR  HZ I         316  1.39         8.2 0.09                            78 297 
 BRR  HN ES   1    316 18.40                             151     0.2 7   78 297 
 RUS  HZ EP   1    316  3.38                             145     0.3 7  100 180 
 RUS  HE ES   1    316 21.55                             145    -0.3 7  100 180 
 GRA  SZ EP   2    316  5.04                             138     0.5 5  125  14 
 GRA  SZ ES   2    316 23.40                             138    -1.0 5  125  14 
 GRA  SZ I         316 29.54         2.9 0.27                           125  14 
 NOR  SZ EP   2    316 15.43                             119    -0.1 4  240 236 
 NOR  SN ES   2    316 43.53                             119    -0.6 4  240 236 
 CHI  HZ EP   2    316 17.12                             118     0.1 4  250 197 
 CHI  HZ I         316 54.97         1.5 0.48                           250 197 
 HEL  HZ EP   2    316 19.78                             115    -0.4 4  279 256 
 HEL  HZ I         316 58.55         2.2 0.52                           279 256 
                                                                                
