 2012  926 0416  4.1 L   6.793 -73.119149.5  RSN  8 0.3 2.3LRSN                1
 GAP=140        0.53       3.9     4.3  6.3  0.1256E+01  0.4250E+01 -0.1129E+01E
 Epicentro: LOS SANTOS - SANTANDER                                             3
 ACTION:UPD 12-10-22 14:20 OP:ep   STATUS:               ID:20120926041604 L   I
 2012-09-26-0410-00M.COL___217                                                 6
 STAT SP IPHASW D HRMM SECON CODA AMPLIT PERI AZIMU VELO AIN AR TRES W  DIS CAZ7
 BAR2 SZ EP   1    416 24.00                             171   -0.19 7 23.3 198 
 BAR2 SZ ES   2    416 39.83                             171   -0.02 5 23.3 198 
 BAR2 SZ I         416 40.79        30.9 0.24                          23.3 198 
 GIR2 SZ EP   1    416 24.19                             167   -0.08 7 32.7 345 
 BRR  HZ EP        416 25.91                             152    0.0810 74.2 298 
 BRR  HN ES   2    416 43.42                             152    0.64 5 74.2 298 
 BRR  HN I         416 43.95        74.2 0.19                          74.2 298 
 PAM  SZ EP   1    416 26.89                             152    0.23 7 76.2  37 
 PAM  SN ES   2    416 44.20                             152   -0.04 5 76.2  37 
 PAM  SZ I         416 46.32         9.5 0.22                          76.2  37 
 RUS  HZ EP   1    416 27.89                             145   -0.28 7 99.6 178 
 RUS  HN ES   2    416 46.84                             145   -0.09 5 99.6 178 
 PTB  HN ES   2    416 52.43                             132   -0.67 5  151 259 
 PTB  HN I         416 57.83        27.6 0.18                           151 259 
 ZAR  HZ EP   1    416 36.98                             123   -0.14 6  207 292 
 ZAR  HN ES   2    417  3.06                             123    0.20 4  207 292 
 ZAR  HN I         417  8.40        25.1 0.16                           207 292 
 CHI  HN ES   2    417 12.49                             118    0.90 4  249 196 
                                                                                
