 2017 1126 0352  3.8 L   6.795 -73.129138.2  RSN  5 0.3 0.9LRSN                1
 GAP=245        0.85       6.5     6.0  8.3  0.1978E+02  0.1464E+02 -0.2991E+01E
 Epicentro: LOS SANTOS - SANTANDER                                             3
 ACTION:UPD 17-12-12 20:00 OP:rebc STATUS:               ID:20171126035203 L   I
 OLDACT:REG 17-11-26 13:15 OP:dani STATUS:               ID:20171126034738     3
 2017-11-26-0348-00M.COL___492                                                 6
 STAT SP IPHASW D HRMM SECON CODA AMPLIT PERI AZIMU VELO AIN AR TRES W  DIS CAZ7
 BAR2 EZ ES        352 36.74                             170   -0.3710 23.2 195 
 RUS  HZ EP        352 26.82                             142    0.0610 99.9 177 
 RUS  HN ES        352 45.17                             142    0.5010 99.9 177 
 RUS  HZ I         352 47.00         1.3 0.26            142           99.9 177 
 PTB  HZ EP        352 29.94                             130   -0.37 9  149 259 
 PTB  HN ES        352 51.06                             130    0.07 9  149 259 
 PTB  HZ I         352 55.27         1.2 0.36            130            149 259 
 SPBC HN ES        352 53.34                             127   -0.29 9  164 220 
 ZAR  HN ES        353  1.44                             120    0.41 8  206 292 
                                                                                
