 2013  226 0335 11.5 L   6.741 -73.199139.4  RSN  5 0.4 1.7LRSN                1
 GAP=132        1.05       6.6     6.3  8.9  0.9462E+01 -0.5099E+01 -0.8402E+01E
 Epicentro: VILLANUEVA - SANTANDER                                             3
 ACTION:UPD 13-03-12 09:35 OP:ep   STATUS:               ID:20130226033511 L   I
 2013-02-26-0328-51M.COL___194                                                 6
 STAT SP IPHASW D HRMM SECON CODA AMPLIT PERI AZIMU VELO AIN AR TRES W  DIS CAZ7
 BAR2 SZ ES   1    335 44.03                             173   -0.84 7 16.6 174 
 BAR2 SZ I         335 45.93        12.5 0.18            171           16.6 174 
 BRR  HZ EP        335 32.14                             152    0.2610 69.7 306 
 BRR  HN ES        335 48.37                             152    0.6010 69.7 306 
 BRR  HN I         335 49.19        22.0 0.20            152           69.7 306 
 PAM  SZ IP        335 33.25                             147   -0.3610 86.1  40 
 PAM  SZ I         335 33.42         8.9 0.24            150           86.1  40 
 RUS  HZ EP        335 34.51                             144    0.3010 94.7 172 
 RUS  HN ES        335 52.15                             144    0.2310 94.7 172 
 RUS  HN I         335 54.07         7.6 0.26            144           94.7 172 
 PTB  HZ EP        335 37.05                             132   -0.28 9  141 261 
 PTB  HN ES        335 57.13                             132   -0.34 9  141 261 
 PTB  HN I         336  0.43         5.5 0.16            132            141 261 
                                                                                
