 2016  926 0827 32.3 L   6.808 -73.127148.4  RSN 16 0.5 2.2LRSN                1
 GAP=120        1.24       3.6     4.6  6.3 -0.1826E+01  0.8292E+01  0.3762E+01E
 Epicentro: LOS SANTOS - SANTANDER                                             3
 ACTION:UPD 17-08-17 21:16 OP:lp   STATUS:               ID:20160926082732 L   I
 OLDACT:UP  16-09-26 18:46 OP:dani STATUS:               ID:20160926081740     3
 OLDACT:UP  16-09-26 18:46 OP:dani STATUS:               ID:20160926081740     3
 OLDACT:REG 16-09-26 13:39 OP:dani STATUS:               ID:20160926081740     3
 2016-09-26-0818-00M.COL___327                                                 6
 STAT SP IPHASW D HRMM SECON CODA AMPLIT PERI AZIMU VELO AIN AR TRES W  DIS CAZ7
 BAR2 EZ EP        827 52.31                             170    0.0110 24.7 194 
 BAR2 EZ ES        828  7.82                             170   -0.0510 24.7 194 
 BAR2 EZ I         828  8.90        34.8 0.18            170           24.7 194 
 BRR  HZ EP        827 54.11                             153    0.2810 72.6 297 
 BRR  HN ES        828 11.20                             153    0.5910 72.6 297 
 BRR  HZ I         828 14.94        24.4 0.38            142           72.6 297 
 PAM  EZ EP        827 55.36                             152    0.6610 75.3  39 
 PAM  EN ES        828 12.32                             152    0.1710 75.3  39 
 PAM  EZ I         828 14.54        18.1 0.50            145           75.3  39 
 RUS  HZ EP        827 56.28                             144   -0.1110  101 177 
 RUS  HN ES        828 15.37                             144    0.2110  101 177 
 RUS  HZ I         828 16.07        17.5 0.24            141            101 177 
 PTB  HZ EP        827 58.81                             132   -0.89 9  150 259 
 PTB  HZ I         828 27.04        22.0 0.64            123            150 259 
 OCA  HZ EP        828  0.71                             130   -0.06 9  160 352 
 OCA  HN ES        828 22.17                             130   -0.80 9  160 352 
 OCA  HZ I         828 30.95        27.8 0.30            121            160 352 
 SPBC HZ EP        828  1.17                             129   -0.04 9  165 219 
 SPBC HE ES        828 22.84                             129   -0.91 9  165 219 
 SPBC HZ I         828 25.89        28.8 0.34            123            165 219 
 ZAR  HZ EP        828  4.80                             123   -0.30 8  206 292 
 ZAR  HN ES        828 30.40                             123   -0.27 8  206 292 
 ZAR  HZ I         828 35.84        15.3 0.52            114            206 292 
 NOR  HZ EP        828  8.43                             119   -0.01 8  237 235 
 NOR  HN ES        828 36.74                             119    0.12 8  237 235 
 NOR  HZ I         828 40.99        14.6 0.24            112            237 235 
 CHI  HZ EP        828 10.44                             117    0.12 8  250 196 
 CHI  HE ES        828 39.88                             117   -0.08 8  250 196 
 CHI  HZ I         828 43.31        10.6 0.38            112            250 196 
 ROSC BZ EP   4    828 12.10                             117    1.31 0  255 211 
 ROSC BN ES   4    828 43.52                             117    2.73 0  255 211 
 ROSC BZ I         828 47.19        18.4 0.41            111            255 211 
 HEL  HZ EP   4    828 14.54                             115    1.62 0  274 256 
 HEL  HE ES        828 44.23                             115   -0.35 8  274 256 
 HEL  HZ I         828 50.36         9.1 0.27            109            274 256 
 GUY2CHZ EP        828 17.71                             113    1.41 7  303 235 
 GUY2CHZ I         828 57.51         6.2 0.22                           303 235 
 PTGC HZ EP        828 15.55                             112   -0.76 7  309 159 
 PTGC HE ES   4    828 48.79                             112   -1.83 0  309 159 
 PTGC HZ I         828 53.92         8.0 0.23            107            309 159 
 CBOC HZ EP        828 20.29                             110    0.68 7  336 252 
 CBOC HN ES        828 57.41                             110    0.92 7  336 252 
 CBOC HZ I         829 12.16         2.6 0.32            104            336 252 
 SJC  HZ EP   4    828 26.50                             106   -1.51 0  410 327 
 SJC  HZ I         829 15.50         1.9 0.27            101            410 327 
                                                                                
