 2013  626 0407 15.7 L   6.662 -73.252144.0  RSN  4 0.3 1.4LRSN                1
 GAP=181        0.64       5.9     6.3  6.2  0.1893E+02  0.1077E+02  0.7023E+01E
 Epicentro: BARICHARA - SANTANDER                                              3
 ACTION:UPD 14-01-08 09:57 OP:ep   STATUS:               ID:20130626040715 L   I
 OLDACT:REG 13-06-26 09:36 OP:jn   STATUS:               ID:20130626040550     3
 2013-06-26-0405-50M.COL___229                                                 6
 STAT SP IPHASW D HRMM SECON CODA AMPLIT PERI AZIMU VELO AIN AR TRES W  DIS CAZ7
 BAR2 SZ ES   1    4 7 49.40                             175   -0.54 7 10.9 135 
 BAR2 SZ I         4 7 50.52         5.8 0.58            175           10.9 135 
 BRR  HZ EP        4 7 36.51                             152   -0.1410 70.7 314 
 BRR  HN ES        4 7 53.30                             152    0.3310 70.7 314 
 BRR  HZ I         4 7 56.44         4.6 0.47            154           70.7 314 
 RUS  HZ EP   1    4 7 38.55                             147    0.19 7 87.2 168 
 RUS  HE ES   1    4 7 56.28                             147    0.25 7 87.2 168 
 RUS  HZ I         4 7 59.16         3.3 0.38            149           87.2 168 
 PTB  HZ EP        4 7 41.24                             135   -0.0610  134 264 
 PTB  HN ES   1    4 8  1.11                             135   -0.15 7  134 264 
 PTB  HZ I         4 8  3.01         3.3 0.47            136            134 264 
                                                                                
