 2016  926 0021 35.3 L   6.815 -73.125150.6  RSN  9 0.3 1.8LRSN                1
 GAP=185        0.76       2.8     4.0  4.8  0.1335E+01  0.3477E+01  0.2596E+01E
 Epicentro: LOS SANTOS - SANTANDER                                             3
 ACTION:UPD 17-08-17 21:16 OP:lp   STATUS:               ID:20160926002135 L   I
 OLDACT:UP  16-09-26 13:56 OP:dani STATUS:               ID:20160926001745     3
 OLDACT:REG 16-09-26 12:33 OP:dani STATUS:               ID:20160926001745     3
 2016-09-26-0018-00M.COL___327                                                 6
 STAT SP IPHASW D HRMM SECON CODA AMPLIT PERI AZIMU VELO AIN AR TRES W  DIS CAZ7
 BAR2 EZ ES        022 11.02                             170   -0.3010 25.5 194 
 BRR  HZ EP        021 57.45                             153    0.4510 72.4 296 
 BRR  HN ES        022 14.46                             153    0.5010 72.4 296 
 BRR  HZ I         022 18.20         5.5 0.26            150           72.4 296 
 RUS  HZ EP        021 59.38                             144   -0.2210  102 177 
 RUS  HN ES        022 18.69                             144    0.1010  102 177 
 RUS  HZ I         022 19.25         6.6 0.32            133            102 177 
 PTB  HZ EP        022  2.33                             133   -0.53 9  150 258 
 PTB  HE ES        022 24.38                             133   -0.00 9  150 258 
 PTB  HZ I         022 25.59         8.6 0.16            125            150 258 
 OCA  HE ES        022 25.91                             131   -0.19 9  159 352 
 SPBC HZ EP        022  4.58                             130    0.19 9  166 219 
 SPBC HE ES        022 26.91                             130   -0.21 9  166 219 
 SPBC HZ I         022 29.24        15.8 0.26            120            166 219 
 ZAR  HE ES        022 33.57                             123   -0.28 8  206 291 
 NOR  HZ EP        022 11.84                             119    0.26 8  238 234 
 NOR  HE ES        022 39.97                             119    0.06 8  238 234 
 NOR  HZ I         022 43.10         6.7 0.17            111            238 234 
 CHI  HZ EP        022 13.65                             118    0.18 8  251 196 
 CHI  HZ I         022 51.41         2.6 0.31            109            251 196 
                                                                                
