 2012  126 0522  3.7 L   6.713 -73.217156.0  RSN  4 0.2 1.2LRSN                1
 GAP=216        0.58       6.1     6.4  7.5  0.1933E+02 -0.6556E+01 -0.6418E+01E
 Epicentro: VILLANUEVA - SANTANDER                                             3
 ACTION:UP  12-02-03 08:20 OP:REBC STATUS:               ID:20120126052203 L   I
 2012-01-26-0520-00M.COL___188                                                 6
 STAT SP IPHASW D HRMM SECON CODA AMPLIT PERI AZIMU VELO SNR AR TRES W  DIS CAZ7
 BAR2 SZ EP   2    522 24.43                             175     0.0 5   14 164 
 BAR2 SZ I         522 38.96         3.1 0.59                            14 164 
 BRR  HZ EP        522 25.64                             155    -0.310   70 309 
 BRR  HN ES   1    522 43.49                             155     0.3 7   70 309 
 BRR  HZ I         522 50.81         5.1 0.48                            70 309 
 RUS  HZ EP   1    522 28.19                             148     0.3 7   92 171 
 RUS  HE ES   1    522 46.61                             148    -0.2 7   92 171 
 RUS  HZ I         522 47.70         1.4 0.42                            92 171 
 PTB  HZ EP   1    522 30.91                             136     0.2 7  138 262 
 PTB  HN ES   1    522 51.69                             136    -0.1 7  138 262 
                                                                                
