 2014  126 0122 30.1 L   6.502 -73.670103.7  RSN 14 0.4 1.8LRSN                1
 GAP= 57        1.09       2.6     2.9  6.0 -0.1730E+01  0.4443E+01 -0.2292E+00E
 Epicentro: SANTA HELENA DEL OPON - SANTANDER                                  3
 ACTION:UPD 14-03-13 09:58 OP:ep   STATUS:               ID:20140126012230 L   I
 OLDACT:REG 14-01-26 09:08 OP:nd   STATUS:               ID:20140126012000     3
 2014-01-26-0120-00M.COL___285                                                 6
 STAT SP IPHASW D HRMM SECON CODA AMPLIT PERI AZIMU VELO AIN AR TRES W  DIS CAZ7
 BAR2 SZ EP        122 46.35                             150    0.1910 54.8  79 
 BAR2 SZ ES        122 58.54                             150   -0.1210 54.8  79 
 BAR2 SZ I         123  0.49       143.8 0.36            152           54.8  79 
 BRR  HZ EP     D  122 46.73                             144    0.1010 67.1 356 
 BRR  HN ES        123  0.34                             144    0.8410 67.1 356 
 BRR  HZ I         123  5.51        11.7 0.22            142           67.1 356 
 PTB  HZ IP     D  122 47.48                             137   -0.7310 87.1 273 
 PTB  HN ES        123  1.69                             137   -0.6210 87.1 273 
 PTB  HZ I         123  4.05        17.9 0.20            135           87.1 273 
 RUS  HZ EP        122 49.39                             135   -0.0210 93.5 136 
 RUS  HN ES        123  3.89                             135   -0.5610 93.5 136 
 RUS  HZ I         123  5.93        14.0 0.32            136           93.5 136 
 SPBC HZ EP        122 50.15                             131    0.3610  104 205 
 SPBC HN ES        123  5.74                             131    0.6110  104 205 
 SPBC HZ I         123  7.80        14.6 0.32            131            104 205 
 PAM  SZ EP        122 54.03                             122    0.00 9  142  49 
 PAM  SN ES        123 12.41                             122   -0.26 9  142  49 
 PAM  SZ I         123 14.28         7.3 0.28            122            142  49 
 NOR  HZ EP        122 55.58                             116   -0.75 9  169 232 
 NOR  HN ES        123 16.57                             116   -0.19 9  169 232 
 NOR  HZ I         123 20.84         6.7 0.18            116            169 232 
 ZAR  HZ EP        122 56.81                             116    0.27 9  171 310 
 ZAR  HN ES   2    123 17.63                             116    0.49 4  171 310 
 ZAR  HZ I         123 21.88        17.7 0.22            115            171 310 
 OCA  HZ EP   4    122 56.24                             112   -3.26 0  196  11 
 OCA  HN ES        123 22.30                             112   -0.12 9  196  11 
 OCA  HZ I         123 30.14         7.3 0.34            112            196  11 
 CHI  HZ EP        123  1.56                             111    0.46 8  207 182 
 CHI  HN ES        123 25.57                             111    0.32 8  207 182 
 CHI  HZ I         123 34.42         1.8 0.24            111            207 182 
 HEL  HZ EP        123  1.58                             111    0.37 8  209 261 
 HEL  HN ES        123 25.39                             111   -0.06 8  209 261 
 HEL  HZ I         123 29.71         6.3 0.40            110            209 261 
 GUY2CHZ EP   4    123  5.92                             108    1.55 0  235 233 
 GUY2CHN ES   4    123 30.60                             108   -0.48 0  235 233 
 GUY2CHZ I         123 36.48         5.0 0.26                           235 233 
 RREF BZ EP   4    123  8.58                             106    1.48 0  257 226 
 RREF BN ES   4    123 36.91                             106    0.97 0  257 226 
 RREF BZ I         123 42.53         2.9 0.20            106            257 226 
 SML  HZ EP        123  6.39                             106   -0.09 8  258 350 
 SML  HN ES   4    123 34.82                             106   -0.01 0  258 350 
 SML  HZ I         123 44.62         7.6 0.28            105            258 350 
                                                                                
