 2015 1026 0855 20.2 L   6.834 -74.186 21.2  RSN  6 0.4 1.4LRSN                1
 GAP=106        1.06       2.7     3.9  7.6 -0.2327E+01 -0.1957E+02  0.1111E+02E
 Epicentro: PUERTO PARRA - SANTANDER                                           3
 ACTION:UPD 15-12-22 20:43 OP:cam  STATUS:               ID:20151026085520 L   I
 OLDACT:DUP 15-10-26 15:16 OP:mh   STATUS:               ID:20151026084751d    3
 2015-10-26-0847-50M.COL___313                                                 6
 STAT SP IPHASW D HRMM SECON CODA AMPLIT PERI AZIMU VELO AIN AR TRES W  DIS CAZ7
 ZAR  HZ EP        855 37.10                             100    0.2910  104 314 
 ZAR  HN ES        855 49.44                             100   -0.3010  104 314 
 ZAR  HZ I         855 53.18        10.5 0.14             94            104 314 
 SPBC HZ EP        855 40.74                              56    0.2110  131 175 
 SPBC HN ES        855 55.74                              56   -0.6310  131 175 
 SPBC HZ I         855 56.70         5.6 0.52             93            131 175 
 NOR  HZ EP        855 44.47                              56    0.45 9  160 208 
 NOR  HN ES        856  2.82                              56    0.24 9  160 208 
 NOR  HZ I         856  5.57         5.1 0.26             56            160 208 
 RUS  HZ EP        855 45.11                              56    0.46 9  160 130 
 RUS  HN ES        856  3.36                              56   -0.34 9  160 130 
 RUS  HZ I         856  5.40         2.5 0.28             56            160 130 
 PAM  EZ EP        855 45.93                              56   -0.35 9  173  71 
 PAM  EE ES        856  7.04                              56    0.44 9  173  71 
 PAM  EZ I         856  8.84         5.4 0.40             56            173  71 
 URE  HZ EP   4    855 46.04                              56   -0.49 0  180 304 
 URE  HN ES   4    856  6.34                              56   -0.71 0  180 304 
 SML  HZ EP        855 50.41                              56   -0.83 8  218   3 
 SML  HN ES        856 15.73                              56    0.31 8  218   3 
 SML  HZ I         856 20.91         4.8 0.10             56            218   3 
                                                                                
