 2016  926 0501 11.7 L   6.750 -73.152146.5  RSN  8 0.4 1.5LRSN                1
 GAP=138        1.09       4.9     4.5  7.4 -0.1243E+01  0.8357E+01  0.5042E+01E
 Epicentro: LOS SANTOS - SANTANDER                                             3
 ACTION:UPD 17-08-17 21:16 OP:lp   STATUS:               ID:20160926050111 L   I
 OLDACT:DUP 16-09-26 17:06 OP:dani STATUS:               ID:20160926045644d    3
 OLDACT:UP  16-09-26 17:06 OP:dani STATUS:               ID:20160926045643     3
 OLDACT:UP  16-09-26 17:04 OP:dani STATUS:               ID:20160926045643     3
 OLDACT:REG 16-09-26 13:04 OP:dani STATUS:               ID:20160926045643     3
 2016-09-26-0457-00M.COL___327                                                 6
 STAT SP IPHASW D HRMM SECON CODA AMPLIT PERI AZIMU VELO AIN AR TRES W  DIS CAZ7
 BAR2 EZ EP        5 1 31.23                             173   -0.1310 17.7 191 
 BAR2 EZ ES        5 1 46.33                             173   -0.3310 17.7 191 
 BAR2 EZ I         5 1 48.25        11.1 0.46            167           17.7 191 
 BRR  HZ EP        5 1 33.32                             152    0.2310 73.4 303 
 BRR  HN ES        5 1 50.53                             152    0.7910 73.4 303 
 BRR  HZ I         5 1 53.37         4.8 0.17            148           73.4 303 
 PAM  EZ EP        5 1 34.47                             149    0.1510 82.2  37 
 PAM  EN ES        5 1 51.81                             149   -0.1210 82.2  37 
 PAM  EZ I         5 1 53.88         5.1 0.34            144           82.2  37 
 RUS  HZ EP        5 1 35.11                             145   -0.0610 95.1 175 
 RUS  HE ES        5 1 53.51                             145    0.0610 95.1 175 
 RUS  HZ I         5 1 54.54         5.3 0.34            136           95.1 175 
 PTB  HZ EP        5 1 38.16                             132   -0.45 9  146 261 
 PTB  HN ES        5 1 58.74                             132   -0.83 9  146 261 
 PTB  HZ I         5 1 59.74         4.2 0.16            125            146 261 
 SPBC HZ EP        5 1 40.02                             130    0.17 9  158 220 
 SPBC HZ I         5 2  8.53         4.4 0.26            121            158 220 
 ZAR  HN ES        5 2  9.66                             122   -0.19 8  206 294 
 NOR  HN ES        5 2 15.49                             119    0.80 8  231 235 
                                                                                
