 2012  326 0342 10.3 L   6.765 -73.115148.0  RSN  5 0.4 1.3LRSN                1
 GAP=142        0.77       5.2     6.8  8.8 -0.1150E+01  0.1312E+01  0.6151E+01E
 ACTION:UP  12-03-31 23:22 OP:EP   STATUS:               ID:20120326034210 L   I
 2012-03-26-0340-00M.COL___196                                                 6
 STAT SP IPHASW D HRMM SECON CODA AMPLIT PERI AZIMU VELO SNR AR TRES W  DIS CAZ7
 BAR2 SZ EP        342 30.14                             172     0.010   21 201 
 BAR2 SZ I         342 35.68         6.5 0.38                            21 201 
 BRR  HZ EP        342 32.06                             151     0.110   76 300 
 BRR  HZ I         342 34.32         2.9 0.30                            76 300 
 BRR  HE ES   1    342 49.25                             151     0.4 7   76 300 
 PAM  SZ EP        342 32.78                             151     0.010   78  36 
 PAM  SN ES   1    342 50.16                             151    -0.2 7   78  36 
 RUS  HZ EP        342 34.31                             145     0.310   97 178 
 RUS  HN ES   1    342 52.28                             145    -0.2 7   97 178 
 PTB  HZ EP   2    342 36.82                             132    -0.9 5  150 261 
 PTB  HN ES   3    342 57.44                             132    -1.6 2  150 261 
 PTB  HZ I         343  4.01         2.1 0.50                           150 261 
                                                                                
