 2017 1226 0533  0.6 L   6.848 -73.165146.7  RSN  9 0.5 1.5LRSN                1
 GAP= 77        1.22       4.8     4.4  8.1 -0.2684E+01  0.8900E+01 -0.9239E+01E
 Epicentro: ZAPATOCA - SANTANDER                                               3
 ACTION:UPD 18-01-04 13:24 OP:rebc STATUS:               ID:20171226053300 L   I
 OLDACT:REG 17-12-26 13:26 OP:osc  STATUS:               ID:20171226051932     3
 2017-12-26-0528-00M.COL___460                                                 6
 STAT SP IPHASW D HRMM SECON CODA AMPLIT PERI AZIMU VELO AIN AR TRES W  DIS CAZ7
 BAR2 EZ EP        533 20.44                             169    0.0010 28.4 184 
 BAR2 EZ ES        533 35.26                             169   -0.6610 28.4 184 
 BAR2 EZ I         533 36.11         7.3 0.36            169           28.4 184 
 PAM  EZ EP        533 23.25                             152    0.5010 74.8  43 
 PAM  EN ES        533 40.07                             152    0.0410 74.8  43 
 PAM  EZ I         533 42.43         6.9 0.58            154           74.8  43 
 PTB  HZ EP        533 27.38                             132   -0.16 9  147 257 
 PTB  HE ES        533 48.87                             132    0.30 9  147 257 
 PTB  HZ I         533 50.97         2.5 0.18            133            147 257 
 OCA  HZ EP        533 28.65                             131    0.20 9  155 354 
 OCA  HN ES        533 50.24                             131    0.05 9  155 354 
 OCA  HZ I         533 51.71         6.1 0.22            132            155 354 
 TAM  HZ EP        533 28.70                             130    0.04 9  159 107 
 SPBC HE ES        533 51.59                             129   -0.33 9  166 217 
 SPBC HZ I         533 56.08         2.4 0.00            130            166 217 
 ZAR  HZ EP        533 33.32                             123    0.64 9  200 291 
 ZAR  HN ES        533 58.68                             123    0.96 9  200 291 
 ZAR  HZ I         534  4.21         4.1 0.28            124            200 291 
 URE  HE ES        534 12.03                             114   -0.96 7  280 291 
 SJC  HZ EP        533 54.64                             106   -0.87 6  404 327 
 SJC  HE ES        534 37.26                             106   -1.10 6  404 327 
                                                                                
