 2013 1226 0023 57.0 L   7.244 -73.956 69.9  RSN  6 0.5 1.3LRSN                1
 GAP=107        1.20       4.0     3.3  8.6 -0.1580E+01 -0.2656E+01  0.7473E+00E
 Epicentro: PUERTO WILCHES - SANTANDER                                         3
 ACTION:UP  14-01-13 10:21 OP:ep   STATUS:               ID:20131226002357 L   I
 OLDACT:UPD 14-01-09 13:43 OP:ep   STATUS:               ID:20131226002357 L   3
 OLDACT:UP  13-12-26 09:30 OP:mh   STATUS:               ID:20131226002000     3
 OLDACT:UP  13-12-26 09:27 OP:mh   STATUS:               ID:20131226002000     3
 OLDACT:REG 13-12-26 08:32 OP:mh   STATUS:               ID:20131226002000     3
 2013-12-26-0020-00M.COL___285                                                 6
 STAT SP IPHASW D HRMM SECON CODA AMPLIT PERI AZIMU VELO AIN AR TRES W  DIS CAZ7
 BRR  HZ EP        024  7.67                             154    0.0110 30.9 119 
 BRR  HN ES        024 16.35                             154    0.4110 30.9 119 
 BRR  HZ I         024 16.99        16.4 0.07                          30.9 119 
 PTB  HZ EP        024 12.71                             120   -0.5910 95.5 215 
 PTB  HN ES        024 25.23                             120   -0.7510 95.5 215 
 PTB  HZ I         024 26.03         6.6 0.17                          95.5 215 
 ZAR  HZ EP   1    024 14.67                             118    0.53 7  103 285 
 ZAR  HE ES        024 27.91                             118    0.4410  103 285 
 ZAR  HZ I         024 28.81        10.5 0.12            117            103 285 
 OCA  HN ES        024 32.87                             112   -0.3510  131  32 
 OCA  HZ I         024 36.06         3.7 0.20            111            131  32 
 PAM  SZ EP        024 18.83                             111    0.05 9  139  86 
 PAM  SE ES        024 35.30                             111   -0.43 9  139  86 
 RUS  HZ EP        024 24.00                             105    0.66 9  178 147 
 RUS  HN ES        024 44.27                             105    0.42 9  178 147 
 RUS  HZ I         024 45.00         1.6 0.22                           178 147 
                                                                                
