 2014 1026 0943 30.5 L   6.798 -73.161129.4  RSN  5 0.3 1.4LRSN                1
 GAP=145        0.74       5.8     4.1  5.5 -0.1027E+02  0.1844E+01  0.8310E+01E
 Epicentro: LOS SANTOS - SANTANDER                                             3
 ACTION:UPD 14-11-29 23:57 OP:nd   STATUS:               ID:20141026094330 L   I
 OLDACT:UP  14-10-29 17:22 OP:cam  STATUS:               ID:20141026093812d    3
 OLDACT:DUP 14-10-29 17:20 OP:cam  STATUS:               ID:20141026093812d    3
 2014-10-26-0938-09M.COL___277                                                 6
 STAT SP IPHASW D HRMM SECON CODA AMPLIT PERI AZIMU VELO AIN AR TRES W  DIS CAZ7
 BAR2 SZ EP        943 48.52                             169    0.3510 22.9 186 
 BAR2 SZ ES        944  2.01                             169    0.0810 22.9 186 
 BAR2 SZ I         944  4.62         6.1 0.18            173           22.9 186 
 BRR  HZ EP        943 50.29                             150    0.4610 69.8 299 
 BRR  HN ES        944  5.03                             150    0.1410 69.8 299 
 BRR  HN I         944 11.18        13.9 0.18            149           69.8 299 
 PAM  SZ EP        943 50.99                             147   -0.1010 78.6  40 
 PAM  SN ES        944  6.79                             147   -0.3510 78.6  40 
 PAM  SZ I         944 10.20         3.5 0.46            150           78.6  40 
 PTB  HZ EP        943 55.88                             128   -0.15 9  146 259 
 PTB  HN ES        944 15.62                             128   -0.31 9  146 259 
 PTB  HZ I         944 18.81         3.2 0.14            131            146 259 
 SPBC HZ EP        943 57.48                             125   -0.21 9  162 219 
                                                                                
