 2012  326 0441 41.7 L   6.771 -73.155148.3  RSN  6 0.3 2.7LRSN                1
 GAP=234        0.88       8.5    11.5  9.7  0.5764E+02  0.4566E+02  0.3636E+02E
 ACTION:UP  12-03-31 23:22 OP:EP   STATUS:               ID:20120326044141 L   I
 2012-03-26-0440-00M.COL___196                                                 6
 STAT SP IPHASW D HRMM SECON CODA AMPLIT PERI AZIMU VELO SNR AR TRES W  DIS CAZ7
 BAR2 SZ EP        442  1.44                             172    -0.110   20 189 
 BAR2 SZ I         442 17.74       140.1 0.18                            20 189 
 BRR  HZ EP        442  3.21                             153     0.110   72 301 
 BRR  HN ES   1    442 20.22                             153     0.4 7   72 301 
 BRR  HZ I         442 24.48        83.1 0.14                            72 301 
 RUS  HZ EP        442  5.38                             145    -0.110   97 175 
 RUS  HN ES   1    442 23.78                             145    -0.2 7   97 175 
 RUS  HZ I         442 25.76        66.0 0.38                            97 175 
 PTB  HZ EP        442  8.16                             133    -0.5 9  146 260 
 PTB  HZ I         442 32.46        50.1 0.12                           146 260 
 NOR  SZ EP        442 17.40                             119     0.2 8  232 235 
 CHI  HZ EP        442 19.63                             118     0.5 8  245 195 
 CHI  HZ I         442 52.91        26.2 0.38                           245 195 
                                                                                
