 2010  326 0044 53.2 L   6.801 -73.092147.1  RSN  8 0.4 2.0LRSN                1
 GAP=205        0.76       4.5    10.3  6.7 -0.6011E+01  0.1724E+02  0.4134E+01E
 Epicentro: LOS SANTOS - SANTANDER                                             3
 ACTION:UP  10-08-24 09:56 OP:vdl  STATUS:               ID:20100326004453 L   I
 2010-03-26-0041-47S.COL___098                                                 6
 STAT SP IPHASW D HRMM SECON CODA AMPLIT PERI AZIMU VELO SNR AR TRES W  DIS CAZ7
 BAR2 SZ EP   1    045 12.48                             170    -0.5 7   25 204 
 BAR2 SZ ES   1    045 28.70                             170     0.2 7   25 204 
 BRR  HZ EP        045 14.47                             151    -0.310   77 296 
 BRR  HE ES   1    045 31.54                             151    -0.1 7   77 296 
 BRR  HZ I         045 33.88        19.8 0.34                            77 296 
 OCA  SZ EP   1    045 21.77                             130     0.1 7  161 351 
 OCA  SZ ES   1    045 44.26                             130     0.4 7  161 351 
 OCA  SZ I         045 47.19        26.6 0.12                           161 351 
 CHI  HZ EP   2    045 31.66                             117     0.5 4  250 196 
 CHI  HN ES   2    046  1.13                             117     0.4 4  250 196 
 CHI  HZ I         046  9.92         3.2 0.30                           250 196 
 HEL  HZ EP   1    045 34.87                             114     0.8 6  278 256 
 HEL  HZ I         046 12.05         3.5 0.20                           278 256 
 DBB  SZ EP   1    045 40.77                             109    -0.6 5  345 274 
 TOL  SZ EP   2    045 41.74                             109    -0.2 3  348 225 
 PRA  HZ EP   2    045 47.30                             107     0.2 3  395 210 
 PRA  HE ES   2    046 29.20                             107     0.1 3  395 210 
 PRA  HZ I         046 36.80         4.2 0.30                           395 210 
                                                                                
