 2012  326 0810  0.2 L   6.776 -73.156141.1  RSN  5 0.4 1.4LRSN                1
 GAP=136        0.91       9.9     9.2 10.0 -0.8955E+01  0.5309E+01  0.6049E+01E
 ACTION:UP  12-03-31 23:23 OP:EP   STATUS:               ID:20120326081000 L   I
 2012-03-26-0810-00M.COL___196                                                 6
 STAT SP IPHASW D HRMM SECON CODA AMPLIT PERI AZIMU VELO SNR AR TRES W  DIS CAZ7
 BAR2 SZ EP        810 19.22                             171     0.010   21 188 
 BAR2 SZ ES   1    810 33.67                             171    -0.4 7   21 188 
 BAR2 SZ I         810 35.28         5.6 0.22                            21 188 
 BRR  HN ES   2    810 37.80                             152     0.8 5   72 301 
 PAM  SZ EP        810 22.02                             149    -0.110   80  39 
 RUS  HZ EP        810 23.65                             143     0.410   98 175 
 RUS  HZ I         810 42.94         2.7 0.38                            98 175 
 PTB  HZ EP        810 26.29                             131    -0.3 9  146 260 
 PTB  HZ I         810 49.33         4.4 0.44                           146 260 
                                                                                
