 2015  626 0409 21.9 L   6.809 -73.051151.3  RSN 15 0.4 2.1LRSN                1
 GAP=221        0.73       2.6     4.2  4.3 -0.2325E+01  0.4387E+01  0.3086E+01E
 Epicentro: LOS SANTOS - SANTANDER                                             3
 ACTION:UPD 15-09-10 22:15 OP:cam  STATUS:               ID:20150626040921 L   I
 OLDACT:UP  15-06-26 15:43 OP:mh   STATUS:               ID:20150626040745     3
 OLDACT:UP  15-06-26 15:41 OP:mh   STATUS:               ID:20150626040745     3
 OLDACT:UP  15-06-26 15:41 OP:mh   STATUS:               ID:20150626040745     3
 OLDACT:UP  15-06-26 15:40 OP:mh   STATUS:               ID:20150626040745     3
 OLDACT:REG 15-06-26 13:18 OP:mh   STATUS:               ID:20150626040745     3
 2015-06-26-0407-45M.COL___319                                                 6
 STAT SP IPHASW D HRMM SECON CODA AMPLIT PERI AZIMU VELO AIN AR TRES W  DIS CAZ7
 BAR2 EZ EP        4 9 42.56                             169    0.2610 28.0 211 
 BAR2 EZ ES        4 9 57.95                             169   -0.2610 28.0 211 
 BAR2 EZ I         410  0.01        13.0 0.30            163           28.0 211 
 BRR  HZ EP        4 9 44.46                             151    0.3010 80.1 294 
 BRR  HN ES        410  1.77                             151    0.2410 80.1 294 
 BRR  HZ I         410  6.11        15.8 0.16            146           80.1 294 
 OCA  HN ES        410 13.30                             131    0.13 9  161 349 
 OCA  HZ I         410 18.02        24.8 0.22            132            161 349 
 ZAR  HZ EP   1    4 9 55.18                             122   -0.49 6  213 291 
 ZAR  HN ES        410 21.63                             122   -0.38 8  213 291 
 ZAR  HZ I         410 26.83        17.3 0.54            122            213 291 
 NOR  HZ EP        4 9 58.44                             119   -0.49 8  244 236 
 NOR  HN ES        410 27.44                             119   -0.37 8  244 236 
 NOR  HZ I         410 30.01        12.6 0.18            118            244 236 
 SML  HZ EP        4 9 59.44                             118    0.20 8  247 333 
 SML  HN ES   1    410 27.70                             118   -0.66 6  247 333 
 SML  HZ I         410 32.21        24.4 0.10            119            247 333 
 ROSC BZ EP   4    410  2.83                             117    1.81 0  259 213 
 ROSC BN ES   4    410 34.40                             117    2.87 0  259 213 
 ROSC BZ I         410 40.29        13.1 0.45            118            259 213 
 HEL  HZ EP        410  3.92                             115    0.37 7  282 256 
 HEL  HN ES        410 36.19                             115    0.16 7  282 256 
 HEL  HZ I         410 42.66         5.5 0.26            115            282 256 
 URE  HZ EP   4    410  2.51                             114   -1.78 0  293 291 
 URE  HN ES   4    410 34.22                             114   -3.13 0  293 291 
 URE  HZ I         410 40.34         4.8 0.16            114            293 291 
 GUY2CHZ EP   1    410  7.32                             113    0.52 5  310 236 
 GUY2CHN ES   4    410 43.07                             113    1.25 0  310 236 
 GUY2CHZ I         410 48.97         9.2 0.76                           310 236 
 CBOC HZ EP        410 10.12                             110   -0.10 7  344 252 
 CBOC HN ES        410 48.19                             110    0.28 7  344 252 
 CBOC HZ I         411  7.30         1.9 0.72            111            344 252 
 TOL  SZ EP        410 11.85                             110    0.54 6  352 226 
 TOL  SN ES   1    410 50.49                             110    0.63 5  352 226 
 TOL  SZ I         410 55.67         4.5 0.46            110            352 226 
 MON  HZ EP   4    410  9.67                             109   -2.33 0  361 307 
 MON  HN ES   4    410 48.26                             109   -2.82 0  361 307 
 MON  HZ I         410 50.61         2.9 0.44            110            361 307 
 PRA  HZ EP        410 16.12                             107   -0.21 6  398 211 
 PRA  HN ES        410 58.58                             107   -0.20 6  398 211 
 PRA  HZ I         411  1.27         4.0 0.24            108            398 211 
 ORTC HZ EP        410 16.14                             107   -0.70 6  402 217 
 ORTC HN ES        410 59.53                             107   -0.15 6  402 217 
 ORTC HZ I         411  4.99         3.5 0.42            108            402 217 
                                                                                
