 2014  226 0741 22.2 L   6.853 -73.181136.1  RSN 15 0.6 2.2LRSN                1
 GAP= 68        1.36       3.1     3.8  6.9 -0.1602E+01  0.8514E+01  0.1374E+01E
 Epicentro: ZAPATOCA - SANTANDER                                               3
 OLDACT:DUP 14-02-26 13:02 OP:stll STATUS:               ID:20140226073946d    3
 ACTION:UPD 14-03-10 08:13 OP:ep   STATUS:               ID:20140226074122 L   I
 OLDACT:UP  14-02-26 13:03 OP:stll STATUS:               ID:20140226073946d    3
 OLDACT:UP  14-02-26 13:02 OP:stll STATUS:               ID:20140226073946d    3
 2014-02-26-0739-45M.COL___223                                                 6
 STAT SP IPHASW D HRMM SECON CODA AMPLIT PERI AZIMU VELO AIN AR TRES W  DIS CAZ7
 BAR2 SZ EP        741 41.05                             167    0.2210 28.8 180 
 BAR2 SZ ES        741 55.57                             167    0.2210 28.8 180 
 BAR2 SZ I         741 57.91        31.0 0.28            168           28.8 180 
 PAM  SZ EP        741 43.73                             150    0.4110 75.6  45 
 PAM  SN ES        742  0.27                             150    0.5010 75.6  45 
 PAM  SZ I         742  2.78        49.0 0.52            155           75.6  45 
 RUS  HZ EP        741 45.20                             140   -0.3210  107 174 
 RUS  HN ES        742  3.44                             140   -0.2510  107 174 
 PTB  HZ EP        741 47.88                             130   -0.31 9  145 256 
 PTB  HN ES        742  8.12                             130   -0.32 9  145 256 
 PTB  HZ I         742 14.59        21.6 0.44            131            145 256 
 OCA  HZ EP        741 48.80                             128   -0.41 9  154 354 
 OCA  HN ES        742  9.97                             128   -0.28 9  154 354 
 OCA  HZ I         742 17.97        12.6 0.30            132            154 354 
 TAM  HZ IP     D  741 49.45                             127   -0.22 9  160 107 
 TAM  HZ I         741 49.68        27.9 0.38            133            160 107 
 TAM  HN ES        742 10.95                             127   -0.13 9  160 107 
 SPBC HZ EP        741 49.96                             126   -0.27 9  165 217 
 SPBC HN ES        742 11.88                             126   -0.18 9  165 217 
 SPBC HZ I         742 20.15        15.5 0.24            129            165 217 
 ZAR  HZ EP        741 53.66                             121    0.20 9  198 291 
 ZAR  HE ES        742 17.66                             121   -0.16 9  198 291 
 ZAR  HZ I         742 24.11        11.5 0.10            123            198 291 
 NOR  HZ EP        741 57.78                             116    0.32 8  235 233 
 NOR  HN ES        742 24.45                             116   -0.48 8  235 233 
 NOR  HZ I         742 32.29         9.0 0.16            119            235 233 
 SML  HZ EP        741 56.82                             116   -0.75 8  237 336 
 SML  HN ES        742 25.09                             116   -0.05 8  237 336 
 SML  HZ I         742 29.71        20.0 0.10            119            237 336 
 CHI  HZ EP        741 59.54                             115   -0.39 8  253 194 
 CHI  HN ES        742 28.64                             115   -0.70 8  253 194 
 CHI  HZ I         742 32.37         4.5 0.22            118            253 194 
 ROSC BZ EP        742  1.51                             114    1.33 8  256 210 
 ROSC BN ES        742 31.27                             114    1.48 8  256 210 
 ROSC BZ I         742 38.35         6.8 0.50            117            256 210 
 HEL  HZ EP        742  2.95                             113    1.23 8  270 254 
 HEL  HN ES        742 32.81                             113    0.29 8  270 254 
 HEL  HZ I         742 40.37         7.7 0.34            115            270 254 
 GUY2CHZ EP        742  6.74                             110    1.30 7  301 233 
 GUY2CHN ES        742 38.68                             110   -0.47 7  301 233 
 GUY2CHZ I         742 49.05         5.4 0.68                           301 233 
 PRA  HZ EP        742 14.98                             105   -0.83 6  395 209 
 PRA  HN ES        742 56.21                             105   -1.40 6  395 209 
 PRA  HZ I         743  4.81         6.6 0.30            107            395 209 
                                                                                
