 2014  226 0042  6.1 L   6.817 -73.118143.7  RSN 13 0.5 1.9LRSN                1
 GAP=139        0.91       3.0     4.2  5.4 -0.3524E+00  0.5043E+01  0.1676E+01E
 Epicentro: LOS SANTOS - SANTANDER                                             3
 ACTION:UPD 14-03-10 08:13 OP:ep   STATUS:               ID:20140226004206 L   I
 OLDACT:UP  14-02-27 00:53 OP:CF   STATUS:               ID:20140226004206 L   3
 OLDACT:REG 14-02-26 07:55 OP:fm   STATUS:               ID:20140226003939     3
 2014-02-26-0039-39M.COL___242                                                 6
 STAT SP IPHASW D HRMM SECON CODA AMPLIT PERI AZIMU VELO AIN AR TRES W  DIS CAZ7
 BAR2 SZ EP   1    042 25.15                             169   -0.34 7 25.8 196 
 BAR2 SZ ES   1    042 40.27                             169   -0.38 7 25.8 196 
 BAR2 SZ I         042 42.93        28.9 0.26            167           25.8 196 
 BRR  HZ EP        042 27.53                             152    0.4410 73.1 296 
 BRR  HN ES        042 44.17                             152    0.6810 73.1 296 
 BRR  HZ I         042 47.73        12.7 0.34            151           73.1 296 
 PAM  SZ EP   1    042 28.41                             151    0.56 7 74.0  39 
 PAM  SN ES   1    042 45.01                             151    0.16 7 74.0  39 
 PAM  SZ I         042 47.81         6.3 0.48            156           74.0  39 
 RUS  HZ EP     C  042 29.51                             143   -0.2110  102 178 
 RUS  HN ES   1    042 47.75                             143   -0.44 7  102 178 
 RUS  HZ I         042 49.52         5.7 0.28            144            102 178 
 PTB  HN ES   1    042 53.50                             131   -0.80 7  151 258 
 SPBC HZ EP   2    042 34.50                             128   -0.21 5  167 219 
 SPBC HN ES        042 57.17                             128    0.10 9  167 219 
 SPBC HZ I         043  3.61         9.8 0.42            129            167 219 
 ZAR  HZ EP        042 38.38                             122   -0.21 8  206 291 
 ZAR  HN ES        043  3.74                             122   -0.23 8  206 291 
 ZAR  HZ I         043 10.13         6.2 0.20            123            206 291 
 NOR  HZ EP   1    042 41.95                             118   -0.10 6  238 235 
 NOR  HN ES   1    043  9.85                             118   -0.27 6  238 235 
 NOR  HZ I         043 14.79         4.6 0.18            119            238 235 
 SML  HZ EP   1    042 41.95                             117   -0.58 6  243 334 
 SML  HN ES   1    043 10.39                             117   -0.58 6  243 334 
 SML  HZ I         043 13.56        10.1 0.10            119            243 334 
 CHI  HZ EP   1    042 43.84                             116   -0.08 6  251 196 
 CHI  HN ES   1    043 13.28                             116   -0.17 6  251 196 
 CHI  HZ I         043 20.09         3.7 0.50            118            251 196 
 GUY2CHZ EP        042 51.07                             112    1.10 7  305 235 
 GUY2CHN ES   1    043 24.70                             112    0.48 5  305 235 
 PRA  HZ EP   1    043  0.11                             106    0.24 4  395 210 
 PRA  HN ES   1    043 41.92                             106    0.08 4  395 210 
 PRA  HZ I         043 46.66         3.9 0.32            108            395 210 
 SJC  HZ EP   1    043  0.89                             105   -0.68 4  409 326 
 SJC  HN ES   4    043 40.59                             105   -4.27 0  409 326 
                                                                                
