 2015  426 0151 47.5 L   6.863 -73.155142.5  RSN  9 0.5 1.7LRSN                1
 GAP=228        1.02       4.7     5.5  6.8  0.9969E+01  0.1545E+02  0.3762E+01E
 Epicentro: LOS SANTOS - SANTANDER                                             3
 ACTION:UPD 15-06-03 16:57 OP:cam  STATUS:               ID:20150426015147 L   I
 OLDACT:REG 15-04-26 12:36 OP:ak   STATUS:               ID:20150426014747     3
 2015-04-26-0147-47M.COL___274                                                 6
 STAT SP IPHASW D HRMM SECON CODA AMPLIT PERI AZIMU VELO AIN AR TRES W  DIS CAZ7
 BAR2 EZ IP     D  152  7.07                             168    0.1510 30.0 186 
 BAR2 EZ ES        152 21.66                             168   -0.3810 30.0 186 
 BAR2 EZ I         152 23.00        12.3 0.16            170           30.0 186 
 BRR  HZ EP   1    152  8.64                             153    0.54 7 67.3 294 
 BRR  HN ES        152 24.71                             153    0.5710 67.3 294 
 BRR  HZ I         152 30.32        12.7 0.12            149           67.3 294 
 RUS  HZ EP        152 11.39                             141   -0.0810  108 176 
 RUS  HE ES        152 29.74                             141   -0.4210  108 176 
 RUS  HZ I         152 30.35         9.3 0.28            141            108 176 
 PTB  HZ EP        152 14.28                             131    0.01 9  148 256 
 PTB  HZ I         152 38.03         5.7 0.06            128            148 256 
 SPBC HZ EP        152 16.18                             127   -0.06 9  168 217 
 SPBC HE ES        152 38.37                             127   -0.26 9  168 217 
 SPBC HZ I         152 39.95         9.5 0.14            125            168 217 
 ZAR  HZ EP   2    152 19.93                             122    0.53 4  201 290 
 ZAR  HN ES        152 44.21                             122   -0.05 9  201 290 
 ZAR  HZ I         152 47.99         4.7 0.10            119            201 290 
 HEL  HN ES        152 58.30                             114   -0.67 8  273 254 
 GUY2CHZ EP        152 32.05                             111    0.70 7  304 234 
 GUY2CHE ES        153  6.48                             111    0.95 7  304 234 
 GUY2CHZ I         153 15.68         2.9 0.40                           304 234 
 MON  HZ EP   2    152 34.92                             108   -0.89 3  349 308 
 MON  HN ES        153 12.74                             108   -0.74 6  349 308 
 MON  HZ I         153 14.60         1.5 0.28            106            349 308 
                                                                                
