 2010  226 0723 49.8 L   6.831 -72.978147.6  RSN  4 0.2 1.8LRSN                1
 GAP=256        0.46       4.7     8.0  4.8  0.2334E+02 -0.1149E+02  0.1719E+01E
 Epicentro: CEPITA - SANTANDER                                                 3
 ACTION:UP  10-08-24 09:50 OP:vdl  STATUS:               ID:20100226072349 L   I
 2010-02-26-0722-26S.COL___094                                                 6
 STAT SP IPHASW D HRMM SECON CODA AMPLIT PERI AZIMU VELO SNR AR TRES W  DIS CAZ7
 BAR2 SZ EP        724 10.07                             166     0.210   35 221 
 BAR2 SZ ES   1    724 25.32                             166    -0.3 7   35 221 
 BRR  HZ EP        724 11.97                             148    -0.110   87 291 
 BRR  HN ES        724 29.48                             148     0.110   87 291 
 BRR  HZ I         724 31.79        15.1 0.10                            87 291 
 RUS  BZ EP        724 14.03                             143     0.110  104 186 
 RUS  BN ES   2    724 33.01                             143     0.2 5  104 186 
 RUS  BZ I         724 34.07         6.1 0.39                           104 186 
 CHI  HZ EP   1    724 28.21                             117    -0.3 6  257 199 
 CHI  HE ES   2    724 58.85                             117     0.1 4  257 199 
 CHI  HZ I         725  0.71         4.1 0.46                           257 199 
                                                                                
