 2012 1126 0802 21.2 L   6.260 -73.996 87.8  RSN  5 0.2 1.5LRSN                1
 GAP=103        0.48       2.1     2.4  5.3  0.1637E+01 -0.3546E+01  0.1597E+00E
 Epicentro: CIMITARRA - SANTANDER                                              3
 ACTION:UPD 12-12-05 15:36 OP:}ep  STATUS:               ID:20121126080221 L   I
 2012-11-26-0800-00M.COL___233                                                 6
 STAT SP IPHASW D HRMM SECON CODA AMPLIT PERI AZIMU VELO AIN AR TRES W  DIS CAZ7
 PTB  HZ EP        8 2 35.64                             143   -0.0110 59.6 301 
 PTB  HN ES        8 2 46.99                             143    0.1110 59.6 301 
 PTB  HN I         8 2 51.78         7.5 0.26                          59.6 301 
 BAR2 SZ EP        8 2 39.02                             128   -0.2110 97.3  68 
 BAR2 SZ I         8 2 53.88         5.7 0.26                          97.3  68 
 ZAR  HZ EP        8 2 46.62                             113    0.31 9  166 325 
 ZAR  HN ES        8 3  5.79                             113   -0.07 9  166 325 
 ZAR  HN I         8 3  8.85         7.5 0.10                           166 325 
 HEL  HE ES        8 3  7.18                             113   -0.20 9  170 268 
 CHI  HN ES        8 3 10.19                             111    0.09 9  183 171 
                                                                                
