 2011  126 0940 17.9 L   6.817 -73.165139.9  RSN  7 0.4 1.8LRSN                1
 GAP=156        0.87       4.5    10.5  7.6 -0.1909E+02  0.1200E+02 -0.3287E+01E
 Epicentro: LOS SANTOS - SANTANDER                                             3
 ACTION:UP  11-02-08 08:42 OP:pat  STATUS:               ID:20110126094017 L   I
 2011-01-26-0938-14S.COL___138                                                 6
 STAT SP IPHASW D HRMM SECON CODA AMPLIT PERI AZIMU VELO SNR AR TRES W  DIS CAZ7
 BTL  SZ IP        940 36.06                             173    -0.610   16 315 
 BTL  SZ ES   1    940 51.61                             173     0.3 7   16 315 
 BAR2 SZ EP   1    940 36.94                             169     0.1 7   25 185 
 BAR2 SZ ES   2    940 51.29                             169    -0.3 5   25 185 
 BAR2 SZ I         940 53.12        28.6 0.35                            25 185 
 RUS  HZ EP   1    940 41.25                             142     0.1 7  103 175 
 RUS  HN ES   1    940 59.18                             142    -0.2 7  103 175 
 RUS  HZ I         941  1.04         7.2 0.67                           103 175 
 GRA  SZ IP        940 42.69                             136     0.210  125  19 
 GRA  SZ I         940 44.04         7.9 0.35                           125  19 
 GRA  SZ ES   1    941  2.03                             136     0.3 7  125  19 
 OCA  SZ EP   1    940 45.40                             129    -0.1 7  158 354 
 OCA  SZ I         941 11.87        10.5 0.22                           158 354 
 CHI  HZ EP   1    940 55.50                             116     0.1 6  250 195 
 CHI  HN ES   2    941 25.86                             116     1.2 4  250 195 
 CHI  HZ I         941 27.21         3.4 0.44                           250 195 
 HEL  HN ES   2    941 28.77                             114     0.2 4  271 255 
 HEL  HZ I         941 36.16         2.9 0.53                           271 255 
                                                                                
