 2017  926 0054 55.0 L   6.816 -73.064138.7  RSN  4 0.3 1.4LRSN                1
 GAP=146        0.73       3.9     5.6  7.5 -0.7402E+00 -0.1838E+01  0.5060E+01E
 Epicentro: LOS SANTOS - SANTANDER                                             3
 ACTION:UPD 17-10-05 19:16 OP:rebc STATUS:               ID:20170926005454 L   I
 OLDACT:UP  17-10-03 13:55 OP:nlst STATUS:               ID:20170926005454 L   3
 OLDACT:REG 17-09-26 12:34 OP:osc  STATUS:               ID:20170926004738     3
 2017-09-26-0048-00M.COL___438                                                 6
 STAT SP IPHASW D HRMM SECON CODA AMPLIT PERI AZIMU VELO AIN AR TRES W  DIS CAZ7
 PAM  EZ EP        055 16.36                             152    0.2610 70.5  35 
 PAM  EE ES        055 32.38                             152   -0.1510 70.5  35 
 PAM  EZ I         055 35.19         5.0 0.44            153           70.5  35 
 BRR  HZ EP        055 15.41                             149   -0.4710 78.5 294 
 BRR  HE ES        055 32.39                             149    0.2610 78.5 294 
 RUS  HZ EP        055 18.44                             142    0.2110  102 181 
 RUS  HE ES        055 36.19                             142   -0.1210  102 181 
 RUS  HZ I         055 37.82         1.7 0.34            144            102 181 
 ZAR  HN ES   4    055 52.04                             120   -1.40 0  212 291 
 ZAR  HZ I         055 54.03         4.1 0.30            122            212 291 
                                                                                
