 2017  826 0524 53.8 L   7.459 -73.459114.9  RSN  4 0.4 1.1LRSN                1
 GAP=251        0.91      12.1     9.7  8.4  0.1039E+03 -0.2962E+02 -0.4057E+02E
 Epicentro: SABANA DE TORRES - SANTANDER                                       3
 ACTION:UPD 17-09-04 20:24 OP:rebc STATUS:               ID:20170826052453 L   I
 OLDACT:REG 17-08-26 13:15 OP:osc  STATUS:               ID:20170826051738     3
 2017-08-26-0518-00M.COL___405                                                 6
 STAT SP IPHASW D HRMM SECON CODA AMPLIT PERI AZIMU VELO AIN AR TRES W  DIS CAZ7
 BRR  HZ EP        525  9.78                             156   -0.5310 47.9 216 
 BRR  HE ES        525 23.25                             156    0.0610 47.9 216 
 BAR2 EZ EP        525 14.21                             136   -0.0910  101 162 
 BAR2 EZ ES        525 30.67                             136    0.3610  101 162 
 BAR2 EZ I         525 32.00         3.3 0.39            133            101 162 
 ZAR  HZ EP        525 19.17                             122    0.06 9  154 271 
 ZAR  HN ES        525 38.96                             122    0.10 9  154 271 
 ZAR  HZ I         525 43.44         1.2 0.11            119            154 271 
 RUS  HZ EP        525 22.82                             119    0.59 9  178 166 
 RUS  HN ES        525 43.90                             119   -0.51 9  178 166 
                                                                                
