 2012  226 0604 15.6 L   6.791 -73.101144.3  RSN 11 0.3 1.8LRSN                1
 GAP=143        0.61       2.8     3.7  4.4 -0.2450E+01  0.4356E+01  0.2454E+01E
 ACTION:UP  12-03-07 16:34 OP:epov STATUS:               ID:20120226060415 L   I
 2012-02-26-0600-00M.COL___192                                                 6
 STAT SP IPHASW D HRMM SECON CODA AMPLIT PERI AZIMU VELO AIN AR TRES W  DIS CAZ7
 BAR2 SZ IP        6 4 34.99                             170   -0.0210 23.8 202 
 BAR2 SZ I         6 4 35.15        21.6 0.22                          23.8 202 
 BAR2 SZ ES   1    6 4 50.37                             170    0.18 7 23.8 202 
 GIR2 SZ EP        6 4 35.12                             166    0.0110 33.4 342 
 GIR2 SZ ES   1    6 4 50.12                             166   -0.24 7 33.4 342 
 PAM  SZ EP   1    6 4 37.92                             151    0.44 7 75.1  36 
 PAM  SN ES   1    6 4 54.44                             151   -0.14 7 75.1  36 
 BRR  HZ IP     C  6 4 36.92                             151    0.1010 76.0 297 
 BRR  HZ I         6 4 37.98        20.9 0.14                          76.0 297 
 BRR  HE ES   1    6 4 53.76                             151    0.35 7 76.0 297 
 RUS  HZ EP   1    6 4 38.96                             144   -0.11 7 99.4 179 
 RUS  HZ I         6 4 39.65         6.4 0.30                          99.4 179 
 RUS  HE ES   1    6 4 57.32                             144   -0.10 7 99.4 179 
 PTB  HZ EP   1    6 4 41.85                             131   -0.97 7  152 260 
 PTB  HE ES   2    6 5  3.84                             131   -0.26 5  152 260 
 OCA  SZ EP   2    6 4 44.26                             129    0.36 5  162 351 
 OCA  SZ ES   2    6 5  5.41                             129   -0.60 5  162 351 
 NOR  SN ES   1    6 5 19.90                             118    0.24 6  238 235 
 CHI  HZ EP   1    6 4 53.27                             117    0.06 6  249 196 
 CHI  HN ES   1    6 5 22.66                             117    0.07 6  249 196 
 CHI  HZ I         6 5 25.69         1.6 0.20                           249 196 
 HEL  HZ EP   1    6 4 56.61                             114    0.42 6  277 256 
 HEL  HN ES   2    6 5 28.38                             114    0.49 4  277 256 
 HEL  HZ I         6 5 34.01         5.2 0.39                           277 256 
 RREF HZ EP   2    6 5  1.86                             110   -0.13 3  325 230 
 RREF HN ES   2    6 5 37.78                             110   -0.42 3  325 230 
 RREF HZ I         6 5 43.12         3.2 0.74                           325 230 
                                                                                
