 2017 1026 0644 48.5 L   6.662 -74.076  6.0  RSN 11 0.4 1.7LRSN                1
 GAP= 65        0.89       1.7     1.5  6.0 -0.2490E+00  0.2066E+01  0.1729E+01E
 Epicentro: PUERTO PARRA - SANTANDER                                           3
 ACTION:UPD 17-11-07 19:37 OP:rebc STATUS:               ID:20171026064448 L   I
 OLDACT:UP  17-10-26 18:55 OP:edw  STATUS:               ID:20171026063742     3
 OLDACT:REG 17-10-26 13:13 OP:dani STATUS:               ID:20171026063742     3
 2017-10-26-0638-00M.COL___399                                                 6
 STAT SP IPHASW D HRMM SECON CODA AMPLIT PERI AZIMU VELO AIN AR TRES W  DIS CAZ7
 PTB  HZ IP     D  644 55.78                              94   -0.0710 44.2 252 
 PTB  HN ES        645  1.71                              94    0.1510 44.2 252 
 PTB  HZ I         645  1.90        23.0 0.18             47           44.2 252 
 BRR  HZ IP     D  644 58.83                              92    0.0610 63.6  39 
 BRR  HE ES        645  7.10                              92    0.3510 63.6  39 
 BRR  HZ I         645  7.80        55.7 0.10             47           63.6  39 
 BAR2 EZ IP        645  4.20                              92   -0.2010 99.1  94 
 BAR2 EZ ES        645 16.52                              92   -0.2510 99.1  94 
 BAR2 EZ I         645 19.57        14.6 0.58             47           99.1  94 
 SPBC HZ EP        645  6.52                              91    0.3710  112 180 
 SPBC HN ES        645 20.20                              91    0.3210  112 180 
 SPBC HZ I         645 23.40        12.7 0.22             47            112 180 
 ZAR  HZ EP        645  8.24                              91   -0.0110  126 317 
 ZAR  HN ES        645 23.19                              91   -0.4310  126 317 
 ZAR  HZ I         645 25.48        18.3 0.26             47            126 317 
 RUS  HZ EP        645 10.71                              91    0.01 9  139 128 
 RUS  HN ES        645 27.69                              91   -0.29 9  139 128 
 RUS  HZ I         645 30.88        17.7 0.24             47            139 128 
 NOR  HZ EP   2    645 12.31                              91    0.41 5  150 216 
 NOR  HN ES   2    645 28.72                              91   -1.40 5  150 216 
 NOR  HZ I         645 32.94         7.8 0.34             47            150 216 
 PAM  EZ EP        645 15.42                              91    0.09 9  170  64 
 PAM  EE ES        645 36.10                              91   -0.13 9  170  64 
 PAM  EZ I         645 38.28        19.8 0.18             47            170  64 
 URE  HZ EP   4    645 20.66                              56    1.89 0  201 307 
 URE  HN ES   4    645 43.54                              56    1.19 0  201 307 
 URE  HZ I         645 46.99        12.5 0.26             37            201 307 
 GUY2CHZ EP        645 21.62                              56    0.71 8  214 222 
 GUY2CHN ES        645 45.51                              56   -0.64 8  214 222 
 GUY2CHZ I         645 52.69         5.5 0.40                           214 222 
 SJC  HZ EP   2    645 42.32                              55    1.53 3  378 341 
 SJC  HN ES   2    646 21.75                              55    0.20 3  378 341 
                                                                                
