 2017  726 0345 20.1 L   6.773 -73.112139.7  RSN  8 0.5 1.4LRSN                1
 GAP=262        0.86       5.2     5.7  6.1  0.3170E+01  0.2359E+01  0.3663E+01E
 Epicentro: LOS SANTOS - SANTANDER                                             3
 ACTION:UPD 17-08-30 15:36 OP:rebc STATUS:               ID:20170726034520 L   I
 OLDACT:UP  17-07-26 14:37 OP:and  STATUS:               ID:20170726033536d    3
 OLDACT:UP  17-07-26 14:37 OP:and  STATUS:               ID:20170726033536d    3
 OLDACT:UP  17-07-26 14:36 OP:and  STATUS:               ID:20170726033536d    3
 OLDACT:DUP 17-07-26 14:34 OP:and  STATUS:               ID:20170726033536d    3
 OLDACT:UP  17-07-26 14:34 OP:and  STATUS:               ID:20170726033535     3
 OLDACT:UP  17-07-26 14:33 OP:and  STATUS:               ID:20170726033535     3
 OLDACT:UP  17-07-26 14:32 OP:and  STATUS:               ID:20170726033535     3
 OLDACT:UP  17-07-26 14:32 OP:and  STATUS:               ID:20170726033535     3
 OLDACT:UP  17-07-26 14:32 OP:and  STATUS:               ID:20170726033535     3
 OLDACT:UP  17-07-26 14:32 OP:and  STATUS:               ID:20170726033535     3
 OLDACT:UP  17-07-26 14:31 OP:and  STATUS:               ID:20170726033535     3
 OLDACT:REG 17-07-26 12:48 OP:and  STATUS:               ID:20170726033535     3
 2017-07-26-0338-00M.COL___386                                                 6
 STAT SP IPHASW D HRMM SECON CODA AMPLIT PERI AZIMU VELO AIN AR TRES W  DIS CAZ7
 BAR2 EZ IP     C  345 38.78                             171   -0.1410 21.5 201 
 BAR2 EZ ES        345 53.43                             171   -0.2010 21.5 201 
 BAR2 EZ I         345 56.36         7.9 0.48            165           21.5 201 
 BRR  HZ IP     C  345 40.65                             150   -0.1910 75.9 299 
 BRR  HN ES        345 57.72                             150    0.6810 75.9 299 
 BRR  HZ I         346  0.30         5.2 0.28            145           75.9 299 
 PTB  HZ EP   9    345 45.69                             130   -1.14 0  151 260 
 PTB  HN ES        346  6.55                             131   -0.02 9  151 260 
 PTB  HZ I         346  9.60         2.1 0.10            127            151 260 
 SPBC HZ EP        345 47.92                             128   -0.19 9  163 221 
 SPBC HN ES        346 10.38                             128    0.39 9  163 221 
 SPBC HZ I         346 12.47         5.0 0.19            126            163 221 
 ZAR  HZ EP   2    345 53.25                             121    0.65 4  209 293 
 ZAR  HN ES        346 17.34                             121   -0.64 8  209 293 
 ZAR  HZ I         346 22.91         4.2 0.30            119            209 293 
 NOR  HZ EP   2    345 55.31                             117   -0.28 4  236 236 
 NOR  HN ES   2    346 22.92                             117   -0.39 4  236 236 
 NOR  HZ I         346 26.45         2.6 0.16            116            236 236 
 GUY2CHZ EP   3    346  5.57                             111    2.02 2  303 236 
 GUY2CHN ES   4    346 40.02                             111    2.55 0  303 236 
 GUY2CHZ I         346 43.85         1.1 0.28                           303 236 
 CBOC HZ EP   2    346  7.97                             109    0.93 3  336 253 
 CBOC HN ES   3    346 42.49                             109   -1.19 2  336 253 
 CBOC HZ I         346 55.32         0.6 0.39            108            336 253 
                                                                                
