 2016 1126 0019 58.6 L   6.836 -73.155142.0  RSN  7 0.4 1.9LRSN                1
 GAP=144        0.74       5.5     3.5  5.4 -0.2955E+01  0.3677E+01  0.5816E+01E
 Epicentro: LOS SANTOS - SANTANDER                                             3
 ACTION:UPD 17-10-26 21:11 OP:lp   STATUS:               ID:20161126001958 L   I
 OLDACT:UP  16-11-26 12:24 OP:dani STATUS:               ID:20161126001746     3
 OLDACT:UP  16-11-26 12:24 OP:dani STATUS:               ID:20161126001746     3
 OLDACT:REG 16-11-26 11:40 OP:dani STATUS:               ID:20161126001746     3
 2016-11-26-0018-00M.COL___349                                                 6
 STAT SP IPHASW D HRMM SECON CODA AMPLIT PERI AZIMU VELO AIN AR TRES W  DIS CAZ7
 BAR2 EZ EP        020 17.74                             169   -0.1410 27.1 186 
 BAR2 EZ ES        020 32.98                             169    0.0710 27.1 186 
 BAR2 EZ I         020 33.80        23.8 0.20            168           27.1 186 
 BRR  HZ EP        020 19.25                             153    0.0410 68.5 296 
 BRR  HN ES        020 35.78                             153    0.5110 68.5 296 
 BRR  HZ I         020 40.96         9.7 0.07            151           68.5 296 
 PAM  EZ EP        020 20.14                             151   -0.1510 75.0  42 
 PAM  EN ES        020 37.21                             151    0.0110 75.0  42 
 PAM  EZ I         020 39.11        22.3 0.40            155           75.0  42 
 PTB  HZ EP        020 24.77                             132   -0.50 9  148 257 
 PTB  HN ES        020 45.95                             132   -0.10 9  148 257 
 PTB  HZ I         020 48.89         9.3 0.26            131            148 257 
 ZAR  HZ EP   3    020 31.79                             122    1.22 2  202 291 
 ZAR  HN ES        020 55.34                             122   -0.15 9  202 291 
 ZAR  HZ I         021  1.20        16.0 0.28            123            202 291 
 PRA  HZ EP        020 53.06                             106    0.70 6  395 209 
 PRA  HN ES   4    021 37.47                             106    3.19 0  395 209 
 PRA  HZ I         021 39.44         2.4 0.30            107            395 209 
 SJC  HZ EP   4    020 51.49                             106   -2.11 0  405 327 
 SJC  HN ES   4    021 33.32                             106   -3.17 0  405 327 
 SJC  HZ I         021 35.99         1.4 0.39            107            405 327 
                                                                                
