 2013 1026 0641 14.6 L   6.671 -73.735 99.4  RSN  5 0.5 1.4LRSN                1
 GAP=103        1.24       5.6     5.1 10.9  0.3560E+01  0.9523E+01  0.2477E+02E
 Epicentro: EL CARMEN DE CHUCURI - SANTANDER                                   3
 ACTION:UPD 13-11-25 09:23 OP:ep   STATUS:               ID:20131026064114 L   I
 OLDACT:REG 13-10-26 08:41 OP:carl STATUS:               ID:20131026063849     3
 2013-10-26-0638-49M.COL___227                                                 6
 STAT SP IPHASW D HRMM SECON CODA AMPLIT PERI AZIMU VELO AIN AR TRES W  DIS CAZ7
 BRR  HZ EP        641 29.65                             152    0.2010 48.3   3 
 BRR  HN ES        641 41.69                             152    0.6710 48.3   3 
 BRR  HZ I         641 42.58         5.3 0.42            161           48.3   3 
 BAR2 SZ ES        641 42.67                             146   -0.4810 61.8  98 
 BAR2 SZ I         641 44.11        31.4 0.16            150           61.8  98 
 PTB  HZ EP        641 31.25                             138   -0.5510 81.0 260 
 PTB  HN ES        641 44.65                             138   -0.5610 81.0 260 
 PTB  HZ I         641 46.23         5.0 0.14            139           81.0 260 
 RUS  HZ EP        641 35.34                             128    0.0710  112 140 
 RUS  HN ES        641 51.13                             128   -0.2610  112 140 
 RUS  HZ I         641 52.83         3.3 0.24            131            112 140 
 SPBC HZ EP        641 35.56                             126    0.2010  119 198 
 SPBC HN ES        641 52.30                             126    0.7510  119 198 
 SPBC HZ I         641 59.74         4.3 0.34            127            119 198 
                                                                                
