 2015  326 0527 39.4 L   7.411 -73.204129.4  RSN  9 0.5 1.6LRSN                1
 GAP=106        1.22       4.2     5.0  8.1  0.2108E+01  0.1265E+02 -0.8539E-01E
 Epicentro: EL PLAYON - SANTANDER                                              3
 ACTION:UPD 15-04-30 16:29 OP:nd   STATUS:               ID:20150326052739 L   I
 OLDACT:REG 15-03-26 12:54 OP:fm   STATUS:               ID:20150326051735     3
 2015-03-26-0517-35M.COL___281                                                 6
 STAT SP IPHASW D HRMM SECON CODA AMPLIT PERI AZIMU VELO AIN AR TRES W  DIS CAZ7
 PAM  SZ EP        527 59.32                             155    0.6610 56.3  98 
 PAM  SE ES        528 13.29                             155   -0.3910 56.3  98 
 PAM  SZ I         528 15.34        12.2 0.46            159           56.3  98 
 BRR  HZ EP        527 58.53                             151    0.0810 65.4 239 
 BRR  HN ES        528 13.69                             151    0.3810 65.4 239 
 BRR  HZ I         528 15.29         7.9 0.44            153           65.4 239 
 BAR2 EZ EP        528  0.70                             143    0.2410 90.6 178 
 BAR2 EZ ES        528 16.93                             143    0.0410 90.6 178 
 BAR2 EZ I         528 17.96        20.5 0.32            146           90.6 178 
 OCA  HZ EP        528  1.29                             142    0.8210 92.4 352 
 OCA  HN ES        528 16.28                             142   -0.6310 92.4 352 
 OCA  HZ I         528 21.63        12.2 0.46            144           92.4 352 
 RUS  HZ EP        528  6.87                             124   -0.88 9  168 175 
 RUS  HN ES   4    528 28.60                             124   -1.27 0  168 175 
 RUS  HZ I         528 30.46         1.6 0.26            127            168 175 
 PTB  HZ EP        528  7.15                             124    0.01 9  169 235 
 PTB  HN ES        528 28.33                             124   -0.46 9  169 235 
 PTB  HZ I         528 32.90         3.2 0.16            126            169 235 
 SML  HN ES   1    528 30.59                             122   -0.39 7  181 328 
 ZAR  HN ES   1    528 32.05                             121    0.70 7  183 273 
 MON  HZ EP   1    528 22.35                             108   -0.42 5  311 299 
 MON  HE ES        528 56.35                             108   -0.26 7  311 299 
 MON  HZ I         528 58.03         1.0 0.14            110            311 299 
                                                                                
