 2015  326 0926  9.5 L   6.793 -73.146142.1  RSN 12 0.6 2.5LRSN                1
 GAP=137        1.61       4.8     6.2  9.3 -0.4078E+01  0.1595E+02 -0.7731E+01E
 Epicentro: LOS SANTOS - SANTANDER                                             3
 ACTION:UPD 15-04-30 16:29 OP:nd   STATUS:               ID:20150326092609 L   I
 OLDACT:REG 15-03-26 13:01 OP:fm   STATUS:               ID:20150326091743     3
 2015-03-26-0917-43M.COL___275                                                 6
 STAT SP IPHASW D HRMM SECON CODA AMPLIT PERI AZIMU VELO AIN AR TRES W  DIS CAZ7
 BAR2 EZ IP     D  926 29.01                             171    0.3110 22.6 190 
 BAR2 EZ ES        926 43.24                             171   -0.4210 22.6 190 
 BAR2 EZ I         926 44.72        91.1 0.20            168           22.6 190 
 BRR  HZ IP     D  926 30.96                             152    0.6610 71.5 299 
 BRR  HE ES        926 47.91                             152    1.4110 71.5 299 
 BRR  HZ I         926 51.96        49.9 0.12            147           71.5 299 
 PAM  SZ IP     D  926 31.93                             150    0.5410 78.0  39 
 PAM  SN ES        926 48.54                             150    0.1010 78.0  39 
 PAM  SZ I         926 49.46        22.1 0.38            154           78.0  39 
 RUS  HZ EP        926 33.00                             143    0.1310 99.9 176 
 RUS  HE ES        926 50.61                             143   -0.4610 99.9 176 
 RUS  HZ I         926 52.18        40.8 0.22            146           99.9 176 
 PTB  HZ EP        926 35.64                             131   -0.54 9  148 259 
 PTB  HN ES        926 55.95                             131   -1.02 9  148 259 
 PTB  HZ I         927  0.77        24.1 0.14            130            148 259 
 OCA  HZ EP        926 37.34                             129   -0.28 9  161 353 
 OCA  HN ES        926 58.52                             129   -1.02 9  161 353 
 OCA  HZ I         927  1.14        81.8 0.58            129            161 353 
 SPBC HZ EP        926 38.04                             128    0.35 9  163 219 
 SPBC HN ES        926 59.21                             128   -0.45 9  163 219 
 SPBC HZ I         927  3.64        49.5 0.20            128            163 219 
 ZAR  HZ EP        926 42.30                             121    0.54 9  204 292 
 ZAR  HN ES        927  7.57                             121    0.66 9  204 292 
 ZAR  HZ I         927 10.28        27.2 0.18            121            204 292 
 SML  HZ EP        926 45.70                             117   -0.32 8  244 335 
 SML  HN ES        927 13.62                             117   -0.86 8  244 335 
 SML  HZ I         927 17.23        52.0 0.28            117            244 335 
 HEL  HZ EP   4    926 51.30                             114    1.77 0  272 256 
 HEL  HE ES        927 20.98                             114    0.24 8  272 256 
 HEL  HZ I         927 29.37         9.6 0.58            114            272 256 
 URE  HZ EP   4    926 49.33                             113   -1.12 0  284 292 
 URE  HN ES   4    927 21.43                             113   -0.94 0  284 292 
 URE  HZ I         927 35.62        14.6 0.16            113            284 292 
 GUY2CHZ EP   4    926 54.34                             112    1.42 0  301 235 
 GUY2CHN ES   4    927 25.05                             112   -1.71 0  301 235 
 GUY2CHZ I         927 33.93         9.5 0.28                           301 235 
                                                                                
