 2013 1126 0525 14.4 L   6.831 -73.121144.0  RSN 12 0.4 1.9LRSN                1
 GAP=138        1.05       3.3     5.0  6.4 -0.1843E+01  0.1122E+02  0.4710E+01E
 Epicentro: LOS SANTOS - SANTANDER                                             3
 ACTION:UPD 14-01-09 16:31 OP:ep   STATUS:               ID:20131126052514 L   I
 OLDACT:UP  13-11-26 09:45 OP:mh   STATUS:               ID:20131126052000     3
 OLDACT:UP  13-11-26 09:43 OP:mh   STATUS:               ID:20131126052000     3
 OLDACT:REG 13-11-26 08:13 OP:mh   STATUS:               ID:20131126052000     3
 2013-11-26-0520-00M.COL___282                                                 6
 STAT SP IPHASW D HRMM SECON CODA AMPLIT PERI AZIMU VELO AIN AR TRES W  DIS CAZ7
 BAR2 SZ EP        525 33.95                             169    0.0710 27.3 194 
 BAR2 SZ ES        525 48.49                             169   -0.6010 27.3 194 
 BAR2 SZ I         525 51.69        19.4 0.22            165           27.3 194 
 BRR  HZ EP        525 35.68                             152    0.3010 72.1 295 
 BRR  HN ES   1    525 52.19                             152    0.42 7 72.1 295 
 BRR  HZ I         525 56.49        16.6 0.12            138           72.1 295 
 PAM  SZ EP        525 36.52                             152    0.3810 73.0  40 
 PAM  SN ES        525 53.66                             152    0.5410 73.0  40 
 PAM  SZ I         525 55.78        13.6 0.51            143           73.0  40 
 RUS  HZ EP        525 38.51                             142    0.3210  104 178 
 RUS  HN ES   1    525 56.50                             142   -0.27 7  104 178 
 RUS  HZ I         525 58.23         7.5 0.32            134            104 178 
 PTB  HZ EP        525 40.79                             131   -0.71 9  151 258 
 PTB  HZ I         526  7.72         6.3 0.11            118            151 258 
 OCA  HZ EP        525 41.40                             130   -0.85 9  157 352 
 OCA  HN ES        526  3.58                             130   -0.43 9  157 352 
 OCA  HZ I         526  8.14        14.1 0.26            117            157 352 
 SPBC HZ EP        525 43.14                             128   -0.01 9  168 219 
 SPBC HZ I         526  7.99        13.3 0.18            117            168 219 
 ZAR  HZ EP   1    525 47.00                             122    0.17 6  205 291 
 ZAR  HN ES        526 12.30                             122    0.15 8  205 291 
 ZAR  HZ I         526 17.71        10.5 0.20            110            205 291 
 NOR  HZ EP        525 51.31                             118    0.86 8  239 234 
 NOR  HN ES        526 18.83                             118    0.24 8  239 234 
 NOR  HZ I         526 26.59         4.7 0.14            107            239 234 
 SML  HZ EP   4    525 50.22                             117   -0.46 0  242 334 
 SML  HZ I         526 22.78        16.4 0.07            107            242 334 
 CHI  HZ EP        525 52.19                             116   -0.22 8  253 196 
 CHI  HN ES        526 21.94                             116   -0.14 8  253 196 
 CHI  HZ I         526 28.38         2.3 0.34            107            253 196 
 HEL  HZ EP   4    525 53.98                             114   -0.90 0  276 255 
 HEL  HN ES   4    526 28.15                             114    1.67 0  276 255 
 GUY2CHZ EP   4    525 59.51                             112    1.14 0  305 235 
 GUY2CHN ES   4    526 35.47                             112    2.78 0  305 235 
 PRA  HZ EP   1    526  8.59                             106    0.26 4  396 210 
 PRA  HN ES        526 50.14                             106   -0.29 6  396 210 
 SJC  HZ EP   4    526  7.44                             105   -2.27 0  408 326 
                                                                                
