 2012  326 0400  0.1 L   6.683 -73.152152.0  RSN  5 0.5 1.7LRSN                1
 GAP=140        0.99       7.2     8.1 12.5  0.1139E+02 -0.2021E+02 -0.1025E+02E
 ACTION:UP  12-03-31 23:22 OP:EP   STATUS:               ID:20120326040000 L   I
 2012-03-26-0400-00M.COL___196                                                 6
 STAT SP IPHASW D HRMM SECON CODA AMPLIT PERI AZIMU VELO SNR AR TRES W  DIS CAZ7
 BRR  HZ EP        4 0 22.50                             152     0.210   78 307 
 BRR  HN ES   1    4 0 39.90                             152     0.3 7   78 307 
 BRR  HZ I         4 0 41.55         8.7 0.14                            78 307 
 RUS  HZ EP        4 0 23.19                             149    -0.410   88 175 
 RUS  HN ES   1    4 0 42.47                             149     0.5 7   88 175 
 RUS  HZ I         4 0 43.85         5.7 0.30                            88 175 
 PAM  SZ EP        4 0 23.82                             149     0.210   88  35 
 PAM  SN ES   2    4 0 41.06                             149    -0.9 5   88  35 
 PTB  HN ES   2    4 0 47.84                             134    -0.8 5  145 264 
 ZAR  HN ES   2    4 0 59.23                             123    -0.2 4  209 296 
 ZAR  HZ I         4 1  5.50         5.4 0.40                           209 296 
                                                                                
