 2013  526 0342 55.1 L   6.787 -73.153140.4  RSN 17 0.5 2.6LRSN                1
 GAP= 71        0.97       3.2     3.0  5.3 -0.1978E+00  0.1777E+01  0.4427E+01E
 Epicentro: LOS SANTOS - SANTANDER                                             3
 ACTION:UPD 13-06-20 09:53 OP:ep   STATUS:               ID:20130526034255 L   I
 2013-05-26-0340-00M.COL___261                                                 6
 STAT SP IPHASW D HRMM SECON CODA AMPLIT PERI AZIMU VELO AIN AR TRES W  DIS CAZ7
 BAR2 SZ IP     C  343 14.18                             171    0.1710 21.8 188 
 BAR2 SZ ES   1    343 29.18                             171    0.38 7 21.8 188 
 BAR2 SZ I         343 33.55        23.3 0.52            168           21.8 188 
 GIR2 SZ EP     D  343 14.31                             166    0.1810 32.6 352 
 GIR2 SZ ES   1    343 28.73                             166   -0.28 7 32.6 352 
 GIR2 SZ I         343 30.64        76.9 0.52            164           32.6 352 
 BRR  HZ IP     D  343 16.13                             152    0.5010 71.2 300 
 BRR  HN ES        343 31.91                             152    0.2410 71.2 300 
 BRR  HN I         343 37.16       142.4 0.16            147           71.2 300 
 PAM  SZ EP     C  343 17.26                             149    0.4510 79.0  39 
 PAM  SN ES   1    343 33.80                             149    0.03 7 79.0  39 
 PAM  SN I         343 35.11        94.6 0.42            153           79.0  39 
 RUS  HZ EP     C  343 18.21                             143    0.0310 99.2 176 
 RUS  HN ES   1    343 35.92                             143   -0.31 7 99.2 176 
 RUS  HN I         343 38.06        72.8 0.38            144           99.2 176 
 PTB  HZ EP   1    343 20.85                             131   -0.64 7  147 259 
 PTB  HN ES   1    343 41.43                             131   -0.68 7  147 259 
 PTB  HN I         343 44.07        59.2 0.14            129            147 259 
 TAM  HZ IP     D  343 22.57                             129    0.21 9  156 104 
 TAM  HE ES        343 43.48                             129   -0.17 9  156 104 
 TAM  HE I         343 44.32        48.0 0.26            133            156 104 
 OCA  HZ EP   1    343 22.61                             128   -0.47 7  162 353 
 OCA  HN ES        343 44.13                             128   -0.81 9  162 353 
 ZAR  HZ EP   1    343 27.36                             121    0.23 6  204 293 
 ZAR  HN ES        343 52.53                             121    0.38 9  204 293 
 ZAR  HN I         344  0.44       105.0 0.14            120            204 293 
 NOR  HZ EP   1    343 30.12                             117   -0.20 6  233 235 
 NOR  HN ES   1    343 57.14                             117   -0.68 6  233 235 
 NOR  HN I         344  5.23        60.0 0.16            117            233 235 
 SML  HZ EP   4    343 30.65                             116   -0.84 0  245 336 
 SML  HN ES   4    343 58.50                             116   -1.41 0  245 336 
 CHI  HZ EP   1    343 32.26                             116   -0.03 6  247 195 
 CHI  HN ES   1    344  1.11                             116   -0.22 6  247 195 
 CHI  HN I         344  7.57        30.3 0.28            116            247 195 
 HEL  HZ EP   4    343 36.21                             114    1.34 0  271 256 
 HEL  HN ES   4    344  9.08                             114    3.15 0  271 256 
 HEL  HN I         344 16.29        12.8 0.30            113            271 256 
 URE  HZ EP   4    343 33.84                             112   -2.00 0  284 292 
 URE  HE ES   4    344  4.76                             112   -2.90 0  284 292 
 URE  HE I         344 20.08        69.8 0.24            112            284 292 
 GUY2CHZ EP        343 39.39                             111    1.14 7  300 235 
 GUY2CHN ES   1    344 11.60                             111   -0.34 5  300 235 
 GUY2CHN I         344 17.67        14.0 0.46                           300 235 
 COD  HZ EP   4    343 41.94                             108   -1.44 0  350 355 
 COD  HN ES   4    344 20.92                             108   -0.15 0  350 355 
 COD  HN I         344 28.23         6.0 0.32            108            350 355 
 SDV  BZ EP   1    343 43.83                             107   -1.25 5  362  50 
 PRA  HZ EP        343 48.04                             106   -0.16 6  390 210 
 PRA  HN ES   2    344 28.93                             106   -0.73 3  390 210 
 PRA  HN I         344 35.50        10.5 0.28            106            390 210 
                                                                                
