 2013  326 0848  0.1 L   6.513 -73.398132.6  RSN  4 0.2 1.2LRSN                1
 GAP=118        0.51       4.4     4.1  6.2  0.8591E+01  0.9383E+00  0.4386E+00E
 Epicentro: SIMACOTA - SANTANDER                                               3
 ACTION:UPD 13-04-09 14:05 OP:ep   STATUS:               ID:20130326084800 L   I
 2013-03-26-0840-00M.COL___244                                                 6
 STAT SP IPHASW D HRMM SECON CODA AMPLIT PERI AZIMU VELO AIN AR TRES W  DIS CAZ7
 BAR2 SZ EP        848 17.90                             169   -0.3210 25.4  70 
 BRR  HZ EP        848 20.03                             149   -0.0310 74.3 332 
 BRR  HN ES   1    848 35.79                             149    0.18 7 74.3 332 
 BRR  HZ I         848 57.39        10.4 0.36            140           74.3 332 
 RUS  HZ EP        848 21.08                             148    0.1510 76.9 153 
 RUS  HN ES   1    848 37.19                             148    0.03 7 76.9 153 
 RUS  HZ I         848 40.16         1.1 0.28            160           76.9 153 
 PTB  HZ EP        848 23.48                             136    0.2010  117 272 
 PTB  HN ES   1    848 41.14                             136   -0.20 7  117 272 
 PTB  HZ I         848 43.90         2.4 0.66            146            117 272 
                                                                                
