 2010  626 0438 11.8 L   6.764 -73.128146.0  RSN 16 0.6 3.0LRSN                1
 GAP=128        1.15       4.1     7.0  6.8 -0.1214E+02  0.1811E+02 -0.7265E-01E
 Epicentro: LOS SANTOS - SANTANDER                                             3
 ACTION:UP  10-08-24 10:13 OP:vdl  STATUS:               ID:20100626043811 L   I
 2010-06-26-0436-09S.COL___118                                                 6
 STAT SP IPHASW D HRMM SECON CODA AMPLIT PERI AZIMU VELO SNR AR TRES W  DIS CAZ7
 BAR2 SZ IP        438 31.31                             172    -0.110   20 198 
 BAR2 SZ ES   1    438 46.18                             172    -0.5 7   20 198 
 BRR  HZ IP     C  438 33.17                             151    -0.110   75 301 
 BRR  HZ I         438 33.55       214.3 0.12                            75 301 
 BRR  HN ES   1    438 49.90                             151     0.0 7   75 301 
 RUS  HZ IP     C  438 35.31                             145     0.010   96 177 
 RUS  HE ES        438 53.56                             145    -0.110   96 177 
 RUS  HZ I         438 54.98       103.3 0.25                            96 177 
 BRI  SZ IP        438 35.92                             140    -0.110  112  19 
 BRI  SZ ES   1    438 55.19                             140     0.4 7  112  19 
 GRA  SZ IP        438 38.18                             136     0.810  129  16 
 GRA  SZ ES   1    438 57.63                             136     0.3 7  129  16 
 OCA  SZ IP        438 39.87                             129    -0.7 9  164 353 
 OCA  SZ I         439  5.24        89.0 0.34                           164 353 
 CHI  HZ EP   1    438 49.79                             117     0.6 6  245 196 
 CHI  HZ I         439 22.15        36.0 0.43                           245 196 
 ROSC BN ES   2    439 19.40                             117     0.1 4  250 212 
 ROSC BZ I         439 29.09        71.8 0.27                           250 212 
 CVER SZ EP        438 51.25                             115    -0.6 8  269 203 
 HEL  HZ EP        438 51.72                             115    -0.5 8  273 257 
 HEL  HN ES   2    439 22.99                             115    -0.6 4  273 257 
 HEL  HZ I         439 30.42        60.6 0.28                           273 257 
 GUY  HZ EP        438 55.72                             112     0.3 7  301 236 
 GUY  HE ES   2    439 31.56                             112     2.2 4  301 236 
 RREF HZ EP        438 57.98                             111     0.1 7  321 230 
 RREF HN ES   2    439 34.65                             111     0.9 3  321 230 
 RREF HZ I         439 40.01        51.0 0.16                           321 230 
 TOL  SZ EP        439  0.76                             109     0.8 7  342 225 
 DBB  SZ EP        438 59.06                             109    -0.5 7  342 275 
 SDV  BZ EP   2    439  0.95                             108    -1.1 3  361  49 
 SDV  BZ I         439  1.76        25.2 0.15                           361  49 
 PRA  HZ EP   1    439  5.53                             107     0.5 4  389 210 
 PRA  HE ES   1    439 46.25                             107    -0.3 4  389 210 
 PRA  HZ I         439 53.30        37.2 0.21                           389 210 
                                                                                
