 2013 1126 0906 25.9 L   6.853 -73.138142.3  RSN 11 0.5 2.5LRSN                1
 GAP=135        1.05       3.4     4.4  6.7 -0.4005E+01  0.1251E+02  0.2351E+01E
 Epicentro: LOS SANTOS - SANTANDER                                             3
 ACTION:UPD 14-01-09 16:31 OP:ep   STATUS:               ID:20131126090625 L   I
 OLDACT:DUP 13-11-26 11:08 OP:mh   STATUS:               ID:20131126090001d    3
 2013-11-26-0900-00M.COL___282                                                 6
 STAT SP IPHASW D HRMM SECON CODA AMPLIT PERI AZIMU VELO AIN AR TRES W  DIS CAZ7
 BAR2 SZ EP        9 6 45.44                             168    0.1910 29.3 190 
 BAR2 SZ ES   1    9 7  0.16                             168   -0.18 7 29.3 190 
 BAR2 SZ I         9 7  6.43        50.2 0.26            168           29.3 190 
 BRR  HZ EP        9 6 47.08                             153    0.5110 69.3 294 
 BRR  HZ I         9 7  7.35        78.1 0.11            150           69.3 294 
 PAM  SZ EP        9 6 47.92                             152    0.4710 72.4  42 
 PAM  SN ES        9 7  4.81                             152    0.5510 72.4  42 
 PAM  SZ I         9 7  6.95        73.6 0.40            155           72.4  42 
 RUS  HZ EP        9 6 49.65                             141   -0.1010  106 177 
 RUS  HN ES        9 7  7.61                             141   -0.7410  106 177 
 RUS  HZ I         9 7 10.28        21.5 0.44            145            106 177 
 PTB  HZ EP        9 6 52.14                             131   -0.64 9  150 257 
 PTB  HN ES        9 7 13.65                             131   -0.09 9  150 257 
 PTB  HZ I         9 7 16.94        28.8 0.15            131            150 257 
 OCA  HZ EP        9 6 52.94                             130   -0.46 9  155 353 
 OCA  HN ES        9 7 14.47                             130   -0.39 9  155 353 
 OCA  HZ I         9 7 18.41        58.7 0.20            131            155 353 
 NOR  HZ EP        9 7  1.63                             117   -0.25 8  239 233 
 NOR  HN ES        9 7 30.28                             117    0.34 8  239 233 
 NOR  HZ I         9 7 35.25        26.8 0.30            118            239 233 
 CHI  HZ EP        9 7  3.95                             116   -0.11 8  255 195 
 CHI  HN ES        9 7 34.18                             116    0.37 8  255 195 
 CHI  HZ I         9 7 40.23        22.5 0.35            118            255 195 
 HEL  HZ EP        9 7  6.43                             114    0.24 8  274 255 
 HEL  HN ES        9 7 37.19                             114   -0.43 8  274 255 
 HEL  HZ I         9 7 44.49        18.9 0.30            115            274 255 
 GUY2CHZ EP   4    9 7 10.35                             111    0.53 0  305 234 
 GUY2CHN ES   4    9 7 48.30                             111    4.23 0  305 234 
 CBOC HZ EP        9 7 13.21                             109    0.23 7  336 251 
 CBOC HN ES        9 7 50.42                             109    0.73 7  336 251 
 CBOC HZ I         9 8  1.97         6.3 0.45            110            336 251 
 PRA  HZ EP        9 7 19.16                             106   -0.79 6  398 209 
 PRA  HN ES        9 8  2.99                             106    0.88 6  398 209 
 PRA  HZ I         9 8  6.73        20.9 0.26            107            398 209 
                                                                                
