 2013  226 0632 54.1 L   6.671 -73.322132.6  RSN  5 0.5 1.5LRSN                1
 GAP=101        1.33       6.9     6.5 10.9  0.2344E+01  0.1757E+02  0.1113E+02E
 Epicentro: GALAN - SANTANDER                                                  3
 ACTION:UPD 13-03-12 09:35 OP:ep   STATUS:               ID:20130226063254 L   I
 2013-02-26-0628-50M.COL___193                                                 6
 STAT SP IPHASW D HRMM SECON CODA AMPLIT PERI AZIMU VELO AIN AR TRES W  DIS CAZ7
 BAR2 SZ EP        633 12.03                             172    0.0310 17.7 119 
 BAR2 SZ ES        633 26.19                             172    0.2010 17.7 119 
 BAR2 SZ I         633 27.74         8.8 0.24            174           17.7 119 
 BRR  HZ IP        633 13.75                             152    0.3310 64.7 318 
 BRR  HZ I         633 13.86        11.7 0.16            152           64.7 318 
 BRR  HN ES        633 29.34                             152    0.8310 64.7 318 
 RUS  HZ EP        633 16.16                             144    0.4010 90.0 163 
 RUS  HN ES        633 32.52                             144   -0.1610 90.0 163 
 RUS  HN I         633 33.70         2.8 0.18            146           90.0 163 
 PAM  SN ES        633 33.33                             141   -0.7910  101  43 
 PTB  HZ EP        633 17.93                             134   -0.0810  126 263 
 PTB  HN ES        633 35.86                             134   -0.8410  126 263 
 PTB  HN I         633 41.38         5.3 0.34            133            126 263 
                                                                                
