 2010  726 0113 57.9 L   7.140 -74.026 78.1  RSN  5 0.3 1.2LRSN                1
 GAP=250        0.60       4.5     9.6  7.9 -0.1828E+02  0.5795E+00  0.3052E+01E
 Epicentro: BARRANCABERMEJA - SANTANDER                                        3
 ACTION:UPD 10-12-01 15:20 OP:pat  STATUS:               ID:20100726011357 L   I
 2010-07-26-0111-17S.COL___123                                                 6
 STAT SP IPHASW D HRMM SECON CODA AMPLIT PERI AZIMU VELO AIN AR TRES W  DIS CAZ7
 BRR  HZ EP   1    114  9.39                             153    -0.3 8   35  96 
 BRR  HN ES   2    114 19.13                             153     0.3 6   35  96 
 BRR  HZ I         114 22.45         7.1 0.28                            35  96 
 GUE  SZ EP   1    114 20.09                             113    -0.3 8  144  58 
 GUE  SZ I         114 38.80         2.1 0.15                           144  58 
 OCA  SZ EP   2    114 20.92                             113     0.7 5  144  33 
 OCA  SZ I         114 41.29         3.3 0.35                           144  33 
 GRA  SZ ES   1    114 40.41                             111     0.0 8  158  59 
 RUS  HZ EP        114 23.99                             109     0.010  173 143 
 RUS  HN ES   2    114 44.51                             109     0.3 5  173 143 
                                                                                
