 2010 1126 0310  4.6 L   6.032 -73.833100.0  RSN  7 0.4 1.5LRSN                1
 GAP= 91        0.85       4.2     5.8 14.0  0.2392E+01  0.5581E+02  0.2055E+02E
 Epicentro: EL PEON - SANTANDER                                                3
 ACTION:UP  10-12-17 16:55 OP:REBC STATUS:               ID:20101126031004 L   I
 2010-11-26-0305-22S.COL___128                                                 6
 STAT SP IPHASW D HRMM SECON CODA AMPLIT PERI AZIMU VELO SNR AR TRES W  DIS CAZ7
 RUS  HZ EP   1    310 22.62                             137    -0.2 7   84 100 
 RUS  HN ES   1    310 36.81                             137    -0.1 7   84 100 
 RUS  HZ I         310 38.20         7.4 0.24                            84 100 
 BAR2 SZ IP        310 23.30                             133     0.010   95  49 
 BAR2 SZ ES   1    310 37.85                             133    -0.1 7   95  49 
 BAR2 SZ I         310 40.15        12.7 0.34                            95  49 
 BRR  HZ EP   1    310 24.84                             126    -0.5 7  120   6 
 BRR  HZ I         310 27.56         8.4 0.12                           120   6 
 BRR  HN ES   1    310 42.31                             126     0.7 7  120   6 
 NOR  SZ EP   1    310 25.73                             124    -0.4 7  126 246 
 NOR  SZ I         310 44.80         2.0 0.31                           126 246 
 CHI  HZ EP   1    310 29.83                             118     0.2 7  155 176 
 CHI  HN ES   2    310 49.69                             118     0.5 5  155 176 
 CHI  HZ I         310 51.88         1.8 0.00                           155 176 
 HEL  HZ EP   1    310 33.44                             113     0.2 7  189 275 
 HEL  HN ES   2    310 55.06                             113    -0.5 4  189 275 
 HEL  HZ I         310 59.01         4.1 0.19                           189 275 
 PRA  HZ EP   1    310 44.08                             103     0.4 6  282 205 
 PRA  HZ I         311 19.20         6.0 0.33                           282 205 
                                                                                
