 2016 1126 0718 11.8 L   5.891 -73.706112.9  RSN  4 0.1 1.0LRSN                1
 GAP=274        0.45       5.9     2.6  5.8 -0.3133E+01 -0.3149E+01  0.1957E+02E
 Epicentro: PUENTE NACIONAL - SANTANDER                                        3
 ACTION:UPD 17-10-26 21:12 OP:lp   STATUS:               ID:20161126071811 L   I
 OLDACT:DUP 16-11-26 15:19 OP:dani STATUS:               ID:20161126071742d    3
 OLDACT:UP  16-11-26 15:19 OP:dani STATUS:               ID:20161126071741     3
 OLDACT:REG 16-11-26 12:11 OP:dani STATUS:               ID:20161126071741     3
 2016-11-26-0718-00M.COL___349                                                 6
 STAT SP IPHASW D HRMM SECON CODA AMPLIT PERI AZIMU VELO AIN AR TRES W  DIS CAZ7
 BAR2 EZ EP        718 32.03                             136    0.2210 96.8  37 
 BAR2 EZ ES        718 47.33                             136   -0.0910 96.8  37 
 BAR2 EZ I         718 49.24         6.6 0.30            139           96.8  37 
 PTB  HZ EP        718 32.65                             132    0.0210  110 311 
 PTB  HN ES        718 48.78                             132   -0.1010  110 311 
 PTB  HZ I         718 51.52         1.1 0.10            134            110 311 
 BRR  HZ EP        718 35.00                             126    0.0510  134 360 
 BRR  HN ES        718 53.12                             126    0.1110  134 360 
 BRR  HZ I         718 55.15         1.2 0.24            128            134 360 
 PAM  EZ EP        718 41.68                             116   -0.27 9  195  35 
                                                                                
