 2017  326 0526 21.0 L   6.635 -73.685 99.4  RSN  7 0.3 1.5LRSN                1
 GAP= 61        0.92       3.3     4.0  7.8 -0.1838E+00  0.1188E+02  0.9679E+00E
 Epicentro: EL CARMEN - SANTANDER                                              3
 ACTION:UPD 17-05-25 18:45 OP:jn   STATUS:               ID:20170326052621 L   I
 OLDACT:UP  17-03-26 14:14 OP:cog  STATUS:               ID:20170326051659     3
 OLDACT:REG 17-03-26 12:44 OP:cog  STATUS:               ID:20170326051659     3
 2017-03-26-0518-00M.COL___355                                                 6
 STAT SP IPHASW D HRMM SECON CODA AMPLIT PERI AZIMU VELO AIN AR TRES W  DIS CAZ7
 BRR  HZ EP        526 36.06                             150   -0.0610 52.3 357 
 BRR  HN ES        526 47.92                             150    0.0410 52.3 357 
 BRR  HZ I         526 56.79         9.7 0.12            153           52.3 357 
 BAR2 EZ EP        526 36.86                             149    0.1810 55.8  95 
 BAR2 EZ ES        526 49.02                             149    0.1510 55.8  95 
 BAR2 EZ I         526 50.37        16.6 0.58            153           55.8  95 
 PTB  HZ EP        526 37.83                             136   -0.8110 86.0 263 
 PTB  HN ES   4    526 50.31                             136   -2.06 0 86.0 263 
 PTB  HZ I         526 51.63        14.8 0.20            143           86.0 263 
 RUS  HZ EP        526 41.11                             130    0.0410  106 141 
 RUS  HN ES        526 56.64                             130   -0.0510  106 141 
 RUS  HZ I         527  0.07         3.7 0.34            137            106 141 
 SPBC HN ES        526 57.81                             127    0.1610  117 202 
 PAM  EE ES        527  1.42                             123   -0.2310  134  54 
 ZAR  HZ EP        526 46.73                             118    0.65 9  161 306 
 ZAR  HN ES   4    527  7.27                             118    1.66 0  161 306 
                                                                                
