 2016  726 0509 57.2 L   6.781 -73.166148.8  RSN  5 0.4 1.4LRSN                1
 GAP=135        0.98       5.3     5.1  7.1 -0.2548E+01  0.4202E+01  0.1561E+01E
 Epicentro: LOS SANTOS - SANTANDER                                             3
 ACTION:UPD 17-03-29 16:55 OP:lp   STATUS:               ID:20160726050957 L   I
 OLDACT:UP  16-07-26 17:29 OP:ar   STATUS:               ID:20160726050759     3
 OLDACT:REG 16-07-26 13:41 OP:ar   STATUS:               ID:20160726050759     3
 2016-07-26-0507-59S.COL___334                                                 6
 STAT SP IPHASW D HRMM SECON CODA AMPLIT PERI AZIMU VELO AIN AR TRES W  DIS CAZ7
 BAR2 EZ EP        510 17.15                             172   -0.0110 21.0 185 
 BAR2 EZ ES        510 32.25                             172   -0.4710 21.0 185 
 BAR2 EZ I         510 34.97        10.9 0.26            175           21.0 185 
 BRR  HZ EP        510 18.93                             153    0.2910 70.3 301 
 BRR  HN ES        510 36.02                             153    0.6710 70.3 301 
 BRR  HZ I         510 37.46         8.1 0.34            153           70.3 301 
 PAM  EZ EP        510 20.08                             150    0.1510 80.4  40 
 PAM  EN ES        510 37.28                             150   -0.3710 80.4  40 
 PAM  EZ I         510 45.01         3.7 0.36            152           80.4  40 
 RUS  HZ EP        510 21.22                             145    0.1010 98.7 175 
 RUS  HN ES        510 40.11                             145    0.3310 98.7 175 
 RUS  HZ I         510 41.24         2.3 0.22            150           98.7 175 
 PTB  HZ EP        510 23.72                             133   -0.47 9  145 259 
 PTB  HN ES        510 44.93                             133   -0.31 9  145 259 
 PTB  HZ I         510 51.74         3.1 0.14            136            145 259 
                                                                                
