 2016 1126 0437 57.3 L   6.743 -73.142147.9  RSN  6 0.3 1.4LRSN                1
 GAP=158        0.78       7.2     4.0  6.4 -0.9670E+01  0.7118E+01 -0.3770E+01E
 Epicentro: LOS SANTOS - SANTANDER                                             3
 ACTION:UPD 17-10-26 21:11 OP:lp   STATUS:               ID:20161126043757 L   I
 OLDACT:UP  16-11-26 13:39 OP:dani STATUS:               ID:20161126043742     3
 OLDACT:UP  16-11-26 13:38 OP:dani STATUS:               ID:20161126043742     3
 OLDACT:UP  16-11-26 13:38 OP:dani STATUS:               ID:20161126043742     3
 OLDACT:REG 16-11-26 11:56 OP:dani STATUS:               ID:20161126043742     3
 2016-11-26-0438-00M.COL___349                                                 6
 STAT SP IPHASW D HRMM SECON CODA AMPLIT PERI AZIMU VELO AIN AR TRES W  DIS CAZ7
 BAR2 EZ ES        438 32.52                             173    0.0610 17.3 195 
 BRR  HZ EP        438 19.19                             151    0.3610 74.7 303 
 BRR  HE ES        438 36.03                             151    0.3710 74.7 303 
 BRR  HZ I         438 40.78         3.4 0.12            146           74.7 303 
 PAM  EZ EP        438 19.95                             150   -0.0310 82.1  37 
 PAM  EN ES        438 37.31                             150   -0.3910 82.1  37 
 PAM  EZ I         438 39.68         4.3 0.38            148           82.1  37 
 PTB  HZ EP        438 24.46                             132    0.13 9  147 261 
 PTB  HN ES        438 44.90                             132   -0.55 9  147 261 
 PTB  HZ I         438 47.67         4.0 0.13            132            147 261 
 ZAR  HZ EP   4    438 31.96                             122    1.84 0  207 294 
 ZAR  HN ES        438 55.76                             122   -0.00 8  207 294 
 ZAR  HZ I         439  1.37         3.7 0.35            122            207 294 
 SJC  HZ EP   3    438 52.28                             106   -1.25 1  415 327 
                                                                                
