 2016 1226 0653 14.9 L   6.699 -73.252146.1  RSN  4 0.2 1.0LRSN                1
 GAP=195        0.57       5.5     4.8  5.5  0.1656E+02  0.1028E+02  0.1130E+02E
 Epicentro: BARICHARA - SANTANDER                                              3
 ACTION:UPD 17-01-11 20:19 OP:rebc STATUS:               ID:20161226065314 L   I
 OLDACT:UP  16-12-26 18:17 OP:edw  STATUS:               ID:20161226064743     3
 OLDACT:UP  16-12-26 18:15 OP:edw  STATUS:               ID:20161226064743     3
 OLDACT:REG 16-12-26 12:54 OP:edw  STATUS:               ID:20161226064743     3
 2016-12-26-0648-00M.COL___366                                                 6
 STAT SP IPHASW D HRMM SECON CODA AMPLIT PERI AZIMU VELO AIN AR TRES W  DIS CAZ7
 BAR2 EZ ES        653 49.34                             174   -0.3210 14.1 147 
 BAR2 EZ I         653 51.49         2.1 0.26            173           14.1 147 
 BRR  HE ES        653 52.55                             154    0.2510 68.0 312 
 BRR  HE I         653 52.99         3.6 0.22            156           68.0 312 
 RUS  HZ EP        653 38.17                             147    0.1310 91.1 168 
 RUS  HN ES        653 56.20                             147    0.1310 91.1 168 
 RUS  HZ I         653 58.13         0.8 0.36            147           91.1 168 
 PTB  HZ EP        653 40.52                             135   -0.2010  134 263 
 PTB  HN ES        654  0.85                             135   -0.0010  134 263 
                                                                                
