 2014 1026 0920 34.9 L   6.827 -73.188150.1  RSN  9 0.4 1.7LRSN                1
 GAP=130        0.96       3.3     4.7  5.7 -0.3274E+01  0.4012E+01  0.4334E+01E
 Epicentro: ZAPATOCA - SANTANDER                                               3
 ACTION:UPD 14-11-29 23:57 OP:nd   STATUS:               ID:20141026092034 L   I
 OLDACT:REG 14-10-29 13:47 OP:cam  STATUS:               ID:20141026091810     3
 2014-10-26-0918-10M.COL___277                                                 6
 STAT SP IPHASW D HRMM SECON CODA AMPLIT PERI AZIMU VELO AIN AR TRES W  DIS CAZ7
 BAR2 SZ EP        920 55.36                             170    0.2810 25.9 179 
 BAR2 SZ ES        921 10.53                             170   -0.3110 25.9 179 
 BRR  HZ EP        920 56.91                             155    0.7110 65.7 298 
 BRR  HN ES        921 13.20                             155    0.3710 65.7 298 
 BRR  HE I         921 14.60        19.0 0.18            155           65.7 298 
 PAM  SZ EP        920 58.03                             151    0.4210 78.3  44 
 PAM  SN ES        921 15.18                             151   -0.1610 78.3  44 
 PAM  SZ I         921 17.23         9.9 0.46            153           78.3  44 
 RUS  HZ EP        920 58.87                             144   -0.4310  104 174 
 RUS  HN ES        921 18.38                             144    0.0410  104 174 
 RUS  HZ I         921 18.94         4.9 0.32            144            104 174 
 PTB  HZ EP        921  1.58                             134   -0.27 9  144 257 
 PTB  HN ES        921 22.60                             134   -0.28 9  144 257 
 PTB  HZ I         921 24.86         4.8 0.12            134            144 257 
 OCA  HN ES        921 24.90                             131   -0.41 9  157 355 
 SPBC HZ EP        921  3.28                             130   -0.38 9  163 217 
 SPBC HN ES        921 26.13                             130    0.02 9  163 217 
 SPBC HZ I         921 28.64         7.0 0.36            131            163 217 
 CHI  HZ EP        921 12.54                             118   -0.46 8  250 194 
 CHI  HE ES        921 43.31                             118    0.58 8  250 194 
 CHI  HZ I         921 46.11         3.8 0.50            119            250 194 
 GUY2CHZ EP        921 18.68                             113    0.23 7  299 234 
                                                                                
