 2017 1226 0420 55.4 L   6.759 -73.134145.5  RSN  8 0.5 1.4LRSN                1
 GAP= 93        1.15       4.3     3.7  7.6 -0.3013E+01  0.6129E+01  0.1260E+00E
 Epicentro: LOS SANTOS - SANTANDER                                             3
 ACTION:UPD 18-01-04 13:24 OP:rebc STATUS:               ID:20171226042055 L   I
 OLDACT:REG 17-12-26 13:06 OP:osc  STATUS:               ID:20171226041440     3
 2017-12-26-0418-00M.COL___469                                                 6
 STAT SP IPHASW D HRMM SECON CODA AMPLIT PERI AZIMU VELO AIN AR TRES W  DIS CAZ7
 BAR2 EZ EP        421 15.05                             172    0.0910 19.2 196 
 BAR2 EZ ES        421 30.27                             172    0.0910 19.2 196 
 BAR2 EZ I         421 31.30         5.4 0.48            171           19.2 196 
 PAM  EZ EP        421 17.82                             150    0.0310 80.1  37 
 PAM  EN ES        421 34.91                             150   -0.3110 80.1  37 
 PAM  EZ I         421 37.00         3.4 0.58            154           80.1  37 
 PTB  HZ EP        421 21.71                             132   -0.71 9  148 261 
 PTB  HE ES        421 43.06                             132   -0.41 9  148 261 
 PTB  HZ I         421 50.14         2.5 0.44            132            148 261 
 TAM  HZ EP        421 23.18                             131    0.31 9  153 103 
 TAM  HE ES        421 43.88                             131   -0.39 9  153 103 
 SPBC HZ EP        421 24.02                             129    0.36 9  161 220 
 SPBC HN ES        421 46.10                             129    0.42 9  161 220 
 SPBC HZ I         421 51.06         3.4 0.10            131            161 220 
 OCA  HZ EP        421 23.63                             129   -0.53 9  165 353 
 OCA  HN ES        421 47.69                             129    1.12 9  165 353 
 ZAR  HZ EP        421 28.30                             122    0.14 8  207 293 
 ZAR  HN ES        421 53.25                             122   -0.44 8  207 293 
 ZAR  HZ I         421 58.91         3.9 0.34            123            207 293 
 GUY2CHN ES        422 13.15                             112    0.42 7  300 236 
                                                                                
