 2017 1226 0701 46.6 L   6.831 -73.133145.5  RSN  5 0.5 1.2LRSN                1
 GAP=151        1.09       6.3     5.6  9.8 -0.1022E+02  0.2142E+02 -0.1018E+02E
 Epicentro: LOS SANTOS - SANTANDER                                             3
 ACTION:UPD 18-01-04 13:24 OP:rebc STATUS:               ID:20171226070146 L   I
 OLDACT:REG 17-12-26 13:36 OP:osc  STATUS:               ID:20171226065045     3
 2017-12-26-0658-00M.COL___469                                                 6
 STAT SP IPHASW D HRMM SECON CODA AMPLIT PERI AZIMU VELO AIN AR TRES W  DIS CAZ7
 BAR2 EZ EP        7 2  6.26                             169   -0.0210 26.9 192 
 BAR2 EZ ES        7 2 21.38                             169   -0.2510 26.9 192 
 BAR2 EZ I         7 2 22.38         3.7 0.72            172           26.9 192 
 PAM  EZ EP        7 2  9.01                             152    0.4210 73.9  40 
 PAM  EN ES        7 2 26.19                             152    0.4510 73.9  40 
 PAM  EZ I         7 2 28.30         2.4 0.60            152           73.9  40 
 PTB  HZ EP        7 2 13.24                             131   -0.50 9  150 258 
 PTB  HN ES        7 2 34.83                             131   -0.07 9  150 258 
 PTB  HZ I         7 2 37.70         1.0 0.48            132            150 258 
 OCA  HZ EP   2    7 2 13.98                             130   -0.62 5  157 352 
 OCA  HE ES        7 2 35.71                             130   -0.72 9  157 352 
 OCA  HZ I         7 2 40.74         4.5 0.26            130            157 352 
 ZAR  HZ EP   2    7 2 20.11                             122    1.07 4  204 291 
 ZAR  HE ES        7 2 44.95                             122    0.61 9  204 291 
 ZAR  HZ I         7 2 49.78         2.2 0.56            123            204 291 
                                                                                
