 2010 1026 0712 52.7 L   6.747 -73.115143.9  RSN  9 0.4 2.0LRSN                1
 GAP=163        0.91       4.1     7.1  7.1 -0.8196E+01  0.5736E+01 -0.9822E-02E
 Epicentro: LOS SANTOS - SANTANDER                                             3
 ACTION:UP  11-02-18 11:12 OP:tino STATUS:               ID:20101026071252 L   I
 2010-10-26-0710-33S.COL___125                                                 6
 STAT SP IPHASW D HRMM SECON CODA AMPLIT PERI AZIMU VELO SNR AR TRES W  DIS CAZ7
 BAR2 SZ IP        713 11.89                             172    -0.110   19 204 
 BAR2 SZ ES   1    713 27.03                             172     0.0 7   19 204 
 BAR2 SZ I         713 28.55        22.8 0.09                            19 204 
 BRR  HZ IP     C  713 13.72                             150    -0.210   77 301 
 BRR  HZ I         713 14.04        31.5 0.26                            77 301 
 BRR  HE ES   1    713 31.11                             150     0.6 7   77 301 
 RUS  HZ EP   1    713 15.92                             145     0.1 7   95 178 
 RUS  HN ES   1    713 33.49                             145    -0.3 7   95 178 
 RUS  HZ I         713 35.39         9.6 0.33                            95 178 
 GRA  SZ IP        713 18.58                             135     0.510  130  15 
 GRA  SZ ES   1    713 38.06                             135     0.1 7  130  15 
 GRA  SZ I         713 41.17        13.6 0.34                           130  15 
 OCA  SZ EP   1    713 20.42                             128    -1.0 7  167 352 
 OCA  SZ ES   2    713 43.54                             128    -0.3 5  167 352 
 OCA  SZ I         713 48.65        14.7 0.27                           167 352 
 NOR  SZ EP   2    713 27.63                             118    -0.6 4  234 236 
 NOR  SN ES   2    713 55.98                             118     0.0 4  234 236 
 CHI  HZ EP   1    713 30.24                             117     0.5 6  244 196 
 CHI  HZ I         714  5.41         2.7 0.27                           244 196 
 HEL  HZ EP   2    713 33.85                             114     0.9 4  274 257 
 HEL  HN ES   2    714  4.06                             114    -0.4 4  274 257 
 HEL  HZ I         714 11.02         5.1 0.60                           274 257 
 PRA  HZ EP   2    713 46.11                             106     0.4 3  389 210 
 PRA  HE ES   2    714 27.08                             106     0.0 3  389 210 
 PRA  HZ I         714 34.75         6.4 0.19                           389 210 
                                                                                
