 2015  226 0148 58.9 L   6.829 -73.165140.2  RSN  4 0.4 1.5LRSN                1
 GAP=133        0.84       4.1     4.9  9.2 -0.4064E+01  0.1808E+02 -0.7995E+01E
 Epicentro: LOS SANTOS - SANTANDER                                             3
 ACTION:UPD 15-04-30 21:29 OP:nd   STATUS:               ID:20150226014858 L   I
 OLDACT:REG 15-02-26 12:29 OP:mher STATUS:               ID:20150226014747     3
 2015-02-26-0147-47M.COL___297                                                 6
 STAT SP IPHASW D HRMM SECON CODA AMPLIT PERI AZIMU VELO AIN AR TRES W  DIS CAZ7
 PAM  SZ EP        149 20.95                             150    0.5310 76.3  42 
 PAM  SN ES        149 37.21                             150   -0.0310 76.3  42 
 PAM  SZ I         149 39.86         9.0 0.51            154           76.3  42 
 RUS  HZ EP   1    149 22.31                             141   -0.02 7  104 175 
 RUS  HN ES   1    149 39.99                             141   -0.63 7  104 175 
 RUS  HZ I         149 42.36         3.5 0.57            145            104 175 
 PTB  HZ EP        149 25.35                             131    0.10 9  146 257 
 PTB  HN ES        149 46.08                             131    0.25 9  146 257 
 PTB  HZ I         149 49.15         4.2 0.09            134            146 257 
 SML  HZ EP   1    149 34.13                             116   -0.63 6  240 335 
 SML  HN ES        150  2.43                             116   -0.33 8  240 335 
                                                                                
