 2017 1226 0315 12.7 L   6.758 -73.127148.4  RSN  8 0.5 1.5LRSN                1
 GAP=122        1.21       4.1     5.3  7.4 -0.5593E+01  0.5785E+01 -0.2751E+01E
 Epicentro: LOS SANTOS - SANTANDER                                             3
 ACTION:UPD 18-01-04 13:24 OP:rebc STATUS:               ID:20171226031512 L   I
 OLDACT:REG 17-12-26 12:58 OP:osc  STATUS:               ID:20171226030209     3
 2017-12-26-0308-00M.COL___469                                                 6
 STAT SP IPHASW D HRMM SECON CODA AMPLIT PERI AZIMU VELO AIN AR TRES W  DIS CAZ7
 BAR2 EZ EP        315 32.70                             172    0.1010 19.4 198 
 BAR2 EZ ES        315 47.89                             172   -0.2210 19.4 198 
 BAR2 EZ I         315 52.75         3.3 0.12            173           19.4 198 
 PAM  EZ EP        315 35.74                             151    0.3810 79.7  36 
 PAM  EE ES        315 53.32                             151    0.3010 79.7  36 
 PAM  EZ I         315 55.91         3.2 0.46            154           79.7  36 
 PTB  HZ EP        315 39.52                             132   -0.50 9  149 261 
 PTB  HN ES        316  0.39                             132   -0.92 9  149 261 
 PTB  HZ I         316  4.71         2.2 0.17            135            149 261 
 SPBC HZ EP        315 41.91                             130    0.69 9  161 221 
 SPBC HE ES        316  4.19                             130    0.74 9  161 221 
 SPBC HZ I         316  5.93         3.3 0.28            133            161 221 
 OCA  HZ EP        315 41.43                             129   -0.26 9  165 353 
 OCA  HE ES        316  3.71                             129   -0.58 9  165 353 
 OCA  HZ I         316  8.37        13.3 0.22            132            165 353 
 ZAR  HZ EP        315 45.27                             122   -0.45 8  208 293 
 ZAR  HE ES        316 12.03                             122    0.57 8  208 293 
 ZAR  HZ I         316 17.10         5.4 0.56            125            208 293 
 DRL03HZ EP        315 55.04                             113    0.04 7  294 353 
 DRL03HE ES        316 28.60                             113    0.62 7  294 353 
 PTGC HZ EP        315 55.69                             112   -0.44 7  304 159 
 PTGC HE ES   3    316 28.53                             112   -1.46 2  304 159 
 SJC  HZ EP   4    316  7.42                             106   -1.54 0  414 327 
 SJC  HN ES   4    316 49.92                             106   -2.90 0  414 327 
                                                                                
