 2017  726 0647 30.6 L   6.830 -73.138148.6  RSN 16 0.4 1.9LRSN                1
 GAP= 66        0.83       3.0     2.9  4.2 -0.7172E+00  0.2203E+01  0.1512E+01E
 Epicentro: LOS SANTOS - SANTANDER                                             3
 ACTION:UPD 17-08-30 15:36 OP:rebc STATUS:               ID:20170726064730 L   I
 OLDACT:UP  17-07-26 16:35 OP:and  STATUS:               ID:20170726063737     3
 OLDACT:UP  17-07-26 16:34 OP:and  STATUS:               ID:20170726063737     3
 OLDACT:UP  17-07-26 16:32 OP:and  STATUS:               ID:20170726063737     3
 OLDACT:UP  17-07-26 16:31 OP:and  STATUS:               ID:20170726063737     3
 OLDACT:REG 17-07-26 12:55 OP:and  STATUS:               ID:20170726063737     3
 2017-07-26-0638-00M.COL___386                                                 6
 STAT SP IPHASW D HRMM SECON CODA AMPLIT PERI AZIMU VELO AIN AR TRES W  DIS CAZ7
 BAR2 EZ IP     C  647 50.39                             169   -0.2010 26.8 190 
 BAR2 EZ ES        648  5.74                             169   -0.4810 26.8 190 
 BAR2 EZ I         648  6.78        19.5 0.24            167           26.8 190 
 BRR  HZ EP        647 52.11                             153    0.1510 70.4 296 
 BRR  HN ES        648  9.31                             153    0.6610 70.4 296 
 BRR  HZ I         648 12.56        10.6 0.14            148           70.4 296 
 PAM  EZ IP     C  647 53.25                             152    0.3610 74.3  41 
 PAM  EN ES        648 10.18                             152   -0.1310 74.3  41 
 PAM  EZ I         648 12.63         7.0 0.26            156           74.3  41 
 RUS  HZ EP        647 54.57                             143   -0.2410  104 177 
 RUS  HN ES        648 13.77                             143    0.0310  104 177 
 RUS  HZ I         648 14.64        11.4 0.30            144            104 177 
 PTB  HZ EP   2    647 57.28                             132   -0.60 5  149 258 
 PTB  HN ES        648 18.42                             132   -0.77 9  149 258 
 PTB  HZ I         648 23.32         6.8 0.18            130            149 258 
 TAM  HZ EP   2    647 58.59                             131    0.13 5  155 106 
 SPBC HZ EP        647 59.35                             129   -0.21 9  166 218 
 SPBC HN ES        648 22.32                             129    0.14 9  166 218 
 SPBC HZ I         648 28.69        14.9 0.20            128            166 218 
 YPLC HZ IP     C  648  0.79                             127   -0.01 9  179 152 
 YPLC HN ES        648 24.77                             127    0.38 9  179 152 
 YPLC HZ I         648 25.56         7.5 0.30            129            179 152 
 ZAR  HZ EP   2    648  3.59                             123    0.46 4  204 291 
 ZAR  HN ES   2    648 28.95                             123    0.41 4  204 291 
 ZAR  HZ I         648 39.21         9.9 0.08            121            204 291 
 NOR  HZ EP        648  7.01                             119    0.29 8  237 234 
 NOR  HN ES        648 35.27                             119    0.34 8  237 234 
 NOR  HZ I         648 37.30         5.3 0.24            118            237 234 
 HEL  HN ES   4    648 47.12                             115    4.42 0  274 255 
 HEL  HZ I         648 50.04         5.6 0.58            114            274 255 
 GUY2CHZ EP   4    648 15.97                             113    1.39 0  304 234 
 GUY2CHN ES   4    648 53.68                             113    4.76 0  304 234 
 GUY2CHZ I         648 56.94         4.8 0.30                           304 234 
 PTGC HZ EP   4    648 13.52                             112   -1.33 0  312 159 
 PTGC HN ES   4    648 47.01                             112   -2.40 0  312 159 
 LL6C HZ EP        648 15.44                             111   -0.55 7  322 357 
 LL6C HZ ES   4    648 49.96                             111   -1.48 0  322 357 
 CBOC HZ EP        648 18.31                             110    0.52 7  335 252 
 CBOC HN ES   3    648 55.85                             110    1.22 2  335 252 
 CBOC HZ I         649  5.95         3.7 0.92            110            335 252 
 PRA  HZ EP        648 24.18                             107   -0.37 6  395 209 
 PRA  HE ES   4    649  5.73                             107   -0.94 0  395 209 
 PRA  HZ I         649 12.91         5.4 0.46            107            395 209 
 SJC  HZ EP   4    648 24.65                             106   -1.28 0  407 327 
 SJC  HN ES   4    649  5.89                             106   -3.23 0  407 327 
 PAL  HZ EP        648 26.02                             106   -0.06 6  408 239 
 PAL  HN ES        649  9.20                             106   -0.20 6  408 239 
 PAL  HZ I         649 15.28         1.7 0.26            106            408 239 
                                                                                
