 2016 1126 0858 52.2 L   6.786 -73.144144.0  RSN 10 0.5 1.9LRSN                1
 GAP=153        0.94       4.5     4.0  5.6 -0.2221E+01  0.4561E+01  0.7857E+01E
 Epicentro: LOS SANTOS - SANTANDER                                             3
 ACTION:UPD 17-10-26 21:12 OP:lp   STATUS:               ID:20161126085852 L   I
 OLDACT:UP  16-11-26 16:41 OP:dani STATUS:               ID:20161126085744     3
 OLDACT:UP  16-11-26 16:41 OP:dani STATUS:               ID:20161126085744     3
 OLDACT:REG 16-11-26 12:17 OP:dani STATUS:               ID:20161126085744     3
 2016-11-26-0858-00M.COL___349                                                 6
 STAT SP IPHASW D HRMM SECON CODA AMPLIT PERI AZIMU VELO AIN AR TRES W  DIS CAZ7
 BAR2 EZ EP     C  859 11.48                             171   -0.1110 21.8 191 
 BAR2 EZ ES        859 26.47                             171   -0.2510 21.8 191 
 BAR2 EZ I         859 27.40        16.4 0.28            163           21.8 191 
 BRR  HZ EP        859 13.39                             152    0.1710 72.2 300 
 BRR  HN ES        859 30.45                             152    0.8410 72.2 300 
 BRR  HZ I         859 32.13        13.9 0.22            149           72.2 300 
 PAM  EZ EP     C  859 14.29                             150   -0.0110 78.5  39 
 PAM  EE ES        859 31.48                             150   -0.0510 78.5  39 
 PAM  EZ I         859 33.72        20.1 0.78            149           78.5  39 
 PTB  HZ EP        859 18.39                             132   -0.63 9  148 259 
 PTB  HN ES        859 39.27                             132   -0.67 9  148 259 
 PTB  HZ I         859 42.01         9.0 0.14            125            148 259 
 ZAR  HZ EP        859 24.44                             122   -0.18 9  205 293 
 ZAR  HN ES        859 49.96                             122    0.06 9  205 293 
 ZAR  HZ I         859 55.62        12.5 0.32            117            205 293 
 CHI  HZ EP        859 29.72                             117    0.07 8  247 195 
 CHI  HN ES   1    859 59.59                             117    0.74 6  247 195 
 CHI  HZ I         9 0  2.13         4.5 0.30            110            247 195 
 ROSC BZ EP   9    859 32.20                             117    2.10 0  252 211 
 ROSC BN ES        9 0  1.90                             115    0.15 8  252 211 
 ROSC BZ I         9 0  9.55         9.3 0.49            110            252 211 
 CBOC HZ EP   2    859 40.41                             110    1.39 3  333 252 
 CBOC HN ES        9 0 15.84                             110    0.31 7  333 252 
 CBOC HZ I         9 0 21.87         1.5 0.18            105            333 252 
 PRA  HZ EP        859 45.86                             106    0.34 6  391 210 
 PRA  HN ES   3    9 0 26.47                             106   -0.63 1  391 210 
 PRA  HZ I         9 0 34.70         4.0 0.30            101            391 210 
 ORTC HZ EP        859 45.75                             106   -0.18 6  394 216 
 ORTC HZ I         9 0 35.86         2.4 0.25            101            394 216 
                                                                                
