 2013  526 0639 21.0 L   6.647 -73.137 30.9  RSN  8 0.3 2.4LRSN                1
 GAP=144        0.71       1.8     2.3  2.0 -0.4059E+00  0.6101E+00  0.2637E+00E
 Epicentro: VILLANUEVA - SANTANDER                                             3
 ACTION:UPD 13-06-20 09:53 OP:ep   STATUS:               ID:20130526063921 L   I
 2013-05-26-0637-50M.COL___211                                                 6
 STAT SP IPHASW D HRMM SECON CODA AMPLIT PERI AZIMU VELO AIN AR TRES W  DIS CAZ7
 BAR2 SZ EP     D  639 26.75                             165    0.3210 7.84 220 
 BAR2 SZ ES   1    639 30.71                             165    0.08 7 7.84 220 
 BAR2 SZ I         639 31.87       643.2 0.30            151           7.84 220 
 GIR2 SZ EP   1    639 30.00                             117   -0.13 7 48.2 353 
 GIR2 SZ ES   1    639 36.52                             117   -0.71 7 48.2 353 
 GIR2 SZ I         639 37.40        60.8 0.16            109           48.2 353 
 BRR  HZ EP     D  639 34.37                              61    0.1010 81.5 309 
 BRR  HN ES   1    639 44.68                              61    0.09 7 81.5 309 
 BRR  HN I         639 45.38       254.8 0.24            102           81.5 309 
 RUS  HZ IP     D  639 35.41                              61    0.2810 83.6 176 
 RUS  HE ES        639 45.61                              61   -0.5110 83.6 176 
 RUS  HE I         639 47.27       125.1 0.52            100           83.6 176 
 PAM  SZ EP   1    639 36.34                              61    0.34 7 90.6  32 
 PAM  SN ES        639 47.67                              61   -0.0110 90.6  32 
 PAM  SN I         639 49.42        48.4 0.22             99           90.6  32 
 PTB  HZ IP     D  639 42.52                              61    0.11 9  146 265 
 PTB  HN ES        639 59.03                              61   -0.05 9  146 265 
 PTB  HN I         640  0.67       167.9 0.26             56            146 265 
 TAM  HZ EP   4    639 46.10                              61    3.13 0  151  99 
 TAM  HE ES   4    640  6.51                              61    6.43 0  151  99 
 TAM  HN I         640 11.97        31.5 0.40             56            151  99 
 OCA  HZ EP   4    639 48.48                              61    2.05 0  177 353 
 OCA  HN ES   4    640  9.76                              61    3.52 0  177 353 
 HEL  HE ES        640 27.08                              60   -0.07 8  269 259 
                                                                                
