 2016  526 0631 33.8 L   6.770 -73.159153.0  RSN  7 0.4 1.7LRSN                1
 GAP=136        1.10       4.6     5.6  7.0 -0.5755E+01  0.3301E+01  0.7839E+01E
 Epicentro: LOS SANTOS - SANTANDER                                             3
 ACTION:UPD 16-08-18 17:49 OP:cam  STATUS:               ID:20160526063133 L   I
 OLDACT:UP  16-05-26 17:46 OP:mher STATUS:               ID:20160526062745     3
 OLDACT:UP  16-05-26 17:46 OP:mher STATUS:               ID:20160526062745     3
 OLDACT:UP  16-05-26 17:44 OP:mher STATUS:               ID:20160526062745     3
 OLDACT:REG 16-05-26 12:52 OP:mh   STATUS:               ID:20160526062745     3
 2016-05-26-0627-45M.COL___307                                                 6
 STAT SP IPHASW D HRMM SECON CODA AMPLIT PERI AZIMU VELO AIN AR TRES W  DIS CAZ7
 BAR2 EZ EP   1    631 53.92                             172   -0.26 7 19.8 188 
 BAR2 EZ ES        632  9.72                             172   -0.4010 19.8 188 
 BAR2 EZ I         632 12.21        14.1 0.28            171           19.8 188 
 BRR  HZ EP        631 56.11                             154    0.4110 71.6 301 
 BRR  HN ES        632 13.33                             154    0.5010 71.6 301 
 BRR  HZ I         632 15.48         8.9 0.26            154           71.6 301 
 PAM  EZ EP        631 57.20                             151    0.2610 80.9  39 
 PAM  EE ES        632 15.05                             151    0.0210 80.9  39 
 PAM  EZ I         632 16.65         7.2 0.35            154           80.9  39 
 RUS  HZ EP        631 57.41                             146   -0.5810 97.4 175 
 RUS  HN ES        632 16.89                             146   -0.0110 97.4 175 
 RUS  HZ I         632 17.93         6.9 0.28            147           97.4 175 
 PTB  HZ EP        632  0.55                             134   -0.58 9  146 260 
 PTB  HN ES        632 21.86                             134   -0.63 9  146 260 
 PTB  HZ I         632 25.78         5.1 0.05            135            146 260 
 SPBC HZ EP        632  3.07                             131    0.58 9  160 219 
 SPBC HN ES        632 25.29                             131    0.39 9  160 219 
 SPBC HZ I         632 26.70         7.8 0.18            132            160 219 
 CHI  HZ EP        632 11.27                             119   -0.20 8  245 195 
 CHI  HE ES        632 41.43                             119    0.54 8  245 195 
 CHI  HZ I         632 45.38         1.8 0.06            120            245 195 
                                                                                
