 2010  826 0601 35.8 L   6.814 -73.074148.7  RSN  4 0.1 1.2LRSN                1
 GAP=242        0.37       6.2     9.9  5.2  0.4340E+02 -0.1978E+02 -0.5545E+01E
 Epicentro: LOS SANTOS - SANTANDER                                             3
 ACTION:UP  10-09-07 10:58 OP:vdl  STATUS:               ID:20100826060135 L   I
 2010-08-26-0559-20S.COL___121                                                 6
 STAT SP IPHASW D HRMM SECON CODA AMPLIT PERI AZIMU VELO SNR AR TRES W  DIS CAZ7
 BTL  SZ IP        6 1 55.91                             171     0.110   24 298 
 BTL  SZ ES   1    6 2 11.30                             171    -0.1 7   24 298 
 BAR2 SZ EP   2    6 1 55.53                             170    -0.3 5   27 206 
 BRR  HZ EP   1    6 1 57.60                             152     0.0 7   78 295 
 BRR  HE ES   1    6 2 14.59                             152     0.0 7   78 295 
 BRR  HZ I         6 2 17.65         5.2 0.39                            78 295 
 RUS  HZ EP   2    6 1 59.77                             145    -0.1 5  102 181 
 RUS  HZ I         6 2  1.01         1.6 0.18                           102 181 
 RUS  HE ES   2    6 2 18.84                             145     0.1 5  102 181 
                                                                                
