 2017 1126 0907 51.7 L   6.850 -73.164142.0  RSN 17 0.7 2.0LRSN                1
 GAP= 77        1.53       4.6     3.8  7.5  0.8725E+00  0.1023E+02  0.2038E+01E
 Epicentro: ZAPATOCA - SANTANDER                                               3
 ACTION:UPD 17-12-12 20:00 OP:rebc STATUS:               ID:20171126090751 L   I
 OLDACT:REG 17-11-26 15:18 OP:dani STATUS:               ID:20171126085739     3
 2017-11-26-0858-00M.COL___477                                                 6
 STAT SP IPHASW D HRMM SECON CODA AMPLIT PERI AZIMU VELO AIN AR TRES W  DIS CAZ7
 BAR2 EZ EP        9 8 10.90                             168   -0.0410 28.5 184 
 BAR2 EZ ES        9 8 25.71                             168   -0.2810 28.5 184 
 BAR2 EZ I         9 8 27.15        48.6 0.22            166           28.5 184 
 PAM  EZ EP        9 8 13.81                             151    0.5110 74.6  43 
 PAM  EN ES        9 8 30.88                             151    0.7010 74.6  43 
 PAM  EZ I         9 8 33.27        15.4 0.70            155           74.6  43 
 RUS  HZ EP        9 8 15.26                             141   -0.1910  106 175 
 RUS  HE ES        9 8 33.55                             141   -0.4610  106 175 
 RUS  HZ I         9 8 34.84         8.8 0.24            142            106 175 
 PTB  HZ EP        9 8 17.57                             131   -0.66 9  147 257 
 PTB  HN ES        9 8 38.62                             131   -0.35 9  147 257 
 PTB  HZ I         9 8 41.29         6.8 0.26            131            147 257 
 TAM  HZ EP        9 8 19.33                             129   -0.03 9  159 107 
 TAM  HN ES        9 8 40.60                             129   -0.37 9  159 107 
 SPBC HZ EP        9 8 19.99                             128   -0.16 9  166 217 
 SPBC HN ES        9 8 41.81                             128   -0.58 9  166 217 
 SPBC HZ I         9 8 45.09        15.6 0.10            127            166 217 
 YPLC HZ IP     C  9 8 21.51                             125   -0.24 9  183 152 
 YPLC HN ES        9 8 45.51                             125    0.29 9  183 152 
 YPLC HZ I         9 8 48.06        11.3 0.24            126            183 152 
 ZAR  HZ EP        9 8 24.06                             122    0.61 9  200 291 
 ZAR  HE ES        9 8 49.63                             122    1.39 9  200 291 
 ZAR  HZ I         9 8 54.69        13.7 0.46            122            200 291 
 NOR  HZ EP        9 8 27.68                             117    0.35 8  236 233 
 NOR  HE ES        9 8 55.33                             117    0.16 8  236 233 
 NOR  HZ I         9 8 57.77         9.3 0.18            118            236 233 
 CHI  HZ EP        9 8 28.63                             116   -1.03 8  253 194 
 CHI  HN ES        9 9  0.29                             116    0.98 8  253 194 
 CHI  HZ I         9 9  6.06         4.1 0.42            116            253 194 
 HEL  HZ EP        9 8 32.13                             114    0.52 8  271 255 
 HEL  HE ES        9 9  1.62                             114   -1.15 8  271 255 
 HEL  HZ I         9 9 11.28         4.4 0.64            114            271 255 
 URE  HZ EP        9 8 31.85                             113   -0.25 7  280 291 
 URE  HN ES        9 9  2.00                             113   -1.65 7  280 291 
 URE  HZ I         9 9  3.47         7.2 0.12            114            280 291 
 GUY2CHZ EP        9 8 35.65                             111    0.39 7  303 234 
 GUY2CHN ES        9 9 10.11                             111    0.83 7  303 234 
 GUY2CHZ I         9 9 16.28         3.3 0.40                           303 234 
 CBOC HZ EP        9 8 39.74                             109    1.35 7  333 251 
 CBOC HN ES        9 9 15.03                             109    0.19 7  333 251 
 CBOC HZ I         9 9 33.84         1.1 0.42            110            333 251 
 PRA  HZ EP        9 8 44.38                             106   -1.11 6  396 209 
 PRA  HE ES   4    9 9 24.63                             106   -2.85 0  396 209 
 PRA  HZ I         9 9 32.28         6.5 0.30            106            396 209 
 ORTC HZ EP        9 8 46.35                             105    0.53 6  399 215 
 ORTC HN ES        9 9 29.14                             105    1.06 6  399 215 
 ORTC HZ I         9 9 34.19         2.8 0.42            106            399 215 
 SJC  HZ EP        9 8 45.59                             105   -0.83 6  404 327 
 SJC  HN ES   4    9 9 26.55                             105   -2.59 0  404 327 
 SJC  HZ I         9 9 30.60         2.5 0.46            106            404 327 
                                                                                
