 2013  826 0226 38.8 L   6.746 -73.160148.0  RSN  5 0.3 1.2LRSN                1
 GAP=232        0.81       5.3     5.8 10.0  0.2316E+01  0.7974E+01 -0.1070E+02E
 Epicentro: VILLANUEVA - SANTANDER                                             3
 ACTION:UPD 14-01-14 09:06 OP:ep   STATUS:               ID:20130826022638 L   I
 OLDACT:DUP 13-08-26 11:23 OP:carl STATUS:               ID:20130826021901d    3
 2013-08-26-0219-59M.COL___270                                                 6
 STAT SP IPHASW D HRMM SECON CODA AMPLIT PERI AZIMU VELO AIN AR TRES W  DIS CAZ7
 BAR2 SZ EP        226 58.60                             173   -0.0310 17.2 188 
 BAR2 SZ ES   1    227 13.94                             173   -0.13 7 17.2 188 
 BAR2 SZ I         227 14.76         2.8 0.38            175           17.2 188 
 BRR  HZ EP        227  0.38                             152    0.0510 72.9 303 
 BRR  HN ES   1    227 17.57                             152    0.49 7 72.9 303 
 BRR  HZ I         227 20.07         3.2 0.74            153           72.9 303 
 RUS  HN ES        227 20.60                             146   -0.1910 94.8 175 
 RUS  HN I         227 21.68         3.0 0.34            149           94.8 175 
 PTB  HN ES        227 26.23                             133   -0.52 9  145 261 
 SPBC HN ES        227 29.44                             130    0.50 9  158 220 
                                                                                
