 2017  226 0530 27.6 L   6.740 -73.175148.0  RSN  5 0.3 0.8LRSN                1
 GAP=135        0.84       4.5     4.3  6.1 -0.1754E+01  0.3050E+01  0.8647E+00E
 Epicentro: VILLANUEVA - SANTANDER                                             3
 ACTION:UPD 17-05-24 15:40 OP:jn   STATUS:               ID:20170226053027 L   I
 OLDACT:REG 17-02-26 12:02 OP:lv   STATUS:               ID:20170226052743     3
 2017-02-26-0528-00M.COL___367                                                 6
 STAT SP IPHASW D HRMM SECON CODA AMPLIT PERI AZIMU VELO AIN AR TRES W  DIS CAZ7
 BAR2 EZ EP        530 47.48                             173    0.0610 16.4 183 
 BAR2 EZ ES        531  2.22                             173   -0.6310 16.4 183 
 BAR2 EZ I         531  3.94         1.4 0.06            173           16.4 183 
 BRR  HZ EP        530 49.11                             153    0.0410 71.9 304 
 BRR  HN ES        531  6.31                             153    0.5210 71.9 304 
 PAM  EZ EP        530 50.29                             149   -0.2410 84.5  38 
 PAM  EN ES        531  8.47                             149    0.0910 84.5  38 
 PAM  EZ I         531  9.49         1.1 0.34            150           84.5  38 
 RUS  HZ EP        530 51.43                             146    0.2610 94.3 174 
 RUS  HN ES        531  9.78                             146    0.2510 94.3 174 
 RUS  HZ I         531 11.35         1.0 0.35            146           94.3 174 
 PTB  HZ EP        530 54.20                             133   -0.21 9  143 261 
 PTB  HN ES        531 15.10                             133   -0.19 9  143 261 
                                                                                
