 2010  426 0559 13.8 L   6.808 -73.001149.5  RSN  4 0.3 2.3LRSN                1
 GAP=233        0.60       5.4    11.2 10.8 -0.4189E+01 -0.5824E+02  0.9083E+01E
 Epicentro: CEPITA - SANTANDER                                                 3
 ACTION:UPD 10-08-24 10:01 OP:vdl  STATUS:               ID:20100426055913 L   I
 2010-04-26-0554-37S.COL___104                                                 6
 STAT SP IPHASW D HRMM SECON CODA AMPLIT PERI AZIMU VELO AIN AR TRES W  DIS CAZ7
 BAR2 SZ IP        559 33.95                             168    -0.210   31 220 
 BRR  HZ EP   1    559 36.53                             148     0.3 7   85 293 
 BRR  HN ES   1    559 53.75                             148     0.1 7   85 293 
 BRR  HZ I         559 54.75        35.3 0.10                            85 293 
 OCA  SZ EP   1    559 42.93                             130     0.3 7  162 348 
 OCA  SZ ES   1    6 0  4.75                             130    -0.3 7  162 348 
 OCA  SZ I         6 0 10.09        25.8 0.29                           162 348 
 HEL  HZ EP   2    559 55.51                             114    -0.5 4  288 256 
                                                                                
