 2014  126 0420 37.1 L   6.790 -73.074150.3  RSN  8 0.4 1.5LRSN                1
 GAP=146        1.07       3.4     6.6  7.3 -0.2279E+01  0.1119E+02  0.1552E+01E
 Epicentro: LOS SANTOS - SANTANDER                                             3
 ACTION:UPD 14-03-13 09:58 OP:ep   STATUS:               ID:20140126042037 L   I
 OLDACT:REG 14-01-26 09:34 OP:nd   STATUS:               ID:20140126042000     3
 2014-01-26-0420-00M.COL___285                                                 6
 STAT SP IPHASW D HRMM SECON CODA AMPLIT PERI AZIMU VELO AIN AR TRES W  DIS CAZ7
 PAM  SZ EP        421  0.06                             153    0.5110 73.5  34 
 PAM  SN ES        421 16.47                             153   -0.6110 73.5  34 
 PAM  SZ I         421 19.77         5.7 0.48            159           73.5  34 
 BRR  HZ EP        420 59.33                             151    0.1910 78.7 296 
 BRR  HN ES        421 16.74                             151    0.3910 78.7 296 
 BRR  HZ I         421 21.82         3.4 0.10            150           78.7 296 
 RUS  HZ EP        421  1.50                             145    0.3210 99.3 181 
 RUS  HN ES        421 20.00                             145    0.0210 99.3 181 
 RUS  HZ I         421 23.63         2.1 0.62            148           99.3 181 
 PTB  HZ EP        421  4.35                             131   -0.74 9  155 260 
 PTB  HN ES   4    421 24.99                             131   -1.96 0  155 260 
 PTB  HZ I         421 31.61         5.1 0.42            133            155 260 
 SPBC HZ EP        421  6.56                             129    0.24 9  167 221 
 SPBC HN ES        421 29.28                             129    0.15 9  167 221 
 SPBC HZ I         421 33.71         6.1 0.16            131            167 221 
 SML  HZ EP        421 14.08                             118   -0.35 8  248 334 
 SML  HN ES        421 43.55                             118   -0.01 8  248 334 
 SML  HZ I         421 47.36         5.3 0.10            121            248 334 
 CHI  HZ EP        421 15.50                             118    0.35 8  250 197 
 CHI  HN ES        421 44.04                             118   -0.81 8  250 197 
 CHI  HZ I         421 50.94         1.4 0.26            121            250 197 
 GUY2CHZ EP   4    421 22.97                             113    1.42 0  307 236 
 GUY2CHN ES   4    422  0.02                             113    3.78 0  307 236 
 GUY2CHZ I         422  4.51         2.4 0.74                           307 236 
                                                                                
