 2017  126 0753  8.8 L   6.752 -73.136143.5  RSN  9 0.5 1.9LRSN                1
 GAP=161        1.27       7.1     4.3  8.1  0.1071E+02  0.5635E+00 -0.1293E+02E
 Epicentro: LOS SANTOS - SANTANDER                                             3
 ACTION:UPD 17-05-22 16:03 OP:jn   STATUS:               ID:20170126075308 L   I
 OLDACT:UP  17-01-26 17:36 OP:lv   STATUS:               ID:20170126074743     3
 OLDACT:REG 17-01-26 13:59 OP:lv   STATUS:               ID:20170126074743     3
 2017-01-26-0748-00M.COL___337                                                 6
 STAT SP IPHASW D HRMM SECON CODA AMPLIT PERI AZIMU VELO AIN AR TRES W  DIS CAZ7
 BAR2 EZ EP        753 28.21                             172    0.1610 18.4 196 
 BAR2 EZ ES        753 42.86                             172   -0.2110 18.4 196 
 BAR2 EZ I         753 44.30        23.7 0.06            166           18.4 196 
 BRR  HZ IP     C  753 30.11                             151    0.2210 74.8 302 
 BRR  HN ES        753 46.96                             151    0.6010 74.8 302 
 BRR  HZ I         753 47.32        13.1 0.18            149           74.8 302 
 RUS  HZ EP        753 32.41                             145    0.4910 95.2 176 
 RUS  HN ES        753 50.07                             145    0.0910 95.2 176 
 RUS  HZ I         753 51.46        10.0 0.18            141           95.2 176 
 PTB  HZ EP        753 34.93                             131   -0.64 9  148 261 
 PTB  HN ES        753 55.73                             131   -0.74 9  148 261 
 PTB  HZ I         753 58.58         9.6 0.16            128            148 261 
 TAM  HZ EP        753 36.63                             131    0.57 9  153 103 
 TAM  HN ES        753 56.42                             131   -0.92 9  153 103 
 TAM  HZ I         753 58.60         6.4 0.21            130            153 103 
 ZAR  HZ EP        753 41.24                             122   -0.15 8  207 293 
 ZAR  HN ES        754  7.16                             122    0.33 8  207 293 
 ZAR  HZ I         754 12.81        15.2 0.26            120            207 293 
 ROSC BZ EP   9    753 48.82                             117    2.48 0  249 212 
 ROSC BN ES        754 19.10                                    0.98 8  249 212 
 ROSC BZ I         754 25.03         6.5 0.31            114            249 212 
 URE  HE ES   4    754 20.95                             113   -1.34 0  287 293 
 PTGC HZ EP   9    753 51.49                             112   -0.44 0  303 158 
 PTGC HE ES        754 25.32                                    0.17 7  303 158 
 CBOC HZ EP   4    753 57.34                             110    1.81 0  333 253 
 CBOC HN ES        754 32.06                             110    0.06 7  333 253 
 CBOC HZ I         754 36.27         1.3 0.27            108            333 253 
                                                                                
