 2014  226 0629 29.4 L   7.222 -74.178 14.4  RSN  9 0.8 1.8LRSN                1
 GAP= 72        1.82       4.0     3.6  6.9 -0.3138E+00 -0.7431E+01 -0.3658E+01E
 Epicentro: PUERTO WILCHES - SANTANDER                                         3
 OLDACT:REG 14-02-26 11:02 OP:stll STATUS:               ID:20140226062813     3
 ACTION:UPD 14-03-10 08:13 OP:ep   STATUS:               ID:20140226062929 L   I
 OLDACT:UP  14-02-26 14:38 OP:stll STATUS:               ID:20140226062813     3
 2014-02-26-0628-13M.COL___233                                                 6
 STAT SP IPHASW D HRMM SECON CODA AMPLIT PERI AZIMU VELO AIN AR TRES W  DIS CAZ7
 ZAR  HZ EP        629 42.70                              98    0.3110 80.8 292 
 ZAR  HN ES        629 52.10                              98   -0.3910 80.8 292 
 ZAR  HZ I         629 53.41        65.2 0.08             47           80.8 292 
 PTB  HZ EP        629 42.42                              98   -0.0910 81.5 202 
 PTB  HN ES        629 52.00                              98   -0.7010 81.5 202 
 PTB  HZ I         629 53.25        16.5 0.12             47           81.5 202 
 BAR2 SZ EP        629 50.55                              95    0.4610  130 122 
 BAR2 SZ ES        630  5.41                              95   -0.7810  130 122 
 BAR2 HZ I         630  6.69        21.7 0.90             47            130 122 
 OCA  HZ EP        629 52.76                              56    0.38 9  147  40 
 OCA  HN ES        630  9.41                              56   -0.86 9  147  40 
 OCA  HZ I         630 12.39         9.5 0.50             47            147  40 
 PAM  SZ EP        629 55.84                              56    0.96 9  164  85 
 PAM  SN ES        630 13.92                              56   -0.80 9  164  85 
 PAM  HZ I         630 16.36        11.5 0.82             47            164  85 
 SML  HZ EP        629 55.65                              56   -0.03 9  175   4 
 SML  HZ I         630 21.57         7.2 0.08             37            175   4 
 HEL  HZ EP        629 58.23                              56    0.49 9  188 233 
 HEL  HN ES        630 18.67                              56   -1.15 9  188 233 
 HEL  HZ I         630 24.67         5.4 0.28             37            188 233 
 RUS  HZ EP        629 58.99                              56    0.77 9  190 140 
 RUS  HN ES        630 20.84                              56    0.18 9  190 140 
 RUS  HZ I         630 22.74        13.7 0.62             37            190 140 
 GUY2CHZ EP        630  8.56                              56    2.04 8  257 211 
 GUY2CHN ES        630 35.46                              56    0.03 8  257 211 
                                                                                
