 2014 1126 0443 22.9 L   6.816 -73.191137.0  RSN  5 0.4 1.5LRSN                1
 GAP=130        0.91       3.9     5.1  7.2 -0.5581E+01  0.1021E+02 -0.5281E+01E
 Epicentro: ZAPATOCA - SANTANDER                                               3
 ACTION:UPD 14-12-19 15:47 OP:nd   STATUS:               ID:20141126044322 L   I
 OLDACT:UP  14-11-26 17:20 OP:mh   STATUS:               ID:20141126043743     3
 OLDACT:REG 14-11-26 14:14 OP:mh   STATUS:               ID:20141126043743     3
 2014-11-26-0437-43M.COL___303                                                 6
 STAT SP IPHASW D HRMM SECON CODA AMPLIT PERI AZIMU VELO AIN AR TRES W  DIS CAZ7
 BAR2 SZ EP   1    443 42.47                             169    0.93 7 24.8 178 
 BAR2 SZ ES        443 55.79                             169   -0.2610 24.8 178 
 BAR2 SZ I         443 57.66        10.5 0.35            170           24.8 178 
 PAM  SZ EP        443 44.59                             148    0.2510 79.3  43 
 PAM  SN ES        444  1.13                             148    0.0910 79.3  43 
 PAM  SZ I         444  3.53         8.5 0.72            153           79.3  43 
 RUS  HZ EP        443 45.89                             141   -0.1110  103 173 
 RUS  HN ES   1    444  3.74                             141   -0.25 7  103 173 
 RUS  HZ I         444  5.66         2.3 0.20            144            103 173 
 PTB  HZ EP        443 48.86                             131    0.08 9  143 258 
 PTB  HN ES        444  9.02                             131    0.08 9  143 258 
 PTB  HZ I         444 14.74         4.5 0.20            132            143 258 
 OCA  HZ EP        443 49.64                             128   -0.71 9  158 355 
 OCA  HN ES        444 11.86                             128    0.12 9  158 355 
 OCA  HZ I         444 13.02         6.0 0.14            131            158 355 
                                                                                
