 2017  726 0351 17.0 L   6.816 -73.158144.2  RSN 18 0.6 1.8LRSN                1
 GAP= 74        1.02       3.5     3.2  5.6 -0.5599E-01  0.5477E+01  0.2185E+01E
 Epicentro: LOS SANTOS - SANTANDER                                             3
 ACTION:UPD 17-08-30 15:36 OP:rebc STATUS:               ID:20170726035117 L   I
 OLDACT:UP  17-07-26 15:00 OP:and  STATUS:               ID:20170726034740     3
 OLDACT:UP  17-07-26 15:00 OP:and  STATUS:               ID:20170726034740     3
 OLDACT:UP  17-07-26 14:58 OP:and  STATUS:               ID:20170726034740     3
 OLDACT:UP  17-07-26 14:58 OP:and  STATUS:               ID:20170726034740     3
 OLDACT:UP  17-07-26 14:58 OP:and  STATUS:               ID:20170726034740     3
 OLDACT:UP  17-07-26 14:57 OP:and  STATUS:               ID:20170726034740     3
 OLDACT:UP  17-07-26 14:40 OP:and  STATUS:               ID:20170726034740     3
 OLDACT:REG 17-07-26 12:48 OP:and  STATUS:               ID:20170726034740     3
 2017-07-26-0348-00M.COL___386                                                 6
 STAT SP IPHASW D HRMM SECON CODA AMPLIT PERI AZIMU VELO AIN AR TRES W  DIS CAZ7
 BAR2 EZ EP        351 36.34                             170   -0.1010 24.9 186 
 BAR2 EZ ES        351 51.01                             170   -0.6110 24.9 186 
 BAR2 EZ I         351 54.17        23.9 0.30            168           24.9 186 
 BRR  HZ IP     D  351 38.17                             153    0.3510 69.1 298 
 BRR  HN ES   3    351 55.23                             153    1.14 2 69.1 298 
 BRR  HZ I         351 59.17        14.7 0.32            151           69.1 298 
 PAM  EZ IP     C  351 39.38                             150    0.4010 76.9  41 
 PAM  EN ES        351 56.11                             150   -0.0410 76.9  41 
 PAM  EZ I         352  1.38         9.7 0.26            156           76.9  41 
 RUS  HZ EP   2    351 40.64                             142   -0.06 5  102 175 
 RUS  HN ES        351 59.03                             142   -0.1810  102 175 
 RUS  HZ I         352  0.45         8.2 0.26            145            102 175 
 PTB  HZ EP        351 43.16                             131   -0.55 9  147 258 
 PTB  HN ES   2    352  3.69                             131   -0.88 5  147 258 
 PTB  HZ I         352 11.36         4.3 0.27            132            147 258 
 TAM  HZ IP     D  351 44.82                             129    0.14 9  157 105 
 SPBC HZ EP        351 45.29                             128   -0.10 9  164 218 
 SPBC HN ES        352  7.48                             128   -0.08 9  164 218 
 SPBC HZ I         352  9.14         9.8 0.14            129            164 218 
 YPLC HZ IP     C  351 46.86                             125   -0.00 9  179 151 
 YPLC HN ES        352 10.69                             125    0.50 9  179 151 
 YPLC HZ I         352 11.78        11.1 0.26            130            179 151 
 ZAR  HZ EP   2    351 49.53                             122    0.43 4  202 292 
 ZAR  HN ES        352 14.66                             122    0.49 9  202 292 
 ZAR  HZ I         352 19.58         8.0 0.24            123            202 292 
 NOR  HZ EP        351 52.89                             118    0.30 8  235 234 
 NOR  HN ES        352 20.31                             118   -0.07 8  235 234 
 NOR  HZ I         352 28.24         4.9 0.18            119            235 234 
 ROSC BZ EP        351 55.99                             116    0.90 8  254 211 
 ROSC BN ES   4    352 28.35                             116    3.53 0  254 211 
 ROSC BZ I         352 32.79         7.9 0.35            118            254 211 
 HEL  HN ES        352 28.01                             114   -0.21 8  271 255 
 HEL  HZ I         352 36.68         3.4 0.36            116            271 255 
 GUY2CHZ EP   4    352  3.42                             112    2.93 0  301 234 
 GUY2CHN ES   4    352 38.36                             112    3.92 0  301 234 
 GUY2CHZ I         352 46.64         3.4 0.42                           301 234 
 PTGC HZ IP   9 D  351 59.65                             111   -1.35 0  311 159 
 PTGC HN ES        352 33.10                             111   -0.90 7  311 159 
 CBOC HN ES        352 40.53                             109    0.33 7  333 252 
 CBOC HZ I         352 49.26         1.0 0.46            111            333 252 
 PRA  HZ EP        352 10.36                             106   -0.17 6  393 209 
 PRA  HE ES   2    352 51.77                             106   -0.55 3  393 209 
 PRA  HZ I         352 58.68         3.3 0.40            108            393 209 
 ORTC HZ EP        352 10.07                             106   -0.83 6  396 216 
 ORTC HN ES   3    352 54.61                             106    1.63 1  396 216 
 ORTC HZ I         353  0.29         1.9 0.38            108            396 216 
 SJC  HZ EP   2    352 10.81                             105   -1.40 3  407 327 
 SJC  HN ES   2    352 52.03                             105   -3.27 3  407 327 
                                                                                
