 2015  826 0418  6.2 L   6.580 -73.490114.9  RSN  9 0.4 1.5LRSN                1
 GAP= 82        0.94       2.6     3.8  6.3  0.6566E+00  0.1232E+02  0.3161E+01E
 Epicentro: EL CARMEN - SANTANDER                                              3
 ACTION:UPD 15-09-15 23:05 OP:cam  STATUS:               ID:20150826041806 L   I
 OLDACT:UP  15-08-26 18:28 OP:ak   STATUS:               ID:20150826040746d    3
 OLDACT:REG 15-08-26 13:44 OP:ak   STATUS:               ID:20150826040746d    3
 2015-08-26-0407-45M.COL___346                                                 6
 STAT SP IPHASW D HRMM SECON CODA AMPLIT PERI AZIMU VELO AIN AR TRES W  DIS CAZ7
 BAR2 EZ EP        418 23.06                             162    0.6110 34.1  88 
 BAR2 EZ ES        418 35.41                             162    0.2810 34.1  88 
 BAR2 EZ I         418 36.91        27.7 0.32            170           34.1  88 
 BRR  HZ EP        418 22.70                             149   -0.8710 63.3 337 
 BRR  HE ES        418 37.25                             149    0.1210 63.3 337 
 BRR  HZ I         418 44.34         4.4 0.20            151           63.3 337 
 RUS  HZ EP        418 26.31                             140    0.2710 88.3 149 
 RUS  HN ES        418 41.04                             140   -0.4910 88.3 149 
 RUS  HZ I         418 43.26         4.0 0.45            146           88.3 149 
 ZAR  HN ES        418 56.41                             118    0.04 9  182 304 
 ZAR  HZ I         418 59.68         4.4 0.10            121            182 304 
 OCA  HZ EP        418 34.59                             117   -0.27 9  184   6 
 OCA  HN ES        418 57.27                             117    0.04 9  184   6 
 CHI  HN ES        419  4.28                             113    0.01 8  217 187 
 HEL  HZ EP        418 40.65                             112    0.50 8  230 259 
 HEL  HN ES        419  6.50                             112   -0.14 8  230 259 
 HEL  HZ I         419 11.73         2.5 0.22            115            230 259 
 GUY2CHZ EP   1    418 43.80                             109    0.50 6  256 234 
 GUY2CHN ES        419 12.19                             109   -0.06 8  256 234 
 GUY2CHZ I         419 17.99         2.6 0.45                           256 234 
 PRA  HZ EP   1    418 53.89                             102   -0.22 5  353 206 
 PRA  HE ES        419 31.29                             102   -0.20 6  353 206 
 PRA  HZ I         419 37.19         1.4 0.15            106            353 206 
                                                                                
