 2015  326 0409 43.1 L   6.393 -73.764 88.5  RSN 16 0.5 2.1LRSN                1
 GAP= 76        1.28       2.8     2.9  7.1 -0.2631E+01  0.6779E+01 -0.1944E+01E
 Epicentro: SANTA HELENA DEL OPON - SANTANDER                                  3
 ACTION:UPD 15-04-30 16:29 OP:nd   STATUS:               ID:20150326040943 L   I
 OLDACT:REG 15-03-26 12:50 OP:fm   STATUS:               ID:20150326040748     3
 2015-03-26-0407-48M.COL___281                                                 6
 STAT SP IPHASW D HRMM SECON CODA AMPLIT PERI AZIMU VELO AIN AR TRES W  DIS CAZ7
 BAR2 EZ IP     C  4 9 59.02                             139    0.5110 68.1  71 
 BAR2 EZ ES        410 10.78                             139    0.2310 68.1  71 
 BAR2 EZ I         410 12.80        50.1 0.20            143           68.1  71 
 PTB  HZ IP     C  4 9 58.66                             135   -0.3910 78.2 282 
 PTB  HE ES        410 10.70                             135   -0.8210 78.2 282 
 PTB  HZ I         410 16.14        23.0 0.24            134           78.2 282 
 BRR  HZ IP     C  4 9 59.40                             135    0.2810 79.2   4 
 BRR  HE ES        410 12.48                             135    0.8510 79.2   4 
 BRR  HZ I         410 13.67        34.4 0.16            135           79.2   4 
 SPBC HZ IP     D  410  0.52                             131    0.4210 88.7 203 
 SPBC HE ES        410 13.54                             131    0.1710 88.7 203 
 SPBC HZ I         410 15.79        48.0 0.18            133           88.7 203 
 RUS  HZ EP        410  1.13                             130    0.0410 93.5 126 
 RUS  HN ES        410 14.78                             130   -0.3610 93.5 126 
 RUS  HZ I         410 19.49        14.0 0.26            135           93.5 126 
 NOR  HZ EP        410  6.24                             115   -0.48 9  153 233 
 NOR  HE ES        410 24.55                             115   -0.61 9  153 233 
 NOR  HZ I         410 28.49        37.1 0.16            116            153 233 
 PAM  SZ EP        410  7.59                             115   -0.20 9  158  48 
 PAM  SE ES        410 26.28                             115   -0.80 9  158  48 
 PAM  SZ I         410 27.92        19.0 0.24            117            158  48 
 ZAR  HZ IP     D  410  9.11                             112    0.35 9  171 315 
 ZAR  HN ES        410 29.71                             112    0.92 9  171 315 
 ZAR  HZ I         410 31.46        31.5 0.24            113            171 315 
 HEL  HZ EP        410 12.51                             109    0.41 9  197 264 
 HEL  HN ES        410 34.29                             109   -0.45 9  197 264 
 HEL  HZ I         410 40.53         9.3 0.24            110            197 264 
 OCA  HZ EP   1    410 12.57                             108   -0.84 6  210  14 
 OCA  HN ES        410 37.04                             108   -0.03 8  210  14 
 OCA  HZ I         410 41.59        33.5 0.44            109            210  14 
 GUY2CHZ EP        410 15.65                             107    0.74 8  219 234 
 GUY2CHN ES        410 39.58                             107   -0.16 8  219 234 
 GUY2CHZ I         410 46.88        12.9 0.38                           219 234 
 URE  HN ES   4    410 42.29                             105   -2.16 0  246 308 
 URE  HZ I         410 55.82        10.6 0.16            106            246 308 
 CBOC HZ EP        410 19.56                             104    0.73 8  256 257 
 CBOC HN ES        410 46.35                             104   -0.38 8  256 257 
 SML  HZ EP   1    410 19.89                             104   -0.27 6  268 353 
 SML  HE ES        410 48.18                             104   -0.91 8  268 353 
 SML  HZ I         410 54.50        24.8 0.26            104            268 353 
 ORTC HZ EP   1    410 26.67                             101    0.24 5  320 211 
 ORTC HN ES        411  0.54                             101    0.29 7  320 211 
 ORTC HZ I         411  8.79         6.8 0.54            102            320 211 
 MON  HZ EP   4    410 26.59                             100   -1.85 0  337 322 
 MON  HN ES   4    411  2.23                             100   -1.60 0  337 322 
 MON  HZ I         411 17.50         2.9 0.52            101            337 322 
 MACC HE ES   4    411 29.33                              97   -3.38 0  470 181 
                                                                                
