 2016  726 0105  5.3 L   6.787 -73.150143.0  RSN 15 0.4 2.2LRSN                1
 GAP=165        0.97       3.7     3.0  4.9  0.4620E+00  0.1815E+01  0.2854E+01E
 Epicentro: LOS SANTOS - SANTANDER                                             3
 ACTION:UPD 17-03-29 16:55 OP:lp   STATUS:               ID:20160726010505 L   I
 OLDACT:UP  16-07-26 15:27 OP:ar   STATUS:               ID:20160726005759     3
 OLDACT:REG 16-07-26 13:08 OP:ar   STATUS:               ID:20160726005759     3
 2016-07-26-0057-59S.COL___334                                                 6
 STAT SP IPHASW D HRMM SECON CODA AMPLIT PERI AZIMU VELO AIN AR TRES W  DIS CAZ7
 BAR2 EZ EP        1 5 24.21                             171   -0.4010 21.8 189 
 BAR2 EZ ES        1 5 39.37                             171   -0.2710 21.8 189 
 BAR2 EZ I         1 5 40.79        31.1 0.23            168           21.8 189 
 BRR  HZ IP     C  1 5 25.97                             152   -0.2410 71.4 300 
 BRR  HN ES        1 5 43.07                             152    0.5910 71.4 300 
 BRR  HZ I         1 5 46.85        33.5 0.26            148           71.4 300 
 RUS  HZ EP        1 5 28.41                             144   -0.3210 99.2 176 
 RUS  HN ES        1 5 47.17                             144    0.2110 99.2 176 
 RUS  HZ I         1 5 48.68        14.3 0.54            144           99.2 176 
 PTB  HZ EP   9    1 5 30.84                             132   -1.18 0  147 259 
 PTB  HN ES        1 5 51.83                             130    0.19 9  147 259 
 PTB  HZ I         1 5 53.73        19.2 0.10            129            147 259 
 TAM  HZ EP        1 5 32.75                             130   -0.07 9  155 104 
 TAM  HN ES        1 5 54.62                             130    0.37 9  155 104 
 SPBC HZ EP        1 5 33.14                             129   -0.36 9  162 219 
 SPBC HN ES        1 5 55.62                             129    0.16 9  162 219 
 SPBC HZ I         1 6  2.27        21.9 0.24            127            162 219 
 ZAR  HZ EP   4    1 5 39.73                             122    2.11 0  204 293 
 ZAR  HN ES        1 6  2.27                             122   -0.52 9  204 293 
 ZAR  HZ I         1 6  9.44        15.8 0.17            120            204 293 
 NOR  HZ EP        1 5 40.21                             118   -0.57 8  233 235 
 NOR  HN ES        1 6  8.02                             118   -0.40 8  233 235 
 NOR  HZ I         1 6 14.36         8.1 0.22            117            233 235 
 CHI  HZ EP        1 5 42.67                             117   -0.06 8  247 195 
 CHI  HN ES        1 6 12.18                             117    0.29 8  247 195 
 CHI  HZ I         1 6 14.11        14.8 0.34            116            247 195 
 HEL  HZ EP        1 5 46.38                             114    1.06 8  271 256 
 HEL  HN ES        1 6 16.84                             114    0.33 8  271 256 
 HEL  HZ I         1 6 23.80         7.4 0.38            113            271 256 
 URE  HN ES   4    1 6 14.91                             113   -3.31 0  284 292 
 URE  HZ I         1 6 29.23        15.1 0.22            112            284 292 
 GUY2CHZ EP        1 5 49.60                             112    0.91 7  300 235 
 GUY2CHN ES   4    1 6 26.38                             112    3.89 0  300 235 
 GUY2CHZ I         1 6 29.41         6.3 0.22                           300 235 
 PTGC HZ EP   9    1 5 47.49                             111   -1.46 0  308 158 
 PTGC HE ES        1 6 21.36                                   -0.14 7  308 158 
 PTGC HZ I         1 6 22.62        10.3 0.20            112            308 158 
 ELA  HZ EP   9    1 5 55.09                             110    3.16 0  328 230 
 ELA  HN ES        1 6 31.32                             109   -0.11 7  328 230 
 ELA  HZ I         1 6 37.62         4.2 0.40            109            328 230 
 PRA  HZ EP        1 5 58.79                             106    0.19 6  391 210 
 PRA  HN ES        1 6 39.79                             106   -0.34 6  391 210 
 PRA  HZ I         1 6 45.88         7.1 0.34            106            391 210 
                                                                                
