 2012 1226 0034 18.4 L   6.776 -73.140155.8  RSN  7 0.5 1.6LRSN                1
 GAP=183        0.87       5.1     6.8  8.5  0.1018E+02  0.1051E+01 -0.9176E+01E
 Epicentro: LOS SANTOS - SANTANDER                                             3
 ACTION:UPD 13-01-04 14:30 OP:ep   STATUS:               ID:20121226003418 L   I
 2012-12-26-0030-00M.COL___242                                                 6
 STAT SP IPHASW D HRMM SECON CODA AMPLIT PERI AZIMU VELO AIN AR TRES W  DIS CAZ7
 GIR2 SZ EP   1    034 39.47                             167    0.14 7 34.0 350 
 GIR2 SZ ES   2    034 55.69                             167    0.03 5 34.0 350 
 GIR2 SZ I         034 56.82         7.7 0.16                          34.0 350 
 BRR  HZ EP        034 41.21                             154    0.4810 73.0 300 
 BRR  HE ES   1    034 58.72                             154    0.57 7 73.0 300 
 BRR  HZ I         035  2.09         6.4 0.38                          73.0 300 
 RUS  HZ EP   1    034 43.26                             147    0.30 7 97.9 176 
 RUS  HN ES   1    035  1.56                             147   -0.56 7 97.9 176 
 RUS  HZ I         035  4.78         2.9 0.40                          97.9 176 
 PTB  HZ EP   1    034 45.88                             134   -0.32 7  148 260 
 PTB  HN ES   1    035  7.32                             134   -0.57 7  148 260 
 PTB  HZ I         035 14.53        10.1 0.38                           148 260 
 OCA  HN ES   2    035 10.23                             131   -0.42 5  163 353 
 ZAR  HZ EP   1    034 51.41                             124   -0.26 6  206 293 
 ZAR  HN ES   1    035 18.13                             124    0.51 6  206 293 
 ZAR  HZ I         035 27.40         5.0 0.26                           206 293 
 SML  HZ EP   1    034 55.88                             119   -0.01 6  246 335 
 SML  HN ES   1    035 24.24                             119   -0.89 6  246 335 
                                                                                
