 2010  826 0952 56.5 L   6.793 -73.105142.4  RSN  6 0.2 1.3LRSN                1
 GAP=163        0.51       5.2    10.1 12.6  0.1350E+02 -0.7912E+02 -0.3640E+02E
 Epicentro: LOS SANTOS - SANTANDER                                             3
 ACTION:UP  10-09-07 10:58 OP:vdl  STATUS:               ID:20100826095256 L   I
 2010-08-26-0950-01S.COL___121                                                 6
 STAT SP IPHASW D HRMM SECON CODA AMPLIT PERI AZIMU VELO SNR AR TRES W  DIS CAZ7
 BTL  SZ EP        953 15.66                                    -0.110   23 308 
 BRR  HZ EP   1    953 17.68                             150     0.1 7   76 297 
 BRR  HE ES   2    953 34.13                             150     0.1 5   76 297 
 BRR  HZ I         953 36.66         5.9 0.18                            76 297 
 RUS  HE ES   2    953 37.93                             143    -0.2 5  100 179 
 RUS  HZ I         953 39.76         2.7 0.24                           100 179 
 GUE  SZ EP   1    953 21.02                             138     0.1 7  116  10 
 GUE  SZ I         953 21.42         1.4 0.16                           116  10 
 GRA  SZ IP        953 21.62                             136     0.210  125  15 
 GRA  SZ I         953 41.96         3.6 0.49                           125  15 
 OCA  SZ EP   2    953 24.16                             128    -0.6 5  162 352 
 OCA  SZ ES   2    953 46.40                             128    -0.3 5  162 352 
 OCA  SZ I         953 50.07         4.0 0.15                           162 352 
                                                                                
