 2015  426 0942 43.4 L   6.161 -73.725102.7  RSN  6 0.3 1.6LRSN                1
 GAP=189        0.76       3.4     3.2  6.1 -0.3668E+01  0.5072E+01  0.1844E+01E
 Epicentro: LANDAZURI - SANTANDER                                              3
 ACTION:UPD 15-06-03 16:57 OP:cam  STATUS:               ID:20150426094243 L   I
 OLDACT:REG 15-04-26 13:30 OP:ak   STATUS:               ID:20150426093748     3
 2015-04-26-0937-48M.COL___268                                                 6
 STAT SP IPHASW D HRMM SECON CODA AMPLIT PERI AZIMU VELO AIN AR TRES W  DIS CAZ7
 BAR2 EZ IP     C  943  0.92                             140    0.0810 76.7  52 
 BAR2 EZ ES        943 14.30                             140   -0.1510 76.7  52 
 BAR2 EZ I         943 16.02        21.3 0.27            139           76.7  52 
 PTB  HZ EP        943  1.49                             135   -0.2310 91.1 297 
 PTB  HE ES        943 15.71                             135   -0.3010 91.1 297 
 PTB  HZ I         943 19.54         5.5 0.14            132           91.1 297 
 BRR  HZ IP     C  943  2.94                             130    0.0310  105   1 
 BRR  HN ES        943 18.61                             130    0.4810  105   1 
 BRR  HZ I         943 21.09         6.1 0.14            128            105   1 
 ZAR  HZ EP   2    943 12.64                             112    0.42 4  193 320 
 ZAR  HN ES        943 34.93                             112    0.21 9  193 320 
 ZAR  HZ I         943 37.42         3.7 0.15            112            193 320 
 GUY2CHZ EP        943 15.11                             111    0.49 8  209 240 
 GUY2CHN ES        943 38.87                             111   -0.11 8  209 240 
 GUY2CHZ I         943 46.17         2.3 0.30                           209 240 
 SML  HZ EP        943 23.29                             103   -0.71 7  294 353 
 SML  HN ES        943 55.58                             103   -0.10 7  294 353 
 SML  HZ I         944  4.17         3.2 0.10            103            294 353 
                                                                                
