 2016 1226 0201 14.6 L   6.840 -72.953146.8  RSN  6 0.3 1.2LRSN                1
 GAP=258        0.90       4.9     6.5  5.9  0.4664E+01 -0.4328E+00  0.6922E+01E
 Epicentro: CEPITA - SANTANDER                                                 3
 ACTION:UPD 17-01-11 20:19 OP:rebc STATUS:               ID:20161226020114 L   I
 OLDACT:UP  16-12-26 14:54 OP:edw  STATUS:               ID:20161226015748     3
 OLDACT:UP  16-12-26 14:51 OP:edw  STATUS:               ID:20161226015748     3
 OLDACT:REG 16-12-26 12:26 OP:edw  STATUS:               ID:20161226015748     3
 2016-12-26-0158-00M.COL___378                                                 6
 STAT SP IPHASW D HRMM SECON CODA AMPLIT PERI AZIMU VELO AIN AR TRES W  DIS CAZ7
 BAR2 EZ EP        2 1 34.76                             165    0.0210 37.3 223 
 BAR2 EZ ES        2 1 50.77                             165    0.3410 37.3 223 
 BAR2 EZ I         2 1 52.78         6.4 0.52            163           37.3 223 
 BRR  HZ EP     C  2 1 36.88                             147   -0.0910 88.9 289 
 BRR  HE ES        2 1 54.03                             147   -0.3710 88.9 289 
 BRR  HZ I         2 1 54.25         2.9 0.32            146           88.9 289 
 BRR  HZ E         2 1 54.38                                           88.9 289 
 RUS  HZ EP        2 1 38.97                             143    0.1210  106 188 
 RUS  HN ES        2 1 57.49                             143   -0.2610  106 188 
 RUS  HZ I         2 1 59.07         2.8 0.24            142            106 188 
 PTB  HZ EP   9    2 1 41.89                             128   -1.81 0  169 259 
 PTB  HE ES        2 2  3.66                                   -0.91 9  169 259 
 PTB  HZ I         2 2  9.95         1.4 0.13            128            169 259 
 CHI  HZ EP        2 1 53.44                             116   -0.09 8  259 199 
 CHI  HE ES        2 2 23.69                             116   -0.19 8  259 199 
 CHI  HZ I         2 2 26.10         0.9 0.42            116            259 199 
 GUY2CHZ EP        2 2  1.06                             111    0.51 7  321 236 
 GUY2CHE ES        2 2 36.70                             111    0.33 7  321 236 
 GUY2CHZ I         2 2 40.98         0.8 0.40                           321 236 
                                                                                
