 2017  226 0830 29.4 L   7.435 -73.186131.7  RSN  5 0.4 1.1LRSN                1
 GAP=223        0.98       6.5     5.1  7.4 -0.5737E+01  0.6958E+01  0.2404E+01E
 Epicentro: EL PLAYON - SANTANDER                                              3
 ACTION:UPD 17-05-24 15:40 OP:jn   STATUS:               ID:20170226083029 L   I
 OLDACT:REG 17-02-26 12:11 OP:lv   STATUS:               ID:20170226081731     3
 2017-02-26-0828-00M.COL___357                                                 6
 STAT SP IPHASW D HRMM SECON CODA AMPLIT PERI AZIMU VELO AIN AR TRES W  DIS CAZ7
 PAM  EZ EP        830 49.14                             156    0.2810 54.7 101 
 PAM  EN ES        831  4.17                             156    0.1410 54.7 101 
 PAM  EZ I         831  5.63         4.4 0.12            157           54.7 101 
 BRR  HZ EP        830 48.86                             151   -0.0410 68.5 238 
 BRR  HN ES        831  4.22                             151    0.1210 68.5 238 
 BRR  HZ I         831  5.99         2.4 0.15            150           68.5 238 
 BAR2 EZ EP        830 50.72                             143   -0.1810 93.2 180 
 BAR2 EZ ES        831  6.85                             143   -0.8110 93.2 180 
 BAR2 EZ I         831  8.24         4.0 0.11            142           93.2 180 
 RUS  HZ EP        830 58.00                             124   -0.19 9  171 176 
 RUS  HN ES        831 21.33                             124    0.71 9  171 176 
 RUS  HZ I         831 24.72         0.6 0.41            125            171 176 
 PTB  HZ EP        830 57.46                             124   -0.19 9  172 235 
 PTB  HN ES        831 19.94                             124    0.28 9  172 235 
 PTB  HZ I         831 21.86         2.2 0.11            125            172 235 
                                                                                
