 2012  426 0547 49.4 L   7.282 -74.040 77.0  RSN  6 0.3 1.6LRSN                1
 GAP=112        0.69       4.6     2.8  6.8 -0.1549E+01 -0.3942E+00 -0.1057E+02E
 Epicentro: PUERTO WILCHES - SANTANDER                                         3
 ACTION:UPD 12-07-05 11:56 OP:tino STATUS:               ID:20120426054749 L   I
 2012-04-26-0540-00M.COL___186                                                 6
 STAT SP IPHASW D HRMM SECON CODA AMPLIT PERI AZIMU VELO AIN AR TRES W  DIS CAZ7
 BRR  HZ EP   1    548  1.27                             149    -0.1 7   41 118 
 BRR  HN ES        548 10.69                             149     0.010   41 118 
 BRR  HZ I         548 11.76        28.5 0.14                            41 118 
 ZAR  HN ES   1    548 18.96                             125     0.3 7   93 284 
 PTB  HZ EP   1    548  6.20                             124     0.3 7   94 209 
 PTB  HN ES   1    548 18.53                             124    -0.3 7   94 209 
 BAR2 SZ ES   2    548 24.56                             117     0.0 5  122 129 
 BAR2 SZ I         548 27.01        11.5 0.26                           122 129 
 OCA  SZ EP   1    548  9.62                             115    -0.6 7  132  37 
 PAM  SZ EP   1    548 12.70                             112     0.2 7  148  87 
 PAM  SN ES   1    548 30.76                             112     0.3 7  148  87 
 PAM  SZ I         548 32.81         3.2 0.30                           148  87 
                                                                                
