 2017  826 0029 12.4 L   6.828 -73.144150.8  RSN 12 0.5 1.9LRSN                1
 GAP=111        1.19       3.9     4.5  6.2  0.2415E+01  0.4969E+01  0.4642E+01E
 Epicentro: LOS SANTOS - SANTANDER                                             3
 ACTION:UPD 17-09-04 20:24 OP:rebc STATUS:               ID:20170826002912 L   I
 OLDACT:REG 17-08-26 12:25 OP:osc  STATUS:               ID:20170826002740     3
 2017-08-26-0028-00M.COL___408                                                 6
 STAT SP IPHASW D HRMM SECON CODA AMPLIT PERI AZIMU VELO AIN AR TRES W  DIS CAZ7
 BAR2 EZ EP        029 32.63                             170   -0.1210 26.4 189 
 BAR2 EZ ES        029 47.96                             170   -0.6310 26.4 189 
 BAR2 EZ I         029 50.39        17.0 0.40            166           26.4 189 
 BRR  HZ EP        029 34.39                             154    0.3210 69.9 296 
 BRR  HE ES        029 51.50                             154    0.5610 69.9 296 
 PAM  EZ IP     D  029 35.57                             152    0.5110 74.9  41 
 PAM  EE ES        029 52.78                             152    0.0810 74.9  41 
 PAM  EZ I         029 54.76        11.6 0.50            158           74.9  41 
 RUS  HZ EP        029 36.54                             144   -0.3710  104 176 
 RUS  HN ES        029 55.51                             144   -0.4910  104 176 
 RUS  HZ I         029 56.46         7.4 0.36            143            104 176 
 SPBC HZ EP        029 41.80                             130    0.23 9  166 218 
 SPBC HE ES        030  4.03                             130   -0.26 9  166 218 
 SPBC HZ I         030  9.74        11.9 0.27            129            166 218 
 YPLC HZ EP        029 43.05                             127    0.18 9  179 152 
 YPLC HE ES        030  7.23                             127    0.63 9  179 152 
 YPLC HZ I         030  7.93        11.7 0.26            128            179 152 
 ZAR  HZ EP        029 45.36                             123    0.24 9  203 291 
 ZAR  HE ES        030  9.81                             123   -0.80 9  203 291 
 ZAR  HZ I         030 15.57         5.0 0.13            124            203 291 
 NOR  HZ EP        029 49.03                             119    0.35 8  237 234 
 NOR  HE ES        030 17.69                             119    0.75 8  237 234 
 NOR  HZ I         030 24.47         6.1 0.16            119            237 234 
 CHI  HZ EP        029 50.88                             118    0.13 8  252 195 
 CHI  HE ES        030 20.63                             118   -0.00 8  252 195 
 CHI  HZ I         030 30.21         2.6 0.26            118            252 195 
 GUY2CHZ EP   4    029 58.61                             113    2.11 0  303 234 
 GUY2CHE ES   4    030 32.11                             113    1.24 0  303 234 
 GUY2CHZ I         030 37.76         3.8 0.54                           303 234 
 PTGC HZ EP        029 55.79                             112   -1.06 7  312 159 
 PTGC HN ES   4    030 29.25                             112   -2.24 0  312 159 
 SJC  HZ EP        030  6.79                             106   -1.09 6  407 327 
 SJC  HE ES   4    030 48.40                             106   -2.72 0  407 327 
                                                                                
