 2013  726 0012 14.9 L   6.774 -73.106148.0  RSN  7 0.4 1.8LRSN                1
 GAP=194        0.82       5.3     4.9  6.4  0.8173E+01  0.7593E+01  0.9040E+01E
 Epicentro: LOS SANTOS - SANTANDER                                             3
 ACTION:UPD 13-08-12 10:40 OP:ep   STATUS:               ID:20130726001214 L   I
 OLDACT:UP  13-07-26 09:06 OP:cam  STATUS:               ID:20130726000960d    3
 OLDACT:UP  13-07-26 09:06 OP:cam  STATUS:               ID:20130726000960d    3
 OLDACT:DUP 13-07-26 09:02 OP:cam  STATUS:               ID:20130726000960d    3
 OLDACT:UP  13-07-26 09:01 OP:cam  STATUS:               ID:20130726000959     3
 OLDACT:REG 13-07-26 07:59 OP:cam  STATUS:               ID:20130726000959     3
 2013-07-26-0009-59M.COL___266                                                 6
 STAT SP IPHASW D HRMM SECON CODA AMPLIT PERI AZIMU VELO AIN AR TRES W  DIS CAZ7
 BAR2 SZ EP        012 34.81                             171    0.0010 21.8 203 
 BAR2 SZ ES   1    012 50.24                             171   -0.07 7 21.8 203 
 BAR2 SZ I         012 51.15        14.3 0.23            167           21.8 203 
 GIR2 SZ EP        012 34.82                             166   -0.1610 35.0 344 
 GIR2 SZ ES   1    012 50.55                             166   -0.06 7 35.0 344 
 GIR2 SZ I         012 51.09         9.0 0.12            165           35.0 344 
 BRR  HZ EP   1    012 36.83                             151    0.21 7 76.4 299 
 BRR  HN ES        012 53.83                             151    0.2910 76.4 299 
 BRR  HZ I         012 56.52        13.6 0.22            149           76.4 299 
 RUS  HZ EP        012 38.73                             145    0.0310 97.6 178 
 RUS  HN ES   1    012 57.43                             145    0.20 7 97.6 178 
 RUS  HZ I         012 58.70         4.8 0.30            145           97.6 178 
 PTB  HZ EP        012 41.95                             132   -0.48 9  152 260 
 PTB  HN ES   1    013  2.82                             132   -1.05 7  152 260 
 PTB  HZ I         013  7.20         8.6 0.12            130            152 260 
 ZAR  HE ES        013 14.21                             122    0.33 8  209 292 
 ZAR  HZ I         013 18.82         8.4 0.50            122            209 292 
 NOR  HZ EP   1    012 51.36                             119    0.35 6  237 236 
 NOR  HN ES   1    013 19.78                             119    0.64 6  237 236 
 NOR  HZ I         013 23.02         7.1 0.18            119            237 236 
                                                                                
