 2014  626 0158 53.3 L   6.804 -73.168131.8  RSN 20 0.4 2.3LRSN                1
 GAP= 70        0.95       2.2     2.9  4.9 -0.1294E+01  0.5047E+01  0.1410E+01E
 Epicentro: LOS SANTOS - SANTANDER                                             3
 ACTION:UPD 14-07-01 22:56 OP:nd   STATUS:               ID:20140626015853 L   I
 OLDACT:REG 14-06-26 12:08 OP:spq  STATUS:               ID:20140626015816     3
 2014-06-26-0158-16M.COL___256                                                 6
 STAT SP IPHASW D HRMM SECON CODA AMPLIT PERI AZIMU VELO AIN AR TRES W  DIS CAZ7
 BAR2 SZ IP     D  159 11.67                             169    0.3710 23.5 184 
 BAR2 SZ ES   1    159 25.17                             169   -0.14 7 23.5 184 
 BAR2 SZ I         159 29.47        46.6 0.34            167           23.5 184 
 PAM  SZ EP        159 14.54                             148    0.3710 78.6  41 
 PAM  SN ES        159 30.40                             148   -0.0210 78.6  41 
 PAM  SZ I         159 32.32        22.5 0.34            156           78.6  41 
 RUS  HZ EP        159 15.50                             140   -0.3010  101 175 
 RUS  HN ES        159 33.68                             140    0.3710  101 175 
 RUS  HZ I         159 37.72        13.6 0.18            144            101 175 
 PTB  HZ IP     D  159 18.32                             129   -0.67 9  145 258 
 PTB  HN ES        159 38.06                             129   -0.93 9  145 258 
 PTB  HZ I         159 44.29        33.3 0.14            130            145 258 
 TAM  HZ EP        159 19.90                             127   -0.30 9  158 105 
 OCA  HN ES        159 41.85                             126    0.10 9  160 354 
 OCA  HZ I         159 45.14        18.2 0.38            131            160 354 
 SPBC HZ EP     D  159 20.58                             126   -0.11 9  162 218 
 SPBC HZ E      D  159 20.58                                            162 218 
 SPBC HN ES        159 42.57                             126    0.55 9  162 218 
 SPBC HZ I         159 47.11        31.3 0.28            128            162 218 
 ZAR  HZ EP        159 24.43                             119   -0.23 9  202 292 
 ZAR  HN ES        159 49.16                             119    0.08 9  202 292 
 ZAR  HZ I         159 55.86        20.0 0.21            122            202 292 
 NOR  HZ EP     C  159 28.05                             116   -0.06 8  233 234 
 NOR  HN ES        159 55.60                             116    0.37 8  233 234 
 NOR  HZ I         2 0  1.95        25.2 0.34            118            233 234 
 SML  HZ EP     D  159 29.48                             114    0.41 8  242 336 
 SML  HN ES        159 56.80                             114   -0.13 8  242 336 
 SML  HZ I         159 58.76        17.1 0.13            118            242 336 
 CHI  HZ EP   1    159 30.05                             114   -0.23 6  248 195 
 CHI  HN ES        159 59.02                             114   -0.08 8  248 195 
 CHI  HZ I         2 0  4.78        11.8 0.22            117            248 195 
 ROSC BZ EP        159 30.27                             114   -0.37 8  252 210 
 ROSC BE ES        159 58.91                             114   -0.82 8  252 210 
 ROSC BZ I         2 0  9.55        34.3 0.35            117            252 210 
 HEL  HZ EP        159 33.11                             112    0.49 8  270 256 
 HEL  HE ES   1    2 0  3.45                             112    0.19 6  270 256 
 HEL  HZ I         2 0 10.32        13.2 0.34            115            270 256 
 GUY2CHZ EP        159 36.49                             110    0.35 7  299 234 
 GUY2CHN ES        2 0  9.53                             110    0.01 7  299 234 
 GUY2CHZ I         2 0 18.30        20.2 0.48                           299 234 
 PTGC HZ IP   4 D  159 34.72                             109   -2.04 0  310 158 
 RREF HZ EP        159 39.94                             108    1.21 7  320 229 
 RREF HE ES   1    2 0 14.15                             108    0.01 5  320 229 
 RREF HZ I         2 0 22.28        12.6 0.30            111            320 229 
 CBOC HZ EP        159 39.70                             107    0.24 7  331 252 
 CBOC HN ES        2 0 15.47                             107    0.04 7  331 252 
 CBOC HZ I         2 0 30.40         5.0 0.50            110            331 252 
 TOL  SZ EP        159 40.96                             107    0.05 7  342 224 
 TOL  SN ES        2 0 18.32                             107    0.31 7  342 224 
 PRA  HZ EP        159 45.30                             104   -1.02 6  391 209 
 PRA  HN ES        2 0 27.90                             104    0.26 6  391 209 
 PRA  HZ I         2 0 34.20        12.3 0.28            107            391 209 
 ORTC HZ EP        159 46.19                             104   -0.50 6  394 216 
 ORTC HN ES        2 0 28.69                             104    0.39 6  394 216 
 ORTC HZ I         2 0 34.78         8.4 0.34            107            394 216 
 SJC  HZ EP   4    159 46.03                             103   -2.25 0  408 327 
 SJC  HN ES   4    2 0 26.43                             103   -4.69 0  408 327 
 SJC  HZ I         2 0 33.15         2.9 0.50            106            408 327 
                                                                                
