 2016  326 0232 37.9 L   6.797 -73.176146.0  RSN  7 0.3 1.6LRSN                1
 GAP=133        0.69       2.4     3.1  4.9 -0.1554E+01  0.4521E+01 -0.1779E+01E
 Epicentro: LOS SANTOS - SANTANDER                                             3
 ACTION:UPD 16-05-13 21:27 OP:cam  STATUS:               ID:20160326023237 L   I
 OLDACT:REG 16-03-26 12:42 OP:ak   STATUS:               ID:20160326022743     3
 2016-03-26-0227-43M.COL___293                                                 6
 STAT SP IPHASW D HRMM SECON CODA AMPLIT PERI AZIMU VELO AIN AR TRES W  DIS CAZ7
 BAR2 EZ EP   2    232 57.09                             171   -0.42 5 22.7 182 
 BAR2 EZ ES        233 13.08                             171    0.2510 22.7 182 
 BAR2 EZ I         233 13.92         8.6 0.14            171           22.7 182 
 PAM  EZ EP        233  0.06                             150   -0.1910 79.8  41 
 PAM  EE ES        233 17.72                             150    0.0110 79.8  41 
 PAM  EZ I         233 19.48         6.2 0.54            153           79.8  41 
 RUS  HZ EP        233  1.48                             144   -0.1510  101 174 
 RUS  HE ES        233 20.16                             144   -0.0110  101 174 
 RUS  HZ I         233 21.24         4.8 0.32            146            101 174 
 PTB  HZ EP        233  4.10                             133   -0.45 9  144 259 
 PTB  HN ES        233 24.98                             133   -0.39 9  144 259 
 PTB  HZ I         233 27.73         2.9 0.12            133            144 259 
 OCA  HZ EP        233  6.53                             130    0.34 9  160 354 
 OCA  HN ES        233 28.13                             130   -0.15 9  160 354 
 OCA  HZ I         233 30.95         7.3 0.16            131            160 354 
 SPBC HZ EP        233  6.54                             130    0.38 9  161 218 
 SPBC HN ES        233 28.39                             130    0.16 9  161 218 
 SPBC HZ I         233 34.17         6.3 0.06            131            161 218 
 ZAR  HZ EP   2    233 10.53                             123    0.51 4  201 293 
 ZAR  HN ES        233 35.41                             123    0.31 9  201 293 
 ZAR  HZ I         233 41.09         3.1 0.17            123            201 293 
                                                                                
