 2016 1026 0924 37.9 L   6.807 -73.193131.7  RSN  4 0.3 0.8LRSN                1
 GAP=130        0.79       4.1     3.8  7.1 -0.1696E+01  0.2381E+01  0.5029E+01E
 Epicentro: ZAPATOCA - SANTANDER                                               3
 ACTION:UPD 16-11-09 19:23 OP:rebc STATUS:               ID:20161026092437 L   I
 OLDACT:REG 16-10-26 14:20 OP:cog  STATUS:               ID:20161026091748     3
 2016-10-26-0918-00M.COL___322                                                 6
 STAT SP IPHASW D HRMM SECON CODA AMPLIT PERI AZIMU VELO AIN AR TRES W  DIS CAZ7
 BRR  HZ EP        924 57.35                             152    0.0610 66.3 300 
 BRR  HN ES        925 11.86                             152   -0.5310 66.3 300 
 PAM  EZ EP        924 58.68                             147   -0.1810 80.2  43 
 PAM  EN ES        925 15.59                             147    0.4010 80.2  43 
 PAM  EZ I         925 17.43         1.2 0.40            134           80.2  43 
 RUS  HZ EP        925  0.24                             140   -0.1910  102 173 
 RUS  HE ES        925 17.99                             140    0.0110  102 173 
 RUS  HZ I         925 19.83         0.9 0.26            127            102 173 
 PTB  HZ EP        925  3.40                             130    0.07 9  143 258 
 PTB  HZ I         925 22.71         0.9 0.48            115            143 258 
 PTB  HN ES        925 23.54                             130    0.41 9  143 258 
                                                                                
