 2014 1126 0312 36.6 L   6.782 -73.148143.1  RSN  8 0.2 1.8LRSN                1
 GAP=137        0.56       2.0     2.6  4.5 -0.4145E+00  0.3565E+01  0.3866E+00E
 Epicentro: LOS SANTOS - SANTANDER                                             3
 ACTION:UPD 14-12-19 15:47 OP:nd   STATUS:               ID:20141126031236 L   I
 OLDACT:UP  14-11-26 17:04 OP:mh   STATUS:               ID:20141126030744d    3
 OLDACT:DUP 14-11-26 17:04 OP:mh   STATUS:               ID:20141126030744d    3
 2014-11-26-0307-43M.COL___303                                                 6
 STAT SP IPHASW D HRMM SECON CODA AMPLIT PERI AZIMU VELO AIN AR TRES W  DIS CAZ7
 BAR2 SZ EP        312 55.83                             171   -0.0610 21.3 190 
 BAR2 SZ I         313 12.99        18.0 0.05            169           21.3 190 
 BRR  HZ EP        312 57.85                             152    0.3310 71.9 300 
 BRR  HN ES   1    313 14.25                             152    0.42 7 71.9 300 
 PAM  SZ EP        312 58.82                             150    0.1610 79.1  39 
 PAM  SN ES        313 15.92                             150    0.0710 79.1  39 
 RUS  HZ EP        312 59.83                             144   -0.1410 98.6 176 
 RUS  HN ES        313 18.04                             144   -0.1510 98.6 176 
 PTB  HZ EP        313  3.23                             131   -0.08 9  147 260 
 PTB  HN ES   1    313 23.79                             131   -0.34 7  147 260 
 PTB  HZ I         313 31.44         6.5 0.14            131            147 260 
 SPBC HZ EP        313  4.87                             129    0.12 9  161 219 
 SPBC HN ES        313 26.75                             129    0.05 9  161 219 
 SPBC HZ I         313 31.05         8.0 0.22            128            161 219 
 OCA  HN ES        313 26.51                             129   -0.46 9  162 353 
 ZAR  HZ EP        313  8.99                             122    0.05 9  205 293 
 ZAR  HN ES        313 34.17                             122    0.02 9  205 293 
 ZAR  HZ I         313 40.82         6.8 0.26            122            205 293 
 SJC  HZ EP   4    313 35.30                             105    3.03 0  411 327 
 SJC  HN ES   4    314 13.19                             105   -2.49 0  411 327 
                                                                                
