 2011  726 0244 34.8 L   6.785 -73.098149.9  RSN  7 0.3 1.6LRSN                1
 GAP=164        0.67       4.4     6.2  5.6 -0.3385E+01  0.6150E+01  0.5872E+01E
 Epicentro: LOS SANTOS - SANTANDER                                             3
 ACTION:UPD 12-07-25 14:03 OP:epov STATUS:               ID:20110726024434 L   I
 2011-07-26-0240-00M.COL___139                                                 6
 STAT SP IPHASW D HRMM SECON CODA AMPLIT PERI AZIMU VELO AIN AR TRES W  DIS CAZ7
 BAR2 SZ EP   1    244 54.81                             171   -0.12 7 23.3 204 
 BAR2 SZ ES   1    245 10.20                             171   -0.42 7 23.3 204 
 BAR2 SZ I         245 11.54        12.1 0.27                          23.3 204 
 BTL  SZ EP   1    244 55.07                             170    0.13 7 23.8 308 
 BTL  SZ ES   1    245 10.23                             170   -0.42 7 23.8 308 
 GIR2 SZ EP   1    244 54.90                             166   -0.14 7 34.1 342 
 GIR2 SZ ES   1    245 11.05                             166    0.22 7 34.1 342 
 BRR  HZ EP   1    244 56.72                             151    0.02 7 76.6 298 
 BRR  HZ I         244 56.90        16.3 0.16                          76.6 298 
 BRR  HN ES   1    245 14.45                             151    0.66 7 76.6 298 
 RUS  HZ EP   1    244 59.21                             145    0.38 7 98.7 179 
 RUS  HN ES   1    245 17.80                             145    0.23 7 98.7 179 
 RUS  HZ I         245 18.23         2.4 0.49                          98.7 179 
 GRA  SZ ES   2    245 19.96                             138   -0.45 5  126  15 
 GRA  SZ I         245 21.07         3.0 0.30                           126  15 
 NOR  SZ EP   1    245 11.05                             119   -0.08 6  238 236 
 NOR  SN ES   1    245 39.01                             119   -0.46 6  238 236 
                                                                                
