 2012  926 0734 30.6 L   6.806 -73.138148.1  RSN 10 0.4 1.9LRSN                1
 GAP=137        0.83       4.0     4.2  6.1 -0.7966E+00  0.3366E+01  0.9201E+01E
 Epicentro: LOS SANTOS - SANTANDER                                             3
 ACTION:UPD 12-10-22 14:20 OP:ep   STATUS:               ID:20120926073430 L   I
 2012-09-26-0730-00M.COL___217                                                 6
 STAT SP IPHASW D HRMM SECON CODA AMPLIT PERI AZIMU VELO AIN AR TRES W  DIS CAZ7
 BAR2 SZ EP        734 50.44                             170   -0.1410 24.2 192 
 BAR2 SZ ES   1    735  6.44                             170    0.32 7 24.2 192 
 BAR2 SZ I         735  8.20        35.2 0.24                          24.2 192 
 GIR2 SZ EP   1    734 50.43                             168   -0.15 7 30.7 348 
 GIR2 SZ ES   1    735  6.26                             168    0.12 7 30.7 348 
 BRR  HZ EP        734 52.18                             153    0.1110 71.6 298 
 BRR  HN ES   1    735  9.40                             153    0.61 7 71.6 298 
 BRR  HZ I         735 12.90        12.3 0.09                          71.6 298 
 PAM  SZ EP        734 53.32                             152    0.2710 76.3  39 
 PAM  SN ES   1    735 10.18                             152   -0.34 7 76.3  39 
 RUS  HZ EP        734 54.61                             144   -0.0710  101 177 
 RUS  HN ES   1    735 13.15                             144   -0.27 7  101 177 
 RUS  HZ I         735 14.27        11.3 0.38                           101 177 
 PTB  HN ES   1    735 18.43                             132   -0.72 7  149 259 
 ZAR  HE ES   1    735 27.86                             123   -0.91 6  205 292 
 CHI  HZ EP        735  8.67                             117    0.10 8  250 195 
 CHI  HN ES   1    735 37.93                             117   -0.23 6  250 195 
 CHI  HN I         735 47.31         3.6 0.14                           250 195 
 CHI  HZ I         735 48.05         3.2 0.33                           250 195 
 HEL  HN ES   1    735 43.70                             115    1.06 6  273 256 
 HEL  HZ I         735 50.57         4.1 0.40                           273 256 
 PRA  HZ EP   1    735 24.20                             107   -0.17 4  393 210 
 PRA  HN ES   1    736  6.81                             107    0.53 4  393 210 
                                                                                
