 2016 1226 0451 35.4 L   6.802 -73.145142.8  RSN 24 0.5 2.5LRSN                1
 GAP= 71        1.09       3.2     3.0  4.8  0.6887E+00  0.5749E+01  0.3022E+01E
 Epicentro: LOS SANTOS - SANTANDER                                             3
 ACTION:UPD 17-01-11 20:19 OP:rebc STATUS:               ID:20161226045135 L   I
 OLDACT:UP  16-12-26 16:51 OP:edw  STATUS:               ID:20161226044748     3
 OLDACT:REG 16-12-26 12:44 OP:edw  STATUS:               ID:20161226044748     3
 2016-12-26-0448-00M.COL___369                                                 6
 STAT SP IPHASW D HRMM SECON CODA AMPLIT PERI AZIMU VELO AIN AR TRES W  DIS CAZ7
 BAR2 EZ IP     C  451 54.51                             170   -0.1510 23.5 190 
 BAR2 EZ ES        452  9.25                             170   -0.4410 23.5 190 
 BAR2 EZ I         452 10.28       150.5 0.18            167           23.5 190 
 BRR  HZ IP     C  451 56.41                             152    0.2010 71.1 298 
 BRR  HN ES        452 13.06                             152    0.6110 71.1 298 
 BRR  HZ I         452 13.69        67.6 0.14            151           71.1 298 
 PAM  EZ IP     D  451 57.43                             150    0.1610 77.2  40 
 PAM  EN ES        452 14.30                             150   -0.0410 77.2  40 
 PAM  EZ I         452 17.04        63.9 0.48            155           77.2  40 
 RUS  HZ IP     C  451 58.43                             143   -0.4310  101 176 
 RUS  HN ES        452 17.01                             143   -0.1510  101 176 
 RUS  HZ I         452 18.59        96.7 0.40            142            101 176 
 PTB  HZ EP   9 C  452  1.03                             131   -1.09 0  148 259 
 PTB  HN ES        452 21.86                             131   -0.02 9  148 259 
 PTB  HZ I         452 25.32        51.0 0.14            130            148 259 
 TAM  HZ IP     D  452  2.92                             130    0.09 9  155 105 
 TAM  HN ES        452 24.38                             130    0.15 9  155 105 
 TAM  HZ I         452 25.90        11.9 0.30            132            155 105 
 ZAR  HZ EP        452  7.71                             122    0.08 9  204 292 
 ZAR  HN ES        452 33.47                             122    0.68 9  204 292 
 ZAR  HZ I         452 38.33        41.7 0.36            122            204 292 
 CHI  HZ EP        452 12.76                             116   -0.18 8  249 195 
 CHI  HN ES        452 41.71                             116   -0.52 8  249 195 
 CHI  HZ I         452 45.31        12.2 0.54            116            249 195 
 ROSC BZ EP     C  452 14.29                             116    0.93 8  253 211 
 ROSC BN ES   4    452 45.78                             116    2.79 0  253 211 
 ROSC BZ I         452 51.51        27.9 0.40            116            253 211 
 URE  HZ EP        452 15.52                             113   -0.79 7  284 292 
 URE  HN ES   4    452 45.95                             113   -2.27 0  284 292 
 URE  HZ I         452 50.43        31.7 0.12            114            284 292 
 GUY2CHZ EP        452 19.42                             112    0.55 7  301 235 
 GUY2CHN ES        452 52.54                             112   -0.25 7  301 235 
 GUY2CHZ I         452 59.73        16.7 0.28                           301 235 
 VIL  EZ EP   4    452 17.62                             111   -1.07 0  304 192 
 VIL  EN ES        452 52.04                             111   -0.43 7  304 192 
 VIL  EZ I         452 58.29        19.8 0.44            112            304 192 
 PTGC HZ EP   4    452 17.85                             111   -1.28 0  309 159 
 PTGC HN ES   4    452 50.52                             111   -2.72 0  309 159 
 PTGC HZ I         452 53.43        11.9 0.48            112            309 159 
 LL6C HZ EP   4    452  0.45                             110   -20.5 0  325 358 
 ELA  HZ EP   4    452 23.88                             110    1.75 0  329 229 
 ELA  HN ES   4    453  1.77                             110    3.18 0  329 229 
 ELA  HZ I         453 11.20         8.4 0.58            110            329 229 
 CBOC HZ EP        452 22.75                             109    0.56 7  334 252 
 CBOC HE ES        452 58.56                             109   -0.13 7  334 252 
 CBOC HZ I         453  2.39         6.8 0.21            110            334 252 
 DBB  EZ EP        452 23.08                             109    0.34 7  340 274 
 DBB  EN ES        452 58.63                             109   -1.05 7  340 274 
 DBB  EZ I         453  1.84        10.9 0.44            109            340 274 
 ANIL HZ EP        452 25.61                             108    0.51 6  358 224 
 ANIL HE ES        453  4.95                             108    1.08 6  358 224 
 ANIL HZ I         453 11.68        27.4 0.36            108            358 224 
 ORTC HZ EP        452 29.53                             106    0.30 6  396 216 
 ORTC HN ES   4    453 12.84                             106    1.62 0  396 216 
 ORTC HZ I         453 16.62         6.2 0.25            106            396 216 
 APAC HZ EP        452 29.92                             106    0.45 6  398 288 
 APAC HN ES        453 11.04                             106   -0.62 6  398 288 
 APAC HZ I         453 14.12         7.8 0.30            106            398 288 
 PAL  HZ EP        452 30.70                             105    0.24 6  406 239 
 PAL  HN ES        453 12.94                             105   -0.48 6  406 239 
 PAL  HZ I         453 19.32         7.9 0.30            106            406 239 
 SJC  HZ EP        452 29.58                             105   -1.25 6  409 327 
 SJC  HN ES   4    453 10.25                             105   -3.83 0  409 327 
 SJC  HZ I         453 15.39         3.8 0.46            106            409 327 
 CRJC HZ EP   9    452 35.20                             103   -2.58 0  467   4 
 CRJC HN ES        453 22.15                                   -1.72 5  467   4 
 CRJC HZ I         453 24.28         8.7 0.64            104            467   4 
 YOT  HZ EP        452 37.53                             103   -0.84 5  472 229 
 YOT  HN ES   4    453 28.92                             103    1.43 0  472 229 
 MACC HZ EP   4    452 41.70                             101   -2.35 0  521 189 
 MACC HE ES   4    453 34.04                             101   -3.56 0  521 189 
 GARC HZ EP        452 49.90                             100   -0.70 3  573 207 
 GARC HN ES   4    453 46.45                             100   -2.81 0  573 207 
 GARC HZ I         453 51.41         4.2 0.30            100            573 207 
                                                                                
