 2012 1026 0201 39.6 L   6.317 -73.598112.1  RSN  7 0.2 1.8LRSN                1
 GAP= 82        0.34       2.1     2.7  5.0  0.1199E+01  0.8131E+01  0.1492E+01E
 Epicentro: SANTA HELENA DEL OPON - SANTANDER                                  3
 ACTION:UPD 12-11-22 17:05 OP:ep   STATUS:               ID:20121026020139 L   I
 2012-10-26-0200-00M.COL___228                                                 6
 STAT SP IPHASW D HRMM SECON CODA AMPLIT PERI AZIMU VELO AIN AR TRES W  DIS CAZ7
 BAR2 SZ EP   1    2 1 56.65                             152    0.13 7 55.2  56 
 BAR2 SZ ES   1    2 2  9.63                             152   -0.11 7 55.2  56 
 BAR2 SZ I         2 2 10.95        25.8 0.48                          55.2  56 
 RUS  HZ EP   1    2 1 57.93                             145   -0.15 7 73.8 129 
 RUS  HN ES   2    2 2 12.77                             145    0.25 5 73.8 129 
 BRR  HZ EP   1    2 1 58.30                             139   -0.18 7 88.3 352 
 BRR  HN ES   2    2 2 13.14                             139   -0.10 5 88.3 352 
 BRR  HN I         2 2 19.81        15.8 0.16                          88.3 352 
 PAM  SN ES   2    2 2 25.04                             123    0.33 5  151  41 
 CHI  HN ES   2    2 2 31.46                             116    0.00 4  187 185 
 CHI  HN I         2 2 37.93         5.7 0.26                           187 185 
 ZAR  HZ EP   1    2 2  8.57                             116    0.01 7  190 313 
 ZAR  HE ES   2    2 2 31.36                             116    0.18 4  190 313 
 ZAR  HN I         2 2 32.45         8.6 0.30                           190 313 
 HEL  HN ES   2    2 2 36.82                             113    0.14 4  214 266 
                                                                                
