 2012  726 0802 43.1 L   6.783 -73.129152.1  RSN 10 0.4 1.9LRSN                1
 GAP=139        0.84       4.1     4.7  7.3  0.8266E+00  0.1282E+02  0.6543E+01E
 Epicentro: LOS SANTOS - SANTANDER                                             3
 ACTION:UPD 12-08-14 11:45 OP:ep   STATUS:               ID:20120726080243 L   I
 2012-07-26-0800-00M.COL___215                                                 6
 STAT SP IPHASW D HRMM SECON CODA AMPLIT PERI AZIMU VELO AIN AR TRES W  DIS CAZ7
 BAR2 SZ EP        8 3  3.51                             171     0.010   22 196 
 BAR2 SZ ES   2    8 3 19.80                             171     0.4 5   22 196 
 BRR  HZ EP        8 3  5.40                             153     0.310   74 299 
 BRR  HE ES   1    8 3 22.83                             153     0.6 7   74 299 
 BRR  HZ I         8 3 26.29        21.4 0.17            150             74 299 
 PAM  SN ES   1    8 3 23.50                             152    -0.4 7   78  38 
 RUS  HZ EP   1    8 3  7.37                             146     0.0 7   99 177 
 RUS  HZ I         8 3  8.21         5.1 0.27            145             99 177 
 RUS  HN ES   1    8 3 26.32                             146     0.0 7   99 177 
 PTB  HZ EP   1    8 3 10.16                             133    -0.6 7  149 260 
 PTB  HN ES   1    8 3 31.87                             133    -0.4 7  149 260 
 PTB  HZ I         8 3 37.39         8.5 0.23            132            149 260 
 OCA  HE ES   2    8 3 34.47                             131    -0.3 5  162 353 
 ZAR  HZ EP   1    8 3 16.22                             123     0.0 6  207 292 
 ZAR  HE ES   1    8 3 41.64                             123    -0.4 6  207 292 
 ZAR  HZ I         8 3 48.40        14.5 0.60            124            207 292 
 NOR  SZ EP   1    8 3 19.88                             120     0.6 6  235 235 
 NOR  SN ES   1    8 3 47.51                             120     0.0 6  235 235 
 CHI  HZ EP   2    8 3 20.40                             118    -0.6 4  247 196 
 CHI  HN ES   1    8 3 50.28                             118    -0.3 6  247 196 
 CHI  HZ I         8 3 58.74         2.8 0.44            120            247 196 
 HEL  HZ EP   1    8 3 24.68                             116     0.9 6  273 256 
 HEL  HN ES   1    8 3 55.39                             116    -0.2 6  273 256 
 HEL  HZ I         8 4  2.81         4.1 0.16            116            273 256 
