 2011  926 0131  6.5 L   6.763 -73.017150.1  RSN  5 0.4 2.0LRSN                1
 GAP=196        0.77       5.2    11.6  7.6  0.2609E+02 -0.1003E+02 -0.1241E+02E
 Epicentro: CEPITA - SANTANDER                                                 3
 ACTION:UPD 12-07-13 15:59 OP:ep   STATUS:               ID:20110926013106 L   I
 2011-09-26-0127-29S.COL___165                                                 6
 STAT SP IPHASW D HRMM SECON CODA AMPLIT PERI AZIMU VELO AIN AR TRES W  DIS CAZ7
 BAR2 SZ EP   1    131 27.32                             169    0.58 7 26.2 224 
 BAR2 SZ ES   1    131 42.67                             169    0.16 7 26.2 224 
 BAR2 SZ I         131 44.28        26.9 0.25                          26.2 224 
 BRR  HZ EP        131 29.40                             148    0.3910 85.7 296 
 BRR  HZ I         131 29.64        33.1 0.11                          85.7 296 
 BRR  HN ES   1    131 46.51                             148   -0.03 7 85.7 296 
 RUS  HZ EP   1    131 30.41                             146   -0.02 7 96.5 184 
 RUS  HN ES   1    131 48.49                             146   -0.58 7 96.5 184 
 RUS  HZ I         131 51.38         7.6 0.38                          96.5 184 
 OCA  SZ EP   1    131 35.36                             129   -0.41 7  167 348 
 OCA  SZ ES   1    131 58.35                             129   -0.23 7  167 348 
 OCA  SZ I         132  4.45         6.7 0.28                           167 348 
 ZAR  HZ EP   1    131 40.38                             121   -0.40 6  219 292 
                                                                                
