 2016 1226 0536  4.1 L   6.720 -73.201148.8  RSN  4 0.3 1.1LRSN                1
 GAP=225        0.86       6.8     6.4  6.9  0.2093E+02  0.4968E+01  0.1737E+01E
 Epicentro: VILLANUEVA - SANTANDER                                             3
 ACTION:UPD 17-01-11 20:19 OP:rebc STATUS:               ID:20161226053604 L   I
 OLDACT:UP  16-12-26 17:15 OP:edw  STATUS:               ID:20161226052741d    3
 OLDACT:DUP 16-12-26 17:13 OP:edw  STATUS:               ID:20161226052741d    3
 OLDACT:UP  16-12-26 17:12 OP:edw  STATUS:               ID:20161226052740     3
 OLDACT:UP  16-12-26 17:11 OP:edw  STATUS:               ID:20161226052740     3
 OLDACT:REG 16-12-26 12:47 OP:edw  STATUS:               ID:20161226052740     3
 2016-12-26-0528-00M.COL___366                                                 6
 STAT SP IPHASW D HRMM SECON CODA AMPLIT PERI AZIMU VELO AIN AR TRES W  DIS CAZ7
 BAR2 EZ EP        536 23.63                             174   -0.3310 14.3 172 
 BAR2 EZ ES        536 39.01                             174   -0.4410 14.3 172 
 BAR2 EZ I         536 39.36         2.9 0.28            170           14.3 172 
 BRR  HZ IP     C  536 25.54                             153   -0.0310 70.9 307 
 BRR  HN ES        536 42.82                             153    0.5110 70.9 307 
 BRR  HZ I         536 43.57         2.1 0.14            151           70.9 307 
 RUS  HZ EP        536 28.01                             147    0.4110 92.4 172 
 RUS  HN ES        536 46.09                             147    0.1710 92.4 172 
 RUS  HZ I         536 46.75         2.2 0.38            145           92.4 172 
 PTB  HZ EP        536 30.49                             134   -0.17 9  140 262 
 PTB  HN ES        536 51.23                             134   -0.15 9  140 262 
 PTB  HZ I         536 56.23         1.3 0.10            131            140 262 
 ZAR  HN ES   4    536 57.49                             123   -4.36 0  202 295 
                                                                                
