 2010  626 0039 30.4 L   6.798 -73.050138.0  RSN  4 0.3 1.4LRSN                1
 GAP=169        0.68       4.4     9.0  9.2 -0.1070E+02 -0.2004E+02  0.6387E+01E
 Epicentro: LOS SANTOS - SANTANDER                                             3
 ACTION:UP  10-08-24 10:13 OP:vdl  STATUS:               ID:20100626003930 L   I
 2010-06-26-0036-06S.COL___118                                                 6
 STAT SP IPHASW D HRMM SECON CODA AMPLIT PERI AZIMU VELO SNR AR TRES W  DIS CAZ7
 BAR2 SZ EP        039 49.30                             168     0.110   27 213 
 BAR2 SZ ES   2    040  4.26                             168     0.4 5   27 213 
 BRR  HZ EP        039 51.19                             148    -0.210   81 295 
 BRR  HN ES   2    040  7.80                             148     0.1 5   81 295 
 BRR  HZ I         040 10.81         6.6 0.37                            81 295 
 RUS  HZ EP        039 53.24                             142    -0.210  100 182 
 RUS  HN ES   3    040 11.39                             142     0.1 2  100 182 
 RUS  HZ I         040 13.42         2.7 0.29                           100 182 
 GRA  SZ EP        039 55.20                             136     0.410  123  13 
 GRA  SZ ES   1    040 13.30                             136    -0.5 7  123  13 
                                                                                
