 2010  526 0720 22.9 L   6.967 -73.126130.1  RSN  5 0.6 1.7LRSN                1
 GAP=169        0.98      11.9    14.8 15.2 -0.1475E+03  0.9761E+02 -0.3119E+02E
 Epicentro: FLORIDABLANCA - SANTANDER                                          3
 ACTION:UP  10-08-24 10:06 OP:vdl  STATUS:               ID:20100526072022 L   I
 2010-05-26-0716-15S.COL___108                                                 6
 STAT SP IPHASW D HRMM SECON CODA AMPLIT PERI AZIMU VELO SNR AR TRES W  DIS CAZ7
 BAR2 SZ ES   2    720 55.02                             160    -0.5 8   42 189 
 GUE  SZ EP   1    720 44.24                             141    -0.511   98  13 
 GUE  SZ ES   2    721  2.53                             141     0.8 8   98  13 
 GRA  SZ EP   1    720 45.55                             138     0.311  108  19 
 GRA  SZ ES   2    721  2.61                             138    -0.1 7  108  19 
 HEL  HN ES   1    721 34.05                             111    -0.6 8  279 252 
 HEL  HZ I         721 39.00         2.5 0.12                           279 252 
 RREF BZ EP   2    721  9.25                             107    -0.8 5  336 227 
 RREF BN ES        721 47.62                             107     0.810  336 227 
 RREF BZ I         721 51.02         2.4 0.48                           336 227 
                                                                                
