 2012  726 0313 24.7 L   6.805 -73.123149.9  RSN  6 0.5 1.5LRSN                1
 GAP=185        1.18       7.3     9.2 11.3  0.2137E+02  0.1611E+02 -0.8034E+01E
 Epicentro: LOS SANTOS - SANTANDER                                             3
 ACTION:UPD 12-08-14 11:45 OP:ep   STATUS:               ID:20120726031324 L   I
 2012-07-26-0310-00M.COL___215                                                 6
 STAT SP IPHASW D HRMM SECON CODA AMPLIT PERI AZIMU VELO AIN AR TRES W  DIS CAZ7
 BAR2 SZ EP   1    313 44.92                             170     0.1 7   24 195 
 BAR2 SZ ES   1    314  0.35                             170    -0.2 7   24 195 
 BAR2 SZ I         314  1.15         5.5 0.37            166             24 195 
 BRR  HZ EP        313 46.89                             153     0.510   73 297 
 BRR  HZ I         313 48.78        12.5 0.13            148             73 297 
 BRR  HN ES   1    314  4.23                             153     0.9 7   73 297 
 RUS  HZ EP   1    313 48.66                             145    -0.2 7  101 177 
 RUS  HN ES   1    314  7.65                             145    -0.1 7  101 177 
 RUS  HZ I         314  8.58         2.1 0.29            144            101 177 
 PTB  HZ EP   1    313 51.96                             132    -0.3 7  150 259 
 PTB  HN ES   1    314 12.90                             132    -0.8 7  150 259 
 PTB  HZ I         314 18.90         3.8 0.20            129            150 259 
 OCA  HN ES   1    314 14.80                             131    -0.8 7  160 352 
 ZAR  HZ EP   1    313 57.89                             123     0.3 6  206 292 
 ZAR  HN ES   1    314 23.22                             123    -0.1 6  206 292 
 ZAR  HZ I         314 28.84         5.1 0.45            121            206 292 
