 2014  626 0557 11.5 L   6.827 -73.183135.1  RSN  7 0.3 1.7LRSN                1
 GAP=179        0.69       2.1     4.3  4.8 -0.8082E+00  0.5418E+01 -0.9225E+00E
 Epicentro: ZAPATOCA - SANTANDER                                               3
 ACTION:UPD 14-07-01 22:56 OP:nd   STATUS:               ID:20140626055711 L   I
 OLDACT:REG 14-06-26 12:42 OP:spq  STATUS:               ID:20140626054805     3
 2014-06-26-0548-05M.COL___256                                                 6
 STAT SP IPHASW D HRMM SECON CODA AMPLIT PERI AZIMU VELO AIN AR TRES W  DIS CAZ7
 BAR2 SZ EP        557 30.36                             168    0.4510 26.0 180 
 BAR2 SZ ES        557 43.72                             168   -0.5510 26.0 180 
 BAR2 SZ I         557 46.76        16.4 0.16            168           26.0 180 
 RUS  HZ EP        557 34.59                             140    0.1210  104 174 
 RUS  HN ES   1    557 52.55                             140    0.16 7  104 174 
 RUS  HZ I         557 53.90         4.8 0.22            143            104 174 
 PTB  HZ EP        557 37.02                             130   -0.27 9  144 257 
 PTB  HN ES        557 57.74                             130    0.33 9  144 257 
 PTB  HZ I         558  3.58         4.5 0.28            129            144 257 
 OCA  HN ES        558  0.05                             128    0.18 9  157 355 
 OCA  HZ I         558  3.40         7.0 0.24            129            157 355 
 SPBC HZ EP        557 39.08                             126   -0.10 9  163 217 
 SPBC HN ES        558  0.86                             126    0.09 9  163 217 
 SPBC HZ I         558  5.15         4.7 0.31            127            163 217 
 SML  HZ EP        557 46.96                             115   -0.10 8  239 336 
 SML  HN ES        558 14.61                             115   -0.19 8  239 336 
 SML  HZ I         558 21.07         7.0 0.14            117            239 336 
 PRA  HZ EP        558  4.49                             105   -0.25 6  393 209 
 PRA  HN ES        558 46.17                             105   -0.09 6  393 209 
 PRA  HZ I         558 53.21         2.0 0.38            106            393 209 
                                                                                
