 2017  926 0115 17.7 L   6.788 -73.109138.8  RSN 12 0.5 1.8LRSN                1
 GAP=116        0.91       2.9     3.4  5.3  0.1124E+01  0.6190E+01  0.5274E+01E
 Epicentro: LOS SANTOS - SANTANDER                                             3
 ACTION:UPD 17-10-05 19:16 OP:rebc STATUS:               ID:20170926011517 L   I
 OLDACT:UP  17-09-26 15:04 OP:osc  STATUS:               ID:20170926010735     3
 OLDACT:REG 17-09-26 12:36 OP:osc  STATUS:               ID:20170926010735     3
 2017-09-26-0108-00M.COL___438                                                 6
 STAT SP IPHASW D HRMM SECON CODA AMPLIT PERI AZIMU VELO AIN AR TRES W  DIS CAZ7
 BAR2 EZ EP        115 36.19                             170   -0.2610 23.1 200 
 BAR2 EZ ES        115 50.77                             170   -0.3410 23.1 200 
 BAR2 EZ I         115 53.19        20.1 0.18            168           23.1 200 
 BRR  HZ EP        115 38.02                             150   -0.2910 75.4 298 
 BRR  HE ES        115 54.78                             150    0.3610 75.4 298 
 BRR  HZ I         115 55.22        10.3 0.11            151           75.4 298 
 PAM  EZ EP        115 39.08                             150    0.0210 75.9  37 
 PAM  EN ES        115 55.81                             150    0.0710 75.9  37 
 PAM  EZ I         115 58.20        11.3 0.46            153           75.9  37 
 RUS  HZ EP        115 40.23                             143   -0.3910 99.1 178 
 RUS  HE ES        115 58.66                             143    0.1310 99.1 178 
 RUS  HZ I         116  0.42         6.6 0.44            142           99.1 178 
 YPLC HZ EP        115 46.73                             125    0.07 9  174 152 
 YPLC HN ES        116  9.85                             125    0.58 9  174 152 
 YPLC HZ I         116 13.25        10.0 0.26            126            174 152 
 ZAR  HZ EP        115 50.58                             120    0.47 8  208 292 
 ZAR  HE ES        116 15.34                             120   -0.07 8  208 292 
 ZAR  HZ I         116 20.25         8.8 0.38            121            208 292 
 NOR  HZ EP   3    115 51.93                             117   -1.34 2  237 235 
 NOR  HE ES        116 20.57                             117   -0.48 8  237 235 
 NOR  HZ I         116 23.35         4.5 0.28            117            237 235 
 CHI  HZ EP   2    115 53.60                             116   -1.37 4  248 196 
 CHI  HE ES        116 23.79                             116   -0.27 8  248 196 
 CHI  HZ I         116 29.79         2.4 0.26            116            248 196 
 URE  HZ EP   4    116  0.63                             112    1.75 0  288 292 
 URE  HE ES   4    116 27.53                             112   -3.50 0  288 292 
 URE  HZ I         116 30.01         5.1 0.18            113            288 292 
 GUY2CHZ EP        116  2.19                             111    0.94 7  304 235 
 GUY2CHE ES        116 35.56                             111    0.32 7  304 235 
 GUY2CHZ I         116 41.65         2.9 0.30                           304 235 
 PRA  HZ EP   3    116 10.01                             105   -1.04 1  393 210 
 PRA  HE ES        116 53.47                             105    0.78 6  393 210 
 PRA  HZ I         116 58.46         2.0 0.20            106            393 210 
 ORTC HZ EP        116 11.28                             105   -0.23 6  397 217 
 ORTC HE ES        116 53.03                             105   -0.48 6  397 217 
 ORTC HZ I         117  0.94         1.7 0.60            106            397 217 
                                                                                
