 2014 1026 0321 40.6 L   6.760 -73.105150.0  RSN  6 0.2 1.6LRSN                1
 GAP=144        0.51       2.7     3.7  3.7 -0.4232E+00  0.8298E+00 -0.4613E+00E
 Epicentro: LOS SANTOS - SANTANDER                                             3
 ACTION:UPD 14-11-29 23:57 OP:nd   STATUS:               ID:20141026032140 L   I
 OLDACT:UP  14-10-29 15:37 OP:cam  STATUS:               ID:20141026031813     3
 OLDACT:UP  14-10-29 15:36 OP:cam  STATUS:               ID:20141026031813     3
 OLDACT:UP  14-10-29 15:36 OP:cam  STATUS:               ID:20141026031813     3
 OLDACT:UP  14-10-29 15:36 OP:cam  STATUS:               ID:20141026031813     3
 OLDACT:UP  14-10-29 15:36 OP:cam  STATUS:               ID:20141026031813     3
 OLDACT:REG 14-10-29 13:02 OP:cam  STATUS:               ID:20141026031813     3
 2014-10-26-0318-13M.COL___280                                                 6
 STAT SP IPHASW D HRMM SECON CODA AMPLIT PERI AZIMU VELO AIN AR TRES W  DIS CAZ7
 BAR2 SZ ES        322 16.03                             172   -0.2810 20.4 205 
 BAR2 SZ I         322 16.87         4.8 0.20            170           20.4 205 
 BRR  HZ IP     D  322  2.43                             151   -0.0910 77.3 300 
 BRR  HN ES        322 19.85                             151    0.2110 77.3 300 
 BRR  HN I         322 20.96        10.6 0.52            150           77.3 300 
 PAM  SZ EP     D  322  3.44                             151    0.1610 78.2  35 
 PAM  SE ES   4    322 19.13                             151   -1.86 0 78.2  35 
 PAM  SE I         322 22.77         4.6 0.30            154           78.2  35 
 RUS  HZ EP        322  4.39                             146   -0.0210 96.0 179 
 RUS  HE ES        322 23.08                             146    0.0710 96.0 179 
 RUS  HZ I         322 24.10         2.8 0.62            147           96.0 179 
 PTB  HZ EP        322  7.91                             132   -0.30 9  151 261 
 PTB  HN ES   4    322 28.39                             132   -1.38 0  151 261 
 PTB  HN I         322 34.09        12.8 0.38            132            151 261 
 SPBC HZ EP        322  9.48                             130    0.13 9  163 221 
 SPBC HE ES        322 31.91                             130    0.12 9  163 221 
 SPBC HZ I         322 35.01         4.2 0.22            130            163 221 
                                                                                
