 2010  926 0053 36.1 L   6.774 -73.172146.4  RSN  7 0.2 1.6LRSN                1
 GAP=156        0.41       2.6     5.0  6.2 -0.2443E+01  0.3388E+01 -0.1526E+00E
 Epicentro: LOS SANTOS - SANTANDER                                             3
 ACTION:UP  11-02-18 11:05 OP:tino STATUS:               ID:20100926005336 L   I
 2010-09-26-0050-34S.COL___122                                                 6
 STAT SP IPHASW D HRMM SECON CODA AMPLIT PERI AZIMU VELO SNR AR TRES W  DIS CAZ7
 BTL  SZ EP   1    053 55.95                             172     0.2 7   19 326 
 BAR2 SZ EP   2    053 55.41                             172    -0.4 5   20 184 
 BAR2 SZ I         054 13.89        10.7 0.20                            20 184 
 BRR  HZ EP   1    053 57.27                             153     0.0 7   70 302 
 BRR  HE ES   2    054 14.02                             153     0.2 5   70 302 
 BRR  HZ I         054 26.25        13.2 0.05                            70 302 
 RUS  HZ EP   2    053 59.71                             145    -0.1 5   98 174 
 RUS  HE ES   1    054 18.24                             145     0.0 7   98 174 
 RUS  HZ I         054 19.59         4.8 0.43                            98 174 
 GRA  SZ EP   2    054  2.07                             136     0.3 5  129  18 
 GRA  SZ ES   2    054 21.37                             136    -0.3 5  129  18 
 GRA  SZ I         054 22.95         5.3 0.21                           129  18 
 NOR  SN ES   2    054 38.84                             119    -0.2 4  231 235 
 CHI  HZ EP   2    054 13.51                             118     0.0 4  245 195 
 CHI  HN ES   2    054 42.70                             118     0.1 4  245 195 
 CHI  HZ I         054 48.56         2.3 0.33                           245 195 
                                                                                
