 2016  726 0708 10.1 L   6.717 -73.154157.9  RSN  4 0.2 1.2LRSN                1
 GAP=248        0.44       7.8     5.0  3.9  0.2787E+02  0.3356E+01 -0.1228E+01E
 Epicentro: VILLANUEVA - SANTANDER                                             3
 ACTION:UPD 17-03-29 16:55 OP:lp   STATUS:               ID:20160726070810 L   I
 OLDACT:REG 16-07-26 13:48 OP:ar   STATUS:               ID:20160726065759     3
 2016-07-26-0657-59S.COL___328                                                 6
 STAT SP IPHASW D HRMM SECON CODA AMPLIT PERI AZIMU VELO AIN AR TRES W  DIS CAZ7
 BAR2 EZ EP        7 8 30.94                             175   -0.0710 14.2 193 
 BAR2 EZ ES        7 8 47.23                             175   -0.1210 14.2 193 
 BAR2 EZ I         7 8 52.25         1.9 0.25            174           14.2 193 
 BRR  HZ EP        7 8 32.93                             153    0.1810 75.3 305 
 BRR  HN ES        7 8 50.54                             153    0.0910 75.3 305 
 PTB  HZ EP   2    7 8 37.61                             135   -0.22 5  145 262 
 PTB  HN ES   2    7 8 59.90                             135    0.40 5  145 262 
 PTB  HZ I         7 9  0.76         1.4 0.09            137            145 262 
 ZAR  HZ EP        7 8 43.69                             124    0.09 8  207 295 
 ZAR  HN ES        7 9  9.52                             124   -0.25 8  207 295 
 ZAR  HZ I         7 9 14.03         2.5 0.42            127            207 295 
                                                                                
