 2013  126 0541 21.5 L   6.809 -73.154150.1  RSN  9 0.4 1.7LRSN                1
 GAP= 70        1.16       4.0     4.6  7.2  0.5485E+00  0.4913E+00  0.6132E+01E
 Epicentro: LOS SANTOS - SANTANDER                                             3
 ACTION:UPD 13-02-15 09:16 OP:ep   STATUS:               ID:20130126054121 L   I
 2013-01-26-0538-41M.COL___184                                                 6
 STAT SP IPHASW D HRMM SECON CODA AMPLIT PERI AZIMU VELO AIN AR TRES W  DIS CAZ7
 BAR2 SZ EP        541 41.62                             170   -0.0310 24.2 187 
 BAR2 SZ I         541 41.74        16.0 0.40            170           24.2 187 
 BAR2 SZ ES        541 57.08                             170   -0.3010 24.2 187 
 BRR  HZ EP        541 43.57                             154    0.5410 69.9 298 
 BRR  HZ I         541 43.76        10.0 0.26            153           69.9 298 
 BRR  HN ES        542  0.86                             154    1.0210 69.9 298 
 PAM  SZ EP        541 44.37                             152    0.2210 77.2  41 
 PAM  SN ES        542  1.75                             152   -0.0810 77.2  41 
 RUS  HZ EP        541 45.90                             144    0.1610  102 176 
 RUS  HN ES        542  4.53                             144   -0.1310  102 176 
 PTB  HZ EP        541 48.36                             133   -0.38 9  147 258 
 PTB  HE ES        542  9.41                             133   -0.60 9  147 258 
 TAM  HZ EP        541 49.75                             131    0.14 9  156 105 
 OCA  HN ES        542 11.39                             131   -0.91 9  159 353 
 ZAR  HE ES        542 19.77                             123    0.25 9  203 292 
 CHI  HZ EP        541 59.48                             118   -0.02 8  249 195 
 CHI  HZ I         542  1.72         2.0 0.14            117            249 195 
 CHI  HN ES        542 29.05                             118   -0.11 8  249 195 
                                                                                
