 2014  126 0001 28.2 L   6.776 -73.143147.0  RSN  8 0.4 2.0LRSN                1
 GAP=138        1.11       3.9     4.7  6.6 -0.2513E+00  0.7807E+01 -0.3950E+01E
 Epicentro: LOS SANTOS - SANTANDER                                             3
 ACTION:UPD 14-03-13 09:58 OP:ep   STATUS:               ID:20140126000128 L   I
 OLDACT:UP  14-01-26 09:51 OP:nd   STATUS:               ID:20140126000000     3
 OLDACT:REG 14-01-26 09:06 OP:nd   STATUS:               ID:20140126000000     3
 2014-01-26-0000-00M.COL___285                                                 6
 STAT SP IPHASW D HRMM SECON CODA AMPLIT PERI AZIMU VELO AIN AR TRES W  DIS CAZ7
 BAR2 SZ EP        0 1 48.02                             172    0.1110 20.8 192 
 BAR2 SZ ES        0 2  2.77                             172   -0.5310 20.8 192 
 BAR2 SZ I         0 2  4.83        39.2 0.24            171           20.8 192 
 BRR  HZ EP     C  0 1 49.96                             152    0.4110 72.8 300 
 BRR  HN ES        0 2  7.21                             152    0.9910 72.8 300 
 BRR  HZ I         0 2  9.70        15.7 0.12            151           72.8 300 
 PAM  SZ EP        0 1 50.99                             150    0.3510 79.2  38 
 PAM  SN ES        0 2  7.91                             150   -0.2510 79.2  38 
 PAM  SZ I         0 2 10.30        26.2 0.92            154           79.2  38 
 RUS  HZ EP        0 1 51.77                             145   -0.0910 97.9 176 
 RUS  HN ES        0 2 10.08                             145   -0.2610 97.9 176 
 RUS  HZ I         0 2 11.92        13.5 0.24            147           97.9 176 
 PTB  HZ EP        0 1 54.60                             132   -0.63 9  148 260 
 PTB  HN ES        0 2 15.88                             132   -0.46 9  148 260 
 PTB  HZ I         0 2 17.21        12.6 0.20            132            148 260 
 SPBC HZ EP        0 1 56.84                             130    0.24 9  161 220 
 SPBC HN ES        0 2 19.25                             130    0.48 9  161 220 
 SPBC HZ I         0 2 24.54        11.9 0.16            131            161 220 
 ZAR  HZ EP        0 2  0.85                             122    0.01 8  205 293 
 ZAR  HN ES        0 2 26.13                             122   -0.19 8  205 293 
 ZAR  HZ I         0 2 35.32         8.5 0.26            123            205 293 
 SML  HZ EP        0 2  5.26                             117    0.11 8  246 335 
 SML  HN ES        0 2 33.48                             117   -0.51 8  246 335 
 SML  HZ I         0 2 36.54         8.8 0.10            119            246 335 
                                                                                
