 2011 1026 0222  7.2 L   6.772 -73.131147.3  RSN 12 0.2 2.2LRSN                1
 GAP=140        0.35       1.9     2.3  3.3 -0.9504E+00  0.1202E+01  0.1290E+01E
 Epicentro: LOS SANTOS - SANTANDER                                             3
 ACTION:UPD 12-07-13 16:06 OP:ep   STATUS:               ID:20111026022207 L   I
 2011-10-26-0220-33S.COL___176                                                 6
 STAT SP IPHASW D HRMM SECON CODA AMPLIT PERI AZIMU VELO AIN AR TRES W  DIS CAZ7
 BAR2 SZ IP        222 26.93                             172   -0.0510 20.6 196 
 BAR2 SZ ES   2    222 42.09                             172   -0.30 5 20.6 196 
 BAR2 SZ I         222 43.64        37.6 0.17                          20.6 196 
 BTL  SZ EP        222 27.16                             171    0.1510 22.2 317 
 BRR  HZ IP     C  222 28.74                             152    0.0410 74.2 300 
 BRR  HE ES   1    222 45.78                             152    0.32 7 74.2 300 
 BRR  HZ I         222 49.57        54.6 0.43                          74.2 300 
 PAM  SZ EP        222 29.75                             151    0.0710 78.8  37 
 PAM  SN ES   2    222 46.80                             151   -0.40 5 78.8  37 
 RUS  HZ EP   1    222 30.92                             145    0.03 7 97.3 177 
 RUS  HZ I         222 31.63        13.3 0.27                          97.3 177 
 RUS  HN ES   2    222 49.29                             145   -0.06 5 97.3 177 
 OCA  SZ EP   2    222 35.70                             129   -0.26 5  164 353 
 OCA  SZ ES   2    222 58.19                             129   -0.19 5  164 353 
 OCA  SZ I         223  2.44        17.4 0.29                           164 353 
 ZAR  HZ EP   2    222 39.90                             122   -0.14 4  207 293 
 ZAR  HN ES   2    223  5.51                             122   -0.14 4  207 293 
 ZAR  HZ I         223 11.16        20.3 0.37                           207 293 
 NOR  SN ES   2    223 10.44                             119   -0.45 4  234 235 
 ROSC BZ EP   2    222 45.21                             117   -0.01 4  251 212 
 ROSC BN ES   2    223 14.97                             117    0.10 4  251 212 
 ROSC BZ I         223 18.97        18.3 0.55                           251 212 
 HEL  HZ EP   2    222 47.49                             115   -0.11 4  273 257 
 HEL  HN ES   2    223 18.67                             115   -0.43 4  273 257 
 HEL  HZ I         223 25.58         8.5 0.57                           273 257 
 RREF HZ EP   2    222 53.68                             111    0.34 3  321 230 
 RREF HN ES   2    223 29.68                             111    0.37 3  321 230 
 RREF HZ I         223 38.92         5.7 0.47                           321 230 
 PRA  HZ EP   2    223  0.39                             107   -0.18 3  390 210 
 PRA  HN ES   2    223 42.11                             107   -0.07 3  390 210 
                                                                                
