 2011  226 0445 53.5 L   6.797 -73.101140.2  RSN 10 0.4 2.0LRSN                1
 GAP=105        0.94       4.0     8.8  7.3 -0.1365E+02  0.1186E+02 -0.4176E+01E
 Epicentro: LOS SANTOS - SANTANDER                                             3
 ACTION:UP  11-03-28 15:11 OP:jfem STATUS:               ID:20110226044553 L   I
 2011-02-26-0443-02S.COL___136                                                 6
 STAT SP IPHASW D HRMM SECON CODA AMPLIT PERI AZIMU VELO SNR AR TRES W  DIS CAZ7
 BAR2 SZ EP        446 12.57                             170     0.110   24 202 
 BAR2 SZ ES   1    446 27.09                             170    -0.2 7   24 202 
 BAR2 SZ I         446 28.77        24.5 0.21                            24 202 
 RUS  HZ EP        446 16.68                             143     0.010  100 179 
 RUS  HN ES   1    446 34.35                             143    -0.4 7  100 179 
 RUS  HZ I         446 36.97        11.2 0.48                           100 179 
 GRA  SZ EP        446 18.42                             136     0.310  125  15 
 GRA  SZ ES   1    446 37.91                             136     0.5 7  125  15 
 GRA  SZ I         446 39.36        11.6 0.25                           125  15 
 OCA  SZ EP   1    446 20.75                             128    -0.7 7  161 351 
 OCA  SZ ES   2    446 43.00                             128    -0.3 5  161 351 
 OCA  SZ I         446 51.04        17.6 0.28                           161 351 
 YOP  SZ EP   2    446 23.53                             126     0.6 4  176 155 
 YOP  SZ I         446 51.22         9.5 0.42                           176 155 
 CHI  HZ EP   1    446 31.08                             116     0.1 6  250 196 
 CHI  HE ES   1    447  0.18                             116     0.0 6  250 196 
 CHI  HZ I         447  2.63        11.4 0.38                           250 196 
 HEL  HZ EP   1    446 34.77                             113     0.8 6  277 256 
 HEL  HZ I         446 54.92         5.5 0.43                           277 256 
 RREF HZ EP   2    446 39.28                             110    -0.5 3  325 230 
 RREF HZ I         447 22.07         8.1 0.56                           325 230 
 DBB  SZ EP   1    446 40.93                             108    -0.4 5  344 274 
 SDV  BZ EP        446 42.25                             107    -0.6 6  357  50 
 SDV  BZ I         446 43.07         1.9 0.27                           357  50 
                                                                                
