 2016 1026 0827 30.9 L   6.177 -73.600117.6  RSN 11 0.4 1.6LRSN                1
 GAP= 74        0.96       3.0     4.5  5.3 -0.6187E+01  0.3940E+01  0.2435E+01E
 Epicentro: LA PAZ - SANTANDER                                                 3
 ACTION:UPD 16-11-09 19:23 OP:rebc STATUS:               ID:20161026082730 L   I
 OLDACT:UP  16-10-26 18:14 OP:cog  STATUS:               ID:20161026081746     3
 OLDACT:REG 16-10-26 14:06 OP:cog  STATUS:               ID:20161026081746     3
 2016-10-26-0818-00M.COL___325                                                 6
 STAT SP IPHASW D HRMM SECON CODA AMPLIT PERI AZIMU VELO AIN AR TRES W  DIS CAZ7
 BAR2 EZ EP        827 48.76                             149   -0.2210 65.1  45 
 BAR2 EZ ES        828  3.64                             149    0.5210 65.1  45 
 BAR2 EZ I         828  5.57        13.7 0.56            151           65.1  45 
 RUS  HZ EP        827 48.80                             149   -0.5610 65.3 119 
 RUS  HN ES        828  3.59                             149   -0.2110 65.3 119 
 RUS  HZ I         828  4.23         3.6 0.20            151           65.3 119 
 SPBC HZ EP        827 49.20                             144   -0.4510 78.2 222 
 SPBC HN ES        828  4.27                             144   -0.0410 78.2 222 
 SPBC HZ I         828  6.38         8.5 0.36            143           78.2 222 
 PTB  HZ EP   9    827 50.21                             136   -1.28 0  103 293 
 PTB  HN ES        828  6.13                             134   -0.1810  103 293 
 PTB  HZ I         828  9.24         7.2 0.15            134            103 293 
 BRR  HZ EP        827 51.16                             135   -0.3710  104 353 
 BRR  HN ES        828  7.63                             135   -0.0210  104 353 
 BRR  HZ I         828  8.59        10.8 0.12            135            104 353 
 PAM  EZ EP        827 57.77                             122   -0.04 9  163  38 
 PAM  EE ES        828 19.60                             122    0.76 9  163  38 
 CHI  HZ IP        827 58.53                             120   -0.15 9  172 185 
 CHI  HN ES        828 20.51                             120    0.13 9  172 185 
 CHI  HZ I         828 23.52         2.4 0.28            120            172 185 
 HEL  HZ EP   4    827 59.32                             114   -3.82 0  214 271 
 HEL  HN ES   4    828 28.49                             114    0.17 0  214 271 
 GUY2CHZ EP        828  4.51                             113    0.27 8  222 242 
 GUY2CHN ES   4    828 32.13                             113    1.85 0  222 242 
 GUY2CHZ I         828 35.35         3.9 0.28                           222 242 
 OCA  HZ EP   4    828  6.65                             112    1.93 0  230   8 
 OCA  HE ES   4    828 33.70                             112    2.56 0  230   8 
 OCA  HZ I         828 35.75         7.8 0.20            112            230   8 
 PRA  HZ EP        828 13.46                             106   -0.06 7  307 208 
 PRA  HN ES        828 47.76                             106    0.96 7  307 208 
 PRA  HZ I         828 51.24         2.5 0.24            106            307 208 
 ORTC HZ EP        828 14.12                             105    0.29 7  310 216 
 ORTC HN ES   4    828 49.75                             105    2.39 0  310 216 
 ORTC HZ I         828 53.66         1.7 0.18            105            310 216 
                                                                                
