 2010  626 0419  2.4 L   7.059 -72.826130.4  RSN  5 0.2 1.6LRSN                1
 GAP=190        0.41       5.0    10.8 17.6  0.1331E+02 -0.1475E+03 -0.5032E+02E
 Epicentro: SANTA BARBARA - SANTANDER                                          3
 ACTION:UP  10-08-24 10:13 OP:vdl  STATUS:               ID:20100626041902 L   I
 2010-06-26-0416-08S.COL___118                                                 6
 STAT SP IPHASW D HRMM SECON CODA AMPLIT PERI AZIMU VELO SNR AR TRES W  DIS CAZ7
 BAR2 SZ ES   2    419 37.09                             152     0.0 5   65 217 
 BRI  SZ EP        419 22.38                             149     0.110   73   3 
 BRI  SZ I         419 48.59         3.4 0.68                            73   3 
 GRA  SZ EP   3    419 22.75                             143    -0.8 2   91   2 
 BRR  HZ I         419 29.27        21.4 0.36                            98 273 
 BRR  HN ES   2    419 40.41                             141    -0.1 5   98 273 
 RUS  HZ EP   3    419 27.59                             132     0.2 2  132 192 
 RUS  HE ES   2    419 46.67                             132    -0.1 5  132 192 
 RUS  HZ I         419 47.29         5.3 0.31                           132 192 
                                                                                
