 2017  326 0421 58.5 L   6.715 -73.500110.7  RSN  6 0.3 1.5LRSN                1
 GAP=107        0.58       2.7     3.2  4.2  0.1914E+01  0.3185E+01  0.1656E+00E
 Epicentro: EL CARMEN - SANTANDER                                              3
 ACTION:UPD 17-05-25 18:45 OP:jn   STATUS:               ID:20170326042158 L   I
 OLDACT:UP  17-03-26 13:54 OP:cog  STATUS:               ID:20170326041744     3
 OLDACT:REG 17-03-26 12:40 OP:cog  STATUS:               ID:20170326041744     3
 2017-03-26-0418-00M.COL___355                                                 6
 STAT SP IPHASW D HRMM SECON CODA AMPLIT PERI AZIMU VELO AIN AR TRES W  DIS CAZ7
 BAR2 EZ EP        422 14.46                             160    0.0810 37.6 111 
 BAR2 EZ ES        422 26.92                             160    0.1210 37.6 111 
 BAR2 EZ I         422 28.42        17.0 0.30            158           37.6 111 
 BRR  HZ EP        422 14.29                             154   -0.3010 49.3 332 
 BRR  HE ES        422 27.27                             154    0.1010 49.3 332 
 RUS  HZ EP        422 19.12                             134    0.0510  102 153 
 RUS  HN ES        422 35.08                             134   -0.0710  102 153 
 RUS  HZ I         422 36.66         6.1 0.40            134            102 153 
 PTB  HZ EP   3    422 17.44                             132   -1.49 2  108 260 
 PTB  HN ES   4    422 31.99                             132   -2.90 0  108 260 
 PTB  HZ I         422 33.51         4.0 0.10            134            108 260 
 PAM  EZ EP        422 20.07                             132    0.0810  112  52 
 PAM  EE ES        422 36.54                             132   -0.2310  112  52 
 SPBC HN ES   4    422 41.59                             125    2.14 0  134 208 
 ZAR  HZ EP        422 25.81                             118    0.33 9  173 300 
 ZAR  HE ES   4    422 46.85                             118    0.30 0  173 300 
                                                                                
