 2015 1026 0100 45.9 L   6.640 -73.337118.0  RSN  4 0.5 1.4LRSN                1
 GAP=180        1.15       8.2    13.4 11.0  0.8646E+02  0.1614E+02 -0.9256E+01E
 Epicentro: GALAN - SANTANDER                                                  3
 ACTION:UPD 15-12-22 20:43 OP:cam  STATUS:               ID:20151026010045 L   I
 OLDACT:UP  15-10-26 13:08 OP:mh   STATUS:               ID:20151026005749     3
 OLDACT:REG 15-10-26 12:24 OP:mh   STATUS:               ID:20151026005749     3
 2015-10-26-0057-49M.COL___313                                                 6
 STAT SP IPHASW D HRMM SECON CODA AMPLIT PERI AZIMU VELO AIN AR TRES W  DIS CAZ7
 BRR  HZ EP        1 1  3.41                             148   -0.3710 66.2 321 
 BRR  HN ES        1 1 18.30                             148    0.5610 66.2 321 
 BRR  HZ I         1 1 23.63         6.0 0.42            146           66.2 321 
 RUS  HZ EP        1 1  6.48                             141    0.5210 87.3 161 
 RUS  HN ES        1 1 21.07                             141   -0.5410 87.3 161 
 RUS  HZ I         1 1 23.21         2.6 0.28            148           87.3 161 
 ZAR  HZ EP        1 1 15.83                             117    0.39 9  193 299 
 ZAR  HN ES   1    1 1 37.94                             117   -0.55 7  193 299 
 ZAR  HZ I         1 1 39.68         3.6 0.34            120            193 299 
 SML  HN ES        1 1 49.99                             110   -0.36 8  252 341 
 SML  HZ I         1 2  0.86         3.6 0.10            111            252 341 
                                                                                
