 2012  726 0713 35.8 L   6.787 -73.127153.4  RSN  7 0.5 1.7LRSN                1
 GAP=139        1.13       6.9     7.5 10.6  0.3280E+01  0.1308E+01 -0.2789E+02E
 Epicentro: LOS SANTOS - SANTANDER                                             3
 ACTION:UPD 12-08-14 11:45 OP:ep   STATUS:               ID:20120726071335 L   I
 2012-07-26-0710-00M.COL___215                                                 6
 STAT SP IPHASW D HRMM SECON CODA AMPLIT PERI AZIMU VELO AIN AR TRES W  DIS CAZ7
 BAR2 SZ EP        713 56.53                             171     0.210   22 196 
 BAR2 SZ ES   1    714 11.80                             171    -0.6 7   22 196 
 BAR2 SZ I         714 12.88         7.9 0.20            165             22 196 
 BRR  HZ EP        713 58.42                             153     0.510   74 299 
 BRR  HZ I         713 58.81        20.4 0.13            147             74 299 
 BRR  HN ES   1    714 16.15                             153     1.0 7   74 299 
 PAM  SZ EP   1    713 58.78                             152    -0.1 7   77  38 
 RUS  HN ES   1    714 19.33                             146     0.1 7   99 177 
 PTB  HZ EP   1    714  3.36                             133    -0.2 7  149 260 
 PTB  HN ES   1    714 24.34                             133    -0.9 7  149 260 
 PTB  HZ I         714 32.09         3.7 0.38            129            149 260 
 OCA  HZ EP        714  4.72                             131    -0.2 9  162 352 
 OCA  HN ES   1    714 26.98                             131    -0.6 7  162 352 
 ZAR  HZ EP   1    714  8.99                             124     0.0 6  206 292 
 ZAR  HN ES   1    714 35.15                             124     0.2 6  206 292 
 ZAR  HZ I         714 40.43         5.6 0.34            121            206 292 
