 2016  726 0459 38.0 L   6.775 -73.157146.7  RSN  6 0.3 1.6LRSN                1
 GAP=136        0.78       4.2     4.0  5.7 -0.1564E+01  0.2729E+01  0.9597E+00E
 Epicentro: LOS SANTOS - SANTANDER                                             3
 ACTION:UPD 17-03-29 16:55 OP:lp   STATUS:               ID:20160726045938 L   I
 OLDACT:UP  16-07-26 16:52 OP:ar   STATUS:               ID:20160726045759     3
 OLDACT:REG 16-07-26 13:40 OP:ar   STATUS:               ID:20160726045759     3
 2016-07-26-0457-59S.COL___334                                                 6
 STAT SP IPHASW D HRMM SECON CODA AMPLIT PERI AZIMU VELO AIN AR TRES W  DIS CAZ7
 BAR2 EZ EP        459 57.57                             172   -0.1410 20.4 188 
 BAR2 EZ ES        5 0 12.64                             172   -0.4310 20.4 188 
 BAR2 EZ I         5 0 13.81        10.2 0.31            170           20.4 188 
 BRR  HZ EP        459 59.47                             153    0.1810 71.5 301 
 BRR  HN ES        5 0 16.40                             153    0.5210 71.5 301 
 BRR  HZ I         5 0 20.35        11.3 0.44            148           71.5 301 
 PAM  EZ EP        5 0  0.62                             150    0.1010 80.3  39 
 PAM  EN ES        5 0 17.87                             150   -0.1910 80.3  39 
 PAM  EZ I         5 0 19.65        13.4 0.56            153           80.3  39 
 RUS  HZ EP        5 0  1.63                             145   -0.0510 97.9 175 
 RUS  HN ES        5 0 20.51                             145    0.3810 97.9 175 
 RUS  HZ I         5 0 21.30         2.3 0.28            148           97.9 175 
 PTB  HZ EP        5 0  4.80                             133   -0.11 9  146 260 
 PTB  HN ES        5 0 25.57                             133   -0.31 9  146 260 
 PTB  HZ I         5 0 32.42         3.7 0.44            131            146 260 
 ZAR  HZ EP   4    5 0 12.51                             123    1.99 0  204 293 
 ZAR  HN ES   4    5 0 39.04                             123    3.17 0  204 293 
 ZAR  HZ I         5 0 42.70         4.8 0.30            122            204 293 
 SJC  HZ EP   4    5 0 32.34                             106   -1.47 0  411 327 
 SJC  HN ES   4    5 1 14.96                             106   -2.37 0  411 327 
                                                                                
