 2013  626 0828 54.8 L   6.802 -73.139150.1  RSN  7 0.5 1.4LRSN                1
 GAP=153        1.09       7.7     6.8  9.1 -0.2599E+02  0.9002E+01 -0.1660E+01E
 Epicentro: LOS SANTOS - SANTANDER                                             3
 ACTION:UPD 14-01-08 09:57 OP:ep   STATUS:               ID:20130626082854 L   I
 OLDACT:REG 13-06-26 09:37 OP:jn   STATUS:               ID:20130626082636     3
 2013-06-26-0826-36M.COL___229                                                 6
 STAT SP IPHASW D HRMM SECON CODA AMPLIT PERI AZIMU VELO AIN AR TRES W  DIS CAZ7
 BAR2 SZ EP        829 14.83                             171   -0.1110 23.6 192 
 BAR2 SZ ES        829 30.76                             171    0.1010 23.6 192 
 BAR2 SZ I         829 32.76         6.1 0.26            171           23.6 192 
 GIR2 SZ EP        829 14.97                             168   -0.0010 31.3 349 
 BRR  HZ EP     C  829 16.84                             153    0.4010 71.8 298 
 BRR  HN ES   1    829 34.13                             153    0.81 7 71.8 298 
 BRR  HZ I         829 36.56         4.5 0.16            152           71.8 298 
 PAM  SZ EP        829 17.78                             152    0.3510 76.8  39 
 PAM  SN ES   1    829 34.40                             152   -0.69 7 76.8  39 
 PAM  SZ I         829 36.27         2.9 0.18            155           76.8  39 
 PTB  HZ EP        829 21.64                             133   -0.54 9  149 259 
 PTB  HN ES        829 42.89                             133   -0.66 9  149 259 
 PTB  HZ I         829 48.67         5.1 0.44            134            149 259 
 OCA  HN ES   1    829 45.63                             131   -0.14 7  160 353 
 NOR  HE ES   1    829 59.76                             119    0.79 6  235 235 
                                                                                
