 2011  626 0114 52.8 L   6.789 -73.072148.6  RSN  5 0.3 1.6LRSN                1
 GAP=167        0.71       4.9    10.5  8.2 -0.2552E+01 -0.2920E+02  0.1028E+01E
 Epicentro: LOS SANTOS - SANTANDER                                             3
 ACTION:UP  11-07-14 19:08 OP:ep   STATUS:               ID:20110626011452 L   I
 2011-06-26-0111-52S.COL___140                                                 6
 STAT SP IPHASW D HRMM SECON CODA AMPLIT PERI AZIMU VELO SNR AR TRES W  DIS CAZ7
 BAR2 SZ EP        115 12.34                             170    -0.410   25 209 
 BAR2 SZ I         115 29.39         8.7 0.26                            25 209 
 BTL  SZ EP        115 12.90                             170     0.110   26 304 
 BTL  SZ ES   1    115 28.38                             170     0.0 7   26 304 
 BRR  HZ EP        115 14.50                             151    -0.210   79 296 
 BRR  HZ I         115 16.23         7.6 0.04                            79 296 
 BRR  HN ES   2    115 32.17                             151     0.4 5   79 296 
 RUS  HZ EP        115 16.96                             145     0.310   99 181 
 RUS  HN ES   2    115 35.48                             145     0.1 5   99 181 
 RUS  HZ I         115 36.43         4.4 0.37                            99 181 
 GRA  SZ EP        115 18.44                             138     0.210  125  14 
 GRA  SZ ES   2    115 37.82                             138    -0.2 5  125  14 
 GRA  SZ I         115 39.23         5.2 0.40                           125  14 
                                                                                
