 2012  126 0313 49.8 L   7.210 -73.981 67.1  RSN  6 0.4 1.3LRSN                1
 GAP=105        0.90       4.0     3.6  8.8 -0.9932E-01  0.2400E+01  0.2018E+01E
 Epicentro: PUERTO WILCHES - SANTANDER                                         3
 ACTION:UP  12-02-03 08:20 OP:REBC STATUS:               ID:20120126031349 L   I
 2012-01-26-0310-00M.COL___188                                                 6
 STAT SP IPHASW D HRMM SECON CODA AMPLIT PERI AZIMU VELO SNR AR TRES W  DIS CAZ7
 BRR  HZ EP        314  0.13                             152     0.010   32 111 
 BRR  HE ES   1    314  8.67                             152     0.4 7   32 111 
 BRR  HZ I         314  9.66        18.2 0.09                            32 111 
 GIR2 SZ EP   1    314  4.98                             121    -0.3 7   88  99 
 PTB  HZ EP        314  5.28                             120    -0.110   91 215 
 PTB  HE ES   1    314 16.92                             120    -0.6 7   91 215 
 ZAR  HZ EP   1    314  7.18                             117     0.6 7  102 288 
 ZAR  HN ES   1    314 19.77                             117     0.1 7  102 288 
 ZAR  HZ I         314 21.23         5.9 0.30                           102 288 
 OCA  SZ ES   1    314 26.29                             110    -0.4 7  135  33 
 OCA  SZ I         314 33.68         4.3 0.41                           135  33 
 RUS  HZ EP   1    314 16.22                             104     0.4 7  176 146 
 RUS  HN ES   1    314 36.37                             104     0.2 7  176 146 
 RUS  HZ I         314 38.28         1.5 0.28                           176 146 
                                                                                
