 2013  426 0938  7.5 L   6.572 -73.512115.8  RSN 13 0.5 1.5LRSN                1
 GAP= 61        0.85       3.4     3.8  7.5 -0.2685E+00  0.1718E+02  0.5148E+01E
 Epicentro: EL CARMEN DE CHUCURI - SANTANDER                                   3
 ACTION:UPD 13-05-22 14:41 OP:EP   STATUS:               ID:20130426093807 L   I
 2013-04-26-0928-44M.COL___199                                                 6
 STAT SP IPHASW D HRMM SECON CODA AMPLIT PERI AZIMU VELO AIN AR TRES W  DIS CAZ7
 BAR2 SZ EP   1    938 24.17                             161    0.20 7 36.5  86 
 BAR2 SZ ES   1    938 37.18                             161    0.36 7 36.5  86 
 BAR2 SZ I         938 38.04        34.3 0.48            161           36.5  86 
 BRR  HZ EP   1    938 24.98                             149   -0.01 7 63.2 339 
 BRR  HN ES   2    938 38.23                             149   -0.40 5 63.2 339 
 GIR2 SZ EP   1    938 25.69                             148    0.31 7 66.2  32 
 GIR2 SZ ES   1    938 39.63                             148    0.30 7 66.2  32 
 GIR2 SZ I         938 40.17         7.8 0.32            148           66.2  32 
 RUS  HZ EP        938 27.08                             140   -0.4110 88.8 148 
 RUS  HE ES   2    938 42.44                             140   -0.65 5 88.8 148 
 RUS  HZ I         938 45.19         2.0 0.26            140           88.8 148 
 PTB  HZ EP   4    938 26.97                             135   -1.16 0  105 268 
 PTB  HN ES   4    938 41.84                             135   -2.38 0  105 268 
 PTB  HZ I         938 43.21        11.4 0.14            134            105 268 
 PAM  SZ EP   2    938 30.56                             130    0.07 5  124  47 
 PAM  SN ES        938 48.42                             130    0.0110  124  47 
 PAM  SZ I         938 50.44         4.5 0.14            129            124  47 
 ZAR  HN ES   2    938 59.30                             118    1.78 4  180 304 
 OCA  HN ES   2    938 58.76                             118   -0.11 4  186   7 
 HEL  HZ EP   1    938 41.26                             112    0.03 6  227 259 
 HEL  HN ES   1    939  7.01                             112   -0.53 6  227 259 
 HEL  HZ I         939 10.60         2.5 0.20            112            227 259 
 SML  HZ EP   1    938 43.99                             109    0.15 6  254 346 
 SML  HN ES   2    939 12.20                             109    0.01 4  254 346 
 SML  HZ I         939 16.03         4.2 0.12            109            254 346 
 GUY  HZ EP        938 45.01                             110    0.36 8  256 234 
 GUY  HN ES   2    939 14.23                             110    0.61 4  256 234 
 GUY  HZ I         939 16.76         1.9 0.28            109            256 234 
 URE  HE ES        939 12.17                             109   -0.97 8  259 300 
 PRA  HZ EP   2    938 55.56                             103    0.32 3  351 206 
 PRA  HN ES   1    939 32.67                             103    0.19 5  351 206 
                                                                                
