 2017 1026 0344  3.9 L   6.765 -73.148139.2  RSN  5 0.4 1.2LRSN                1
 GAP=138        0.93       4.6     4.1  8.2  0.1240E+01  0.6503E+01  0.3657E+01E
 Epicentro: LOS SANTOS - SANTANDER                                             3
 ACTION:UPD 17-11-07 19:36 OP:rebc STATUS:               ID:20171026034403 L   I
 OLDACT:UP  17-10-26 16:39 OP:dani STATUS:               ID:20171026033628     3
 OLDACT:REG 17-10-26 13:02 OP:dani STATUS:               ID:20171026033628     3
 2017-10-26-0338-00M.COL___438                                                 6
 STAT SP IPHASW D HRMM SECON CODA AMPLIT PERI AZIMU VELO AIN AR TRES W  DIS CAZ7
 BRR  HZ EP        344 24.44                             151    0.0210 73.0 301 
 BRR  HN ES        344 40.57                             151    0.1210 73.0 301 
 PAM  EZ EP        344 25.38                             148   -0.2210 80.6  38 
 PAM  EN ES        344 42.42                             148   -0.1210 80.6  38 
 RUS  HZ EP        344 26.97                             143    0.2710 96.7 176 
 RUS  HN ES        344 44.71                             143    0.2110 96.7 176 
 RUS  HZ I         344 45.88         3.8 0.31            143           96.7 176 
 PTB  HZ EP        344 30.01                             131   -0.22 9  147 260 
 PTB  HN ES        344 50.07                             131   -0.72 9  147 260 
 PTB  HZ I         344 53.11         1.5 0.19            131            147 260 
 ZAR  HE ES        345  1.86                             121    0.74 8  205 293 
                                                                                
