 2016 1126 0631 32.8 L   6.721 -73.138148.7  RSN  5 0.3 1.2LRSN                1
 GAP=164        0.87       8.1     4.5  6.5 -0.1217E+02  0.9442E+01 -0.5939E+01E
 Epicentro: JORDAN - SANTANDER                                                 3
 ACTION:UPD 17-10-26 21:11 OP:lp   STATUS:               ID:20161126063132 L   I
 OLDACT:UP  16-11-26 14:46 OP:dani STATUS:               ID:20161126062746d    3
 OLDACT:DUP 16-11-26 14:44 OP:dani STATUS:               ID:20161126062746d    3
 2016-11-26-0628-00M.COL___349                                                 6
 STAT SP IPHASW D HRMM SECON CODA AMPLIT PERI AZIMU VELO AIN AR TRES W  DIS CAZ7
 BAR2 EZ ES        632  8.13                             174   -0.0210 15.1 199 
 BRR  HZ EP        631 54.85                             151    0.2610 76.5 304 
 BRR  HE ES        632 12.23                             151    0.6610 76.5 304 
 BRR  HZ I         632 12.98         3.1 0.12            147           76.5 304 
 PAM  EZ EP        631 55.81                             149    0.0710 83.8  35 
 PAM  EN ES        632 13.19                             149   -0.4210 83.8  35 
 PAM  EZ I         632 15.19         4.0 0.48            148           83.8  35 
 PTB  HZ EP        631 59.94                             133   -0.04 9  147 262 
 PTB  HN ES        632 20.82                             133   -0.34 9  147 262 
 PTB  HZ I         632 22.76         1.2 0.09            132            147 262 
 ZAR  HZ EP        632  6.01                             122    0.12 8  208 294 
 ZAR  HN ES        632 31.26                             122   -0.43 8  208 294 
 ZAR  HZ I         632 36.90         2.0 0.23            121            208 294 
                                                                                
