 2012  726 0506 15.3 L   6.489 -73.558 19.6  RSN  4 0.2 1.4LRSN                1
 GAP=132        0.66       2.7     2.7 17.6  0.3931E+01  0.3297E+02  0.2446E+02E
 Epicentro: SANTA HELENA DEL OPON - SANTANDER                                  3
 ACTION:UPD 12-08-14 11:45 OP:ep   STATUS:               ID:20120726050615 L   I
 2012-07-26-0500-00M.COL___215                                                 6
 STAT SP IPHASW D HRMM SECON CODA AMPLIT PERI AZIMU VELO AIN AR TRES W  DIS CAZ7
 BAR2 SZ EP        5 6 23.41                             112     0.210   43  75 
 BAR2 SZ ES   1    5 6 29.20                             112    -0.1 7   43  75 
 BAR2 SZ I         5 6 30.29        18.3 0.31            116             43  75 
 BRR  HZ EP        5 6 26.58                             103    -0.310   70 346 
 BRR  HN ES   1    5 6 35.99                             103     0.1 7   70 346 
 BRR  HZ I         5 6 36.34        10.6 0.15             92             70 346 
 RUS  HZ EP        5 6 29.69                             102     0.210   84 141 
 RUS  HZ I         5 6 30.19         8.7 0.20             91             84 141 
 RUS  HN ES   1    5 6 40.09                             102    -0.4 7   84 141 
 PTB  HZ EP        5 6 31.17                              99    -0.110  100 273 
 PTB  HN ES   1    5 6 43.74                              99     0.1 7  100 273 
 PTB  HZ I         5 6 44.35        22.0 0.34             91            100 273 
