 2014 1026 0301 31.3 L   6.727 -73.089179.1  RSN 17 0.5 2.6LRSN                1
 GAP=147        1.06       3.2     4.5  5.1 -0.2589E+01  0.6454E+01  0.3009E+00E
 Epicentro: JORDAN - SANTANDER                                                 3
 ACTION:UPD 14-11-29 23:57 OP:nd   STATUS:               ID:20141026030131 L   I
 OLDACT:UP  14-10-29 15:32 OP:cam  STATUS:               ID:20141026025818     3
 OLDACT:UP  14-10-29 15:31 OP:cam  STATUS:               ID:20141026025818     3
 OLDACT:UP  14-10-29 15:31 OP:cam  STATUS:               ID:20141026025818     3
 OLDACT:UP  14-10-29 15:31 OP:cam  STATUS:               ID:20141026025818     3
 OLDACT:REG 14-10-29 13:01 OP:cam  STATUS:               ID:20141026025818     3
 2014-10-26-0258-18M.COL___280                                                 6
 STAT SP IPHASW D HRMM SECON CODA AMPLIT PERI AZIMU VELO AIN AR TRES W  DIS CAZ7
 BAR2 SZ EP     D  3 1 54.84                             174   -0.0710 18.1 215 
 BAR2 SZ ES        3 2 13.54                             174    0.2510 18.1 215 
 BAR2 SZ I         3 2 17.84        25.1 0.18            171           18.1 215 
 PAM  SZ IP     D  3 1 57.48                             155    0.1510 80.2  32 
 PAM  SE ES        3 2 17.26                             155   -0.3410 80.2  32 
 BRR  HZ EP     C  3 1 57.49                             155    0.8510 80.6 301 
 BRR  HN ES        3 2 16.63                             155    0.2610 80.6 301 
 BRR  HZ I         3 2 21.16        31.4 0.20            153           80.6 301 
 RUS  HZ EP        3 1 57.76                             152   -0.2410 92.3 180 
 RUS  HN ES        3 2 18.49                             152   -0.3010 92.3 180 
 RUS  HZ I         3 2 19.24        47.6 0.26            154           92.3 180 
 PTB  HZ EP        3 2  1.82                             138    0.23 9  153 262 
 PTB  HN ES        3 2 24.52                             138   -0.67 9  153 262 
 PTB  HZ I         3 2 31.07        29.4 0.42            137            153 262 
 SPBC HZ EP        3 2  3.29                             136    0.88 9  161 223 
 SPBC HN ES        3 2 26.24                             136   -0.40 9  161 223 
 SPBC HZ I         3 2 31.44        65.2 0.28            137            161 223 
 OCA  HZ EP        3 2  2.76                             135   -0.41 9  169 351 
 OCA  HN ES        3 2 28.25                             135    0.25 9  169 351 
 OCA  HZ I         3 2 36.43        45.9 0.30            136            169 351 
 CHI  HZ EP        3 2 10.25                             124   -0.23 8  243 197 
 CHI  HN ES        3 2 40.76                             124   -0.25 8  243 197 
 CHI  HZ I         3 2 43.88         7.5 0.38            126            243 197 
 ROSC BZ EP   4    3 2 12.33                             123    1.20 0  249 213 
 ROSC BN ES   4    3 2 44.40                             123    2.24 0  249 213 
 HEL  HZ EP        3 2 14.43                             120    0.54 7  276 258 
 HEL  HN ES        3 2 46.63                             120   -0.45 7  276 258 
 HEL  HZ I         3 2 51.00        21.4 0.54            121            276 258 
 URE  HZ EP        3 2 14.92                             119   -0.25 7  293 293 
 GUY2CHZ EP   4    3 2 18.38                             118    1.63 0  302 237 
 GUY2CHE ES        3 2 53.03                             118    0.86 7  302 237 
 GUY2CHZ I         3 3  1.72        19.8 0.36                           302 237 
 RREF HZ EP   4    3 2 17.31                             116   -1.77 0  321 231 
 CBOC HZ EP   4    3 2 21.74                             115    1.52 0  337 254 
 CBOC HE ES   4    3 2 57.23                             115   -1.11 0  337 254 
 CBOC HZ I         3 3  4.15         9.5 0.44            116            337 254 
 TOL  SZ EP        3 2 21.54                             115    0.55 7  342 226 
 TOL  SN ES   4    3 2 58.38                             115   -1.34 0  342 226 
 TOL  SZ I         3 3  8.07        21.7 0.48            116            342 226 
 SDV  BZ EP   4    3 2 21.58                             113   -1.31 0  361  49 
 SDV  BE ES   4    3 3  0.40                             113   -2.69 0  361  49 
 MON  HZ EP     D  3 2 22.11                             113   -0.81 6  364 309 
 MON  HN ES        3 3  3.02                             113   -0.13 6  364 309 
 MON  HZ I         3 3  5.54        11.0 0.16            115            364 309 
 PRA  HZ EP        3 2 25.33                             112   -0.43 6  388 211 
 PRA  HZ I         3 2 26.13        12.9 0.20            114            388 211 
 ORTC HZ EP        3 2 26.15                             111   -0.12 6  393 218 
 SJC  HZ EP     D  3 2 28.75                             110   -0.58 5  419 327 
 SJC  HN ES   4    3 3 13.16                             110   -1.40 0  419 327 
 SJC  HZ I         3 3 15.48        11.8 0.40            112            419 327 
                                                                                
