 2011  126 0225 56.7 L   7.313 -72.997  9.2  RSN  6 0.2 1.8LRSN                1
 GAP=165        0.48       1.5     4.1  4.6 -0.3849E+01 -0.8621E+01  0.3461E+01E
 Epicentro: CHARTA - SANTANDER                                                 3
 ACTION:UP  11-02-08 08:42 OP:pat  STATUS:               ID:20110126022556 L   I
 2011-01-26-0225-01S.COL___138                                                 6
 STAT SP IPHASW D HRMM SECON CODA AMPLIT PERI AZIMU VELO SNR AR TRES W  DIS CAZ7
 GIR2 SZ IP        226  2.74                              47     0.110   34 220 
 BTL  SZ IP        226  5.71                              47     0.110   53 214 
 BTL  SZ ES   2    226 12.26                              47    -0.3 5   53 214 
 GRA  SZ EP   1    226  7.79                              47     0.2 7   67  19 
 GRA  SZ ES   1    226 15.99                              47    -0.1 7   67  19 
 GRA  SZ I         226 17.91        63.0 0.61                            67  19 
 BAR2 SZ EP   2    226 10.24                              47     0.2 5   82 195 
 BAR2 SZ ES   2    226 20.04                              47    -0.4 5   82 195 
 BAR2 SZ I         226 21.68        40.7 0.17                            82 195 
 OCA  SZ EP   1    226 13.53                                    -0.4 7  108 341 
 OCA  SZ ES   1    226 27.42                                     0.1 7  108 341 
 OCA  SZ I         226 28.67        18.5 0.15                           108 341 
 RUS  HZ EP   2    226 21.57                              47    -0.1 5  157 183 
 RUS  HN ES   1    226 41.10                              47     0.0 7  157 183 
 RUS  HZ I         226 45.43         6.0 0.20                           157 183 
                                                                                
