 2016  626 0652 22.7 L   6.794 -73.154142.0  RSN  7 0.4 1.6LRSN                1
 GAP=136        0.91       3.7     3.8  6.5 -0.1654E+01  0.6957E+01  0.2455E+01E
 Epicentro: LOS SANTOS - SANTANDER                                             3
 ACTION:UPD 16-07-21 22:23 OP:rebc STATUS:               ID:20160626065222 L   I
 OLDACT:REG 16-06-26 13:41 OP:ak   STATUS:               ID:20160626064743     3
 2016-06-26-0647-43M.COL___318                                                 6
 STAT SP IPHASW D HRMM SECON CODA AMPLIT PERI AZIMU VELO AIN AR TRES W  DIS CAZ7
 BRR  HZ IP     C  652 43.57                             152    0.1210 70.7 299 
 BRR  HE ES        653  0.07                             152    0.4610 70.7 299 
 BRR  HZ I         653  1.05        11.3 0.10                          70.7 299 
 PAM  EZ EP        652 44.73                             150    0.1110 78.5  40 
 PAM  EN ES        653  1.69                             150   -0.0110 78.5  40 
 PAM  EZ I         653  3.64         9.3 0.56                          78.5  40 
 RUS  HZ EP        652 45.88                             143   -0.1910 99.9 175 
 RUS  HN ES        653  4.15                             143   -0.1310 99.9 175 
 RUS  HZ I         653  6.42         4.7 0.34                          99.9 175 
 PTB  HZ EP        652 48.52                             131   -0.78 9  147 259 
 PTB  HN ES        653  9.50                             131   -0.52 9  147 259 
 PTB  HZ I         653 12.66         3.0 0.31                           147 259 
 SPBC HZ EP   2    652 50.95                             128    0.11 5  162 219 
 SPBC HN ES        653 12.99                             128    0.23 9  162 219 
 SPBC HZ I         653 15.20         5.8 0.10                           162 219 
 ZAR  HZ EP        652 54.82                             122   -0.06 9  203 292 
 ZAR  HE ES        653 19.88                             122   -0.06 9  203 292 
 ZAR  HZ I         653 22.35         4.0 0.16                           203 292 
 URE  HN ES   4    653 33.16                             113   -2.23 0  283 292 
 GUY2CHZ EP        653  6.81                             112    0.77 7  300 235 
 GUY2CHN ES        653 40.31                             112    0.50 7  300 235 
 GUY2CHZ I         653 48.28         1.5 0.30                           300 235 
                                                                                
