 2011  626 0104 14.1 L   6.786 -73.079140.0  RSN  8 0.3 1.7LRSN                1
 GAP=146        0.62       3.4     7.0  6.9 -0.3171E+01 -0.1566E+02  0.9297E+00E
 Epicentro: LOS SANTOS - SANTANDER                                             3
 ACTION:UP  11-07-14 19:08 OP:ep   STATUS:               ID:20110626010414 L   I
 2011-06-26-0102-40S.COL___140                                                 6
 STAT SP IPHASW D HRMM SECON CODA AMPLIT PERI AZIMU VELO SNR AR TRES W  DIS CAZ7
 BAR2 SZ EP        1 4 32.88                             170    -0.110   24 208 
 BAR2 SZ ES   2    1 4 47.34                             170    -0.5 5   24 208 
 BAR2 SZ I         1 4 48.57        14.7 0.31                            24 208 
 BTL  SZ EP        1 4 33.10                             169     0.110   25 305 
 PAM  SZ EP   3    1 4 35.64                             151     0.2 2   74  34 
 BRR  HZ EP        1 4 34.89                             149    -0.110   78 297 
 BRR  HZ I         1 4 35.22        19.5 0.09                            78 297 
 BRR  HN ES   1    1 4 51.79                             149     0.4 7   78 297 
 RUS  HZ EP        1 4 37.19                             143     0.110   99 180 
 RUS  HN ES   3    1 4 54.84                             143    -0.3 2   99 180 
 RUS  HZ I         1 4 57.54         3.3 0.30                            99 180 
 BRI  SZ ES   3    1 4 56.16                             140     0.7 2  107  17 
 GRA  SZ EP        1 4 38.93                             136     0.210  125  14 
 GRA  SZ ES   1    1 4 58.11                             136     0.1 7  125  14 
 GRA  SZ I         1 5  0.66         7.8 0.36                           125  14 
 OCA  SZ EP        1 4 42.03                             128    -0.1 9  163 351 
 OCA  SZ ES   2    1 5  3.20                             128    -0.9 5  163 351 
 OCA  SZ I         1 5  7.95         5.5 0.50                           163 351 
                                                                                
