 2012  726 0822 18.7 L   6.796 -73.153144.8  RSN  6 0.5 1.5LRSN                1
 GAP=182        1.14       9.1     8.9 10.8  0.3497E+02 -0.2602E+01 -0.3142E+02E
 Epicentro: LOS SANTOS - SANTANDER                                             3
 ACTION:UPD 12-08-14 11:45 OP:ep   STATUS:               ID:20120726082218 L   I
 2012-07-26-0820-00M.COL___215                                                 6
 STAT SP IPHASW D HRMM SECON CODA AMPLIT PERI AZIMU VELO AIN AR TRES W  DIS CAZ7
 BAR2 SZ EP   1    822 38.19                             171     0.0 7   23 188 
 BAR2 SZ ES   1    822 52.55                             171    -0.8 7   23 188 
 BAR2 SZ I         822 54.60         9.4 0.29            165             23 188 
 BRR  HZ EP   1    822 39.86                             152     0.2 7   71 299 
 BRR  HN ES   1    822 56.96                             152     0.9 7   71 299 
 RUS  HZ EP   1    822 42.78                             144     0.5 7  100 176 
 RUS  HZ I         822 43.53         3.9 0.19            142            100 176 
 RUS  HE ES   1    823  1.04                             144     0.3 7  100 176 
 PTB  HZ EP   1    822 45.13                             132    -0.4 7  147 259 
 PTB  HN ES   1    823  5.77                             132    -0.6 7  147 259 
 PTB  HZ I         823 11.67         3.1 0.23            128            147 259 
 OCA  HZ EP   1    822 46.42                             129    -0.5 7  161 353 
 ZAR  HZ EP   1    822 51.16                             122     0.2 6  204 292 
 ZAR  HE ES   1    823 16.48                             122     0.3 6  204 292 
 ZAR  HZ I         823 21.88         3.8 0.18            120            204 292 
