 2012  826 0914 19.2 L   6.778 -73.160155.1  RSN  7 0.3 1.7LRSN                1
 GAP=181        0.60       4.1     4.7  8.6  0.2891E+01 -0.6123E+01  0.4869E+01E
 Epicentro: LOS SANTOS - SANTANDER                                             3
 ACTION:UPD 12-09-10 11:58 OP:ep   STATUS:               ID:20120826091419 L   I
 2012-08-26-0910-00M.COL___218                                                 6
 STAT SP IPHASW D HRMM SECON CODA AMPLIT PERI AZIMU VELO AIN AR TRES W  DIS CAZ7
 BAR2 SZ EP   1    914 39.61                             172   -0.25 7 20.7 187 
 BAR2 SZ I         914 58.57         7.9 0.19                          20.7 187 
 GIR2 SZ EP   1    914 39.89                             167   -0.10 7 33.5 354 
 BRR  HZ EP   1    914 41.65                             154    0.34 7 71.1 301 
 BRR  HZ I         914 41.92        14.9 0.20                          71.1 301 
 BRR  HE ES   1    914 59.00                             154    0.41 7 71.1 301 
 RUS  HZ EP   1    914 44.09                             146    0.42 7 98.3 175 
 RUS  HN ES   2    915  2.43                             146   -0.37 5 98.3 175 
 RUS  HZ I         915  3.64         4.0 0.46                          98.3 175 
 PTB  HZ EP   1    914 46.56                             134   -0.16 7  146 260 
 PTB  HN ES   1    915  7.88                             134   -0.35 7  146 260 
 PTB  HZ I         915 12.29         2.8 0.08                           146 260 
 OCA  HN ES   1    915 10.92                             131   -0.31 7  163 354 
 ZAR  HE ES   1    915 18.00                             124    0.07 6  204 293 
 ZAR  HZ I         915 24.87         7.6 0.41                           204 293 
                                                                                
