 2013  326 0026 37.5 L   6.815 -73.172149.4  RSN  5 0.5 1.2LRSN                1
 GAP=133        1.01       7.0     5.8 11.6 -0.2039E+00  0.4409E+01  0.7113E+01E
 Epicentro: LOS SANTOS - SANTANDER                                             3
 ACTION:UPD 13-04-09 14:04 OP:ep   STATUS:               ID:20130326002637 L   I
 2013-03-26-0020-00M.COL___244                                                 6
 STAT SP IPHASW D HRMM SECON CODA AMPLIT PERI AZIMU VELO AIN AR TRES W  DIS CAZ7
 BRR  HN ES   1    027 16.13                             154    0.65 7 67.8 298 
 BRR  HZ I         027 19.83         4.5 0.14            155           67.8 298 
 PAM  SZ EP        027  0.25                             151    0.1610 78.0  42 
 PAM  SN ES   1    027 17.10                             151   -0.65 7 78.0  42 
 PAM  SZ I         027 18.72         3.7 0.38            156           78.0  42 
 RUS  HZ EP   1    027  1.89                             144    0.19 7  103 175 
 RUS  HE ES   1    027 20.91                             144    0.29 7  103 175 
 RUS  HZ I         027 21.96         1.5 0.34            148            103 175 
 PTB  HZ EP   1    027  4.14                             133   -0.36 7  145 258 
 PTB  HN ES   1    027 24.67                             133   -0.93 7  145 258 
 PTB  HZ I         027 28.58         2.2 0.32            136            145 258 
 ZAR  HN ES   1    027 35.54                             124    0.51 6  201 292 
                                                                                
