 2013 1226 0823  7.2 L   6.834 -73.156130.9  RSN  6 0.4 1.4LRSN                1
 GAP=182        0.89       3.2     5.0 10.0  0.7062E+00  0.6998E+01 -0.9161E+01E
 Epicentro: LOS SANTOS - SANTANDER                                             3
 ACTION:UPD 14-01-13 10:21 OP:ep   STATUS:               ID:20131226082307 L   I
 OLDACT:UP  13-12-26 12:24 OP:mh   STATUS:               ID:20131226082000     3
 OLDACT:REG 13-12-26 08:58 OP:mh   STATUS:               ID:20131226082000     3
 2013-12-26-0820-00M.COL___285                                                 6
 STAT SP IPHASW D HRMM SECON CODA AMPLIT PERI AZIMU VELO AIN AR TRES W  DIS CAZ7
 BAR2 SZ EP   1    823 26.14                             168    0.97 8 26.8 186 
 BAR2 SZ I         823 42.38         5.1 0.15            176           26.8 186 
 RUS  HZ EP        823 29.79                             139   -0.0710  104 176 
 RUS  HN ES        823 47.39                             139   -0.1110  104 176 
 RUS  HZ I         823 49.82         3.9 0.37            150            104 176 
 PTB  HZ EP   1    823 32.71                             128   -0.29 7  147 257 
 PTB  HN ES   1    823 52.86                             128   -0.23 7  147 257 
 PTB  HZ I         823 57.99         3.3 0.09            137            147 257 
 OCA  HZ EP        823 33.94                             127   -0.13 9  156 353 
 OCA  HN ES        823 54.78                             127   -0.21 9  156 353 
 OCA  HZ I         824  6.33         2.4 0.13            130            156 353 
 SPBC HZ EP        823 34.34                             125   -0.52 9  165 218 
 SPBC HN ES        823 56.61                             125    0.21 9  165 218 
 SPBC HZ I         823 59.14         3.3 0.26            135            165 218 
 ZAR  HZ EP        823 39.11                             119    0.61 9  202 291 
 ZAR  HN ES        824  2.87                             119   -0.01 9  202 291 
 ZAR  HZ I         824 11.49         2.5 0.07            125            202 291 
                                                                                
