 2017  326 0909 32.3 L   7.440 -73.208135.8  RSN  4 0.1 1.6LRSN                1
 GAP=225        0.32       3.6     2.1  3.1 -0.4318E+01  0.3168E+01 -0.4087E+01E
 Epicentro: EL PLAYON - SANTANDER                                              3
 ACTION:UPD 17-05-25 18:45 OP:jn   STATUS:               ID:20170326090932 L   I
 OLDACT:REG 17-03-26 13:01 OP:cog  STATUS:               ID:20170326090739     3
 2017-03-26-0908-00M.COL___353                                                 6
 STAT SP IPHASW D HRMM SECON CODA AMPLIT PERI AZIMU VELO AIN AR TRES W  DIS CAZ7
 PAM  EZ EP        9 9 52.41                             156    0.1010 57.2 101 
 PAM  EN ES        910  7.83                             156   -0.1010 57.2 101 
 PAM  EZ I         910 10.39         8.1 0.54            158           57.2 101 
 BRR  HZ EP        9 9 52.07                             152   -0.0310 66.7 237 
 BRR  HE ES        910  7.62                             152    0.0610 66.7 237 
 BRR  HZ I         910  8.09        10.8 0.38            150           66.7 237 
 BAR2 EZ ES        910 11.33                             143    0.0210 93.8 178 
 PTB  HE EP        910  0.57                             125   -0.05 9  170 234 
 PTB  HN ES        910 22.69                             125   -0.03 9  170 234 
 PTB  HE I         910 30.28         3.7 0.30            125            170 234 
                                                                                
