 2012  126 0333 21.1 L   6.738 -73.142147.0  RSN  7 0.3 1.6LRSN                1
 GAP=140        0.79       4.5     5.0  6.2 -0.3493E+01  0.3303E+01  0.4214E+01E
 Epicentro: JORDAN - SANTANDER                                                 3
 ACTION:UP  12-02-03 08:20 OP:REBC STATUS:               ID:20120126033321 L   I
 2012-01-26-0330-00M.COL___188                                                 6
 STAT SP IPHASW D HRMM SECON CODA AMPLIT PERI AZIMU VELO SNR AR TRES W  DIS CAZ7
 BAR2 SZ EP        333 40.86                             173     0.110   17 196 
 BAR2 SZ ES   1    333 55.63                             173    -0.5 7   17 196 
 BAR2 SZ I         333 57.72         9.4 0.25                            17 196 
 GIR2 SZ EP        333 41.04                             165    -0.110   38 351 
 GIR2 SZ ES   2    333 57.29                             165     0.5 5   38 351 
 BRR  HZ IP     C  333 42.81                             151     0.210   75 303 
 BRR  HZ I         333 43.08        19.5 0.12                            75 303 
 BRR  HE ES   1    334  0.06                             151     0.7 7   75 303 
 PAM  SZ EP        333 43.72                             149    -0.110   83  36 
 PAM  SN ES   1    334  1.13                             149    -0.3 7   83  36 
 RUS  HZ EP   1    333 44.93                             146     0.4 7   94 176 
 RUS  HN ES   1    334  2.73                             146     0.0 7   94 176 
 RUS  HZ I         334  4.80         3.6 0.32                            94 176 
 PTB  HZ EP        333 47.83                             132    -0.3 9  147 261 
 PTB  HE ES   1    334  8.71                             132    -0.5 7  147 261 
 CHI  HZ EP   1    333 58.11                             118    -0.1 6  242 196 
 CHI  HN ES   2    334 27.56                             118     0.5 4  242 196 
 CHI  HZ I         334 32.61         1.3 0.22                           242 196 
                                                                                
