 2017  826 0858 23.2 L   6.821 -73.064147.9  RSN  6 0.3 1.0LRSN                1
 GAP=247        0.52       3.1     4.1  4.1  0.3164E+01  0.1536E+01  0.1401E+01E
 Epicentro: LOS SANTOS - SANTANDER                                             3
 ACTION:UPD 17-09-04 20:24 OP:rebc STATUS:               ID:20170826085823 L   I
 OLDACT:REG 17-08-26 13:52 OP:osc  STATUS:               ID:20170826085736     3
 2017-08-26-0858-00M.COL___402                                                 6
 STAT SP IPHASW D HRMM SECON CODA AMPLIT PERI AZIMU VELO AIN AR TRES W  DIS CAZ7
 BAR2 EZ EP        858 43.23                             169    0.0210 28.5 207 
 BAR2 EZ ES        858 58.83                             169    0.0210 28.5 207 
 BAR2 EZ I         859  0.48         2.8 0.15            162           28.5 207 
 BRR  HZ EP        858 45.12                             151    0.1210 78.3 294 
 BRR  HE ES        859  2.06                             151    0.0610 78.3 294 
 RUS  HZ EP        858 47.48                             144    0.1610  103 181 
 RUS  HN ES        859  5.89                             144   -0.2410  103 181 
 RUS  HZ I         859  7.15         0.9 0.28            141            103 181 
 SPBC HZ EP        858 52.41                             128   -0.18 9  171 221 
 SPBC HE ES        859 15.65                             128    0.14 9  171 221 
 SPBC HZ I         859 22.27         1.7 0.13            126            171 221 
 ZAR  HE ES   2    859 21.71                             122   -0.89 4  212 291 
 NOR  HE ES   2    859 29.09                             118    0.40 4  243 235 
                                                                                
