 2011 1226 0203 17.0 L   6.769 -73.101146.6  RSN  4 0.3 1.1LRSN                1
 GAP=144        0.59       4.7     4.5  7.5 -0.4894E+01  0.7107E+01 -0.1633E+01E
 Epicentro: LOS SANTOS - SANTANDER                                             3
 *PTB                                                                          3
 ACTION:UPD 12-07-13 16:18 OP:ep   STATUS:               ID:20111226020317 L   I
 2011-12-26-0200-00M.COL___187                                                 6
 STAT SP IPHASW D HRMM SECON CODA AMPLIT PERI AZIMU VELO AIN AR TRES W  DIS CAZ7
 BRR  HZ EP   1    2 3 38.52                             151   -0.07 7 77.2 299 
 BRR  HE ES   1    2 3 55.76                             151    0.34 7 77.2 299 
 PAM  SN ES   1    2 3 56.27                             151   -0.41 7 77.2  35 
 BRR  HZ I         2 3 56.77         3.0 0.16                          77.2 299 
 PAM  SZ EP   1    2 3 39.71                             151    0.42 7 77.2  35 
 PAM  SZ I         2 3 39.86         2.1 0.17                          77.2  35 
 RUS  HE ES   1    2 3 59.01                             145    0.05 7 96.9 179 
 PTB  HZ EP   1    2 3 44.16                             131   -0.26 7  152 260 
 PTB  HE ES   1    2 4  5.69                             131   -0.12 7  152 260 
                                                                                
