 2016 1126 0839 41.4 L   6.807 -73.175149.0  RSN 15 0.5 2.3LRSN                1
 GAP= 63        1.16       4.7     3.7  6.3  0.1678E+01  0.3376E+01  0.3495E+01E
 Epicentro: LOS SANTOS - SANTANDER                                             3
 ACTION:UPD 17-10-26 21:12 OP:lp   STATUS:               ID:20161126083941 L   I
 OLDACT:UP  16-11-26 16:29 OP:dani STATUS:               ID:20161126083739     3
 OLDACT:UP  16-11-26 16:29 OP:dani STATUS:               ID:20161126083739     3
 OLDACT:UP  16-11-26 16:29 OP:dani STATUS:               ID:20161126083739     3
 OLDACT:UP  16-11-26 16:25 OP:dani STATUS:               ID:20161126083739     3
 OLDACT:UP  16-11-26 16:25 OP:dani STATUS:               ID:20161126083739     3
 OLDACT:REG 16-11-26 12:16 OP:dani STATUS:               ID:20161126083739     3
 2016-11-26-0838-00M.COL___349                                                 6
 STAT SP IPHASW D HRMM SECON CODA AMPLIT PERI AZIMU VELO AIN AR TRES W  DIS CAZ7
 BAR2 EZ EP        840  1.37                             170   -0.0610 23.7 182 
 BAR2 EZ ES        840 16.22                             170   -0.8310 23.7 182 
 BAR2 EZ I         840 17.62        91.1 0.30            166           23.7 182 
 BRR  HZ EP     C  840  3.16                             154    0.4310 68.0 299 
 BRR  HN ES        840 20.27                             154    0.9010 68.0 299 
 BRR  HZ I         840 24.21        48.2 0.38            150           68.0 299 
 PAM  EZ EP        840  4.38                             151    0.3310 78.9  42 
 PAM  EN ES        840 21.62                             151   -0.1010 78.9  42 
 PAM  EZ I         840 23.85        52.0 0.70            157           78.9  42 
 PTB  HZ EP        840  7.89                             133   -0.48 9  145 258 
 PTB  HN ES        840 29.02                             133   -0.38 9  145 258 
 PTB  HZ I         840 34.83        29.8 0.62            130            145 258 
 TAM  HZ EP        840  9.82                             131    0.18 9  158 105 
 TAM  HN ES        840 31.67                             131    0.00 9  158 105 
 TAM  HZ I         840 33.94         9.1 0.25            134            158 105 
 ZAR  HZ EP        840 13.70                             124   -0.02 9  201 292 
 ZAR  HN ES        840 39.05                             124    0.11 9  201 292 
 ZAR  HZ I         840 46.17        26.4 0.36            122            201 292 
 CHI  HZ EP        840 19.62                             118    0.35 8  249 194 
 CHI  HN ES        840 48.80                             118   -0.00 8  249 194 
 CHI  HZ I         840 51.83         7.0 0.34            117            249 194 
 ROSC BZ EP   9    840 21.03                             117    1.44 0  252 210 
 ROSC BN ES        840 52.26                             117    1.44 8  252 210 
 ROSC BZ I         840 56.25        13.6 0.40            116            252 210 
 URE  HZ EP        840 21.59                             115   -0.67 7  281 292 
 URE  HN ES   3    840 52.68                             115   -1.46 2  281 292 
 URE  HZ I         841  5.19        13.9 0.38            114            281 292 
 PTGC HZ EP   3    840 24.59                             112   -1.02 2  311 158 
 PTGC HN ES   4    840 57.67                             112   -2.43 0  311 158 
 PTGC HZ I         841  0.82        11.0 0.42            112            311 158 
 LL6C HZ EP   9    840  7.14                             111   -20.0 0  324 358 
 LL6C HN ES        840 42.54                             116   -0.28 7  324 358 
 LL6C HZ I         840 46.12         5.8 0.32            112            324 358 
 CBOC HZ EP   4    840 29.85                             111    1.72 0  331 252 
 CBOC HN ES   4    841  6.44                             111    1.87 0  331 252 
 CBOC HZ I         841 21.61         2.8 0.44            110            331 252 
 ORTC HZ EP   3    840 36.50                             107    1.22 1  394 216 
 ORTC HE ES   3    841 18.93                             107    1.62 1  394 216 
 ORTC HZ I         841 25.01         6.2 0.63            107            394 216 
 SJC  HZ EP        840 37.01                             106    0.22 6  407 327 
 SJC  HN ES   4    841 16.77                             106   -3.23 0  407 327 
 SJC  HZ I         841 31.16         5.3 0.39            107            407 327 
 CRJC HZ EP   3    840 41.68                             104   -2.25 1  467   4 
 CRJC HN ES   4    841 28.84                             104   -3.86 0  467   4 
 CRJC HZ I         841 40.52         6.9 0.54            105            467   4 
                                                                                
