 2017 1226 0340  7.6 L   6.828 -73.158139.6  RSN  7 0.3 1.6LRSN                1
 GAP=144        0.76       3.0     3.6  5.2 -0.4676E+01  0.7446E+01 -0.1248E+01E
 Epicentro: LOS SANTOS - SANTANDER                                             3
 ACTION:UPD 18-01-04 13:24 OP:rebc STATUS:               ID:20171226034007 L   I
 OLDACT:DUP 17-12-26 15:40 OP:osc  STATUS:               ID:20171226033409d    3
 OLDACT:REG 17-12-26 13:01 OP:osc  STATUS:               ID:20171226033408     3
 2017-12-26-0338-00M.COL___469                                                 6
 STAT SP IPHASW D HRMM SECON CODA AMPLIT PERI AZIMU VELO AIN AR TRES W  DIS CAZ7
 BAR2 EZ EP        340 26.57                             169    0.0310 26.2 186 
 BAR2 EZ ES        340 41.12                             169   -0.2010 26.2 186 
 BAR2 EZ I         340 42.30         6.3 0.30            170           26.2 186 
 PAM  EZ EP        340 29.42                             150    0.3710 75.9  42 
 PAM  EN ES        340 45.96                             150    0.1610 75.9  42 
 PAM  EZ I         340 48.35         6.8 0.46            153           75.9  42 
 PTB  HZ EP        340 33.57                             131   -0.42 9  147 258 
 PTB  HE ES        340 55.11                             131    0.51 9  147 258 
 PTB  HZ I         340 56.39         2.8 0.24            131            147 258 
 OCA  HZ EP        340 34.91                             129   -0.20 9  157 353 
 OCA  HN ES        340 56.20                             129   -0.38 9  157 353 
 OCA  HZ I         340 57.60         8.0 0.38            130            157 353 
 SPBC HZ EP        340 35.83                             127    0.06 9  165 218 
 SPBC HE ES        340 57.58                             127   -0.18 9  165 218 
 SPBC HZ I         341  0.13         5.5 0.20            129            165 218 
 ZAR  HZ EP        340 39.38                             121    0.00 9  202 291 
 ZAR  HE ES        341  4.41                             121    0.22 9  202 291 
 ZAR  HZ I         341 10.28         4.7 0.22            122            202 291 
 GUY2CHZ EP        340 51.48                             111    0.48 7  302 234 
 GUY2CHN ES        341 24.37                             111   -0.49 7  302 234 
 GUY2CHZ I         341 37.69         1.1 0.60                           302 234 
 SJC  HZ EP   4    341  1.03                             105   -1.52 0  406 327 
 SJC  HN ES   4    341 42.67                             105   -2.76 0  406 327 
                                                                                
