 2011  526 0236  0.8 L   6.774 -73.085143.4  RSN 10 0.3 1.9LRSN                1
 GAP=163        0.71       3.3     5.2  5.7 -0.4142E+01  0.4101E+01 -0.1569E+01E
 Epicentro: LOS SANTOS - SANTANDER                                             3
 ACTION:UP  11-06-29 08:56 OP:tino STATUS:               ID:20110526023600 L   I
 2011-05-26-0234-28S.COL___115                                                 6
 STAT SP IPHASW D HRMM SECON CODA AMPLIT PERI AZIMU VELO SNR AR TRES W  DIS CAZ7
 BAR2 SZ EP   1    236 20.03                             170    -0.1 7   23 208 
 BAR2 SZ ES   1    236 35.00                             170    -0.2 7   23 208 
 BAR2 SZ I         236 37.54        16.9 0.35                            23 208 
 BTL  SZ EP   1    236 20.17                             169     0.0 7   26 308 
 GIR2 SZ EP   1    236 20.11                             165    -0.2 7   36 340 
 BRR  HZ EP   1    236 21.89                             150    -0.2 7   78 298 
 BRR  HZ I         236 23.80        23.2 0.14                            78 298 
 BRR  HN ES   1    236 39.02                             150     0.3 7   78 298 
 RUS  HZ EP   1    236 24.14                             144     0.0 7   98 180 
 RUS  HN ES   1    236 42.54                             144     0.3 7   98 180 
 RUS  HZ I         236 43.98         8.4 0.38                            98 180 
 BRI  SZ EP   1    236 24.60                             141     0.1 7  109  17 
 BRI  SZ I         236 45.50         8.0 0.35                           109  17 
 GRA  SZ EP   1    236 25.87                             136     0.0 7  127  14 
 GRA  SZ I         236 27.19        10.3 0.24                           127  14 
 GRA  SZ ES   1    236 45.45                             136     0.0 7  127  14 
 OCA  SZ EP   1    236 28.82                             128    -0.5 7  164 351 
 OCA  SZ ES   1    236 52.05                             128     0.5 7  164 351 
 HEL  HZ EP   1    236 42.39                             114     0.8 6  278 257 
 HEL  HN ES   1    237 12.75                             114    -0.6 6  278 257 
 HEL  HZ I         237 18.25         4.7 0.40                           278 257 
 PRA  HZ EP   1    236 54.54                             106     0.2 4  393 211 
                                                                                
