 2015  426 0903  9.2 L   6.817 -73.156143.4  RSN 21 0.4 2.5LRSN                1
 GAP=134        0.85       2.0     2.9  4.0 -0.1356E+01  0.3720E+01 -0.1122E+00E
 Epicentro: LOS SANTOS - SANTANDER                                             3
 ACTION:UPD 15-06-03 16:57 OP:cam  STATUS:               ID:20150426090309 L   I
 OLDACT:REG 15-04-26 13:27 OP:ak   STATUS:               ID:20150426085749     3
 2015-04-26-0857-49M.COL___269                                                 6
 STAT SP IPHASW D HRMM SECON CODA AMPLIT PERI AZIMU VELO AIN AR TRES W  DIS CAZ7
 BAR2 EZ IP     D  9 3 28.63                             170    0.0110 25.0 187 
 BAR2 EZ ES        9 3 43.56                             170   -0.1810 25.0 187 
 BAR2 EZ I         9 3 45.77        47.3 0.14            170           25.0 187 
 BRR  HZ IP     D  9 3 30.52                             153    0.5010 69.3 298 
 BRR  HE ES        9 3 47.03                             153    0.8010 69.3 298 
 BRR  HZ I         9 3 52.84        40.4 0.14            152           69.3 298 
 PAM  SZ IP     C  9 3 31.53                             151    0.3710 76.7  41 
 PAM  SN ES        9 3 47.91                             151   -0.3510 76.7  41 
 PAM  SZ I         9 3 50.82        72.6 0.58            154           76.7  41 
 RUS  HZ EP        9 3 32.54                             143   -0.3610  103 175 
 RUS  HN ES        9 3 51.38                             143    0.0310  103 175 
 RUS  HZ I         9 3 53.89        43.2 0.50            145            103 175 
 PTB  HZ EP        9 3 35.42                             132   -0.52 9  147 258 
 PTB  HN ES        9 3 56.45                             132   -0.32 9  147 258 
 PTB  HZ I         9 4  1.47        39.8 0.19            133            147 258 
 SPBC HZ EP        9 3 37.64                             128    0.02 9  164 218 
 SPBC HN ES        9 3 59.71                             128   -0.05 9  164 218 
 SPBC HZ I         9 4  4.79        78.5 0.25            130            164 218 
 ZAR  HZ EP        9 3 41.32                             122   -0.02 9  202 292 
 ZAR  HN ES        9 4  6.69                             122    0.30 9  202 292 
 ZAR  HZ I         9 4  8.87        36.1 0.08            123            202 292 
 NOR  HZ EP        9 3 44.83                             118   -0.01 8  235 234 
 NOR  HZ E         9 3 44.83                                            235 234 
 NOR  HN ES        9 4 11.96                             118   -0.65 8  235 234 
 NOR  HZ I         9 4 14.82        27.2 0.28            120            235 234 
 SML  HZ EP        9 3 45.36                             117   -0.13 8  242 335 
 SML  HN ES        9 4 13.39                             117   -0.38 8  242 335 
 SML  HZ I         9 4 16.59        53.7 0.30            119            242 335 
 CHI  HZ EP        9 3 46.81                             116   -0.15 8  250 195 
 CHI  HN ES        9 4 16.28                             116   -0.11 8  250 195 
 CHI  HZ I         9 4 20.06        15.9 0.44            118            250 195 
 ROSC BZ EP   4    9 3 48.55                             116    1.22 0  254 211 
 ROSC BE ES   4    9 4 19.43                             116    2.38 0  254 211 
 HEL  HZ EP   2    9 3 49.74                             114    0.49 4  271 255 
 HEL  HN ES        9 4 19.57                             114   -0.90 8  271 255 
 GUY2CHZ EP        9 3 53.10                             112    0.35 7  301 234 
 GUY2CHN ES        9 4 27.24                             112    0.55 7  301 234 
 GUY2CHZ I         9 4 35.28        18.1 0.22                           301 234 
 LL2C HZ EP   2    9 3 52.00                             111   -0.49 4  304 354 
 LL2C HN ES        9 4 26.30                             111    0.08 7  304 354 
 LL2C HZ I         9 4 32.28        41.6 0.24            113            304 354 
 PTGC HZ IP   4 C  9 3 51.57                             111   -1.66 0  311 159 
 PTGC HN ES   4    9 4 24.66                             111   -2.89 0  311 159 
 PTGC HZ I         9 4 28.26        14.3 0.09            113            311 159 
 LL3C HZ EP   2    9 3 54.40                             110   -0.21 3  323 355 
 LL3C HN ES        9 4 30.18                             110    0.18 7  323 355 
 CBOC HZ EP        9 3 56.33                             109    0.34 7  333 252 
 CBOC HN ES        9 4 32.39                             109   -0.07 7  333 252 
 CBOC HZ I         9 4 39.14         8.4 0.36            111            333 252 
 TOL  SZ EP        9 3 58.09                             109    0.64 7  344 224 
 TOL  SN ES        9 4 35.58                             109    0.52 7  344 224 
 TOL  SZ I         9 4 40.82        12.1 0.36            110            344 224 
 MON  HZ EP   4    9 3 55.55                             108   -2.35 0  352 308 
 MON  HN ES   4    9 4 33.95                             108   -1.92 0  352 308 
 MON  HZ I         9 4 37.14         4.4 0.19            110            352 308 
 ORTC HZ EP        9 4  3.01                             106   -0.16 6  396 216 
 ORTC HN ES        9 4 45.36                             106    0.12 6  396 216 
 ORTC HZ I         9 4 52.58        10.4 0.13            107            396 216 
 SJC  HZ EP   4    9 4  2.32                             105   -2.14 0  407 327 
 SJC  HN ES   4    9 4 44.03                             105   -3.51 0  407 327 
 SJC  HZ I         9 4 49.39         5.0 0.34            107            407 327 
 CRJC HZ EP   4    9 4  8.78                             103   -2.68 0  466   4 
 CRJC HN ES   4    9 4 55.39                             103   -4.60 0  466   4 
 CRJC HZ I         9 5  2.40        11.1 0.16            105            466   4 
                                                                                
