 2016 1226 0558 59.2 L   7.281 -74.015 23.1  RSN  5 0.2 0.6LRSN                1
 GAP=196        0.48       2.0     1.2  1.8  0.9822E+00 -0.5164E+00  0.5224E+00E
 Epicentro: PUERTO WILCHES - SANTANDER                                         3
 ACTION:UPD 17-01-11 20:19 OP:rebc STATUS:               ID:20161226055859 L   I
 OLDACT:REG 16-12-26 12:50 OP:edw  STATUS:               ID:20161226055746     3
 2016-12-26-0558-00M.COL___366                                                 6
 STAT SP IPHASW D HRMM SECON CODA AMPLIT PERI AZIMU VELO AIN AR TRES W  DIS CAZ7
 BRR  HZ EP     D  559  6.09                             119   -0.3110 38.6 120 
 BRR  HE ES        559 12.17                             119    0.1710 38.6 120 
 BRR  HZ I         559 12.90         3.6 0.06            112           38.6 120 
 PTB  HZ EP        559 14.69                             102    0.1110 95.4 211 
 PTB  HN ES        559 26.53                             102   -0.0410 95.4 211 
 PTB  HZ I         559 27.15         1.0 0.26             99           95.4 211 
 ZAR  HZ EP        559 14.56                             102   -0.1010 96.0 284 
 ZAR  HN ES        559 26.77                             102    0.0710 96.0 284 
 ZAR  HZ I         559 29.48         1.2 0.10             98           96.0 284 
 BAR2 EZ EP        559 18.18                              56    0.1310  119 130 
 BAR2 EZ ES        559 32.80                              56    0.0610  119 130 
 RUS  HZ EP   2    559 27.02                              56    0.48 4  185 146 
 RUS  HE ES        559 47.63                              56   -0.22 9  185 146 
 RUS  HZ I         559 51.53         1.4 0.40             56            185 146 
                                                                                
