 2017  126 0959 22.6 L   6.735 -73.208134.0  RSN  5 0.4 1.1LRSN                1
 GAP=223        1.11       8.0     7.7  8.8  0.3252E+02  0.1927E+02 -0.8442E+01E
 Epicentro: VILLANUEVA - SANTANDER                                             3
 ACTION:UPD 17-05-22 16:03 OP:jn   STATUS:               ID:20170126095922 L   I
 OLDACT:REG 17-01-26 14:08 OP:lv   STATUS:               ID:20170126094742     3
 2017-01-26-0948-00M.COL___331                                                 6
 STAT SP IPHASW D HRMM SECON CODA AMPLIT PERI AZIMU VELO AIN AR TRES W  DIS CAZ7
 BAR2 EZ EP        959 39.92                             173   -0.7510 16.0 170 
 BAR2 EZ ES        959 54.64                             173   -0.1410 16.0 170 
 BAR2 EZ I         959 56.02         4.2 0.22            171           16.0 170 
 BRR  HZ EP        959 42.24                             151   -0.1310 69.3 307 
 BRR  HN ES        959 58.29                             151    0.5010 69.3 307 
 RUS  HN ES       10 0  2.43                             143    0.4510 94.1 172 
 RUS  HZ I        10 0  3.66         1.9 0.18            144           94.1 172 
 PTB  HZ EP        959 48.05                             131    0.17 9  140 261 
 PTB  HN ES       10 0  7.17                             131   -0.43 9  140 261 
 PTB  HZ I        10 0  9.91         1.0 0.24            130            140 261 
 ZAR  HZ EP        959 54.56                             120    0.62 9  201 295 
 ZAR  HN ES       10 0 18.19                             120   -0.20 9  201 295 
 ZAR  HZ I        10 0 24.04         1.7 0.34            120            201 295 
                                                                                
