 2010 1026 0547 16.7 L   6.766 -73.151140.8  RSN 12 0.5 2.4LRSN                1
 GAP=135        1.02       3.6     5.5  7.1 -0.3770E+01  0.6545E+01  0.3641E+01E
 Epicentro: LOS SANTOS - SANTANDER                                             3
 ACTION:UP  11-02-18 11:12 OP:tino STATUS:               ID:20101026054716 L   I
 2010-10-26-0544-09S.COL___125                                                 6
 STAT SP IPHASW D HRMM SECON CODA AMPLIT PERI AZIMU VELO SNR AR TRES W  DIS CAZ7
 BAR2 SZ IP        547 35.34                             172    -0.310   20 191 
 BAR2 SZ ES   1    547 50.30                             172    -0.1 7   20 191 
 BAR2 SZ I         547 51.64        77.0 0.24                            20 191 
 BRR  HZ IP     D  547 37.18                             151    -0.210   73 301 
 BRR  HZ I         547 37.60        93.6 0.10                            73 301 
 BRR  HE ES   1    547 54.17                             151     0.7 7   73 301 
 RUS  HZ EP        547 39.25                             144    -0.410   97 176 
 RUS  HE ES   1    547 57.67                             144     0.1 7   97 176 
 RUS  HZ I         547 59.28        33.8 0.43                            97 176 
 GUE  SZ EP        547 41.41                             137     0.210  120  12 
 GRA  SZ IP        547 42.20                             135     0.410  130  17 
 GRA  SZ I         547 43.50        42.9 0.23                           130  17 
 GRA  SZ ES   1    548  0.78                             135    -0.6 7  130  17 
 YOP  SZ EP   1    547 45.85                             126    -0.2 7  176 153 
 YOP  SE ES   1    548  9.80                             126     0.8 7  176 153 
 NOR  SZ EP   1    547 51.60                             118    -0.2 6  232 235 
 NOR  SE ES   1    548 18.34                             118    -0.9 6  232 235 
 CHI  HZ EP   1    547 53.35                             116    -0.3 6  245 195 
 CHI  HE ES   1    548 23.08                             116     0.5 6  245 195 
 CHI  HZ I         548 30.52         8.7 0.38                           245 195 
 ROSC BZ EP   1    547 54.89                             116     0.8 6  249 211 
 ROSC BZ I         548 32.04        14.9 0.40                           249 211 
 HEL  HZ EP   1    547 56.66                             114     0.2 6  271 257 
 HEL  HN ES   2    548 27.90                             114     0.4 4  271 257 
 HEL  HZ I         548 33.95        18.1 0.40                           271 257 
 GUY  SZ EP   2    548  0.67                             112     0.9 4  299 235 
 GUY  SN ES   2    548 34.19                             112     0.8 4  299 235 
 GUY  SZ I         548 42.49        15.4 0.55                           299 235 
 PRA  HZ EP   1    548  9.12                             106    -0.5 4  388 210 
 PRA  HN ES   1    548 50.37                             106    -0.5 4  388 210 
                                                                                
