 2012  326 0449 46.3 L   6.766 -73.117143.5  RSN  4 0.0 1.6LRSN                1
 GAP=142        0.30       3.2     2.9  4.9 -0.1692E+01 -0.2691E+01  0.9714E+01E
 ACTION:UP  12-03-31 23:22 OP:EP   STATUS:               ID:20120326044946 L   I
 2012-03-26-0450-00M.COL___196                                                 6
 STAT SP IPHASW D HRMM SECON CODA AMPLIT PERI AZIMU VELO SNR AR TRES W  DIS CAZ7
 BAR2 SZ EP        450  5.63                             171     0.010   21 201 
 BAR2 SZ I         450 21.96        12.2 0.22                            21 201 
 BRR  HZ EP        450  7.46                             151     0.010   76 300 
 BRR  HN ES   1    450 24.04                             151     0.0 7   76 300 
 BRR  HZ I         450 26.95         6.7 0.18                            76 300 
 PAM  SZ EP        450  8.39                             150     0.010   78  36 
 PAM  SN ES   1    450 25.51                             150     0.0 7   78  36 
 RUS  HZ EP        450  9.56                             144     0.010   97 178 
 RUS  HZ I         450 29.30         4.3 0.30                            97 178 
                                                                                
