 2017  526 0400  1.7 L   6.687 -73.418 26.6  RSN  5 0.6 0.6LRSN                1
 GAP=202        1.37       6.3     6.0 11.6  0.2368E+02  0.2942E+02 -0.3639E+00E
 Epicentro: EL CARMEN - SANTANDER                                              3
 ACTION:UPD 17-06-16 13:38 OP:jn   STATUS:               ID:20170526035959 L   I
 OLDACT:UP  17-05-26 17:48 OP:nlst STATUS:               ID:20170526035959 L   3
 OLDACT:REG 17-05-26 12:46 OP:ar   STATUS:               ID:20170526035729     3
 2017-05-26-0358-00M.COL___344                                                 6
 STAT SP IPHASW D HRMM SECON CODA AMPLIT PERI AZIMU VELO AIN AR TRES W  DIS CAZ7
 RUS  HZ EP   1    4 0 18.39                              93    0.80 7 95.3 157 
 RUS  HN ES        4 0 30.21                              93    0.2510 95.3 157 
 RUS  HZ I         4 0 35.57         1.1 0.34            136           95.3 157 
 PTB  HZ EP        4 0 18.96                              61   -0.6510  116 262 
 PTB  HN ES        4 0 33.86                              61    0.3210  116 262 
 PTB  HZ I         4 0 36.77         1.6 0.42            129            116 262 
 SPBC HE ES        4 0 37.71                              61   -0.32 9  135 212 
 ZAR  HZ EP        4 0 27.05                              61   -0.84 9  182 299 
 ZAR  HN ES        4 0 49.26                              61    0.98 9  182 299 
 YPLC HZ EP        4 0 27.68                              61   -0.39 9  183 141 
 YPLC HE ES        4 0 48.74                              61    0.13 9  183 141 
                                                                                
