 2016 1126 0927 58.7 L   6.792 -73.151148.4  RSN  4 0.1 1.2LRSN                1
 GAP=149        0.34       3.1     1.8  3.2 -0.1754E+01  0.2081E+01 -0.1286E+01E
 Epicentro: LOS SANTOS - SANTANDER                                             3
 ACTION:UPD 17-10-26 21:12 OP:lp   STATUS:               ID:20161126092758 L   I
 OLDACT:DUP 16-11-26 17:06 OP:dani STATUS:               ID:20161126091742d    3
 OLDACT:UP  16-11-26 17:05 OP:dani STATUS:               ID:20161126091741d    3
 OLDACT:DUP 16-11-26 17:03 OP:dani STATUS:               ID:20161126091741d    3
 OLDACT:UP  16-11-26 16:59 OP:dani STATUS:               ID:20161126091740     3
 OLDACT:REG 16-11-26 12:18 OP:dani STATUS:               ID:20161126091740     3
 2016-11-26-0918-00M.COL___349                                                 6
 STAT SP IPHASW D HRMM SECON CODA AMPLIT PERI AZIMU VELO AIN AR TRES W  DIS CAZ7
 BAR2 EZ EP        928 18.59                             171   -0.0510 22.4 189 
 BAR2 EZ ES        928 34.28                             171    0.1010 22.4 189 
 BAR2 EZ I         928 35.48         3.8 0.23            172           22.4 189 
 PAM  EZ EP        928 21.37                             151    0.1010 78.4  39 
 PAM  EN ES        928 38.75                             151   -0.1110 78.4  39 
 PAM  EZ I         928 41.15         2.1 0.19            154           78.4  39 
 PTB  HZ EP        928 25.79                             133   -0.04 9  147 259 
 PTB  HN ES        928 46.91                             133   -0.07 9  147 259 
 PTB  HZ I         928 52.00         2.1 0.29            134            147 259 
 ZAR  HN ES        928 56.80                             123    0.07 9  204 292 
                                                                                
