 2010  826 0714 50.8 L   6.779 -73.071140.1  RSN 17 0.5 3.2LRSN                1
 GAP=167        0.96       3.3     6.6  5.6 -0.7986E+01  0.2875E+01  0.3982E+01E
 Epicentro: LOS SANTOS - SANTANDER                                             3
 ACTION:UP  10-09-07 10:58 OP:vdl  STATUS:               ID:20100826071450 L   I
 2010-08-26-0711-29S.COL___121                                                 6
 STAT SP IPHASW D HRMM SECON CODA AMPLIT PERI AZIMU VELO SNR AR TRES W  DIS CAZ7
 BAR2 SZ IP        715  9.82                             170     0.110   24 211 
 BAR2 SZ ES   1    715 23.91                             170    -0.6 7   24 211 
 BAR2 SZ I         715 25.89       601.9 0.21                            24 211 
 BTL  SZ IP        715  9.99                             169     0.210   27 305 
 GIR2 SZ IP        715  9.93                             165     0.010   36 338 
 GIR2 SZ ES   2    715 24.74                             165    -0.1 5   36 338 
 BRR  HZ EP        715 11.72                             149    -0.110   80 297 
 BRR  HE ES        715 28.45                             149     0.210   80 297 
 BRR  HZ I         715 33.33       525.3 0.08                            80 297 
 RUS  HZ IP     C  715 13.78                             143     0.010   98 181 
 RUS  HE ES   1    715 31.86                             143     0.1 7   98 181 
 RUS  HZ I         715 33.09       172.6 0.48                            98 181 
 GUE  SZ EP        715 14.84                             138    -0.210  117   8 
 GUE  SZ I         715 15.75        81.8 0.05                           117   8 
 GRA  SZ IP        715 15.78                             136     0.310  126  14 
 GRA  SZ ES   1    715 35.48                             136     0.7 7  126  14 
 GRA  SZ I         715 36.32       289.2 0.31                           126  14 
 OCA  SZ EP        715 18.39                                    -0.6 9  164 350 
 OCA  SZ ES   1    715 40.53                             128    -0.4 7  164 350 
 OCA  SZ I         715 43.57       348.8 0.34                           164 350 
 CHI  HZ EP   1    715 28.13                             116     0.0 6  249 197 
 CHI  HE ES   2    715 56.63                             116    -0.7 4  249 197 
 CHI  HZ I         716  0.56        63.9 0.34                           249 197 
 ROSC BZ IP     C  715 29.71                             115     0.9 8  255 213 
 ROSC BE ES   2    715 58.10                             115    -0.5 4  255 213 
 ROSC BZ I         716  6.26        90.8 0.43                           255 213 
 CVER SZ EP   2    715 31.09                             114     0.1 4  273 204 
 CVER SZ I         716 12.51        93.1 0.35                           273 204 
 GUY  SZ EP        715 34.68                             111    -0.1 7  307 236 
 GUY  SE ES   2    716 10.29                             111     1.2 4  307 236 
 GUY  SZ I         716 17.87       148.0 0.51                           307 236 
 TOL  SZ EP   2    715 39.74                             108     0.4 3  348 226 
 DBB  SZ EP   1    715 38.29                                    -0.7 5  348 275 
 DBB  SZ I         716 18.98        23.1 0.35                           348 275 
 ANIL HZ EP   2    715 41.21                             107     0.4 3  362 226 
 ANIL HE ES   2    716 20.00                             107     0.1 3  362 226 
 ANIL HZ I         716 27.00       120.4 0.40                           362 226 
 PRA  HZ EP        715 43.39                             106    -1.0 6  394 211 
 PRA  HN ES   1    716 26.07                             106    -0.1 4  394 211 
 PRA  HZ I         716 31.72        67.3 0.66                           394 211 
 HORQ SZ EP   2    716  2.85                             100     1.2 2  537 227 
                                                                                
