 2017 1026 0610 55.6 L   6.771 -73.123147.7  RSN  5 0.3 1.0LRSN                1
 GAP=141        0.71       3.7     4.2  6.4 -0.3871E-01 -0.4541E+01 -0.1172E+01E
 Epicentro: LOS SANTOS - SANTANDER                                             3
 ACTION:UPD 17-11-07 19:37 OP:rebc STATUS:               ID:20171026061055 L   I
 OLDACT:REG 17-10-26 13:11 OP:dani STATUS:               ID:20171026060739     3
 2017-10-26-0608-00M.COL___399                                                 6
 STAT SP IPHASW D HRMM SECON CODA AMPLIT PERI AZIMU VELO AIN AR TRES W  DIS CAZ7
 BRR  HZ EP        611 17.21                             152    0.0410 74.9 300 
 BRR  HN ES        611 34.31                             152    0.3110 74.9 300 
 BRR  HZ I         611 37.32         1.7 0.38            151           74.9 300 
 PAM  EZ EP        611 17.95                             151   -0.1310 78.4  37 
 PAM  EZ I         611 38.29         1.8 0.52            141           78.4  37 
 RUS  HZ EP        611 19.54                             145    0.2310 97.2 177 
 RUS  HN ES        611 37.49                             145   -0.3010 97.2 177 
 RUS  HZ I         611 39.22         1.6 0.50            148           97.2 177 
 PTB  HZ EP        611 22.55                             132   -0.34 9  150 260 
 PTB  HE ES        611 43.84                             132   -0.34 9  150 260 
 PTB  HZ I         611 48.20         1.0 0.13            135            150 260 
 SPBC HZ EP        611 24.44                             130    0.28 9  162 220 
 SPBC HN ES        611 46.70                             130    0.26 9  162 220 
 SPBC HZ I         611 50.07         1.5 0.13            134            162 220 
                                                                                
