 2012  126 0859  8.2 L   6.654 -73.580105.8  RSN  6 0.5 1.8LRSN                1
 GAP=116        1.09       7.9     5.7  9.4  0.1386E+02  0.1264E+02 -0.7674E-02E
 Epicentro: EL CARMEN DE CHUCURI - SANTANDER                                   3
 ACTION:UP  12-02-03 08:21 OP:REBC STATUS:               ID:20120126085908 L   I
 2012-01-26-0854-49S.COL___158                                                 6
 STAT SP IPHASW D HRMM SECON CODA AMPLIT PERI AZIMU VELO SNR AR TRES W  DIS CAZ7
 BAR2 SZ EP   1    859 24.26                             155     0.4 7   45  99 
 BAR2 SZ ES        859 36.00                             155    -0.110   45  99 
 BAR2 SZ I         859 37.41        34.1 0.28                            45  99 
 BRR  HZ EP        859 23.91                             152     0.010   52 344 
 BRR  HZ I         859 24.79        20.8 0.09                            52 344 
 BRR  HE ES   1    859 36.72                             152     0.5 7   52 344 
 PTB  HZ EP   1    859 27.19                             134    -0.2 7   98 263 
 PTB  HN ES   1    859 41.61                             134    -0.7 7   98 263 
 RUS  HZ EP   1    859 28.72                             133     0.4 7  101 147 
 RUS  HZ I         859 29.54        10.9 0.04                           101 147 
 RUS  HE ES   2    859 44.25                             133     0.3 5  101 147 
 PAM  SZ EP   1    859 29.42                             127    -1.0 7  123  52 
 ZAR  HZ EP   1    859 34.97                             117     0.5 7  169 303 
 ZAR  HE ES   2    859 55.53                             117     0.5 5  169 303 
 ZAR  HZ I         859 57.84         5.5 0.44                           169 303 
                                                                                
