 2011 1226 0308 39.2 L   6.678 -73.041134.5  RSN  4 0.3 1.2LRSN                1
 GAP=211        0.63       8.2     6.8  7.5 -0.1434E+02 -0.4422E+01  0.3869E+01E
 Epicentro: ARATOCA - SANTANDER                                                3
 ACTION:UPD 12-07-13 16:18 OP:ep   STATUS:               ID:20111226030839 L   I
 2011-12-26-0300-00M.COL___187                                                 6
 STAT SP IPHASW D HRMM SECON CODA AMPLIT PERI AZIMU VELO AIN AR TRES W  DIS CAZ7
 BAR2 SZ EP   1    3 8 57.72                             172    0.39 7 18.2 239 
 BAR2 SZ I         3 8 58.11         3.8 0.09                          18.2 239 
 BAR2 SZ ES   1    3 9 11.29                             172   -0.22 7 18.2 239 
 GIR2 SZ ES   2    3 9 12.82                             159   -0.01 5 47.4 339 
 PAM  SZ EP   1    3 9  0.67                             147    0.16 7 82.3  27 
 PAM  SZ I         3 9  0.91         1.8 0.19                          82.3  27 
 PAM  SE ES   1    3 9 17.07                             147   -0.09 7 82.3  27 
 BRR  HZ EP   1    3 8 59.65                             145   -0.55 7 88.0 303 
 BRR  HZ I         3 9  0.03         4.1 0.10                          88.0 303 
 BRR  HN ES   1    3 9 16.92                             145    0.31 7 88.0 303 
                                                                                
