 2016  926 0735 22.9 L   6.793 -73.129144.2  RSN  9 0.5 1.9LRSN                1
 GAP=139        1.16       3.7     5.2  6.8 -0.3755E+01  0.1192E+02 -0.7145E+00E
 Epicentro: LOS SANTOS - SANTANDER                                             3
 ACTION:UPD 17-08-17 21:16 OP:lp   STATUS:               ID:20160926073522 L   I
 OLDACT:UP  16-09-26 18:13 OP:dani STATUS:               ID:20160926072745     3
 OLDACT:REG 16-09-26 13:21 OP:dani STATUS:               ID:20160926072745     3
 2016-09-26-0728-00M.COL___327                                                 6
 STAT SP IPHASW D HRMM SECON CODA AMPLIT PERI AZIMU VELO AIN AR TRES W  DIS CAZ7
 BAR2 EZ EP        735 42.37                             171    0.0910 22.9 195 
 BAR2 EZ ES        735 57.09                             171   -0.3510 22.9 195 
 BAR2 EZ I         735 58.45        16.7 0.18            169           22.9 195 
 BRR  HZ EP     C  735 44.29                             152    0.3410 73.2 298 
 BRR  HN ES        736  1.12                             152    0.7210 73.2 298 
 BRR  HZ I         736  2.11         7.5 0.22            149           73.2 298 
 PAM  EZ EP        735 45.27                             151    0.4010 76.9  38 
 PAM  EE ES        736  2.26                             151    0.2210 76.9  38 
 PAM  EZ I         736  3.76         8.8 0.17            153           76.9  38 
 RUS  HZ EP        735 46.73                             144    0.3510 99.6 177 
 RUS  HE ES        736  4.65                             144   -0.0810 99.6 177 
 RUS  HZ I         736  5.91         8.8 0.32            146           99.6 177 
 PTB  HZ EP     D  735 49.24                             131   -0.60 9  149 259 
 PTB  HN ES   4    736  9.39                             131   -1.50 0  149 259 
 PTB  HZ I         736 12.34         8.9 0.17            130            149 259 
 OCA  HZ EP        735 50.76                             129   -0.38 9  161 353 
 OCA  HN ES        736 12.21                             129   -0.99 9  161 353 
 OCA  HZ I         736 16.35        14.9 0.17            130            161 353 
 SPBC HZ EP        735 51.33                             129    0.05 9  164 220 
 SPBC HN ES        736 12.72                             129   -0.73 9  164 220 
 SPBC HZ I         736 15.93        11.8 0.29            129            164 220 
 ZAR  HZ EP        735 55.36                             122   -0.04 8  206 292 
 ZAR  HN ES        736 21.26                             122    0.47 8  206 292 
 ZAR  HZ I         736 29.40         8.6 0.29            121            206 292 
 NOR  HZ EP        735 58.98                             118    0.38 8  236 235 
 NOR  HE ES        736 26.46                             118   -0.02 8  236 235 
 NOR  HZ I         736 32.83         5.1 0.18            118            236 235 
                                                                                
