 2014  426 0639 29.0 L   6.775 -73.190150.7  RSN  9 0.3 1.8LRSN                1
 GAP=178        0.64       2.6     3.7  7.3  0.1108E+01  0.5916E+01 -0.3150E+01E
 Epicentro: VILLANUEVA - SANTANDER                                             3
 OLDACT:REG 14-04-26 14:25 OP:spq  STATUS:               ID:20140426063818     3
 ACTION:UPD 14-05-13 23:11 OP:nd   STATUS:               ID:20140426063929 L   I
 OLDACT:UP  14-04-26 17:36 OP:fm   STATUS:               ID:20140426063818     3
 2014-04-26-0638-18M.COL___242                                                 6
 STAT SP IPHASW D HRMM SECON CODA AMPLIT PERI AZIMU VELO AIN AR TRES W  DIS CAZ7
 RUS  HZ EP   1    639 53.04                             145   -0.07 7 98.3 173 
 RUS  HN ES        640 11.70                             145   -0.1910 98.3 173 
 RUS  HZ I         640 12.36         8.1 1.36            151           98.3 173 
 PTB  HZ EP   1    639 55.60                             134   -0.34 7  142 260 
 PTB  HN ES        640 16.77                             134   -0.16 9  142 260 
 PTB  HZ I         640 25.07         5.3 1.50            137            142 260 
 SPBC HZ EP   1    639 57.45                             131    0.02 7  158 218 
 SPBC HN ES        640 19.86                             131    0.28 9  158 218 
 SPBC HZ I         640 22.22         6.4 0.24            135            158 218 
 OCA  HZ EP   4    639 54.70                             130   -3.24 0  163 355 
 OCA  HN ES   1    640 20.97                             130    0.48 7  163 355 
 OCA  HZ I         640 23.31         5.2 0.40            134            163 355 
 ZAR  HE ES        640 26.53                             124   -0.22 9  201 293 
 NOR  HN ES   1    640 32.92                             120    0.82 6  229 234 
 SML  HE ES   1    640 34.88                             118    0.04 6  244 337 
 HEL  HE ES   1    640 39.69                             116   -0.32 6  267 256 
 GUY2CHZ EP   1    640 12.30                             114    0.05 5  296 235 
 GUY2CHZ I         640 47.75         7.1 2.14                           296 235 
 GUY2CHE ES   4    640 48.73                             114    2.78 0  296 235 
 RREF HZ EP   4    640 16.84                             112    2.07 0  316 229 
 RREF HN ES   4    640 54.34                             112    3.90 0  316 229 
                                                                                
