 2014  926 0701 43.4 L   7.512 -73.198135.1  RSN  5 0.3 1.3LRSN                1
 GAP=239        0.73       3.4     7.3  7.9 -0.1336E+01 -0.1209E+02 -0.4511E+01E
 Epicentro: EL PLAYON - SANTANDER                                              3
 ACTION:UPD 14-10-03 23:08 OP:nd   STATUS:               ID:20140926070143 L   I
 OLDACT:UP  14-09-26 18:22 OP:mh   STATUS:               ID:20140926065819     3
 OLDACT:UP  14-09-26 18:22 OP:mh   STATUS:               ID:20140926065819     3
 OLDACT:UP  14-09-26 18:21 OP:mh   STATUS:               ID:20140926065819     3
 OLDACT:UP  14-09-26 18:21 OP:mh   STATUS:               ID:20140926065819     3
 OLDACT:UP  14-09-26 18:16 OP:mh   STATUS:               ID:20140926065819     3
 OLDACT:UP  14-09-26 18:16 OP:mh   STATUS:               ID:20140926065819     3
 OLDACT:REG 14-09-26 15:29 OP:mh   STATUS:               ID:20140926065819     3
 2014-09-26-0658-19M.COL___286                                                 6
 STAT SP IPHASW D HRMM SECON CODA AMPLIT PERI AZIMU VELO AIN AR TRES W  DIS CAZ7
 BRR  HZ EP   1    7 2  3.89                             150    0.39 7 72.2 232 
 BRR  HN ES        7 2 19.14                             150   -0.0110 72.2 232 
 BRR  HZ I         7 2 20.79         7.2 0.10            149           72.2 232 
 SML  HZ EP        7 2 11.77                             125   -0.11 9  172 326 
 SML  HN ES   1    7 2 33.91                             125   -0.16 7  172 326 
 SML  HZ I         7 2 37.52         2.6 0.07            124            172 326 
 PTB  HZ EP        7 2 12.16                             124   -0.12 9  176 232 
 PTB  HN ES        7 2 34.22                             124   -0.57 9  176 232 
 PTB  HZ I         7 2 35.67         1.8 0.18            125            176 232 
 ZAR  HN ES        7 2 36.55                             123    0.43 9  183 269 
 ZAR  HZ I         7 2 40.60         1.5 0.19            123            183 269 
 SPBC HN ES        7 2 44.84                             117    0.24 8  227 205 
                                                                                
