 2015  126 0043 27.3 L   6.785 -73.179144.8  RSN  6 0.4 1.7LRSN                1
 GAP=133        1.13       4.7     5.0  8.7  0.2061E+01  0.6600E+01 -0.6297E+01E
 Epicentro: LOS SANTOS - SANTANDER                                             3
 ACTION:UPD 15-03-02 15:42 OP:nd   STATUS:               ID:20150126004327 L   I
 OLDACT:REG 15-01-26 14:23 OP:cam  STATUS:               ID:20150126003818     3
 2015-01-26-0038-18M.COL___274                                                 6
 STAT SP IPHASW D HRMM SECON CODA AMPLIT PERI AZIMU VELO AIN AR TRES W  DIS CAZ7
 BRR  HZ EP     C  043 48.70                             153    0.4710 68.9 301 
 BRR  HN ES        044  5.29                             153    0.7510 68.9 301 
 BRR  HZ I         044 11.04         5.9 0.28            149           68.9 301 
 PAM  SZ EP     C  043 49.68                             149    0.0410 81.0  41 
 PAM  SN ES        044  6.69                             149   -0.3810 81.0  41 
 PAM  SZ I         044  8.58         6.9 0.52            149           81.0  41 
 RUS  HZ EP        043 51.36                             144    0.4910 99.2 174 
 RUS  HN ES        044  8.83                             144   -0.4210 99.2 174 
 PTB  HZ EP        043 53.70                             132   -0.15 9  144 259 
 PTB  HN ES        044 13.88                             132   -0.67 9  144 259 
 PTB  HN I         044 17.89         6.2 0.22            133            144 259 
 ZAR  HN ES        044 24.71                             122    0.26 9  201 293 
 ZAR  HZ I         044 30.36         5.7 0.40            122            201 293 
 SML  HZ EP        044  3.64                             117   -0.24 8  244 336 
 SML  HN ES        044 31.97                             117   -0.44 8  244 336 
 SML  HN I         044 45.35         7.5 0.10            117            244 336 
                                                                                
