 2012  726 0326 32.3 L   6.764 -73.185144.7  RSN  5 0.3 1.3LRSN                1
 GAP=230        0.78       7.9     7.7  7.1  0.4228E+02  0.6937E+01 -0.3291E+01E
 Epicentro: VILLANUEVA - SANTANDER                                             3
 ACTION:UPD 12-08-14 11:45 OP:ep   STATUS:               ID:20120726032632 L   I
 2012-07-26-0320-00M.COL___215                                                 6
 STAT SP IPHASW D HRMM SECON CODA AMPLIT PERI AZIMU VELO AIN AR TRES W  DIS CAZ7
 BAR2 SZ ES   1    327  6.93                             172     0.0 7   19 179 
 BAR2 SZ I         327  9.56         5.7 0.22            164             19 179 
 BRR  HZ EP   1    326 53.76                             153     0.5 7   69 303 
 BRR  HN ES   1    327  9.18                             153    -0.4 7   69 303 
 RUS  HZ EP        326 55.63                             145    -0.110   97 173 
 RUS  HN ES   1    327 14.23                             145     0.2 7   97 173 
 RUS  HZ I         327 15.75         2.0 0.37            145             97 173 
 PTB  HZ EP   1    326 58.17                             133    -0.6 7  143 260 
 PTB  HN ES   1    327 19.48                             133     0.1 7  143 260 
 PTB  HZ I         327 25.81         2.6 0.21            129            143 260 
 ZAR  HZ EP        327  4.51                             122     0.0 9  202 294 
 ZAR  HN ES   1    327 29.86                             122     0.3 6  202 294 
 ZAR  HZ I         327 41.03         2.8 0.29            121            202 294 
