 2017 1026 0356 44.9 L   6.748 -73.144151.3  RSN  4 0.4 1.1LRSN                1
 GAP=234        0.89       5.6     6.8  9.1  0.1049E+02 -0.8333E+01  0.3461E+01E
 Epicentro: LOS SANTOS - SANTANDER                                             3
 ACTION:UPD 17-11-07 19:36 OP:rebc STATUS:               ID:20171026035644 L   I
 OLDACT:DUP 17-10-26 16:45 OP:dani STATUS:               ID:20171026034101d    3
 OLDACT:REG 17-10-26 13:02 OP:dani STATUS:               ID:20171026034100     3
 2017-10-26-0348-00M.COL___438                                                 6
 STAT SP IPHASW D HRMM SECON CODA AMPLIT PERI AZIMU VELO AIN AR TRES W  DIS CAZ7
 BRR  HZ EP        357  6.93                             152    0.1410 74.3 302 
 BRR  HN ES        357 24.05                             152    0.1610 74.3 302 
 BRR  HZ I         357 25.58         4.1 0.26            154           74.3 302 
 RUS  HZ EP        357  8.90                             147    0.1310 94.8 176 
 RUS  HN ES        357 27.11                             147   -0.3010 94.8 176 
 RUS  HZ I         357 28.66         0.9 0.23            148           94.8 176 
 PTB  HN ES        357 33.06                             133   -0.49 9  147 261 
 SPBC HZ EP        357 13.09                             131   -0.30 9  159 220 
 SPBC HN ES        357 36.28                             131    0.64 9  159 220 
                                                                                
