 2012  526 0802 16.5 L   6.782 -73.181138.0  RSN  7 0.2 1.7LRSN                1
 GAP=133        0.45       2.6     2.6  4.1 -0.1891E+01  0.3531E+01  0.3882E+00E
 Epicentro: LOS SANTOS - SANTANDER                                             3
 ACTION:UP  12-07-05 12:08 OP:pat  STATUS:               ID:20120526080216 L   I
 2012-05-26-0800-00M.COL___198                                                 6
 STAT SP IPHASW D HRMM SECON CODA AMPLIT PERI AZIMU VELO SNR AR TRES W  DIS CAZ7
 BAR2 SZ EP        8 2 35.37                             171     0.210   21 180 
 BAR2 SZ ES   1    8 2 49.86                             171     0.2 7   21 180 
 BAR2 SZ I         8 2 51.44        21.1 0.27                            21 180 
 PAM  SZ EP        8 2 38.26                             148     0.110   81  41 
 PAM  SE ES   1    8 2 54.89                             148    -0.2 7   81  41 
 RUS  HZ EP        8 2 39.14                             143    -0.210   99 174 
 RUS  HN ES   1    8 2 57.16                             143    -0.1 7   99 174 
 RUS  HZ I         8 2 59.45         8.9 0.32                            99 174 
 PTB  HZ EP        8 2 42.22                             131    -0.2 9  144 259 
 PTB  HN ES   1    8 3  2.72                             131     0.0 7  144 259 
 PTB  HZ I         8 3  4.58         4.3 0.33                           144 259 
 ZAR  HZ EP   2    8 2 48.22                             121     0.1 4  201 293 
 ZAR  HN ES   2    8 3 12.89                             121     0.1 4  201 293 
 ZAR  HZ I         8 3 18.96         6.5 0.32                           201 293 
 NOR  SN ES   1    8 3 18.48                             117     0.0 6  230 234 
 PRA  HZ EP   1    8 3  9.33                             105     0.0 4  388 209 
 PRA  HE ES   1    8 3 50.96                             105     0.4 4  388 209 
                                                                                
