 2017  326 0034 38.5 L   6.781 -73.143149.8  RSN  7 0.2 1.5LRSN                1
 GAP=138        0.67       3.3     3.0  4.6  0.7981E+00  0.2942E+01  0.1881E+01E
 Epicentro: LOS SANTOS - SANTANDER                                             3
 ACTION:UPD 17-05-25 18:45 OP:jn   STATUS:               ID:20170326003438 L   I
 OLDACT:REG 17-03-26 12:15 OP:cog  STATUS:               ID:20170326002742     3
 2017-03-26-0028-00M.COL___361                                                 6
 STAT SP IPHASW D HRMM SECON CODA AMPLIT PERI AZIMU VELO AIN AR TRES W  DIS CAZ7
 BAR2 EZ EP        034 58.47                             172   -0.0810 21.3 192 
 BAR2 EZ ES        035 14.35                             172    0.1410 21.3 192 
 BAR2 EZ I         035 15.15         9.3 0.54            171           21.3 192 
 BRR  HZ EP        035  0.43                             153    0.3010 72.5 300 
 BRR  HE ES        035 17.38                             153    0.3610 72.5 300 
 BRR  HZ I         035 22.13         6.2 0.07            152           72.5 300 
 PAM  EZ EP        035  1.36                             151    0.1510 78.8  38 
 PAM  EN ES        035 18.54                             151   -0.3910 78.8  38 
 PAM  EZ I         035 20.61         5.5 0.48            154           78.8  38 
 RUS  HZ EP        035  2.42                             145   -0.0610 98.5 176 
 RUS  HN ES        035 21.19                             145   -0.0110 98.5 176 
 RUS  HZ I         035 22.47         2.9 0.40            148           98.5 176 
 PTB  HZ EP        035  5.45                             133   -0.32 9  148 260 
 PTB  HN ES        035 26.68                             133   -0.37 9  148 260 
 PTB  HZ I         035 32.38         5.9 0.54            134            148 260 
 SPBC HZ EP        035  7.41                             130    0.25 9  162 220 
 ZAR  HN ES        035 36.87                             123   -0.03 9  205 293 
                                                                                
