 2016  926 0342 27.0 L   6.762 -73.175146.0  RSN  5 0.2 1.3LRSN                1
 GAP=231        0.65       3.8     4.3  5.9  0.3891E+01 -0.2065E+01  0.6334E+00E
 Epicentro: LOS SANTOS - SANTANDER                                             3
 ACTION:UPD 17-08-17 21:16 OP:lp   STATUS:               ID:20160926034227 L   I
 OLDACT:REG 16-09-26 12:58 OP:dani STATUS:               ID:20160926033743     3
 2016-09-26-0338-00M.COL___327                                                 6
 STAT SP IPHASW D HRMM SECON CODA AMPLIT PERI AZIMU VELO AIN AR TRES W  DIS CAZ7
 BAR2 EZ EP        342 46.16                             172   -0.3710 18.7 183 
 BAR2 EZ I         343  4.22         3.2 0.21            171           18.7 183 
 BRR  HZ EP        342 48.16                             153    0.0710 70.6 303 
 BRR  HE ES        343  4.78                             153    0.2010 70.6 303 
 BRR  HZ I         343  7.16         5.6 0.35            156           70.6 303 
 RUS  HZ EP        342 50.77                             145    0.3310 96.6 174 
 RUS  HN ES        343  8.64                             145   -0.1310 96.6 174 
 RUS  HZ I         343 10.87         1.9 0.25            144           96.6 174 
 PTB  HZ EP        342 53.23                             133   -0.36 9  144 260 
 PTB  HE ES        343 14.32                             133   -0.04 9  144 260 
 PTB  HZ I         343 15.07         2.7 0.19            136            144 260 
 SPBC HZ EP        342 55.27                             130    0.30 9  158 219 
 SPBC HN ES        343 16.81                             130   -0.01 9  158 219 
 SPBC HZ I         343 23.47         5.0 0.24            132            158 219 
                                                                                
