 2016  426 0857 50.6 L   6.827 -73.128140.3  RSN 20 0.4 2.6LRSN                1
 GAP= 71        0.96       2.5     2.7  4.8 -0.1269E+01  0.3212E+01  0.1167E+01E
 Epicentro: LOS SANTOS - SANTANDER                                             3
 ACTION:UPD 16-05-05 14:24 OP:rebc STATUS:               ID:20160426085750 L   I
 OLDACT:UP  16-04-26 18:02 OP:mh   STATUS:               ID:20160426084750     3
 OLDACT:UP  16-04-26 18:00 OP:mh   STATUS:               ID:20160426084750     3
 OLDACT:UP  16-04-26 17:59 OP:mh   STATUS:               ID:20160426084750     3
 OLDACT:UP  16-04-26 17:57 OP:mh   STATUS:               ID:20160426084750     3
 OLDACT:UP  16-04-26 17:55 OP:mh   STATUS:               ID:20160426084750     3
 OLDACT:REG 16-04-26 13:15 OP:dnl  STATUS:               ID:20160426084750     3
 2016-04-26-0847-50M.COL___303                                                 6
 STAT SP IPHASW D HRMM SECON CODA AMPLIT PERI AZIMU VELO AIN AR TRES W  DIS CAZ7
 BAR2 EZ EP        858  9.71                             169    0.1210 26.6 193 
 BAR2 EZ ES        858 24.28                             169   -0.1610 26.6 193 
 BAR2 EZ I         858 25.54       111.7 0.14            168           26.6 193 
 PAM  EZ EP     C  858 12.44                             151    0.4710 73.9  40 
 PAM  EN ES        858 29.15                             151    0.4710 73.9  40 
 PAM  EZ I         858 31.34       116.4 0.50            154           73.9  40 
 RUS  HZ EP        858 13.77                             142   -0.2010  103 177 
 RUS  HN ES        858 31.88                             142   -0.3610  103 177 
 PTB  HZ EP        858 16.55                             130   -0.75 9  150 258 
 PTB  HN ES        858 38.42                             130    0.25 9  150 258 
 PTB  HZ I         858 42.30        47.1 0.18            130            150 258 
 TAM  HZ IP     D  858 18.13                             129    0.43 9  154 106 
 TAM  HE ES        858 39.17                             129    0.30 9  154 106 
 TAM  HZ I         858 40.17        23.4 0.46            133            154 106 
 OCA  HZ EP     C  858 17.80                             129   -0.38 9  158 352 
 OCA  HN ES        858 39.29                             129   -0.44 9  158 352 
 OCA  HZ I         858 44.57       115.7 0.26            130            158 352 
 SPBC HZ EP        858 18.75                             127   -0.22 9  167 219 
 SPBC HN ES        858 40.67                             127   -0.47 9  167 219 
 SPBC HZ I         858 46.29        52.5 0.42            128            167 219 
 ZAR  HZ EP        858 22.48                             121   -0.23 9  205 291 
 ZAR  HN ES        858 48.52                             121    0.72 9  205 291 
 ZAR  HZ I         858 53.83        60.0 0.39            121            205 291 
 NOR  HZ EP        858 26.40                             117    0.08 8  238 234 
 NOR  HN ES        858 53.85                             117   -0.37 8  238 234 
 NOR  HZ I         858 58.47        36.1 0.29            117            238 234 
 CHI  HZ EP        858 28.89                             116    0.57 8  252 195 
 CHI  HN ES        858 57.77                             116   -0.00 8  252 195 
 CHI  HZ I         859  0.49        12.0 0.24            117            252 195 
 ROSC BZ EP   4    858 30.63                             115    1.87 0  256 211 
 ROSC BN ES   4    859  0.83                             115    2.26 0  256 211 
 ROSC BZ I         859  5.83        31.5 0.53            116            256 211 
 URE  HZ EP   4    858 29.90                             112   -1.54 0  285 291 
 URE  HN ES   4    859  1.59                             112   -1.74 0  285 291 
 URE  HZ I         859 10.77        21.6 0.16            113            285 291 
 SOCV BZ EP   4    858 32.61                             111   -0.37 0  298  57 
 SOCV BN ES   4    859  3.99                             111   -2.09 0  298  57 
 GUY2CHZ EP   1    858 34.54                             111    0.26 5  304 235 
 GUY2CHN ES   1    859  9.27                             111    0.88 5  304 235 
 GUY2CHZ I         859 14.83        16.2 0.30                           304 235 
 VIL  SZ EP   1    858 33.86                             111   -0.23 5  307 192 
 VIL  SN ES        859  7.78                             111   -0.28 7  307 192 
 PTGC HZ EP   4    858 32.93                             110   -1.47 0  311 159 
 PTGC HN ES   4    859  6.04                             110   -2.56 0  311 159 
 PTGC HZ I         859  8.87        19.5 0.26            112            311 159 
 CBOC HZ EP        858 37.73                             109    0.17 7  336 252 
 CBOC HN ES        859 14.01                             109   -0.21 7  336 252 
 CBOC HZ I         859 17.45         6.1 0.40            109            336 252 
 SDV  BZ EP        858 39.22                             107   -0.77 6  357  50 
 SDV  BN ES   4    859 15.78                             107   -2.78 0  357  50 
 SDV  BZ I         859 19.28         6.9 0.40            109            357  50 
 ANIL HZ EP   4    858 43.74                             107    3.19 0  361 224 
 ANIL HE ES   4    859 20.98                             107    1.43 0  361 224 
 ANIL HZ I         859 28.93        31.7 0.17            108            361 224 
 ORTC HZ EP        858 45.29                             105    0.59 6  399 216 
 ORTC HN ES        859 27.63                             105    0.70 6  399 216 
 ORTC HZ I         859 31.30         8.7 0.22            106            399 216 
 PAL  HZ EP   4    858 44.52                             105   -1.38 0  409 239 
 PAL  HN ES   4    859 25.99                             105   -3.09 0  409 239 
 PAL  HZ I         859 30.26         7.1 0.36            105            409 239 
                                                                                
