 2010 1026 0826 23.8 L   5.831 -73.719118.0  RSN  5 0.3 1.4LRSN                1
 GAP=138        0.62       4.9     5.6 10.1 -0.1177E+02  0.2366E+02  0.8871E+01E
 Epicentro: JESUS MARIA - SANTANDER                                            3
 ACTION:UP  11-02-18 11:12 OP:tino STATUS:               ID:20101026082623 L   I
 2010-10-26-0821-11S.COL___125                                                 6
 STAT SP IPHASW D HRMM SECON CODA AMPLIT PERI AZIMU VELO SNR AR TRES W  DIS CAZ7
 RUS  HZ EP   1    826 42.64                             148    -0.1 7   71  84 
 RUS  HN ES   1    826 57.95                             148     0.5 7   71  84 
 RUS  HZ I         826 59.15         2.3 0.30                            71  84 
 BAR2 SZ EP   2    826 45.08                             137     0.3 5  103  35 
 BAR2 SZ ES   1    827  0.78                             137    -0.4 7  103  35 
 BAR2 SZ I         827  2.67        12.8 0.26                           103  35 
 NOR  SZ EP   2    826 47.38                             129     0.3 5  131 257 
 NOR  SN ES   2    827  5.42                             129     0.2 5  131 257 
 CHI  HZ EP   2    826 47.40                             129    -0.4 5  133 181 
 CHI  HE ES   2    827  6.00                             129    -0.4 5  133 181 
 CHI  HZ I         827 10.36         1.7 0.24                           133 181 
 PRA  HZ EP   2    827  2.09                             109     0.2 4  267 209 
 PRA  HE ES   2    827 31.43                             109    -0.1 4  267 209 
 PRA  HZ I         827 33.80         4.5 0.18                           267 209 
                                                                                
