 2012 1026 0805 53.3 L   6.820 -73.149143.5  RSN  7 0.4 2.0LRSN                1
 GAP=135        0.61       4.7     5.7  7.6  0.6026E+01  0.1136E+02  0.5955E+01E
 Epicentro: LOS SANTOS - SANTANDER                                             3
 ACTION:UPD 12-11-22 17:06 OP:ep   STATUS:               ID:20121026080553 L   I
 2012-10-26-0800-00M.COL___228                                                 6
 STAT SP IPHASW D HRMM SECON CODA AMPLIT PERI AZIMU VELO AIN AR TRES W  DIS CAZ7
 BAR2 SZ EP   1    8 6 12.71                             169   -0.04 7 25.5 188 
 BAR2 SZ I         8 6 28.51        18.9 0.13                          25.5 188 
 GIR2 SZ EP   1    8 6 12.64                             168   -0.05 7 29.0 350 
 GIR2 SZ ES   2    8 6 27.25                             168   -0.53 5 29.0 350 
 BRR  HZ EP   1    8 6 14.32                             153    0.15 7 69.8 297 
 BRR  HE ES   2    8 6 30.73                             153    0.32 5 69.8 297 
 BRR  HN I         8 6 31.46        32.2 0.26                          69.8 297 
 PAM  SZ EP   1    8 6 15.61                             151    0.38 7 75.9  41 
 PAM  SN ES   2    8 6 32.47                             151    0.16 5 75.9  41 
 PAM  SN I         8 6 33.03        19.5 0.48                          75.9  41 
 RUS  HZ EP   1    8 6 17.10                             143    0.06 7  103 176 
 RUS  HN ES   2    8 6 35.27                             143   -0.25 5  103 176 
 RUS  HN I         8 6 36.65         5.3 0.28                           103 176 
 OCA  HE ES   2    8 6 42.49                             129   -0.55 5  158 353 
 OCA  HE I         8 6 45.83        18.7 0.32                           158 353 
 ZAR  HZ EP   1    8 6 24.90                             122   -0.61 6  203 292 
 ZAR  HE ES   2    8 6 51.47                             122    0.86 4  203 292 
 ZAR  HN I         8 6 56.92         9.2 0.14                           203 292 
                                                                                
