 2017  126 0247 18.8 L   6.766 -73.154143.4  RSN  8 0.4 1.6LRSN                1
 GAP=234        1.05       4.7     5.2  6.6  0.8787E+01  0.1143E+02  0.6272E+01E
 Epicentro: LOS SANTOS - SANTANDER                                             3
 ACTION:UPD 17-05-22 16:03 OP:jn   STATUS:               ID:20170126024718 L   I
 OLDACT:REG 17-01-26 13:24 OP:lv   STATUS:               ID:20170126023741     3
 2017-01-26-0238-00M.COL___355                                                 6
 STAT SP IPHASW D HRMM SECON CODA AMPLIT PERI AZIMU VELO AIN AR TRES W  DIS CAZ7
 BAR2 EZ EP        247 37.93                             172   -0.1010 19.4 189 
 BAR2 EZ ES        247 53.00                             172   -0.0710 19.4 189 
 BAR2 EZ I         247 54.28        10.1 0.23            169           19.4 189 
 BRR  HZ IP     D  247 39.62                             152   -0.1010 72.3 302 
 BRR  HE ES        247 56.80                             152    0.7310 72.3 302 
 BRR  HZ I         248  2.57        13.1 0.43            151           72.3 302 
 RUS  HZ EP        247 41.99                             144   -0.0210 96.9 175 
 RUS  HN ES        248  0.04                             144   -0.1110 96.9 175 
 RUS  HZ I         248  1.82         3.6 0.30            146           96.9 175 
 PTB  HZ EP        247 44.68                             132   -0.71 9  146 260 
 PTB  HN ES        248  5.82                             132   -0.35 9  146 260 
 PTB  HZ I         248  6.62         6.1 0.10            132            146 260 
 ZAR  HZ EP        247 51.35                             122    0.23 9  205 293 
 ZAR  HN ES        248 16.19                             122   -0.17 9  205 293 
 ZAR  HZ I         248 23.58         4.4 0.18            123            205 293 
 NOR  HZ EP   4    247 55.18                             118    1.14 0  232 235 
 NOR  HN ES        248 20.80                             118   -0.76 8  232 235 
 NOR  HZ I         248 27.76         3.6 0.13            119            232 235 
 CHI  HZ EP        247 56.12                             117    0.22 8  245 195 
 CHI  HE ES        248 25.55                             117    0.67 8  245 195 
 CHI  HZ I         248 31.61         2.1 0.22            119            245 195 
 CBOC HZ EP        248  5.60                             110    0.25 7  332 253 
 CBOC HN ES        248 42.52                             110    0.83 7  332 253 
                                                                                
