 2011 1026 0523 17.3 L   6.773 -73.078148.3  RSN  4 0.2 1.2LRSN                1
 GAP=201        0.39       8.2    14.6  7.3  0.9237E+02 -0.4378E+02 -0.1920E+02E
 Epicentro: LOS SANTOS - SANTANDER                                             3
 ACTION:UPD 12-07-13 16:06 OP:ep   STATUS:               ID:20111026052317 L   I
 2011-10-26-0520-00M.COL___177                                                 6
 STAT SP IPHASW D HRMM SECON CODA AMPLIT PERI AZIMU VELO AIN AR TRES W  DIS CAZ7
 BAR2 SZ EP   1    523 37.05                             170   -0.19 7 23.1 210 
 BAR2 SZ I         523 37.25         5.7 0.27                          23.1 210 
 BAR2 SZ ES   2    523 52.58                             170   -0.21 5 23.1 210 
 GIR2 SZ EP   3    523 37.76                             166    0.34 2 36.1 339 
 GIR2 SZ ES   3    523 53.51                             166    0.40 2 36.1 339 
 BRR  HZ EP   2    523 39.05                             150   -0.15 5 79.2 298 
 BRR  HN ES   2    523 56.44                             150    0.17 5 79.2 298 
 BRR  HZ I         523 58.50         3.8 0.14                          79.2 298 
 RUS  HZ EP   2    523 41.49                             145    0.40 5 97.4 180 
 RUS  HN ES   2    523 59.68                             145    0.04 5 97.4 180 
 RUS  HZ I         524  0.78         1.4 0.21                          97.4 180 
                                                                                
