 2016 1026 0843 25.8 L   6.898 -73.059135.9  RSN  4 0.1 0.8LRSN                1
 GAP=142        0.60       3.5     4.2  5.9 -0.2420E+00 -0.3316E+01  0.5769E+01E
 Epicentro: PIEDECUESTA - SANTANDER                                            3
 ACTION:UPD 16-11-09 19:23 OP:rebc STATUS:               ID:20161026084325 L   I
 OLDACT:REG 16-10-26 14:10 OP:cog  STATUS:               ID:20161026083745     3
 2016-10-26-0838-00M.COL___322                                                 6
 STAT SP IPHASW D HRMM SECON CODA AMPLIT PERI AZIMU VELO AIN AR TRES W  DIS CAZ7
 PAM  EE ES        844  1.88                             154   -0.0810 62.9  39 
 BRR  HZ EP        843 45.97                             149   -0.1810 75.8 288 
 BRR  HN ES        844  2.20                             149    0.1710 75.8 288 
 RUS  HZ EP        843 49.49                             138    0.0910  111 181 
 RUS  HN ES        844  7.82                             138   -0.0010  111 181 
 PTB  HZ EP   9    843 52.44                             127   -0.64 0  160 256 
 PTB  HN ES        844 13.26                                   -0.48 9  160 256 
 PTB  HZ I         844 15.72         0.7 0.17            126            160 256 
                                                                                
