 2017  926 0511 42.7 L   6.818 -73.133144.3  RSN 20 0.6 2.2LRSN                1
 GAP=112        1.15       3.6     4.0  5.9  0.2538E+01  0.9398E+01  0.6835E+01E
 Epicentro: LOS SANTOS - SANTANDER                                             3
 ACTION:UPD 17-10-05 19:16 OP:rebc STATUS:               ID:20170926051142 L   I
 OLDACT:UP  17-09-26 16:39 OP:osc  STATUS:               ID:20170926050739     3
 OLDACT:REG 17-09-26 13:00 OP:osc  STATUS:               ID:20170926050739     3
 2017-09-26-0508-00M.COL___438                                                 6
 STAT SP IPHASW D HRMM SECON CODA AMPLIT PERI AZIMU VELO AIN AR TRES W  DIS CAZ7
 BAR2 EZ EP        512  1.99                             170   -0.2210 25.6 192 
 BAR2 EZ ES        512 16.70                             170   -0.7210 25.6 192 
 BAR2 EZ I         512 18.04        39.2 0.32            165           25.6 192 
 BRR  HZ EP        512  3.81                             152    0.1010 71.5 297 
 BRR  HE ES        512 20.88                             152    0.7810 71.5 297 
 BRR  HZ I         512 23.87        25.5 0.38            149           71.5 297 
 PAM  EZ EP        512  4.87                             151    0.2510 74.9  40 
 PAM  EE ES        512 21.51                             151   -0.2110 74.9  40 
 PAM  EZ I         512 23.96        33.5 0.46            158           74.9  40 
 RUS  HZ EP        512  6.01                             143   -0.4410  103 177 
 RUS  HE ES        512 25.00                             143    0.0210  103 177 
 RUS  HZ I         512 26.45        17.2 0.40            143            103 177 
 YPLC HZ EP        512 12.41                             126   -0.09 9  178 152 
 YPLC HE ES        512 36.78                             126    1.03 9  178 152 
 YPLC HZ I         512 37.35         8.6 0.26            128            178 152 
 ZAR  HZ EP        512 16.11                             122    1.00 9  205 291 
 ZAR  HE ES        512 40.21                             122   -0.18 9  205 291 
 ZAR  HZ I         512 46.17        20.6 0.21            122            205 291 
 NOR  HZ EP        512 18.20                             118   -0.40 8  237 234 
 NOR  HE ES        512 46.35                             118   -0.24 8  237 234 
 NOR  HZ I         512 51.10        13.1 0.16            118            237 234 
 CHI  HZ EP        512 20.37                             116   -0.20 8  251 195 
 CHI  HN ES        512 49.48                             116   -0.63 8  251 195 
 CHI  HZ I         512 56.65         8.1 0.54            117            251 195 
 ROSC BZ EP   4    512 22.59                             116    1.58 0  255 211 
 ROSC BE ES   4    512 49.05                             116   -1.84 0  255 211 
 ROSC BZ I         512 56.60        16.8 0.50            116            255 211 
 HEL  HZ EP   3    512 23.84                             114    0.79 2  274 255 
 HEL  HN ES        512 53.86                             114   -0.65 8  274 255 
 HEL  HZ I         513  1.18        10.5 0.54            114            274 255 
 URE  HZ EP        512 23.01                             113   -0.75 7  284 291 
 URE  HE ES   4    512 53.41                             113   -2.38 0  284 291 
 URE  HZ I         513  4.78         9.8 0.20            114            284 291 
 GUY2CHZ EP        512 26.50                             112   -0.00 7  303 235 
 GUY2CHE ES        513  1.78                             112    1.11 7  303 235 
 GUY2CHZ I         513  8.58         8.4 0.58                           303 235 
 VIL  EE ES        513  0.17                             111   -0.16 7  306 192 
 PTGC HZ EP   3    512 24.61                             111   -2.04 2  310 159 
 PTGC HN ES   4    512 58.41                             111   -2.52 0  310 159 
 PTGC HZ I         513  1.21         6.9 0.30            113            310 159 
 ELA  HZ EP   3    512 31.43                             110    1.67 2  331 229 
 ELA  HE ES   4    513  9.60                             110    3.13 0  331 229 
 ELA  HZ I         513 13.87         8.5 0.58            110            331 229 
 CBOC HZ EP        512 29.92                             109    0.14 7  336 252 
 CBOC HN ES   4    513  3.84                             109   -2.66 0  336 252 
 CBOC HZ I         513 18.31         2.9 0.74            110            336 252 
 DBB  EN ES   4    513  4.86                             109   -2.50 0  341 274 
 PRA  HZ EP        512 36.12                             106   -0.34 6  394 210 
 PRA  HE ES        513 19.23                             106    0.84 6  394 210 
 PRA  HZ I         513 24.12        10.7 0.28            107            394 210 
 ORTC HZ EP        512 37.26                             106    0.40 6  398 216 
 ORTC HE ES   4    513 20.45                             106    1.35 0  398 216 
 ORTC HZ I         513 26.68         4.8 0.19            107            398 216 
 PAL  HZ EP        512 37.91                             105   -0.17 6  408 239 
 PAL  HE ES   4    513 18.02                             105   -3.25 0  408 239 
 SJC  HZ EP   9    512 35.38                             105   -2.73 0  408 327 
 SJC  HE ES        513 18.39                             106   -0.21 6  408 327 
 SJC  HZ I         513 21.70         2.7 0.34            107            408 327 
 PAL  HZ I         513 24.49         1.9 0.36            106            408 239 
                                                                                
