 2013  726 0352 17.6 L   6.802 -73.179150.9  RSN  4 0.3 1.7LRSN                1
 GAP=198        0.69       4.6     6.0  8.2  0.1221E+02 -0.1089E+02 -0.1790E+02E
 Epicentro: LOS SANTOS - SANTANDER                                             3
 ACTION:UPD 13-08-12 10:40 OP:ep   STATUS:               ID:20130726035217 L   I
 OLDACT:UP  13-07-26 09:19 OP:cam  STATUS:               ID:20130726034959     3
 OLDACT:UP  13-07-26 09:19 OP:cam  STATUS:               ID:20130726034959     3
 OLDACT:UP  13-07-26 09:18 OP:cam  STATUS:               ID:20130726034959     3
 OLDACT:REG 13-07-26 08:16 OP:cam  STATUS:               ID:20130726034959     3
 2013-07-26-0349-59M.COL___266                                                 6
 STAT SP IPHASW D HRMM SECON CODA AMPLIT PERI AZIMU VELO AIN AR TRES W  DIS CAZ7
 BRR  HZ EP     C  352 39.51                             155    0.3910 67.9 300 
 BRR  HN ES   1    352 56.26                             155    0.35 7 67.9 300 
 BRR  HZ I         353  0.58         6.6 0.14            155           67.9 300 
 RUS  HZ EP   1    352 42.13                             145    0.24 7  101 174 
 RUS  HE ES        353  0.53                             145   -0.3110  101 174 
 RUS  HZ I         353  0.87         3.3 0.42            152            101 174 
 PTB  HZ EP   1    352 44.76                             134    0.09 7  144 258 
 PTB  HN ES        353  5.56                             134   -0.22 9  144 258 
 PTB  HZ I         353  7.60         6.9 0.34            138            144 258 
 SML  HZ EP   1    352 53.89                             119   -0.44 6  242 336 
 SML  HN ES   1    353 22.68                             119   -0.30 6  242 336 
 SML  HZ I         353 27.03         8.2 0.10            121            242 336 
                                                                                
