 2010  926 0003  6.9 L   6.830 -73.293119.6  RSN  9 0.4 1.6LRSN                1
 GAP=131        0.77       4.9     8.1  8.6 -0.6613E+01  0.5226E+01 -0.8469E+01E
 Epicentro: ZAPATOCA - SANTANDER                                               3
 ACTION:UP  11-02-18 11:05 OP:tino STATUS:               ID:20100926000306 L   I
 2010-09-26-0001-30S.COL___122                                                 6
 STAT SP IPHASW D HRMM SECON CODA AMPLIT PERI AZIMU VELO SNR AR TRES W  DIS CAZ7
 BTL  SZ EP        0 3 23.41                             175     0.210   10  16 
 BAR2 SZ EP   1    0 3 23.63                             166     0.1 7   29 155 
 BAR2 SZ I         0 3 23.81        40.5 0.08                            29 155 
 BAR2 SZ ES   1    0 3 36.26                             166    -0.3 7   29 155 
 GIR2 SZ EP   2    0 3 23.26                             165    -0.2 5   30  22 
 BRR  HZ EP   1    0 3 24.05                             153    -0.3 7   56 304 
 BRR  HE ES   2    0 3 38.09                             153     0.1 5   56 304 
 BRR  HZ I         0 3 39.04        18.7 0.16                            56 304 
 RUS  HZ EP   1    0 3 28.54                             136    -0.1 7  106 167 
 RUS  HE ES   2    0 3 45.73                             136     0.1 5  106 167 
 RUS  HZ I         0 3 47.89         2.4 0.43                           106 167 
 GUE  SZ EP   2    0 3 28.71                             132    -0.7 5  118  20 
 GRA  SZ EP   2    0 3 31.15                             129     0.9 5  129  25 
 GRA  SZ ES   2    0 3 49.00                             129     0.6 5  129  25 
 GRA  SZ I         0 4  4.19         3.6 0.80                           129  25 
 OCA  SZ EP   2    0 3 32.25                             124    -0.6 5  156 359 
 OCA  SZ I         0 3 58.07         7.3 0.65                           156 359 
 NOR  SE ES   2    0 4  6.42                             113     0.5 4  224 231 
                                                                                
