 2012  726 0321  1.2 L   6.755 -73.170147.9  RSN  4 0.5 1.2LRSN                1
 GAP=231        1.14      13.0    14.4 15.1  0.1335E+03 -0.3389E+01 -0.1768E+02E
 Epicentro: VILLANUEVA - SANTANDER                                             3
 ACTION:UPD 12-08-14 11:45 OP:ep   STATUS:               ID:20120726032101 L   I
 2012-07-26-0320-00M.COL___215                                                 6
 STAT SP IPHASW D HRMM SECON CODA AMPLIT PERI AZIMU VELO AIN AR TRES W  DIS CAZ7
 BRR  HZ EP        321 23.15                             153     0.610   71 303 
 BRR  HN ES   1    321 38.76                             153    -0.5 7   71 303 
 RUS  HZ EP   1    321 24.02                             146    -0.8 7   96 174 
 RUS  HN ES   1    321 43.54                             146     0.3 7   96 174 
 RUS  HZ I         321 45.61         1.8 0.24            139             96 174 
 PTB  HZ EP   1    321 27.83                             133    -0.1 7  144 261 
 PTB  HN ES   2    321 49.18                             133     0.3 5  144 261 
 PTB  HZ I         321 55.02         2.1 0.38            125            144 261 
 ZAR  HN ES   1    321 58.82                             123    -0.2 6  204 294 
 ZAR  HZ I         322  6.33         2.2 0.29            119            204 294 
