 2010  926 0215 50.0 L   6.582 -73.373 20.6  RSN  6 0.3 1.2LRSN                1
 GAP=170        0.63       3.0     4.9  4.6  0.6459E+01  0.3895E+01 -0.2340E+01E
 Epicentro: HATO - SANTANDER                                                   3
 ACTION:UP  11-02-18 11:05 OP:tino STATUS:               ID:20100926021550 L   I
 2010-09-26-0214-06S.COL___122                                                 6
 STAT SP IPHASW D HRMM SECON CODA AMPLIT PERI AZIMU VELO SNR AR TRES W  DIS CAZ7
 BAR2 SZ EP        215 55.27                             134     0.210   21  87 
 BAR2 SZ ES   2    215 59.26                             134     0.2 5   21  87 
 BAR2 SZ I         216  0.34        32.7 0.14                            21  87 
 BTL  SZ EP   1    215 56.82                             117    -0.5 7   39  17 
 BRR  HZ EP   2    216  1.33                             105    -0.1 5   69 327 
 BRR  HN ES   2    216 10.49                             105     0.2 5   69 327 
 BRR  HZ I         216 11.56         9.9 0.22                            69 327 
 RUS  HZ EP   1    216  4.20                             103     0.3 7   83 157 
 RUS  HZ I         216  4.64         3.4 0.12                            83 157 
 RUS  HN ES   2    216 14.43                             103    -0.4 5   83 157 
 GUE  SZ EP   2    216 12.44                              56    -0.1 5  147  20 
 GUE  SZ I         216 24.55         2.1 0.17                           147  20 
 GRA  SZ ES   2    216 32.25                              56     0.1 5  157  24 
 GRA  SZ I         216 35.76         6.8 0.29                           157  24 
                                                                                
