 2012  626 0059 23.6 L   6.811 -73.101151.0  RSN  8 0.4 1.6LRSN                1
 GAP=188        0.80       4.5     5.7  7.7  0.3694E+01  0.1128E+02  0.1777E+01E
 Epicentro: LOS SANTOS - SANTANDER                                             3
 ACTION:UPD 12-08-06 17:52 OP:ep   STATUS:               ID:20120626005923 L   I
 2012-06-26-0056-59S.COL___209                                                 6
 STAT SP IPHASW D HRMM SECON CODA AMPLIT PERI AZIMU VELO AIN AR TRES W  DIS CAZ7
 BAR2 SZ EP   1    059 44.02                             170    0.08 7 25.8 200 
 BAR2 SZ I         059 44.26         8.9 0.19                          25.8 200 
 BAR2 SZ ES   1    059 59.89                             170    0.11 7 25.8 200 
 BRR  HZ EP   1    059 45.85                             152    0.29 7 75.0 296 
 BRR  HZ I         059 46.24         8.0 0.18                          75.0 296 
 BRR  HN ES   1    1 0  3.12                             152    0.45 7 75.0 296 
 RUS  HZ EP   1    059 47.76                             145   -0.21 7  102 179 
 RUS  HZ I         059 48.72         3.1 0.24                           102 179 
 RUS  HN ES   1    1 0  7.00                             145    0.05 7  102 179 
 PTB  HZ EP   1    059 51.06                             132   -0.42 7  153 259 
 PTB  HN ES   1    1 0 12.28                             132   -0.93 7  153 259 
 PTB  HZ I         1 0 16.74         5.8 0.16                           153 259 
 OCA  HN ES   1    1 0 14.23                             131   -0.44 7  160 351 
 ZAR  HN ES   1    1 0 23.11                             123    0.36 6  208 291 
 NOR  SE ES   1    1 0 28.81                             119    0.14 6  239 235 
 HEL  HZ EP   1    1 0  5.39                             115    0.72 6  277 256 
 HEL  HZ I         1 0 43.62         3.2 0.38                           277 256 
                                                                                
