 2017 1126 0529 45.9 L   6.828 -73.180142.4  RSN 16 0.8 2.0LRSN                1
 GAP=180        1.69       4.3     6.5  9.0  0.1256E+00  0.1385E+02 -0.1976E+01E
 Epicentro: ZAPATOCA - SANTANDER                                               3
 ACTION:UPD 17-12-12 20:00 OP:rebc STATUS:               ID:20171126052945 L   I
 OLDACT:UP  17-11-26 18:30 OP:dani STATUS:               ID:20171126052742     3
 OLDACT:UP  17-11-26 18:30 OP:dani STATUS:               ID:20171126052742     3
 OLDACT:REG 17-11-26 14:56 OP:dani STATUS:               ID:20171126052742     3
 2017-11-26-0528-00M.COL___486                                                 6
 STAT SP IPHASW D HRMM SECON CODA AMPLIT PERI AZIMU VELO AIN AR TRES W  DIS CAZ7
 BAR2 EZ EP        530  4.73                             169   -0.4110 26.1 181 
 BAR2 EZ ES        530 20.23                             169    0.0510 26.1 181 
 BAR2 EZ I         530 21.06        33.8 0.18            166           26.1 181 
 RUS  HZ EP        530  8.75                             142   -0.7810  104 174 
 RUS  HE ES        530 27.66                             142   -0.3410  104 174 
 RUS  HZ I         530 28.57         7.6 0.24            144            104 174 
 PTB  HZ EP        530 11.35                             132   -0.92 9  145 257 
 PTB  HN ES        530 32.62                             132   -0.25 9  145 257 
 PTB  HZ I         530 34.10         9.5 0.52            129            145 257 
 OCA  HZ EP        530 13.79                             130    0.21 9  157 354 
 OCA  HN ES        530 36.31                             130    1.12 9  157 354 
 OCA  HZ I         530 41.17        19.6 0.16            130            157 354 
 SPBC HZ EP        530 13.74                             128   -0.37 9  163 217 
 SPBC HN ES        530 36.62                             128    0.47 9  163 217 
 SPBC HZ I         530 42.75        14.1 0.28            127            163 217 
 ZAR  HZ EP        530 17.34                             122   -0.26 9  199 292 
 ZAR  HN ES        530 42.63                             122    0.27 9  199 292 
 ZAR  HZ I         530 48.29        12.7 0.34            121            199 292 
 NOR  HZ EP        530 21.40                             118    0.14 8  233 233 
 NOR  HN ES        530 49.23                             118    0.35 8  233 233 
 NOR  HZ I         530 53.52         5.6 0.22            117            233 233 
 CHI  HZ EP        530 23.16                             116   -0.44 8  251 194 
 CHI  HN ES        530 53.02                             116   -0.01 8  251 194 
 CHI  HZ I         530 54.72         6.1 0.36            117            251 194 
 ROSC BZ EP        530 25.02                             116    1.14 8  254 210 
 ROSC BE ES        530 55.04                             116    1.50 8  254 210 
 ROSC BZ I         531  1.13         8.5 0.35            116            254 210 
 HEL  HZ EP        530 26.85                             114    1.27 8  269 255 
 HEL  HN ES        530 57.28                             114    0.72 8  269 255 
 HEL  HZ I         531  4.41         4.6 0.52            114            269 255 
 URE  HZ EP        530 24.60                             113   -1.64 7  279 292 
 URE  HN ES        530 55.85                             113   -1.89 7  279 292 
 URE  HZ I         531  7.82        10.1 0.24            113            279 292 
 DRL03HZ EP        530 27.66                             113    0.75 7  285 353 
 DRL03HN ES   3    531  0.68                             113    1.75 2  285 353 
 GUY2CHZ EP   3    530 30.57                             112    1.40 2  300 234 
 GUY2CHZ I         531 12.63         4.7 0.28                           300 234 
 CBOC HZ EP        530 32.99                             109    0.65 7  331 251 
 CBOC HE ES   3    531  9.85                             109    1.27 2  331 251 
 CBOC HZ I         531 29.55         2.1 0.68            109            331 251 
 PRA  HZ EP        530 39.09                             106   -0.28 6  393 209 
 PRA  HN ES        531 20.23                             106   -0.87 6  393 209 
 PRA  HZ I         531 24.87         4.4 0.26            107            393 209 
 SJC  HZ EP   9    530 38.54                             105   -2.22 0  405 327 
 SJC  HN ES        531 20.95                             105   -0.41 6  405 327 
 SJC  HZ I         531 26.10         1.6 0.62            106            405 327 
                                                                                
