 2011  826 0705 37.6 L   6.808 -73.096144.4  RSN  6 0.3 1.4LRSN                1
 GAP=143        0.64       3.8     7.9  6.0 -0.7763E+01  0.8384E+01 -0.1259E+01E
 Epicentro: LOS SANTOS - SANTANDER                                             3
 ACTION:UPD 12-07-13 15:53 OP:ep   STATUS:               ID:20110826070537 L   I
 2011-08-26-0700-00M.COL___168                                                 6
 STAT SP IPHASW D HRMM SECON CODA AMPLIT PERI AZIMU VELO AIN AR TRES W  DIS CAZ7
 BAR2 SZ EP   1    7 5 56.90                             169   -0.21 7 25.7 202 
 BAR2 SZ I         7 5 57.45         6.1 0.23                          25.7 202 
 BAR2 SZ ES   1    7 6 12.46                             169    0.12 7 25.7 202 
 GIR2 SZ EP   1    7 5 56.88                             167   -0.24 7 31.9 340 
 GIR2 SZ ES   1    7 6 12.71                             167    0.36 7 31.9 340 
 PAM  SZ EP   1    7 5 59.72                             152    0.30 7 73.3  37 
 PAM  SN ES   1    7 6 16.52                             152    0.07 7 73.3  37 
 RUS  HZ EP   1    7 6  1.33                             143    0.07 7  101 179 
 RUS  HZ I         7 6  2.21         2.7 0.15                           101 179 
 RUS  HN ES   2    7 6 19.00                             143   -0.72 5  101 179 
 OCA  SZ EP   1    7 6  6.12                             129    0.33 7  160 351 
 OCA  SZ ES   1    7 6 27.16                             129   -0.62 7  160 351 
 OCA  SZ I         7 6 31.95         5.1 0.21                           160 351 
 NOR  SN ES   2    7 6 42.38                             118    0.36 4  240 235 
                                                                                
