 2011  626 0536 29.6 L   6.794 -73.118144.4  RSN 20 0.5 3.0LRSN                1
 GAP=117        0.86       2.8     5.0  4.5 -0.2266E+01  0.6176E+01  0.3296E+01E
 Epicentro: LOS SANTOS - SANTANDER                                             3
 ACTION:UP  11-07-14 19:08 OP:ep   STATUS:               ID:20110626053629 L   I
 2011-06-26-0535-24S.COL___140                                                 6
 STAT SP IPHASW D HRMM SECON CODA AMPLIT PERI AZIMU VELO SNR AR TRES W  DIS CAZ7
 BTL  SZ IP        536 49.13                             171     0.110   21 310 
 BTL  SZ ES   2    537  4.48                             171     0.3 5   21 310 
 BAR2 SZ IP        536 49.03                             170     0.010   23 198 
 BAR2 SZ ES   1    537  4.00                             170    -0.3 7   23 198 
 BAR2 SZ I         537  5.10       172.1 0.32                            23 198 
 GIR2 SZ IP        536 49.07                             167    -0.110   33 345 
 GIR2 SZ ES   1    537  3.42                             167    -1.0 7   33 345 
 BRR  HZ IP     C  536 50.77                             151     0.010   74 298 
 BRR  HZ I         536 51.06       300.1 0.12                            74 298 
 BRR  HN ES   1    537  7.85                             151     0.6 7   74 298 
 PAM  SZ EP   2    536 51.49                             151    -0.1 5   76  37 
 PAM  SN ES   1    537  9.34                             151     0.6 7   76  37 
 RUS  HZ EP        536 53.03                             144    -0.110  100 178 
 RUS  HN ES   1    537 11.76                             144     0.2 7  100 178 
 BRI  SZ EP        536 53.58                             141     0.210  108  19 
 GRA  SZ EP        536 54.53                             137    -0.210  125  16 
 OCA  SZ EP        536 57.65                             129    -0.3 9  161 352 
 OCA  SZ ES   1    537 20.00                             129     0.0 7  161 352 
 OCA  SZ I         537 27.85        61.9 0.27                           161 352 
 YOP  SZ EP        536 59.58                             126     0.2 9  177 154 
 YOP  SN ES   3    537 22.32                             126    -0.3 2  177 154 
 NOR  SZ EP        537  4.89                             118    -0.6 8  237 235 
 NOR  SN ES   3    537 32.34                             118    -1.1 2  237 235 
 CHI  HZ EP        537  7.25                             117     0.0 8  249 196 
 CHI  HN ES   1    537 36.78                             117     0.2 6  249 196 
 CHI  HZ I         537 39.06        51.8 0.36                           249 196 
 ROSC BZ EP   2    537  8.72                             116     1.0 4  254 212 
 ROSC BZ I         537 43.70        78.6 0.36                           254 212 
 HEL  HZ EP        537 10.48                             114     0.4 8  275 256 
 HEL  HZ I         537 48.59        28.5 0.26                           275 256 
 VIL  SZ EP   3    537 11.33                             112    -1.6 2  303 192 
 VIL  SN ES   2    537 45.57                             112    -1.2 4  303 192 
 VIL  SZ I         537 57.47        29.2 0.47                           303 192 
 RREF HZ EP        537 16.39                             110     0.5 7  324 230 
 RREF HN ES   3    537 53.57                             110     1.5 2  324 230 
 RREF HZ I         537 58.51        34.3 0.42                           324 230 
 DBB  SZ EP        537 17.11                             109    -0.3 7  343 274 
 TOL  SZ EP        537 18.57                             109     0.6 7  345 225 
 PRA  HZ EP        537 22.72                             106    -0.5 6  393 210 
 PRA  HN ES   2    538  5.10                             106     0.1 3  393 210 
 PRA  HZ I         538  7.99        79.6 0.21                           393 210 
 SJA  SZ EP        537 24.11                             106     0.0 6  400 193 
 SJA  SZ I         538  6.83        51.0 0.40                           400 193 
                                                                                
