 2017  926 0514 47.2 L   6.746 -73.116146.3  RSN  5 0.3 1.3LRSN                1
 GAP=143        0.73       3.9     5.1  5.9  0.1337E+01  0.1200E-01  0.4182E-01E
 Epicentro: LOS SANTOS - SANTANDER                                             3
 ACTION:UPD 17-10-05 19:16 OP:rebc STATUS:               ID:20170926051447 L   I
 OLDACT:DUP 17-09-26 16:31 OP:osc  STATUS:               ID:20170926050740d    3
 2017-09-26-0508-00M.COL___438                                                 6
 STAT SP IPHASW D HRMM SECON CODA AMPLIT PERI AZIMU VELO AIN AR TRES W  DIS CAZ7
 BAR2 EZ EP        515  6.71                             172   -0.1010 18.6 203 
 BAR2 EZ ES        515 21.56                             172   -0.5410 18.6 203 
 BAR2 EZ I         515 22.76         7.5 0.20            173           18.6 203 
 BRR  HZ EP        515  8.71                             151   -0.0410 77.0 301 
 BRR  HE ES        515 25.95                             151    0.4010 77.0 301 
 BRR  HZ I         515 26.28         4.2 0.28            152           77.0 301 
 PAM  EZ EP        515  9.68                             150    0.0410 80.1  35 
 PAM  EN ES        515 27.19                             150    0.0610 80.1  35 
 PAM  EZ I         515 28.97         3.1 0.21            150           80.1  35 
 RUS  HZ EP        515 10.61                             146    0.0310 94.5 178 
 RUS  HE ES        515 29.07                             146    0.2610 94.5 178 
 RUS  HZ I         515 30.41         2.7 0.34            147           94.5 178 
 ZAR  HE ES   2    515 45.29                             122   -0.71 4  209 293 
                                                                                
