 2012  926 0154 38.6 L   6.800 -73.144150.5  RSN 17 0.4 2.9LRSN                1
 GAP= 71        0.84       3.5     3.0  4.4  0.2130E+00  0.3166E+01  0.4608E+01E
 Epicentro: LOS SANTOS - SANTANDER                                             3
 ACTION:UPD 12-10-22 14:20 OP:ep   STATUS:               ID:20120926015438 L   I
 2012-09-26-0150-00M.COL___217                                                 6
 STAT SP IPHASW D HRMM SECON CODA AMPLIT PERI AZIMU VELO AIN AR TRES W  DIS CAZ7
 BAR2 SZ IP     D  154 58.59                             171   -0.2110 23.3 190 
 BAR2 SZ ES   1    155 14.72                             171    0.17 7 23.3 190 
 BAR2 SZ I         155 15.47       155.5 0.11                          23.3 190 
 GIR2 SZ EP        154 58.70                             168   -0.1310 31.3 350 
 GIR2 SZ ES        155 14.86                             168    0.2410 31.3 350 
 BRR  HZ IP     C  155  0.49                             153    0.2210 71.3 298 
 BRR  HN ES   1    155 17.90                             153    0.73 7 71.3 298 
 BRR  HN I         155 18.61       835.2 0.15                          71.3 298 
 BRR  HZ I         155 20.30       169.4 0.32                          71.3 298 
 PAM  SZ EP        155  1.39                             152    0.0810 77.3  39 
 PAM  SN ES   1    155 18.74                             152   -0.29 7 77.3  39 
 RUS  HZ EP        155  2.48                             145   -0.3310  101 176 
 RUS  HN ES   1    155 21.40                             145   -0.31 7  101 176 
 PTB  HN ES   1    155 26.59                             133   -0.73 7  148 259 
 TAM  HZ IP     C  155  6.74                             132    0.10 9  155 105 
 TAM  HN ES   1    155 28.54                             132    0.03 7  155 105 
 ZAR  HZ EP   1    155 11.22                             123   -0.15 6  204 292 
 ZAR  HE ES   1    155 36.96                             123    0.03 6  204 292 
 NOR  SZ EP        155 14.24                             119   -0.38 8  235 234 
 NOR  SN ES   1    155 42.31                             119   -0.40 6  235 234 
 CHI  HZ EP        155 16.60                             118    0.04 8  249 195 
 CHI  HN ES   1    155 45.93                             118   -0.25 6  249 195 
 CHI  HZ I         155 51.95        33.0 0.34                           249 195 
 ROSC BZ EP   1    155 18.24                             118    1.26 6  253 211 
 HEL  HZ EP   1    155 19.90                             116    0.83 6  272 256 
 HEL  HZ I         155 57.30        44.9 0.30                           272 256 
 VIL  SZ EP   1    155 22.44                             113    0.21 5  303 192 
 RREF HZ EP   1    155 25.45                             112    0.49 5  322 229 
 DBB  SZ EP        155 26.09                             110   -0.20 7  340 274 
 DBB  SZ ES   1    156  2.98                             110   -0.50 5  340 274 
 DBB  SZ I         156  7.06        26.5 0.32                           340 274 
 TOL  SZ EP   1    155 28.09                             110    1.03 5  344 225 
 COD  HZ EP   1    155 26.34                             110   -0.83 5  348 355 
 COD  HZ I         156 10.73        11.3 0.21                           348 355 
                                                                                
