 2011  326 0205 33.3 L   6.790 -73.102138.4  RSN  5 0.4 1.9LRSN                1
 GAP=187        0.67       6.6    10.2  8.3 -0.4123E+02  0.3580E+01  0.5914E+01E
 Epicentro: LOS SANTOS - SANTANDER                                             3
 ACTION:UP  11-06-16 14:35 OP:jfem STATUS:               ID:20110326020533 L   I
 2011-03-26-0200-00M.COL___141                                                 6
 STAT SP IPHASW D HRMM SECON CODA AMPLIT PERI AZIMU VELO SNR AR TRES W  DIS CAZ7
 BAR2 SZ EP   2    2 5 51.66                             170    -0.4 5   24 202 
 BAR2 SZ ES   2    2 6  7.01                             170     0.3 5   24 202 
 BAR2 SZ I         2 6  8.53        25.9 0.24                            24 202 
 BRR  HZ IP     C  2 5 53.67                             150    -0.310   76 298 
 BRR  HZ I         2 5 54.02        25.3 0.08                            76 298 
 BRR  HN ES   2    2 6  9.91                             150    -0.2 5   76 298 
 GRA  SZ EP   1    2 5 57.72                             135    -0.2 7  125  15 
 GRA  SZ ES   2    2 6 17.66                             135     0.6 5  125  15 
 GRA  SZ I         2 6 19.45         5.4 0.45                           125  15 
 OCA  SZ EP   2    2 6  1.42                             128     0.2 5  162 351 
 OCA  SZ ES   2    2 6 23.31                             128     0.3 5  162 351 
 OCA  SZ I         2 6 33.07         7.4 0.18                           162 351 
 RREF HZ EP   1    2 6 20.04                             109     0.6 5  325 230 
 RREF HN ES   2    2 6 55.93                             109     0.4 3  325 230 
 RREF HZ I         2 7  1.30         3.9 0.26                           325 230 
                                                                                
