 2016 1226 0221 27.2 L   6.764 -73.144150.9  RSN  4 0.3 0.9LRSN                1
 GAP=235        0.68       5.7     5.8  5.7  0.1782E+02  0.5135E+01  0.1934E+01E
 Epicentro: LOS SANTOS - SANTANDER                                             3
 ACTION:UPD 17-01-11 20:19 OP:rebc STATUS:               ID:20161226022127 L   I
 OLDACT:UP  16-12-26 15:25 OP:edw  STATUS:               ID:20161226021743     3
 OLDACT:REG 16-12-26 12:29 OP:edw  STATUS:               ID:20161226021743     3
 2016-12-26-0218-00M.COL___378                                                 6
 STAT SP IPHASW D HRMM SECON CODA AMPLIT PERI AZIMU VELO AIN AR TRES W  DIS CAZ7
 BAR2 EZ ES        222  3.02                             172   -0.1310 19.4 193 
 BRR  HZ EP        221 49.02                             153   -0.0410 73.4 301 
 BRR  HN ES        222  6.21                             153    0.1310 73.4 301 
 BRR  HZ I         222  8.95         2.0 0.40            150           73.4 301 
 RUS  HZ EP        221 51.63                             146    0.4210 96.6 176 
 RUS  HN ES        222  9.77                             146   -0.1510 96.6 176 
 RUS  HZ I         222 11.07         1.1 0.26            146           96.6 176 
 PTB  HZ EP        221 54.14                             133   -0.44 9  147 260 
 PTB  HN ES        222 16.09                             133    0.19 9  147 260 
 PTB  HZ I         222 20.47         0.6 0.08            132            147 260 
                                                                                
