 2012  926 0902 11.4 L   6.629 -73.196151.5  RSN  4 0.2 1.1LRSN                1
 GAP=207        0.48       8.6     5.6  8.4  0.5961E+01  0.1936E+02 -0.2010E+02E
 Epicentro: BARICHARA - SANTANDER                                              3
 ACTION:UPD 12-10-22 14:20 OP:ep   STATUS:               ID:20120926090211 L   I
 2012-09-26-0900-00M.COL___217                                                 6
 STAT SP IPHASW D HRMM SECON CODA AMPLIT PERI AZIMU VELO AIN AR TRES W  DIS CAZ7
 BAR2 SZ ES   1    9 2 46.98                             178   -0.21 7 4.40 159 
 BAR2 SZ I         9 2 47.28         1.9 0.32                          4.40 159 
 BRR  HZ EP   1    9 2 33.66                             151    0.11 7 77.7 313 
 BRR  HN ES   1    9 2 51.05                             151    0.23 7 77.7 313 
 BRR  HN I         9 2 51.39         5.8 0.20                          77.7 313 
 PTB  HN ES   1    9 2 59.13                             135    0.13 7  140 266 
 PTB  HN I         9 3  0.48         0.8 0.50                           140 266 
 ZAR  HN ES   1    9 3 10.02                             123   -0.34 6  207 298 
                                                                                
