 2012 1126 0807 37.0 L   6.785 -73.179136.3  RSN  8 0.3 2.1LRSN                1
 GAP=140        0.76       3.2     3.3  5.4 -0.1859E+01  0.6066E+01  0.4286E+01E
 Epicentro: LOS SANTOS - SANTANDER                                             3
 ACTION:UPD 12-12-05 15:36 OP:}ep  STATUS:               ID:20121126080737 L   I
 2012-11-26-0800-00M.COL___233                                                 6
 STAT SP IPHASW D HRMM SECON CODA AMPLIT PERI AZIMU VELO AIN AR TRES W  DIS CAZ7
 BAR2 SZ EP        8 7 55.64                             171    0.1810 21.3 181 
 BAR2 SZ ES        8 8  9.86                             171    0.0110 21.3 181 
 BAR2 SZ I         8 8 11.82        21.8 0.20                          21.3 181 
 PAM  SZ EP        8 7 58.45                             148   -0.0110 81.0  41 
 PAM  SN ES        8 8 15.38                             148    0.1910 81.0  41 
 PAM  SN I         8 8 16.16        16.4 0.44                          81.0  41 
 PTB  HZ EP        8 8  2.44                             131   -0.42 9  144 259 
 PTB  HN ES        8 8 22.41                             131   -0.61 9  144 259 
 PTB  HN I         8 8 28.40        13.4 0.26                           144 259 
 OCA  HN ES        8 8 26.22                             127   -0.13 9  162 354 
 OCA  HN I         8 8 29.37        39.9 0.18                           162 354 
 ZAR  HZ EP        8 8  8.39                             121   -0.18 9  201 293 
 ZAR  HN ES        8 8 33.60                             121    0.41 9  201 293 
 ZAR  HN I         8 8 39.24        20.3 0.42                           201 293 
 CHI  HZ EP        8 8 13.86                             115   -0.06 8  246 194 
 CHI  HN I         8 8 49.24         9.2 0.44                           246 194 
 HEL  HE ES        8 8 47.61                             113    0.64 8  268 256 
 HEL  HE I         8 8 58.54         3.5 0.22                           268 256 
 PRA  HZ EP        8 8 30.15                             105    0.32 6  389 209 
 PRA  HN ES        8 9 11.11                             105    0.07 6  389 209 
 PRA  HN I         8 9 17.13         3.7 0.72                           389 209 
                                                                                
