 2017 1126 0512 30.7 L   6.730 -73.158146.0  RSN  4 0.3 1.4LRSN                1
 GAP=241        0.77       8.2     6.1  9.0  0.2537E+02  0.7487E+01 -0.3414E+02E
 Epicentro: VILLANUEVA - SANTANDER                                             3
 ACTION:UPD 17-12-12 20:00 OP:rebc STATUS:               ID:20171126051230 L   I
 OLDACT:UP  17-11-26 18:17 OP:dani STATUS:               ID:20171126050742     3
 OLDACT:REG 17-11-26 14:54 OP:dani STATUS:               ID:20171126050742     3
 2017-11-26-0508-00M.COL___486                                                 6
 STAT SP IPHASW D HRMM SECON CODA AMPLIT PERI AZIMU VELO AIN AR TRES W  DIS CAZ7
 BAR2 EZ EP        512 50.07                             174   -0.1310 15.5 190 
 BAR2 EZ ES        513  5.27                             174   -0.1610 15.5 190 
 BAR2 EZ I         513  7.03         5.6 0.26            176           15.5 190 
 RUS  HN ES        513 12.36                             146    0.3210 93.0 175 
 PTB  HE ES        513 17.91                             133   -0.38 9  145 262 
 ZAR  HZ EP        513  3.19                             122   -0.13 8  206 294 
 ZAR  HZ ES        513 29.32                             122    0.54 8  206 294 
                                                                                
