 2017  426 0855 56.7 L   6.727 -73.182143.1  RSN  4 0.3 1.2LRSN                1
 GAP=235        0.70       7.8     5.9  6.8  0.1238E+02  0.1704E+02  0.3586E+00E
 Epicentro: VILLANUEVA - SANTANDER                                             3
 ACTION:UPD 17-05-30 21:16 OP:jn   STATUS:               ID:20170426085556 L   I
 OLDACT:UP  17-04-26 16:44 OP:dani STATUS:               ID:20170426084708     3
 OLDACT:REG 17-04-26 12:42 OP:dani STATUS:               ID:20170426084708     3
 2017-04-26-0848-00M.COL___360                                                 6
 STAT SP IPHASW D HRMM SECON CODA AMPLIT PERI AZIMU VELO AIN AR TRES W  DIS CAZ7
 BAR2 EZ ES        856 30.60                             174   -0.2310 14.9 180 
 BRR  HZ EP        856 17.53                             152   -0.1010 72.1 306 
 BRR  HE ES        856 34.33                             152    0.3910 72.1 306 
 PTB  HZ EP        856 23.25                             132    0.26 9  142 262 
 PTB  HN ES        856 43.48                             132    0.00 9  142 262 
 PTB  HZ I         856 49.82         2.1 0.18            129            142 262 
 ZAR  HE ES        856 53.69                             122   -0.39 9  204 295 
                                                                                
