 2017  726 0048 25.1 L   6.808 -73.132142.0  RSN 17 0.6 2.0LRSN                1
 GAP= 72        1.07       4.5     3.1  6.0 -0.1629E+01 -0.7968E-01  0.1025E+02E
 Epicentro: LOS SANTOS - SANTANDER                                             3
 ACTION:UPD 17-08-30 15:36 OP:rebc STATUS:               ID:20170726004825 L   I
 OLDACT:UP  17-07-26 13:24 OP:and  STATUS:               ID:20170726004735     3
 OLDACT:UP  17-07-26 13:23 OP:and  STATUS:               ID:20170726004735     3
 OLDACT:UP  17-07-26 13:23 OP:and  STATUS:               ID:20170726004735     3
 OLDACT:UP  17-07-26 13:21 OP:and  STATUS:               ID:20170726004735     3
 OLDACT:UP  17-07-26 13:21 OP:and  STATUS:               ID:20170726004735     3
 OLDACT:UP  17-07-26 13:20 OP:and  STATUS:               ID:20170726004735     3
 OLDACT:UP  17-07-26 13:20 OP:and  STATUS:               ID:20170726004735     3
 OLDACT:UP  17-07-26 13:18 OP:and  STATUS:               ID:20170726004735     3
 OLDACT:REG 17-07-26 12:39 OP:and  STATUS:               ID:20170726004735     3
 2017-07-26-0048-00M.COL___395                                                 6
 STAT SP IPHASW D HRMM SECON CODA AMPLIT PERI AZIMU VELO AIN AR TRES W  DIS CAZ7
 BAR2 EZ IP     C  048 44.22                             170   -0.1110 24.5 193 
 BAR2 EZ ES   2    048 58.03                             170   -1.28 5 24.5 193 
 BAR2 EZ I         048 59.87        28.8 0.34            168           24.5 193 
 BRR  HZ EP        048 45.88                             152   -0.0510 72.1 297 
 BRR  HN ES        049  2.79                             152    0.6410 72.1 297 
 BRR  HZ I         049  6.86        15.2 0.16            150           72.1 297 
 PAM  EZ EP   2    048 45.87                             151   -0.98 5 75.8  39 
 PAM  EN ES        049  3.96                             151    0.1710 75.8  39 
 PAM  EZ I         049  5.96        27.6 0.44            154           75.8  39 
 RUS  HZ EP     C  048 48.78                             143    0.2110  101 177 
 RUS  HN ES        049  6.49                             143   -0.3610  101 177 
 RUS  HZ I         049  8.55        11.8 0.28            143            101 177 
 PTB  HZ EP        048 51.25                             131   -0.70 9  149 259 
 PTB  HN ES        049 12.57                             131   -0.30 9  149 259 
 PTB  HZ I         049 14.86         6.8 0.16            130            149 259 
 TAM  HZ IP     C  048 52.62                             130    0.22 9  154 105 
 TAM  HN ES        049 14.09                             130    0.43 9  154 105 
 SPBC HZ EP        048 53.37                             128   -0.13 9  165 219 
 SPBC HN ES        049 15.87                             128    0.24 9  165 219 
 SPBC HZ I         049 21.56        12.1 0.36            128            165 219 
 YPLC HZ IP     C  048 54.81                             126    0.15 9  177 152 
 YPLC HN ES   2    049 17.22                             126   -0.47 4  177 152 
 YPLC HZ I         049 21.40        11.5 0.28            127            177 152 
 ZAR  HZ EP   9    048 58.11                             121    0.66 0  205 292 
 ZAR  HE ES        049 23.15                             124   -0.17 9  205 292 
 ZAR  HZ I         049 28.64        12.0 0.22            122            205 292 
 NOR  HZ EP   3    049  1.67                             117    0.84 2  236 235 
 NOR  HN ES        049 28.50                             117   -0.18 8  236 235 
 HEL  HZ EP   9    049  6.23                             114    0.89 0  274 256 
 HEL  HN ES        049 38.04                             116    0.45 8  274 256 
 HEL  HZ I         049 42.85         4.4 0.36            114            274 256 
 GUY2CHZ EP        049  8.82                             111    0.05 7  303 235 
 GUY2CHE ES   4    049 45.00                             111    2.20 0  303 235 
 GUY2CHZ I         049 49.81         3.3 0.46                           303 235 
 PTGC HZ EP        049  7.74                             111   -1.11 7  309 159 
 PTGC HN ES   4    049 41.11                             111   -1.84 0  309 159 
 PTGC HZ I         049 42.45         6.9 0.40            112            309 159 
 CBOC HZ EP        049 12.72                             109    0.63 7  335 252 
 CBOC HN ES   3    049 46.65                             109   -2.07 2  335 252 
 CBOC HZ I         049 53.21         1.7 0.66            109            335 252 
 PRA  HZ EP        049 19.16                             106    0.46 6  393 210 
 PRA  HN ES        050  2.03                             106    1.55 6  393 210 
 PRA  HZ I         050  6.21         4.1 0.24            106            393 210 
 ORTC HN ES   4    050  3.71                             106    2.49 0  397 216 
 ORTC HZ I         050  9.13         3.1 0.46            106            397 216 
 SJC  HZ IP   3 D  049 18.93                             105   -1.66 1  409 327 
 SJC  HN ES   4    049 59.49                             105   -4.35 0  409 327 
 SJC  HZ I         050  4.35         3.5 0.70            106            409 327 
                                                                                
