 2017 1226 0211 58.5 L   6.649 -74.080  4.0  RSN  8 0.5 1.5LRSN                1
 GAP= 86        1.30       2.9     2.4  6.4 -0.1435E+01  0.3474E+00  0.2421E+01E
 Epicentro: PUERTO PARRA - SANTANDER                                           3
 ACTION:UPD 18-01-04 13:24 OP:rebc STATUS:               ID:20171226021158 L   I
 OLDACT:UP  17-12-26 14:31 OP:osc  STATUS:               ID:20171226020556     3
 OLDACT:REG 17-12-26 12:54 OP:osc  STATUS:               ID:20171226020556     3
 2017-12-26-0208-00M.COL___469                                                 6
 STAT SP IPHASW D HRMM SECON CODA AMPLIT PERI AZIMU VELO AIN AR TRES W  DIS CAZ7
 PTB  HZ EP        212  4.80                              47   -0.9010 43.4 254 
 PTB  HE ES        212 11.97                              47    0.6710 43.4 254 
 PTB  HZ I         212 12.22        30.8 0.16             47           43.4 254 
 BAR2 EZ EP        212 14.63                              47    0.2010 99.4  94 
 BAR2 EZ ES        212 26.34                              47   -0.4910 99.4  94 
 BAR2 EZ I         212 27.80        23.9 0.90             47           99.4  94 
 SPBC HE ES        212 29.43                              47   -0.0510  110 180 
 ZAR  HZ EP        212 18.70                              47    0.3710  127 317 
 ZAR  HE ES        212 33.10                              47   -0.6910  127 317 
 ZAR  HZ I         212 34.77         6.0 0.12             47            127 317 
 PAM  EZ EP        212 26.10                              47    0.64 9  171  63 
 PAM  EN ES        212 46.26                              47   -0.21 9  171  63 
 PAM  EZ I         212 48.71         8.5 0.22             47            171  63 
 OCA  HE ES        212 52.08                              37    0.54 9  195  25 
 GUY2CHZ EP        212 31.03                              37    0.14 8  212 222 
 GUY2CHN ES        212 55.68                              37   -0.46 8  212 222 
 GUY2CHZ I         213  3.71         1.6 0.64                           212 222 
 ELA  HN ES        213  4.28                              37    0.54 8  246 217 
                                                                                
