 2017 1026 0318 39.8 L   6.655 -74.086  6.5  RSN  5 0.5 0.7LRSN                1
 GAP=126        0.84       2.7     2.1  6.8 -0.1329E+01 -0.4775E+01 -0.2897E+01E
 Epicentro: PUERTO PARRA - SANTANDER                                           3
 ACTION:UPD 17-11-07 19:36 OP:rebc STATUS:               ID:20171026031839 L   I
 OLDACT:UP  17-10-26 16:30 OP:dani STATUS:               ID:20171026030623d    3
 OLDACT:UP  17-10-26 16:29 OP:dani STATUS:               ID:20171026030623d    3
 OLDACT:DUP 17-10-26 16:19 OP:dani STATUS:               ID:20171026030623d    3
 OLDACT:REG 17-10-26 13:00 OP:dani STATUS:               ID:20171026030622     3
 2017-10-26-0308-00M.COL___447                                                 6
 STAT SP IPHASW D HRMM SECON CODA AMPLIT PERI AZIMU VELO AIN AR TRES W  DIS CAZ7
 PTB  HZ EP     D  318 46.83                              94   -0.0910 42.9 253 
 PTB  HN ES        318 52.74                              94    0.2710 42.9 253 
 PTB  HZ I         318 52.95         2.1 0.24             47           42.9 253 
 BRR  HZ EP        318 49.91                              92   -0.3210 64.9  40 
 BRR  HN ES        318 58.36                              92   -0.0110 64.9  40 
 BRR  HZ I         318 58.95         4.4 0.17             47           64.9  40 
 ZAR  HN ES   3    319 12.61                              91   -2.22 2  126 317 
 RUS  HZ EP        319  2.10                              91    0.08 9  139 127 
 RUS  HN ES        319 19.10                              91   -0.25 9  139 127 
 RUS  HZ I         319 21.98         1.9 0.22             47            139 127 
 PAM  EN ES        319 28.40                              56    0.55 9  171  64 
                                                                                
