 2017 1026 0735 36.8 L   6.757 -73.233144.4  RSN  4 0.3 1.0LRSN                1
 GAP=217        0.81       6.3     5.9  6.5  0.1813E+02  0.4699E+01  0.2443E+01E
 Epicentro: ZAPATOCA - SANTANDER                                               3
 ACTION:UPD 17-11-07 19:37 OP:rebc STATUS:               ID:20171026073536 L   I
 OLDACT:DUP 17-10-26 19:11 OP:dhb  STATUS:               ID:20171026071559d    3
 OLDACT:REG 17-10-26 13:22 OP:dani STATUS:               ID:20171026071558d    3
 2017-10-26-0728-00M.COL___387                                                 6
 STAT SP IPHASW D HRMM SECON CODA AMPLIT PERI AZIMU VELO AIN AR TRES W  DIS CAZ7
 BAR2 EZ EP        735 55.88                             172   -0.2910 19.0 163 
 BAR2 EZ ES        736 10.85                             172   -0.4410 19.0 163 
 BAR2 EZ I         736 12.06         2.4 0.44            174           19.0 163 
 BRR  HZ EP        735 57.80                             154    0.3210 65.6 306 
 BRR  HN ES        736 13.90                             154    0.2810 65.6 306 
 BRR  HZ I         736 20.88         3.5 0.58            152           65.6 306 
 RUS  HZ EP        736  0.36                             145    0.2210 97.0 170 
 RUS  HN ES        736 18.63                             145    0.2710 97.0 170 
 RUS  HZ I         736 19.90         1.4 0.20            149           97.0 170 
 PTB  HZ EP        736  2.32                             134   -0.39 9  137 260 
 PTB  HN ES        736 22.93                             134   -0.01 9  137 260 
 PTB  HZ I         736 27.92         0.6 0.18            134            137 260 
                                                                                
