 2013 1026 0111 15.0 L   6.793 -73.146148.7  RSN 13 0.5 2.0LRSN                1
 GAP=137        1.08       3.0     4.1  5.4 -0.1645E+01  0.6532E+01  0.2052E+01E
 Epicentro: LOS SANTOS - SANTANDER                                             3
 ACTION:UPD 13-11-25 09:23 OP:ep   STATUS:               ID:20131026011115 L   I
 OLDACT:REG 13-10-26 08:35 OP:carl STATUS:               ID:20131026010848     3
 2013-10-26-0108-48M.COL___230                                                 6
 STAT SP IPHASW D HRMM SECON CODA AMPLIT PERI AZIMU VELO AIN AR TRES W  DIS CAZ7
 BAR2 SZ IP     D  111 34.95                             171   -0.0410 22.6 190 
 BAR2 SZ ES        111 50.53                             171   -0.0410 22.6 190 
 BAR2 SZ I         111 51.72        16.1 0.24            169           22.6 190 
 BRR  HZ IP     C  111 36.83                             153    0.3310 71.5 299 
 BRR  HN ES        111 54.29                             153    1.0310 71.5 299 
 BRR  HZ I         111 56.38        12.0 0.30            151           71.5 299 
 PAM  SZ EP        111 37.75                             151    0.1710 78.0  39 
 PAM  SN ES        111 55.11                             151   -0.0810 78.0  39 
 PAM  SZ I         111 57.11        13.0 0.48            156           78.0  39 
 RUS  HZ EP        111 38.85                             145   -0.1610 99.8 176 
 RUS  HN ES        111 57.33                             145   -0.3910 99.8 176 
 RUS  HZ I         112  0.41         6.9 0.44            146           99.8 176 
 PTB  HZ EP        111 41.55                             133   -0.66 9  148 259 
 PTB  HN ES        112  3.47                             133    0.05 9  148 259 
 PTB  HZ I         112  8.82        13.8 0.44            132            148 259 
 SPBC HZ EP        111 43.79                             130    0.10 9  163 219 
 SPBC HN ES        112  5.86                             130   -0.19 9  163 219 
 SPBC HZ I         112  9.61        53.8 0.94            130            163 219 
 ZAR  HZ EP        111 48.12                             123    0.44 9  204 292 
 ZAR  HE ES        112 13.14                             123   -0.02 9  204 292 
 ZAR  HZ I         112 19.44        11.9 0.42            124            204 292 
 NOR  HZ EP        111 51.18                             119    0.31 8  234 235 
 NOR  HE ES        112 18.57                             119   -0.26 8  234 235 
 NOR  HZ I         112 26.16         6.0 0.16            120            234 235 
 SML  HZ EP        111 51.38                             118   -0.50 8  244 335 
 SML  HN ES        112 19.67                             118   -0.97 8  244 335 
 SML  HZ I         112 22.92        12.6 0.26            120            244 335 
 CHI  HZ EP        111 53.10                             118    0.30 8  248 195 
 CHI  HN ES        112 22.03                             118   -0.24 8  248 195 
 CHI  HZ I         112 26.34         2.8 0.50            119            248 195 
 GUY2CHZ EP        111 59.03                             113    0.32 7  301 235 
 GUY2CHN ES        112 31.94                             113   -0.85 7  301 235 
 GUY2CHZ I         112 41.55         5.1 0.44                           301 235 
 RREF HZ EP        112  2.31                             111    1.08 7  321 229 
 RREF HN ES        112 36.95                             111   -0.33 7  321 229 
 RREF HZ I         112 46.56         4.4 0.34            113            321 229 
 PRA  HZ EP        112  8.74                             107    0.18 6  391 210 
 PRA  HN ES        112 50.91                             107    0.58 6  391 210 
                                                                                
