 2011 1126 0750 21.2 L   6.773 -73.087153.3  RSN  4 0.2 1.9LRSN                1
 GAP=145        0.35       3.9     5.9  5.7 -0.5491E+00 -0.2322E+01  0.7353E+00E
 Epicentro: LOS SANTOS - SANTANDER                                             3
 ACTION:UPD 12-07-13 16:12 OP:ep   STATUS:               ID:20111126075021 L   I
 2011-11-26-0746-45S.COL___158                                                 6
 STAT SP IPHASW D HRMM SECON CODA AMPLIT PERI AZIMU VELO AIN AR TRES W  DIS CAZ7
 BAR2 SZ EP   2    750 41.43                             171   -0.30 5 22.6 208 
 BAR2 SZ ES   2    750 57.82                             171    0.09 5 22.6 208 
 BAR2 SZ I         750 58.03        11.9 0.20                          22.6 208 
 PAM  SZ EP   2    750 44.51                             153    0.37 5 75.9  34 
 PAM  SN ES   2    751  1.84                             153   -0.19 5 75.9  34 
 BRR  HZ EP   2    750 43.48                             151   -0.09 5 78.3 298 
 BRR  HZ I         750 43.61        15.2 0.14                          78.3 298 
 BRR  HE ES   2    751  1.09                             151    0.08 5 78.3 298 
 RUS  HZ EP   2    750 45.47                             146   -0.01 5 97.3 180 
 RUS  HN ES   2    751  4.46                             146    0.05 5 97.3 180 
                                                                                
