 2013  126 0842 38.9 L   6.801 -73.154147.1  RSN 10 0.5 1.9LRSN                1
 GAP= 71        1.24       4.2     4.4  7.2  0.6938E-01  0.4483E+01  0.6621E+01E
 Epicentro: LOS SANTOS - SANTANDER                                             3
 ACTION:UPD 13-02-15 09:16 OP:ep   STATUS:               ID:20130126084238 L   I
 2013-01-26-0838-35M.COL___186                                                 6
 STAT SP IPHASW D HRMM SECON CODA AMPLIT PERI AZIMU VELO AIN AR TRES W  DIS CAZ7
 BAR2 SZ EP        842 58.62                             171   -0.0310 23.3 188 
 BAR2 SZ ES        843 14.70                             171    0.6210 23.3 188 
 BAR2 SZ I         843 15.33        15.2 0.38            170           23.3 188 
 BRR  HZ EP        843  0.54                             153    0.4410 70.3 299 
 BRR  HZ I         843  0.83        20.1 0.20            151           70.3 299 
 BRR  HN ES        843 17.22                             153    0.5510 70.3 299 
 PAM  SZ EP        843  1.36                             151    0.1110 77.9  40 
 PAM  SN ES        843 18.71                             151    0.0010 77.9  40 
 PAM  SN I         843 19.86         6.9 0.22            153           77.9  40 
 RUS  HZ EP        843  2.55                             144   -0.2010  101 176 
 RUS  HN ES        843 20.75                             144   -0.6310  101 176 
 RUS  HN I         843 22.83         7.5 0.12            145            101 176 
 PTB  HZ EP        843  5.33                             133   -0.52 9  147 259 
 PTB  HE ES        843 26.61                             133   -0.29 9  147 259 
 PTB  HN I         843 32.01        31.7 0.50            131            147 259 
 TAM  HZ EP        843  6.78                             131    0.05 9  156 105 
 OCA  HZ EP   3    843  7.67                             130    0.41 2  160 353 
 OCA  HN ES        843 28.81                             130   -0.59 9  160 353 
 OCA  HN I         843 32.77        47.5 0.22            130            160 353 
 ZAR  HN ES        843 35.85                             123   -0.75 9  203 292 
 CHI  HZ EP        843 16.38                             117   -0.23 8  248 195 
 CHI  HZ I         843 18.77         2.4 0.42            118            248 195 
 CHI  HN ES        843 46.13                             117    0.07 8  248 195 
 HEL  HZ EP        843 20.58                             115    1.54 8  271 256 
 HEL  HN ES        843 50.45                             115    0.07 8  271 256 
 HEL  HN I         844  0.38         3.1 0.22            115            271 256 
                                                                                
