 2013  526 0849 51.7 L   6.805 -73.171139.9  RSN  6 0.4 1.9LRSN                1
 GAP=179        0.86       5.0     6.4  9.0  0.8377E+01  0.6200E-01 -0.5229E+00E
 Epicentro: LOS SANTOS - SANTANDER                                             3
 ACTION:UPD 13-06-20 09:53 OP:ep   STATUS:               ID:20130526084951 L   I
 2013-05-26-0848-51M.COL___208                                                 6
 STAT SP IPHASW D HRMM SECON CODA AMPLIT PERI AZIMU VELO AIN AR TRES W  DIS CAZ7
 GIR2 SZ EP   1    850 10.71                             167    0.01 7 30.4 355 
 GIR2 SZ I         850 27.60         6.6 0.28            164           30.4 355 
 BRR  HZ IP     C  850 12.53                             152    0.4210 68.5 299 
 BRR  HN ES        850 28.39                             152    0.3910 68.5 299 
 BRR  HN I         850 29.95        17.9 0.16            151           68.5 299 
 RUS  HZ EP   1    850 15.27                             142    0.29 7  101 174 
 RUS  HN ES   1    850 32.63                             142   -0.47 7  101 174 
 RUS  HN I         850 34.52         6.2 0.22            140            101 174 
 PTB  HZ EP   1    850 18.06                             131    0.06 7  145 258 
 PTB  HN ES   1    850 37.87                             131   -0.61 7  145 258 
 PTB  HN I         850 43.84         9.0 0.34            129            145 258 
 OCA  HN ES   1    850 40.46                             128   -0.74 7  159 354 
 OCA  HN I         850 43.33        36.0 0.20            124            159 354 
 ZAR  HZ EP   1    850 23.16                             121   -0.37 6  201 292 
 ZAR  HN ES   1    850 48.44                             121    0.12 6  201 292 
 ZAR  HN I         850 54.72         9.6 0.18            119            201 292 
                                                                                
