 2017  326 0747 39.6 L   6.797 -73.189140.7  RSN  4 0.2 1.2LRSN                1
 GAP=143        0.53       3.2     3.3  4.9 -0.3562E+01  0.1347E+01 -0.4798E+00E
 Epicentro: ZAPATOCA - SANTANDER                                               3
 ACTION:UPD 17-05-25 18:45 OP:jn   STATUS:               ID:20170326074739 L   I
 OLDACT:DUP 17-03-26 15:25 OP:cog  STATUS:               ID:20170326073740d    3
 2017-03-26-0738-00M.COL___353                                                 6
 STAT SP IPHASW D HRMM SECON CODA AMPLIT PERI AZIMU VELO AIN AR TRES W  DIS CAZ7
 BAR2 EZ EP        747 58.58                             170   -0.0110 22.7 178 
 BAR2 EZ ES        748 13.09                             170   -0.3210 22.7 178 
 BAR2 EZ I         748 17.36         6.6 0.50            172           22.7 178 
 PAM  EZ EP        748  1.44                             149   -0.0210 80.7  42 
 PAM  EN ES        748 18.70                             149    0.1710 80.7  42 
 PAM  EZ I         748 21.74         2.3 0.50            151           80.7  42 
 RUS  HZ EP        748  2.69                             143   -0.1510  101 173 
 RUS  HN ES        748 21.24                             143    0.2510  101 173 
 RUS  HZ I         748 22.34         2.4 0.36            147            101 173 
 PTB  HN ES        748 26.18                             132    0.10 9  143 259 
                                                                                
