 2012  726 0328 39.0 L   6.720 -73.221150.9  RSN  4 0.4 1.2LRSN                1
 GAP=215        0.70      13.5     9.6  9.0  0.4716E+02  0.2354E+02  0.6862E-01E
 Epicentro: VILLANUEVA - SANTANDER                                             3
 ACTION:UPD 12-08-14 11:45 OP:ep   STATUS:               ID:20120726032838 L   I
 2012-07-26-0320-00M.COL___215                                                 6
 STAT SP IPHASW D HRMM SECON CODA AMPLIT PERI AZIMU VELO AIN AR TRES W  DIS CAZ7
 BAR2 SZ ES   2    329 14.11                             174    -0.7 5   15 163 
 BRR  HZ EP   1    329  0.68                             154     0.1 7   69 308 
 BRR  HN ES   1    329 17.78                             154     0.4 7   69 308 
 PTB  HZ EP   2    329  5.58                             135     0.1 5  138 262 
 PTB  HN ES   2    329 26.54                             135     0.3 5  138 262 
 PTB  HZ I         329 28.63         1.2 0.34            132            138 262 
 ZAR  HZ EP   1    329 11.33                             124     0.0 6  200 295 
 ZAR  HN ES   1    329 36.03                             124    -0.5 6  200 295 
 ZAR  HZ I         329 39.92         1.9 0.21            122            200 295 
