 2011  826 0555 32.4 L   6.727 -73.125147.7  RSN  5 0.1 1.5LRSN                1
 GAP=142        0.37       3.1     5.6  3.8  0.6495E+01 -0.6757E+01 -0.1691E+01E
 Epicentro: JORDAN - SANTANDER                                                 3
 ACTION:UPD 12-07-13 15:53 OP:ep   STATUS:               ID:20110826055532 L   I
 2011-08-26-0540-00M.COL___168                                                 6
 STAT SP IPHASW D HRMM SECON CODA AMPLIT PERI AZIMU VELO AIN AR TRES W  DIS CAZ7
 BAR2 SZ EP   1    555 51.98                             173   -0.15 7 16.2 203 
 BAR2 SZ ES   1    556  7.29                             173   -0.24 7 16.2 203 
 BAR2 SZ I         556  8.88        12.1 0.24                          16.2 203 
 GIR2 SZ EP   1    555 52.64                             164    0.10 7 39.6 349 
 GIR2 SZ ES   1    556  8.50                             164    0.24 7 39.6 349 
 BRR  HZ EP   1    555 54.07                             151   -0.03 7 77.3 303 
 BRR  HZ I         555 54.24         8.6 0.16                          77.3 303 
 BRR  HE ES   1    556 11.02                             151   -0.02 7 77.3 303 
 PAM  SZ EP   1    555 55.01                             150   -0.10 7 82.4  35 
 RUS  HZ EP   1    555 55.91                             147    0.14 7 92.4 177 
 RUS  HN ES   1    556 14.06                             147    0.06 7 92.4 177 
 RUS  HZ I         556 15.60         1.9 0.40                          92.4 177 
                                                                                
