 2013 1126 0513 30.8 L   6.787 -73.148150.7  RSN  7 0.4 1.4LRSN                1
 GAP=183        1.06       4.2     6.0  8.7  0.4346E+01  0.4053E+01  0.1605E+01E
 Epicentro: LOS SANTOS - SANTANDER                                             3
 ACTION:UPD 14-01-09 16:31 OP:ep   STATUS:               ID:20131126051330 L   I
 OLDACT:REG 13-11-26 08:13 OP:mh   STATUS:               ID:20131126051000     3
 2013-11-26-0510-00M.COL___282                                                 6
 STAT SP IPHASW D HRMM SECON CODA AMPLIT PERI AZIMU VELO AIN AR TRES W  DIS CAZ7
 BAR2 SZ EP   1    513 50.76                             171   -0.19 7 21.8 190 
 BAR2 SZ ES   1    514  7.01                             171    0.31 7 21.8 190 
 BAR2 SZ I         514  7.79         6.2 0.15            170           21.8 190 
 BRR  HZ EP        513 52.90                             153    0.4310 71.7 300 
 BRR  HN ES        514 10.14                             153    0.7410 71.7 300 
 BRR  HZ I         514 11.33         3.7 0.24            154           71.7 300 
 RUS  HZ EP        513 54.66                             145   -0.2310 99.1 176 
 RUS  HN ES        514 13.39                             145   -0.3310 99.1 176 
 RUS  HZ I         514 15.18         2.4 0.20            146           99.1 176 
 PTB  HZ EP   1    513 58.63                             133    0.54 7  147 259 
 PTB  HN ES        514 18.77                             133   -0.63 9  147 259 
 PTB  HZ I         514 21.47         3.5 0.15            134            147 259 
 OCA  HN ES        514 21.53                             130   -0.55 9  162 353 
 SPBC HZ EP        513 59.89                             130    0.37 9  162 219 
 SPBC HN ES        514 21.87                             130   -0.08 9  162 219 
 SPBC HZ I         514 24.86         3.6 0.15            131            162 219 
 ZAR  HN ES        514 28.92                             123   -0.23 9  204 293 
                                                                                
