 2012  326 0517 25.4 L   6.751 -73.160139.2  RSN  5 0.5 1.5LRSN                1
 GAP=137        1.27       8.1     8.5 15.2 -0.6692E+01 -0.1664E+02  0.1544E+02E
 ACTION:UP  12-03-31 23:23 OP:EP   STATUS:               ID:20120326051725 L   I
 2012-03-26-0510-00M.COL___196                                                 6
 STAT SP IPHASW D HRMM SECON CODA AMPLIT PERI AZIMU VELO SNR AR TRES W  DIS CAZ7
 BAR2 SZ EP        517 44.09                             172     0.010   18 188 
 BAR2 SZ I         518  1.50         8.9 0.26                            18 188 
 BRR  HZ EP        517 46.12                             151     0.210   73 303 
 BRR  HN ES   1    518  2.64                             151     0.7 7   73 303 
 BRR  HZ I         518  6.05        10.0 0.30                            73 303 
 PAM  SZ EP        517 47.53                             148     0.310   83  38 
 PAM  SN ES   1    518  3.48                             148    -0.8 7   83  38 
 RUS  HZ EP        517 47.86                             144    -0.210   95 175 
 RUS  HE ES   1    518  6.25                             144     0.4 7   95 175 
 RUS  HZ I         518  7.68         4.7 0.26                            95 175 
 PTB  HN ES   1    518 11.24                             131    -0.8 7  145 261 
 PTB  HZ I         518 17.46         2.6 0.18                           145 261 
                                                                                
