 2014  526 0201 11.1 L   6.824 -73.169154.3  RSN  9 0.4 1.8LRSN                1
 GAP=199        0.90       3.1     5.1  6.5  0.1600E+01 -0.2171E+01  0.5195E+00E
 Epicentro: LOS SANTOS - SANTANDER                                             3
 OLDACT:REG 14-05-26 12:44 OP:mh   STATUS:               ID:20140526015814     3
 ACTION:UPD 15-03-16 17:00 OP:nd   STATUS:               ID:20140526020111 L   I
 OLDACT:UP  14-05-26 17:12 OP:mh   STATUS:               ID:20140526015814     3
 2014-05-26-0158-14M.COL___227                                                 6
 STAT SP IPHASW D HRMM SECON CODA AMPLIT PERI AZIMU VELO AIN AR TRES W  DIS CAZ7
 BRR  HZ EP        2 1 33.55                             155    0.6110 67.7 298 
 BRR  HN ES        2 1 50.28                             155    0.2710 67.7 298 
 BRR  HZ I         2 2  2.11         7.0 1.30            168           67.7 298 
 RUS  HZ EP        2 1 35.75                             145   -0.1010  103 175 
 RUS  HN ES   1    2 1 54.75                             145   -0.44 7  103 175 
 RUS  HZ I         2 2 16.02         5.5 1.80            153            103 175 
 PTB  HZ EP        2 1 38.19                             134   -0.36 9  146 258 
 PTB  HN ES        2 1 59.59                             134   -0.42 9  146 258 
 PTB  HZ I         2 2  6.74        10.0 0.28            150            146 258 
 SPBC HZ EP   1    2 1 40.66                             131    0.40 7  164 218 
 SPBC HN ES        2 2  3.59                             131    0.54 9  164 218 
 SPBC HZ I         2 2 12.27         5.0 1.08            145            164 218 
 ZAR  HZ EP        2 1 44.14                             125    0.41 9  201 292 
 ZAR  HN ES        2 2  9.19                             125   -0.02 9  201 292 
 ZAR  HZ I         2 2 15.26         5.1 0.26            140            201 292 
 NOR  HZ EP        2 1 47.63                             120    0.39 8  234 234 
 NOR  HN ES        2 2 15.47                             120    0.01 8  234 234 
 NOR  HZ I         2 2 19.96         4.5 1.20            134            234 234 
 SML  HZ EP   1    2 1 47.31                             120   -0.49 6  240 336 
 SML  HE ES        2 2 15.92                             120   -0.54 8  240 336 
 SML  HZ I         2 2 26.51         8.7 0.08            133            240 336 
 CHI  HZ EP   1    2 1 49.29                             119   -0.15 6  251 194 
 CHI  HN ES   1    2 2 18.67                             119   -0.72 6  251 194 
 CHI  HZ I         2 2 24.66         6.6 4.80            131            251 194 
 GUY2CHZ EP   1    2 1 55.07                             114    0.06 5  301 234 
 GUY2CHE ES        2 2 28.84                             114   -0.46 7  301 234 
 GUY2CHZ I         2 2 38.77         3.0 1.42                           301 234 
 SJC  HZ EP   4    2 2  5.72                             107   -0.76 0  406 327 
 SJC  HN ES   4    2 2 46.90                             107   -2.81 0  406 327 
                                                                                
