 2013  126 0037 56.8 L   6.788 -73.160145.5  RSN  4 0.6 1.4LRSN                1
 GAP=135        1.44       8.7     7.9 13.7 -0.1544E+02  0.2091E+02 -0.4190E+01E
 Epicentro: LOS SANTOS - SANTANDER                                             3
 ACTION:UPD 13-02-15 09:16 OP:ep   STATUS:               ID:20130126003756 L   I
 2013-01-26-0028-50M.COL___187                                                 6
 STAT SP IPHASW D HRMM SECON CODA AMPLIT PERI AZIMU VELO AIN AR TRES W  DIS CAZ7
 BRR  HZ EP        038 17.24                             153   -0.6410 70.5 300 
 BRR  HN ES        038 35.15                             153    0.8210 70.5 300 
 BRR  HN I         038 39.47         7.1 0.42            153           70.5 300 
 PAM  SZ EP        038 19.46                             150    0.3510 79.4  40 
 PAM  SN ES        038 36.04                             150   -0.4710 79.4  40 
 PAM  SN I         038 37.59         6.9 0.36            156           79.4  40 
 RUS  HN ES        038 38.96                             144    0.0810 99.4 175 
 RUS  HN I         038 41.34         2.1 0.40            148           99.4 175 
 PTB  HZ EP        038 24.14                             132    0.56 9  146 259 
 PTB  HN ES        038 43.75                             132   -0.73 9  146 259 
 PTB  HN I         038 49.39         3.1 0.50            134            146 259 
                                                                                
