 2012 1226 0646 25.2 L   6.751 -73.205140.7  RSN  4 0.4 1.3LRSN                1
 GAP=227        0.71       7.3     6.9  7.7  0.2508E+02  0.6886E+01  0.3183E+01E
 Epicentro: VILLANUEVA - SANTANDER                                             3
 ACTION:UPD 13-01-04 14:30 OP:ep   STATUS:               ID:20121226064625 L   I
 2012-12-26-0640-00M.COL___242                                                 6
 STAT SP IPHASW D HRMM SECON CODA AMPLIT PERI AZIMU VELO AIN AR TRES W  DIS CAZ7
 BAR2 SZ EP   1    646 43.95                             172   -0.14 7 17.7 172 
 BAR2 SZ ES   1    646 58.33                             172   -0.51 7 17.7 172 
 BAR2 SZ I         647  1.62         6.3 0.40                          17.7 172 
 BRR  HZ EP   1    646 45.85                             152    0.23 7 68.5 305 
 BRR  HN ES   1    647  1.89                             152    0.32 7 68.5 305 
 RUS  HZ EP   1    646 48.44                             144    0.36 7 95.8 172 
 RUS  HN ES   1    647  6.13                             144    0.18 7 95.8 172 
 RUS  HZ I         647  8.54         2.2 0.30                          95.8 172 
 PTB  HZ EP   1    646 50.43                             132   -0.62 7  140 260 
 PTB  HN ES   1    647 11.36                             132    0.12 7  140 260 
 PTB  HZ I         647 14.23         4.5 0.10                           140 260 
                                                                                
