 2012 1026 0013 36.3 L   7.527 -73.097153.2  RSN  5 0.4 1.9LRSN                1
 GAP=206        0.64       7.6     5.2  8.8  0.1096E+02 -0.5907E+01 -0.1836E+02E
 Epicentro: EL PLAYON - SANTANDER                                              3
 ACTION:UPD 12-11-22 17:05 OP:ep   STATUS:               ID:20121026001336 L   I
 2012-10-26-0010-00M.COL___228                                                 6
 STAT SP IPHASW D HRMM SECON CODA AMPLIT PERI AZIMU VELO AIN AR TRES W  DIS CAZ7
 PAM  SZ EP   1    013 58.03                             162    0.09 7 48.5 115 
 PAM  SZ I         013 58.15        14.6 0.18                          48.5 115 
 PAM  SN ES   2    014 14.16                             162   -0.65 5 48.5 115 
 BRR  HZ EP   1    013 59.20                             150    0.29 7 82.3 236 
 BRR  HN ES        014 16.72                             150    0.1910 82.3 236 
 BAR2 SZ ES   1    014 19.87                             144    0.20 7  104 185 
 BAR2 SZ I         014 21.17        31.9 0.20                           104 185 
 RUS  HZ EP   2    014  7.52                             128   -0.07 4  181 180 
 RUS  HN ES   2    014 31.24                             128   -0.74 4  181 180 
 ZAR  HN ES   1    014 32.76                             125   -0.47 6  194 269 
 ZAR  HZ I         014 43.48         3.4 0.28                           194 269 
                                                                                
