 2014  826 0828 12.3 L   6.830 -73.353130.5  RSN 11 0.5 1.7LRSN                1
 GAP= 92        1.13       3.6     4.8  7.6 -0.4620E+01  0.1514E+02 -0.4039E+01E
 Epicentro: SAN VICENTE DE CHUCURI - SANTANDER                                 3
 ACTION:UPD 14-09-15 21:53 OP:nd   STATUS:               ID:20140826082812 L   I
 OLDACT:DUP 14-08-26 16:45 OP:fm   STATUS:               ID:20140826081819d    3
 2014-08-26-0818-18M.COL___254                                                 6
 STAT SP IPHASW D HRMM SECON CODA AMPLIT PERI AZIMU VELO AIN AR TRES W  DIS CAZ7
 BAR2 SZ EP     C  828 31.13                             165    0.8310 32.3 144 
 BAR2 SZ ES   1    828 44.32                             165   -0.05 7 32.3 144 
 BAR2 SZ I         828 45.24        22.7 0.26            166           32.3 144 
 BRR  HZ EP     D  828 31.16                             158    0.5210 50.1 308 
 BRR  HN ES        828 44.69                             158   -0.2810 50.1 308 
 BRR  HZ I         828 45.22        21.9 0.12            156           50.1 308 
 PAM  SZ EP   1    828 32.90                             143   -0.96 7 91.6  52 
 PAM  SN ES        828 51.22                             143    0.5110 91.6  52 
 PAM  SZ I         828 52.35         3.2 0.40            145           91.6  52 
 RUS  HN ES   2    828 52.26                             138   -0.70 5  108 164 
 RUS  HZ I         828 54.44         4.5 0.42            138            108 164 
 PTB  HZ EP        828 35.41                             133   -0.6210  126 255 
 PTB  HE ES   4    828 52.21                             133   -2.36 0  126 255 
 PTB  HZ I         828 54.07         7.0 0.44            132            126 255 
 SPBC HZ EP   1    828 38.59                             127   -0.02 7  153 211 
 SPBC HN ES        828 58.99                             127   -0.16 9  153 211 
 SPBC HZ I         829  5.88         5.4 0.28            127            153 211 
 OCA  HZ EP   1    828 38.74                             127   -0.26 7  156   1 
 OCA  HN ES        828 59.09                             127   -0.77 9  156   1 
 OCA  HZ I         829  3.83         5.6 0.20            127            156   1 
 ZAR  HZ EP        828 41.35                             122   -0.06 9  182 294 
 ZAR  HE ES        829  4.53                             122    0.39 9  182 294 
 ZAR  HZ I         829  9.15         9.8 0.48            121            182 294 
 NOR  HN ES   1    829 11.11                             117   -0.12 6  219 230 
 NOR  HZ I         829 16.27         3.9 0.22            116            219 230 
 SML  HZ EP        828 47.32                             115    0.54 8  232 340 
 SML  HN ES        829 13.56                             115   -0.14 8  232 340 
 SML  HZ I         829 17.85         8.2 0.10            115            232 340 
 HEL  HZ EP   1    828 49.60                             113    0.24 6  251 254 
 HEL  HN ES   1    829 18.58                             113    0.30 6  251 254 
 HEL  HZ I         829 23.34         2.6 0.54            113            251 254 
                                                                                
