 2014  826 0907 48.3 L   6.503 -73.540109.6  RSN  7 0.6 1.5LRSN                1
 GAP=136        1.44       5.9     5.9 12.9 -0.7406E+01  0.1004E+02 -0.2080E+02E
 Epicentro: SANTA HELENA DEL OPON - SANTANDER                                  3
 ACTION:UPD 14-09-15 21:53 OP:nd   STATUS:               ID:20140826090748 L   I
 OLDACT:DUP 14-08-26 17:02 OP:fm   STATUS:               ID:20140826085815d    3
 2014-08-26-0858-14M.COL___254                                                 6
 STAT SP IPHASW D HRMM SECON CODA AMPLIT PERI AZIMU VELO AIN AR TRES W  DIS CAZ7
 BAR2 SZ EP        9 8  4.69                             158    0.4110 40.7  76 
 BAR2 SZ ES   1    9 8 17.04                             158    0.33 7 40.7  76 
 BRR  HZ EP        9 8  5.58                             145   -0.0210 69.4 344 
 BRR  HE ES        9 8 19.09                             145    0.0310 69.4 344 
 BRR  HZ I         9 8 20.24        11.7 0.42            143           69.4 344 
 PTB  HZ EP        9 8  7.57                             134   -0.6110  101 272 
 PTB  HE ES        9 8 22.68                             134   -0.9610  101 272 
 PTB  HZ I         9 8 29.17         5.5 0.12            131            101 272 
 SPBC HN ES        9 8 26.16                             131    0.7910  111 212 
 SPBC HZ I         9 8 29.91         5.7 0.18            130            111 212 
 PAM  SZ EP   1    9 8 10.98                             126   -0.60 7  131  45 
 PAM  SN ES   1    9 8 29.00                             126   -0.70 7  131  45 
 PAM  SZ I         9 8 33.70         2.6 0.36            126            131  45 
 ZAR  HN ES        9 8 38.48                             116    0.38 9  182 307 
 ZAR  HZ I         9 8 44.06         5.4 0.38            115            182 307 
 SML  HE ES        9 8 54.93                             107    0.96 8  261 347 
 SML  HZ I         9 8 59.89         3.6 0.24            106            261 347 
                                                                                
