 2012 1026 0948 49.6 L   6.792 -73.144140.8  RSN  6 0.4 1.8LRSN                1
 GAP=137        0.76       4.4     7.1 10.3  0.1054E+02 -0.2428E+02 -0.7465E+01E
 Epicentro: LOS SANTOS - SANTANDER                                             3
 ACTION:UPD 12-11-22 17:06 OP:ep   STATUS:               ID:20121026094849 L   I
 2012-10-26-0947-50M.COL___202                                                 6
 STAT SP IPHASW D HRMM SECON CODA AMPLIT PERI AZIMU VELO AIN AR TRES W  DIS CAZ7
 GIR2 SZ EP   1    949  9.48                             166    0.77 7 32.2 350 
 BRR  HN ES        949 26.55                             151    0.2010 71.8 299 
 PAM  SZ EP   1    949 11.25                             150   -0.08 7 78.0  39 
 PAM  SN ES   2    949 28.01                             150   -0.26 5 78.0  39 
 PAM  SN I         949 29.05         4.8 0.25                          78.0  39 
 RUS  HZ EP   1    949 12.56                             143   -0.24 7 99.7 176 
 RUS  HN ES        949 30.76                             143   -0.1310 99.7 176 
 RUS  HN I         949 32.73         8.1 0.32                          99.7 176 
 OCA  HN ES   2    949 38.70                             128   -0.77 5  161 353 
 OCA  HN I         949 42.26        18.1 0.34                           161 353 
 ZAR  HN ES   2    949 46.37                             121   -0.51 4  205 292 
 ZAR  HN I         949 54.46         9.2 0.14                           205 292 
                                                                                
