 2017 1226 0335 54.1 L   6.805 -73.138144.8  RSN  8 0.4 1.6LRSN                1
 GAP= 66        1.08       3.6     3.3  6.9  0.1113E+01  0.3174E+01  0.1476E+01E
 Epicentro: LOS SANTOS - SANTANDER                                             3
 ACTION:UPD 18-01-04 13:24 OP:rebc STATUS:               ID:20171226033554 L   I
 OLDACT:REG 17-12-26 13:00 OP:osc  STATUS:               ID:20171226032526     3
 2017-12-26-0328-00M.COL___469                                                 6
 STAT SP IPHASW D HRMM SECON CODA AMPLIT PERI AZIMU VELO AIN AR TRES W  DIS CAZ7
 BAR2 EZ EP        336 13.77                             170    0.1010 24.0 192 
 BAR2 EZ ES        336 29.01                             170    0.1110 24.0 192 
 BAR2 EZ I         336 29.78         8.9 0.16            170           24.0 192 
 PAM  EZ EP        336 16.75                             151    0.5510 76.4  39 
 PAM  EN ES        336 33.51                             151    0.1110 76.4  39 
 PAM  EZ I         336 35.91         6.6 0.56            153           76.4  39 
 PTB  HZ EP        336 20.90                             132   -0.22 9  149 259 
 PTB  HE ES        336 41.81                             132   -0.34 9  149 259 
 PTB  HZ I         336 43.69         2.2 0.12            132            149 259 
 TAM  HZ EP        336 22.12                             130    0.43 9  154 105 
 TAM  HN ES        336 42.30                             130   -0.87 9  154 105 
 OCA  HZ EP        336 22.23                             129   -0.11 9  160 353 
 OCA  HN ES        336 43.93                             129   -0.39 9  160 353 
 OCA  HZ I         336 45.73        11.2 0.30            131            160 353 
 SPBC HZ EP        336 21.93                             129   -0.73 9  164 219 
 SPBC HE ES        336 44.91                             129    0.01 9  164 219 
 SPBC HZ I         336 48.51         3.8 0.22            129            164 219 
 YPLC HZ EP        336 23.75                             126   -0.13 9  177 152 
 YPLC HE ES        336 47.76                             126    0.69 9  177 152 
 YPLC HZ I         336 50.63         3.8 0.26            128            177 152 
 ZAR  HZ EP        336 26.85                             122    0.27 9  205 292 
 ZAR  HN ES        336 52.41                             122    0.53 9  205 292 
 ZAR  HZ I         336 58.29         3.2 0.52            123            205 292 
                                                                                
