 2012  926 0812  4.3 L   6.745 -73.140151.0  RSN  7 0.3 1.7LRSN                1
 GAP=140        0.68       4.6     4.4  6.0  0.5472E+00  0.3902E+01 -0.1539E+01E
 Epicentro: JORDAN - SANTANDER                                                 3
 ACTION:UPD 12-10-22 14:20 OP:ep   STATUS:               ID:20120926081204 L   I
 2012-09-26-0810-00M.COL___217                                                 6
 STAT SP IPHASW D HRMM SECON CODA AMPLIT PERI AZIMU VELO AIN AR TRES W  DIS CAZ7
 BAR2 SZ EP   1    812 24.52                             173    0.10 7 17.5 195 
 BAR2 SZ ES   1    812 40.04                             173   -0.10 7 17.5 195 
 BAR2 SZ I         812 42.73        10.3 0.16                          17.5 195 
 GIR2 SZ EP   1    812 24.77                             165    0.04 7 37.4 351 
 GIR2 SZ ES   2    812 40.48                             165   -0.21 5 37.4 351 
 BRR  HZ EP   1    812 26.50                             152    0.32 7 74.8 302 
 BRR  HZ I         812 26.77         8.7 0.12                          74.8 302 
 BRR  HN ES   1    812 44.07                             152    0.80 7 74.8 302 
 PAM  SZ EP   1    812 27.40                             150    0.10 7 81.8  37 
 PAM  SN ES   1    812 44.77                             150   -0.50 7 81.8  37 
 RUS  HZ EP   1    812 27.97                             147   -0.14 7 94.4 176 
 RUS  HN ES   1    812 46.85                             147    0.14 7 94.4 176 
 PTB  HN ES   1    812 52.47                             133   -0.48 7  147 261 
 ZAR  HZ EP   1    812 37.15                             123   -0.20 6  207 294 
 ZAR  HN ES   2    813  2.80                             123   -0.36 4  207 294 
 ZAR  HZ I         813  9.01         5.0 0.25                           207 294 
                                                                                
