 2010 1226 0637 27.6 L   6.783 -73.089144.8  RSN 11 0.4 2.0LRSN                1
 GAP=140        0.77       2.9     5.5  6.0 -0.7136E+01  0.9939E+01  0.1943E+00E
 Epicentro: LOS SANTOS - SANTANDER                                             3
 ACTION:UP  11-01-14 15:27 OP:pat  STATUS:               ID:20101226063727 L   I
 2010-12-26-0633-23S.COL___133                                                 6
 STAT SP IPHASW D HRMM SECON CODA AMPLIT PERI AZIMU VELO SNR AR TRES W  DIS CAZ7
 BAR2 SZ IP        637 47.17                             170     0.010   24 206 
 BAR2 SZ ES   1    638  2.48                             170     0.1 7   24 206 
 BAR2 SZ I         638  3.94        20.9 0.37                            24 206 
 RUS  HZ EP   1    637 51.03                             144    -0.1 7   98 180 
 RUS  HN ES   1    638  9.16                             144    -0.3 7   98 180 
 RUS  HZ I         638 11.09         8.5 0.34                            98 180 
 GRA  SZ IP        637 52.93                             137     0.210  126  14 
 GRA  SZ ES   1    638 12.40                             137     0.0 7  126  14 
 GRA  SZ I         638 13.68        14.0 0.34                           126  14 
 OCA  SZ EP        637 55.65                             129    -0.4 9  163 351 
 OCA  SZ ES   1    638 18.57                             129     0.2 7  163 351 
 OCA  SZ I         638 25.99        13.5 0.31                           163 351 
 YOP  SZ EP   1    637 57.46                             127     0.3 7  175 155 
 YOP  SZ I         637 58.38         5.4 0.54                           175 155 
 NOR  SZ EP   1    638  3.07                             118    -0.7 6  239 236 
 NOR  SN ES   1    638 32.22                             118     0.3 6  239 236 
 CHI  HZ EP   1    638  4.97                             117    -0.3 6  249 197 
 CHI  HE ES   2    638 35.15                             117     0.6 4  249 197 
 CHI  HZ I         638 40.51         5.4 0.44                           249 197 
 ROSC BZ EP   1    638  6.47                             116     0.6 6  254 212 
 ROSC BE ES   1    638 34.86                             116    -0.8 6  254 212 
 ROSC BZ I         638 41.69        12.0 0.41                           254 212 
 HEL  HZ EP   1    638  8.88                             114     0.5 6  278 257 
 HEL  HE ES   2    638 40.12                             114    -0.1 4  278 257 
 HEL  HZ I         638 45.63         4.5 0.60                           278 257 
 RREF HZ EP   2    638 14.00                             110    -0.1 3  325 230 
 RREF HN ES   2    638 50.57                             110     0.2 3  325 230 
 RREF HZ I         638 58.74         7.7 0.33                           325 230 
 PRA  HZ EP   1    638 21.10                             106    -0.2 4  393 211 
 PRA  HE ES   1    639  3.82                             106     0.7 4  393 211 
                                                                                
