 2014  226 0708 49.6 L   6.819 -73.179134.7  RSN 13 0.7 1.8LRSN                1
 GAP=131        1.62       4.7     7.3  9.2 -0.1370E+02  0.3007E+02 -0.1045E+01E
 Epicentro: LOS SANTOS - SANTANDER                                             3
 OLDACT:REG 14-02-26 09:28 OP:fm   STATUS:               ID:20140226070635     3
 ACTION:UPD 14-03-10 08:13 OP:ep   STATUS:               ID:20140226070849 L   I
 OLDACT:UP  14-02-26 12:15 OP:stll STATUS:               ID:20140226070635     3
 2014-02-26-0706-35M.COL___233                                                 6
 STAT SP IPHASW D HRMM SECON CODA AMPLIT PERI AZIMU VELO AIN AR TRES W  DIS CAZ7
 BAR2 SZ EP        7 9  8.32                             169    0.3810 25.0 181 
 BAR2 SZ ES        7 9 22.74                             169    0.5010 25.0 181 
 BAR2 SZ I         7 9 24.75        18.3 0.28            171           25.0 181 
 PAM  SZ EP        7 9 11.13                             148    0.4210 78.3  43 
 PAM  SN ES        7 9 27.41                             148    0.2410 78.3  43 
 PAM  SZ I         7 9 29.92         6.7 0.58            140           78.3  43 
 RUS  HZ EP        7 9 12.24                             141   -0.2310  103 174 
 RUS  HN ES        7 9 30.13                             141   -0.1610  103 174 
 RUS  SZ I         7 9 31.96         7.4 0.74            140            103 174 
 PTB  HZ EP        7 9 15.28                             130   -0.11 9  145 258 
 PTB  HN ES        7 9 35.42                             130   -0.08 9  145 258 
 PTB  SZ I         7 9 42.37         6.7 0.48            121            145 258 
 OCA  HZ EP        7 9 17.26                             127    0.42 9  158 354 
 OCA  HN ES        7 9 36.95                             127   -1.13 9  158 354 
 OCA  SZ I         7 9 43.91         5.8 0.52            118            158 354 
 NOR  HZ EP        7 9 24.42                             116   -0.10 8  233 234 
 NOR  HN ES        7 9 51.11                             116   -0.64 8  233 234 
 NOR  SZ I         7 9 53.59         2.9 0.52            110            233 234 
 SML  HZ EP        7 9 24.52                             115   -0.74 8  240 336 
 SML  SZ I         7 9 58.30         6.9 0.08            108            240 336 
 CHI  HZ EP        7 9 26.17                             115   -0.66 8  250 194 
 CHI  HN ES        7 9 54.20                             115   -1.66 8  250 194 
 CHI  SZ I         7 9 59.95         5.1 1.86            110            250 194 
 ROSC BN ES        7 9 57.72                             114    1.32 8  253 210 
 HEL  HZ EP        7 9 30.64                             113    1.71 8  269 255 
 HEL  SZ I         710  6.28         3.5 0.30            106            269 255 
 GUY2CHZ EP        7 9 32.88                             110    0.36 7  299 234 
 GUY2CHN ES        710  6.28                             110    0.30 7  299 234 
 GUY2CSZ I         710 14.48         3.9 1.14                           299 234 
 RREF HZ EP        7 9 35.95                             109    0.83 7  320 229 
 RREF HE ES        710  9.83                             109   -0.79 7  320 229 
 RREF SZ I         710 17.84         3.1 2.06            104            320 229 
 PRA  HZ EP        7 9 42.48                             105   -0.28 6  392 209 
 PRA  HN ES        710 24.10                             105   -0.12 6  392 209 
 PRA  HZ I         710 30.22         3.2 0.32            100            392 209 
                                                                                
