 2010  626 0047 42.6 L   6.796 -73.151140.0  RSN  6 0.3 1.6LRSN                1
 GAP=158        0.83       4.7    12.9 11.1 -0.7046E+01  0.1928E+01 -0.1845E+02E
 Epicentro: LOS SANTOS - SANTANDER                                             3
 ACTION:UP  10-08-24 10:13 OP:vdl  STATUS:               ID:20100626004742 L   I
 2010-06-26-0043-35S.COL___118                                                 6
 STAT SP IPHASW D HRMM SECON CODA AMPLIT PERI AZIMU VELO SNR AR TRES W  DIS CAZ7
 BAR2 SZ EP        048  1.58                             170     0.010   23 189 
 BAR2 SZ ES   2    048 16.41                             170     0.1 5   23 189 
 BRR  HZ EP        048  3.33                             151     0.210   71 299 
 BRR  HZ I         048  3.60        18.5 0.12                            71 299 
 RUS  HZ EP        048  5.65                             143    -0.110  100 176 
 RUS  HN ES   2    048 23.74                             143    -0.1 5  100 176 
 RUS  HZ I         048 25.35         3.5 0.23                           100 176 
 GUE  SZ EP        048  7.48                             138     0.610  117  12 
 GRA  SZ EP        048  7.40                             136     0.010  126  18 
 GRA  SZ ES   2    048 26.31                             136    -0.4 5  126  18 
 OCA  SZ EP        048  9.94                             128    -0.6 9  161 353 
 OCA  SZ ES   2    048 32.33                             128     0.0 5  161 353 
                                                                                
