 2011  126 0656  4.0 L   6.346 -73.548109.2  RSN  8 0.3 1.7LRSN                1
 GAP= 83        0.60       2.8     4.1  6.8 -0.2609E+01  0.1792E+02 -0.2741E+01E
 Epicentro: CONTRATACION - SANTANDER                                           3
 ACTION:UP  11-02-08 08:42 OP:pat  STATUS:               ID:20110126065604 L   I
 2011-01-26-0654-28S.COL___137                                                 6
 STAT SP IPHASW D HRMM SECON CODA AMPLIT PERI AZIMU VELO SNR AR TRES W  DIS CAZ7
 BAR2 SZ IP        656 20.42                             154     0.110   49  56 
 BAR2 SZ I         656 20.73        31.4 0.27                            49  56 
 BAR2 SZ ES   1    656 33.00                             154     0.0 7   49  56 
 RUS  HZ EP   1    656 21.94                             144    -0.2 7   72 134 
 RUS  HN ES   1    656 36.02                             144    -0.2 7   72 134 
 RUS  HZ I         656 37.42         8.8 0.23                            72 134 
 NOR  SZ EP   2    656 30.30                             118    -0.4 5  170 240 
 GRA  SZ EP   2    656 32.58                             115    -0.3 4  189  26 
 GRA  SZ ES   2    656 55.29                             115    -0.1 4  189  26 
 GRA  SZ I         657  5.23         7.3 0.26                           189  26 
 CHI  HZ EP   1    656 33.76                             115     0.3 7  191 186 
 CHI  HE ES   1    656 56.44                             115     0.1 7  191 186 
 CHI  HZ I         657  5.24         2.0 0.64                           191 186 
 OCA  SZ EP   2    656 34.57                             112    -0.8 4  211   7 
 OCA  SZ ES   2    657  0.52                             112     0.8 4  211   7 
 OCA  SZ I         657  6.51         8.3 0.17                           211   7 
 HEL  HZ EP   1    656 37.01                             111     0.4 6  220 266 
 HEL  HN ES   1    657  1.87                             111    -0.2 6  220 266 
 HEL  HZ I         657  8.08         6.3 0.62                           220 266 
 DBB  SZ EP   2    656 45.84                             104    -0.2 4  303 284 
                                                                                
