 2012  826 0326 12.2 L   6.771 -73.115154.5  RSN  7 0.4 1.7LRSN                1
 GAP=186        0.73       4.9     7.4  8.5  0.4312E+01 -0.1198E+02 -0.1350E+02E
 Epicentro: LOS SANTOS - SANTANDER                                             3
 ACTION:UPD 12-09-10 11:58 OP:ep   STATUS:               ID:20120826032612 L   I
 2012-08-26-0320-00M.COL___218                                                 6
 STAT SP IPHASW D HRMM SECON CODA AMPLIT PERI AZIMU VELO AIN AR TRES W  DIS CAZ7
 BAR2 SZ EP   1    326 32.76                             172   -0.12 7 21.1 201 
 BAR2 SZ ES   1    326 48.66                             172   -0.31 7 21.1 201 
 BAR2 SZ I         326 50.34        10.2 0.18                          21.1 201 
 GIR2 SZ EP   2    326 33.18                             167    0.12 5 35.2 346 
 BRR  HZ EP   1    326 34.68                             152    0.09 7 75.8 299 
 BRR  HZ I         326 34.96        10.3 0.15                          75.8 299 
 BRR  HN ES        326 52.51                             152    0.4910 75.8 299 
 RUS  HN ES   2    326 55.75                             146    0.11 5 97.2 178 
 PTB  HN ES   2    327  1.02                             133   -0.95 5  151 260 
 OCA  HZ EP   1    326 41.99                             131    0.41 7  164 352 
 OCA  HN ES        327  4.09                             131   -0.37 9  164 352 
 OCA  HZ I         327  9.36         4.8 0.11                           164 352 
 ZAR  HN ES   2    327 11.61                             124   -0.21 4  208 293 
                                                                                
