 2012  326 0357 57.8 L   6.768 -73.149152.0  RSN  5 0.4 1.4LRSN                1
 GAP=138        0.93       6.7     6.4 10.2 -0.1722E+00 -0.3449E+01  0.7135E+00E
 ACTION:UP  12-03-31 23:22 OP:EP   STATUS:               ID:20120326035757 L   I
 2012-03-26-0350-00M.COL___196                                                 6
 STAT SP IPHASW D HRMM SECON CODA AMPLIT PERI AZIMU VELO SNR AR TRES W  DIS CAZ7
 BAR2 SZ EP        358 18.02                             172    -0.110   20 191 
 BAR2 SZ I         358 21.55         5.2 0.54                            20 191 
 BRR  HZ EP        358 19.98                             153     0.310   73 301 
 BRR  HZ I         358 25.03        12.4 0.50                            73 301 
 BRR  HN ES   1    358 37.29                             153     0.5 7   73 301 
 PAM  SZ EP        358 20.93                             151     0.110   80  38 
 PAM  SE ES   2    358 37.67                             151    -1.1 5   80  38 
 RUS  HZ EP        358 21.90                             146     0.010   97 176 
 RUS  HN ES   1    358 40.93                             146     0.2 7   97 176 
 RUS  HZ I         358 42.06         1.6 0.62                            97 176 
 PTB  HZ EP        358 24.95                             134    -0.2 9  147 260 
 PTB  HN ES   1    358 46.09                             134    -0.5 7  147 260 
 PTB  HZ I         358 51.34         2.4 0.62                           147 260 
                                                                                
