 2014 1126 0045 11.6 L   6.836 -73.182150.7  RSN  8 0.4 1.8LRSN                1
 GAP=130        1.04       3.4     4.6  6.5 -0.1636E+00  0.7309E+01  0.7894E-01E
 Epicentro: ZAPATOCA - SANTANDER                                               3
 ACTION:UPD 14-12-19 15:47 OP:nd   STATUS:               ID:20141126004511 L   I
 OLDACT:UP  14-11-26 16:54 OP:mh   STATUS:               ID:20141126003746d    3
 OLDACT:DUP 14-11-26 16:45 OP:mh   STATUS:               ID:20141126003746d    3
 OLDACT:UP  14-11-26 16:45 OP:mh   STATUS:               ID:20141126003745     3
 OLDACT:UP  14-11-26 16:44 OP:mh   STATUS:               ID:20141126003745     3
 OLDACT:REG 14-11-26 13:42 OP:mh   STATUS:               ID:20141126003745     3
 2014-11-26-0037-45M.COL___303                                                 6
 STAT SP IPHASW D HRMM SECON CODA AMPLIT PERI AZIMU VELO AIN AR TRES W  DIS CAZ7
 BAR2 SZ EP   1    045 32.04                             169    0.12 7 27.0 180 
 BAR2 SZ ES        045 47.54                             169   -0.2110 27.0 180 
 BAR2 SZ I         045 48.00         9.6 0.37            171           27.0 180 
 BRR  HZ EP        045 33.33                             155    0.3210 65.8 297 
 BRR  HN ES   1    045 50.50                             155    0.80 7 65.8 297 
 BRR  HZ I         045 53.93        11.0 0.12            151           65.8 297 
 PAM  SZ EP        045 34.63                             152    0.2910 77.0  44 
 PAM  SN ES        045 51.78                             152   -0.2810 77.0  44 
 PAM  SZ I         045 53.72        25.0 0.69            154           77.0  44 
 RUS  HZ EP        045 36.48                             144    0.3110  105 174 
 RUS  HN ES        045 55.34                             144    0.0210  105 174 
 PTB  HZ EP        045 38.09                             134   -0.63 9  145 257 
 PTB  HN ES        045 59.41                             134   -0.45 9  145 257 
 PTB  HZ I         046  3.79         5.5 0.32            133            145 257 
 OCA  HZ EP        045 40.07                             132    0.16 9  156 354 
 OCA  HN ES        046  1.60                             132   -0.37 9  156 354 
 OCA  HZ I         046  6.64         6.4 0.67            132            156 354 
 ZAR  HZ EP        045 43.18                             124   -0.68 9  199 291 
 ZAR  HN ES        046  9.79                             124    0.78 9  199 291 
 ZAR  HZ I         046 17.38         8.5 0.21            124            199 291 
 CHI  HZ EP   1    045 50.37                             118    0.46 6  252 194 
 CHI  HN ES        046 19.66                             118   -0.11 8  252 194 
 GUY2CHZ EP   4    045 58.13                             113    2.77 0  300 234 
 GUY2CHN ES   4    046 32.79                             113    3.32 0  300 234 
                                                                                
