 2017 1026 0253 43.1 L   6.798 -73.116143.5  RSN  5 0.5 1.1LRSN                1
 GAP=140        1.18       6.0     5.4  9.4  0.2585E+01  0.1268E+02  0.2294E+01E
 Epicentro: LOS SANTOS - SANTANDER                                             3
 ACTION:UPD 17-11-07 19:36 OP:rebc STATUS:               ID:20171026025343 L   I
 OLDACT:REG 17-10-26 12:59 OP:dani STATUS:               ID:20171026024103     3
 2017-10-26-0248-00M.COL___447                                                 6
 STAT SP IPHASW D HRMM SECON CODA AMPLIT PERI AZIMU VELO AIN AR TRES W  DIS CAZ7
 BRR  HZ EP        254  4.01                             151   -0.1610 74.2 297 
 BRR  HN ES        254 20.40                             151   -0.2110 74.2 297 
 BRR  HZ I         254 25.09         3.1 0.19            149           74.2 297 
 PAM  EZ EP        254  5.13                             151    0.1810 75.5  37 
 PAM  EE ES        254 22.03                             151    0.0310 75.5  37 
 RUS  HZ EP        254  6.76                             143    0.1710  100 178 
 RUS  HN ES        254 24.84                             143   -0.0810  100 178 
 RUS  HZ I         254 26.43         1.2 0.23            147            100 178 
 PTB  HZ EP        254  9.10                             131   -1.07 9  151 259 
 PTB  HE ES        254 31.99                             131    0.71 9  151 259 
 PTB  HZ I         254 35.47         1.2 0.48            131            151 259 
 ZAR  HZ EP        254 16.45                             121    0.74 8  207 292 
 ZAR  HN ES        254 40.92                             121   -0.24 8  207 292 
 ZAR  HZ I         254 48.48         1.8 0.32            122            207 292 
                                                                                
