 2011  626 0214 20.8 L   7.390 -72.948121.8  RSN  4 0.1 1.4LRSN                1
 GAP=189        0.38       4.2     9.0  8.4 -0.1804E+02  0.3565E+02 -0.7576E+01E
 Epicentro: CALIFORNIA - SANTANDER                                             3
 ACTION:UP  11-07-14 19:08 OP:ep   STATUS:               ID:20110626021419 L   I
 2011-06-26-0212-40S.COL___140                                                 6
 STAT SP IPHASW D HRMM SECON CODA AMPLIT PERI AZIMU VELO SNR AR TRES W  DIS CAZ7
 BRI  SZ EP        214 38.19                             161     0.210   40  25 
 GRA  SZ EP        214 38.69                             154    -0.110   57  16 
 GRA  SZ ES   2    214 52.82                             154     0.0 5   57  16 
 GRA  SZ I         214 57.56         4.8 0.25                            57  16 
 BTL  SZ EP        214 39.25                             151     0.010   63 214 
 BTL  SZ ES   3    214 53.71                             151     0.0 2   63 214 
 OCA  SZ EP        214 42.02                             137     0.010  102 336 
 OCA  SZ I         214 43.07         7.1 0.31                           102 336 
                                                                                
