 2012  726 0456 19.9 L   6.726 -73.191143.8  RSN  5 0.3 1.4LRSN                1
 GAP=226        0.73       7.7     6.5  7.7  0.2798E+02  0.7025E+01  0.2846E+01E
 Epicentro: VILLANUEVA - SANTANDER                                             3
 ACTION:UPD 12-08-14 11:45 OP:ep   STATUS:               ID:20120726045619 L   I
 2012-07-26-0450-00M.COL___215                                                 6
 STAT SP IPHASW D HRMM SECON CODA AMPLIT PERI AZIMU VELO AIN AR TRES W  DIS CAZ7
 BAR2 SZ EP   1    456 39.06                             174    -0.1 7   15 176 
 BAR2 SZ ES   1    456 53.66                             174    -0.5 7   15 176 
 BAR2 SZ I         456 56.24         3.7 0.26            173             15 176 
 BRR  HZ EP        456 40.82                             152     0.010   71 306 
 BRR  HZ I         456 41.11         6.7 0.21            149             71 306 
 BRR  HN ES   1    456 57.55                             152     0.4 7   71 306 
 RUS  HZ EP   1    456 43.08                             146     0.2 7   93 173 
 RUS  HN ES   2    457  1.48                             146     0.6 5   93 173 
 PTB  HZ EP   1    456 45.96                             133    -0.2 7  141 262 
 PTB  HN ES   1    457  6.30                             133    -0.3 7  141 262 
 PTB  HZ I         457  9.37         2.1 0.23            132            141 262 
 ZAR  HN ES   1    457 17.48                             122     0.3 6  203 295 
 ZAR  HZ I         457 23.60         3.7 0.18            122            203 295 
