 2011  426 0258 10.3 L   6.936 -73.298121.3  RSN  6 0.4 2.0LRSN                1
 GAP=188        1.12       7.5     9.1 12.4  0.1952E+02  0.3723E+02  0.2253E+02E
 Epicentro: BETULIA - SANTANDER                                                3
 ACTION:UP  11-06-22 15:33 OP:REBC STATUS:               ID:20110426025810 L   I
 2011-04-26-0240-00M.COL___141                                                 6
 STAT SP IPHASW D HRMM SECON CODA AMPLIT PERI AZIMU VELO SNR AR TRES W  DIS CAZ7
 BTL  SZ EP        258 27.39                             178     0.710    4 120 
 BAR2 SZ EP        258 27.45                             161    -0.110   40 161 
 BAR2 SZ I         258 42.19        41.9 0.17                            40 161 
 BRR  HZ EP        258 27.11                             156    -0.510   49 292 
 BRR  HE ES   1    258 40.94                             156    -0.1 7   49 292 
 BRR  HZ I         258 41.78        33.3 0.17                            49 292 
 RUS  HZ EP   1    258 32.77                             133    -0.4 7  118 168 
 RUS  HN ES        258 51.09                             133     0.010  118 168 
 RUS  HZ I         258 52.50         7.2 0.21                           118 168 
 NOR  SZ EP   1    258 43.82                             113    -0.5 6  231 229 
 NOR  SN ES   1    259 10.91                             113     0.1 6  231 229 
 HEL  HZ EP   1    258 48.76                             110     0.8 6  260 252 
 HEL  HZ I         259 22.29         9.8 0.35                           260 252 
                                                                                
