 2017 1026 0313  8.4 L   6.877 -73.385121.9  RSN  5 0.2 1.9LRSN                1
 GAP=163        0.46       2.1     1.9  3.5 -0.1387E+00  0.5100E+00  0.1005E+01E
 Epicentro: SAN VICENTE DE CHUCURI - SANTANDER                                 3
 ACTION:UPD 17-11-07 19:36 OP:rebc STATUS:               ID:20171026031308 L   I
 OLDACT:REG 17-10-26 13:00 OP:dani STATUS:               ID:20171026030622     3
 2017-10-26-0308-00M.COL___447                                                 6
 STAT SP IPHASW D HRMM SECON CODA AMPLIT PERI AZIMU VELO AIN AR TRES W  DIS CAZ7
 BAR2 EZ EP        313 25.80                             161    0.1510 38.6 144 
 BAR2 EZ ES        313 38.96                             161   -0.1510 38.6 144 
 BAR2 EZ I         313 40.08        36.1 0.22            163           38.6 144 
 PAM  EZ EP        313 29.20                             141    0.0410 91.4  56 
 PAM  EN ES        313 45.38                             141    0.0310 91.4  56 
 PAM  EZ I         313 47.46        10.0 0.28            143           91.4  56 
 RUS  HZ EP        313 30.73                             134   -0.2710  114 163 
 RUS  HN ES        313 48.58                             134   -0.0610  114 163 
 PTB  HZ EP        313 31.21                             131   -0.0710  124 253 
 PTB  HN ES        313 49.28                             131    0.1510  124 253 
 PTB  HZ I         313 53.00         9.2 0.46            132            124 253 
 YPLC HZ EP        313 38.75                             117   -0.07 9  198 146 
 YPLC HN ES        314  2.87                             117    0.31 9  198 146 
 YPLC HZ I         314  4.91        11.3 0.50            119            198 146 
                                                                                
