 2017 1226 0833  5.4 L   6.879 -73.410113.6  RSN  4 0.2 1.1LRSN                1
 GAP=138        0.45       2.7     3.1  5.5 -0.3325E+01  0.8373E+01 -0.6833E+01E
 Epicentro: SAN VICENTE DE CHUCURI - SANTANDER                                 3
 ACTION:UPD 18-01-04 13:24 OP:rebc STATUS:               ID:20171226083306dL   I
 OLDACT:REG 17-12-26 13:43 OP:osc  STATUS:               ID:20171226081626     3
 2017-12-26-0828-00M.COL___460                                                 6
 STAT SP IPHASW D HRMM SECON CODA AMPLIT PERI AZIMU VELO AIN AR TRES W  DIS CAZ7
 BAR2 EZ EP        833 21.88                             159    0.1210 40.5 142 
 BAR2 EZ ES        833 34.53                             159    0.0010 40.5 142 
 BAR2 EZ I         833 35.26         2.8 0.60            177           40.5 142 
 PTB  HZ EP        833 27.22                             129   -0.1610  122 252 
 PTB  HN ES        833 44.52                             129   -0.0110  122 252 
 PTB  HZ I         833 49.22         0.5 0.38            132            122 252 
 OCA  HZ EP   2    833 30.13                             123   -0.31 5  151   4 
 OCA  HN ES        833 49.95                             123   -0.02 9  151   4 
 OCA  HZ I         834  0.39        11.1 0.46            124            151   4 
 ZAR  HZ EP   2    833 33.30                             119    0.65 4  174 293 
 ZAR  HN ES   4    833 56.73                             119    2.81 0  174 293 
 ZAR  HZ I         834  0.19         2.0 0.38            120            174 293 
                                                                                
