 2013  226 0327 48.2 L   6.821 -73.174140.0  RSN  8 0.5 2.1LRSN 3.0WRSN        1
 SPEC AVERAGE  MO 13.6 ST  5.1 OM  2.5 f0 3.48 R0.4851 AL 2.84 WI 19.1 MW  3.0 3
 SPEC SD       MO  0.3 ST  6.0 OM  0.6 f0 1.18 R0.1883 AL      WI      MW  0.2 3
 GAP=132        1.18       3.8     5.0  7.5  0.1208E+00  0.7222E+01  0.1657E+01E
 Epicentro: LOS SANTOS - SANTANDER                                             3
 SPEC ZAR HH E MO 14.0 ST 15.3 OM  2.2 f0 4.86 R0.3025 AL 3.58 WI 19.1 MW  3.3 3
 SPEC ZAR HH E T 32845 K 0.000 GD  244 VS 4.20 DE 3.20 Q0300.0 QA 0.60 VS 4.20 3
 SPEC OCA HH N MO 13.7 ST  1.6 OM  2.0 f0 2.82 R0.5213 AL 1.93 WI 26.9 MW  3.1 3
 SPEC OCA HH N T 32835 K 0.000 GD  211 VS 4.20 DE 3.20 Q0300.0 QA 0.60 VS 4.20 3
 SPEC PAM SH N MO 13.3 ST0.186 OM  1.7 f0 1.89 R0.7778 AL 2.18 WI 13.5 MW  2.8 3
 SPEC PAM SH N T 32826 K 0.000 GD  160 VS 4.20 DE 3.20 Q0300.0 QA 0.60 VS 4.20 3
 SPEC BRR HH N MO 13.5 ST  3.5 OM  1.9 f0 4.34 R0.3387 AL 3.65 WI 16.9 MW  2.9 3
 SPEC BRR HH N T 32825 K 0.000 GD  155 VS 4.20 DE 3.20 Q0300.0 QA 0.60 VS 4.20 3
 ACTION:UPD 13-03-12 09:35 OP:ep   STATUS:               ID:20130226032748 L   I
 2013-02-26-0318-51M.COL___194                                                 6
 STAT SP IPHASW D HRMM SECON CODA AMPLIT PERI AZIMU VELO AIN AR TRES W  DIS CAZ7
 BAR2 SZ EP        328  7.15                             169   -0.0710 25.3 182 
 BAR2 SZ ES   1    328 22.21                             169    0.19 7 25.3 182 
 BAR2 SZ I         328 24.34        21.2 0.24            169           25.3 182 
 BRR  HZ IP     D  328  8.94                             153    0.4010 67.3 298 
 BRR  HZ I         328  9.25        16.2 0.16            151           67.3 298 
 BRR  HE ES        328 24.82                             153    0.4410 67.3 298 
 PAM  SZ EP        328  9.92                             150    0.0610 77.7  42 
 PAM  SZ I         328 10.19        29.1 0.20            152           77.7  42 
 PAM  SN ES        328 26.98                             150    0.2510 77.7  42 
 RUS  HZ EP        328 11.29                             142   -0.3310  103 174 
 RUS  HN ES        328 29.68                             142   -0.1710  103 174 
 RUS  HN I         328 31.53        14.7 0.32            143            103 174 
 PTB  HZ EP        328 13.90                             131   -0.60 9  145 258 
 PTB  HN ES        328 34.21                             131   -0.77 9  145 258 
 PTB  HN I         328 36.22        23.4 0.26            131            145 258 
 OCA  HZ EP        328 15.81                             129   -0.04 9  158 354 
 OCA  HN ES        328 36.58                             129   -0.81 9  158 354 
 OCA  HZ I         328 39.84         8.0 0.20            130            158 354 
 ZAR  HZ EP        328 20.19                             122    0.27 9  200 292 
 ZAR  HE ES        328 45.34                             122    0.71 9  200 292 
 ZAR  HN I         328 52.99        16.7 0.16            122            200 292 
 CHI  HZ EP   1    328 27.14                             116    1.36 6  250 194 
 CHI  HN ES        328 55.10                             116    0.04 8  250 194 
 CHI  HN I         328 57.72         8.9 0.30            117            250 194 
                                                                                
