 2012 1026 0908  2.8 L   6.319 -73.591111.2  RSN  5 0.2 1.6LRSN                1
 GAP=221        0.39       3.0     4.9  4.6  0.7267E+01  0.6679E+01  0.2665E+01E
 Epicentro: SANTA HELENA DEL OPON - SANTANDER                                  3
 ACTION:UPD 12-11-22 17:06 OP:ep   STATUS:               ID:20121026090802 L   I
 2012-10-26-0900-00M.COL___228                                                 6
 STAT SP IPHASW D HRMM SECON CODA AMPLIT PERI AZIMU VELO AIN AR TRES W  DIS CAZ7
 BAR2 SZ IP        9 8 19.83                             152    0.2010 54.3  56 
 BAR2 SZ ES   1    9 8 32.77                             152    0.03 7 54.3  56 
 BAR2 SZ I         9 8 33.98        17.0 0.34                          54.3  56 
 RUS  HZ EP        9 8 21.15                             144   -0.0510 73.3 130 
 RUS  HN ES   2    9 8 35.33                             144   -0.21 5 73.3 130 
 RUS  HN I         9 8 37.20         6.0 0.26                          73.3 130 
 BRR  HZ EP        9 8 21.48                             138   -0.1610 88.2 351 
 BRR  HN ES   1    9 8 36.35                             138    0.02 7 88.2 351 
 BRR  HN I         9 8 42.63        12.4 0.14                          88.2 351 
 GIR2 SZ EP        9 8 22.49                             136    0.1010 94.8  28 
 PAM  SZ EP   2    9 8 28.07                             123    0.02 5  150  41 
 PAM  SE ES   2    9 8 47.39                             123   -0.34 5  150  41 
 PAM  SE I         9 8 50.94         4.5 0.38                           150  41 
                                                                                
