 2012  126 0411 24.2 L   6.685 -73.164147.4  RSN  5 0.2 1.2LRSN                1
 GAP=178        0.54       5.7     6.4  5.7  0.1653E+02  0.9516E+01  0.1901E+00E
 Epicentro: VILLANUEVA - SANTANDER                                             3
 ACTION:UP  12-02-03 08:20 OP:REBC STATUS:               ID:20120126041124 L   I
 2012-01-26-0410-00M.COL___188                                                 6
 STAT SP IPHASW D HRMM SECON CODA AMPLIT PERI AZIMU VELO SNR AR TRES W  DIS CAZ7
 BAR2 SZ EP   1    411 43.66                             176    -0.1 8   10 191 
 BAR2 SZ ES   1    411 58.80                             176    -0.3 8   10 191 
 BAR2 SZ I         412 10.53         3.1 0.64                            10 191 
 GIR2 SZ EP   2    411 44.12                             163    -0.3 5   44 356 
 BRR  HZ EP   1    411 45.95                             151     0.2 8   77 308 
 BRR  HZ I         411 57.58         8.4 0.51                            77 308 
 BRR  HE ES   1    412  2.98                             151     0.3 8   77 308 
 RUS  HZ EP   2    411 47.61                             148     0.4 5   88 174 
 RUS  HN ES   1    412  5.37                             148     0.2 8   88 174 
 RUS  HZ I         412  6.86         1.2 0.14                            88 174 
 PTB  HZ EP        411 50.80                             133    -0.110  144 264 
 PTB  HN ES   2    412 11.58                             133    -0.2 5  144 264 
                                                                                
