 2013  726 0531 13.0 L   6.814 -73.098153.1  RSN 10 0.4 2.0LRSN                1
 GAP=199        0.74       3.6     5.0  4.9  0.1371E+01  0.8603E+01 -0.8427E+00E
 Epicentro: LOS SANTOS - SANTANDER                                             3
 ACTION:UPD 13-08-12 10:40 OP:ep   STATUS:               ID:20130726053113 L   I
 OLDACT:UP  13-07-26 10:09 OP:cam  STATUS:               ID:20130726052959     3
 OLDACT:REG 13-07-26 08:21 OP:cam  STATUS:               ID:20130726052959     3
 2013-07-26-0529-59M.COL___267                                                 6
 STAT SP IPHASW D HRMM SECON CODA AMPLIT PERI AZIMU VELO AIN AR TRES W  DIS CAZ7
 BAR2 SZ EP   1    531 33.49                             170   -0.06 7 26.2 201 
 BAR2 SZ ES        531 49.12                             170   -0.4810 26.2 201 
 BAR2 SZ I         531 50.59        16.4 0.14            164           26.2 201 
 GIR2 SZ EP   1    531 33.65                             168    0.13 7 31.1 340 
 GIR2 SZ ES   1    531 50.25                             168    0.70 7 31.1 340 
 BRR  HZ EP     C  531 35.34                             152    0.1910 75.2 296 
 BRR  HN ES        531 52.81                             152    0.3710 75.2 296 
 BRR  HZ I         531 54.07         9.9 0.10            145           75.2 296 
 RUS  HZ EP   2    531 37.81                             145    0.26 5  102 179 
 RUS  HN ES   1    531 56.32                             145   -0.40 7  102 179 
 RUS  HZ I         531 58.70         9.5 0.48            139            102 179 
 PTB  HZ EP        531 40.55                             133   -0.49 9  153 259 
 PTB  HZ I         532  4.26        12.7 0.26            125            153 259 
 ZAR  HZ EP   2    531 46.41                             123    0.06 4  208 291 
 ZAR  HE ES   1    532 11.96                             123   -0.42 6  208 291 
 ZAR  HZ I         532 18.37        14.7 0.32            117            208 291 
 NOR  HZ EP   1    531 49.65                             119   -0.04 6  240 235 
 NOR  HE ES   1    532 18.56                             119    0.23 6  240 235 
 NOR  HZ I         532 21.70        11.2 0.20            113            240 235 
 SML  HZ EP        531 50.17                             119    0.05 8  245 334 
 SML  HE ES   1    532 18.76                             119   -0.33 6  245 334 
 SML  HZ I         532 23.14        12.8 0.10            114            245 334 
 HEL  HN ES   1    532 26.63                             116    0.33 6  278 256 
 PRA  HZ EP   2    532  7.93                             108    0.71 3  396 210 
 PRA  HE ES   2    532 50.38                             108    0.85 3  396 210 
 PRA  HZ I         532 54.44         3.2 0.28            103            396 210 
                                                                                
