 2017 1026 0305 45.2 L   6.660 -74.079  3.0  RSN  5 0.1 0.9LRSN                1
 GAP=125        0.43       1.1     0.8  2.6 -0.4947E-01 -0.6373E-01 -0.2862E+00E
 Epicentro: PUERTO PARRA - SANTANDER                                           3
 ACTION:UPD 17-11-07 19:36 OP:rebc STATUS:               ID:20171026030545 L   I
 OLDACT:DUP 17-10-26 16:09 OP:dani STATUS:               ID:20171026025739d    3
 OLDACT:UP  17-10-26 16:08 OP:dani STATUS:               ID:20171026025738     3
 OLDACT:UP  17-10-26 16:07 OP:dani STATUS:               ID:20171026025738     3
 OLDACT:UP  17-10-26 16:06 OP:dani STATUS:               ID:20171026025738     3
 OLDACT:UP  17-10-26 16:05 OP:dani STATUS:               ID:20171026025738     3
 OLDACT:REG 17-10-26 13:00 OP:dani STATUS:               ID:20171026025738     3
 2017-10-26-0258-00M.COL___447                                                 6
 STAT SP IPHASW D HRMM SECON CODA AMPLIT PERI AZIMU VELO AIN AR TRES W  DIS CAZ7
 PTB  HZ EP     D  3 5 52.51                              47   -0.1110 43.8 252 
 PTB  HN ES        3 5 58.54                              47    0.1610 43.8 252 
 PTB  HZ I         3 5 58.61         3.4 0.24             47           43.8 252 
 BRR  HZ EP        3 5 55.58                              47   -0.0810 64.0  39 
 BRR  HE ES        3 6  3.83                              47    0.0310 64.0  39 
 BRR  HZ I         3 6  4.61         5.5 0.11             47           64.0  39 
 ZAR  HZ EP        3 6  5.16                              47    0.0910  126 317 
 ZAR  HE ES        3 6 20.37                              47   -0.1710  126 317 
 ZAR  HZ I         3 6 22.20         2.8 0.20             47            126 317 
 RUS  HZ EP        3 6  7.73                              47    0.18 9  139 128 
 RUS  HN ES        3 6 24.74                              47   -0.22 9  139 128 
 RUS  HZ I         3 6 27.53         2.1 0.22             47            139 128 
 PAM  EZ EP        3 6 12.15                              47   -0.08 9  170  64 
 PAM  EN ES        3 6 33.49                              47    0.21 9  170  64 
 PAM  EZ I         3 6 35.03         2.8 0.20             47            170  64 
                                                                                
