 2012  126 0424 17.3 L   6.740 -73.083146.0  RSN  6 0.2 1.2LRSN                1
 GAP=147        0.36       3.9     3.1  4.9 -0.4033E+01  0.3160E+01  0.2426E+01E
 Epicentro: JORDAN - SANTANDER                                                 3
 ACTION:UP  12-02-03 08:20 OP:REBC STATUS:               ID:20120126042417 L   I
 2012-01-26-0420-00M.COL___188                                                 6
 STAT SP IPHASW D HRMM SECON CODA AMPLIT PERI AZIMU VELO SNR AR TRES W  DIS CAZ7
 BAR2 SZ EP   3    424 37.48                                     0.6 2   20 214 
 BAR2 SZ ES   3    424 52.54                                     0.4 2   20 214 
 GIR2 SZ EP   3    424 37.52                                     0.3 2   39 342 
 PAM  SZ EP   2    424 39.65                             150     0.0 5   79  33 
 PAM  SE ES   1    424 56.90                             150    -0.1 7   79  33 
 BRR  HZ EP   1    424 39.21                             149     0.2 7   81 300 
 BRR  HE ES   1    424 55.96                             149     0.0 7   81 300 
 BRR  HZ I         424 57.50         6.4 0.27                            81 300 
 RUS  HN ES   2    424 58.68                             146    -0.1 5   94 180 
 RUS  HZ I         425  0.40         1.0 0.19                            94 180 
 PTB  HZ EP   1    424 44.56                             131    -0.2 7  153 262 
 PTB  HN ES   1    425  6.28                             131     0.0 7  153 262 
                                                                                
