 2013  126 0440 34.1 L   6.777 -73.093146.0  RSN  6 0.5 1.4LRSN                1
 GAP=144        1.36       7.2     7.6 10.2 -0.7972E+01  0.3332E+01  0.9113E+01E
 Epicentro: LOS SANTOS - SANTANDER                                             3
 ACTION:UPD 13-02-15 09:16 OP:ep   STATUS:               ID:20130126044034 L   I
 2013-01-26-0438-36M.COL___186                                                 6
 STAT SP IPHASW D HRMM SECON CODA AMPLIT PERI AZIMU VELO AIN AR TRES W  DIS CAZ7
 BAR2 SZ EP        440 53.69                             171   -0.0410 22.7 206 
 BAR2 SZ ES        441  9.09                             171    0.0310 22.7 206 
 BAR2 SZ I         441 10.47         4.2 0.24            171           22.7 206 
 PAM  SZ EP        440 56.77                             151    0.5310 75.8  35 
 PAM  SZ I         440 56.98         4.6 0.24            152           75.8  35 
 PAM  SN ES        441 12.65                             151   -0.8610 75.8  35 
 BRR  HZ EP        440 55.74                             150    0.1110 77.5 298 
 BRR  HN ES        441 13.26                             150    0.8310 77.5 298 
 BRR  HN I         441 13.64         5.6 0.36            151           77.5 298 
 RUS  HN ES        441 16.30                             145    0.2410 97.8 179 
 PTB  HE ES        441 22.16                             131   -0.82 9  153 260 
 CHI  HZ EP        441 11.49                             117   -0.22 8  248 197 
                                                                                
