 2016  826 0512 11.7 L   6.818 -73.189149.8  RSN 14 0.5 1.8LRSN                1
 GAP=130        1.06       2.8     4.0  5.5 -0.5856E+00  0.5995E+01  0.2329E+01E
 Epicentro: ZAPATOCA - SANTANDER                                               3
 ACTION:UPD 16-10-29 15:39 OP:rebc STATUS:               ID:20160826051211 L   I
 OLDACT:REG 16-08-26 12:55 OP:ak   STATUS:               ID:20160826050734     3
 2016-08-26-0508-00M.COL___374                                                 6
 STAT SP IPHASW D HRMM SECON CODA AMPLIT PERI AZIMU VELO AIN AR TRES W  DIS CAZ7
 BAR2 EZ EP        512 31.74                             170   -0.1010 25.0 178 
 BAR2 EZ ES        512 47.61                             170    0.0510 25.0 178 
 BAR2 EZ I         512 49.65        19.5 0.30                          25.0 178 
 BRR  HZ EP        512 32.49                             155   -0.5110 66.0 299 
 BRR  HE ES        512 50.42                             155    0.7910 66.0 299 
 BRR  HZ I         512 54.70        13.0 0.16                          66.0 299 
 PAM  EZ EP        512 34.79                             151    0.3510 79.0  43 
 PAM  EN ES        512 51.94                             151   -0.2410 79.0  43 
 PAM  EZ I         512 54.80         7.3 0.46                          79.0  43 
 RUS  HZ EP        512 35.83                             144   -0.1910  103 173 
 RUS  HN ES        512 54.32                             144   -0.6710  103 173 
 RUS  HZ I         512 55.74         7.0 0.36                           103 173 
 PTB  HZ EP        512 38.72                             134    0.11 9  143 258 
 PTB  HN ES        512 59.41                             134   -0.20 9  143 258 
 PTB  HZ I         513  2.28         6.8 0.18                           143 258 
 OCA  HZ EP        512 39.95                             131   -0.14 9  158 355 
 OCA  HN ES        513  2.70                             131    0.46 9  158 355 
 OCA  HZ I         513  5.09        11.3 0.27                           158 355 
 SPBC HZ EP        512 40.80                             130    0.42 9  162 217 
 SPBC HN ES        513  2.54                             130   -0.21 9  162 217 
 SPBC HZ I         513  7.73        10.4 0.18                           162 217 
 ZAR  HZ EP        512 43.02                             124   -0.86 9  199 292 
 ZAR  HN ES        513  9.19                             124    0.21 9  199 292 
 ZAR  HZ I         513 15.12         5.4 0.15                           199 292 
 CHI  HZ EP        512 50.00                             118    0.30 8  249 194 
 CHI  HN ES        513 19.87                             118    0.53 8  249 194 
 CHI  HZ I         513 24.53         2.8 0.33                           249 194 
 ROSC BZ EP   4    512 51.43                             118    1.47 0  252 210 
 ROSC BE ES        513 20.15                             118    0.34 8  252 210 
 ROSC BZ I         513 26.55         7.5 0.45                           252 210 
 URE  HE ES        513 23.29                             115   -0.83 7  279 292 
 GUY2CHZ EP   2    512 56.04                             113    0.85 4  298 234 
 GUY2CHN ES   4    513 33.64                             113    4.53 0  298 234 
 GUY2CHZ I         513 38.23         4.2 0.66                           298 234 
 CBOC HZ EP        512 59.01                             111    0.68 7  330 251 
 CBOC HN ES   4    513 38.79                             111    4.09 0  330 251 
 CBOC HZ I         513 49.47         1.4 0.16                           330 251 
 PRA  HZ EP        513  5.22                             107   -0.07 6  391 209 
 PRA  HN ES        513 47.00                             107   -0.09 6  391 209 
 PRA  HZ I         513 54.08         3.6 0.50                           391 209 
                                                                                
