 2017  826 0637 22.7 L   6.750 -73.125144.1  RSN  7 0.3 1.2LRSN                1
 GAP=141        0.79       3.3     3.7  5.7 -0.1877E+01  0.5065E+01  0.2043E+01E
 Epicentro: LOS SANTOS - SANTANDER                                             3
 ACTION:UPD 17-09-04 20:24 OP:rebc STATUS:               ID:20170826063722 L   I
 OLDACT:UP  17-08-26 17:18 OP:osc  STATUS:               ID:20170826062740     3
 OLDACT:REG 17-08-26 13:38 OP:osc  STATUS:               ID:20170826062740     3
 2017-08-26-0628-00M.COL___405                                                 6
 STAT SP IPHASW D HRMM SECON CODA AMPLIT PERI AZIMU VELO AIN AR TRES W  DIS CAZ7
 BAR2 EZ EP        637 42.03                             172   -0.0410 18.6 200 
 BAR2 EZ ES        637 56.62                             172   -0.5410 18.6 200 
 BAR2 EZ I         637 57.69         3.6 0.30            171           18.6 200 
 BRR  HZ EP        637 43.97                             151   -0.0010 76.0 301 
 BRR  HE ES        638  1.07                             151    0.5210 76.0 301 
 BRR  HZ I         638  5.58         3.3 0.16            150           76.0 301 
 PAM  EZ EP        637 44.89                             150   -0.0510 80.4  36 
 PAM  EE ES        638  2.06                             150   -0.2210 80.4  36 
 PAM  EZ I         638  2.43         2.9 0.36            153           80.4  36 
 RUS  HZ EP        637 46.22                             145    0.3110 94.9 177 
 RUS  HN ES        638  4.44                             145    0.4510 94.9 177 
 RUS  HZ I         638  5.69         1.7 0.32            147           94.9 177 
 SPBC HZ EP        637 50.65                             129   -0.18 9  160 221 
 SPBC HN ES        638 12.60                             129   -0.16 9  160 221 
 SPBC HZ I         638 16.30         3.2 0.10            130            160 221 
 ZAR  HZ EP   4    637 57.26                             121    1.76 0  208 293 
 ZAR  HE ES        638 21.08                             121    0.01 8  208 293 
 NOR  HE ES        638 25.67                             118   -0.24 8  233 236 
                                                                                
