 2010  926 0509 55.4 L   6.771 -73.101150.0  RSN  7 0.2 1.6LRSN                1
 GAP=169        0.45       2.9     8.8  5.7  0.5540E+01 -0.4748E+01 -0.3392E+01E
 Epicentro: LOS SANTOS - SANTANDER                                             3
 ACTION:UP  11-02-18 11:05 OP:tino STATUS:               ID:20100926050955 L   I
 2010-09-26-0505-42S.COL___122                                                 6
 STAT SP IPHASW D HRMM SECON CODA AMPLIT PERI AZIMU VELO SNR AR TRES W  DIS CAZ7
 BAR2 SZ EP   2    510 15.38                             171    -0.1 5   22 205 
 BAR2 SZ ES   2    510 30.84                             171    -0.3 5   22 205 
 BAR2 SZ I         510 32.02        13.7 0.29                            22 205 
 BTL  SZ EP   1    510 15.80                             170     0.3 7   25 312 
 BRR  HZ EP   1    510 17.04                             151    -0.3 7   77 299 
 BRR  HE ES   2    510 34.62                             151     0.2 5   77 299 
 BRR  HZ I         510 37.70         9.5 0.20                            77 299 
 RUS  HZ EP   2    510 19.16                             146    -0.1 5   97 179 
 RUS  HE ES   1    510 38.05                             146     0.1 7   97 179 
 RUS  HZ I         510 39.11         3.7 0.35                            97 179 
 GUE  SZ EP   2    510 20.36                             140    -0.3 5  119   9 
 OCA  SZ EP   2    510 24.41                             130     0.1 5  164 352 
 OCA  SZ ES   2    510 47.11                             130     0.1 5  164 352 
 OCA  SZ I         510 49.02         5.4 0.16                           164 352 
 CHI  HZ EP   2    510 33.49                             118     0.4 4  247 196 
 CHI  HN ES   2    511  2.27                             118    -0.3 4  247 196 
 CHI  HZ I         511  8.47         2.1 0.26                           247 196 
                                                                                
