 2017  726 0615 31.9 L   6.758 -73.123149.1  RSN  6 0.4 1.5LRSN                1
 GAP=211        0.69       4.6     5.8  6.8  0.1121E+01 -0.2026E+02  0.7061E+01E
 Epicentro: LOS SANTOS - SANTANDER                                             3
 ACTION:UPD 17-08-30 15:36 OP:rebc STATUS:               ID:20170726061531 L   I
 OLDACT:UP  17-07-26 16:28 OP:and  STATUS:               ID:20170726060738     3
 OLDACT:UP  17-07-26 16:28 OP:and  STATUS:               ID:20170726060738     3
 OLDACT:UP  17-07-26 16:28 OP:and  STATUS:               ID:20170726060738     3
 OLDACT:REG 17-07-26 12:54 OP:and  STATUS:               ID:20170726060738     3
 2017-07-26-0608-00M.COL___386                                                 6
 STAT SP IPHASW D HRMM SECON CODA AMPLIT PERI AZIMU VELO AIN AR TRES W  DIS CAZ7
 BAR2 EZ EP   2    615 50.75                             172   -1.10 5 19.5 200 
 BAR2 EZ ES   2    616  6.92                             172   -0.50 5 19.5 200 
 BAR2 EZ I         616  9.36         5.8 0.19            168           19.5 200 
 BRR  HZ EP        615 53.56                             152   -0.0910 75.6 301 
 BRR  HN ES        616 10.97                             152    0.3510 75.6 301 
 PTB  HZ EP   9    615 58.43                             132   -0.85 0  149 261 
 PTB  HN ES        616 19.75                             134   -0.04 9  149 261 
 PTB  HZ I         616 26.99         3.2 0.36            131            149 261 
 SPBC HZ EP        616  0.59                             130    0.13 9  161 221 
 SPBC HN ES        616 22.68                             130   -0.07 9  161 221 
 SPBC HZ I         616 24.94         4.5 0.09            129            161 221 
 YPLC HZ EP        616  1.69                             128    0.27 9  172 151 
 ZAR  HZ EP   2    616  4.69                             123   -0.28 4  208 293 
 ZAR  HN ES   2    616 30.38                             123   -0.39 4  208 293 
 ZAR  HZ I         616 32.72         2.7 0.22            122            208 293 
                                                                                
