 2010  826 0155  6.8 L   6.791 -73.058145.2  RSN  7 0.4 2.7LRSN                1
 GAP=192        0.89       3.6     9.8  6.9 -0.7849E+00  0.5922E+01  0.3236E+01E
 Epicentro: LOS SANTOS - SANTANDER                                             3
 ACTION:UP  10-09-07 10:58 OP:vdl  STATUS:               ID:20100826015506 L   I
 2010-08-26-0151-00S.COL___121                                                 6
 STAT SP IPHASW D HRMM SECON CODA AMPLIT PERI AZIMU VELO SNR AR TRES W  DIS CAZ7
 BAR2 SZ IP        155 26.65                             170     0.210   26 212 
 BAR2 SZ ES   1    155 41.30                             170    -0.4 7   26 212 
 BAR2 SZ I         155 43.32       140.3 0.21                            26 212 
 BRR  HZ IP     C  155 28.47                             150     0.010   80 296 
 BRR  HZ I         155 28.72        95.1 0.12                            80 296 
 BRR  HE ES   1    155 45.42                             150     0.1 7   80 296 
 RUS  HZ IP     D  155 30.59                             144     0.210   99 182 
 RUS  HN ES   1    155 48.97                             144     0.1 7   99 182 
 RUS  HZ I         155 51.03        36.7 0.44                            99 182 
 OCA  SZ EP        155 35.03                             129    -0.3 9  163 350 
 OCA  SZ ES   1    155 57.61                             129     0.1 7  163 350 
 OCA  SZ I         156  2.69        46.8 0.48                           163 350 
 CHI  HZ EP   1    155 44.77                             117     0.1 6  250 197 
 CHI  HE ES   1    156 14.34                             117     0.1 6  250 197 
 CHI  HZ I         156 18.34        24.0 0.51                           250 197 
 ANIL HZ EP   1    155 58.47                                     1.1 5  363 226 
 ANIL HE ES   2    156 37.02                             108     0.3 3  363 226 
 ANIL HZ I         156 40.45        50.7 0.22                           363 226 
 PRA  HZ EP   1    156  0.01                             106    -0.8 4  396 211 
 PRA  HE ES   1    156 41.63                             106    -1.3 4  396 211 
 PRA  HZ I         156 49.06        26.2 0.37                           396 211 
                                                                                
