 2013 1226 0641 46.2 L   5.851 -73.887109.0  RSN  4 0.4 1.1LRSN                1
 GAP=212        1.00       5.0     7.9  8.8  0.2004E+02 -0.9875E+01 -0.2449E+01E
 Epicentro: SUCRE - SANTANDER                                                  3
 ACTION:UPD 14-01-13 10:21 OP:ep   STATUS:               ID:20131226064146 L   I
 OLDACT:REG 13-12-26 08:52 OP:mh   STATUS:               ID:20131226064000     3
 2013-12-26-0640-00M.COL___285                                                 6
 STAT SP IPHASW D HRMM SECON CODA AMPLIT PERI AZIMU VELO AIN AR TRES W  DIS CAZ7
 SPBC HZ EP        642  1.75                             163    0.3610 30.1 223 
 SPBC HN ES        642 13.44                             163    0.1810 30.1 223 
 SPBC HZ I         642 15.19         4.5 0.17            161           30.1 223 
 PTB  HZ EP        642  5.29                             134   -0.4310 98.9 320 
 PTB  HN ES        642 20.90                             134   -0.0710 98.9 320 
 NOR  HZ EP        642  7.82                             130    0.7410  113 254 
 NOR  HN ES        642 23.01                             130   -0.3810  113 254 
 NOR  HZ I         642 25.40         3.2 0.21            131            113 254 
 CHI  HZ EP   1    642  9.45                             125   -0.31 7  136 173 
 CHI  HN ES        642 27.91                             125   -0.26 9  136 173 
 CHI  HZ I         642 33.50         1.1 0.29            124            136 173 
                                                                                
