 2017  926 0033 50.4 L   6.793 -73.143142.0  RSN 11 0.5 1.8LRSN                1
 GAP=137        1.04       3.9     4.2  5.9 -0.1152E+01  0.1018E+02  0.6719E+01E
 Epicentro: LOS SANTOS - SANTANDER                                             3
 ACTION:UPD 17-10-05 19:16 OP:rebc STATUS:               ID:20170926003350 L   I
 OLDACT:UP  17-09-26 14:26 OP:osc  STATUS:               ID:20170926002739     3
 OLDACT:REG 17-09-26 12:32 OP:osc  STATUS:               ID:20170926002739     3
 2017-09-26-0028-00M.COL___438                                                 6
 STAT SP IPHASW D HRMM SECON CODA AMPLIT PERI AZIMU VELO AIN AR TRES W  DIS CAZ7
 BAR2 EZ EP        034  9.28                             170   -0.3210 22.6 191 
 BAR2 EZ ES        034 24.52                             170   -0.0310 22.6 191 
 BAR2 EZ I         034 25.33        25.1 0.22            167           22.6 191 
 BRR  HZ EP        034 11.40                             152    0.1810 71.8 299 
 BRR  HN ES        034 28.20                             152    0.7710 71.8 299 
 BRR  HZ I         034 28.64        11.6 0.13            150           71.8 299 
 PAM  EZ EP        034 12.21                             150   -0.0710 77.8  39 
 PAM  EE ES        034 29.23                             150   -0.0810 77.8  39 
 PAM  EZ I         034 30.06         7.6 0.16            155           77.8  39 
 RUS  HZ EP        034 13.62                             143   -0.1510 99.8 176 
 RUS  HN ES        034 32.01                             143    0.0510 99.8 176 
 RUS  HZ I         034 32.86        10.0 0.26            142           99.8 176 
 ZAR  HZ EP        034 22.03                             122   -0.67 9  205 292 
 ZAR  HE ES        034 47.54                             122   -0.32 9  205 292 
 ZAR  HZ I         034 54.28         9.8 0.40            121            205 292 
 NOR  HZ EP        034 25.34                             118   -0.59 8  234 235 
 NOR  HE ES        034 52.89                             118   -0.72 8  234 235 
 NOR  HZ I         034 58.98         4.6 0.40            117            234 235 
 CHI  HZ EP        034 28.16                             116    0.30 8  248 195 
 CHI  HN ES   4    034 58.12                             116    1.07 0  248 195 
 CHI  HZ I         035  5.33         2.4 0.35            116            248 195 
 HEL  HZ EP        034 31.18                             114    0.70 8  272 256 
 HEL  HE ES        035  2.09                             114    0.39 8  272 256 
 HEL  HZ I         035  8.13         4.2 0.48            114            272 256 
 GUY2CHZ EP        034 34.57                             112    0.72 7  301 235 
 GUY2CHE ES        035  7.04                             112   -0.68 7  301 235 
 GUY2CHZ I         035 17.30         1.7 0.25                           301 235 
 PRA  HZ EP        034 44.09                             106    0.32 6  391 210 
 PRA  HE ES        035 25.56                             106    0.19 6  391 210 
 PRA  HZ I         035 31.31         2.4 0.24            106            391 210 
 ORTC HZ EP   4    034 39.86                             106   -4.32 0  395 216 
 ORTC HE ES        035 26.77                             106    0.67 6  395 216 
 ORTC HZ I         035 32.50         2.1 0.16            106            395 216 
                                                                                
