 2016  226 0158 20.1 L   6.809 -73.153146.8  RSN 10 0.4 1.6LRSN                1
 GAP=135        0.91       3.6     3.7  5.9 -0.1870E+01  0.7792E+01  0.2817E+01E
 Epicentro: LOS SANTOS - SANTANDER                                             3
 ACTION:UPD 16-03-04 21:29 OP:rebc STATUS:               ID:20160226015820 L   I
 OLDACT:UP  16-02-26 15:42 OP:mh   STATUS:               ID:20160226015748     3
 OLDACT:REG 16-02-26 12:39 OP:mh   STATUS:               ID:20160226015748     3
 2016-02-26-0157-48M.COL___310                                                 6
 STAT SP IPHASW D HRMM SECON CODA AMPLIT PERI AZIMU VELO AIN AR TRES W  DIS CAZ7
 BAR2 EZ EP   1    158 39.80                             170   -0.07 7 24.2 188 
 BAR2 EZ ES        158 55.52                             170    0.2310 24.2 188 
 BAR2 EZ I         158 57.75        10.6 0.35            168           24.2 188 
 PAM  EZ EP        158 42.38                             151   -0.0310 77.2  40 
 PAM  EN ES        159  0.04                             151    0.2210 77.2  40 
 PAM  EZ I         159  1.97         6.4 0.56            157           77.2  40 
 RUS  HZ EP     C  158 43.68                             144   -0.3410  102 176 
 RUS  HN ES        159  2.26                             144   -0.4310  102 176 
 RUS  HZ I         159  4.85         4.8 0.32            146            102 176 
 PTB  HZ EP        158 46.99                             132   -0.10 9  147 258 
 PTB  HN ES        159  7.38                             132   -0.77 9  147 258 
 PTB  HZ I         159 14.84         6.8 0.48            132            147 258 
 SPBC HZ EP        158 48.71                             129    0.01 9  163 219 
 SPBC HN ES        159 11.52                             129    0.51 9  163 219 
 SPBC HZ I         159 16.64         8.9 0.19            130            163 219 
 ZAR  HE ES        159 18.16                             123    0.40 9  203 292 
 ZAR  HZ I         159 26.03         3.4 0.40            124            203 292 
 NOR  HZ EP   1    158 56.05                             119    0.18 6  235 234 
 NOR  HE ES        159 23.37                             119   -0.41 8  235 234 
 NOR  HZ I         159 28.96         4.4 0.30            120            235 234 
 CHI  HZ EP        158 57.98                             117    0.05 8  249 195 
 CHI  HN ES        159 28.17                             117    0.73 8  249 195 
 CHI  HZ I         159 35.97         1.6 0.38            119            249 195 
 GUY2CHZ EP   4    159  6.22                             112    2.48 0  301 235 
 GUY2CHN ES   4    159 39.41                             112    1.63 0  301 235 
 GUY2CHZ I         159 45.97         2.9 0.58                           301 235 
 CBOC HZ EP        159  6.78                             110   -0.21 7  333 252 
 CBOC HN ES        159 44.12                             110    0.54 7  333 252 
 CBOC HZ I         159 48.97         1.1 0.45            112            333 252 
                                                                                
