 2014  826 0038 59.4 L   6.768 -73.123148.9  RSN 14 0.4 1.9LRSN                1
 GAP=141        0.74       2.4     3.2  4.4 -0.1873E+01  0.3638E+01  0.1015E+01E
 Epicentro: LOS SANTOS - SANTANDER                                             3
 ACTION:UPD 14-09-15 21:53 OP:nd   STATUS:               ID:20140826003859 L   I
 OLDACT:DUP 14-08-26 13:31 OP:fm   STATUS:               ID:20140826002820d    3
 2014-08-26-0028-19M.COL___254                                                 6
 STAT SP IPHASW D HRMM SECON CODA AMPLIT PERI AZIMU VELO AIN AR TRES W  DIS CAZ7
 BAR2 SZ EP        039 19.33                             172   -0.0510 20.6 199 
 BAR2 SZ ES   1    039 34.90                             172   -0.04 7 20.6 199 
 BAR2 SZ I         039 37.14        22.4 0.28            170           20.6 199 
 BRR  HZ EP   1    039 21.22                             152    0.09 7 75.1 300 
 BRR  HN ES        039 38.46                             152    0.3910 75.1 300 
 BRR  HZ I         039 40.96         7.6 0.14            150           75.1 300 
 PAM  SZ EP        039 22.13                             151    0.0910 78.6  36 
 PAM  SN ES        039 39.56                             151   -0.1210 78.6  36 
 PAM  SZ I         039 41.58        10.3 0.22            155           78.6  36 
 RUS  HZ EP   1    039 22.86                             145   -0.37 7 97.0 177 
 RUS  HN ES   1    039 41.73                             145   -0.07 7 97.0 177 
 RUS  HZ I         039 43.24         5.4 0.40            147           97.0 177 
 PTB  HZ EP        039 26.46                             132   -0.36 9  150 260 
 PTB  HN ES   1    039 47.45                             132   -0.73 7  150 260 
 PTB  HZ I         039 53.31         8.9 0.18            132            150 260 
 SPBC HZ EP        039 28.39                             130    0.32 9  162 220 
 SPBC HN ES        039 50.68                             130    0.27 9  162 220 
 SPBC HZ I         039 56.25        14.2 0.18            131            162 220 
 OCA  HZ EP   1    039 28.80                             130    0.47 7  164 352 
 OCA  HN ES   1    039 50.90                             130    0.02 7  164 352 
 OCA  HZ I         039 55.36         8.1 0.18            132            164 352 
 ZAR  HZ EP   1    039 33.05                             122    0.59 6  208 293 
 ZAR  HE ES   1    039 57.70                             122   -0.52 6  208 293 
 ZAR  HZ I         040  2.99         6.9 0.50            124            208 293 
 NOR  HZ EP   1    039 34.77                             119   -0.58 6  235 236 
 NOR  HN ES   1    040  3.13                             119   -0.24 6  235 236 
 NOR  HZ I         040  7.13         5.8 0.30            120            235 236 
 CHI  HZ EP   1    039 37.39                             118    0.38 6  246 196 
 CHI  HE ES   1    040  6.10                             118   -0.23 6  246 196 
 CHI  HZ I         040 12.83         3.5 0.24            120            246 196 
 SML  HZ EP   1    039 35.97                             118   -0.72 6  248 335 
 SML  HE ES   1    040  5.67                             118   -0.08 6  248 335 
 SML  HZ I         040  8.08        13.3 0.10            120            248 335 
 HEL  HZ EP   1    039 40.89                             115    0.91 6  274 257 
 HEL  HN ES   1    040 11.81                             115    0.20 6  274 257 
 HEL  HZ I         040 17.70         3.7 0.78            116            274 257 
 GUY2CHZ EP   1    039 42.93                             113   -0.26 5  301 236 
 GUY2CHN ES   1    040 17.84                             113    0.51 5  301 236 
 GUY2CHZ I         040 26.16         4.7 0.30                           301 236 
 PRA  HZ EP   1    039 52.45                             107   -0.40 4  390 210 
 SJC  HZ EP   4    039 53.01                             106   -2.59 0  414 327 
                                                                                
