 2011 1126 0203 10.7 L   6.855 -73.021149.2  RSN  5 0.4 1.6LRSN                1
 GAP=150        0.52       5.5     7.0  7.4 -0.9625E+01  0.9933E+01  0.7909E+01E
 Epicentro: CEPITA - SANTANDER                                                 3
 ACTION:UPD 12-07-13 16:12 OP:ep   STATUS:               ID:20111126020310 L   I
 2011-11-26-0159-02S.COL___160                                                 6
 STAT SP IPHASW D HRMM SECON CODA AMPLIT PERI AZIMU VELO AIN AR TRES W  DIS CAZ7
 BAR2 SZ EP   2    2 3 30.53                             167   -0.47 5 34.1 212 
 BAR2 SZ I         2 3 30.81         7.4 0.22                          34.1 212 
 BAR2 SZ ES   2    2 3 46.77                             167   -0.06 5 34.1 212 
 PAM  SZ EP   2    2 3 33.36                             156    0.79 5 64.3  34 
 PAM  SN ES   2    2 3 49.39                             156   -0.23 5 64.3  34 
 BRR  HZ EP   2    2 3 32.57                             150   -0.24 5 81.3 290 
 BRR  HZ I         2 3 34.03        13.0 0.17                          81.3 290 
 BRR  HN ES   2    2 3 50.17                             150    0.13 5 81.3 290 
 RUS  HZ EP   2    2 3 34.85                             143   -0.38 5  107 184 
 RUS  HZ I         2 3 36.07         2.8 0.52                           107 184 
 RUS  HN ES   2    2 3 54.68                             143    0.32 5  107 184 
 RREF HZ EP   2    2 3 58.71                             110    0.07 3  336 230 
 RREF HN ES   2    2 4 36.27                             110    0.24 3  336 230 
 RREF HZ I         2 4 42.14         2.9 0.29                           336 230 
                                                                                
