 2010 1126 0721 37.8 L   6.770 -73.089145.1  RSN  5 0.4 1.5LRSN                1
 GAP=165        0.86       5.7    11.7 10.1  0.1645E+02 -0.2509E+02 -0.2657E+01E
 Epicentro: LOS SANTOS - SANTANDER                                             3
 ACTION:UP  10-12-17 16:55 OP:REBC STATUS:               ID:20101126072137 L   I
 2010-11-26-0717-54S.COL___131                                                 6
 STAT SP IPHASW D HRMM SECON CODA AMPLIT PERI AZIMU VELO SNR AR TRES W  DIS CAZ7
 BRR  HZ EP        721 58.91                             151    -0.410   78 298 
 BRR  HZ I         722  0.41        11.2 0.06                            78 298 
 BRR  HN ES   1    722 16.22                             151     0.2 7   78 298 
 RUS  HZ EP   1    722  0.90                             145    -0.3 7   97 180 
 RUS  HZ I         722  2.05         3.1 0.20                            97 180 
 RUS  HN ES   1    722 19.83                             145     0.3 7   97 180 
 GRA  SZ EP   1    722  3.58                             137     0.5 7  127  14 
 GRA  SZ I         722 25.23         5.0 0.36                           127  14 
 CHI  HZ EP   1    722 15.14                             118    -0.2 6  247 197 
 CHI  HN ES   2    722 44.71                             118     0.1 4  247 197 
 CHI  HZ I         722 50.39         1.5 0.28                           247 197 
 HEL  HZ EP   2    722 19.39                             115     0.8 4  277 257 
 HEL  HZ I         722 56.22         2.8 0.09                           277 257 
                                                                                
