 2012  626 0946 59.2 L   6.667 -73.191152.2  RSN  4 0.2 1.1LRSN                1
 GAP=223        0.39       7.1     4.9  5.2 -0.7933E+00  0.8928E+01  0.1755E+01E
 Epicentro: VILLANUEVA - SANTANDER                                             3
 ACTION:UPD 12-08-06 17:52 OP:ep   STATUS:               ID:20120626094659 L   I
 2012-06-26-0940-00M.COL___201                                                 6
 STAT SP IPHASW D HRMM SECON CODA AMPLIT PERI AZIMU VELO AIN AR TRES W  DIS CAZ7
 BAR2 SZ ES   1    947 35.27                             177    0.11 7 8.35 173 
 BAR2 SZ I         947 35.92         5.0 0.25                          8.35 173 
 BRR  HZ EP   1    947 21.16                             152   -0.11 7 75.3 310 
 BRR  HN ES   1    947 38.47                             152   -0.03 7 75.3 310 
 BRR  HZ I         947 45.75         3.6 0.46                          75.3 310 
 PTB  HZ EP   1    947 26.23                             135    0.16 7  141 264 
 PTB  HN ES   1    947 46.84                             135   -0.19 7  141 264 
 PTB  HZ I         947 49.73         0.6 0.16                           141 264 
 ZAR  HN ES   3    947 58.70                             124    0.73 2  205 296 
                                                                                
