 2014  326 0846 50.4 L   6.503 -73.272 37.7  RSN  6 0.5 1.6LRSN                1
 GAP=119        1.31       3.6     5.8  7.0 -0.1078E+02  0.1804E+02 -0.4355E+01E
 Epicentro: SOCORRO - SANTANDER                                                3
 ACTION:UPD 14-04-09 23:20 OP:nd   STATUS:               ID:20140326084650 L   I
 OLDACT:REG 14-03-26 08:03 OP:carl STATUS:               ID:20140326084043     3
 2014-03-26-0840-43M.COL___235                                                 6
 STAT SP IPHASW D HRMM SECON CODA AMPLIT PERI AZIMU VELO AIN AR TRES W  DIS CAZ7
 BAR2 SZ EP     C  846 56.33                             156   -0.5510 14.0  45 
 BAR2 SZ ES        847  2.22                             156    0.2910 14.0  45 
 BAR2 SZ I         847  2.67        76.6 0.24            159           14.0  45 
 RUS  HZ EP        847  2.40                             103   -0.4810 70.7 163 
 RUS  HE ES        847 12.75                             103    0.1310 70.7 163 
 RUS  HZ I         847 13.22        10.3 0.18             98           70.7 163 
 PAM  SZ EP        847  8.20                              95    0.2010  112  34 
 PAM  SN ES        847 22.50                              95    0.7710  112  34 
 PAM  SZ I         847 23.70        13.1 0.38             93            112  34 
 SPBC HZ EP        847  9.24                              94   -0.4210  129 223 
 SPBC HN ES        847 24.72                              94    0.0310  129 223 
 SPBC HZ I         847 29.23        16.0 0.20             92            129 223 
 OCA  HN ES        847 37.92                              81   -0.79 9  192 358 
 NOR  HN ES        847 42.24                              81    0.88 9  205 240 
 NOR  HZ I         847 48.26         2.6 0.18             91            205 240 
                                                                                
