 2016 1226 0358  1.7 L   6.226 -73.716102.6  RSN  6 0.2 1.2LRSN                1
 GAP=121        0.68       2.7     2.8  5.7  0.1376E+01  0.8806E+01  0.3692E+01E
 Epicentro: LANDAZURI - SANTANDER                                              3
 ACTION:UPD 17-01-11 20:19 OP:rebc STATUS:               ID:20161226035801 L   I
 OLDACT:UP  16-12-26 16:18 OP:edw  STATUS:               ID:20161226034745d    3
 OLDACT:DUP 16-12-26 16:14 OP:edw  STATUS:               ID:20161226034745d    3
 OLDACT:UP  16-12-26 16:14 OP:edw  STATUS:               ID:20161226034744     3
 OLDACT:REG 16-12-26 12:37 OP:edw  STATUS:               ID:20161226034744     3
 2016-12-26-0348-00M.COL___378                                                 6
 STAT SP IPHASW D HRMM SECON CODA AMPLIT PERI AZIMU VELO AIN AR TRES W  DIS CAZ7
 BAR2 EZ IP     D  358 19.19                             142    0.4510 71.6  56 
 BAR2 EZ ES        358 32.12                             142    0.0710 71.6  56 
 BAR2 EZ I         358 34.42        13.8 0.21            142           71.6  56 
 RUS  HZ EP        358 19.41                             140   -0.2610 79.2 118 
 RUS  HN ES        358 33.65                             140   -0.0610 79.2 118 
 RUS  HZ I         358 38.65         2.1 0.36            140           79.2 118 
 PTB  HZ EP   9 C  358 18.28                             136   -1.54 0 88.9 293 
 PTB  HN ES        358 32.06                             131   -0.3710 88.9 293 
 PTB  HZ I         358 32.56         5.6 0.16            138           88.9 293 
 BRR  HZ EP        358 20.57                             133    0.0310 97.5   0 
 BRR  HN ES        358 34.99                             133   -0.2610 97.5   0 
 BRR  HZ I         358 38.54         2.1 0.46            133           97.5   0 
 CHI  HE ES   4    358 48.51                             115   -2.09 0  177 181 
 ZAR  HZ EP        358 29.83                             113   -0.15 9  189 318 
 ZAR  HN ES        358 52.28                             113    0.22 9  189 318 
 ZAR  HZ I         358 54.78         2.3 0.23            114            189 318 
 GUY2CHZ EP        358 33.12                             110   -0.29 8  214 239 
 GUY2CHN ES        358 58.42                             110    0.25 8  214 239 
 GUY2CHZ I         359  2.91         1.6 0.64                           214 239 
                                                                                
