 2016 1126 0701  9.2 L   6.721 -73.121144.0  RSN  5 0.4 1.1LRSN                1
 GAP=171        1.02       8.5     5.0  7.5 -0.9328E+01  0.1035E+02 -0.1923E+01E
 Epicentro: JORDAN - SANTANDER                                                 3
 ACTION:UPD 17-10-26 21:12 OP:lp   STATUS:               ID:20161126070109 L   I
 OLDACT:UP  16-11-26 15:11 OP:dani STATUS:               ID:20161126065744d    3
 OLDACT:DUP 16-11-26 15:09 OP:dani STATUS:               ID:20161126065744d    3
 2016-11-26-0658-00M.COL___349                                                 6
 STAT SP IPHASW D HRMM SECON CODA AMPLIT PERI AZIMU VELO AIN AR TRES W  DIS CAZ7
 BAR2 EZ EP        7 1 28.51                             173    0.0710 15.8 205 
 BAR2 EZ ES        7 1 43.89                             173    0.4010 15.8 205 
 BRR  HZ EP        7 1 30.40                             150   -0.1210 78.0 303 
 BRR  HN ES        7 1 47.66                             150    0.4910 78.0 303 
 BRR  HZ I         7 1 50.57         1.8 0.24            146           78.0 303 
 PAM  EZ EP        7 1 31.31                             149   -0.2010 82.7  34 
 PAM  EN ES        7 1 48.59                             149   -0.3610 82.7  34 
 PAM  EZ I         7 1 50.96         2.3 0.23            148           82.7  34 
 PTB  HZ EP        7 1 35.97                             131   -0.12 9  149 262 
 PTB  HN ES        7 1 56.41                             131   -0.69 9  149 262 
 PTB  HZ I         7 1 59.98         1.1 0.21            131            149 262 
 ZAR  HZ EP        7 1 42.87                             121    0.77 8  210 294 
 ZAR  HN ES        7 2  7.64                             121   -0.16 8  210 294 
 ZAR  HZ I         7 2 13.63         1.8 0.44            121            210 294 
                                                                                
