 2016 1126 0738 18.0 L   6.744 -73.752 95.4  RSN  4 0.3 0.9LRSN                1
 GAP=149        0.76       5.1     3.2  6.5  0.4152E+01  0.6945E+01  0.8722E+00E
 Epicentro: EL CARMEN - SANTANDER                                              3
 ACTION:UPD 17-10-26 21:12 OP:lp   STATUS:               ID:20161126073818 L   I
 OLDACT:DUP 16-11-26 15:36 OP:dani STATUS:               ID:20161126072746d    3
 OLDACT:UP  16-11-26 15:35 OP:dani STATUS:               ID:20161126072745d    3
 OLDACT:UP  16-11-26 15:34 OP:dani STATUS:               ID:20161126072745d    3
 OLDACT:DUP 16-11-26 15:32 OP:dani STATUS:               ID:20161126072745d    3
 OLDACT:UP  16-11-26 15:32 OP:dani STATUS:               ID:20161126072744     3
 OLDACT:UP  16-11-26 15:29 OP:dani STATUS:               ID:20161126072744     3
 OLDACT:UP  16-11-26 15:27 OP:dani STATUS:               ID:20161126072744     3
 OLDACT:UP  16-11-26 15:27 OP:dani STATUS:               ID:20161126072744     3
 OLDACT:REG 16-11-26 12:12 OP:dani STATUS:               ID:20161126072744     3
 2016-11-26-0728-00M.COL___349                                                 6
 STAT SP IPHASW D HRMM SECON CODA AMPLIT PERI AZIMU VELO AIN AR TRES W  DIS CAZ7
 BRR  HZ EP        738 31.43                             155   -0.5710 40.4   6 
 BRR  HN ES        738 42.86                             155   -0.0310 40.4   6 
 BRR  HZ I         738 44.20         3.0 0.31            154           40.4   6 
 BAR2 EZ EP        738 34.16                             143    0.2510 65.2 105 
 BAR2 EZ ES        738 46.47                             143    0.1810 65.2 105 
 PTB  HZ EP        738 34.90                             137    0.0310 81.1 254 
 PTB  HE ES        738 47.85                             137   -0.1510 81.1 254 
 PTB  HZ I         738 49.52         2.6 0.12            137           81.1 254 
 ZAR  HZ EP        738 41.32                             119   -0.10 9  148 304 
 ZAR  HE ES        739  0.11                             119    0.44 9  148 304 
 ZAR  HZ I         739  3.34         1.1 0.26            119            148 304 
                                                                                
