 2017  526 0839  4.0 L   6.668 -73.506107.9  RSN  5 0.4 1.4LRSN                1
 GAP=176        1.08       4.7     5.5  9.5  0.1122E+02  0.6845E+01 -0.1683E+00E
 Epicentro: EL CARMEN - SANTANDER                                              3
 ACTION:UPD 17-06-16 13:38 OP:jn   STATUS:               ID:20170526083904 L   I
 OLDACT:UP  17-06-02 17:18 OP:nlst STATUS:               ID:20170526083904 L   3
 OLDACT:REG 17-05-26 12:55 OP:ar   STATUS:               ID:20170526082731     3
 2017-05-26-0828-00M.COL___326                                                 6
 STAT SP IPHASW D HRMM SECON CODA AMPLIT PERI AZIMU VELO AIN AR TRES W  DIS CAZ7
 BRR  HZ EP        839 19.50                             152   -0.5310 53.6 335 
 BRR  HN ES        839 32.57                             152    0.0110 53.6 335 
 BRR  HZ I         839 33.39         8.7 0.52            152           53.6 335 
 RUS  HZ EP        839 24.14                             135    0.1710 97.7 151 
 RUS  HN ES        839 39.84                             135    0.2710 97.7 151 
 RUS  HZ I         839 41.92         4.4 0.28            136           97.7 151 
 PTB  HZ EP        839 23.45                             132   -0.6110  106 262 
 PTB  HN ES        839 39.42                             132   -0.3110  106 262 
 PTB  HZ I         839 40.34         2.7 0.14            133            106 262 
 SPBC HN ES        839 43.86                             126    0.1310  129 209 
 ZAR  HZ EP        839 31.26                             117    0.22 9  175 301 
 ZAR  HN ES        839 53.02                             117    0.86 9  175 301 
 ZAR  HZ I         839 55.56         4.7 0.28            117            175 301 
                                                                                
