 2013  126 0034 58.9 L   6.769 -73.128128.7  RSN  4 0.4 1.0LRSN                1
 GAP=140        0.90       9.9     5.4 13.9 -0.2659E+02 -0.1205E+02  0.8899E+02E
 Epicentro: LOS SANTOS - SANTANDER                                             3
 ACTION:UPD 13-02-15 09:16 OP:ep   STATUS:               ID:20130126003458 L   I
 2013-01-26-0028-50M.COL___187                                                 6
 STAT SP IPHASW D HRMM SECON CODA AMPLIT PERI AZIMU VELO AIN AR TRES W  DIS CAZ7
 BRR  HN ES   2    035 34.83                             148    1.14 5 74.6 300 
 PAM  SZ EP        035 19.61                             146    0.1810 78.9  37 
 PAM  SN ES        035 35.10                             146   -0.3410 78.9  37 
 RUS  HZ EP        035 20.96                             140    0.2210 97.0 177 
 PTB  HZ EP        035 24.70                             127    0.04 9  149 260 
 PTB  HN ES        035 44.31                             127   -0.44 9  149 260 
 PTB  HN I         035 48.35         1.5 0.24            128            149 260 
                                                                                
