 2016  826 0706 47.7 L   6.784 -73.016149.8  RSN  6 0.4 1.4LRSN                1
 GAP=249        0.96       5.7     7.2  7.2  0.1658E+01  0.1067E+02  0.6083E+01E
 Epicentro: CEPITA - SANTANDER                                                 3
 ACTION:UPD 16-10-29 15:39 OP:rebc STATUS:               ID:20160826070647 L   I
 OLDACT:REG 16-08-26 13:00 OP:ak   STATUS:               ID:20160826065739     3
 2016-08-26-0658-00M.COL___365                                                 6
 STAT SP IPHASW D HRMM SECON CODA AMPLIT PERI AZIMU VELO AIN AR TRES W  DIS CAZ7
 BAR2 EZ EP        7 7  7.83                             169   -0.0810 28.1 221 
 BAR2 EZ ES        7 7 23.61                             169   -0.0710 28.1 221 
 BAR2 EZ I         7 7 24.86         6.1 0.27                          28.1 221 
 BRR  HZ EP        7 7 10.05                             149   -0.0310 84.8 295 
 BRR  HE ES        7 7 27.71                             149    0.1610 84.8 295 
 BRR  HZ I         7 7 30.53         4.7 0.18                          84.8 295 
 RUS  HZ EP        7 7 11.98                             145    0.2610 98.9 184 
 RUS  HN ES        7 7 30.73                             145    0.2710 98.9 184 
 RUS  HZ I         7 7 31.95         1.7 0.29                          98.9 184 
 PTB  HZ EP   2    7 7 15.78                             130   -0.47 5  162 260 
 PTB  HN ES   4    7 7 36.26                             130   -2.27 0  162 260 
 PTB  HZ I         7 7 43.44         4.0 0.38                           162 260 
 SPBC HZ EP        7 7 17.12                             129   -0.14 9  171 223 
 SPBC HN ES        7 7 39.44                             129   -0.90 9  171 223 
 SPBC HZ I         7 7 44.86         3.0 0.28                           171 223 
 GUY2CHZ EP   2    7 7 32.18                             112   -0.53 3  312 237 
 GUY2CHE ES        7 8  8.80                             112    0.97 7  312 237 
 GUY2CHZ I         7 8 14.15         1.3 0.38                           312 237 
                                                                                
