 2013  226 0757 26.8 L   6.793 -73.165149.4  RSN  7 0.4 1.8LRSN                1
 GAP=134        1.05       4.3     5.5  7.4 -0.2010E+01  0.3504E+01  0.6115E+01E
 Epicentro: LOS SANTOS - SANTANDER                                             3
 ACTION:UPD 13-03-12 09:35 OP:ep   STATUS:               ID:20130226075726 L   I
 2013-02-26-0748-51M.COL___193                                                 6
 STAT SP IPHASW D HRMM SECON CODA AMPLIT PERI AZIMU VELO AIN AR TRES W  DIS CAZ7
 BAR2 SZ EP   1    757 46.89                             171    0.04 7 22.3 185 
 BAR2 SZ ES   1    758  2.80                             171    0.32 7 22.3 185 
 BAR2 SZ I         758  3.14         9.2 0.26            171           22.3 185 
 BRR  HZ EP        757 48.68                             154    0.4210 69.7 300 
 BRR  HN ES        758  5.77                             154    0.7710 69.7 300 
 BRR  HN I         758  6.39        17.8 0.32            152           69.7 300 
 PAM  SZ EP        757 49.68                             151    0.1710 79.3  40 
 PAM  SN ES        758  6.84                             151   -0.3910 79.3  40 
 PAM  SN I         758  8.21         5.5 0.44            153           79.3  40 
 RUS  HZ EP        757 50.60                             145   -0.2710  100 175 
 RUS  HN ES        758  9.51                             145   -0.1310  100 175 
 RUS  HN I         758 11.10         5.6 0.32            146            100 175 
 PTB  HZ EP        757 53.75                             133   -0.12 9  146 259 
 PTB  HN ES        758 14.24                             133   -0.74 9  146 259 
 PTB  HN I         758 19.97        10.5 0.30            133            146 259 
 OCA  HN ES        758 17.44                             130   -0.34 9  161 354 
 OCA  HN I         758 19.88        30.2 0.26            131            161 354 
 CHI  HZ EP        758  5.00                             118    0.43 8  247 195 
                                                                                
