 2015  126 0055 56.2 L   6.811 -73.168143.0  RSN 10 0.4 2.0LRSN                1
 GAP=133        0.98       3.1     3.9  5.5 -0.1111E+01  0.4487E+01  0.1734E+01E
 Epicentro: LOS SANTOS - SANTANDER                                             3
 ACTION:UPD 15-03-02 15:42 OP:nd   STATUS:               ID:20150126005556 L   I
 OLDACT:REG 15-01-26 14:23 OP:cam  STATUS:               ID:20150126004817     3
 2015-01-26-0048-17M.COL___271                                                 6
 STAT SP IPHASW D HRMM SECON CODA AMPLIT PERI AZIMU VELO AIN AR TRES W  DIS CAZ7
 BAR2 EZ EP        056 14.78                             170   -0.7210 24.2 184 
 BAR2 EZ ES        056 30.46                             170   -0.1110 24.2 184 
 BAR2 EZ I         056 31.84        20.9 0.20            168           24.2 184 
 BRR  HZ EP        056 17.19                             153    0.3110 68.4 299 
 BRR  HN ES        056 33.53                             153    0.5110 68.4 299 
 BRR  HZ I         056 34.82        18.4 0.18            150           68.4 299 
 PAM  SZ EP     C  056 18.40                             150    0.2510 78.1  42 
 PAM  SN ES        056 35.08                             150   -0.2010 78.1  42 
 PAM  SZ I         056 37.63        12.6 0.60            155           78.1  42 
 RUS  HZ EP        056 19.56                             143   -0.2110  102 175 
 RUS  HN ES        056 38.57                             143    0.4110  102 175 
 RUS  HZ I         056 39.96         9.8 0.32            144            102 175 
 PTB  HZ EP        056 22.15                             132   -0.58 9  146 258 
 PTB  HN ES        056 42.73                             132   -0.70 9  146 258 
 PTB  HZ I         056 48.05        14.1 0.12            130            146 258 
 SPBC HZ EP        056 24.77                             128    0.36 9  163 218 
 SPBC HN ES        056 46.44                             128    0.01 9  163 218 
 SPBC HZ I         056 55.46        15.2 0.18            128            163 218 
 ZAR  HN ES        056 53.28                             122    0.17 9  201 292 
 ZAR  HZ I         057  0.82        11.2 0.28            122            201 292 
 NOR  HZ EP   1    056 31.53                             118   -0.08 6  233 234 
 NOR  HN ES        056 59.57                             118    0.32 8  233 234 
 NOR  HZ I         057  6.42         7.6 0.16            118            233 234 
 SML  HZ EP        056 32.93                             117    0.51 8  242 336 
 SML  HN ES   2    056 59.86                             117   -0.83 4  242 336 
 SML  HZ I         057  5.22        17.5 0.26            118            242 336 
 CHI  HZ EP        056 33.95                             116    0.16 8  249 195 
 CHI  HN ES        057  3.06                             116   -0.06 8  249 195 
 CHI  HN I         057  8.04        10.6 0.28            117            249 195 
                                                                                
