 2013  726 0754 59.6 L   6.803 -73.121149.1  RSN 13 0.4 2.2LRSN                1
 GAP=139        0.84       2.6     3.9  4.6 -0.1917E+00  0.4260E+01 -0.3400E+00E
 Epicentro: LOS SANTOS - SANTANDER                                             3
 ACTION:UPD 13-08-12 10:40 OP:ep   STATUS:               ID:20130726075459 L   I
 OLDACT:UP  13-07-26 10:19 OP:cam  STATUS:               ID:20130726074959     3
 OLDACT:UP  13-07-26 10:19 OP:cam  STATUS:               ID:20130726074959     3
 OLDACT:REG 13-07-26 08:31 OP:cam  STATUS:               ID:20130726074959     3
 2013-07-26-0749-59M.COL___267                                                 6
 STAT SP IPHASW D HRMM SECON CODA AMPLIT PERI AZIMU VELO AIN AR TRES W  DIS CAZ7
 BAR2 SZ IP     D  755 19.50                             170   -0.1110 24.2 196 
 BAR2 SZ ES        755 34.77                             170   -0.4810 24.2 196 
 BAR2 SZ I         755 36.32        21.3 0.26            168           24.2 196 
 GIR2 SZ EP        755 19.38                             167   -0.2610 31.6 345 
 GIR2 SZ ES   1    755 35.38                             167    0.08 7 31.6 345 
 GIR2 SZ I         755 36.44        16.0 0.12            167           31.6 345 
 BRR  HZ IP     C  755 21.37                             152    0.1710 73.4 297 
 BRR  HZ I         755 21.66        26.2 0.26            150           73.4 297 
 BRR  HN ES        755 38.75                             152    0.6810 73.4 297 
 PAM  SZ EP   1    755 22.38                             152    0.35 7 75.5  38 
 RUS  HZ EP   1    755 23.44                             144   -0.21 7  101 178 
 RUS  HN ES        755 42.47                             144    0.0310  101 178 
 RUS  HZ I         755 45.59         8.8 0.50            145            101 178 
 PTB  HZ EP   1    755 26.52                             132   -0.53 7  150 259 
 PTB  HN ES   1    755 47.86                             132   -0.62 7  150 259 
 PTB  HZ I         755 50.88        20.6 0.18            131            150 259 
 OCA  HZ EP   1    755 28.83                             130    0.69 7  160 352 
 OCA  HN ES        755 50.73                             130    0.30 9  160 352 
 OCA  HZ I         755 55.45        16.7 0.34            131            160 352 
 ZAR  HZ EP        755 32.28                             123   -0.19 8  206 292 
 ZAR  HE ES        755 57.94                             123   -0.20 8  206 292 
 ZAR  HZ I         756  4.04        25.8 0.34            122            206 292 
 NOR  HZ IP     C  755 35.77                             119    0.03 8  237 235 
 NOR  HN ES        756  4.17                             119    0.21 8  237 235 
 NOR  HZ I         756 10.60        12.6 0.34            119            237 235 
 SML  HZ EP        755 36.29                             118   -0.18 8  245 335 
 SML  HN ES        756  4.68                             118   -0.58 8  245 335 
 SML  HZ I         756  8.00        22.0 0.10            118            245 335 
 CHI  HZ EP   1    755 37.97                             118    0.41 6  250 196 
 ROSC BZ EP   4    755 39.38                             117    1.33 0  254 212 
 HEL  HN ES   1    756 12.67                             115    0.70 6  275 256 
 RREF HZ EP   4    755 47.75                             111    1.64 0  324 230 
 PRA  HZ EP   1    755 53.18                             107   -0.21 4  394 210 
 PRA  HN ES   1    756 36.00                             107    0.63 4  394 210 
 PRA  HZ I         756 43.66         7.8 0.34            107            394 210 
                                                                                
