 2017  426 0758  2.0 L   6.817 -73.138145.7  RSN 16 0.6 2.9LRSN                1
 GAP=112        1.17       3.6     3.8  6.0  0.2310E+01  0.7457E+01  0.5688E+01E
 Epicentro: LOS SANTOS - SANTANDER                                             3
 ACTION:UPD 17-05-30 21:16 OP:jn   STATUS:               ID:20170426075802 L   I
 OLDACT:UP  17-04-26 15:30 OP:dani STATUS:               ID:20170426074737     3
 OLDACT:UP  17-04-26 15:30 OP:dani STATUS:               ID:20170426074737     3
 OLDACT:UP  17-04-26 15:30 OP:dani STATUS:               ID:20170426074737     3
 OLDACT:REG 17-04-26 12:39 OP:dani STATUS:               ID:20170426074737     3
 2017-04-26-0748-00M.COL___360                                                 6
 STAT SP IPHASW D HRMM SECON CODA AMPLIT PERI AZIMU VELO AIN AR TRES W  DIS CAZ7
 BAR2 EZ EP     D  758 21.37                             170   -0.2710 25.3 191 
 BAR2 EZ ES        758 36.42                             170   -0.5610 25.3 191 
 BAR2 EZ I         758 37.78       266.3 0.22            166           25.3 191 
 BRR  HZ EP        758 23.22                             152    0.1010 71.1 297 
 BRR  HN ES        758 40.40                             152    0.8010 71.1 297 
 BRR  HZ I         758 44.20        90.1 0.14            153           71.1 297 
 PAM  EZ EP        758 24.11                             151    0.0410 75.4  40 
 PAM  EN ES        758 41.35                             151    0.0410 75.4  40 
 PAM  EZ I         758 43.39       145.8 0.48            158           75.4  40 
 PTB  HZ EP   3    758 27.88                             132   -1.17 2  149 258 
 PTB  HN ES   3    758 48.79                             132   -1.38 2  149 258 
 PTB  HZ I         758 51.19       107.7 0.36            132            149 258 
 SPBC HZ EP        758 30.37                             129   -0.29 9  165 219 
 SPBC HE ES        758 52.95                             129   -0.08 9  165 219 
 SPBC HZ I         758 59.69       113.9 0.30            129            165 219 
 YPLC HZ EP        758 31.75                             126   -0.14 9  178 152 
 YPLC HN ES        758 55.67                             126    0.45 9  178 152 
 YPLC HZ I         758 59.33        73.4 0.50            128            178 152 
 ZAR  HZ EP        758 34.06                             122   -0.37 9  204 292 
 ZAR  HN ES        758 59.71                             122   -0.03 9  204 292 
 ZAR  HZ I         759  6.03        76.7 0.22            124            204 292 
 TABC EZ EP        758 38.96                             119    1.02 8  232 211 
 NOR  HZ EP        758 37.49                             118   -0.40 8  236 234 
 NOR  HN ES        759  4.83                             118   -1.08 8  236 234 
 NOR  HZ I         759 10.68        64.1 0.50            119            236 234 
 CHI  HZ EP        758 39.64                             117   -0.25 8  251 195 
 CHI  HN ES        759  9.23                             117   -0.23 8  251 195 
 CHI  HZ I         759 16.06        27.2 0.54            118            251 195 
 ROSC BZ EP   9    758 41.07                             116    0.75 0  255 211 
 ROSC BE ES        759 10.27                                   -0.70 8  255 211 
 ROSC BZ I         759 18.37        57.4 0.28            118            255 211 
 HEL  HZ EP        758 43.19                             115    0.86 8  273 255 
 HEL  HN ES        759 15.06                             115    1.26 8  273 255 
 HEL  HZ I         759 21.37        49.4 0.46            116            273 255 
 VIL  EZ EP        758 45.97                             112    0.35 7  305 192 
 VIL  EN ES        759 19.86                             112    0.20 7  305 192 
 VIL  EZ I         759 25.79        45.0 0.72            113            305 192 
 DBB  EZ EP        758 49.09                             109   -0.44 7  340 274 
 DBB  EE ES        759 26.17                             109   -0.46 7  340 274 
 DBB  EZ I         759 28.30        14.3 0.33            111            340 274 
 APAC HZ EP        758 55.54                             106   -0.65 6  398 288 
 APAC HE ES        759 38.76                             106    0.28 6  398 288 
 APAC HZ I         759 40.29        10.7 0.48            108            398 288 
 SJC  HZ EP   3    758 55.75                             106   -1.66 1  408 327 
 SJC  HN ES   4    759 36.89                             106   -3.76 0  408 327 
 SJC  HZ I         759 40.44        22.1 0.41            108            408 327 
                                                                                
