 2012  126 0343 53.1 L   6.792 -73.315110.7  RSN  4 0.2 1.3LRSN                1
 GAP=143        0.46       9.0    10.7  7.6  0.7226E+02 -0.2413E+01  0.1470E+01E
 Epicentro: ZAPATOCA - SANTANDER                                               3
 ACTION:UP  12-02-03 08:20 OP:REBC STATUS:               ID:20120126034353 L   I
 2012-01-26-0340-00M.COL___188                                                 6
 STAT SP IPHASW D HRMM SECON CODA AMPLIT PERI AZIMU VELO SNR AR TRES W  DIS CAZ7
 BAR2 SZ EP        344  8.78                             165     0.210   27 147 
 BAR2 SZ I         344  8.91         3.6 0.09                            27 147 
 BAR2 SZ ES   2    344 20.44                             165    -0.3 5   27 147 
 GIR2 SZ EP   1    344  8.81                             161     0.1 7   34  23 
 BRR  HZ EP        344  9.43                             151    -0.210   56 308 
 BRR  HZ I         344  9.71        10.4 0.20                            56 308 
 BRR  HN ES   2    344 22.71                             151     0.2 5   56 308 
 RUS  HZ EP   2    344 13.81                             134     0.0 5  103 166 
                                                                                
