 2017  926 0702 22.6 L   6.797 -73.144149.4  RSN 20 0.6 2.1LRSN                1
 GAP=112        1.30       3.5     4.2  6.2 -0.2621E+00  0.9037E+01  0.2259E+01E
 Epicentro: LOS SANTOS - SANTANDER                                             3
 ACTION:UPD 17-10-05 19:16 OP:rebc STATUS:               ID:20170926070222 L   I
 OLDACT:UP  17-09-26 17:37 OP:osc  STATUS:               ID:20170926065738     3
 OLDACT:REG 17-09-26 13:12 OP:osc  STATUS:               ID:20170926065738     3
 2017-09-26-0658-00M.COL___438                                                 6
 STAT SP IPHASW D HRMM SECON CODA AMPLIT PERI AZIMU VELO AIN AR TRES W  DIS CAZ7
 BAR2 EZ EP        7 2 42.36                             171   -0.2610 23.1 190 
 BAR2 EZ ES        7 2 57.90                             171   -0.3610 23.1 190 
 BAR2 EZ I         7 2 59.13        35.1 0.20            167           23.1 190 
 BRR  HZ EP        7 2 44.32                             153    0.2010 71.5 299 
 BRR  HE ES        7 3  1.78                             153    0.8510 71.5 299 
 BRR  HZ I         7 3  4.73        21.1 0.36            152           71.5 299 
 PAM  EZ EP        7 2 45.24                             151    0.0710 77.5  39 
 PAM  EE ES        7 3  2.53                             151   -0.2710 77.5  39 
 PAM  EZ I         7 3  4.34        27.9 0.60            157           77.5  39 
 RUS  HZ EP        7 2 46.26                             145   -0.3910  100 176 
 RUS  HN ES        7 3  5.33                             145   -0.1010  100 176 
 RUS  HZ I         7 3  7.78        15.9 0.50            144            100 176 
 YPLC HZ EP        7 2 52.52                             128   -0.07 9  176 151 
 YPLC HE ES        7 3 16.86                             128    0.85 9  176 151 
 YPLC HZ I         7 3 17.43        15.1 0.22            129            176 151 
 ZAR  HZ EP        7 2 54.83                             123   -0.44 9  204 292 
 ZAR  HE ES        7 3 20.60                             123   -0.18 9  204 292 
 ZAR  HZ I         7 3 26.07        10.4 0.16            124            204 292 
 NOR  HE ES        7 3 26.78                             119    0.26 8  235 235 
 CHI  HZ EP        7 3  0.45                             118    0.01 8  248 195 
 CHI  HN ES        7 3 29.60                             118   -0.37 8  248 195 
 CHI  HZ I         7 3 35.10         4.8 0.40            118            248 195 
 ROSC BZ EP   4    7 3  2.53                             117    1.67 0  253 211 
 ROSC BE ES   4    7 3 33.26                             117    2.53 0  253 211 
 ROSC BZ I         7 3 39.10         8.0 0.35            118            253 211 
 HEL  HZ EP        7 3  4.43                             115    1.46 8  272 256 
 HEL  HN ES        7 3 34.70                             115    0.22 8  272 256 
 HEL  HZ I         7 3 40.53         8.3 0.32            116            272 256 
 URE  HZ EP        7 3  3.02                             114   -0.82 7  284 292 
 URE  HE ES   4    7 3 33.76                             114   -2.27 0  284 292 
 GUY2CHZ EP        7 3  6.70                             113    0.37 7  301 235 
 GUY2CHE ES        7 3 40.58                             113    0.11 7  301 235 
 GUY2CHZ I         7 3 50.20         7.8 0.52                           301 235 
 PTGC HZ EP   4    7 3  5.18                             112   -1.36 0  308 159 
 PTGC HE ES   4    7 3 38.35                             112   -2.50 0  308 159 
 PTGC HZ I         7 3 43.35         6.6 0.38            113            308 159 
 LL6C HZ EP        7 3  7.65                             111   -0.80 7  325 358 
 LL6C HE ES        7 3 44.70                             111    0.45 7  325 358 
 ELA  HZ EP        7 3 10.81                             111    1.25 7  329 230 
 ELA  HN ES        7 3 44.27                             111   -1.94 7  329 230 
 ELA  HZ I         7 3 54.06         8.3 0.46            111            329 230 
 CBOC HZ EP   3    7 3 10.77                             111    1.14 2  334 252 
 CBOC HE ES        7 3 46.19                             111   -0.16 7  334 252 
 CBOC HZ I         7 3 52.74         3.8 0.44            111            334 252 
 ARGC HE ES   4    7 3 54.56                             109    3.29 0  360 340 
 PRA  HZ EP        7 3 15.93                             107   -0.26 6  392 210 
 PRA  HE ES   3    7 3 59.14                             107    1.13 1  392 210 
 PRA  HZ I         7 4  4.00         8.4 0.28            108            392 210 
 ORTC HZ EP        7 3 16.48                             107   -0.11 6  395 216 
 ORTC HE ES   4    7 4  1.32                             107    2.59 0  395 216 
 ORTC HZ I         7 4  6.12         6.0 0.24            107            395 216 
 PAL  HZ EP        7 3 17.84                             106    0.00 6  406 239 
 PAL  HE ES   4    7 3 58.02                             106   -2.93 0  406 239 
 PAL  HZ I         7 4  4.91         2.9 0.32            107            406 239 
 SJC  HZ EP   4    7 3 16.48                             106   -1.80 0  410 327 
 SJC  HE ES   4    7 3 58.48                             106   -3.26 0  410 327 
 SJC  HZ I         7 4  2.04         3.0 0.42            107            410 327 
                                                                                
