 2017  426 0634 38.3 L   6.724 -73.137144.7  RSN  6 0.3 1.8LRSN                1
 GAP=164        0.85       6.6     4.0  6.7 -0.4317E+01  0.5220E+01  0.3234E+01E
 Epicentro: JORDAN - SANTANDER                                                 3
 ACTION:UPD 17-05-30 21:16 OP:jn   STATUS:               ID:20170426063438 L   I
 OLDACT:UP  17-04-26 14:52 OP:dani STATUS:               ID:20170426062738     3
 OLDACT:UP  17-04-26 14:52 OP:dani STATUS:               ID:20170426062738     3
 OLDACT:UP  17-04-26 14:52 OP:dani STATUS:               ID:20170426062738     3
 OLDACT:REG 17-04-26 12:34 OP:dani STATUS:               ID:20170426062738     3
 2017-04-26-0628-00M.COL___374                                                 6
 STAT SP IPHASW D HRMM SECON CODA AMPLIT PERI AZIMU VELO AIN AR TRES W  DIS CAZ7
 BAR2 EZ EP        634 57.90                             173    0.2710 15.4 199 
 BAR2 EZ ES        635 12.76                             173    0.0210 15.4 199 
 BAR2 EZ I         635 13.76        15.0 0.16            174           15.4 199 
 BRR  HZ EP        634 59.81                             151    0.2110 76.4 304 
 BRR  HN ES        635 16.72                             151    0.4810 76.4 304 
 BRR  HZ I         635 17.54         9.2 0.12            149           76.4 304 
 PAM  EZ EP        635  0.87                             149    0.1310 83.5  35 
 PAM  EN ES        635 17.79                             149   -0.4810 83.5  35 
 PAM  EZ I         635 19.31         8.0 0.18            149           83.5  35 
 PTB  HZ EP        635  4.81                             132   -0.29 9  147 262 
 PTB  HN ES        635 25.64                             132   -0.40 9  147 262 
 PTB  HZ I         635 26.63         4.6 0.30            132            147 262 
 ZAR  HZ EP   4    635 12.82                             122    1.75 0  208 294 
 ZAR  HE ES        635 36.60                             122   -0.06 8  208 294 
 ZAR  HZ I         635 42.90         7.8 0.31            121            208 294 
 SJC  HZ EP   9    635 32.14                             105   -2.54 0  417 327 
 SJC  HN ES        636 15.44                             106   -0.71 5  417 327 
 SJC  HZ I         636 17.92         1.8 0.55            105            417 327 
                                                                                
