 2013  626 0233 22.7 L   6.835 -73.208144.3  RSN  5 0.3 1.2LRSN                1
 GAP=196        0.68       5.4     6.5  7.4  0.1123E+02  0.7752E+00 -0.7529E+00E
 Epicentro: ZAPATOCA - SANTANDER                                               3
 ACTION:UPD 14-01-08 09:57 OP:ep   STATUS:               ID:20130626023322 L   I
 OLDACT:DUP 13-06-26 08:57 OP:jn   STATUS:               ID:20130626022960d    3
 OLDACT:REG 13-06-26 07:30 OP:jn   STATUS:               ID:20130626022959     3
 2013-06-26-0229-59M.COL___267                                                 6
 STAT SP IPHASW D HRMM SECON CODA AMPLIT PERI AZIMU VELO AIN AR TRES W  DIS CAZ7
 BAR2 SZ EP   1    233 42.31                             169    0.06 7 27.0 174 
 BAR2 SZ ES   1    233 57.02                             169   -0.46 7 27.0 174 
 BAR2 SZ I         233 58.68         3.1 0.18            164           27.0 174 
 BRR  HN ES   1    233 59.94                             155    0.62 7 63.3 298 
 BRR  HZ I         234  1.59         4.9 0.43            150           63.3 298 
 RUS  HZ EP   1    233 46.79                             142    0.14 7  105 172 
 PTB  HZ EP   1    233 49.08                             133    0.05 7  142 257 
 PTB  HN ES   1    234  9.32                             133   -0.24 7  142 257 
 PTB  HZ I         234 15.48         1.4 0.28            130            142 257 
 SML  HN ES   1    234 26.24                             118   -0.30 6  237 336 
                                                                                
