 2016 1026 0221 19.8 L   6.797 -73.199150.0  RSN  6 0.5 1.6LRSN                1
 GAP=231        1.06       5.4     6.6  8.4  0.6631E+01  0.6924E+00  0.1113E+02E
 Epicentro: ZAPATOCA - SANTANDER                                               3
 ACTION:UPD 16-11-09 19:22 OP:rebc STATUS:               ID:20161026022119 L   I
 OLDACT:UP  16-10-26 17:02 OP:cog  STATUS:               ID:20161026021743     3
 OLDACT:REG 16-10-26 12:37 OP:cog  STATUS:               ID:20161026021743     3
 2016-10-26-0218-00M.COL___337                                                 6
 STAT SP IPHASW D HRMM SECON CODA AMPLIT PERI AZIMU VELO AIN AR TRES W  DIS CAZ7
 BRR  HZ EP        221 41.56                             155    0.3910 66.2 301 
 BRR  HE ES        221 58.24                             155    0.4210 66.2 301 
 RUS  HZ EP        221 43.65                             145   -0.3710  101 173 
 RUS  HE ES        222  2.60                             145   -0.2810  101 173 
 RUS  HZ I         222  3.35         4.0 0.20            144            101 173 
 PTB  HZ EP        221 46.31                             134   -0.32 9  142 259 
 PTB  HN ES        222  6.95                             134   -0.58 9  142 259 
 PTB  HZ I         222  9.36         5.2 0.42            133            142 259 
 SPBC HZ EP        221 47.72                             131   -0.57 9  159 217 
 SPBC HE ES        222 10.89                             131    0.40 9  159 217 
 SPBC HZ I         222 15.07         8.9 0.20            130            159 217 
 CHI  HZ EP        221 57.99                             118    0.42 8  247 194 
 CHI  HE ES        222 27.57                             118    0.56 8  247 194 
 CHI  HZ I         222 29.29         2.8 0.40            118            247 194 
 GUY2CHZ EP   2    222  4.36                             114    1.29 4  296 234 
 GUY2CHN ES        222 36.79                             114   -0.01 7  296 234 
 GUY2CHZ I         222 45.90         2.5 0.32                           296 234 
                                                                                
