 2017 1226 0523  8.4 L   6.822 -73.168146.3  RSN  8 0.4 1.4LRSN                1
 GAP= 78        0.92       3.3     3.0  5.8 -0.5279E+00  0.3908E+01 -0.2682E+01E
 Epicentro: LOS SANTOS - SANTANDER                                             3
 ACTION:UPD 18-01-04 13:24 OP:rebc STATUS:               ID:20171226052308 L   I
 OLDACT:REG 17-12-26 13:24 OP:osc  STATUS:               ID:20171226051122     3
 2017-12-26-0518-00M.COL___460                                                 6
 STAT SP IPHASW D HRMM SECON CODA AMPLIT PERI AZIMU VELO AIN AR TRES W  DIS CAZ7
 BAR2 EZ EP        523 28.10                             170   -0.0710 25.4 184 
 BAR2 EZ ES        523 43.20                             170   -0.3710 25.4 184 
 BAR2 EZ I         523 44.57        10.9 0.18            171           25.4 184 
 PAM  EZ EP        523 31.07                             151    0.3810 77.2  42 
 PAM  EN ES        523 48.15                             151    0.0910 77.2  42 
 PAM  EZ I         523 49.14         1.9 0.16            154           77.2  42 
 PTB  HZ EP        523 35.01                             132   -0.26 9  146 258 
 PTB  HN ES        523 56.12                             132   -0.09 9  146 258 
 PTB  HZ I         524  3.59         2.4 0.19            133            146 258 
 TAM  HE ES        523 58.12                             130   -0.15 9  158 106 
 OCA  HZ EP        523 36.96                             130    0.42 9  158 354 
 OCA  HN ES        523 58.25                             130   -0.21 9  158 354 
 OCA  HZ I         524  6.94         6.5 0.38            131            158 354 
 TAM  HZ EP        523 36.42                             130   -0.01 9  158 106 
 SPBC HZ EP        523 37.25                             129    0.24 9  164 218 
 SPBC HE ES        523 59.12                             129   -0.18 9  164 218 
 SPBC HZ I         524  3.08         3.6 0.08            131            164 218 
 ZAR  HZ EP        523 40.77                             123    0.18 9  201 292 
 ZAR  HN ES        524  6.55                             123    0.88 9  201 292 
 ZAR  HZ I         524 15.51         2.5 0.26            123            201 292 
 SJC  HZ EP        524  2.57                             106   -1.05 6  406 327 
 SJC  HN ES        524 45.87                             106   -0.80 6  406 327 
                                                                                
