 2014  126 0659 56.1 L   6.812 -73.156138.0  RSN 11 0.5 1.7LRSN                1
 GAP=135        1.17       3.4     5.2  7.4 -0.4798E+01  0.1550E+02  0.1610E+01E
 Epicentro: LOS SANTOS - SANTANDER                                             3
 ACTION:UPD 14-03-13 09:58 OP:ep   STATUS:               ID:20140126065956 L   I
 OLDACT:REG 14-01-26 09:40 OP:nd   STATUS:               ID:20140126070000     3
 2014-01-26-0700-00M.COL___285                                                 6
 STAT SP IPHASW D HRMM SECON CODA AMPLIT PERI AZIMU VELO AIN AR TRES W  DIS CAZ7
 BAR2 SZ EP        7 0 15.12                             169    0.3210 24.4 187 
 BAR2 SZ ES        7 0 29.72                             169    0.3210 24.4 187 
 BAR2 SZ I         7 0 31.30        20.7 0.20            171           24.4 187 
 PAM  SZ EP        7 0 18.03                             149    0.5710 77.1  41 
 PAM  SN ES        7 0 34.24                             149    0.1110 77.1  41 
 PAM  SZ I         7 0 37.06        10.4 0.48            150           77.1  41 
 RUS  HZ EP        7 0 19.00                             142   -0.1810  102 175 
 RUS  HN ES        7 0 37.12                             142   -0.0710  102 175 
 RUS  HZ I         7 0 38.92         5.9 0.28            144            102 175 
 PTB  HZ EP        7 0 21.75                             130   -0.59 9  147 258 
 PTB  HN ES        7 0 42.80                             130   -0.02 9  147 258 
 PTB  HZ I         7 0 46.34         5.5 0.50            130            147 258 
 OCA  HZ EP   4    7 0 22.46                             128   -1.20 0  159 354 
 OCA  HN ES        7 0 44.14                             128   -1.03 9  159 354 
 OCA  HZ I         7 0 49.55         4.5 0.30            128            159 354 
 SPBC HZ EP        7 0 24.12                             127    0.10 9  163 218 
 SPBC HN ES        7 0 45.99                             127    0.18 9  163 218 
 SPBC HZ I         7 0 47.22         5.8 0.22            128            163 218 
 NOR  HZ EP        7 0 31.59                             117    0.24 8  235 234 
 NOR  HN ES        7 0 58.78                             117   -0.08 8  235 234 
 NOR  HZ I         7 1  1.12         3.6 0.18            117            235 234 
 SML  HZ EP   4    7 0 31.63                             116   -0.47 0  242 335 
 SML  HN ES        7 1  0.36                             116    0.17 8  242 335 
 SML  HZ I         7 1  7.99         5.0 0.10            116            242 335 
 CHI  HZ EP        7 0 33.32                             115   -0.14 8  250 195 
 CHI  HN ES        7 1  1.41                             115   -1.21 8  250 195 
 CHI  HZ I         7 1  8.59         1.7 0.32            116            250 195 
 GUY2CHZ EP        7 0 40.12                             111    0.80 7  301 234 
 GUY2CHN ES        7 1 13.65                             111    0.61 7  301 234 
 GUY2CHZ I         7 1 20.22         2.2 0.38                           301 234 
 PRA  HZ EP   4    7 0 49.59                             105    0.18 0  393 209 
 PRA  HN ES   4    7 1 31.09                             105    0.09 0  393 209 
 PRA  HZ I         7 1 37.51         2.3 0.34            106            393 209 
                                                                                
