 2017  126 0021  4.9 L   6.751 -73.149145.7  RSN 14 0.5 2.0LRSN                1
 GAP=121        1.18       4.1     4.1  6.1  0.1137E+01  0.7829E+01  0.4116E+01E
 Epicentro: LOS SANTOS - SANTANDER                                             3
 ACTION:UPD 17-05-22 16:03 OP:jn   STATUS:               ID:20170126002104 L   I
 OLDACT:REG 17-01-26 13:18 OP:lv   STATUS:               ID:20170126001747     3
 2017-01-26-0018-00M.COL___355                                                 6
 STAT SP IPHASW D HRMM SECON CODA AMPLIT PERI AZIMU VELO AIN AR TRES W  DIS CAZ7
 BAR2 EZ EP        021 24.51                             173    0.0710 18.0 192 
 BAR2 EZ ES        021 39.34                             173   -0.3210 18.0 192 
 BAR2 EZ I         021 40.52        22.0 0.15            170           18.0 192 
 BRR  HZ EP        021 26.52                             152    0.3310 73.6 302 
 BRR  HE ES        021 43.61                             152    0.8210 73.6 302 
 BRR  HZ I         021 47.04        25.1 0.26            149           73.6 302 
 PAM  EZ EP        021 27.49                             149    0.1010 81.8  37 
 PAM  EN ES        021 44.42                             149   -0.5010 81.8  37 
 RUS  HZ EP        021 28.90                             145    0.6310 95.2 176 
 RUS  HN ES        021 46.40                             145   -0.1010 95.2 176 
 RUS  HZ I         021 47.84         9.1 0.24            146           95.2 176 
 PTB  HZ EP        021 31.27                             132   -0.49 9  146 261 
 PTB  HN ES        021 52.07                             132   -0.62 9  146 261 
 PTB  HZ I         021 55.43                             131            146 261 
 ZAR  HZ EP        021 37.92                             122    0.38 8  206 294 
 ZAR  HN ES        022  3.26                             122    0.28 8  206 294 
 ZAR  HZ I         022  9.42        18.9 0.35            122            206 294 
 NOR  HZ EP        021 39.59                             119   -0.69 8  231 236 
 NOR  HN ES        022  7.96                             119    0.10 8  231 236 
 NOR  HZ I         022 11.77         5.9 0.27            119            231 236 
 CHI  HZ EP        021 42.84                             118    0.81 8  243 195 
 CHI  HN ES        022 10.87                             118   -0.11 8  243 195 
 CHI  HZ I         022 15.31         2.6 0.21            118            243 195 
 URE  HZ EP        021 45.08                             113   -1.09 7  286 293 
 URE  HN ES   4    022 17.05                             113   -1.31 0  286 293 
 URE  HZ I         022 26.22         9.2 0.19            114            286 293 
 PTGC HZ EP        021 47.78                             112   -0.43 7  304 158 
 PTGC HN ES   4    022 20.53                             112   -1.45 0  304 158 
 PTGC HZ I         022 20.95         7.7 0.26            113            304 158 
 CBOC HZ EP   4    021 53.84                             110    2.24 0  332 253 
 CBOC HN ES        022 28.40                             110    0.38 7  332 253 
 CBOC HZ I         022 33.86         2.6 0.44            110            332 253 
 DBB  EZ EP        021 52.97                             109    0.57 7  340 275 
 DBB  EN ES        022 28.96                             109   -0.48 7  340 275 
 DBB  EZ I         022 31.13         5.5 0.31            110            340 275 
 ORTC HZ EP   9    022  0.47                             106    2.17 0  391 217 
 ORTC HN ES        022 41.96                                   -0.15 6  391 217 
 ORTC HZ I         022 46.73         3.5 0.20            107            391 217 
 SJC  HZ EP   4    021 59.49                             105   -1.49 0  414 327 
 SJC  HN ES   4    022 40.64                             105   -4.08 0  414 327 
 SJC  HZ I         022 44.11         2.8 0.38            106            414 327 
                                                                                
