 2017 1026 0708  6.1 L   6.800 -73.138144.0  RSN  8 0.5 1.2LRSN                1
 GAP=138        1.09       4.6     4.7  6.8 -0.6218E+00  0.8507E+01  0.8469E+00E
 Epicentro: LOS SANTOS - SANTANDER                                             3
 ACTION:UPD 17-11-07 19:37 OP:rebc STATUS:               ID:20171026070806 L   I
 OLDACT:UP  17-10-26 19:50 OP:dhb  STATUS:               ID:20171026070206     3
 OLDACT:REG 17-10-26 13:21 OP:dani STATUS:               ID:20171026070206     3
 2017-10-26-0707-00M.COL___396                                                 6
 STAT SP IPHASW D HRMM SECON CODA AMPLIT PERI AZIMU VELO AIN AR TRES W  DIS CAZ7
 BAR2 EZ EP        7 8 25.39                             170   -0.1710 23.5 192 
 BAR2 EZ ES        7 8 40.57                             170   -0.1410 23.5 192 
 BAR2 EZ I         7 8 42.38         4.2 0.36            168           23.5 192 
 BRR  HZ EP        7 8 27.35                             152    0.2110 72.0 298 
 BRR  HN ES        7 8 44.22                             152    0.7010 72.0 298 
 PAM  EZ IP     C  7 8 28.30                             151    0.1710 76.8  39 
 PAM  EN ES        7 8 44.92                             151   -0.3710 76.8  39 
 PAM  EZ I         7 8 47.47         3.5 0.44            149           76.8  39 
 RUS  HZ EP        7 8 29.50                             144   -0.2210  101 177 
 RUS  HN ES        7 8 48.62                             144    0.5110  101 177 
 RUS  HZ I         7 8 49.21         3.6 0.32            141            101 177 
 PTB  HZ EP        7 8 32.39                             132   -0.65 9  149 259 
 PTB  HZ I         7 8 54.09         1.1 0.14            125            149 259 
 PTB  HE ES        7 8 54.11                             132    0.08 9  149 259 
 SPBC HZ IP     C  7 8 34.59                             129    0.03 9  164 219 
 SPBC HE ES        7 8 56.26                             129   -0.47 9  164 219 
 SPBC HZ I         7 9  2.15         3.0 0.16            124            164 219 
 ZAR  HZ EP        7 8 38.82                             122    0.27 9  205 292 
 ZAR  HN ES        7 9  3.42                             122   -0.42 9  205 292 
 ZAR  HZ I         7 9 13.78         2.0 0.28            117            205 292 
 GUY2CHZ EP   2    7 8 51.98                             112    2.23 4  302 235 
 GUY2CHN ES   4    7 9 28.81                             112    5.04 0  302 235 
 GUY2CHZ I         7 9 30.51         0.6 0.58                           302 235 
                                                                                
