 2010  626 0659 58.2 L   6.765 -73.056138.7  RSN  5 0.3 1.4LRSN                1
 GAP=204        0.54       5.7     8.1  8.0 -0.1546E+02 -0.1811E+02 -0.1010E+02E
 Epicentro: LOS SANTOS - SANTANDER                                             3
 ACTION:UP  10-08-24 10:13 OP:vdl  STATUS:               ID:20100626065958 L   I
 2010-06-26-0657-52S.COL___118                                                 6
 STAT SP IPHASW D HRMM SECON CODA AMPLIT PERI AZIMU VELO SNR AR TRES W  DIS CAZ7
 BAR2 SZ EP        7 0 16.75                             170    -0.210   24 216 
 BAR2 SZ ES   2    7 0 31.73                             170     0.1 5   24 216 
 BRR  HZ EP        7 0 19.07                             148    -0.110   82 298 
 BRR  HE ES   2    7 0 35.96                             148     0.3 5   82 298 
 BRR  HZ I         7 0 37.86         4.6 0.06                            82 298 
 GUE  SZ EP        7 0 22.60                             137     0.210  119   7 
 GRA  SZ EP        7 0 23.04                             135     0.210  127  13 
 GRA  SZ ES   2    7 0 41.93                             135    -0.2 5  127  13 
 OCA  SZ EP   3    7 0 25.87                             127    -0.6 2  166 350 
 OCA  SZ ES   3    7 0 47.33                             127    -1.2 2  166 350 
 OCA  SZ I         7 0 50.86         3.2 0.31                           166 350 
                                                                                
