 2015  726 0826 57.4 L   6.804 -73.117140.8  RSN  8 0.5 1.6LRSN                1
 GAP=140        1.17       3.9     5.7  8.4 -0.4689E+01  0.2611E+02 -0.8151E+01E
 Epicentro: LOS SANTOS - SANTANDER                                             3
 ACTION:UPD 15-09-08 21:50 OP:cam  STATUS:               ID:20150726082657 L   I
 OLDACT:UP  15-07-26 17:13 OP:ak   STATUS:               ID:20150726081747     3
 OLDACT:REG 15-07-26 13:41 OP:ak   STATUS:               ID:20150726081747     3
 2015-07-26-0817-47M.COL___340                                                 6
 STAT SP IPHASW D HRMM SECON CODA AMPLIT PERI AZIMU VELO AIN AR TRES W  DIS CAZ7
 BAR2 EZ EP        827 16.55                             170    0.1210 24.5 197 
 BAR2 EZ ES        827 31.23                             170   -0.0710 24.5 197 
 BAR2 EZ I         827 33.01        12.5 0.18            171           24.5 197 
 PAM  EZ EP        827 19.26                             151    0.3310 75.1  38 
 PAM  EN ES        827 36.50                             151    0.7610 75.1  38 
 PAM  EZ I         827 40.91         4.1 0.36            153           75.1  38 
 RUS  HZ EP   1    827 19.72                             143   -0.94 7  101 178 
 RUS  HN ES        827 38.41                             143   -0.4110  101 178 
 RUS  HZ I         827 40.53         4.0 0.31            149            101 178 
 OCA  HZ EP        827 25.44                             128    0.14 9  160 352 
 OCA  HN ES        827 46.67                             128   -0.42 9  160 352 
 OCA  HZ I         827 51.22        10.0 0.24            130            160 352 
 ZAR  HZ EP        827 30.60                             121    0.81 8  207 292 
 ZAR  HN ES        827 55.12                             121    0.04 8  207 292 
 ZAR  HZ I         828  1.47         4.8 0.20            122            207 292 
 SML  HZ EP        827 33.01                             116   -0.82 8  245 335 
 SML  HN ES        828  1.60                             116   -0.67 8  245 335 
 SML  HZ I         828 11.62         6.1 0.07            118            245 335 
 HEL  HZ EP   1    827 38.45                             113    0.76 6  275 256 
 HEL  HE ES        828  9.07                             113   -0.07 8  275 256 
 HEL  HZ I         828 15.22         1.3 0.44            116            275 256 
 GUY2CHZ EP   1    827 41.57                             111    0.49 5  304 235 
 GUY2CHE ES        828 15.23                             111    0.06 7  304 235 
 GUY2CHZ I         828 23.27         1.3 0.54                           304 235 
                                                                                
