 2017  426 0115  3.9 L   6.815 -73.141151.5  RSN 11 0.5 2.2LRSN                1
 GAP=112        0.97       3.2     3.5  5.3  0.4009E+00  0.3173E+01  0.4596E+01E
 Epicentro: LOS SANTOS - SANTANDER                                             3
 ACTION:UPD 17-05-30 21:16 OP:jn   STATUS:               ID:20170426011503 L   I
 OLDACT:UP  17-04-26 13:04 OP:dani STATUS:               ID:20170426010737     3
 OLDACT:REG 17-04-26 12:13 OP:dani STATUS:               ID:20170426010737     3
 2017-04-26-0108-00M.COL___368                                                 6
 STAT SP IPHASW D HRMM SECON CODA AMPLIT PERI AZIMU VELO AIN AR TRES W  DIS CAZ7
 BAR2 EZ EP        115 24.17                             170   -0.1110 25.1 190 
 BAR2 EZ ES        115 39.84                             170   -0.3210 25.1 190 
 BAR2 EZ I         115 43.23        24.5 0.46            168           25.1 190 
 BRR  HZ EP        115 26.12                             154    0.4410 70.9 297 
 BRR  HN ES        115 43.49                             154    0.8410 70.9 297 
 BRR  HZ I         115 44.22        21.7 0.48            153           70.9 297 
 PAM  EZ EP        115 27.01                             152    0.3510 75.7  40 
 PAM  EN ES        115 44.33                             152   -0.0610 75.7  40 
 PAM  EZ I         115 46.74        17.8 0.68            158           75.7  40 
 PTB  HZ EP        115 30.92                             133   -0.52 9  149 258 
 PTB  HN ES        115 52.14                             133   -0.77 9  149 258 
 PTB  HZ I         115 59.63        18.5 0.50            133            149 258 
 SPBC HZ EP        115 33.05                             130    0.03 9  165 219 
 SPBC HN ES        115 55.45                             130   -0.27 9  165 219 
 SPBC HZ I         116  1.42        26.6 0.24            131            165 219 
 YPLC HZ EP        115 34.27                             128    0.01 9  178 152 
 YPLC HN ES        115 57.82                             128   -0.11 9  178 152 
 YPLC HZ I         115 59.09        18.3 0.24            130            178 152 
 ZAR  HZ EP        115 36.89                             124    0.15 9  204 292 
 ZAR  HN ES        116  2.33                             124    0.00 9  204 292 
 ZAR  HZ I         116  9.10        20.2 0.42            125            204 292 
 NOR  HZ EP        115 40.67                             120    0.52 8  236 234 
 NOR  HN ES        116  8.46                             120    0.07 8  236 234 
 NOR  HZ I         116 11.78        12.0 0.18            121            236 234 
 CHI  HZ EP        115 42.20                             118    0.06 8  250 195 
 CHI  HN ES        116 11.81                             118   -0.14 8  250 195 
 CHI  HZ I         116 19.49         5.1 0.32            120            250 195 
 PRA  HZ EP        115 57.90                             107    0.05 6  394 210 
 PRA  HE ES        116 40.45                             107    0.54 6  394 210 
 PRA  HZ I         116 44.54         5.0 0.32            109            394 210 
 SJC  HZ EP        115 58.47                             107   -1.08 6  408 327 
 SJC  HN ES   3    116 40.64                             107   -2.30 1  408 327 
 SJC  HZ I         116 44.26         2.5 0.19            108            408 327 
                                                                                
