 2011  226 0521 11.7 L   6.821 -73.055134.0  RSN  5 0.4 1.6LRSN                1
 GAP=168        0.77       4.3    19.8  7.7 -0.4446E+02 -0.2487E+00 -0.4290E+01E
 Epicentro: LOS SANTOS - SANTANDER                                             3
 ACTION:UP  11-03-28 15:11 OP:jfem STATUS:               ID:20110226052111 L   I
 2011-02-26-0519-37S.COL___136                                                 6
 STAT SP IPHASW D HRMM SECON CODA AMPLIT PERI AZIMU VELO SNR AR TRES W  DIS CAZ7
 BAR2 SZ EP        521 30.13                             167     0.010   29 209 
 BAR2 SZ ES   1    521 44.72                             167     0.3 7   29 209 
 BAR2 SZ I         521 46.51        14.1 0.18                            29 209 
 RUS  HZ EP   1    521 34.34                             141    -0.2 7  103 182 
 RUS  HE ES   1    521 51.92                             141    -0.4 7  103 182 
 RUS  HZ I         521 53.60         4.0 0.20                           103 182 
 GRA  SZ IP        521 35.85                             135     0.310  121  13 
 GRA  SZ I         521 37.00         9.9 0.32                           121  13 
 GRA  SZ ES   2    521 53.74                             135    -0.4 5  121  13 
 OCA  SZ EP   2    521 38.13                             127    -1.0 5  160 349 
 OCA  SZ ES   2    522  0.26                             127    -0.2 5  160 349 
 OCA  SZ I         522  4.68         7.7 0.23                           160 349 
 CHI  HZ EP   1    521 49.74                             114     0.4 6  254 197 
 CHI  HE ES   2    522 18.50                             114    -0.2 4  254 197 
 CHI  HZ I         522 24.68         2.0 0.36                           254 197 
                                                                                
