 2011  726 0716 31.0 L   6.743 -73.136155.1  RSN  7 0.3 1.5LRSN                1
 GAP=160        0.56       3.8     5.2  4.7 -0.8618E+01  0.5484E+00  0.2447E+01E
 Epicentro: JORDAN - SANTANDER                                                 3
 ACTION:UPD 12-07-25 14:03 OP:epov STATUS:               ID:20110726071631 L   I
 2011-07-26-0700-00M.COL___139                                                 6
 STAT SP IPHASW D HRMM SECON CODA AMPLIT PERI AZIMU VELO AIN AR TRES W  DIS CAZ7
 BAR2 SZ EP   1    716 51.33                             173   -0.33 7 17.4 197 
 BAR2 SZ ES   1    717  7.54                             173   -0.23 7 17.4 197 
 BAR2 SZ I         717  7.91        10.9 0.15                          17.4 197 
 BTL  SZ EP   1    716 52.11                             171    0.33 7 24.3 323 
 BTL  SZ ES   1    717  8.19                             171    0.21 7 24.3 323 
 GIR2 SZ EP   1    716 51.51                             166   -0.46 7 37.7 350 
 BRR  HZ EP   1    716 53.39                             153    0.00 7 75.3 302 
 BRR  HN ES   1    717 10.59                             153   -0.27 7 75.3 302 
 BRR  HZ I         717 12.92         7.7 0.17                          75.3 302 
 RUS  HZ EP   1    716 55.42                             147    0.17 7 94.2 176 
 RUS  HZ I         716 56.47         3.1 0.02                          94.2 176 
 RUS  HN ES   2    717 14.28                             147    0.11 5 94.2 176 
 GRA  SZ EP   1    716 57.59                             138    0.03 7  132  16 
 GRA  SZ ES   1    717 18.65                             138    0.37 7  132  16 
 GRA  SZ I         717 22.29         2.8 0.24                           132  16 
 NOR  SZ EP   1    717  6.83                             121   -0.17 6  232 236 
 NOR  SN ES   1    717 35.50                             121    0.43 6  232 236 
                                                                                
