 2011  926 0617 34.6 L   6.813 -73.121143.8  RSN  8 0.5 2.2LRSN                1
 GAP=186        0.96       5.2     6.3  7.7  0.3810E+01  0.1500E+02  0.1186E+01E
 Epicentro: LOS SANTOS - SANTANDER                                             3
 ACTION:UPD 12-07-13 15:59 OP:ep   STATUS:               ID:20110926061734 L   I
 2011-09-26-0614-38S.COL___168                                                 6
 STAT SP IPHASW D HRMM SECON CODA AMPLIT PERI AZIMU VELO AIN AR TRES W  DIS CAZ7
 BAR2 SZ EP        617 54.26                             170    0.2510 25.4 196 
 BAR2 SZ I         617 54.74        22.2 0.20                          25.4 196 
 BAR2 SZ ES   1    618  8.91                             170   -0.26 7 25.4 196 
 BRR  HZ IP     D  617 56.05                             152    0.4410 73.0 296 
 BRR  HN ES   1    618 12.81                             152    0.79 7 73.0 296 
 BRR  HZ I         618 15.09        34.1 0.12                          73.0 296 
 RUS  HZ EP   1    617 58.40                             143    0.17 7  102 178 
 RUS  HZ I         617 59.63        17.2 0.14                           102 178 
 RUS  HN ES   1    618 15.98                             143   -0.70 7  102 178 
 OCA  SZ EP   1    618  1.90                             129   -0.72 7  159 352 
 OCA  SZ I         618 30.07        20.1 0.28                           159 352 
 ZAR  HZ EP   1    618  6.31                             122   -0.79 6  206 291 
 ZAR  HN ES   1    618 31.94                             122   -0.53 6  206 291 
 NOR  SZ EP   1    618 10.53                             118    0.01 6  238 235 
 NOR  SN ES   1    618 38.65                             118    0.09 6  238 235 
 HEL  HZ EP   1    618 15.77                             114    0.75 6  275 256 
 HEL  HN ES   1    618 46.03                             114   -0.55 6  275 256 
 HEL  HZ I         618 53.73        10.8 0.48                           275 256 
 PRA  HZ EP   1    618 28.62                             106    0.28 4  395 210 
 PRA  HN ES   1    619 10.39                             106    0.12 4  395 210 
                                                                                
