 2014  726 0845 28.3 L   6.833 -73.177142.1  RSN  7 0.3 1.4LRSN                1
 GAP=131        0.76       3.3     4.3  6.2 -0.4918E+01  0.5678E+01  0.9917E+00E
 Epicentro: ZAPATOCA - SANTANDER                                               3
 ACTION:UPD 15-03-16 20:47 OP:nd   STATUS:               ID:20140726084528 L   I
 OLDACT:REG 14-07-26 13:45 OP:fm   STATUS:               ID:20140726083815     3
 2014-07-26-0838-15M.COL___260                                                 6
 STAT SP IPHASW D HRMM SECON CODA AMPLIT PERI AZIMU VELO AIN AR TRES W  DIS CAZ7
 BAR2 SZ ES   1    846  2.74                             169    0.14 7 26.7 181 
 BAR2 SZ I         846  4.10         6.5 0.22            169           26.7 181 
 PAM  SZ EP        845 50.55                             150    0.4410 76.9  43 
 PAM  SN ES   1    846  7.26                             150    0.15 7 76.9  43 
 PAM  SZ I         846 10.04         2.8 0.20            152           76.9  43 
 RUS  HZ EP        845 51.68                             142   -0.3210  105 174 
 RUS  HN ES        846 10.13                             142   -0.3510  105 174 
 RUS  HZ I         846 11.65         2.4 0.26            143            105 174 
 PTB  HZ EP   1    845 54.09                             132   -0.66 7  145 257 
 PTB  HN ES        846 15.32                             132   -0.05 9  145 257 
 PTB  HZ I         846 17.26         2.2 0.28            131            145 257 
 OCA  HN ES   1    846 17.27                             129   -0.25 7  156 354 
 OCA  HZ I         846 20.81         3.0 0.22            130            156 354 
 SPBC HZ EP        845 56.69                             128    0.08 9  164 217 
 SPBC HN ES        846 19.08                             128    0.40 9  164 217 
 SPBC HZ I         846 25.76         3.6 0.40            128            164 217 
 PRA  HZ EP   1    846 22.13                             106    0.24 4  394 209 
 PRA  HN ES   1    847  4.27                             106    0.59 4  394 209 
 PRA  HZ I         847 10.42         1.4 0.28            106            394 209 
                                                                                
