 2011  726 0959 16.9 L   6.798 -73.173140.0  RSN  7 0.3 1.9LRSN                1
 GAP=152        0.65       2.6     5.6  5.6 -0.7222E+01  0.1313E+02 -0.2346E+01E
 Epicentro: LOS SANTOS - SANTANDER                                             3
 ACTION:UPD 12-07-25 14:03 OP:epov STATUS:               ID:20110726095916 L   I
 2011-07-26-0957-59S.COL___139                                                 6
 STAT SP IPHASW D HRMM SECON CODA AMPLIT PERI AZIMU VELO AIN AR TRES W  DIS CAZ7
 GIR2 SZ EP   1    959 35.84                             167   -0.05 8 31.1 356 
 GIR2 SZ ES   1    959 50.81                             167    0.11 8 31.1 356 
 RUS  HZ EP        959 39.91                             142   -0.1910  101 174 
 RUS  HN ES        959 58.13                             142   -0.0610  101 174 
 RUS  HZ I         959 59.25         8.5 0.21                           101 174 
 BRI  SZ EP   1    959 40.19                             140   -0.17 7  110  22 
 BRI  SZ ES   1    959 58.73                             140    0.09 7  110  22 
 GRA  SZ IP        959 42.44                             135    0.7010  127  19 
 GRA  SZ ES   1   10 0  0.96                             135   -0.15 7  127  19 
 GRA  SZ I        10 0  3.05         9.1 0.41                           127  19 
 OCA  SZ EP        959 44.56                             128   -0.21 9  160 354 
 OCA  SZ ES   1   10 0  6.03                             128   -0.46 7  160 354 
 OCA  SZ I        10 0  9.17        14.9 0.13                           160 354 
 NOR  SZ EP   1    959 52.12                             117    0.08 6  232 234 
 NOR  SN ES   1   10 0 19.76                             117    0.33 6  232 234 
 RREF HZ EP   1   10 0  2.20                             110   -0.33 5  319 229 
 RREF HN ES   2   10 0 38.28                             110    0.16 3  319 229 
 RREF HZ I        10 0 48.39         4.3 0.34                           319 229 
                                                                                
