 2012 1126 0459  6.6 L   6.795 -73.150142.0  RSN 10 0.3 2.0LRSN                1
 GAP=136        0.70       2.7     2.8  4.2 -0.5714E+00  0.4545E+01  0.2147E+01E
 Epicentro: LOS SANTOS - SANTANDER                                             3
 ACTION:UPD 12-12-05 15:36 OP:}ep  STATUS:               ID:20121126045906 L   I
 2012-11-26-0456-35M.COL___207                                                 6
 STAT SP IPHASW D HRMM SECON CODA AMPLIT PERI AZIMU VELO AIN AR TRES W  DIS CAZ7
 BAR2 SZ EP        459 25.84                             170    0.0710 22.7 189 
 BAR2 SZ ES        459 40.68                             170   -0.0310 22.7 189 
 BAR2 SZ I         459 45.39        15.6 0.60                          22.7 189 
 GIR2 SZ EP        459 25.82                             167   -0.0210 31.8 351 
 GIR2 SZ ES        459 41.12                             167    0.2710 31.8 351 
 GIR2 SZ I         459 42.58        13.8 0.56                          31.8 351 
 PAM  SZ EP        459 28.42                             150   -0.0510 78.1  40 
 PAM  SN ES        459 45.36                             150   -0.1610 78.1  40 
 PAM  SN I         459 45.90        24.4 0.46                          78.1  40 
 RUS  HZ EP        459 29.88                             143   -0.0610  100 176 
 RUS  HN ES        459 47.98                             143   -0.1710  100 176 
 RUS  HN I         459 51.56         5.6 0.34                           100 176 
 PTB  HZ EP        459 32.77                             131   -0.44 9  147 259 
 PTB  HN ES        459 54.24                             131    0.27 9  147 259 
 PTB  HN I         459 55.00        18.5 0.26                           147 259 
 ZAR  HZ EP        459 38.68                             122   -0.10 9  204 292 
 ZAR  HN ES        5 0  4.17                             122    0.29 9  204 292 
 ZAR  HN I         5 0  9.05        21.4 0.52                           204 292 
 NOR  HZ EP        459 42.57                             118    0.53 8  234 235 
 NOR  HE ES        5 0  9.69                             118    0.02 8  234 235 
 NOR  HE I         5 0 15.60        13.2 0.18                           234 235 
 SML  HZ EP   4    459 40.84                             117   -2.22 0  244 335 
 SML  HN ES   4    5 0  9.16                             117   -2.33 0  244 335 
 SML  HN I         5 0 16.17        22.1 0.10                           244 335 
 CHI  HZ EP        459 44.34                             116    0.32 8  248 195 
 CHI  HN ES        5 0 13.31                             116    0.11 8  248 195 
 CHI  HN I         5 0 20.00         7.2 0.34                           248 195 
 HEL  HZ EP   4    459 47.98                             114    1.42 0  271 256 
 HEL  HN ES        5 0 16.91                             114   -0.81 8  271 256 
 HEL  HN I         5 0 23.92         4.0 0.42                           271 256 
                                                                                
