 2014  226 0129 45.0 L   6.786 -73.143140.2  RSN  6 0.3 1.7LRSN                1
 GAP=138        0.75       3.3     3.3  7.1 -0.1002E+01  0.7596E+01  0.5356E+01E
 Epicentro: LOS SANTOS - SANTANDER                                             3
 ACTION:UPD 14-03-10 08:13 OP:ep   STATUS:               ID:20140226012945 L   I
 OLDACT:REG 14-02-26 09:28 OP:fm   STATUS:               ID:20140226012648     3
 2014-02-26-0126-48M.COL___239                                                 6
 STAT SP IPHASW D HRMM SECON CODA AMPLIT PERI AZIMU VELO AIN AR TRES W  DIS CAZ7
 PAM  SZ EP        130  6.61                             149   -0.0610 78.4  39 
 PAM  SE ES        130 23.78                             149    0.2010 78.4  39 
 PAM  SZ I         130 25.77         6.6 0.62            152           78.4  39 
 RUS  HZ EP        130  7.90                             143   -0.1710 99.0 176 
 RUS  HN ES        130 26.05                             143   -0.0310 99.0 176 
 RUS  HZ I         130 27.69         3.2 0.35            142           99.0 176 
 PTB  HE ES        130 31.58                             131   -0.60 9  148 259 
 ZAR  HN ES        130 42.48                             121    0.22 9  205 293 
 NOR  HZ EP        130 20.23                             117   -0.09 8  234 235 
 NOR  HN ES        130 48.54                             117    0.66 8  234 235 
 NOR  HZ I         130 51.39         4.9 1.50            118            234 235 
 CHI  HZ EP   1    130 22.09                             116   -0.13 6  247 195 
 CHI  HN ES   1    130 51.54                             116    0.27 6  247 195 
 CHI  HZ I         130 57.99         6.9 3.12            116            247 195 
                                                                                
