 2012  226 0334 36.3 L   6.817 -73.165146.0  RSN 10 0.4 1.9LRSN                1
 GAP=133        0.76       3.5     4.5  5.2 -0.4903E+01  0.4074E+01  0.3444E+01E
 ACTION:UP  12-03-07 16:34 OP:epov STATUS:               ID:20120226033436 L   I
 2012-02-26-0330-00M.COL___192                                                 6
 STAT SP IPHASW D HRMM SECON CODA AMPLIT PERI AZIMU VELO AIN AR TRES W  DIS CAZ7
 BAR2 SZ EP   1    334 55.84                             170   -0.17 7 25.0 184 
 BAR2 SZ ES   1    335 11.52                             170    0.16 7 25.0 184 
 BAR2 SZ I         335 12.09        28.0 0.23                          25.0 184 
 GIR2 SZ EP   2    334 55.84                             168   -0.12 5 29.1 354 
 GIR2 SZ ES   1    335 10.70                             168   -0.57 7 29.1 354 
 BRR  HZ EP   1    334 57.57                             153    0.24 7 68.4 298 
 BRR  HE ES   1    335 14.58                             153    0.85 7 68.4 298 
 BRR  HZ I         335 15.13        22.2 0.08                          68.4 298 
 PAM  SZ EP        334 58.67                             151    0.1210 77.3  42 
 PAM  SN ES   1    335 15.81                             151   -0.08 7 77.3  42 
 RUS  HZ EP   1    334 59.81                             143   -0.43 7  103 175 
 RUS  HN ES   1    335 18.89                             143   -0.01 7  103 175 
 RUS  HZ I         335 20.77         9.4 0.38                           103 175 
 PTB  HZ EP   1    335  2.35                             132   -0.80 7  146 258 
 PTB  HN ES   1    335 23.60                             132   -0.47 7  146 258 
 OCA  SZ EP   1    335  4.90                             130    0.46 7  158 354 
 OCA  SZ ES   2    335 26.16                             130   -0.22 5  158 354 
 NOR  SZ EP   1    335 12.07                             119    0.08 6  234 234 
 NOR  SN ES   1    335 39.84                             119    0.02 6  234 234 
 CHI  HZ EP   1    335 14.17                             117    0.00 6  250 195 
 CHI  HE ES   1    335 44.39                             117    0.70 6  250 195 
 CHI  HZ I         335 52.06         3.4 0.73                           250 195 
 RREF HZ EP   1    335 22.72                             111    0.29 5  321 229 
 RREF HN ES   2    335 58.45                             111    0.06 3  321 229 
 RREF HZ I         336  6.87         3.8 0.16                           321 229 
                                                                                
