 2013  426 0952 50.7 L   6.774 -73.156142.9  RSN  5 0.3 1.3LRSN                1
 GAP=136        0.71       5.0     4.7  7.8 -0.1854E+01  0.5657E+01  0.4774E+01E
 Epicentro: LOS SANTOS - SANTANDER                                             3
 ACTION:UPD 13-05-22 14:41 OP:EP   STATUS:               ID:20130426095250 L   I
 2013-04-26-0948-39M.COL___199                                                 6
 STAT SP IPHASW D HRMM SECON CODA AMPLIT PERI AZIMU VELO AIN AR TRES W  DIS CAZ7
 BAR2 SZ EP        953  9.94                             172    0.0210 20.3 188 
 BRR  HZ EP        953 11.89                             152    0.3410 71.6 301 
 BRR  HN ES   1    953 28.28                             152    0.45 7 71.6 301 
 PAM  SZ EP   1    953 12.93                             149    0.14 7 80.4  39 
 PAM  SN ES   1    953 29.47                             149   -0.55 7 80.4  39 
 PAM  SZ I         953 30.40         5.4 0.20            155           80.4  39 
 RUS  HZ EP   1    953 14.11                             144    0.15 7 97.8 175 
 RUS  HN ES   1    953 32.15                             144    0.04 7 97.8 175 
 RUS  HZ I         953 34.02         2.0 0.24            145           97.8 175 
 PTB  HZ EP        953 16.90                             132   -0.37 9  146 260 
 PTB  HN ES   1    953 37.66                             132   -0.34 7  146 260 
 PTB  HZ I         953 42.58         3.7 0.22            132            146 260 
                                                                                
