 2017  226 0458 24.2 L   6.715 -73.096144.0  RSN  7 0.4 1.4LRSN                1
 GAP=147        0.85       4.2     3.9  5.4 -0.4332E+01  0.6871E+01  0.2646E+01E
 Epicentro: JORDAN - SANTANDER                                                 3
 ACTION:UPD 17-05-24 15:40 OP:jn   STATUS:               ID:20170226045824 L   I
 OLDACT:DUP 17-02-26 13:57 OP:lv   STATUS:               ID:20170226045642d    3
 2017-02-26-0457-00M.COL___367                                                 6
 STAT SP IPHASW D HRMM SECON CODA AMPLIT PERI AZIMU VELO AIN AR TRES W  DIS CAZ7
 BAR2 EZ EP        458 43.49                             173   -0.0410 16.6 215 
 BAR2 EZ ES        458 58.42                             173   -0.1710 16.6 215 
 BAR2 EZ I         459  0.14         8.6 0.11            171           16.6 215 
 BRR  HZ EP        458 45.68                             149   -0.0810 80.8 303 
 BRR  HE ES        459  2.62                             149    0.0610 80.8 303 
 BRR  HZ I         459  3.57         6.2 0.20            149           80.8 303 
 PAM  EZ EP        458 46.71                             149    0.1810 81.8  32 
 PAM  EN ES        459  4.18                             149    0.2610 81.8  32 
 PAM  EZ I         459  4.75         3.3 0.22            152           81.8  32 
 RUS  HZ EP        458 46.83                             146   -0.3010 90.9 179 
 RUS  HN ES        459  5.20                             146    0.2110 90.9 179 
 RUS  HZ I         459  6.62         3.8 0.22            147           90.9 179 
 PTB  HZ EP        458 50.65                             131   -0.77 9  152 263 
 PTB  HN ES        459 12.48                             131   -0.15 9  152 263 
 PTB  HZ I         459 15.50         2.8 0.13            131            152 263 
 NOR  HZ EP        458 59.58                             118   -0.20 8  234 237 
 NOR  HN ES        459 28.01                             118    0.50 8  234 237 
 NOR  HZ I         459 30.06         2.3 0.14            119            234 237 
 CBOC HZ EP        459 12.24                             109    0.87 7  336 254 
 CBOC HN ES        459 48.37                             109    0.24 7  336 254 
 CBOC HZ I         459 51.64         0.6 0.19            110            336 254 
                                                                                
