 2013  226 0147 47.3 L   6.769 -73.140147.1  RSN  6 0.4 1.9LRSN                1
 GAP= 97        0.93       5.0     5.5  6.7  0.1683E+00 -0.1996E+01  0.3967E+01E
 Epicentro: LOS SANTOS - SANTANDER                                             3
 ACTION:UPD 13-03-12 09:35 OP:ep   STATUS:               ID:20130226014747 L   I
 2013-02-26-0138-50M.COL___191                                                 6
 STAT SP IPHASW D HRMM SECON CODA AMPLIT PERI AZIMU VELO AIN AR TRES W  DIS CAZ7
 BAR2 SZ EP        148  6.72                             172   -0.3210 20.1 194 
 BAR2 SZ ES   1    148 21.83                             172   -0.60 7 20.1 194 
 BAR2 SZ I         148 23.05        13.5 0.34            155           20.1 194 
 BRR  HZ EP        148  8.96                             152    0.2210 73.5 301 
 BRR  HN ES        148 25.96                             152    0.5110 73.5 301 
 BRR  HN I         148 26.42        26.0 0.24            132           73.5 301 
 PAM  SZ EP        148  9.98                             150    0.1710 79.7  38 
 PAM  SZ I         148 10.17         9.2 0.26            148           79.7  38 
 PAM  SN ES        148 27.05                             150   -0.3110 79.7  38 
 RUS  HZ EP        148 10.92                             145   -0.0310 97.1 176 
 RUS  HN ES        148 29.68                             145    0.3010 97.1 176 
 RUS  HN I         148 31.13         9.5 0.30            131           97.1 176 
 PTB  HZ EP        148 13.84                             132   -0.55 9  148 260 
 PTB  HN I         148 40.42        11.3 0.18            115            148 260 
 TAM  HZ EP        148 15.27                             131    0.31 9  154 104 
 TAM  HZ I         148 15.36         7.3 0.20            125            154 104 
                                                                                
