 2013  826 0949 15.2 L   6.777 -73.167145.0  RSN  5 0.5 1.6LRSN                1
 GAP=180        1.19       4.8     7.5  9.4 -0.6280E+01  0.1334E+02 -0.1071E+02E
 Epicentro: LOS SANTOS - SANTANDER                                             3
 ACTION:UPD 14-01-14 09:07 OP:ep   STATUS:               ID:20130826094915 L   I
 OLDACT:REG 13-08-26 13:37 OP:carl STATUS:               ID:20130826094741     3
 2013-08-26-0947-41M.COL___229                                                 6
 STAT SP IPHASW D HRMM SECON CODA AMPLIT PERI AZIMU VELO AIN AR TRES W  DIS CAZ7
 BAR2 SZ EP        949 34.55                             172   -0.1310 20.5 185 
 BAR2 SZ ES        949 49.19                             172   -0.6810 20.5 185 
 BAR2 SZ I         949 51.30         5.9 0.26            169           20.5 185 
 RUS  HZ EP        949 38.89                             144    0.1810 98.3 175 
 RUS  HN ES        949 57.32                             144    0.2810 98.3 175 
 RUS  HZ I         949 58.94         5.2 0.36            148           98.3 175 
 PTB  HZ EP        949 41.24                             132   -0.61 9  145 260 
 PTB  HN ES        950  2.54                             132   -0.09 9  145 260 
 PTB  HZ I         950  9.86         5.4 0.42            131            145 260 
 SPBC HZ EP        949 43.47                             129    0.16 9  160 219 
 SPBC HN ES        950  5.82                             129    0.58 9  160 219 
 SPBC HZ I         950 10.61         8.7 0.22            130            160 219 
 OCA  HZ EP        949 43.22                             129   -0.44 9  163 354 
 OCA  HN ES        950  6.71                             129    0.85 9  163 354 
 OCA  HZ I         950  9.54         4.7 0.28            131            163 354 
                                                                                
