 2015  926 0942 29.6 L   6.814 -73.138148.0  RSN 21 0.5 2.6LRSN                1
 GAP=119        1.02       2.6     4.0  5.0 -0.1856E+01  0.5702E+01  0.1125E+01E
 Epicentro: LOS SANTOS - SANTANDER                                             3
 ACTION:UPD 15-10-28 16:28 OP:cam  STATUS:               ID:20150926094229 L   I
 OLDACT:REG 15-09-26 13:48 OP:ar   STATUS:               ID:20150926093747     3
 2015-09-26-0937-47M.COL___352                                                 6
 STAT SP IPHASW D HRMM SECON CODA AMPLIT PERI AZIMU VELO AIN AR TRES W  DIS CAZ7
 BAR2 EZ EP        942 49.52                             170   -0.0510 25.0 191 
 BAR2 EZ ES        943  4.63                             170   -0.4910 25.0 191 
 BAR2 EZ I         943  5.95        48.5 0.52            165           25.0 191 
 BRR  HZ EP        942 51.31                             153    0.2710 71.3 297 
 BRR  HN ES        943  8.33                             153    0.6110 71.3 297 
 BRR  HZ I         943 10.09        43.4 0.12            146           71.3 297 
 PAM  EZ EP        942 52.46                             152    0.4710 75.7  40 
 PAM  EN ES        943  9.61                             152    0.1810 75.7  40 
 PAM  EZ I         943 11.44        73.6 0.50            156           75.7  40 
 RUS  HZ EP        942 53.85                             144    0.1410  102 177 
 RUS  HN ES        943 12.78                             144    0.2910  102 177 
 RUS  HZ I         943 13.34        50.1 0.34            143            102 177 
 PTB  HZ EP        942 56.06                             132   -0.84 9  149 258 
 PTB  HN ES   2    943 17.40                             132   -0.75 5  149 258 
 PTB  HZ I         943 19.29        56.5 0.12            128            149 258 
 OCA  HZ EP        942 57.70                             130   -0.30 9  159 353 
 OCA  HN ES        943 19.54                             130   -0.57 9  159 353 
 OCA  HZ I         943 23.97        74.7 0.40            130            159 353 
 SPBC HZ EP        942 58.49                             129    0.02 9  165 219 
 SPBC HN ES        943 20.80                             129   -0.16 9  165 219 
 SPBC HZ I         943 27.43        47.1 0.30            126            165 219 
 ZAR  HZ EP        943  2.06                             123   -0.20 9  204 292 
 ZAR  HE ES   2    943 27.48                             123   -0.22 4  204 292 
 ZAR  HZ I         943 37.52        26.1 0.48            120            204 292 
 NOR  HZ EP   2    943  5.91                             119    0.24 4  236 234 
 NOR  HN ES        943 33.59                             119   -0.18 8  236 234 
 NOR  HZ I         943 40.30        32.8 0.18            116            236 234 
 SML  HZ EP        943  5.75                             118   -0.54 8  243 335 
 SML  HE ES        943 35.61                             118    0.74 8  243 335 
 SML  HZ I         943 36.37        32.9 0.40            117            243 335 
 CHI  HZ EP        943  7.78                             117    0.14 8  250 195 
 CHI  HN ES        943 36.98                             117   -0.31 8  250 195 
 CHI  HZ I         943 40.33        21.4 0.36            116            250 195 
 ROSC BZ EP   4    943 10.05                             117    1.98 0  254 211 
 ROSC BN ES   4    943 40.90                             117    2.85 0  254 211 
 ROSC BZ I         943 47.72        27.7 0.35            115            254 211 
 HEL  HZ EP   4    943 11.86                             115    1.76 0  273 256 
 HEL  HE ES   2    943 41.33                             115   -0.33 4  273 256 
 HEL  HZ I         943 48.29        21.5 0.36            113            273 256 
 URE  HZ EP   4    943  9.19                             114   -1.66 0  284 292 
 URE  HN ES   4    943 38.94                             114   -4.05 0  284 292 
 URE  HZ I         943 53.92        20.4 0.26            112            284 292 
 GUY2CHZ EP   4    943 15.00                             113    1.47 0  303 235 
 GUY2CHE ES   2    943 48.62                             113    0.85 4  303 235 
 GUY2CHZ I         943 55.05        18.7 0.58                           303 235 
 PTGC HZ EP        943 12.92                             112   -0.80 7  310 159 
 PTGC HN ES   4    943 46.56                             112   -1.54 0  310 159 
 PTGC HZ I         943 48.54        23.0 0.38            112            310 159 
 CBOC HZ EP        943 17.74                             110    0.94 7  335 252 
 CBOC HE ES        943 53.10                             110   -0.48 7  335 252 
 CBOC HZ I         944 10.58         6.1 0.48            109            335 252 
 ANIL HZ EP   1    943 20.23                             109    0.50 5  359 224 
 ANIL HN ES        943 59.65                             109    0.86 6  359 224 
 ANIL HZ I         944  6.49        41.9 0.30            108            359 224 
 ORTC HZ EP        943 24.50                             107    0.66 6  397 216 
 ORTC HN ES   2    944  6.29                             107    0.18 3  397 216 
 ORTC HZ I         944 21.75         5.5 0.36            106            397 216 
 SJC  HZ EP   4    943 23.19                             106   -2.00 0  408 327 
 SJC  HN ES   4    944  4.78                             106   -3.73 0  408 327 
 SJC  HZ I         944  8.91         3.8 0.58            105            408 327 
 CRJC HZ EP   4    943 28.87                             104   -3.15 0  466   3 
 CRJC HN ES   4    944 18.66                             104   -2.01 0  466   3 
 CRJC HZ I         944 31.77         7.5 0.46            104            466   3 
                                                                                
