 2016  926 0754 33.5 L   6.123 -73.754108.0  RSN  7 0.4 1.0LRSN                1
 GAP=105        1.06       4.3     3.6  9.7 -0.7646E+00  0.1678E+01 -0.1946E+02E
 Epicentro: EL PENON - SANTANDER                                               3
 ACTION:UPD 17-08-17 21:16 OP:lp   STATUS:               ID:20160926075433 L   I
 OLDACT:REG 16-09-26 13:23 OP:dani STATUS:               ID:20160926074742     3
 2016-09-26-0748-00M.COL___327                                                 6
 STAT SP IPHASW D HRMM SECON CODA AMPLIT PERI AZIMU VELO AIN AR TRES W  DIS CAZ7
 SPBC HZ EP        754 50.58                             147    0.3310 62.9 214 
 SPBC HN ES        755  3.80                             147    0.4710 62.9 214 
 SPBC HZ I         755  5.06         4.4 0.09            150           62.9 214 
 RUS  HZ EP        754 51.93                             142    0.0110 78.5 109 
 RUS  HN ES        755  6.00                             142   -0.3210 78.5 109 
 RUS  HZ I         755  7.56         1.2 0.20            146           78.5 109 
 BAR2 EZ EP        754 51.92                             140    0.1010 81.8  51 
 BAR2 EZ ES        755  6.09                             140   -0.0410 81.8  51 
 BAR2 EZ I         755  7.60         5.4 0.58            143           81.8  51 
 PTB  HZ EP        754 51.50                             137   -0.7010 90.3 301 
 PTB  HE ES        755  6.74                             137   -0.0710 90.3 301 
 PTB  HZ I         755  8.68         1.6 0.13            138           90.3 301 
 PAM  EE ES        755 23.04                             117   -0.32 9  178  41 
 ZAR  HN ES        755 25.25                             114   -0.24 9  194 321 
 ZAR  HZ I         755 30.42         1.7 0.22            116            194 321 
 OCA  HN ES        755 35.81                             109    1.01 8  239  12 
                                                                                
