 2013  126 0636 25.0 L   6.710 -73.162146.0  RSN  5 0.4 1.4LRSN                1
 GAP=229        0.98       7.2     7.7  7.4  0.2512E+02  0.1358E+02  0.1012E+02E
 Epicentro: VILLANUEVA - SANTANDER                                             3
 ACTION:UPD 13-02-15 09:16 OP:ep   STATUS:               ID:20130126063625 L   I
 2013-01-26-0628-41M.COL___186                                                 6
 STAT SP IPHASW D HRMM SECON CODA AMPLIT PERI AZIMU VELO AIN AR TRES W  DIS CAZ7
 BAR2 SZ EP        636 44.60                             175    0.1310 13.2 190 
 BAR2 SZ ES        636 59.12                             175   -0.5510 13.2 190 
 BRR  HZ EP        636 46.13                             151   -0.2310 75.0 306 
 BRR  HN ES        637  3.71                             151    0.6610 75.0 306 
 BRR  HN I         637  4.43         4.7 0.28            148           75.0 306 
 RUS  HN ES        637  6.28                             147    0.2110 90.8 175 
 PTB  HZ EP        636 51.27                             133   -0.38 9  144 263 
 PTB  HE ES        637 12.34                             133   -0.13 9  144 263 
 PTB  HE I         637 18.00         2.7 0.26            130            144 263 
 CHI  HZ EP        637  1.94                             118    0.35 8  239 195 
                                                                                
