 2017  126 0620 56.3 L   6.692 -73.212143.2  RSN  5 0.4 1.3LRSN                1
 GAP=213        1.15       8.4     7.8  8.4  0.4052E+02  0.1244E+02 -0.2792E+01E
 Epicentro: VILLANUEVA - SANTANDER                                             3
 ACTION:UPD 17-05-22 16:03 OP:jn   STATUS:               ID:20170126062056 L   I
 OLDACT:REG 17-01-26 13:53 OP:lv   STATUS:               ID:20170126061745     3
 2017-01-26-0618-00M.COL___349                                                 6
 STAT SP IPHASW D HRMM SECON CODA AMPLIT PERI AZIMU VELO AIN AR TRES W  DIS CAZ7
 BAR2 EZ EP        621 15.10                             175   -0.3810 11.5 163 
 BAR2 EZ ES        621 31.13                             175    0.7210 11.5 163 
 BAR2 EZ I         621 31.55         3.4 0.20            173           11.5 163 
 BRR  HZ EP        621 16.80                             152   -0.4410 71.8 310 
 BRR  HE ES        621 33.24                             152   -0.3110 71.8 310 
 RUS  HZ EP        621 19.61                             146    0.5510 89.5 171 
 RUS  HN ES        621 36.31                             146   -0.4710 89.5 171 
 RUS  HZ I         621 39.27         1.7 0.26            147           89.5 171 
 PTB  HZ EP        621 21.98                             133   -0.29 9  139 263 
 PTB  HN ES        621 42.60                             133    0.10 9  139 263 
 PTB  HZ I         621 45.22         3.3 0.07            132            139 263 
 ZAR  HZ EP        621 29.04                             122    0.62 9  202 296 
 ZAR  HN ES        621 53.51                             122    0.06 9  202 296 
 ZAR  HZ I         622  2.91         2.8 0.32            122            202 296 
                                                                                
