 2016  426 0927 13.1 L   6.831 -73.156139.3  RSN  9 0.4 1.9LRSN                1
 GAP=134        1.04       4.1     4.9  7.8 -0.6462E+01  0.1273E+02 -0.4121E+01E
 Epicentro: LOS SANTOS - SANTANDER                                             3
 ACTION:UPD 16-05-05 14:24 OP:rebc STATUS:               ID:20160426092713 L   I
 OLDACT:REG 16-04-26 13:16 OP:dnl  STATUS:               ID:20160426091750     3
 2016-04-26-0917-50M.COL___306                                                 6
 STAT SP IPHASW D HRMM SECON CODA AMPLIT PERI AZIMU VELO AIN AR TRES W  DIS CAZ7
 BAR2 EZ EP        927 32.05                             169    0.0710 26.6 186 
 BAR2 EZ ES        927 46.58                             169   -0.1610 26.6 186 
 BAR2 EZ I         927 47.75        17.4 0.36            169           26.6 186 
 PAM  EZ EP        927 34.98                             150    0.5110 75.5  42 
 PAM  EN ES        927 51.51                             150    0.3410 75.5  42 
 PAM  EZ I         927 54.13        11.7 0.56            153           75.5  42 
 RUS  HZ EP   2    927 36.40                             141   -0.04 5  104 176 
 RUS  HE ES   2    927 54.56                             141   -0.12 5  104 176 
 PTB  HZ EP        927 39.00                             131   -0.46 9  147 257 
 PTB  HN ES        927 59.51                             131   -0.55 9  147 257 
 PTB  HZ I         928  2.52         9.8 0.36            130            147 257 
 OCA  HZ EP        927 40.20                             129   -0.32 9  157 353 
 OCA  HE ES        928  1.32                             129   -0.63 9  157 353 
 OCA  HZ I         928  5.12        18.2 0.32            129            157 353 
 SPBC HZ EP        927 41.28                             127    0.03 9  165 218 
 SPBC HN ES        928  3.43                             127    0.18 9  165 218 
 SPBC HZ I         928  6.72         7.1 0.16            128            165 218 
 ZAR  HZ EP   2    927 45.12                             121    0.28 4  202 291 
 ZAR  HN ES        928 10.63                             121    1.00 9  202 291 
 ZAR  HZ I         928 18.59        10.1 0.10            121            202 291 
 NOR  HN ES   4    928 14.90                             117   -1.31 0  236 234 
 NOR  HZ I         928 21.92         8.3 0.16            118            236 234 
 GUY2CHZ EP   4    927 58.01                             111    1.52 0  302 234 
 GUY2CHE ES   4    928 30.27                             111   -0.10 0  302 234 
 GUY2CHZ I         928 38.59         3.7 0.48                           302 234 
                                                                                
