 2012 1126 0407  2.1 L   6.800 -73.183143.0  RSN 11 0.4 2.1LRSN                1
 GAP=132        0.97       3.0     3.7  5.5 -0.1610E+01  0.7577E+01  0.1713E+01E
 Epicentro: LOS SANTOS - SANTANDER                                             3
 ACTION:UPD 12-12-05 15:36 OP:}ep  STATUS:               ID:20121126040703dL   I
 2012-11-26-0400-00M.COL___233                                                 6
 STAT SP IPHASW D HRMM SECON CODA AMPLIT PERI AZIMU VELO AIN AR TRES W  DIS CAZ7
 BAR2 SZ IP        4 7 21.46                             170    0.0710 23.0 180 
 BAR2 SZ ES        4 7 36.07                             170   -0.3710 23.0 180 
 BAR2 SZ I         4 7 37.22        27.5 0.30                          23.0 180 
 GIR2 SZ EP        4 7 21.57                             167    0.1310 30.9 358 
 GIR2 SZ ES        4 7 37.18                             167    0.6710 30.9 358 
 GIR2 SZ I         4 7 38.71        13.3 0.36                          30.9 358 
 PAM  SZ IP     D  4 7 24.39                             149    0.2010 80.1  42 
 PAM  SN ES        4 7 41.51                             149    0.0910 80.1  42 
 PAM  SN I         4 7 42.29        29.0 0.46                          80.1  42 
 RUS  HZ EP        4 7 25.88                             143    0.2710  101 174 
 RUS  HN ES        4 7 43.41                             143   -0.5310  101 174 
 RUS  HN I         4 7 44.53        11.4 0.22                           101 174 
 PTB  HZ EP        4 7 28.08                             132   -0.40 9  144 259 
 PTB  HE ES        4 7 49.02                             132   -0.03 9  144 259 
 PTB  HN I         4 7 54.75        19.7 0.16                           144 259 
 OCA  HN ES        4 7 51.56                             129   -0.48 9  160 355 
 OCA  HZ I         4 7 54.85         9.3 0.26                           160 355 
 ZAR  HZ EP   4    4 7 35.39                             122    1.41 0  200 293 
 ZAR  HN ES        4 7 59.29                             122    0.45 9  200 293 
 ZAR  HN I         4 8  1.18        14.5 0.14                           200 293 
 NOR  HZ EP   1    4 7 37.35                             118    0.04 6  231 234 
 NOR  HN ES        4 8  4.96                             118    0.19 8  231 234 
 NOR  HN I         4 8  9.57        16.4 0.16                           231 234 
 SML  HZ EP        4 7 37.75                             117   -0.64 8  242 336 
 SML  HN ES   4    4 8  4.10                             117   -2.60 0  242 336 
 SML  HN I         4 8 18.82        14.5 0.10                           242 336 
 CHI  HZ EP        4 7 39.62                             117    0.09 8  248 194 
 CHI  HN ES        4 8  8.88                             117    0.15 8  248 194 
 CHI  HN I         4 8 13.32         3.8 0.56                           248 194 
 HEL  HZ EP   1    4 7 42.82                             115    1.09 6  268 256 
 HEL  HE ES        4 8 12.10                             115   -0.54 8  268 256 
                                                                                
