 2017 1026 0509 37.7 L   6.838 -73.119152.8  RSN  4 0.4 1.0LRSN                1
 GAP=243        1.04       8.7     8.2  8.4  0.3542E+02  0.1200E+01 -0.2860E+01E
 Epicentro: LOS SANTOS - SANTANDER                                             3
 ACTION:UPD 17-11-07 19:37 OP:rebc STATUS:               ID:20171026050937 L   I
 OLDACT:REG 17-10-26 13:07 OP:dani STATUS:               ID:20171026050110     3
 2017-10-26-0508-00M.COL___399                                                 6
 STAT SP IPHASW D HRMM SECON CODA AMPLIT PERI AZIMU VELO AIN AR TRES W  DIS CAZ7
 BAR2 EZ EP        5 9 58.31                             169    0.0510 28.1 194 
 BAR2 EZ ES        510 14.47                             169    0.1610 28.1 194 
 BAR2 EZ I         510 14.92         2.7 0.68            171           28.1 194 
 BRR  HZ EP        5 9 58.87                             153   -0.7710 71.9 294 
 BRR  HN ES        510 17.05                             153    0.2910 71.9 294 
 BRR  HZ I         510 19.36         4.6 0.91            153           71.9 294 
 RUS  HZ EP        510  2.64                             144    0.2210  105 178 
 RUS  HN ES        510 21.47                             144   -0.2410  105 178 
 RUS  HZ I         510 22.01         0.9 0.15            146            105 178 
 PTB  HZ EP        510  6.20                             133    0.63 9  152 257 
 PTB  HN ES        510 27.04                             133   -0.28 9  152 257 
 PTB  HZ I         510 27.89         0.7 0.33            134            152 257 
                                                                                
