 2016  626 0618 31.1 L   6.174 -73.331152.0  RSN  8 0.5 1.4LRSN                1
 GAP=161        1.18       5.4     5.4  9.2 -0.1168E+01  0.1385E+02 -0.3429E+01E
 Epicentro: OIBA - SANTANDER                                                   3
 ACTION:UPD 16-07-21 22:23 OP:rebc STATUS:               ID:20160626061831 L   I
 OLDACT:DUP 16-06-26 16:03 OP:ak   STATUS:               ID:20160626060745d    3
 OLDACT:REG 16-06-26 13:38 OP:ak   STATUS:               ID:20160626060744     3
 2016-06-26-0607-44M.COL___318                                                 6
 STAT SP IPHASW D HRMM SECON CODA AMPLIT PERI AZIMU VELO AIN AR TRES W  DIS CAZ7
 RUS  HZ EP        618 52.07                             164   -0.2710 41.5 139 
 RUS  HE ES        619  8.74                             164   -0.1710 41.5 139 
 RUS  HZ I         619 11.49         1.4 0.29                          41.5 139 
 SPBC HZ EP        618 54.76                             145   -0.1310  100 235 
 SPBC HN ES        619 14.19                             145    0.7510  100 235 
 SPBC HZ I         619 17.16         8.2 0.18                           100 235 
 BRR  HZ EP        618 55.77                             142    0.2010  111 338 
 BRR  HN ES        619 15.37                             142    0.7210  111 338 
 BRR  HZ I         619 16.40         2.5 0.10                           111 338 
 PTB  HZ EP        618 56.53                             137   -0.6110  131 288 
 PTB  HN ES        619 16.61                             137   -0.8410  131 288 
 PTB  HZ I         619 20.44                                            131 288 
 NOR  HZ EP   2    619  1.51                             127   -0.44 4  183 248 
 NOR  HE ES        619 25.79                             127   -0.22 9  183 248 
 NOR  HZ I         619 31.37         6.0 0.20                           183 248 
 ZAR  HE ES        619 33.19                             122    0.12 8  223 311 
 HEL  HZ EP   2    619  9.30                             119    0.78 4  243 271 
 HEL  HE ES        619 37.34                             119   -0.37 8  243 271 
 GUY2CHZ EP   2    619  9.92                             119    0.69 4  249 245 
 GUY2CHN ES        619 39.66                             119    0.69 8  249 245 
 GUY2CHZ I         619 46.84         2.1 0.38                           249 245 
                                                                                
