 2014  626 0106 31.5 L   7.463 -73.261117.7  RSN 10 0.4 1.8LRSN                1
 GAP=179        0.87       2.5     4.5  6.3 -0.1782E+01  0.5941E+01  0.1472E+01E
 Epicentro: EL PLAYON - SANTANDER                                              3
 ACTION:UPD 14-07-01 22:56 OP:nd   STATUS:               ID:20140626010631 L   I
 OLDACT:REG 14-06-26 12:05 OP:spq  STATUS:               ID:20140626005818     3
 2014-06-26-0058-18M.COL___259                                                 6
 STAT SP IPHASW D HRMM SECON CODA AMPLIT PERI AZIMU VELO AIN AR TRES W  DIS CAZ7
 BRR  HZ EP        1 6 49.39                             150    0.2410 63.4 232 
 BRR  HN ES        1 7  3.10                             150    0.1510 63.4 232 
 BRR  HZ I         1 7  4.55        19.4 0.12            150           63.4 232 
 OCA  HZ EP        1 6 51.12                             141    0.1910 86.0 356 
 OCA  HN ES        1 7  6.37                             141    0.2510 86.0 356 
 OCA  HZ I         1 7 13.72         9.0 0.18            144           86.0 356 
 BAR2 SZ IP     C  1 6 52.30                             138    0.4110 96.7 175 
 BAR2 SZ ES   1    1 7  7.22                             138   -0.61 7 96.7 175 
 BAR2 SZ I         1 7  9.32        46.2 0.16            139           96.7 175 
 PTB  HZ EP        1 6 57.75                             121   -0.51 9  167 232 
 PTB  HN ES        1 7 18.55                             121   -0.62 9  167 232 
 PTB  HZ I         1 7 21.23         6.9 0.10            122            167 232 
 SML  HZ EP        1 6 58.36                             120   -0.49 9  173 329 
 SML  HN ES        1 7 20.14                             120   -0.08 9  173 329 
 SML  HZ I         1 7 20.82        19.1 0.10            122            173 329 
 ZAR  HZ EP        1 6 59.39                             120    0.15 9  176 271 
 ZAR  HN ES        1 7 20.96                             120    0.06 9  176 271 
 ZAR  HZ I         1 7 23.05         7.0 0.24            121            176 271 
 SPBC HN ES        1 7 29.32                             114   -0.16 8  219 204 
 SPBC HZ I         1 7 38.01         6.1 0.22            115            219 204 
 HEL  HN ES   1    1 7 44.26                             107    0.31 5  287 241 
 HEL  HZ I         1 7 50.35         2.5 0.42            108            287 241 
 GUY2CHN ES   1    1 7 55.99                             104    0.84 5  340 223 
 GUY2CHZ I         1 8  3.37         1.8 0.35                           340 223 
 PRA  HN ES        1 8 18.65                              99    0.58 5  452 204 
 PRA  HZ I         1 8 25.90         1.4 0.32            100            452 204 
                                                                                
