 2017 1026 0400 49.0 L   6.769 -73.154148.2  RSN  5 0.4 0.9LRSN                1
 GAP=234        0.89       5.6     6.9  7.8  0.1086E+02  0.8070E+01  0.3440E+01E
 Epicentro: LOS SANTOS - SANTANDER                                             3
 ACTION:UPD 17-11-07 19:36 OP:rebc STATUS:               ID:20171026040049 L   I
 OLDACT:UP  17-10-26 16:57 OP:dani STATUS:               ID:20171026035742     3
 OLDACT:UP  17-10-26 16:48 OP:dani STATUS:               ID:20171026035742     3
 OLDACT:REG 17-10-26 13:03 OP:dani STATUS:               ID:20171026035742     3
 2017-10-26-0358-00M.COL___438                                                 6
 STAT SP IPHASW D HRMM SECON CODA AMPLIT PERI AZIMU VELO AIN AR TRES W  DIS CAZ7
 BAR2 EZ ES        4 1 23.84                             172   -0.5310 19.8 189 
 BRR  HZ EP        4 1 10.49                             153    0.0010 72.1 301 
 BRR  HE ES        4 1 27.69                             153    0.4610 72.1 301 
 RUS  HZ EP        4 1 13.06                             145    0.2810 97.2 175 
 RUS  HN ES        4 1 31.38                             145    0.0710 97.2 175 
 RUS  HZ I         4 1 32.53         1.8 0.35            144           97.2 175 
 PTB  HZ EP   1    4 1 15.42                             133   -0.63 7  146 260 
 PTB  HN ES   1    4 1 36.78                             133   -0.35 7  146 260 
 PTB  HZ I         4 1 43.61         0.8 0.31            129            146 260 
 SPBC HN ES        4 1 39.78                             130    0.24 9  160 219 
                                                                                
