 2010  826 0729 27.7 L   6.804 -73.044149.7  RSN  9 0.3 1.7LRSN                1
 GAP=170        0.59       3.1     9.4  6.6 -0.3816E+01 -0.9952E+01 -0.2323E+01E
 Epicentro: LOS SANTOS - SANTANDER                                             3
 ACTION:UP  10-09-07 10:58 OP:vdl  STATUS:               ID:20100826072927 L   I
 2010-08-26-0724-57S.COL___121                                                 6
 STAT SP IPHASW D HRMM SECON CODA AMPLIT PERI AZIMU VELO SNR AR TRES W  DIS CAZ7
 BTL  SZ IP        729 48.15                             169     0.210   28 297 
 BAR2 SZ EP   1    729 47.84                             169    -0.1 7   28 213 
 BAR2 SZ ES   2    730  3.11                             169    -0.6 5   28 213 
 BAR2 SZ I         730  4.63        14.6 0.22                            28 213 
 GIR2 SZ EP   2    729 48.09                             166     0.1 5   35 331 
 BRR  HE ES   2    730  7.06                             150    -0.1 5   81 294 
 RUS  HZ EP        729 51.78                             144    -0.110  101 182 
 RUS  HE ES   1    730 11.10                             144     0.4 7  101 182 
 RUS  HZ I         730 12.42         4.4 0.35                           101 182 
 GUE  SZ EP   2    729 52.84                             141     0.2 5  114   7 
 GRA  SZ EP   1    729 52.82                                    -0.2 7  122  12 
 GRA  SZ ES   2    730 12.27                             139    -0.5 5  122  12 
 GRA  SZ I         730 17.06         3.6 0.31                           122  12 
 OCA  SZ EP   1    729 56.73                             130     0.3 7  162 349 
 OCA  SZ ES   2    730 19.25                             130     0.4 5  162 349 
 OCA  SZ I         730 23.13         5.5 0.24                           162 349 
 PRA  HZ EP   2    730 21.77                             107    -0.3 3  398 211 
 PRA  HE ES   2    731  3.88                             107    -0.6 3  398 211 
 PRA  HZ I         731  8.33         2.2 0.63                           398 211 
                                                                                
