 2011  626 0914 36.1 L   6.782 -73.063144.0  RSN  6 0.1 1.5LRSN                1
 GAP=196        0.39       4.4     5.6  6.7 -0.1398E+02 -0.2203E+02  0.1127E+02E
 Epicentro: LOS SANTOS - SANTANDER                                             3
 ACTION:UP  11-07-14 19:08 OP:ep   STATUS:               ID:20110626091436 L   I
 2011-06-26-0913-13S.COL___140                                                 6
 STAT SP IPHASW D HRMM SECON CODA AMPLIT PERI AZIMU VELO SNR AR TRES W  DIS CAZ7
 BAR2 SZ EP        914 55.50                             170    -0.110   25 212 
 BAR2 SZ I         915  6.26         4.0 0.90                            25 212 
 BTL  SZ EP        914 55.79                             169     0.110   27 304 
 GIR2 SZ EP        914 55.78                             165     0.010   36 336 
 BRR  HZ EP        914 57.46                             149    -0.210   80 297 
 BRR  HN ES   1    915 14.52                             149     0.1 7   80 297 
 BRR  HZ I         915 17.13         6.3 0.11                            80 297 
 BRI  SZ EP        914 59.87                             141     0.110  107  16 
 BRI  SZ ES   2    915 18.01                             141    -0.2 5  107  16 
 GRA  SZ EP        915  1.21                             137     0.010  125  13 
 GRA  SZ ES   2    915 20.62                             137    -0.1 5  125  13 
 GRA  SZ I         915 23.84         5.7 0.20                           125  13 
                                                                                
