 2015 1026 0834 28.0 L   6.317 -73.099176.7  RSN 13 0.4 2.2LRSN                1
 GAP=157        0.99       3.6     4.7  5.6 -0.5913E+01  0.7067E+01 -0.1861E+01E
 Epicentro: OCAMONTE - SANTANDER                                               3
 ACTION:UPD 15-12-22 20:43 OP:cam  STATUS:               ID:20151026083428 L   I
 OLDACT:UP  15-10-26 15:14 OP:mh   STATUS:               ID:20151026082749     3
 OLDACT:REG 15-10-26 12:42 OP:mh   STATUS:               ID:20151026082749     3
 2015-10-26-0827-49M.COL___313                                                 6
 STAT SP IPHASW D HRMM SECON CODA AMPLIT PERI AZIMU VELO AIN AR TRES W  DIS CAZ7
 BAR2 EZ IP     D  834 51.59                             169    0.0810 31.7 343 
 BAR2 EZ ES        835  8.98                             169   -0.8910 31.7 343 
 BAR2 EZ I         835 11.11        72.7 0.38            165           31.7 343 
 RUS  HZ EP   1    834 52.51                             165    0.20 7 47.0 178 
 RUS  HN ES        835 11.50                             165    0.2110 47.0 178 
 RUS  HZ I         835 12.60        13.7 0.24            167           47.0 178 
 BRR  HZ EP   1    834 55.57                             146    0.74 7  111 322 
 BRR  HN ES        835 16.64                             146    0.8710  111 322 
 BRR  HZ I         835 19.97        17.6 0.14            144            111 322 
 PAM  EZ EP        834 56.52                             144    0.2410  121  21 
 PAM  EN ES        835 18.01                             144   -0.3310  121  21 
 PAM  EZ I         835 20.57         6.7 0.30            145            121  21 
 SPBC HZ EP        834 56.58                             142    0.2010  130 236 
 SPBC HN ES   1    835 18.44                             142   -0.09 7  130 236 
 SPBC HZ I         835 22.39        36.3 0.24            141            130 236 
 NOR  HZ EP   4    835  7.18                             127    3.63 0  213 247 
 NOR  HN ES        835 31.21                             127   -0.07 8  213 247 
 NOR  HZ I         835 36.75        19.9 0.40            127            213 247 
 OCA  HZ EP        835  3.81                             127    0.04 8  214 353 
 OCA  HN ES        835 31.91                             127    0.23 8  214 353 
 OCA  HZ I         835 39.02        21.7 0.34            128            214 353 
 ZAR  HZ EP        835  5.00                             125   -0.54 8  234 304 
 ZAR  HN ES        835 35.00                             125    0.16 8  234 304 
 ZAR  HZ I         835 40.49        15.3 0.50            124            234 304 
 HEL  HZ EP   1    835  9.85                             121    0.20 6  269 267 
 HEL  HN ES        835 41.81                             121   -0.35 8  269 267 
 HEL  HZ I         835 52.25         6.8 0.24            121            269 267 
 GUY2CHZ EP   4    835 12.39                             120    1.62 0  279 244 
 GUY2CHN ES   4    835 46.71                             120    2.56 0  279 244 
 GUY2CHZ I         835 54.41         5.6 0.34                           279 244 
 SML  HZ EP        835 11.23                             118   -0.66 7  295 339 
 SML  HN ES   1    835 45.65                             118   -0.49 5  295 339 
 SML  HZ I         835 50.73        11.8 0.26            118            295 339 
 URE  HZ EP   4    835 12.58                             117   -1.21 0  312 301 
 URE  HN ES   4    835 47.22                             117   -2.30 0  312 301 
 URE  HZ I         835 52.17         8.1 0.14            117            312 301 
 ORTC HZ EP        835 18.60                             113   -0.20 6  357 222 
 ORTC HN ES        835 58.42                             113   -0.01 6  357 222 
 ORTC HZ I         836  1.62         2.8 0.60            114            357 222 
                                                                                
