 2017  726 0457 56.3 L   6.736 -73.117148.0  RSN  9 0.4 1.4LRSN                1
 GAP=217        0.84       6.3     6.1  6.5 -0.8494E+00 -0.6783E+01  0.9427E+01E
 Epicentro: JORDAN - SANTANDER                                                 3
 ACTION:UPD 17-08-30 15:36 OP:rebc STATUS:               ID:20170726045756 L   I
 OLDACT:UP  17-07-26 16:03 OP:and  STATUS:               ID:20170726045635     3
 OLDACT:UP  17-07-26 16:03 OP:and  STATUS:               ID:20170726045635     3
 OLDACT:UP  17-07-26 16:02 OP:and  STATUS:               ID:20170726045635     3
 OLDACT:UP  17-07-26 16:02 OP:and  STATUS:               ID:20170726045635     3
 OLDACT:UP  17-07-26 16:01 OP:and  STATUS:               ID:20170726045635     3
 OLDACT:UP  17-07-26 16:01 OP:and  STATUS:               ID:20170726045635     3
 OLDACT:REG 17-07-26 12:51 OP:and  STATUS:               ID:20170726045635     3
 2017-07-26-0457-00M.COL___386                                                 6
 STAT SP IPHASW D HRMM SECON CODA AMPLIT PERI AZIMU VELO AIN AR TRES W  DIS CAZ7
 BAR2 EZ EP        458 16.28                             172    0.1910 17.5 205 
 BAR2 EZ ES        458 31.15                             172   -0.3810 17.5 205 
 BAR2 EZ I         458 32.79         9.7 0.18            161           17.5 205 
 BRR  HZ EP        458 18.07                             151    0.0210 77.6 302 
 BRR  HN ES   2    458 35.78                             151    0.76 5 77.6 302 
 BRR  HZ I         458 42.03         4.5 0.52            166           77.6 302 
 RUS  HZ I         459 19.50         2.2 0.07            143           93.3 178 
 PTB  HZ EP        458 23.21                             132   -0.41 9  150 262 
 PTB  HN ES   2    458 44.01                             132   -0.93 5  150 262 
 PTB  HZ I         458 46.48         2.0 0.22            142            150 262 
 SPBC HZ EP        458 25.12                             130    0.47 9  160 221 
 SPBC HN ES        458 47.01                             130    0.24 9  160 221 
 SPBC HZ I         458 49.90         5.1 0.20            135            160 221 
 ZAR  HZ EP   9    458 28.44                             122   -1.04 0  210 294 
 ZAR  HN ES        458 54.51                             123    0.19 8  210 294 
 ZAR  HZ I         459  2.89         1.7 0.26            137            210 294 
 GUY2CHZ EP   9    458 43.30                             113    3.45 0  300 236 
 GUY2CHE ES   2    459 18.22                             113    0.95 4  300 236 
 GUY2CHZ I         459 20.93         1.1 0.46                           300 236 
 PTGC HZ EP        458 39.24                             112   -0.13 7  301 159 
 CBOC HN ES   4    459 20.77                             110    0.60 0  335 253 
 CBOC HZ I         459 22.47         1.2 0.14            119            335 253 
                                                                                
