 2016  826 0941 15.6 L   6.823 -73.116148.9  RSN  7 0.3 1.4LRSN                1
 GAP=242        0.75       3.7     4.6  5.5  0.4584E+01  0.8017E+01  0.5949E+01E
 Epicentro: LOS SANTOS - SANTANDER                                             3
 ACTION:UPD 16-10-29 15:39 OP:rebc STATUS:               ID:20160826094115 L   I
 OLDACT:REG 16-08-26 13:08 OP:ak   STATUS:               ID:20160826093733     3
 2016-08-26-0938-00M.COL___359                                                 6
 STAT SP IPHASW D HRMM SECON CODA AMPLIT PERI AZIMU VELO AIN AR TRES W  DIS CAZ7
 BAR2 EZ EP        941 35.48                             169   -0.1510 26.5 196 
 BAR2 EZ ES        941 50.88                             169   -0.4110 26.5 196 
 BAR2 EZ I         941 53.18         6.9 0.26                          26.5 196 
 BRR  HZ EP        941 37.39                             153    0.2510 73.0 296 
 BRR  HN ES        941 54.44                             153    0.4610 73.0 296 
 BRR  HZ I         941 55.28         5.2 0.28                          73.0 296 
 RUS  HZ EP        941 39.62                             144   -0.1610  103 178 
 RUS  HE ES        941 59.04                             144    0.3610  103 178 
 RUS  HZ I         941 59.19         1.4 0.18                           103 178 
 SPBC HZ EP   2    941 44.23                             129   -0.44 5  167 219 
 SPBC HN ES        942  7.15                             129   -0.23 9  167 219 
 SPBC HZ I         942  9.83         3.5 0.20                           167 219 
 ZAR  HN ES        942 13.61                             123   -0.45 8  206 291 
 GUY2CHZ EP   2    942  0.31                             113    0.54 4  305 235 
 GUY2CHN ES        942 34.52                             113    0.26 7  305 235 
 GUY2CHZ I         942 41.76         1.4 0.36                           305 235 
 PRA  HZ EP        942  9.89                             107    0.27 6  396 210 
 PRA  HN ES        942 51.66                             107   -0.14 6  396 210 
 PRA  HZ I         942 57.43         1.3 0.30                           396 210 
                                                                                
