 2010 1226 0007 28.8 L   6.857 -73.114134.3  RSN  6 0.3 1.8LRSN                1
 GAP=283        0.52       5.9     6.0  6.3  0.3628E+00  0.1705E+02  0.4384E+01E
 Epicentro: LOS SANTOS - SANTANDER                                             3
 ACTION:UP  11-01-14 15:27 OP:pat  STATUS:               ID:20101226000728 L   I
 2010-12-26-0000-00M.COL___135                                                 6
 STAT SP IPHASW D HRMM SECON CODA AMPLIT PERI AZIMU VELO SNR AR TRES W  DIS CAZ7
 BAR2 SZ EP   1    0 7 47.41                             167     0.1 7   30 195 
 BAR2 SZ ES   1    0 8  1.73                             167     0.1 7   30 195 
 BAR2 SZ I         0 8  3.87        16.9 0.30                            30 195 
 RUS  HZ EP   1    0 7 51.71                             140    -0.2 7  107 178 
 RUS  HN ES   1    0 8  9.85                             140    -0.1 7  107 178 
 RUS  HZ I         0 8 11.88         6.5 0.27                           107 178 
 NOR  SN ES   2    0 8 32.18                             115    -0.4 4  241 234 
 CHI  HZ EP   2    0 8  7.36                             114     0.7 4  256 196 
 CHI  HE ES   2    0 8 36.68                             114     0.4 4  256 196 
 CHI  HZ I         0 8 42.69         4.8 0.42                           256 196 
 HEL  HZ EP   2    0 8  8.72                             112    -0.3 4  277 255 
 HEL  HE ES   2    0 8 40.79                             112     0.4 4  277 255 
 HEL  HZ I         0 8 45.95         5.4 0.28                           277 255 
 PRA  HE ES   2    0 9  4.73                             104    -0.2 3  399 210 
                                                                                
