 2015 1026 0342 12.1 L   6.838 -73.126144.3  RSN  5 0.3 1.3LRSN                1
 GAP=137        0.84       4.9     4.7  7.8  0.3245E+01  0.1131E+02 -0.3435E+01E
 Epicentro: LOS SANTOS - SANTANDER                                             3
 ACTION:UPD 15-12-22 20:43 OP:cam  STATUS:               ID:20151026034211 L   I
 OLDACT:UP  15-10-26 14:19 OP:mh   STATUS:               ID:20151026033745     3
 OLDACT:REG 15-10-26 12:29 OP:mh   STATUS:               ID:20151026033745     3
 2015-10-26-0337-45M.COL___313                                                 6
 STAT SP IPHASW D HRMM SECON CODA AMPLIT PERI AZIMU VELO AIN AR TRES W  DIS CAZ7
 BAR2 EZ EP   1    342 31.78                             169    0.13 7 27.8 193 
 BAR2 EZ I         342 48.04         3.1 0.52            163           27.8 193 
 BRR  HZ EP        342 32.68                             152   -0.4110 71.3 295 
 BRR  HN ES        342 49.94                             152    0.4710 71.3 295 
 BRR  HZ I         342 53.56         4.1 0.14            152           71.3 295 
 PAM  EZ EP        342 34.26                             152    0.3710 72.8  40 
 PAM  EN ES        342 50.56                             152   -0.3310 72.8  40 
 PAM  EZ I         342 53.04         3.2 0.44            153           72.8  40 
 RUS  HE ES        342 54.55                             142   -0.0910  105 177 
 ZAR  HZ EP        342 44.70                             122    0.21 9  205 291 
 ZAR  HN ES        343  9.42                             122   -0.34 9  205 291 
 ZAR  HZ I         343 15.57         3.4 0.48            120            205 291 
                                                                                
