 2012  126 0655 53.6 L   7.188 -73.068150.0  RSN  6 0.3 1.3LRSN                1
 GAP=148        0.61      13.8     5.7  7.8 -0.4703E+02 -0.4979E+01  0.3079E+02E
 Epicentro: BUCARAMANGA - SANTANDER                                            3
 ACTION:UP  12-02-03 08:20 OP:REBC STATUS:               ID:20120126065553 L   I
 2012-01-26-0650-00M.COL___188                                                 6
 STAT SP IPHASW D HRMM SECON CODA AMPLIT PERI AZIMU VELO SNR AR TRES W  DIS CAZ7
 GIR2 SZ EP        656 13.81                             173     0.310   18 229 
 PAM  SZ EP   1    656 14.59                             162    -0.1 7   44  68 
 PAM  SN ES   2    656 30.58                             162    -0.6 5   44  68 
 BAR2 SZ EP   3    656 14.85                                    -0.5 2   67 191 
 BRR  HZ EP        656 15.46                             152     0.210   72 263 
 BRR  HN ES   1    656 32.45                             152     0.3 7   72 263 
 BRR  HZ I         656 36.91         3.4 0.10                            72 263 
 PTB  HZ EP        656 22.67                             129    -0.3 9  169 245 
 PTB  HN ES   1    656 45.74                             129    -0.1 7  169 245 
 ZAR  HE ES   2    656 50.77                                    -0.5 4  200 280 
                                                                                
