 2016 1126 0819 45.8 L   6.720 -73.134145.3  RSN  5 0.4 1.6LRSN                1
 GAP=166        0.91       9.3     4.5  8.6 -0.1223E+02  0.3040E+01  0.2835E+02E
 Epicentro: JORDAN - SANTANDER                                                 3
 ACTION:UPD 17-10-26 21:12 OP:lp   STATUS:               ID:20161126081945 L   I
 OLDACT:UP  16-11-26 16:06 OP:dani STATUS:               ID:20161126081742     3
 OLDACT:REG 16-11-26 12:15 OP:dani STATUS:               ID:20161126081742     3
 2016-11-26-0818-00M.COL___349                                                 6
 STAT SP IPHASW D HRMM SECON CODA AMPLIT PERI AZIMU VELO AIN AR TRES W  DIS CAZ7
 BAR2 EZ EP        820  5.55                             174    0.3710 15.1 201 
 BAR2 EZ I         820 21.89         8.3 0.18            160           15.1 201 
 BRR  HZ EP     C  820  7.30                             151    0.1210 76.9 304 
 BRR  HN ES        820 24.49                             151    0.6010 76.9 304 
 BRR  HZ I         820 28.24         7.1 0.13            157           76.9 304 
 PAM  EZ EP        820  8.35                             149    0.0510 83.7  35 
 PAM  EE ES        820 25.38                             149   -0.5110 83.7  35 
 PAM  EZ I         820 27.04         4.5 0.16            157           83.7  35 
 PTB  HZ EP        820 12.42                             132   -0.24 9  148 262 
 PTB  HN ES        820 33.17                             132   -0.48 9  148 262 
 PTB  HZ I         820 38.29         5.5 0.13            132            148 262 
 ZAR  HZ EP        820 18.74                             122    0.09 8  209 294 
 ZAR  HN ES        820 44.19                             122   -0.11 8  209 294 
 ZAR  HZ I         820 50.38         5.1 0.35            125            209 294 
                                                                                
