 2017 1126 0103 27.1 L   6.868 -73.151146.1  RSN  5 0.2 1.4LRSN                1
 GAP=280        0.61       5.2     3.7  5.2 -0.1314E+01  0.6261E+01 -0.4301E+01E
 Epicentro: LOS SANTOS - SANTANDER                                             3
 ACTION:UPD 17-12-12 20:00 OP:rebc STATUS:               ID:20171126010327 L   I
 OLDACT:UP  17-11-26 16:12 OP:dani STATUS:               ID:20171126005740     3
 OLDACT:UP  17-11-26 16:12 OP:dani STATUS:               ID:20171126005740     3
 OLDACT:REG 17-11-26 12:50 OP:dani STATUS:               ID:20171126005740     3
 2017-11-26-0058-00M.COL___492                                                 6
 STAT SP IPHASW D HRMM SECON CODA AMPLIT PERI AZIMU VELO AIN AR TRES W  DIS CAZ7
 BAR2 EZ EP        1 3 47.23                             168    0.2510 30.7 187 
 BAR2 EZ ES        1 4  2.53                             168    0.0810 30.7 187 
 BAR2 EZ I         1 4  3.51         7.2 0.28            166           30.7 187 
 RUS  HZ EP        1 3 51.40                             142   -0.0710  108 176 
 RUS  HN ES        1 4 10.15                             142   -0.3110  108 176 
 RUS  HZ I         1 4 10.94         2.2 0.30            143            108 176 
 PTB  HZ EP        1 3 53.98                             132   -0.25 9  149 256 
 PTB  HE ES        1 4 15.25                             132   -0.11 9  149 256 
 PTB  HZ I         1 4 19.92         3.4 0.38            131            149 256 
 SPBC HN ES        1 4 19.28                             128    0.43 9  169 217 
 NOR  HZ EP        1 4  3.47                             118    0.16 8  239 233 
 NOR  HE ES        1 4 31.37                             118   -0.16 8  239 233 
 NOR  HZ I         1 4 36.54         3.1 0.16            118            239 233 
                                                                                
