 2014  826 0119 33.2 L   6.708 -73.160151.2  RSN  6 0.4 1.7LRSN                1
 GAP=198        0.79       5.7     6.7  7.7  0.2033E+02  0.1579E+01 -0.4736E+01E
 Epicentro: VILLANUEVA - SANTANDER                                             3
 ACTION:UPD 14-09-15 21:53 OP:nd   STATUS:               ID:20140826011933 L   I
 OLDACT:DUP 14-08-26 13:43 OP:fm   STATUS:               ID:20140826010807d    3
 2014-08-26-0108-06M.COL___257                                                 6
 STAT SP IPHASW D HRMM SECON CODA AMPLIT PERI AZIMU VELO AIN AR TRES W  DIS CAZ7
 BAR2 SZ EP        119 53.59                             175    0.2610 13.1 191 
 BAR2 SZ ES   1    120  8.73                             175   -0.30 7 13.1 191 
 BAR2 SZ I         120  9.65        14.4 0.42            176           13.1 191 
 BRR  HZ EP   1    119 55.36                             152    0.20 7 75.3 306 
 BRR  HN ES        120 12.76                             152    0.4610 75.3 306 
 BRR  HZ I         120 17.69         6.1 0.14            150           75.3 306 
 RUS  HZ EP   1    119 56.84                             148    0.03 7 90.6 175 
 RUS  HE ES   1    120 14.80                             148   -0.44 7 90.6 175 
 RUS  HZ I         120 17.10         6.0 0.32            152           90.6 175 
 PTB  HZ EP   1    120  0.45                             134    0.12 7  145 263 
 PTB  HN ES   1    120 21.17                             134   -0.33 7  145 263 
 PTB  HZ I         120 21.76         3.2 0.18            135            145 263 
 ZAR  HN ES   1    120 32.07                             123    0.01 6  207 295 
 ZAR  HZ I         120 38.82         4.9 0.32            124            207 295 
 SML  HN ES   1    120 39.63                             118   -0.96 6  252 337 
 SML  HZ I         120 44.46         7.4 0.26            118            252 337 
                                                                                
