 2017  126 0944 38.5 L   5.920 -73.605118.5  RSN  5 0.4 1.6LRSN                1
 GAP=213        1.00       6.9     5.6  8.9  0.1892E+02  0.2414E+02  0.7129E+01E
 Epicentro: BARBOSA - SANTANDER                                                3
 ACTION:UPD 17-05-22 16:03 OP:jn   STATUS:               ID:20170126094438 L   I
 OLDACT:REG 17-01-26 14:07 OP:lv   STATUS:               ID:20170126093728     3
 2017-01-26-0938-00M.COL___331                                                 6
 STAT SP IPHASW D HRMM SECON CODA AMPLIT PERI AZIMU VELO AIN AR TRES W  DIS CAZ7
 RUS  HZ EP        944 56.74                             152    0.0610 57.9  93 
 RUS  HN ES        945 11.27                             152    0.4210 57.9  93 
 RUS  HZ I         945 12.26         6.4 0.14            158           57.9  93 
 BAR2 EZ EP        944 58.21                             141   -0.1210 87.9  32 
 BAR2 EZ ES        945 13.62                             141   -0.1610 87.9  32 
 BAR2 EZ I         945 15.12        23.1 0.40            144           87.9  32 
 PTB  HZ EP        944 59.81                             132   -0.6110  116 306 
 PTB  HN ES        945 17.31                             132   -0.2010  116 306 
 PTB  HZ I         945 20.12         3.8 0.12            133            116 306 
 BRR  HZ EP        945  1.94                             128    0.1110  132 355 
 BRR  HE ES        945 19.65                             128   -0.3610  132 355 
 ZAR  HZ EP        945 11.61                             113    0.24 8  222 322 
 ZAR  HN ES        945 37.93                             113    0.93 8  222 322 
 ZAR  HZ I         945 43.97         3.4 0.13            115            222 322 
                                                                                
