 2011  526 0429 38.8 L   6.746 -73.107151.0  RSN 12 0.4 2.7LRSN                1
 GAP=144        0.75       3.8     4.9  5.4 -0.9507E+01  0.6777E+01  0.8495E+00E
 Epicentro: JORDAN - SANTANDER                                                 3
 ACTION:UP  11-06-29 08:56 OP:tino STATUS:               ID:20110526042938 L   I
 2011-05-26-0420-00M.COL___116                                                 6
 STAT SP IPHASW D HRMM SECON CODA AMPLIT PERI AZIMU VELO SNR AR TRES W  DIS CAZ7
 BAR2 SZ EP   1    429 58.88                             172    -0.1 7   19 206 
 BAR2 SZ ES   1    430 14.42                             172    -0.3 7   19 206 
 BAR2 SZ I         430 16.96        79.6 0.15                            19 206 
 BTL  SZ EP   1    429 59.41                             170     0.3 7   26 317 
 GIR2 SZ EP   1    429 59.43                             165     0.2 7   38 345 
 BRR  HZ IP     C  430  0.85                             151     0.010   78 301 
 BRR  HZ I         430  1.17       150.9 0.18                            78 301 
 BRR  HN ES   1    430 18.44                             151     0.3 7   78 301 
 PAM  SZ EP   1    430  1.49                             151    -0.2 7   80  34 
 PAM  SN ES   1    430 19.17                             151    -0.4 7   80  34 
 RUS  HZ EP   1    430  2.74                             147     0.1 7   94 178 
 RUS  HZ I         430  4.35        18.8 0.26                            94 178 
 RUS  HN ES   1    430 21.79                             147     0.6 7   94 178 
 BRI  SZ EP   1    430  3.48                             141     0.0 7  113  18 
 GRA  SZ IP        430  4.77                             137    -0.110  130  15 
 GRA  SZ ES   1    430 25.20                             137     0.0 7  130  15 
 GRA  SZ I         430 26.71        76.9 0.35                           130  15 
 NOR  SZ EP   1    430 14.71                             120    -0.1 6  235 236 
 NOR  SN ES   1    430 41.99                             120    -1.0 6  235 236 
 HEL  HZ EP   1    430 20.18                             116     0.6 6  275 257 
 HEL  HN ES   1    430 51.55                             116     0.2 6  275 257 
 HEL  HZ I         430 58.64        34.6 0.35                           275 257 
 RREF HZ EP   1    430 25.55                             112     0.5 5  321 231 
 RREF HZ I         431 11.18        36.2 0.39                           321 231 
 PRA  HZ EP   1    430 31.92                             107    -0.2 4  389 211 
 PRA  HN ES   1    431 12.99                             107    -0.7 4  389 211 
                                                                                
