 2011  326 0445 38.2 L   6.722 -73.065145.8  RSN  4 0.5 1.7LRSN                1
 GAP=210        0.81       9.8    12.4 11.3 -0.5228E+02 -0.3926E+02  0.1240E+02E
 Epicentro: JORDAN - SANTANDER                                                 3
 ACTION:UP  11-06-16 14:35 OP:jfem STATUS:               ID:20110326044538 L   I
 2011-03-26-0441-17S.COL___139                                                 6
 STAT SP IPHASW D HRMM SECON CODA AMPLIT PERI AZIMU VELO SNR AR TRES W  DIS CAZ7
 BAR2 SZ EP   2    445 57.84                             172     0.0 5   19 222 
 BAR2 SZ ES   2    446 12.42                             172    -0.6 5   19 222 
 BTL  SZ EP   1    445 58.19                             168     0.1 7   31 314 
 BTL  SZ ES   2    446 14.47                             168     1.0 5   31 314 
 BRR  HZ EP   1    445 59.78                             149    -0.3 7   83 301 
 BRR  HZ I         446  1.32        10.9 0.14                            83 301 
 BRR  HE ES   1    446 17.18                             149     0.0 7   83 301 
 GRA  SZ EP   2    446  4.71                             136     0.7 5  132  13 
 GRA  SZ ES   1    446 23.77                             136    -0.3 7  132  13 
 GRA  SZ I         446 25.92         4.8 0.29                           132  13 
                                                                                
