 2015  126 0211 37.4 L   6.804 -73.162138.0  RSN 21 0.6 2.8LRSN                1
 GAP= 70        1.42       3.5     3.8  6.4  0.3908E+00  0.7056E+01  0.3116E+01E
 Epicentro: LOS SANTOS - SANTANDER                                             3
 ACTION:UPD 15-03-02 15:42 OP:nd   STATUS:               ID:20150126021137 L   I
 OLDACT:UP  15-01-26 15:27 OP:cam  STATUS:               ID:20150126020820     3
 OLDACT:UP  15-01-26 15:26 OP:cam  STATUS:               ID:20150126020820     3
 OLDACT:REG 15-01-26 14:34 OP:cam  STATUS:               ID:20150126020820     3
 2015-01-26-0208-20M.COL___274                                                 6
 STAT SP IPHASW D HRMM SECON CODA AMPLIT PERI AZIMU VELO AIN AR TRES W  DIS CAZ7
 BAR2 EZ IP     C  211 56.14                             170    0.0410 23.5 186 
 BAR2 EZ ES        212 10.72                             170    0.0410 23.5 186 
 BAR2 EZ I         212 11.90       169.1 0.18            168           23.5 186 
 BRR  HZ IP     C  211 58.08                             152    0.4710 69.5 299 
 BRR  HN ES        212 14.50                             152    1.1210 69.5 299 
 BRR  HN I         212 14.97       423.6 0.20            150           69.5 299 
 PAM  SZ IP     D  211 59.04                             149    0.2010 78.2  41 
 PAM  SN ES        212 15.82                             149    0.2510 78.2  41 
 PAM  SZ I         212 18.67        85.3 0.46            148           78.2  41 
 RUS  HZ EP     C  212  0.13                             142   -0.3010  101 175 
 RUS  HN ES        212 18.73                             142    0.3310  101 175 
 RUS  HZ I         212 20.04        62.0 0.38            139            101 175 
 PTB  HZ EP        212  2.66                             131   -0.93 9  146 259 
 PTB  HN ES        212 22.79                             131   -1.23 9  146 259 
 PTB  HZ I         212 26.40        96.7 0.16            128            146 259 
 TAM  HZ IP     D  212  4.57                             128   -0.07 9  157 105 
 TAM  HN ES        212 25.61                             128   -0.29 9  157 105 
 TAM  HZ I         212 26.58        26.2 0.24            126            157 105 
 OCA  HZ EP        212  4.72                             128   -0.34 9  160 354 
 OCA  HN ES        212 26.24                             128   -0.39 9  160 354 
 OCA  HZ I         212 34.04        46.3 0.18            126            160 354 
 SPBC HZ EP        212  5.04                             127   -0.20 9  162 218 
 SPBC HE ES        212 26.27                             127   -0.68 9  162 218 
 SPBC HZ I         212 32.79        68.6 0.12            124            162 218 
 ZAR  HZ EP   1    212  9.23                             121    0.07 6  202 292 
 ZAR  HN ES        212 34.93                             121    0.99 9  202 292 
 ZAR  HZ I         212 37.22        39.9 0.16            119            202 292 
 SML  HZ EP   1    212 12.38                             116   -1.10 6  243 336 
 SML  HE ES        212 41.15                             116   -0.47 8  243 336 
 SML  HZ I         212 49.59        38.8 0.10            114            243 336 
 CHI  HZ EP        212 14.31                             116   -0.36 8  249 195 
 CHI  HN ES        212 43.44                             116   -0.30 8  249 195 
 CHI  HN I         212 50.74        37.8 0.42            113            249 195 
 ROSC BZ EP     C  212 15.97                             115    0.93 8  252 211 
 ROSC BZ I         212 52.27        40.9 0.55            113            252 211 
 HEL  HZ EP     D  212 18.29                             113    1.24 8  270 256 
 HEL  HE ES        212 47.61                             113   -0.36 8  270 256 
 HEL  HE I         212 51.98        33.8 0.32            111            270 256 
 URE  HZ EP   4    212 16.58                             112   -1.32 0  282 292 
 URE  HE ES        212 48.56                             112   -0.93 7  282 292 
 URE  HZ I         212 49.68        28.0 0.14            110            282 292 
 GUY2CHZ EP        212 21.26                             111    0.74 7  300 235 
 GUY2CHE ES   4    212 55.70                             111    1.54 0  300 235 
 GUY2CHN I         213  5.09        24.9 0.54                           300 235 
 PTGC HZ EP   4    212 19.49                             110   -1.55 0  310 158 
 PTGC HN ES   4    212 52.34                             110   -2.73 0  310 158 
 PTGC HN I         212 55.98        56.1 0.36            108            310 158 
 RREF HZ EP        212 23.53                             109    0.44 7  321 229 
 RREF HN ES   4    213  0.68                             109    1.95 0  321 229 
 CBOC HZ EP        212 24.41                             109    0.59 7  332 252 
 CBOC HN ES   1    213  0.90                             109    0.87 5  332 252 
 CBOC HN I         213  3.93        38.2 0.24            107            332 252 
 DBB  SZ EP   1    212 24.78                             108    0.42 5  338 274 
 DBB  SZ ES   4    212 58.34                             108   -2.65 0  338 274 
 ANIL HZ EP   4    212 27.25                             107    0.45 0  356 224 
 ORTC HZ EP        212 30.83                             105   -0.15 6  395 216 
 PAL  HZ EP        212 32.36                             105    0.20 6  404 239 
                                                                                
