 2016 1126 0104  1.2 L   6.772 -73.152151.7  RSN  6 0.3 1.6LRSN                1
 GAP=151        0.85       7.3     4.1  6.8 -0.6379E+01  0.5586E+01  0.1523E+01E
 Epicentro: LOS SANTOS - SANTANDER                                             3
 ACTION:UPD 17-10-26 21:11 OP:lp   STATUS:               ID:20161126010401 L   I
 OLDACT:UP  16-11-26 12:30 OP:dani STATUS:               ID:20161126005743     3
 OLDACT:UP  16-11-26 12:29 OP:dani STATUS:               ID:20161126005743     3
 OLDACT:UP  16-11-26 12:29 OP:dani STATUS:               ID:20161126005743     3
 OLDACT:REG 16-11-26 11:42 OP:dani STATUS:               ID:20161126005743     3
 2016-11-26-0058-00M.COL___349                                                 6
 STAT SP IPHASW D HRMM SECON CODA AMPLIT PERI AZIMU VELO AIN AR TRES W  DIS CAZ7
 BAR2 EZ EP        1 4 21.19                             172   -0.3410 20.2 190 
 BAR2 EZ ES        1 4 37.57                             172    0.2210 20.2 190 
 BRR  HZ EP        1 4 23.39                             153    0.3010 72.1 301 
 BRR  HN ES        1 4 40.52                             153    0.4010 72.1 301 
 BRR  HZ I         1 4 44.01         6.3 0.34            148           72.1 301 
 PAM  EZ EP        1 4 24.57                             151    0.3110 80.2  39 
 PAM  EN ES        1 4 41.71                             151   -0.5010 80.2  39 
 PAM  EZ I         1 4 44.60         5.1 0.32            150           80.2  39 
 PTB  HZ EP        1 4 28.63                             134    0.04 9  147 260 
 PTB  HN ES        1 4 49.58                             134   -0.34 9  147 260 
 PTB  HZ I         1 4 56.52         5.5 0.44            132            147 260 
 ZAR  HZ EP   4    1 4 35.73                             124    1.59 0  205 293 
 ZAR  HN ES        1 4 59.61                             124   -0.18 9  205 293 
 ZAR  HZ I         1 5  4.90         4.2 0.11            122            205 293 
 SJC  HZ EP   4    1 4 55.72                             106   -1.55 0  411 327 
 SJC  HN ES   4    1 5 39.20                             106   -1.76 0  411 327 
 SJC  HZ I         1 5 47.67         0.9 0.63            107            411 327 
                                                                                
