 2015  226 0359 59.4 L   6.813 -73.304135.6  RSN  4 0.4 1.4LRSN                1
 GAP=152        0.98       5.8     5.2  8.5 -0.9163E+01  0.1228E+02 -0.5974E+01E
 Epicentro: ZAPATOCA - SANTANDER                                               3
 ACTION:UPD 15-04-30 21:29 OP:nd   STATUS:               ID:20150226035959 L   I
 OLDACT:REG 15-02-26 12:40 OP:mher STATUS:               ID:20150226035749     3
 2015-02-26-0357-49M.COL___297                                                 6
 STAT SP IPHASW D HRMM SECON CODA AMPLIT PERI AZIMU VELO AIN AR TRES W  DIS CAZ7
 BAR2 EZ EP   1    4 0 18.62                             168    0.67 7 27.9 151 
 BAR2 EZ ES        4 0 32.64                             168    0.2510 27.9 151 
 BAR2 EZ I         4 0 35.21        10.7 0.08            171           27.9 151 
 PAM  SZ EP        4 0 21.23                             145   -0.1010 88.6  49 
 PAM  SN ES        4 0 38.23                             145   -0.1710 88.6  49 
 PAM  SZ I         4 0 40.87         5.1 0.58            150           88.6  49 
 RUS  HZ EP        4 0 21.99                             140   -0.5210  105 166 
 RUS  HN ES        4 0 40.56                             140    0.0510  105 166 
 RUS  HZ I         4 0 42.34         4.2 0.36            145            105 166 
 PTB  HZ EP        4 0 24.60                             133    0.5510  131 257 
 PTB  HN ES        4 0 42.81                             133   -0.4410  131 257 
 PTB  HZ I         4 0 48.38         3.2 0.14            135            131 257 
                                                                                
