 2012  326 0320 45.1 L   6.799 -73.141148.0  RSN 17 0.5 2.7LRSN 3.6WRSN        1
 SPEC AVERAGE  MO 14.4 ST  1.1 OM 15.3 f0 1.17 R  1.28 AL 1.76 WI 36.6 MW  3.6 3
 GAP=114        1.00       4.6     6.1  6.2 -0.5871E+01  0.1111E+02  0.3282E+01E
 SPEC ROSCBH Z MO 14.2 ST0.197 OM  1.6 f0 0.94 R1.5638 AL 1.41 WI 35.9 MW  3.4 3
 SPEC ROSCBH Z T 32118 K 0.020 GD  293 VP 7.60 DE 3.20 Q0230.0 QA 0.60 VS 4.20 3
 SPEC PRA HH Z MO 15.0 ST  2.6 OM  2.2 f0 1.25 R1.1760 AL 1.60 WI 41.5 MW  3.9 3
 SPEC PRA HH Z T 32136 K 0.020 GD  419 VP 7.60 DE 3.20 Q0230.0 QA 0.60 VS 4.20 3
 SPEC COD HH Z MO 14.5 ST  1.3 OM  1.8 f0 1.40 R1.0500 AL 2.54 WI 36.7 MW  3.6 3
 SPEC COD HH Z T 32130 K 0.020 GD  378 VP 7.60 DE 3.20 Q0230.0 QA 0.60 VS 4.20 3
 SPEC HEL HH Z MO 14.0 ST0.163 OM  1.3 f0 1.09 R1.3486 AL 1.49 WI 32.2 MW  3.3 3
 SPEC HEL HH Z T 32124 K 0.020 GD  310 VP 7.60 DE 3.20 Q0230.0 QA 0.60 VS 4.20 3
 ACTION:UP  12-03-31 23:22 OP:EP   STATUS:               ID:20120326032045 L   I
 2012-03-26-0320-00M.COL___196                                                 6
 STAT SP IPHASW D HRMM SECON CODA AMPLIT PERI AZIMU VELO SNR AR TRES W  DIS CAZ7
 BAR2 SZ IP     D  321  5.00                             171     0.010   23 191 
 BAR2 SZ ES   1    321 20.07                             171    -0.4 7   23 191 
 BAR2 SZ I         321 21.58       214.9 0.16                            23 191 
 BRR  HZ IP     C  321  6.81                             153     0.310   72 298 
 BRR  HZ I         321  7.17        90.1 0.14                            72 298 
 BRR  HE ES   1    321 23.88                             153     0.7 7   72 298 
 PAM  SZ IP     D  321  7.77                             151     0.210   77  39 
 PAM  SN ES   1    321 25.15                             151     0.1 7   77  39 
 RUS  HZ EP        321  8.90                             144    -0.110  100 176 
 RUS  HE ES   1    321 27.65                             144    -0.1 7  100 176 
 RUS  HZ I         321 28.88        90.9 0.32                           100 176 
 PTB  HZ EP        321 11.56                             132    -0.7 9  148 259 
 PTB  HN ES   2    321 32.50                             132    -1.0 5  148 259 
 PTB  HZ I         321 38.47        23.1 0.88                           148 259 
 OCA  SZ EP   1    321 13.18                             130    -0.4 7  160 353 
 YOP  SZ EP   2    321 15.33                             127     0.1 4  179 153 
 ZAR  HZ EP   2    321 18.26                             123     0.5 4  205 292 
 ZAR  HZ I         321 48.57        48.2 0.52                           205 292 
 NOR  SZ EP        321 21.00                             119     0.0 8  235 235 
 NOR  SE ES   2    321 48.78                             119    -0.2 4  235 235 
 CHI  HZ EP        321 23.09                             118     0.2 8  249 195 
 CHI  HZ I         321 57.90        27.0 0.36                           249 195 
 ROSC BN ES   3    321 53.94                             117     0.7 2  253 211 
 ROSC BZ I         321 59.91        50.2 0.40                           253 211 
 HEL  HZ EP   2    321 26.68                             115     1.2 4  273 256 
 GUY  SZ EP   3    321 30.38                             112     1.3 2  304 235 
 GUY  SZ I         322 11.23        30.5 0.34                           304 235 
 RREF HZ EP        321 31.66                             111     0.3 7  322 229 
 RREF HZ I         322 11.73        26.6 0.62                           322 229 
 TOL  SZ EP        321 34.15                             110     0.7 7  344 225 
 COD  HZ IP     C  321 32.91                             109    -0.7 6  348 355 
 COD  HZ I         322 21.59        30.1 0.62                           348 355 
 PRA  HZ EP        321 38.28                             107    -0.4 6  392 210 
                                                                                
