 2013  126 0936 34.6 L   6.734 -73.129146.1  RSN  5 0.2 1.4LRSN                1
 GAP=142        0.63       3.4     3.3  4.8 -0.1016E+01  0.1149E+01  0.4495E+00E
 Epicentro: JORDAN - SANTANDER                                                 3
 ACTION:UPD 13-02-15 09:16 OP:ep   STATUS:               ID:20130126093634 L   I
 2013-01-26-0928-35M.COL___183                                                 6
 STAT SP IPHASW D HRMM SECON CODA AMPLIT PERI AZIMU VELO AIN AR TRES W  DIS CAZ7
 BAR2 SZ EP        936 54.07                             173   -0.1010 16.8 200 
 BAR2 SZ ES        937  9.38                             173   -0.0410 16.8 200 
 BAR2 SZ I         937 11.11         6.5 0.20            172           16.8 200 
 BRR  HZ EP        936 56.34                             151    0.2410 76.4 303 
 BRR  HN ES        937 13.18                             151    0.3210 76.4 303 
 BRR  HN I         937 13.88        10.0 0.20            152           76.4 303 
 PAM  SZ EP        936 57.39                             149    0.2410 82.1  35 
 PAM  SZ I         936 57.49         1.9 0.16            151           82.1  35 
 PAM  SE ES        937 14.35                             149   -0.3710 82.1  35 
 RUS  HZ EP        936 57.85                             146   -0.0310 93.2 177 
 RUS  HN ES        937 16.16                             146    0.1310 93.2 177 
 RUS  HN I         937 17.42         3.5 0.26            146           93.2 177 
 PTB  HZ EP   1    937  1.32                             132   -0.34 7  148 262 
 PTB  HE ES        937 22.48                             132   -0.27 9  148 262 
 PTB  HE I         937 23.96         3.6 0.32            133            148 262 
                                                                                
