 2011  726 0449 34.5 L   6.790 -73.104150.0  RSN  7 0.2 1.4LRSN                1
 GAP=160        0.37       2.7     4.2  5.2 -0.4869E+01 -0.6045E+01  0.9641E+00E
 Epicentro: LOS SANTOS - SANTANDER                                             3
 ACTION:UPD 12-07-25 14:03 OP:epov STATUS:               ID:20110726044934 L   I
 2011-07-26-0440-00M.COL___139                                                 6
 STAT SP IPHASW D HRMM SECON CODA AMPLIT PERI AZIMU VELO AIN AR TRES W  DIS CAZ7
 BAR2 SZ EP   1    449 54.68                             171    0.03 7 23.5 202 
 BAR2 SZ I         450 11.10         3.5 0.15                          23.5 202 
 BRR  HZ EP   1    449 56.49                             152    0.12 7 75.8 298 
 BRR  HN ES   1    450 13.48                             152    0.06 7 75.8 298 
 BRR  HZ I         450 14.07         7.0 0.22                          75.8 298 
 RUS  HN ES   2    450 17.35                             145   -0.01 5 99.2 179 
 RUS  HZ I         450 20.83         1.6 0.52                          99.2 179 
 BRI  SZ EP   1    449 58.57                             142   -0.19 7  108  18 
 GRA  SZ EP   1    450  0.42                             138    0.31 7  126  15 
 GRA  SZ ES   1    450 19.94                             138   -0.14 7  126  15 
 GRA  SZ I         450 20.83         5.2 0.35                           126  15 
 OCA  SZ EP   2    450  3.03                             130   -0.28 5  162 352 
 OCA  SZ ES   2    450 25.83                             130    0.06 5  162 352 
 OCA  SZ I         450 34.89         4.6 0.17                           162 352 
 NOR  SN ES   2    450 38.82                             119   -0.31 4  238 235 
                                                                                
