 2011  426 0255  4.7 L   6.765 -73.102142.4  RSN  6 0.3 2.0LRSN                1
 GAP=164        0.65       4.7     5.9  8.9 -0.9406E+01  0.1315E+02 -0.1519E+02E
 Epicentro: LOS SANTOS - SANTANDER                                             3
 ACTION:UP  11-06-22 15:33 OP:REBC STATUS:               ID:20110426025504 L   I
 2011-04-26-0251-14S.COL___139                                                 6
 STAT SP IPHASW D HRMM SECON CODA AMPLIT PERI AZIMU VELO SNR AR TRES W  DIS CAZ7
 BAR2 SZ EP   1    255 23.96                             171     0.1 8   21 205 
 BAR2 SZ I         255 39.98        28.2 0.27                            21 205 
 BRR  HZ EP   1    255 25.69                             150    -0.1 8   77 299 
 BRR  HZ I         255 26.13        37.1 0.12                            77 299 
 BRR  HN ES   2    255 42.65                             150     0.3 5   77 299 
 RUS  HZ EP   1    255 28.06                             144     0.2 8   97 179 
 RUS  HN ES   1    255 45.78                             144    -0.1 8   97 179 
 RUS  HZ I         255 47.59        12.3 0.27                            97 179 
 GRA  SZ EP        255 29.67                             136    -0.210  128  15 
 GRA  SZ I         255 51.15         7.1 0.47                           128  15 
 NOR  SZ EP   2    255 40.11                             117    -0.3 4  236 236 
 NOR  SE ES   1    256  7.85                             117    -0.4 6  236 236 
 HEL  HZ EP   1    255 45.77                             114     0.6 6  276 257 
 HEL  HZ I         256 22.42         4.0 0.33                           276 257 
                                                                                
