 2013  126 0333  2.0 L   6.786 -73.162144.6  RSN  8 0.3 1.9LRSN 2.5WRSN        1
 SPEC AVERAGE  MO 12.8 ST  1.4 OM  1.4 f0 5.40 R0.2758 AL 2.17 WI 15.1 MW  2.5 3
 SPEC SD       MO  0.2 ST0.781 OM  0.3 f00.594 R0.0321 AL      WI      MW  0.2 3
 GAP=100        0.84       3.4     3.3  5.2  0.5985E+00  0.5053E+00  0.3946E+01E
 Epicentro: LOS SANTOS - SANTANDER                                             3
 SPEC ZAR HH N MO 13.1 ST  2.6 OM  1.3 f0 5.47 R0.2687 AL 1.37 WI 17.0 MW  2.7 3
 SPEC ZAR HH N T 33358 K 0.000 GD  249 VS 4.20 DE 3.00 Q0230.0 QA 0.60 VS 4.20 3
 SPEC RUS HH N MO 12.7 ST0.955 OM  1.1 f0 5.12 R0.2871 AL 2.83 WI 11.4 MW  2.4 3
 SPEC RUS HH N T 33343 K 0.000 GD  175 VS 4.20 DE 3.00 Q0230.0 QA 0.60 VS 4.20 3
 SPEC PAM SH N MO 12.4 ST0.535 OM  0.8 f0 5.42 R0.2712 AL 1.84 WI 10.8 MW  2.2 3
 SPEC PAM SH N T 33340 K 0.000 GD  165 VS 4.20 DE 3.00 Q0230.0 QA 0.60 VS 4.20 3
 SPEC CHI HH N MO 12.9 ST0.963 OM  1.1 f0 4.36 R0.3372 AL 1.88 WI 22.8 MW  2.6 3
 SPEC CHI HH N T 334 7 K 0.000 GD  286 VS 4.20 DE 3.00 Q0230.0 QA 0.60 VS 4.20 3
 SPEC BRR HH N MO 13.0 ST  2.4 OM  1.4 f0 5.69 R0.2583 AL 3.27 WI 19.5 MW  2.6 3
 SPEC BRR HH N T 33339 K 0.000 GD  160 VS 4.20 DE 3.00 Q0230.0 QA 0.60 VS 4.20 3
 SPEC BAR2SH Z MO 12.5 ST  1.2 OM  1.0 f0 6.33 R0.2322 AL 1.80 WI  8.8 MW  2.3 3
 SPEC BAR2SH Z T 33335 K 0.000 GD  146 VS 4.20 DE 3.00 Q0230.0 QA 0.60 VS 4.20 3
 ACTION:UPD 13-02-15 09:16 OP:ep   STATUS:               ID:20130126033302 L   I
 2013-01-26-0328-41M.COL___186                                                 6
 STAT SP IPHASW D HRMM SECON CODA AMPLIT PERI AZIMU VELO AIN AR TRES W  DIS CAZ7
 BAR2 SZ EP        333 21.30                             171   -0.1210 21.6 186 
 BAR2 SZ ES        333 36.49                             171   -0.1110 21.6 186 
 BAR2 SZ I         333 37.62        14.5 0.18            169           21.6 186 
 BRR  HZ EP        333 23.17                             153    0.2310 70.4 300 
 BRR  HN ES        333 40.02                             153    0.7110 70.4 300 
 BRR  HN I         333 40.94        19.3 0.42            150           70.4 300 
 PAM  SZ EP        333 24.13                             150   -0.0710 79.7  40 
 PAM  SN ES        333 41.27                             150   -0.2710 79.7  40 
 RUS  HZ EP        333 25.75                             144    0.2510 99.2 175 
 RUS  HN ES        333 43.76                             144   -0.1110 99.2 175 
 PTB  HZ EP        333 28.17                             132   -0.49 9  146 259 
 PTB  HE ES        333 48.91                             132   -0.57 9  146 259 
 TAM  HZ EP        333 29.70                             130    0.03 9  156 104 
 ZAR  HN ES        333 59.50                             122    0.11 9  203 293 
 ZAR  HN I         334  5.56        11.4 0.20            121            203 293 
 CHI  HZ EP        333 39.61                             117    0.22 8  247 195 
 CHI  HN ES        334  8.85                             117    0.27 8  247 195 
 CHI  HN I         334 14.62         4.1 0.54            116            247 195 
                                                                                
