 2011 1226 0107 43.1 L   6.755 -73.111140.0  RSN 12 0.4 2.0LRSN                1
 GAP=143        0.77       4.0     5.0  5.2 -0.6172E+01  0.8848E+01  0.4889E+01E
 Epicentro: LOS SANTOS - SANTANDER                                             3
 ACTION:UPD 12-07-13 16:18 OP:ep   STATUS:               ID:20111226010743 L   I
 2011-12-26-0100-00M.COL___188                                                 6
 STAT SP IPHASW D HRMM SECON CODA AMPLIT PERI AZIMU VELO AIN AR TRES W  DIS CAZ7
 BAR2 SZ EP   1    1 8  1.90                             172   -0.08 7 19.7 204 
 BAR2 SZ ES   1    1 8 16.45                             172   -0.24 7 19.7 204 
 BAR2 SZ I         1 8 18.23        48.0 0.21                          19.7 204 
 GIR2 SZ EP        1 8  1.98                             165   -0.2910 36.9 346 
 GIR2 SZ ES   1    1 8 17.62                             165    0.41 7 36.9 346 
 BRR  HZ EP   1    1 8  3.70                             150   -0.29 7 76.9 300 
 BRR  HE ES   1    1 8 20.63                             150    0.36 7 76.9 300 
 BRR  HZ I         1 8 21.91        22.0 0.14                          76.9 300 
 PAM  SZ EP        1 8  4.82                             149    0.0010 79.0  35 
 PAM  SZ I         1 8  5.04        14.6 0.16                          79.0  35 
 PAM  SE ES   1    1 8 21.75                             149    0.00 7 79.0  35 
 RUS  HZ EP   1    1 8  5.94                             144    0.01 7 95.4 178 
 RUS  HN ES   1    1 8 24.06                             144    0.34 7 95.4 178 
 RUS  HZ I         1 8 25.90        11.0 0.22                          95.4 178 
 PTB  HZ EP   1    1 8  8.90                             130   -0.98 7  151 261 
 ZAR  HZ EP   1    1 8 16.33                             120    0.57 6  209 293 
 ZAR  HZ I         1 8 45.69        13.6 0.44                           209 293 
 NOR  SZ EP   1    1 8 18.41                             117   -0.14 6  235 236 
 NOR  SN ES   1    1 8 45.62                             117   -0.56 6  235 236 
 CHI  HZ EP   1    1 8 20.02                             116   -0.07 6  245 196 
 CHI  HZ I         1 8 56.68         6.4 0.57                           245 196 
 HEL  HZ EP   1    1 8 23.79                             113    0.47 6  275 257 
 HEL  HZ I         1 9  0.74         4.7 0.39                           275 257 
 RREF HZ EP   1    1 8 30.09                             110    1.11 5  321 230 
 RREF HN ES   1    1 9  4.92                             110    0.17 5  321 230 
 RREF HZ I         1 9 15.90         6.2 0.36                           321 230 
 PRA  HZ EP   1    1 8 36.38                             106    0.22 4  390 210 
 PRA  HN ES   1    1 9 17.52                             106   -0.02 4  390 210 
                                                                                
