 2011  826 0306 42.2 L   7.364 -73.202130.1  RSN  4 0.2 1.6LRSN                1
 GAP=209        0.42       5.6     4.1  5.0 -0.6968E+01  0.1927E+01 -0.5415E+01E
 Epicentro: RIONEGRO - SANTANDER                                               3
 ACTION:UPD 12-07-13 15:53 OP:ep   STATUS:               ID:20110826030642 L   I
 2011-08-26-0300-00M.COL___168                                                 6
 STAT SP IPHASW D HRMM SECON CODA AMPLIT PERI AZIMU VELO AIN AR TRES W  DIS CAZ7
 GIR2 SZ EP   1    3 6 59.88                             166   -0.13 7 31.5 178 
 GIR2 SZ ES   2    3 7 14.14                             166    0.22 5 31.5 178 
 PAM  SZ EP   1    3 7  1.85                             156    0.35 7 55.5  93 
 PAM  SE ES   1    3 7 16.35                             156   -0.21 7 55.5  93 
 BRR  HZ EP   1    3 7  1.04                             152   -0.15 7 63.1 243 
 BRR  HZ I         3 7  1.52         9.7 0.12                          63.1 243 
 BRR  HN ES   1    3 7 16.08                             152    0.07 7 63.1 243 
 BAR2 SZ EP   1    3 7  2.93                             145   -0.02 7 85.3 179 
 BAR2 SZ ES   1    3 7 19.13                             145   -0.01 7 85.3 179 
 BAR2 SZ I         3 7 20.49         6.2 0.11                          85.3 179 
                                                                                
