 2014 1026 0937 27.2 L   6.756 -73.098151.5  RSN  5 0.2 1.5LRSN                1
 GAP=145        0.68       3.4     4.7  5.0 -0.5297E+01  0.1213E+01  0.2154E+01E
 Epicentro: LOS SANTOS - SANTANDER                                             3
 ACTION:UPD 14-11-29 23:57 OP:nd   STATUS:               ID:20141026093727 L   I
 OLDACT:REG 14-10-29 17:42 OP:cam  STATUS:               ID:20141026093541     3
 2014-10-26-0935-41M.COL___277                                                 6
 STAT SP IPHASW D HRMM SECON CODA AMPLIT PERI AZIMU VELO AIN AR TRES W  DIS CAZ7
 BAR2 SZ EP        937 47.16                             172   -0.2710 20.4 207 
 BAR2 SZ ES        938  3.11                             172   -0.1210 20.4 207 
 BAR2 SZ I         938  4.04         7.0 0.18            169           20.4 207 
 BRR  HZ EP        937 49.34                             151    0.0110 78.1 300 
 BRR  HN ES        938  6.63                             151    0.0210 78.1 300 
 BRR  HN I         938 10.78        12.5 0.18            149           78.1 300 
 PAM  SZ EP        937 50.38                             152    0.3510 78.1  34 
 PAM  SN ES        938  7.82                             152   -0.0510 78.1  34 
 PAM  SZ I         938  9.96         3.3 0.66            156           78.1  34 
 RUS  HZ EP        937 50.67                             146   -0.4610 95.5 179 
 RUS  HN ES        938 10.17                             146    0.3410 95.5 179 
 RUS  HZ I         938 11.76         3.0 0.20            148           95.5 179 
 SPBC HZ EP        937 56.33                             130    0.25 9  163 221 
 SPBC HN ES        938 18.60                             130   -0.03 9  163 221 
 SPBC HZ I         938 26.20         4.6 0.12            130            163 221 
                                                                                
