 2013  626 0113 52.5 L   6.354 -73.642102.4  RSN  6 0.4 1.5LRSN                1
 GAP=108        1.03       5.7     4.1 10.8  0.3381E+01  0.2702E+02  0.1851E+02E
 Epicentro: SANTA HELENA DEL OPON - SANTANDER                                  3
 ACTION:UPD 14-01-08 09:57 OP:ep   STATUS:               ID:20130626011352 L   I
 OLDACT:DUP 13-06-26 08:16 OP:jn   STATUS:               ID:20130626010960d    3
 OLDACT:REG 13-06-26 07:28 OP:jn   STATUS:               ID:20130626010959     3
 2013-06-26-0109-59M.COL___267                                                 6
 STAT SP IPHASW D HRMM SECON CODA AMPLIT PERI AZIMU VELO AIN AR TRES W  DIS CAZ7
 BAR2 SZ EP   1    114  8.74                             149    0.23 7 57.2  63 
 BAR2 SZ ES        114 21.14                             149    0.1210 57.2  63 
 BAR2 SZ I         114 22.99        18.2 0.42            154           57.2  63 
 RUS  HZ EP        114 10.73                             139    0.2110 80.2 130 
 RUS  HN ES        114 24.40                             139   -0.2110 80.2 130 
 RUS  HZ I         114 28.57         3.8 0.62            142           80.2 130 
 BRR  HE ES   1    114 24.08                             137    0.20 7 83.6 355 
 PTB  HZ EP     C  114  9.83                             134   -1.0510 92.4 283 
 PTB  HE ES   1    114 25.43                             134    0.18 7 92.4 283 
 PTB  HZ I         114 26.58         9.9 0.13            138           92.4 283 
 NOR  HN ES        114 37.77                             117    0.14 9  162 237 
 HEL  HZ EP        114 24.08                             110    0.48 8  210 265 
 HEL  HE ES        114 48.07                             110    0.18 8  210 265 
 HEL  HZ I         114 51.27         3.2 0.34            114            210 265 
                                                                                
