 2014  426 0726 30.1 L   6.696 -73.214151.7  RSN  4 0.4 1.5LRSN                1
 GAP=235        0.77       9.3     8.3 12.4  0.5091E+02 -0.3099E+02 -0.6428E+02E
 Epicentro: VILLANUEVA - SANTANDER                                             3
 OLDACT:REG 14-04-26 17:53 OP:fm   STATUS:               ID:20140426072546     3
 ACTION:UPD 14-05-13 23:11 OP:nd   STATUS:               ID:20140426072629 L   I
 OLDACT:UP  14-05-01 03:43 OP:STLL STATUS:               ID:20140426072629 L   3
 OLDACT:UP  14-04-26 17:56 OP:fm   STATUS:               ID:20140426072546     3
 2014-04-26-0725-46M.COL___245                                                 6
 STAT SP IPHASW D HRMM SECON CODA AMPLIT PERI AZIMU VELO AIN AR TRES W  DIS CAZ7
 RUS  HZ EP   1    726 54.00                             148    0.30 7 90.0 171 
 RUS  HN ES   1    727 11.97                             148   -0.16 7 90.0 171 
 RUS  HZ I         727 13.56         4.4 0.50            150           90.0 171 
 PTB  HZ EP   1    726 56.34                             135   -0.39 7  138 263 
 PTB  HN ES   1    727 17.32                             135   -0.19 7  138 263 
 PTB  HZ I         727 22.10         3.4 0.44            134            138 263 
 SPBC HZ EP   1    726 57.19                             133   -0.60 7  149 220 
 SPBC HN ES   1    727 19.97                             133    0.56 7  149 220 
 SPBC HZ I         727 25.14         4.6 0.12            133            149 220 
 ZAR  HZ EP   1    727  3.31                             124    0.61 6  202 296 
 ZAR  HE ES   1    727 28.09                             124   -0.05 6  202 296 
 ZAR  HZ I         727 34.30         4.7 0.40            125            202 296 
                                                                                
