 2012  126 0526  3.2 L   6.710 -73.207158.0  RSN  4 0.3 1.2LRSN                1
 GAP=220        0.62       7.9     6.8  9.6  0.2706E+02 -0.1233E+02 -0.2447E+02E
 Epicentro: VILLANUEVA - SANTANDER                                             3
 ACTION:UP  12-02-03 08:20 OP:REBC STATUS:               ID:20120126052603 L   I
 2012-01-26-0520-00M.COL___188                                                 6
 STAT SP IPHASW D HRMM SECON CODA AMPLIT PERI AZIMU VELO SNR AR TRES W  DIS CAZ7
 BAR2 SZ EP   1    526 23.69                             175    -0.4 7   13 168 
 BAR2 SZ I         526 41.49         3.8 0.63                            13 168 
 BRR  HZ EP   1    526 25.63                             154     0.0 7   71 308 
 BRR  HZ I         526 28.03         4.8 0.36                            71 308 
 BRR  HE ES   2    526 43.52                             154     0.4 5   71 308 
 RUS  HZ EP   1    526 27.64                             149     0.1 7   91 171 
 RUS  HN ES   1    526 46.61                             149     0.1 7   91 171 
 RUS  HZ I         526 47.43         1.3 0.22                            91 171 
 PTB  HZ EP   1    526 30.77                             136     0.3 7  139 262 
 PTB  HE ES   1    526 51.45                             136    -0.3 7  139 262 
                                                                                
