 2012  126 0904  3.5 L   6.764 -73.121148.0  RSN 15 0.4 3.0LRSN                1
 GAP=141        0.82       2.8     3.9  5.2 -0.1417E+01  0.4743E+01  0.4558E+01E
 Epicentro: LOS SANTOS - SANTANDER                                             3
 ACTION:UP  12-02-03 08:21 OP:REBC STATUS:               ID:20120126090403 L   I
 2012-01-26-0900-00M.COL___188                                                 6
 STAT SP IPHASW D HRMM SECON CODA AMPLIT PERI AZIMU VELO SNR AR TRES W  DIS CAZ7
 BAR2 SZ IP     C  9 4 23.29                             172    -0.110   20 200 
 BAR2 SZ ES   2    9 4 38.77                             172    -0.1 5   20 200 
 BAR2 SZ I         9 4 41.41       143.2 0.34                            20 200 
 GIR2 SZ EP        9 4 23.39                             166    -0.210   36 347 
 BRR  HZ EP        9 4 25.18                             152     0.010   76 300 
 BRR  HN ES        9 4 42.55                             152     0.510   76 300 
 BRR  HZ I         9 4 44.99       168.4 0.12                            76 300 
 PAM  SZ IP        9 4 26.13                             151     0.110   79  36 
 PAM  SN ES   1    9 4 43.30                             151    -0.4 7   79  36 
 RUS  HZ EP        9 4 27.15                             146    -0.110   96 177 
 RUS  HN ES   1    9 4 45.91                             146     0.2 7   96 177 
 OCA  SZ EP        9 4 32.69                             130     0.3 9  165 352 
 OCA  SZ ES   1    9 4 55.35                             130     0.4 7  165 352 
 OCA  SZ I         9 4 59.01       105.0 0.32                           165 352 
 ZAR  HZ EP        9 4 35.72                             122    -0.8 8  208 293 
 ZAR  HN ES   1    9 5  1.61                             122    -0.7 6  208 293 
 ZAR  HZ I         9 5  7.79       121.6 0.58                           208 293 
 NOR  SZ EP   1    9 4 39.26                             119    -0.1 6  235 236 
 NOR  SN ES   1    9 5  7.33                             119     0.0 6  235 236 
 CHI  HZ EP        9 4 41.15                             118     0.1 8  245 196 
 CHI  HE ES   1    9 5 10.01                             118    -0.2 6  245 196 
 CHI  HZ I         9 5 18.54        34.5 0.37                           245 196 
 HEL  HZ EP   1    9 4 43.87                             115    -0.2 6  274 257 
 HEL  HN ES   1    9 5 15.53                             115    -0.1 6  274 257 
 HEL  HZ I         9 5 21.10        39.8 0.50                           274 257 
 VIL  SZ EP   1    9 4 46.42                             113    -0.3 5  300 192 
 VIL  SN ES   2    9 5 19.64                             113    -0.7 4  300 192 
 GUY  SZ EP        9 4 48.34                             113     0.8 7  303 236 
 GUY  SN ES   1    9 5 22.08                             113     0.3 5  303 236 
 GUY  SZ I         9 5 33.31        81.0 0.20                           303 236 
 RREF HZ EP   1    9 4 49.82                             111     0.1 5  321 230 
 RREF HZ I         9 5 31.82        42.4 0.31                           321 230 
 TOL  SZ EP   1    9 4 52.41                             110     0.6 5  343 225 
 PRA  HZ EP        9 4 56.66                             107    -0.2 6  390 210 
 PRA  HE ES   1    9 5 38.53                             107     0.0 4  390 210 
                                                                                
