 2017  826 0349  9.9 L   6.301 -73.595112.2  RSN  9 0.4 1.4LRSN                1
 GAP= 88        1.06       3.3     3.3  6.9  0.3814E+00  0.2371E+01  0.4371E+00E
 Epicentro: SANTA HELENA DEL OPON - SANTANDER                                  3
 ACTION:UPD 17-09-04 20:24 OP:rebc STATUS:               ID:20170826034909 L   I
 OLDACT:REG 17-08-26 12:50 OP:osc  STATUS:               ID:20170826034741     3
 2017-08-26-0348-00M.COL___405                                                 6
 STAT SP IPHASW D HRMM SECON CODA AMPLIT PERI AZIMU VELO AIN AR TRES W  DIS CAZ7
 BAR2 EZ IP     C  349 26.93                             152    0.0510 55.9  55 
 BAR2 EZ ES        349 39.87                             152   -0.2710 55.9  55 
 BAR2 EZ I         349 41.32        13.8 0.34            156           55.9  55 
 RUS  HZ EP        349 28.08                             145   -0.2210 72.5 129 
 RUS  HN ES        349 42.45                             145   -0.2210 72.5 129 
 RUS  HZ I         349 44.12         3.4 0.18            147           72.5 129 
 SPBC HZ EP        349 28.15                             139   -0.8410 89.1 216 
 SPBC HE ES        349 43.98                             139    0.0810 89.1 216 
 SPBC HZ I         349 46.82         3.8 0.03            139           89.1 216 
 BRR  HZ EP        349 28.75                             138   -0.1910 90.1 352 
 BRR  HE ES        349 44.04                             138    0.2210 90.1 352 
 PAM  EZ EP        349 35.30                             123   -0.06 9  152  41 
 NOR  HZ EP        349 35.85                             120   -0.12 9  163 240 
 NOR  HE ES        349 56.70                             120    0.38 9  163 240 
 NOR  HZ I         350  0.41         3.7 0.13            121            163 240 
 YPLC HZ EP        349 36.42                             119   -0.07 9  168 127 
 YPLC HE ES        349 58.33                             119    1.08 9  168 127 
 ZAR  HE ES        350  2.30                             116    0.51 9  192 313 
 GUY2CHZ EP   9    349 45.51                             111    1.69 0  229 239 
 GUY2CHE ES        350 12.08                                    0.09 8  229 239 
 GUY2CHZ I         350 17.70         1.7 0.34                           229 239 
                                                                                
