 2016  426 0602 53.0 L   6.601 -73.593106.8  RSN  4 0.3 1.2LRSN                1
 GAP=185        0.49       3.9     3.1  6.2  0.2142E+01 -0.1158E+00  0.1684E+00E
 Epicentro: EL CARMEN - SANTANDER                                              3
 ACTION:UPD 16-05-05 14:24 OP:rebc STATUS:               ID:20160426060253 L   I
 OLDACT:DUP 16-04-26 17:30 OP:dnl  STATUS:               ID:20160426055750d    3
 OLDACT:REG 16-04-26 13:01 OP:dnl  STATUS:               ID:20160426055749     3
 2016-04-26-0557-49M.COL___306                                                 6
 STAT SP IPHASW D HRMM SECON CODA AMPLIT PERI AZIMU VELO AIN AR TRES W  DIS CAZ7
 BAR2 EZ EP   2    6 3  9.13                             155    0.29 5 45.4  91 
 BAR2 EZ ES   2    6 3 21.44                             155    0.24 5 45.4  91 
 BAR2 EZ I         6 3 23.29        11.4 0.42            158           45.4  91 
 PTB  HZ EP        6 3 11.99                             135   -0.1010 95.7 266 
 PTB  HN ES        6 3 26.93                             135   -0.0410 95.7 266 
 PTB  HZ I         6 3 27.80         1.8 0.15            138           95.7 266 
 RUS  HZ EP   2    6 3 12.88                             135    0.07 5 96.5 144 
 RUS  HE ES   2    6 3 27.52                             135   -0.74 5 96.5 144 
 RUS  HZ I         6 3 29.34         1.2 0.27            137           96.5 144 
 SPBC HZ EP        6 3 14.20                             128    0.0110  118 207 
 SPBC HN ES        6 3 30.89                             128    0.1810  118 207 
 SPBC HZ I         6 3 36.33         5.5 0.22            130            118 207 
                                                                                
