 2017  626 0026 43.8 L   6.695 -73.126140.8  RSN 10 0.3 1.8LRSN                1
 GAP=213        0.72       3.7     3.2  4.8  0.4067E+01  0.9830E+00  0.4264E+01E
 Epicentro: JORDAN - SANTANDER                                                 3
 ACTION:UPD 17-09-14 16:55 OP:jn   STATUS:               ID:20170626002643 L   I
 OLDACT:UP  17-06-26 13:44 OP:and  STATUS:               ID:20170626001743     3
 OLDACT:UP  17-06-26 13:42 OP:and  STATUS:               ID:20170626001743     3
 OLDACT:UP  17-06-26 13:41 OP:and  STATUS:               ID:20170626001743     3
 OLDACT:UP  17-06-26 13:38 OP:and  STATUS:               ID:20170626001743     3
 OLDACT:REG 17-06-26 12:41 OP:and  STATUS:               ID:20170626001743     3
 2017-06-26-0018-00M.COL___349                                                 6
 STAT SP IPHASW D HRMM SECON CODA AMPLIT PERI AZIMU VELO AIN AR TRES W  DIS CAZ7
 BAR2 EZ IP     C  027  3.02                             174    0.3710 13.0 209 
 BAR2 EZ ES        027 17.02                             174   -0.3510 13.0 209 
 BAR2 EZ I         027 18.75        12.2 0.26             47           13.0 209 
 BRR  HZ IP     C  027  4.95                             149    0.0610 79.2 305 
 BRR  HN ES        027 21.74                             149    0.4010 79.2 305 
 BRR  HZ I         027 23.51        16.5 0.16             47           79.2 305 
 PTB  HZ EP        027 10.17                             131   -0.22 9  148 263 
 PTB  HN ES        027 30.78                             131   -0.36 9  148 263 
 PTB  HZ I         027 33.44         9.2 0.14             47            148 263 
 SPBC HZ EP   9    027 12.27                             129    1.06 0  156 222 
 SPBC HE ES   2    027 34.20                                    0.54 5  156 222 
 SPBC HZ I         027 37.68        14.0 0.22             47            156 222 
 ZAR  HZ EP        027 16.17                             120   -0.44 8  211 295 
 ZAR  HN ES        027 42.18                             120   -0.03 8  211 295 
 ZAR  HZ I         027 47.96         9.4 0.26             37            211 295 
 NOR  HZ EP   4    027 21.12                             118    2.39 0  230 237 
 NOR  HN ES        027 46.23                             118    0.25 8  230 237 
 NOR  HZ I         027 49.93         6.6 0.19             47            230 237 
 CHI  HZ EP   9    027 22.69                             117    2.63 0  238 196 
 CHI  HE ES   2    027 50.71                                   -0.28 4  238 196 
 CHI  HZ I         027 56.63         1.6 0.22             37            238 196 
 HEL  HZ EP   4    027 25.36                             114    1.66 0  272 258 
 HEL  HN ES        027 55.06                             114    0.22 8  272 258 
 HEL  HZ I         028  3.96         3.3 0.24             37            272 258 
 GUY2CHZ EP   9    027 29.74                             112    3.10 0  296 237 
 GUY2CHN ES   1    028  3.74                             112    0.58 5  296 237 
 GUY2CHZ I         028  8.44         4.1 0.26                           296 237 
 PTGC HZ EP        027 26.41                             112    0.30 7  297 158 
 PTGC HN ES        027 58.95                             112   -0.16 7  297 158 
                                                                                
