 2011  826 0933 15.5 L   6.780 -73.112151.2  RSN  7 0.2 1.9LRSN                1
 GAP=142        0.44       2.8     3.6  3.5 -0.1756E+01  0.1656E+01  0.2459E+01E
 Epicentro: LOS SANTOS - SANTANDER                                             3
 ACTION:UPD 12-07-13 15:53 OP:ep   STATUS:               ID:20110826093315 L   I
 2011-08-26-0920-00M.COL___168                                                 6
 STAT SP IPHASW D HRMM SECON CODA AMPLIT PERI AZIMU VELO AIN AR TRES W  DIS CAZ7
 BAR2 SZ IP        933 35.67                             171   -0.0610 22.2 200 
 BAR2 SZ ES   1    933 51.42                             171   -0.11 7 22.2 200 
 BAR2 SZ I         933 53.53        19.6 0.28                          22.2 200 
 GIR2 SZ EP   1    933 35.82                             167   -0.04 7 34.2 345 
 GIR2 SZ ES   1    933 51.59                             167   -0.18 7 34.2 345 
 BRR  HZ EP        933 37.56                             152    0.1210 75.5 299 
 BRR  HE ES   1    933 54.81                             152    0.23 7 75.5 299 
 BRR  HZ I         933 57.91        17.3 0.13                          75.5 299 
 PAM  SZ EP   1    933 38.44                             152    0.21 7 76.8  36 
 PAM  SN ES   2    933 55.71                             152   -0.27 5 76.8  36 
 RUS  HZ EP   1    933 39.61                             146    0.02 7 98.2 178 
 RUS  HN ES   1    933 58.53                             146    0.12 7 98.2 178 
 RUS  HZ I         934  0.02         9.5 0.47                          98.2 178 
 NOR  SZ EP   1    933 51.11                             119   -0.60 6  236 235 
 NOR  SN ES   1    934 20.00                             119    0.03 6  236 235 
 CHI  HZ EP   1    933 53.59                             118    0.23 6  248 196 
 CHI  HZ I         934 32.85         3.8 0.53                           248 196 
                                                                                
