 2016 1226 0753 59.8 L   6.777 -73.126142.4  RSN 13 0.3 1.8LRSN                1
 GAP= 98        0.84       2.9     2.8  4.3  0.7394E+00  0.2261E+01  0.2422E+01E
 Epicentro: LOS SANTOS - SANTANDER                                             3
 ACTION:UPD 17-01-11 20:19 OP:rebc STATUS:               ID:20161226075359 L   I
 OLDACT:UP  16-12-26 18:47 OP:edw  STATUS:               ID:20161226074745     3
 OLDACT:REG 16-12-26 13:00 OP:edw  STATUS:               ID:20161226074745     3
 2016-12-26-0748-00M.COL___360                                                 6
 STAT SP IPHASW D HRMM SECON CODA AMPLIT PERI AZIMU VELO AIN AR TRES W  DIS CAZ7
 BAR2 EZ IP     C  754 18.85                             171   -0.1410 21.4 197 
 BAR2 EZ ES        754 33.55                             171   -0.4110 21.4 197 
 BAR2 EZ I         754 34.72        22.4 0.42            168           21.4 197 
 BRR  HZ IP     C  754 20.76                             151   -0.0110 74.3 299 
 BRR  HN ES        754 37.54                             151    0.4210 74.3 299 
 BRR  HZ I         754 38.70        10.0 0.26            151           74.3 299 
 PAM  EZ EP     C  754 21.87                             150    0.1710 78.0  37 
 PAM  EN ES        754 38.64                             150   -0.1410 78.0  37 
 PAM  EZ I         754 41.05        10.0 0.42            153           78.0  37 
 RUS  HZ EP     C  754 22.77                             144   -0.2710 97.9 177 
 RUS  HN ES        754 41.38                             144    0.2310 97.9 177 
 RUS  HZ I         754 42.14        13.3 0.20            143           97.9 177 
 PTB  HZ EP   9    754 25.54                             131   -1.11 0  149 260 
 PTB  HN ES        754 46.15                             131   -0.33 9  149 260 
 PTB  HZ I         754 49.08        11.6 0.20            130            149 260 
 TAM  HZ IP     D  754 27.20                             130    0.23 9  152 104 
 TAM  HN ES        754 48.28                             130    0.13 9  152 104 
 ZAR  HZ EP        754 32.07                             121   -0.27 8  207 293 
 ZAR  HN ES        754 57.44                             121   -0.27 8  207 293 
 ZAR  HZ I         755  0.43         7.6 0.10            121            207 293 
 CHI  HZ EP        754 37.28                             117    0.16 8  247 196 
 CHI  HN ES        755  5.90                             117   -0.32 8  247 196 
 CHI  HZ I         755 16.46         1.8 0.38            116            247 196 
 URE  HZ EP   2    754 40.21                             113   -0.83 4  287 292 
 URE  HN ES   4    755 11.77                             113   -1.44 0  287 292 
 URE  HZ I         755 12.25         5.9 0.12            113            287 292 
 GUY2CHZ EP   4    754 44.39                             112    1.09 0  301 235 
 GUY2CHN ES   4    755 18.72                             112    1.50 0  301 235 
 GUY2CHZ I         755 26.14         2.8 0.34                           301 235 
 PTGC HZ EP   9    754 42.04                             111   -1.12 0  306 159 
 PTGC HN ES        755 14.69                             111   -1.16 7  306 159 
 PTGC HZ I         755 15.56         2.7 0.25            111            306 159 
 CBOC HZ EP        754 47.17                             109    0.44 7  335 253 
 CBOC HN ES   4    755 21.39                             109   -1.94 0  335 253 
 CBOC HZ I         755 27.46         1.1 0.20            109            335 253 
 ORTC HZ EP        754 53.91                             106    0.38 6  395 217 
 ORTC HN ES        755 35.82                             106    0.40 6  395 217 
 ORTC HZ I         755 40.33         1.8 0.40            106            395 217 
 SJC  HZ EP   4    754 53.75                             105   -1.90 0  412 327 
 SJC  HN ES   4    755 35.65                             105   -3.55 0  412 327 
                                                                                
