 2015  426 0935 44.2 L   6.442 -73.397119.4  RSN  5 0.5 1.3LRSN                1
 GAP=156        1.24       8.3    11.4 11.1  0.6865E+02  0.1644E+02 -0.1967E+02E
 Epicentro: SIMACOTA - SANTANDER                                               3
 ACTION:UPD 15-06-03 16:57 OP:cam  STATUS:               ID:20150426093544 L   I
 OLDACT:REG 15-04-26 13:29 OP:ak   STATUS:               ID:20150426092746     3
 2015-04-26-0927-46M.COL___268                                                 6
 STAT SP IPHASW D HRMM SECON CODA AMPLIT PERI AZIMU VELO AIN AR TRES W  DIS CAZ7
 BAR2 EZ IP     C  936  1.50                             165    0.7210 28.9  55 
 BAR2 EZ I         936 15.83         6.3 0.33            156           28.9  55 
 RUS  HZ EP        936  3.04                             148   -0.1110 70.0 150 
 RUS  HE ES        936 17.37                             148   -0.5810 70.0 150 
 RUS  HZ I         936 19.77         1.9 0.18            145           70.0 150 
 BRR  HZ EP        936  3.28                             143    0.0510 81.4 335 
 BRR  HN ES        936 18.53                             143    0.4210 81.4 335 
 BRR  HZ I         936 20.14         2.4 0.11            141           81.4 335 
 ZAR  HZ EP        936 15.05                             117    0.58 9  199 306 
 ZAR  HN ES        936 37.67                             117   -0.44 9  199 306 
 ZAR  HZ I         936 42.11         2.9 0.32            116            199 306 
 SML  HZ EP        936 22.51                             109   -0.10 8  271 344 
 SML  HN ES        936 51.65                             109   -0.95 8  271 344 
 SML  HZ I         936 55.99         2.4 0.24            107            271 344 
                                                                                
