 2017  726 0651 22.0 L   6.724 -73.151143.3  RSN  6 0.4 1.6LRSN                1
 GAP=157        0.88       8.0     5.6  6.5 -0.1376E+02  0.1425E+01  0.4463E+01E
 Epicentro: JORDAN - SANTANDER                                                 3
 ACTION:UPD 17-08-30 15:36 OP:rebc STATUS:               ID:20170726065122 L   I
 OLDACT:UP  17-07-26 16:39 OP:and  STATUS:               ID:20170726064738     3
 OLDACT:UP  17-07-26 16:38 OP:and  STATUS:               ID:20170726064738     3
 OLDACT:UP  17-07-26 16:38 OP:and  STATUS:               ID:20170726064738     3
 OLDACT:REG 17-07-26 12:55 OP:and  STATUS:               ID:20170726064738     3
 2017-07-26-0648-00M.COL___386                                                 6
 STAT SP IPHASW D HRMM SECON CODA AMPLIT PERI AZIMU VELO AIN AR TRES W  DIS CAZ7
 BAR2 EZ IP     C  651 41.25                             174    0.0510 15.0 193 
 BAR2 EZ ES        651 56.10                             174   -0.0810 15.0 193 
 BAR2 EZ I         651 57.59         8.7 0.20            169           15.0 193 
 BRR  HZ IP     C  651 43.13                             151    0.0110 75.1 304 
 BRR  HN ES        652  0.10                             151    0.5210 75.1 304 
 BRR  HZ I         652  4.05         6.1 0.14            148           75.1 304 
 PAM  EZ EP        651 44.15                             148   -0.2510 84.4  36 
 PAM  EZ I         652  6.98         9.9 0.22            134           84.4  36 
 PTB  HZ EP        651 48.35                             132   -0.24 9  146 262 
 PTB  HN ES        652  8.71                             132   -0.62 9  146 262 
 PTB  HZ I         652 11.28         3.5 0.14            131            146 262 
 SPBC HZ EP   2    651 50.28                             130    0.61 5  156 221 
 SPBC HN ES   2    652 11.58                             130    0.32 5  156 221 
 SPBC HZ I         652 14.86         4.4 0.15            128            156 221 
 CBOC HZ EP        652  9.17                             110    0.70 7  331 253 
                                                                                
