 2015 1226 0605 43.8 L   6.705 -73.273138.0  RSN  4 0.6 1.1LRSN                1
 GAP=265        1.18      12.2    14.6 14.4 -0.6456E+02 -0.6033E+02  0.6822E+02E
 Epicentro: GALAN - SANTANDER                                                  3
 ACTION:UPD 16-02-04 15:07 OP:cam  STATUS:               ID:20151226060543 L   I
 OLDACT:REG 15-12-26 13:03 OP:dnl  STATUS:               ID:20151226055747     3
 2015-12-26-0557-47M.COL___334                                                 6
 STAT SP IPHASW D HRMM SECON CODA AMPLIT PERI AZIMU VELO AIN AR TRES W  DIS CAZ7
 BRR  HZ EP        6 6  3.01                             154   -0.7510 65.7 313 
 BRR  HE ES        6 6 19.88                             154    0.5210 65.7 313 
 BRR  HZ I         6 6 20.20         2.9 0.13            146           65.7 313 
 PTB  HZ EP        6 6  8.91                             134    0.2310  132 262 
 PTB  HN ES        6 6 27.53                             134   -0.5910  132 262 
 PTB  HZ I         6 6 34.77         1.0 0.12            126            132 262 
 SPBC HZ EP   2    6 6 10.42                             131    0.36 5  146 217 
 SPBC HN ES   2    6 6 31.50                             131    0.92 5  146 217 
 SPBC HZ I         6 6 39.84         2.6 0.32            124            146 217 
 ZAR  HZ EP   2    6 6 15.70                             122    0.89 4  195 297 
 ZAR  HE ES   2    6 6 39.62                             122    0.58 4  195 297 
 ZAR  HZ I         6 6 45.61         1.4 0.50            119            195 297 
                                                                                
