 2017  226 0621 27.9 L   6.796 -73.406114.2  RSN  5 0.4 1.0LRSN                1
 GAP= 97        1.14       5.3     4.6  8.4 -0.1629E+01  0.3178E+01  0.3713E+01E
 Epicentro: SAN VICENTE DE CHUCURI - SANTANDER                                 3
 ACTION:UPD 17-05-24 15:40 OP:jn   STATUS:               ID:20170226062127 L   I
 OLDACT:REG 17-02-26 12:04 OP:lv   STATUS:               ID:20170226061620     3
 2017-02-26-0618-00M.COL___364                                                 6
 STAT SP IPHASW D HRMM SECON CODA AMPLIT PERI AZIMU VELO AIN AR TRES W  DIS CAZ7
 BAR2 EZ EP        621 44.24                             163    0.2210 33.4 132 
 BAR2 EZ ES        621 56.59                             163   -0.0310 33.4 132 
 BAR2 EZ I         621 58.28         6.1 0.19            164           33.4 132 
 BRR  HZ EP        621 44.19                             155   -0.1210 48.2 315 
 BRR  HE ES        621 57.75                             155    0.6010 48.2 315 
 PAM  EZ EP        621 48.40                             137   -0.0710 98.5  52 
 PAM  EN ES        622  4.16                             137   -0.3910 98.5  52 
 PAM  EZ I         622  6.15         1.8 0.22            140           98.5  52 
 RUS  HZ EP        621 50.02                             134    0.8910  106 160 
 RUS  HN ES        622  5.28                             134   -0.4410  106 160 
 RUS  HZ I         622  7.91         1.5 0.15            136            106 160 
 PTB  HZ EP        621 49.24                             130   -0.4610  120 256 
 PTB  HN ES        622  6.50                             130   -0.2410  120 256 
 PTB  HZ I         622 10.54         1.7 0.12            131            120 256 
                                                                                
