 2012  126 0746  2.9 L   6.762 -73.135140.0  RSN 13 0.4 2.1LRSN                1
 GAP=140        0.91       3.4     4.3  4.9 -0.1631E+01  0.4781E+01  0.3017E+01E
 Epicentro: LOS SANTOS - SANTANDER                                             3
 ACTION:UP  12-02-03 08:20 OP:REBC STATUS:               ID:20120126074602 L   I
 2012-01-26-0740-00M.COL___188                                                 6
 STAT SP IPHASW D HRMM SECON CODA AMPLIT PERI AZIMU VELO SNR AR TRES W  DIS CAZ7
 BAR2 SZ IP     D  746 21.85                             172     0.110   19 196 
 BAR2 SZ ES        746 36.57                             172     0.110   19 196 
 BAR2 SZ I         746 37.92        28.6 0.36                            19 196 
 GIR2 SZ EP        746 21.89                             165    -0.210   36 349 
 GIR2 SZ ES        746 36.92                             165     0.010   36 349 
 BRR  HZ EP        746 23.71                             151     0.110   74 301 
 BRR  HN ES        746 40.67                             151     0.910   74 301 
 BRR  HZ I         746 44.26        32.0 0.19                            74 301 
 PAM  SZ EP        746 24.66                             149     0.010   80  37 
 PAM  SN ES   1    746 41.23                             149    -0.4 7   80  37 
 RUS  HZ EP        746 25.86                             144     0.110   96 177 
 RUS  HN ES   1    746 43.51                             144    -0.1 7   96 177 
 RUS  HZ I         746 46.61         9.8 0.33                            96 177 
 PTB  HZ EP        746 28.83                             131    -0.6 9  148 261 
 PTB  HN ES   1    746 49.53                             131    -0.7 7  148 261 
 OCA  SZ EP        746 31.27                             128     0.0 9  165 353 
 OCA  SZ ES   2    746 54.20                             128     0.9 5  165 353 
 OCA  SZ I         746 56.20        12.2 0.16                           165 353 
 ZAR  HZ EP   1    746 34.92                             121    -0.4 6  207 293 
 ZAR  HE ES   1    747  0.14                             121    -0.4 6  207 293 
 ZAR  HZ I         747  5.82        24.0 0.30                           207 293 
 NOR  SZ EP   1    746 38.29                             118     0.1 6  233 235 
 NOR  SN ES   1    747  6.01                             118     0.3 6  233 235 
 CHI  HZ EP   1    746 40.19                             116     0.3 6  245 196 
 CHI  HN ES   1    747  8.91                             116     0.2 6  245 196 
 CHI  HZ I         747 17.97         5.1 0.64                           245 196 
 HEL  HZ EP   1    746 42.80                             114    -0.1 6  272 257 
 HEL  HZ I         747 21.04         7.7 0.44                           272 257 
 RREF HZ EP   2    746 49.32                             110     0.7 3  320 230 
 RREF HZ I         747 35.93         7.7 0.42                           320 230 
 PRA  HZ EP   1    746 55.95                             106     0.1 4  389 210 
 PRA  HE ES   2    747 37.89                             106     0.7 3  389 210 
                                                                                
