 2014  426 0958 30.2 L   6.810 -73.145133.0  RSN  9 0.4 1.7LRSN                1
 GAP=136        0.97       3.0     4.1  7.9 -0.1448E+01  0.1147E+02 -0.5655E+01E
 Epicentro: LOS SANTOS - SANTANDER                                             3
 OLDACT:REG 14-04-26 16:00 OP:spq  STATUS:               ID:20140426094813     3
 ACTION:UPD 14-05-13 23:11 OP:nd   STATUS:               ID:20140426095830 L   I
 OLDACT:UP  14-04-26 16:20 OP:spq  STATUS:               ID:20140426094813     3
 OLDACT:UP  14-04-26 16:20 OP:spq  STATUS:               ID:20140426094813     3
 2014-04-26-0948-13M.COL___242                                                 6
 STAT SP IPHASW D HRMM SECON CODA AMPLIT PERI AZIMU VELO AIN AR TRES W  DIS CAZ7
 PAM  SZ EP   1    958 51.90                             149    0.86 8 76.4  40 
 PAM  SE ES   1    959  7.25                             149   -0.02 8 76.4  40 
 RUS  HZ EP        958 53.25                             141    0.4110  102 176 
 RUS  HN ES        959 10.05                             141   -0.4210  102 176 
 RUS  HZ I         959 12.16         5.3 0.50            145            102 176 
 PTB  HZ EP        958 55.95                             129   -0.27 9  148 258 
 PTB  HN ES        959 16.39                             129   -0.10 9  148 258 
 PTB  HZ I         959 18.62         4.8 0.82            131            148 258 
 OCA  HZ EP        958 57.40                             127   -0.07 9  159 353 
 OCA  HE ES        959 18.66                             127   -0.06 9  159 353 
 OCA  HZ I         959 23.90         6.0 0.26            132            159 353 
 SPBC HZ EP   1    958 57.46                             126   -0.42 7  164 219 
 SPBC HN ES   1    959 19.18                             126   -0.26 7  164 219 
 SPBC HZ I         959 35.30         6.2 0.22            129            164 219 
 ZAR  HZ EP        959  2.41                             119    0.57 9  204 292 
 ZAR  HE ES        959 27.30                             119    0.80 9  204 292 
 ZAR  HZ I         959 32.60         4.7 0.36            122            204 292 
 NOR  HZ EP   1    959  5.29                             115   -0.05 6  235 234 
 NOR  HN ES   1    959 33.34                             115    0.62 6  235 234 
 SML  HZ EP        959  5.55                             115   -0.51 8  243 335 
 SML  HE ES   1    959 33.34                             115   -0.67 6  243 335 
 SML  HZ I         959 39.69         6.0 0.08            119            243 335 
 URE  HZ EP        959 10.43                             111   -0.25 7  284 292 
 URE  HE ES        959 41.83                             111   -0.39 7  284 292 
 URE  HZ I         959 49.16         4.8 1.94            114            284 292 
 SOCV BN ES   4    959 43.23                             110   -2.49 0  301  57 
                                                                                
