 2015  426 0359 34.6 L   6.689 -73.024148.4  RSN  4 0.5 1.2LRSN                1
 GAP=243        1.04      10.2    10.0 10.7  0.4213E+02 -0.9494E+01 -0.6929E+01E
 Epicentro: ARATOCA - SANTANDER                                                3
 ACTION:UPD 15-06-03 16:57 OP:cam  STATUS:               ID:20150426035934 L   I
 OLDACT:REG 15-04-26 12:52 OP:ak   STATUS:               ID:20150426035747     3
 2015-04-26-0357-47M.COL___271                                                 6
 STAT SP IPHASW D HRMM SECON CODA AMPLIT PERI AZIMU VELO AIN AR TRES W  DIS CAZ7
 RUS  HZ EP   2    359 57.39                             148   -0.39 5 88.3 184 
 RUS  HN ES   2    4 0 15.39                             148   -0.47 5 88.3 184 
 RUS  HZ I         4 0 19.83         1.4 0.20            146           88.3 184 
 BRR  HZ EP        359 56.89                             148   -0.2310 89.0 301 
 BRR  HN ES        4 0 15.16                             148    0.4810 89.0 301 
 PTB  HZ EP        4 0  2.97                             131    0.13 9  159 264 
 PTB  HE ES        4 0 25.09                             131    0.23 9  159 264 
 PTB  HZ I         4 0 27.47         1.9 0.12            131            159 264 
 ZAR  HZ EP        4 0  9.48                             121    0.48 8  221 294 
 ZAR  HN ES        4 0 34.87                             121   -0.97 8  221 294 
 ZAR  HZ I         4 0 40.98         2.2 0.52            122            221 294 
                                                                                
