 2015 1226 0622 14.9 L   6.817 -73.130152.3  RSN 26 0.5 2.8LRSN                1
 GAP= 71        1.09       2.4     3.0  4.7 -0.1104E+01  0.3910E+01  0.8511E+00E
 Epicentro: LOS SANTOS - SANTANDER                                             3
 ACTION:UPD 16-02-04 15:07 OP:cam  STATUS:               ID:20151226062214 L   I
 OLDACT:REG 15-12-26 13:04 OP:dnl  STATUS:               ID:20151226061749     3
 2015-12-26-0617-49M.COL___331                                                 6
 STAT SP IPHASW D HRMM SECON CODA AMPLIT PERI AZIMU VELO AIN AR TRES W  DIS CAZ7
 BAR2 EZ ES        622 51.19                             170   -0.1110 25.5 193 
 BAR2 EZ I         622 53.39        70.5 0.24            168           25.5 193 
 BRR  HZ IP     D  622 37.16                             153    0.3810 71.9 297 
 BRR  HN ES        622 54.69                             153    0.8310 71.9 297 
 BRR  HZ I         622 57.14        94.2 0.15            149           71.9 297 
 PAM  EZ EP        622 38.07                             153    0.4210 74.8  39 
 PAM  EN ES        622 55.45                             153    0.0410 74.8  39 
 PAM  EZ I         622 57.55       124.4 0.63            156           74.8  39 
 RUS  HZ EP        622 39.12                             145   -0.2910  102 177 
 RUS  HE ES        622 58.22                             145   -0.3110  102 177 
 RUS  HZ I         622 59.24        35.0 0.31            146            102 177 
 PTB  HZ EP        622 41.87                             133   -0.71 9  150 258 
 PTB  HN ES        623  3.57                             133   -0.61 9  150 258 
 PTB  HZ I         623 10.65        90.3 0.26            131            150 258 
 TAM  HZ IP     D  622 43.40                             132    0.42 9  154 106 
 TAM  HN ES        623  5.13                             132    0.24 9  154 106 
 TAM  HZ I         623  6.07        34.1 0.38            136            154 106 
 OCA  HZ EP        622 43.30                             131   -0.26 9  159 352 
 OCA  HN ES        623  5.35                             131   -0.58 9  159 352 
 OCA  HZ I         623  9.56       115.1 0.20            131            159 352 
 SPBC HZ EP        622 44.05                             130   -0.08 9  166 219 
 SPBC HN ES        623  6.31                             130   -0.63 9  166 219 
 SPBC HZ I         623  9.37        64.3 0.26            129            166 219 
 ZAR  HZ EP        622 47.59                             124   -0.27 9  205 291 
 ZAR  HN ES        623 14.35                             124    0.77 9  205 291 
 ZAR  HZ I         623 20.57        99.8 0.27            122            205 291 
 NOR  HZ EP        622 51.15                             119   -0.12 8  237 234 
 NOR  HE ES        623 20.11                             119    0.46 8  237 234 
 NOR  HZ I         623 27.10        47.9 0.11            119            237 234 
 SML  HZ EP        622 51.36                             119   -0.42 8  243 335 
 SML  HN ES        623 20.82                             119    0.26 8  243 335 
 SML  HZ I         623 26.95        73.1 0.07            118            243 335 
 CHI  HZ EP        622 53.17                             118   -0.03 8  251 195 
 CHI  HN ES        623 22.39                             118   -0.69 8  251 195 
 CHI  HZ I         623 30.50        25.4 0.38            119            251 195 
 ROSC BZ EP        622 53.00                             118   -0.64 8  255 211 
 ROSC BN ES        623 24.56                             118    0.69 8  255 211 
 ROSC BZ I         623 32.52        51.0 0.47            118            255 211 
 HEL  HZ EP        622 56.19                             116    0.51 8  274 256 
 HEL  HN ES        623 27.08                             116   -0.41 8  274 256 
 HEL  HZ I         623 34.54        25.9 0.30            115            274 256 
 URE  HZ EP   4    622 55.20                             115   -1.19 0  285 291 
 URE  HZ EPg       622 56.17                             115   -0.22 7  285 291 
 URE  HE ES   4    623 26.27                             115   -2.48 0  285 291 
 URE  HZ I         623 39.56        47.0 0.36            114            285 291 
 GUY2CHZ EP        622 59.73                             113    0.65 7  304 235 
 GUY2CHN ES        623 33.00                             113   -0.56 7  304 235 
 GUY2CHZ I         623 40.09        25.0 0.28                           304 235 
 PTGC HZ EP   4    622 58.12                             113   -1.05 0  310 159 
 PTGC HE ES   4    623 31.19                             113   -2.51 0  310 159 
 PTGC HZ I         623 34.19        32.5 0.18            114            310 159 
 ELA  HZ EP   4    623  4.65                             111    2.34 0  332 229 
 ELA  HN ES   4    623 40.80                             111    1.50 0  332 229 
 ELA  HZ I         623 47.75        24.6 0.48            111            332 229 
 CBOC HZ EP        623  3.11                             111    0.78 7  336 252 
 CBOC HE ES   2    623 39.24                             111   -0.10 3  336 252 
 CBOC HZ I         623 52.25         7.9 0.44            110            336 252 
 DBB  SZ EP        623  2.74                             110   -0.08 7  341 274 
 DBB  SZ ES   4    623 38.79                             110   -1.42 0  341 274 
 DBB  SZ I         623 44.26        75.5 0.45            110            341 274 
 MON  HZ EP   4    623  2.66                             110   -1.51 0  354 308 
 MON  HE ES   4    623 40.89                             110   -1.73 0  354 308 
 MON  HZ I         623 57.91        15.0 0.46            109            354 308 
 ANIL HZ EP   2    623  5.97                             109    0.73 3  360 225 
 ANIL HN ES        623 45.33                             109    0.81 6  360 225 
 ANIL HZ I         623 51.48        56.6 0.44            109            360 225 
 PRA  HZ EP        623  9.52                             107    0.59 6  394 210 
 PRA  HN ES        623 50.65                             107   -0.43 6  394 210 
 PRA  HZ I         623 55.12        30.2 0.42            108            394 210 
 ORTC HZ EP   1    623 10.41                             107    1.08 4  398 216 
 ORTC HE ES   2    623 52.56                             107    0.76 3  398 216 
 ORTC HZ I         623 59.05        11.4 0.30            107            398 216 
 PAL  HZ EP   4    623  9.28                             107   -1.28 0  408 239 
 PAL  HE ES   4    623 46.85                             107   -7.13 0  408 239 
 PAL  HZ I         624  1.01         6.0 0.40            107            408 239 
 CRJC HZ EP   4    623 15.32                             104   -2.02 0  466   3 
 CRJC HN ES        624  5.34                             104   -0.72 5  466   3 
 CRJC HZ I         624 16.13        23.0 0.16            105            466   3 
                                                                                
