 2016 1226 0622 32.4 L   6.703 -73.747 91.6  RSN  4 0.3 0.6LRSN                1
 GAP=136        0.74       3.8     3.6  7.0  0.6040E+01  0.6757E+01  0.3189E+01E
 Epicentro: EL CARMEN - SANTANDER                                              3
 ACTION:UPD 17-01-11 20:19 OP:rebc STATUS:               ID:20161226062232 L   I
 OLDACT:REG 16-12-26 12:51 OP:edw  STATUS:               ID:20161226061741     3
 2016-12-26-0618-00M.COL___366                                                 6
 STAT SP IPHASW D HRMM SECON CODA AMPLIT PERI AZIMU VELO AIN AR TRES W  DIS CAZ7
 BRR  HZ IP     D  622 45.81                             152   -0.4010 44.9   5 
 BRR  HE ES        622 57.00                             152    0.0410 44.9   5 
 BRR  HZ I         622 57.95         1.8 0.18            153           44.9   5 
 PTB  HZ IP     C  622 48.52                             135   -0.3410 80.5 257 
 PTB  HN ES        623  1.62                             135   -0.0610 80.5 257 
 PTB  HZ I         623  3.29         0.7 0.22            136           80.5 257 
 RUS  HN ES        623  9.07                             125    0.2810  116 141 
 ZAR  HZ EP        622 56.09                             117    0.17 9  151 305 
 ZAR  HN ES        623 14.64                             117    0.39 9  151 305 
 ZAR  HZ I         623 15.97         0.8 0.13            118            151 305 
                                                                                
