 2011  826 0623 40.1 L   6.788 -73.145139.6  RSN 11 0.3 2.5LRSN                1
 GAP=137        0.64       2.4     5.1  4.7 -0.4555E+01  0.9510E+01  0.1070E+01E
 Epicentro: LOS SANTOS - SANTANDER                                             3
 ACTION:UPD 12-07-13 15:53 OP:ep   STATUS:               ID:20110826062340 L   I
 2011-08-26-0620-00M.COL___168                                                 6
 STAT SP IPHASW D HRMM SECON CODA AMPLIT PERI AZIMU VELO AIN AR TRES W  DIS CAZ7
 BAR2 SZ IP        623 58.91                             171   -0.0210 22.0 191 
 BAR2 SZ ES   1    624 13.79                             171    0.14 7 22.0 191 
 BAR2 SZ I         624 15.22       114.6 0.19                          22.0 191 
 GIR2 SZ EP   1    623 58.97                             166   -0.08 7 32.6 351 
 GIR2 SZ ES   1    624 13.33                             166   -0.53 7 32.6 351 
 BRR  HZ IP     D  624  0.76                             151    0.1610 71.9 299 
 BRR  HZ I         624 22.02        73.3 0.20                          71.9 299 
 PAM  SZ EP   1    624  1.73                             149    0.03 7 78.4  39 
 PAM  SE ES   1    624 18.78                             149    0.21 7 78.4  39 
 RUS  HZ EP   1    624  2.97                             143   -0.15 7 99.2 176 
 RUS  HN ES   1    624 21.00                             143   -0.10 7 99.2 176 
 RUS  HZ I         624 22.86        48.1 0.26                          99.2 176 
 BRI  SZ EP   1    624  3.56                             140    0.08 7  110  21 
 BRI  SZ ES   1    624 22.46                             140    0.72 7  110  21 
 OCA  SZ EP   1    624  7.74                             128   -0.30 7  162 353 
 OCA  SZ ES   1    624 29.18                             128   -0.68 7  162 353 
 OCA  SZ I         624 33.91        49.8 0.16                           162 353 
 NOR  SZ EP   1    624 15.51                             117    0.14 6  234 235 
 NOR  SE ES   1    624 42.92                             117    0.01 6  234 235 
 CHI  HZ EP   1    624 17.07                             116   -0.22 6  247 195 
 CHI  HE ES   1    624 46.48                             116    0.15 6  247 195 
 CHI  HZ I         624 53.72        15.9 0.52                           247 195 
 HEL  HZ EP   1    624 20.68                             113    0.73 6  272 256 
 HEL  HZ I         624 58.09        11.9 0.45                           272 256 
 VIL  SZ EP   1    624 22.68                             111   -0.38 5  302 192 
 VIL  SN ES   1    624 56.56                             111   -0.04 5  302 192 
 VIL  SZ I         625  0.96        11.5 0.31                           302 192 
                                                                                
