 2017  126 0724 17.4 L   6.713 -73.203142.1  RSN  5 0.5 1.5LRSN                1
 GAP=223        1.20       8.8     8.2  8.8  0.4477E+02  0.1296E+02 -0.3632E+01E
 Epicentro: VILLANUEVA - SANTANDER                                             3
 ACTION:UPD 17-05-22 16:03 OP:jn   STATUS:               ID:20170126072417 L   I
 OLDACT:DUP 17-01-26 17:28 OP:lv   STATUS:               ID:20170126070443d    3
 2017-01-26-0718-00M.COL___343                                                 6
 STAT SP IPHASW D HRMM SECON CODA AMPLIT PERI AZIMU VELO AIN AR TRES W  DIS CAZ7
 BAR2 EZ EP        724 36.03                             174   -0.4410 13.6 170 
 BAR2 EZ ES        724 50.89                             174   -0.4210 13.6 170 
 BAR2 EZ I         724 52.14         7.3 0.18            175           13.6 170 
 BRR  HZ EP        724 37.95                             152   -0.2410 71.1 308 
 BRR  HN ES        724 54.69                             152    0.3210 71.1 308 
 BRR  HZ I         724 58.86         7.3 0.12            151           71.1 308 
 RUS  HZ EP        724 40.78                             146    0.5810 91.7 172 
 RUS  HN ES        724 58.40                             146    0.4510 91.7 172 
 RUS  HZ I         724 59.43         3.3 0.26            149           91.7 172 
 PTB  HZ EP        724 42.90                             133   -0.50 9  140 262 
 PTB  HN ES        725  3.13                             133   -0.52 9  140 262 
 PTB  HZ I         725  6.40         6.1 0.21            134            140 262 
 ZAR  HZ EP        724 49.50                             122    0.06 9  202 295 
 ZAR  HN ES        725 15.25                             122    0.84 9  202 295 
 ZAR  HZ I         725 18.30         3.1 0.21            123            202 295 
 URE  HE ES   4    725 28.11                             113   -1.70 0  282 294 
 SJC  HZ EP   4    725 10.61                             105   -2.82 0  414 328 
 SJC  HN ES   4    725 52.40                             105   -4.71 0  414 328 
                                                                                
