 2017  326 0925 22.4 L   6.807 -73.167143.4  RSN  7 0.2 1.6LRSN                1
 GAP=133        0.60       2.6     2.6  4.7 -0.3210E+00  0.1532E+01  0.1311E+00E
 Epicentro: LOS SANTOS - SANTANDER                                             3
 ACTION:UPD 17-05-25 18:45 OP:jn   STATUS:               ID:20170326092522 L   I
 OLDACT:UP  17-03-26 15:57 OP:cog  STATUS:               ID:20170326091740     3
 OLDACT:REG 17-03-26 13:01 OP:cog  STATUS:               ID:20170326091740     3
 2017-03-26-0918-00M.COL___353                                                 6
 STAT SP IPHASW D HRMM SECON CODA AMPLIT PERI AZIMU VELO AIN AR TRES W  DIS CAZ7
 BAR2 EZ EP        925 41.58                             170   -0.2210 23.8 184 
 BAR2 EZ ES        925 56.94                             170    0.0410 23.8 184 
 BAR2 EZ I         925 57.62        14.0 0.30            171           23.8 184 
 BRR  HZ EP        925 43.39                             153    0.2010 68.7 299 
 BRR  HE ES        925 59.30                             153   -0.0910 68.7 299 
 BRR  HZ I         926  3.55        12.1 0.36            153           68.7 299 
 PAM  EZ EP        925 44.63                             150    0.1710 78.4  41 
 PAM  EN ES        926  1.68                             150    0.0410 78.4  41 
 PAM  EZ I         926  3.96         4.6 0.20            153           78.4  41 
 RUS  HZ EP        925 45.73                             143   -0.3010  102 175 
 RUS  HN ES        926  4.44                             143    0.0110  102 175 
 RUS  HZ I         926  6.13         2.5 0.18            146            102 175 
 PTB  HZ EP   4    925 46.76                             132   -2.25 0  146 258 
 PTB  HN ES        926  9.40                             132   -0.34 9  146 258 
 PTB  HZ I         926 14.24         7.2 0.12            133            146 258 
 SPBC HN ES        926 13.14                             129    0.45 9  162 218 
 ZAR  HE ES        926 19.56                             122    0.10 9  202 292 
 CBOC HZ EP   4    926 10.18                             110    1.16 0  332 252 
                                                                                
