 2015  526 0603 45.1 L   6.697 -73.244146.0  RSN  4 0.4 1.3LRSN                1
 GAP=198        0.90       5.8     6.9  7.4  0.9020E+01  0.2184E+02  0.1299E+02E
 Epicentro: BARICHARA - SANTANDER                                              3
 ACTION:UPD 15-09-10 22:07 OP:cam  STATUS:               ID:20150526060345 L   I
 OLDACT:REG 15-05-26 15:04 OP:stll STATUS:               ID:20150526055740     3
 2015-05-26-0557-40M.COL___282                                                 6
 STAT SP IPHASW D HRMM SECON CODA AMPLIT PERI AZIMU VELO AIN AR TRES W  DIS CAZ7
 BAR2 EZ EP        6 4  4.06                             175   -0.4910 13.4 150 
 BAR2 EZ ES        6 4 19.78                             175    0.0210 13.4 150 
 BAR2 EZ I         6 4 19.99         7.6 0.14            175           13.4 150 
 BRR  HZ EP        6 4  6.00                             153   -0.1010 68.8 311 
 BRR  HN ES        6 4 22.73                             153    0.2210 68.8 311 
 BRR  HZ I         6 4 24.46         4.0 0.16            154           68.8 311 
 RUS  HZ EP        6 4  8.22                             147    0.0810 90.7 169 
 RUS  HN ES        6 4 26.29                             147    0.1410 90.7 169 
 RUS  HZ I         6 4 27.96         2.2 0.40            148           90.7 169 
 GUY2CHZ EP        6 4 27.78                             114    0.84 7  286 235 
 GUY2CHN ES        6 4 59.03                             114   -0.59 7  286 235 
 GUY2CHZ I         6 5  9.18         1.0 0.26                           286 235 
                                                                                
