 2016  126 0410 49.5 L   6.749 -73.213138.3  RSN  9 0.3 2.0LRSN                1
 GAP=173        0.77       2.1     3.7  4.9  0.6779E+00  0.3111E+01 -0.2075E+01E
 Epicentro: VILLANUEVA - SANTANDER                                             3
 ACTION:UPD 16-03-09 23:28 OP:cam  STATUS:               ID:20160126041049 L   I
 OLDACT:DUP 16-01-26 18:17 OP:cara STATUS:               ID:20160126040750d    3
 OLDACT:REG 16-01-26 14:35 OP:cara STATUS:               ID:20160126040749     3
 2016-01-26-0407-49M.COL___331                                                 6
 STAT SP IPHASW D HRMM SECON CODA AMPLIT PERI AZIMU VELO AIN AR TRES W  DIS CAZ7
 BAR2 EZ IP     D  411  8.17                             172   -0.0110 17.6 169 
 BAR2 EZ ES        411 22.70                             172   -0.0110 17.6 169 
 BAR2 EZ I         411 23.74        13.5 0.28            174           17.6 169 
 RUS  HZ EP        411 12.07                             144   -0.1510 95.8 171 
 RUS  HN ES        411 30.02                             144    0.1210 95.8 171 
 RUS  HZ I         411 31.43        14.8 0.32            147           95.8 171 
 PTB  HZ EP        411 14.46                             132   -0.70 9  139 261 
 PTB  HN ES        411 34.68                             132   -0.45 9  139 261 
 PTB  HZ I         411 36.92        14.3 0.36            132            139 261 
 SPBC HZ EP        411 16.56                             129   -0.06 9  154 218 
 SPBC HN ES        411 37.87                             129    0.14 9  154 218 
 SPBC HZ I         411 44.81        11.4 0.14            130            154 218 
 OCA  HZ EP        411 17.76                             127   -0.01 9  165 356 
 OCA  HN ES        411 39.69                             127   -0.09 9  165 356 
 OCA  HZ I         411 46.00        35.4 0.40            128            165 356 
 ZAR  HZ EP        411 21.23                             121    0.19 9  199 294 
 ZAR  HN ES        411 46.13                             121    0.52 9  199 294 
 ZAR  HZ I         411 52.32        14.4 0.24            122            199 294 
 CHI  HZ EP        411 26.23                             116    0.19 8  241 194 
 CHI  HN ES        411 54.94                             116    0.44 8  241 194 
 CHI  HZ I         411 57.31         2.7 0.32            118            241 194 
 SML  HZ EP        411 25.77                             116   -0.24 8  246 337 
 SML  HN ES        411 54.93                             116    0.48 8  246 337 
 SML  HZ I         412  1.62        14.7 0.10            117            246 337 
 GUY2CHN ES   4    412  7.55                             112    2.86 0  292 235 
 GUY2CHZ I         412 14.44         3.7 0.42                           292 235 
                                                                                
