 2017 1026 0412 25.8 L   6.848 -73.154146.7  RSN 14 0.8 2.2LRSN                1
 GAP=109        1.79       5.2     5.7  8.8  0.3850E+01  0.1463E+02  0.1113E+02E
 Epicentro: LOS SANTOS - SANTANDER                                             3
 ACTION:UPD 17-11-07 19:36 OP:rebc STATUS:               ID:20171026041225 L   I
 OLDACT:UP  17-10-26 17:08 OP:dani STATUS:               ID:20171026040527     3
 OLDACT:REG 17-10-26 13:04 OP:dani STATUS:               ID:20171026040527     3
 2017-10-26-0408-00M.COL___438                                                 6
 STAT SP IPHASW D HRMM SECON CODA AMPLIT PERI AZIMU VELO AIN AR TRES W  DIS CAZ7
 BAR2 EZ EP     C  412 45.49                             169   -0.1710 28.4 186 
 BAR2 EZ ES        413  0.95                             169   -0.1910 28.4 186 
 BAR2 EZ I         413  2.10        33.0 0.16            167           28.4 186 
 BRR  HZ IP     C  412 47.29                             154    0.4110 68.0 295 
 BRR  HE ES        413  4.11                             154    0.8010 68.0 295 
 BRR  HZ I         413  7.64        41.6 0.22            152           68.0 295 
 PAM  EZ EP        412 48.46                             152    0.5410 74.0  43 
 PAM  EN ES        413  5.47                             152    0.2910 74.0  43 
 PAM  EZ I         413  7.63        23.4 0.48            157           74.0  43 
 RUS  HZ EP     C  412 49.49                             143   -0.5510  106 176 
 RUS  HN ES        413  8.10                             143   -0.8410  106 176 
 PTB  HZ EP        412 52.22                             132   -0.64 9  148 257 
 PTB  HN ES        413 13.41                             132   -0.56 9  148 257 
 PTB  HZ I         413 20.58        13.6 0.24            132            148 257 
 SPBC HZ EP        412 54.51                             129   -0.20 9  167 218 
 SPBC HN ES        413 16.63                             129   -0.63 9  167 218 
 SPBC HZ I         413 23.49        25.3 0.32            129            167 218 
 YPLC HZ EP     C  412 56.02                             126   -0.15 9  182 152 
 YPLC HE ES        413 20.32                             126    0.47 9  182 152 
 YPLC HZ I         413 22.56        18.4 0.34            129            182 152 
 ZAR  HZ EP        412 57.97                             123   -0.05 9  201 291 
 ZAR  HN ES        413 23.60                             123    0.45 9  201 291 
 ZAR  HZ I         413 29.06        22.4 0.34            124            201 291 
 NOR  HZ EP        413  1.79                             118   -0.05 8  237 233 
 NOR  HE ES        413 29.79                             118   -0.15 8  237 233 
 NOR  HZ I         413 36.12         7.8 0.20            119            237 233 
 CHI  HZ EP        413  3.90                             117   -0.18 8  253 195 
 CHI  HN ES        413 33.00                             117   -0.94 8  253 195 
 CHI  HZ I         413 36.89         6.6 0.38            119            253 195 
 ROSC BZ EP        413  5.71                             116    1.29 8  257 210 
 ROSC BN ES        413 36.09                             116    1.56 8  257 210 
 ROSC BZ I         413 40.87        13.2 0.53            118            257 210 
 URE  HZ EP        413  5.33                             114   -1.28 7  281 291 
 URE  HN ES        413 37.15                             114   -1.28 7  281 291 
 URE  HZ I         413 48.58        14.8 0.24            115            281 291 
 GUY2CHZ EP        413 10.81                             112    1.09 7  303 234 
 GUY2CHN ES        413 46.18                             112    2.22 7  303 234 
 GUY2CHZ I         413 53.93         6.4 0.45                           303 234 
 PRA  HZ EP        413 20.07                             106    0.23 6  396 209 
 PRA  HN ES        414  0.84                             106   -1.15 6  396 209 
 PRA  HZ I         414  6.65         5.2 0.34            108            396 209 
                                                                                
