 2016  626 0448 53.9 L   6.831 -73.147142.5  RSN 13 0.5 1.9LRSN                1
 GAP=135        1.05       4.0     3.7  6.6 -0.1828E+01  0.7846E+01  0.5241E+01E
 Epicentro: LOS SANTOS - SANTANDER                                             3
 ACTION:UPD 16-07-21 22:23 OP:rebc STATUS:               ID:20160626044853 L   I
 OLDACT:UP  16-06-26 15:19 OP:ak   STATUS:               ID:20160626044744     3
 OLDACT:REG 16-06-26 13:35 OP:ak   STATUS:               ID:20160626044744     3
 2016-06-26-0447-44M.COL___327                                                 6
 STAT SP IPHASW D HRMM SECON CODA AMPLIT PERI AZIMU VELO AIN AR TRES W  DIS CAZ7
 BRR  HZ IP     D  449 14.62                             152    0.0410 69.5 296 
 BRR  HN ES        449 31.45                             152    0.7310 69.5 296 
 BRR  HZ I         449 34.81        13.2 0.14                          69.5 296 
 PAM  EZ EP        449 15.74                             151    0.1410 74.9  41 
 PAM  EN ES        449 32.07                             151   -0.4710 74.9  41 
 PAM  EZ I         449 34.51        18.4 0.50                          74.9  41 
 RUS  HZ EP        449 17.42                             142   -0.1510  104 176 
 RUS  HN ES        449 36.26                             142    0.2210  104 176 
 RUS  HZ I         449 38.12         5.4 0.30                           104 176 
 PTB  HZ EP   1    449 19.77                             131   -0.87 7  148 258 
 PTB  HN ES        449 40.96                             131   -0.54 9  148 258 
 PTB  HZ I         449 43.35        11.3 0.14                           148 258 
 SPBC HZ EP        449 22.06                             128   -0.32 9  166 218 
 SPBC HN ES        449 44.49                             128   -0.12 9  166 218 
 SPBC HZ I         449 49.72         8.7 0.17                           166 218 
 ZAR  HZ EP   2    449 26.73                             122    0.76 4  203 291 
 ZAR  HN ES        449 51.09                             122    0.09 9  203 291 
 ZAR  HZ I         449 56.44        18.4 0.42                           203 291 
 NOR  HZ EP        449 29.41                             118   -0.22 8  237 234 
 NOR  HE ES        449 57.64                             118    0.13 8  237 234 
 NOR  HZ I         450  3.39         5.5 0.15                           237 234 
 HEL  HZ EP        449 34.80                             114    0.79 8  273 255 
 HEL  HN ES        450  5.88                             114    0.57 8  273 255 
 HEL  HZ I         450 11.69         4.4 0.28                           273 255 
 URE  HN ES   4    450  3.02                             113   -3.41 0  282 291 
 GUY2CHZ EP   9    449 39.56                             111    2.01 0  303 234 
 GUY2CHN ES        450 13.22                                   -0.40 7  303 234 
 GUY2CHZ I         450 21.10         4.2 0.34                           303 234 
 CBOC HZ EP        449 41.17                             109    0.40 7  335 252 
 CBOC HE ES        450 16.32                             109   -1.02 7  335 252 
 CBOC HZ I         450 19.19         1.3 0.28                           335 252 
 DBB  SZ ES        450 17.67                             109   -0.41 7  339 274 
 PRA  HZ EP   2    449 47.49                             106   -0.15 3  395 209 
 PRA  HN ES        450 30.44                             106    0.88 6  395 209 
 PRA  HZ I         450 36.19         2.5 0.28                           395 209 
 SJC  HZ EP   4    449 46.97                             105   -2.02 0  406 327 
 SJC  HN ES   4    450 27.27                             105   -4.70 0  406 327 
 SJC  HZ I         450 31.46         1.8 0.38                           406 327 
                                                                                
