 2013  126 0145 23.1 L   6.786 -73.132146.9  RSN  9 0.4 2.3LRSN 2.8WRSN        1
 SPEC AVERAGE  MO 13.3 ST  3.2 OM  1.7 f0 4.55 R0.3512 AL 2.01 WI 18.3 MW  2.8 3
 SPEC SD       MO  0.3 ST  2.6 OM  0.6 f0 1.37 R0.0988 AL      WI      MW  0.2 3
 GAP= 72        1.12       3.6     3.7  6.2  0.1293E+01  0.2423E+01  0.1604E+01E
 Epicentro: LOS SANTOS - SANTANDER                                             3
 SPEC RUS HH Z MO 12.8 ST  3.1 OM  0.4 f0 7.16 R0.2053 AL 1.52 WI 15.8 MW  2.5 3
 SPEC RUS HH Z T 14546 K 0.000 GD  177 VP 7.60 DE 3.00 Q0230.0 QA 0.60 VS 4.20 3
 SPEC OCA HH N MO 13.7 ST  6.6 OM  2.0 f0 4.53 R0.3245 AL 2.31 WI 17.1 MW  3.1 3
 SPEC OCA HH N T 14613 K 0.000 GD  218 VS 4.20 DE 3.00 Q0230.0 QA 0.60 VS 4.20 3
 SPEC PTB HH N MO 13.4 ST0.758 OM  1.7 f0 2.82 R0.5213 AL 1.02 WI 16.2 MW  2.9 3
 SPEC PTB HH N T 14610 K 0.000 GD  209 VS 4.20 DE 3.00 Q0230.0 QA 0.60 VS 4.20 3
 SPEC PAM SH Z MO 13.3 ST  1.1 OM  0.9 f0 3.49 R0.4212 AL 1.46 WI 17.2 MW  2.8 3
 SPEC PAM SH Z T 14545 K 0.000 GD  166 VP 7.60 DE 3.00 Q0230.0 QA 0.60 VS 4.20 3
 SPEC CHI HH N MO 13.3 ST  2.9 OM  1.5 f0 4.61 R0.3189 AL 2.93 WI 23.1 MW  2.8 3
 SPEC CHI HH N T 14629 K 0.000 GD  288 VS 4.20 DE 3.00 Q0230.0 QA 0.60 VS 4.20 3
 SPEC BRR HH N MO 13.5 ST  7.6 OM  1.9 f0 5.66 R0.2597 AL 3.20 WI 21.0 MW  2.9 3
 SPEC BRR HH N T 146 1 K 0.000 GD  164 VS 4.20 DE 3.00 Q0230.0 QA 0.60 VS 4.20 3
 SPEC BAR2SH Z MO 13.0 ST0.713 OM  1.5 f0 3.61 R0.4072 AL 1.62 WI 17.9 MW  2.6 3
 SPEC BAR2SH Z T 14556 K 0.000 GD  148 VS 4.20 DE 3.00 Q0230.0 QA 0.60 VS 4.20 3
 ACTION:UPD 13-02-15 09:16 OP:ep   STATUS:               ID:20130126014523 L   I
 2013-01-26-0138-50M.COL___183                                                 6
 STAT SP IPHASW D HRMM SECON CODA AMPLIT PERI AZIMU VELO AIN AR TRES W  DIS CAZ7
 BAR2 SZ EP        145 42.85                             171   -0.0310 22.2 195 
 BAR2 SZ ES        145 57.61                             171   -0.6710 22.2 195 
 BAR2 SZ I         145 59.65        33.3 0.24            170           22.2 195 
 BRR  HZ IP     C  145 44.75                             152    0.2310 73.3 299 
 BRR  HZ I         145 45.03        16.1 0.20            151           73.3 299 
 BRR  HN ES        146  2.15                             152    0.9410 73.3 299 
 PAM  SZ EP        145 45.64                             151    0.1610 77.6  38 
 PAM  SN ES        146  2.83                             151   -0.0910 77.6  38 
 PAM  SE I         146  4.36        46.6 0.74            153           77.6  38 
 RUS  HZ EP        145 46.74                             144   -0.1410 99.0 177 
 RUS  HN ES        146  5.30                             144   -0.1010 99.0 177 
 RUS  HE I         146  7.28        14.9 0.46            145           99.0 177 
 PTB  HZ EP        145 49.50                             132   -0.80 9  149 260 
 PTB  HE ES        146 11.54                             132    0.04 9  149 260 
 PTB  HN I         146 16.53        50.0 0.36            132            149 260 
 TAM  HZ IP     D  145 51.01                             131    0.28 9  153 105 
 TAM  HN ES        146 12.56                             131    0.31 9  153 105 
 TAM  HN I         146 13.51        20.5 0.48            133            153 105 
 OCA  HZ EP        145 51.02                             130   -0.67 9  162 353 
 OCA  HN ES        146 13.77                             130   -0.20 9  162 353 
 OCA  HE I         146 17.76        45.8 0.44            131            162 353 
 ZAR  HZ EP        145 56.62                             122    0.76 8  206 292 
 ZAR  HE ES        146 21.24                             122   -0.14 8  206 292 
 ZAR  HN I         146 26.67        20.4 0.18            123            206 292 
 CHI  HZ EP        146  0.82                             117    0.04 8  248 196 
 CHI  HN ES        146 30.30                             117    0.16 8  248 196 
 CHI  HE I         146 35.75        11.0 0.26            118            248 196 
                                                                                
