 2016  626 0101 59.5 L   6.769 -73.143140.0  RSN 12 0.5 1.9LRSN                1
 GAP=138        0.89       3.8     3.8  6.1 -0.4843E+01  0.6688E+01  0.5704E+01E
 Epicentro: LOS SANTOS - SANTANDER                                             3
 ACTION:UPD 16-07-21 22:23 OP:rebc STATUS:               ID:20160626010159 L   I
 OLDACT:REG 16-06-26 13:20 OP:ak   STATUS:               ID:20160626005741     3
 2016-06-26-0057-41M.COL___336                                                 6
 STAT SP IPHASW D HRMM SECON CODA AMPLIT PERI AZIMU VELO AIN AR TRES W  DIS CAZ7
 BRR  HZ IP     C  1 2 20.23                             151    0.0510 73.2 301 
 BRR  HE ES        1 2 36.90                             151    0.6110 73.2 301 
 BRR  HZ I         1 2 37.90        22.9 0.30                          73.2 301 
 PAM  EZ EP        1 2 21.33                             149    0.0310 79.8  38 
 PAM  EE ES        1 2 38.17                             149   -0.1010 79.8  38 
 PAM  EZ I         1 2 40.60        20.1 0.46                          79.8  38 
 RUS  HZ EP   1    1 2 21.58                             144   -0.90 7 97.1 176 
 RUS  HE ES        1 2 40.65                             144    0.2910 97.1 176 
 RUS  HZ I         1 2 41.71         5.4 0.20                          97.1 176 
 PTB  HZ EP   1    1 2 25.24                             131   -0.77 7  147 260 
 PTB  HE ES        1 2 46.00                             131   -0.67 9  147 260 
 PTB  HZ I         1 2 48.29        14.1 0.26                           147 260 
 SPBC HZ EP        1 2 27.51                             128    0.14 9  161 220 
 SPBC HN ES        1 2 48.97                             128   -0.10 9  161 220 
 SPBC HZ I         1 2 52.76        16.5 0.14                           161 220 
 NOR  HZ EP   2    1 2 34.63                             118   -0.13 4  233 235 
 NOR  HE ES        1 3  1.91                             118   -0.31 8  233 235 
 NOR  HZ I         1 3  6.94                                            233 235 
 HEL  HZ EP   2    1 2 40.27                             114    0.86 4  272 257 
 HEL  HN ES        1 3 10.93                             114    0.42 8  272 257 
 HEL  HZ I         1 3 19.15         4.7 0.26                           272 257 
 GUY2CHZ EP   1    1 2 43.31                             111    0.62 5  300 235 
 GUY2CHN ES        1 3 16.77                             111    0.41 7  300 235 
 GUY2CHZ I         1 3 24.92         5.8 0.44                           300 235 
 CBOC HZ EP        1 2 46.05                             109   -0.09 7  333 253 
 CBOC HE ES        1 3 22.13                             109   -0.35 7  333 253 
 CBOC HZ I         1 3 24.24         1.4 0.27                           333 253 
 PRA  HZ EP   2    1 2 52.06                             106   -0.48 3  389 210 
 PRA  HE ES   1    1 3 34.43                             106    0.56 4  389 210 
 PRA  HZ I         1 3 41.13         3.5 0.22                           389 210 
 ORTC HZ EP   2    1 2 53.56                             106    0.59 3  393 217 
 ORTC HE ES        1 3 34.93                             106    0.29 6  393 217 
 ORTC HZ I         1 3 41.40         2.0 0.52                           393 217 
 SJC  HZ EP   4    1 2 52.54                             105   -2.74 0  412 327 
 SJC  HN ES   4    1 3 34.41                             105   -4.34 0  412 327 
 SJC  HZ I         1 3 38.39         1.6 0.26                           412 327 
                                                                                
