 2014  826 0509  3.8 L   6.749 -73.113150.8  RSN  6 0.4 1.4LRSN                1
 GAP=237        1.06       6.5     7.4  9.0  0.9527E+01  0.8503E+01  0.3132E+01E
 Epicentro: LOS SANTOS - SANTANDER                                             3
 ACTION:UPD 14-09-15 21:53 OP:nd   STATUS:               ID:20140826050903 L   I
 OLDACT:REG 14-08-26 13:00 OP:fm   STATUS:               ID:20140826050818     3
 2014-08-26-0508-18M.COL___260                                                 6
 STAT SP IPHASW D HRMM SECON CODA AMPLIT PERI AZIMU VELO AIN AR TRES W  DIS CAZ7
 BAR2 SZ EP        5 9 23.89                             173   -0.0410 18.9 204 
 BAR2 SZ ES   1    5 9 39.61                             173   -0.04 7 18.9 204 
 BAR2 SZ I         5 9 41.62         8.5 0.22            169           18.9 204 
 BRR  HZ EP        5 9 25.84                             152    0.0410 77.2 301 
 BRR  HN ES        5 9 43.34                             152    0.3610 77.2 301 
 BRR  HZ I         5 9 45.76         3.1 0.20            150           77.2 301 
 RUS  HN ES   1    5 9 45.82                             147   -0.39 7 94.7 178 
 RUS  HZ I         5 9 47.75         2.7 0.28            148           94.7 178 
 PTB  HZ EP        5 9 30.84                             133   -0.54 9  150 261 
 PTB  HN ES        5 9 52.11                             133   -0.81 9  150 261 
 PTB  HZ I         5 9 56.79         2.9 0.44            132            150 261 
 SPBC HZ EP        5 9 32.90                             131    0.43 9  161 221 
 SPBC HN ES        5 9 55.42                             131    0.56 9  161 221 
 SPBC HZ I         5 9 58.93         4.2 0.18            131            161 221 
 ZAR  HN ES   1    510  3.65                             123    0.53 6  210 293 
 ZAR  HZ I         510  8.22         3.2 0.56            123            210 293 
 SML  HN ES   4    510  8.87                             118   -1.88 0  250 335 
                                                                                
