 2010  826 0125 35.4 L   6.772 -73.094141.6  RSN  5 0.2 2.1LRSN                1
 GAP=188        0.56       3.6     9.5  6.5  0.1609E+02 -0.1871E+02 -0.6739E+01E
 Epicentro: LOS SANTOS - SANTANDER                                             3
 ACTION:UP  10-09-07 10:58 OP:vdl  STATUS:               ID:20100826012535 L   I
 2010-08-26-0121-04S.COL___121                                                 6
 STAT SP IPHASW D HRMM SECON CODA AMPLIT PERI AZIMU VELO SNR AR TRES W  DIS CAZ7
 BAR2 SZ EP   1    125 54.30                             171    -0.2 7   22 206 
 BAR2 SZ ES   2    126  8.96                             171    -0.4 5   22 206 
 BAR2 SZ I         126 11.70        23.3 0.28                            22 206 
 BRR  HZ IP     C  125 56.38                             150    -0.110   78 299 
 BRR  HN ES   1    126 12.90                             150     0.0 7   78 299 
 BRR  HZ I         126 14.59        34.2 0.14                            78 299 
 RUS  HZ EP   1    125 58.21                             144    -0.2 7   97 179 
 RUS  HE ES   1    126 16.88                             144     0.4 7   97 179 
 RUS  HZ I         126 18.56        12.8 0.38                            97 179 
 OCA  SZ EP   1    126  3.89                             128     0.2 7  164 351 
 OCA  SZ ES   1    126 26.00                             128     0.2 7  164 351 
 OCA  SZ I         126 28.16        12.0 0.34                           164 351 
 PRA  HZ EP   2    126 28.89                             106     0.1 3  392 211 
 PRA  HZ I         127 17.91         3.8 0.60                           392 211 
                                                                                
