 2010 1026 0354 51.9 L   6.784 -73.072151.3  RSN  7 0.3 1.7LRSN                1
 GAP=167        0.53       2.5     6.2  5.2 -0.1876E+01 -0.2586E+01  0.5144E+00E
 Epicentro: LOS SANTOS - SANTANDER                                             3
 ACTION:UP  11-02-18 11:12 OP:tino STATUS:               ID:20101026035451 L   I
 2010-10-26-0350-41S.COL___125                                                 6
 STAT SP IPHASW D HRMM SECON CODA AMPLIT PERI AZIMU VELO SNR AR TRES W  DIS CAZ7
 BAR2 SZ EP   1    355 12.07                             170    -0.1 7   25 210 
 BAR2 SZ I         355 12.40         7.1 0.22                            25 210 
 BAR2 SZ ES   2    355 28.52                             170     0.5 5   25 210 
 BRR  HZ IP     C  355 14.12                             151     0.010   79 297 
 BRR  HN ES   1    355 31.41                             151     0.0 7   79 297 
 BRR  HZ I         355 33.79        14.8 0.24                            79 297 
 RUS  HZ EP   1    355 15.97                             145    -0.1 7   99 181 
 RUS  HN ES   1    355 34.83                             145    -0.1 7   99 181 
 RUS  HZ I         355 35.78         2.7 0.41                            99 181 
 GRA  SZ EP   1    355 17.94                             138     0.3 7  125  14 
 GRA  SZ ES   1    355 37.39                             138    -0.3 7  125  14 
 GRA  SZ I         355 38.76         8.0 0.34                           125  14 
 OCA  SZ EP   1    355 20.66                             130    -0.3 7  163 350 
 OCA  SZ ES   1    355 43.73                             130     0.2 7  163 350 
 OCA  SZ I         355 47.30         5.4 0.47                           163 350 
 CHI  HZ EP   2    355 30.23                             118     0.3 4  249 197 
 CHI  HZ I         356  3.07         2.2 0.58                           249 197 
 PRA  HZ EP   2    355 46.62                             107     0.7 3  395 211 
 PRA  HZ I         355 47.85         6.8 0.18                           395 211 
 PRA  HE ES   2    356 27.50                             107    -0.5 3  395 211 
                                                                                
