 2013  326 0857 29.5 L   6.793 -73.154148.2  RSN  5 0.4 1.3LRSN                1
 GAP=136        0.89       6.4     6.1  8.6 -0.3588E+01  0.5392E+01  0.2891E+01E
 Epicentro: LOS SANTOS - SANTANDER                                             3
 ACTION:UPD 13-04-09 14:05 OP:ep   STATUS:               ID:20130326085729 L   I
 2013-03-26-0850-00M.COL___244                                                 6
 STAT SP IPHASW D HRMM SECON CODA AMPLIT PERI AZIMU VELO AIN AR TRES W  DIS CAZ7
 BAR2 SZ EP        857 49.42                             171    0.0410 22.4 188 
 BAR2 SZ ES   1    858  5.15                             171    0.25 7 22.4 188 
 BAR2 SZ I         858  5.27         9.9 0.26            174           22.4 188 
 BRR  HZ EP   1    857 51.26                             153    0.40 7 70.8 299 
 BRR  HN ES   1    858  8.21                             153    0.66 7 70.8 299 
 BRR  HZ I         858 13.70         5.0 0.16            153           70.8 299 
 PAM  SZ EP   1    857 52.29                             151    0.28 7 78.5  40 
 PAM  SE ES   1    858  8.77                             151   -0.83 7 78.5  40 
 PAM  SZ I         858 11.24         3.3 0.40            153           78.5  40 
 RUS  HZ EP   1    857 53.47                             144    0.06 7 99.9 176 
 RUS  HN ES   1    858 12.05                             144   -0.04 7 99.9 176 
 RUS  HZ I         858 13.64         1.4 0.66            149           99.9 176 
 PTB  HZ EP   1    857 56.25                             133   -0.30 7  147 259 
 PTB  HN ES   1    858 16.98                             133   -0.69 7  147 259 
 PTB  HZ I         858 18.02         3.0 0.52            135            147 259 
                                                                                
