 2017  726 0442 52.9 L   6.849 -73.147145.0  RSN 28 0.6 2.7LRSN                1
 GAP= 65        1.02       3.0     2.7  4.7 -0.1409E+00  0.4535E+01  0.9662E+00E
 Epicentro: LOS SANTOS - SANTANDER                                             3
 ACTION:UPD 17-08-30 15:36 OP:rebc STATUS:               ID:20170726044252 L   I
 OLDACT:UP  17-07-26 15:55 OP:and  STATUS:               ID:20170726043737     3
 OLDACT:UP  17-07-26 15:53 OP:and  STATUS:               ID:20170726043737     3
 OLDACT:UP  17-07-26 15:52 OP:and  STATUS:               ID:20170726043737     3
 OLDACT:UP  17-07-26 15:44 OP:and  STATUS:               ID:20170726043737     3
 OLDACT:UP  17-07-26 15:40 OP:and  STATUS:               ID:20170726043737     3
 OLDACT:UP  17-07-26 15:40 OP:and  STATUS:               ID:20170726043737     3
 OLDACT:UP  17-07-26 15:39 OP:and  STATUS:               ID:20170726043737     3
 OLDACT:UP  17-07-26 15:34 OP:and  STATUS:               ID:20170726043737     3
 OLDACT:UP  17-07-26 15:31 OP:and  STATUS:               ID:20170726043737     3
 OLDACT:UP  17-07-26 15:28 OP:and  STATUS:               ID:20170726043737     3
 OLDACT:UP  17-07-26 15:27 OP:and  STATUS:               ID:20170726043737     3
 OLDACT:REG 17-07-26 12:50 OP:and  STATUS:               ID:20170726043737     3
 2017-07-26-0438-00M.COL___386                                                 6
 STAT SP IPHASW D HRMM SECON CODA AMPLIT PERI AZIMU VELO AIN AR TRES W  DIS CAZ7
 BAR2 EZ IP     D  443 12.45                             169   -0.0610 28.6 188 
 BAR2 EZ ES        443 27.52                             169   -0.3310 28.6 188 
 BAR2 EZ I         443 28.87       219.0 0.22            169           28.6 188 
 BRR  HZ EP        443 14.28                             153    0.5010 68.7 295 
 BRR  HN ES   3    443 31.51                             153    1.41 2 68.7 295 
 BRR  HZ I         443 35.32        73.0 0.14            150           68.7 295 
 PAM  EZ IP     C  443 15.22                             152    0.4710 73.4  42 
 PAM  EN ES        443 32.41                             152    0.5710 73.4  42 
 PAM  EZ I         443 34.72       121.6 0.60            150           73.4  42 
 RUS  HZ EP        443 16.42                             142   -0.5010  106 176 
 RUS  HN ES        443 35.10                             142   -0.6010  106 176 
 RUS  HZ I         443 36.36        74.1 0.30            141            106 176 
 PTB  HZ EP        443 19.02                             131   -0.83 9  149 257 
 PTB  HN ES        443 40.24                             131   -0.67 9  149 257 
 PTB  HZ I         443 42.98        47.2 0.28            129            149 257 
 TAM  HZ IP     C  443 20.77                             130    0.15 9  157 107 
 TAM  HZ I         443 41.40        36.4 0.34            128            157 107 
 TAM  HN ES        443 42.15                             130   -0.13 9  157 107 
 SPBC HZ IP     D  443 21.52                             128   -0.17 9  167 218 
 SPBC HN ES        443 43.93                             128   -0.25 9  167 218 
 SPBC HZ I         443 46.22       112.2 0.24            126            167 218 
 YPLC HZ IP     D  443 22.87                             126   -0.19 9  182 152 
 YPLC HN ES        443 46.72                             126    0.09 9  182 152 
 YPLC HZ I         443 50.47        62.6 0.44            124            182 152 
 ZAR  HZ EP   2    443 25.20                             122    0.17 4  202 291 
 ZAR  HN ES        443 50.75                             122    0.62 9  202 291 
 ZAR  HZ I         443 57.13        61.3 0.24            120            202 291 
 TABC EZ EP   2 C  443 30.14                             118    1.10 4  234 210 
 TABC EZ ES        443 57.79                             118    0.52 8  234 210 
 TABC EZ I         444  4.23        72.1 0.72            117            234 210 
 NOR  HZ EP        443 28.24                             118   -0.62 8  238 233 
 NOR  HN ES        443 56.77                             118   -0.19 8  238 233 
 NOR  HZ I         444  1.76        52.3 0.52            116            238 233 
 ROSC BZ EP        443 32.20                             116    0.77 8  257 210 
 ROSC BN ES   3    444  3.30                             116    1.78 2  257 210 
 ROSC BZ I         444  9.54        52.3 0.60            114            257 210 
 HEL  HZ EP        443 33.92                             114    0.76 8  273 255 
 HEL  HN ES   3    444  6.37                             114    1.76 2  273 255 
 HEL  HZ I         444 12.48        39.8 0.44            112            273 255 
 URE  HZ EP        443 33.18                             113   -0.47 7  282 291 
 URE  HN ES   3    444  3.65                             113   -1.82 2  282 291 
 URE  HZ I         444 13.13        32.6 0.26            111            282 291 
 GUY2CHZ EP        443 37.43                             112    0.66 7  304 234 
 GUY2CHN ES   3    444 12.31                             112    1.29 2  304 234 
 GUY2CHZ I         444 18.99        34.1 0.34                           304 234 
 PTGC HZ EP   4 D  443 35.56                             111   -1.69 0  314 159 
 PTGC HN ES   4    444  8.81                             111   -3.07 0  314 159 
 PTGC HZ I         444  9.00        25.7 0.38            109            314 159 
 LL6C HZ EP   9    443 36.78                             110   -1.13 0  320 358 
 LL6C HZ ES        444 11.87                             110   -0.05 7  320 358 
 LL6C HZ I         444 19.62        11.9 0.48            108            320 358 
 CBOC HZ EP        443 40.38                             109    0.47 7  335 251 
 CBOC HN ES        444 17.16                             109    0.54 7  335 251 
 CBOC HZ I         444 26.26        14.1 0.40            108            335 251 
 DBB  EZ EP     D  443 40.25                             109    0.01 7  339 273 
 DBB  EN ES   3    444 16.08                             109   -1.12 2  339 273 
 DBB  EZ I         444 19.40        12.2 0.33            107            339 273 
 ARGC HZ EP   9    443 43.37                             108    1.48 0  354 340 
 ARGC HE ES        444 21.12                             108   -0.50 6  354 340 
 ARGC HZ I         444 28.96        12.3 0.30            106            354 340 
 PRA  HZ EP        443 46.14                             106   -0.74 6  397 209 
 PRA  HN ES   2    444 29.99                             106    0.96 3  397 209 
 PRA  HZ I         444 35.08        29.8 0.44            104            397 209 
 ORTC HZ EP        443 47.35                             106    0.11 6  400 216 
 ORTC HN ES        444 29.76                             106    0.09 6  400 216 
 ORTC HZ I         444 36.75        21.7 0.42            104            400 216 
 SJC  HZ EP        443 46.80                             106   -1.05 6  405 327 
 SJC  HN ES   4    444 27.95                             106   -2.80 0  405 327 
 SJC  HZ I         444 31.36        16.8 0.38            104            405 327 
 PAL  HZ EP        443 48.18                             105   -0.12 6  408 238 
 PAL  HE ES        444 32.11                             105    0.56 6  408 238 
 PAL  HZ I         444 36.78        13.4 0.38            104            408 238 
 YOT  HZ EP   4    443 57.63                             103    1.35 0  475 228 
 YOT  HN ES   4    444 42.54                             103   -3.22 0  475 228 
 YOT  HZ I         444 57.57         4.2 0.80            101            475 228 
 GUA  EZ EP   2    443 56.07                             103   -0.55 2  479 173 
 GUA  EN ES   2    444 45.21                             103   -1.14 2  479 173 
 GUA  EZ I         444 50.07         8.7 0.32            101            479 173 
 SMAR HZ EP        443 57.83                             102   -0.25 4  492 346 
 SMAR HN ES   4    444 43.75                             102   -5.20 0  492 346 
 MACC HZ IP   4 C  443 59.63                             101   -2.54 0  526 189 
 MACC HN ES   4    444 51.40                             101   -4.84 0  526 189 
 MACC HZ I         445 17.79         4.8 0.52            100            526 189 
                                                                                
