 2013  426 0415 20.6 L   6.778 -73.101140.8  RSN 14 0.5 2.3LRSN                1
 GAP=143        0.81       3.5     5.8  5.6 -0.7148E+01  0.7610E+01  0.4231E+01E
 Epicentro: LOS SANTOS - SANTANDER                                             3
 ACTION:UPD 13-05-22 14:40 OP:EP   STATUS:               ID:20130426041520 L   I
 2013-04-26-0408-36M.COL___208                                                 6
 STAT SP IPHASW D HRMM SECON CODA AMPLIT PERI AZIMU VELO AIN AR TRES W  DIS CAZ7
 BAR2 SZ EP        415 39.63                             171    0.0310 22.4 204 
 BAR2 SZ ES   1    415 53.87                             171   -0.55 7 22.4 204 
 BAR2 SZ I         415 56.06        21.9 0.20            163           22.4 204 
 GIR2 SZ EP   1    415 39.85                             165    0.08 7 34.8 343 
 GIR2 SZ ES   1    415 54.53                             165   -0.20 7 34.8 343 
 GIR2 SZ I         415 56.26        13.9 0.38            158           34.8 343 
 PAM  SZ EP   1    415 42.60                             150    0.39 7 76.3  36 
 PAM  SN ES   2    415 59.50                             150    0.43 5 76.3  36 
 PAM  SN I         416  1.99        13.9 0.54            154           76.3  36 
 BRR  HZ IP     C  415 41.53                             150    0.0110 76.7 298 
 BRR  HN ES   1    415 58.46                             150    0.60 7 76.7 298 
 BRR  HN I         416  1.93        54.4 0.16            142           76.7 298 
 RUS  HZ EP   1    415 43.53                             143   -0.12 7 97.9 179 
 RUS  HN ES   2    416  1.60                             143   -0.05 5 97.9 179 
 RUS  HN I         416  2.33        19.8 0.32            145           97.9 179 
 PTB  HZ EP   4 C  415 46.17                             130   -1.39 0  152 260 
 PTB  HN ES   4    416  7.32                             130   -1.27 0  152 260 
 PTB  HN I         416 12.96        37.2 0.48            126            152 260 
 OCA  HZ EP   1    415 48.57                             128   -0.24 7  163 352 
 OCA  HN ES        416 10.63                             128   -0.19 9  163 352 
 OCA  HN I         416 13.56       106.9 0.24            127            163 352 
 NOR  HZ EP   1    415 55.67                             117   -0.64 6  237 236 
 NOR  HE ES        416 23.98                             117   -0.20 8  237 236 
 SML  HN ES   4    416 24.54                             116   -1.59 0  248 335 
 SML  HN I         416 30.81        41.8 0.10            115            248 335 
 ROSC BZ EP   1    415 59.62                             115    1.13 6  253 212 
 ROSC BN ES   2    416 28.99                             115    0.94 4  253 212 
 HEL  HZ EP   1    416  1.59                             113    0.58 6  276 257 
 HEL  HN ES   4    416 34.56                             113    2.01 0  276 257 
 HEL  HN I         416 47.12         5.2 0.36            112            276 257 
 URE  HZ EP   4    415 58.91                             112   -3.12 0  289 292 
 URE  HN ES   4    416 29.57                             112   -4.79 0  289 292 
 URE  HN I         416 40.64        23.8 0.26            111            289 292 
 GUY  HZ EP   1    416  3.92                             111   -0.61 5  306 236 
 GUY  HE ES   4    416 40.08                             111    1.27 0  306 236 
 GUY  HE I         416 44.71        13.7 0.62            111            306 236 
 PRA  HZ EP   1    416 13.09                             106   -0.88 4  392 210 
 PRA  HN ES   2    416 55.70                             106    0.08 3  392 210 
 PRA  HN I         417  0.01         5.9 0.70            106            392 210 
 SJC  HE EP   4    416 13.60                             105   -2.94 0  414 327 
 SJC  HZ ES   4    416 53.02                             105   -7.17 0  414 327 
                                                                                
