 2013  726 0507 16.4 L   6.892 -73.235123.4  RSN  9 0.2 2.1LRSN                1
 GAP=157        0.58       2.3     3.7  4.4  0.3431E+01  0.2237E+01 -0.2637E+01E
 Epicentro: BETULIA - SANTANDER                                                3
 ACTION:UPD 13-08-12 10:40 OP:ep   STATUS:               ID:20130726050716 L   I
 OLDACT:UP  13-07-26 10:04 OP:cam  STATUS:               ID:20130726045960d    3
 OLDACT:DUP 13-07-26 09:59 OP:cam  STATUS:               ID:20130726045960d    3
 OLDACT:UP  13-07-26 09:59 OP:cam  STATUS:               ID:20130726045959     3
 OLDACT:REG 13-07-26 08:20 OP:cam  STATUS:               ID:20130726045959     3
 2013-07-26-0459-59M.COL___266                                                 6
 STAT SP IPHASW D HRMM SECON CODA AMPLIT PERI AZIMU VELO AIN AR TRES W  DIS CAZ7
 GIR2 SZ EP        5 7 33.28                             170    0.1310 21.1  13 
 BAR2 SZ EP        5 7 33.73                             164    0.0810 33.7 170 
 BAR2 SZ ES        5 7 47.14                             164    0.0410 33.7 170 
 BAR2 SZ I         5 7 48.19        47.8 0.27            158           33.7 170 
 BRR  HZ IP     C  5 7 34.01                             153   -0.3710 57.8 294 
 BRR  HE ES   1    5 7 48.04                             153   -0.36 7 57.8 294 
 BRR  HZ I         5 7 49.10        31.1 0.10            142           57.8 294 
 RUS  HZ EP        5 7 38.86                             135   -0.1010  112 171 
 RUS  HN ES   1    5 7 56.93                             135    0.37 7  112 171 
 RUS  HZ I         5 7 57.33         8.7 0.28            127            112 171 
 PTB  HZ EP   4 D  5 7 38.94                             128   -2.00 0  141 254 
 PTB  HZ I         5 8  1.77        18.0 0.26            118            141 254 
 OCA  HZ EP   1    5 7 41.93                             126   -0.04 7  149 356 
 OCA  HE ES        5 8  1.84                             126   -0.07 9  149 356 
 OCA  HZ I         5 8  5.92        24.1 0.22            120            149 356 
 ZAR  HZ EP        5 7 45.89                             119   -0.21 9  191 290 
 ZAR  HE ES        5 8  9.54                             119    0.27 9  191 290 
 ZAR  HZ I         5 8 13.39        20.9 0.48            111            191 290 
 SML  HZ EP   1    5 7 50.34                             114   -0.04 6  230 336 
 SML  HN ES        5 8 17.30                             114    0.42 8  230 336 
 SML  HZ I         5 8 25.53        22.2 0.10            108            230 336 
 HEL  HZ EP   4    5 7 54.90                             110    0.10 0  265 253 
 HEL  HE ES   4    5 8 21.26                             110   -3.49 0  265 253 
 HEL  HZ I         5 8 26.33         5.4 0.40            105            265 253 
                                                                                
