 2017 1226 0820 15.9 L   6.186 -73.659120.0  RSN  4 0.3 1.2LRSN                1
 GAP=168        0.81       5.0     4.1  8.6 -0.1742E+01  0.6997E+01 -0.1512E+02E
 Epicentro: LA PAZ - SANTANDER                                                 3
 ACTION:UPD 18-01-04 13:24 OP:rebc STATUS:               ID:20171226082015 L   I
 OLDACT:DUP 17-12-26 20:58 OP:dnl  STATUS:               ID:20171226081024d    3
 OLDACT:REG 17-12-26 13:42 OP:osc  STATUS:               ID:20171226081023     3
 2017-12-26-0818-00M.COL___460                                                 6
 STAT SP IPHASW D HRMM SECON CODA AMPLIT PERI AZIMU VELO AIN AR TRES W  DIS CAZ7
 BAR2 EZ EP        820 34.85                             148    0.3010 69.3  50 
 BAR2 EZ ES        820 48.94                             148   -0.1510 69.3  50 
 BAR2 EZ I         820 51.27         3.5 0.62            151           69.3  50 
 SPBC HZ EP   2    820 35.08                             146    0.38 5 74.7 218 
 SPBC HN ES        820 49.36                             146    0.0010 74.7 218 
 SPBC HZ I         820 53.34         3.7 0.10            148           74.7 218 
 PTB  HZ EP        820 35.58                             138   -0.6510 96.5 294 
 PTB  HN ES        820 52.36                             138    0.2810 96.5 294 
 PTB  HZ I         820 53.31         1.6 0.10            140           96.5 294 
 ZAR  HZ EP   2    820 46.51                             117    0.57 4  196 318 
 ZAR  HE ES        821  9.37                             117    0.00 9  196 318 
 ZAR  HZ I         821 14.15         2.5 0.34            119            196 318 
                                                                                
