 2017 1226 0305 39.9 L   6.803 -73.182136.0  RSN 12 0.6 1.8LRSN                1
 GAP=108        1.36       3.7     4.4  8.2 -0.9500E+00  0.1082E+02  0.3220E+00E
 Epicentro: ZAPATOCA - SANTANDER                                               3
 ACTION:UPD 18-01-04 13:24 OP:rebc STATUS:               ID:20171226030539 L   I
 OLDACT:REG 17-12-26 12:57 OP:osc  STATUS:               ID:20171226025329     3
 2017-12-26-0258-00M.COL___469                                                 6
 STAT SP IPHASW D HRMM SECON CODA AMPLIT PERI AZIMU VELO AIN AR TRES W  DIS CAZ7
 BAR2 EZ EP        3 5 58.03                             170   -0.3110 23.3 180 
 BAR2 EZ ES        3 6 13.15                             170    0.4210 23.3 180 
 BAR2 EZ I         3 6 14.50        18.0 0.20            170           23.3 180 
 PAM  EZ EP        3 6  1.20                             148   -0.0210 79.7  42 
 PAM  EN ES        3 6 17.92                             148    0.0610 79.7  42 
 PAM  EZ I         3 6 20.29        17.4 0.46            152           79.7  42 
 PTB  HZ EP        3 6  4.84                             130   -0.87 9  144 258 
 PTB  HN ES        3 6 25.62                             130   -0.24 9  144 258 
 PTB  HZ I         3 6 28.31         5.1 0.20            132            144 258 
 OCA  HZ EP     D  3 6  6.80                             127   -0.58 9  159 355 
 OCA  HE ES        3 6 28.51                             127   -0.31 9  159 355 
 OCA  HZ I         3 6 33.49        26.0 0.30            130            159 355 
 SPBC HZ EP        3 6  7.48                             127    0.05 9  161 218 
 SPBC HN ES        3 6 28.32                             127   -0.61 9  161 218 
 SPBC HZ I         3 6 34.68         6.8 0.30            129            161 218 
 YPLC HZ EP        3 6  8.75                             124   -0.46 9  179 150 
 YPLC HE ES        3 6 32.77                             124    0.68 9  179 150 
 YPLC HZ I         3 6 35.13         6.7 0.24            128            179 150 
 ZAR  HZ EP        3 6 11.55                             121    0.24 9  200 292 
 ZAR  HN ES        3 6 36.95                             121    1.13 9  200 292 
 ZAR  HZ I         3 6 45.20         6.7 0.40            123            200 292 
 URE  HE ES        3 6 50.83                             112   -0.57 7  280 292 
 DRL03HE ES        3 6 54.10                             111    1.12 7  288 354 
 GUY2CHZ EP   9    3 6 23.81                             111    1.10 0  298 234 
 GUY2CHN ES        3 6 57.64                                    0.43 7  298 234 
 GUY2CHZ I         3 7  5.94         1.5 0.70                           298 234 
 CBOC HZ EP        3 6 26.15                             108    0.17 7  330 252 
 CBOC HN ES        3 7  1.87                             108   -0.07 7  330 252 
 CBOC HZ I         3 7  6.19         0.8 0.32            110            330 252 
 ORTC HE ES        3 7 16.43                             105    1.57 6  393 216 
 SJC  HE ES   4    3 7 14.41                             104   -3.31 0  407 327 
                                                                                
