 2015  926 0145  1.1 L   6.795 -73.199151.9  RSN  6 0.4 1.6LRSN                1
 GAP=196        0.82       4.3     6.4  7.0  0.1075E+02 -0.3027E+01  0.4705E+01E
 Epicentro: ZAPATOCA - SANTANDER                                               3
 ACTION:UPD 15-10-28 16:28 OP:cam  STATUS:               ID:20150926014501 L   I
 OLDACT:REG 15-09-26 12:41 OP:ar   STATUS:               ID:20150926013747     3
 2015-09-26-0137-47M.COL___352                                                 6
 STAT SP IPHASW D HRMM SECON CODA AMPLIT PERI AZIMU VELO AIN AR TRES W  DIS CAZ7
 BRR  HZ EP        145 22.80                             155    0.1910 66.4 301 
 BRR  HN ES        145 39.89                             155    0.4610 66.4 301 
 BRR  HZ I         145 43.09        10.1 0.68            150           66.4 301 
 RUS  HZ EP        145 25.35                             145   -0.0610  101 173 
 RUS  HN ES        145 44.00                             145   -0.4110  101 173 
 RUS  HZ I         145 45.34         3.5 0.50            146            101 173 
 PTB  HZ EP        145 27.50                             135   -0.51 9  142 259 
 PTB  HN ES        145 48.71                             135   -0.33 9  142 259 
 PTB  HZ I         145 55.54         4.3 0.30            132            142 259 
 SPBC HZ EP   2    145 30.06                             131    0.41 5  159 217 
 SPBC HN ES   2    145 52.32                             131    0.37 5  159 217 
 SPBC HZ I         145 58.34         6.5 0.22            130            159 217 
 SML  HN ES   2    146  6.17                             119   -0.35 4  242 337 
 SML  HZ I         146 10.39         5.6 0.10            120            242 337 
 CHI  HZ EP        145 39.29                             119    0.41 8  247 194 
 CHI  HN ES        146  8.70                             119    0.32 8  247 194 
 CHI  HZ I         146 10.53         2.2 0.30            119            247 194 
                                                                                
