 2013  626 0230  9.8 L   6.762 -73.200148.8  RSN  4 0.4 1.4LRSN                1
 GAP=228        0.88       7.7     6.9  8.2  0.2575E+02  0.2308E+01 -0.6474E+01E
 Epicentro: VILLANUEVA - SANTANDER                                             3
 ACTION:UPD 14-01-08 09:57 OP:ep   STATUS:               ID:20130626023009 L   I
 OLDACT:REG 13-06-26 07:30 OP:jn   STATUS:               ID:20130626022959     3
 2013-06-26-0229-59M.COL___267                                                 6
 STAT SP IPHASW D HRMM SECON CODA AMPLIT PERI AZIMU VELO AIN AR TRES W  DIS CAZ7
 BAR2 SZ EP   1    230 29.37                             173   -0.36 7 18.8 174 
 BAR2 SZ ES   1    230 44.49                             173   -0.77 7 18.8 174 
 BAR2 SZ I         230 45.80         5.1 0.34            170           18.8 174 
 BRR  HZ EP        230 31.44                             154    0.3110 68.2 304 
 BRR  HN ES   1    230 48.25                             154    0.50 7 68.2 304 
 RUS  HZ EP        230 33.73                             145    0.1210 97.0 172 
 RUS  HN ES        230 52.46                             145    0.2910 97.0 172 
 RUS  HZ I         230 53.75         3.1 0.36            144           97.0 172 
 PTB  HZ EP        230 36.06                             134   -0.38 9  141 260 
 PTB  HN ES        230 57.16                             134   -0.04 9  141 260 
 PTB  HZ I         230 59.78         3.4 0.13            133            141 260 
                                                                                
