 2017  426 0632 40.4 L   6.704 -73.132143.7  RSN  5 0.2 1.3LRSN                1
 GAP=170        0.67       5.8     3.2  6.0 -0.3951E+01  0.3316E+01 -0.3643E+01E
 Epicentro: JORDAN - SANTANDER                                                 3
 ACTION:UPD 17-05-30 21:16 OP:jn   STATUS:               ID:20170426063240 L   I
 OLDACT:DUP 17-04-26 14:53 OP:dani STATUS:               ID:20170426062739d    3
 OLDACT:UP  17-04-26 14:52 OP:dani STATUS:               ID:20170426062738     3
 OLDACT:UP  17-04-26 14:52 OP:dani STATUS:               ID:20170426062738     3
 OLDACT:UP  17-04-26 14:52 OP:dani STATUS:               ID:20170426062738     3
 OLDACT:REG 17-04-26 12:34 OP:dani STATUS:               ID:20170426062738     3
 2017-04-26-0628-00M.COL___374                                                 6
 STAT SP IPHASW D HRMM SECON CODA AMPLIT PERI AZIMU VELO AIN AR TRES W  DIS CAZ7
 BAR2 EZ EP        632 59.80                             174    0.2310 13.5 204 
 BAR2 EZ ES        633 14.53                             174   -0.0310 13.5 204 
 BRR  HZ EP        633  1.74                             150    0.0610 78.1 305 
 BRR  HN ES        633 18.76                             150    0.4410 78.1 305 
 BRR  HZ I         633 21.60         4.9 0.21            149           78.1 305 
 PAM  EZ EP        633  2.82                             148   -0.0110 85.0  34 
 PAM  EE ES        633 20.04                             148   -0.3110 85.0  34 
 PAM  EZ I         633 22.11         5.2 0.43            148           85.0  34 
 PTB  HN ES        633 27.67                             132   -0.35 9  148 263 
 PTB  HZ I         633 28.85         1.3 0.26            133            148 263 
 ZAR  HE ES        633 38.80                             121   -0.10 8  210 295 
                                                                                
