 2014  426 0900 56.8 L   6.821 -73.110125.9  RSN 16 0.5 2.2LRSN                1
 GAP=140        1.04       2.6     4.3  7.1 -0.2323E+01  0.7950E+01  0.1913E+01E
 Epicentro: LOS SANTOS - SANTANDER                                             3
 OLDACT:REG 14-04-26 15:47 OP:spq  STATUS:               ID:20140426085806     3
 ACTION:UPD 14-05-13 23:11 OP:nd   STATUS:               ID:20140426090056 L   I
 OLDACT:UP  14-04-26 17:36 OP:spq  STATUS:               ID:20140426085806     3
 2014-04-26-0858-06M.COL___242                                                 6
 STAT SP IPHASW D HRMM SECON CODA AMPLIT PERI AZIMU VELO AIN AR TRES W  DIS CAZ7
 PAM  SZ EP   1    9 1 16.49                             148   -0.21 8 73.1  38 
 PAM  SE ES   1    9 1 32.34                             148    0.15 8 73.1  38 
 PAM  SZ I         9 1 36.75        21.9 0.52            157           73.1  38 
 RUS  HZ EP   1    9 1 19.26                             138    0.39 8  103 178 
 RUS  HN ES   1    9 1 35.70                             138   -0.34 8  103 178 
 PTB  HZ EP        9 1 21.92                             126   -0.7810  152 258 
 PTB  HN ES        9 1 42.04                             126   -0.8210  152 258 
 PTB  SZ I         9 1 48.48        21.1 0.50            131            152 258 
 OCA  HZ EP   1    9 1 23.39                             125   -0.12 7  158 352 
 OCA  HN ES        9 1 44.93                             125    0.6210  158 352 
 OCA  SZ I         9 1 49.67        17.2 0.24            133            158 352 
 SPBC HZ EP        9 1 24.36                             123    0.0210  167 220 
 SPBC HE ES        9 1 45.85                             123    0.0710  167 220 
 SPBC SZ I         9 1 52.19        17.1 0.22            129            167 220 
 ZAR  HZ EP        9 1 28.07                             117   -0.32 9  207 291 
 ZAR  HN ES        9 1 53.45                             117    0.47 9  207 291 
 ZAR  SZ I         9 1 58.98         9.6 0.12            123            207 291 
 NOR  HZ EP        9 1 31.75                             113   -0.26 9  239 235 
 NOR  HN ES        9 1 59.58                             113    0.14 9  239 235 
 NOR  SZ I         9 2  4.63        11.2 0.48            119            239 235 
 SML  HZ EP        9 1 31.49                             113   -0.90 9  243 334 
 SML  HE ES        9 2  0.58                             113    0.46 9  243 334 
 SML  SZ I         9 2  2.23        17.2 0.10            119            243 334 
 CHI  HZ EP   1    9 1 33.53                             112   -0.37 6  252 196 
 CHI  HE ES   1    9 2  2.89                             112    0.10 6  252 196 
 CHI  SZ I         9 2 12.10         7.0 1.64            118            252 196 
 ROSC BZ EP        9 1 35.05                             112    0.63 8  257 212 
 ROSC BN ES        9 2  3.67                             112   -0.05 8  257 212 
 ROSC SZ I         9 2  8.97        11.7 0.40            117            257 212 
 HEL  HZ EP        9 1 37.32                             110    0.69 8  276 256 
 HEL  HN ES        9 2  7.82                             110    0.16 8  276 256 
 HEL  SZ I         9 2 14.18         7.6 0.34            115            276 256 
 URE  HZ EP        9 1 36.49                             109   -0.86 8  287 291 
 URE  HE ES   4    9 2  6.37                             109   -2.58 0  287 291 
 URE  SZ I         9 2  8.79         8.4 0.10            115            287 291 
 GUY2CHZ EP        9 1 40.69                             108    0.54 8  306 235 
 GUY2CHN ES   1    9 2 14.74                             108    0.82 6  306 235 
 GUY2CSZ I         9 2 20.01         7.8 0.56                           306 235 
 RREF HZ EP        9 1 43.56                             106    0.83 7  326 230 
 RREF HE ES   1    9 2 18.25                             106   -0.27 5  326 230 
 RREF SZ I         9 2 23.27         7.8 2.14            112            326 230 
 PRA  HZ EP        9 1 49.97                             103   -0.25 6  396 210 
 PRA  HE ES   1    9 2 31.85                             103   -0.01 5  396 210 
 PRA  SZ I         9 2 34.78         6.7 0.32            107            396 210 
 ORTC HE ES   1    9 2 33.12                             102    0.49 5  400 216 
 SJC  HE ES   4    9 2 32.36                             102   -2.40 0  409 326 
                                                                                
