 2016  226 0336 33.5 L   6.727 -73.341126.1  RSN 11 0.4 2.0LRSN                1
 GAP= 84        1.00       2.8     3.4  6.1 -0.2170E+01  0.8682E+01 -0.3579E+00E
 Epicentro: GALAN - SANTANDER                                                  3
 ACTION:UPD 16-03-04 21:29 OP:rebc STATUS:               ID:20160226033633 L   I
 OLDACT:UP  16-02-26 17:13 OP:mh   STATUS:               ID:20160226032750     3
 OLDACT:UP  16-02-26 17:00 OP:mh   STATUS:               ID:20160226032750     3
 OLDACT:UP  16-02-26 17:00 OP:mh   STATUS:               ID:20160226032750     3
 OLDACT:UP  16-02-26 16:57 OP:mh   STATUS:               ID:20160226032750     3
 OLDACT:REG 16-02-26 12:53 OP:mh   STATUS:               ID:20160226032750     3
 2016-02-26-0327-50M.COL___310                                                 6
 STAT SP IPHASW D HRMM SECON CODA AMPLIT PERI AZIMU VELO AIN AR TRES W  DIS CAZ7
 BAR2 EZ EP        336 50.85                             169    0.0610 23.0 130 
 BAR2 EZ ES        337  4.29                             169    0.0410 23.0 130 
 BAR2 EZ I         337  5.37        62.0 0.16            171           23.0 130 
 RUS  HZ EP        336 54.84                             140   -0.2410 96.5 163 
 RUS  HN ES        337 11.81                             140   -0.0810 96.5 163 
 RUS  HZ I         337 13.73        10.2 0.64            142           96.5 163 
 PAM  EZ EP        336 55.24                             140    0.0510 98.1  46 
 PAM  EN ES        337 12.65                             140    0.5510 98.1  46 
 PAM  EZ I         337 16.20        12.6 0.38            144           98.1  46 
 PTB  HZ EP        336 55.89                             132   -0.9410  125 261 
 PTB  HN ES        337 14.49                             132   -0.5210  125 261 
 PTB  HZ I         337 17.22        12.5 0.18            132            125 261 
 SPBC HZ EP        336 58.31                             128   -0.36 9  144 214 
 SPBC HN ES        337 18.15                             128   -0.14 9  144 214 
 SPBC HZ I         337 23.92        20.8 0.34            129            144 214 
 OCA  HZ EP   1    337  0.65                             123   -0.44 7  167   1 
 OCA  HN ES        337 22.53                             123   -0.06 9  167   1 
 OCA  HZ I         337 26.52        27.3 0.30            126            167   1 
 ZAR  HZ EP   1    337  2.92                             120   -0.10 7  188 297 
 ZAR  HN ES        337 26.45                             120    0.41 9  188 297 
 ZAR  HZ I         337 31.14        11.7 0.32            121            188 297 
 NOR  HZ EP   1    337  5.49                             117   -0.25 6  212 233 
 NOR  HN ES        337 31.55                             117    0.68 8  212 233 
 NOR  HZ I         337 37.37         9.8 0.18            117            212 233 
 CHI  HZ EP   1    337  9.09                             114    0.31 6  236 191 
 CHI  HN ES        337 36.48                             114    0.20 8  236 191 
 CHI  HZ I         337 45.58         7.5 0.84            115            236 191 
 URE  HZ EP   4    337 10.93                             111   -0.88 0  267 295 
 URE  HN ES   4    337 39.22                             111   -2.46 0  267 295 
 GUY2CHZ EP        337 14.67                             110    0.94 7  279 234 
 GUY2CHE ES   4    337 48.06                             110    2.97 0  279 234 
 GUY2CHZ I         337 53.44         4.5 0.30                           279 234 
 ELA  HZ EP   4    337 23.26                             108    6.16 0  308 228 
 ELA  HN ES   4    337 56.09                             108    5.00 0  308 228 
 CBOC HZ EP        337 17.16                             107    0.16 7  311 252 
 CBOC HN ES        337 51.27                             107    0.35 7  311 252 
 CBOC HZ I         337 58.47         1.7 0.44            108            311 252 
                                                                                
