 2011  926 0902  7.6 L   6.637 -73.398119.6  RSN  4 0.3 1.6LRSN                1
 GAP=199        0.59       9.8     6.4  6.3  0.3804E+02  0.5037E+01 -0.1497E+02E
 Epicentro: GALAN - SANTANDER                                                  3
 ACTION:UPD 12-07-13 15:59 OP:ep   STATUS:               ID:20110926090207 L   I
 2011-09-26-0900-00M.COL___167                                                 6
 STAT SP IPHASW D HRMM SECON CODA AMPLIT PERI AZIMU VELO AIN AR TRES W  DIS CAZ7
 BAR2 SZ EP   1    9 2 24.42                             168    0.32 7 24.3 102 
 BAR2 SZ ES   1    9 2 36.84                             168   -0.15 7 24.3 102 
 BAR2 SZ I         9 2 38.42        27.9 0.41                          24.3 102 
 BRR  HZ EP   1    9 2 25.51                             150    0.09 7 62.5 326 
 BRR  HZ I         9 2 33.62         7.9 0.11                          62.5 326 
 BRR  HN ES   1    9 2 39.19                             150   -0.14 7 62.5 326 
 OCA  SZ EP   1    9 2 35.82                             120    0.04 7  177   3 
 ZAR  HZ EP   1    9 2 36.03                             118   -0.59 7  187 300 
 ZAR  HN ES   1    9 2 59.64                             118    0.38 7  187 300 
 ZAR  HZ I         9 3  0.91         2.9 0.29                           187 300 
                                                                                
