 2015  426 0107 28.3 L   6.908 -73.145129.5  RSN  4 0.5 1.4LRSN                1
 GAP=202        0.95       6.2     6.9 17.4  0.2498E+02 -0.3529E+02 -0.6939E+02E
 Epicentro: PIEDECUESTA - SANTANDER                                            3
 ACTION:UPD 15-06-03 16:57 OP:cam  STATUS:               ID:20150426010728 L   I
 OLDACT:REG 15-04-26 12:32 OP:ak   STATUS:               ID:20150426005749     3
 2015-04-26-0057-49M.COL___280                                                 6
 STAT SP IPHASW D HRMM SECON CODA AMPLIT PERI AZIMU VELO AIN AR TRES W  DIS CAZ7
 RUS  HZ EP        1 7 51.64                             136    0.1910  113 176 
 RUS  HN ES        1 8  9.54                             136    0.0310  113 176 
 RUS  HZ I         1 8 11.33         2.7 0.25            140            113 176 
 PTB  HZ EP   2    1 7 54.20                             127   -0.06 5  151 254 
 PTB  HN ES        1 8 13.84                             127   -0.67 9  151 254 
 PTB  HZ I         1 8 17.61         4.7 0.19            128            151 254 
 ZAR  HZ EP   1    1 7 59.39                             119    0.10 7  200 289 
 ZAR  HN ES        1 8 24.25                             119    0.79 9  200 289 
 ZAR  HZ I         1 8 33.76         3.8 0.15            120            200 289 
 SML  HZ EP   2    1 8  2.00                             115   -0.86 4  233 334 
 SML  HN ES        1 8 29.67                             115   -0.15 8  233 334 
                                                                                
