 2016  926 0859 28.8 L   6.774 -73.132142.6  RSN 17 0.6 2.1LRSN                1
 GAP=121        1.28       4.1     4.5  7.2 -0.1768E+01  0.9562E+01  0.2399E+01E
 Epicentro: LOS SANTOS - SANTANDER                                             3
 ACTION:UPD 17-08-17 21:16 OP:lp   STATUS:               ID:20160926085928 L   I
 OLDACT:UP  16-09-26 19:23 OP:dani STATUS:               ID:20160926085745     3
 OLDACT:UP  16-09-26 19:22 OP:dani STATUS:               ID:20160926085745     3
 OLDACT:UP  16-09-26 19:22 OP:dani STATUS:               ID:20160926085745     3
 OLDACT:REG 16-09-26 13:44 OP:dani STATUS:               ID:20160926085745     3
 2016-09-26-0858-00M.COL___327                                                 6
 STAT SP IPHASW D HRMM SECON CODA AMPLIT PERI AZIMU VELO AIN AR TRES W  DIS CAZ7
 BAR2 EZ EP        859 47.92                             171   -0.1010 20.9 195 
 BAR2 EZ ES   4    9 0  1.64                             171   -1.36 0 20.9 195 
 BAR2 EZ I         9 0  3.80        26.2 0.20            170           20.9 195 
 BRR  HZ EP        859 49.89                             151    0.1110 73.9 300 
 BRR  HN ES        9 0  6.91                             151    0.7710 73.9 300 
 BRR  HZ I         9 0 10.85        26.8 0.12            136           73.9 300 
 PAM  EZ EP     C  859 50.88                             150    0.1010 78.7  37 
 PAM  EE ES        9 0  7.76                             150   -0.1510 78.7  37 
 PAM  EZ I         9 0 10.43        24.1 0.52            131           78.7  37 
 RUS  HZ EP        859 52.47                             144    0.4210 97.7 177 
 RUS  HN ES        9 0 10.22                             144    0.0510 97.7 177 
 RUS  HZ I         9 0 11.28         8.4 0.29            130           97.7 177 
 PTB  HZ EP        859 54.80                             131   -0.82 9  149 260 
 PTB  HE ES        9 0 15.69                             131   -0.83 9  149 260 
 PTB  HZ I         9 0 19.12        13.5 0.10            116            149 260 
 SPBC HZ EP        859 56.38                             128   -0.58 9  162 220 
 SPBC HZ I         9 0 25.72        19.0 0.17            114            162 220 
 OCA  HZ EP        859 56.42                             128   -0.75 9  163 353 
 OCA  HN ES   4    9 0 21.04                             128    1.76 0  163 353 
 ZAR  HZ EP        9 0  0.91                             121   -0.40 8  207 293 
 ZAR  HE ES        9 0 27.06                             121    0.40 8  207 293 
 ZAR  HZ I         9 0 34.17        27.2 0.26            108            207 293 
 NOR  HZ EP        9 0  4.49                             118    0.17 8  234 235 
 NOR  HE ES        9 0 31.64                             118   -0.38 8  234 235 
 NOR  HZ I         9 0 36.46        16.5 0.19            106            234 235 
 CHI  HZ EP        9 0  6.82                             117    0.73 8  246 196 
 CHI  HN ES        9 0 34.99                             117   -0.17 8  246 196 
 CHI  HZ I         9 0 40.58         3.0 0.27            105            246 196 
 HEL  HZ EP        9 0 10.01                             114    1.05 8  273 256 
 HEL  HN ES        9 0 41.10                             114    0.83 8  273 256 
 HEL  HZ I         9 0 46.51         7.5 0.28            103            273 256 
 URE  HZ EP   4    9 0  8.31                             113   -1.70 0  286 292 
 URE  HE ES   2    9 0 40.46                             113   -1.68 4  286 292 
 URE  HZ I         9 0 49.15        12.5 0.28            102            286 292 
 GUY2CHZ EP   4    9 0 13.35                             112    1.11 0  301 235 
 GUY2CHZ I         9 0 51.49         6.5 0.28                           301 235 
 PTGC HZ EP   9    9 0 10.92                             111   -1.25 0  306 159 
 PTGC HN ES        9 0 44.04                             111   -0.70 7  306 159 
 CBOC HZ EP        9 0 16.31                             109    0.64 7  334 253 
 CBOC HE ES        9 0 52.11                             109   -0.10 7  334 253 
 CBOC HZ I         9 0 55.46         3.4 0.38            100            334 253 
 ARGC HZ EP        9 0 19.16                             107    0.44 6  362 340 
 ARGC HZ I         9 1  3.95         2.8 0.26             99            362 340 
 PAL  HZ EP        9 0 23.41                             105   -0.44 6  406 240 
 PAL  HZ I         9 1 11.40         3.7 0.23             98            406 240 
                                                                                
