 2013 1226 0333 24.7 L   6.838 -73.181147.8  RSN  8 0.4 1.5LRSN                1
 GAP=130        0.93       4.0     5.1  7.7 -0.8043E+01  0.7466E+01  0.9320E+00E
 Epicentro: ZAPATOCA - SANTANDER                                               3
 ACTION:UPD 14-01-13 10:21 OP:ep   STATUS:               ID:20131226033324 L   I
 OLDACT:REG 13-12-26 08:45 OP:mh   STATUS:               ID:20131226033000     3
 2013-12-26-0330-00M.COL___285                                                 6
 STAT SP IPHASW D HRMM SECON CODA AMPLIT PERI AZIMU VELO AIN AR TRES W  DIS CAZ7
 BAR2 SZ EP   4    333 48.09                             169    3.44 0 27.1 180 
 BAR2 SZ I         334  1.24         7.5 0.29            156           27.1 180 
 BRR  HZ EP        333 46.29                             155    0.5210 65.8 297 
 BRR  HN ES   1    334  2.89                             155    0.68 7 65.8 297 
 BRR  HZ I         334  5.72         3.2 0.30            164           65.8 297 
 PAM  SZ EP     C  333 47.38                             151    0.2910 76.8  44 
 PAM  SE ES        334  4.18                             151   -0.3810 76.8  44 
 PAM  SZ I         334  6.37         5.7 0.51            145           76.8  44 
 RUS  HZ EP        333 48.87                             143   -0.1010  105 174 
 RUS  HZ I         334  8.97         4.1 0.28            133            105 174 
 PTB  HZ EP   1    333 51.01                             133   -0.55 7  145 257 
 PTB  HN ES   1    334 11.90                             133   -0.63 7  145 257 
 SPBC HN ES        334 15.72                             129   -0.13 9  164 217 
 NOR  HZ EP        334  0.21                             119   -0.26 8  234 233 
 NOR  HN ES        334 28.80                             119    0.42 8  234 233 
 NOR  HZ I         334 34.10         2.7 0.29            116            234 233 
 SML  HZ EP        334  1.05                             118    0.20 8  238 336 
 SML  HN ES        334 28.66                             118   -0.39 8  238 336 
 SML  HZ I         334 31.03         4.2 0.10            118            238 336 
                                                                                
