 2011  726 0237 58.2 L   6.812 -73.094144.6  RSN 18 0.3 3.3LRSN                1
 GAP=143        0.55       2.0     3.3  3.0 -0.2121E+01  0.2527E+01  0.8397E+00E
 Epicentro: LOS SANTOS - SANTANDER                                             3
 ACTION:UPD 12-07-25 14:03 OP:epov STATUS:               ID:20110726023758 L   I
 2011-07-26-0236-23S.COL___143                                                 6
 STAT SP IPHASW D HRMM SECON CODA AMPLIT PERI AZIMU VELO AIN AR TRES W  DIS CAZ7
 BTL  SZ EP        238 17.90                             171    0.2110 22.5 301 
 BTL  SZ ES        238 33.17                             171    0.2910 22.5 301 
 BAR2 SZ IP        238 17.71                             169   -0.0610 26.2 202 
 BAR2 SZ ES   1    238 32.63                             169   -0.39 7 26.2 202 
 BAR2 SZ I         238 34.15       493.8 0.44                          26.2 202 
 GIR2 SZ IP        238 17.74                             167   -0.0210 31.5 339 
 GIR2 SZ ES   2    238 32.37                             167   -0.62 5 31.5 339 
 PAM  SZ EP   1    238 20.49                             152    0.45 7 72.7  37 
 PAM  SN ES   1    238 37.34                             152    0.28 7 72.7  37 
 BRR  HZ EP        238 19.43                             151   -0.0710 75.7 296 
 BRR  HE ES   1    238 36.16                             151    0.06 7 75.7 296 
 BRR  HZ I         238 39.78       767.4 0.18                          75.7 296 
 RUS  HZ IP     D  238 21.67                             143   -0.2710  102 179 
 RUS  HZ I         238 22.69       172.1 0.38                           102 179 
 RUS  HN ES        238 40.48                             143    0.0410  102 179 
 BRI  SZ IP        238 22.04                             142    0.2910  105  18 
 BRI  SZ ES   2    238 39.82                             142   -0.29 5  105  18 
 GRA  SZ ES   2    238 41.97                             137   -0.56 5  123  15 
 GRA  SZ I         238 42.46       320.5 0.35                           123  15 
 OCA  SZ EP   1    238 25.94                             129   -0.44 7  160 351 
 OCA  SZ ES   2    238 47.87                             129   -0.48 5  160 351 
 OCA  SZ I         238 52.20       218.2 0.21                           160 351 
 NOR  SZ EP   2    238 34.21                             118   -0.26 4  240 235 
 NOR  SN ES   2    239  3.23                             118    0.48 4  240 235 
 CHI  HZ EP   1    238 36.20                             117    0.03 6  252 196 
 CHI  HN ES   1    239  5.37                             117   -0.39 6  252 196 
 CHI  HZ I         239 11.74        76.4 0.37                           252 196 
 HEL  HZ EP   1    238 39.16                             114    0.13 6  278 256 
 HEL  HN ES   2    239 10.92                             114    0.06 4  278 256 
 VIL  SZ EP   2    238 41.68                             112   -0.19 4  306 193 
 VIL  SN ES   2    239 16.04                             112    0.12 4  306 193 
 VIL  SZ I         239 28.98        76.7 0.47                           306 193 
 RREF HZ EP   2    238 45.34                             110    0.43 3  327 230 
 RREF HN ES   1    239 21.61                             110    0.28 5  327 230 
 RREF HZ I         239 29.41        87.2 0.35                           327 230 
 DBB  SZ EP   1    238 45.81                             109   -0.49 5  345 274 
 TOL  SZ EP   1    238 47.66                             109    0.65 5  349 225 
 TOL  SZ ES   2    239 24.76                             109   -0.30 3  349 225 
 PRA  HZ EP   2    238 52.25                             106    0.08 3  396 210 
 PRA  HN ES   2    239 34.38                             106    0.12 3  396 210 
 SJA  SZ EP   2    238 52.30                             106   -0.74 3  403 194 
                                                                                
