 2017  126 0453 16.0 L   6.745 -73.248150.5  RSN  7 0.5 1.4LRSN                1
 GAP=209        1.13       6.1     6.8  8.0  0.2505E+02  0.1674E+02  0.1303E+02E
 Epicentro: ZAPATOCA - SANTANDER                                               3
 ACTION:UPD 17-05-22 16:03 OP:jn   STATUS:               ID:20170126045316 L   I
 OLDACT:REG 17-01-26 13:38 OP:lv   STATUS:               ID:20170126044745     3
 2017-01-26-0448-00M.COL___349                                                 6
 STAT SP IPHASW D HRMM SECON CODA AMPLIT PERI AZIMU VELO AIN AR TRES W  DIS CAZ7
 BAR2 EZ EP        453 35.83                             173   -0.3110 18.4 157 
 BAR2 EZ ES        453 51.06                             173   -0.7710 18.4 157 
 BAR2 EZ I         453 53.59         8.3 0.31            173           18.4 157 
 BRR  HZ EP        453 37.65                             155    0.2810 65.1 308 
 BRR  HN ES        453 54.69                             155    0.6810 65.1 308 
 BRR  HZ I         453 57.06         4.6 0.14            156           65.1 308 
 RUS  HZ EP        453 40.16                             146    0.2310 96.0 169 
 RUS  HN ES        453 58.69                             146    0.1210 96.0 169 
 RUS  HZ I         453 59.91         3.1 0.19            148           96.0 169 
 PTB  HZ EP        453 42.51                             136    0.19 9  136 260 
 PTB  HN ES        454  3.26                             136    0.43 9  136 260 
 PTB  HZ I         454  5.48         2.9 0.09            137            136 260 
 ZAR  HE ES        454 12.61                             124   -0.30 9  196 295 
 CHI  HZ EP        453 53.33                             119    0.27 8  240 193 
 CHI  HN ES        454 21.54                             119   -0.41 8  240 193 
 URE  HE ES        454 27.12                             115   -0.84 7  276 294 
                                                                                
