 2014  726 0446  2.7 L   6.784 -73.115154.7  RSN 19 0.5 2.0LRSN                1
 GAP=186        1.00       3.2     4.6  5.6 -0.1137E+01  0.3217E+01  0.2247E+01E
 Epicentro: LOS SANTOS - SANTANDER                                             3
 ACTION:UPD 15-03-16 20:47 OP:nd   STATUS:               ID:20140726044602 L   I
 OLDACT:REG 14-07-26 13:36 OP:fm   STATUS:               ID:20140726043815     3
 2014-07-26-0438-15M.COL___263                                                 6
 STAT SP IPHASW D HRMM SECON CODA AMPLIT PERI AZIMU VELO AIN AR TRES W  DIS CAZ7
 BAR2 SZ EP        446 23.48                             171    0.1110 22.5 199 
 BAR2 SZ ES   1    446 39.41                             171   -0.09 7 22.5 199 
 BAR2 SZ I         446 40.12        11.3 0.38            166           22.5 199 
 BRR  HZ EP        446 25.40                             153    0.3910 75.0 298 
 BRR  HN ES        446 42.96                             153    0.5310 75.0 298 
 BRR  HZ I         446 47.72        14.1 0.12            148           75.0 298 
 RUS  HZ EP        446 27.36                             146    0.1810 98.7 178 
 RUS  HN ES   1    446 45.84                             146   -0.46 7 98.7 178 
 RUS  HZ I         446 47.35         5.1 0.40            146           98.7 178 
 PTB  HZ EP        446 30.39                             133   -0.26 9  151 260 
 PTB  HN ES        446 51.44                             133   -1.04 9  151 260 
 PTB  HZ I         446 57.51        13.5 0.38            131            151 260 
 OCA  HZ EP   1    446 32.62                             131    0.73 7  162 352 
 OCA  HN ES        446 54.29                             131   -0.39 9  162 352 
 OCA  HZ I         446 59.37        12.3 0.38            133            162 352 
 SPBC HZ EP        446 32.43                             131    0.48 9  164 220 
 SPBC HN ES        446 55.32                             131    0.53 9  164 220 
 SPBC HZ I         447  1.63        21.6 0.30            129            164 220 
 ZAR  HZ EP        446 35.98                             124   -0.13 8  208 292 
 ZAR  HN ES        447  2.34                             124    0.16 8  208 292 
 ZAR  HZ I         447  8.01        12.3 0.42            123            208 292 
 NOR  HZ EP   1    446 38.50                             120   -0.63 6  237 235 
 NOR  HN ES        447  7.42                             120   -0.14 8  237 235 
 NOR  HZ I         447 11.20         8.1 0.18            119            237 235 
 SML  HZ EP   1    446 39.19                             119   -0.95 6  247 335 
 SML  HN ES   4    447  8.16                             119   -1.20 0  247 335 
 SML  HZ I         447 13.20        17.8 0.10            120            247 335 
 CHI  HZ EP   1    446 39.91                             119   -0.89 6  248 196 
 CHI  HN ES   1    447 10.39                             119   -0.16 6  248 196 
 CHI  HZ I         447 16.47         3.2 0.70            119            248 196 
 ROSC BZ EP   1    446 40.97                             118   -0.36 6  253 212 
 ROSC BN ES   4    447 13.56                             118    2.08 0  253 212 
 ROSC BZ I         447 19.70         7.4 0.55            118            253 212 
 HEL  HZ EP   1    446 44.58                             116    0.90 6  275 256 
 HEL  HE ES   1    447 16.08                             116    0.42 6  275 256 
 HEL  HZ I         447 23.08         3.8 0.34            116            275 256 
 URE  HZ EP   1    446 43.93                             115   -0.69 5  288 292 
 GUY2CHZ EP   1    446 46.69                             114   -0.22 5  303 235 
 GUY2CHN ES   4    447 22.96                             114    1.54 0  303 235 
 GUY2CHZ I         447 28.44         5.5 0.32                           303 235 
 RREF HZ EP   1    446 49.92                             112    0.53 5  323 230 
 RREF HN ES   4    447 28.25                             112    2.43 0  323 230 
 RREF HZ I         447 32.11         5.2 0.26            112            323 230 
 CBOC HZ EP   1    446 50.80                             111    0.51 5  336 253 
 CBOC HN ES   1    447 27.54                             111    0.12 5  336 253 
 CBOC HZ I         447 39.00         1.9 0.56            111            336 253 
 TOL  SN ES   1    447 29.10                             111   -0.38 5  345 225 
 TOL  SZ I         447 36.67        10.0 0.56            111            345 225 
 PRA  HZ EP   4    446 55.48                             108   -1.06 0  392 210 
 PRA  HN ES   1    447 38.60                             108    0.04 4  392 210 
 PRA  HZ I         447 44.14         3.2 0.38            108            392 210 
 ORTC HZ EP   1    446 57.68                             108    0.69 4  396 217 
 ORTC HN ES   4    447 41.23                             108    1.88 0  396 217 
 ORTC HZ I         447 44.12         2.5 0.64            108            396 217 
                                                                                
