 2014  226 0911 51.6 L   7.457 -73.191127.7  RSN  9 0.7 1.8LRSN                1
 GAP=113        1.64       4.8     7.2 11.3  0.8062E+01  0.3901E+02  0.1603E+02E
 Epicentro: EL PLAYON - SANTANDER                                              3
 ACTION:UPD 14-03-10 08:13 OP:ep   STATUS:               ID:20140226091151 L   I
 OLDACT:UP  14-02-26 13:58 OP:stll STATUS:               ID:20140226090949d    3
 OLDACT:DUP 14-02-26 13:45 OP:stll STATUS:               ID:20140226090949d    3
 2014-02-26-0909-48M.COL___220                                                 6
 STAT SP IPHASW D HRMM SECON CODA AMPLIT PERI AZIMU VELO AIN AR TRES W  DIS CAZ7
 PAM  SZ EP        912 11.21                             155    0.5810 55.8 103 
 PAM  SN ES        912 25.93                             155    0.4410 55.8 103 
 PAM  SZ I         912 28.32         9.7 0.52            160           55.8 103 
 OCA  HN ES        912 29.02                             143    0.8510 87.6 351 
 BAR2 SZ ES        912 29.16                             141   -0.2910 95.6 179 
 BAR2 SZ I         912 30.26        27.8 0.12            144           95.6 179 
 RUS  HZ EP        912 19.82                             123   -0.50 9  173 176 
 RUS  HN ES        912 41.56                             123   -1.18 9  173 176 
 RUS  HZ I         912 42.89         2.1 0.34            126            173 176 
 PTB  HZ EP        912 19.38                             123   -0.24 9  173 234 
 PTB  HN ES        912 40.97                             123   -0.53 9  173 234 
 PTB  HZ I         912 45.68         8.1 0.30            125            173 234 
 SML  HZ EP        912 19.77                             122   -0.32 9  177 327 
 SML  HN ES        912 41.02                             122   -1.30 9  177 327 
 SML  HZ I         912 43.83        15.3 0.10            125            177 327 
 ZAR  HZ EP        912 20.91                             121    0.13 9  184 271 
 ZAR  HN ES        912 43.88                             121    0.32 9  184 271 
 ZAR  HZ I         912 47.64         9.6 0.28            123            184 271 
 CHI  HZ EP        912 36.80                             107    0.48 7  318 191 
 CHI  HN ES        913 11.50                             107    0.28 7  318 191 
 GUY2CHZ EP        912 40.07                             106    0.59 7  345 224 
 GUY2CHN ES        913 18.50                             106    1.66 7  345 224 
                                                                                
