 2016 1026 0616 10.3 L   6.520 -73.979 22.8  RSN  7 0.5 1.6LRSN                1
 GAP=112        1.19       2.8     2.3  3.8 -0.1552E+01 -0.1671E+01  0.1725E+01E
 Epicentro: PUERTO PARRA - SANTANDER                                           3
 ACTION:UPD 16-11-09 19:23 OP:rebc STATUS:               ID:20161026061610 L   I
 OLDACT:UP  16-10-26 20:59 OP:cog  STATUS:               ID:20161026060746d    3
 OLDACT:DUP 16-10-26 20:43 OP:cog  STATUS:               ID:20161026060746d    3
 2016-10-26-0608-00M.COL___328                                                 6
 STAT SP IPHASW D HRMM SECON CODA AMPLIT PERI AZIMU VELO AIN AR TRES W  DIS CAZ7
 PTB  HZ EP        616 19.55                             111    0.0710 52.8 272 
 PTB  HE ES        616 27.08                             111    0.4610 52.8 272 
 PTB  HZ I         616 27.42        90.3 0.20            112           52.8 272 
 BRR  HZ EP        616 22.11                             106   -0.0310 71.4  24 
 BRR  HE ES        616 31.34                             106   -0.0010 71.4  24 
 BRR  HZ I         616 32.56        19.3 0.14            106           71.4  24 
 BAR2 EZ EP        616 24.43                             103   -0.4810 88.5  85 
 BAR2 EZ ES        616 35.61                             103   -0.6710 88.5  85 
 BAR2 EZ I         616 36.56        21.0 0.24            103           88.5  85 
 SPBC HZ EP        616 26.20                             102    0.2710 96.5 186 
 SPBC HN ES        616 38.08                             102   -0.0210 96.5 186 
 SPBC HZ I         616 41.14         6.8 0.10            102           96.5 186 
 RUS  HZ EP        616 30.12                              56    0.4210  121 125 
 RUS  HE ES        616 44.99                              56    0.1910  121 125 
 RUS  HZ I         616 45.71         5.2 0.26             56            121 125 
 PAM  EZ EP        616 36.49                              56    0.92 9  168  57 
 PAM  EE ES        616 55.40                              56    0.15 9  168  57 
 PAM  EZ I         616 57.00        16.7 0.28             56            168  57 
 HEL  HZ EP        616 36.02                              56   -0.31 9  175 258 
 HEL  HN ES        616 55.63                              56   -0.98 9  175 258 
                                                                                
