 2012  626 0308 55.3 L   6.797 -73.132144.2  RSN 15 0.4 2.9LRSN                1
 GAP=115        0.84       3.1     3.6  5.4  0.1215E+01  0.5730E+01  0.3696E+01E
 Epicentro: LOS SANTOS - SANTANDER                                             3
 ACTION:UPD 12-08-06 17:52 OP:ep   STATUS:               ID:20120626030855 L   I
 2012-06-26-0307-59S.COL___210                                                 6
 STAT SP IPHASW D HRMM SECON CODA AMPLIT PERI AZIMU VELO AIN AR TRES W  DIS CAZ7
 BAR2 SZ IP        3 9 14.91                             170    0.1410 23.3 194 
 BAR2 SZ ES   1    3 9 29.85                             170   -0.09 7 23.3 194 
 BAR2 SZ I         3 9 33.21       205.0 0.20                          23.3 194 
 BRR  HZ EP   1    3 9 16.81                             152    0.41 7 72.6 298 
 BRR  HN ES   1    3 9 33.58                             152    0.76 7 72.6 298 
 BRR  HZ I         3 9 36.55       182.0 0.16                          72.6 298 
 PAM  SZ EP   1    3 9 17.70                             151    0.36 7 76.7  39 
 PAM  SZ I         3 9 17.95       122.8 0.21                          76.7  39 
 PAM  SN ES   1    3 9 34.83                             151    0.32 7 76.7  39 
 RUS  HZ EP        3 9 18.74                             144   -0.1610  100 177 
 RUS  HN ES   1    3 9 36.69                             144   -0.59 7  100 177 
 RUS  HZ I         3 9 40.55        59.1 0.26                           100 177 
 PTB  HZ EP   1    3 9 21.48                             131   -0.82 7  149 259 
 PTB  HN ES   1    3 9 42.54                             131   -0.79 7  149 259 
 PTB  HZ I         3 9 48.80        94.0 0.29                           149 259 
 OCA  HZ EP   1    3 9 23.04                             129   -0.53 7  161 353 
 OCA  HE ES   1    3 9 45.32                             129   -0.28 7  161 353 
 OCA  HZ I         3 9 50.40       212.3 0.14                           161 353 
 YOP  SZ EP   1    3 9 25.36                             126    0.19 7  178 154 
 YOP  SE ES   1    3 9 48.09                             126   -0.35 7  178 154 
 YOP  SZ I         3 9 49.98        49.1 0.29                           178 154 
 ZAR  HZ EP   1    3 9 27.26                             122   -0.57 6  206 292 
 ZAR  HN ES   1    3 9 53.23                             122    0.05 6  206 292 
 ZAR  HZ I         3 9 59.40        90.9 0.20                           206 292 
 NOR  SZ EP   1    3 9 30.82                             118   -0.26 6  236 235 
 NOR  SE ES   1    3 9 59.37                             118    0.41 6  236 235 
 CHI  HZ EP   1    3 9 32.89                             117   -0.06 6  249 196 
 CHI  HZ I         3 9 33.86        36.6 0.20                           249 196 
 CHI  HN ES   1    310  2.64                             117    0.35 6  249 196 
 ROSC BZ EP   1    3 9 34.31                             116    0.89 6  253 211 
 HEL  HZ EP   1    3 9 35.88                             114    0.27 6  273 256 
 HEL  HN ES   1    310  7.27                             114    0.24 6  273 256 
 HEL  HZ I         310 12.53        39.2 0.40                           273 256 
 GUY  SZ EP   1    3 9 39.57                             112    0.32 5  305 235 
 GUY  SZ I         310 21.45       113.4 0.39                           305 235 
 DBB  SZ EP   1    3 9 42.68        58.7 0.74            109   -0.24 5  341 274 
 TOL  SZ EP   1    3 9 44.24                             109    0.62 5  344 225 
                                                                                
