 2010  926 0246  9.4 L   6.796 -73.138146.0  RSN  8 0.3 1.8LRSN                1
 GAP=160        0.63       3.4     6.9  6.5 -0.4549E+01 -0.5174E+01  0.4300E+01E
 Epicentro: LOS SANTOS - SANTANDER                                             3
 ACTION:UP  11-02-18 11:05 OP:tino STATUS:               ID:20100926024609 L   I
 2010-09-26-0242-24S.COL___122                                                 6
 STAT SP IPHASW D HRMM SECON CODA AMPLIT PERI AZIMU VELO SNR AR TRES W  DIS CAZ7
 BTL  SZ EP   1    246 29.10                             171     0.1 7   20 313 
 BAR2 SZ EP   2    246 28.60                             171    -0.5 5   23 193 
 BAR2 SZ ES   2    246 43.77                             171    -0.6 5   23 193 
 BAR2 SZ I         246 45.21        15.6 0.35                            23 193 
 BRR  HZ EP   1    246 30.57                             152    -0.1 7   72 299 
 BRR  HN ES   1    246 47.70                             152     0.5 7   72 299 
 BRR  HZ I         246 51.40        17.2 0.10                            72 299 
 RUS  HZ EP   1    246 32.95                             144    -0.2 7  100 177 
 RUS  HN ES   2    246 51.76                             144     0.1 5  100 177 
 RUS  HZ I         246 53.34        11.0 0.29                           100 177 
 GRA  SZ EP   2    246 35.42                             137     0.7 5  126  17 
 GRA  SZ ES   2    246 54.42                             137     0.0 5  126  17 
 GRA  SZ I         246 56.23         7.9 0.26                           126  17 
 OCA  SZ EP   1    246 37.67                             129    -0.1 7  161 353 
 OCA  SZ ES   2    246 59.60                             129    -0.3 5  161 353 
 OCA  SZ I         247  5.51         8.2 0.15                           161 353 
 NOR  SZ EP   2    246 45.14                             118    -0.1 4  235 235 
 NOR  SE ES   2    247 12.77                             118    -0.4 4  235 235 
 CHI  HZ EP   1    246 47.43                             117     0.3 6  248 195 
 CHI  HE ES   2    247 16.62                             117     0.1 4  248 195 
 CHI  HZ I         247 20.35         3.0 0.56                           248 195 
                                                                                
