 2017 1026 0952  8.5 L   6.857 -73.161139.7  RSN  4 0.2 1.1LRSN                1
 GAP=255        0.66       8.0     4.8  5.5  0.2060E+02 -0.2632E+01 -0.7545E+01E
 Epicentro: ZAPATOCA - SANTANDER                                               3
 ACTION:UPD 17-11-07 19:37 OP:rebc STATUS:               ID:20171026095208 L   I
 OLDACT:REG 17-10-26 13:30 OP:dani STATUS:               ID:20171026094737     3
 2017-10-26-0948-00M.COL___390                                                 6
 STAT SP IPHASW D HRMM SECON CODA AMPLIT PERI AZIMU VELO AIN AR TRES W  DIS CAZ7
 BAR2 EZ EP        952 27.86                             168    0.2910 29.3 185 
 BAR2 EZ ES        952 42.22                             168   -0.2010 29.3 185 
 BAR2 EZ I         952 43.79         4.1 0.38            163           29.3 185 
 RUS  HZ EP        952 32.51                             141    0.3410  107 175 
 RUS  HN ES        952 50.62                             141    0.0110  107 175 
 RUS  HZ I         952 51.54         3.0 0.28            140            107 175 
 PTB  HZ EP        952 34.69                             131   -0.29 9  147 256 
 PTB  HN ES        952 55.70                             131    0.09 9  147 256 
 PTB  HZ I         953  2.83         1.1 0.18            128            147 256 
 YPLC HZ EP        952 38.20                             124   -0.32 9  183 152 
                                                                                
