 2012  626 0901 52.6 L   7.398 -73.202129.4  RSN 11 0.3 2.3LRSN                1
 GAP=105        0.59       2.5     2.8  4.3  0.9492E+00  0.3347E+01  0.2377E+01E
 Epicentro: EL PLAYON - SANTANDER                                              3
 ACTION:UPD 12-08-06 17:52 OP:ep   STATUS:               ID:20120626090152 L   I
 2012-06-26-0900-00M.COL___201                                                 6
 STAT SP IPHASW D HRMM SECON CODA AMPLIT PERI AZIMU VELO AIN AR TRES W  DIS CAZ7
 PAM  SZ EP   1    9 2 12.14                             156    0.30 7 55.8  97 
 PAM  SN ES   1    9 2 27.11                             156    0.26 7 55.8  97 
 PAM  SZ I         9 2 28.25        28.0 0.15                          55.8  97 
 BRR  HZ EP   1    9 2 11.79                             152    0.17 7 64.8 240 
 BRR  HE ES   1    9 2 26.90                             152    0.44 7 64.8 240 
 BRR  HZ I         9 2 28.07       113.3 0.12                          64.8 240 
 BAR2 SZ EP   1    9 2 13.34                             143   -0.21 7 89.1 179 
 BAR2 SZ ES   1    9 2 29.34                             143   -0.56 7 89.1 179 
 BAR2 SZ I         9 2 31.31        59.3 0.14                          89.1 179 
 OCA  HZ EP   1    9 2 13.25                             142   -0.54 7 93.9 352 
 OCA  HN ES   1    9 2 30.26                             142   -0.06 7 93.9 352 
 RUS  HZ EP   1    9 2 20.69                             125   -0.11 7  167 175 
 RUS  HE ES   1    9 2 42.38                             125   -0.42 7  167 175 
 RUS  HZ I         9 2 49.59         7.4 0.26                           167 175 
 PTB  HZ EP   1    9 2 20.24                             124   -0.04 7  168 236 
 PTB  HN ES   1    9 2 41.80                             124   -0.07 7  168 236 
 PTB  HZ I         9 2 43.64        18.3 0.12                           168 236 
 ZAR  HZ EP   1    9 2 21.80                             122   -0.02 7  183 273 
 ZAR  HN ES   1    9 2 44.78                             122    0.17 7  183 273 
 ZAR  HZ I         9 2 46.44        51.4 0.22                           183 273 
 YOP  SZ EP   1    9 2 28.75                             114    0.44 6  242 159 
 YOP  SN ES   1    9 2 56.51                             114    0.35 6  242 159 
 YOP  SZ I         9 2 58.42        12.5 0.32                           242 159 
 NOR  SZ EP   1    9 2 32.25                             111    0.39 6  274 222 
 NOR  SE ES   1    9 3  2.47                             111   -0.02 6  274 222 
 HEL  HZ EP   1    9 2 34.11                             110    0.06 5  290 243 
 HEL  HZ I         9 3 14.67         8.5 0.22                           290 243 
 DBB  SZ EP   1    9 2 38.66                             107   -0.26 5  335 263 
                                                                                
