 2013  326 0420 57.5 L   6.796 -73.124154.3  RSN 11 0.5 2.0LRSN                1
 GAP=140        0.96       3.9     5.1  6.9 -0.1475E+00  0.6308E+01  0.3581E+00E
 Epicentro: LOS SANTOS - SANTANDER                                             3
 ACTION:UPD 13-04-09 14:04 OP:ep   STATUS:               ID:20130326042057 L   I
 2013-03-26-0420-00M.COL___244                                                 6
 STAT SP IPHASW D HRMM SECON CODA AMPLIT PERI AZIMU VELO AIN AR TRES W  DIS CAZ7
 BAR2 SZ EP        421 18.14                             171   -0.0510 23.4 196 
 BAR2 SZ ES   1    421 33.62                             171   -0.69 7 23.4 196 
 BAR2 SZ I         421 34.99        28.2 0.46            169           23.4 196 
 BRR  HZ EP        421 20.16                             153    0.4210 73.6 298 
 BRR  HE ES   1    421 38.15                             153    1.09 7 73.6 298 
 BRR  HZ I         421 43.10         9.4 0.12            150           73.6 298 
 PAM  SZ EP        421 20.96                             152    0.3610 76.2  38 
 PAM  SN ES   1    421 38.40                             152   -0.19 7 76.2  38 
 PAM  SZ I         421 40.37        15.6 0.54            156           76.2  38 
 RUS  HZ EP        421 22.00                             146   -0.0910  100 177 
 RUS  HN ES   1    421 41.09                             146   -0.16 7  100 177 
 RUS  HZ I         421 43.63        10.1 0.40            149            100 177 
 PTB  HZ EP   1    421 25.15                             133   -0.26 7  150 259 
 PTB  HN ES   1    421 46.41                             133   -0.75 7  150 259 
 PTB  HZ I         421 50.91        14.2 0.44            133            150 259 
 ZAR  HE ES   1    421 56.77                             124    0.03 6  206 292 
 ZAR  HZ I         422  2.73        10.0 0.36            124            206 292 
 NOR  HZ EP   1    421 34.38                             120    0.43 6  236 235 
 NOR  HN ES   1    422  2.70                             120    0.34 6  236 235 
 NOR  HZ I         422  4.37         8.0 0.26            121            236 235 
 SML  HZ EP   1    421 34.64                             119   -0.16 6  245 335 
 SML  HN ES   1    422  3.18                             119   -0.70 6  245 335 
 SML  HZ I         422 10.21        11.0 0.24            120            245 335 
 CHI  HZ EP   1    421 36.17                             119    0.43 6  249 196 
 CHI  HN ES   1    422  5.25                             119   -0.30 6  249 196 
 CHI  HZ I         422  9.55         4.3 0.42            121            249 196 
 HEL  HZ I         422 16.86         4.8 0.30            117            274 256 
 SJC  HZ EP   1    421 52.39                             107   -1.20 4  411 327 
 SJC  HN ES   4    422 33.55                             107   -3.76 0  411 327 
 SJC  HZ I         422 39.35         3.3 0.44            108            411 327 
                                                                                
