 2015  526 0546 53.0 L   6.839 -73.138145.9  RSN 10 0.4 2.1LRSN                1
 GAP=202        0.93       3.3     4.3  6.2  0.6506E+00  0.1142E+02 -0.4495E+01E
 Epicentro: LOS SANTOS - SANTANDER                                             3
 ACTION:UPD 15-09-10 22:07 OP:cam  STATUS:               ID:20150526054653 L   I
 OLDACT:REG 15-05-26 13:24 OP:ar   STATUS:               ID:20150526053742     3
 2015-05-26-0537-42M.COL___282                                                 6
 STAT SP IPHASW D HRMM SECON CODA AMPLIT PERI AZIMU VELO AIN AR TRES W  DIS CAZ7
 BAR2 EZ IP     D  547 12.68                             169   -0.0410 27.7 190 
 BAR2 EZ ES        547 28.28                             169    0.1610 27.7 190 
 BAR2 EZ I         547 29.46        16.6 0.26            165           27.7 190 
 RUS  HZ EP        547 16.57                             143   -0.4810  105 177 
 RUS  HN ES        547 36.13                             143    0.3010  105 177 
 RUS  HZ I         547 38.06         9.4 0.34            145            105 177 
 SPBC HZ EP        547 21.65                             128   -0.20 9  167 218 
 SPBC HN ES        547 44.06                             128   -0.32 9  167 218 
 SPBC HZ I         547 50.56        28.1 0.26            129            167 218 
 ZAR  HZ EP        547 25.30                             123   -0.05 9  203 291 
 ZAR  HZ ES        547 49.59                             123   -1.00 9  203 291 
 ZAR  HE ES        547 51.66                             123            203 291 
 ZAR  HZ I         547 57.13        18.8 0.60            122            203 291 
 NOR  HZ EP        547 28.88                             118   -0.18 8  238 234 
 NOR  HN ES        547 57.06                             118   -0.14 8  238 234 
 NOR  HZ I         547 58.88        11.4 0.26            119            238 234 
 SML  HZ EP        547 29.70                             118    0.47 8  240 335 
 SML  HN ES        547 58.08                             118    0.58 8  240 335 
 SML  HZ I         548  0.55        18.3 0.30            120            240 335 
 HEL  HZ EP        547 33.56                             115    0.16 8  274 255 
 HEL  HN ES        548  5.60                             115    0.66 8  274 255 
 HEL  HZ I         548 11.29         7.3 0.34            115            274 255 
 URE  HZ EP        547 33.46                             114   -0.50 7  283 291 
 URE  HE ES        548  5.80                             114   -0.13 7  283 291 
 URE  HZ I         548 13.36         8.5 0.30            114            283 291 
 GUY2CHZ EP        547 37.00                             112    0.05 7  304 234 
 GUY2CHN ES        548 11.79                             112    0.54 7  304 234 
 GUY2CHZ I         548 19.52         7.9 0.42                           304 234 
 CBOC HZ EP        547 40.48                             110    0.34 7  336 251 
 CBOC HN ES        548 17.42                             110    0.49 7  336 251 
 CBOC HZ I         548 37.84         2.1 0.40            111            336 251 
                                                                                
