 2012  526 0931 44.9 L   6.767 -73.170136.4  RSN  4 0.2 1.2LRSN                1
 GAP=139        0.42       3.2     3.2  6.0 -0.3734E+01  0.5150E+01 -0.2438E+01E
 Epicentro: LOS SANTOS - SANTANDER                                             3
 ACTION:UP  12-07-05 12:08 OP:pat  STATUS:               ID:20120526093144 L   I
 2012-05-26-0930-00M.COL___198                                                 6
 STAT SP IPHASW D HRMM SECON CODA AMPLIT PERI AZIMU VELO SNR AR TRES W  DIS CAZ7
 BAR2 SZ EP   2    932  3.59                             171     0.3 5   19 184 
 BAR2 SZ I         932  3.95         5.4 0.03                            19 184 
 PAM  SZ EP        932  6.47                             147     0.110   82  39 
 PAM  SN ES   1    932 23.03                             147    -0.1 7   82  39 
 RUS  HZ EP   1    932  7.46                             143     0.0 7   97 174 
 RUS  HN ES   1    932 25.01                             143    -0.1 7   97 174 
 RUS  HZ I         932 28.57         1.8 0.49                            97 174 
 PTB  HZ EP   1    932 10.50                             130    -0.3 7  144 260 
 PTB  HN ES   1    932 31.11                             130     0.1 7  144 260 
                                                                                
