 2017 1226 0129 34.1 L   6.792 -73.154143.5  RSN  6 0.4 1.4LRSN                1
 GAP=148        0.85       5.4     5.2  7.2 -0.1533E+02  0.1057E+02 -0.4754E+00E
 Epicentro: LOS SANTOS - SANTANDER                                             3
 ACTION:UPD 18-01-04 13:24 OP:rebc STATUS:               ID:20171226012934 L   I
 OLDACT:REG 17-12-26 12:52 OP:osc  STATUS:               ID:20171226012052     3
 2017-12-26-0128-00M.COL___469                                                 6
 STAT SP IPHASW D HRMM SECON CODA AMPLIT PERI AZIMU VELO AIN AR TRES W  DIS CAZ7
 BAR2 EZ EP        129 53.47                             171    0.0610 22.3 188 
 BAR2 EZ ES        130  8.38                             171   -0.1110 22.3 188 
 BAR2 EZ I         130  9.36         6.2 0.18            170           22.3 188 
 PAM  EZ EP        129 56.35                             150    0.2310 78.7  40 
 PAM  EN ES        130 13.45                             150    0.1210 78.7  40 
 PAM  EZ I         130 14.41         3.2 0.20            153           78.7  40 
 PTB  HZ EP        130  0.22                             132   -0.53 9  147 259 
 PTB  HN ES        130 21.20                             132   -0.36 9  147 259 
 PTB  HZ I         130 26.12         2.3 0.16            132            147 259 
 OCA  HE ES   2    130 23.50                             129   -0.78 5  161 354 
 SPBC HZ EP        130  2.57                             129    0.30 9  162 219 
 SPBC HE ES        130 24.45                             129    0.19 9  162 219 
 SPBC HZ I         130 26.95         6.2 0.36            130            162 219 
 ZAR  HE ES   2    130 32.73                             122    1.27 4  204 292 
                                                                                
