 2016 1026 0647 23.2 L   6.797 -73.113145.7  RSN 13 0.5 2.7LRSN                1
 GAP=141        0.94       2.9     3.7  4.9 -0.2956E+01  0.5512E+01  0.2611E+01E
 Epicentro: LOS SANTOS - SANTANDER                                             3
 ACTION:UPD 16-11-09 19:23 OP:rebc STATUS:               ID:20161026064723 L   I
 OLDACT:DUP 16-10-26 21:17 OP:cog  STATUS:               ID:20161026063744d    3
 2016-10-26-0638-00M.COL___328                                                 6
 STAT SP IPHASW D HRMM SECON CODA AMPLIT PERI AZIMU VELO AIN AR TRES W  DIS CAZ7
 BAR2 EZ EP        647 42.72                             170   -0.1610 23.9 199 
 BAR2 EZ ES        647 57.92                             170   -0.2710 23.9 199 
 BAR2 EZ I         648  0.58       134.4 0.30            168           23.9 199 
 BRR  HZ EP        647 44.60                             151    0.0210 74.6 297 
 BRR  HE ES        648  1.67                             151    0.4510 74.6 297 
 BRR  HZ I         648  5.58        69.4 0.26            150           74.6 297 
 PAM  EZ EP        647 45.54                             151    0.2010 75.4  37 
 PAM  EE ES        648  2.85                             151    0.2910 75.4  37 
 PAM  EZ I         648  5.96        50.0 0.50            156           75.4  37 
 RUS  HZ EP        647 46.64                             144   -0.3110  100 178 
 RUS  HE ES        648  5.33                             144   -0.1010  100 178 
 RUS  HZ I         648  6.83        35.0 0.24            146            100 178 
 PTB  HZ EP   3    647 49.69                             131   -0.84 2  151 259 
 PTB  HE ES        648 11.33                             131   -0.48 9  151 259 
 PTB  HZ I         648 17.35        37.6 0.16            132            151 259 
 OCA  HZ EP        647 51.27                             129   -0.36 9  161 352 
 OCA  HE ES        648 13.83                             129    0.06 9  161 352 
 OCA  HZ I         648 16.47       120.0 0.18            132            161 352 
 NOR  HZ EP        647 58.92                             118   -0.35 8  237 235 
 NOR  HE ES        648 26.60                             118   -0.76 8  237 235 
 NOR  HZ I         648 33.58        28.6 0.35            120            237 235 
 CHI  HZ EP        648  1.07                             117    0.06 8  249 196 
 CHI  HN ES        648 30.33                             117   -0.13 8  249 196 
 CHI  HZ I         648 35.55        21.7 0.30            119            249 196 
 ROSC BZ EP        648  1.61                             116    0.08 8  254 212 
 ROSC BE ES        648 32.66                             116    1.26 8  254 212 
 ROSC BZ I         648 37.41        80.0 0.40            118            254 212 
 HEL  HZ EP        648  4.01                             114    0.17 7  276 256 
 HEL  HN ES        648 34.96                             114   -0.54 7  276 256 
 HEL  HZ I         648 41.20        18.0 0.40            116            276 256 
 GUY2CHZ EP        648  7.36                             112    0.20 7  304 235 
 GUY2CHN ES   3    648 44.26                             112    2.84 2  304 235 
 GUY2CHZ I         648 48.96        29.4 0.34                           304 235 
 ELA  HZ EP   1    648 10.83                             110    0.45 5  332 230 
 ELA  HN ES        648 47.28                             110    0.13 7  332 230 
 ELA  HZ I         648 55.42        21.2 0.58            112            332 230 
 CBOC HZ EP        648 10.68                             110    0.14 7  337 252 
 CBOC HE ES        648 48.13                             110    0.70 7  337 252 
                                                                                
