 2010  726 0726 58.3 L   6.798 -73.085145.8  RSN  5 0.1 1.2LRSN                1
 GAP=165        0.42       3.4     7.2  8.7  0.6017E+01 -0.4465E+02 -0.1140E+02E
 Epicentro: LOS SANTOS - SANTANDER                                             3
 ACTION:UPD 10-12-01 15:20 OP:pat  STATUS:               ID:20100726072658 L   I
 2010-07-26-0724-37S.COL___123                                                 6
 STAT SP IPHASW D HRMM SECON CODA AMPLIT PERI AZIMU VELO AIN AR TRES W  DIS CAZ7
 BAR2 SZ EP   1    727 18.01                             170     0.0 7   25 206 
 BAR2 SZ I         727 33.86         5.4 0.23                            25 206 
 BRR  HZ IP     D  727 19.74                             151    -0.110   77 296 
 BRR  HN ES   1    727 36.70                             151     0.1 7   77 296 
 BRR  HZ I         727 40.15         5.4 0.06                            77 296 
 RUS  HZ EP   1    727 22.17                             144     0.1 7  100 180 
 RUS  HZ I         727 23.35         1.4 0.12                           100 180 
 RUS  HN ES   2    727 40.39                             144    -0.2 5  100 180 
 GUE  SZ IP        727 22.82                             140    -0.110  116   9 
 GRA  SZ IP        727 23.59                             137     0.210  124  14 
 GRA  SZ I         727 44.04         2.2 0.28                           124  14 
                                                                                
