 2015  226 0925 10.0 L   7.034 -73.524108.0  RSN  8 0.4 2.1LRSN                1
 GAP= 87        1.05       3.2     3.6  6.7 -0.4653E+00  0.8904E+01 -0.2739E+01E
 Epicentro: SAN VICENTE DE CHUCURI - SANTANDER                                 3
 ACTION:UPD 15-04-30 21:29 OP:nd   STATUS:               ID:20150226092510 L   I
 OLDACT:REG 15-02-26 12:50 OP:mher STATUS:               ID:20150226091737     3
 2015-02-26-0917-37M.COL___290                                                 6
 STAT SP IPHASW D HRMM SECON CODA AMPLIT PERI AZIMU VELO AIN AR TRES W  DIS CAZ7
 BRR  HZ EP        925 24.84                             167    0.0910 22.3 291 
 BRR  HN ES        925 36.13                             167   -0.1010 22.3 291 
 BRR  HZ I         925 37.89        29.3 0.17            168           22.3 291 
 BAR2 EZ EP   1    925 27.66                             148    0.72 7 61.7 142 
 BAR2 EZ ES   1    925 40.30                             148    0.17 7 61.7 142 
 BAR2 EZ I         925 42.09        43.5 0.18            150           61.7 142 
 PAM  SZ EP        925 30.39                             135    0.4110 97.1  70 
 PAM  SN ES        925 44.82                             135   -0.7210 97.1  70 
 PAM  SZ I         925 48.19        13.8 0.12            136           97.1  70 
 OCA  HZ EP   1    925 33.10                             124   -0.00 7  135  10 
 OCA  HN ES        925 51.04                             124   -0.0710  135  10 
 OCA  HZ I         925 57.32        20.7 0.24            126            135  10 
 ZAR  HZ EP        925 34.79                             120   -0.26 9  156 289 
 ZAR  HN ES        925 54.81                             120    0.24 9  156 289 
 SPBC HZ EP        925 36.23                             119    0.16 9  164 202 
 SPBC HN ES        925 56.35                             119   -0.04 9  164 202 
 SPBC HZ I         926  2.57        17.1 0.20            120            164 202 
 SML  HZ EP        925 40.18                             113   -0.19 9  205 343 
 SML  HN ES        926  4.87                             113    0.84 9  205 343 
 SML  HZ I         926  9.00        28.3 0.10            114            205 343 
 URE  HZ EP        925 42.89                             109   -1.04 8  236 290 
 URE  HN ES        926 10.38                             109    0.00 8  236 290 
                                                                                
