 2016 1026 0244  8.4 L   6.812 -73.142144.3  RSN 14 0.6 2.6LRSN                1
 GAP=136        1.28       3.7     4.9  6.4 -0.5243E+01  0.8549E+01  0.4362E+01E
 Epicentro: LOS SANTOS - SANTANDER                                             3
 ACTION:UPD 16-11-09 19:22 OP:rebc STATUS:               ID:20161026024408 L   I
 OLDACT:DUP 16-10-26 17:17 OP:cog  STATUS:               ID:20161026023742d    3
 2016-10-26-0238-00M.COL___337                                                 6
 STAT SP IPHASW D HRMM SECON CODA AMPLIT PERI AZIMU VELO AIN AR TRES W  DIS CAZ7
 BAR2 EZ EP        244 27.75                             170   -0.1210 24.7 190 
 BAR2 HN ES        244 43.11                             170    0.0410 24.7 190 
 BAR2 EZ I         244 43.75        87.9 0.36            168           24.7 190 
 BRR  HZ EP        244 29.38                             152    0.0110 71.0 297 
 BRR  HN ES        244 46.55                             152    0.8210 71.0 297 
 BRR  HZ I         244 49.06        49.6 0.30            150           71.0 297 
 PAM  EZ EP        244 30.62                             151    0.2510 76.1  40 
 PAM  EE ES        244 47.62                             151    0.1010 76.1  40 
 PAM  EZ I         244 49.89        58.0 0.52            155           76.1  40 
 RUS  HZ EP        244 31.70                             143   -0.3910  102 176 
 RUS  HE ES        244 50.65                             143    0.0710  102 176 
 RUS  HZ I         244 51.45        47.2 0.28            144            102 176 
 PTB  HZ EP        244 34.51                             131   -0.79 9  148 258 
 PTB  HN ES        244 55.30                             131   -0.99 9  148 258 
 PTB  HZ I         245  2.42        43.1 0.24            131            148 258 
 OCA  HZ EP        244 36.92                             129    0.45 9  159 353 
 OCA  HE ES        244 57.79                             129   -0.58 9  159 353 
 OCA  HZ I         245  0.11        95.0 0.28            131            159 353 
 SPBC HZ EP        244 36.62                             128   -0.28 9  164 219 
 SPBC HN ES        244 58.64                             128   -0.50 9  164 219 
 SPBC HZ I         245  1.43        38.2 0.20            129            164 219 
 NOR  HZ EP        244 43.80                             118   -0.36 8  236 234 
 NOR  HN ES        245 12.07                             118    0.02 8  236 234 
 NOR  HZ I         245 16.38        23.5 0.24            118            236 234 
 CHI  HZ EP        244 45.93                             117   -0.23 8  250 195 
 CHI  HN ES        245 15.14                             117   -0.48 8  250 195 
 CHI  HZ I         245 20.34        19.8 0.34            118            250 195 
 ROSC BZ EP        244 47.47                             116    0.89 8  254 211 
 ROSC BE ES        245 18.01                             116    1.64 8  254 211 
 ROSC BZ I         245 22.40        49.3 0.35            117            254 211 
 HEL  HZ EP        244 49.41                             114    0.80 8  273 256 
 HEL  HN ES        245 20.21                             114    0.22 8  273 256 
 HEL  HZ I         245 25.70        20.6 0.28            115            273 256 
 CBOC HZ EP        244 55.59                             109    0.25 7  334 252 
 CBOC HE ES        245 32.15                             109    0.19 7  334 252 
 CBOC HZ I         245 36.07         5.2 0.38            110            334 252 
 ANIL HZ EP   2    244 58.95                             108    0.66 3  359 224 
 ANIL HN ES   2    245 38.09                             108    0.89 3  359 224 
 ANIL HZ I         245 43.38        38.7 0.28            109            359 224 
 PRA  HZ EP        245  1.72                             106   -0.30 6  393 210 
 PRA  HE ES        245 43.31                             106   -0.54 6  393 210 
 PRA  HZ I         245 49.17        13.2 0.22            107            393 210 
                                                                                
