 2016  926 0727 29.8 L   6.795 -73.147150.4  RSN  9 0.4 1.7LRSN                1
 GAP=137        1.05       3.6     4.5  6.3 -0.1908E+01  0.5917E+01 -0.1747E+01E
 Epicentro: LOS SANTOS - SANTANDER                                             3
 *CRJC                                                                         3
 ACTION:UPD 17-08-17 21:16 OP:lp   STATUS:               ID:20160926072729 L   I
 OLDACT:UP  16-09-26 18:09 OP:dani STATUS:               ID:20160926071744d    3
 OLDACT:UP  16-09-26 18:08 OP:dani STATUS:               ID:20160926071744d    3
 OLDACT:DUP 16-09-26 18:04 OP:dani STATUS:               ID:20160926071744d    3
 2016-09-26-0718-00M.COL___327                                                 6
 STAT SP IPHASW D HRMM SECON CODA AMPLIT PERI AZIMU VELO AIN AR TRES W  DIS CAZ7
 BAR2 EZ EP        727 49.92                             171   -0.0810 22.8 190 
 BAR2 EZ ES        728  5.76                             171    0.0210 22.8 190 
 BAR2 EZ I         728  6.99         7.7 0.38            171           22.8 190 
 BRR  HZ EP     C  727 51.88                             153    0.4010 71.3 299 
 BRR  HN ES        728  9.14                             153    0.7710 71.3 299 
 BRR  HZ I         728 11.03         9.3 0.14            151           71.3 299 
 PAM  EZ EP        727 52.86                             151    0.3010 77.9  39 
 PAM  EE ES        728  9.71                             151   -0.5910 77.9  39 
 PAM  EZ I         728 12.57        10.7 0.58            154           77.9  39 
 RUS  HZ EP        727 54.28                             145    0.2910  100 176 
 RUS  HE ES        728 12.42                             145   -0.4310  100 176 
 RUS  HZ I         728 15.16         3.5 0.33            148            100 176 
 PTB  HZ EP        727 56.58                             133   -0.57 9  148 259 
 PTB  HN ES        728 17.95                             133   -0.51 9  148 259 
 PTB  HZ I         728 23.60         5.7 0.42            133            148 259 
 OCA  HZ EP        727 58.30                             131   -0.24 9  161 353 
 OCA  HN ES        728 21.15                             131    0.21 9  161 353 
 OCA  HZ I         728 25.92        10.0 0.18            132            161 353 
 SPBC HZ EP        727 58.79                             130    0.16 9  163 219 
 SPBC HN ES        728 21.56                             130    0.46 9  163 219 
 SPBC HZ I         728 25.44         5.8 0.12            132            163 219 
 ZAR  HZ EP        728  2.66                             123    0.08 9  204 292 
 ZAR  HE ES        728 27.72                             123   -0.41 9  204 292 
 ZAR  HZ I         728 35.59         4.8 0.24            124            204 292 
 SJC  HZ EP   4    728 24.20                             106   -1.38 0  410 327 
 SJC  HE ES   4    729  6.62                             106   -2.45 0  410 327 
 SJC  HZ I         729 11.83         1.2 0.18            108            410 327 
                                                                                
