 2017 1126 0329 35.1 L   6.087 -73.549125.5  RSN  5 0.4 1.1LRSN                1
 GAP= 99        0.98       5.2     4.3  9.3 -0.8886E+00  0.1686E+02  0.8093E+01E
 Epicentro: SAN BENITO - SANTANDER                                             3
 ACTION:UPD 17-12-12 20:00 OP:rebc STATUS:               ID:20171126032935 L   I
 OLDACT:REG 17-11-26 13:12 OP:dani STATUS:               ID:20171126032746     3
 2017-11-26-0328-00M.COL___492                                                 6
 STAT SP IPHASW D HRMM SECON CODA AMPLIT PERI AZIMU VELO AIN AR TRES W  DIS CAZ7
 RUS  HZ EP        329 53.79                             155   -0.1210 55.9 113 
 RUS  HE ES        330  8.60                             155    0.0010 55.9 113 
 RUS  HZ I         330  9.47         1.4 0.24            158           55.9 113 
 BAR2 EZ EP        329 54.55                             149    0.2610 69.0  36 
 BAR2 EZ ES        330  9.47                             149    0.2010 69.0  36 
 BAR2 EZ I         330 10.23         8.7 0.48            153           69.0  36 
 PTB  HZ EP        329 57.18                             135   -0.0310  112 297 
 PTB  HN ES        330 13.82                             135   -0.6410  112 297 
 PTB  HZ I         330 16.09         1.1 0.46            137            112 297 
 NOR  HZ EP        330  1.32                             125   -0.15 9  157 248 
 NOR  HZ ES        330 22.86                             125    0.81 9  157 248 
 NOR  HZ I         330 25.51         2.7 0.12            126            157 248 
 CHI  HN ES   1    330 23.31                             124   -0.52 7  162 187 
                                                                                
