 2013  626 0854 54.9 L   6.825 -73.163143.9  RSN  9 0.5 1.4LRSN                1
 GAP=133        1.11       5.3     5.4  9.2 -0.4174E+01  0.1394E+02 -0.1012E+02E
 Epicentro: LOS SANTOS - SANTANDER                                             3
 ACTION:UPD 14-01-08 09:57 OP:ep   STATUS:               ID:20130626085454 L   I
 OLDACT:REG 13-06-26 07:51 OP:jn   STATUS:               ID:20130626084959     3
 2013-06-26-0849-59M.COL___267                                                 6
 STAT SP IPHASW D HRMM SECON CODA AMPLIT PERI AZIMU VELO AIN AR TRES W  DIS CAZ7
 BAR2 SZ EP        855 14.47                             169    0.1010 25.8 185 
 BAR2 SZ ES   1    855 29.88                             169    0.34 7 25.8 185 
 BAR2 SZ I         855 33.22         3.7 0.28            171           25.8 185 
 GIR2 SZ EP        855 14.49                             168    0.2110 28.3 353 
 BRR  HZ EP     C  855 16.19                             153    0.5010 68.3 297 
 BRR  HN ES   1    855 32.38                             153    0.48 7 68.3 297 
 BRR  HZ I         855 37.39         5.0 0.13            153           68.3 297 
 PAM  SZ EP     D  855 17.36                             150    0.4910 76.6  42 
 PAM  SE ES        855 33.46                             150   -0.5510 76.6  42 
 PAM  SZ I         855 36.23         4.0 0.46            156           76.6  42 
 RUS  HN ES   1    855 36.93                             142   -0.30 7  103 175 
 RUS  HZ I         855 38.62         3.4 0.28            148            103 175 
 PTB  HZ EP        855 21.10                             132   -0.50 9  146 258 
 PTB  HN ES        855 41.79                             132   -0.64 9  146 258 
 PTB  HZ I         855 44.68         3.3 0.10            134            146 258 
 OCA  HE ES   1    855 44.16                             130   -0.39 7  157 354 
 ZAR  HE ES   1    855 52.98                             122    1.05 6  201 292 
 ZAR  HZ I         855 58.27         4.5 0.28            125            201 292 
 SML  HZ EP   1    855 30.93                             117   -0.14 6  240 335 
 SML  HN ES   1    855 58.60                             117   -0.68 6  240 335 
                                                                                
