 2016 1226 0531 31.6 L   6.715 -73.133147.4  RSN  8 0.4 1.5LRSN                1
 GAP=142        0.96       6.6     6.9  6.3  0.2122E+02  0.9993E+01  0.3755E+01E
 Epicentro: JORDAN - SANTANDER                                                 3
 ACTION:UPD 17-01-11 20:19 OP:rebc STATUS:               ID:20161226053131 L   I
 OLDACT:UP  16-12-26 17:12 OP:edw  STATUS:               ID:20161226052740     3
 OLDACT:UP  16-12-26 17:11 OP:edw  STATUS:               ID:20161226052740     3
 OLDACT:REG 16-12-26 12:47 OP:edw  STATUS:               ID:20161226052740     3
 2016-12-26-0528-00M.COL___366                                                 6
 STAT SP IPHASW D HRMM SECON CODA AMPLIT PERI AZIMU VELO AIN AR TRES W  DIS CAZ7
 BAR2 EZ EP     C  531 51.23                             174   -0.0210 14.6 202 
 BAR2 EZ ES        532  6.05                             174   -0.5510 14.6 202 
 BAR2 EZ I         532  7.61         5.2 0.20            177           14.6 202 
 BRR  HZ IP        531 53.19                             151   -0.0510 77.3 304 
 BRR  HZ EP     C  531 53.19                             151   -0.0510 77.3 304 
 BRR  HE ES        532 10.58                             151    0.4310 77.3 304 
 BRR  HZ I         532 13.46         2.9 0.12            150           77.3 304 
 PAM  EZ EP   9    531 54.05                             149   -0.31 0 84.1  35 
 PAM  EN ES        532 11.25                             147   -0.5910 84.1  35 
 PAM  EZ I         532 11.78         4.6 0.32            149           84.1  35 
 RUS  HZ EP        531 55.15                             147    0.3310 91.1 176 
 RUS  HN ES        532 13.20                             147    0.2410 91.1 176 
 RUS  HZ I         532 14.49         3.1 0.40            152           91.1 176 
 PTB  HZ EP        531 57.99                             132   -0.66 9  148 263 
 PTB  HN ES        532 19.83                             132    0.06 9  148 263 
 PTB  HZ I         532 21.92         4.4 0.28            134            148 263 
 ZAR  HZ EP   2    532  5.44                             122    0.81 4  209 294 
 ZAR  HN ES   2    532 30.65                             122    0.23 4  209 294 
 ZAR  HZ I         532 37.61         3.7 0.28            123            209 294 
 CHI  HN ES   4    532 38.87                             118    1.72 0  240 196 
 GUY2CHZ EP   4    532 17.18                             113    2.41 0  297 236 
 GUY2CHN ES   4    532 53.05                             113    4.58 0  297 236 
 GUY2CHZ I         532 56.37         1.8 0.40                           297 236 
 CBOC HZ EP   4    532 16.21                             110   -2.16 0  332 254 
 CBOC HE ES   4    532 40.16                             110   -14.7 0  332 254 
 CBOC HZ I         532 43.86         1.6 0.46            112            332 254 
                                                                                
