 2011 1026 0130 37.5 L   6.778 -73.088144.0  RSN 12 0.3 2.2LRSN                1
 GAP=145        0.48       2.6     3.1  4.1 -0.1654E+01  0.3229E+01  0.2069E+01E
 Epicentro: LOS SANTOS - SANTANDER                                             3
 ACTION:UPD 12-07-13 16:06 OP:ep   STATUS:               ID:20111026013037 L   I
 2011-10-26-0129-03S.COL___176                                                 6
 STAT SP IPHASW D HRMM SECON CODA AMPLIT PERI AZIMU VELO AIN AR TRES W  DIS CAZ7
 BAR2 SZ IP        130 56.86                             170   -0.1010 23.0 207 
 BAR2 SZ I         130 57.25        29.1 0.28                          23.0 207 
 BAR2 SZ ES   2    131 11.78                             170   -0.32 5 23.0 207 
 BTL  SZ EP   2    130 57.12                             170    0.11 5 25.2 308 
 PAM  SZ EP        130 59.69                             151    0.2210 75.5  35 
 PAM  SN ES   1    131 16.85                             151    0.29 7 75.5  35 
 BRR  HZ EP   1    130 58.71                             150   -0.19 7 77.9 298 
 BRR  HE ES   1    131 15.89                             150    0.33 7 77.9 298 
 BRR  HZ I         131 19.60        39.8 0.36                          77.9 298 
 RUS  HZ EP   1    131  0.74                             144   -0.19 7 97.9 180 
 RUS  HN ES   2    131 19.21                             144    0.04 5 97.9 180 
 RUS  HZ I         131 20.55         8.9 0.29                          97.9 180 
 OCA  SZ EP   1    131  5.60                             129   -0.44 7  164 351 
 OCA  SZ ES   2    131 27.61                             129   -0.65 5  164 351 
 OCA  SZ I         131 33.05        14.4 0.30                           164 351 
 ZAR  HZ EP   1    131 10.67                             121    0.08 6  211 292 
 ZAR  HN ES   2    131 36.25                             121   -0.11 4  211 292 
 ZAR  HZ I         131 40.80        23.0 0.42                           211 292 
 NOR  SN ES   2    131 41.73                             118    0.04 4  238 236 
 ROSC BZ EP   2    131 15.15                             116   -0.56 4  254 213 
 ROSC BZ I         131 54.45        15.3 0.46                           254 213 
 HEL  HZ EP   2    131 18.94                             114    0.65 4  278 257 
 HEL  HN ES   2    131 50.14                             114    0.07 4  278 257 
 HEL  HZ I         131 57.05         6.0 0.25                           278 257 
 RREF HZ EP   2    131 24.40                             110    0.41 3  325 230 
 RREF HN ES   2    132  0.29                             110    0.08 3  325 230 
 RREF HZ I         132  6.88         8.6 0.49                           325 230 
 PRA  HZ EP   1    131 31.44                             106    0.31 4  393 211 
 PRA  HN ES   2    132 12.58                             106   -0.34 3  393 211 
                                                                                
