 2012  226 0357 43.4 L   6.761 -73.164146.9  RSN  6 0.4 1.3LRSN                1
 GAP=136        0.78       6.8     7.0  7.8 -0.5353E+01  0.7194E+01  0.1611E+01E
 ACTION:UP  12-03-07 16:34 OP:epov STATUS:               ID:20120226035743 L   I
 2012-02-26-0350-00M.COL___192                                                 6
 STAT SP IPHASW D HRMM SECON CODA AMPLIT PERI AZIMU VELO AIN AR TRES W  DIS CAZ7
 BAR2 SZ EP   1    358  3.30                             172    0.20 7 18.8 186 
 BAR2 SZ ES   1    358 17.57                             172   -0.88 7 18.8 186 
 BAR2 SZ I         358 20.92         4.7 0.41                          18.8 186 
 GIR2 SZ EP   1    358  3.37                             166    0.03 7 35.2 355 
 GIR2 SZ ES   2    358 19.40                             166    0.53 5 35.2 355 
 BRR  HZ EP   1    358  5.09                             152    0.38 7 71.6 302 
 BRR  HZ I         358  5.54         6.1 0.39                          71.6 302 
 BRR  HN ES   2    358 21.78                             152    0.46 5 71.6 302 
 PAM  SZ EP   1    358  5.67                             149   -0.36 7 82.0  39 
 PAM  SN ES   2    358 23.68                             149    0.01 5 82.0  39 
 RUS  HZ EP   1    358  7.03                             145    0.04 7 96.5 175 
 RUS  HE ES   2    358 26.24                             145    0.86 5 96.5 175 
 RUS  HZ I         358 27.61         2.4 0.60                          96.5 175 
 PTB  HZ EP   1    358 10.16                             132   -0.07 7  145 260 
 PTB  HN ES   2    358 30.74                             132   -0.41 5  145 260 
                                                                                
