 2017  926 0249 16.8 L   6.771 -73.097148.2  RSN  7 0.4 1.2LRSN                1
 GAP=144        0.89       4.4     4.7  6.9 -0.5805E+01  0.7983E+01  0.3891E+01E
 Epicentro: LOS SANTOS - SANTANDER                                             3
 ACTION:UPD 17-10-05 19:16 OP:rebc STATUS:               ID:20170926024916 L   I
 OLDACT:REG 17-09-26 12:45 OP:osc  STATUS:               ID:20170926024741     3
 2017-09-26-0248-00M.COL___437                                                 6
 STAT SP IPHASW D HRMM SECON CODA AMPLIT PERI AZIMU VELO AIN AR TRES W  DIS CAZ7
 BAR2 EZ EP        249 36.43                             171   -0.2410 21.9 206 
 BAR2 EZ ES        249 51.83                             171   -0.3610 21.9 206 
 BAR2 EZ I         249 53.01         3.8 0.14            173           21.9 206 
 PAM  EZ EP        249 39.37                             151    0.1610 76.6  35 
 PAM  EZ I         249 57.09         1.8 0.32            140           76.6  35 
 PAM  EE ES        249 57.10                             151    0.3910 76.6  35 
 BRR  HZ EP        249 38.31                             151   -0.2410 77.5 299 
 BRR  HE ES        249 55.35                             151   -0.1810 77.5 299 
 BRR  HZ I         249 58.57         7.9 0.32            148           77.5 299 
 RUS  HZ EP        249 40.47                             145   -0.0610 97.2 179 
 RUS  HN ES        249 59.35                             145    0.3010 97.2 179 
 RUS  HZ I         250  3.39         1.1 0.28            141           97.2 179 
 ZAR  HE ES   2    250 16.81                             122    0.86 4  210 292 
 NOR  HE ES        250 20.61                             119   -0.51 8  237 236 
 NOR  HZ I         250 22.93         1.7 0.20            114            237 236 
 GUY2CHN ES        250 35.93                             112    0.80 7  304 236 
 GUY2CHZ I         250 43.19         0.7 0.48                           304 236 
                                                                                
