 2017 1026 0657 22.1 L   6.666 -74.085  1.1  RSN  4 0.2 0.8LRSN                1
 GAP=149        0.59       1.9     1.4  4.1 -0.7353E+00  0.2877E+00 -0.3269E-01E
 Epicentro: PUERTO PARRA - SANTANDER                                           3
 ACTION:UPD 17-11-07 19:37 OP:rebc STATUS:               ID:20171026065722 L   I
 OLDACT:DUP 17-10-26 19:30 OP:edw  STATUS:               ID:20171026064518d    3
 OLDACT:UP  17-10-26 19:21 OP:edw  STATUS:               ID:20171026064516     3
 OLDACT:UP  17-10-26 19:19 OP:edw  STATUS:               ID:20171026064516     3
 OLDACT:REG 17-10-26 13:14 OP:dani STATUS:               ID:20171026064516     3
 2017-10-26-0648-00M.COL___399                                                 6
 STAT SP IPHASW D HRMM SECON CODA AMPLIT PERI AZIMU VELO AIN AR TRES W  DIS CAZ7
 PTB  HZ IP        657 29.74                              47    0.0110 43.4 251 
 PTB  HN ES        657 35.62                              47   -0.0410 43.4 251 
 PTB  HZ I         657 35.75         3.1 0.18             47           43.4 251 
 BRR  HZ EP        657 32.79                              47   -0.0210 63.9  40 
 BRR  HN ES        657 41.24                              47    0.1010 63.9  40 
 BRR  HZ I         657 41.75         5.3 0.12             47           63.9  40 
 BAR2 EZ EP        657 38.19                              47   -0.3610  100  95 
 RUS  HZ EP        657 45.26                              47    0.41 9  140 128 
 RUS  HN ES        658  2.52                              47   -0.06 9  140 128 
 RUS  HZ I         658  4.73         2.5 0.22             47            140 128 
                                                                                
