 2011  326 0411 17.7 L   6.812 -73.063140.1  RSN  6 0.3 1.8LRSN                1
 GAP=174        0.83       7.2     9.5  9.2 -0.2119E+02 -0.2319E+02 -0.1021E+02E
 Epicentro: LOS SANTOS - SANTANDER                                             3
 ACTION:UP  11-06-16 14:35 OP:jfem STATUS:               ID:20110326041117 L   I
 2011-03-26-0407-55S.COL___139                                                 6
 STAT SP IPHASW D HRMM SECON CODA AMPLIT PERI AZIMU VELO SNR AR TRES W  DIS CAZ7
 BAR2 SZ IP        411 36.56                             168    -0.210   28 209 
 BAR2 SZ ES   1    411 51.60                             168     0.0 7   28 209 
 BAR2 SZ I         411 52.73        13.8 0.23                            28 209 
 GIR2 SZ EP        411 36.60                             166    -0.110   33 334 
 PAM  SZ EP   1    411 39.50                             152     0.6 7   71  34 
 PAM  SZ I         411 39.74         7.5 0.18                            71  34 
 BRR  HZ IP     D  411 38.42                             149    -0.310   79 295 
 BRR  HZ I         411 40.31        17.3 0.12                            79 295 
 BRR  HE ES   1    411 55.46                             149     0.4 7   79 295 
 GRA  SZ IP        411 42.40                             137     0.310  122  14 
 GRA  SZ ES   1    412  0.75                             137    -0.4 7  122  14 
 OCA  SZ EP   2    411 45.33                             128    -0.2 5  160 350 
 OCA  SZ I         412 22.24         7.2 0.49                           160 350 
                                                                                
