 2011  926 0015 46.0 L   7.150 -73.123142.6  RSN  7 0.4 2.2LRSN                1
 GAP=188        0.67       3.3     4.8  7.4  0.6199E+00  0.1371E+02  0.1383E+01E
 Epicentro: BUCARAMANGA - SANTANDER                                            3
 ACTION:UPD 12-07-13 15:59 OP:ep   STATUS:               ID:20110926001546 L   I
 2011-09-26-0012-22S.COL___164                                                 6
 STAT SP IPHASW D HRMM SECON CODA AMPLIT PERI AZIMU VELO AIN AR TRES W  DIS CAZ7
 BAR2 SZ EP   1    016  6.45                             155   -0.22 7 62.1 186 
 BAR2 SZ ES   1    016 23.31                             155    0.53 7 62.1 186 
 BAR2 SZ I         016 25.60        27.7 0.35                          62.1 186 
 BRR  HZ EP   1    016  6.79                             154    0.31 7 65.2 266 
 BRR  HZ I         016  7.48        45.0 0.15                          65.2 266 
 OCA  SZ EP   1    016 10.62                             137   -0.06 7  122 350 
 OCA  SZ ES   1    016 29.59                             137   -0.33 7  122 350 
 OCA  SZ I         016 31.72        27.3 0.22                           122 350 
 RUS  HZ EP   1    016 12.59                             133    0.00 7  139 178 
 RUS  HN ES   1    016 32.93                             133   -0.39 7  139 178 
 ZAR  HZ I         016 19.38        11.4 0.22                           195 281 
 ZAR  HN ES   1    016 41.97                             123    0.19 6  195 281 
 NOR  SZ EP   1    016 25.05                             115    0.63 6  261 228 
 NOR  SN ES   1    016 53.70                             115   -0.69 6  261 228 
 HEL  HZ EP   1    016 27.73                             113    0.07 6  286 248 
 HEL  HN ES   1    017  0.08                             113   -0.07 6  286 248 
                                                                                
