 2012 1226 0440 30.9 L   6.820 -73.160147.1  RSN 10 0.4 1.7LRSN                1
 GAP=134        0.89       3.6     5.4  6.8  0.1562E+01  0.1089E+02  0.8286E-01E
 Epicentro: LOS SANTOS - SANTANDER                                             3
 ACTION:UPD 13-01-04 14:30 OP:ep   STATUS:               ID:20121226044030 L   I
 2012-12-26-0440-00M.COL___242                                                 6
 STAT SP IPHASW D HRMM SECON CODA AMPLIT PERI AZIMU VELO AIN AR TRES W  DIS CAZ7
 BAR2 SZ EP        440 50.67                             170   -0.0510 25.3 186 
 BAR2 SZ ES   1    441  6.41                             170    0.22 7 25.3 186 
 BAR2 SZ I         441  6.93        16.3 0.28                          25.3 186 
 GIR2 SZ EP   1    440 50.71                             168    0.06 7 28.9 353 
 GIR2 SZ ES   1    441  5.49                             168   -0.59 7 28.9 353 
 BRR  HZ EP     C  440 52.45                             154    0.4010 68.8 298 
 BRR  HN ES   1    441  9.41                             154    0.86 7 68.8 298 
 BRR  HZ I         441 10.24         9.6 0.32                          68.8 298 
 PAM  SN ES   1    441 10.65                             151    0.04 7 76.7  41 
 PAM  SZ I         441 11.19         8.2 0.20                          76.7  41 
 RUS  HZ EP   1    440 54.68                             143   -0.25 7  103 175 
 RUS  HN ES   1    441 13.64                             143   -0.05 7  103 175 
 RUS  HZ I         441 17.26         2.0 0.34                           103 175 
 PTB  HZ EP   1    440 57.42                             132   -0.44 7  147 258 
 PTB  HN ES   1    441 18.34                             132   -0.57 7  147 258 
 PTB  HZ I         441 20.08         8.0 0.36                           147 258 
 OCA  HZ EP   1    440 59.88                             130    0.80 7  158 354 
 OCA  HN ES   1    441 20.39                             130   -0.68 7  158 354 
 OCA  HZ I         441 23.72         6.2 0.26                           158 354 
 ZAR  HZ EP   1    441  3.14                             123   -0.04 6  202 292 
 ZAR  HN ES   1    441 28.74                             123    0.36 6  202 292 
 ZAR  HZ I         441 34.48         8.3 0.64                           202 292 
 SML  HN ES   1    441 35.13                             118   -0.58 6  241 335 
 SML  HZ I         441 38.67         9.2 0.10                           241 335 
 CHI  HN ES   1    441 38.44                             117   -0.01 6  250 195 
                                                                                
