 2012  526 0743 36.5 L   6.796 -73.191144.5  RSN 11 0.2 2.5LRSN                1
 GAP=131        0.51       1.8     2.2  3.2 -0.8088E+00  0.2834E+01  0.3720E+00E
 Epicentro: ZAPATOCA - SANTANDER                                               3
 ACTION:UP  12-07-05 12:08 OP:pat  STATUS:               ID:20120526074336 L   I
 2012-05-26-0740-00M.COL___198                                                 6
 STAT SP IPHASW D HRMM SECON CODA AMPLIT PERI AZIMU VELO SNR AR TRES W  DIS CAZ7
 BAR2 SZ EP        743 56.20                             171     0.210   23 177 
 BAR2 SZ ES        744 11.12                             171    -0.110   23 177 
 BAR2 SZ I         744 13.32        87.4 0.36                            23 177 
 PAM  SZ EP        743 59.00                             149     0.210   81  42 
 PAM  SE ES        744 15.98                             149    -0.210   81  42 
 RUS  HZ EP        744  0.10                             143    -0.110  101 173 
 RUS  HN ES        744 18.81                             143     0.210  101 173 
 RUS  HZ I         744 20.59        40.9 0.44                           101 173 
 PTB  HZ EP        744  2.77                             133    -0.2 9  143 259 
 PTB  HE ES        744 23.76                             133     0.2 9  143 259 
 PTB  HZ I         744 25.98        32.4 0.26                           143 259 
 OCA  HZ EP   1    744  4.69                             129     0.0 7  160 355 
 OCA  HE ES   1    744 26.70                             129     0.0 7  160 355 
 OCA  HZ I         744 30.58        46.4 0.17                           160 355 
 ZAR  HZ EP   1    744  8.35                             123    -0.1 6  200 293 
 ZAR  HN ES   1    744 33.11                             123    -0.2 6  200 293 
 ZAR  HZ I         744 41.00        43.5 0.38                           200 293 
 NOR  SZ EP        744 11.89                             119     0.2 8  230 234 
 NOR  SN ES   1    744 39.11                             119    -0.1 6  230 234 
 CHI  HZ EP   1    744 13.98                             117     0.0 6  247 194 
 CHI  HN ES   1    744 42.75                             117    -0.4 6  247 194 
 CHI  HZ I         744 51.64        15.5 0.49                           247 194 
 HEL  HZ EP   1    744 16.50                             115     0.4 6  267 256 
 HEL  HN ES   1    744 46.87                             115    -0.1 6  267 256 
 HEL  HZ I         744 55.25        17.3 0.55                           267 256 
 RREF HZ EP   1    744 22.44                             111     0.3 5  318 229 
 RREF HN ES   1    744 57.66                             111    -0.1 5  318 229 
 RREF HZ I         745  7.45        19.7 0.45                           318 229 
 PRA  HZ EP   1    744 29.40                             106    -0.3 4  389 209 
 PRA  HN ES   1    745 10.59                             106    -0.5 4  389 209 
                                                                                
