 2013  526 0334 11.4 L   6.775 -73.123146.5  RSN  7 0.4 2.0LRSN                1
 GAP=202        0.77       4.7     5.4  6.0  0.5079E+01  0.7114E+01 -0.1763E+01E
 Epicentro: LOS SANTOS - SANTANDER                                             3
 ACTION:UPD 13-06-20 09:53 OP:ep   STATUS:               ID:20130526033411 L   I
 2013-05-26-0330-00M.COL___261                                                 6
 STAT SP IPHASW D HRMM SECON CODA AMPLIT PERI AZIMU VELO AIN AR TRES W  DIS CAZ7
 BAR2 SZ EP   1    334 31.10                             172    0.05 7 21.2 198 
 BAR2 SZ ES   1    334 45.94                             172   -0.46 7 21.2 198 
 BAR2 SZ I         334 47.86        14.0 0.16            172           21.2 198 
 BRR  HZ IP     C  334 33.16                             151    0.3610 74.8 299 
 BRR  HN ES        334 49.93                             151    0.4110 74.8 299 
 BRR  HN I         334 55.51        23.4 0.16            136           74.8 299 
 RUS  HZ EP   1    334 35.50                             145    0.52 7 97.6 177 
 RUS  HN ES        334 53.21                             145   -0.1910 97.6 177 
 RUS  HN I         334 55.25        10.0 0.22            143           97.6 177 
 PTB  HZ EP   1    334 38.35                             132   -0.22 7  150 260 
 PTB  HN ES   1    334 59.34                             132   -0.46 7  150 260 
 PTB  HN I         335  4.14        15.5 0.52            122            150 260 
 NOR  HZ EP   1    334 47.05                             119   -0.14 6  235 235 
 NOR  HE ES   1    335 15.13                             119    0.00 6  235 235 
 NOR  HE I         335 16.70        10.1 0.22            110            235 235 
 SML  HZ EP   1    334 47.55                             117   -0.87 6  247 335 
 SML  HN I         335 20.96        11.8 0.10            104            247 335 
 HEL  HZ EP   2    334 51.96                             115    0.15 4  274 257 
 HEL  HE ES   2    335 23.52                             115    0.16 4  274 257 
 HEL  HE I         335 30.08         5.3 0.58            105            274 257 
                                                                                
