 2016 1126 0237 24.2 L   6.778 -73.133152.9  RSN 11 0.6 1.9LRSN                1
 GAP= 71        1.15       5.5     3.5  6.9  0.4982E-01  0.2737E+01  0.1639E+02E
 Epicentro: LOS SANTOS - SANTANDER                                             3
 ACTION:UPD 17-10-26 21:11 OP:lp   STATUS:               ID:20161126023724 L   I
 OLDACT:UP  16-11-26 13:03 OP:dani STATUS:               ID:20161126022743     3
 OLDACT:UP  16-11-26 12:46 OP:dani STATUS:               ID:20161126022743     3
 OLDACT:UP  16-11-26 12:45 OP:dani STATUS:               ID:20161126022743     3
 OLDACT:UP  16-11-26 12:45 OP:dani STATUS:               ID:20161126022743     3
 OLDACT:UP  16-11-26 12:45 OP:dani STATUS:               ID:20161126022743     3
 OLDACT:UP  16-11-26 12:45 OP:dani STATUS:               ID:20161126022743     3
 OLDACT:REG 16-11-26 11:48 OP:dani STATUS:               ID:20161126022743     3
 2016-11-26-0228-00M.COL___349                                                 6
 STAT SP IPHASW D HRMM SECON CODA AMPLIT PERI AZIMU VELO AIN AR TRES W  DIS CAZ7
 BAR2 EZ EP        237 44.55                             172   -0.0610 21.3 195 
 BAR2 EZ ES        237 59.85                             172   -0.7110 21.3 195 
 BAR2 EZ I         238  8.49        17.0 0.48            167           21.3 195 
 BRR  HZ EP        237 46.59                             153    0.3810 73.6 300 
 BRR  HN ES        238  3.99                             153    0.5810 73.6 300 
 BRR  HZ I         238  9.20        10.7 0.16            154           73.6 300 
 PAM  EZ EP        237 47.46                             151    0.2610 78.4  38 
 PAM  EE ES        238  4.84                             151   -0.3210 78.4  38 
 PAM  EZ I         238  5.89         5.3 0.14            160           78.4  38 
 PTB  HZ EP        237 51.03                             133   -0.77 9  149 260 
 PTB  HN ES        238 12.73                             133   -0.63 9  149 260 
 PTB  HZ I         238 20.02        17.7 0.40            135            149 260 
 TAM  HZ EP        237 52.04                             132   -0.20 9  153 104 
 TAM  HE ES        238 14.74                             132    0.61 9  153 104 
 TAM  HZ I         238 15.00         9.6 0.27            139            153 104 
 ZAR  HZ EP        237 57.41                             123    0.11 8  206 293 
 ZAR  HN ES        238 23.08                             123   -0.07 8  206 293 
 ZAR  HZ I         238 31.47         6.9 0.20            127            206 293 
 NOR  HZ EP        238  0.34                             120    0.05 8  234 235 
 NOR  HN ES        238 29.17                             120    0.70 8  234 235 
 NOR  HZ I         238 32.32        11.4 0.20            122            234 235 
 CHI  HZ EP        238  2.91                             118    0.85 8  247 196 
 CHI  HN ES   4    238 33.91                             118    2.29 0  247 196 
 CHI  HZ I         238 40.34         3.5 0.32            121            247 196 
 PTGC HZ EP        238  7.44                             113   -0.60 7  306 159 
 PTGC HN ES   3    238 40.75                             113   -1.51 2  306 159 
 PTGC HZ I         238 42.14         5.5 0.25            117            306 159 
 PRA  HZ EP   3    238 16.09                             107   -1.69 1  391 210 
 PRA  HN ES        238 59.88                             107    0.29 6  391 210 
 PRA  HZ I         239  6.62         4.5 0.50            110            391 210 
 SJC  HZ EP   3    238 18.83                             106   -1.46 1  412 327 
 SJC  HN ES   4    239  0.17                             106   -3.90 0  412 327 
 SJC  HZ I         239  4.68         1.9 0.35            110            412 327 
                                                                                
