 2014  926 0441 44.4 L   6.576 -73.454116.7  RSN 11 0.4 1.9LRSN                1
 GAP= 65        0.97       2.3     3.4  5.1 -0.8160E+00  0.3231E+01 -0.7315E+00E
 Epicentro: EL CARMEN - SANTANDER                                              3
 ACTION:UPD 14-10-03 23:08 OP:nd   STATUS:               ID:20140926044144 L   I
 OLDACT:REG 14-09-26 14:18 OP:mh   STATUS:               ID:20140926043805     3
 2014-09-26-0438-05M.COL___286                                                 6
 STAT SP IPHASW D HRMM SECON CODA AMPLIT PERI AZIMU VELO AIN AR TRES W  DIS CAZ7
 BAR2 SZ EP        442  0.97                             165    0.2710 30.1  87 
 BAR2 SZ ES        442 13.56                             165    0.1210 30.1  87 
 BAR2 SZ I    1    442 15.40        36.8 0.27            169           30.1  87 
 BRR  HZ EP   1    442  2.14                             149    0.08 7 65.3 334 
 BRR  HN ES        442 16.57                             149    0.7110 65.3 334 
 BRR  HZ I         442 28.58        33.4 0.18            149           65.3 334 
 RUS  HZ EP        442  4.17                             141   -0.0410 86.0 151 
 RUS  HN ES        442 19.39                             141   -0.3010 86.0 151 
 RUS  HZ I         442 22.38         5.3 0.30            147           86.0 151 
 PTB  HZ EP   1    442  4.61                             133   -1.00 7  111 268 
 PTB  HN ES        442 22.05                             133   -0.1410  111 268 
 PTB  HZ I         442 24.05        11.7 0.10            135            111 268 
 PAM  SZ EP        442  6.82                             132   -0.1310  119  45 
 PAM  SN ES        442 24.26                             132   -0.3210  119  45 
 PAM  SZ I         442 27.29        10.0 0.42            136            119  45 
 SPBC HZ EP   1    442  6.65                             130   -0.16 7  123 214 
 SPBC HN ES        442 24.08                             130   -0.2510  123 214 
 OCA  HZ EP        442 12.91                             118   -0.23 9  184   5 
 OCA  HN ES        442 35.95                             118    0.36 9  184   5 
 OCA  HZ I         442 40.63         9.5 0.36            121            184   5 
 ZAR  HZ EP        442 13.51                             118    0.48 9  185 303 
 ZAR  HN ES   1    442 34.91                             118   -0.49 7  185 303 
 ZAR  HZ I         442 38.42         6.8 0.60            120            185 303 
 CHI  HZ EP        442 17.63                             114    0.54 8  217 188 
 CHI  HN ES        442 42.61                             114   -0.02 8  217 188 
 CHI  HZ I         442 46.82         3.8 0.34            118            217 188 
 SML  HZ EP        442 20.44                             110   -0.42 8  255 345 
 SML  HN ES   1    442 48.95                             110   -0.38 6  255 345 
 SML  HZ I         442 54.98        11.7 0.24            112            255 345 
 MON  HZ EP   4    442 29.08                             103   -2.24 0  345 315 
 MON  HN ES   4    443  5.85                             103   -2.11 0  345 315 
 PRA  HZ EP        442 33.47                             103    0.97 6  354 207 
 PRA  HN ES   4    443 11.62                             103    1.57 0  354 207 
 PRA  HZ I         443 16.51         3.5 0.22            106            354 207 
                                                                                
