 2012  926 0428 19.8 L   6.798 -73.119142.0  RSN  6 0.4 2.1LRSN                1
 GAP=140        0.61       4.4     4.8  6.5 -0.5099E+01  0.2144E+01  0.1169E+02E
 Epicentro: LOS SANTOS - SANTANDER                                             3
 ACTION:UPD 12-10-22 14:20 OP:ep   STATUS:               ID:20120926042819 L   I
 2012-09-26-0420-00M.COL___217                                                 6
 STAT SP IPHASW D HRMM SECON CODA AMPLIT PERI AZIMU VELO AIN AR TRES W  DIS CAZ7
 BAR2 SZ EP   1    428 38.59                             170   -0.35 7 23.8 197 
 BAR2 SZ ES   2    428 53.45                             170   -0.46 5 23.8 197 
 BAR2 SZ I         428 54.79        28.1 0.26                          23.8 197 
 BRR  HZ EP        428 40.49                             151   -0.1610 73.9 298 
 BRR  HZ I         428 40.66        17.0 0.22                          73.9 298 
 BRR  HE ES   1    428 57.41                             151    0.46 7 73.9 298 
 PAM  SZ EP   1    428 41.61                             151    0.14 7 75.7  38 
 PAM  SZ I         428 41.83        25.6 0.21                          75.7  38 
 PAM  SN ES        428 58.49                             151    0.0810 75.7  38 
 RUS  HZ EP   2    428 43.06                             143   -0.05 5  100 178 
 RUS  HE ES   2    429  1.35                             143    0.02 5  100 178 
 PTB  HE ES   2    429  7.31                             131   -0.37 5  151 259 
 CHI  HZ EP   1    428 57.25                             116   -0.06 6  249 196 
 CHI  HN ES   2    429 27.71                             116    1.10 4  249 196 
 CHI  HN I         429 29.99         8.1 0.28                           249 196 
                                                                                
