 2013  326 0406 46.4 L   6.797 -73.145144.6  RSN  8 0.3 1.7LRSN                1
 GAP=137        0.68       3.0     3.7  6.4 -0.1663E+01  0.6826E+01  0.1931E+01E
 Epicentro: LOS SANTOS - SANTANDER                                             3
 ACTION:UPD 13-04-09 14:04 OP:ep   STATUS:               ID:20130326040646 L   I
 2013-03-26-0400-00M.COL___244                                                 6
 STAT SP IPHASW D HRMM SECON CODA AMPLIT PERI AZIMU VELO AIN AR TRES W  DIS CAZ7
 BAR2 SZ EP        4 7  5.95                             171    0.0510 23.0 190 
 BAR2 SZ ES   1    4 7 21.07                             171   -0.03 7 23.0 190 
 BAR2 SZ I         4 7 23.75        16.4 0.28            170           23.0 190 
 PAM  SZ EP        4 7  8.78                             150    0.2610 77.6  39 
 PAM  SN ES   1    4 7 26.12                             150    0.36 7 77.6  39 
 PAM  SZ I         4 7 28.17         6.3 0.48            154           77.6  39 
 RUS  HZ EP     D  4 7  9.89                             144   -0.1410  100 176 
 RUS  HN ES   1    4 7 28.14                             144   -0.31 7  100 176 
 PTB  HZ EP   1    4 7 12.74                             132   -0.56 7  148 259 
 PTB  HN ES   1    4 7 33.90                             132   -0.36 7  148 259 
 PTB  HZ I         4 7 39.87         8.8 0.44            132            148 259 
 OCA  HN ES   1    4 7 36.18                             129   -0.52 7  161 353 
 OCA  HZ I         4 7 41.36         4.9 0.48            130            161 353 
 ZAR  HN ES   1    4 7 44.59                             122    0.52 6  204 292 
 ZAR  HZ I         4 7 50.71         4.4 0.26            123            204 292 
 NOR  HZ EP   1    4 7 22.18                             118    0.11 6  235 235 
 NOR  HN ES   1    4 7 50.26                             118    0.38 6  235 235 
 NOR  HZ I         4 7 53.73         4.3 0.22            120            235 235 
 CHI  HE ES   1    4 7 53.68                             117    0.33 6  248 195 
                                                                                
