 2014  926 0417 46.8 L   6.767 -73.167142.0  RSN  7 0.5 1.7LRSN                1
 GAP=135        1.17       5.4     5.7  9.7  0.6317E+00  0.1213E+02  0.2337E+02E
 Epicentro: LOS SANTOS - SANTANDER                                             3
 ACTION:UPD 14-10-03 23:08 OP:nd   STATUS:               ID:20140926041746 L   I
 OLDACT:DUP 14-09-26 19:24 OP:fm   STATUS:               ID:20140926041349d    3
 2014-09-26-0413-48M.COL___289                                                 6
 STAT SP IPHASW D HRMM SECON CODA AMPLIT PERI AZIMU VELO AIN AR TRES W  DIS CAZ7
 BRR  HZ EP        418  7.65                             152    0.1210 71.1 302 
 BRR  HN ES        418 24.31                             152    0.6110 71.1 302 
 BRR  HZ I         418 30.25         6.7 0.22            151           71.1 302 
 PAM  SZ EP   4    418  4.73                             149   -4.15 0 81.7  39 
 PAM  SN ES        418 25.89                             149   -0.2210 81.7  39 
 PAM  SZ I         418 27.63         3.6 0.28            153           81.7  39 
 RUS  HZ EP        418 10.06                             144    0.1310 97.1 175 
 RUS  HN ES   1    418 27.59                             144   -0.38 7 97.1 175 
 RUS  HZ I         418 29.38         4.6 0.38            148           97.1 175 
 PTB  HZ EP        418 12.49                             132   -0.70 9  145 260 
 PTB  HN ES        418 32.96                             132   -0.82 9  145 260 
 PTB  HZ I         418 37.01         6.4 0.12            133            145 260 
 SPBC HZ EP        418 14.63                             129    0.03 9  159 219 
 SPBC HN ES        418 36.99                             129    0.71 9  159 219 
 SPBC HZ I         418 39.35         9.2 0.42            131            159 219 
 ZAR  HN ES        418 44.23                             122    0.24 9  203 293 
 ZAR  HZ I         418 49.95         7.1 0.10            123            203 293 
 PRA  HZ EP        418 40.41                             106    0.73 6  388 210 
 PRA  HN ES        419 20.47                             106   -0.46 6  388 210 
 PRA  HZ I         419 25.55         2.0 0.26            108            388 210 
                                                                                
