 2017 1126 0151 34.1 L   6.553 -73.543107.6  RSN 18 0.7 2.3LRSN                1
 GAP= 76        1.49       3.4     4.0  7.8 -0.4759E+00  0.1232E+02 -0.2265E+01E
 Epicentro: EL CARMEN - SANTANDER                                              3
 ACTION:UPD 17-12-12 20:00 OP:rebc STATUS:               ID:20171126015134 L   I
 OLDACT:UP  17-11-26 16:54 OP:dani STATUS:               ID:20171126014735     3
 OLDACT:REG 17-11-26 12:59 OP:dani STATUS:               ID:20171126014735     3
 2017-11-26-0148-00M.COL___483                                                 6
 STAT SP IPHASW D HRMM SECON CODA AMPLIT PERI AZIMU VELO AIN AR TRES W  DIS CAZ7
 BAR2 EZ IP     C  151 49.84                             158    0.0810 40.1  84 
 BAR2 EZ ES        152  1.94                             158   -0.0510 40.1  84 
 RUS  HZ EP        151 52.70                             137   -0.6310 89.0 145 
 RUS  HN ES        152  8.18                             137   -0.1710 89.0 145 
 RUS  HZ I         152  9.78        25.2 0.44            140           89.0 145 
 PTB  HZ IP   9 D  151 52.58                             133   -1.12 0  101 269 
 PTB  HN ES        152  7.42                             133   -0.4710  101 269 
 PTB  HZ I         152 11.92        26.4 0.26            133            101 269 
 SPBC HZ EP        151 54.59                             129   -0.5510  116 210 
 SPBC HN ES        152 11.44                             129   -0.1310  116 210 
 SPBC HZ I         152 18.22        51.7 0.18            129            116 210 
 ZAR  HZ EP        152  1.79                             116    0.25 9  179 306 
 ZAR  HN ES   3    152 24.93                             116    1.98 2  179 306 
 ZAR  HZ I         152 26.34        50.8 0.38            118            179 306 
 YPLC HZ EP     C  152  1.66                             115   -0.28 9  181 135 
 YPLC HE ES        152 24.22                             115    0.55 9  181 135 
 YPLC HZ I         152 25.48        24.9 0.44            118            181 135 
 NOR  HZ EP        152  1.27                             115   -0.82 9  183 233 
 NOR  HN ES   3    152 22.29                             115   -1.65 2  183 233 
 NOR  HZ I         152 26.10        22.5 0.22            116            183 233 
 OCA  HZ EP        152  1.98                             114   -0.79 9  188   8 
 OCA  HN ES        152 26.52                             114    1.38 9  188   8 
 ROSC BZ EP        152  5.86                             112    0.55 8  208 204 
 ROSC BE ES        152 31.19                             112    1.53 8  208 204 
 ROSC BZ I         152 34.11        15.6 0.30            113            208 204 
 CHI  HZ EP        152  5.90                             111   -0.07 8  214 186 
 CHI  HN ES        152 30.22                             111   -0.63 8  214 186 
 CHI  HZ I         152 34.37         9.4 0.54            113            214 186 
 HEL  HZ EP        152  6.80                             110   -0.21 8  223 260 
 HEL  HN ES        152 32.90                             110    0.20 8  223 260 
 HEL  HZ I         152 35.44        10.7 0.34            112            223 260 
 GUY2CHZ EP        152 10.63                             108    0.46 8  250 234 
 GUY2CHE ES        152 39.66                             108    1.34 8  250 234 
 GUY2CHZ I         152 43.21        12.8 0.36                           250 234 
 URE  HZ EP        152  9.84                             107   -0.58 8  257 301 
 URE  HN ES        152 37.32                             107   -1.44 8  257 301 
 URE  HZ I         152 46.51        16.9 0.18            109            257 301 
 CBOC HZ EP        152 14.33                             105    0.55 7  284 255 
 CBOC HN ES        152 44.43                             105   -0.32 7  284 255 
 CBOC HZ I         152 48.73         6.3 0.32            106            284 255 
 PTGC HZ EP   3    152 14.18                             103   -1.74 2  304 149 
 PTGC HE ES   4    152 45.79                             103   -2.77 0  304 149 
 PTGC HZ I         152 54.01        18.1 0.42            105            304 149 
 DRL03HZ EP        152 17.62                             103    0.47 7  314   1 
 DRL03HN ES   3    152 52.50                             103    1.75 2  314   1 
 PRA  HZ EP        152 20.96                             101   -0.25 6  347 205 
 PRA  HN ES        152 57.72                             101   -0.25 6  347 205 
 PRA  HZ I         153  1.26        14.5 0.24            102            347 205 
 ORTC HZ EP        152 21.65                             101    0.38 6  348 213 
 ORTC HE ES   4    152 59.89                             101    1.81 0  348 213 
 ORTC HZ I         153  6.34         8.2 0.34            102            348 213 
                                                                                
