 2011 1026 0229 46.4 L   7.038 -73.493108.6  RSN 15 0.3 2.7LRSN                1
 GAP= 80        0.37       1.5     1.7  3.3 -0.3606E+00  0.1892E+01  0.1292E+01E
 Epicentro: SAN VICENTE DE CHUCURI - SANTANDER                                 3
 ACTION:UPD 12-07-13 16:06 OP:ep   STATUS:               ID:20111026022946 L   I
 2011-10-26-0228-07S.COL___175                                                 6
 STAT SP IPHASW D HRMM SECON CODA AMPLIT PERI AZIMU VELO AIN AR TRES W  DIS CAZ7
 BRR  HZ EP        230  1.33                             166    0.0010 25.4 288 
 BRR  HZ I         230  1.57       271.4 0.13                          25.4 288 
 BRR  HE ES   2    230 13.04                             166    0.10 5 25.4 288 
 BAR2 SZ IP        230  3.52                             149    0.2110 60.0 145 
 BAR2 SZ ES   2    230 16.66                             149    0.19 5 60.0 145 
 BAR2 SZ I         230 18.44       198.9 0.37                          60.0 145 
 PAM  SZ IP        230  6.17                             137    0.0010 93.7  69 
 PAM  SN ES   1    230 21.37                             137   -0.18 7 93.7  69 
 RUS  HN ES   2    230 28.21                             125   -0.07 5  134 160 
 RUS  HZ I         230 30.48        41.8 0.23                           134 160 
 OCA  SZ IP        230  9.35                             125   -0.1310  134   8 
 OCA  SZ ES   2    230 27.48                             125    0.04 5  134   8 
 RUS  HZ EP   1    230  9.80                             125   -0.15 7  134 160 
 ZAR  HZ EP   2    230 12.18                             120    0.34 5  159 289 
 ZAR  HE ES   2    230 32.04                             120    0.40 5  159 289 
 ZAR  HZ I         230 35.80       135.1 0.39                           159 289 
 YOP  SZ EP   2    230 18.71                             111   -0.09 4  221 147 
 YOP  SE ES   2    230 43.72                             111   -0.31 4  221 147 
 YOP  SZ I         230 53.47        22.8 0.48                           221 147 
 NOR  SZ EP   1    230 18.61                             111   -0.38 6  223 223 
 NOR  SN ES   2    230 43.92                             111   -0.46 4  223 223 
 HEL  HZ EP   2    230 21.84                             109    0.06 4  244 248 
 HEL  HN ES   2    230 48.88                             109   -0.45 4  244 248 
 HEL  HZ I         230 54.11        50.9 0.43                           244 248 
 ROSC BZ EP   2    230 23.68                             107    0.03 4  260 201 
 ROSC BN ES   2    230 53.05                             107    0.39 4  260 201 
 ROSC BZ I         231  1.96        45.0 0.49                           260 201 
 GUY  SZ EP   2    230 27.11                             105   -0.24 4  290 226 
 GUY  SE ES   2    230 58.99                             105   -0.27 4  290 226 
 GUY  SZ I         231  6.64        48.4 0.48                           290 226 
 RREF HZ EP   2    230 30.24                             103    0.02 3  313 221 
 RREF HE ES   2    231  4.37                             103    0.00 3  313 221 
 RREF HZ I         231 11.32        21.8 0.40                           313 221 
 VIL  SZ EP   2    230 31.35                             103    0.41 3  324 184 
 VIL  SN ES   2    231  6.01                             103    0.37 3  324 184 
 VIL  SZ I         231 15.28        23.9 0.50                           324 184 
 TOL  SZ EP   2    230 33.43                             102    0.56 3  338 217 
 PRA  HZ EP   2    230 40.32                              99    0.57 3  399 203 
 PRA  HN ES   2    231 21.61                              99    0.29 3  399 203 
                                                                                
