 2017 1026 0756 41.0 L   6.757 -73.147141.3  RSN 10 0.6 1.4LRSN                1
 GAP=113        1.51       4.9     5.5  8.3  0.4142E+01  0.8831E+01  0.1087E+02E
 Epicentro: LOS SANTOS - SANTANDER                                             3
 ACTION:UPD 17-11-07 19:37 OP:rebc STATUS:               ID:20171026075641 L   I
 OLDACT:UP  17-10-26 17:36 OP:edw  STATUS:               ID:20171026074700     3
 OLDACT:REG 17-10-26 13:23 OP:dani STATUS:               ID:20171026074700     3
 2017-10-26-0748-00M.COL___387                                                 6
 STAT SP IPHASW D HRMM SECON CODA AMPLIT PERI AZIMU VELO AIN AR TRES W  DIS CAZ7
 BAR2 EZ EP        756 59.84                             172   -0.1810 18.6 192 
 BAR2 EZ ES        757 14.24                             172   -0.6010 18.6 192 
 BAR2 EZ I         757 16.51         5.4 0.20            171           18.6 192 
 BRR  HZ EP        757  1.63                             151   -0.1810 73.4 302 
 BRR  HN ES        757 18.65                             151    0.6210 73.4 302 
 BRR  HZ I         757 19.35         5.0 0.12            151           73.4 302 
 PAM  EZ EP        757  2.85                             149   -0.1410 81.2  38 
 PAM  EN ES        757 19.93                             149   -0.2110 81.2  38 
 PAM  EZ I         757 21.97         7.4 0.52            152           81.2  38 
 RUS  HZ EP        757  4.00                             144    0.0210 95.9 176 
 RUS  HN ES        757 23.23                             144    1.3310 95.9 176 
 RUS  HZ I         757 23.52         1.9 0.26            145           95.9 176 
 PTB  HZ EP        757  6.46                             131   -1.06 9  147 261 
 PTB  HN ES        757 27.49                             131   -0.71 9  147 261 
 PTB  HZ I         757 33.18         1.2 0.34            131            147 261 
 SPBC HZ EP        757  8.75                             129   -0.06 9  159 220 
 SPBC HN ES        757 30.92                             129    0.43 9  159 220 
 SPBC HZ I         757 34.02         4.3 0.12            129            159 220 
 YPLC HZ EP        757 10.16                             126    0.08 9  173 151 
 YPLC HE ES        757 32.69                             126   -0.07 9  173 151 
 YPLC HZ I         757 35.12         2.1 0.26            128            173 151 
 ZAR  HZ EP        757 14.09                             121    0.75 8  206 293 
 ZAR  HE ES        757 39.08                             121    0.52 8  206 293 
 ZAR  HZ I         757 44.30         4.0 0.50            122            206 293 
 CHI  HZ EP        757 18.30                             117    0.34 8  244 195 
 CHI  HE ES        757 45.47                             117   -1.31 8  244 195 
 PRA  HZ EP        757 34.67                             106    0.79 6  388 210 
 PRA  HE ES        758 15.08                             106   -0.05 6  388 210 
 PRA  HZ I         758 18.61         1.0 0.34            107            388 210 
                                                                                
