 2017  226 0708 29.6 L   6.802 -73.173145.5  RSN  5 0.2 1.4LRSN                1
 GAP=133        0.66       3.5     3.4  4.8 -0.1125E+01  0.1938E+01  0.8173E+00E
 Epicentro: LOS SANTOS - SANTANDER                                             3
 ACTION:UPD 17-05-24 15:40 OP:jn   STATUS:               ID:20170226070829 L   I
 OLDACT:REG 17-02-26 12:07 OP:lv   STATUS:               ID:20170226070646     3
 2017-02-26-0707-00M.COL___363                                                 6
 STAT SP IPHASW D HRMM SECON CODA AMPLIT PERI AZIMU VELO AIN AR TRES W  DIS CAZ7
 BAR2 EZ EP        7 8 49.15                             170   -0.0310 23.3 183 
 BAR2 EZ ES        7 9  4.28                             170   -0.1810 23.3 183 
 BAR2 EZ I         7 9  5.58         8.5 0.23            170           23.3 183 
 BRR  HZ EP        7 8 50.93                             153    0.3810 68.4 300 
 BRR  HN ES        7 9  7.21                             153    0.3110 68.4 300 
 BRR  HZ I         7 9  8.53         8.3 0.15            154           68.4 300 
 PAM  EZ EP        7 8 51.96                             150    0.0910 79.1  41 
 PAM  EN ES        7 9  8.99                             150   -0.2710 79.1  41 
 PAM  EZ I         7 9 10.44         4.4 0.13            152           79.1  41 
 RUS  HZ EP        7 8 53.25                             144   -0.0910  101 174 
 RUS  HN ES        7 9 12.13                             144    0.2510  101 174 
 RUS  HZ I         7 9 13.63         2.1 0.24            145            101 174 
 PTB  HZ EP        7 8 56.00                             133   -0.26 9  145 258 
 PTB  HN ES        7 9 16.81                             133   -0.27 9  145 258 
 PTB  HZ I         7 9 19.15         3.3 0.13            134            145 258 
 SJC  HZ EP   4    7 9 23.56                             106   -1.35 0  407 327 
 SJC  HN ES   4    710  4.15                             106   -3.92 0  407 327 
                                                                                
