 2013  926 0405 14.3 L   6.795 -73.177145.0  RSN  5 0.4 1.6LRSN                1
 GAP=180        0.98       4.6     6.2 11.2  0.6967E+01  0.5673E+01 -0.3652E+01E
 Epicentro: LOS SANTOS - SANTANDER                                             3
 ACTION:UPD 13-10-22 09:25 OP:ep   STATUS:               ID:20130926040514 L   I
 OLDACT:REG 13-09-26 08:48 OP:mh   STATUS:               ID:20130926035959     3
 2013-09-26-0359-59M.COL___272                                                 6
 STAT SP IPHASW D HRMM SECON CODA AMPLIT PERI AZIMU VELO AIN AR TRES W  DIS CAZ7
 BRR  HZ EP   1    4 5 35.57                             153    0.35 7 68.5 300 
 BRR  HN ES        4 5 51.94                             153    0.4110 68.5 300 
 BRR  HZ I         4 5 56.10         9.3 0.12            159           68.5 300 
 RUS  HZ EP   1    4 5 38.38                             144    0.42 7  100 174 
 RUS  HN ES        4 5 56.30                             144   -0.1110  100 174 
 RUS  HZ I         4 5 58.04         2.4 0.32            148            100 174 
 PTB  HZ EP   1    4 5 40.53                             133   -0.36 7  144 259 
 PTB  HN ES        4 6  1.04                             133   -0.59 9  144 259 
 PTB  HZ I         4 6  4.88         4.0 0.22            139            144 259 
 OCA  HN ES        4 6  4.15                             129   -0.48 9  160 354 
 ZAR  HZ I         4 6  5.15        14.4 0.22            129            201 293 
 ZAR  HN ES        4 6 11.90                             123    0.48 9  201 293 
                                                                                
