 2015  726 0814 41.5 L   6.756 -73.158137.7  RSN  5 0.4 1.4LRSN                1
 GAP=137        0.89       3.8     5.4  7.8  0.3419E+00  0.1787E+02 -0.6978E+01E
 Epicentro: LOS SANTOS - SANTANDER                                             3
 ACTION:UPD 15-09-08 21:50 OP:cam  STATUS:               ID:20150726081441 L   I
 OLDACT:UP  15-07-26 16:57 OP:ak   STATUS:               ID:20150726080750d    3
 OLDACT:UP  15-07-26 16:55 OP:ak   STATUS:               ID:20150726080750d    3
 OLDACT:DUP 15-07-26 16:42 OP:ak   STATUS:               ID:20150726080750d    3
 2015-07-26-0807-49M.COL___340                                                 6
 STAT SP IPHASW D HRMM SECON CODA AMPLIT PERI AZIMU VELO AIN AR TRES W  DIS CAZ7
 BAR2 EZ EP        815  0.31                             172    0.2710 18.3 188 
 BAR2 EZ ES        815 14.48                             172   -0.0410 18.3 188 
 BAR2 EZ I         815 17.34         4.1 0.06            171           18.3 188 
 PAM  EZ EP        815  3.49                             148    0.3610 82.0  38 
 PAM  EN ES        815 20.20                             148    0.1810 82.0  38 
 PAM  EZ I         815 21.32         2.7 0.22            152           82.0  38 
 RUS  HZ EP   1    815  3.35                             143   -0.74 7 95.8 175 
 RUS  HN ES        815 21.65                             143   -0.0810 95.8 175 
 RUS  HZ I         815 24.46         3.2 0.21            147           95.8 175 
 OCA  HZ EP   2    815 10.15                             127    0.53 5  165 354 
 OCA  HE ES        815 30.88                             127   -0.70 9  165 354 
 OCA  HZ I         815 34.80         6.3 0.28            129            165 354 
 ZAR  HZ EP        815 13.40                             120   -0.07 9  205 294 
 ZAR  HN ES        815 38.75                             120    0.32 9  205 294 
 ZAR  HZ I         815 44.61         2.9 0.22            122            205 294 
 ZAR  HZ E      D  815 44.61                                            205 294 
                                                                                
