 2016 1126 0807 58.0 L   6.798 -73.163146.8  RSN  7 0.4 1.8LRSN                1
 GAP=145        1.02       5.1     4.6  6.5 -0.2268E+01  0.5141E+01  0.5546E+01E
 Epicentro: LOS SANTOS - SANTANDER                                             3
 ACTION:UPD 17-10-26 21:12 OP:lp   STATUS:               ID:20161126080758 L   I
 OLDACT:UP  16-11-26 15:51 OP:dani STATUS:               ID:20161126075745     3
 OLDACT:REG 16-11-26 12:13 OP:dani STATUS:               ID:20161126075745     3
 2016-11-26-0758-00M.COL___349                                                 6
 STAT SP IPHASW D HRMM SECON CODA AMPLIT PERI AZIMU VELO AIN AR TRES W  DIS CAZ7
 BAR2 EZ EP        8 8 17.65                             171   -0.1210 22.9 185 
 BAR2 EZ ES        8 8 32.47                             171   -0.7010 22.9 185 
 BAR2 EZ I         8 8 35.45        16.9 0.30            167           22.9 185 
 BRR  HZ EP        8 8 19.54                             153    0.3410 69.6 299 
 BRR  HN ES        8 8 36.40                             153    0.6910 69.6 299 
 BRR  HZ I         8 8 37.43         9.8 0.26            153           69.6 299 
 PAM  EZ EP        8 8 20.57                             151    0.1410 78.7  41 
 PAM  EE ES        8 8 37.94                             151    0.0410 78.7  41 
 PAM  EZ I         8 8 40.72         6.6 0.34            157           78.7  41 
 PTB  HZ EP        8 8 24.38                             133   -0.53 9  146 259 
 PTB  HE ES        8 8 46.16                             133    0.29 9  146 259 
 PTB  HZ I         8 8 52.82         5.0 0.28            132            146 259 
 ZAR  HZ EP        8 8 30.37                             123    0.01 9  202 292 
 ZAR  HE ES        8 8 54.95                             123   -0.64 9  202 292 
 ZAR  HZ I         8 9  0.84         5.8 0.31            124            202 292 
 CHI  HZ EP        8 8 35.96                             117    0.25 8  248 195 
 CHI  HN ES   1    8 9  5.43                             117    0.33 6  248 195 
 CHI  HZ I         8 9 10.43         2.6 0.21            118            248 195 
 ROSC BZ EP   9    8 8 37.84                             117    1.76 0  252 211 
 ROSC BN ES        8 9  7.70                             116    0.18 8  252 211 
 ROSC BZ I         8 9 12.52         9.0 0.48            117            252 211 
                                                                                
