 2016 1026 0609 50.5 L   6.763 -73.170137.2  RSN  5 0.4 1.2LRSN                1
 GAP=135        1.01       5.1     5.0  7.4 -0.2255E+01  0.4938E+01  0.1572E+01E
 Epicentro: LOS SANTOS - SANTANDER                                             3
 ACTION:UPD 16-11-09 19:23 OP:rebc STATUS:               ID:20161026060950 L   I
 OLDACT:REG 16-10-26 13:39 OP:cog  STATUS:               ID:20161026060745     3
 2016-10-26-0608-00M.COL___328                                                 6
 STAT SP IPHASW D HRMM SECON CODA AMPLIT PERI AZIMU VELO AIN AR TRES W  DIS CAZ7
 BAR2 EZ EP        610  8.82                             172   -0.2310 19.0 184 
 BAR2 EZ ES        610 22.88                             172   -0.6110 19.0 184 
 BAR2 EZ I         610 25.46         8.5 0.36            172           19.0 184 
 BRR  HZ EP        610 10.94                             151    0.1910 71.0 302 
 BRR  HN ES        610 27.23                             151    0.7110 71.0 302 
 BRR  HZ I         610 28.02         3.4 0.53            152           71.0 302 
 PAM  EZ EP        610 12.22                             148    0.0610 82.2  39 
 PAM  EE ES        610 28.84                             148   -0.1810 82.2  39 
 PAM  EZ I         610 31.09         5.3 0.32            150           82.2  39 
 RUS  HZ EP        610 13.27                             143    0.1010 96.8 174 
 RUS  HE ES        610 31.30                             143    0.4810 96.8 174 
 RUS  HZ I         610 33.03         1.2 0.20            145           96.8 174 
 PTB  HZ EP        610 16.28                             131   -0.22 9  144 260 
 PTB  HN ES        610 36.39                             131   -0.37 9  144 260 
 PTB  HZ I         610 39.88         2.2 0.30            132            144 260 
                                                                                
