 2012  326 0351 57.3 L   6.108 -73.722118.1  RSN  6 0.5 1.4LRSN                1
 GAP=136        0.78       7.9     6.5 15.0  0.2067E+02  0.5178E+02  0.6546E+02E
 ACTION:UP  12-03-31 23:22 OP:EP   STATUS:               ID:20120326035157 L   I
 2012-03-26-0350-00M.COL___196                                                 6
 STAT SP IPHASW D HRMM SECON CODA AMPLIT PERI AZIMU VELO SNR AR TRES W  DIS CAZ7
 RUS  HZ EP        352 16.48                             145     0.010   75 109 
 RUS  HN ES   3    352 30.33                             145    -1.1 2   75 109 
 BAR2 SZ EP        352 16.88                             143     0.310   80  48 
 BAR2 SZ I         352 17.26        11.5 0.56                            80  48 
 BAR2 SZ ES   1    352 31.25                             143    -0.3 7   80  48 
 PTB  HZ EP        352 17.17                             138    -0.110   94 300 
 PTB  HN ES   3    352 32.08                             138    -0.8 2   94 300 
 PTB  HZ I         352 35.88         2.1 0.40                            94 300 
 BRR  HZ I         352 24.92         5.1 0.12                           111   1 
 BRR  HN ES   1    352 35.63                             133     0.3 7  111   1 
 NOR  SE ES   3    352 41.89                             126     1.5 2  141 245 
 ZAR  HZ EP   2    352 26.77                             116    -0.7 4  198 321 
 ZAR  HN ES   3    352 49.91                             116    -1.1 2  198 321 
                                                                                
