 2013  526 0615 51.8 L   6.632 -73.118 32.0  RSN  8 0.5 1.9LRSN                1
 GAP=147        1.18       3.1     4.0  6.6  0.6540E+00  0.2066E+01 -0.2875E+01E
 Epicentro: CURITI - SANTANDER                                                 3
 ACTION:UPD 13-06-20 09:53 OP:ep   STATUS:               ID:20130526061551 L   I
 2013-05-26-0610-00M.COL___261                                                 6
 STAT SP IPHASW D HRMM SECON CODA AMPLIT PERI AZIMU VELO AIN AR TRES W  DIS CAZ7
 BAR2 SZ EP        615 57.54                             163    0.0310 8.42 238 
 BAR2 SZ ES   1    616  1.55                             163   -0.41 7 8.42 238 
 BAR2 SZ I         616  2.69       182.8 0.30            165           8.42 238 
 GIR2 SZ EP   1    616  0.77                              96   -0.36 7 50.1 350 
 GIR2 SZ I         616  8.07        18.6 0.10            115           50.1 350 
 RUS  HZ IP     D  616  6.16                              91    0.6310 81.9 177 
 RUS  HN ES        616 15.75                              91   -0.4910 81.9 177 
 RUS  HN I         616 19.36        27.4 0.34             61           81.9 177 
 BRR  HZ IP     D  616  5.10                              91   -0.1110 84.1 309 
 BRR  HN ES        616 15.49                              91   -0.1810 84.1 309 
 BRR  HN I         616 16.02        80.0 0.24             61           84.1 309 
 PAM  SE ES        616 17.89                              91   -0.3310 90.8  31 
 PAM  SE I         616 19.32        26.9 0.20             61           90.8  31 
 PTB  HZ EP        616 13.35                              90    0.08 9  148 266 
 PTB  HN ES        616 29.99                              90   -0.03 9  148 266 
 PTB  HZ I         616 31.78        34.4 0.42             61            148 266 
 OCA  HZ EP   1    616 18.99                              90    1.72 7  179 353 
 OCA  HN ES   4    616 40.35                              90    3.21 0  179 353 
 OCA  HZ I         616 42.51        19.7 0.22             61            179 353 
 ZAR  HN ES   1    616 44.91                              90    0.20 6  215 296 
 ZAR  HN I         616 52.87         9.0 0.14             61            215 296 
                                                                                
