 2010  726 0941 21.1 L   6.788 -73.113140.9  RSN  5 0.1 1.3LRSN                1
 GAP=162        0.41       3.5     7.7  9.2  0.1029E+02 -0.4135E+02 -0.2136E+02E
 Epicentro: LOS SANTOS - SANTANDER                                             3
 ACTION:UPD 10-12-01 15:20 OP:pat  STATUS:               ID:20100726094121 L   I
 2010-07-26-0938-43S.COL___123                                                 6
 STAT SP IPHASW D HRMM SECON CODA AMPLIT PERI AZIMU VELO AIN AR TRES W  DIS CAZ7
 BAR2 SZ EP   1    941 40.01                             170    -0.2 8   23 200 
 BAR2 SZ I         941 55.87         3.9 0.46                            23 200 
 BRR  HZ EP   1    941 41.88                             150    -0.1 8   75 298 
 BRR  HZ I         941 48.20         7.0 0.46                            75 298 
 BRR  HE ES   2    941 58.45                             150     0.2 5   75 298 
 RUS  HZ EP   1    941 44.52                             143     0.2 8   99 178 
 RUS  HN ES   1    942  2.32                             143    -0.1 8   99 178 
 RUS  HZ I         942  4.21         2.5 0.39                            99 178 
 GUE  SZ EP   1    941 45.43                             138     0.0 8  117  10 
 GRA  SZ EP        941 46.03                             136     0.110  126  16 
 GRA  SZ I         942  6.99         2.3 0.29                           126  16 
                                                                                
