 2010  626 0423 17.9 L   5.901 -73.782101.8  RSN  8 0.4 1.7LRSN                1
 GAP= 87        0.77       3.3     5.5 10.2 -0.7559E+01  0.3176E+02 -0.2564E+01E
 Epicentro: JESUS MARIA - SANTANDER                                            3
 ACTION:UP  10-08-24 10:13 OP:vdl  STATUS:               ID:20100626042317 L   I
 2010-06-26-0421-38S.COL___118                                                 6
 STAT SP IPHASW D HRMM SECON CODA AMPLIT PERI AZIMU VELO SNR AR TRES W  DIS CAZ7
 RUS  HZ EP        423 35.76                             140     0.110   77  91 
 RUS  HZ I         423 36.12        12.8 0.23                            77  91 
 RUS  HN ES   2    423 49.81                             140     0.2 5   77  91 
 BAR2 SZ IP        423 37.40                             132     0.010  101  41 
 BAR2 SZ ES   1    423 52.70                             132     0.1 7  101  41 
 BRR  HZ EP        423 39.71                             123    -0.510  134   3 
 BRR  HZ I         423 41.20        19.2 0.10                           134   3 
 BRR  HN ES   2    423 57.64                             123     0.0 5  134   3 
 CHI  HZ EP        423 41.51                             121     0.0 9  141 178 
 CHI  HE ES   2    423 59.10                             121    -0.8 5  141 178 
 CHI  HZ I         424  3.59         4.1 0.34                           141 178 
 HEL  HZ EP   1    423 47.95                             112     0.5 6  196 280 
 HEL  HN ES   3    424  9.60                             112    -1.0 2  196 280 
 HEL  HZ I         424 15.87         6.7 0.46                           196 280 
 RREF HZ EP   2    423 48.22                             111    -0.7 4  206 238 
 RREF HN ES   2    424 13.85                             111     0.7 4  206 238 
 RREF HZ I         424 18.01         5.5 0.34                           206 238 
 GRA  SZ EP        423 53.09                             106     0.3 8  245  26 
 GRA  SZ ES   2    424 20.41                             106     0.4 4  245  26 
 PRA  HZ EP        423 55.69                             104    -0.1 8  271 207 
 PRA  HE ES   2    424 26.16                             104     0.8 4  271 207 
 PRA  HZ I         424 32.50         4.3 0.54                           271 207 
                                                                                
