 2013  126 0639 11.7 L   6.778 -73.171143.9  RSN  5 0.3 1.5LRSN                1
 GAP=134        0.88       5.2     4.5  6.5 -0.3583E+01  0.2662E+01  0.4077E+01E
 Epicentro: LOS SANTOS - SANTANDER                                             3
 ACTION:UPD 13-02-15 09:16 OP:ep   STATUS:               ID:20130126063911 L   I
 2013-01-26-0638-36M.COL___186                                                 6
 STAT SP IPHASW D HRMM SECON CODA AMPLIT PERI AZIMU VELO AIN AR TRES W  DIS CAZ7
 BAR2 SZ EP        639 31.20                             171    0.1510 20.5 184 
 BAR2 SZ I         639 31.48         4.8 0.28            172           20.5 184 
 BAR2 SZ ES        639 46.06                             171   -0.0810 20.5 184 
 BRR  HZ EP        639 32.82                             153    0.2410 70.0 301 
 BRR  HN ES        639 49.48                             153    0.6210 70.0 301 
 BRR  HN I         639 50.50         8.0 0.20            152           70.0 301 
 PAM  SZ EP        639 33.97                             149    0.0310 81.0  40 
 PAM  SZ I         639 34.23         6.0 0.20            149           81.0  40 
 PAM  SN ES        639 50.81                             149   -0.4710 81.0  40 
 RUS  HZ EP        639 35.17                             144    0.0710 98.3 174 
 RUS  HN ES   1    639 53.53                             144    0.17 7 98.3 174 
 PTB  HZ EP        639 38.07                             132   -0.15 9  145 260 
 PTB  HE ES        639 58.32                             132   -0.59 9  145 260 
                                                                                
