 2017  226 0333 29.7 L   6.682 -73.571110.8  RSN  4 0.1 1.0LRSN                1
 GAP=121        0.46       2.9     2.3  4.1  0.2894E+01  0.2314E+01  0.3665E+01E
 Epicentro: EL CARMEN - SANTANDER                                              3
 ACTION:UPD 17-05-24 15:40 OP:jn   STATUS:               ID:20170226033329 L   I
 OLDACT:DUP 17-02-26 13:52 OP:edw  STATUS:               ID:20170226032743d    3
 OLDACT:REG 17-02-26 11:55 OP:lv   STATUS:               ID:20170226032741     3
 2017-02-26-0328-00M.COL___367                                                 6
 STAT SP IPHASW D HRMM SECON CODA AMPLIT PERI AZIMU VELO AIN AR TRES W  DIS CAZ7
 BAR2 EZ EP        333 45.75                             157   -0.1410 44.1 103 
 BAR2 EZ ES        333 58.33                             157   -0.2110 44.1 103 
 BAR2 EZ I         334  0.37         3.8 0.36            157           44.1 103 
 BRR  HZ EP        333 45.75                             154   -0.0610 49.5 342 
 BRR  HN ES        333 58.65                             154    0.2410 49.5 342 
 BRR  HZ I         333 59.15         2.9 0.14            156           49.5 342 
 PTB  HZ EP        333 49.33                             135   -0.0510 99.1 261 
 PTB  HN ES        334  4.71                             135   -0.0610 99.1 261 
 RUS  HZ EP        333 50.52                             134    0.1810  103 148 
 RUS  HN ES        334  6.58                             134    0.1010  103 148 
 RUS  HZ I         334  7.48         1.5 0.34            136            103 148 
                                                                                
