 2012  126 0750 23.6 L   6.779 -73.139146.6  RSN 11 0.3 2.1LRSN                1
 GAP=138        0.69       2.9     3.6  4.7 -0.1147E+01  0.3964E+01  0.5433E+00E
 Epicentro: LOS SANTOS - SANTANDER                                             3
 ACTION:UP  12-02-03 08:21 OP:REBC STATUS:               ID:20120126075023 L   I
 2012-01-26-0750-00M.COL___188                                                 6
 STAT SP IPHASW D HRMM SECON CODA AMPLIT PERI AZIMU VELO SNR AR TRES W  DIS CAZ7
 BAR2 SZ EP        750 43.28                             171     0.010   21 193 
 BAR2 SZ ES   1    750 58.48                             171    -0.2 7   21 193 
 BAR2 SZ I         751  0.17        30.5 0.32                            21 193 
 GIR2 SZ EP        750 43.42                             166     0.010   34 350 
 BRR  HZ EP        750 45.21                             152     0.310   73 300 
 BRR  HE ES   1    751  2.42                             152     0.8 7   73 300 
 BRR  HZ I         751  4.38        33.4 0.14                            73 300 
 PAM  SZ EP        750 46.15                             150     0.210   79  38 
 PAM  SE ES   1    751  3.15                             150    -0.3 7   79  38 
 RUS  HZ EP   1    750 47.18                             145    -0.1 7   98 176 
 RUS  HN ES   1    751  5.75                             145     0.0 7   98 176 
 PTB  HZ EP        750 50.26                             132    -0.4 9  148 260 
 PTB  HN ES   1    751 11.21                             132    -0.6 7  148 260 
 OCA  SZ EP        750 52.21                             129     0.0 9  163 353 
 OCA  SZ ES   2    751 14.05                             129    -0.5 5  163 353 
 OCA  SZ I         751 17.28        14.4 0.29                           163 353 
 ZAR  HZ EP        750 56.19                             122    -0.1 8  206 293 
 ZAR  HE ES   1    751 21.82                             122     0.1 6  206 293 
 ZAR  HZ I         751 32.24        11.6 0.28                           206 293 
 NOR  SZ EP   1    750 59.51                             119     0.2 6  234 235 
 NOR  SN ES   2    751 27.47                             119     0.3 4  234 235 
 CHI  HZ EP   1    751  1.36                             117     0.2 6  247 195 
 CHI  HN ES   2    751 30.62                             117     0.2 4  247 195 
 CHI  HZ I         751 34.30         5.9 0.54                           247 195 
 PRA  HZ EP   1    751 17.46                             107     0.5 4  390 210 
 PRA  HE ES   2    751 58.03                             107    -0.6 3  390 210 
                                                                                
