 2016  126 0925 12.6 L   6.835 -73.177149.0  RSN 12 0.3 1.8LRSN                1
 GAP=131        0.78       2.0     2.9  4.6 -0.1269E+01  0.4467E+01 -0.3582E+00E
 Epicentro: ZAPATOCA - SANTANDER                                               3
 ACTION:UPD 16-03-09 23:28 OP:cam  STATUS:               ID:20160126092512 L   I
 OLDACT:REG 16-01-26 15:54 OP:cara STATUS:               ID:20160126091746     3
 2016-01-26-0917-46M.COL___324                                                 6
 STAT SP IPHASW D HRMM SECON CODA AMPLIT PERI AZIMU VELO AIN AR TRES W  DIS CAZ7
 BAR2 EZ EP        925 32.77                             169    0.0710 26.9 181 
 BAR2 EZ ES        925 48.10                             169   -0.2810 26.9 181 
 BAR2 EZ I         925 50.21         9.0 0.24            169           26.9 181 
 PAM  EZ EP        925 35.40                             152    0.2710 76.7  43 
 PAM  EN ES        925 53.13                             152    0.4310 76.7  43 
 PAM  EZ I         925 55.01         8.9 0.54            156           76.7  43 
 RUS  HZ EP        925 36.93                             143   -0.0510  105 174 
 RUS  HN ES        925 56.13                             143    0.1410  105 174 
 RUS  HZ I         925 56.97         3.9 0.18            147            105 174 
 PTB  HZ EP        925 39.28                             133   -0.33 9  145 257 
 PTB  HN ES        926  0.73                             133    0.06 9  145 257 
 PTB  HZ I         926  8.09        12.1 0.28            133            145 257 
 OCA  HZ EP        925 40.86                             131    0.09 9  156 354 
 OCA  HN ES        926  2.17                             131   -0.58 9  156 354 
 OCA  HZ I         926  8.36        17.4 0.68            133            156 354 
 SPBC HZ EP        925 41.33                             130   -0.11 9  164 217 
 SPBC HN ES        926  3.76                             130   -0.18 9  164 217 
 SPBC HZ I         926  7.18        11.4 0.12            131            164 217 
 ZAR  HZ EP   2    925 45.25                             124    0.46 4  199 291 
 ZAR  HE ES        926  9.79                             124   -0.10 9  199 291 
 ZAR  HZ I         926 16.57         7.4 0.24            124            199 291 
 NOR  HZ EP        925 48.88                             119    0.41 8  234 233 
 NOR  HE ES        926 16.86                             119    0.41 8  234 233 
 NOR  HZ I         926 25.14         3.7 0.14            121            234 233 
 SML  HZ EP        925 48.29                             119   -0.59 8  239 336 
 SML  HN ES        926 17.66                             119    0.49 8  239 336 
 SML  HZ I         926 22.58         7.8 0.07            120            239 336 
 CHI  HZ EP        925 50.76                             117   -0.04 8  252 194 
 CHI  HN ES        926 20.01                             117   -0.58 8  252 194 
 CHI  HZ I         926 27.90         2.3 0.58            120            252 194 
 HEL  HZ EP   2    925 52.47                             116   -0.25 4  270 255 
 HEL  HN ES        926 23.78                             116   -0.24 8  270 255 
 HEL  HZ I         926 31.24         3.9 0.28            117            270 255 
 GUY2CHZ EP   2    925 57.07                             113    0.77 4  301 234 
 GUY2CHE ES        926 30.92                             113    0.53 7  301 234 
 GUY2CHZ I         926 38.76         2.3 0.58                           301 234 
                                                                                
