 2013 1126 0845 47.6 L   6.836 -73.115144.9  RSN  6 0.3 1.5LRSN                1
 GAP=139        0.82       4.5     4.5  7.1 -0.2213E+01  0.8812E+01  0.8431E+01E
 Epicentro: LOS SANTOS - SANTANDER                                             3
 ACTION:UPD 14-01-09 16:31 OP:ep   STATUS:               ID:20131126084547 L   I
 OLDACT:REG 13-11-26 08:26 OP:mh   STATUS:               ID:20131126084000     3
 2013-11-26-0840-00M.COL___282                                                 6
 STAT SP IPHASW D HRMM SECON CODA AMPLIT PERI AZIMU VELO AIN AR TRES W  DIS CAZ7
 BAR2 SZ EP   1    846  6.39                             168   -0.79 7 28.0 195 
 PAM  SZ EP        846  9.80                             152    0.4310 72.1  39 
 PAM  SN ES        846 26.10                             152   -0.2810 72.1  39 
 PAM  SZ I         846 28.83         6.9 0.45            157           72.1  39 
 BRR  HZ EP        846  8.73                             152    0.0510 72.4 294 
 BRR  HN ES        846 25.26                             152    0.1110 72.4 294 
 BRR  HZ I         846 28.98         5.8 0.12            152           72.4 294 
 RUS  HZ EP        846 11.76                             142    0.2610  104 178 
 RUS  HN ES        846 30.26                             142    0.0810  104 178 
 RUS  HZ I         846 32.32         2.9 0.32            145            104 178 
 NOR  HZ EP        846 23.39                             118   -0.39 8  240 234 
 NOR  HE ES   4    846 50.13                             118   -1.91 0  240 234 
 NOR  HZ I         846 56.69         2.5 0.06            120            240 234 
 HEL  HN ES        847  0.00                             114    0.10 7  276 255 
                                                                                
