 2011  126 0842 17.0 L   6.819 -73.149142.3  RSN  5 0.4 1.4LRSN                1
 GAP=158        0.72       5.1    12.0  7.8 -0.3617E+02  0.2293E+02 -0.4427E+01E
 Epicentro: LOS SANTOS - SANTANDER                                             3
 ACTION:UP  11-02-08 08:42 OP:pat  STATUS:               ID:20110126084217 L   I
 2011-01-26-0840-15S.COL___138                                                 6
 STAT SP IPHASW D HRMM SECON CODA AMPLIT PERI AZIMU VELO SNR AR TRES W  DIS CAZ7
 BAR2 SZ EP   1    842 36.39                             169     0.1 7   25 189 
 BAR2 SZ ES   1    842 51.25                             169    -0.1 7   25 189 
 BAR2 SZ I         842 53.05        10.1 0.21                            25 189 
 RUS  HZ EP   1    842 40.39                             142    -0.2 7  103 176 
 RUS  HE ES   1    842 59.35                             142     0.4 7  103 176 
 RUS  HZ I         843  0.79         2.4 0.54                           103 176 
 GRA  SZ EP   1    842 42.23                             137     0.4 7  124  18 
 GRA  SZ I         842 43.70         2.8 0.69                           124  18 
 GRA  SZ ES   2    843  0.29                             137    -0.8 5  124  18 
 NOR  SN ES   2    843 20.67                             118     0.2 4  236 234 
 CHI  HZ EP   1    842 54.75                             116     0.0 6  251 195 
 CHI  HE ES   1    843 23.66                             116    -0.5 6  251 195 
                                                                                
