 2017 1226 0913 33.6 L   6.795 -73.151149.5  RSN  8 0.4 2.5LRSN                1
 GAP= 65        1.11       3.7     3.5  7.1  0.1201E+01  0.3165E+01  0.1420E+01E
 Epicentro: LOS SANTOS - SANTANDER                                             3
 ACTION:UPD 18-01-04 13:24 OP:rebc STATUS:               ID:20171226091333 L   I
 OLDACT:REG 17-12-26 13:45 OP:osc  STATUS:               ID:20171226090317     3
 2017-12-26-0908-00M.COL___460                                                 6
 STAT SP IPHASW D HRMM SECON CODA AMPLIT PERI AZIMU VELO AIN AR TRES W  DIS CAZ7
 BAR2 EZ IP     C  913 53.53                             171   -0.1410 22.7 189 
 BAR2 EZ ES        914  9.09                             171   -0.2410 22.7 189 
 BAR2 EZ I         914 11.08        71.9 0.30            169           22.7 189 
 PAM  EN EP        913 56.40                             151    0.1310 78.2  40 
 PAM  EZ ES        914 13.57                             151   -0.3810 78.2  40 
 PAM  EN I         914 14.80        89.1 0.46            155           78.2  40 
 PTB  HZ EP        914  0.35                             133   -0.47 9  147 259 
 PTB  HE ES        914 21.90                             133   -0.15 9  147 259 
 PTB  HZ I         914 27.24        21.6 0.40            134            147 259 
 TAM  HZ IP     D  914  1.65                             131    0.03 9  156 105 
 TAM  HN ES        914 23.29                             131   -0.18 9  156 105 
 TAM  HZ I         914 24.74        12.8 0.38            134            156 105 
 OCA  HZ EP        914  1.55                             130   -0.70 9  161 353 
 OCA  HN ES        914 25.86                             130    1.26 9  161 353 
 OCA  HZ I         914 28.28       107.2 0.26            133            161 353 
 SPBC HZ EP        914  2.51                             130    0.19 9  162 219 
 SPBC HE ES        914 25.21                             130    0.50 9  162 219 
 SPBC HZ I         914 28.57        43.5 0.36            131            162 219 
 YPLC HZ IP     D  914  3.72                             127    0.07 9  177 151 
 YPLC HE ES        914 27.44                             127    0.35 9  177 151 
 YPLC HZ I         914 35.82        11.7 0.22            129            177 151 
 ZAR  HZ EP        914  6.47                             123    0.21 9  204 292 
 ZAR  HE ES        914 31.42                             123   -0.32 9  204 292 
 ZAR  HZ I         914 38.67        31.9 0.20            125            204 292 
                                                                                
