 2012  726 0620  3.3 L   6.781 -73.148148.0  RSN  8 0.4 1.8LRSN                1
 GAP=137        1.04       4.4     5.7  7.8 -0.6306E+00  0.8375E+01  0.1421E+01E
 Epicentro: LOS SANTOS - SANTANDER                                             3
 ACTION:UPD 12-08-14 11:45 OP:ep   STATUS:               ID:20120726062003 L   I
 2012-07-26-0620-00M.COL___215                                                 6
 STAT SP IPHASW D HRMM SECON CODA AMPLIT PERI AZIMU VELO AIN AR TRES W  DIS CAZ7
 BAR2 SZ EP   1    620 23.18                             171     0.1 7   21 190 
 BAR2 SZ ES   1    620 38.45                             171    -0.2 7   21 190 
 BAR2 SZ I         620 39.90        27.0 0.30            167             21 190 
 BRR  HZ IP        620 25.00                             153     0.310   72 300 
 BRR  HZ I         620 25.27        22.5 0.18            149             72 300 
 BRR  HN ES   1    620 42.45                             153     1.0 7   72 300 
 PAM  SZ EP        620 25.95                             151     0.110   79  39 
 PAM  SN ES   1    620 43.14                             151    -0.3 7   79  39 
 RUS  HZ EP   1    620 26.99                             145    -0.1 7   98 176 
 RUS  HN ES   1    620 45.48                             145    -0.2 7   98 176 
 RUS  HZ I         620 47.00         7.4 0.28            145             98 176 
 PTB  HZ EP        620 30.00                             133    -0.3 9  147 260 
 PTB  HN ES   1    620 50.78                             133    -0.7 7  147 260 
 PTB  HZ I         620 56.95         4.3 0.38            130            147 260 
 OCA  HZ EP   1    620 31.29                             130    -0.6 7  162 353 
 OCA  HN ES   1    620 54.13                             130    -0.2 7  162 353 
 ZAR  HZ EP   1    620 36.67                             123     0.8 6  205 293 
 ZAR  HN ES   1    621  1.03                             123    -0.3 6  205 293 
 ZAR  HZ I         621  8.09         5.7 0.39            122            205 293 
 CHI  HZ EP   1    620 41.15                             118     0.3 6  246 195 
 CHI  HN ES   1    621 10.34                             118     0.2 6  246 195 
 CHI  HZ I         621 14.04         3.1 0.46            118            246 195 
