 2014 1226 0450 56.1 L   6.879 -73.088146.8  RSN  9 0.4 1.7LRSN                1
 GAP=140        1.10       3.7     5.1  6.6 -0.9065E+00  0.1031E+02 -0.1453E+01E
 Epicentro: PIEDECUESTA - SANTANDER                                            3
 ACTION:UPD 15-02-10 17:07 OP:nd   STATUS:               ID:20141226045056 L   I
 OLDACT:UP  14-12-26 16:39 OP:mh   STATUS:               ID:20141226044751     3
 OLDACT:REG 14-12-26 12:29 OP:mh   STATUS:               ID:20141226044751     3
 2014-12-26-0447-51M.COL___283                                                 6
 STAT SP IPHASW D HRMM SECON CODA AMPLIT PERI AZIMU VELO AIN AR TRES W  DIS CAZ7
 BAR2 EZ EP        451 16.54                             167    0.4810 33.4 198 
 BAR2 EZ ES        451 31.29                             167   -0.3710 33.4 198 
 PAM  SN ES        451 35.04                             154    0.3110 66.6  40 
 BRR  HZ EP        451 17.97                             152    0.5210 73.4 290 
 BRR  HN ES        451 34.11                             152   -0.0210 73.4 290 
 BRR  HZ I         451 39.85         7.9 0.16            150           73.4 290 
 RUS  HZ EP        451 20.73                             142    0.1810  109 180 
 RUS  HN ES        451 39.01                             142   -0.6310  109 180 
 OCA  HZ EP        451 23.74                             131    0.00 9  153 350 
 OCA  HN ES        451 45.10                             131   -0.22 9  153 350 
 OCA  HZ I         451 49.16         4.6 0.30            133            153 350 
 PTB  HZ EP   1    451 23.45                             131   -0.41 7  156 256 
 PTB  HE ES        451 45.21                             131   -0.32 9  156 256 
 PTB  HZ I         451 49.15         5.5 0.36            131            156 256 
 SPBC HZ EP        451 25.57                             127   -0.11 9  174 219 
 SPBC HN ES        451 49.59                             127    0.82 9  174 219 
 SPBC HZ I         451 54.46         4.3 0.10            129            174 219 
 ZAR  HZ EP        451 28.03                             122   -0.84 8  207 289 
 ZAR  HN ES        451 54.93                             122    0.47 8  207 289 
 ZAR  HZ I         451 58.65        14.5 0.32            123            207 289 
 URE  HZ EP        451 37.27                             113   -0.23 7  287 290 
                                                                                
