 2011 1226 0234 48.0 L   6.802 -73.184148.4  RSN  7 0.4 1.5LRSN                1
 GAP=132        0.88       5.8     5.1  7.6  0.1847E+01  0.7471E+01  0.4004E+01E
 Epicentro: LOS SANTOS - SANTANDER                                             3
 ACTION:UPD 12-07-13 16:18 OP:ep   STATUS:               ID:20111226023448 L   I
 2011-12-26-0230-00M.COL___187                                                 6
 STAT SP IPHASW D HRMM SECON CODA AMPLIT PERI AZIMU VELO AIN AR TRES W  DIS CAZ7
 BAR2 SZ EP   1    235  7.88                             171   -0.09 7 23.2 179 
 BAR2 SZ I         235  8.42         5.9 0.18                          23.2 179 
 BAR2 SZ ES   1    235 22.94                             171   -0.59 7 23.2 179 
 GIR2 SZ EP   1    235  8.00                             168    0.00 7 30.6 358 
 GIR2 SZ ES   1    235 23.85                             168    0.27 7 30.6 358 
 BRR  HZ EP   1    235  9.72                             154    0.46 7 67.4 300 
 BRR  HN ES   1    235 26.76                             154    0.95 7 67.4 300 
 PAM  SZ EP   1    235 10.84                             150    0.16 7 80.0  42 
 PAM  SN ES   1    235 27.78                             150   -0.57 7 80.0  42 
 PAM  SZ I         235 29.65         3.9 0.46                          80.0  42 
 RUS  HZ EP   1    235 12.08                             144    0.00 7  101 174 
 RUS  HZ I         235 13.29         3.9 0.13                           101 174 
 RUS  HE ES   1    235 31.05                             144    0.20 7  101 174 
 PTB  HZ EP   1    235 14.86                             133    0.02 7  144 258 
 PTB  HN ES   1    235 35.43                             133   -0.33 7  144 258 
 ZAR  HN ES   1    235 44.66                             123   -0.70 6  200 293 
 ZAR  HZ I         235 52.29         4.1 0.16                           200 293 
                                                                                
