 2012  626 0411  4.3 L   6.818 -73.194147.3  RSN  7 0.4 1.6LRSN                1
 GAP=178        0.71       4.2     5.4  7.6  0.6852E+01  0.8082E+01  0.1013E+01E
 Epicentro: ZAPATOCA - SANTANDER                                               3
 ACTION:UPD 12-08-06 17:52 OP:ep   STATUS:               ID:20120626041104 L   I
 2012-06-26-0410-00M.COL___201                                                 6
 STAT SP IPHASW D HRMM SECON CODA AMPLIT PERI AZIMU VELO AIN AR TRES W  DIS CAZ7
 BAR2 SZ EP   1    411 24.22                             170    0.02 7 25.0 177 
 BAR2 SZ ES   1    411 39.92                             170    0.24 7 25.0 177 
 BAR2 SZ I         411 40.94        11.3 0.27                          25.0 177 
 BRR  HZ EP   1    411 26.08                             155    0.72 7 65.5 299 
 BRR  HZ I         411 26.35        19.3 0.16                          65.5 299 
 RUS  HZ EP   1    411 28.48                             143    0.05 7  103 173 
 RUS  HN ES   1    411 46.73                             143   -0.49 7  103 173 
 RUS  HZ I         411 48.03         4.0 0.31                           103 173 
 PTB  HZ EP   1    411 31.03                             133    0.02 7  143 258 
 PTB  HN ES   1    411 52.04                             133    0.24 7  143 258 
 PTB  HZ I         411 55.61         3.2 0.11                           143 258 
 OCA  HE ES   1    411 54.22                             130   -0.31 7  158 355 
 ZAR  HE ES   1    412  0.73                             123   -0.51 6  198 292 
 CHI  HZ EP   1    411 41.98                             117   -0.22 6  249 194 
 CHI  HZ I         411 43.90         2.3 0.49                           249 194 
                                                                                
