 2013 1226 0442 50.1 L   6.826 -73.145146.0  RSN 10 0.5 1.8LRSN                1
 GAP=135        0.98       3.7     4.2  6.4 -0.1363E+01  0.7963E+01  0.4107E+01E
 Epicentro: LOS SANTOS - SANTANDER                                             3
 ACTION:UPD 14-01-13 10:21 OP:ep   STATUS:               ID:20131226044250 L   I
 OLDACT:UP  13-12-26 11:02 OP:mh   STATUS:               ID:20131226044000     3
 OLDACT:UP  13-12-26 11:01 OP:mh   STATUS:               ID:20131226044000     3
 OLDACT:REG 13-12-26 08:46 OP:mh   STATUS:               ID:20131226044000     3
 2013-12-26-0440-00M.COL___285                                                 6
 STAT SP IPHASW D HRMM SECON CODA AMPLIT PERI AZIMU VELO AIN AR TRES W  DIS CAZ7
 BAR2 SZ EP        443  9.72                             169   -0.0610 26.2 189 
 BAR2 SZ ES   1    443 24.84                             169   -0.32 7 26.2 189 
 BRR  HZ EP   1    443 11.53                             153    0.37 7 70.0 296 
 BRR  HN ES        443 28.28                             153    0.6610 70.0 296 
 BRR  HZ I         443 31.84         7.4 0.35            152           70.0 296 
 PAM  SZ EP   1    443 12.53                             152    0.37 7 75.1  41 
 PAM  SN ES        443 29.40                             152   -0.0110 75.1  41 
 PAM  SZ I         443 31.48        17.0 0.56            155           75.1  41 
 RUS  HZ EP        443 13.94                             143   -0.1010  103 176 
 RUS  HN ES        443 32.79                             143    0.0510  103 176 
 RUS  HZ I         443 34.43         5.1 0.26            146            103 176 
 PTB  HZ EP   1    443 16.11                             132   -0.99 7  148 258 
 PTB  HN ES        443 37.70                             132   -0.50 9  148 258 
 PTB  HZ I         443 40.18        12.5 0.15            132            148 258 
 OCA  HN ES   1    443 39.24                             130   -0.77 7  157 353 
 SPBC HZ EP   1    443 18.82                             129    0.03 7  165 218 
 SPBC HN ES        443 41.51                             129    0.31 9  165 218 
 ZAR  HZ EP   1    443 23.25                             123    0.83 6  203 291 
 ZAR  HN ES        443 47.69                             123    0.03 9  203 291 
 ZAR  HZ I         443 53.67         7.4 0.21            124            203 291 
 NOR  HZ EP        443 25.32                             118   -0.67 8  236 234 
 NOR  HN ES   1    443 54.05                             118    0.04 6  236 234 
 NOR  HZ I         443 59.98         4.9 0.16            120            236 234 
 GUY2CHZ EP        443 34.37                             112    0.50 7  303 234 
 GUY2CHN ES   2    444  8.40                             112    0.35 4  303 234 
                                                                                
