 2010  826 0513 12.7 L   6.803 -73.080145.8  RSN  6 0.2 1.4LRSN                1
 GAP=166        0.48       3.7     6.0  6.9 -0.6552E+01 -0.1596E+02  0.1955E+01E
 Epicentro: LOS SANTOS - SANTANDER                                             3
 ACTION:UP  10-09-07 10:58 OP:vdl  STATUS:               ID:20100826051312 L   I
 2010-08-26-0509-19S.COL___121                                                 6
 STAT SP IPHASW D HRMM SECON CODA AMPLIT PERI AZIMU VELO SNR AR TRES W  DIS CAZ7
 BTL  SZ EP        513 32.40                             170     0.110   24 302 
 GIR2 SZ EP   2    513 32.42                             167     0.0 5   33 338 
 BRR  HZ IP     C  513 34.04                             151    -0.210   78 296 
 BRR  HZ I         513 34.28        10.8 0.14                            78 296 
 BRR  HN ES   1    513 51.07                             151     0.1 7   78 296 
 RUS  HZ EP   2    513 36.16                             144    -0.3 5  101 180 
 RUS  HN ES   2    513 55.09                             144     0.1 5  101 180 
 RUS  HZ I         513 56.48         1.8 0.39                           101 180 
 GUE  SZ EP   2    513 37.89                             140     0.6 5  115   9 
 GRA  SZ IP        513 37.74                             138     0.010  123  14 
 GRA  SZ ES   1    513 57.10                             138    -0.2 7  123  14 
 GRA  SZ I         513 58.86         3.1 0.39                           123  14 
                                                                                
