 2011 1126 0822  8.8 L   6.753 -73.082143.0  RSN  4 0.1 1.5LRSN                1
 GAP=147        0.30       3.2     4.8  5.1 -0.3420E+00 -0.1732E+01  0.1282E+00E
 Epicentro: LOS SANTOS - SANTANDER                                             3
 ACTION:UPD 12-07-13 16:12 OP:ep   STATUS:               ID:20111126082208 L   I
 2011-11-26-0820-38S.COL___160                                                 6
 STAT SP IPHASW D HRMM SECON CODA AMPLIT PERI AZIMU VELO AIN AR TRES W  DIS CAZ7
 BAR2 SZ ES   2    822 43.24                             171    0.18 5 21.0 212 
 BAR2 SZ I         822 43.53        11.6 0.73                          21.0 212 
 PAM  SZ EP   2    822 30.87                             150    0.15 5 77.4  33 
 PAM  SN ES   2    822 47.69                             150   -0.13 5 77.4  33 
 BRR  HZ EP   2    822 30.16                             149   -0.01 5 79.8 299 
 BRR  HN ES   2    822 46.78                             149   -0.05 5 79.8 299 
 BRR  HZ I         822 49.84         4.8 0.13                          79.8 299 
 RUS  HZ EP   2    822 31.83                             145   -0.06 5 95.2 180 
 RUS  HN ES   2    822 49.84                             145   -0.06 5 95.2 180 
 RUS  HZ I         822 51.45         3.5 0.41                          95.2 180 
                                                                                
