 2011 1226 0130 57.8 L   6.797 -73.129145.2  RSN  5 0.4 1.1LRSN                1
 GAP=139        0.65       4.9     4.7  7.3 -0.3693E+01  0.6045E+01  0.6166E-01E
 Epicentro: LOS SANTOS - SANTANDER                                             3
 ACTION:UPD 12-07-13 16:18 OP:ep   STATUS:               ID:20111226013057 L   I
 2011-12-26-0130-00M.COL___187                                                 6
 STAT SP IPHASW D HRMM SECON CODA AMPLIT PERI AZIMU VELO AIN AR TRES W  DIS CAZ7
 BAR2 SZ ES   2    131 32.43                             170   -0.17 5 23.4 195 
 BRR  HZ EP   1    131 19.08                             152    0.12 7 73.0 298 
 BRR  HE ES   1    131 36.01                             152    0.52 7 73.0 298 
 PAM  SZ EP   1    131 19.97                             151    0.10 7 76.4  38 
 PAM  SN ES   1    131 36.77                             151   -0.34 7 76.4  38 
 PAM  SZ I         131 39.25         2.5 0.39                          76.4  38 
 RUS  HZ EP   2    131 22.18                             144    0.74 5  100 177 
 RUS  HN ES   1    131 39.84                             144   -0.06 7  100 177 
 RUS  HZ I         131 40.36         1.9 0.24                           100 177 
 PTB  HZ EP   1    131 24.47                             131   -0.39 7  150 259 
 PTB  HN ES   1    131 45.70                             131   -0.28 7  150 259 
                                                                                
