 2011  826 0812  9.1 L   6.772 -73.102145.9  RSN  7 0.4 1.8LRSN                1
 GAP=187        0.76       3.3     6.3  6.2 -0.3519E+01  0.3683E+01  0.3247E+01E
 Epicentro: LOS SANTOS - SANTANDER                                             3
 ACTION:UPD 12-07-13 15:53 OP:ep   STATUS:               ID:20110826081209 L   I
 2011-08-26-0800-00M.COL___168                                                 6
 STAT SP IPHASW D HRMM SECON CODA AMPLIT PERI AZIMU VELO AIN AR TRES W  DIS CAZ7
 BAR2 SZ EP        812 28.73                             171    0.0510 21.7 204 
 BAR2 SZ ES   1    812 43.73                             171   -0.25 7 21.7 204 
 BAR2 SZ I         812 46.68        19.8 0.34                          21.7 204 
 GIR2 SZ EP   1    812 29.12                             166    0.25 7 35.4 344 
 GIR2 SZ ES   1    812 45.15                             166    0.83 7 35.4 344 
 BRR  HZ EP   1    812 30.54                             151   -0.02 7 76.9 299 
 BRR  HN ES   1    812 46.63                             151   -0.69 7 76.9 299 
 BRR  HZ I         812 52.80        12.9 0.11                          76.9 299 
 RUS  HZ EP   1    812 32.58                             145   -0.01 7 97.2 179 
 RUS  HN ES   1    812 50.87                             145   -0.07 7 97.2 179 
 RUS  HZ I         812 52.55         6.7 0.21                          97.2 179 
 OCA  SZ EP   1    812 37.64                             129   -0.10 7  164 352 
 OCA  SZ ES   1    812 59.87                             129   -0.23 7  164 352 
 OCA  SZ I         813 10.87         5.9 0.54                           164 352 
 NOR  SN ES        813 13.52                             118    0.43 8  237 236 
 CHI  HZ EP   1    812 46.60                             117    0.01 6  247 196 
 CHI  HE ES   1    813 15.32                             117   -0.53 6  247 196 
 CHI  HZ I         813 21.93         3.4 0.33                           247 196 
                                                                                
