 2010 1226 0849  5.2 L   6.778 -73.152145.3  RSN  5 0.2 1.3LRSN                1
 GAP=158        0.39       2.3     5.3  5.2 -0.3106E+01  0.5441E+01 -0.4643E+01E
 Epicentro: LOS SANTOS - SANTANDER                                             3
 ACTION:UP  11-01-14 15:27 OP:pat  STATUS:               ID:20101226084905 L   I
 2010-12-26-0845-23S.COL___133                                                 6
 STAT SP IPHASW D HRMM SECON CODA AMPLIT PERI AZIMU VELO SNR AR TRES W  DIS CAZ7
 BAR2 SZ EP   2    849 24.46                             171    -0.3 5   21 190 
 BAR2 SZ ES   2    849 40.21                             171     0.2 5   21 190 
 BAR2 SZ I         849 40.84         6.5 0.20                            21 190 
 RUS  HZ EP   1    849 28.81                             144     0.0 8   98 176 
 RUS  HZ I         849 29.85         1.7 0.13                            98 176 
 RUS  HN ES   1    849 47.05                             144    -0.1 8   98 176 
 GRA  SZ IP        849 30.74                             136     0.110  128  17 
 GRA  SZ I         849 51.14         2.6 0.28                           128  17 
 OCA  SZ EP   1    849 33.58                             129    -0.2 7  163 353 
 OCA  SZ ES   1    849 55.95                             129     0.0 7  163 353 
 OCA  SZ I         849 59.95         4.3 0.19                           163 353 
 NOR  SZ EP   2    849 41.14                             119     0.4 4  233 235 
 NOR  SN ES   2    850  8.29                             119    -0.2 4  233 235 
                                                                                
