 2014  926 0436 33.7 L   7.099 -73.351115.9  RSN 17 0.6 2.3LRSN                1
 GAP= 68        1.54       3.4     4.0  7.1  0.2005E+00  0.7165E+01  0.5590E+01E
 Epicentro: LEBRIJA - SANTANDER                                                3
 ACTION:UPD 14-10-03 23:08 OP:nd   STATUS:               ID:20140926043633 L   I
 OLDACT:DUP 14-09-26 17:05 OP:mh   STATUS:               ID:20140926042816d    3
 2014-09-26-0428-15M.COL___286                                                 6
 STAT SP IPHASW D HRMM SECON CODA AMPLIT PERI AZIMU VELO AIN AR TRES W  DIS CAZ7
 BRR  HZ IP     C  436 50.31                             160    0.3010 39.9 271 
 BRR  HN ES        437  3.12                             160    0.4210 39.9 271 
 BRR  HZ I         437  3.57       149.8 0.10            153           39.9 271 
 BAR2 SZ IP        436 51.54                             151    0.2110 59.0 162 
 BAR2 SZ ES        437  4.57                             151   -0.4710 59.0 162 
 BAR2 SZ I         437  5.88        70.6 0.18            149           59.0 162 
 PAM  SZ EP   1    436 53.64                             144    0.81 7 76.7  70 
 PAM  SN ES        437  8.41                             144    0.6910 76.7  70 
 PAM  SZ I         437 10.53        18.6 0.20            143           76.7  70 
 OCA  HZ EP   1    436 56.86                             129    0.33 7  126   2 
 OCA  HN ES        437 14.88                             129    0.5810  126   2 
 OCA  HZ I         437 16.43        52.9 0.30            124            126   2 
 RUS  HZ EP        436 57.38                             127   -0.61 9  137 167 
 RUS  HN ES        437 16.05                             127   -0.84 9  137 167 
 RUS  HZ I         437 17.80        11.7 0.24            124            137 167 
 PTB  HZ IP     C  436 56.31                             126   -1.08 9  137 243 
 PTB  HN ES        437 16.02                             126    0.19 9  137 243 
 PTB  HZ I         437 19.44        34.6 0.20            121            137 243 
 ZAR  HZ EP        437  1.51                             120    0.54 9  172 285 
 ZAR  HN ES        437 22.02                             120   -0.18 9  172 285 
 ZAR  HZ I         437 25.38        28.8 0.26            115            172 285 
 SPBC HZ EP        437  1.02                             119   -0.77 9  179 207 
 SPBC HE ES        437 23.85                             119    0.18 9  179 207 
 SPBC HZ I         437 29.54        23.5 0.46            115            179 207 
 TAM  HZ EP        437  3.14                             117    0.49 9  187 113 
 TAM  HZ I         437  3.63        17.2 0.22            115            187 113 
 TAM  HN ES        437 24.31                             117   -0.89 9  187 113 
 SML  HZ EP        437  3.85                             115   -0.61 9  204 337 
 SML  HE ES        437 27.14                             115   -1.27 9  204 337 
 SML  HZ I         437 37.67        21.0 0.10            111            204 337 
 CHI  HZ EP        437 13.49                             108    0.32 7  276 189 
 CHI  HN ES        437 44.48                             108    0.56 7  276 189 
 CHI  HZ I         437 49.14         7.9 0.54            106            276 189 
 GUY2CHZ EP        437 16.71                             106    0.18 7  304 227 
 GUY2CHN ES        437 50.79                             106    0.88 7  304 227 
 GUY2CHZ I         437 59.52        12.3 0.76                           304 227 
 MON  HZ EP   9    437 16.14                             105   -1.12 0  316 306 
 MON  HN ES        437 48.09                                   -1.99 7  316 306 
 CBOC HZ EP        437 19.24                             104    0.71 7  325 245 
 CBOC HZ I         438  3.86         4.7 0.40            103            325 245 
 TOL  SZ EP        437 23.08                             103    0.94 6  353 218 
 TOL  SE ES        437 59.55                             103   -0.34 6  353 218 
 ORTC HZ EP        437 28.83                             100    0.22 6  410 211 
 ORTC HN ES        438 11.46                             100    0.05 6  410 211 
 ORTC HZ I         438 18.81         7.0 0.48            100            410 211 
 PRA  HZ EP   1    437 28.36                             100   -0.34 4  411 205 
 PRA  HN ES        438 11.59                             100    0.03 6  411 205 
 PRA  HZ I         438 20.71         5.4 0.32            100            411 205 
                                                                                
