 2017  126 0409 57.6 L   6.781 -73.126138.8  RSN  6 0.5 1.4LRSN                1
 GAP=238        1.24       6.5     7.3  8.9  0.1215E+02  0.1287E+02  0.1755E+02E
 Epicentro: LOS SANTOS - SANTANDER                                             3
 ACTION:UPD 17-05-22 16:03 OP:jn   STATUS:               ID:20170126040957 L   I
 OLDACT:REG 17-01-26 13:34 OP:lv   STATUS:               ID:20170126040743     3
 2017-01-26-0408-00M.COL___355                                                 6
 STAT SP IPHASW D HRMM SECON CODA AMPLIT PERI AZIMU VELO AIN AR TRES W  DIS CAZ7
 BAR2 EZ EP        410 16.43                             171    0.0810 21.8 196 
 BAR2 EZ ES        410 30.20                             171   -0.7810 21.8 196 
 BAR2 EZ I         410 32.68         7.0 0.28            166           21.8 196 
 BRR  HZ EP        410 18.21                             150    0.0610 74.1 299 
 BRR  HN ES        410 35.06                             150    0.8610 74.1 299 
 BRR  HZ I         410 37.22         4.5 0.11            149           74.1 299 
 RUS  HZ EP        410 19.95                             143   -0.5410 98.4 177 
 RUS  HN ES        410 38.84                             143    0.4810 98.4 177 
 RUS  HZ I         410 40.32         4.0 0.34            143           98.4 177 
 PTB  HZ EP        410 24.22                             130    0.07 9  149 260 
 PTB  HN ES        410 44.28                             130   -0.59 9  149 260 
 PTB  HZ I         410 47.95         3.0 0.24            129            149 260 
 NOR  HN ES        411  0.44                             117   -0.15 8  235 235 
 NOR  HZ I         411  5.99         1.7 0.43            117            235 235 
 CHI  HZ EP        410 34.88                             116    0.13 8  247 196 
 CHI  HN ES        411  4.24                             116    0.50 8  247 196 
 CHI  HZ I         411  7.47         1.6 0.32            117            247 196 
                                                                                
