 2017 1126 0025  7.6 L   6.806 -73.170137.2  RSN 14 0.6 2.0LRSN                1
 GAP= 64        1.30       3.3     3.8  6.9  0.5238E+00  0.5549E+01  0.3131E+00E
 Epicentro: LOS SANTOS - SANTANDER                                             3
 ACTION:UPD 17-12-12 20:00 OP:rebc STATUS:               ID:20171126002507 L   I
 OLDACT:UP  17-11-26 15:58 OP:dani STATUS:               ID:20171126001741     3
 OLDACT:REG 17-11-26 12:47 OP:dani STATUS:               ID:20171126001741     3
 2017-11-26-0018-00M.COL___492                                                 6
 STAT SP IPHASW D HRMM SECON CODA AMPLIT PERI AZIMU VELO AIN AR TRES W  DIS CAZ7
 BAR2 EZ EP     C  025 26.24                             170    0.0610 23.7 183 
 BAR2 EZ ES        025 40.71                             170    0.0210 23.7 183 
 BAR2 EZ I         025 42.01        29.6 0.16            169           23.7 183 
 PAM  EZ EP        025 29.26                             149    0.3010 78.6  41 
 PAM  EN ES        025 45.86                             149    0.2210 78.6  41 
 PAM  EZ I         025 48.18        31.9 0.44            153           78.6  41 
 RUS  HZ EP        025 30.29                             142   -0.2710  102 175 
 RUS  HN ES        025 48.15                             142   -0.3410  102 175 
 RUS  HZ I         025 49.74        14.6 0.36            144            102 175 
 PTB  HZ EP        025 33.11                             130   -0.51 9  145 258 
 PTB  HE ES        025 52.99                             130   -0.95 9  145 258 
 PTB  HZ I         026  1.03         5.8 0.30            131            145 258 
 TAM  HZ EP     C  025 34.63                             128   -0.23 9  158 105 
 OCA  HZ EP        025 34.90                             128   -0.24 9  159 354 
 OCA  HN ES        025 56.30                             128   -0.34 9  159 354 
 OCA  HZ I         025 58.23        38.5 0.26            130            159 354 
 SPBC HZ EP        025 35.77                             127    0.45 9  162 218 
 SPBC HN ES        025 57.37                             127    0.41 9  162 218 
 SPBC HZ I         026  0.52        14.6 0.28            129            162 218 
 YPLC HZ EP        025 36.66                             124   -0.30 9  179 151 
 YPLC HN ES        026  0.21                             124    0.34 9  179 151 
 YPLC HZ I         026  3.10        14.3 0.26            127            179 151 
 ZAR  HZ EP        025 40.75                             121    1.56 9  201 292 
 ZAR  HN ES        026  5.05                             121    1.21 9  201 292 
 ZAR  HZ I         026 10.50        11.9 0.58            122            201 292 
 NOR  HZ EP        025 42.67                             117    0.04 8  233 234 
 NOR  HN ES        026  9.86                             117   -0.10 8  233 234 
 NOR  HZ I         026 11.70         5.2 0.14            118            233 234 
 CHI  HZ EP        025 44.44                             115   -0.37 8  249 195 
 CHI  HN ES        026 14.16                             115    0.31 8  249 195 
 CHI  HZ I         026 18.00         3.3 0.50            117            249 195 
 URE  HZ EP        025 47.52                             112   -0.41 7  281 292 
 URE  HN ES        026 18.55                             112   -0.85 7  281 292 
 URE  HZ I         026 20.35         8.0 0.14            114            281 292 
 GUY2CHZ EP   9    025 52.95                             111    2.35 0  299 234 
 GUY2CHN ES        026 26.95                             110    0.45 7  299 234 
 GUY2CHZ I         026 32.83         3.4 0.30                           299 234 
 SJC  HZ EP   3    026  1.17                             104   -1.46 1  407 327 
 SJC  HN ES   4    026 43.23                             104   -2.33 0  407 327 
 SJC  HZ I         026 46.87         2.4 0.56            106            407 327 
                                                                                
