 2014  126 0956 52.4 L   6.802 -73.153136.0  RSN 12 0.5 1.6LRSN                1
 GAP=135        1.09       2.8     5.5  6.9 -0.1214E+01  0.1721E+02  0.5663E+00E
 Epicentro: LOS SANTOS - SANTANDER                                             3
 ACTION:UPD 14-03-13 09:58 OP:ep   STATUS:               ID:20140126095652 L   I
 OLDACT:REG 14-01-26 09:44 OP:nd   STATUS:               ID:20140126095000     3
 2014-01-26-0950-00M.COL___285                                                 6
 STAT SP IPHASW D HRMM SECON CODA AMPLIT PERI AZIMU VELO AIN AR TRES W  DIS CAZ7
 BAR2 SZ EP        957 10.83                             170   -0.0410 23.4 188 
 BAR2 SZ ES        957 25.30                             170    0.0310 23.4 188 
 BAR2 SZ I         957 26.82        22.2 0.32            167           23.4 188 
 PAM  SZ EP        957 13.74                             149    0.1210 77.7  40 
 PAM  SN ES        957 30.36                             149    0.2010 77.7  40 
 PAM  SZ I         957 32.80        13.1 0.46            151           77.7  40 
 RUS  HZ EP        957 14.96                             142   -0.2710  101 176 
 RUS  HN ES        957 33.13                             142    0.0910  101 176 
 RUS  HZ I         957 34.84         2.9 0.18            140            101 176 
 PTB  HZ EP        957 17.70                             130   -0.82 9  147 259 
 PTB  HN ES   4    957 38.06                             130   -0.83 0  147 259 
 PTB  HZ I         957 43.13         5.2 0.10            126            147 259 
 OCA  HZ EP        957 20.46                             127    0.52 9  160 353 
 OCA  HN ES        957 40.51                             127   -0.91 9  160 353 
 OCA  HZ I         957 43.84         5.9 0.18            126            160 353 
 SPBC HZ EP        957 19.75                             127   -0.39 9  163 219 
 SPBC HN ES        957 42.12                             127    0.35 9  163 219 
 SPBC HZ I         957 46.72         5.5 0.24            124            163 219 
 ZAR  HZ EP        957 25.21                             120    1.07 9  203 292 
 ZAR  HN ES        957 49.00                             120    0.11 9  203 292 
 ZAR  HZ I         957 56.93         5.2 0.10            118            203 292 
 SML  HZ EP   4    957 27.26                             115   -1.18 0  243 335 
 SML  HN ES        957 56.66                             115    0.11 8  243 335 
 SML  HZ I         957 59.86         7.1 0.10            114            243 335 
 CHI  HZ EP        957 29.92                             115    0.34 8  249 195 
 CHI  HN ES        957 58.62                             115    0.04 8  249 195 
 CHI  HZ I         958  3.85         1.6 0.30            113            249 195 
 URE  HZ EP   4    957 33.96                             112    1.04 0  283 292 
 URE  HN ES   4    958  2.85                             112   -1.67 0  283 292 
 URE  HZ I         958  8.64         2.9 0.14            110            283 292 
 GUY2CHZ EP   4    957 36.58                             110    1.06 0  301 235 
 GUY2CHN ES   4    958 11.04                             110    1.90 0  301 235 
 GUY2CHZ I         958 17.45         1.4 0.72                           301 235 
 PRA  HZ EP        957 45.41                             105   -0.17 6  392 209 
 PRA  HZ I         958 12.95         0.5 0.24            104            392 209 
 PRA  HN ES        958 26.63                             105   -0.43 6  392 209 
                                                                                
