 2014  826 0118 16.8 L   6.815 -73.112144.1  RSN 13 0.5 2.0LRSN                1
 GAP=140        1.01       3.2     4.4  6.4 -0.1627E+01  0.7643E+01 -0.9303E-01E
 Epicentro: LOS SANTOS - SANTANDER                                             3
 ACTION:UPD 14-09-15 21:53 OP:nd   STATUS:               ID:20140826011816 L   I
 OLDACT:REG 14-08-26 12:44 OP:fm   STATUS:               ID:20140826010806     3
 2014-08-26-0108-06M.COL___257                                                 6
 STAT SP IPHASW D HRMM SECON CODA AMPLIT PERI AZIMU VELO AIN AR TRES W  DIS CAZ7
 BAR2 SZ EP        118 36.54                             169    0.2110 25.8 197 
 BAR2 SZ ES   1    118 51.44                             169   -0.09 7 25.8 197 
 BAR2 SZ I         118 53.02        48.9 0.42            170           25.8 197 
 BRR  HZ EP     D  118 38.50                             151    0.5410 73.7 296 
 BRR  HN ES        118 55.12                             151    0.6910 73.7 296 
 BRR  HZ I         118 57.07        23.1 0.14            148           73.7 296 
 PAM  SZ EP   1    118 38.49                             152   -0.18 7 73.8  38 
 PAM  SN ES   1    118 55.12                             152   -0.58 7 73.8  38 
 PAM  SZ I         118 58.87        25.3 0.64            153           73.8  38 
 RUS  HZ EP        118 40.90                             143    0.3610  102 178 
 RUS  HN ES        118 59.19                             143    0.1610  102 178 
 RUS  HZ I         118 59.94         9.9 0.22            146            102 178 
 PTB  HZ EP        118 43.35                             131   -0.69 9  152 258 
 PTB  HE ES        119  4.66                             131   -0.59 9  152 258 
 PTB  HZ I         119  6.89        11.7 0.22            130            152 258 
 OCA  HN ES        119  6.55                             129   -0.27 9  159 352 
 OCA  HZ I         119 10.13         9.1 0.24            129            159 352 
 SPBC HN ES        119  7.51                             128   -0.46 9  167 220 
 SPBC HZ I         119 12.71        10.3 0.26            129            167 220 
 ZAR  HZ EP   1    118 50.20                             122    0.72 6  207 291 
 ZAR  HN ES        119 15.29                             122    0.36 8  207 291 
 ZAR  HZ I         119 21.37        12.5 0.34            121            207 291 
 NOR  HN ES        119 20.60                             118   -0.43 8  239 235 
 NOR  HZ I         119 24.22         5.2 0.16            118            239 235 
 SML  HZ EP   1    118 53.05                             117   -0.34 6  244 334 
 SML  HE ES   1    119 21.43                             117   -0.46 6  244 334 
 SML  HZ I         119 30.33        13.1 0.10            117            244 334 
 HEL  HZ EP   1    118 57.56                             114    0.14 6  276 256 
 HEL  HE ES   4    119 26.50                             114   -2.56 0  276 256 
 HEL  HZ I         119 36.29         3.2 0.52            114            276 256 
 URE  HN ES   4    119 27.82                             113   -2.55 0  287 291 
 GUY2CHZ EP   1    119  0.71                             112   -0.12 5  305 235 
 GUY2CHN ES   1    119 35.90                             112    0.77 5  305 235 
 GUY2CHZ I         119 43.22         4.5 0.40                           305 235 
 PRA  HZ EP   1    119 10.74                             106    0.05 4  395 210 
                                                                                
