 2011 1126 0022  1.4 L   6.784 -73.124146.1  RSN  5 0.2 1.7LRSN                1
 GAP=140        0.34       3.4     3.5  4.8  0.1928E+01  0.1450E+01 -0.2008E+01E
 Epicentro: LOS SANTOS - SANTANDER                                             3
 ACTION:UPD 12-07-13 16:12 OP:ep   STATUS:               ID:20111126002201 L   I
 2011-11-26-0019-03S.COL___160                                                 6
 STAT SP IPHASW D HRMM SECON CODA AMPLIT PERI AZIMU VELO AIN AR TRES W  DIS CAZ7
 BAR2 SZ EP   1    022 21.00                             171   -0.06 7 22.2 197 
 BAR2 SZ I         022 21.42        12.0 0.32                          22.2 197 
 BAR2 SZ ES   2    022 36.21                             171   -0.17 5 22.2 197 
 BRR  HZ EP        022 22.75                             152   -0.0210 74.1 299 
 BRR  HZ I         022 22.98        10.6 0.21                          74.1 299 
 BRR  HE ES   2    022 39.82                             152    0.40 5 74.1 299 
 PAM  SZ EP   1    022 23.77                             151    0.11 7 77.3  37 
 PAM  SN ES   2    022 40.86                             151   -0.15 5 77.3  37 
 RUS  HZ EP   2    022 25.13                             144    0.07 5 98.7 177 
 RUS  HZ I         022 26.35         3.4 0.14                          98.7 177 
 RUS  HN ES   2    022 43.51                             144    0.01 5 98.7 177 
 ZAR  HN ES   2    022 59.46                             122   -0.27 4  207 292 
 ZAR  HZ I         023  5.01         5.5 0.42                           207 292 
                                                                                
