 2017  526 0314 10.0 L   6.752 -73.157147.4  RSN  4 0.3 1.2LRSN                1
 GAP=232        0.74       5.2     6.8  7.6  0.1179E+02 -0.2717E+00  0.7845E+01E
 Epicentro: LOS SANTOS - SANTANDER                                             3
 ACTION:UPD 17-06-16 13:38 OP:jn   STATUS:               ID:20170526031410 L   I
 OLDACT:REG 17-05-26 12:45 OP:ar   STATUS:               ID:20170526030741     3
 2017-05-26-0308-00M.COL___343                                                 6
 STAT SP IPHASW D HRMM SECON CODA AMPLIT PERI AZIMU VELO AIN AR TRES W  DIS CAZ7
 BRR  HZ EP   2    314 31.32                             152   -0.11 5 72.9 303 
 BRR  HN ES        314 48.29                             152    0.1510 72.9 303 
 BRR  HZ I         314 52.09         3.7 0.42            147           72.9 303 
 RUS  HZ EP        314 33.23                             146   -0.3310 95.4 175 
 RUS  HN ES        314 51.96                             146    0.0410 95.4 175 
 RUS  HZ I         314 53.18         1.3 0.26            146           95.4 175 
 PTB  HZ EP   2    314 36.41                             133   -0.51 5  146 261 
 PTB  HN ES   2    314 57.35                             133   -0.56 5  146 261 
 PTB  HZ I         315  4.33         1.7 0.34            130            146 261 
 SPBC HZ EP     D  314 38.78                             130    0.60 9  158 220 
 SPBC HN ES        315  0.02                             130   -0.13 9  158 220 
 SPBC HZ I         315  5.29         2.9 0.28            129            158 220 
                                                                                
