 2010  526 0932 10.5 L   6.880 -73.306127.4  RSN  7 0.5 1.9LRSN                1
 GAP=130        1.32       9.1    12.5 16.7 -0.7035E+02  0.1142E+03 -0.7997E+02E
 Epicentro: BETULIA - SANTANDER                                                3
 ACTION:UP  10-08-24 10:06 OP:vdl  STATUS:               ID:20100526093210 L   I
 2010-05-26-0926-38S.COL___108                                                 6
 STAT SP IPHASW D HRMM SECON CODA AMPLIT PERI AZIMU VELO SNR AR TRES W  DIS CAZ7
 BAR2 SZ EP        932 27.73                             164    -0.510   35 157 
 BAR2 SZ ES   1    932 42.13                             164     0.1 7   35 157 
 GUE  SZ EP        932 34.03                             136     0.810  113  22 
 GRA  SZ EP        932 33.38                             133    -0.610  124  27 
 OCA  SZ EP        932 36.65                             127     0.2 9  150 359 
 OCA  SZ I         933  2.40        16.2 0.53                           150 359 
 CHI  HZ I         932 45.33         8.0 0.84                           253 191 
 CHI  HN ES   1    933 17.11                             113     0.3 6  253 191 
 HEL  HZ EP   1    932 47.45                             112    -0.7 6  257 253 
 HEL  HN ES   1    933 17.63                             112     0.1 6  257 253 
 HEL  HZ I         933 24.35         3.5 0.30                           257 253 
 RREF BZ EP   2    932 56.17                             108     1.1 3  315 226 
 RREF BZ I         932 58.16         2.0 0.11                           315 226 
                                                                                
