 2016  426 0538 40.1 L   6.812 -73.187142.6  RSN 15 0.3 2.3LRSN                1
 GAP=131        0.71       2.5     2.8  4.5 -0.1290E+01  0.5327E+01  0.2220E-02E
 Epicentro: ZAPATOCA - SANTANDER                                               3
 ACTION:UPD 16-05-05 14:24 OP:rebc STATUS:               ID:20160426053840 L   I
 OLDACT:REG 16-04-26 13:00 OP:dnl  STATUS:               ID:20160426053745     3
 2016-04-26-0537-45M.COL___309                                                 6
 STAT SP IPHASW D HRMM SECON CODA AMPLIT PERI AZIMU VELO AIN AR TRES W  DIS CAZ7
 BAR2 EZ EP        538 59.31                             170   -0.0210 24.3 179 
 BAR2 EZ ES        539 14.53                             170    0.1710 24.3 179 
 BAR2 EZ I         539 17.13        30.1 0.30            168           24.3 179 
 PAM  EZ EP     C  539  2.17                             150    0.1010 79.4  43 
 PAM  EN ES        539 19.46                             150    0.2310 79.4  43 
 PAM  EZ I         539 22.41        26.2 0.30            155           79.4  43 
 RUS  HZ EP        539  3.30                             143   -0.3310  102 174 
 RUS  HN ES        539 21.45                             143   -0.5710  102 174 
 RUS  HZ I         539 23.42        11.2 0.30            145            102 174 
 PTB  HZ EP        539  6.07                             132   -0.32 9  143 258 
 PTB  HN ES        539 26.77                             132   -0.15 9  143 258 
 PTB  HZ I         539 32.26        32.5 0.80            131            143 258 
 OCA  HZ EP   2    539  7.69                             129   -0.27 5  158 355 
 OCA  HN ES   2    539 29.28                             129   -0.44 5  158 355 
 OCA  HZ I         539 34.73        26.4 0.31            131            158 355 
 SPBC HZ EP        539  8.25                             129    0.10 9  161 217 
 SPBC HE ES        539 30.48                             129    0.43 9  161 217 
 SPBC HZ I         539 35.80        26.6 0.24            129            161 217 
 ZAR  HZ EP        539 11.92                             122    0.11 9  199 292 
 ZAR  HN ES        539 36.65                             122    0.08 9  199 292 
 ZAR  HZ I         539 42.22        18.4 0.24            122            199 292 
 NOR  HZ EP   2    539 15.42                             118    0.13 4  232 234 
 NOR  HE ES        539 43.21                             118    0.44 8  232 234 
 NOR  HZ I         539 48.76        12.0 0.15            119            232 234 
 CHI  HZ EP   2    539 17.70                             116    0.10 4  249 194 
 CHI  HN ES        539 46.97                             116    0.09 8  249 194 
 ROSC BZ EP   4    539 19.71                             116    1.83 0  252 210 
 ROSC BN ES   4    539 49.92                             116    2.54 0  252 210 
 ROSC BZ I         539 53.83        22.8 0.40            117            252 210 
 GUY2CHZ EP        539 23.91                             112    0.72 7  298 234 
 GUY2CHN ES   2    539 56.74                             112   -0.09 4  298 234 
 GUY2CHZ I         540  5.69        10.6 0.68                           298 234 
 SOCV BZ EP   4    539 22.20                             111   -1.13 0  304  58 
 SOCV BN ES   4    539 52.48                             111   -4.59 0  304  58 
 CBOC HZ EP   2    539 27.09                             109    0.70 3  330 252 
 CBOC HN ES        540  1.72                             109   -0.81 7  330 252 
 CBOC HZ I         540 20.21         3.8 0.52            110            330 252 
 DBB  SZ EP   2    539 26.60                             109   -0.27 3  335 274 
 DBB  SZ ES   4    539 58.93                             109   -4.45 0  335 274 
 DBB  SZ I         540  5.50        21.9 0.46            110            335 274 
 ANIL HZ EP   4    539 26.36                             108   -3.13 0  355 224 
 ANIL HN ES   3    540  7.92                             108   -0.11 2  355 224 
 ANIL HZ I         540 19.42        23.9 0.26            109            355 224 
 ORTC HZ EP   2    539 33.45                             106   -0.24 3  394 216 
 ORTC HN ES   4    540 16.88                             106    1.37 0  394 216 
 ORTC HZ I         540 20.87         4.0 0.18            107            394 216 
                                                                                
