 2011  226 0151 23.0 L   6.814 -73.205132.3  RSN  7 0.3 1.9LRSN                1
 GAP=152        0.60       3.3     8.0  6.7 -0.1066E+02  0.2945E+02 -0.7802E+01E
 Epicentro: ZAPATOCA - SANTANDER                                               3
 ACTION:UP  11-03-28 15:11 OP:jfem STATUS:               ID:20110226015123 L   I
 2011-02-26-0149-47S.COL___136                                                 6
 STAT SP IPHASW D HRMM SECON CODA AMPLIT PERI AZIMU VELO SNR AR TRES W  DIS CAZ7
 BAR2 SZ EP        151 41.25                             169     0.210   25 174 
 BAR2 SZ ES   1    151 55.21                             169     0.1 7   25 174 
 BAR2 SZ I         151 57.05        24.5 0.24                            25 174 
 RUS  HZ EP   2    151 45.00                             140    -0.6 5  103 172 
 RUS  HN ES   2    152  3.05                             140    -0.2 5  103 172 
 RUS  HZ I         152  4.49        11.3 0.24                           103 172 
 GRA  SZ EP        151 47.23                             134     0.110  126  21 
 GRA  SZ I         151 48.62         9.8 0.20                           126  21 
 GRA  SZ ES   1    152  6.01                             134     0.1 7  126  21 
 OCA  SZ EP   1    151 49.98                             127    -0.1 7  158 355 
 OCA  SZ ES   1    152 10.84                             127    -0.4 7  158 355 
 OCA  SZ I         152 15.83        12.9 0.50                           158 355 
 HEL  HZ EP   2    152  2.48                             112     0.6 4  266 255 
 HEL  HZ I         152 42.10         4.1 0.32                           266 255 
 RREF HZ EP   2    152  8.34                             108     0.2 3  318 228 
 RREF HZ I         152 51.89         2.3 0.34                           318 228 
 DBB  SZ EP   1    152  8.88                             107    -0.3 5  333 274 
                                                                                
