 2012  626 0948  1.9 L   5.778 -73.887118.1  RSN  5 0.3 1.8LRSN                1
 GAP=241        0.69       7.8     6.0 10.0  0.3317E+02  0.1197E+02  0.4888E+01E
 Epicentro: ALBANIA - SANTANDER                                                3
 ACTION:UPD 12-08-06 17:52 OP:ep   STATUS:               ID:20120626094801 L   I
 2012-06-26-0940-00M.COL___201                                                 6
 STAT SP IPHASW D HRMM SECON CODA AMPLIT PERI AZIMU VELO AIN AR TRES W  DIS CAZ7
 RUS  HZ EP   1    948 22.34                             140    0.12 9 89.9  82 
 RUS  HZ I         948 22.90         7.6 0.29                          89.9  82 
 RUS  HN ES   1    948 37.87                             140   -0.18 9 89.9  82 
 PTB  HZ EP   1    948 22.62                             135   -0.19 9  105 323 
 PTB  HN ES   1    948 39.40                             135    0.31 9  105 323 
 PTB  HZ I         948 40.20         7.3 0.16                           105 323 
 BAR2 SZ EP   1    948 24.04                             132   -0.31 9  119  41 
 BAR2 SZ I         948 41.15        40.7 0.36                           119  41 
 BRR  HZ EP   1    948 27.54                             125    0.71 8  148   8 
 BRR  HN ES   1    948 46.33                             125    0.09 8  148   8 
 BRR  HZ I         948 48.13        11.5 0.14                           148   8 
 ZAR  HE ES        948 59.12                             114   -0.3710  218 331 
                                                                                
