 2011 1126 0026  7.8 L   6.886 -73.292122.7  RSN 12 0.4 2.2LRSN                1
 GAP=107        0.50       2.3     3.4  5.1 -0.1314E+01  0.6699E+01  0.4717E+00E
 Epicentro: BETULIA - SANTANDER                                                3
 ACTION:UPD 12-07-13 16:12 OP:ep   STATUS:               ID:20111126002607 L   I
 2011-11-26-0023-33S.COL___160                                                 6
 STAT SP IPHASW D HRMM SECON CODA AMPLIT PERI AZIMU VELO AIN AR TRES W  DIS CAZ7
 BAR2 SZ IP        026 24.81                             163   -0.1910 34.7 160 
 BAR2 SZ ES   2    026 38.25                             163   -0.17 5 34.7 160 
 BAR2 SZ I         026 39.52        97.8 0.31                          34.7 160 
 BRR  HZ EP   2    026 25.17                             155   -0.25 5 52.5 298 
 BRR  HZ I         026 29.09        40.8 0.10                          52.5 298 
 BRR  HE ES   2    026 40.01                             155    0.85 5 52.5 298 
 PAM  SZ EP   2    026 27.96                             144   -0.01 5 82.4  52 
 PAM  SN ES   2    026 44.31                             144    0.60 5 82.4  52 
 RUS  HZ EP   2    026 30.06                             135   -0.28 5  112 168 
 RUS  HN ES   2    026 47.86                             135   -0.06 5  112 168 
 RUS  HZ I         026 48.67         8.7 0.36                           112 168 
 OCA  SZ EP   2    026 33.27                             126   -0.09 5  150 359 
 OCA  SZ ES   2    026 52.53                             126   -0.77 5  150 359 
 OCA  SZ I         026 54.94        26.5 0.23                           150 359 
 ZAR  HZ EP   2    026 37.22                             120    0.36 4  186 291 
 ZAR  HN ES   2    026 59.18                             120   -0.35 4  186 291 
 ZAR  HZ I         027  5.33        14.7 0.29                           186 291 
 CTAU SZ EP   2    026 40.12                             117    0.63 4  204 204 
 CTAU SZ ES   2    027  4.13                             117   -0.08 4  204 204 
 NOR  SZ EP   2    026 41.47                             114   -0.05 4  228 230 
 NOR  SN ES   2    027  7.51                             114   -0.32 4  228 230 
 CHI  HZ EP   2    026 44.94                             111   -0.02 4  254 191 
 CHI  HN ES   2    027 14.21                             111    0.26 4  254 191 
 CHI  HZ I         027 19.53         5.1 0.57                           254 191 
 HEL  HZ EP   2    026 45.64                             111    0.18 4  259 253 
 HEL  HN ES   2    027 14.64                             111   -0.19 4  259 253 
 HEL  HZ I         027 18.78         8.9 0.37                           259 253 
 RREF HZ EP   2    026 53.06                             107    0.66 3  316 226 
 RREF HN ES   2    027 27.25                             107    0.07 3  316 226 
 RREF HZ I         027 36.12         6.8 0.32                           316 226 
 COD  HZ EP   2    026 53.92                             105   -0.19 3  338 357 
 COD  HE ES   2    027 30.84                             105    0.60 3  338 357 
 COD  HZ I         027 35.43        13.1 0.57                           338 357 
                                                                                
