 2015 1226 0043  1.6 L   6.488 -73.608107.9  RSN  8 0.3 1.4LRSN                1
 GAP= 71        0.64       3.1     2.9  5.4  0.1860E+01  0.4949E+01  0.1572E+01E
 Epicentro: SANTA HELENA DEL OPON - SANTANDER                                  3
 ACTION:UPD 16-02-04 15:07 OP:cam  STATUS:               ID:20151226004301 L   I
 OLDACT:REG 15-12-26 12:46 OP:dnl  STATUS:               ID:20151226003747     3
 2015-12-26-0037-47M.COL___329                                                 6
 STAT SP IPHASW D HRMM SECON CODA AMPLIT PERI AZIMU VELO AIN AR TRES W  DIS CAZ7
 BAR2 EZ EP        043 17.63                             154   -0.1010 48.4  76 
 BAR2 EZ ES        043 30.05                             154   -0.2510 48.4  76 
 BAR2 EZ I         043 31.20        15.8 0.34            151           48.4  76 
 BRR  HZ EP        043 18.54                             145   -0.1510 69.5 350 
 BRR  HN ES        043 32.41                             145    0.3910 69.5 350 
 BRR  HZ I         043 33.13         6.9 0.13            141           69.5 350 
 RUS  HZ EP   2    043 20.53                             138   -0.25 5 87.8 139 
 RUS  HE ES        043 35.86                             138    0.1310 87.8 139 
 RUS  HZ I         043 37.84         2.4 0.12            135           87.8 139 
 PTB  HZ EP        043 20.47                             136   -0.1810 94.0 274 
 PTB  HN ES        043 35.26                             136   -0.2310 94.0 274 
 PTB  HZ I         043 35.66         5.5 0.09            132           94.0 274 
 SPBC HZ EP   1    043 21.93                             132    0.15 7  106 209 
 SPBC HE ES   2    043 38.29                             132    0.78 5  106 209 
 SPBC HZ I         043 41.17         8.5 0.15            128            106 209 
 ZAR  HZ EP   2    043 29.42                             116    0.48 4  177 309 
 ZAR  HN ES   4    043 53.16                             116    2.91 0  177 309 
 ZAR  HZ I         043 55.51         4.3 0.13            113            177 309 
 OCA  HZ EP   2    043 31.72                             114    0.50 4  196   9 
 OCA  HN ES   4    043 52.31                             114   -2.01 0  196   9 
 OCA  HZ I         044  0.13         8.9 0.20            111            196   9 
 CHI  HZ EP   4    043 34.62                             113    1.99 0  206 184 
 CHI  HN ES   4    043 58.68                             113    1.85 0  206 184 
 CHI  HZ I         044  0.43         0.9 0.21            110            206 184 
                                                                                
