 2012  826 0424 10.4 L   6.683 -73.149151.9  RSN  5 0.4 1.3LRSN                1
 GAP=207        0.68       9.0     8.5 12.8 -0.7870E+01 -0.2043E+02  0.4665E+02E
 Epicentro: VILLANUEVA - SANTANDER                                             3
 ACTION:UPD 12-09-10 11:58 OP:ep   STATUS:               ID:20120826042410 L   I
 2012-08-26-0420-00M.COL___218                                                 6
 STAT SP IPHASW D HRMM SECON CODA AMPLIT PERI AZIMU VELO AIN AR TRES W  DIS CAZ7
 BAR2 SZ EP   1    424 30.53                             176   -0.06 7 10.7 201 
 BRR  HZ EP   1    424 32.66                             151    0.06 7 78.0 307 
 BRR  HZ I         424 35.28         3.4 0.25                          78.0 307 
 BRR  HN ES   1    424 50.24                             151    0.33 7 78.0 307 
 PTB  HZ EP   1    424 37.86                             134    0.19 7  145 264 
 PTB  HN ES   2    424 57.92                             134   -1.03 5  145 264 
 PTB  HZ I         425  1.77         2.0 0.11                           145 264 
 OCA  HN ES   2    425  3.15                             129   -0.65 4  173 354 
 ZAR  HE ES   2    425 10.20                             123    0.42 4  209 295 
                                                                                
