 2016 1226 0332 49.4 L   6.777 -73.197152.7  RSN  4 0.4 1.0LRSN                1
 GAP=230        1.01       8.5     8.3  8.4  0.3759E+02  0.1175E+02  0.5766E+01E
 Epicentro: ZAPATOCA - SANTANDER                                               3
 ACTION:UPD 17-01-11 20:19 OP:rebc STATUS:               ID:20161226033249 L   I
 OLDACT:REG 16-12-26 12:36 OP:edw  STATUS:               ID:20161226032741     3
 2016-12-26-0328-00M.COL___378                                                 6
 STAT SP IPHASW D HRMM SECON CODA AMPLIT PERI AZIMU VELO AIN AR TRES W  DIS CAZ7
 BAR2 EZ ES        333 25.16                             172   -0.5810 20.5 175 
 BRR  HZ EP        333 10.94                             155   -0.1710 67.6 303 
 BRR  HN ES        333 28.59                             155    0.5410 67.6 303 
 RUS  HZ EP        333 14.16                             146    0.4510 98.6 173 
 RUS  HN ES        333 32.78                             146    0.1210 98.6 173 
 RUS  HZ I         333 33.38         2.3 0.24            144           98.6 173 
 PTB  HZ EP        333 16.00                             135   -0.41 9  142 259 
 PTB  HN ES        333 37.49                             135    0.01 9  142 259 
 PTB  HZ I         333 41.07         0.8 0.16            132            142 259 
                                                                                
