 2010  826 0200 53.0 L   6.792 -73.059136.9  RSN  5 0.3 1.8LRSN                1
 GAP=192        0.80       3.9    10.4  9.2  0.7722E+01 -0.1393E+02  0.2733E+01E
 Epicentro: LOS SANTOS - SANTANDER                                             3
 ACTION:UP  10-09-07 10:58 OP:vdl  STATUS:               ID:20100826020053 L   I
 2010-08-26-0157-00S.COL___121                                                 6
 STAT SP IPHASW D HRMM SECON CODA AMPLIT PERI AZIMU VELO SNR AR TRES W  DIS CAZ7
 BAR2 SZ IP        2 1 11.84                             169     0.210   26 212 
 BAR2 SZ I         2 1 27.80        13.7 0.38                            26 212 
 BRR  HZ EP   1    2 1 13.93                             148     0.1 7   80 296 
 BRR  HE ES   1    2 1 30.06                             148     0.1 7   80 296 
 BRR  HZ I         2 1 32.94        14.2 0.54                            80 296 
 RUS  HZ EP        2 1 15.60                                    -0.210   99 182 
 RUS  HN ES   1    2 1 33.71                             142     0.1 7   99 182 
 RUS  HZ I         2 1 35.20         7.1 0.47                            99 182 
 OCA  SZ EP   1    2 1 21.52                             127     0.6 7  163 350 
 OCA  SZ ES   1    2 1 42.01                             127    -0.6 7  163 350 
 OCA  SZ I         2 1 50.64         7.2 0.50                           163 350 
 PRA  HZ EP   1    2 1 46.38                             105    -0.4 4  396 211 
 PRA  HE ES   1    2 2 28.56                             105    -0.1 4  396 211 
 PRA  HZ I         2 2 32.91         2.2 0.28                           396 211 
                                                                                
