 2011  226 0245 25.5 L   6.829 -73.210141.4  RSN  4 0.3 1.5LRSN                1
 GAP=182        0.69       3.8    17.5  8.2 -0.1134E+02  0.1939E+02 -0.6805E+01E
 Epicentro: ZAPATOCA - SANTANDER                                               3
 ACTION:UP  11-03-28 15:11 OP:jfem STATUS:               ID:20110226024525 L   I
 2011-02-26-0240-38S.COL___136                                                 6
 STAT SP IPHASW D HRMM SECON CODA AMPLIT PERI AZIMU VELO SNR AR TRES W  DIS CAZ7
 BAR2 SZ EP   1    245 44.75                             169     0.1 7   26 174 
 BAR2 SZ ES   1    245 59.96                             169     0.4 7   26 174 
 BAR2 SZ I         246  1.56         8.4 0.47                            26 174 
 RUS  HZ EP   1    245 48.91                             142    -0.2 7  104 172 
 RUS  HE ES   2    246  6.88                             142    -0.6 5  104 172 
 RUS  HZ I         246 10.00         3.1 0.26                           104 172 
 GRA  SZ EP   1    245 50.38                             136     0.1 7  125  21 
 GRA  SZ ES   1    246  9.54                             136    -0.1 7  125  21 
 GRA  SZ I         246 10.79         6.7 0.40                           125  21 
 OCA  SZ EP   1    245 53.35                             129     0.3 7  156 356 
 OCA  SZ ES   1    246 14.16                             129    -0.4 7  156 356 
 OCA  SZ I         246 17.59         6.1 0.21                           156 356 
                                                                                
