 2015  826 0848 33.1 L   6.817 -73.049149.7  RSN  7 0.4 1.4LRSN                1
 GAP=193        0.96       3.2     7.0  6.4  0.1966E+00  0.8544E+01 -0.3289E+01E
 Epicentro: LOS SANTOS - SANTANDER                                             3
 ACTION:UPD 15-09-15 23:05 OP:cam  STATUS:               ID:20150826084834dL   I
 OLDACT:UP  15-08-26 15:42 OP:ak   STATUS:               ID:20150826084744d    3
 OLDACT:DUP 15-08-26 15:34 OP:ak   STATUS:               ID:20150826084744d    3
 OLDACT:UP  15-08-26 15:33 OP:ak   STATUS:               ID:20150826084743     3
 OLDACT:REG 15-08-26 15:10 OP:ak   STATUS:               ID:20150826084743     3
 2015-08-26-0847-43M.COL___337                                                 6
 STAT SP IPHASW D HRMM SECON CODA AMPLIT PERI AZIMU VELO AIN AR TRES W  DIS CAZ7
 BAR2 EZ EP        848 53.72                             169    0.4210 28.9 211 
 BAR2 EZ ES        849  8.85                             169   -0.2210 28.9 211 
 BAR2 EZ I         849 10.70         3.0 0.14            170           28.9 211 
 BRR  HZ EP        848 55.77                             150    0.6210 80.0 294 
 BRR  HN ES        849 12.92                             150    0.5510 80.0 294 
 BRR  HZ I         849 18.22         2.9 0.16            150           80.0 294 
 RUS  HZ EP        848 57.40                             144    0.0710  102 182 
 RUS  HN ES        849 15.99                             144   -0.2610  102 182 
 RUS  HZ I         849 19.32         2.5 0.41            149            102 182 
 OCA  HZ EP   1    849  1.74                             130    0.07 7  160 349 
 OCA  HN ES        849 23.54                             130   -0.44 9  160 349 
 OCA  HZ I         849 28.72         6.9 0.25            132            160 349 
 SPBC HN ES   1    849 24.93                             128   -0.81 7  171 221 
 SML  HZ EP        849 10.05                             118   -0.19 8  247 333 
 SML  HN ES        849 38.79                             118   -0.45 8  247 333 
 SML  HZ I         849 43.27         2.4 0.09            120            247 333 
 GUY2CHZ EP        849 17.73                             112   -0.24 7  311 236 
 GUY2CHE ES        849 53.08                             112    0.09 7  311 236 
 GUY2CHZ I         849 59.15         1.2 0.39                           311 236 
                                                                                
