 2013  426 0600 48.1 L   6.857 -73.167141.0  RSN  9 0.4 2.2LRSN                1
 GAP=190        0.83       5.9     5.6  6.0 -0.1283E+02  0.3267E+01  0.3573E+01E
 Epicentro: ZAPATOCA - SANTANDER                                               3
 ACTION:UPD 13-05-22 14:41 OP:EP   STATUS:               ID:20130426060048 L   I
 2013-04-26-0558-46M.COL___202                                                 6
 STAT SP IPHASW D HRMM SECON CODA AMPLIT PERI AZIMU VELO AIN AR TRES W  DIS CAZ7
 GIR2 SZ EP        6 1  7.01                             170   -0.0210 24.7 353 
 GIR2 SZ ES   1    6 1 21.16                             170   -0.64 7 24.7 353 
 GIR2 SZ I         6 1 23.40        13.0 0.68            176           24.7 353 
 BRR  HZ IP     C  6 1  8.81                             153    0.3710 66.3 295 
 BRR  HN ES        6 1 24.78                             153    0.4610 66.3 295 
 BRR  HN I         6 1 29.25        34.0 0.22            147           66.3 295 
 PAM  SZ EP   1    6 1  9.88                             151    0.27 7 74.3  44 
 PAM  SN ES   2    6 1 26.48                             151    0.09 5 74.3  44 
 PAM  SN I         6 1 27.52        36.9 0.40            151           74.3  44 
 PTB  HZ EP   1    6 1 13.87                             131   -0.71 7  147 256 
 PTB  HN ES   1    6 1 34.60                             131   -0.64 7  147 256 
 PTB  HN I         6 1 40.10        20.9 0.22            120            147 256 
 OCA  HZ EP   1    6 1 15.13                             130   -0.28 7  154 354 
 OCA  HN ES   1    6 1 36.77                             130    0.04 7  154 354 
 OCA  HN I         6 1 39.60        52.9 0.24            126            154 354 
 ZAR  HZ EP   1    6 1 20.13                             122    0.37 6  200 291 
 ZAR  HN ES   2    6 1 44.85                             122    0.39 4  200 291 
 ZAR  HN I         6 1 50.21        17.2 0.42            114            200 291 
 SML  HZ EP   1    6 1 23.20                             117   -0.52 6  237 335 
 SML  HN ES   2    6 1 50.95                             117   -0.57 4  237 335 
 SML  HN I         6 1 54.43        35.6 0.28            111            237 335 
 HEL  HZ EP   1    6 1 28.54                             114    0.56 6  271 254 
 HEL  HN ES   4    6 2  0.02                             114    0.92 0  271 254 
 HEL  HN I         6 2  6.12         3.8 0.62            105            271 254 
 GUY  HZ EP   1    6 1 32.01                             111    0.07 5  305 234 
 GUY  HN I         6 2 13.58         3.3 0.44            103            305 234 
                                                                                
