 2010 1226 0949 59.1 L   6.831 -73.128142.0  RSN 10 0.4 2.3LRSN                1
 GAP=137        0.85       3.2     6.4  7.1 -0.7919E+01  0.1862E+02 -0.1020E+01E
 Epicentro: LOS SANTOS - SANTANDER                                             3
 ACTION:UP  11-01-14 15:27 OP:pat  STATUS:               ID:20101226094959 L   I
 2010-12-26-0940-00M.COL___132                                                 6
 STAT SP IPHASW D HRMM SECON CODA AMPLIT PERI AZIMU VELO SNR AR TRES W  DIS CAZ7
 BAR2 SZ IP        950 18.65                             169     0.310   27 193 
 BAR2 SZ ES   1    950 33.42                             169     0.1 7   27 193 
 BAR2 SZ I         950 34.75        92.8 0.10                            27 193 
 RUS  HZ EP   1    950 22.65                             142     0.0 7  104 177 
 RUS  HN ES   1    950 41.13                             142     0.0 7  104 177 
 RUS  HZ I         950 43.01        20.8 0.39                           104 177 
 GRA  SZ IP        950 23.46                             137    -0.210  122  17 
 GRA  SZ ES   1    950 42.60                             137    -0.2 7  122  17 
 GRA  SZ I         950 45.20        21.8 0.20                           122  17 
 OCA  SZ EP        950 26.28                             129    -0.5 9  157 352 
 OCA  SZ ES   1    950 48.99                             129     0.6 7  157 352 
 OCA  SZ I         950 54.70        24.9 0.10                           157 352 
 YOP  SZ EP   2    950 29.47                             125     0.4 4  181 154 
 YOP  SN ES   2    950 52.24                             125    -0.2 4  181 154 
 YOP  SZ I         950 55.35        13.9 0.26                           181 154 
 NOR  SZ EP   1    950 34.38                             117    -0.6 6  238 234 
 NOR  SN ES   1    951  2.47                             117    -0.5 6  238 234 
 CHI  HZ EP   1    950 37.23                             116     0.3 6  252 195 
 CHI  HE ES   2    951  6.28                             116    -0.3 4  252 195 
 CHI  HZ I         951  8.68        14.8 0.36                           252 195 
 HEL  HZ EP   1    950 40.15                             114     0.8 6  275 255 
 HEL  HZ I         951 18.20        11.4 0.44                           275 255 
 RREF HZ EP   1    950 46.26                             110     0.8 5  325 229 
 RREF HE ES   1    951 21.75                             110     0.1 5  325 229 
 RREF HZ I         951 31.47        11.7 0.44                           325 229 
 PRA  HZ EP   1    950 52.87                             106     0.0 4  396 210 
 PRA  HE ES   1    951 34.26                             106    -0.7 4  396 210 
                                                                                
