 2016  326 0720 34.9 L   6.871 -73.121146.0  RSN  6 0.3 1.3LRSN                1
 GAP=186        0.80       3.3     5.3  7.4  0.1824E+01  0.1607E+02 -0.1412E+01E
 Epicentro: LOS SANTOS - SANTANDER                                             3
 ACTION:UPD 16-05-13 21:27 OP:cam  STATUS:               ID:20160326072034 L   I
 OLDACT:REG 16-03-26 13:03 OP:ak   STATUS:               ID:20160326071745     3
 2016-03-26-0717-45M.COL___292                                                 6
 STAT SP IPHASW D HRMM SECON CODA AMPLIT PERI AZIMU VELO AIN AR TRES W  DIS CAZ7
 BAR2 EZ ES        721 10.54                             167    0.3110 31.6 192 
 RUS  HZ EP   2    720 59.41                             142    0.17 5  108 178 
 RUS  HE ES        721 17.95                             142   -0.2710  108 178 
 RUS  HZ I         721 19.61         1.4 0.31            142            108 178 
 PTB  HZ EP        721  1.85                             131   -0.43 9  152 256 
 PTB  HN ES        721 23.13                             131   -0.51 9  152 256 
 PTB  HZ I         721 25.67         1.3 0.17            130            152 256 
 OCA  HE ES        721 23.99                             131   -0.10 9  153 352 
 SPBC HZ EP        721  4.29                             128    0.13 9  171 218 
 SPBC HE ES        721 27.38                             128    0.39 9  171 218 
 SPBC HZ I         721 33.25         2.2 0.08            127            171 218 
 ZAR  HZ EP   2    721  7.75                             123    0.42 4  204 290 
 ZAR  HN ES        721 33.04                             123    0.42 9  204 290 
 ZAR  HZ I         721 38.36         4.6 0.36            122            204 290 
                                                                                
