 2017 1126 0225 44.9 L   6.863 -73.139140.2  RSN 21 0.7 2.3LRSN                1
 GAP=110        1.48       3.8     4.6  7.4 -0.5863E+00  0.1182E+02  0.4950E+01E
 Epicentro: LOS SANTOS - SANTANDER                                             3
 ACTION:UPD 17-12-12 20:00 OP:rebc STATUS:               ID:20171126022544 L   I
 OLDACT:UP  17-11-26 17:17 OP:dani STATUS:               ID:20171126021741d    3
 OLDACT:UP  17-11-26 17:16 OP:dani STATUS:               ID:20171126021741d    3
 OLDACT:UP  17-11-26 17:15 OP:dani STATUS:               ID:20171126021741d    3
 OLDACT:UP  17-11-26 17:14 OP:dani STATUS:               ID:20171126021741d    3
 OLDACT:DUP 17-11-26 17:06 OP:dani STATUS:               ID:20171126021741d    3
 2017-11-26-0218-00M.COL___492                                                 6
 STAT SP IPHASW D HRMM SECON CODA AMPLIT PERI AZIMU VELO AIN AR TRES W  DIS CAZ7
 BAR2 EZ EP     C  226  3.87                             167   -0.1910 30.3 189 
 BAR2 EZ ES        226 19.41                             167    0.4310 30.3 189 
 BAR2 EZ I         226 26.96        35.3 0.20            163           30.3 189 
 PAM  EZ EP        226  6.47                             152    0.2610 71.6  43 
 PAM  EN ES        226 23.42                             152    0.6110 71.6  43 
 PAM  EZ I         226 24.03        42.9 0.22            155           71.6  43 
 RUS  HZ EP        226  8.05                             141   -0.6110  108 177 
 RUS  HN ES        226 26.55                             141   -0.6210  108 177 
 RUS  HZ I         226 29.22        11.8 0.38            138            108 177 
 PTB  HZ EP        226 10.47                             130   -1.19 9  150 256 
 PTB  HN ES        226 32.11                             130   -0.39 9  150 256 
 PTB  HZ I         226 34.30        28.3 0.26            128            150 256 
 OCA  HZ EP        226 11.80                             130   -0.37 9  153 353 
 OCA  HN ES        226 33.07                             130   -0.34 9  153 353 
 OCA  HZ I         226 34.11        46.2 0.62            131            153 353 
 SPBC HZ EP        226 12.98                             127   -0.60 9  169 218 
 SPBC HN ES        226 36.41                             127    0.48 9  169 218 
 SPBC HZ I         226 42.67        32.7 0.26            125            169 218 
 YPLC HZ EP     C  226 14.59                             124   -0.32 9  183 153 
 YPLC HN ES        226 38.52                             124    0.23 9  183 153 
 YPLC HZ I         226 41.43        21.6 0.30            123            183 153 
 ZAR  HZ EP        226 17.75                             121    0.92 9  202 290 
 ZAR  HN ES        226 42.09                             121    0.39 9  202 290 
 ZAR  HZ I         226 47.34        41.4 0.28            121            202 290 
 TABC EZ EP        226 21.81                             117    0.76 8  236 210 
 TABC EZ I         226 56.83        17.4 0.42            116            236 210 
 NOR  HZ EP        226 20.45                             117   -0.41 8  239 233 
 NOR  HN ES        226 47.96                             117   -0.92 8  239 233 
 NOR  HZ I         226 53.48        16.6 0.26            115            239 233 
 CHI  HZ EP        226 22.61                             115   -0.48 8  256 195 
 CHI  HN ES        226 52.65                             115   -0.20 8  256 195 
 CHI  HZ I         226 57.55         7.2 0.64            114            256 195 
 ROSC BZ EP        226 24.42                             115    0.96 8  259 210 
 ROSC BN ES        226 55.27                             115    1.76 8  259 210 
 ROSC BZ I         227  2.15        14.4 0.40            114            259 210 
 HEL  HZ EP        226 26.13                             113    0.98 8  275 254 
 HEL  HE ES        226 55.72                             113   -0.79 8  275 254 
 HEL  HZ I         227  2.73        14.7 0.56            112            275 254 
 URE  HZ EP   3    226 23.71                             113   -1.82 2  282 291 
 URE  HN ES   4    226 54.55                             113   -2.64 0  282 291 
 URE  HZ I         227  5.10        20.5 0.34            112            282 291 
 GUY2CHZ EP        226 29.38                             111    0.56 7  306 234 
 GUY2CHN ES   3    227  4.84                             111    1.79 2  306 234 
 GUY2CHZ I         227 12.36        19.4 0.52                           306 234 
 PTGC HZ EP   3    226 27.46                             110   -1.80 2  315 159 
 PTGC HN ES   4    227  0.69                             110   -3.14 0  315 159 
 PTGC HZ I         227 10.44         8.0 0.36            109            315 159 
 ELA  HZ EP   4    226 35.42                             109    3.28 0  334 229 
 ELA  HE ES   4    227 13.02                             109    4.05 0  334 229 
 ELA  HZ I         227 19.96         7.6 0.54            108            334 229 
 CBOC HZ EP        226 33.18                             109    1.22 7  337 251 
 CBOC HN ES        227  8.22                             109   -0.41 7  337 251 
 CBOC HZ I         227 10.73         3.5 0.16            108            337 251 
 PRA  HZ EP        226 38.96                             105   -0.06 6  398 209 
 PRA  HN ES        227 20.27                             105   -0.94 6  398 209 
 PRA  HZ I         227 24.72         9.4 0.24            105            398 209 
 ORTC HZ EP        226 39.64                             105    0.26 6  402 216 
 ORTC HE ES   3    227 23.06                             105    1.21 1  402 216 
 ORTC HZ I         227 28.83         6.9 0.62            104            402 216 
 SJC  HZ EP   3    226 37.63                             105   -2.04 1  404 326 
                                                                                
