 2010  826 0741 59.2 L   6.736 -73.201139.9  RSN  4 0.1 1.2LRSN                1
 GAP=192        0.39       6.3    11.0  5.0  0.4899E+02  0.3452E+01  0.2462E+01E
 Epicentro: VILLANUEVA - SANTANDER                                             3
 ACTION:UP  10-09-07 10:58 OP:vdl  STATUS:               ID:20100826074159 L   I
 2010-08-26-0739-49S.COL___121                                                 6
 STAT SP IPHASW D HRMM SECON CODA AMPLIT PERI AZIMU VELO SNR AR TRES W  DIS CAZ7
 BAR2 SZ EP   2    742 17.81                             173    -0.2 5   16 173 
 BAR2 SZ I         742 33.69         5.3 0.33                            16 173 
 BTL  SZ EP        742 17.94                             171    -0.110   21 340 
 BTL  SZ ES   1    742 32.96                             171     0.2 7   21 340 
 BRR  HZ IP     D  742 19.66                             152     0.010   70 306 
 BRR  HZ I         742 20.02         4.8 0.15                            70 306 
 BRR  HE ES   2    742 35.46                             152    -0.1 5   70 306 
 RUS  HZ EP   2    742 22.14                             144     0.3 5   94 172 
 RUS  HN ES   2    742 39.53                             144    -0.1 5   94 172 
 RUS  HZ I         742 40.92         1.5 0.31                            94 172 
                                                                                
