 2013  326 0946 56.6 L   6.802 -73.152147.1  RSN  9 0.5 2.1LRSN                1
 GAP=136        1.01       4.7     5.6  7.7  0.2696E+01  0.1097E+02  0.8999E+01E
 Epicentro: LOS SANTOS - SANTANDER                                             3
 ACTION:UPD 13-04-09 14:05 OP:ep   STATUS:               ID:20130326094656 L   I
 2013-03-26-0940-00M.COL___244                                                 6
 STAT SP IPHASW D HRMM SECON CODA AMPLIT PERI AZIMU VELO AIN AR TRES W  DIS CAZ7
 BAR2 SZ EP        947 16.41                             171    0.0110 23.4 188 
 BAR2 SZ ES   1    947 30.86                             171   -0.97 7 23.4 188 
 BAR2 SZ I         947 33.04        43.3 0.16            167           23.4 188 
 BRR  HZ IP     C  947 18.23                             153    0.3710 70.5 299 
 BRR  HN ES   1    947 35.65                             153    1.21 7 70.5 299 
 BRR  HZ I         947 39.54        18.0 0.16            150           70.5 299 
 PAM  SZ EP   1    947 19.23                             151    0.25 7 77.7  40 
 PAM  SN ES   1    947 36.36                             151   -0.07 7 77.7  40 
 PAM  SZ I         947 38.59        15.3 0.46            158           77.7  40 
 RUS  HZ EP        947 20.43                             144   -0.0710  101 176 
 RUS  HN ES   1    947 39.41                             144    0.26 7  101 176 
 RUS  HZ I         947 40.76        15.2 0.36            146            101 176 
 PTB  HZ EP        947 22.99                             132   -0.63 9  147 259 
 PTB  HN ES   1    947 44.21                             132   -0.48 7  147 259 
 PTB  HZ I         947 51.02        13.7 0.46            131            147 259 
 OCA  HN ES   2    947 46.46                             130   -0.68 5  160 353 
 ZAR  HZ EP   1    947 29.01                             123   -0.05 6  203 292 
 ZAR  HN ES   1    947 54.26                             123   -0.12 6  203 292 
 ZAR  HZ I         947 59.64        13.5 0.36            123            203 292 
 CHI  HZ EP        947 34.44                             117    0.06 8  249 195 
 CHI  HN ES   1    948  4.09                             117    0.25 6  249 195 
 CHI  HZ I         948  6.07         6.7 0.32            119            249 195 
 RREF HZ EP   2    947 43.55                             111    0.79 3  321 229 
 RREF HN ES   2    948 19.48                             111    0.72 3  321 229 
 RREF HZ I         948 28.44         8.9 0.36            112            321 229 
                                                                                
