 2011 1226 0736 35.8 L   6.747 -73.399113.8  RSN 13 0.4 2.4LRSN                1
 GAP= 76        0.68       2.5     3.0  4.6 -0.4665E+00  0.5741E+01  0.2555E+01E
 Epicentro: EL CARMEN DE CHUCURI - SANTANDER                                   3
 ACTION:UPD 12-07-13 16:18 OP:ep   STATUS:               ID:20111226073635 L   I
 2011-12-26-0730-00M.COL___187                                                 6
 STAT SP IPHASW D HRMM SECON CODA AMPLIT PERI AZIMU VELO AIN AR TRES W  DIS CAZ7
 BAR2 SZ EP        736 52.05                             165    0.2310 29.5 125 
 BAR2 SZ ES   1    737  4.16                             165   -0.13 7 29.5 125 
 BAR2 SZ I         737  5.49       245.1 0.30                          29.5 125 
 GIR2 SZ EP        736 52.38                             158    0.1610 43.2  32 
 GIR2 SZ ES   1    737  4.71                             158   -0.28 7 43.2  32 
 BRR  HZ IP     C  736 52.47                             153   -0.0210 52.7 319 
 BRR  HN ES   1    737  5.68                             153    0.20 7 52.7 319 
 BRR  HZ I         737  7.03       168.9 0.14                          52.7 319 
 PAM  SZ EP   1    736 56.99                             136    0.32 7  101  50 
 PAM  SZ I         736 58.99        16.7 0.24                           101  50 
 PAM  SN ES   1    737 12.81                             136   -0.10 7  101  50 
 RUS  HZ EP   1    736 56.59                             136   -0.03 7  101 160 
 RUS  HE ES   1    737 12.93                             136    0.11 7  101 160 
 RUS  HZ I         737 14.83        35.8 0.29                           101 160 
 OCA  SZ EP   1    737  2.32                             120   -0.09 7  165   3 
 OCA  SZ ES   1    737 22.38                             120   -0.75 7  165   3 
 OCA  SZ I         737 29.00        45.1 0.53                           165   3 
 ZAR  HZ EP   1    737  4.38                             118    0.48 7  181 297 
 ZAR  HN ES   1    737 26.32                             118    0.53 7  181 297 
 ZAR  HZ I         737 28.47        39.5 0.31                           181 297 
 NOR  SZ EP   1    737  6.04                             114   -0.97 6  209 231 
 NOR  SN ES   1    737 31.15                             114   -0.17 6  209 231 
 CHI  HZ EP   1    737 11.07                             111    0.41 6  237 189 
 CHI  HZ I         737 43.99        21.3 0.33                           237 189 
 HEL  HZ EP   1    737 11.30                             110   -0.03 6  243 255 
 HEL  HE ES   1    737 38.67                             110   -0.35 6  243 255 
 HEL  HZ I         737 43.16        13.2 0.23                           243 255 
 VIL  SZ EP   1    737 16.31                             106   -0.50 5  293 186 
 VIL  SZ I         737 56.39        18.4 0.43                           293 186 
 RREF HZ EP   1    737 18.36                             106    0.48 5  297 227 
 RREF HZ I         738  0.02        12.8 0.39                           297 227 
 PRA  HZ EP   2    737 26.30                             101    0.05 3  374 206 
 PRA  HN ES   2    738  5.33                             101   -0.24 3  374 206 
                                                                                
