 2012 1126 0355 55.1 L   6.794 -73.158146.7  RSN 13 0.4 2.2LRSN                1
 GAP= 71        0.84       2.2     2.9  4.2 -0.6823E+00  0.3176E+01  0.7912E+00E
 Epicentro: LOS SANTOS - SANTANDER                                             3
 ACTION:UPD 12-12-05 15:36 OP:}ep  STATUS:               ID:20121126035555 L   I
 2012-11-26-0350-00M.COL___233                                                 6
 STAT SP IPHASW D HRMM SECON CODA AMPLIT PERI AZIMU VELO AIN AR TRES W  DIS CAZ7
 BAR2 SZ EP        356 14.71                             171   -0.0710 22.4 187 
 BAR2 SZ ES        356 29.63                             171   -0.5310 22.4 187 
 BAR2 SZ I         356 31.29        29.2 0.36                          22.4 187 
 GIR2 SZ EP        356 14.98                             167    0.1310 31.8 353 
 GIR2 SZ ES        356 30.65                             167    0.3610 31.8 353 
 GIR2 SZ I         356 31.94        20.8 0.60                          31.8 353 
 PAM  SZ EP        356 17.61                             150    0.1510 78.8  40 
 PAM  SN ES        356 34.83                             150   -0.0910 78.8  40 
 PAM  SN I         356 36.04        29.1 0.44                          78.8  40 
 RUS  HZ EP        356 18.59                             144   -0.2710  100 175 
 RUS  HN ES        356 37.58                             144    0.1610  100 175 
 RUS  HN I         356 38.76        13.4 0.16                           100 175 
 PTB  HZ EP        356 21.76                             132   -0.21 9  146 259 
 PTB  HN ES        356 42.63                             132   -0.33 9  146 259 
 PTB  HN I         356 48.27        66.4 0.36                           146 259 
 TAM  HZ EP     C  356 22.88                             130   -0.04 9  156 105 
 OCA  HZ EP        356 23.55                             130    0.06 9  161 354 
 OCA  HN ES        356 45.62                             130   -0.05 9  161 354 
 OCA  HZ I         356 53.49         6.7 0.26                           161 354 
 ZAR  HZ EP        356 27.34                             123   -0.12 9  203 292 
 ZAR  HE ES        356 53.07                             123    0.34 9  203 292 
 ZAR  HN I         357  0.39        21.0 0.36                           203 292 
 NOR  HZ EP        356 30.84                             119    0.16 8  233 234 
 NOR  HN ES        356 58.59                             119    0.13 8  233 234 
 NOR  HN I         357  4.89        21.7 0.18                           233 234 
 SML  HZ EP        356 31.25                             118   -0.49 8  244 336 
 SML  HN ES        357  1.05                             118    0.69 8  244 336 
 SML  HN I         357  6.41        21.2 0.10                           244 336 
 CHI  HZ EP        356 32.88                             117    0.18 8  248 195 
 CHI  HN ES        357  2.69                             117    0.63 8  248 195 
 CHI  HN I         357  4.50        11.1 0.28                           248 195 
 HEL  HN ES        357  5.89                             115   -0.54 8  271 256 
 HEL  HN I         357 16.45         5.9 0.24                           271 256 
 PRA  HZ EP        356 47.59                             107   -0.87 6  391 209 
 PRA  HN ES        357 30.97                             107    0.85 6  391 209 
 PRA  HN I         357 35.70         4.5 0.70                           391 209 
                                                                                
