 2016  726 0445 18.2 L   6.808 -73.117144.0  RSN 30 0.5 3.0LRSN                1
 GAP= 68        1.08       2.8     2.7  4.5 -0.7248E+00  0.2675E+01  0.2138E+01E
 Epicentro: LOS SANTOS - SANTANDER                                             3
 ACTION:UPD 17-03-29 16:55 OP:lp   STATUS:               ID:20160726044518 L   I
 OLDACT:UP  16-07-26 16:46 OP:ar   STATUS:               ID:20160726043760d    3
 OLDACT:UP  16-07-26 16:41 OP:ar   STATUS:               ID:20160726043760d    3
 OLDACT:DUP 16-07-26 16:28 OP:ar   STATUS:               ID:20160726043760d    3
 2016-07-26-0437-59S.COL___334                                                 6
 STAT SP IPHASW D HRMM SECON CODA AMPLIT PERI AZIMU VELO AIN AR TRES W  DIS CAZ7
 BAR2 EZ IP     D  445 37.56                             170   -0.1310 24.9 197 
 BAR2 EZ ES        445 52.14                             170   -0.7210 24.9 197 
 BAR2 EZ I         445 54.95       215.5 0.34            167           24.9 197 
 BRR  HZ IP     D  445 39.35                             151    0.0210 73.6 297 
 BRR  HN ES        445 56.06                             151    0.2810 73.6 297 
 BRR  HZ I         446  0.99       220.3 0.18            150           73.6 297 
 PAM  EZ EP     D  445 40.33                             151    0.2210 74.7  38 
 PAM  EE ES        445 57.40                             151    0.2410 74.7  38 
 PAM  EZ I         445 59.73       218.7 0.70            155           74.7  38 
 RUS  HZ EP        445 41.66                             143   -0.2110  101 178 
 RUS  HN ES        446  0.12                             143   -0.1810  101 178 
 RUS  HZ I         446  2.04        44.6 0.26            143            101 178 
 PTB  HZ EP        445 44.57                             131   -0.79 9  151 259 
 PTB  HE ES        446  5.55                             131   -0.96 9  151 259 
 PTB  HZ I         446  8.05       122.6 0.16            130            151 259 
 TAM  HZ IP     D  445 45.99                             130    0.47 9  152 106 
 TAM  HE ES        446  6.99                             130    0.20 9  152 106 
 TAM  HZ I         446  8.61        65.3 0.36            134            152 106 
 SPBC HZ EP        445 46.67                             128   -0.19 9  166 220 
 SPBC HN ES        446  9.60                             128    0.42 9  166 220 
 SPBC HZ I         446 13.20       150.4 0.18            128            166 220 
 ZAR  HZ EP        445 50.71                             121   -0.13 8  207 292 
 ZAR  HN ES        446 16.21                             121   -0.05 8  207 292 
 ZAR  HZ I         446 21.32       151.4 0.26            122            207 292 
 NOR  HZ EP        445 54.29                             118    0.09 8  238 235 
 NOR  HE ES        446 21.82                             118   -0.42 8  238 235 
 NOR  HZ I         446 25.75        96.6 0.16            118            238 235 
 CHI  HZ EP        445 56.02                             116   -0.00 8  250 196 
 CHI  HN ES        446 26.51                             116    1.01 8  250 196 
 CHI  HZ I         446 32.90        32.5 0.26            117            250 196 
 ROSC BZ EP   9    445 58.11                             116    1.59 0  255 212 
 ROSC BN ES        446 27.81                             116   -0.16 8  255 212 
 ROSC BZ I         446 33.87        75.2 0.50            116            255 212 
 HEL  HZ EP        445 59.47                             114    0.75 7  275 256 
 HEL  HN ES        446 31.27                             114    0.97 7  275 256 
 HEL  HZ I         446 36.07        59.8 0.24            114            275 256 
 URE  HZ EP   4    445 57.79                             113   -1.72 0  286 292 
 URE  HN ES   4    446 28.62                             113   -3.08 0  286 292 
 URE  HZ I         446 38.16        83.1 0.22            113            286 292 
 GUY2CHZ EP        446  2.35                             112    0.24 7  304 235 
 GUY2CHE ES        446 37.15                             112    0.81 7  304 235 
 GUY2CHZ I         446 43.02        42.4 0.32                           304 235 
 VIL  EZ EP        446  1.63                             111   -0.12 7  305 192 
 VIL  EE ES        446 35.83                             111    0.15 7  305 192 
 VIL  EZ I         446 45.28        46.9 0.32            112            305 192 
 LL1C HZ EP   4    446  4.20                             111    2.49 0  306 351 
 LL1C HN ES   4    446 37.23                             111    1.62 0  306 351 
 PTGC HZ IP     C  446  1.01                             111   -0.97 7  308 159 
 PTGC HN ES   4    446 34.28                             111   -1.82 0  308 159 
 PTGC HZ I         446 36.26        33.8 0.40            112            308 159 
 ELA  HZ EP   9    446  6.82                             110    1.47 0  332 230 
 ELA  HN ES        446 43.75                             110    0.18 7  332 230 
 ELA  HZ I         446 53.63        45.4 0.34            110            332 230 
 CBOC HZ EP        446  5.70                             109    0.25 7  337 252 
 CBOC HN ES        446 41.71                             109   -0.57 7  337 252 
 CBOC HZ I         446 47.99        18.0 0.22            110            337 252 
 ARGC HZ EP        446  8.12                             108    0.27 6  359 340 
 ARGC HN ES        446 46.90                             108    0.35 6  359 340 
 ARGC HZ I         446 53.99        15.3 0.44            109            359 340 
 ANIL HZ EP   4    446  9.77                             108    1.47 0  360 225 
 ANIL HN ES        446 48.44                             108    1.08 6  360 225 
 ANIL HZ I         446 55.03        89.6 0.30            108            360 225 
 PRA  HZ EP        446 11.63                             106   -0.34 6  394 210 
 PRA  HN ES        446 54.25                             106    0.37 6  394 210 
 PRA  HZ I         446 59.58        48.3 0.28            107            394 210 
 PAL  HZ EP        446 13.87                             105    0.16 6  409 239 
 PAL  HN ES        446 56.64                             105   -0.34 6  409 239 
 PAL  HZ I         446 58.27        19.6 0.36            106            409 239 
 SJC  HZ EP   4    446 11.69                             105   -2.17 0  410 327 
 SJC  HN ES   4    446 53.01                             105   -4.23 0  410 327 
 SJC  HZ I         446 56.70        20.1 0.32            106            410 327 
 LCBC HZ EP   4    446 22.00                             105    6.60 0  424 303 
 LCBC HE ES   4    447  0.46                             105    0.47 0  424 303 
 LCBC HZ I         447  7.71        29.2 0.74            105            424 303 
 CRJC HZ EP   4    446 18.01                             103   -2.55 0  467   3 
 CRJC HN ES   4    447  5.07                             103   -4.10 0  467   3 
 CRJC HZ I         447  6.12         9.3 0.14            104            467   3 
 GUA  EZ EP        446 20.29                             103   -1.11 5  475 173 
 GUA  EN ES   4    447  8.56                             103   -2.11 0  475 173 
 GUA  EZ I         447 11.92        16.8 0.18            104            475 173 
 YOT  HZ EP        446 20.62                             103   -0.96 5  475 229 
 MACC HZ EP   4    446 24.99                             101   -2.08 0  522 189 
 MACC HN ES   4    447 16.87                             101   -3.88 0  522 189 
 MACC HZ I         447 20.24        15.2 0.82            102            522 189 
 GARC HZ EP   4    446 32.56                             100   -1.16 0  575 207 
 GARC HN ES   4    447 28.87                             100   -3.73 0  575 207 
 GARC HZ I         447 38.13        14.5 0.26            100            575 207 
 POP2 HZ EP        446 37.56                              99   -0.98 3  615 220 
 POP2 HE ES        447 40.38                              99   -0.80 3  615 220 
                                                                                
