 2013  926 0424 45.3 L   6.807 -73.135146.8  RSN 10 0.5 1.8LRSN                1
 GAP=184        1.12       4.1     6.5  8.8  0.3437E+01  0.3847E+01  0.8120E+01E
 Epicentro: LOS SANTOS - SANTANDER                                             3
 ACTION:UPD 13-10-22 09:25 OP:ep   STATUS:               ID:20130926042445 L   I
 OLDACT:UP  13-09-26 10:12 OP:mh   STATUS:               ID:20130926041960d    3
 OLDACT:DUP 13-09-26 10:09 OP:mh   STATUS:               ID:20130926041960d    3
 2013-09-26-0419-59M.COL___272                                                 6
 STAT SP IPHASW D HRMM SECON CODA AMPLIT PERI AZIMU VELO AIN AR TRES W  DIS CAZ7
 BRR  HZ EP   1    425  7.31                             152    0.67 7 71.9 298 
 BRR  HN ES        425 24.03                             152    0.7810 71.9 298 
 BRR  HZ I         425 28.59         7.6 0.14             93           71.9 298 
 RUS  HZ EP   1    425  9.64                             144    0.40 7  101 177 
 RUS  HN ES        425 27.29                             144   -0.5910  101 177 
 PTB  HZ EP   1    425 12.06                             132   -0.45 7  149 259 
 PTB  HN ES        425 33.33                             132   -0.37 9  149 259 
 PTB  HZ I         425 38.31         6.0 0.26             37            149 259 
 OCA  HN ES        425 35.47                             130   -0.31 9  160 353 
 OCA  HZ I         425 41.17         7.4 0.22             37            160 353 
 SPBC HZ EP   1    425 14.01                             129   -0.03 7  165 219 
 SPBC HN ES        425 36.27                             129   -0.16 9  165 219 
 SPBC HZ I         425 43.23        11.9 0.24             37            165 219 
 ZAR  HN ES        425 42.85                             122   -0.52 9  205 292 
 NOR  HN ES   1    425 49.75                             118    0.44 6  236 234 
 CHI  HZ EP   1    425 22.76                             117   -0.45 6  250 195 
 CHI  HN ES   1    425 53.53                             117    0.79 6  250 195 
 CHI  HZ I         425 58.20         2.6 0.56             37            250 195 
 GUY2CHZ EP        425 29.90                             112    0.74 7  303 235 
 PRA  HZ EP   1    425 38.37                             107   -0.67 4  393 210 
 PRA  HZ I         426 26.96         2.7 0.32             36            393 210 
                                                                                
