 2016  326 0234 40.6 L   6.792 -73.170137.6  RSN  6 0.3 1.5LRSN                1
 GAP=134        0.82       3.3     3.8  6.5 -0.8186E+00  0.1027E+02 -0.3305E+01E
 Epicentro: LOS SANTOS - SANTANDER                                             3
 ACTION:UPD 16-05-13 21:27 OP:cam  STATUS:               ID:20160326023440 L   I
 OLDACT:DUP 16-03-26 14:56 OP:ak   STATUS:               ID:20160326022744d    3
 OLDACT:REG 16-03-26 12:42 OP:ak   STATUS:               ID:20160326022743     3
 2016-03-26-0227-43M.COL___293                                                 6
 STAT SP IPHASW D HRMM SECON CODA AMPLIT PERI AZIMU VELO AIN AR TRES W  DIS CAZ7
 BAR2 EZ ES        235 13.97                             170    0.2010 22.2 184 
 PAM  EZ EP        235  2.14                             148    0.0210 79.8  41 
 PAM  EN ES        235 18.79                             148   -0.1010 79.8  41 
 PAM  EZ I         235 21.14         8.9 0.44            152           79.8  41 
 RUS  HZ EP        235  3.47                             142   -0.0610100.0 174 
 RUS  HE ES        235 21.61                             142    0.2110100.0 174 
 RUS  HZ I         235 23.35         2.6 0.42            146          100.0 174 
 PTB  HZ EP        235  6.43                             131   -0.24 9  145 259 
 PTB  HN ES        235 26.36                             131   -0.63 9  145 259 
 PTB  HZ I         235 29.38         4.1 0.36            131            145 259 
 OCA  HN ES        235 29.77                             128   -0.23 9  161 354 
 ZAR  HZ EP        235 12.63                             121    0.31 9  202 293 
 ZAR  HN ES        235 37.68                             121    0.64 9  202 293 
 ZAR  HZ I         235 46.22         3.8 0.35            122            202 293 
                                                                                
