 2016  426 0513  0.5 L   6.807 -73.177144.0  RSN  8 0.3 1.9LRSN                1
 GAP=132        0.69       2.9     3.1  5.1 -0.1599E+01  0.5224E+01 -0.1082E+01E
 Epicentro: LOS SANTOS - SANTANDER                                             3
 ACTION:UPD 16-05-05 14:24 OP:rebc STATUS:               ID:20160426051300 L   I
 OLDACT:REG 16-04-26 12:59 OP:dnl  STATUS:               ID:20160426050749     3
 2016-04-26-0507-49M.COL___309                                                 6
 STAT SP IPHASW D HRMM SECON CODA AMPLIT PERI AZIMU VELO AIN AR TRES W  DIS CAZ7
 BAR2 EZ EP        513 19.89                             170   -0.0210 23.7 181 
 BAR2 EZ ES        513 35.25                             170    0.1910 23.7 181 
 BAR2 EZ I         513 36.17        20.9 0.22            171           23.7 181 
 PAM  EZ EP        513 22.91                             150    0.2910 79.1  42 
 PAM  EN ES        513 39.71                             150   -0.1710 79.1  42 
 PAM  EZ I         513 42.71         7.2 0.66            153           79.1  42 
 RUS  HZ EP        513 23.70                             143   -0.4410  102 174 
 RUS  HN ES        513 42.59                             143   -0.0010  102 174 
 RUS  HZ I         513 43.92        11.6 0.24            148            102 174 
 PTB  HZ EP        513 26.54                             132   -0.47 9  144 258 
 PTB  HN ES        513 47.72                             132    0.01 9  144 258 
 PTB  HZ I         513 52.04         6.6 0.13            132            144 258 
 OCA  HZ EP   2    513 29.58                             130    1.03 5  159 354 
 OCA  HE ES   2    513 50.57                             130    0.12 5  159 354 
 OCA  HZ I         513 55.94        10.8 0.18            130            159 354 
 SPBC HZ EP        513 28.72                             129    0.02 9  162 218 
 SPBC HE ES        513 51.14                             129    0.43 9  162 218 
 SPBC HZ I         513 57.69        13.5 0.30            131            162 218 
 ZAR  HZ EP   2    513 32.42                             123   -0.04 4  201 292 
 ZAR  HN ES        513 57.29                             123   -0.10 9  201 292 
 ZAR  HZ I         514  6.22         8.9 0.54            123            201 292 
 GUY2CHZ EP   4    513 45.21                             112    1.47 0  299 234 
 GUY2CHE ES   2    514 17.64                             112    0.16 4  299 234 
 GUY2CHZ I         514 26.18         3.6 0.38                           299 234 
                                                                                
