 2012  326 0226 30.4 L   7.030 -73.539110.0  RSN  4 0.4 1.4LRSN                1
 GAP=136        0.86       9.4     6.0  8.5 -0.6623E+01  0.2662E+01 -0.6284E+01E
 ACTION:UP  12-03-31 23:22 OP:EP   STATUS:               ID:20120326022630 L   I
 2012-03-26-0220-00M.COL___196                                                 6
 STAT SP IPHASW D HRMM SECON CODA AMPLIT PERI AZIMU VELO SNR AR TRES W  DIS CAZ7
 BRR  HZ EP        226 45.58                             169     0.210   21 294 
 BRR  HN ES   1    226 57.20                             169     0.2 7   21 294 
 BRR  HZ I         226 57.78        18.9 0.14                            21 294 
 BAR2 SZ IP        226 48.05                             149     0.410   62 141 
 BAR2 SZ I         226 48.22         7.3 0.22                            62 141 
 BAR2 SZ ES   1    227  0.75                             149    -0.2 7   62 141 
 PAM  SZ EP        226 50.49                             135    -0.210   99  70 
 PAM  SE ES   3    227  5.27                             135    -1.3 2   99  70 
 PTB  HZ EP        226 51.25                             130    -0.310  115 242 
 PTB  HN ES   3    227  6.87                             130    -1.1 2  115 242 
 PTB  HZ I         227 12.67         2.6 0.44                           115 242 
                                                                                
