 2015  226 0032 47.3 L   6.854 -73.188138.4  RSN  4 0.5 1.2LRSN                1
 GAP=129        1.21       6.9     6.9 13.4 -0.1245E+02  0.3244E+02 -0.4606E+01E
 Epicentro: ZAPATOCA - SANTANDER                                               3
 ACTION:UPD 15-04-30 21:29 OP:nd   STATUS:               ID:20150226003247 L   I
 OLDACT:REG 15-02-26 12:23 OP:mher STATUS:               ID:20150226002738     3
 2015-02-26-0027-38M.COL___302                                                 6
 STAT SP IPHASW D HRMM SECON CODA AMPLIT PERI AZIMU VELO AIN AR TRES W  DIS CAZ7
 BRR  HZ EP        033  8.12                             154    0.8410 64.3 296 
 PAM  SZ EP        033  8.94                             150    0.2710 76.1  45 
 PAM  SZ I         033  9.14         6.6 0.20            153           76.1  45 
 PAM  SN ES        033 24.90                             150   -0.4410 76.1  45 
 RUS  HZ EP        033 10.47                             140   -0.3610  107 174 
 RUS  HN ES        033 29.48                             140    0.3010  107 174 
 RUS  HZ I         033 30.77         1.5 0.30            142            107 174 
 PTB  HZ EP        033 12.80                             131   -0.58 9  144 256 
 PTB  HN ES        033 33.61                             131   -0.11 9  144 256 
 PTB  HZ I         033 36.66         2.3 0.18            132            144 256 
                                                                                
