 2015  426 0402 30.2 L   6.779 -73.129145.5  RSN  6 0.4 1.3LRSN                1
 GAP=140        0.96       5.2     4.5  7.2 -0.4178E+00  0.9798E+01 -0.6132E+01E
 Epicentro: LOS SANTOS - SANTANDER                                             3
 ACTION:UPD 15-06-03 16:57 OP:cam  STATUS:               ID:20150426040230 L   I
 OLDACT:DUP 15-04-26 15:51 OP:ak   STATUS:               ID:20150426035748d    3
 2015-04-26-0357-47M.COL___271                                                 6
 STAT SP IPHASW D HRMM SECON CODA AMPLIT PERI AZIMU VELO AIN AR TRES W  DIS CAZ7
 BAR2 EZ EP        4 2 49.92                             171    0.1510 21.5 196 
 BAR2 EZ ES        4 3  5.01                             171   -0.0210 21.5 196 
 BAR2 EZ I         4 3  8.28         5.2 0.42            173           21.5 196 
 BRR  HZ IP     C  4 2 51.83                             152    0.3410 73.9 299 
 BRR  HN ES        4 3  8.72                             152    0.6410 73.9 299 
 BRR  HZ I         4 3 13.69         3.5 0.10            152           73.9 299 
 PAM  SZ EP        4 2 52.56                             151    0.1210 78.0  37 
 PAM  SN ES        4 3  9.30                             151   -0.4710 78.0  37 
 PAM  SZ I         4 3 12.00         4.5 0.48            153           78.0  37 
 RUS  HN ES        4 3 12.05                             144   -0.0810 98.2 177 
 RUS  HZ I         4 3 13.47         1.4 0.26            150           98.2 177 
 PTB  HZ EP        4 2 56.86                             132   -0.42 9  149 260 
 PTB  HE ES        4 3 18.29                             132   -0.10 9  149 260 
 PTB  HZ I         4 3 18.99         3.0 0.12            135            149 260 
 ZAR  HZ EP   1    4 3  3.47                             122    0.57 6  207 293 
 ZAR  HN ES        4 3 27.77                             122   -0.63 8  207 293 
 ZAR  HZ I         4 3 31.39         1.6 0.07            125            207 293 
 MON  HN ES   4    4 3 55.33                             108   -2.67 0  357 308 
                                                                                
