 2014  626 0433 45.5 L   6.824 -73.118104.6  RSN  6 0.5 1.2LRSN                1
 GAP=157        1.26       6.1     6.4 13.4 -0.1929E+02  0.4417E+02 -0.3285E+02E
 Epicentro: LOS SANTOS - SANTANDER                                             3
 ACTION:UPD 14-07-01 22:56 OP:nd   STATUS:               ID:20140626043345 L   I
 OLDACT:REG 14-06-26 12:35 OP:spq  STATUS:               ID:20140626042820     3
 2014-06-26-0428-20M.COL___256                                                 6
 STAT SP IPHASW D HRMM SECON CODA AMPLIT PERI AZIMU VELO AIN AR TRES W  DIS CAZ7
 BAR2 SZ EP        434  0.62                             165    0.3310 26.5 196 
 BAR2 SZ ES   1    434 11.84                             165   -0.00 7 26.5 196 
 BAR2 SZ I         434 17.67         2.4 0.12            166           26.5 196 
 PAM  SZ EP        434  3.86                             142    0.6310 73.4  39 
 PAM  SN ES        434 16.58                             142   -0.4910 73.4  39 
 PAM  SZ I         434 19.13         3.0 0.20            150           73.4  39 
 PTB  HZ EP   4    434  7.85                             120   -1.99 0  151 258 
 PTB  HN ES        434 28.39                             120   -0.44 9  151 258 
 PTB  HZ I         434 31.70         3.2 0.10            124            151 258 
 OCA  HZ EP        434  9.76                             118   -0.98 9  158 352 
 OCA  HN ES        434 30.95                             118    0.51 9  158 352 
 OCA  HZ I         434 35.34         3.4 0.28            124            158 352 
 SPBC HE ES   1    434 32.08                             117    0.05 7  167 219 
 SPBC HZ I         434 37.16         1.9 0.13            122            167 219 
 ZAR  HE ES        434 39.92                             111    0.39 8  206 291 
 ZAR  HZ I         434 44.82         2.5 0.30            116            206 291 
                                                                                
