 2017 1026 0447 20.4 L   6.748 -73.134145.8  RSN  4 0.1 1.0LRSN              1 1
 GAP=140        0.35       2.3     2.5  4.4  0.1731E+01 -0.4661E+01 -0.2703E+01E
 Epicentro: LOS SANTOS - SANTANDER                                             3
 ACTION:UPD 17-11-07 19:37 OP:rebc STATUS:               ID:20171026044720 L   I
 OLDACT:REG 17-10-26 13:05 OP:dani STATUS:               ID:20171026043741     3
 2017-10-26-0438-00M.COL___429                                                 6
 STAT SP IPHASW D HRMM SECON CODA AMPLIT PERI AZIMU VELO AIN AR TRES W  DIS CAZ7
 BRR  HZ EP        447 41.75                             151   -0.0110 75.2 302 
 BRR  HN ES        447 58.52                             151    0.0810 75.2 302 
 BRR  HZ I         448  4.79         3.0 0.36            154           75.2 302 
 PAM  EZ EP        447 42.74                             150   -0.0810 81.1  36 
 RUS  HZ EP        447 43.85                             145    0.1310 94.8 177 
 RUS  HN ES        448  1.87                             145   -0.0610 94.8 177 
 RUS  HZ I         448  3.01         1.0 0.40            154           94.8 177 
 PTB  HE ES        448  8.36                             132   -0.07 9  148 261 
                                                                                
