 2017 1126 0048 35.4 L   6.821 -73.159141.7  RSN 12 0.6 2.0LRSN                1
 GAP=110        1.04       5.5     4.4  6.4 -0.8386E+01  0.5325E+01 -0.7495E+00E
 Epicentro: LOS SANTOS - SANTANDER                                             3
 ACTION:UPD 17-12-12 20:00 OP:rebc STATUS:               ID:20171126004835 L   I
 OLDACT:UP  17-11-26 16:09 OP:dani STATUS:               ID:20171126004743     3
 OLDACT:REG 17-11-26 12:49 OP:dani STATUS:               ID:20171126004743     3
 2017-11-26-0048-00M.COL___492                                                 6
 STAT SP IPHASW D HRMM SECON CODA AMPLIT PERI AZIMU VELO AIN AR TRES W  DIS CAZ7
 BAR2 EZ EP        048 54.67                             170    0.0810 25.4 186 
 BAR2 EZ ES        049  9.86                             170    0.3010 25.4 186 
 BAR2 EZ I         049 11.39        45.4 0.22            175           25.4 186 
 PAM  EZ EP        048 57.58                             150    0.4410 76.6  42 
 PAM  EZ I         049 16.92        16.4 0.46            145           76.6  42 
 RUS  HZ EP        048 58.67                             143   -0.2710  103 175 
 RUS  HN ES        049 16.90                             143   -0.4010  103 175 
 RUS  HZ I         049 18.57        16.8 0.32            145            103 175 
 TAM  HZ EP        049  2.93                             130   -0.03 9  157 106 
 SPBC HZ EP        049  2.54                             128   -1.14 9  164 218 
 SPBC HN ES        049 25.66                             128   -0.08 9  164 218 
 SPBC HZ I         049 28.35        22.5 0.30            128            164 218 
 YPLC HZ EP        049  5.02                             126   -0.16 9  180 151 
 YPLC HN ES        049 28.93                             126    0.52 9  180 151 
 YPLC HZ I         049 32.61         7.9 0.38            125            180 151 
 NOR  HZ EP        049 11.65                             118    0.73 8  235 234 
 NOR  HE ES        049 38.57                             118   -0.05 8  235 234 
 NOR  HZ I         049 44.38         6.2 0.18            117            235 234 
 CHI  HZ EP        049 12.65                             116   -0.44 8  251 195 
 CHI  HN ES   3    049 41.11                             116   -1.37 2  251 195 
 CHI  HZ I         049 51.96         4.1 0.42            116            251 195 
 URE  HN ES   3    049 46.04                             113   -1.67 2  282 292 
 GUY2CHZ EP   3    049 20.59                             112    1.74 2  301 234 
 GUY2CHE ES        049 53.38                             112    0.65 7  301 234 
 GUY2CHZ I         050  2.20         3.4 0.66                           301 234 
 PRA  HZ EP        049 28.51                             106   -0.43 6  393 209 
 PRA  HN ES        050 11.07                             106    0.37 6  393 209 
 PRA  HZ I         050 16.67         3.8 0.40            105            393 209 
 ORTC HZ EP        049 29.68                             106    0.37 6  396 216 
 ORTC HN ES   3    050 13.23                             106    1.88 1  396 216 
 ORTC HZ I         050 18.38         2.7 0.52            105            396 216 
                                                                                
