 2016 1226 0442 53.4 L   6.790 -73.156145.7  RSN  7 0.4 1.4LRSN                1
 GAP=136        0.86       3.6     4.2  5.6 -0.4109E+00  0.3681E+01  0.4670E+01E
 Epicentro: LOS SANTOS - SANTANDER                                             3
 ACTION:UPD 17-01-11 20:19 OP:rebc STATUS:               ID:20161226044253 L   I
 OLDACT:REG 16-12-26 12:44 OP:edw  STATUS:               ID:20161226043747     3
 2016-12-26-0438-00M.COL___369                                                 6
 STAT SP IPHASW D HRMM SECON CODA AMPLIT PERI AZIMU VELO AIN AR TRES W  DIS CAZ7
 BAR2 EZ EP        443 12.77                             171   -0.2410 22.1 187 
 BAR2 EZ ES        443 28.09                             171   -0.2010 22.1 187 
 BAR2 EZ I         443 29.43        10.1 0.16            170           22.1 187 
 BRR  HZ IP     C  443 14.55                             153    0.0310 70.7 300 
 BRR  HN ES        443 31.74                             153    0.7510 70.7 300 
 BRR  HZ I         443 32.30         6.3 0.12            154           70.7 300 
 PAM  EZ EP        443 15.72                             150    0.0110 79.0  40 
 PAM  EN ES        443 32.94                             150   -0.1710 79.0  40 
 PAM  EZ I         443 34.97         7.5 0.48            153           79.0  40 
 RUS  HZ EP        443 16.86                             144   -0.2310 99.6 175 
 RUS  HN ES        443 35.75                             144    0.2010 99.6 175 
 RUS  HZ I         443 37.29         1.9 0.30            144           99.6 175 
 PTB  HZ EP        443 20.02                             132   -0.23 9  146 259 
 PTB  HN ES        443 40.62                             132   -0.56 9  146 259 
 PTB  HZ I         443 43.00         1.8 0.42            133            146 259 
 ZAR  HZ EP   2    443 26.61                             122    0.83 4  203 293 
 ZAR  HN ES   2    443 50.83                             122   -0.20 4  203 293 
 CHI  HZ EP        443 31.35                             117    0.39 8  247 195 
 CHI  HN ES        444  0.52                             117    0.27 8  247 195 
 CHI  HZ I         444  4.02         1.6 0.52            118            247 195 
 SJC  HZ EP   4    443 45.79                             106   -3.21 0  409 327 
 SJC  HN ES   4    444 30.45                             106   -1.91 0  409 327 
                                                                                
