 2014  526 0128 42.6 L   6.782 -73.137142.9  RSN  5 0.4 1.4LRSN                1
 GAP=237        0.94       6.6     6.3 10.4  0.1077E+02  0.5872E+01 -0.3641E+01E
 Epicentro: LOS SANTOS - SANTANDER                                             3
 ACTION:UPD 15-03-16 17:00 OP:nd   STATUS:               ID:20140526012842 L   I
 OLDACT:REG 14-05-26 12:43 OP:mh   STATUS:               ID:20140526012813     3
 2014-05-26-0128-13M.COL___227                                                 6
 STAT SP IPHASW D HRMM SECON CODA AMPLIT PERI AZIMU VELO AIN AR TRES W  DIS CAZ7
 BRR  HZ EP        129  3.82                             151    0.3210 72.9 300 
 BRR  HN ES   1    129 20.15                             151    0.31 7 72.9 300 
 BRR  HZ I         129 24.80         4.3 0.09            156           72.9 300 
 RUS  HZ EP        129  5.96                             144    0.0810 98.5 177 
 RUS  HE ES        129 23.92                             144   -0.1610 98.5 177 
 RUS  HZ I         129 26.69         2.2 0.34            135           98.5 177 
 PTB  HZ EP        129  8.83                             131   -0.51 9  148 260 
 PTB  HN ES        129 29.77                             131   -0.46 9  148 260 
 PTB  HZ I         129 32.73         3.9 0.06            136            148 260 
 NOR  HN ES        129 46.44                             118    0.65 8  234 235 
 SJC  HZ EP   4    129 26.96                             105   -11.3 0  411 327 
 SJC  HN ES   4    129 35.34                             105   -46.4 0  411 327 
 SJC  HZ I         129 43.66         1.1 0.24            119            411 327 
                                                                                
