 2013  126 0959 12.5 L   6.795 -73.142143.8  RSN  8 0.5 2.0LRSN                1
 GAP=100        1.22       4.8     4.0  7.1  0.2641E+01  0.3627E+01  0.5426E+01E
 Epicentro: LOS SANTOS - SANTANDER                                             3
 ACTION:UPD 13-02-15 09:16 OP:ep   STATUS:               ID:20130126095912 L   I
 2013-01-26-0948-41M.COL___183                                                 6
 STAT SP IPHASW D HRMM SECON CODA AMPLIT PERI AZIMU VELO AIN AR TRES W  DIS CAZ7
 BAR2 SZ EP        959 31.95                             171    0.0910 22.9 191 
 BAR2 SZ ES        959 46.69                             171   -0.2910 22.9 191 
 BAR2 SZ I         959 48.22        19.1 0.14            167           22.9 191 
 BRR  HZ EP        959 33.75                             152    0.3110 71.8 299 
 BRR  HN ES        959 50.68                             152    0.8810 71.8 299 
 BRR  HN I         959 51.37        54.5 0.32            151           71.8 299 
 PAM  SZ EP        959 34.72                             150    0.2310 77.5  39 
 PAM  SZ I         959 35.06        22.4 0.22            154           77.5  39 
 PAM  SN ES        959 51.86                             150    0.2010 77.5  39 
 RUS  HZ EP        959 36.02                             144    0.0310  100 176 
 RUS  HN ES        959 54.20                             144   -0.1410  100 176 
 RUS  HN I         959 56.25         8.0 0.34            142            100 176 
 PTB  HZ EP        959 38.87                             132   -0.43 9  148 259 
 PTB  HE ES        959 59.43                             132   -0.80 9  148 259 
 TAM  HZ EP        959 40.32                             130    0.37 9  155 105 
 TAM  HN ES       10 0  0.53                             130   -0.85 9  155 105 
 ZAR  HZ EP        959 44.25                             122   -0.59 9  205 292 
 ZAR  HN ES       10 0 10.00                             122   -0.09 9  205 292 
 ZAR  HZ I        10 0 16.90        11.2 0.84            121            205 292 
 CHI  HZ EP        959 50.27                             117    0.25 8  248 195 
 CHI  HN ES       10 0 20.11                             117    0.80 8  248 195 
 CHI  HN I        10 0 28.33         4.5 0.48            116            248 195 
                                                                                
