 2010  326 0621 33.9 L   6.802 -73.098150.1  RSN  7 0.3 2.8LRSN                1
 GAP=205        0.64       3.3     7.9  7.0 -0.5790E+01 -0.1100E+00  0.8068E+01E
 Epicentro: LOS SANTOS - SANTANDER                                             3
 ACTION:UP  10-08-24 09:56 OP:vdl  STATUS:               ID:20100326062133 L   I
 2010-03-26-0620-00S.COL___097                                                 6
 STAT SP IPHASW D HRMM SECON CODA AMPLIT PERI AZIMU VELO SNR AR TRES W  DIS CAZ7
 BAR2 SZ IP        621 54.07                             170    -0.110   25 202 
 BRR  HZ IP        621 55.91                             152     0.110   76 296 
 BRR  HE ES   1    622 12.75                             152    -0.1 7   76 296 
 BRR  HZ I         622 13.84       104.2 0.24                            76 296 
 OCA  SZ EP        622  2.34                             131    -0.3 9  161 351 
 OCA  SZ ES   1    622 25.35                             131     0.3 7  161 351 
 OCA  SZ I         622 28.90       138.5 0.20                           161 351 
 CHI  HZ EP   1    622 12.41                             118     0.4 6  250 196 
 CHI  HN ES   1    622 41.91                             118     0.1 6  250 196 
 CHI  HZ I         622 45.13        28.6 0.54                           250 196 
 HEL  HZ EP   2    622 15.93                             115     1.0 4  277 256 
 HEL  HZ I         622 52.43        17.7 0.54                           277 256 
 DBB  SZ EP        622 21.89                             110    -0.3 7  345 274 
 PRA  HZ EP   1    622 27.87                             107    -0.1 4  395 210 
 PRA  HE ES   1    623  9.71                             107    -0.3 4  395 210 
 PRA  HZ I         623 15.40        26.4 0.31                           395 210 
                                                                                
