 2013  626 0103 56.8 L   6.284 -73.655109.6  RSN  5 0.1 1.1LRSN                1
 GAP=163        0.36       2.9     1.7  3.7  0.2183E+01  0.1521E+01 -0.3343E-01E
 Epicentro: SANTA HELENA DEL OPON - SANTANDER                                  3
 ACTION:UPD 14-01-08 09:57 OP:ep   STATUS:               ID:20130626010356 L   I
 OLDACT:REG 13-06-26 07:28 OP:jn   STATUS:               ID:20130626005959     3
 2013-06-26-0059-59M.COL___267                                                 6
 STAT SP IPHASW D HRMM SECON CODA AMPLIT PERI AZIMU VELO AIN AR TRES W  DIS CAZ7
 BAR2 SZ EP   1    1 4 14.10                             148    0.16 7 62.4  57 
 BAR2 SZ ES        1 4 27.31                             148    0.0210 62.4  57 
 BAR2 SZ I         1 4 28.44         7.8 0.40            153           62.4  57 
 RUS  HZ EP        1 4 15.39                             143    0.1010 76.7 124 
 RUS  HN ES        1 4 29.55                             143   -0.1510 76.7 124 
 RUS  HZ I         1 4 31.23         1.5 0.30            147           76.7 124 
 PTB  HZ EP        1 4 15.87                             136   -0.0410 93.0 288 
 PTB  HN ES        1 4 30.88                             136    0.0710 93.0 288 
 PTB  HZ I         1 4 33.86         2.7 0.16            139           93.0 288 
 GIR2 SZ EP   1    1 4 16.77                             134   -0.05 7  102  30 
 ZAR  HE ES   2    1 4 47.47                             115   -0.33 4  188 315 
                                                                                
