 2012  126 0519  7.3 L   6.737 -73.160152.0  RSN  5 0.2 1.2LRSN                1
 GAP=137        0.42       3.9     3.9  5.3  0.3228E+01 -0.1180E+01 -0.3890E+01E
 Epicentro: VILLANUEVA - SANTANDER                                             3
 ACTION:UP  12-02-03 08:20 OP:REBC STATUS:               ID:20120126051907 L   I
 2012-01-26-0514-42S.COL___158                                                 6
 STAT SP IPHASW D HRMM SECON CODA AMPLIT PERI AZIMU VELO SNR AR TRES W  DIS CAZ7
 BAR2 SZ EP   1    519 27.53                             174     0.0 8   16 189 
 BAR2 SZ I         519 27.80         3.5 0.00                            16 189 
 BRR  HZ EP   1    519 29.35                             153     0.1 8   73 304 
 BRR  HN ES   1    519 46.52                             153     0.1 8   73 304 
 BRR  HZ I         520  0.86         5.1 0.64                            73 304 
 PAM  SZ EP   1    519 30.44                             150    -0.1 8   84  37 
 RUS  HZ EP   2    519 31.68                             147     0.5 5   94 175 
 RUS  HN ES   1    519 49.80                             147    -0.1 8   94 175 
 RUS  HZ I         520 15.13         1.4 0.21                            94 175 
 PTB  HZ EP        519 34.45                             134    -0.110  145 261 
 PTB  HE ES   2    519 55.68                             134    -0.1 5  145 261 
                                                                                
