 2016  226 0645 42.8 L   6.819 -73.158141.8  RSN 15 0.4 2.4LRSN                1
 GAP=134        1.23       3.8     5.0  7.4 -0.3931E+01  0.1071E+02  0.7874E+00E
 Epicentro: LOS SANTOS - SANTANDER                                             3
 ACTION:UPD 16-03-04 21:29 OP:rebc STATUS:               ID:20160226064542 L   I
 OLDACT:UP  16-02-26 17:53 OP:mh   STATUS:               ID:20160226063750     3
 OLDACT:UP  16-02-26 17:52 OP:mh   STATUS:               ID:20160226063750     3
 OLDACT:UP  16-02-26 17:52 OP:mh   STATUS:               ID:20160226063750     3
 OLDACT:UP  16-02-26 17:51 OP:mh   STATUS:               ID:20160226063750     3
 OLDACT:REG 16-02-26 13:14 OP:mh   STATUS:               ID:20160226063750     3
 2016-02-26-0637-50M.COL___306                                                 6
 STAT SP IPHASW D HRMM SECON CODA AMPLIT PERI AZIMU VELO AIN AR TRES W  DIS CAZ7
 BAR2 EZ IP     C  646  2.07                             170    0.0510 25.3 186 
 BAR2 EZ ES        646 16.97                             170   -0.0210 25.3 186 
 BAR2 EZ I         646 17.97        73.3 0.24            168           25.3 186 
 PAM  EZ EP        646  4.98                             151    0.4010 76.6  41 
 PAM  EN ES        646 21.88                             151    0.3410 76.6  41 
 PAM  EZ I         646 23.54        76.7 0.48            155           76.6  41 
 RUS  HZ EP        646  6.14                             143   -0.2210  103 175 
 RUS  HN ES        646 24.56                             143   -0.1510  103 175 
 RUS  HZ I         646 26.59        14.1 0.18            146            103 175 
 PTB  HZ EP        646  8.79                             131   -0.60 9  147 258 
 PTB  HN ES        646 29.52                             131   -0.59 9  147 258 
 PTB  HZ I         646 37.43        26.3 0.26            130            147 258 
 OCA  HZ EP        646  9.97                             129   -0.64 9  158 354 
 OCA  HE ES        646 32.34                             129    0.05 9  158 354 
 OCA  HZ I         646 34.65        82.9 0.18            130            158 354 
 SPBC HZ EP        646 11.03                             128   -0.07 9  164 218 
 SPBC HN ES   1    646 33.01                             128   -0.15 7  164 218 
 SPBC HZ I         646 40.95        30.2 0.28            129            164 218 
 ZAR  HZ EP   1    646 14.96                             122    0.16 6  202 292 
 ZAR  HN ES        646 40.22                             122    0.48 9  202 292 
 ZAR  HZ I         646 48.33        30.7 0.14            122            202 292 
 NOR  HZ EP        646 18.33                             118   -0.02 8  235 234 
 NOR  HN ES        646 46.57                             118    0.52 8  235 234 
 CHI  HN ES        646 49.74                             116   -0.14 8  250 195 
 ROSC BZ EP        646 21.86                             116    1.00 8  254 211 
 ROSC BN ES   4    646 53.06                             116    2.53 0  254 211 
 HEL  HZ EP   9    646 24.28                             114    1.53 0  271 255 
 HEL  HN ES        646 57.07                                    1.65 8  271 255 
 HEL  HZ I         646 59.95        18.4 0.38            115            271 255 
 URE  HZ EP   4    646 21.90                             113   -1.58 0  282 292 
 URE  HN ES   4 C  646 53.50                             113   -1.68 0  282 292 
 URE  HZ I         647  1.22        19.2 0.16            114            282 292 
 GUY2CHZ EP   4    646 28.82                             112    2.55 0  301 234 
 GUY2CHN ES   4    647  1.83                             112    1.67 0  301 234 
 LL6C HZ EP   4    646 26.54                             110   -1.57 0  323 358 
 LL6C HN ES   4    647  1.43                             110   -2.00 0  323 358 
 LL6C HZ I         647  9.31         7.8 0.58            112            323 358 
 MON  HZ EP   4    646 29.22                             108   -2.18 0  351 308 
 MON  HN ES   4    647  7.50                             108   -1.78 0  351 308 
 MON  HZ I         647 12.28         5.2 0.22            109            351 308 
 SJC  HZ EP   4    646 35.79                             105   -2.17 0  407 327 
 SJC  HN ES   4    647 16.57                             105   -4.40 0  407 327 
 SJC  HZ I         647 21.58        10.4 0.38            107            407 327 
                                                                                
