 2017  826 0552 38.6 L   6.775 -73.122144.7  RSN  4 0.2 0.8LRSN                1
 GAP=238        0.58       6.4     7.3  4.6  0.3906E+02  0.1675E+01 -0.2773E+01E
 Epicentro: LOS SANTOS - SANTANDER                                             3
 ACTION:UPD 17-09-04 20:24 OP:rebc STATUS:               ID:20170826055238 L   I
 OLDACT:REG 17-08-26 13:34 OP:osc  STATUS:               ID:20170826054738     3
 2017-08-26-0548-00M.COL___405                                                 6
 STAT SP IPHASW D HRMM SECON CODA AMPLIT PERI AZIMU VELO AIN AR TRES W  DIS CAZ7
 BAR2 EZ EP        552 57.96                             171   -0.1010 21.3 198 
 BAR2 EZ ES        553 13.52                             171    0.2910 21.3 198 
 BAR2 EZ I         553 14.37         2.3 0.14            164           21.3 198 
 BRR  HZ EP        553  0.08                             151    0.2410 74.8 299 
 BRR  HN ES        553 16.03                             151   -0.3710 74.8 299 
 RUS  HZ EP        553  1.91                             144   -0.1210 97.7 177 
 RUS  HE ES        553 20.28                             144   -0.0310 97.7 177 
 RUS  HZ I         553 24.14         0.7 0.22            141           97.7 177 
 ZAR  HZ EP        553 11.29                             122   -0.04 8  208 293 
 ZAR  HE ES        553 37.03                             122    0.17 8  208 293 
                                                                                
