 2016  926 0735 55.6 L   6.772 -73.141140.1  RSN  9 0.5 1.7LRSN                1
 GAP=138        1.15       4.9     6.0  9.6 -0.9882E+01  0.1533E+00  0.3633E+01E
 Epicentro: LOS SANTOS - SANTANDER                                             3
 ACTION:UPD 17-08-17 21:16 OP:lp   STATUS:               ID:20160926073555 L   I
 OLDACT:UP  16-09-26 18:17 OP:dani STATUS:               ID:20160926072746d    3
 OLDACT:DUP 16-09-26 18:14 OP:dani STATUS:               ID:20160926072746d    3
 OLDACT:UP  16-09-26 18:13 OP:dani STATUS:               ID:20160926072745     3
 OLDACT:REG 16-09-26 13:21 OP:dani STATUS:               ID:20160926072745     3
 2016-09-26-0728-00M.COL___327                                                 6
 STAT SP IPHASW D HRMM SECON CODA AMPLIT PERI AZIMU VELO AIN AR TRES W  DIS CAZ7
 BAR2 EZ ES        736 28.59                             171   -0.6410 20.4 193 
 BAR2 EZ I         736 30.44        17.9 0.31            169           20.4 193 
 BRR  HZ EP        736 16.03                             151   -0.2410 73.2 300 
 BRR  HN ES        736 33.17                             151    0.8010 73.2 300 
 BRR  HZ I         736 36.31         8.1 0.30            147           73.2 300 
 PAM  EZ EP        736 17.15                             149   -0.2110 79.5  38 
 PAM  EN ES        736 34.25                             149   -0.0710 79.5  38 
 PAM  EZ I         736 36.38        12.9 0.56            152           79.5  38 
 RUS  HZ EP        736 18.91                             143    0.3310 97.4 176 
 RUS  HN ES   2    736 37.12                             143    0.63 5 97.4 176 
 RUS  HZ I         736 38.87         3.7 0.31            144           97.4 176 
 PTB  HE ES        736 42.14                             130   -0.65 9  148 260 
 SPBC HN ES        736 45.53                             128    0.31 9  161 220 
 OCA  HE ES        736 45.97                             127    0.20 9  163 353 
 ZAR  HZ I         736 59.60         4.2 0.25            119            206 293 
 NOR  HZ I         737  6.16         3.9 0.16            116            233 235 
                                                                                
