 2014 1026 0850 44.8 L   6.803 -73.136148.9  RSN 11 0.5 2.0LRSN                1
 GAP=138        1.10       3.9     5.4  6.2 -0.4831E+01  0.7106E+01  0.5696E+01E
 Epicentro: LOS SANTOS - SANTANDER                                             3
 ACTION:UPD 14-11-29 23:57 OP:nd   STATUS:               ID:20141026085044 L   I
 OLDACT:UP  14-10-29 17:10 OP:cam  STATUS:               ID:20141026084819     3
 OLDACT:REG 14-10-29 13:47 OP:cam  STATUS:               ID:20141026084819     3
 2014-10-26-0848-19M.COL___280                                                 6
 STAT SP IPHASW D HRMM SECON CODA AMPLIT PERI AZIMU VELO AIN AR TRES W  DIS CAZ7
 BAR2 SZ EP        851  4.89                             170    0.0810 23.9 192 
 BAR2 SZ ES        851 19.93                             170   -0.4910 23.9 192 
 BAR2 SZ I         851 21.50        12.1 0.26            170           23.9 192 
 BRR  HZ EP        851  6.66                             153    0.3410 72.0 298 
 BRR  HN ES        851 23.98                             153    0.8710 72.0 298 
 BRR  HZ I         851 28.99         8.2 0.14            151           72.0 298 
 PAM  SZ EP        851  7.81                             152    0.5310 76.4  39 
 PAM  SN ES        851 24.85                             152    0.0310 76.4  39 
 PAM  SZ I         851 26.97        16.5 0.54            155           76.4  39 
 RUS  HZ EP        851  8.63                             144   -0.2410  101 177 
 RUS  HN ES        851 27.82                             144    0.1710  101 177 
 RUS  HZ I         851 30.32         5.8 0.38            148            101 177 
 PTB  HZ EP        851 11.52                             132   -0.60 9  149 259 
 PTB  HN ES        851 33.19                             132   -0.24 9  149 259 
 PTB  HZ I         851 38.50         6.8 0.60            133            149 259 
 OCA  HN ES        851 34.93                             130   -0.65 9  160 353 
 OCA  HN I         851 40.25        35.2 0.22            132            160 353 
 SPBC HZ EP        851 13.15                             130   -0.47 9  164 219 
 SPBC HN ES        851 35.84                             130   -0.27 9  164 219 
 SPBC HZ I         851 38.31        11.5 0.22            131            164 219 
 CHI  HZ EP        851 22.56                             118   -0.17 8  249 195 
 HEL  HZ EP   4    851 27.20                             115    1.91 0  273 256 
 URE  HN ES   4    851 55.75                             114   -2.59 0  285 292 
 GUY2CHZ EP        851 28.98                             113    0.31 7  302 235 
 CBOC HZ EP        851 32.38                             110    0.41 7  335 252 
 PRA  HZ EP   1    851 38.60                             107    0.08 4  393 210 
 PRA  HN ES        852 21.43                             107    1.00 6  393 210 
 PRA  HZ I         852 25.01        13.8 0.96            109            393 210 
                                                                                
