 2012  426 0624 57.3 L   6.776 -73.135149.3  RSN 11 0.4 2.2LRSN                1
 GAP=139        0.86       3.4     4.4  6.1 -0.1763E+01  0.7440E+01  0.3309E+01E
 Epicentro: LOS SANTOS - SANTANDER                                             3
 ACTION:UPD 12-07-05 11:56 OP:tino STATUS:               ID:20120426062457 L   I
 2012-04-26-0620-00M.COL___186                                                 6
 STAT SP IPHASW D HRMM SECON CODA AMPLIT PERI AZIMU VELO AIN AR TRES W  DIS CAZ7
 BAR2 SZ EP   1    625 17.30                             172     0.0 7   21 195 
 BAR2 SZ ES   1    625 33.01                             172     0.1 7   21 195 
 BAR2 SZ I         625 35.40        21.9 0.29                            21 195 
 BRR  HZ EP        625 19.27                             152     0.310   74 300 
 BRR  HZ I         625 19.56        48.6 0.16                            74 300 
 BRR  HN ES   1    625 36.68                             152     0.8 7   74 300 
 PAM  SZ EP   1    625 19.97                             151     0.0 7   79  38 
 PAM  SN ES   1    625 37.17                             151    -0.5 7   79  38 
 RUS  HZ EP   1    625 21.19                             145     0.0 7   98 177 
 RUS  HN ES   1    625 39.97                             145     0.1 7   98 177 
 RUS  HZ I         625 41.24         6.9 0.21                            98 177 
 PTB  HZ EP   1    625 24.14                             133    -0.5 7  148 260 
 PTB  HN ES   1    625 45.47                             133    -0.5 7  148 260 
 PTB  HZ I         625 51.30        15.8 0.17                           148 260 
 OCA  SZ EP   1    625 26.16                             130     0.0 7  163 353 
 OCA  SZ ES   1    625 48.45                             130    -0.2 7  163 353 
 ZAR  HZ EP   1    625 29.81                             123    -0.4 6  206 293 
 ZAR  HN ES   1    625 56.51                             123     0.6 6  206 293 
 ZAR  HZ I         626  1.83        14.1 0.32                           206 293 
 NOR  SZ EP   1    625 33.35                             119     0.1 6  234 235 
 NOR  SN ES   1    626  0.79                             119    -0.4 6  234 235 
 CHI  HZ EP   1    625 35.31                             118     0.3 6  246 196 
 CHI  HZ I         625 38.05         4.4 0.28                           246 196 
 CHI  HN ES   1    626  4.43                             118     0.1 6  246 196 
 HEL  HZ EP   1    625 38.37                             115     0.6 6  273 256 
 HEL  HN ES   1    626  8.60                             115    -0.7 6  273 256 
 HEL  HZ I         626 15.15         7.9 0.32                           273 256 
 PRA  HZ EP   1    625 51.47                             107     0.7 4  390 210 
 PRA  HZ I         625 53.01        22.8 0.15                           390 210 
 PRA  HN ES   1    626 32.24                             107    -0.2 4  390 210 
                                                                                
