 2013  426 0251 29.3 L   6.767 -73.141144.0  RSN  5 0.4 1.7LRSN                1
 GAP=139        0.79       4.4     4.9  9.4 -0.2507E+01  0.7329E+01 -0.5316E+01E
 Epicentro: LOS SANTOS - SANTANDER                                             3
 ACTION:UPD 13-05-22 14:40 OP:EP   STATUS:               ID:20130426025129 L   I
 2013-04-26-0248-39M.COL___211                                                 6
 STAT SP IPHASW D HRMM SECON CODA AMPLIT PERI AZIMU VELO AIN AR TRES W  DIS CAZ7
 BRR  HZ IP     C  251 50.86                             151    0.4810 73.4 301 
 BRR  HN ES   2    252  7.41                             151    0.58 5 73.4 301 
 BRR  HN I         252 11.25        16.3 0.18            151           73.4 301 
 PAM  SZ EP   1    251 51.61                             149    0.13 7 79.9  38 
 PAM  SN ES   1    252  8.24                             149   -0.54 7 79.9  38 
 PAM  SN I         252 10.00         7.0 0.48            154           79.9  38 
 RUS  HN EP   1    251 52.87                             144    0.26 7 96.9 176 
 RUS  HZ ES   2    252 10.63                             144   -0.16 5 96.9 176 
 RUS  HZ I         252 13.75         2.3 0.44            149           96.9 176 
 PTB  HZ EP   1    251 55.66                             131   -0.44 7  148 260 
 PTB  HN ES        252 16.77                             131   -0.24 9  148 260 
 PTB  HN I         252 21.90        10.9 0.54            133            148 260 
 SML  HZ EP   2    252  5.25                             116   -0.95 4  247 336 
 SML  HN ES        252 35.10                             116    0.11 8  247 336 
 SML  HN I         252 41.21         9.8 0.10            120            247 336 
                                                                                
