 2017  626 0551 16.5 L   6.834 -73.119144.2  RSN 20 0.6 2.1LRSN                1
 GAP=110        0.95       2.9     3.1  4.8  0.1433E+01 -0.5305E+00 -0.1287E+00E
 Epicentro: LOS SANTOS - SANTANDER                                             3
 ACTION:UPD 17-09-14 16:55 OP:jn   STATUS:               ID:20170626055116 L   I
 OLDACT:UP  17-06-26 15:56 OP:and  STATUS:               ID:20170626054736     3
 OLDACT:UP  17-06-26 15:52 OP:and  STATUS:               ID:20170626054736     3
 OLDACT:UP  17-06-26 15:48 OP:and  STATUS:               ID:20170626054736     3
 OLDACT:REG 17-06-26 13:06 OP:and  STATUS:               ID:20170626054736     3
 2017-06-26-0548-00M.COL___358                                                 6
 STAT SP IPHASW D HRMM SECON CODA AMPLIT PERI AZIMU VELO AIN AR TRES W  DIS CAZ7
 BAR2 EZ IP     D  551 35.73                             169   -0.2810 27.6 195 
 BAR2 EZ ES        551 50.86                             169   -0.3910 27.6 195 
 BAR2 EZ I         551 52.26        28.1 0.14            166           27.6 195 
 BRR  HZ IP     D  551 37.40                             152   -0.1110 72.2 295 
 BRR  HN ES        551 54.71                             152    0.7910 72.2 295 
 BRR  HZ I         551 57.99        25.8 0.14            149           72.2 295 
 PTB  HZ EP   9    551 42.74                             131   -0.91 0  151 258 
 PTB  HN ES        552  3.58                                   -0.36 9  151 258 
 PTB  HZ I         552  6.06        14.3 0.14            128            151 258 
 TAM  HZ EP        551 44.09                             130    0.23 9  153 107 
 SPBC HZ EP        551 45.17                             128   -0.14 9  168 219 
 SPBC HN ES        552  7.29                             128   -0.52 9  168 219 
 SPBC HZ I         552 10.30        15.4 0.12            125            168 219 
 YPLC HZ IP     C  551 46.39                             126    0.05 9  179 153 
 YPLC HN ES        552 10.09                             126    0.45 9  179 153 
 YPLC HZ I         552 13.40         8.1 0.22            125            179 153 
 ZAR  HZ EP        551 49.45                             122    0.49 8  205 291 
 ZAR  HN ES        552 14.04                             122   -0.26 8  205 291 
 ZAR  HZ I         552 20.64        19.2 0.42            120            205 291 
 NOR  HZ EP        551 52.67                             118    0.06 8  239 234 
 NOR  HN ES        552 20.49                             118   -0.31 8  239 234 
 NOR  HZ I         552 23.21         9.9 0.15            116            239 234 
 CHI  HZ EP        551 54.63                             116    0.06 8  253 196 
 CHI  HN ES        552 24.44                             116    0.16 8  253 196 
 CHI  HZ I         552 30.44         4.8 0.32            115            253 196 
 ROSC BZ EP   2    551 56.20                             116    1.17 4  258 211 
 ROSC BN ES   2    552 26.05                             116    0.95 4  258 211 
 ROSC BZ I         552 33.44        10.6 0.35            114            258 211 
 HEL  HZ EP   3    551 58.63                             114    1.60 2  276 255 
 HEL  HN ES        552 28.84                             114    0.17 7  276 255 
 HEL  HZ I         552 34.54        13.8 0.28            112            276 255 
 GUY2CHZ IP   9 D  552  2.11                             112    1.58 0  306 235 
 GUY2CHN ES        552 37.32                                    0.85 7  306 235 
 GUY2CHZ I         552 45.97         8.5 0.54                           306 235 
 VIL  EZ EP        552  0.13                             111   -0.18 7  308 192 
 VIL  EN ES   3    552 35.80                             111    1.30 2  308 192 
 VIL  EZ I         552 42.17         6.3 0.28            110            308 192 
 PTGC HZ EP   9    551 59.19                             111   -1.35 0  311 159 
 PTGC HN ES        552 32.65                                   -0.91 7  311 159 
 PTGC HZ I         552 40.28         3.7 0.38            110            311 159 
 LL6C HZ EP   3    551 59.80                             110   -1.89 2  321 357 
 LL6C HE ES   3    552 33.94                             110   -3.02 2  321 357 
 LL6C HZ I         552 38.17         3.6 0.38            110            321 357 
 CBOC HZ EP   2    552  4.43                             109    0.65 3  338 252 
 CBOC HN ES        552 40.11                             109   -0.58 7  338 252 
 CBOC HZ I         552 51.88         3.7 0.54            108            338 252 
 ARGC HZ EP        552  5.34                             108   -0.44 6  357 340 
 ARGC HN ES        552 44.61                             108    0.38 6  357 340 
 ARGC HZ I         552 56.62         2.4 0.22            107            357 340 
 SJC  HZ EP   4    552  9.68                             105   -2.13 0  408 326 
 SJC  HN ES   4    552 50.16                             105   -4.81 0  408 326 
 SJC  HZ I         552 54.38         3.3 0.46            105            408 326 
 PAL  HZ EP        552 11.35                             105   -0.76 6  410 239 
 PAL  HN ES   3    552 54.68                             105   -0.83 1  410 239 
 PAL  HZ I         553  1.29         2.3 0.28            104            410 239 
 SMAR HZ EP   3    552 20.65                             102   -1.31 1  494 346 
 SMAR HN ES   4    553  8.15                             102   -4.88 0  494 346 
                                                                                
