 2015 1126 0822 13.8 L   6.835 -73.198139.3  RSN 17 0.5 2.1LRSN                1
 GAP=128        1.05       2.6     3.6  5.2 -0.2050E+01  0.6252E+01  0.1217E-01E
 Epicentro: ZAPATOCA - SANTANDER                                               3
 ACTION:UPD 15-12-28 16:13 OP:cam  STATUS:               ID:20151126082213 L   I
 OLDACT:UP  15-12-10 15:46 OP:cam  STATUS:               ID:20151126082213 L   3
 OLDACT:UP  15-12-01 10:58 OP:ak   STATUS:               ID:20151126082213 L   3
 OLDACT:REG 15-11-26 13:55 OP:drio STATUS:               ID:20151126081748     3
 2015-11-26-0817-48M.COL___284                                                 6
 STAT SP IPHASW D HRMM SECON CODA AMPLIT PERI AZIMU VELO AIN AR TRES W  DIS CAZ7
 BAR2 EZ EP        822 32.68                             169   -0.0110 26.9 176 
 BAR2 EZ ES        822 47.07                             169   -0.3910 26.9 176 
 BAR2 EZ I         822 48.88        20.5 0.24            169           26.9 176 
 BRR  HZ EP     D  822 34.51                             154    0.6810 64.3 298 
 BRR  HN ES        822 50.14                             154    0.6710 64.3 298 
 BRR  HZ I         822 55.65        17.4 0.14            149           64.3 298 
 PAM  EZ EP        822 35.62                             149    0.2610 78.4  45 
 PAM  EN ES        822 52.40                             149    0.2010 78.4  45 
 PAM  EZ I         822 54.83        34.6 0.54            154           78.4  45 
 RUS  HZ EP        822 37.21                             141   -0.0010  105 173 
 RUS  HE ES        822 55.28                             141   -0.2210  105 173 
 RUS  HZ I         822 56.57        16.4 0.32            147            105 173 
 PTB  HZ EP        822 39.47                             131   -0.29 9  143 257 
 PTB  HN ES        823  0.17                             131    0.13 9  143 257 
 PTB  HZ I         823  7.81         8.8 0.30            131            143 257 
 OCA  HZ EP        822 40.85                             129   -0.31 9  156 355 
 OCA  HE ES        823  1.87                             129   -0.66 9  156 355 
 OCA  HZ I         823  7.49        24.4 0.54            130            156 355 
 SPBC HZ EP        822 41.61                             128   -0.11 9  163 217 
 SPBC HN ES        823  3.46                             128   -0.07 9  163 217 
 SPBC HZ I         823  6.11        23.1 0.28            129            163 217 
 ZAR  HZ EP        822 45.13                             122    0.04 9  197 292 
 ZAR  HE ES        823  9.22                             122   -0.29 9  197 292 
 ZAR  HZ I         823 16.89         9.5 0.28            122            197 292 
 NOR  HZ EP        822 48.94                             117    0.08 8  232 233 
 NOR  HE ES        823 15.95                             117   -0.29 8  232 233 
 NOR  HZ I         823 19.23         6.6 0.18            119            232 233 
 SML  HZ EP        822 49.00                             117   -0.39 8  238 336 
 SML  HN ES        823 17.56                             117    0.38 8  238 336 
 SML  HZ I         823 21.04        18.1 0.28            118            238 336 
 ROSC BZ EP   4    822 52.56                             115    0.98 0  253 209 
 ROSC BN ES        823 20.85                             115   -0.22 8  253 209 
 ROSC BZ I         823 24.67        15.2 0.35            118            253 209 
 HEL  HZ EP   4    822 54.80                             114    1.66 0  267 255 
 HEL  HN ES        823 23.44                             114   -0.40 8  267 255 
 HEL  HZ I         823 30.75         4.8 0.30            115            267 255 
 URE  HZ EP        822 53.35                             113   -0.41 7  277 292 
 URE  HN ES   4    823 23.18                             113   -1.77 0  277 292 
 URE  HZ I         823 35.73         8.3 0.16            114            277 292 
 GUY2CHZ EP        822 58.46                             111    1.66 7  299 234 
 GUY2CHN ES        823 30.12                             111   -0.25 7  299 234 
 GUY2CHZ I         823 38.69         4.5 0.28                           299 234 
 MON  HZ EP   9    823  0.29                             108   -1.43 0  347 308 
 MON  HN ES        823 38.04                             108    0.35 6  347 308 
 MON  HZ I         823 52.33         2.2 0.52            109            347 308 
 ORTC HZ EP        823  7.08                             105   -0.36 6  395 215 
 ORTC HN ES        823 50.03                             105    0.73 6  395 215 
 ORTC HZ I         823 54.04         3.7 0.30            107            395 215 
 SJC  HZ EP   4    823  7.15                             105   -1.22 0  403 327 
 SJC  HE ES   4    823 45.67                             105   -5.29 0  403 327 
 SJC  HZ I         823 54.40         1.7 0.32            106            403 327 
                                                                                
