 2014  526 0634 26.5 L   6.817 -73.135145.0  RSN  7 0.4 1.6LRSN                1
 GAP=184        1.01       3.3     5.9  7.7  0.2923E+01 -0.8822E+00 -0.4057E+01E
 Epicentro: LOS SANTOS - SANTANDER                                             3
 ACTION:UPD 15-03-16 17:00 OP:nd   STATUS:               ID:20140526063427dL   I
 OLDACT:DUP 14-05-26 17:36 OP:mh   STATUS:               ID:20140526062814d    3
 OLDACT:REG 14-05-26 13:05 OP:mh   STATUS:               ID:20140526062812     3
 2014-05-26-0628-12M.COL___227                                                 6
 STAT SP IPHASW D HRMM SECON CODA AMPLIT PERI AZIMU VELO AIN AR TRES W  DIS CAZ7
 BRR  HZ EP        634 48.27                             152    0.6610 71.4 297 
 BRR  HN ES        635  4.08                             152    0.0310 71.4 297 
 BRR  HZ I         635  6.11         6.7 0.18            153           71.4 297 
 RUS  HZ EP        634 50.75                             143    0.4110  102 177 
 RUS  HN ES        635  8.60                             143   -0.3110  102 177 
 RUS  HZ I         635 11.53         2.5 0.14            147            102 177 
 PTB  HZ EP        634 52.87                             131   -0.71 9  149 258 
 PTB  HN ES        635 14.16                             131   -0.51 9  149 258 
 PTB  HZ I         635 20.43         5.6 0.73            134            149 258 
 OCA  HN ES        635 16.25                             130   -0.27 9  159 353 
 OCA  HZ I         635 21.16         4.8 0.45            132            159 353 
 SPBC HZ EP        634 55.14                             128   -0.05 9  165 219 
 SPBC HN ES        635 17.92                             128    0.39 9  165 219 
 SPBC HZ I         635 19.37         3.2 0.09            132            165 219 
 ZAR  HZ EP        634 58.86                             122   -0.11 9  204 292 
 ZAR  HN ES        635 24.77                             122    0.50 9  204 292 
 SML  HZ EP        635  2.71                             117   -0.27 8  242 335 
 SML  HN ES        635 31.58                             117    0.17 8  242 335 
 SML  HZ I         635 38.57         5.7 0.52            119            242 335 
                                                                                
