 2010  526 0227 41.3 L   6.823 -73.127134.0  RSN  8 0.5 2.1LRSN                1
 GAP=177        1.17       5.3    10.3 10.4 -0.2753E+02  0.3330E+02  0.1928E+01E
 Epicentro: LOS SANTOS - SANTANDER                                             3
 ACTION:UP  10-08-24 10:06 OP:vdl  STATUS:               ID:20100526022741 L   I
 2010-05-26-0224-22S.COL___108                                                 6
 STAT SP IPHASW D HRMM SECON CODA AMPLIT PERI AZIMU VELO SNR AR TRES W  DIS CAZ7
 BAR2 SZ EP        227 59.55                             168     0.010   26 194 
 BAR2 SZ ES   1    228 14.55                             168     0.7 7   26 194 
 GUE  SZ EP        228  4.80                             137     0.110  114  11 
 GRA  SZ EP        228  5.39                             135     0.210  123  17 
 GRA  SZ ES   1    228 23.30                             135    -0.6 7  123  17 
 OCA  SZ EP        228  8.44                             127     0.0 9  158 352 
 OCA  SZ ES   1    228 29.53                             127    -0.2 7  158 352 
 CHI  HZ EP        228 17.76                             114    -0.9 8  252 195 
 CHI  HN ES   1    228 47.33                             114    -0.5 6  252 195 
 CHI  HZ I         228 52.96         5.5 0.34                           252 195 
 ROSC BZ EP   2    228 20.21                             114     1.1 4  256 211 
 ROSC BZ I         228 52.93        10.3 0.56                           256 211 
 HEL  HZ EP   1    228 21.65                             112     0.4 6  275 255 
 HEL  HN ES   1    228 51.65                             112    -0.7 6  275 255 
 HEL  HZ I         228 57.67         6.5 0.68                           275 255 
 RREF BZ EP        228 28.14                             108     0.8 7  325 229 
 RREF BZ I         229  9.09         8.8 0.72                           325 229 
                                                                                
