 2012  926 0905 41.3 L   7.396 -73.153133.1  RSN  6 0.2 1.7LRSN                1
 GAP=184        0.50       5.5     3.3  5.3  0.1656E+00  0.7739E+01 -0.7113E+01E
 Epicentro: EL PLAYON - SANTANDER                                              3
 ACTION:UPD 12-10-22 14:20 OP:ep   STATUS:               ID:20120926090541 L   I
 2012-09-26-0900-00M.COL___217                                                 6
 STAT SP IPHASW D HRMM SECON CODA AMPLIT PERI AZIMU VELO AIN AR TRES W  DIS CAZ7
 GIR2 SZ EP   1    9 5 59.61                             164   -0.03 7 35.3 187 
 GIR2 SZ ES   1    9 6 13.80                             164   -0.12 7 35.3 187 
 PAM  SE ES   1    9 6 16.24                             158    0.35 7 50.4  97 
 BRR  HZ EP   1    9 6  0.81                             151   -0.23 7 69.5 243 
 BRR  HZ I         9 6  1.32        14.3 0.16                          69.5 243 
 BRR  HN ES   1    9 6 16.25                             151   -0.15 7 69.5 243 
 BAR2 SZ EP   1    9 6  2.70                             144    0.05 7 88.9 182 
 BAR2 SZ ES   1    9 6 19.04                             144   -0.24 7 88.9 182 
 BAR2 SZ I         9 6 20.31        15.1 0.12                          88.9 182 
 PTB  HN ES   1    9 6 32.39                             124    0.53 7  172 237 
 PTB  HN I         9 6 33.91         2.1 0.20                           172 237 
 ZAR  HZ EP   1    9 6 11.36                             122    0.00 7  189 273 
 ZAR  HE ES   1    9 6 34.69                             122   -0.09 7  189 273 
                                                                                
