 2016  326 0919  6.8 L   6.821 -73.121142.2  RSN  8 0.4 1.3LRSN                1
 GAP=139        0.94       3.0     4.4  6.7 -0.2070E+01  0.7850E+01  0.2233E+01E
 Epicentro: LOS SANTOS - SANTANDER                                             3
 ACTION:UPD 16-05-13 21:27 OP:cam  STATUS:               ID:20160326091906 L   I
 OLDACT:REG 16-03-26 13:13 OP:ak   STATUS:               ID:20160326091745     3
 2016-03-26-0917-45M.COL___291                                                 6
 STAT SP IPHASW D HRMM SECON CODA AMPLIT PERI AZIMU VELO AIN AR TRES W  DIS CAZ7
 BAR2 EZ EP        919 26.16                             169    0.0710 26.2 195 
 BAR2 EZ ES        919 41.72                             169    0.6010 26.2 195 
 BAR2 EZ I         919 42.90         7.8 0.18            169           26.2 195 
 PAM  EZ EP        919 28.58                             151    0.1210 73.9  39 
 PAM  EN ES        919 44.50                             151   -0.8210 73.9  39 
 PAM  EZ I         919 48.52         2.7 0.54            154           73.9  39 
 RUS  HZ EP   2    919 30.55                             142    0.16 5  103 178 
 RUS  HN ES        919 48.91                             142    0.1410  103 178 
 RUS  HZ I         919 49.61         1.5 0.30            144            103 178 
 PTB  HZ EP   2    919 33.77                             130   -0.03 5  151 258 
 PTB  HN ES        919 54.13                             130   -0.71 9  151 258 
 PTB  HZ I         920  1.89         1.7 0.21            131            151 258 
 OCA  HZ EP   2    919 35.30                             129    0.62 5  158 352 
 OCA  HN ES        919 56.54                             129    0.13 9  158 352 
 OCA  HZ I         919 59.87         4.9 0.10            131            158 352 
 SPBC HZ EP        919 35.51                             127    0.11 9  167 219 
 SPBC HE ES        919 57.89                             127    0.21 9  167 219 
 SPBC HZ I         919 59.93         3.4 0.21            129            167 219 
 ZAR  HN ES        920  4.78                             121    0.29 8  206 291 
 CHI  HZ EP        919 44.40                             116   -0.26 8  252 196 
 CHI  HN ES        920 14.01                             116   -0.15 8  252 196 
 CHI  HZ I         920 19.36         1.2 0.28            118            252 196 
                                                                                
