 2010 1026 0903 13.6 L   6.809 -73.149140.4  RSN 11 0.4 2.5LRSN                1
 GAP=136        0.91       3.0     5.6  6.3 -0.2083E+01  0.2896E+01  0.3022E+01E
 Epicentro: LOS SANTOS - SANTANDER                                             3
 ACTION:UP  11-02-18 11:12 OP:tino STATUS:               ID:20101026090313 L   I
 2010-10-26-0858-40S.COL___125                                                 6
 STAT SP IPHASW D HRMM SECON CODA AMPLIT PERI AZIMU VELO SNR AR TRES W  DIS CAZ7
 BAR2 SZ IP        9 3 32.59                             170     0.010   24 189 
 BAR2 SZ I         9 3 32.75        59.0 0.24                            24 189 
 BAR2 SZ ES   1    9 3 47.25                             170    -0.2 7   24 189 
 BRR  HZ IP     C  9 3 34.47                             152     0.410   70 298 
 BRR  HZ I         9 3 34.81       102.6 0.08                            70 298 
 BRR  HE ES   1    9 3 50.78                             152     0.7 7   70 298 
 RUS  HZ IP     C  9 3 36.65                             143    -0.210  102 176 
 RUS  HZ I         9 3 37.83        20.4 0.13                           102 176 
 RUS  HE ES   1    9 3 54.85                             143    -0.2 7  102 176 
 GRA  SZ IP        9 3 38.47                             136     0.210  125  18 
 GRA  SZ ES   1    9 3 57.55                             136     0.0 7  125  18 
 GRA  SZ I         9 4  0.02        45.7 0.41                           125  18 
 OCA  SZ EP        9 3 41.41                             129     0.0 9  159 353 
 OCA  SZ ES   1    9 4  2.08                             129    -1.0 7  159 353 
 OCA  SZ I         9 4  6.06        38.1 0.29                           159 353 
 YOP  SZ IP        9 3 43.46                             125     0.1 9  180 153 
 YOP  SN ES   2    9 4  7.31                             125     0.7 4  180 153 
 NOR  SZ EP   1    9 3 48.55                             117    -0.5 6  235 234 
 NOR  SN ES   1    9 4 16.71                             117     0.0 6  235 234 
 CHI  HZ EP   1    9 3 50.80                             116    -0.3 6  249 195 
 CHI  HE ES   1    9 4 19.63                             116    -0.7 6  249 195 
 CHI  HZ I         9 4 26.25         7.2 0.41                           249 195 
 HEL  HZ EP   1    9 3 53.66                             114     0.2 6  272 256 
 HEL  HZ I         9 4 31.06        16.0 0.43                           272 256 
 GUY  SZ EP   2    9 3 57.96                             111     1.0 4  302 235 
 GUY  SZ I         9 4 39.88        20.3 0.37                           302 235 
 PRA  HZ EP   1    9 4  6.76                             106    -0.2 4  393 209 
 PRA  HN ES   2    9 4 49.00                             106     0.4 3  393 209 
 PRA  HZ I         9 4 56.33        30.7 0.18                           393 209 
                                                                                
