 2014  226 0802 46.9 L   6.809 -73.155140.8  RSN 14 0.6 2.2LRSN                1
 GAP= 70        1.22       2.9     3.4  6.2 -0.1338E+01  0.6868E+01  0.5239E+00E
 Epicentro: LOS SANTOS - SANTANDER                                             3
 OLDACT:REG 14-02-26 08:32 OP:fm   STATUS:               ID:20140226075942     3
 ACTION:UPD 14-03-10 08:13 OP:ep   STATUS:               ID:20140226080246 L   I
 OLDACT:UP  14-02-26 13:19 OP:stll STATUS:               ID:20140226075942     3
 2014-02-26-0759-42M.COL___223                                                 6
 STAT SP IPHASW D HRMM SECON CODA AMPLIT PERI AZIMU VELO AIN AR TRES W  DIS CAZ7
 BAR2 SZ IP     C  8 3  6.28                             170    0.3710 24.1 187 
 BAR2 SZ I         8 3  6.37        44.9 0.22            169           24.1 187 
 BAR2 SZ ES        8 3 20.71                             170   -0.0610 24.1 187 
 PAM  SZ EP        8 3  9.05                             150    0.5110 77.3  41 
 PAM  SN ES        8 3 25.87                             150    0.4210 77.3  41 
 PAM  SZ I         8 3 28.20        23.8 0.52            154           77.3  41 
 RUS  HZ IP     D  8 3 10.19                             142   -0.0110  102 176 
 RUS  HN ES        8 3 28.24                             142   -0.1710  102 176 
 PTB  HZ EP        8 3 13.14                             131   -0.21 9  147 258 
 PTB  HN ES        8 3 33.90                             131   -0.11 9  147 258 
 PTB  HZ I         8 3 41.28        28.7 0.28            131            147 258 
 TAM  HZ IP     D  8 3 14.44                             129    0.18 9  156 105 
 TAM  HN ES        8 3 35.47                             129   -0.17 9  156 105 
 OCA  HZ EP        8 3 14.19                             129   -0.50 9  159 353 
 OCA  HN ES        8 3 36.02                             129   -0.37 9  159 353 
 OCA  HZ I         8 3 40.95        12.7 0.14            131            159 353 
 SPBC HZ EP        8 3 15.08                             128    0.09 9  163 218 
 SPBC HN ES        8 3 36.73                             128   -0.20 9  163 218 
 SPBC HZ I         8 3 41.79        16.8 0.16            129            163 218 
 ZAR  HZ EP        8 3 18.91                             121    0.06 9  203 292 
 ZAR  HE ES        8 3 44.35                             121    0.55 9  203 292 
 ZAR  HZ I         8 3 50.14        21.1 0.34            122            203 292 
 NOR  HZ EP        8 3 21.60                             117   -0.68 8  234 234 
 NOR  HN ES        8 3 50.33                             117    0.43 8  234 234 
 NOR  HZ I         8 3 55.79        12.1 0.32            119            234 234 
 SML  HZ EP        8 3 22.39                             116   -0.68 8  242 335 
 SML  HN ES        8 3 50.71                             116   -0.60 8  242 335 
 SML  HZ I         8 4  1.54        16.9 0.12            118            242 335 
 CHI  HZ EP        8 3 24.35                             116   -0.01 8  249 195 
 CHI  HN ES        8 3 53.28                             116   -0.33 8  249 195 
 CHI  HZ I         8 4  3.36         5.5 0.98            118            249 195 
 HEL  HZ EP        8 3 28.23                             114    1.49 8  271 256 
 HEL  HN ES        8 3 57.48                             114   -0.37 8  271 256 
 HEL  HZ I         8 4  6.23         7.3 0.38            115            271 256 
 GUY2CHZ EP        8 3 30.96                             111    0.75 7  301 235 
 GUY2CHN ES        8 4  4.45                             111    0.42 7  301 235 
 GUY2CHZ I         8 4 12.54         8.3 0.30                           301 235 
 PRA  HZ EP        8 3 40.90                             106    0.65 6  392 209 
 PRA  HN ES        8 4 19.93                             106   -1.97 6  392 209 
 PRA  HZ I         8 4 25.81         5.6 0.60            107            392 209 
                                                                                
