 2011  926 0338 36.6 L   6.230 -73.498129.8  RSN  7 0.3 1.6LRSN                1
 GAP=193        0.62       4.1     4.1  6.6 -0.7692E+01  0.7454E+01  0.5788E+01E
 Epicentro: EL GUACAMAYO - SANTANDER                                           3
 ACTION:UPD 12-07-13 15:59 OP:ep   STATUS:               ID:20110926033836 L   I
 2011-09-26-0335-34S.COL___165                                                 6
 STAT SP IPHASW D HRMM SECON CODA AMPLIT PERI AZIMU VELO AIN AR TRES W  DIS CAZ7
 BAR2 SZ EP   1    338 55.38                             156    0.01 7 53.2  41 
 BAR2 SZ ES   1    339  9.90                             156   -0.12 7 53.2  41 
 BAR2 SZ I         339 11.70         8.7 0.39                          53.2  41 
 BRR  HZ EP   1    338 58.21                             140    0.16 7 99.9 346 
 BRR  HN ES   1    339 15.05                             140    0.25 7 99.9 346 
 BRR  HZ I         339 16.80         7.4 0.10                          99.9 346 
 NOR  SZ EP   1    339  3.68                             124   -0.73 7  169 244 
 NOR  SN ES   1    339 26.00                             124   -0.12 7  169 244 
 ZAR  HN ES   1    339 32.36                             118   -0.42 6  205 313 
 OCA  SZ EP   1    339 10.35                             116    0.07 6  223   5 
 OCA  SZ I         339 44.45         3.5 0.24                           223   5 
 HEL  HZ EP   1    339 10.62                             116   -0.13 6  225 269 
 HEL  HN ES   1    339 37.78                             116    0.39 6  225 269 
 HEL  HZ I         339 40.58         2.5 0.35                           225 269 
 RREF HZ EP   1    339 14.71                             113    0.60 6  252 234 
 RREF HN ES   1    339 43.56                             113    0.17 6  252 234 
 RREF HZ I         339 48.85         3.1 0.47                           252 234 
                                                                                
