 2016  826 0624 29.5 L   6.785 -73.119141.2  RSN 11 0.4 1.6LRSN                1
 GAP=141        0.94       3.8     3.5  5.5 -0.2402E+01  0.7405E+01  0.2754E+01E
 Epicentro: LOS SANTOS - SANTANDER                                             3
 ACTION:UPD 16-10-29 15:39 OP:rebc STATUS:               ID:20160826062429 L   I
 OLDACT:REG 16-08-26 12:58 OP:ak   STATUS:               ID:20160826061728     3
 2016-08-26-0618-00M.COL___368                                                 6
 STAT SP IPHASW D HRMM SECON CODA AMPLIT PERI AZIMU VELO AIN AR TRES W  DIS CAZ7
 BAR2 EZ EP        624 48.55                             170   -0.0010 22.5 198 
 BAR2 EZ ES        625  3.07                             170   -0.3510 22.5 198 
 BAR2 EZ I         625  5.19         7.8 0.19                          22.5 198 
 BRR  HZ EP        624 50.45                             151    0.1110 74.5 299 
 BRR  HN ES        625  7.34                             151    0.7310 74.5 299 
 BRR  HZ I         625 10.88        17.1 0.04                          74.5 299 
 PAM  EZ EP        624 51.38                             150    0.1910 76.8  37 
 PAM  EN ES        625  8.28                             150    0.1710 76.8  37 
 PAM  EZ I         625 10.33         9.8 0.60                          76.8  37 
 RUS  HZ EP        624 52.51                             143   -0.1510 98.8 178 
 RUS  HN ES        625 10.67                             143   -0.0710 98.8 178 
 RUS  HZ I         625 12.84         4.3 0.22                          98.8 178 
 PTB  HZ EP        624 55.53                             130   -0.79 9  150 260 
 PTB  HN ES        625 16.94                             130   -0.32 9  150 260 
 SPBC HZ EP        624 57.69                             128   -0.01 9  164 220 
 SPBC HN ES        625 19.80                             128    0.10 9  164 220 
 SPBC HZ I         625 22.00         6.4 0.16                           164 220 
 ZAR  HZ EP   2    625  2.71                             121    0.72 4  207 292 
 ZAR  HN ES        625 26.41                             121   -0.92 8  207 292 
 ZAR  HZ I         625 33.09         4.5 0.16                           207 292 
 NOR  HZ EP        625  4.84                             117   -0.27 8  236 235 
 NOR  HE ES        625 33.35                             117    0.45 8  236 235 
 NOR  HZ I         625 39.39         4.0 0.28                           236 235 
 HEL  HZ EP   2    625  9.97                             114    0.22 4  275 256 
 HEL  HN ES        625 41.21                             114    0.06 8  275 256 
 HEL  HZ I         625 47.14         2.0 0.34                           275 256 
 GUY2CHZ EP   2    625 13.41                             111    0.35 4  303 235 
 GUY2CHN ES        625 47.67                             111    0.63 7  303 235 
 GUY2CHZ I         625 55.24         2.9 0.76                           303 235 
 CBOC HZ EP        625 16.67                             109    0.19 7  336 253 
 CBOC HN ES        625 53.49                             109    0.35 7  336 253 
 CBOC HZ I         625 59.20         0.6 0.20                           336 253 
                                                                                
