 2016 1126 0954 44.2 L   6.872 -73.151154.5  RSN 22 0.6 2.7LRSN                1
 GAP= 64        1.12       4.1     3.4  5.5 -0.2028E+01  0.4999E+01  0.4708E+01E
 Epicentro: LOS SANTOS - SANTANDER                                             3
 ACTION:UPD 17-10-26 21:12 OP:lp   STATUS:               ID:20161126095444 L   I
 OLDACT:UP  16-11-26 17:25 OP:dani STATUS:               ID:20161126094748     3
 OLDACT:UP  16-11-26 17:25 OP:dani STATUS:               ID:20161126094748     3
 OLDACT:UP  16-11-26 17:24 OP:dani STATUS:               ID:20161126094748     3
 OLDACT:REG 16-11-26 12:20 OP:dani STATUS:               ID:20161126094748     3
 2016-11-26-0948-00M.COL___348                                                 6
 STAT SP IPHASW D HRMM SECON CODA AMPLIT PERI AZIMU VELO AIN AR TRES W  DIS CAZ7
 BAR2 EZ EP        955  4.86                             168   -0.1510 31.1 186 
 BAR2 HE ES        955 20.28                             168   -1.0010 31.1 186 
 BAR2 EZ I         955 21.11       132.6 0.20            167           31.1 186 
 BRR  HZ EP     C  955  6.60                             155    0.5510 67.3 293 
 BRR  HE ES        955 23.99                             155    0.8610 67.3 293 
 BRR  HZ I         955 26.61        53.7 0.14            154           67.3 293 
 PAM  EZ EP        955  7.72                             154    0.7110 71.8  44 
 PAM  EN ES        955 24.71                             154   -0.1210 71.8  44 
 PAM  EZ I         955 27.06       108.7 0.46            156           71.8  44 
 PTB  HZ EP        955 11.19                             134   -0.77 9  149 256 
 PTB  HN ES   2    955 32.52                             134   -1.12 5  149 256 
 PTB  HZ I         955 39.62        58.0 0.66            133            149 256 
 TAM  HZ IP     D  955 13.25                             132    0.46 9  158 108 
 TAM  HE ES        955 34.95                             132   -0.17 9  158 108 
 TAM  HZ I         955 45.29        11.6 0.52            134            158 108 
 ZAR  HZ EP        955 16.97                             125    0.12 9  201 290 
 ZAR  HE ES        955 42.83                             125    0.48 9  201 290 
 ZAR  HZ I         955 48.23        47.4 0.38            125            201 290 
 NOR  HZ EP        955 20.91                             120    0.05 8  239 233 
 NOR  HN ES        955 49.32                             120   -0.17 8  239 233 
 NOR  HZ I         955 53.54        40.5 0.30            120            239 233 
 CHI  HZ EP        955 23.03                             118   -0.13 8  256 195 
 CHI  HN ES   3    955 52.35                             118   -1.23 2  256 195 
 CHI  HZ I         955 55.66        32.0 0.38            118            256 195 
 ROSC BZ EP   3    955 24.70                             118    1.22 2  259 210 
 ROSC BN ES        955 54.47                             118    0.33 8  259 210 
 ROSC BZ I         955 59.34        46.6 0.35            118            259 210 
 URE  HZ EP        955 24.55                             115   -0.75 7  280 290 
 URE  HE ES   3    955 56.21                             115   -1.17 2  280 290 
 URE  HZ I         956  7.57        24.7 0.26            116            280 290 
 PTGC HZ EP   3    955 28.00                             113   -1.27 2  316 159 
 PTGC HE ES   4    956  1.28                             113   -3.18 0  316 159 
 PTGC HZ I         956  6.31        30.9 0.30            113            316 159 
 ELA  HZ EP   3    955 33.61                             111    1.67 2  334 228 
 ELA  HN ES   4    956 11.29                             111    2.09 0  334 228 
 ELA  HZ I         956 16.65        17.3 0.44            112            334 228 
 CBOC HZ EP   3    955 33.22                             111    1.54 2  336 251 
 CBOC HN ES        956  7.79                             111   -0.95 7  336 251 
 CBOC HZ I         956 12.81         7.5 0.48            111            336 251 
 ANIL HZ EP   9    955 36.24                             110    1.32 0  363 224 
 ANIL HE ES        956 16.15                             110    0.31 6  363 224 
 ANIL HZ I         956 20.53        63.3 0.28            110            363 224 
 PRA  HZ EP        955 38.21                             108   -0.56 6  399 209 
 PRA  HN ES   4    956 19.54                             108   -1.82 0  399 209 
 PRA  HZ I         956 25.33        25.5 0.78            108            399 209 
 SJC  HZ EP        955 39.06                             107   -0.15 6  402 326 
 SJC  HN ES   4    956 20.06                             107   -2.10 0  402 326 
 SJC  HZ I         956 26.53         5.4 0.26            108            402 326 
 ORTC HZ EP        955 39.13                             107    0.03 6  402 215 
 ORTC HN ES        956 22.81                             107    0.86 6  402 215 
 ORTC HZ I         956 26.19        15.3 0.34            108            402 215 
 PAL  HZ EP        955 40.38                             107    0.33 6  409 238 
 PAL  HN ES        956 24.44                             107    0.80 6  409 238 
 PAL  HZ I         956 34.26         8.7 0.24            107            409 238 
 CRJC HZ EP        955 45.15                             105   -0.84 5  460   4 
 CRJC HN ES   4    956 30.01                             105   -4.20 0  460   4 
 CRJC HZ I         956 38.42        11.4 0.18            105            460   4 
 YOT  HZ EP        955 47.90                             104   -0.13 5  477 228 
 URI  HZ EP   3    955 55.54                             102   -0.92 1  549  13 
 GARC HZ EP   3    955 58.89                             101   -1.54 1  580 207 
                                                                                
