 2016 1226 0522 15.5 L   6.784 -73.118143.5  RSN  7 0.3 1.5LRSN                1
 GAP=141        0.83       3.7     3.7  5.0 -0.4293E-02  0.4683E+01  0.1146E+01E
 Epicentro: LOS SANTOS - SANTANDER                                             3
 ACTION:UPD 17-01-11 20:19 OP:rebc STATUS:               ID:20161226052215 L   I
 OLDACT:UP  16-12-26 17:05 OP:edw  STATUS:               ID:20161226051745     3
 OLDACT:REG 16-12-26 12:46 OP:edw  STATUS:               ID:20161226051745     3
 2016-12-26-0518-00M.COL___366                                                 6
 STAT SP IPHASW D HRMM SECON CODA AMPLIT PERI AZIMU VELO AIN AR TRES W  DIS CAZ7
 BAR2 EZ EP        522 34.67                             171   -0.2110 22.3 199 
 BAR2 EZ ES        522 49.70                             171   -0.2610 22.3 199 
 BAR2 EZ I         522 51.01        13.0 0.24            172           22.3 199 
 BRR  HZ IP     C  522 36.54                             151   -0.1110 74.7 299 
 BRR  HN ES        522 53.53                             151    0.4210 74.7 299 
 BRR  HZ I         522 55.12         3.6 0.14            149           74.7 299 
 PAM  EZ EP        522 37.72                             151    0.2410 76.9  37 
 PAM  EN ES        522 54.74                             151    0.1410 76.9  37 
 PAM  EZ I         522 56.89         6.2 0.56            151           76.9  37 
 RUS  HZ EP        522 38.89                             144   -0.0410 98.6 178 
 RUS  HN ES        522 57.00                             144   -0.1610 98.6 178 
 RUS  HZ I         522 58.04         6.4 0.22            146           98.6 178 
 PTB  HZ EP   9    522 41.60                             131   -0.97 0  150 260 
 PTB  HN ES        523  2.26                             131   -0.42 9  150 260 
 PTB  HZ I         523  4.36         3.2 0.26            131            150 260 
 ZAR  HZ EP        522 47.60                             121   -0.60 8  208 292 
 ZAR  HN ES        523 13.45                             121   -0.23 8  208 292 
 ZAR  HZ I         523 19.49         3.4 0.28            121            208 292 
 GUY2CHZ EP        522 59.90                             112    0.69 7  303 235 
 GUY2CHE ES        523 33.72                             112    0.45 7  303 235 
 GUY2CHZ I         523 41.24         1.3 0.44                           303 235 
 SJC  HZ EP   4    523  9.01                             105   -2.39 0  412 327 
 SJC  HN ES   4    523 51.08                             105   -3.89 0  412 327 
                                                                                
