 2012  926 0126 31.4 L   6.807 -73.132140.8  RSN  6 0.3 1.4LRSN                1
 GAP=190        0.70       6.6     5.4 10.4  0.1818E+02 -0.1097E+02 -0.2364E+02E
 Epicentro: LOS SANTOS - SANTANDER                                             3
 ACTION:UPD 12-10-22 14:20 OP:ep   STATUS:               ID:20120926012631 L   I
 2012-09-26-0120-00M.COL___217                                                 6
 STAT SP IPHASW D HRMM SECON CODA AMPLIT PERI AZIMU VELO AIN AR TRES W  DIS CAZ7
 BAR2 SZ EP   1    126 50.66                             170    0.24 8 24.4 193 
 BAR2 SZ I         127  9.56        12.8 0.04                          24.4 193 
 GIR2 SZ EP   1    126 49.91                             167   -0.52 8 30.8 347 
 RUS  HZ EP   1    126 54.79                             142    0.11 8  101 177 
 RUS  HN ES   1    127 13.19                             142    0.32 8  101 177 
 RUS  HZ I         127 14.58         1.9 0.40                           101 177 
 PTB  HN ES        127 18.55                             130   -0.3710  149 259 
 ZAR  HZ EP   1    127  3.86                             121    0.25 7  205 292 
 ZAR  HE ES   1    127 29.25                             121    0.49 7  205 292 
 CHI  HZ EP   1    127  8.76                             116   -0.16 6  250 195 
                                                                                
