 2017 1126 0516 41.3 L   6.769 -73.153139.4  RSN  6 0.1 1.4LRSN                1
 GAP=112        0.28       1.4     1.2  2.1  0.1569E+00  0.4386E+00  0.2072E+00E
 Epicentro: LOS SANTOS - SANTANDER                                             3
 ACTION:UPD 17-12-12 20:00 OP:rebc STATUS:               ID:20171126051641 L   I
 OLDACT:DUP 17-11-26 18:22 OP:dani STATUS:               ID:20171126050744d    3
 OLDACT:UP  17-11-26 18:17 OP:dani STATUS:               ID:20171126050742     3
 OLDACT:REG 17-11-26 14:54 OP:dani STATUS:               ID:20171126050742     3
 2017-11-26-0508-00M.COL___486                                                 6
 STAT SP IPHASW D HRMM SECON CODA AMPLIT PERI AZIMU VELO AIN AR TRES W  DIS CAZ7
 BAR2 EZ EP        516 59.96                             171   -0.1110 19.9 190 
 BAR2 EZ ES        517 14.68                             171   -0.0510 19.9 190 
 BAR2 EZ I         517 16.05        13.6 0.26            172           19.9 190 
 PAM  EZ EP        517  2.95                             149   -0.0610 80.5  38 
 PAM  EN ES        517 20.03                             149    0.0710 80.5  38 
 PAM  EZ I         517 22.07         6.0 0.22            151           80.5  38 
 RUS  HZ EP        517  4.24                             143    0.0810 97.3 175 
 RUS  HE ES        517 22.05                             143    0.0410 97.3 175 
 RUS  HZ I         517 24.04         2.2 0.38            145           97.3 175 
 PTB  HZ EP        517  7.58                             131   -0.02 9  146 260 
 PTB  HE ES        517 28.11                             131   -0.03 9  146 260 
 PTB  HZ I         517 30.82         1.5 0.16            132            146 260 
 YPLC HZ EP        517 10.37                             126    0.01 9  174 151 
 ZAR  HN ES        517 38.49                             121    0.08 9  205 293 
                                                                                
