 2013  526 0546 44.1 L   6.548 -73.770 90.4  RSN  5 0.1 1.5LRSN                1
 GAP=125        0.37       2.2     1.5  4.5  0.1055E+01  0.2297E+01  0.2942E+01E
 Epicentro: SANTA HELENA DEL OPON - SANTANDER                                  3
 ACTION:UPD 13-06-20 09:53 OP:ep   STATUS:               ID:20130526054644 L   I
 2013-05-26-0540-00M.COL___261                                                 6
 STAT SP IPHASW D HRMM SECON CODA AMPLIT PERI AZIMU VELO AIN AR TRES W  DIS CAZ7
 BRR  HZ EP     D  546 58.78                             143   -0.1910 62.1   6 
 BRR  HN ES   1    547 10.75                             143    0.22 7 62.1   6 
 BRR  HN I         547 18.14        12.8 0.16            149           62.1   6 
 BAR2 SZ EP   1    546 59.47                             142   -0.06 7 65.1  86 
 BAR2 SZ ES   1    547 11.54                             142    0.01 7 65.1  86 
 BAR2 SZ I         547 13.71        13.1 0.18            153           65.1  86 
 PTB  HZ EP     D  547  0.13                             137    0.0410 75.9 269 
 PTB  HN ES   1    547 12.42                             137   -0.12 7 75.9 269 
 PTB  HN I         547 16.23         9.5 0.10            142           75.9 269 
 RUS  HZ EP   1    547  3.60                             127    0.19 7  105 134 
 RUS  HN ES        547 18.39                             127   -0.0410  105 134 
 RUS  HN I         547 21.04         6.1 0.42            138            105 134 
 HEL  HN ES   1    547 36.50                             110    0.12 6  199 259 
 HEL  HN I         547 41.76         3.7 0.24            116            199 259 
 GUY2CHZ EP   4    547 20.01                             107    2.78 0  229 230 
                                                                                
