 2015  326 0656 51.0 L   6.815 -73.162139.6  RSN 21 0.5 2.5LRSN                1
 GAP= 70        1.18       2.7     2.9  5.1 -0.1258E+01  0.4096E+01  0.7304E+00E
 Epicentro: LOS SANTOS - SANTANDER                                             3
 ACTION:UPD 15-04-30 16:29 OP:nd   STATUS:               ID:20150326065651 L   I
 OLDACT:DUP 15-03-26 16:15 OP:fm   STATUS:               ID:20150326064745d    3
 2015-03-26-0647-44M.COL___281                                                 6
 STAT SP IPHASW D HRMM SECON CODA AMPLIT PERI AZIMU VELO AIN AR TRES W  DIS CAZ7
 BAR2 EZ EP        657 10.25                             170    0.3410 24.7 185 
 BAR2 EZ ES        657 24.74                             170    0.0710 24.7 185 
 BAR2 EZ I         657 25.95        73.6 0.16            169           24.7 185 
 BRR  HZ IP     C  657 12.13                             152    0.7910 68.8 298 
 BRR  HE ES        657 28.14                             152    0.9310 68.8 298 
 BRR  HZ I         657 30.08        55.5 0.12            151           68.8 298 
 PAM  SZ EP     C  657 13.03                             150    0.4810 77.3  41 
 PAM  SN ES        657 29.58                             150    0.2110 77.3  41 
 PAM  SZ I         657 32.38        83.6 0.56            153           77.3  41 
 RUS  HZ EP        657 14.22                             142   -0.0510  102 175 
 RUS  HN ES        657 32.21                             142   -0.2210  102 175 
 RUS  HZ I         657 34.73        18.5 0.20            144            102 175 
 PTB  HZ EP        657 17.08                             131   -0.24 9  146 258 
 PTB  HN ES        657 36.94                             131   -0.93 9  146 258 
 PTB  HZ I         657 41.07        63.0 0.12            131            146 258 
 TAM  HZ IP     D  657 18.65                             129    0.26 9  157 105 
 TAM  HE ES        657 38.82                             129   -0.95 9  157 105 
 OCA  HZ EP     C  657 18.56                             129   -0.09 9  158 354 
 OCA  HE ES        657 39.89                             129   -0.34 9  158 354 
 OCA  HZ I         657 45.33        92.2 0.14            130            158 354 
 SPBC HZ EP     D  657 19.20                             128    0.17 9  163 218 
 SPBC HE ES        657 40.80                             128   -0.11 9  163 218 
 SPBC HZ I         657 44.54        43.9 0.24            129            163 218 
 ZAR  HZ EP        657 23.24                             121    0.44 9  202 292 
 ZAR  HN ES        657 47.97                             121    0.36 9  202 292 
 ZAR  HZ I         657 54.26        64.3 0.32            122            202 292 
 NOR  HZ EP        657 26.37                             117    0.06 8  234 234 
 NOR  HE ES        657 52.92                             117   -0.94 8  234 234 
 NOR  HZ I         658  1.56        25.1 0.22            118            234 234 
 SML  HZ EP        657 26.68                             116   -0.35 8  241 336 
 SML  HE ES        657 54.86                             116   -0.28 8  241 336 
 SML  HZ I         658  1.75        47.3 0.10            118            241 336 
 ROSC BZ EP        657 28.85                             115    0.02 8  253 210 
 ROSC BE ES        657 58.56                             115    0.21 8  253 210 
 ROSC BZ I         658  6.41        17.0 0.45            117            253 210 
 HEL  HZ EP        657 30.83                             114    0.09 8  271 255 
 HEL  HN ES        658  0.98                             114   -0.77 8  271 255 
 HEL  HZ I         658  9.49        21.2 0.40            115            271 255 
 URE  HZ EP        657 30.71                             113   -0.79 7  282 292 
 URE  HE ES        658  2.48                             113   -0.63 7  282 292 
 URE  HZ I         658  4.35        34.5 0.12            114            282 292 
 GUY2CHZ EP        657 34.96                             111    0.71 7  301 234 
 GUY2CHN ES        658  7.99                             111   -0.01 7  301 234 
 GUY2CHZ I         658 18.16        12.0 0.26                           301 234 
 PTGC HZ EP   4    657 33.49                             110   -1.33 0  311 158 
 PTGC HN ES   4    658  5.60                             110   -3.42 0  311 158 
 PTGC HZ I         658  9.63        11.6 0.42            112            311 158 
 RREF HZ EP        657 36.92                             110    0.09 7  321 229 
 RREF HN ES        658 13.01                             110    0.42 7  321 229 
 RREF HZ I         658 20.02        11.6 0.56            111            321 229 
 CBOC HZ EP        657 38.35                             109    0.84 7  332 252 
 CBOC HN ES        658 13.66                             109   -0.14 7  332 252 
 CBOC HZ I         658 14.90         5.5 0.36            110            332 252 
 MON  HZ EP   4    657 38.10                             108   -1.37 0  351 308 
 MON  HN ES   4    658 15.44                             108   -1.85 0  351 308 
 MON  HZ I         658 17.38        14.9 0.18            109            351 308 
 SDV  BZ EP        657 39.87                             107   -0.97 6  361  51 
 SDV  BN ES   4    658 16.65                             107   -3.08 0  361  51 
 SDV  BZ I         658 19.19         6.7 0.40            109            361  51 
 ORTC HZ EP        657 45.34                             105    0.61 6  396 216 
 ORTC HN ES        658 26.80                             105    0.15 6  396 216 
 ORTC HZ I         658 33.45        11.3 0.64            107            396 216 
                                                                                
