 2017  526 0928 30.7 L   6.758 -73.141148.0  RSN  4 0.3 1.1LRSN                1
 GAP=235        0.77       6.3     6.5  7.2  0.2782E+02 -0.2798E+01 -0.7373E+01E
 Epicentro: LOS SANTOS - SANTANDER                                             3
 ACTION:UPD 17-06-16 13:38 OP:jn   STATUS:               ID:20170526092831 L   I
 OLDACT:REG 17-05-26 12:57 OP:ar   STATUS:               ID:20170526092733     3
 2017-05-26-0928-00M.COL___326                                                 6
 STAT SP IPHASW D HRMM SECON CODA AMPLIT PERI AZIMU VELO AIN AR TRES W  DIS CAZ7
 BRR  HZ EP        928 51.79                             152   -0.4310 74.0 302 
 BRR  HE ES        929  9.05                             152    0.0310 74.0 302 
 BRR  HZ I         929 16.66         3.2 0.62            154           74.0 302 
 RUS  HZ EP        928 54.27                             146   -0.0410 95.9 176 
 RUS  HN ES        929 13.00                             146    0.2510 95.9 176 
 RUS  HZ I         929 13.13         1.2 0.22            155           95.9 176 
 PTB  HZ EP        928 57.71                             133   -0.08 9  147 261 
 PTB  HN ES        929 18.61                             133   -0.33 9  147 261 
 PTB  HZ I         929 20.53         1.0 0.29            139            147 261 
 ZAR  HZ EP   1    929  4.17                             123    0.68 6  206 293 
 ZAR  HE ES        929 29.47                             123    0.38 8  206 293 
 ZAR  HZ I         929 31.07         1.5 0.22            127            206 293 
                                                                                
