 2011  826 0610 20.6 L   6.788 -73.109150.0  RSN  5 0.3 1.4LRSN                1
 GAP=187        0.56       4.9    10.8  7.7  0.2377E+02 -0.6364E+01 -0.7195E+01E
 Epicentro: LOS SANTOS - SANTANDER                                             3
 ACTION:UPD 12-07-13 15:53 OP:ep   STATUS:               ID:20110826061020 L   I
 2011-08-26-0600-00M.COL___168                                                 6
 STAT SP IPHASW D HRMM SECON CODA AMPLIT PERI AZIMU VELO AIN AR TRES W  DIS CAZ7
 BAR2 SZ ES   2    610 55.62                             171   -0.82 5 23.1 201 
 BAR2 SZ I         610 58.01         6.0 0.27                          23.1 201 
 GIR2 SZ EP   1    610 40.79                             167   -0.05 7 33.5 344 
 GIR2 SZ ES   1    610 56.94                             167    0.32 7 33.5 344 
 BRR  HZ EP   1    610 42.32                             152   -0.13 7 75.4 298 
 BRR  HE ES   1    610 59.58                             152    0.09 7 75.4 298 
 BRR  HZ I         610 59.68         5.2 0.35                          75.4 298 
 RUS  HN ES   1    611  3.60                             145    0.17 7 99.1 178 
 RUS  HZ I         611  4.83         3.9 0.42                          99.1 178 
 OCA  SZ ES   2    611 11.79                             130   -0.10 5  162 352 
 OCA  SZ I         611 13.42         2.0 0.46                           162 352 
                                                                                
