 2012 1126 0327 50.2 L   6.836 -73.142144.1  RSN 12 0.4 2.4LRSN                1
 GAP= 70        0.95       2.5     3.0  6.3  0.1944E-01  0.5767E+01  0.1836E+01E
 Epicentro: LOS SANTOS - SANTANDER                                             3
 ACTION:UPD 12-12-05 15:36 OP:}ep  STATUS:               ID:20121126032750 L   I
 2012-11-26-0320-00M.COL___233                                                 6
 STAT SP IPHASW D HRMM SECON CODA AMPLIT PERI AZIMU VELO AIN AR TRES W  DIS CAZ7
 BAR2 SZ EP        328  9.34                             169   -0.3610 27.3 189 
 GIR2 SZ EP        328  9.66                             169    0.1010 27.5 348 
 GIR2 SZ I         328 26.05        23.6 0.42                          27.5 348 
 PAM  SZ EP        328 12.56                             151    0.5310 74.1  41 
 PAM  SN ES        328 29.42                             151    0.3510 74.1  41 
 PAM  SN I         328 30.40        58.7 0.42                          74.1  41 
 RUS  HZ EP        328 13.74                             142   -0.3210  105 176 
 RUS  HN ES        328 32.23                             142   -0.4510  105 176 
 RUS  HN I         328 33.84        20.1 0.46                           105 176 
 PTB  HZ EP        328 16.56                             131   -0.56 9  149 257 
 PTB  HN ES        328 38.05                             131   -0.09 9  149 257 
 PTB  HN I         328 41.47        40.3 0.30                           149 257 
 TAM  HZ IP     D  328 18.09                             130    0.30 9  156 106 
 TAM  HE ES        328 39.51                             130    0.18 9  156 106 
 TAM  HN I         328 43.75        17.7 0.36                           156 106 
 OCA  HZ EP        328 18.06                             130    0.06 9  156 353 
 OCA  HN ES        328 39.10                             130   -0.60 9  156 353 
 OCA  HZ I         328 43.31        16.0 0.40                           156 353 
 ZAR  HZ EP        328 22.58                             122    0.17 9  203 291 
 ZAR  HN ES        328 48.27                             122    0.73 9  203 291 
 ZAR  HN I         328 49.99        32.4 0.12                           203 291 
 NOR  HZ EP        328 26.43                             118    0.33 8  237 234 
 NOR  HN ES        328 54.33                             118    0.22 8  237 234 
 NOR  HN I         329  1.74        45.4 0.16                           237 234 
 SML  HZ EP        328 25.72                             117   -0.62 8  240 335 
 SML  HE ES        328 54.56                             117    0.01 8  240 335 
 SML  HN I         328 57.05        34.1 0.28                           240 335 
 CHI  HZ EP        328 28.16                             116   -0.05 8  253 195 
 CHI  HN ES        328 57.80                             116   -0.08 8  253 195 
 CHI  HN I         329  3.89        14.5 0.34                           253 195 
 PRA  HZ EP        328 43.77                             106   -0.30 6  396 209 
 PRA  HN ES        329 27.01                             106    0.91 6  396 209 
 PRA  HN I         329 32.15         6.9 0.78                           396 209 
                                                                                
