 2017  226 0203 17.5 L   6.771 -73.165143.6  RSN 13 0.5 1.8LRSN                1
 GAP=135        1.09       4.3     4.4  6.4 -0.1905E+01  0.1024E+02  0.1037E+00E
 Epicentro: LOS SANTOS - SANTANDER                                             3
 ACTION:UPD 17-05-24 15:40 OP:jn   STATUS:               ID:20170226020317 L   I
 OLDACT:UP  17-02-26 13:26 OP:edw  STATUS:               ID:20170226015740     3
 OLDACT:REG 17-02-26 11:51 OP:lv   STATUS:               ID:20170226015740     3
 2017-02-26-0158-00M.COL___373                                                 6
 STAT SP IPHASW D HRMM SECON CODA AMPLIT PERI AZIMU VELO AIN AR TRES W  DIS CAZ7
 BAR2 EZ EP     C  2 3 36.85                             172    0.0810 19.9 186 
 BAR2 EZ ES        2 3 51.02                             172   -0.8110 19.9 186 
 BAR2 EZ I         2 3 52.69        16.2 0.44            172           19.9 186 
 BRR  HZ EP     C  2 3 38.68                             152    0.3110 71.0 302 
 BRR  HN ES        2 3 55.54                             152    0.8610 71.0 302 
 BRR  HZ I         2 3 57.29        13.6 0.14            150           71.0 302 
 PAM  EZ EP        2 3 39.69                             149    0.0010 81.2  39 
 PAM  EE ES        2 3 56.61                             149   -0.4110 81.2  39 
 PAM  EZ I         2 4  1.19         8.0 0.40            151           81.2  39 
 RUS  HZ EP        2 3 40.92                             144    0.1310 97.5 175 
 RUS  HN ES        2 3 59.18                             144    0.2010 97.5 175 
 RUS  HZ I         2 4  0.12         5.9 0.24            146           97.5 175 
 PTB  HZ EP   9    2 3 43.60                             132   -0.42 0  145 260 
 PTB  HN ES        2 4  4.11                             132   -0.20 9  145 260 
 PTB  HZ I         2 4  6.59         7.8 0.14            131            145 260 
 ZAR  HZ EP        2 3 50.01                             122    0.31 9  203 293 
 ZAR  HN ES   4    2 4 15.82                             122    0.98 0  203 293 
 ZAR  HZ I         2 4 21.74         8.9 0.28            122            203 293 
 NOR  HN ES        2 4 20.67                             118    0.51 8  231 235 
 CHI  HN ES   2    2 4 24.02                             117    0.37 4  245 195 
 HEL  HZ EP   4    2 3 59.21                             114    1.96 0  269 256 
 HEL  HN ES        2 4 27.59                             114   -0.70 8  269 256 
 HEL  HZ I         2 4 36.26         2.9 0.54            115            269 256 
 URE  HZ EP        2 3 57.58                             113   -0.77 7  283 293 
 URE  HN ES        2 4 30.27                             113    0.03 7  283 293 
 URE  HZ I         2 4 32.13         4.0 0.16            113            283 293 
 CBOC HZ EP   4    2 4  1.78                             110   -2.17 0  331 253 
 CBOC HN ES   2    2 4 39.43                             110   -0.77 3  331 253 
 CBOC HZ I         2 4 44.63         1.2 0.54            110            331 253 
 PRA  HZ EP   4    2 4 12.50                             106    2.04 0  388 210 
 PRA  HN ES        2 4 51.53                             106   -0.27 6  388 210 
 PRA  HZ I         2 4 55.84         2.2 0.54            107            388 210 
 SJC  HZ EP   4    2 4 10.77                             105   -2.37 0  411 327 
 SJC  HN ES   4    2 4 52.33                             105   -4.24 0  411 327 
 SJC  HZ I         2 4 56.41         1.7 0.42            106            411 327 
                                                                                
