 2017 1226 0921 35.1 L   6.138 -73.765100.0  RSN  5 0.4 1.1LRSN                1
 GAP=160        0.91       4.5     4.4  8.1 -0.1110E+02  0.1434E+02 -0.1346E+02E
 Epicentro: LANDAZURI - SANTANDER                                              3
 ACTION:UPD 18-01-04 13:24 OP:rebc STATUS:               ID:20171226092135 L   I
 OLDACT:DUP 17-12-26 21:42 OP:dnl  STATUS:               ID:20171226091317d    3
 2017-12-26-0918-00M.COL___460                                                 6
 STAT SP IPHASW D HRMM SECON CODA AMPLIT PERI AZIMU VELO AIN AR TRES W  DIS CAZ7
 SPBC HZ EP        921 50.53                             145   -0.5610 63.6 212 
 SPBC HE ES        922  3.45                             145   -0.1410 63.6 212 
 SPBC HZ I         922  5.19         3.7 0.36            150           63.6 212 
 BAR2 EZ EP        921 52.70                             138    0.0210 81.7  52 
 BAR2 EZ ES        922  6.79                             138    0.3710 81.7  52 
 BAR2 EZ I         922  7.61         3.6 0.36            135           81.7  52 
 PAM  EZ EP        922  2.58                             116   -0.05 9  178  41 
 PAM  EN ES   4    922 27.44                             116    3.31 0  178  41 
 PAM  EZ I         922 33.66         1.3 0.34            113            178  41 
 ZAR  HZ EP   2    922  4.15                             113    0.45 4  192 321 
 ZAR  HE ES        922 25.75                             113   -0.28 9  192 321 
 ZAR  HZ I         922 29.35         2.1 0.40            111            192 321 
 GUY2CHZ EP        922  5.51                             112   -0.10 9  204 240 
 GUY2CHN ES        922 30.21                             112    0.78 9  204 240 
 GUY2CHZ I         922 35.32         1.3 0.72                           204 240 
                                                                                
