 2017  326 0559 52.3 L   6.843 -73.356125.3  RSN  6 0.4 1.4LRSN                1
 GAP=106        0.79       3.9     4.4  5.9  0.3726E+00  0.4488E+01  0.2208E+01E
 Epicentro: SAN VICENTE DE CHUCURI - SANTANDER                                 3
 ACTION:UPD 17-05-25 18:45 OP:jn   STATUS:               ID:20170326055952 L   I
 OLDACT:UP  17-03-26 14:49 OP:cog  STATUS:               ID:20170326055739     3
 OLDACT:REG 17-03-26 12:47 OP:cog  STATUS:               ID:20170326055739     3
 2017-03-26-0558-00M.COL___355                                                 6
 STAT SP IPHASW D HRMM SECON CODA AMPLIT PERI AZIMU VELO AIN AR TRES W  DIS CAZ7
 BAR2 EZ EP        6 0  9.98                             164    0.2310 33.7 145 
 BAR2 EZ ES        6 0 22.97                             164   -0.4110 33.7 145 
 BRR  HZ EP        6 0 10.23                             157    0.2110 49.0 307 
 BRR  HN ES        6 0 24.11                             157    0.2610 49.0 307 
 BRR  HZ I         6 0 25.32        12.1 0.10            157           49.0 307 
 PAM  EZ EP        6 0 13.28                             142   -0.0410 90.9  53 
 PAM  EN ES        6 0 29.56                             142   -0.1810 90.9  53 
 PAM  EZ I         6 0 31.55         4.6 0.26            146           90.9  53 
 RUS  HZ EP        6 0 14.89                             136    0.0910  109 164 
 RUS  HN ES        6 0 32.64                             136    0.2810  109 164 
 RUS  HZ I         6 0 34.52         2.0 0.36            138            109 164 
 PTB  HZ EP        6 0 15.14                             132   -0.4910  126 255 
 PTB  HN ES   3    6 0 32.53                             132   -1.31 2  126 255 
 PTB  HZ I         6 0 37.99         8.6 0.56            132            126 255 
 ZAR  HE ES   3    6 0 45.13                             121    1.73 2  181 293 
                                                                                
