 2010  726 0604  5.4 L   6.789 -73.109151.4  RSN  4 0.1 1.2LRSN                1
 GAP=163        0.36       5.0     8.5 10.3  0.8378E+01 -0.5587E+02 -0.1248E+02E
 Epicentro: LOS SANTOS - SANTANDER                                             3
 ACTION:UPD 10-12-01 15:20 OP:pat  STATUS:               ID:20100726060405 L   I
 2010-07-26-0600-42S.COL___123                                                 6
 STAT SP IPHASW D HRMM SECON CODA AMPLIT PERI AZIMU VELO AIN AR TRES W  DIS CAZ7
 BAR2 SZ EP   2    6 4 25.56                             171    -0.2 5   23 201 
 BAR2 SZ I         6 4 51.22         4.7 0.63                            23 201 
 BRR  HZ EP        6 4 27.36                             152    -0.110   75 298 
 BRR  HZ I         6 4 28.86         3.1 0.03                            75 298 
 BRR  HN ES   2    6 4 44.70                             152     0.1 5   75 298 
 RUS  HZ EP   2    6 4 29.86                             146     0.2 5   99 178 
 RUS  HN ES   3    6 4 48.34                             146    -0.2 2   99 178 
 GRA  SZ EP   1    6 4 31.24                             138     0.1 7  126  16 
 GRA  SZ I         6 4 32.41         1.3 0.21                           126  16 
                                                                                
