 2010  826 0445 16.7 L   6.778 -73.107142.8  RSN  9 0.4 2.2LRSN                1
 GAP=163        1.04       4.5    10.4  7.4 -0.1295E+02 -0.1291E+02  0.1272E+01E
 Epicentro: LOS SANTOS - SANTANDER                                             3
 ACTION:UP  10-09-07 10:58 OP:vdl  STATUS:               ID:20100826044516 L   I
 2010-08-26-0442-06S.COL___121                                                 6
 STAT SP IPHASW D HRMM SECON CODA AMPLIT PERI AZIMU VELO SNR AR TRES W  DIS CAZ7
 BAR2 SZ IP        445 35.95                             171     0.010   22 202 
 BAR2 SZ ES   1    445 51.21                             171     0.3 7   22 202 
 BAR2 SZ I         445 52.69        38.9 0.22                            22 202 
 BTL  SZ EP        445 36.13                                     0.210   24 311 
 BTL  SZ ES   1    445 50.08                             170    -0.9 7   24 311 
 GIR2 SZ EP   2    445 36.07                             166     0.0 5   35 344 
 BRR  HZ IP     D  445 37.88                             150     0.110   76 299 
 BRR  HN ES   1    445 54.92                             150     0.6 7   76 299 
 BRR  HZ I         445 57.70        38.5 0.10                            76 299 
 RUS  HZ IP     D  445 39.82                             144    -0.110   98 178 
 RUS  HE ES   2    445 57.94                             144    -0.2 5   98 178 
 GUE  SZ EP        445 41.91                             138     0.710  118  10 
 GRA  SZ IP        445 41.77                             136     0.010  127  15 
 GRA  SZ ES   1    446  1.52                             136     0.2 7  127  15 
 GRA  SZ I         446  2.58        20.4 0.51                           127  15 
 OCA  SZ EP        445 44.37                             128    -0.7 9  163 352 
 OCA  SZ ES   1    446  6.63                             128    -0.5 7  163 352 
 OCA  SZ I         446 11.09        15.9 0.17                           163 352 
 PRA  HZ EP   1    446  9.87                             106    -0.2 4  392 210 
 PRA  HE ES   1    446 51.78                             106     0.0 4  392 210 
 PRA  HZ I         446 59.36         5.7 0.68                           392 210 
                                                                                
