 2011 1026 0726  3.0 L   6.785 -73.105149.1  RSN 19 0.3 4.0LRSN                1
 GAP=118        0.54       2.2     2.7  4.3 -0.2136E+00  0.4069E+01  0.3533E+01E
 Epicentro: LOS SANTOS - SANTANDER                                             3
 ACTION:UPD 12-07-13 16:06 OP:ep   STATUS:               ID:20111026072603 L   I
 2011-10-26-0724-29S.COL___175                                                 6
 STAT SP IPHASW D HRMM SECON CODA AMPLIT PERI AZIMU VELO AIN AR TRES W  DIS CAZ7
 BAR2 SZ IP        726 22.85                             171   -0.1410 22.9 202 
 BAR2 SZ ES   2    726 38.42                             171   -0.19 5 22.9 202 
 BAR2 SZ I         726 39.99      1612.7 0.40                          22.9 202 
 BTL  SZ EP        726 23.03                             171    0.0410 23.3 309 
 PAM  SZ IP        726 25.58                             152    0.1310 75.9  36 
 PAM  SN ES   1    726 42.95                             152   -0.04 7 75.9  36 
 BRR  HZ IP     D  726 24.72                             152   -0.0210 76.0 298 
 BRR  HN ES   2    726 42.12                             152    0.39 5 76.0 298 
 BRR  HZ I         726 45.14      1101.2 0.25                          76.0 298 
 RUS  HZ EP        726 26.73                             145   -0.1810 98.7 179 
 RUS  HN ES   2    726 45.45                             145   -0.14 5 98.7 179 
 RUS  HZ I         726 47.26      1021.8 0.52                          98.7 179 
 OCA  SZ EP   1    726 31.54                             130   -0.20 7  163 352 
 OCA  SZ ES   2    726 54.45                             130    0.26 5  163 352 
 OCA  SZ I         726 58.25       688.2 0.29                           163 352 
 YOP  SZ IP        726 33.35                             127    0.44 9  175 154 
 YOP  SE ES   2    726 55.79                             127   -0.47 4  175 154 
 ZAR  HZ EP   2    726 35.62                             122   -0.50 4  209 292 
 ZAR  HN ES   2    727  1.77                             122   -0.21 4  209 292 
 ZAR  HZ I         727  6.52       979.2 0.63                           209 292 
 NOR  SZ EP   1    726 38.40                             119   -0.77 6  237 235 
 NOR  SN ES   2    727  7.10                             119   -0.32 4  237 235 
 ROSC BZ IP     C  726 42.20                             117    0.84 8  254 212 
 ROSC BN ES   2    727 11.56                             117    0.24 4  254 212 
 ROSC BZ I         727 18.73       947.2 0.42                           254 212 
 HEL  HZ EP   2    726 43.28                             115   -0.50 4  276 256 
 HEL  HN ES   2    727 15.63                             115    0.01 4  276 256 
 HEL  HZ I         727 21.05       466.5 0.71                           276 256 
 VIL  SZ EP   2    726 45.91                             113   -0.54 4  303 192 
 VIL  SN ES   2    727 20.43                             113    0.06 4  303 192 
 VIL  SZ I         727 33.95       264.7 0.49                           303 192 
 GUY  SZ EP   1    726 47.73                             112    0.43 5  306 236 
 GUY  SN ES   2    727 21.88                             112    0.00 4  306 236 
 GUY  SZ I         727 28.41       842.6 0.32                           306 236 
 RREF HZ EP   1    726 49.69                             111    0.18 5  324 230 
 RREF HN ES   2    727 25.89                             111    0.06 3  324 230 
 RREF HZ I         727 33.81       559.6 0.26                           324 230 
 DBB  SZ EP   1    726 51.04                             110   -0.06 5  344 274 
 DBB  SZ ES   2    727 28.59                             110   -0.07 3  344 274 
 TOL  SZ EP   2    726 51.69                             110    0.11 3  346 225 
 TOL  SZ ES   2    727 29.58                             110    0.08 3  346 225 
 ANIL HZ EP   1    726 53.15                             109    0.03 5  359 225 
 ANIL HN ES   2    727 32.47                             109    0.22 3  359 225 
 ANIL HZ I         727 38.53       839.0 0.24                           359 225 
 PRA  HZ EP   1    726 56.07                             107   -0.62 4  393 210 
 PRA  HN ES   2    727 38.24                             107   -0.36 3  393 210 
 GUA  SZ EP   2    727  5.61                             104   -0.33 2  472 174 
 GUA  SZ ES   2    727 54.47                             104   -0.60 2  472 174 
                                                                                
