 2010 1226 0505 35.5 L   7.435 -73.140137.7  RSN  9 0.5 2.0LRSN                1
 GAP=124        0.80       3.9     8.0  8.2 -0.3361E+01  0.2435E+02  0.1204E+02E
 Epicentro: EL PLAYON - SANTANDER                                              3
 ACTION:UP  11-01-14 15:27 OP:pat  STATUS:               ID:20101226050535 L   I
 2010-12-26-0500-00M.COL___132                                                 6
 STAT SP IPHASW D HRMM SECON CODA AMPLIT PERI AZIMU VELO SNR AR TRES W  DIS CAZ7
 GRA  SZ IP        5 5 55.85                             154     0.310   62  37 
 GRA  SZ ES   1    5 6 11.46                             154     0.3 7   62  37 
 GRA  SZ I         5 6 13.20        42.7 0.28                            62  37 
 OCA  SZ EP   1    5 5 56.72                             145    -0.6 7   91 347 
 OCA  SZ ES   1    5 6 14.19                             145    -0.1 7   91 347 
 OCA  SZ I         5 6 17.27        20.5 0.26                            91 347 
 BAR2 SZ IP        5 5 57.52                             144    -0.110   93 183 
 BAR2 SZ ES   1    5 6 14.81                             144     0.0 7   93 183 
 BAR2 SZ I         5 6 15.74        26.1 0.26                            93 183 
 RUS  HZ EP   1    5 6  4.20                             126    -0.5 7  171 178 
 RUS  HN ES   2    5 6 26.58                             126    -0.9 4  171 178 
 RUS  HZ I         5 6 28.87         3.4 0.35                           171 178 
 YOP  SZ EP   2    5 6 11.78                             116    -0.1 4  244 161 
 YOP  SN ES   2    5 6 41.09                             116     0.9 4  244 161 
 YOP  SZ I         5 6 41.97         3.8 0.39                           244 161 
 NOR  SZ EP   1    5 6 16.26                             112     0.2 6  282 223 
 NOR  SN ES   2    5 6 47.96                             112     0.3 4  282 223 
 HEL  HZ EP   2    5 6 18.95                             111     0.7 4  298 243 
 HEL  HZ I         5 7  2.50         5.4 0.32                           298 243 
 RREF HZ EP   2    5 6 27.76                             106     0.6 3  372 221 
 RREF HE ES   2    5 7  8.35                             106     1.0 3  372 221 
 RREF HZ I         5 7 17.81         7.2 0.32                           372 221 
 PRA  HZ EP   2    5 6 36.02                             102    -0.2 2  455 205 
 PRA  HE ES   2    5 7 23.13                             102    -0.4 2  455 205 
                                                                                
