 2012  726 0126 10.8 L   6.748 -73.138146.7  RSN  6 0.4 1.4LRSN                1
 GAP=234        0.85       6.4     6.7  8.2  0.1515E+02  0.1453E+02 -0.2947E+01E
 Epicentro: LOS SANTOS - SANTANDER                                             3
 ACTION:UPD 12-08-14 11:45 OP:ep   STATUS:               ID:20120726012610 L   I
 2012-07-26-0120-00M.COL___215                                                 6
 STAT SP IPHASW D HRMM SECON CODA AMPLIT PERI AZIMU VELO AIN AR TRES W  DIS CAZ7
 BAR2 SZ ES   1    126 45.10                             173    -0.7 7   18 196 
 BRR  HZ EP        126 32.51                             151     0.310   75 302 
 BRR  HN ES   1    126 49.47                             151     0.5 7   75 302 
 BRR  HZ I         126 53.14         7.4 0.34            152             75 302 
 RUS  HZ EP   1    126 34.28                             146     0.0 7   95 176 
 RUS  HN ES   1    126 52.83                             146     0.3 7   95 176 
 RUS  HZ I         126 55.87         2.6 0.31            150             95 176 
 PTB  HZ EP   1    126 37.44                             132    -0.4 7  148 261 
 PTB  HN ES   1    126 58.58                             132    -0.3 7  148 261 
 PTB  HZ I         127  0.19         3.2 0.23            135            148 261 
 ZAR  HZ EP   1    126 43.27                             122    -0.3 6  207 294 
 ZAR  HN ES   1    127  9.32                             122     0.1 6  207 294 
 ZAR  HZ I         127 15.54         2.8 0.23            125            207 294 
 NOR  SN ES   1    127 14.23                             119     0.2 6  232 236 
