 2013  526 0926  8.1 L   6.796 -73.147144.0  RSN 10 0.5 2.1LRSN                1
 GAP=137        1.03       3.5     5.5  7.4  0.6764E-01  0.2597E+01 -0.4091E+01E
 Epicentro: LOS SANTOS - SANTANDER                                             3
 ACTION:UPD 13-06-20 09:53 OP:ep   STATUS:               ID:20130526092608 L   I
 2013-05-26-0920-00M.COL___261                                                 6
 STAT SP IPHASW D HRMM SECON CODA AMPLIT PERI AZIMU VELO AIN AR TRES W  DIS CAZ7
 BAR2 SZ EP   1    926 27.72                             171    0.23 7 22.8 190 
 BAR2 SZ ES   1    926 42.85                             171    0.22 7 22.8 190 
 BAR2 SZ I         926 43.94        15.2 0.34            170           22.8 190 
 GIR2 SZ EP   1    926 27.88                             167    0.32 7 31.7 351 
 GIR2 SZ ES   1    926 42.81                             167    0.06 7 31.7 351 
 GIR2 SZ I         926 44.37         9.6 0.54            162           31.7 351 
 BRR  HZ EP     C  926 29.64                             152    0.6010 71.3 299 
 BRR  HN ES        926 45.79                             152    0.4010 71.3 299 
 BRR  HN I         926 47.37        33.7 0.30            149           71.3 299 
 PAM  SZ EP   1    926 30.37                             150    0.23 7 77.8  39 
 PAM  SN I         926 51.58        12.5 0.28            141           77.8  39 
 RUS  HZ EP   1    926 31.86                             144    0.23 7  100 176 
 RUS  HN ES        926 49.14                             144   -0.8510  100 176 
 RUS  HN I         926 52.06         6.7 0.16            138            100 176 
 PTB  HZ EP   1    926 34.45                             132   -0.43 7  147 259 
 PTB  HN ES        926 55.31                             132   -0.48 9  147 259 
 PTB  HN I         927  1.20        29.4 0.26            128            147 259 
 OCA  HZ EP        926 35.88                             129   -0.42 9  161 353 
 OCA  HN ES        926 58.41                             129    0.11 9  161 353 
 OCA  HN I         927  3.18        47.2 0.24            122            161 353 
 SML  HZ EP   4    926 43.57                             117   -1.08 0  244 335 
 SML  HN ES        927 12.60                             117   -0.57 8  244 335 
 SML  HN I         927 20.69        31.2 0.32            111            244 335 
 CHI  HZ EP   4    926 42.27                             117   -3.36 0  248 195 
 CHI  HN ES   1    927 15.37                             117    0.45 6  248 195 
 CHI  HN I         927 17.70         9.2 0.20            112            248 195 
 HEL  HZ EP   4    926 49.88                             114    1.71 0  272 256 
 HEL  HN ES   1    927 20.11                             114    0.67 6  272 256 
 HEL  HN I         927 26.23         2.5 0.24            110            272 256 
                                                                                
