 2011  826 0641 29.9 L   6.745 -73.018158.4  RSN  5 0.5 1.4LRSN                1
 GAP=156        0.79       8.7    11.9 10.2  0.2365E+02 -0.4809E+01 -0.6456E+01E
 Epicentro: CEPITA - SANTANDER                                                 3
 ACTION:UPD 12-07-13 15:53 OP:ep   STATUS:               ID:20110826064129 L   I
 2011-08-26-0640-00M.COL___168                                                 6
 STAT SP IPHASW D HRMM SECON CODA AMPLIT PERI AZIMU VELO AIN AR TRES W  DIS CAZ7
 BAR2 SZ ES   1    642  7.31                             170   -0.32 7 24.8 227 
 BAR2 SZ I         642  9.87         7.3 0.38                          24.8 227 
 GIR2 SZ EP   1    641 51.01                             164   -0.40 7 41.7 332 
 PAM  SE ES   2    642 11.92                             154    0.30 5 74.6  28 
 BRR  HZ EP   1    641 53.96                             150    0.63 7 86.5 298 
 BRR  HE ES   1    642 11.45                             150   -0.13 7 86.5 298 
 BRR  HZ I         642 14.48         3.9 0.13                          86.5 298 
 RUS  HZ EP   2    641 54.03                             148   -0.51 5 94.5 184 
 RUS  HE ES   2    642 14.44                             148    0.70 5 94.5 184 
 RUS  HZ I         642 15.77         2.0 0.24                          94.5 184 
                                                                                
