 2017 1026 0154 32.8 L   6.828 -73.152146.9  RSN 14 0.5 1.9LRSN                1
 GAP=110        0.98       2.9     3.8  4.7 -0.4784E-01  0.3438E+01  0.9183E+00E
 Epicentro: LOS SANTOS - SANTANDER                                             3
 ACTION:UPD 17-11-07 19:36 OP:rebc STATUS:               ID:20171026015432 L   I
 OLDACT:UP  17-10-26 15:15 OP:dani STATUS:               ID:20171026014739     3
 OLDACT:REG 17-10-26 12:55 OP:dani STATUS:               ID:20171026014739     3
 2017-10-26-0148-00M.COL___453                                                 6
 STAT SP IPHASW D HRMM SECON CODA AMPLIT PERI AZIMU VELO AIN AR TRES W  DIS CAZ7
 BAR2 EZ EP        154 52.73                             170    0.0710 26.3 187 
 BAR2 EZ ES        155  7.51                             170   -0.6110 26.3 187 
 BAR2 EZ I         155  8.79        25.0 0.32            168           26.3 187 
 BRR  HZ EP        154 54.71                             153    0.7310 69.1 297 
 BRR  HN ES        155 11.21                             153    0.7310 69.1 297 
 BRR  HZ I         155 15.62        14.7 0.32            150           69.1 297 
 PAM  EZ EP        154 55.23                             151    0.1810 75.5  41 
 PAM  EN ES        155 12.56                             151    0.1810 75.5  41 
 PAM  EZ I         155 14.86        13.6 0.52            156           75.5  41 
 RUS  HZ EP        154 56.67                             143   -0.2510  104 176 
 RUS  HN ES        155 15.54                             143   -0.1710  104 176 
 RUS  HZ I         155 16.50         7.3 0.26            145            104 176 
 PTB  HZ EP        154 59.47                             132   -0.41 9  148 258 
 PTB  HN ES        155 20.62                             132   -0.36 9  148 258 
 PTB  HZ I         155 26.47         6.2 0.58            131            148 258 
 SPBC HZ EP        155  1.70                             129    0.10 9  165 218 
 SPBC HE ES        155 24.00                             129   -0.04 9  165 218 
 SPBC HZ I         155 32.18        13.8 0.40            129            165 218 
 YPLC HZ EP     C  155  3.15                             126    0.14 9  180 152 
 ZAR  HZ EP        155  4.70                             123   -0.46 9  202 291 
 ZAR  HN ES        155 30.61                             123    0.24 9  202 291 
 ZAR  HZ I         155 35.87        10.4 0.38            122            202 291 
 CHI  HZ EP        155 11.40                             117    0.50 8  251 195 
 CHI  HN ES        155 40.23                             117   -0.36 8  251 195 
 CHI  HZ I         155 45.55         5.5 0.34            118            251 195 
 URE  HZ EP        155 13.38                             114   -0.37 7  282 291 
 URE  HN ES   4    155 43.31                             114   -2.35 0  282 291 
 URE  HZ I         155 51.87         5.3 0.16            114            282 291 
 GUY2CHZ EP        155 17.10                             112    0.47 7  302 234 
 GUY2CHN ES   4    155 55.12                             112    4.33 0  302 234 
 GUY2CHZ I         155 59.16         4.7 0.56                           302 234 
 LL6C HZ EP   1    155 18.27                             111    0.06 5  322 358 
 LL6C HN ES   1    155 53.34                             111   -0.27 5  322 358 
 PRA  HZ EP        155 27.29                             107    0.62 6  394 209 
 PRA  HN ES        156  8.48                             107   -0.18 6  394 209 
 PRA  HZ I         156 14.87         4.7 0.70            108            394 209 
 SJC  HZ EP        155 26.91                             106   -1.16 6  406 327 
 SJC  HN ES   3    156  8.92                             106   -2.24 1  406 327 
 SJC  HZ I         156 19.96         1.9 0.36            107            406 327 
                                                                                
