 2012  926 0345 24.8 L   6.689 -73.148147.2  RSN  7 0.5 1.4LRSN                1
 GAP=141        0.93       7.8     6.8 10.6  0.2089E+02 -0.1360E+02 -0.2687E+02E
 Epicentro: VILLANUEVA - SANTANDER                                             3
 ACTION:UPD 12-10-22 14:20 OP:ep   STATUS:               ID:20120926034524 L   I
 2012-09-26-0340-00M.COL___217                                                 6
 STAT SP IPHASW D HRMM SECON CODA AMPLIT PERI AZIMU VELO AIN AR TRES W  DIS CAZ7
 BAR2 SZ EP   1    345 44.40                             175    0.01 7 11.4 200 
 BAR2 SZ ES   1    345 59.56                             175   -0.14 7 11.4 200 
 BAR2 SZ I         346  1.78         6.7 0.21                          11.4 200 
 GIR2 SZ EP   1    345 44.61                             163   -0.38 7 43.3 353 
 BRR  HZ EP   1    345 46.51                             151    0.07 7 77.6 307 
 BRR  HN ES   1    346  3.54                             151    0.19 7 77.6 307 
 PAM  SZ EP   1    345 47.50                             148   -0.25 7 87.3  35 
 RUS  HZ EP   1    345 48.09                             148    0.27 7 88.4 175 
 RUS  HN ES   1    346  6.24                             148    0.43 7 88.4 175 
 RUS  HZ I         346  8.10         4.4 0.45                          88.4 175 
 PTB  HN ES   1    346 11.61                             133   -1.03 7  146 264 
 ZAR  HN ES   1    346 24.52                             122    0.97 6  209 295 
                                                                                
