 2017  326 0912  8.8 L   6.755 -73.157142.0  RSN  5 0.4 1.4LRSN                1
 GAP=137        1.15       6.0     5.8  8.4 -0.3150E+01  0.6258E+01  0.1869E+01E
 Epicentro: LOS SANTOS - SANTANDER                                             3
 ACTION:UPD 17-05-25 18:45 OP:jn   STATUS:               ID:20170326091208 L   I
 OLDACT:DUP 17-03-26 15:44 OP:cog  STATUS:               ID:20170326090740d    3
 2017-03-26-0908-00M.COL___353                                                 6
 STAT SP IPHASW D HRMM SECON CODA AMPLIT PERI AZIMU VELO AIN AR TRES W  DIS CAZ7
 BAR2 EZ EP        912 27.89                             172    0.0410 18.2 189 
 BAR2 EZ ES        912 42.18                             172   -0.5510 18.2 189 
 BAR2 EZ I         912 44.82         6.9 0.28            173           18.2 189 
 BRR  HZ EP        912 29.80                             151    0.2110 72.7 302 
 BRR  HE ES        912 46.70                             151    0.8610 72.7 302 
 BRR  HZ I         912 51.39         4.7 0.12            151           72.7 302 
 PAM  EZ EP        912 31.04                             149    0.1710 82.0  38 
 PAM  EE ES        912 47.67                             149   -0.4410 82.0  38 
 RUS  HZ EP        912 31.98                             144    0.1910 95.7 175 
 RUS  HE ES        912 50.09                             144    0.3310 95.7 175 
 RUS  HZ I         912 51.16         2.1 0.22            148           95.7 175 
 PTB  HZ EP        912 34.72                             131   -0.51 9  146 261 
 PTB  HN ES        912 55.46                             131   -0.42 9  146 261 
 PTB  HZ I         912 57.92         4.2 0.12            133            146 261 
                                                                                
