 2015  826 0016  1.0 L   6.831 -73.152141.2  RSN 11 0.5 2.0LRSN                1
 GAP=134        1.19       3.4     5.1  6.6 -0.1022E+01  0.1263E+02  0.4129E+01E
 Epicentro: LOS SANTOS - SANTANDER                                             3
 ACTION:UPD 15-09-15 23:05 OP:cam  STATUS:               ID:20150826001601 L   I
 OLDACT:UP  15-08-26 17:12 OP:ak   STATUS:               ID:20150826000744     3
 OLDACT:REG 15-08-26 12:51 OP:ak   STATUS:               ID:20150826000744     3
 2015-08-26-0007-44M.COL___355                                                 6
 STAT SP IPHASW D HRMM SECON CODA AMPLIT PERI AZIMU VELO AIN AR TRES W  DIS CAZ7
 BAR2 EZ EP        016 20.16                             169    0.0310 26.6 187 
 BAR2 EZ ES        016 34.90                             169   -0.1710 26.6 187 
 BAR2 EZ I         016 36.68        28.1 0.22            168           26.6 187 
 BRR  HZ EP        016 22.04                             152    0.5310 69.0 296 
 BRR  HN ES        016 38.19                             152    0.6710 69.0 296 
 BRR  HZ I         016 42.25        12.0 0.26            152           69.0 296 
 PAM  EZ EP        016 23.11                             151    0.5310 75.3  42 
 PAM  EN ES        016 39.43                             151    0.0010 75.3  42 
 PAM  EZ I         016 42.59         8.5 0.32            154           75.3  42 
 RUS  HZ EP        016 24.18                             142   -0.3610  104 176 
 RUS  HN ES        016 42.49                             142   -0.4210  104 176 
 RUS  HZ I         016 44.09         6.6 0.48            143            104 176 
 ZAR  HN ES        016 57.05                             121   -0.81 9  202 291 
 NOR  HZ EP        016 36.50                             117   -0.10 8  236 234 
 NOR  HE ES        017  4.29                             117   -0.10 8  236 234 
 NOR  HZ I         017 11.07         7.6 0.20            118            236 234 
 SML  HZ EP        016 36.83                             117   -0.16 8  240 335 
 SML  HN ES        017  4.18                             117   -0.89 8  240 335 
 SML  HZ I         017  8.98         9.1 0.11            118            240 335 
 CHI  HZ EP   1    016 37.86                             116   -0.91 6  252 195 
 CHI  HN ES        017  7.85                             116   -0.39 8  252 195 
 CHI  HZ I         017 14.76         5.4 0.38            117            252 195 
 ROSC BZ EP        016 40.00                             115    0.86 8  255 211 
 ROSC BN ES   1    017  8.74                             115   -0.16 6  255 211 
 HEL  HZ EP   4    016 43.77                             114    2.78 0  272 255 
 HEL  HN ES   4    017 14.28                             114    2.09 0  272 255 
 GUY2CHZ EP        016 45.48                             111    0.94 7  303 234 
 GUY2CHN ES        017 19.22                             111    0.70 7  303 234 
 GUY2CHZ I         017 26.82         6.7 0.44                           303 234 
 PRA  HZ EP   1    016 54.20                             106   -0.46 4  395 209 
 PRA  HN ES        017 36.27                             106   -0.25 6  395 209 
 PRA  HZ I         017 42.80         6.1 0.38            107            395 209 
 SJC  HZ EP   4    016 54.56                             105   -1.46 0  406 327 
 SJC  HN ES   4    017 36.20                             105   -2.74 0  406 327 
                                                                                
