 2017 1026 0540 35.9 L   6.810 -73.130151.1  RSN  6 0.5 1.1LRSN                1
 GAP=138        1.32       6.5     7.0  9.6 -0.1282E+02  0.1942E+01  0.9651E+01E
 Epicentro: LOS SANTOS - SANTANDER                                             3
 ACTION:UPD 17-11-07 19:37 OP:rebc STATUS:               ID:20171026054035 L   I
 OLDACT:UP  17-10-26 17:35 OP:dani STATUS:               ID:20171026052839     3
 OLDACT:UP  17-10-26 17:35 OP:dani STATUS:               ID:20171026052839     3
 OLDACT:REG 17-10-26 13:09 OP:dani STATUS:               ID:20171026052839     3
 2017-10-26-0538-00M.COL___399                                                 6
 STAT SP IPHASW D HRMM SECON CODA AMPLIT PERI AZIMU VELO AIN AR TRES W  DIS CAZ7
 BAR2 EZ EP        540 56.32                             170    0.0910 24.8 194 
 BAR2 EZ ES        541 11.53                             170   -0.5310 24.8 194 
 BAR2 EZ I         541 12.60         2.5 0.16            171           24.8 194 
 BRR  HZ EP        540 58.23                             153    0.5210 72.2 297 
 BRR  HN ES        541 15.48                             153    0.7810 72.2 297 
 BRR  HZ I         541 21.96         3.2 0.44            151           72.2 297 
 PAM  EZ EP        540 57.83                             152   -0.7710 75.4  39 
 PAM  EN ES        541 16.37                             152    0.0910 75.4  39 
 RUS  HZ EP        541  0.31                             145    0.0410  102 177 
 RUS  HN ES        541 19.58                             145    0.3110  102 177 
 RUS  HZ I         541 20.94         1.0 0.29            148            102 177 
 PTB  HN ES        541 24.09                             133   -0.93 9  150 259 
 SPBC HZ EP        541  5.36                             130    0.34 9  165 219 
 SPBC HE ES        541 27.72                             130    0.00 9  165 219 
 SPBC HZ I         541 29.52         1.6 0.12            132            165 219 
                                                                                
