 2014 1226 0501 36.5 L   6.792 -73.165140.4  RSN  6 0.4 1.6LRSN                1
 GAP=242        1.00       6.0     5.8  7.6  0.1203E+02  0.1193E+02 -0.6577E+01E
 Epicentro: LOS SANTOS - SANTANDER                                             3
 ACTION:UPD 15-02-10 17:07 OP:nd   STATUS:               ID:20141226050136 L   I
 OLDACT:REG 14-12-26 12:29 OP:mh   STATUS:               ID:20141226045750     3
 2014-12-26-0457-50M.COL___283                                                 6
 STAT SP IPHASW D HRMM SECON CODA AMPLIT PERI AZIMU VELO AIN AR TRES W  DIS CAZ7
 BAR2 EZ EP   1    5 1 55.68                             171    0.20 7 22.2 185 
 BAR2 EZ ES        5 2  9.97                             171   -0.3010 22.2 185 
 BAR2 EZ I         5 2 13.52        10.4 0.32            166           22.2 185 
 RUS  HZ EP        5 1 59.27                             143   -0.4210 99.9 175 
 RUS  HN ES        5 2 18.13                             143    0.3610 99.9 175 
 RUS  HZ I         5 2 19.01         4.3 0.28            145           99.9 175 
 PTB  HZ EP        5 2  2.65                             131   -0.19 9  146 259 
 PTB  HN ES        5 2 22.86                             131   -0.52 9  146 259 
 PTB  HZ I         5 2 27.57         5.0 0.74            130            146 259 
 SPBC HZ EP        5 2  4.59                             128    0.17 9  161 219 
 SPBC HN ES        5 2 26.79                             128    0.61 9  161 219 
 SPBC HZ I         5 2 33.27         6.3 0.12            129            161 219 
 ZAR  HZ EP        5 2  8.53                             121    0.08 9  202 293 
 ZAR  HN ES        5 2 33.98                             121    0.63 9  202 293 
 ZAR  HZ I         5 2 41.85         4.1 0.50            122            202 293 
 NOR  HZ EP   1    5 2 11.80                             117    0.10 6  232 234 
 NOR  HN ES   1    5 2 38.23                             117   -0.91 6  232 234 
 NOR  HZ I         5 2 45.25         3.9 0.25            119            232 234 
                                                                                
