 2015  926 0724 24.2 L   6.171 -73.730117.6  RSN  5 0.4 1.3LRSN                1
 GAP=161        0.75       7.0     4.2  8.5 -0.6492E+01  0.1251E+01  0.5692E+01E
 Epicentro: LANDAZURI - SANTANDER                                              3
 ACTION:UPD 15-10-28 16:28 OP:cam  STATUS:               ID:20150926072424 L   I
 OLDACT:REG 15-09-26 13:43 OP:ar   STATUS:               ID:20150926071740     3
 2015-09-26-0717-40M.COL___352                                                 6
 STAT SP IPHASW D HRMM SECON CODA AMPLIT PERI AZIMU VELO AIN AR TRES W  DIS CAZ7
 SPBC HZ EP   2    724 42.48                             148    0.11 5 68.8 213 
 SPBC HN ES   2    724 57.06                             148    0.53 5 68.8 213 
 BAR2 EZ EP        724 43.40                             145    0.3010 76.4  52 
 BAR2 EZ ES        724 57.47                             145   -0.3610 76.4  52 
 BAR2 EZ I         724 58.57         7.8 0.16            135           76.4  52 
 PTB  HZ EP        724 43.49                             140   -0.3110 90.1 297 
 PTB  HN ES        724 59.03                             140   -0.0510 90.1 297 
 PTB  HZ I         725  1.95         1.9 0.18            129           90.1 297 
 BRR  HE ES   2    725  1.93                             136    0.92 5  104   1 
 SML  HZ EP   2    725  5.36                             107    0.20 4  293 353 
 SML  HN ES   4    725 39.93                             107    2.84 0  293 353 
 SML  HZ I         725 47.40         2.1 0.28            101            293 353 
                                                                                
