 2016 1026 0955  1.6 L   6.791 -73.094144.6  RSN 13 0.3 1.7LRSN                1
 GAP=124        0.70       2.6     3.9  4.0 -0.3233E+01 -0.2173E+01  0.3325E+01E
 Epicentro: LOS SANTOS - SANTANDER                                             3
 ACTION:UPD 16-11-09 19:23 OP:rebc STATUS:               ID:20161026095501 L   I
 OLDACT:UP  16-10-26 16:34 OP:cog  STATUS:               ID:20161026094750     3
 OLDACT:REG 16-10-26 14:57 OP:cog  STATUS:               ID:20161026094750     3
 2016-10-26-0948-00M.COL___322                                                 6
 STAT SP IPHASW D HRMM SECON CODA AMPLIT PERI AZIMU VELO AIN AR TRES W  DIS CAZ7
 BAR2 EZ IP     D  955 21.13                             170   -0.0010 24.1 204 
 BAR2 EZ ES        955 36.02                             170   -0.3310 24.1 204 
 BAR2 EZ I         955 37.73        12.4 0.24            166           24.1 204 
 PAM  EZ EP        955 24.17                             151    0.6110 74.7  36 
 PAM  EN ES        955 40.58                             151   -0.0910 74.7  36 
 PAM  EZ I         955 43.30        14.4 0.56            156           74.7  36 
 BRR  HZ EP        955 22.90                             150   -0.0810 76.8 297 
 BRR  HN ES        955 39.96                             150    0.3310 76.8 297 
 BRR  HZ I         955 40.49        12.0 0.14            151           76.8 297 
 RUS  HZ EP        955 25.30                             144    0.1310 99.3 179 
 RUS  HN ES        955 43.70                             144    0.1610 99.3 179 
 RUS  HZ I         955 47.21         2.6 0.38            143           99.3 179 
 PTB  HZ EP   9    955 27.89                             131   -1.11 0  153 260 
 PTB  HN ES        955 49.18                             131   -0.06 9  153 260 
 PTB  HZ I         955 49.95         4.7 0.15            131            153 260 
 OCA  HZ EP   2    955 29.61                             129   -0.41 5  162 351 
 OCA  HN ES   2    955 51.37                             129   -0.79 5  162 351 
 SPBC HZ EP        955 30.09                             128   -0.22 9  166 221 
 SPBC HN ES        955 52.57                             128   -0.12 9  166 221 
 SPBC HZ I         956  0.87         6.1 0.16            128            166 221 
 NOR  HZ EP   4    955 35.50                             118   -2.23 0  239 235 
 NOR  HE ES   2    956  5.92                             118    0.02 4  239 235 
 NOR  HZ I         956 11.84         2.4 0.38            118            239 235 
 CHI  HZ EP        955 39.57                             117    0.25 8  249 197 
 CHI  HN ES        956  8.57                             117   -0.16 8  249 197 
 CHI  HZ I         956 10.92         3.7 0.48            117            249 197 
 ROSC BZ EP   4    955 40.78                             116    0.86 0  255 212 
 ROSC BN ES   4    956 13.60                             116    3.81 0  255 212 
 ROSC BZ I         956 17.19         7.4 0.35            116            255 212 
 GUY2CHZ EP   2    955 46.15                             112    0.50 4  305 236 
 GUY2CHN ES   4    956 23.91                             112    3.92 0  305 236 
 GUY2CHZ I         956 26.34         1.7 0.26                           305 236 
 PTGC HZ EP        955 44.46                             112   -0.63 7  306 160 
 PTGC HN ES   4    956 17.62                             112   -1.37 0  306 160 
 URI  HZ EP   9    956 11.71                             100   -2.86 0  556  12 
 URI  HE ES        957  8.05                             101   -0.56 3  556  12 
                                                                                
