 2011  326 0508 21.0 L   6.723 -73.074139.1  RSN  4 0.5 1.5LRSN                1
 GAP=207        1.02      10.9    14.4 13.4 -0.5687E+02 -0.5876E+02 -0.8302E+01E
 Epicentro: JORDAN - SANTANDER                                                 3
 ACTION:UP  11-06-16 14:35 OP:jfem STATUS:               ID:20110326050821 L   I
 2011-03-26-0506-18S.COL___139                                                 6
 STAT SP IPHASW D HRMM SECON CODA AMPLIT PERI AZIMU VELO SNR AR TRES W  DIS CAZ7
 BAR2 SZ EP   1    5 8 39.88                             172     0.2 7   19 220 
 BAR2 SZ ES   2    5 8 53.83                             172    -0.5 5   19 220 
 BAR2 SZ I         5 8 57.81         8.6 0.39                            19 220 
 BRR  HZ EP   1    5 8 41.87                             148    -0.2 7   82 301 
 BRR  HN ES   1    5 8 58.87                             148     0.3 7   82 301 
 BRR  HZ I         5 9  2.11         7.4 0.26                            82 301 
 GRA  SZ EP   1    5 8 46.89                             134     0.7 7  132  13 
 GRA  SZ ES   1    5 9  5.69                             134    -0.1 7  132  13 
 GRA  SZ I         5 9  6.35         3.4 0.32                           132  13 
 OCA  SZ EP   1    5 8 48.99                             126    -0.7 7  170 351 
 OCA  SZ I         5 9 14.48         2.9 0.47                           170 351 
                                                                                
