 2012  926 0644 27.2 L   6.805 -73.132147.8  RSN 17 0.4 2.8LRSN 3.1WRSN        1
 SPEC AVERAGE  MO 13.7 ST 16.2 OM  3.0 f0 4.93 R0.3338 AL 5.65 WI  8.5 MW  3.1 3
 SPEC SD       MO  0.2 ST 18.0 OM  1.0 f0 1.72 R0.1042 AL      WI      MW  0.2 3
 GAP= 66        0.84       3.0     2.6  5.1  0.7236E+00  0.2607E+01  0.3994E+01E
 Epicentro: LOS SANTOS - SANTANDER                                             3
 SPEC RUS HH Z MO 13.3 ST  1.4 OM  1.7 f0 3.62 R0.4061 AL 2.48 WI  5.9 MW  2.8 3
 SPEC RUS HH Z T 645 8 K 0.000 GD  179 VS 4.20 DE 3.00 Q0230.0 QA 0.60 VS 4.20 3
 SPEC HEL HH N MO 13.9 ST  3.3 OM  2.0 f0 3.21 R0.4579 AL 2.44 WI 12.2 MW  3.2 3
 SPEC HEL HH N T 64538 K 0.000 GD  311 VS 4.20 DE 3.00 Q0230.0 QA 0.60 VS 4.20 3
 SPEC BRR HH N MO 13.9 ST 46.3 OM  2.3 f0 7.59 R0.1937 AL14.16 WI  6.8 MW  3.2 3
 SPEC BRR HH N T 645 5 K 0.000 GD  164 VS 4.20 DE 3.00 Q0230.0 QA 0.60 VS 4.20 3
 SPEC CHI HH N MO 13.8 ST 13.9 OM  2.0 f0 5.30 R0.2774 AL 3.53 WI  9.0 MW  3.2 3
 SPEC CHI HH N T 64534 K 0.000 GD  290 VS 4.20 DE 3.00 Q0230.0 QA 0.60 VS 4.20 3
 ACTION:UPD 12-10-22 14:20 OP:ep   STATUS:               ID:20120926064427 L   I
 2012-09-26-0640-00M.COL___217                                                 6
 STAT SP IPHASW D HRMM SECON CODA AMPLIT PERI AZIMU VELO AIN AR TRES W  DIS CAZ7
 BAR2 SZ EP        644 46.85                             170   -0.1910 24.2 193 
 BAR2 SZ ES   1    645  2.41                             170   -0.15 7 24.2 193 
 BAR2 SZ I         645  5.18       178.3 0.38                          24.2 193 
 GIR2 SZ EP        644 46.92                             167   -0.1410 31.0 347 
 BRR  HZ IP     C  644 48.75                             152    0.1710 72.3 298 
 BRR  HN ES   1    645  6.04                             152    0.75 7 72.3 298 
 BRR  HZ I         645  9.47        82.0 0.19                          72.3 298 
 PAM  SZ EP        644 49.62                             151    0.1210 76.0  39 
 PAM  SN ES   1    645  6.95                             151    0.02 7 76.0  39 
 PAM  SZ I         645  9.20        83.2 0.53                          76.0  39 
 RUS  HZ EP        644 50.74                             144   -0.4010  101 177 
 RUS  HN ES   1    645  9.62                             144   -0.22 7  101 177 
 RUS  HZ I         645 12.14        55.7 0.46                           101 177 
 PTB  HN ES   1    645 14.93                             132   -0.77 7  149 259 
 TAM  HZ IP     C  644 54.99                             131    0.12 9  154 105 
 TAM  HZ I         645 15.93        47.1 0.26                           154 105 
 TAM  HN ES        645 16.55                             131    0.06 9  154 105 
 TAM  HN I         645 17.72       160.3 0.36                           154 105 
 YOP  SZ EP   1    644 57.34                             127    0.01 7  179 154 
 YOP  SN ES   1    645 21.39                             127    0.53 7  179 154 
 ZAR  HZ EP   1    644 59.59                             123   -0.26 6  205 292 
 ZAR  HE ES        645 25.37                             123    0.01 8  205 292 
 NOR  SN ES   1    645 30.97                             119   -0.29 6  236 235 
 CHI  HZ EP   1    645  4.47                             117   -0.60 6  250 195 
 CHI  HN ES   1    645 33.98                             117   -0.66 6  250 195 
 CHI  HZ I         645 42.60        26.1 0.30                           250 195 
 ROSC BZ EP        645  6.34                             117    0.82 8  254 211 
 ROSC BZ I         645 44.61        64.7 0.38                           254 211 
 HEL  HZ EP   1    645  8.19                             115    0.54 6  274 256 
 HEL  HN ES   1    645 39.68                             115    0.45 6  274 256 
 HEL  HZ I         645 45.23        29.1 0.19                           274 256 
 VIL  SZ EP   1    645 10.31                             112   -0.45 5  304 192 
 VIL  SE ES   1    645 45.34                             112    0.56 5  304 192 
 TOL  SZ EP        645 16.39                             109    0.73 7  345 225 
 COD  HZ EP   1    645 14.84                             109   -0.72 5  348 354 
 PRA  HZ EP   1    645 20.14                             107   -0.75 4  393 210 
 PRA  HE ES   1    646  2.79                             107   -0.02 4  393 210 
 PRA  HZ I         646  8.00        23.6 0.20                           393 210 
                                                                                
