 2017  926 0130 21.3 L   6.770 -73.114144.6  RSN  8 0.5 1.5LRSN                1
 GAP=142        1.01       3.9     4.8  7.2 -0.1770E+01  0.1123E+02  0.6255E+01E
 Epicentro: LOS SANTOS - SANTANDER                                             3
 ACTION:UPD 17-10-05 19:16 OP:rebc STATUS:               ID:20170926013021 L   I
 OLDACT:UP  17-09-26 15:21 OP:osc  STATUS:               ID:20170926012744     3
 OLDACT:REG 17-09-26 12:38 OP:osc  STATUS:               ID:20170926012744     3
 2017-09-26-0128-00M.COL___438                                                 6
 STAT SP IPHASW D HRMM SECON CODA AMPLIT PERI AZIMU VELO AIN AR TRES W  DIS CAZ7
 BAR2 EZ EP        130 40.65                             171   -0.1410 21.1 201 
 BAR2 EZ ES        130 55.38                             171   -0.5810 21.1 201 
 BAR2 EZ I         130 56.91        10.2 0.24            170           21.1 201 
 BRR  HZ EP        130 42.43                             151   -0.2110 75.8 299 
 BRR  HE ES        130 59.77                             151    0.5210 75.8 299 
 PAM  EZ EP        130 43.49                             151    0.0210 77.9  36 
 PAM  EE ES        131  0.85                             151    0.1310 77.9  36 
 PAM  EZ I         131  2.84        11.9 0.50            151           77.9  36 
 RUS  HZ EP   3    130 45.66                             145    0.93 2 97.1 178 
 RUS  HN ES        131  3.54                             145    0.5610 97.1 178 
 RUS  HZ I         131  4.57         3.9 0.30            144           97.1 178 
 ZAR  HZ EP   2    130 55.59                             122    1.41 4  209 293 
 ZAR  HN ES        131 19.29                             122   -0.49 8  209 293 
 NOR  HE ES        131 24.85                             118   -0.15 8  236 236 
 CHI  HZ EP        130 58.22                             117   -0.52 8  246 196 
 CHI  HE ES        131 27.73                             117   -0.17 8  246 196 
 CHI  HZ I         131 31.69         1.8 0.40            117            246 196 
 GUY2CHE ES        131 39.60                             112    0.53 7  302 236 
 GUY2CHZ I         131 50.86         1.3 0.42                           302 236 
                                                                                
