 2014  326 0542 18.1 L   6.812 -73.161140.6  RSN 13 0.4 2.1LRSN                1
 GAP= 70        0.84       2.1     2.5  4.5 -0.5631E+00  0.3572E+01  0.2804E+00E
 Epicentro: LOS SANTOS - SANTANDER                                             3
 ACTION:UPD 14-04-09 23:20 OP:nd   STATUS:               ID:20140326054218 L   I
 OLDACT:REG 14-03-26 07:56 OP:carl STATUS:               ID:20140326054042     3
 2014-03-26-0540-42M.COL___238                                                 6
 STAT SP IPHASW D HRMM SECON CODA AMPLIT PERI AZIMU VELO AIN AR TRES W  DIS CAZ7
 BAR2 SZ EP     D  542 37.34                             170    0.1710 24.5 185 
 BAR2 SZ ES        542 51.61                             170   -0.4110 24.5 185 
 BAR2 SZ I         542 53.82        94.2 0.20            169           24.5 185 
 PAM  SN ES        542 56.84                             150    0.1310 77.4  41 
 RUS  HZ EP        542 41.06                             142   -0.4310  102 175 
 RUS  HN ES        542 59.69                             142   -0.0210  102 175 
 RUS  HZ I         543  1.60         9.0 0.26            144            102 175 
 PTB  HZ EP        542 44.22                             131   -0.33 9  146 258 
 PTB  HN ES        543  5.24                             131    0.08 9  146 258 
 PTB  HZ I         543 12.53        21.6 0.36            130            146 258 
 TAM  HZ EP        542 45.67                             129    0.07 9  157 105 
 TAM  HN ES        543  7.41                             129    0.39 9  157 105 
 TAM  HZ I         543  7.94         8.4 0.24            133            157 105 
 OCA  HZ EP        542 45.56                             129   -0.34 9  159 354 
 OCA  HN ES        543  8.05                             129    0.50 9  159 354 
 OCA  HZ I         543 12.09        12.7 0.36            130            159 354 
 SPBC HZ EP        542 46.24                             128    0.00 9  163 218 
 SPBC HN ES        543  8.50                             128    0.34 9  163 218 
 SPBC HZ I         543 12.02        20.1 0.36            128            163 218 
 ZAR  HN ES        543 15.24                             121    0.34 9  202 292 
 NOR  HZ EP        542 53.57                             117    0.07 8  234 234 
 NOR  HE ES        543 21.33                             117    0.24 8  234 234 
 NOR  HZ I         543 26.67        10.9 0.16            118            234 234 
 SML  HZ EP        542 53.92                             117   -0.34 8  242 336 
 SML  HN ES        543 21.85                             117   -0.58 8  242 336 
 SML  HZ I         543 29.31        17.5 0.10            117            242 336 
 CHI  HZ EP        542 55.47                             116   -0.17 8  250 195 
 CHI  HN ES        543 24.45                             116   -0.46 8  250 195 
 CHI  HZ I         543 27.22         4.9 0.22            117            250 195 
 RREF HZ EP        543  5.09                             110    1.08 7  321 229 
 RREF HN ES        543 39.57                             110   -0.22 7  321 229 
 RREF HZ I         543 47.87         6.8 0.30            111            321 229 
 CBOC HZ EP        543  4.98                             109    0.29 7  332 252 
 CBOC HN ES        543 40.93                             109   -0.09 7  332 252 
 CBOC HZ I         543 55.04         2.2 0.30            110            332 252 
                                                                                
