 2012  226 0805 48.4 L   5.983 -73.772107.0  RSN  7 0.3 1.4LRSN                1
 GAP= 81        0.46       2.7     2.7  7.4 -0.1196E+01  0.3852E+01  0.5912E+01E
 ACTION:UP  12-03-07 16:34 OP:epov STATUS:               ID:20120226080548 L   I
 2012-02-26-0800-00M.COL___192                                                 6
 STAT SP IPHASW D HRMM SECON CODA AMPLIT PERI AZIMU VELO AIN AR TRES W  DIS CAZ7
 RUS  HZ EP   2    8 6  6.79                             142    0.10 5 77.0  97 
 RUS  HN ES   2    8 6 20.90                             142   -0.02 5 77.0  97 
 RUS  HZ I         8 6 25.69         3.6 0.72                          77.0  97 
 BAR2 SZ EP   1    8 6  7.78                             135    0.08 7 93.8  44 
 BAR2 SZ I         8 6  8.23         8.1 0.21                          93.8  44 
 BAR2 SZ ES   2    8 6 22.60                             135   -0.11 5 93.8  44 
 PTB  HZ EP   2    8 6  7.45                             134   -0.26 5 97.6 309 
 PTB  HN ES   2    8 6 22.16                             134   -0.58 5 97.6 309 
 BRR  HZ EP   2    8 6 10.12                             126   -0.08 5  125   3 
 BRR  HN ES   2    8 6 27.63                             126    0.46 5  125   3 
 BRR  HZ I         8 6 30.63         4.3 0.26                           125   3 
 NOR  SZ EP   1    8 6 11.14                             125    0.32 7  130 249 
 NOR  SN ES   2    8 6 28.56                             125    0.29 5  130 249 
 CHI  HZ EP   1    8 6 12.93                             121   -0.37 7  150 178 
 CHI  HN ES   2    8 6 32.87                             121    0.19 5  150 178 
 GUY  SN ES   2    8 6 42.10                             113   -0.04 4  198 245 
 GUY  SZ I         8 6 45.95         4.0 0.56                           198 245 
                                                                                
