 2017  726 0835 16.4 L   6.801 -73.147139.0  RSN 12 0.5 1.7LRSN                1
 GAP=184        0.77       3.5     3.6  4.6  0.2578E+01  0.2733E+01  0.1883E+00E
 Epicentro: LOS SANTOS - SANTANDER                                             3
 ACTION:UPD 17-08-30 15:36 OP:rebc STATUS:               ID:20170726083516 L   I
 OLDACT:UP  17-07-26 17:00 OP:and  STATUS:               ID:20170726082743     3
 OLDACT:UP  17-07-26 16:59 OP:and  STATUS:               ID:20170726082743     3
 OLDACT:UP  17-07-26 16:58 OP:and  STATUS:               ID:20170726082743     3
 OLDACT:UP  17-07-26 16:58 OP:and  STATUS:               ID:20170726082743     3
 OLDACT:UP  17-07-26 16:57 OP:and  STATUS:               ID:20170726082743     3
 OLDACT:UP  17-07-26 16:57 OP:and  STATUS:               ID:20170726082743     3
 OLDACT:REG 17-07-26 12:58 OP:and  STATUS:               ID:20170726082743     3
 2017-07-26-0828-00M.COL___386                                                 6
 STAT SP IPHASW D HRMM SECON CODA AMPLIT PERI AZIMU VELO AIN AR TRES W  DIS CAZ7
 BAR2 EZ EP        835 35.09                             170   -0.1410 23.4 190 
 BAR2 EZ ES        835 50.09                             170    0.1810 23.4 190 
 BAR2 EZ I         835 51.00        18.1 0.32            168           23.4 190 
 BRR  HZ IP     C  835 36.84                             151    0.0210 71.0 299 
 BRR  HN ES   3    835 54.01                             151    1.27 2 71.0 299 
 BRR  HZ I         835 56.84        13.5 0.36            151           71.0 299 
 RUS  HN ES        835 57.67                             142    0.1410  101 176 
 RUS  HZ I         835 59.36         6.2 0.60            143            101 176 
 PTB  HZ EP   9    835 41.82                             130   -1.00 0  148 259 
 PTB  HN ES        836  2.62                             132    0.20 9  148 259 
 PTB  HZ I         836  5.90         3.9 0.18            130            148 259 
 SPBC HZ EP        835 44.39                             128   -0.00 9  163 219 
 SPBC HN ES        836  6.24                             128    0.02 9  163 219 
 SPBC HZ I         836 10.50         8.4 0.14            127            163 219 
 YPLC HZ IP     D  835 45.67                             125   -0.06 9  177 151 
 YPLC HN ES   2    836  7.75                             125   -0.86 4  177 151 
 YPLC HZ I         836 13.12         3.8 0.34            127            177 151 
 ZAR  HZ EP   2    835 48.72                             121    0.32 4  204 292 
 ZAR  HN ES        836 13.06                             121   -0.30 9  204 292 
 ZAR  HZ I         836 18.09         5.9 0.12            121            204 292 
 NOR  HZ EP   2    835 52.22                             117    0.48 4  235 234 
 NOR  HN ES        836 18.52                             117   -0.79 8  235 234 
 NOR  HZ I         836 24.83         3.8 0.18            117            235 234 
 GUY2CHZ EP        836  0.49                             111    0.79 7  301 235 
 GUY2CHN ES   4    836 36.73                             111    3.26 0  301 235 
 GUY2CHZ I         836 43.48         2.9 0.54                           301 235 
 PTGC HZ EP   9    835 58.46                             110   -1.52 0  309 159 
 PTGC HN ES        836 31.93                             111   -0.52 7  309 159 
 PRA  HZ EP        836  9.87                             105    0.17 6  392 210 
 PRA  HN ES        836 51.56                             105    0.29 6  392 210 
 PRA  HZ I         836 56.47         1.7 0.33            106            392 210 
 SJC  HZ EP   3    836  9.73                             105   -2.00 1  409 327 
 SJC  HN ES   4    836 50.55                             105   -4.34 0  409 327 
                                                                                
