 2016  926 0524 53.8 L   6.801 -73.146146.8  RSN 19 0.4 2.2LRSN                1
 GAP= 65        0.98       2.5     2.7  4.5 -0.7403E+00  0.2669E+01  0.1120E+01E
 Epicentro: LOS SANTOS - SANTANDER                                             3
 ACTION:UPD 17-08-17 21:16 OP:lp   STATUS:               ID:20160926052453 L   I
 OLDACT:UP  16-09-26 17:32 OP:dani STATUS:               ID:20160926051746     3
 OLDACT:REG 16-09-26 13:05 OP:dani STATUS:               ID:20160926051746     3
 2016-09-26-0518-00M.COL___327                                                 6
 STAT SP IPHASW D HRMM SECON CODA AMPLIT PERI AZIMU VELO AIN AR TRES W  DIS CAZ7
 BAR2 EZ EP        525 13.39                             171   -0.1710 23.4 190 
 BAR2 EZ ES        525 28.75                             171   -0.2210 23.4 190 
 BAR2 EZ I         525 31.23        47.9 0.30            168           23.4 190 
 BRR  HZ EP        525 15.24                             153    0.1910 71.1 298 
 BRR  HN ES        525 32.37                             153    0.7410 71.1 298 
 BRR  HZ I         525 36.27        27.7 0.26            149           71.1 298 
 PAM  EZ EP        525 16.20                             151    0.0810 77.3  40 
 PAM  EN ES        525 33.53                             151   -0.0110 77.3  40 
 PAM  EZ I         525 36.68        16.8 0.50            150           77.3  40 
 RUS  HZ EP        525 17.40                             144   -0.2610  101 176 
 RUS  HN ES        525 36.18                             144   -0.0910  101 176 
 RUS  HZ I         525 37.07        12.2 0.20            141            101 176 
 PTB  HZ EP        525 20.01                             132   -0.84 9  148 259 
 PTB  HN ES        525 41.34                             132   -0.61 9  148 259 
 PTB  HZ I         525 47.84        17.9 0.32            128            148 259 
 TAM  HZ EP        525 21.87                             131    0.30 9  155 105 
 TAM  HN ES        525 43.59                             131    0.36 9  155 105 
 TAM  HZ I         525 45.22         8.8 0.54            129            155 105 
 OCA  HZ EP        525 21.49                             130   -0.69 9  160 353 
 OCA  HN ES        525 44.35                             130    0.04 9  160 353 
 SPBC HZ EP        525 22.18                             129   -0.20 9  163 219 
 SPBC HN ES        525 44.76                             129    0.08 9  163 219 
 SPBC HZ I         525 49.31        31.2 0.12            125            163 219 
 ZAR  HZ EP        525 26.28                             123   -0.02 9  204 292 
 ZAR  HN ES        525 51.43                             123   -0.22 9  204 292 
 ZAR  HZ I         525 56.60        20.5 0.34            119            204 292 
 NOR  HZ EP        525 29.60                             119    0.01 8  235 234 
 NOR  HN ES        525 57.86                             119    0.35 8  235 234 
 NOR  HZ I         526  6.80         8.1 0.36            115            235 234 
 CHI  HZ EP        525 31.37                             117   -0.19 8  249 195 
 CHI  HE ES        526  0.54                             117   -0.48 8  249 195 
 CHI  HZ I         526  4.96         9.7 0.48            114            249 195 
 ROSC BZ EP   4    525 33.48                             117    1.50 0  253 211 
 ROSC BE ES        526  2.33                             117    0.57 8  253 211 
 ROSC BZ I         526  8.32        30.0 0.47            114            253 211 
 HEL  HZ EP        525 34.69                             115    0.63 8  272 256 
 HEL  HN ES        526  5.76                             115    0.30 8  272 256 
 HEL  HZ I         526 11.51         7.8 0.30            112            272 256 
 GUY2CHZ EP        525 38.36                             112    0.90 7  301 235 
 GUY2CHN ES   4    526 15.90                             112    4.39 0  301 235 
 GUY2CHZ I         526 19.65        11.4 0.36                           301 235 
 VIL  EZ EP        525 37.28                             112    0.01 7  303 192 
 VIL  EZ I         526 16.09        17.0 0.74            110            303 192 
 PTGC HZ EP   9    525 36.49                             112   -1.23 0  309 159 
 PTGC HE ES        526 10.03                             112   -0.72 7  309 159 
 PTGC HZ I         526 12.83         5.3 0.40            109            309 159 
 ELA  HZ EP   4    525 41.84                             110    1.14 0  329 229 
 ARGC HZ EP        525 43.74                             108    0.26 6  359 340 
 ARGC HE ES   4    526 23.24                             108    1.01 0  359 340 
 ARGC HZ I         526 31.46         2.4 0.20            106            359 340 
 PAL  HZ EP        525 48.98                             106   -0.01 6  406 239 
 SJC  HZ EP   4    525 47.53                             106   -1.85 0  409 327 
 SJC  HN ES   4    526 28.70                             106   -4.03 0  409 327 
 SJC  HZ I         526 43.55         2.9 0.48            104            409 327 
                                                                                
