 2017 1026 0858 30.8 L   6.033 -73.999 40.0  RSN  7 0.3 0.8LRSN                1
 GAP= 92        0.82       3.5     2.4  6.4 -0.2457E+01  0.1806E+01 -0.4542E+00E
 Epicentro: LA BELLEZA - SANTANDER                                             3
 ACTION:UPD 17-11-07 19:37 OP:rebc STATUS:               ID:20171026085830 L   I
 OLDACT:UP  17-10-26 18:18 OP:edw  STATUS:               ID:20171026085302     3
 OLDACT:UP  17-10-26 18:18 OP:edw  STATUS:               ID:20171026085302     3
 OLDACT:UP  17-10-26 18:17 OP:edw  STATUS:               ID:20171026085302     3
 OLDACT:UP  17-10-26 18:16 OP:edw  STATUS:               ID:20171026085302     3
 OLDACT:REG 17-10-26 13:27 OP:dani STATUS:               ID:20171026085302     3
 2017-10-26-0858-00M.COL___390                                                 6
 STAT SP IPHASW D HRMM SECON CODA AMPLIT PERI AZIMU VELO AIN AR TRES W  DIS CAZ7
 SPBC HZ EP        858 44.77                             152    0.0510 42.9 191 
 SPBC HN ES        858 55.26                             152   -0.3410 42.9 191 
 SPBC HZ I         858 55.88        10.2 0.20            157           42.9 191 
 PTB  HZ EP        858 46.64                             137   -0.2910 75.4 318 
 PTB  HN ES        858 59.36                             137   -0.1810 75.4 318 
 PTB  HZ I         859  2.78         1.1 0.28            137           75.4 318 
 RUS  HZ EP        858 50.32                             128    0.2710  103  99 
 RUS  HN ES        859  4.67                             128   -0.4210  103  99 
 RUS  HZ I         859  6.28         0.7 0.54            131            103  99 
 NOR  HN ES        859  5.45                             125    0.1810  109 242 
 NOR  HZ I         859  6.56         2.1 0.68            128            109 242 
 BAR2 EZ ES        859  6.28                             125    0.5810  109  56 
 BAR2 EZ I         859  8.25         5.2 0.60            127            109  56 
 GUY2CHZ EP        858 57.85                             113   -0.06 9  176 239 
 GUY2CHN ES        859 19.45                             113    0.37 9  176 239 
 GUY2CHZ I         859 25.45         0.8 0.54                           176 239 
 ZAR  HZ EP   2    858 58.26                             111   -0.38 4  187 330 
 ZAR  HN ES   4    859 22.65                             111    2.27 0  187 330 
                                                                                
