 2015  126 0412  5.2 L   6.823 -73.148149.5  RSN 21 0.5 2.4LRSN                1
 GAP= 55        1.17       2.9     3.4  5.3 -0.1032E+01  0.1794E+01  0.1211E+01E
 Epicentro: LOS SANTOS - SANTANDER                                             3
 ACTION:UPD 15-03-02 15:42 OP:nd   STATUS:               ID:20150126041205 L   I
 OLDACT:UP  15-01-26 15:46 OP:cam  STATUS:               ID:20150126040812     3
 OLDACT:REG 15-01-26 14:50 OP:\cam STATUS:               ID:20150126040812     3
 2015-01-26-0408-12M.COL___274                                                 6
 STAT SP IPHASW D HRMM SECON CODA AMPLIT PERI AZIMU VELO AIN AR TRES W  DIS CAZ7
 BAR2 EZ EP     D  412 25.27                             170   -0.0110 25.8 189 
 BAR2 EZ ES        412 40.38                             170   -0.6010 25.8 189 
 BAR2 EZ I         412 41.49        46.1 0.22            167           25.8 189 
 BRR  HZ EP     D  412 27.06                             154    0.4310 69.8 297 
 BRR  HE ES        412 44.27                             154    0.8910 69.8 297 
 BRR  HZ I         412 45.36        29.0 0.12            145           69.8 297 
 PAM  SZ EP     D  412 28.26                             152    0.6010 75.6  41 
 PAM  SN ES        412 45.44                             152    0.2210 75.6  41 
 PAM  SZ I         412 47.26        56.0 0.46            150           75.6  41 
 RUS  HZ EP        412 29.31                             144   -0.1410  103 176 
 RUS  HN ES        412 48.13                             144   -0.2810  103 176 
 RUS  HZ I         412 48.78        30.2 0.24            141            103 176 
 PTB  HZ EP   1    412 31.64                             133   -0.81 7  148 258 
 PTB  HN ES        412 53.19                             133   -0.55 9  148 258 
 PTB  HZ I         412 59.93        28.4 0.64            125            148 258 
 TAM  HZ IP     D  412 33.73                             131    0.52 9  156 106 
 TAM  HZ I         412 33.83        43.5 0.20            129            156 106 
 TAM  HN ES        412 55.50                             131    0.41 9  156 106 
 OCA  HZ EP   1    412 33.12                             131   -0.40 7  158 353 
 OCA  HN ES        412 55.25                             131   -0.40 9  158 353 
 OCA  HZ I         413  2.31        18.4 0.32            125            158 353 
 SPBC HZ EP   1    412 34.10                             130   -0.01 7  165 218 
 SPBC HN ES        412 55.82                             130   -0.88 9  165 218 
 SPBC HZ I         412 58.64        46.5 0.40            124            165 218 
 ZAR  HZ EP   1    412 37.68                             123   -0.05 6  203 292 
 ZAR  HN ES   1    413  2.86                             123   -0.27 6  203 292 
 ZAR  HZ I         413  8.47        20.0 0.42            117            203 292 
 NOR  HZ EP        412 41.38                             119    0.14 8  236 234 
 NOR  HZ ES        413  9.69                             119    0.31 8  236 234 
 NOR  HZ I         413 10.05        18.5 0.36            114            236 234 
 SML  HZ EP        412 41.73                             118   -0.01 8  241 335 
 SML  HN ES        413 10.24                             118   -0.03 8  241 335 
 SML  HZ I         413 14.71        33.4 0.10            113            241 335 
 CHI  HZ EP        412 43.41                             118    0.09 8  251 195 
 CHI  HN ES        413 12.89                             118   -0.20 8  251 195 
 CHI  HZ I         413 16.33        16.7 0.48            113            251 195 
 ROSC BZ EP   4    412 44.93                             117    1.23 0  255 211 
 ROSC BN ES        413 14.68                             117    0.91 8  255 211 
 ROSC BZ I         413 19.73        24.3 0.50            112            255 211 
 HEL  HZ EP   4    412 46.61                             115    1.01 0  272 255 
 HEL  HN ES   4    413 16.03                             115   -1.12 0  272 255 
 HEL  HZ I         413 23.24        13.6 0.26            110            272 255 
 URE  HZ EP   1    412 45.64                             114   -0.64 6  283 291 
 URE  HN ES   4    413 15.70                             114   -2.66 0  283 291 
 URE  HZ I         413 27.81        16.0 0.16            109            283 291 
 GUY2CHZ EP   4    412 50.86                             113    1.78 0  302 234 
 GUY2CHN ES   2    413 25.47                             113    2.13 4  302 234 
 PTGC HZ EP     C  412 48.57                             112   -0.89 7  311 159 
 PTGC HN ES   4    413 22.15                             112   -1.86 0  311 159 
 PTGC HZ I         413 26.72        15.7 0.30            109            311 159 
 CBOC HZ EP   4    412 53.78                             110    1.49 0  334 252 
 CBOC HZ I         413 45.98         3.5 0.72            106            334 252 
 SDV  BZ EP        412 54.57                             109   -0.60 6  359  51 
 SDV  BN ES   4    413 32.33                             109   -1.86 0  359  51 
 SDV  BZ I         413 35.46         5.5 0.40            106            359  51 
 ORTC HZ EP        412 59.88                             107    0.45 6  397 216 
 PAL  HZ EP        413  0.77                             106    0.20 6  407 239 
                                                                                
