 2017  326 0443  4.1 L   6.843 -73.358116.0  RSN  4 0.2 1.1LRSN                1
 GAP=198        0.52       5.7     8.4  5.8  0.3956E+02 -0.2271E+00  0.1971E+00E
 Epicentro: SAN VICENTE DE CHUCURI - SANTANDER                                 3
 ACTION:UPD 17-05-25 18:45 OP:jn   STATUS:               ID:20170326044304 L   I
 OLDACT:UP  17-05-02 14:07 OP:nlst STATUS:               ID:20170326044304 L   3
 OLDACT:UP  17-03-26 13:56 OP:cog  STATUS:               ID:20170326043744     3
 OLDACT:UP  17-03-26 13:56 OP:cog  STATUS:               ID:20170326043744     3
 OLDACT:REG 17-03-26 12:42 OP:cog  STATUS:               ID:20170326043744     3
 2017-03-26-0438-00M.COL___355                                                 6
 STAT SP IPHASW D HRMM SECON CODA AMPLIT PERI AZIMU VELO AIN AR TRES W  DIS CAZ7
 BAR2 EZ EP        443 20.37                             163   -0.1010 33.8 145 
 BAR2 EZ ES        443 33.00                             163   -0.2510 33.8 145 
 BAR2 EZ I         443 34.63         9.9 0.36            150           33.8 145 
 BRR  HZ EP        443 20.77                             155    0.0010 48.8 307 
 BRR  HN ES        443 33.94                             155    0.1610 48.8 307 
 RUS  HN ES        443 42.96                             134    0.2310  109 164 
 RUS  HZ I         443 51.17         0.9 0.40            126            109 164 
 PTB  HZ EP   4    443 25.72                             129   -0.94 0  126 255 
 PTB  HN ES   3    443 43.56                             129   -0.72 2  126 255 
 PTB  HZ I         443 47.49         2.6 0.42            122            126 255 
                                                                                
