 2012  726 0253 23.2 L   6.749 -73.244155.0  RSN  4 0.3 1.1LRSN                1
 GAP=222        0.67       8.2     7.5  9.6  0.3076E+02 -0.6491E+01  0.9397E+01E
 Epicentro: ZAPATOCA - SANTANDER                                               3
 ACTION:UPD 12-08-14 11:45 OP:ep   STATUS:               ID:20120726025322 L   I
 2012-07-26-0250-00M.COL___215                                                 6
 STAT SP IPHASW D HRMM SECON CODA AMPLIT PERI AZIMU VELO AIN AR TRES W  DIS CAZ7
 BRR  HZ EP   1    253 45.18                             156     0.1 7   65 307 
 BRR  HN ES   1    254  1.94                             156    -0.1 7   65 307 
 BRR  HZ I         254 11.33         4.3 0.18            156             65 307 
 RUS  HZ EP   1    253 47.91                             147     0.3 7   96 169 
 RUS  HN ES   2    254  6.45                             147    -0.2 5   96 169 
 RUS  HZ I         254  7.36         1.1 0.54            159             96 169 
 PTB  HZ EP   1    253 49.38                             137    -0.6 7  136 260 
 PTB  HN ES   1    254 10.93                             137     0.1 7  136 260 
 PTB  HZ I         254 14.63         1.5 0.19            144            136 260 
 ZAR  HN ES   2    254 21.08                             126     0.4 4  196 295 
