 2011  526 0559 47.1 L   6.766 -73.105152.2  RSN  9 0.2 2.2LRSN                1
 GAP=161        0.57       3.0     4.8  3.9 -0.6526E+01  0.1647E+01 -0.5059E-01E
 Epicentro: LOS SANTOS - SANTANDER                                             3
 ACTION:DUP 11-06-29 08:56 OP:tino STATUS:               ID:20110526055948dL   I
 2011-05-26-0555-41S.COL___115                                                 6
 STAT SP IPHASW D HRMM SECON CODA AMPLIT PERI AZIMU VELO SNR AR TRES W  DIS CAZ7
 BAR2 SZ EP   1    6 0  7.49                             172     0.0 7   21 204 
 BAR2 SZ ES   1    6 0 23.17                             172    -0.2 7   21 204 
 BAR2 SZ I         6 0 24.28        84.0 0.23                            21 204 
 BTL  SZ IP        6 0  7.83                             170     0.310   25 313 
 BTL  SZ ES   1    6 0 23.26                             170    -0.2 7   25 313 
 GIR2 SZ EP   1    6 0  7.63                             166    -0.1 7   36 344 
 GIR2 SZ ES   1    6 0 23.82                             166     0.1 7   36 344 
 BRR  HZ IP     C  6 0  9.40                             152     0.110   77 299 
 BRR  HZ I         6 0  9.66       108.0 0.14                            77 299 
 BRR  HN ES   1    6 0 26.95                             152     0.4 7   77 299 
 RUS  HZ EP   1    6 0 11.34                             146     0.1 7   97 179 
 RUS  HZ I         6 0 12.59        12.0 0.18                            97 179 
 RUS  HN ES   1    6 0 30.02                             146     0.0 7   97 179 
 BRI  SZ EP   1    6 0 11.98                             142     0.2 7  110  18 
 BRI  SZ ES   1    6 0 30.78                             142    -0.2 7  110  18 
 BRI  SZ I         6 0 35.55        21.7 0.33                           110  18 
 GRA  SZ EP   1    6 0 13.23                             138     0.1 7  128  15 
 GRA  SZ ES   1    6 0 33.43                             138     0.0 7  128  15 
 GRA  SZ I         6 0 34.59        18.4 0.29                           128  15 
 OCA  SZ EP   1    6 0 15.71                             130    -0.6 7  165 352 
 NOR  SZ EP   1    6 0 23.33                             120    -0.1 6  236 236 
 NOR  SN ES   1    6 0 51.34                             120    -0.3 6  236 236 
 NOR  SZ I         6 0 57.61         2.1 0.15                           236 236 
                                                                                
