 2014  226 0049 54.8 L   6.829 -73.122142.9  RSN 11 0.5 1.7LRSN                1
 GAP=138        1.06       3.9     4.8  7.3 -0.4075E+01  0.8581E+01  0.3315E+01E
 Epicentro: LOS SANTOS - SANTANDER                                             3
 ACTION:UPD 14-03-10 08:13 OP:ep   STATUS:               ID:20140226004955 L   I
 OLDACT:UP  14-02-27 00:53 OP:CF   STATUS:               ID:20140226004955 L   3
 OLDACT:REG 14-02-26 07:58 OP:fm   STATUS:               ID:20140226004943     3
 2014-02-26-0049-43M.COL___242                                                 6
 STAT SP IPHASW D HRMM SECON CODA AMPLIT PERI AZIMU VELO AIN AR TRES W  DIS CAZ7
 BAR2 SZ EP   1    050 13.87                             169   -0.25 7 27.0 194 
 BAR2 SZ ES   1    050 28.98                             169   -0.24 7 27.0 194 
 BAR2 SZ I         050 31.57        13.7 0.38            166           27.0 194 
 BRR  HZ EP   1    050 15.77                             152    0.13 7 72.0 295 
 BRR  HN ES   1    050 32.49                             152    0.56 7 72.0 295 
 BRR  HZ I         050 33.21        12.9 0.10            152           72.0 295 
 PAM  SZ EP        050 16.91                             152    0.4910 73.3  40 
 PAM  SN ES        050 33.59                             152    0.2710 73.3  40 
 PAM  SZ I         050 35.44         5.9 0.16            156           73.3  40 
 RUS  HZ EP        050 18.08                             143   -0.3710  104 178 
 RUS  HN ES   1    050 36.89                             143   -0.04 7  104 178 
 RUS  HZ I         050 38.91         3.7 0.22            142            104 178 
 PTB  HZ EP   1    050 20.78                             131   -1.00 7  151 258 
 PTB  HN ES   1    050 42.02                             131   -0.84 7  151 258 
 PTB  HZ I         050 44.10         9.2 0.12            131            151 258 
 SPBC HN ES        050 46.19                             128    0.40 9  167 219 
 SPBC HZ I         050 52.13         7.6 0.28            128            167 219 
 ZAR  HZ EP   4    050 26.56                             122   -0.58 0  205 291 
 ZAR  HN ES   1    050 52.71                             122    0.31 6  205 291 
 ZAR  HZ I         050 58.38         6.7 0.30            123            205 291 
 NOR  HZ EP   4    050 29.62                             118   -1.13 0  239 234 
 NOR  HN ES        050 58.57                             118   -0.25 8  239 234 
 NOR  HZ I         051  4.07         3.3 0.18            118            239 234 
 SML  HZ EP   1    050 31.16                             117    0.14 6  242 334 
 SML  HN ES   1    050 58.42                             117   -0.89 6  242 334 
 CHI  HZ EP        050 32.50                             116   -0.21 8  252 196 
 CHI  HN ES   1    051  1.91                             116   -0.40 6  252 196 
 CHI  HZ I         051  9.67         1.8 0.34            117            252 196 
 GUY2CHZ EP   1    050 39.73                             112    1.05 5  305 235 
 GUY2CHN ES   1    051 14.17                             112    1.23 5  305 235 
                                                                                
