 2014 1226 0416 17.6 L   6.815 -73.168143.7  RSN 14 0.5 2.1LRSN                1
 GAP= 69        1.12       3.0     3.7  5.7 -0.1690E+01  0.3788E+01  0.7067E-01E
 Epicentro: LOS SANTOS - SANTANDER                                             3
 ACTION:UPD 15-02-10 17:07 OP:nd   STATUS:               ID:20141226041617 L   I
 OLDACT:UP  14-12-26 16:15 OP:mh   STATUS:               ID:20141226040735     3
 OLDACT:REG 14-12-26 12:27 OP:mh   STATUS:               ID:20141226040735     3
 2014-12-26-0407-35M.COL___283                                                 6
 STAT SP IPHASW D HRMM SECON CODA AMPLIT PERI AZIMU VELO AIN AR TRES W  DIS CAZ7
 BAR2 EZ EP        416 37.25                             170    0.1910 24.7 184 
 BAR2 EZ ES        416 51.87                             170   -0.3310 24.7 184 
 BAR2 EZ I         416 54.20        21.4 0.30            169           24.7 184 
 BRR  HZ EP        416 39.06                             153    0.6510 68.3 298 
 BRR  HN ES        416 55.41                             153    0.8010 68.3 298 
 BRR  HZ I         417  0.05        15.0 0.14            151           68.3 298 
 PAM  SZ EP        416 40.23                             150    0.5710 77.7  42 
 PAM  SN ES        416 56.79                             150   -0.0410 77.7  42 
 PAM  SZ I         416 59.45        33.3 0.38            155           77.7  42 
 RUS  HZ EP   1    416 41.46                             143    0.13 7  102 175 
 RUS  HN ES        416 59.64                             143   -0.1710  102 175 
 RUS  HZ I         417  0.90        16.7 0.34            145            102 175 
 PTB  HZ EP        416 43.85                             132   -0.41 9  146 258 
 PTB  HN ES        417  4.47                             132   -0.55 9  146 258 
 PTB  HZ I         417 10.13        11.7 0.50            132            146 258 
 OCA  HZ EP        416 44.88                             130   -0.73 9  158 354 
 OCA  HN ES        417  7.31                             130   -0.12 9  158 354 
 OCA  HZ I         417 11.63        14.1 0.38            132            158 354 
 TAM  HZ EP        416 45.69                             130    0.27 9  158 105 
 SPBC HZ EP        416 45.83                             129   -0.14 9  163 218 
 SPBC HN ES        417  7.97                             129   -0.09 9  163 218 
 SPBC HZ I         417 14.90        23.1 0.20            130            163 218 
 ZAR  HZ EP   1    416 49.76                             122    0.10 6  201 292 
 ZAR  HN ES        417 14.51                             122   -0.12 9  201 292 
 ZAR  HZ I         417 23.63        10.2 0.50            123            201 292 
 NOR  HZ EP   1    416 53.82                             118    0.67 6  234 234 
 NOR  HN ES        417 20.57                             118   -0.28 8  234 234 
 NOR  HZ I         417 29.11        11.9 0.16            119            234 234 
 SML  HZ EP        416 52.92                             117   -0.96 8  241 336 
 SML  HN ES   1    417 21.85                             117   -0.29 6  241 336 
 SML  HZ I         417 25.31        19.8 0.10            119            241 336 
 CHI  HZ EP   1    416 55.35                             117    0.01 6  250 195 
 CHI  HN ES        417 24.24                             117   -0.50 8  250 195 
 CHI  HZ I         417 28.23         7.6 0.44            118            250 195 
 HEL  HZ EP        416 58.34                             115    0.80 8  270 255 
 HEL  HN ES        417 29.25                             115    0.59 8  270 255 
 HEL  HZ I         417 34.97         5.4 0.26            115            270 255 
 PTGC HZ EP   4    417  0.47                             111   -1.22 0  311 158 
 PTGC HN ES   4    417 32.97                             111   -3.08 0  311 158 
 PTGC HZ I         417 38.26        10.9 0.28            113            311 158 
                                                                                
