 2017  726 0359 20.8 L   6.808 -73.109141.0  RSN  9 0.4 1.6LRSN                1
 GAP=216        0.86       4.1     4.0  5.5  0.2772E+01  0.1970E+01  0.3056E+01E
 Epicentro: LOS SANTOS - SANTANDER                                             3
 ACTION:UPD 17-08-30 15:36 OP:rebc STATUS:               ID:20170726035920 L   I
 OLDACT:UP  17-07-26 15:18 OP:and  STATUS:               ID:20170726035736     3
 OLDACT:UP  17-07-26 15:18 OP:and  STATUS:               ID:20170726035736     3
 OLDACT:UP  17-07-26 15:17 OP:and  STATUS:               ID:20170726035736     3
 OLDACT:UP  17-07-26 15:10 OP:and  STATUS:               ID:20170726035736     3
 OLDACT:REG 17-07-26 12:49 OP:and  STATUS:               ID:20170726035736     3
 2017-07-26-0358-00M.COL___386                                                 6
 STAT SP IPHASW D HRMM SECON CODA AMPLIT PERI AZIMU VELO AIN AR TRES W  DIS CAZ7
 BAR2 EZ EP        359 39.67                             169   -0.2410 25.2 199 
 BAR2 EZ ES        359 54.68                             169   -0.1210 25.2 199 
 BAR2 EZ I         359 55.57        12.9 0.38            169           25.2 199 
 BRR  HZ IP     C  359 41.56                             151   -0.0710 74.3 296 
 BRR  HN ES        359 58.52                             151    0.6510 74.3 296 
 BRR  HZ I         4 0  8.52         7.6 0.28            149           74.3 296 
 RUS  HZ EP   2    359 44.23                             143    0.08 5  101 178 
 RUS  HN ES        4 0  2.54                             143    0.1910  101 178 
 RUS  HZ I         4 0  3.33         7.0 0.40            146            101 178 
 PTB  HZ EP   9    359 46.68                             130   -1.09 0  152 259 
 PTB  HN ES        4 0  7.52                             132   -0.19 9  152 259 
 PTB  HZ I         4 0 10.30         2.8 0.15            131            152 259 
 SPBC HN ES        4 0 10.83                             127   -0.62 9  166 220 
 SPBC HZ I         4 0 18.14         5.9 0.18            129            166 220 
 YPLC HZ EP        359 50.16                             126    0.00 9  176 153 
 ZAR  HZ EP   3    359 53.89                             121    0.59 2  207 291 
 ZAR  HE ES        4 0 18.01                             121   -0.64 8  207 291 
 ZAR  HZ I         4 0 22.83         3.8 0.09            122            207 291 
 NOR  HN ES        4 0 24.80                             117    0.15 8  238 235 
 NOR  HZ I         4 0 28.94         3.1 0.36            119            238 235 
 GUY2CHZ EP        4 0  4.97                             111    0.33 7  305 235 
 GUY2CHN ES        4 0 39.29                             111    0.47 7  305 235 
 GUY2CHZ I         4 0 48.60         1.6 0.38                           305 235 
                                                                                
