 2011  226 0302 52.7 L   6.853 -73.335131.4  RSN  4 0.1 1.2LRSN                1
 GAP=195        0.40       2.3    12.1  8.0 -0.1144E+02  0.4427E+02 -0.6897E+01E
 Epicentro: ZAPATOCA - SANTANDER                                               3
 ACTION:UP  11-03-28 15:11 OP:jfem STATUS:               ID:20110226030252 L   I
 2011-02-26-0300-14S.COL___136                                                 6
 STAT SP IPHASW D HRMM SECON CODA AMPLIT PERI AZIMU VELO SNR AR TRES W  DIS CAZ7
 BAR2 SZ EP   1    3 3 11.14                             165     0.2 8   33 150 
 BAR2 SZ I         3 3 28.79         5.0 0.28                            33 150 
 RUS  HZ EP   1    3 3 15.66                             138    -0.2 8  110 165 
 RUS  HN ES   1    3 3 33.82                             138     0.0 8  110 165 
 RUS  HZ I         3 3 35.12         1.8 0.43                           110 165 
 GRA  SZ EP        3 3 16.95                             133     0.010  128  27 
 GRA  SZ ES   1    3 3 35.85                             133     0.0 7  128  27 
 GRA  SZ I         3 3 39.47         2.8 0.44                           128  27 
 OCA  SZ EP   2    3 3 19.41                             128     0.1 5  153   1 
 OCA  SZ ES   2    3 3 39.77                             128    -0.2 5  153   1 
 OCA  SZ I         3 3 45.56         3.5 0.24                           153   1 
                                                                                
