 2012 1126 0721  4.1 L   6.033 -73.762107.7  RSN  5 0.3 1.3LRSN                1
 GAP=127        0.75       3.0     3.7  7.6  0.4898E+01  0.1293E+02  0.7094E+01E
 Epicentro: BOLIVAR - SANTANDER                                                3
 ACTION:UPD 12-12-05 15:36 OP:}ep  STATUS:               ID:20121126072104 L   I
 2012-11-26-0720-00M.COL___233                                                 6
 STAT SP IPHASW D HRMM SECON CODA AMPLIT PERI AZIMU VELO AIN AR TRES W  DIS CAZ7
 RUS  HZ EP        721 22.41                             142    0.0610 76.7 102 
 RUS  HN ES   1    721 36.03                             142   -0.59 7 76.7 102 
 RUS  HN I         721 39.26         2.9 0.34                          76.7 102 
 BAR2 SZ ES        721 38.00                             137    0.2810 89.1  46 
 PTB  HZ EP        721 23.20                             135    0.0410 95.1 306 
 PTB  HN ES        721 38.21                             135    0.1410 95.1 306 
 CHI  HZ EP        721 29.32                             120   -0.20 9  155 179 
 CHI  HN ES        721 49.54                             120    0.15 9  155 179 
 CHI  HN I         721 49.99         2.1 0.30                           155 179 
 ZAR  HZ EP        721 34.46                             113    0.37 9  202 323 
 ZAR  HN ES        721 56.96                             113   -0.56 9  202 323 
 ZAR  HN I         722  0.39         6.9 0.26                           202 323 
                                                                                
