 2011 1026 0303 18.7 L   6.757 -73.099144.1  RSN  9 0.3 2.2LRSN                1
 GAP=145        0.41       2.9     3.1  4.8 -0.1235E+01  0.5129E+01  0.1612E+01E
 Epicentro: LOS SANTOS - SANTANDER                                             3
 ACTION:UPD 12-07-13 16:06 OP:ep   STATUS:               ID:20111026030318 L   I
 2011-10-26-0258-19S.COL___169                                                 6
 STAT SP IPHASW D HRMM SECON CODA AMPLIT PERI AZIMU VELO AIN AR TRES W  DIS CAZ7
 BAR2 SZ IP        3 3 38.10                             172   -0.0210 20.4 207 
 BAR2 SZ I         3 3 38.70        27.5 0.37                          20.4 207 
 BAR2 SZ ES   2    3 3 52.75                             172   -0.48 5 20.4 207 
 BRR  HZ IP     C  3 3 40.03                             150   -0.0910 78.0 300 
 BRR  HE ES   2    3 3 57.41                             150    0.62 5 78.0 300 
 BRR  HZ I         3 4  0.37        47.5 0.25                          78.0 300 
 PAM  SZ EP   1    3 3 40.94                             150    0.11 7 78.1  34 
 PAM  SN ES   2    3 3 58.12                             150    0.07 5 78.1  34 
 RUS  HZ EP   1    3 3 41.95                             145   -0.03 7 95.6 179 
 RUS  HN ES   2    3 4  0.31                             145    0.22 5 95.6 179 
 RUS  HZ I         3 4  2.06        13.6 0.52                          95.6 179 
 ZAR  HZ EP   2    3 3 51.32                             121   -0.45 4  211 293 
 ZAR  HE ES   2    3 4 17.36                             121   -0.17 4  211 293 
 ZAR  HZ I         3 4 23.23        22.1 0.27                           211 293 
 NOR  SN ES   2    3 4 21.99                             118   -0.47 4  236 236 
 HEL  HZ EP   2    3 3 59.55                             114    0.24 4  276 257 
 HEL  HN ES   2    3 4 31.12                             114    0.18 4  276 257 
 HEL  HZ I         3 4 35.52         8.7 0.31                           276 257 
 RREF HZ EP   2    3 4  5.19                             110    0.27 3  323 231 
 RREF HN ES   2    3 4 41.23                             110    0.30 3  323 231 
 RREF HZ I         3 4 50.50        11.5 0.30                           323 231 
 PRA  HN ES   2    3 4 53.76                             106    0.17 3  390 211 
                                                                                
