 2011  526 0728 59.1 L   6.776 -73.087147.6  RSN 15 0.4 2.8LRSN                1
 GAP=145        0.78       3.3     4.9  4.6 -0.7573E+01  0.5559E+01  0.4962E+00E
 Epicentro: LOS SANTOS - SANTANDER                                             3
 ACTION:UP  11-06-29 08:56 OP:tino STATUS:               ID:20110526072859 L   I
 2011-05-26-0726-56S.COL___115                                                 6
 STAT SP IPHASW D HRMM SECON CODA AMPLIT PERI AZIMU VELO SNR AR TRES W  DIS CAZ7
 BAR2 SZ IP        729 18.93                             171     0.010   23 207 
 BAR2 SZ I         729 19.12       137.7 0.19                            23 207 
 BAR2 SZ ES   1    729 34.68                             171     0.3 7   23 207 
 BTL  SZ IP        729 19.10                             170     0.110   25 308 
 BTL  SZ ES   2    729 35.15                             170     0.6 5   25 308 
 GIR2 SZ EP        729 19.02                             166    -0.110   35 341 
 GIR2 SZ ES   1    729 34.33                             166    -0.4 7   35 341 
 PAM  SZ EP   1    729 21.72                             152     0.3 7   76  34 
 PAM  SN ES   1    729 39.00                             152     0.2 7   76  34 
 PAM  SZ I         729 41.28        50.8 0.24                            76  34 
 BRR  HZ IP     C  729 20.84                             151     0.010   78 298 
 BRR  HN ES   1    729 38.37                             151     0.6 7   78 298 
 BRR  HZ I         729 40.50       184.6 0.15                            78 298 
 RUS  HZ EP   1    729 22.75                             145    -0.1 7   98 180 
 RUS  HN ES   1    729 41.02                             145    -0.3 7   98 180 
 RUS  HZ I         729 42.54        50.8 0.23                            98 180 
 BRI  SZ EP   1    729 23.48                             142     0.3 7  109  17 
 BRI  SZ ES   1    729 41.49                             142    -0.5 7  109  17 
 BRI  SZ I         729 45.30        92.7 0.25                           109  17 
 GUE  SZ EP   1    729 24.37                             139     0.3 7  118   9 
 GRA  SZ EP        729 24.74                             137     0.210  127  14 
 GRA  SZ ES   1    729 44.26                             137    -0.2 7  127  14 
 GRA  SZ I         729 45.46       134.3 0.33                           127  14 
 OCA  SZ EP   1    729 27.34                             129    -0.6 7  164 351 
 OCA  SZ ES   1    729 50.00                             129    -0.3 7  164 351 
 OCA  SZ I         729 54.19       102.5 0.15                           164 351 
 NOR  SZ EP   1    729 34.71                             118    -0.6 6  239 236 
 NOR  SN ES   1    730  2.93                             118    -0.7 6  239 236 
 HEL  HZ EP   1    729 40.69                             115     0.6 6  278 257 
 HEL  HN ES   2    730 12.34                             115     0.4 4  278 257 
 HEL  HZ I         730 19.33        26.9 0.23                           278 257 
 TOL  SZ EP   1    729 48.24                             109     0.5 5  346 226 
 DBB  SZ EP   1    729 47.29                             109    -0.1 5  346 275 
 PRA  HZ EP   1    729 53.09                             107     0.3 4  393 211 
                                                                                
