 2014  226 0851 51.0 L   6.769 -73.174138.3  RSN  4 0.3 1.3LRSN                1
 GAP=140        0.74       4.4     4.3  6.3 -0.5804E+01  0.7520E+01 -0.2835E+01E
 Epicentro: LOS SANTOS - SANTANDER                                             3
 ACTION:UPD 14-03-10 08:13 OP:ep   STATUS:               ID:20140226085151 L   I
 OLDACT:REG 14-02-26 08:33 OP:fm   STATUS:               ID:20140226084938     3
 2014-02-26-0849-38M.COL___220                                                 6
 STAT SP IPHASW D HRMM SECON CODA AMPLIT PERI AZIMU VELO AIN AR TRES W  DIS CAZ7
 BAR2 SZ EP        852 10.08                             172    0.4210 19.6 183 
 BAR2 SZ ES        852 24.35                             172    0.1310 19.6 183 
 BAR2 SZ I         852 26.36         8.0 0.24            171           19.6 183 
 PAM  SZ EP        852 12.99                             148    0.2710 82.0  40 
 PAM  SZ I         852 13.20         2.7 0.24            151           82.0  40 
 PAM  SN ES        852 29.34                             148   -0.3210 82.0  40 
 RUS  HZ EP        852 13.74                             143   -0.0610 97.5 174 
 RUS  HN ES        852 31.41                             143   -0.1610 97.5 174 
 RUS  HZ I         852 33.66         2.0 0.28            145           97.5 174 
 PTB  HZ EP        852 16.58                             131   -0.45 9  144 260 
 PTB  HN ES        852 37.46                             131    0.14 9  144 260 
 PTB  HZ I         852 41.36         2.7 0.30            131            144 260 
                                                                                
