 2016  626 0612 51.5 L   6.821 -73.123151.5  RSN 13 0.6 2.0LRSN                1
 GAP=180        1.33       4.4     6.0  8.3 -0.3507E+01  0.3077E+01 -0.5499E+01E
 Epicentro: LOS SANTOS - SANTANDER                                             3
 ACTION:UPD 16-07-21 22:23 OP:rebc STATUS:               ID:20160626061251 L   I
 OLDACT:REG 16-06-26 13:38 OP:ak   STATUS:               ID:20160626060744     3
 2016-06-26-0607-44M.COL___318                                                 6
 STAT SP IPHASW D HRMM SECON CODA AMPLIT PERI AZIMU VELO AIN AR TRES W  DIS CAZ7
 BRR  HZ IP     C  613 13.85                             153    0.5510 72.3 296 
 BRR  HN ES        613 31.25                             153    0.9210 72.3 296 
 BRR  HZ I         613 33.78         8.9 0.08                          72.3 296 
 RUS  HZ EP        613 15.91                             145   -0.0310  103 178 
 RUS  HN ES        613 34.69                             145   -0.3410  103 178 
 RUS  HZ I         613 35.52         8.6 0.30                           103 178 
 PTB  HZ EP        613 18.39                             133   -0.77 9  151 258 
 PTB  HN ES        613 39.93                             133   -0.84 9  151 258 
 PTB  HZ I         613 44.55        13.0 0.32                           151 258 
 SPBC HZ EP        613 20.83                             130    0.11 9  167 219 
 SPBC HE ES        613 43.30                             130   -0.25 9  167 219 
 SPBC HZ I         613 46.23        14.2 0.24                           167 219 
 ZAR  HZ EP        613 25.37                             123    0.94 8  206 291 
 ZAR  HN ES        613 49.77                             123   -0.38 8  206 291 
 ZAR  HZ I         613 55.73        17.0 0.60                           206 291 
 NOR  HZ EP        613 28.22                             119    0.33 8  238 234 
 NOR  HN ES        613 55.67                             119   -0.64 8  238 234 
 NOR  HZ I         614  3.28         8.5 0.16                           238 234 
 HEL  HZ EP   2    613 31.51                             116   -0.79 4  275 255 
 HEL  HE ES        614  5.20                             116    1.04 8  275 255 
 HEL  HZ I         614 12.08         4.4 0.32                           275 255 
 URE  HN ES   4    614  3.28                             115   -2.08 0  285 291 
 URE  HZ I         614 17.05         9.0 0.16                           285 291 
 GUY2CHZ EP   2    613 35.89                             113    0.17 4  305 235 
 GUY2CHE ES        614 10.04                             113   -0.21 7  305 235 
 GUY2CHZ I         614 20.70         3.7 0.32                           305 235 
 LL6C HZ EP        613 36.43                             112   -0.72 7  323 357 
 LL6C HE ES        614 12.68                             112   -0.11 7  323 357 
 CBOC HZ EP        613 39.86                             111    0.89 7  337 252 
 CBOC HN ES        614 15.69                             111   -0.34 7  337 252 
 CBOC HZ I         614 28.49         1.5 0.42                           337 252 
 PRA  HZ EP   2    613 45.76                             107    0.19 3  395 210 
 PRA  HE ES        614 28.55                             107    0.78 6  395 210 
 PRA  HZ I         614 31.29         4.5 0.60                           395 210 
 SJC  HZ EP        613 46.14                             107   -1.00 6  409 326 
 SJC  HN ES   4    614 26.83                             107   -3.75 0  409 326 
 SJC  HZ I         614 32.33         1.1 0.37                           409 326 
                                                                                
