 2017 1126 0633 45.2 L   6.842 -73.136142.8  RSN  4 0.2 1.4LRSN                1
 GAP=280        0.57       5.1     3.8  5.5  0.1988E+01  0.4231E+01 -0.5476E+01E
 Epicentro: LOS SANTOS - SANTANDER                                             3
 ACTION:UPD 17-12-12 20:00 OP:rebc STATUS:               ID:20171126063345 L   I
 OLDACT:REG 17-11-26 15:00 OP:dani STATUS:               ID:20171126062741     3
 2017-11-26-0628-00M.COL___476                                                 6
 STAT SP IPHASW D HRMM SECON CODA AMPLIT PERI AZIMU VELO AIN AR TRES W  DIS CAZ7
 BAR2 EZ EP        634  4.88                             168    0.2810 28.1 191 
 BAR2 EZ ES        634 19.62                             168   -0.1010 28.1 191 
 BAR2 EZ I         634 20.76        13.0 0.24            169           28.1 191 
 RUS  HZ EP        634  9.11                             142    0.0910  105 177 
 RUS  HN ES        634 27.44                             142   -0.1410  105 177 
 RUS  HZ I         634 28.19         2.3 0.34            143            105 177 
 PTB  HZ EP        634 11.74                             131   -0.39 9  150 257 
 PTB  HZ ES        634 33.27                             131    0.14 9  150 257 
 PTB  HZ I         634 34.12         1.9 0.36            132            150 257 
 SPBC HN ES        634 36.38                             128    0.10 9  167 218 
                                                                                
