 2010  726 0345 59.3 L   6.821 -73.097142.0  RSN  5 0.3 1.4LRSN                1
 GAP=164        0.77       5.7    11.1 11.6  0.2085E+02 -0.7565E+02 -0.3554E+02E
 Epicentro: LOS SANTOS - SANTANDER                                             3
 ACTION:UPD 10-12-01 15:20 OP:pat  STATUS:               ID:20100726034559 L   I
 2010-07-26-0342-49S.COL___123                                                 6
 STAT SP IPHASW D HRMM SECON CODA AMPLIT PERI AZIMU VELO AIN AR TRES W  DIS CAZ7
 BAR2 SZ EP        346 18.34                             169    -0.210   27 201 
 BAR2 SZ ES   2    346 32.97                             169    -0.6 5   27 201 
 BAR2 SZ I         346 34.51         9.4 0.32                            27 201 
 BRR  HZ IP     C  346 20.22                             151    -0.110   75 295 
 BRR  HE ES   1    346 36.85                             151     0.2 7   75 295 
 BRR  HZ I         346 37.83        10.5 0.28                            75 295 
 RUS  HZ EP   1    346 22.66                             143    -0.2 7  103 179 
 RUS  HE ES   1    346 41.70                             143     0.5 7  103 179 
 RUS  HZ I         346 42.83         1.8 0.22                           103 179 
 GUE  SZ EP        346 23.35                             140    -0.110  113  10 
 GUE  SZ I         346 50.07         1.6 0.09                           113  10 
 GRA  SZ EP        346 24.15                             137     0.210  122  15 
 GRA  SZ I         346 44.92         4.4 0.33                           122  15 
                                                                                
