 2010  326 0838 12.2 L   6.915 -73.218123.1  RSN  4 0.3 1.7LRSN                1
 GAP=243        0.56      11.8     9.1  6.2  0.7409E+02  0.2275E+02  0.1675E+02E
 Epicentro: BETULIA - SANTANDER                                                3
 ACTION:UP  10-08-24 09:56 OP:vdl  STATUS:               ID:20100326083812 L   I
 2010-03-26-0836-18S.COL___098                                                 6
 STAT SP IPHASW D HRMM SECON CODA AMPLIT PERI AZIMU VELO SNR AR TRES W  DIS CAZ7
 BAR2 SZ EP        838 29.70                             163     0.210   36 174 
 BAR2 SZ ES   1    838 42.73                             163    -0.2 7   36 174 
 BRR  HZ EP   1    838 30.18                             153     0.0 7   59 291 
 BRR  HE ES   1    838 44.22                             153     0.0 7   59 291 
 BRR  HZ I         838 45.60        22.9 0.12                            59 291 
 HEL  HZ EP   2    838 50.91                             110     0.1 4  268 253 
 HEL  HN ES   3    839 21.70                             110     0.7 2  268 253 
 HEL  HZ I         839 23.81         1.6 0.57                           268 253 
 DBB  SZ EP   1    838 57.18                             106    -0.6 5  331 272 
                                                                                
