 2011  826 0651 51.3 L   6.761 -73.134147.6  RSN 14 0.3 2.9LRSN                1
 GAP=140        0.64       2.4     3.6  3.9 -0.2681E+01  0.3950E+01  0.2201E+01E
 Epicentro: LOS SANTOS - SANTANDER                                             3
 ACTION:UPD 12-07-13 15:53 OP:ep   STATUS:               ID:20110826065151 L   I
 2011-08-26-0640-00M.COL___168                                                 6
 STAT SP IPHASW D HRMM SECON CODA AMPLIT PERI AZIMU VELO AIN AR TRES W  DIS CAZ7
 BAR2 SZ IP        652 11.08                             172    0.0110 19.4 196 
 BAR2 SZ ES   1    652 26.15                             172   -0.34 7 19.4 196 
 BAR2 SZ I         652 28.00       192.4 0.18                          19.4 196 
 GIR2 SZ IP        652 11.31                             166    0.0010 35.8 349 
 GIR2 SZ ES   1    652 26.69                             166   -0.23 7 35.8 349 
 BRR  HZ IP     C  652 13.07                             152    0.2510 74.5 301 
 BRR  HZ I         652 13.59       291.4 0.12                          74.5 301 
 BRR  HE ES   1    652 30.42                             152    0.81 7 74.5 301 
 PAM  SZ EP   1    652 14.14                             150    0.28 7 80.0  37 
 PAM  SE ES   1    652 31.43                             150   -0.03 7 80.0  37 
 RUS  HZ IP     C  652 14.85                             145   -0.0610 96.2 177 
 RUS  HE ES   1    652 33.44                             145    0.11 7 96.2 177 
 RUS  HZ I         652 34.29        88.7 0.31                          96.2 177 
 BRI  SZ EP        652 15.82                             141    0.1910  112  19 
 BRI  SZ ES   1    652 34.46                             141   -0.16 7  112  19 
 OCA  SZ EP   1    652 19.95                             129   -0.22 7  165 353 
 OCA  SZ ES   1    652 42.12                             129   -0.56 7  165 353 
 OCA  SZ I         652 47.41        76.2 0.21                           165 353 
 NOR  SZ EP        652 26.96                             119   -0.01 8  233 236 
 NOR  SN ES   1    652 54.89                             119    0.09 6  233 236 
 CHI  HZ EP   1    652 28.93                             118    0.25 6  245 196 
 CHI  HZ I         653  5.03        35.3 0.25                           245 196 
 HEL  HZ EP   1    652 31.09                             115   -0.53 6  272 257 
 HEL  HN ES   1    653  2.40                             115   -0.68 6  272 257 
 HEL  HZ I         653 10.06        66.9 0.28                           272 257 
 VIL  SZ EP   1    652 34.14                             113   -0.21 5  299 192 
 VIL  SN ES   1    653  7.42                             113   -0.50 5  299 192 
 VIL  SZ I         653 14.12        22.3 0.44                           299 192 
 RREF HZ EP   1    652 37.78                             111    0.47 5  320 230 
 RREF HZ I         653 20.56        68.2 0.22                           320 230 
 DBB  SZ EP   1    652 39.27                             110    0.24 5  341 275 
 PRA  HZ EP   1    652 44.15                             107   -0.36 4  389 210 
 PRA  HN ES   1    653 26.54                             107    0.52 4  389 210 
                                                                                
