 2013 1126 0600 59.5 L   6.793 -73.106141.4  RSN  7 0.4 1.5LRSN                1
 GAP=160        1.11       4.5     7.5  7.8 -0.1316E+02  0.3538E+01  0.1112E+02E
 Epicentro: LOS SANTOS - SANTANDER                                             3
 ACTION:UPD 14-01-09 16:31 OP:ep   STATUS:               ID:20131126060059 L   I
 OLDACT:REG 13-11-26 08:15 OP:mh   STATUS:               ID:20131126060000     3
 2013-11-26-0600-00M.COL___282                                                 6
 STAT SP IPHASW D HRMM SECON CODA AMPLIT PERI AZIMU VELO AIN AR TRES W  DIS CAZ7
 BAR2 SZ EP        6 1 19.00                             170    0.4210 23.7 201 
 BAR2 SZ ES        6 1 33.36                             170   -0.1310 23.7 201 
 BAR2 SZ I         6 1 34.80        16.9 0.14            164           23.7 201 
 PAM  SZ EP        6 1 21.72                             151    0.6210 75.3  37 
 PAM  SN ES        6 1 37.58                             151   -0.3910 75.3  37 
 PAM  SZ I         6 1 40.64         6.3 0.61            148           75.3  37 
 BRR  HZ EP        6 1 20.70                             150    0.3110 75.4 297 
 BRR  HN ES        6 1 37.27                             150    0.5510 75.4 297 
 BRR  HZ I         6 1 38.64         4.2 0.06            139           75.4 297 
 PTB  HZ EP   1    6 1 25.95                             130   -0.51 7  152 259 
 PTB  HZ I         6 1 49.07         4.5 0.10            122            152 259 
 OCA  HN ES        6 1 48.71                             128   -0.78 9  162 352 
 OCA  HZ I         6 1 50.39         2.9 0.17            122            162 352 
 SPBC HZ EP        6 1 27.57                             128   -0.27 9  165 220 
 SPBC HN ES        6 1 49.93                             128   -0.04 9  165 220 
 SPBC HZ I         6 1 53.64         4.1 0.16            121            165 220 
 CHI  HZ EP        6 1 37.13                             116    0.16 8  249 196 
 CHI  HN ES        6 2  5.68                             116   -0.54 8  249 196 
                                                                                
