 2012 1126 0822 41.7 L   6.821 -73.184141.2  RSN  9 0.3 2.1LRSN                1
 GAP=131        0.84       2.3     4.4  4.8 -0.1420E+01  0.7080E+01 -0.2542E-01E
 Epicentro: ZAPATOCA - SANTANDER                                               3
 ACTION:UPD 12-12-05 15:36 OP:}ep  STATUS:               ID:20121126082241 L   I
 2012-11-26-0820-00M.COL___233                                                 6
 STAT SP IPHASW D HRMM SECON CODA AMPLIT PERI AZIMU VELO AIN AR TRES W  DIS CAZ7
 BAR2 SZ IP        823  0.91                             169    0.0510 25.3 179 
 BAR2 SZ I         823  1.02        22.0 0.34                          25.3 179 
 BAR2 SZ ES        823 15.27                             169   -0.5110 25.3 179 
 GIR2 SZ EP        823  1.04                             168    0.2510 28.5 358 
 GIR2 SZ ES        823 16.01                             168    0.3510 28.5 358 
 PAM  SZ EP        823  3.78                             150    0.2410 78.5  43 
 PAM  SN I         823  4.43        17.9 0.18                          78.5  43 
 PAM  SN ES        823 21.02                             150    0.4810 78.5  43 
 RUS  HZ EP        823  4.87                             142   -0.3710  103 174 
 RUS  HN ES        823 23.14                             142   -0.4310  103 174 
 RUS  HN I         823 24.85        12.5 0.34                           103 174 
 PTB  HZ EP        823  7.78                             132   -0.21 9  144 258 
 PTB  HN ES        823 28.84                             132    0.37 9  144 258 
 PTB  HN I         823 33.90        21.8 0.42                           144 258 
 OCA  HZ EP        823  9.47                             129    0.03 9  158 355 
 OCA  HN ES        823 30.51                             129   -0.53 9  158 355 
 OCA  HN I         823 34.79        36.4 0.30                           158 355 
 SML  HZ EP        823 17.57                             117   -0.12 8  240 336 
 SML  HN ES        823 45.57                             117   -0.16 8  240 336 
 CHI  HZ EP        823 19.44                             116    0.13 8  250 194 
 CHI  HE ES        823 49.02                             116    0.40 8  250 194 
 CHI  HN I         823 53.81         4.4 0.70                           250 194 
 PRA  HE ES        824 16.89                             106    0.18 6  392 209 
                                                                                
