 2013  126 0033  0.0 L   6.776 -73.135138.2  RSN  6 0.6 1.7LRSN                1
 GAP=139        1.37       5.9     6.9 11.1 -0.4295E+01  0.5080E+01  0.2327E+02E
 Epicentro: LOS SANTOS - SANTANDER                                             3
 ACTION:UPD 13-02-15 09:16 OP:ep   STATUS:               ID:20130126003300 L   I
 2013-01-26-0028-50M.COL___187                                                 6
 STAT SP IPHASW D HRMM SECON CODA AMPLIT PERI AZIMU VELO AIN AR TRES W  DIS CAZ7
 BAR2 SZ EP        033 18.64                             171   -0.0510 20.9 194 
 BAR2 SZ I         033 18.80        16.5 0.22            172           20.9 194 
 BRR  HZ EP        033 20.50                             150    0.0010 73.5 300 
 BRR  HN ES        033 37.23                             150    0.7710 73.5 300 
 BRR  HN I         033 41.98        15.3 0.18            150           73.5 300 
 PAM  SZ EP        033 21.63                             149    0.1110 78.8  38 
 PAM  SN ES        033 38.21                             149   -0.0810 78.8  38 
 PAM  SN I         033 39.29        16.8 0.48            151           78.8  38 
 RUS  HZ EP        033 22.79                             143   -0.0410 97.8 177 
 RUS  HZ I         033 23.72         2.6 0.30            146           97.8 177 
 RUS  HN ES        033 40.05                             143   -0.5710 97.8 177 
 PTB  HZ EP        033 25.32                             130   -1.12 9  148 260 
 PTB  HN ES        033 46.89                             130   -0.16 9  148 260 
 CHI  HZ EP        033 38.11                             116    1.05 8  246 196 
 CHI  HN ES        034  6.48                             116    0.53 8  246 196 
                                                                                
