 2014  126 0358 11.3 L   6.780 -73.156150.6  RSN  7 0.3 1.4LRSN                1
 GAP=136        0.85       3.1     4.3  6.1 -0.1964E+01  0.3873E+01 -0.1867E+01E
 Epicentro: LOS SANTOS - SANTANDER                                             3
 ACTION:UPD 14-03-13 09:58 OP:ep   STATUS:               ID:20140126035811 L   I
 OLDACT:DUP 14-01-26 10:26 OP:nd   STATUS:               ID:20140126035001d    3
 2014-01-26-0350-00M.COL___285                                                 6
 STAT SP IPHASW D HRMM SECON CODA AMPLIT PERI AZIMU VELO AIN AR TRES W  DIS CAZ7
 BRR  HZ IP     C  358 33.35                             153    0.3310 71.3 301 
 BRR  HN ES        358 50.53                             153    0.6010 71.3 301 
 BRR  HZ I         358 56.87         4.6 0.14            151           71.3 301 
 PAM  SZ EP        358 34.52                             151    0.3010 79.8  39 
 PAM  SN ES        358 51.74                             151   -0.3210 79.8  39 
 PAM  SZ I         358 57.49         2.3 0.52            154           79.8  39 
 RUS  HZ EP        358 35.49                             145    0.0710 98.4 175 
 RUS  HN ES        358 53.92                             145   -0.2810 98.4 175 
 RUS  HZ I         358 55.06         2.8 0.26            153           98.4 175 
 PTB  HZ EP     D  358 38.14                             133   -0.43 9  146 260 
 PTB  HN ES        358 59.53                             133   -0.28 9  146 260 
 PTB  HZ I         359  6.94         5.1 0.40            136            146 260 
 SPBC HZ EP        358 40.33                             131    0.35 9  161 219 
 SPBC HN ES        359  2.28                             131   -0.05 9  161 219 
 SPBC HZ I         359  4.66         5.0 0.74            135            161 219 
 SML  HZ EP        358 48.21                             118   -0.20 8  245 336 
 SML  HN ES        359 17.00                             118   -0.33 8  245 336 
 SML  HZ I         359 26.50         3.9 0.10            121            245 336 
 GUY2CHZ EP   4 D  358 56.99                             113    2.07 0  299 235 
 GUY2CHZ I         359 24.64         0.4 0.34                           299 235 
 GUY2CHN ES   4    359 32.08                             113    3.16 0  299 235 
                                                                                
