 2016  826 0032 26.8 L   6.784 -73.171134.2  RSN  9 0.4 1.6LRSN                1
 GAP=134        0.85       2.7     3.8  6.0 -0.1570E+01  0.7225E+01  0.1650E+01E
 Epicentro: LOS SANTOS - SANTANDER                                             3
 ACTION:UPD 16-10-29 15:39 OP:rebc STATUS:               ID:20160826003226 L   I
 OLDACT:REG 16-08-26 12:15 OP:ak   STATUS:               ID:20160826002740     3
 2016-08-26-0028-00M.COL___380                                                 6
 STAT SP IPHASW D HRMM SECON CODA AMPLIT PERI AZIMU VELO AIN AR TRES W  DIS CAZ7
 BAR2 EZ EP        032 44.89                             171   -0.1410 21.2 183 
 BAR2 EZ ES        032 59.46                             171    0.2410 21.2 183 
 BAR2 EZ I         033  0.91         9.4 0.22                          21.2 183 
 PAM  EZ EP        032 47.97                             147   -0.0610 80.5  40 
 PAM  EN ES        033  4.66                             147    0.0910 80.5  40 
 PAM  EZ I         033  6.83        10.5 0.48                          80.5  40 
 RUS  HZ EP   2    032 49.19                             142   -0.15 5 99.0 174 
 RUS  HN ES        033  7.09                             142    0.1810 99.0 174 
 RUS  HZ I         033  9.11         5.6 0.42                          99.0 174 
 PTB  HZ EP   2    032 52.20                             130   -0.39 5  145 259 
 PTB  HN ES        033 12.27                             130   -0.41 9  145 259 
 PTB  HZ I         033 15.89         5.6 0.22                           145 259 
 SPBC HZ EP   2    032 54.27                             127    0.11 5  160 219 
 SPBC HN ES        033 15.14                             127   -0.33 9  160 219 
 SPBC HZ I         033 19.21         8.5 0.22                           160 219 
 OCA  HN ES        033 15.45                             127   -0.47 9  162 354 
 ZAR  HE ES        033 23.75                             120    0.82 9  202 293 
 CHI  HZ EP        033  4.33                             115    0.69 8  246 195 
 CHI  HN ES        033 32.04                             115   -0.32 8  246 195 
 GUY2CHZ EP        033  9.49                             110   -0.06 7  298 235 
 GUY2CHN ES   4    033 45.79                             110    2.92 0  298 235 
 GUY2CHZ I         033 51.59         1.6 0.40                           298 235 
                                                                                
