 2016 1226 0605 53.7 L   6.771 -73.132144.5  RSN  7 0.4 1.4LRSN                1
 GAP=140        0.99       3.9     4.4  6.1  0.1967E+01  0.6657E+01  0.4014E+01E
 Epicentro: LOS SANTOS - SANTANDER                                             3
 ACTION:UPD 17-01-11 20:19 OP:rebc STATUS:               ID:20161226060553 L   I
 OLDACT:DUP 16-12-26 17:36 OP:edw  STATUS:               ID:20161226055747d    3
 OLDACT:REG 16-12-26 12:50 OP:edw  STATUS:               ID:20161226055746     3
 2016-12-26-0558-00M.COL___366                                                 6
 STAT SP IPHASW D HRMM SECON CODA AMPLIT PERI AZIMU VELO AIN AR TRES W  DIS CAZ7
 BAR2 EZ EP        6 6 13.04                             172   -0.1310 20.6 196 
 BAR2 EZ ES        6 6 27.75                             172   -0.5710 20.6 196 
 BAR2 EZ I         6 6 28.79         4.5 0.23            171           20.6 196 
 BRR  HZ EP        6 6 15.13                             151    0.2010 74.1 300 
 BRR  HE ES        6 6 32.02                             151    0.5710 74.1 300 
 BRR  HZ I         6 6 36.23         6.2 0.12            150           74.1 300 
 PAM  EZ EP        6 6 15.89                             150   -0.0310 78.9  37 
 PAM  EN ES        6 6 33.18                             150   -0.0310 78.9  37 
 PAM  EZ I         6 6 35.14         4.1 0.40            153           78.9  37 
 RUS  HZ EP        6 6 17.46                             144    0.3210 97.3 177 
 RUS  HN ES        6 6 35.57                             144    0.1910 97.3 177 
 RUS  HZ I         6 6 36.97         4.3 0.26            146           97.3 177 
 PTB  HZ EP        6 6 19.90                             131   -0.80 9  149 260 
 PTB  HN ES        6 6 41.50                             131   -0.22 9  149 260 
 PTB  HZ I         6 6 43.82         5.3 0.12            132            149 260 
 ZAR  HZ EP        6 6 26.02                             122   -0.36 8  207 293 
 ZAR  HN ES        6 6 52.26                             122    0.42 8  207 293 
 ZAR  HZ I         6 6 57.45         3.1 0.22            122            207 293 
 CHI  HZ EP        6 6 31.60                             117    0.52 8  246 196 
 CHI  HN ES        6 7  0.19                             117   -0.02 8  246 196 
 CHI  HZ I         6 7  3.62         1.0 0.30            119            246 196 
 SJC  HZ EP   4    6 6 47.53                             105   -2.15 0  413 327 
 SJC  HN ES   4    6 7 27.66                             105   -5.65 0  413 327 
                                                                                
