 2017 1026 0601  1.6 L   6.830 -73.158145.5  RSN  6 0.5 1.5LRSN                1
 GAP=134        1.17       7.0     6.4  8.8  0.2940E+01  0.1303E+01 -0.3946E+01E
 Epicentro: LOS SANTOS - SANTANDER                                             3
 ACTION:UPD 17-11-07 19:37 OP:rebc STATUS:               ID:20171026060101 L   I
 OLDACT:UP  17-10-26 18:25 OP:dani STATUS:               ID:20171026054829d    3
 OLDACT:UP  17-10-26 18:25 OP:dani STATUS:               ID:20171026054829d    3
 OLDACT:DUP 17-10-26 18:20 OP:dani STATUS:               ID:20171026054829d    3
 OLDACT:UP  17-10-26 18:18 OP:dani STATUS:               ID:20171026054828     3
 OLDACT:UP  17-10-26 18:18 OP:dani STATUS:               ID:20171026054828     3
 OLDACT:UP  17-10-26 18:17 OP:dani STATUS:               ID:20171026054828     3
 OLDACT:UP  17-10-26 18:17 OP:dani STATUS:               ID:20171026054828     3
 OLDACT:UP  17-10-26 18:16 OP:dani STATUS:               ID:20171026054828     3
 OLDACT:REG 17-10-26 13:09 OP:dani STATUS:               ID:20171026054828     3
 2017-10-26-0558-00M.COL___399                                                 6
 STAT SP IPHASW D HRMM SECON CODA AMPLIT PERI AZIMU VELO AIN AR TRES W  DIS CAZ7
 BAR2 EZ EP        6 1 20.90                             170   -0.4110 26.5 186 
 BAR2 EZ ES        6 1 36.41                             170   -0.2410 26.5 186 
 BAR2 EZ I         6 1 39.05         9.9 0.27            173           26.5 186 
 BRR  HZ EP        6 1 22.96                             154    0.3510 68.5 297 
 BRR  HN ES        6 1 39.51                             154    0.5410 68.5 297 
 BRR  HZ I         6 1 43.17         4.2 0.13            154           68.5 297 
 PAM  EZ EP        6 1 24.02                             151    0.2910 75.7  42 
 RUS  HZ EP        6 1 25.58                             143   -0.0410  104 175 
 RUS  HN ES        6 1 44.59                             143    0.2610  104 175 
 PTB  HZ EP        6 1 27.96                             132   -0.58 9  147 257 
 PTB  HN ES        6 1 48.84                             132   -0.67 9  147 257 
 PTB  HZ I         6 1 49.94         2.2 0.14            135            147 257 
 GUY2CHE ES   1    6 2 20.66                             112    1.24 5  302 234 
 GUY2CHN I         6 2 27.27         2.4 0.68                           302 234 
                                                                                
