 2016  126 0146 51.4 L   6.820 -73.154140.7  RSN 11 0.4 1.9LRSN                1
 GAP=200        0.91       2.8     4.0  5.3  0.1263E+01  0.5675E+01 -0.9353E+00E
 Epicentro: LOS SANTOS - SANTANDER                                             3
 ACTION:UPD 16-03-09 23:28 OP:cam  STATUS:               ID:20160126014651 L   I
 OLDACT:REG 16-01-26 13:45 OP:cara STATUS:               ID:20160126013736     3
 2016-01-26-0137-36M.COL___330                                                 6
 STAT SP IPHASW D HRMM SECON CODA AMPLIT PERI AZIMU VELO AIN AR TRES W  DIS CAZ7
 BAR2 EZ EP        147 10.78                             169    0.2810 25.4 187 
 BAR2 EZ ES        147 25.73                             169    0.3510 25.4 187 
 BAR2 EZ I         147 26.78        17.0 0.24            164           25.4 187 
 RUS  HZ EP        147 14.75                             142   -0.1110  103 176 
 RUS  HN ES        147 32.82                             142   -0.3210  103 176 
 RUS  HZ I         147 34.38         5.3 0.26            141            103 176 
 PTB  HZ EP        147 17.12                             131   -0.83 9  147 258 
 PTB  HN ES        147 38.11                             131   -0.53 9  147 258 
 PTB  HZ I         147 40.75         9.6 0.16            129            147 258 
 SPBC HZ EP        147 19.90                             128    0.24 9  164 218 
 SPBC HN ES        147 42.27                             128    0.59 9  164 218 
 SPBC HZ I         147 48.78        16.4 0.32            126            164 218 
 ZAR  HZ EP        147 23.79                             121    0.41 9  202 292 
 ZAR  HN ES        147 48.46                             121    0.16 9  202 292 
 ZAR  HZ I         147 53.91         8.5 0.26            121            202 292 
 NOR  HZ EP        147 26.76                             117   -0.17 8  235 234 
 NOR  HN ES        147 54.09                             117   -0.54 8  235 234 
 NOR  HZ I         148  1.03         5.7 0.16            117            235 234 
 SML  HZ EP        147 27.33                             117   -0.19 8  241 335 
 SML  HN ES        147 55.38                             117   -0.28 8  241 335 
 CHI  HZ EP        147 29.02                             116   -0.04 8  251 195 
 CHI  HN ES        147 58.23                             116   -0.19 8  251 195 
 CHI  HZ I         148  4.55         3.0 0.24            116            251 195 
 HEL  HZ EP        147 32.11                             114    0.75 8  272 255 
 HEL  HE ES        148  2.82                             114    0.32 8  272 255 
 HEL  HZ I         148 10.92         4.2 0.28            114            272 255 
 GUY2CHZ EP        147 35.12                             111    0.25 7  302 234 
 GUY2CHN ES        148  8.98                             111    0.22 7  302 234 
 GUY2CHZ I         148 19.11         3.7 0.56                           302 234 
 PRA  HZ EP        147 44.99                             106    0.03 6  394 209 
 PRA  HN ES        148 26.48                             106   -0.23 6  394 209 
 PRA  HZ I         148 32.66         3.2 0.26            106            394 209 
                                                                                
