 2011  426 0634 23.8 L   5.746 -73.930100.0  RSN  8 0.4 2.0LRSN                1
 GAP= 83        0.94       3.7     3.0 10.3 -0.1182E+01  0.4161E+01 -0.2429E+01E
 Epicentro: ALBANIA - SANTANDER                                                3
 ACTION:UP  11-06-22 15:33 OP:REBC STATUS:               ID:20110426063423 L   I
 2011-04-26-0620-00M.COL___137                                                 6
 STAT SP IPHASW D HRMM SECON CODA AMPLIT PERI AZIMU VELO SNR AR TRES W  DIS CAZ7
 RUS  HZ EP   1    634 42.62                             134    -0.3 8   95  80 
 RUS  HE ES   1    634 57.34                             134    -0.5 8   95  80 
 NOR  SZ EP        634 43.69                             130     0.310  106 259 
 NOR  SN ES   1    634 58.67                             130     0.1 7  106 259 
 NOR  SZ I         635  1.07         8.5 0.21                           106 259 
 CHI  HN ES   1    635  2.56                             125    -0.2 7  125 170 
 CHI  HZ I         635  7.05         9.2 0.24                           125 170 
 BAR2 SZ EP        634 45.32                             125    -0.110  125  41 
 BAR2 SZ ES   1    635  2.70                             125     0.4 7  125  41 
 BAR2 SZ I         635  3.79        53.6 0.36                           125  41 
 CHI  HZ EP   1    634 45.48                             125    -0.2 7  125 170 
 BRR  HZ EP        634 47.55                             119    -0.5 9  152   9 
 BRR  HE ES   1    635  7.14                             119     0.3 7  152   9 
 BRR  HZ I         635 10.31        15.5 0.16                           152   9 
 GUY  SZ EP   1    634 50.67                             117    -0.1 7  172 250 
 GUY  SZ I         635 18.72        16.7 0.35                           172 250 
 YOP  SZ EP        634 50.38                             116     0.0 9  173 104 
 YOP  SE ES   1    635 12.12                             116     1.0 7  173 104 
 YOP  SZ I         635 13.83        29.9 0.17                           173 104 
 HEL  HZ EP   1    634 52.12                             115     0.2 7  184 286 
 HEL  HN ES   1    635 13.81                             115     0.0 7  184 286 
 HEL  HZ I         635 15.67         9.4 0.37                           184 286 
                                                                                
