 2017  926 0611 55.0 L   6.773 -72.859138.5  RSN  7 0.3 1.2LRSN                1
 GAP=263        0.83       5.2     5.6  6.2  0.1483E+02  0.1013E+02  0.6425E+01E
 Epicentro: SAN ANDRES - SANTANDER                                             3
 ACTION:UPD 17-10-05 19:16 OP:rebc STATUS:               ID:20170926061155 L   I
 OLDACT:REG 17-09-26 13:07 OP:osc  STATUS:               ID:20170926060737     3
 2017-09-26-0608-00M.COL___438                                                 6
 STAT SP IPHASW D HRMM SECON CODA AMPLIT PERI AZIMU VELO AIN AR TRES W  DIS CAZ7
 BAR2 EZ EP        612 14.78                             163    0.5010 41.0 241 
 BAR2 EZ ES        612 29.78                             163    0.4710 41.0 241 
 BAR2 EZ I         612 31.60         4.5 0.28            160           41.0 241 
 RUS  HZ EP        612 17.81                             142   -0.2310  100 194 
 RUS  HN ES        612 35.74                             142   -0.2710  100 194 
 RUS  HZ I         612 40.87         1.5 0.40            141            100 194 
 BRR  HZ EP        612 17.21                             142   -0.2010  101 291 
 BRR  HE ES        612 34.45                             142   -0.4410  101 291 
 BRR  HZ I         612 35.24         4.0 0.46            144            101 291 
 ZAR  HE ES        612 57.93                             117    0.15 8  235 290 
 CHI  HZ EP        612 33.16                             115    0.04 8  256 202 
 CHI  HN ES   2    613  2.88                             115    0.02 4  256 202 
 HEL  HE ES        613 11.73                             111   -0.30 7  302 258 
 CBOC HN ES        613 24.61                             107    0.51 6  363 254 
 CBOC HZ I         613 26.57         0.8 0.20            108            363 254 
                                                                                
