 2015  126 0828 13.0 L   6.738 -73.143149.1  RSN  4 0.4 1.3LRSN                1
 GAP=159        0.94      11.1     6.6  7.8 -0.4394E+02  0.7946E+01 -0.9814E+00E
 Epicentro: LOS SANTOS - SANTANDER                                             3
 ACTION:UPD 15-03-02 15:42 OP:nd   STATUS:               ID:20150126082813 L   I
 OLDACT:REG 15-01-26 17:21 OP:cam  STATUS:               ID:20150126082635     3
 2015-01-26-0826-35M.COL___274                                                 6
 STAT SP IPHASW D HRMM SECON CODA AMPLIT PERI AZIMU VELO AIN AR TRES W  DIS CAZ7
 BAR2 EZ ES        828 48.67                             173    0.1910 16.7 195 
 BAR2 EZ I         828 50.16         5.2 0.32            174           16.7 195 
 BRR  HZ EP        828 35.00                             152    0.2610 75.0 303 
 BRR  HN ES        828 52.07                             152    0.3810 75.0 303 
 BRR  HZ I         828 53.23         2.8 0.36            153           75.0 303 
 PAM  SZ EP     C  828 36.23                             150    0.3210 82.6  36 
 PAM  SN ES        828 53.17                             150   -0.5910 82.6  36 
 PAM  SZ I         828 55.26         4.3 0.42            151           82.6  36 
 PTB  HZ EP        828 39.89                             133   -0.29 9  147 261 
 PTB  HN ES        829  1.01                             133   -0.36 9  147 261 
 PTB  HZ I         829  2.96         2.3 0.16            134            147 261 
                                                                                
