 2013  226 0511 29.1 L   6.769 -73.180152.0  RSN  5 0.4 1.5LRSN                1
 GAP=134        0.96       5.3     5.0  7.0 -0.2518E+01  0.3862E+01  0.1377E+01E
 Epicentro: LOS SANTOS - SANTANDER                                             3
 ACTION:UPD 13-03-12 09:35 OP:ep   STATUS:               ID:20130226051129 L   I
 2013-02-26-0508-48M.COL___193                                                 6
 STAT SP IPHASW D HRMM SECON CODA AMPLIT PERI AZIMU VELO AIN AR TRES W  DIS CAZ7
 BAR2 SZ EP        511 49.40                             172   -0.0310 19.6 181 
 BAR2 SZ ES        512  5.62                             172    0.3510 19.6 181 
 BAR2 SZ I         512  7.19         6.4 0.38            171           19.6 181 
 BRR  HZ EP        511 51.24                             154    0.3810 69.7 302 
 BRR  HN ES        512  8.30                             154    0.4910 69.7 302 
 BRR  HN I         512  8.95         7.1 0.26            153           69.7 302 
 PAM  SZ EP        511 52.24                             150   -0.0510 82.4  40 
 PAM  SZ I         511 52.35         3.8 0.18            154           82.4  40 
 PAM  SN ES        512  9.82                             150   -0.5510 82.4  40 
 RUS  HZ EP        511 53.49                             146    0.2210 97.5 174 
 RUS  HN ES        512 11.96                             146   -0.1510 97.5 174 
 RUS  HN I         512 13.65         3.5 0.26            146           97.5 174 
 PTB  HZ EP        511 56.13                             134   -0.09 9  143 260 
 PTB  HN ES        512 16.69                             134   -0.66 9  143 260 
 PTB  HN I         512 22.48         4.0 0.58            134            143 260 
                                                                                
