 2017  926 0622  2.6 L   6.809 -73.140149.3  RSN  9 0.3 1.6LRSN                1
 GAP=119        0.81       3.0     3.8  5.0  0.5714E+00  0.6494E+01  0.2821E+01E
 Epicentro: LOS SANTOS - SANTANDER                                             3
 ACTION:UPD 17-10-05 19:16 OP:rebc STATUS:               ID:20170926062202 L   I
 OLDACT:UP  17-09-26 17:15 OP:osc  STATUS:               ID:20170926061741d    3
 OLDACT:DUP 17-09-26 17:02 OP:osc  STATUS:               ID:20170926061741d    3
 2017-09-26-0618-00M.COL___438                                                 6
 STAT SP IPHASW D HRMM SECON CODA AMPLIT PERI AZIMU VELO AIN AR TRES W  DIS CAZ7
 BAR2 EZ EP        622 22.49                             170   -0.2110 24.4 191 
 BAR2 EZ ES        622 37.99                             170   -0.3710 24.4 191 
 BAR2 EZ I         622 38.81         8.6 0.11            170           24.4 191 
 BRR  HZ EP        622 24.25                             153    0.1010 71.2 298 
 BRR  HE ES        622 41.47                             153    0.5210 71.2 298 
 BRR  HZ I         622 45.24        12.6 0.40            152           71.2 298 
 PAM  EZ EP        622 25.51                             152    0.3710 76.2  40 
 PAM  EE ES        622 42.67                             152   -0.0510 76.2  40 
 PAM  EZ I         622 45.63         3.3 0.20            155           76.2  40 
 RUS  HZ EP        622 26.73                             144   -0.0610  102 176 
 RUS  HN ES        622 45.64                             144   -0.0010  102 176 
 RUS  HZ I         622 47.02         3.8 0.44            146            102 176 
 ZAR  HZ EP        622 34.76                             123   -0.55 9  204 292 
 ZAR  HE ES        623  0.61                             123   -0.20 9  204 292 
 ZAR  HZ I         623  5.86         3.6 0.26            124            204 292 
 NOR  HZ EP        622 39.12                             119    0.45 8  236 234 
 NOR  HE ES        623  6.50                             119   -0.29 8  236 234 
 NOR  HZ I         623 11.18         2.6 0.36            120            236 234 
 CHI  HZ EP        622 40.51                             118   -0.13 8  250 195 
 CHI  HN ES        623 10.63                             118    0.34 8  250 195 
 CHI  HZ I         623 13.39         2.7 0.32            119            250 195 
 GUY2CHZ EP   4    622 47.44                             113    0.93 0  302 235 
 GUY2CHE ES   4    623 19.40                             113   -1.35 0  302 235 
 GUY2CHZ I         623 27.78         1.8 0.12                           302 235 
 PTGC HZ EP   9    622 45.10                             112   -1.62 0  309 159 
 PTGC HE ES        623 18.91                             113   -0.59 7  309 159 
                                                                                
