 2016  926 0856 22.5 L   6.806 -73.128147.9  RSN  6 0.3 1.3LRSN                1
 GAP=240        0.79       5.0     5.0  5.6  0.9699E+01  0.4050E+01  0.2672E+01E
 Epicentro: LOS SANTOS - SANTANDER                                             3
 ACTION:UPD 17-08-17 21:16 OP:lp   STATUS:               ID:20160926085622 L   I
 OLDACT:REG 16-09-26 13:43 OP:dani STATUS:               ID:20160926084741     3
 2016-09-26-0848-00M.COL___327                                                 6
 STAT SP IPHASW D HRMM SECON CODA AMPLIT PERI AZIMU VELO AIN AR TRES W  DIS CAZ7
 BAR2 EZ EP        856 42.24                             170   -0.1410 24.4 194 
 BAR2 EZ ES        856 57.50                             170   -0.4010 24.4 194 
 BAR2 EZ I         857  0.21         6.2 0.29            165           24.4 194 
 BRR  HN ES        857  1.25                             152    0.5910 72.6 297 
 RUS  HZ EP        856 46.71                             144    0.2410  101 177 
 RUS  HE ES   2    857  5.09                             144   -0.10 5  101 177 
 RUS  HZ I         857  6.13         1.9 0.34            144            101 177 
 PTB  HZ EP        856 49.48                             132   -0.31 9  150 259 
 PTB  HE ES        857 10.82                             132   -0.28 9  150 259 
 PTB  HZ I         857 16.83         1.7 0.18            131            150 259 
 SPBC HZ EP        856 51.29                             129   -0.01 9  165 219 
 SPBC HE ES        857 14.13                             129    0.35 9  165 219 
 SPBC HZ I         857 18.19         3.3 0.14            128            165 219 
 ZAR  HZ EP        856 55.42                             123    0.21 8  206 292 
 ZAR  HE ES        857 20.51                             123   -0.24 8  206 292 
 ZAR  HZ I         857 25.49         1.7 0.20            123            206 292 
                                                                                
