 2017 1226 0349  5.3 L   6.751 -73.152146.9  RSN  4 0.3 0.9LRSN                1
 GAP=153        0.85       7.6     4.5  7.3 -0.1100E+02  0.1407E+02 -0.1204E+02E
 Epicentro: LOS SANTOS - SANTANDER                                             3
 ACTION:UPD 18-01-04 13:24 OP:rebc STATUS:               ID:20171226034905 L   I
 OLDACT:DUP 17-12-26 15:50 OP:osc  STATUS:               ID:20171226034229d    3
 OLDACT:REG 17-12-26 13:02 OP:osc  STATUS:               ID:20171226034228     3
 2017-12-26-0348-00M.COL___469                                                 6
 STAT SP IPHASW D HRMM SECON CODA AMPLIT PERI AZIMU VELO AIN AR TRES W  DIS CAZ7
 BAR2 EZ EP        349 25.29                             173    0.3210 17.8 191 
 BAR2 EZ ES        349 39.99                             173   -0.3210 17.8 191 
 BAR2 EZ I         349 41.21         1.8 0.18            173           17.8 191 
 PAM  EZ EP        349 28.22                             149    0.3010 82.1  38 
 PAM  EN ES        349 45.47                             149   -0.0910 82.1  38 
 PAM  EZ I         349 46.72         1.4 0.40            152           82.1  38 
 PTB  HZ EP        349 32.13                             133   -0.07 9  146 261 
 PTB  HN ES        349 53.41                             133    0.22 9  146 261 
 PTB  HZ I         349 56.34         0.9 0.14            133            146 261 
 ZAR  HZ EP        349 37.23                             122   -0.73 8  205 294 
 ZAR  HN ES        350  3.70                             122    0.26 8  205 294 
                                                                                
