 2012  326 0643 14.6 L   6.790 -73.151147.9  RSN  5 0.3 1.7LRSN                1
 GAP=136        0.78       7.7     6.7  9.1 -0.1967E+01  0.1194E+01  0.2612E+02E
 ACTION:UP  12-03-31 23:23 OP:EP   STATUS:               ID:20120326064314 L   I
 2012-03-26-0640-00M.COL___196                                                 6
 STAT SP IPHASW D HRMM SECON CODA AMPLIT PERI AZIMU VELO SNR AR TRES W  DIS CAZ7
 BAR2 SZ EP        643 34.38                             171    -0.110   22 189 
 BAR2 SZ I         643 34.75         7.7 0.36                            22 189 
 BAR2 SZ ES   2    643 49.90                             171    -0.1 5   22 189 
 BRR  HZ EP        643 36.19                             153     0.210   71 300 
 BRR  HZ I         643 36.43        14.1 0.32                            71 300 
 BRR  HN ES   1    643 52.98                             153     0.3 7   71 300 
 PAM  SZ EP        643 37.33                             151     0.210   79  39 
 PAM  SN ES   2    643 53.78                             151    -0.9 5   79  39 
 RUS  HZ EP        643 38.68                             144     0.210  100 176 
 PTB  HZ EP        643 41.29                             133    -0.4 9  147 259 
                                                                                
