 2010  426 0457 17.6 L   6.746 -72.983144.0  RSN  4 0.4 1.7LRSN                1
 GAP=212        0.58       7.4    13.2  7.9  0.1862E+02 -0.2413E+02 -0.2246E+02E
 Epicentro: CEPITA - SANTANDER                                                 3
 ACTION:UPD 10-08-24 10:01 OP:vdl  STATUS:               ID:20100426045717 L   I
 2010-04-26-0453-58S.COL___104                                                 6
 STAT SP IPHASW D HRMM SECON CODA AMPLIT PERI AZIMU VELO AIN AR TRES W  DIS CAZ7
 BAR2 SZ ES   1    457 52.35                             168     0.0 7   28 232 
 BRR  HZ EP        457 39.85                             147     0.110   90 296 
 BRR  HN ES   1    457 56.92                             147    -0.1 7   90 296 
 BRR  HZ I         457 57.74        11.7 0.14                            90 296 
 OCA  SZ EP   2    457 45.99                             128    -0.7 5  169 347 
 OCA  SZ ES   2    458  9.82                             128     0.5 5  169 347 
 CHI  HZ EP   3    457 56.00                             117     0.8 2  248 200 
 CHI  HZ I         458 31.27         2.8 0.23                           248 200 
                                                                                
