 2016  426 0317 48.6 L   7.085 -73.198127.1  RSN  6 0.4 1.4LRSN                1
 GAP=176        0.66       6.4     4.9  8.6 -0.1155E+02  0.2081E+02  0.1158E+02E
 Epicentro: GIRON - SANTANDER                                                  3
 ACTION:UPD 16-05-05 14:24 OP:rebc STATUS:               ID:20160426031748 L   I
 OLDACT:DUP 16-04-26 15:36 OP:dnl  STATUS:               ID:20160426030751d    3
 2016-04-26-0307-50M.COL___311                                                 6
 STAT SP IPHASW D HRMM SECON CODA AMPLIT PERI AZIMU VELO AIN AR TRES W  DIS CAZ7
 BAR2 EZ EP   2    318  8.21                             155    1.03 5 54.5 178 
 BAR2 EZ ES   2    318 22.36                             155    0.70 5 54.5 178 
 BAR2 EZ I         318 23.68         8.0 0.21            155           54.5 178 
 PAM  EZ EP   4    318 10.27                             153    2.34 0 61.8  63 
 PAM  EE ES        318 22.72                             153   -0.2710 61.8  63 
 PAM  EZ I         318 27.84         4.6 0.24            155           61.8  63 
 RUS  HZ EP   2    318 13.15                             131   -0.18 5  133 174 
 RUS  HE ES   2    318 32.20                             131   -0.40 5  133 174 
 PTB  HZ EP        318 14.70                             126    0.19 9  152 247 
 PTB  HN ES        318 34.60                             126   -0.11 9  152 247 
 PTB  HZ I         318 36.71         4.1 0.12            130            152 247 
 SPBC HZ EP   2    318 17.66                             120   -0.41 4  186 211 
 SPBC HN ES   2    318 40.98                             120   -0.07 4  186 211 
 SPBC HZ I         318 45.78         3.4 0.36            123            186 211 
 GUY2CHZ EP   3    318 33.73                             107    0.57 2  316 229 
 GUY2CHE ES   3    319  7.31                             107   -0.58 2  316 229 
 GUY2CHZ I         319 19.25         1.1 0.54                           316 229 
                                                                                
