 2013  626 0821  7.1 L   6.698 -73.451124.9  RSN  5 0.3 1.3LRSN                1
 GAP=106        0.86       6.2     4.7  7.5  0.4835E+01  0.6395E+01 -0.6234E+00E
 Epicentro: EL CARMEN DE CHUCURI - SANTANDER                                   3
 ACTION:UPD 14-01-08 09:57 OP:ep   STATUS:               ID:20130626082107 L   I
 OLDACT:REG 13-06-26 07:50 OP:jn   STATUS:               ID:20130626081959     3
 2013-06-26-0819-59M.COL___267                                                 6
 STAT SP IPHASW D HRMM SECON CODA AMPLIT PERI AZIMU VELO AIN AR TRES W  DIS CAZ7
 BAR2 SZ EP        821 24.54                             165    0.1110 31.9 112 
 BAR2 SZ ES        821 37.68                             165   -0.3010 31.9 112 
 BAR2 SZ I         821 38.69         7.8 0.38            169           31.9 112 
 GIR2 SZ EP        821 24.58                             156   -0.4810 50.8  34 
 BRR  HZ EP     C  821 25.21                             155    0.2210 53.7 327 
 BRR  HN ES        821 39.38                             155    0.4110 53.7 327 
 BRR  HZ I         821 40.33         4.8 0.12            155           53.7 327 
 RUS  HN ES   1    821 45.82                             140    0.39 7 97.9 155 
 PTB  HZ EP        821 29.37                             135    0.1910  113 261 
 PTB  HN ES        821 46.03                             135   -0.3910  113 261 
 PTB  HZ I         821 52.88         2.5 0.16            133            113 261 
                                                                                
