 2012 1126 0615 14.1 L   6.131 -73.710109.1  RSN  5 0.2 1.2LRSN                1
 GAP=118        0.53       2.6     3.6 10.4  0.4972E+01 -0.1713E+02 -0.5516E+01E
 Epicentro: LANDAZURI - SANTANDER                                              3
 ACTION:UPD 12-12-05 15:36 OP:}ep  STATUS:               ID:20121126061514 L   I
 2012-11-26-0610-00M.COL___233                                                 6
 STAT SP IPHASW D HRMM SECON CODA AMPLIT PERI AZIMU VELO AIN AR TRES W  DIS CAZ7
 RUS  HZ EP        615 32.34                             144    0.0310 74.2 111 
 BAR2 SZ EP        615 32.20                             142    0.0110 77.5  49 
 PTB  HZ EP        615 32.89                             136   -0.3310 94.2 299 
 PTB  HN ES        615 48.14                             136   -0.0210 94.2 299 
 PTB  HN I         615 49.18         1.5 0.10                          94.2 299 
 CHI  HN ES        616  1.71                             119    0.11 9  166 181 
 ZAR  HN ES        616  6.98                             114    0.30 9  197 320 
 ZAR  HN I         616  8.64         3.3 0.12                           197 320 
                                                                                
