 2016  526 0719 47.5 L   6.745 -73.240152.3  RSN  5 0.4 1.4LRSN                1
 GAP=162        1.00       4.5    10.2  9.3  0.6356E+01 -0.1293E+02 -0.1321E+01E
 Epicentro: ZAPATOCA - SANTANDER                                               3
 ACTION:UPD 16-08-18 17:49 OP:cam  STATUS:               ID:20160526071947 L   I
 OLDACT:DUP 16-05-26 17:59 OP:*PRA STATUS:               ID:20160526071744d    3
 2016-05-26-0717-43M.COL___307                                                 6
 STAT SP IPHASW D HRMM SECON CODA AMPLIT PERI AZIMU VELO AIN AR TRES W  DIS CAZ7
 BAR2 EZ EP   1    720  7.52                             173   -0.35 7 18.0 159 
 BAR2 EZ I         720 22.85         7.5 0.38            169           18.0 159 
 BRR  HZ EP        720  9.63                             155    0.5110 65.8 308 
 BRR  HN ES        720 25.80                             155   -0.1510 65.8 308 
 BRR  HZ I         720 26.06         3.5 0.52            157           65.8 308 
 RUS  HZ EP        720 12.13                             146    0.5110 95.8 170 
 RUS  HN ES        720 30.22                             146   -0.1710 95.8 170 
 RUS  HZ I         720 32.02         1.2 0.26            142           95.8 170 
 SPBC HZ EP        720 14.76                             133   -0.77 9  152 217 
 SPBC HN ES   1    720 37.80                             133    0.45 7  152 217 
 SPBC HZ I         720 43.78         2.4 0.22            130            152 217 
 OCA  HZ EP   1    720 16.85                             130   -0.00 7  165 357 
 OCA  HN ES   1    720 39.61                             130   -0.11 7  165 357 
 OCA  HZ I         720 42.18         7.8 0.32            128            165 357 
 PTGC HZ EP   4    720 26.79                             113   -4.72 0  307 156 
                                                                                
