 2012 1026 0726 11.5 L   6.804 -73.115146.6  RSN  8 0.3 1.8LRSN                1
 GAP=140        0.53       2.5     5.1  5.3 -0.1136E+00  0.7275E+01  0.2252E+01E
 Epicentro: LOS SANTOS - SANTANDER                                             3
 ACTION:UPD 12-11-22 17:05 OP:ep   STATUS:               ID:20121026072611 L   I
 2012-10-26-0720-00M.COL___228                                                 6
 STAT SP IPHASW D HRMM SECON CODA AMPLIT PERI AZIMU VELO AIN AR TRES W  DIS CAZ7
 BAR2 SZ ES   2    726 46.50                             170   -0.15 5 24.5 198 
 BRR  HZ EP   1    726 32.94                             152    0.05 8 74.0 297 
 BRR  HE ES   2    726 50.31                             152    0.73 5 74.0 297 
 BRR  HN I         726 50.77        17.5 0.22                          74.0 297 
 PAM  SZ EP   1    726 33.82                             152    0.16 8 75.0  38 
 PAM  SN ES   2    726 51.26                             152    0.32 5 75.0  38 
 PAM  SN I         726 52.95        10.2 0.48                          75.0  38 
 RUS  HZ EP   1    726 35.02                             144   -0.32 7  101 178 
 RUS  HN ES        726 53.88                             144   -0.0610  101 178 
 RUS  HN I         726 55.11         7.6 0.40                           101 178 
 OCA  HN ES   2    727  1.53                             130   -0.48 5  160 352 
 ZAR  HE ES   2    727  9.33                             122   -0.56 4  207 292 
 CHI  HZ EP   1    726 49.70                             117    0.32 6  250 196 
 CHI  HE ES        727 18.75                             117   -0.18 8  250 196 
 CHI  HN I         727 22.06         4.3 0.22                           250 196 
 PRA  HZ EP   1    727  5.54                             106    0.26 4  394 210 
 PRA  HN ES   2    727 47.83                             106    0.60 3  394 210 
 PRA  HN I         727 51.32         1.7 0.24                           394 210 
                                                                                
