 2011  626 0621 20.7 L   6.789 -73.160142.7  RSN 15 0.5 2.6LRSN                1
 GAP=113        0.72       3.2     4.7  4.8 -0.4563E+01  0.6579E+01  0.3638E+01E
 Epicentro: LOS SANTOS - SANTANDER                                             3
 ACTION:UP  11-07-14 19:08 OP:ep   STATUS:               ID:20110626062120 L   I
 2011-06-26-0618-56S.COL___140                                                 6
 STAT SP IPHASW D HRMM SECON CODA AMPLIT PERI AZIMU VELO SNR AR TRES W  DIS CAZ7
 BTL  SZ EP        621 40.02                             172     0.110   19 320 
 BTL  SZ ES   2    621 55.23                             172     0.4 5   19 320 
 BAR2 SZ EP   2    621 39.73                             171    -0.2 5   22 187 
 BAR2 SZ ES   1    621 54.66                             171    -0.3 7   22 187 
 BAR2 SZ I         621 57.54       104.1 0.26                            22 187 
 GIR2 SZ EP        621 39.76                             167    -0.310   32 353 
 GIR2 SZ ES   2    621 55.17                             167     0.0 5   32 353 
 BRR  HN ES   1    621 58.37                             152     0.7 7   70 300 
 BRR  HZ I         622  1.26        70.7 0.15                            70 300 
 PAM  SZ EP        621 42.66                             150    -0.110   79  40 
 PAM  SN ES   2    621 59.75                             150    -0.1 5   79  40 
 RUS  HN ES   1    622  2.22                             143    -0.1 7  100 175 
 BRI  SZ ES   3    622  2.18                             140    -0.8 2  110  21 
 GRA  SZ EP   3    621 47.97                             136     2.2 2  127  18 
 GRA  SZ ES   1    622  5.07                             136    -0.3 7  127  18 
 GRA  SZ I         622  6.40        68.7 0.33                           127  18 
 OCA  SZ ES   3    622 10.25                             129    -0.6 2  161 354 
 OCA  SZ I         622 14.90        45.4 0.39                           161 354 
 YOP  SN ES   2    622 14.68                             126     1.0 4  179 153 
 NOR  SZ EP        621 56.05                             118     0.0 8  233 234 
 NOR  SN ES   1    622 22.94                             118    -0.7 6  233 234 
 CHI  HZ EP        621 58.08                             117     0.0 8  247 195 
 CHI  HN ES   2    622 27.49                             117     0.3 4  247 195 
 CHI  HZ I         622 30.60        24.3 0.51                           247 195 
 RREF HZ EP   2    622  6.77                             110     0.3 3  320 229 
 RREF HN ES   2    622 42.76                             110     0.6 3  320 229 
 RREF HZ I         622 52.04        23.5 0.48                           320 229 
 DBB  SZ EP        622  8.08                             109     0.2 7  338 274 
 PRA  HZ EP        622 13.82                             106    -0.1 6  390 209 
 PRA  HN ES   2    622 55.15                             106    -0.3 3  390 209 
                                                                                
