 2010  126 0327 30.5 L   6.801 -72.955143.7  RSN 11 0.5 2.6LRSN                1
 GAP=202        1.05       4.4     9.6  7.5 -0.1146E+02  0.2074E+02  0.4811E+01E
 Epicentro: CEPITA - SANTANDER                                                 3
 ACTION:UP  10-08-24 09:45 OP:vdl  STATUS:               ID:20100126032730 L   I
 2010-01-26-0325-36S.COL___095                                                 6
 STAT SP IPHASW D HRMM SECON CODA AMPLIT PERI AZIMU VELO SNR AR TRES W  DIS CAZ7
 BAR2 SZ EP        327 50.58                             166     0.410   34 228 
 BAR2 SZ ES   1    328  5.57                             166     0.1 7   34 228 
 GIR2 SZ EP        327 49.66                             163    -0.610   40 319 
 GIR2 SZ ES   1    328  5.40                             163    -0.2 7   40 319 
 RUS  BZ EP        327 53.52                             143    -0.610  101 188 
 RUS  BE ES   1    328 13.04                             143     0.5 7  101 188 
 RUS  BZ I         328 14.44        36.2 1.09                           101 188 
 OCA  SZ EP        327 59.00                             128     0.0 9  164 346 
 OCA  SZ ES   1    328 21.86                             128     0.6 7  164 346 
 CHI  HZ EP        328  8.60                             116    -0.2 8  255 200 
 CHI  HE ES   1    328 38.33                             116    -0.3 6  255 200 
 ROSC BZ EP        328 10.60                             115     0.8 8  264 215 
 ROSC BZ I         328 45.51        27.8 0.34                           264 215 
 HEL  HZ EP   1    328 12.64                             112    -0.3 5  293 257 
 HEL  HN ES   2    328 44.97                             112    -1.0 4  293 257 
 HEL  HZ I         328 50.06        15.2 0.16                           293 257 
 RREF BN ES   1    328 56.07                             109     0.2 5  338 232 
 RREF BZ I         329  1.44        21.6 0.22                           338 232 
 TOL  SZ EP   1    328 21.01                             108     0.6 5  359 227 
 TOL  SZ ES   1    328 59.84                             108     0.4 5  359 227 
 ANIL BE ES   2    329  2.71                             107     0.5 3  373 227 
 PRA  HE ES   2    329  6.69                             106    -1.2 3  403 212 
 PRA  HZ I         329 12.33        22.6 0.51                           403 212 
                                                                                
