 2017  726 0838  9.5 L   6.759 -73.166150.0  RSN  8 0.4 1.3LRSN                1
 GAP=207        0.85       5.0     5.3  6.1  0.1341E+02 -0.3791E+01  0.1108E+01E
 Epicentro: LOS SANTOS - SANTANDER                                             3
 ACTION:UPD 17-08-30 15:36 OP:rebc STATUS:               ID:20170726083809 L   I
 OLDACT:UP  17-07-26 17:06 OP:and  STATUS:               ID:20170726083739     3
 OLDACT:UP  17-07-26 17:06 OP:and  STATUS:               ID:20170726083739     3
 OLDACT:REG 17-07-26 12:59 OP:and  STATUS:               ID:20170726083739     3
 2017-07-26-0838-00M.COL___371                                                 6
 STAT SP IPHASW D HRMM SECON CODA AMPLIT PERI AZIMU VELO AIN AR TRES W  DIS CAZ7
 BAR2 EZ IP     D  838 29.52                             173   -0.0810 18.5 186 
 BAR2 EZ ES        838 44.62                             173   -0.6210 18.5 186 
 BAR2 EZ I         838 46.13         6.4 0.34            169           18.5 186 
 BRR  HZ EP     C  838 31.24                             153    0.0710 71.6 303 
 BRR  HN ES        838 48.37                             153    0.3210 71.6 303 
 RUS  HN ES        838 52.47                             146    0.4510 96.2 175 
 PTB  HZ EP   2    838 36.94                             133    0.35 5  145 260 
 PTB  HN ES   2    838 57.39                             133   -0.30 5  145 260 
 PTB  HZ I         839  3.29         1.1 0.28            130            145 260 
 SPBC HN ES        838 59.93                             131   -0.10 9  158 219 
 YPLC HZ EP        838 39.75                             128    0.38 9  174 150 
 ZAR  HN ES        839  7.66                             123   -0.08 9  204 294 
 ZAR  HZ I         839 13.63         3.0 0.34            121            204 294 
 PTGC HZ EP        838 52.59                             113   -0.62 7  305 158 
                                                                                
