 2011 1026 0950 19.5 L   6.835 -73.089145.7  RSN  5 0.2 1.6LRSN                1
 GAP=203        0.32       6.2     7.0  5.4  0.3365E+02 -0.2102E+01 -0.3004E+01E
 Epicentro: LOS SANTOS - SANTANDER                                             3
 ACTION:UPD 12-07-13 16:06 OP:ep   STATUS:               ID:20111026095019 L   I
 2011-10-26-0940-00M.COL___177                                                 6
 STAT SP IPHASW D HRMM SECON CODA AMPLIT PERI AZIMU VELO AIN AR TRES W  DIS CAZ7
 BAR2 SZ EP   1    950 39.17                             168   -0.03 7 28.8 201 
 BAR2 SZ ES   2    950 54.46                             168   -0.15 5 28.8 201 
 BAR2 SZ I         950 56.26         8.6 0.37                          28.8 201 
 GIR2 SZ ES   3    950 54.12                             168   -0.25 2 29.3 337 
 BRR  HZ EP   2    950 41.00                             151    0.18 5 75.1 294 
 BRR  HZ I         950 43.65         8.1 0.37                          75.1 294 
 BRR  HN ES   2    950 57.73                             151    0.24 5 75.1 294 
 RUS  HZ EP   2    950 43.41                             143   -0.06 5  104 180 
 RUS  HE ES   2    951  2.29                             143    0.09 5  104 180 
 RUS  HZ I         951  3.66         4.5 0.42                           104 180 
 ZAR  HN ES   2    951 17.77                             122   -0.24 4  208 291 
 ZAR  HZ I         951 22.62         4.4 0.34                           208 291 
                                                                                
