 2015  126 0551 43.4 L   6.805 -73.164141.9  RSN 18 0.5 2.4LRSN                1
 GAP= 70        1.18       2.9     3.1  5.6  0.2274E+00  0.5542E+01  0.3794E+00E
 Epicentro: LOS SANTOS - SANTANDER                                             3
 ACTION:UPD 15-03-02 15:42 OP:nd   STATUS:               ID:20150126055143 L   I
 OLDACT:UP  15-01-26 16:04 OP:cam  STATUS:               ID:20150126054806     3
 OLDACT:REG 15-01-26 14:54 OP:\cam STATUS:               ID:20150126054806     3
 2015-01-26-0548-06M.COL___274                                                 6
 STAT SP IPHASW D HRMM SECON CODA AMPLIT PERI AZIMU VELO AIN AR TRES W  DIS CAZ7
 BAR2 EZ IP     C  552  2.52                             170   -0.0410 23.6 185 
 BAR2 EZ ES        552 17.40                             170   -0.1210 23.6 185 
 BAR2 EZ I         552 18.23        47.2 0.12            170           23.6 185 
 BRR  HZ IP     C  552  4.44                             152    0.4310 69.2 299 
 BRR  HN ES        552 20.96                             152    0.8710 69.2 299 
 BRR  HZ I         552 22.21        49.7 0.16            150           69.2 299 
 PAM  SZ IP     C  552  5.38                             150    0.1310 78.2  41 
 PAM  SN ES        552 22.37                             150    0.0810 78.2  41 
 PAM  SZ I         552 23.29        17.1 0.20            153           78.2  41 
 RUS  HZ EP        552  6.60                             143   -0.2210  101 175 
 RUS  HN ES        552 24.92                             143   -0.1710  101 175 
 RUS  HZ I         552 26.52        20.9 0.44            145            101 175 
 PTB  HZ EP        552  9.61                             131   -0.27 9  146 258 
 PTB  HN ES        552 30.00                             131   -0.54 9  146 258 
 PTB  HZ I         552 34.50        34.1 0.10            130            146 258 
 TAM  HZ IP     C  552 10.93                             129   -0.03 9  157 105 
 TAM  HN ES        552 32.14                             129   -0.33 9  157 105 
 TAM  HZ I         552 32.92        23.0 0.22            133            157 105 
 OCA  HZ EP        552 10.95                             129   -0.38 9  159 354 
 OCA  HN ES        552 32.61                             129   -0.51 9  159 354 
 OCA  HZ I         552 37.59        31.8 0.66            129            159 354 
 SPBC HZ EP        552 11.63                             128    0.11 9  162 218 
 SPBC HE ES   1    552 33.25                             128   -0.21 7  162 218 
 SPBC HZ I         552 36.85        31.2 0.24            128            162 218 
 ZAR  HZ EP        552 15.56                             122    0.18 9  202 292 
 ZAR  HN ES        552 41.22                             122    0.90 9  202 292 
 ZAR  HZ I         552 49.21        26.9 0.34            121            202 292 
 NOR  HZ EP        552 19.25                             118    0.49 8  233 234 
 NOR  HN ES        552 45.62                             118   -0.73 8  233 234 
 NOR  HZ I         552 52.17        17.4 0.18            118            233 234 
 SML  HZ EP        552 18.77                             117   -0.89 8  242 336 
 SML  HN ES        552 48.84                             117    0.90 8  242 336 
 SML  HZ I         552 55.21        33.7 0.10            117            242 336 
 CHI  HZ EP   1    552 21.54                             116    0.65 6  249 195 
 CHI  HN ES        552 50.25                             116    0.12 8  249 195 
 CHI  HZ I         552 55.81         5.4 0.26            117            249 195 
 ROSC BZ EP   4    552 22.29                             116    1.04 0  252 211 
 HEL  HZ EP   4    552 24.85                             114    1.64 0  270 256 
 HEL  HN ES   4    552 55.46                             114    1.19 0  270 256 
 HEL  HZ I         553  1.90        13.7 0.30            114            270 256 
 URE  HZ EP   4    552 22.80                             113   -1.25 0  282 292 
 URE  HN ES        552 54.98                             113   -0.77 7  282 292 
 URE  HZ I         553  7.28        21.8 0.32            113            282 292 
 GUY2CHZ EP        552 27.43                             112    0.75 7  300 234 
 GUY2CHN ES        553  0.55                             112    0.11 7  300 234 
 GUY2CHZ I         553  9.86        10.9 0.54                           300 234 
 RREF HZ EP   4    552 31.21                             110    1.97 0  321 229 
 CBOC HZ EP        552 30.80                             109    0.85 7  332 252 
 DBB  SZ EP        552 30.84                             109    0.36 7  337 274 
 DBB  SZ ES        553  6.32                             109   -0.89 7  337 274 
 DBB  SZ I         553 14.62        24.8 0.32            109            337 274 
 MON  HZ EP   4 C  552 30.50                             108   -1.53 0  352 309 
 MON  HN ES        553  9.21                             108   -0.75 6  352 309 
 MON  HZ I         553  9.74         5.4 0.20            108            352 309 
                                                                                
