 2015  226 0103  6.5 L   6.605 -74.113 12.3  RSN  6 0.7 1.2LRSN                1
 GAP= 98        1.69       4.2     3.3  7.8 -0.2168E+01 -0.5723E+01  0.7282E+01E
 Epicentro: PUERTO PARRA - SANTANDER                                           3
 ACTION:UPD 15-04-30 21:29 OP:nd   STATUS:               ID:20150226010306 L   I
 OLDACT:REG 15-02-26 12:25 OP:mher STATUS:               ID:20150226005748     3
 2015-02-26-0057-48M.COL___298                                                 6
 STAT SP IPHASW D HRMM SECON CODA AMPLIT PERI AZIMU VELO AIN AR TRES W  DIS CAZ7
 PTB  HZ IP     C  1 3 13.46                             104    0.3810 38.6 259 
 PTB  HN ES        1 3 18.58                             104    0.3410 38.6 259 
 PTB  HZ I         1 3 19.82        19.0 0.18            104           38.6 259 
 BRR  HZ IP     C  1 3 18.31                              97    0.4010 71.1  39 
 BRR  HE ES        1 3 27.12                              97    0.2910 71.1  39 
 BRR  HZ I         1 3 28.06        15.4 0.44             97           71.1  39 
 ZAR  HZ EP        1 3 26.21                              94   -0.3110  128 320 
 ZAR  HN ES        1 3 41.04                              94   -1.1210  128 320 
 ZAR  HZ I         1 3 43.70         3.8 0.10             94            128 320 
 RUS  HZ EP        1 3 28.62                              94    0.02 9  139 125 
 RUS  HZ I         1 3 29.56         3.3 0.12             94            139 125 
 RUS  HE ES        1 3 44.85                              94   -1.01 9  139 125 
 PAM  SZ EP        1 3 34.73                              56    1.12 9  176  62 
 PAM  SN ES        1 3 54.38                              56   -0.41 9  176  62 
 PAM  SZ I         1 3 56.22         3.9 0.60             56            176  62 
 GUY2CHZ EP        1 3 38.35                              56    0.99 8  206 222 
 GUY2CHZ I         1 3 39.23         1.4 0.28                           206 222 
 GUY2CHN ES        1 4  0.80                              56   -0.66 8  206 222 
                                                                                
