 2016 1226 0436 13.8 L   6.766 -73.172150.4  RSN  4 0.3 0.6LRSN                1
 GAP=232        0.85       7.1     7.0  7.0  0.2672E+02  0.8384E+01  0.3751E+01E
 Epicentro: LOS SANTOS - SANTANDER                                             3
 ACTION:UPD 17-01-11 20:19 OP:rebc STATUS:               ID:20161226043613 L   I
 OLDACT:UP  16-12-26 16:34 OP:edw  STATUS:               ID:20161226042748d    3
 OLDACT:DUP 16-12-26 16:31 OP:edw  STATUS:               ID:20161226042748d    3
 OLDACT:REG 16-12-26 12:43 OP:edw  STATUS:               ID:20161226042747     3
 2016-12-26-0428-00M.COL___369                                                 6
 STAT SP IPHASW D HRMM SECON CODA AMPLIT PERI AZIMU VELO AIN AR TRES W  DIS CAZ7
 BAR2 HZ ES        436 49.09                             172   -0.4810 19.3 183 
 BRR  HZ EP        436 35.32                             154   -0.0610 70.5 302 
 BRR  HE ES        436 52.64                             154    0.4010 70.5 302 
 BRR  HZ I         436 58.21         1.1 0.48            154           70.5 302 
 RUS  HZ EP        436 38.09                             146    0.3610 97.1 174 
 RUS  HN ES        436 56.53                             146    0.1010 97.1 174 
 RUS  HZ I         436 57.79         0.4 0.12            151           97.1 174 
 PTB  HZ EP        436 40.36                             134   -0.43 9  144 260 
 PTB  HN ES        437  1.93                             134    0.05 9  144 260 
 PTB  HZ I         437  3.27         0.6 0.05            137            144 260 
                                                                                
