 2011 1126 0122  7.1 L   6.795 -73.017129.5  RSN  4 0.3 1.4LRSN                1
 GAP=154        0.48       5.1     7.7 11.3 -0.6400E+01 -0.1979E+02  0.1776E+02E
 Epicentro: CEPITA - SANTANDER                                                 3
 ACTION:UPD 12-07-13 16:12 OP:ep   STATUS:               ID:20111126012207 L   I
 2011-11-26-0120-22S.COL___160                                                 6
 STAT SP IPHASW D HRMM SECON CODA AMPLIT PERI AZIMU VELO AIN AR TRES W  DIS CAZ7
 BAR2 SZ EP   2    122 24.52                             167   -0.40 5 28.9 219 
 BAR2 SZ I         122 40.75         6.9 0.43                          28.9 219 
 PAM  SZ EP   2    122 27.63                             150    0.50 5 69.7  30 
 PAM  SN ES   2    122 42.54                             150   -0.22 5 69.7  30 
 BRR  HZ I         122 40.76         8.8 0.58                          84.2 294 
 BRR  HE ES   2    122 43.28                             145    0.08 5 84.2 294 
 RUS  HZ EP   2    122 29.05                             140   -0.20 5  100 184 
 RUS  HN ES   2    122 46.77                             140    0.25 5  100 184 
 RUS  HZ I         122 48.99         2.8 0.30                           100 184 
                                                                                
