 2011  326 0724 51.1 L   6.805 -73.141143.6  RSN 13 0.3 2.2LRSN                1
 GAP=114        0.60       2.4     3.5  4.3 -0.1711E+01  0.1102E+01  0.4232E+01E
 Epicentro: LOS SANTOS - SANTANDER                                             3
 ACTION:UP  11-06-16 14:35 OP:jfem STATUS:               ID:20110326072451 L   I
 2011-03-26-0721-48S.COL___139                                                 6
 STAT SP IPHASW D HRMM SECON CODA AMPLIT PERI AZIMU VELO SNR AR TRES W  DIS CAZ7
 BTL  SZ EP        725 10.48                             172     0.110   19 312 
 BAR2 SZ EP        725 10.37                             170    -0.110   24 191 
 BAR2 SZ ES   1    725 25.03                             170    -0.6 7   24 191 
 BAR2 SZ I         725 26.73        48.3 0.17                            24 191 
 GIR2 SZ EP   1    725 10.46                             167    -0.1 7   31 349 
 BRR  HZ IP     D  725 12.24                             152     0.210   71 298 
 BRR  HE ES   1    725 28.91                             152     0.5 7   71 298 
 BRR  HZ I         725 31.74        25.6 0.23                            71 298 
 PAM  SZ EP   1    725 13.24                             151     0.2 7   77  39 
 PAM  SZ I         725 13.57        14.1 0.18                            77  39 
 PAM  SN ES   1    725 30.32                             151     0.2 7   77  39 
 GRA  SZ EP   1    725 16.11                             137     0.0 7  125  17 
 GRA  SZ ES   1    725 35.50                             137    -0.1 7  125  17 
 GRA  SZ I         725 36.85        16.0 0.45                           125  17 
 OCA  SZ EP   1    725 19.13                             129    -0.1 7  160 353 
 OCA  SZ ES   2    725 40.42                             129    -0.7 5  160 353 
 OCA  SZ I         725 44.08        22.9 0.18                           160 353 
 YOP  SZ EP        725 21.15                             126     0.1 9  179 154 
 YOP  SN ES   1    725 44.47                             126     0.1 7  179 154 
 YOP  SZ I         725 45.85         8.6 0.34                           179 154 
 NOR  SZ EP   1    725 26.76                             118    -0.1 6  236 235 
 NOR  SN ES   1    725 54.59                             118    -0.1 6  236 235 
 ROSC BZ EP   2    725 29.98                             116     0.8 4  254 211 
 ROSC BE ES   1    725 58.87                             116     0.0 6  254 211 
 ROSC BZ I         726  6.65        14.2 0.58                           254 211 
 VIL  SZ EP   1    725 34.31                             112    -0.2 5  304 192 
 VIL  SN ES   2    726  8.50                             112     0.1 4  304 192 
 PRA  HZ EP        725 44.41                             106    -0.2 6  393 210 
 SJA  SZ EP        725 45.42                             106    -0.3 6  401 193 
 SJA  SZ I         726 39.53        12.9 0.40                           401 193 
                                                                                
