 2016  926 0301 33.6 L   6.801 -73.144148.4  RSN 11 0.4 1.8LRSN                1
 GAP=137        1.05       3.5     4.3  7.7 -0.3477E+01  0.3916E+01  0.1674E+01E
 Epicentro: LOS SANTOS - SANTANDER                                             3
 ACTION:UPD 17-08-17 21:16 OP:lp   STATUS:               ID:20160926030133 L   I
 OLDACT:UP  16-09-26 15:28 OP:dani STATUS:               ID:20160926025744     3
 OLDACT:UP  16-09-26 15:25 OP:dani STATUS:               ID:20160926025744     3
 OLDACT:REG 16-09-26 12:46 OP:dani STATUS:               ID:20160926025744     3
 2016-09-26-0258-00M.COL___327                                                 6
 STAT SP IPHASW D HRMM SECON CODA AMPLIT PERI AZIMU VELO AIN AR TRES W  DIS CAZ7
 BAR2 EZ EP        3 1 53.51                             171    0.0010 23.5 191 
 BAR2 EZ I         3 2  9.52        19.3 0.14            170           23.5 191 
 BRR  HZ EP     C  3 1 55.35                             153    0.3510 71.3 298 
 BRR  HN ES        3 2 12.34                             153    0.6210 71.3 298 
 BRR  HZ I         3 2 13.44         9.3 0.32            145           71.3 298 
 PAM  EZ EP        3 1 56.38                             151    0.3410 77.1  39 
 PAM  EE ES        3 2 13.63                             151    0.0610 77.1  39 
 PAM  EZ I         3 2 15.73        10.4 0.50            140           77.1  39 
 RUS  HZ EP        3 1 57.85                             144    0.2710  101 176 
 RUS  HE ES        3 2 15.93                             144   -0.3810  101 176 
 RUS  HZ I         3 2 16.92         5.0 0.24            135            101 176 
 PTB  HZ EP        3 2  0.22                             133   -0.54 9  148 259 
 PTB  HE ES        3 2 21.57                             133   -0.41 9  148 259 
 PTB  HZ I         3 2 23.35         8.1 0.22            123            148 259 
 OCA  HZ EP        3 2  1.96                             130   -0.10 9  160 353 
 OCA  HE ES        3 2 23.37                             130   -0.93 9  160 353 
 OCA  HZ I         3 2 27.03        15.4 0.22            119            160 353 
 SPBC HZ EP        3 2  2.50                             130    0.22 9  163 219 
 SPBC HN ES        3 2 24.60                             130   -0.09 9  163 219 
 SPBC HZ I         3 2 30.66         8.8 0.24            120            163 219 
 ZAR  HZ EP   4    3 2  7.64                             123    1.45 0  204 292 
 ZAR  HN ES        3 2 32.17                             123    0.52 9  204 292 
 ZAR  HZ I         3 2 34.56         5.8 0.19            113            204 292 
 NOR  HE ES        3 2 37.36                             119   -0.12 8  235 234 
 GUY2CHZ EP   4    3 2 19.19                             113    1.87 0  301 235 
 GUY2CHZ I         3 3  0.09         3.2 0.52                           301 235 
 SJC  HZ EP   4    3 2 27.83                             106   -1.38 0  409 327 
 SJC  HZ I         3 3 14.83         1.0 0.44             98            409 327 
                                                                                
