 2012 1126 0150 26.3 L   6.795 -73.156139.5  RSN 15 0.5 2.4LRSN                1
 GAP= 71        1.07       2.6     3.0  5.7 -0.3710E+00  0.6013E+01  0.6951E+00E
 Epicentro: LOS SANTOS - SANTANDER                                             3
 ACTION:UPD 12-12-05 15:36 OP:}ep  STATUS:               ID:20121126015026 L   I
 2012-11-26-0150-00M.COL___233                                                 6
 STAT SP IPHASW D HRMM SECON CODA AMPLIT PERI AZIMU VELO AIN AR TRES W  DIS CAZ7
 BAR2 SZ IP        150 45.42                             170    0.2410 22.6 187 
 BAR2 SZ ES        150 59.67                             170   -0.2210 22.6 187 
 BAR2 SZ I         151  0.91        82.3 0.22                          22.6 187 
 GIR2 SZ EP        150 45.51                             167    0.2510 31.6 352 
 PAM  SZ EP        150 48.28                             149    0.3410 78.5  40 
 PAM  SN ES        151  5.02                             149    0.2210 78.5  40 
 PAM  SN I         151  6.23        74.3 0.48                          78.5  40 
 RUS  HZ EP        150 49.82                             142    0.4010  100 175 
 RUS  HN ES        151  7.16                             142   -0.2910  100 175 
 RUS  HN I         151  8.31        43.1 0.22                           100 175 
 PTB  HZ EP        150 52.17                             131   -0.50 9  147 259 
 PTB  HN ES        151 12.74                             131   -0.48 9  147 259 
 PTB  HN I         151 15.44        47.1 0.32                           147 259 
 TAM  HZ IP     D  150 53.74                             129    0.14 9  156 105 
 TAM  HE ES        151 15.01                             129    0.14 9  156 105 
 TAM  HN I         151 15.66        31.8 0.66                           156 105 
 OCA  HZ EP        150 53.77                             128   -0.42 9  161 354 
 OCA  HN ES        151 15.31                             128   -0.61 9  161 354 
 OCA  HZ I         151 20.81        23.5 0.24                           161 354 
 ZAR  HZ EP        150 58.44                             121    0.17 9  203 292 
 ZAR  HN ES        151 24.21                             121    1.01 9  203 292 
 ZAR  HN I         151 25.22        61.4 0.58                           203 292 
 NOR  HZ EP        151  1.87                             117    0.31 8  233 234 
 NOR  HN ES        151 29.23                             117    0.19 8  233 234 
 NOR  HN I         151 38.22        27.1 0.16                           233 234 
 SML  HZ EP        151  1.77                             116   -0.83 8  244 336 
 SML  HE ES        151 31.42                             116    0.52 8  244 336 
 SML  HE I         151 37.56        46.7 0.10                           244 336 
 CHI  HZ EP        151  3.75                             116    0.16 8  248 195 
 CHI  HN ES        151 31.73                             116   -0.93 8  248 195 
 CHI  HN I         151 38.94        11.8 0.52                           248 195 
 HEL  HE ES        151 37.54                             113    0.44 8  271 256 
 RREF HZ EP        151 12.26                             110    0.20 7  321 229 
 RREF HN ES        151 48.06                             110    0.33 7  321 229 
 RREF HZ I         151 59.45         3.6 0.28                           321 229 
 MON  HE ES        151 52.11                             107   -0.89 6  353 309 
 MON  HN I         151 52.85        11.7 0.18                           353 309 
 PRA  HZ EP        151 19.07                             105   -0.44 6  391 209 
 PRA  HN ES        152  1.11                             105    0.11 6  391 209 
 PRA  HN I         152  6.51         3.8 0.68                           391 209 
                                                                                
