 2013  126 0746 35.0 L   6.762 -73.178138.8  RSN  5 0.5 1.5LRSN                1
 GAP=134        1.21       6.9     6.9 13.0 -0.2828E+01  0.2420E+02 -0.2489E+01E
 Epicentro: VILLANUEVA - SANTANDER                                             3
 ACTION:UPD 13-02-15 09:16 OP:ep   STATUS:               ID:20130126074635 L   I
 2013-01-26-0738-41M.COL___186                                                 6
 STAT SP IPHASW D HRMM SECON CODA AMPLIT PERI AZIMU VELO AIN AR TRES W  DIS CAZ7
 BAR2 SZ EP        746 53.75                             172    0.0910 18.8 181 
 BAR2 SZ ES        747  7.86                             172   -0.3810 18.8 181 
 BAR2 SZ I         747 10.91         5.7 0.18            173           18.8 181 
 BRR  HZ EP        746 55.44                             151    0.1510 70.2 303 
 BRR  HN ES        747 11.97                             151    0.8110 70.2 303 
 BRR  HN I         747 13.24         9.3 0.22            153           70.2 303 
 PAM  SN ES        747 13.41                             148   -0.3910 82.9  40 
 RUS  HN ES        747 15.83                             143    0.3210 96.7 174 
 PTB  HE ES        747 20.57                             131   -0.68 9  143 260 
                                                                                
