 2017  426 0008 21.3 L   6.789 -73.155143.4  RSN 11 0.5 2.1LRSN                1
 GAP=111        1.12       3.8     3.8  7.3  0.8965E+00  0.7635E+01  0.8030E+01E
 Epicentro: LOS SANTOS - SANTANDER                                             3
 ACTION:UPD 17-05-30 21:16 OP:jn   STATUS:               ID:20170426000821 L   I
 OLDACT:UP  17-04-26 12:49 OP:dani STATUS:               ID:20170426000000     3
 OLDACT:REG 17-04-26 12:10 OP:dani STATUS:               ID:20170426000000     3
 2017-04-26-0000-15M.COL___374                                                 6
 STAT SP IPHASW D HRMM SECON CODA AMPLIT PERI AZIMU VELO AIN AR TRES W  DIS CAZ7
 BRR  HZ IP     C  0 8 42.24                             152    0.0810 70.9 300 
 BRR  HN ES        0 8 59.12                             152    0.6910 70.9 300 
 BRR  HZ I         0 9  2.27        24.5 0.16            149           70.9 300 
 PAM  EZ EP     C  0 8 43.22                             150   -0.1310 79.0  40 
 PAM  EN ES        0 8 60.00                             150   -0.5510 79.0  40 
 PAM  EZ I         0 9  1.79        21.0 0.20            153           79.0  40 
 PTB  HZ EP        0 8 46.95                             132   -0.99 9  146 259 
 PTB  HN ES   3    0 9  7.46                             132   -1.27 2  146 259 
 PTB  HZ I         0 9 10.43        25.4 0.22            131            146 259 
 SPBC HZ EP        0 8 49.45                             129    0.01 9  162 219 
 SPBC HN ES        0 9 11.33                             129   -0.08 9  162 219 
 SPBC HZ I         0 9 14.52        23.4 0.28            129            162 219 
 YPLC HZ EP        0 8 50.86                             126    0.01 9  176 151 
 YPLC HN ES        0 9 14.21                             126    0.30 9  176 151 
 YPLC HZ I         0 9 16.95        16.0 0.25            129            176 151 
 ZAR  HZ EP        0 8 53.74                             122    0.22 9  204 293 
 ZAR  HN ES        0 9 19.37                             122    0.70 9  204 293 
 ZAR  HZ I         0 9 27.33        18.4 0.58            122            204 293 
 NOR  HZ EP        0 8 56.81                             118    0.10 8  233 235 
 NOR  HN ES        0 9 23.74                             118   -0.59 8  233 235 
 NOR  HZ I         0 9 26.26        13.1 0.14            118            233 235 
 CHI  HZ EP        0 8 58.83                             117    0.14 8  247 195 
 CHI  HN ES        0 9 28.29                             117    0.43 8  247 195 
 CHI  HZ I         0 9 31.03         3.8 0.24            118            247 195 
 HEL  HZ EP        0 9  1.94                             114    0.71 8  271 256 
 HEL  HN ES        0 9 31.59                             114   -0.79 8  271 256 
 HEL  HZ I         0 9 40.02        10.5 0.48            115            271 256 
 CBOC HZ EP        0 9  8.53                             110    0.59 7  332 252 
 CBOC HN ES        0 9 44.11                             110   -0.22 7  332 252 
 CBOC HZ I         010  0.02         2.6 0.33            110            332 252 
 SJC  HZ EP        0 9 16.28                             105   -0.55 6  410 327 
 SJC  HN ES   4    0 9 57.27                             105   -2.87 0  410 327 
 SJC  HZ I         010 10.23         2.0 0.59            106            410 327 
                                                                                
