 2012  326 0439 32.9 L   6.814 -73.127143.3  RSN 17 0.5 3.3LRSN                1
 GAP=104        1.22       4.4     5.1  7.9 -0.2835E+01  0.5186E+01  0.4466E+01E
 ACTION:UP  12-03-31 23:22 OP:EP   STATUS:               ID:20120326043932 L   I
 2012-03-26-0437-36M.COL___169                                                 6
 STAT SP IPHASW D HRMM SECON CODA AMPLIT PERI AZIMU VELO SNR AR TRES W  DIS CAZ7
 BAR2 SZ IP        439 52.34                             170     0.110   25 194 
 BAR2 SZ I         440  9.92       680.4 0.32                            25 194 
 BRR  HZ EP        439 54.07                             152     0.210   72 297 
 BRR  HN ES   1    440 10.53                             152     0.4 7   72 297 
 BRR  HZ I         440 15.48       337.0 0.14                            72 297 
 PAM  SZ EP        439 55.11                             151     0.410   75  39 
 PAM  SN ES   1    440 11.99                             151     0.3 7   75  39 
 RUS  HZ EP        439 56.30                             143    -0.210  102 177 
 RUS  HN ES   1    440 14.59                             143    -0.3 7  102 177 
 RUS  HZ I         440 16.09       242.5 0.32                           102 177 
 PTB  HZ EP        439 59.24                             131    -0.6 9  150 258 
 PTB  HN ES   1    440 19.78                             131    -1.1 7  150 258 
 PTB  HZ I         440 21.98       228.0 0.34                           150 258 
 OCA  SZ EP        440  0.82                             129    -0.1 9  159 352 
 YOP  SZ EP        440  2.96                             126     0.2 9  179 154 
 YOP  SN ES   1    440 26.38                             126     0.2 7  179 154 
 YOP  SZ I         440 31.21       137.7 0.60                           179 154 
 ZAR  HZ EP   1    440  4.98                             122    -0.3 6  205 292 
 ZAR  HZ I         440 36.79       223.5 0.38                           205 292 
 NOR  SZ EP        440  8.87                             118     0.1 8  237 234 
 NOR  SE ES   1    440 36.67                             118    -0.1 6  237 234 
 CHI  HZ EP        440 10.44                             116    -0.2 8  251 196 
 CHI  HN ES   1    440 39.58                             116    -0.6 6  251 196 
 ROSC BE ES   1    440 41.59                             116     0.6 6  255 211 
 ROSC BZ I         440 49.19       200.1 0.55                           255 211 
 HEL  HZ EP        440 14.16                             114     0.9 8  274 256 
 VIL  SZ EP   1    440 15.70                             111    -0.7 5  305 192 
 VIL  SZ I         440 54.24        66.4 0.34                           305 192 
 GUY  SZ EP   2    440 16.90                             111     0.0 4  306 235 
 GUY  SE ES   3    440 52.48                             111     1.2 2  306 235 
 GUY  SZ I         440 59.55       199.2 0.32                           306 235 
 RREF HZ EP        440 20.36                             110     1.1 7  324 229 
 RREF HZ I         441  4.70       118.5 0.24                           324 229 
 SDV  BZ EP        440 21.62                             108    -0.9 6  358  50 
 YOT  HZ EP   2    440 35.60                             103    -0.6 2  474 229 
 YOT  HZ I         440 38.07        28.4 0.54                           474 229 
                                                                                
