 2015  826 0043 54.4 L   6.640 -73.560 18.3  RSN  8 0.4 1.6LRSN                1
 GAP= 85        1.07       2.4     3.5  5.7  0.2519E+01  0.1492E+02  0.2165E+01E
 Epicentro: EL CARMEN - SANTANDER                                              3
 ACTION:UPD 15-09-15 23:05 OP:cam  STATUS:               ID:20150826004354 L   I
 OLDACT:REG 15-08-26 12:54 OP:ak   STATUS:               ID:20150826003750     3
 2015-08-26-0037-50M.COL___349                                                 6
 STAT SP IPHASW D HRMM SECON CODA AMPLIT PERI AZIMU VELO AIN AR TRES W  DIS CAZ7
 BAR2 EZ IP     D  044  2.42                             111    0.3810 42.1  97 
 BAR2 EZ ES        044  7.84                             111   -0.1510 42.1  97 
 BAR2 EZ I         044  8.78        28.3 0.13             47           42.1  97 
 BRR  HZ EP        044  3.41                             106   -0.1210 54.3 342 
 BRR  HN ES        044 10.36                             106   -0.2910 54.3 342 
 BRR  HZ I         044 11.14        26.7 0.08             47           54.3 342 
 RUS  HZ EP        044 10.99                              99    0.4510 98.1 147 
 RUS  HN ES        044 22.27                              99   -0.8510 98.1 147 
 RUS  HZ I         044 23.82        10.2 0.10             47           98.1 147 
 PAM  EZ EP        044 15.06                              97    0.8410  123  51 
 PAM  EN ES        044 29.45                              97   -0.2110  123  51 
 PAM  EZ I         044 30.73        12.4 0.30             47            123  51 
 ZAR  HZ EP        044 20.06                              56    0.16 9  172 303 
 ZAR  HN ES        044 39.53                              56   -0.26 9  172 303 
 ZAR  HZ I         044 41.30         5.8 0.11             47            172 303 
 HEL  HZ EP        044 27.39                              56    0.58 8  223 257 
 HEL  HN ES        044 52.13                              56    0.05 8  223 257 
 HEL  HZ I         044 55.10         3.2 0.44             37            223 257 
 SML  HZ EP   1    044 28.78                              56   -0.35 6  246 347 
 SML  HE ES        044 55.91                              56   -0.31 8  246 347 
 SML  HZ I         045  1.77         9.3 0.27             37            246 347 
 GUY2CHZ EP   1    044 30.63                              56   -0.12 6  254 232 
                                                                                
