 2017  926 0043  9.7 L   6.618 -74.118  4.0  RSN  5 0.5 1.1LRSN                1
 GAP=128        1.15       3.2     2.4  7.5 -0.4938E+00  0.9066E+00 -0.4755E+01E
 Epicentro: PUERTO PARRA - SANTANDER                                           3
 ACTION:UPD 17-10-05 19:16 OP:rebc STATUS:               ID:20170926004309 L   I
 OLDACT:REG 17-09-26 12:33 OP:osc  STATUS:               ID:20170926003737     3
 2017-09-26-0038-00M.COL___438                                                 6
 STAT SP IPHASW D HRMM SECON CODA AMPLIT PERI AZIMU VELO AIN AR TRES W  DIS CAZ7
 BRR  HZ EP        043 21.02                              47    0.0510 70.2  40 
 BRR  HE ES        043 29.47                              47   -0.2710 70.2  40 
 BRR  HZ I         043 30.06         7.9 0.11             95           70.2  40 
 ZAR  HN ES        043 45.03                              47    0.0710  127 320 
 RUS  HZ EP        043 32.87                              47    0.85 9  140 125 
 RUS  HN ES        043 48.83                              47   -0.58 9  140 125 
 RUS  HZ I         043 52.99         2.1 0.26             92            140 125 
 HEL  HZ EP        043 36.02                              47    0.59 9  163 253 
 HEL  HN ES        043 54.79                              47   -0.67 9  163 253 
 HEL  HZ I         043 57.19         4.7 0.34             56            163 253 
 PAM  EZ EP        043 37.40                              47   -0.08 9  176  63 
 PAM  EE ES        043 59.17                              47    0.05 9  176  63 
                                                                                
