 2012  526 1953 52.1 L   6.773 -73.176148.8  RSN  5 0.2 1.3LRSN                1
 GAP=134        0.48       4.8     3.6  6.2  0.5641E+01  0.5508E+00 -0.1063E+02E
 Epicentro: LOS SANTOS - SANTANDER                                             3
 ACTION:UP  12-07-05 12:08 OP:pat  STATUS:               ID:20120526195352 L   I
 2012-05-26-1950-00M.COL___197                                                 6
 STAT SP IPHASW D HRMM SECON CODA AMPLIT PERI AZIMU VELO SNR AR TRES W  DIS CAZ7
 BAR2 SZ ES   1   1954 27.41                             172    -0.2 7   20 182 
 BAR2 SZ I        1954 28.59         6.7 0.17                            20 182 
 PAM  SZ EP   1   1954 14.93                             150     0.0 7   82  40 
 PAM  SZ I        1954 15.23         4.5 0.20                            82  40 
 RUS  HZ EP   1   1954 15.74                             145    -0.2 7   98 174 
 RUS  HN ES   1   1954 34.84                             145     0.3 7   98 174 
 RUS  HZ I        1954 35.88         2.1 0.47                            98 174 
 PTB  HZ EP   1   1954 18.98                             133     0.0 7  144 260 
 PTB  HN ES   1   1954 39.75                             133    -0.2 7  144 260 
 PTB  HZ I        1954 42.34         1.8 0.10                           144 260 
 ZAR  HN ES   1   1954 50.02                             123     0.2 6  202 293 
                                                                                
