 2013  626 1831 27.2 L   6.810 -73.152148.5  RSN 10 0.5 1.9LRSN                1
 GAP=135        0.95       3.9     4.9  7.5  0.2437E+00  0.5738E+01 -0.2696E+01E
 Epicentro: LOS SANTOS - SANTANDER                                             3
 ACTION:UPD 14-01-08 09:57 OP:ep   STATUS:               ID:20130626183127 L   I
 OLDACT:REG 13-06-26 15:56 OP:carl STATUS:               ID:20130626182959     3
 2013-06-26-1829-59M.COL___267                                                 6
 STAT SP IPHASW D HRMM SECON CODA AMPLIT PERI AZIMU VELO AIN AR TRES W  DIS CAZ7
 BAR2 SZ EP   1   1831 47.04                             170   -0.15 7 24.3 188 
 BAR2 SZ ES   1   1832  2.26                             170   -0.51 7 24.3 188 
 BAR2 SZ I        1832  3.70        13.9 0.40            170           24.3 188 
 GIR2 SZ EP   1   1831 47.06                             168   -0.11 7 30.0 351 
 BRR  HZ EP   1   1831 48.97                             153    0.38 7 70.0 298 
 BRR  HN ES   1   1832  6.30                             153    1.04 7 70.0 298 
 BRR  HN I        1832 10.69        32.7 0.44            150           70.0 298 
 PAM  SZ EP       1831 49.79                             151    0.1010 77.0  40 
 PAM  SN ES   1   1832  7.26                             151    0.04 7 77.0  40 
 PAM  SZ I        1832  9.26        11.0 0.60            155           77.0  40 
 RUS  HZ EP   1   1831 51.10                             144   -0.21 7  102 176 
 RUS  HE ES   1   1832 10.03                             144   -0.08 7  102 176 
 RUS  HZ I        1832 10.83         6.1 0.28            149            102 176 
 PTB  HZ EP   1   1831 53.77                             133   -0.59 7  147 258 
 PTB  HN ES       1832 14.98                             133   -0.55 9  147 258 
 PTB  HZ I        1832 22.27         9.9 0.34            133            147 258 
 OCA  HZ I        1832 21.96         9.6 0.36            132            159 353 
 ZAR  HZ EP   1   1832  0.61                             123    0.89 6  203 292 
 ZAR  HE ES   1   1832 25.01                             123   -0.07 6  203 292 
 ZAR  HZ I        1832 32.11         9.9 0.32            124            203 292 
 SML  HZ EP   1   1832  3.27                             118   -0.58 6  242 335 
 SML  HN ES   1   1832 32.40                             118   -0.02 6  242 335 
 SML  HZ I        1832 34.94        11.6 0.30            120            242 335 
 CHI  HE ES       1832 35.29                             118    0.53 8  250 195 
                                                                                
