 2014 1026 1211 21.5 L   6.629 -73.205136.0  RSN  4 0.5 1.1LRSN                1
 GAP=195        1.16       8.5     8.4 10.2  0.3569E+02  0.1069E+02  0.3175E+01E
 Epicentro: BARICHARA - SANTANDER                                              3
 ACTION:UPD 14-11-29 23:57 OP:nd   STATUS:               ID:20141026121121 L   I
 OLDACT:REG 14-10-29 15:17 OP:fm   STATUS:               ID:20141026120745     3
 2014-10-26-1207-45M.COL___277                                                 6
 STAT SP IPHASW D HRMM SECON CODA AMPLIT PERI AZIMU VELO AIN AR TRES W  DIS CAZ7
 BAR2 SZ EP       1211 40.00                             178    0.2610 4.79 148 
 BAR2 SZ ES   1   1211 54.20                             178    0.25 7 4.79 148 
 BAR2 SZ I        1211 56.47         3.5 0.24            166           4.79 148 
 BRR  HZ EP       1211 41.58                             149   -0.4110 77.0 313 
 BRR  HN ES       1211 57.91                             149   -0.0310 77.0 313 
 BRR  HZ I        1211 59.70         4.4 0.32            149           77.0 313 
 RUS  HZ EP       1211 43.78                             147    0.7310 82.5 171 
 RUS  HN ES       1211 59.22                             147   -0.6210 82.5 171 
 RUS  HZ I        1212  5.86         0.8 0.34            144           82.5 171 
 PTB  HZ EP       1211 46.38                             131   -0.50 9  139 266 
 PTB  HN ES       1212  7.06                             131    0.41 9  139 266 
 PTB  HZ I        1212 15.22         2.3 0.38            130            139 266 
                                                                                
