 2014  126 1734 44.7 L   7.418 -73.227134.1  RSN  6 0.4 1.7LRSN                1
 GAP=116        1.07       4.1     5.6  8.3 -0.3339E+01  0.8697E+01  0.1651E+01E
 Epicentro: EL PLAYON - SANTANDER                                              3
 ACTION:UPD 14-03-13 09:58 OP:ep   STATUS:               ID:20140126173444 L   I
 OLDACT:DUP 14-01-26 19:29 OP:stll STATUS:               ID:20140126172817d    3
 2014-01-26-1728-15M.COL___243                                                 6
 STAT SP IPHASW D HRMM SECON CODA AMPLIT PERI AZIMU VELO AIN AR TRES W  DIS CAZ7
 PAM  SZ EP       1735  4.67                             155    0.0610 58.8  98 
 PAM  SN ES       1735 19.56                             155   -0.5910 58.8  98 
 PAM  SZ I        1735 20.92        11.7 0.16            156           58.8  98 
 BRR  HN ES       1735 19.81                             153    0.4710 63.7 237 
 BRR  HZ I        1735 20.90        18.6 0.14            152           63.7 237 
 OCA  HZ EP       1735  5.80                             144   -0.3610 91.3 354 
 OCA  HE ES       1735 23.19                             144    0.2910 91.3 354 
 OCA  HZ I        1735 25.14        12.4 0.16            146           91.3 354 
 BAR2 SZ EP       1735  6.64                             144    0.3610 91.4 177 
 BAR2 SZ ES       1735 23.29                             144    0.1710 91.4 177 
 BAR2 SZ I        1735 23.97        16.3 0.16            143           91.4 177 
 PTB  HZ EP       1735 12.86                             125    0.26 9  167 235 
 PTB  HN ES       1735 33.54                             125   -0.84 9  167 235 
 PTB  HZ I        1735 37.24         7.3 0.42            125            167 235 
 RUS  HN ES       1735 36.02                             125    0.10 9  169 175 
 RUS  HZ I        1735 42.96         1.4 0.42            125            169 175 
                                                                                
