 2014  526 1016 58.5 L   6.797 -73.120140.2  RSN 10 0.5 1.8LRSN                1
 GAP=185        1.12       3.4     5.6  6.2  0.3861E+01  0.2488E+01 -0.2490E+01E
 Epicentro: LOS SANTOS - SANTANDER                                             3
 ACTION:UPD 15-03-16 17:00 OP:nd   STATUS:               ID:20140526101658 L   I
 OLDACT:UP  14-05-27 01:57 OP:nlst STATUS:               ID:20140526101658 L   3
 OLDACT:DUP 14-05-26 23:55 OP:stll STATUS:               ID:20140526100819d    3
 2014-05-26-1008-17M.col___274                                                 6
 STAT SP IPHASW D HRMM SECON CODA AMPLIT PERI AZIMU VELO AIN AR TRES W  DIS CAZ7
 BAR2 SZ EP       1017 17.91                             170    0.4310 23.6 197 
 BAR2 SZ I        1017 18.12        23.8 0.34            167           23.6 197 
 BAR2 SZ ES       1017 32.16                             170   -0.1210 23.6 197 
 BRR  HZ EP       1017 19.89                             151    0.6710 73.8 298 
 BRR  HN ES       1017 35.62                             151    0.2510 73.8 298 
 BRR  HZ I        1017 40.86        12.7 0.32            149           73.8 298 
 RUS  HZ EP       1017 21.72                             143    0.0310  100 178 
 RUS  HZ I        1017 22.40         4.1 0.24            143            100 178 
 RUS  HN ES       1017 39.22                             143   -0.5410  100 178 
 PTB  HZ EP       1017 24.64                             130   -0.64 9  150 259 
 PTB  HE ES       1017 46.40                             130    0.24 9  150 259 
 OCA  HZ EP       1017 26.64                             128    0.17 9  161 352 
 SPBC HZ EP       1017 26.89                             127    0.15 9  165 220 
 SPBC HN ES       1017 48.78                             127    0.03 9  165 220 
 ZAR  HZ EP       1017 30.56                             121   -0.33 8  207 292 
 ZAR  HE ES       1017 56.16                             121    0.02 8  207 292 
 ZAR  HZ I        1018  1.77        11.1 0.44            121            207 292 
 SML  HZ EP       1017 34.24                             116   -0.76 8  245 335 
 SML  HE ES       1018  3.03                             116   -0.43 8  245 335 
 CHI  HZ EP       1017 36.16                             116    0.20 8  249 196 
 CHI  HE ES       1018  4.94                             116   -0.22 8  249 196 
 CHI  HZ I        1018 15.15         2.3 0.40            116            249 196 
 GUY2CHZ EP       1017 43.23                             111    1.12 7  303 235 
 GUY2CHE ES   2   1018 14.15                             111   -1.96 4  303 235 
 GUY2CHZ I        1018 23.07         2.8 0.42                           303 235 
                                                                                
