 2016 1226 1600  1.6 L   6.845 -73.166145.5  RSN  5 0.4 1.7LRSN                1
 GAP=146        1.02       5.1     6.0  7.6 -0.8683E+01  0.1018E+02  0.6210E+01E
 Epicentro: ZAPATOCA - SANTANDER                                               3
 ACTION:UPD 17-01-11 20:19 OP:rebc STATUS:               ID:20161226160001 L   I
 OLDACT:REG 16-12-26 20:43 OP:cog  STATUS:               ID:20161226155744     3
 2016-12-26-1558-00M.COL___369                                                 6
 STAT SP IPHASW D HRMM SECON CODA AMPLIT PERI AZIMU VELO AIN AR TRES W  DIS CAZ7
 BAR2 EZ EP       16 0 21.18                             169   -0.0910 28.0 184 
 BAR2 HN ES       16 0 36.43                             169   -0.2010 28.0 184 
 BAR2 EZ I        16 0 38.44        10.4 0.26            168           28.0 184 
 PAM  EZ EP       16 0 24.03                             151    0.4010 75.1  43 
 PAM  EN ES       16 0 41.05                             151    0.2210 75.1  43 
 PAM  EZ I        16 0 43.04        13.4 0.48            153           75.1  43 
 RUS  HZ EP       16 0 25.32                             142   -0.3510  106 175 
 RUS  HN ES       16 0 44.12                             142   -0.3410  106 175 
 RUS  HZ I        16 0 45.68         8.6 0.40            143            106 175 
 PTB  HZ EP       16 0 27.82                             132   -0.60 9  147 257 
 PTB  HE ES       16 0 49.66                             132    0.31 9  147 257 
 PTB  HZ I        16 0 50.64         7.0 0.13            134            147 257 
 CHI  HZ EP       16 0 39.74                             117    0.03 8  253 194 
 CHI  HE ES       16 1 10.41                             117    0.95 8  253 194 
 CHI  HZ I        16 1 12.17         2.6 0.34            118            253 194 
 GUY2CHZ EP   4   16 0 46.85                             112    1.56 0  302 234 
 GUY2CHN ES   4   16 1 22.62                             112    3.23 0  302 234 
 GUY2CHZ I    4   16 1 25.59         3.1 0.42                           302 234 
                                                                                
