 2012  726 1817 18.4 L   6.560 -73.413128.2  RSN 11 0.5 2.4LRSN                1
 GAP= 52        1.28       4.6     5.4 11.0  0.5835E+01  0.1292E+02  0.9307E+01E
 Epicentro: HATO - SANTANDER                                                   3
 ACTION:UPD 12-08-14 11:45 OP:ep   STATUS:               ID:20120726181718 L   I
 2012-07-26-1810-00M.COL___215                                                 6
 STAT SP IPHASW D HRMM SECON CODA AMPLIT PERI AZIMU VELO AIN AR TRES W  DIS CAZ7
 BRR  HZ EP       1817 37.53                             150     0.010   69 331 
 BRR  HZ I        1817 37.83       110.5 0.12            148             69 331 
 BRR  HN ES   1   1817 52.66                             150     0.2 7   69 331 
 RUS  HZ IP     D 1817 38.75                             145    -0.310   82 154 
 RUS  HZ I        1817 38.95        45.1 0.28            147             82 154 
 RUS  HE ES   1   1817 54.85                             145    -0.4 7   82 154 
 PTB  HZ EP       1817 39.97                             135    -1.010  115 269 
 PTB  HZ I        1817 57.97        35.6 0.16            132            115 269 
 PAM  SZ EP   1   1817 42.40                             135     0.7 7  117  42 
 PAM  SN ES   1   1818  0.21                             135     0.2 7  117  42 
 PAM  SZ I        1818  2.14        16.4 0.30            138            117  42 
 YOP  SZ EP   1   1817 46.74                             123     0.2 7  173 140 
 YOP  SE ES   1   1818  9.10                             123     0.5 7  173 140 
 YOP  SZ I        1818 10.74        34.6 0.70            124            173 140 
 TAM  HZ IP     D 1817 47.14                             121    -0.1 9  180  94 
 TAM  HZ I        1817 47.32        49.7 0.14            124            180  94 
 TAM  HN ES   3   1818  9.16                             121    -0.5 2  180  94 
 OCA  HZ EP   2   1817 48.02                             120     0.0 4  186   3 
 OCA  HN ES   1   1818 10.32                             120    -0.8 7  186   3 
 OCA  HZ I        1818 15.36        74.1 0.22            121            186   3 
 ZAR  HZ EP       1817 49.13                             120     0.9 9  190 303 
 ZAR  HE ES   1   1818 11.91                             120     0.4 7  190 303 
 ZAR  HZ I        1818 15.62        34.5 0.42            119            190 303 
 NOR  SZ EP       1817 48.52                             119    -0.3 9  195 236 
 CHI  HZ EP   2   1817 52.30                             117     0.7 4  216 189 
 CHI  HN ES   1   1818 17.89                             117     0.4 6  216 189 
 CHI  HZ I        1818 23.86         8.1 0.30            116            216 189 
 HEL  HE ES   3   1818 22.53                             114     1.0 2  238 260 
