 2014 1126 1608 15.1 L   6.789 -73.163144.0  RSN 11 0.5 1.8LRSN                1
 GAP=135        1.14       4.3     4.5  6.3 -0.3725E+01  0.9641E+01  0.4013E+01E
 Epicentro: LOS SANTOS - SANTANDER                                             3
 ACTION:UPD 14-12-19 15:47 OP:nd   STATUS:               ID:20141126160815 L   I
 OLDACT:REG 14-11-26 20:30 OP:fm   STATUS:               ID:20141126155748     3
 2014-11-26-1557-48M.COL___306                                                 6
 STAT SP IPHASW D HRMM SECON CODA AMPLIT PERI AZIMU VELO AIN AR TRES W  DIS CAZ7
 BAR2 SZ EP       16 8 34.25                             171   -0.2210 21.8 186 
 BAR2 SZ ES       16 8 49.99                             171    0.4010 21.8 186 
 BAR2 SZ I        16 8 50.75        13.3 0.26            167           21.8 186 
 BRR  HZ EP       16 8 36.40                             153    0.4210 70.1 300 
 BRR  HN ES       16 8 52.44                             153    0.1610 70.1 300 
 BRR  HZ I        16 8 54.13        17.8 0.32            152           70.1 300 
 PAM  SZ IP     D 16 8 37.61                             150    0.3610 79.6  40 
 PAM  SN ES       16 8 54.40                             150   -0.1310 79.6  40 
 PAM  SZ I        16 8 56.13         7.9 0.18            155           79.6  40 
 RUS  HZ EP       16 8 37.67                             144   -0.9110 99.5 175 
 RUS  HN ES       16 8 57.03                             144    0.1210 99.5 175 
 RUS  HZ I        16 8 58.85         4.3 0.44            143           99.5 175 
 PTB  HZ EP       16 8 41.81                             132    0.10 9  146 259 
 PTB  HN ES       16 9  1.77                             132   -0.71 9  146 259 
 PTB  HZ I        16 9  4.37         7.4 0.14            131            146 259 
 SPBC HZ EP       16 8 43.27                             129    0.03 9  161 219 
 SPBC HN ES       16 9  4.73                             129   -0.47 9  161 219 
 SPBC HZ I        16 9 12.57         9.3 0.32            128            161 219 
 ZAR  HZ EP       16 8 47.67                             122    0.39 9  203 293 
 ZAR  HN ES       16 9 11.71                             122   -0.68 9  203 293 
 ZAR  HZ I        16 9 17.75         6.6 0.30            123            203 293 
 NOR  HZ EP       16 8 50.93                             118    0.46 8  232 234 
 NOR  HN ES       16 9 19.01                             118    0.95 8  232 234 
 NOR  HZ I        16 9 24.13         4.3 0.22            118            232 234 
 GUY2CHZ EP       16 8 58.11                             112   -0.24 7  299 235 
 GUY2CHN ES       16 9 32.58                             112    0.48 7  299 235 
 GUY2CHZ I        16 9 41.05         3.2 0.56                           299 235 
 RREF HZ EP       16 9  0.50                             111   -0.39 7  319 229 
 RREF HN ES   4   16 9 39.64                             111    3.02 0  319 229 
 RREF HZ I        16 9 46.37         3.8 0.44            111            319 229 
 TOL  SE ES       16 9 40.53                             109    0.14 7  341 225 
 TOL  SZ I        16 9 48.49         7.5 0.66            110            341 225 
                                                                                
