 2013  626 1604 43.8 L   6.786 -73.141148.9  RSN 13 0.5 2.5LRSN                1
 GAP=138        0.96       3.1     4.4  6.3 -0.5499E+00  0.7255E+01  0.4017E+01E
 Epicentro: LOS SANTOS - SANTANDER                                             3
 ACTION:UPD 14-01-08 09:57 OP:ep   STATUS:               ID:20130626160443 L   I
 OLDACT:REG 13-06-26 15:51 OP:carl STATUS:               ID:20130626155959     3
 2013-06-26-1559-59M.COL___267                                                 6
 STAT SP IPHASW D HRMM SECON CODA AMPLIT PERI AZIMU VELO AIN AR TRES W  DIS CAZ7
 BAR2 SZ IP     D 16 5  3.65                             171   -0.1410 21.9 192 
 BAR2 SZ ES   1   16 5 18.98                             171   -0.39 7 21.9 192 
 BAR2 SZ I        16 5 21.43        59.8 0.26            170           21.9 192 
 GIR2 SZ EP       16 5  3.79                             167   -0.1110 32.9 350 
 BRR  HZ IP     C 16 5  5.55                             153    0.1910 72.4 299 
 BRR  HN ES   1   16 5 23.05                             153    0.88 7 72.4 299 
 BRR  HN I        16 5 28.40       148.4 0.20            150           72.4 299 
 PAM  SZ IP     C 16 5  6.47                             151    0.0610 78.2  39 
 PAM  SN ES   1   16 5 24.39                             151    0.35 7 78.2  39 
 PAM  SZ I        16 5 27.02        18.8 0.42            156           78.2  39 
 RUS  HZ EP       16 5  7.53                             145   -0.2310 99.0 176 
 RUS  HN ES   1   16 5 26.05                             145   -0.39 7 99.0 176 
 RUS  HZ I        16 5 27.51        28.2 0.26            148           99.0 176 
 PTB  HZ EP   1   16 5 10.30                             133   -0.75 7  148 259 
 PTB  HN ES   1   16 5 31.70                             133   -0.60 7  148 259 
 PTB  HZ I        16 5 39.12        42.4 0.52            133            148 259 
 OCA  HN ES       16 5 35.32                             130    0.42 9  162 353 
 OCA  HN I        16 5 39.10       159.1 0.26            132            162 353 
 ZAR  HZ EP   1   16 5 17.29                             123    0.72 6  205 292 
 ZAR  HE ES       16 5 42.00                             123   -0.12 9  205 292 
 ZAR  HZ I        16 5 48.77        44.3 0.32            124            205 292 
 NOR  HZ EP   1   16 5 19.72                             119    0.05 6  234 235 
 NOR  HN ES   1   16 5 47.44                             119   -0.21 6  234 235 
 NOR  HZ I        16 5 49.86        16.1 0.24            121            234 235 
 SML  HZ EP   1   16 5 20.12                             118   -0.67 6  245 335 
 SML  HE ES   1   16 5 48.51                             118   -1.12 6  245 335 
 SML  HZ I        16 5 56.06        56.0 0.38            120            245 335 
 CHI  HZ EP   1   16 5 21.55                             118    0.01 6  247 195 
 CHI  HN ES   1   16 5 51.48                             118    0.51 6  247 195 
 CHI  HZ I        16 5 58.69         9.4 0.48            121            247 195 
 GUY2CHZ EP       16 5 28.44                             113    0.93 7  301 235 
 GUY2CHE ES   2   16 6  1.94                             113    0.34 4  301 235 
 GUY2CHZ I        16 6 11.03        11.0 0.24                           301 235 
 PRA  HZ EP       16 5 37.17                             107   -0.15 6  391 210 
 PRA  HN ES   1   16 6 19.77                             107    0.72 4  391 210 
 PRA  HZ I        16 6 25.30         9.2 0.26            109            391 210 
                                                                                
