 2015  426 1136  3.6 L   6.836 -73.168141.5  RSN 13 0.4 2.3LRSN                1
 GAP=199        0.96       3.2     4.3  5.0  0.2700E+01  0.4616E+01  0.6066E+00E
 Epicentro: ZAPATOCA - SANTANDER                                               3
 ACTION:UPD 15-06-03 16:57 OP:cam  STATUS:               ID:20150426113603 L   I
 OLDACT:UP  15-04-26 21:44 OP:mh   STATUS:               ID:20150426112748     3
 OLDACT:UP  15-04-26 21:44 OP:mh   STATUS:               ID:20150426112748     3
 OLDACT:UP  15-04-26 21:43 OP:mh   STATUS:               ID:20150426112748     3
 OLDACT:UP  15-04-26 21:43 OP:mh   STATUS:               ID:20150426112748     3
 OLDACT:UP  15-04-26 21:43 OP:mh   STATUS:               ID:20150426112748     3
 OLDACT:REG 15-04-26 19:56 OP:mh   STATUS:               ID:20150426112748     3
 2015-04-26-1127-48M.COL___268                                                 6
 STAT SP IPHASW D HRMM SECON CODA AMPLIT PERI AZIMU VELO AIN AR TRES W  DIS CAZ7
 BAR2 EZ EP       1136 22.82                             169   -0.0110 27.0 183 
 BAR2 EZ ES       1136 37.94                             169    0.1410 27.0 183 
 BAR2 EZ I        1136 39.01        37.2 0.24            164           27.0 183 
 BRR  HZ EP       1136 24.38                             153    0.2910 67.2 297 
 BRR  HN ES       1136 40.71                             153    0.6610 67.2 297 
 BRR  HZ I        1136 44.14        27.4 0.30            147           67.2 297 
 RUS  HZ EP       1136 27.05                             142   -0.2210  105 175 
 RUS  HN ES       1136 45.64                             142   -0.0710  105 175 
 RUS  HZ I        1136 46.17        19.5 0.36            142            105 175 
 PTB  HZ EP       1136 29.52                             131   -0.59 9  146 257 
 PTB  HN ES       1136 50.01                             131   -0.75 9  146 257 
 PTB  HZ I        1136 52.95        18.7 0.12            128            146 257 
 SPBC HZ EP       1136 31.81                             128   -0.15 9  165 217 
 SPBC HN ES       1136 53.78                             128   -0.27 9  165 217 
 SPBC HZ I        1136 59.76        31.9 0.20            126            165 217 
 ZAR  HZ EP       1136 35.22                             122   -0.19 9  200 291 
 ZAR  HN ES       1137  0.25                             122    0.05 9  200 291 
 ZAR  HZ I        1137 11.25        11.8 0.20            120            200 291 
 NOR  HZ EP       1136 39.06                             118   -0.09 8  235 233 
 NOR  HN ES       1137  6.47                             118   -0.39 8  235 233 
 NOR  HZ I        1137 14.31        14.1 0.18            117            235 233 
 SML  HZ EP       1136 39.37                             117   -0.15 8  239 335 
 SML  HN ES   1   1137  7.22                             117   -0.28 6  239 335 
 SML  HZ I        1137 13.90        25.5 0.10            117            239 335 
 CHI  HZ EP       1136 41.15                             116   -0.30 8  252 194 
 CHI  HN ES       1137 11.44                             116    0.50 8  252 194 
 CHI  HZ I        1137 16.53         8.9 0.32            116            252 194 
 ROSC BZ EP   4   1136 43.10                             116    1.34 0  255 210 
 ROSC BN ES   4   1137 14.76                             116    3.26 0  255 210 
 ROSC BZ I        1137 17.29        14.5 0.45            115            255 210 
 HEL  HZ EP       1136 43.84                             114    0.36 8  271 255 
 HEL  HE ES       1137 14.95                             114    0.39 8  271 255 
 HEL  HZ I        1137 22.83        10.0 0.40            113            271 255 
 GUY2CHZ EP       1136 47.98                             112    0.90 7  302 234 
 GUY2CHN ES   4   1137 23.46                             112    2.49 0  302 234 
 GUY2CHZ I        1137 28.51         9.5 0.34                           302 234 
 TOL  SZ EP       1136 52.63                             108    0.78 7  345 224 
 TOL  SE ES   4   1137 31.00                             108    1.54 0  345 224 
 TOL  SZ I        1137 37.27         7.3 0.42            108            345 224 
                                                                                
