 2012 1226 1045 45.9 L   6.816 -73.147145.5  RSN  9 0.3 2.2LRSN                1
 GAP=183        0.75       3.7     4.2  5.2  0.8217E+00  0.3002E+01 -0.4662E+01E
 Epicentro: LOS SANTOS - SANTANDER                                             3
 ACTION:UPD 13-01-04 14:30 OP:ep   STATUS:               ID:20121226104545 L   I
 2012-12-26-1040-00M.COL___242                                                 6
 STAT SP IPHASW D HRMM SECON CODA AMPLIT PERI AZIMU VELO AIN AR TRES W  DIS CAZ7
 BAR2 SZ IP       1046  5.78                             170    0.2110 25.1 189 
 BAR2 SZ ES       1046 20.52                             170   -0.3610 25.1 189 
 BAR2 SZ I        1046 21.87        48.6 0.35                          25.1 189 
 GIR2 SZ EP       1046  5.78                             168    0.2510 29.5 350 
 GIR2 SZ I        1046 22.77        19.5 0.47                          29.5 350 
 BRR  HZ EP       1046  7.45                             153    0.4410 70.2 297 
 BRR  HE ES       1046 23.89                             153    0.4610 70.2 297 
 BRR  HZ I        1046 27.81        22.8 0.40                          70.2 297 
 RUS  HZ EP   1   1046  9.50                             143   -0.30 7  102 176 
 RUS  HN ES   1   1046 28.45                             143    0.05 7  102 176 
 RUS  HN I        1046 30.23        46.7 0.37                           102 176 
 PTB  HZ EP   1   1046 12.52                             132   -0.38 7  148 258 
 PTB  HE ES   1   1046 33.45                             132   -0.48 7  148 258 
 PTB  HZ I        1046 38.29        14.0 0.17                           148 258 
 OCA  HZ EP       1046 14.03                             130   -0.03 9  158 353 
 OCA  HN ES   1   1046 35.31                             130   -0.68 7  158 353 
 OCA  HZ I        1046 39.81        12.4 0.23                           158 353 
 ZAR  HZ EP   1   1046 18.38                             122    0.09 6  203 292 
 ZAR  HE ES   1   1046 43.66                             122    0.15 6  203 292 
 ZAR  HZ I        1046 49.91        13.1 0.42                           203 292 
 SML  HZ EP   1   1046 22.01                             118   -0.36 6  242 335 
 SML  HZ I        1046 57.11        20.4 0.06                           242 335 
 HEL  HZ EP   1   1046 26.17                             115    0.00 6  272 255 
 HEL  HN ES   1   1046 57.39                             115   -0.16 6  272 255 
 HEL  HZ I        1047  4.84         8.4 0.59                           272 255 
 MON  HZ EP   4   1046 33.07                             109   -1.72 0  352 308 
 MON  HN ES   4   1047 11.25                             109   -1.64 0  352 308 
                                                                                
