 2010  826 1812 44.4 L   6.170 -73.637116.0  RSN  4 0.1 1.7LRSN                1
 GAP=239        0.42       5.3     8.7  6.0  0.2849E+02  0.6492E+01  0.6288E+01E
 Epicentro: LA PAZ - SANTANDER                                                 3
 ACTION:UP  10-09-07 10:58 OP:vdl  STATUS:               ID:20100826181244 L   I
 2010-08-26-1807-34S.COL___120                                                 6
 STAT SP IPHASW D HRMM SECON CODA AMPLIT PERI AZIMU VELO SNR AR TRES W  DIS CAZ7
 BAR2 SZ EP   1   1813  2.83                             148     0.3 8   68  47 
 BAR2 SZ ES   2   1813 16.60                             148    -0.2 5   68  47 
 BAR2 SZ I        1813 17.91        22.2 0.47                            68  47 
 RUS  HZ EP   1   1813  2.91                             148     0.0 8   69 117 
 BRR  HZ EP       1813  4.87                             135    -0.110  104 355 
 BRR  HZ I        1813  5.22        15.8 0.09                           104 355 
 BRR  HN ES   1   1813 21.11                             135     0.1 7  104 355 
 GUE  SZ EP       1813 14.94                             116    -0.1 9  200  23 
 GUE  SZ I        1813 15.25         2.3 0.13                           200  23 
                                                                                
