 2016  926 1604 47.0 L   6.787 -73.102148.1  RSN 16 0.3 2.5LRSN                1
 GAP=143        0.75       2.2     3.3  3.8 -0.9982E+00  0.2866E+01  0.1081E+01E
 Epicentro: LOS SANTOS - SANTANDER                                             3
 ACTION:UPD 17-08-17 21:16 OP:lp   STATUS:               ID:20160926160447 L   I
 OLDACT:UP  16-09-27 01:17 OP:edw  STATUS:               ID:20160926155744     3
 OLDACT:REG 16-09-26 20:36 OP:edw  STATUS:               ID:20160926155744     3
 2016-09-26-1558-00M.COL___353                                                 6
 STAT SP IPHASW D HRMM SECON CODA AMPLIT PERI AZIMU VELO AIN AR TRES W  DIS CAZ7
 BAR2 EZ IP     C 16 5  6.80                             171   -0.1310 23.3 203 
 BAR2 EZ ES       16 5 22.79                             171    0.3310 23.3 203 
 BAR2 EZ I        16 5 25.85        56.0 0.42            167           23.3 203 
 PAM  EZ EP       16 5  9.64                             152    0.2610 75.6  36 
 PAM  EN ES       16 5 26.82                             152    0.0010 75.6  36 
 PAM  EZ I        16 5 29.00        39.3 0.22            157           75.6  36 
 BRR  HZ EP       16 5  8.74                             151    0.0410 76.2 298 
 BRR  HN ES       16 5 26.06                             151    0.4410 76.2 298 
 BRR  HZ I        16 5 30.49        40.2 0.12            148           76.2 298 
 RUS  HZ EP       16 5 10.60                             145   -0.2810 98.9 179 
 RUS  HN ES       16 5 29.17                             145   -0.3210 98.9 179 
 RUS  HZ I        16 5 30.16        20.6 0.34            146           98.9 179 
 PTB  HZ EP   9   16 5 13.57                             132   -1.01 0  152 260 
 PTB  HN ES       16 5 34.73                             132   -0.34 9  152 260 
 PTB  HZ I        16 5 40.65        38.0 0.24            130            152 260 
 OCA  HZ EP       16 5 15.63                             130   -0.08 9  162 352 
 OCA  HN ES       16 5 37.80                             130   -0.29 9  162 352 
 OCA  HZ I        16 5 42.07        75.2 0.28            132            162 352 
 SPBC HZ EP       16 5 15.76                             129   -0.12 9  165 221 
 SPBC HN ES       16 5 38.34                             129   -0.05 9  165 221 
 SPBC HZ I        16 5 45.69        55.8 0.24            129            165 221 
 ZAR  HZ EP       16 5 20.34                             122    0.21 8  209 292 
 ZAR  HN ES       16 5 45.39                             122   -0.58 8  209 292 
 ZAR  HZ I        16 5 50.43        36.5 0.30            122            209 292 
 NOR  HZ EP       16 5 22.94                             119   -0.27 8  238 235 
 NOR  HN ES   4   16 5 50.44                             119   -1.01 0  238 235 
 NOR  HZ I        16 5 54.95        27.9 0.20            119            238 235 
 CHI  HZ EP       16 5 24.88                             118    0.05 8  249 196 
 CHI  HN ES       16 5 54.20                             118   -0.13 8  249 196 
 CHI  HZ I        16 5 58.19        10.2 0.46            119            249 196 
 ROSC BZ EP   4   16 5 26.02                             117    0.62 0  254 212 
 ROSC BN ES   4   16 5 56.47                             117    1.13 0  254 212 
 ROSC BZ I        16 6  2.79        31.7 0.50            118            254 212 
 GUY2CHZ EP       16 5 31.95                             112    0.86 7  304 236 
 GUY2CHN ES   4   16 6  9.33                             112    3.87 0  304 236 
 GUY2CHZ I        16 6 13.40        21.0 0.44                           304 236 
 ELA  HZ EP   4   16 5 35.93                             110    1.65 0  332 230 
 ELA  HN ES   4   16 6 13.91                             110    2.77 0  332 230 
 ELA  HZ I        16 6 18.56        14.1 0.42            111            332 230 
 ANIL HZ EP   4   16 5 38.56                             109    1.38 0  360 225 
 ANIL HN ES   4   16 6 18.20                             109    1.89 0  360 225 
 PAL  HZ EP       16 5 42.51                             106   -0.14 6  409 240 
 PAL  HN ES       16 6 26.67                             106    0.62 6  409 240 
 PAL  HZ I        16 6 36.23         5.3 0.44            107            409 240 
 SJC  HZ EP   4   16 5 41.10                             106   -2.01 0  413 327 
 SJC  HN ES   4   16 6 22.19                             106   -4.68 0  413 327 
 SJC  HZ I        16 6 26.60         3.2 0.12            107            413 327 
 CRJC HZ EP   9   16 5 47.20                             104   -2.53 0  469   3 
 CRJC HN ES       16 6 35.75                             104   -0.36 5  469   3 
 CRJC HZ I        16 6 41.46         9.0 0.22            105            469   3 
                                                                                
