 2017 1126 1958 52.6 L   6.806 -73.206149.1  RSN  5 0.2 1.3LRSN                1
 GAP=129        0.83       4.6     9.3  6.2 -0.1392E+02  0.3514E+00 -0.7082E+01E
 Epicentro: ZAPATOCA - SANTANDER                                               3
 ACTION:UPD 17-12-12 20:00 OP:rebc STATUS:               ID:20171126195852 L   I
 OLDACT:DUP 17-11-26 23:01 OP:dani STATUS:               ID:20171126194738d    3
 OLDACT:UP  17-11-26 23:01 OP:dani STATUS:               ID:20171126194737     3
 OLDACT:UP  17-11-26 22:59 OP:dani STATUS:               ID:20171126194737     3
 OLDACT:REG 17-11-26 20:20 OP:dhb  STATUS:               ID:20171126194737     3
 2017-11-26-1948-00M.COL___486                                                 6
 STAT SP IPHASW D HRMM SECON CODA AMPLIT PERI AZIMU VELO AIN AR TRES W  DIS CAZ7
 BAR2 EZ EP       1959 12.64                             170   -0.0510 23.8 174 
 BAR2 EZ ES       1959 28.71                             170    0.3910 23.8 174 
 BAR2 EZ I        1959 29.13         6.6 0.36            170           23.8 174 
 PAM  EZ EP       1959 15.45                             150    0.0010 81.3  43 
 PAM  EN ES       1959 32.88                             150   -0.3510 81.3  43 
 RUS  HZ EP       1959 16.89                             143    0.0710  102 172 
 RUS  HN ES       1959 35.46                             143   -0.2210  102 172 
 RUS  HZ I        1959 36.37         3.0 0.34            144            102 172 
 PTB  HZ EP   9   1959 19.78                             134    0.46 0  141 258 
 PTB  HN ES       1959 39.93                             129   -0.66 9  141 258 
 PTB  HZ I        1959 41.59         1.3 0.10            133            141 258 
 OCA  HZ EP       1959 21.28                             130    0.19 9  159 355 
                                                                                
