 2017  626 1120 48.9 L   6.683 -73.176151.0  RSN  4 0.3 1.5LRSN                1
 GAP=235        0.64       7.9     4.7  5.6  0.1443E+02  0.3895E+01 -0.8344E+01E
 Epicentro: VILLANUEVA - SANTANDER                                             3
 ACTION:UPD 17-09-14 16:55 OP:jn   STATUS:               ID:20170626112047 L   I
 OLDACT:UP  17-07-07 00:21 OP:nlst STATUS:               ID:20170626112047 L   3
 OLDACT:UP  17-06-26 22:15 OP:cog  STATUS:               ID:20170626111742     3
 OLDACT:UP  17-06-26 22:14 OP:cog  STATUS:               ID:20170626111742     3
 OLDACT:UP  17-06-26 22:11 OP:cog  STATUS:               ID:20170626111742     3
 OLDACT:REG 17-06-26 20:54 OP:cog  STATUS:               ID:20170626111742     3
 2017-06-26-1118-00M.COL___337                                                 6
 STAT SP IPHASW D HRMM SECON CODA AMPLIT PERI AZIMU VELO AIN AR TRES W  DIS CAZ7
 BAR2 EZ EP       1121  8.80                             176   -0.1510 10.1 184 
 BAR2 EZ ES       1121 24.51                             176   -0.1010 10.1 184 
 BAR2 EZ I        1121 24.90         8.6 0.38            172           10.1 184 
 BRR  HZ EP       1121 10.93                             152    0.0910 75.5 308 
 BRR  HE ES       1121 28.18                             152    0.2110 75.5 308 
 PTB  HZ EP   3   1121 14.90                             134   -0.91 2  142 264 
 PTB  HN ES       1121 36.96                             134    0.14 9  142 264 
 PTB  HZ I        1121 39.82         2.3 0.22            132            142 264 
 ZAR  HZ EP       1121 22.22                             123    0.33 8  206 296 
 ZAR  HN ES       1121 47.14                             123   -0.50 8  206 296 
 ZAR  HZ I        1121 49.95         3.7 0.38            123            206 296 
                                                                                
