 2017 1026 1240 58.7 L   6.791 -73.115150.3  RSN  5 0.3 1.0LRSN                1
 GAP=141        0.68       3.7     3.6  5.0 -0.1321E+01  0.2117E+01  0.8038E+00E
 Epicentro: LOS SANTOS - SANTANDER                                             3
 ACTION:UPD 17-11-07 19:37 OP:rebc STATUS:               ID:20171026124058 L   I
 OLDACT:REG 17-10-26 21:01 OP:dhb  STATUS:               ID:20171026123740     3
 2017-10-26-1238-00M.COL___423                                                 6
 STAT SP IPHASW D HRMM SECON CODA AMPLIT PERI AZIMU VELO AIN AR TRES W  DIS CAZ7
 BAR2 EZ EP       1241 18.65                             171   -0.1710 23.1 199 
 BAR2 EZ ES       1241 34.35                             171   -0.2010 23.1 199 
 BAR2 EZ I        1241 37.38         1.6 0.05            171           23.1 199 
 BRR  HZ EP       1241 20.60                             152    0.1210 74.6 298 
 BRR  HN ES       1241 37.54                             152    0.0310 74.6 298 
 PAM  EZ EP       1241 21.63                             152    0.3610 76.1  37 
 PAM  EN ES       1241 38.80                             152   -0.1210 76.1  37 
 PAM  EZ I        1241 41.28         1.9 0.48            155           76.1  37 
 RUS  HZ EP       1241 22.86                             145    0.1010 99.4 178 
 RUS  HN ES       1241 41.68                             145    0.1110 99.4 178 
 RUS  HZ I        1241 43.37         1.9 0.30            147           99.4 178 
 PTB  HZ EP       1241 25.71                             132   -0.56 9  151 259 
 PTB  HN ES       1241 48.11                             132    0.30 9  151 259 
 PTB  HZ I        1241 51.55         1.6 0.46            134            151 259 
                                                                                
