 2010  126 1021 51.4 L   6.797 -72.982140.9  RSN  4 0.3 1.0LRSN                1
 GAP=322        0.51       9.5    19.0  7.7 -0.9579E+02  0.6239E+01  0.1938E+02E
 Epicentro: CEPITA - SANTANDER                                                 3
 ACTION:UP  10-08-24 09:45 OP:vdl  STATUS:               ID:20100126102150 L   I
 2010-01-26-1019-51S.COL___092                                                 6
 STAT SP IPHASW D HRMM SECON CODA AMPLIT PERI AZIMU VELO SNR AR TRES W  DIS CAZ7
 BAR2 SZ EP   2   1022 10.43                             167    -0.2 5   32 224 
 BAR2 SZ ES   2   1022 25.68                             167     0.0 5   32 224 
 RUS  HZ EP   1   1022 14.93                             143     0.3 7  101 186 
 RUS  HZ I        1022 15.27         0.9 0.61                           101 186 
 RUS  HN ES   2   1022 32.83                             143     0.0 5  101 186 
 CHI  HZ EP   1   1022 29.12                             116    -0.3 6  254 199 
 CHI  HE ES   2   1022 58.49                             116    -0.5 4  254 199 
 CHI  HZ I        1023  1.68         1.3 0.50                           254 199 
 PRA  HE ES   2   1023 28.98                             105     0.8 3  401 212 
                                                                                
