 2015  126 1730 41.6 L   6.767 -73.137145.6  RSN  6 0.4 1.4LRSN                1
 GAP=139        0.86       4.6     5.2  7.4 -0.3465E+01  0.2961E+01  0.1930E+01E
 Epicentro: LOS SANTOS - SANTANDER                                             3
 ACTION:UPD 15-03-02 15:42 OP:nd   STATUS:               ID:20150126173041 L   I
 OLDACT:DUP 15-01-26 21:52 OP:spq  STATUS:               ID:20150126172746d    3
 2015-01-26-1727-45M.COL___271                                                 6
 STAT SP IPHASW D HRMM SECON CODA AMPLIT PERI AZIMU VELO AIN AR TRES W  DIS CAZ7
 BAR2 EZ EP   1   1731  1.23                             172    0.11 7 20.0 194 
 BAR2 EZ ES   1   1731 16.20                             172   -0.17 7 20.0 194 
 BAR2 EZ I        1731 17.19         8.0 0.10            173           20.0 194 
 BRR  HZ EP       1731  3.07                             152    0.2210 73.8 301 
 BRR  HN ES       1731 19.78                             152    0.3310 73.8 301 
 BRR  HZ I        1731 24.23         6.1 0.24            149           73.8 301 
 PAM  SZ EP       1731  3.80                             150   -0.1110 79.7  37 
 PAM  SN ES       1731 20.86                             150   -0.4710 79.7  37 
 PAM  SZ I        1731 22.59         3.0 0.24            151           79.7  37 
 RUS  HZ EP   1   1731  5.21                             145    0.16 7 96.9 176 
 RUS  HE ES   1   1731 23.84                             145    0.48 7 96.9 176 
 RUS  HZ I        1731 24.53         4.1 0.30            149           96.9 176 
 PTB  HZ EP   1   1731  8.02                             132   -0.53 7  148 260 
 PTB  HN ES   1   1731 28.92                             132   -0.67 7  148 260 
 PTB  HZ I        1731 31.87         2.6 0.36            132            148 260 
 OCA  HN ES   1   1731 33.21                             129    0.64 7  164 353 
 OCA  HZ I        1731 38.68         3.8 0.38            129            164 353 
                                                                                
