 2015 1226 1031 23.8 L   6.801 -73.297143.7  RSN 13 0.4 2.1LRSN                1
 GAP=152        0.99       2.9     5.8  7.6 -0.1591E+01  0.2018E+02 -0.2640E+01E
 Epicentro: ZAPATOCA - SANTANDER                                               3
 ACTION:UPD 16-02-04 15:07 OP:cam  STATUS:               ID:20151226103123 L   I
 OLDACT:REG 15-12-26 19:50 OP:cara STATUS:               ID:20151226102748     3
 2015-12-26-1027-48M.COL___334                                                 6
 STAT SP IPHASW D HRMM SECON CODA AMPLIT PERI AZIMU VELO AIN AR TRES W  DIS CAZ7
 BAR2 EZ IP     C 1031 43.46                             169    0.1610 26.3 151 
 BAR2 EZ ES       1031 58.52                             169    0.0510 26.3 151 
 BAR2 EZ I        1032  0.08        10.8 0.28            169           26.3 151 
 BRR  HZ EP   4   1031 45.30                             157    1.27 0 57.0 306 
 BRR  HE ES   4   1032  2.77                             157    2.99 0 57.0 306 
 BRR  HZ I        1032  4.25        29.3 0.12            158           57.0 306 
 RUS  HZ IP       1031 47.24                             143   -0.3510  103 167 
 RUS  HN ES       1032  5.90                             143   -0.2110  103 167 
 RUS  HZ I        1032  7.16         5.9 0.42            144            103 167 
 PTB  HZ EP   4   1031 50.06                             135    0.86 0  131 257 
 PTB  HN ES   4   1032  5.43                             135   -3.54 0  131 257 
 PTB  HZ I        1032  5.93        20.1 0.40            136            131 257 
 SPBC HZ EP       1031 50.84                             130   -0.42 9  153 214 
 SPBC HN ES   4   1032 15.15                             130    2.51 0  153 214 
 SPBC HZ I        1032 21.50        19.3 0.38            131            153 214 
 OCA  HZ EP       1031 51.45                             129   -0.43 9  159 359 
 OCA  HN ES       1032 14.33                             129    0.58 9  159 359 
 OCA  HZ I        1032 19.27        21.4 0.28            131            159 359 
 ZAR  HZ EP   4   1031 55.90                             124    1.32 0  189 294 
 ZAR  HN ES   4   1032 12.30                             124   -6.25 0  189 294 
 ZAR  HZ I        1032 14.39        30.5 0.30            125            189 294 
 NOR  HN ES   4   1032 28.01                             120    3.32 0  221 232 
 NOR  HZ I        1032 32.16        11.1 0.16            121            221 232 
 SML  HZ EP       1031 59.95                             118    0.31 8  237 339 
 SML  HE ES       1032 27.24                             118   -0.33 8  237 339 
 SML  HZ I        1032 37.61        22.1 0.10            119            237 339 
 CHI  HZ EP       1032  1.53                             117    0.51 8  245 191 
 CHI  HN ES       1032 30.29                             117    0.27 8  245 191 
 CHI  HZ I        1032 36.66         2.7 0.28            118            245 191 
 HEL  HZ EP   4   1032  4.89                             116    2.72 0  256 255 
 HEL  HE ES       1032 31.45                             116   -0.61 8  256 255 
 HEL  HZ I        1032 34.36         8.4 0.18            117            256 255 
 URE  HZ EP   4   1032  8.13                             115    5.04 0  268 293 
 URE  HN ES   4   1032 31.31                             115   -2.39 0  268 293 
 URE  HZ I        1032 32.15        11.2 0.24            116            268 293 
 GUY2CHZ EP   4   1032  8.11                             113    2.27 0  288 233 
 GUY2CHN ES       1032 39.46                             113    0.86 7  288 233 
 GUY2CHZ I        1032 50.62         7.8 0.56                           288 233 
                                                                                
