 2016  326 1253  8.4 L   6.787 -73.180137.8  RSN 11 0.3 1.7LRSN                1
 GAP=133        0.37       3.1     2.9  3.8  0.1291E+01  0.4691E+01  0.1686E+01E
 Epicentro: LOS SANTOS - SANTANDER                                             3
 ACTION:UPD 16-05-13 21:27 OP:cam  STATUS:               ID:20160326125308 L   I
 OLDACT:REG 16-03-26 20:24 OP:dnl  STATUS:               ID:20160326124745     3
 2016-03-26-1247-45M.COL___297                                                 6
 STAT SP IPHASW D HRMM SECON CODA AMPLIT PERI AZIMU VELO AIN AR TRES W  DIS CAZ7
 BAR2 EZ EP   2   1253 27.05                             171    0.06 5 21.6 181 
 BAR2 EZ ES       1253 41.65                             171    0.1310 21.6 181 
 BAR2 EZ I        1253 42.56        19.5 0.26            167           21.6 181 
 PAM  EZ EP   3   1253 29.27                             148   -0.68 2 80.9  41 
 PAM  EN ES   3   1253 46.17                             148   -0.63 2 80.9  41 
 PAM  EZ I        1253 49.16        11.5 0.27            153           80.9  41 
 RUS  HZ EP   2   1253 31.51                             142    0.26 5 99.5 174 
 RUS  HN ES   2   1253 49.20                             142    0.09 5 99.5 174 
 RUS  HZ I        1253 50.10         4.5 0.18            144           99.5 174 
 PTB  HZ EP   2   1253 34.20                             131   -0.11 5  144 259 
 PTB  HE ES   1   1253 54.24                             131   -0.31 7  144 259 
 PTB  HZ I        1253 57.79        12.7 0.26            128            144 259 
 SPBC HZ EP   2   1253 36.02                             128    0.10 5  160 218 
 SPBC HN ES   2   1253 57.15                             128   -0.26 5  160 218 
 SPBC HZ I        1253 58.86         7.9 0.18            126            160 218 
 ZAR  HZ EP   2   1253 40.01                             121    0.03 4  201 293 
 ZAR  HN ES   2   1254  5.14                             121    0.50 4  201 293 
 ZAR  HZ I        1254 13.74         9.7 0.21            119            201 293 
 NOR  HZ EP   4   1253 41.66                             117   -1.55 0  231 234 
 NOR  HN ES   2   1254 10.10                             117   -0.29 4  231 234 
 NOR  HZ I        1254 18.32         3.8 0.18            116            231 234 
 CHI  HZ EP   2   1253 45.48                             116    0.11 4  246 194 
 CHI  HN ES   2   1254 14.21                             116   -0.02 4  246 194 
 CHI  HZ I        1254 18.59         1.7 0.24            116            246 194 
 HEL  HZ EP   4   1253 49.22                             113    1.50 0  268 256 
 HEL  HZ ES   4   1254 19.75                             113    1.33 0  268 256 
 HEL  HZ I        1254 29.59         3.8 0.42            113            268 256 
 GUY2CHZ EP   4   1253 53.02                             111    1.86 0  297 235 
 GUY2CHN ES   3   1254 24.57                             111    0.03 2  297 235 
 GUY2CHZ I        1254 30.01         1.4 0.21                           297 235 
 MON  HZ EP   4   1253 54.50                             107   -2.31 0  352 309 
 MON  HN ES   4   1254 32.93                             107   -1.68 0  352 309 
 MON  HZ I        1254 34.34         1.8 0.16            107            352 309 
                                                                                
