 2011 1026 1347 12.7 L   6.758 -73.052148.0  RSN  6 0.3 1.8LRSN                1
 GAP=151        0.57       7.7     7.2  7.3  0.9304E+01 -0.1965E+02 -0.1713E+02E
 Epicentro: LOS SANTOS - SANTANDER                                             3
 ACTION:UPD 12-07-13 16:06 OP:ep   STATUS:               ID:20111026134712 L   I
 2011-10-26-1340-00M.COL___177                                                 6
 STAT SP IPHASW D HRMM SECON CODA AMPLIT PERI AZIMU VELO AIN AR TRES W  DIS CAZ7
 BAR2 SZ EP       1347 32.74                             171    0.1310 23.3 218 
 BAR2 SZ I        1347 33.05         9.0 0.38                          23.3 218 
 BAR2 SZ ES   1   1347 47.79                             171   -0.34 7 23.3 218 
 BTL  SZ EP       1347 32.77                             168    0.0110 29.7 307 
 GIR2 SZ EP       1347 32.66                             164   -0.2110 38.8 336 
 PAM  SZ EP       1347 35.29                             152    0.2510 75.2  31 
 PAM  SN ES   3   1347 52.37                             152   -0.08 2 75.2  31 
 BRR  HZ EP       1347 34.49                             149   -0.2810 82.5 298 
 BRR  HZ I        1347 37.29        15.0 0.42                          82.5 298 
 BRR  HN ES   1   1347 52.39                             149    0.42 7 82.5 298 
 RUS  HZ EP   3   1347 37.04                             146    0.70 2 95.7 182 
 RUS  HN ES   3   1347 55.03                             146    0.25 2 95.7 182 
                                                                                
