 2016 1226 1744 10.3 L   6.697 -73.130145.3  RSN  7 0.4 1.5LRSN                1
 GAP=143        1.04       5.0     4.9  6.6 -0.5428E+01  0.9880E+01  0.7575E+00E
 Epicentro: JORDAN - SANTANDER                                                 3
 ACTION:UPD 17-01-11 20:19 OP:rebc STATUS:               ID:20161226174410 L   I
 OLDACT:UP  16-12-26 22:44 OP:cog  STATUS:               ID:20161226173745     3
 OLDACT:REG 16-12-26 20:52 OP:cog  STATUS:               ID:20161226173745     3
 2016-12-26-1738-00M.COL___375                                                 6
 STAT SP IPHASW D HRMM SECON CODA AMPLIT PERI AZIMU VELO AIN AR TRES W  DIS CAZ7
 BAR2 EZ EP       1744 29.98                             175    0.2510 13.0 206 
 BAR2 EZ ES       1744 45.17                             175    0.2910 13.0 206 
 BAR2 EZ I        1744 46.65         6.3 0.12            172           13.0 206 
 BRR  HZ EP       1744 31.74                             150   -0.1210 78.7 305 
 BRR  HN ES       1744 49.17                             150    0.5110 78.7 305 
 PAM  EZ EP       1744 32.71                             148   -0.2810 85.5  34 
 PAM  EE ES       1744 50.51                             148   -0.1610 85.5  34 
 PAM  EZ I        1744 51.93         5.3 0.24            152           85.5  34 
 RUS  HZ EP       1744 33.90                             147    0.6710 89.1 177 
 RUS  HN ES       1744 50.44                             147   -0.6710 89.1 177 
 RUS  HZ I        1744 53.74         3.2 0.24            147           89.1 177 
 PTB  HZ EP       1744 36.91                             132   -0.34 9  148 263 
 PTB  HN ES       1744 57.96                             132   -0.29 9  148 263 
 PTB  HZ I        1745  1.06         5.8 0.26            133            148 263 
 ZAR  HZ EP       1744 42.99                             121   -0.38 8  210 295 
 ZAR  HN ES   4   1745  7.38                             121   -1.77 0  210 295 
 NOR  HZ EP       1744 46.09                             119    0.60 8  230 237 
 NOR  HE ES       1745 12.84                             119   -0.09 8  230 237 
 NOR  HZ I        1745 17.82         3.8 0.24            120            230 237 
                                                                                
