 2014  926 1716  7.5 L   5.994 -73.705110.6  RSN  4 0.3 1.3LRSN                1
 GAP=156        0.72       6.3     4.4  6.4 -0.2060E+02  0.1291E+02 -0.1119E+02E
 Epicentro: VELEZ - SANTANDER                                                  3
 ACTION:UPD 14-10-03 23:08 OP:nd   STATUS:               ID:20140926171607 L   I
 OLDACT:UP  14-09-26 23:11 OP:cam  STATUS:               ID:20140926171000     3
 OLDACT:REG 14-09-26 20:43 OP:cam  STATUS:               ID:20140926171000     3
 2014-09-26-1710-00M.COL___252                                                 6
 STAT SP IPHASW D HRMM SECON CODA AMPLIT PERI AZIMU VELO AIN AR TRES W  DIS CAZ7
 SPBC HZ EP       1716 23.63                             151   -0.4610 55.5 227 
 SPBC HN ES       1716 36.84                             151   -0.1910 55.5 227 
 SPBC HZ I        1716 41.09         5.1 0.20            154           55.5 227 
 RUS  HZ EP       1716 25.42                             146   -0.1610 69.8  99 
 RUS  HN ES       1716 40.02                             146    0.3410 69.8  99 
 RUS  HZ I        1716 41.28         2.2 0.30            151           69.8  99 
 BAR2 SZ EP       1716 26.60                             139    0.0210 87.9  41 
 BAR2 SZ ES       1716 41.49                             139    0.0310 87.9  41 
 BAR2 SZ I        1716 43.13        16.1 0.52            144           87.9  41 
 GUY2CHZ EP       1716 38.51                             114    0.15 9  203 245 
 GUY2CHE ES       1717  2.86                             114    0.43 9  203 245 
 GUY2CHZ I        1717  6.02         1.4 0.30                           203 245 
                                                                                
