 2012  826 1810 43.6 L   6.809 -73.141150.4  RSN  8 0.4 1.9LRSN                1
 GAP=137        0.87       4.7     5.5  7.5 -0.1989E+00  0.5445E+01  0.7985E+01E
 Epicentro: LOS SANTOS - SANTANDER                                             3
 ACTION:UPD 12-09-10 11:58 OP:ep   STATUS:               ID:20120826181043 L   I
 2012-08-26-1810-00M.COL___218                                                 6
 STAT SP IPHASW D HRMM SECON CODA AMPLIT PERI AZIMU VELO AIN AR TRES W  DIS CAZ7
 BAR2 SZ EP       1811  3.78                             170   -0.0510 24.4 191 
 BAR2 SZ ES   2   1811 19.02                             170   -0.57 5 24.4 191 
 BAR2 SZ I        1811 20.38        32.6 0.26                          24.4 191 
 BRR  HZ EP       1811  5.64                             153    0.3610 71.2 298 
 BRR  HN ES   1   1811 22.66                             153    0.49 7 71.2 298 
 BRR  HZ I        1811 25.27        12.9 0.20                          71.2 298 
 PAM  SZ EP       1811  6.70                             152    0.4310 76.3  40 
 PAM  SZ I        1811  7.06        15.3 0.20                          76.3  40 
 PAM  SN ES   1   1811 23.32                             152   -0.62 7 76.3  40 
 RUS  HZ EP       1811  7.73                             144   -0.1710  101 176 
 RUS  HN ES   1   1811 26.97                             144    0.14 7  101 176 
 RUS  HZ I        1811 27.70         6.7 0.42                           101 176 
 PTB  HE ES   2   1811 32.29                             133   -0.13 5  148 259 
 ZAR  HZ EP   1   1811 15.26                             123   -1.13 6  204 292 
 ZAR  HE ES   2   1811 41.83                             123   -0.12 4  204 292 
 ZAR  HZ I        1811 46.87         6.1 0.26                           204 292 
 NOR  SN ES   2   1811 48.05                             119    0.16 4  236 234 
 NOR  SZ I        1811 53.48         6.1 0.18                           236 234 
 CHI  HZ EP       1811 21.92                             118    0.22 8  250 195 
 CHI  HN ES   2   1811 50.85                             118   -0.54 4  250 195 
 CHI  HZ I        1811 57.40         3.5 0.30                           250 195 
                                                                                
