 2017 1226 1232 54.9 L   6.758 -73.171142.0  RSN  4 0.2 1.3LRSN                1
 GAP=145        0.41       4.1     2.1  4.9 -0.2328E+01  0.2382E+01 -0.7692E-01E
 Epicentro: LOS SANTOS - SANTANDER                                             3
 ACTION:UPD 18-01-04 13:24 OP:rebc STATUS:               ID:20171226123254 L   I
 OLDACT:REG 17-12-26 22:00 OP:mg   STATUS:               ID:20171226122737     3
 2017-12-26-1228-00M.COL___462                                                 6
 STAT SP IPHASW D HRMM SECON CODA AMPLIT PERI AZIMU VELO AIN AR TRES W  DIS CAZ7
 BAR2 EZ EP       1233 14.24                             172    0.2110 18.4 184 
 BAR2 EZ ES   2   1233 28.80                             172   -0.12 5 18.4 184 
 BAR2 EZ I        1233 30.27         4.5 0.09            176           18.4 184 
 PAM  EZ EP       1233 17.09                             148   -0.0110 82.7  39 
 PAM  EN ES   1   1233 34.28                             148   -0.09 7 82.7  39 
 PAM  EZ I        1233 36.11         2.9 0.54            148           82.7  39 
 PTB  HZ EP       1233 21.04                             132   -0.24 9  144 260 
 PTB  HN ES       1233 41.85                             132    0.03 9  144 260 
 PTB  HZ I        1233 42.82         1.7 0.14            133            144 260 
 ZAR  HZ EP   2   1233 27.35                             122    0.28 4  203 294 
 ZAR  HN ES       1233 52.15                             122    0.03 9  203 294 
 ZAR  HZ I        1233 57.74         4.5 0.36            122            203 294 
                                                                                
