 2014  126 1600 31.9 L   6.788 -73.169132.0  RSN  9 0.8 1.9LRSN                1
 GAP=134        1.82       6.0     7.6 10.8 -0.9717E+01  0.2243E+02  0.1627E+02E
 Epicentro: LOS SANTOS - SANTANDER                                             3
 ACTION:UPD 14-03-13 09:58 OP:ep   STATUS:               ID:20140126160031 L   I
 OLDACT:REG 14-01-26 16:05 OP:stll STATUS:               ID:20140126155811     3
 2014-01-26-1558-11M.COL___240                                                 6
 STAT SP IPHASW D HRMM SECON CODA AMPLIT PERI AZIMU VELO AIN AR TRES W  DIS CAZ7
 BAR2 SZ EP       16 0 49.92                             170    0.1110 21.7 184 
 BAR2 SZ ES       16 1  3.86                             170    0.0510 21.7 184 
 BAR2 SZ I        16 1  5.97        39.9 0.20            169           21.7 184 
 BRR  HZ IP     C 16 0 51.80                             151    0.3410 69.7 300 
 BRR  HZ I        16 0 52.08        23.1 0.24            153           69.7 300 
 BRR  HN ES       16 1  7.99                             151    1.2610 69.7 300 
 PAM  SZ EP       16 0 52.82                             147    0.0010 80.0  40 
 PAM  SN ES       16 1  9.52                             147    0.3710 80.0  40 
 PAM  SZ I        16 1 12.00        28.0 0.58            150           80.0  40 
 RUS  HZ EP       16 0 53.96                             141   -0.2510 99.4 175 
 RUS  HN ES       16 1 11.29                             141   -0.3410 99.4 175 
 RUS  HZ I        16 1 14.03         4.7 0.26            142           99.4 175 
 PTB  HZ EP       16 0 57.04                             129   -0.45 9  145 259 
 PTB  HN ES       16 1 16.66                             129   -0.82 9  145 259 
 PTB  HZ I        16 1 19.82        14.5 0.16            131            145 259 
 OCA  HN ES       16 1 19.34                             126   -1.27 9  161 354 
 NOR  HZ EP       16 1  6.77                             116    0.24 8  232 234 
 NOR  HN ES       16 1 32.19                             116   -1.37 8  232 234 
 NOR  HZ I        16 1 35.80         6.0 0.16            117            232 234 
 CHI  HZ EP       16 1  8.76                             114    0.13 8  247 195 
 CHI  HN ES       16 1 36.97                             114   -0.33 8  247 195 
 CHI  HZ I        16 1 41.58         1.9 0.28            116            247 195 
 GUY2CHZ EP       16 1 15.90                             110    1.34 7  298 235 
 GUY2CHN ES       16 1 49.42                             110    1.57 7  298 235 
 GUY2CHZ I        16 1 55.27         3.3 0.26                           298 235 
                                                                                
