 2017 1026 1106 53.9 L   6.188 -73.675104.8  RSN  5 0.3 1.3LRSN                1
 GAP=116        0.90       4.7     3.2  8.6 -0.3138E+01  0.6316E+01 -0.2688E+01E
 Epicentro: LA PAZ - SANTANDER                                                 3
 ACTION:UPD 17-11-07 19:37 OP:rebc STATUS:               ID:20171026110653 L   I
 OLDACT:UP  17-10-27 13:04 OP:nlst STATUS:               ID:20171026110653 L   3
 OLDACT:REG 17-10-26 20:18 OP:dhb  STATUS:               ID:20171026105735     3
 2017-10-26-1058-00M.COL___411                                                 6
 STAT SP IPHASW D HRMM SECON CODA AMPLIT PERI AZIMU VELO AIN AR TRES W  DIS CAZ7
 BAR2 EZ IP     C 11 7 11.36                             144    0.3110 70.4  51 
 BAR2 EZ ES       11 7 24.75                             144    0.2910 70.4  51 
 BAR2 EZ I        11 7 26.35        19.0 0.24            148           70.4  51 
 RUS  HZ EP       11 7 11.35                             143   -0.2610 73.2 117 
 RUS  HN ES       11 7 24.94                             143   -0.5210 73.2 117 
 RUS  HZ I        11 7 26.69         1.6 0.14            153           73.2 117 
 SPBC HZ EP       11 7 11.27                             142    0.1810 73.8 217 
 SPBC HE ES       11 7 25.07                             142    0.5310 73.8 217 
 SPBC HZ I        11 7 26.53        10.6 0.34            148           73.8 217 
 PTB  HZ EP       11 7 12.70                             134    0.0010 94.8 294 
 PTB  HN ES       11 7 27.01                             134   -0.3810 94.8 294 
 PTB  HZ I        11 7 35.39         3.2 0.09            136           94.8 294 
 NOR  HN ES       11 7 36.74                             120   -0.19 9  149 242 
                                                                                
