 2017  226 1432  9.7 L   6.712 -73.151148.9  RSN  4 0.2 1.3LRSN                1
 GAP=159        0.48       5.8     3.4  4.3 -0.1172E+02  0.1482E+01  0.1259E+01E
 Epicentro: VILLANUEVA - SANTANDER                                             3
 ACTION:UPD 17-05-24 15:40 OP:jn   STATUS:               ID:20170226143209 L   I
 OLDACT:REG 17-02-26 20:45 OP:cog  STATUS:               ID:20170226142744     3
 2017-02-26-1428-00M.COL___370                                                 6
 STAT SP IPHASW D HRMM SECON CODA AMPLIT PERI AZIMU VELO AIN AR TRES W  DIS CAZ7
 BAR2 EZ ES       1432 45.07                             174    0.0010 13.7 195 
 BAR2 EZ I        1432 46.57         4.6 0.19            160           13.7 195 
 BRR  HZ EP   4   1432 29.27                             152   -2.20 0 75.9 305 
 BRR  HN ES       1432 48.44                             152   -0.0010 75.9 305 
 BRR  HZ I        1432 55.73         5.8 0.28            138           75.9 305 
 PAM  EZ EP       1432 32.53                             149   -0.2310 85.4  36 
 PAM  EE ES       1432 50.86                             149    0.1310 85.4  36 
 PAM  EZ I        1433  9.87         2.6 0.38            136           85.4  36 
 PTB  HZ EP       1432 37.01                             133    0.26 9  146 263 
 PTB  HN ES       1432 57.70                             133   -0.14 9  146 263 
 PTB  HZ I        1433  3.47         2.0 0.40            132            146 263 
                                                                                
