 2012  426 1451 48.4 L   6.215 -74.243 23.3  RSN  4 0.4 1.2LRSN                1
 GAP=139        0.79       8.0     2.9  8.8  0.1470E+01 -0.1090E+01  0.6219E+02E
 Epicentro: CIMITARRA - SANTANDER                                              3
 ACTION:UPD 12-07-05 11:56 OP:tino STATUS:               ID:20120426145148 L   I
 2012-04-26-1450-00M.COL___186                                                 6
 STAT SP IPHASW D HRMM SECON CODA AMPLIT PERI AZIMU VELO AIN AR TRES W  DIS CAZ7
 PTB  HZ EP   1   1451 55.87                             116    -0.4 7   43 327 
 PTB  HN ES   1   1452  2.43                             116     0.1 7   43 327 
 PTB  HZ I        1452  2.95        12.4 0.18                            43 327 
 RUS  HZ EP   1   1452  9.46                              56     0.2 7  133 105 
 RUS  HN ES   1   1452 25.40                              56    -0.2 7  133 105 
 HEL  HZ EP   1   1452 10.28                              56     0.0 7  142 269 
 HEL  HE ES   1   1452 27.40                              56     0.1 7  142 269 
 HEL  HZ I        1452 28.84         5.3 0.14                           142 269 
 RREF HZ EP   1   1452 17.35                              56     0.8 7  190 220 
 RREF HN ES   1   1452 37.89                              56    -0.6 7  190 220 
                                                                                
