 2012  726 1250 33.4 L   6.754 -73.418120.0  RSN  4 0.3 1.6LRSN                1
 GAP=164        0.54       8.4     8.2  6.8  0.4635E+02  0.1843E+02  0.1953E+02E
 Epicentro: EL CARMEN DE CHUCURI - SANTANDER                                   3
 ACTION:UPD 12-08-14 11:45 OP:ep   STATUS:               ID:20120726125033 L   I
 2012-07-26-1250-00M.COL___215                                                 6
 STAT SP IPHASW D HRMM SECON CODA AMPLIT PERI AZIMU VELO AIN AR TRES W  DIS CAZ7
 BAR2 SZ EP       1250 50.23                             165     0.010   32 124 
 BAR2 SZ ES   1   1251  2.95                             165    -0.3 7   32 124 
 BAR2 SZ I        1251  4.45        38.3 0.36            160             32 124 
 BRR  HZ EP       1250 50.57                             155    -0.110   51 320 
 BRR  HZ I        1250 50.85        13.3 0.26            152             51 320 
 BRR  HN ES   1   1251  4.45                             155     0.3 7   51 320 
 RUS  HZ EP   2   1250 55.12                             137     0.2 5  102 159 
 RUS  HN ES   3   1251 12.31                             137     0.7 2  102 159 
 PTB  HZ EP   2   1250 55.55                             132     0.0 5  117 258 
 PTB  HN ES   3   1251 12.31                             132    -0.5 2  117 258 
 PTB  HZ I        1251 18.69         1.8 0.30            126            117 258 
