 2014  326 1700 57.0 L   6.104 -73.612105.9  RSN  4 0.4 1.1LRSN                1
 GAP=135        0.95       6.4     3.8 10.5 -0.2455E+01  0.1444E+02  0.2094E+02E
 Epicentro: CHIPATA - SANTANDER                                                3
 ACTION:UPD 14-04-09 23:20 OP:nd   STATUS:               ID:20140326170057 L   I
 OLDACT:REG 14-03-26 15:02 OP:mh   STATUS:               ID:20140326165813     3
 2014-03-26-1658-13M.COL___247                                                 6
 STAT SP IPHASW D HRMM SECON CODA AMPLIT PERI AZIMU VELO AIN AR TRES W  DIS CAZ7
 RUS  HZ EP       17 1 14.11                             147   -0.0610 63.0 112 
 RUS  HN ES   1   17 1 26.94                             147   -0.60 7 63.0 112 
 RUS  HZ I        17 1 32.08         1.4 0.13            154           63.0 112 
 BAR2 SZ EP       17 1 14.79                             143    0.3610 71.9  41 
 BAR2 SZ ES       17 1 28.32                             143    0.3210 71.9  41 
 BAR2 SZ I        17 1 30.95        10.6 0.20            154           71.9  41 
 PTB  HZ EP       17 1 16.27                             131   -0.6010  105 297 
 PTB  HN ES       17 1 32.20                             131   -0.1610  105 297 
 PTB  HZ I        17 1 36.12         2.3 0.06            140            105 297 
 NOR  HZ EP       17 1 21.60                             120    0.07 9  152 247 
 NOR  HN ES       17 1 41.10                             120    0.46 9  152 247 
 NOR  HZ I        17 1 45.13         2.7 0.16            127            152 247 
                                                                                
