 2014  926 1522  4.0 L   7.219 -73.447115.1  RSN  6 0.5 1.9LRSN                1
 GAP=102        1.17       5.0     4.2  8.7 -0.3587E+00  0.1014E+02 -0.1564E+02E
 Epicentro: SABANA DE TORRES - SANTANDER                                       3
 ACTION:UPD 14-10-03 23:08 OP:nd   STATUS:               ID:20140926152204 L   I
 OLDACT:UP  14-09-26 22:55 OP:cam  STATUS:               ID:20140926152000     3
 OLDACT:UP  14-09-26 22:55 OP:cam  STATUS:               ID:20140926152000     3
 OLDACT:REG 14-09-26 20:39 OP:cam  STATUS:               ID:20140926152000     3
 2014-09-26-1520-00M.COL___252                                                 6
 STAT SP IPHASW D HRMM SECON CODA AMPLIT PERI AZIMU VELO AIN AR TRES W  DIS CAZ7
 BRR  HZ EP       1522 19.84                             163   -0.0110 31.7 247 
 BRR  HN ES       1522 32.41                             163    0.1910 31.7 247 
 BRR  HZ I        1522 33.07        19.9 0.50            164           31.7 247 
 BAR2 SZ EP     C 1522 22.87                             145    0.3210 75.2 157 
 BAR2 SZ ES       1522 37.36                             145    0.3410 75.2 157 
 BAR2 SZ I        1522 38.37        65.4 0.46            149           75.2 157 
 PAM  SZ EP       1522 23.72                             142    0.2010 83.7  81 
 PAM  SN ES       1522 38.30                             142   -0.4510 83.7  81 
 PAM  SZ I        1522 40.78         8.2 0.20            145           83.7  81 
 PTB  HZ EP     D 1522 26.90                             127   -0.4310  134 236 
 PTB  HN ES       1522 44.66                             127   -0.8810  134 236 
 PTB  HZ I        1522 48.94         7.3 0.38            129            134 236 
 ZAR  HZ EP       1522 30.56                             122    0.79 9  159 281 
 ZAR  HN ES       1522 50.32                             122    0.45 9  159 281 
 ZAR  HZ I        1522 52.53        14.7 0.12            123            159 281 
 SML  HZ EP       1522 32.37                             117   -0.50 9  188 339 
 SML  HN ES       1522 55.30                             117   -0.10 9  188 339 
 SML  HZ I        1523  0.99        14.5 0.28            118            188 339 
                                                                                
