 2015  826 1852 33.9 L   6.797 -73.164149.3  RSN  4 0.2 1.7LRSN                1
 GAP=145        0.56       6.3     5.9  6.2 -0.2062E+02  0.1169E+02 -0.7326E+01E
 Epicentro: LOS SANTOS - SANTANDER                                             3
 ACTION:UPD 15-09-15 23:05 OP:cam  STATUS:               ID:20150826185233 L   I
 OLDACT:REG 15-08-26 21:00 OP:spq  STATUS:               ID:20150826184748     3
 2015-08-26-1847-48M.COL___328                                                 6
 STAT SP IPHASW D HRMM SECON CODA AMPLIT PERI AZIMU VELO AIN AR TRES W  DIS CAZ7
 BAR2 EZ EP       1852 53.73                             171   -0.1910 22.7 185 
 BAR2 EZ ES       1853  9.74                             171    0.1910 22.7 185 
 BAR2 EZ I        1853 10.21         8.1 0.20            173           22.7 185 
 PAM  EZ EP       1852 56.84                             151    0.2710 79.0  41 
 PAM  EN ES       1853 14.02                             151   -0.2410 79.0  41 
 PAM  EZ I        1853 15.96         8.0 0.50            150           79.0  41 
 ZAR  HN ES   2   1853 31.75                             123    0.03 4  202 292 
 ZAR  HZ I        1853 36.43         7.3 0.26            122            202 292 
 GUY2CHZ EP   4   1853 19.21                             113    1.77 0  299 235 
 GUY2CHN ES   2   1853 51.11                             113   -0.31 4  299 235 
 GUY2CHZ I        1854  0.40         3.2 0.78                           299 235 
                                                                                
