 2015  926 1238  2.0 L   6.496 -73.506113.9  RSN  6 0.2 1.6LRSN                1
 GAP=141        0.61       2.8     4.0  6.3 -0.3841E+01  0.1167E+02 -0.2682E+01E
 Epicentro: SIMACOTA - SANTANDER                                               3
 ACTION:UPD 15-10-28 16:28 OP:cam  STATUS:               ID:20150926123802 L   I
 OLDACT:REG 15-09-26 20:34 OP:spq  STATUS:               ID:20150926122747     3
 2015-09-26-1227-47M.COL___355                                                 6
 STAT SP IPHASW D HRMM SECON CODA AMPLIT PERI AZIMU VELO AIN AR TRES W  DIS CAZ7
 BAR2 EZ EP       1238 18.56                             161    0.2510 37.3  73 
 BAR2 EZ ES   1   1238 31.16                             161    0.15 7 37.3  73 
 BAR2 EZ I        1238 32.35        20.2 0.40            165           37.3  73 
 BRR  HZ EP       1238 19.43                             146   -0.4310 71.4 341 
 BRR  HE ES       1238 33.78                             146    0.0210 71.4 341 
 BRR  HZ I        1238 43.22         9.7 0.18            146           71.4 341 
 PTB  HZ IP   4 D 1238 21.39                             134   -1.17 0  105 273 
 PTB  HN ES   4   1238 36.25                             134   -2.32 0  105 273 
 PTB  HZ I        1238 37.82         5.0 0.12            137            105 273 
 SPBC HN ES       1238 39.64                             132   -0.2510  112 214 
 SPBC HZ I        1238 41.57        11.4 0.12            139            112 214 
 NOR  HE ES       1238 52.69                             117    0.25 9  183 236 
 NOR  HZ I        1238 54.10         4.1 0.16            123            183 236 
 ZAR  HZ EP       1238 30.71                             117    0.10 9  186 306 
 ZAR  HN ES   1   1238 52.98                             117    0.09 7  186 306 
 ZAR  HZ I        1238 56.67         5.5 0.46            121            186 306 
                                                                                
