 2014  526 1447 53.1 L   6.731 -73.181143.1  RSN  4 0.2 1.5LRSN                1
 GAP=228        0.68       5.3     5.1  5.5  0.1327E+02  0.3384E+01  0.1177E+01E
 Epicentro: VILLANUEVA - SANTANDER                                             3
 ACTION:UPD 15-03-16 17:00 OP:nd   STATUS:               ID:20140526144753 L   I
 OLDACT:REG 14-05-26 23:31 OP:stll STATUS:               ID:20140526143807     3
 2014-05-26-1438-07M.COL___265                                                 6
 STAT SP IPHASW D HRMM SECON CODA AMPLIT PERI AZIMU VELO AIN AR TRES W  DIS CAZ7
 BAR2 SZ EP       1448 11.94                             174   -0.3310 15.4 180 
 BAR2 SZ ES       1448 26.98                             174   -0.2410 15.4 180 
 BAR2 SZ I        1448 28.33        14.6 0.22            168           15.4 180 
 BRR  HZ EP       1448 13.88                             152   -0.1110 71.9 305 
 BRR  HN ES       1448 30.70                             152    0.4010 71.9 305 
 BRR  HZ I        1448 33.84         6.7 0.36            148           71.9 305 
 RUS  HZ EP       1448 16.33                             145    0.2610 93.4 173 
 RUS  HZ I        1448 16.75         3.0 0.10            145           93.4 173 
 RUS  HN ES       1448 34.12                             145    0.1310 93.4 173 
 PTB  HZ EP       1448 19.48                             132    0.11 9  143 262 
 PTB  HN ES       1448 39.64                             132   -0.23 9  143 262 
 PTB  HZ I        1448 47.19         3.2 0.40            129            143 262 
                                                                                
