 2013  626 1654 21.2 L   6.778 -73.164145.8  RSN  5 0.3 1.7LRSN                1
 GAP=135        0.69       4.8     4.6  6.5 -0.1592E+01  0.3867E+01  0.4500E+00E
 Epicentro: LOS SANTOS - SANTANDER                                             3
 ACTION:UPD 14-01-08 09:57 OP:ep   STATUS:               ID:20130626165421 L   I
 OLDACT:REG 13-06-26 15:52 OP:carl STATUS:               ID:20130626164959     3
 2013-06-26-1649-59M.COL___267                                                 6
 STAT SP IPHASW D HRMM SECON CODA AMPLIT PERI AZIMU VELO AIN AR TRES W  DIS CAZ7
 BAR2 SZ EP       1654 40.74                             172   -0.0710 20.6 186 
 BAR2 SZ ES   1   1654 55.58                             172   -0.50 7 20.6 186 
 BAR2 SZ I        1654 56.68        12.6 0.32            171           20.6 186 
 BRR  HZ EP       1654 42.26                             153   -0.0910 70.6 301 
 BRR  HN ES   1   1654 59.54                             153    0.72 7 70.6 301 
 BRR  HN I        1655  0.23        31.1 0.32            153           70.6 301 
 PAM  SZ EP   1   1654 43.68                             150    0.04 7 80.6  40 
 PAM  SN ES   1   1655  0.98                             150   -0.14 7 80.6  40 
 PAM  SZ I        1655  2.69         6.4 0.54            153           80.6  40 
 RUS  HZ EP   1   1654 45.15                             144    0.33 7 98.3 175 
 RUS  HN ES   1   1655  3.44                             144    0.22 7 98.3 175 
 RUS  HZ I        1655  4.99         4.7 0.50            146           98.3 175 
 PTB  HZ EP   1   1654 47.81                             132   -0.16 7  145 260 
 PTB  HN ES   1   1655  8.52                             132   -0.31 7  145 260 
 PTB  HZ I        1655 12.38         4.3 0.18            133            145 260 
                                                                                
