 2017  826 1551 21.3 L   6.775 -73.008149.0  RSN  5 0.3 1.3LRSN                1
 GAP=156        0.91       4.4     5.5  7.4 -0.5383E+01  0.1224E+02  0.2018E+00E
 Epicentro: CEPITA - SANTANDER                                                 3
 ACTION:UPD 17-09-04 20:24 OP:rebc STATUS:               ID:20170826155121 L   I
 OLDACT:UP  17-08-27 00:01 OP:edw  STATUS:               ID:20170826154744     3
 OLDACT:REG 17-08-26 21:04 OP:edw  STATUS:               ID:20170826154744     3
 2017-08-26-1548-00M.COL___408                                                 6
 STAT SP IPHASW D HRMM SECON CODA AMPLIT PERI AZIMU VELO AIN AR TRES W  DIS CAZ7
 BAR2 EZ EP       1551 41.02                             169   -0.3610 28.0 224 
 BAR2 EZ ES       1551 56.47                             169   -0.6010 28.0 224 
 BAR2 EZ I        1551 57.23         5.9 0.44            168           28.0 224 
 PAM  EZ EP       1551 43.62                             153    0.1610 71.1  29 
 PAM  EN ES       1552  0.97                             153    0.1910 71.1  29 
 PAM  EZ I        1552  3.24         2.6 0.58            155           71.1  29 
 RUS  HZ EP       1551 45.30                             145    0.1610 97.9 185 
 RUS  HN ES       1552  4.24                             145    0.4710 97.9 185 
 RUS  HZ I        1552  4.73         2.2 0.24            146           97.9 185 
 SPBC HZ EP       1551 50.34                             128   -0.42 9  171 224 
 SPBC HN ES       1552 13.94                             128    0.16 9  171 224 
 SPBC HZ I        1552 18.92         4.9 0.32            129            171 224 
 ZAR  HN ES       1552 22.48                             121    0.29 8  219 291 
                                                                                
