 2011  126 1446 32.9 L   6.797 -73.134144.8  RSN 17 0.5 3.0LRSN                1
 GAP=137        1.20       4.0     7.4  6.9 -0.3350E+01  0.2177E+02  0.5848E+01E
 Epicentro: LOS SANTOS - SANTANDER                                             3
 ACTION:UP  11-02-08 08:42 OP:pat  STATUS:               ID:20110126144632 L   I
 2011-01-26-1444-36S.COL___138                                                 6
 STAT SP IPHASW D HRMM SECON CODA AMPLIT PERI AZIMU VELO SNR AR TRES W  DIS CAZ7
 BTL  SZ EP       1446 51.43                             172    -0.910   20 312 
 BTL  SZ ES   1   1447  7.36                             172    -0.2 7   20 312 
 BAR2 SZ EP       1446 52.28                             170    -0.210   23 194 
 BAR2 SZ ES   1   1447  7.59                             170    -0.1 7   23 194 
 BAR2 SZ I        1447  9.07       411.0 0.19                            23 194 
 GIR2 SZ EP   1   1446 52.36                             167    -0.1 7   32 348 
 GIR2 SZ ES   1   1447  8.22                             167     0.4 7   32 348 
 URB  SZ EP       1446 54.10                             159     0.910   54 336 
 RUS  HZ EP   1   1446 56.06                             144    -0.5 7  100 177 
 RUS  HN ES   1   1447 14.77                             144    -0.2 7  100 177 
 RUS  HZ I        1447 16.24       146.1 0.35                           100 177 
 GRA  SZ IP       1446 58.08                             137     0.010  126  17 
 GRA  SZ ES   1   1447 17.68                             137     0.0 7  126  17 
 GRA  SZ I        1447 19.60        93.3 0.37                           126  17 
 OCA  SZ EP   1   1447  0.69                             129    -0.5 7  161 353 
 OCA  SZ ES   1   1447 23.73                             129     0.5 7  161 353 
 OCA  SZ I        1447 29.55        92.7 0.22                           161 353 
 YOP  SZ EP   1   1447  2.70                             126    -0.1 7  178 154 
 YOP  SE ES   1   1447 26.79                             126     0.7 7  178 154 
 YOP  SZ I        1447 30.69        62.6 0.61                           178 154 
 NOR  SZ EP   1   1447  8.23                             118    -0.5 6  236 235 
 NOR  SN ES   1   1447 36.23                             118    -0.4 6  236 235 
 CHI  HZ EP   1   1447 10.12                             117    -0.4 6  249 195 
 CHI  HE ES   1   1447 40.05                             117     0.1 6  249 195 
 CHI  HZ I        1447 45.09        50.0 0.47                           249 195 
 ROSC BZ EP       1447 11.79                             116     0.8 8  253 211 
 ROSC BZ I        1447 47.16       131.1 0.50                           253 211 
 HEL  HZ EP       1447 13.36                             114     0.1 8  273 256 
 HEL  HZ I        1447 50.22        28.6 0.28                           273 256 
 GUY  SZ EP       1447 17.39                             112     0.8 7  302 235 
 GUY  SZ I        1448  1.97        93.7 0.51                           302 235 
 VIL  SZ EP       1447 15.82                             112    -0.3 7  302 190 
 RREF HZ EP       1447 19.47                             111     0.4 7  323 230 
 RREF HZ I        1448  0.65        59.7 0.46                           323 230 
 DBB  SZ EP       1447 19.92                             109    -0.6 7  341 274 
 TOL  SZ EP       1447 21.45                             109     0.2 7  344 225 
                                                                                
