 2012  326 1951 23.9 L   6.821 -73.127146.7  RSN 21 0.4 3.1LRSN                1
 GAP=104        0.56       2.1     2.7  3.6 -0.8246E+00  0.1962E+01  0.1882E+01E
 ACTION:UP  12-03-31 23:23 OP:EP   STATUS:               ID:20120326195000 L   I
 2012-03-26-1950-00M.COL___196                                                 6
 STAT SP IPHASW D HRMM SECON CODA AMPLIT PERI AZIMU VELO SNR AR TRES W  DIS CAZ7
 BAR2 SZ IP       1951 43.61                             169    -0.110   26 194 
 BAR2 SZ I        1951 44.02       257.6 0.37                            26 194 
 BAR2 SZ ES   1   1951 59.17                             169     0.0 7   26 194 
 BRR  HZ IP       1951 45.37                             152     0.210   72 296 
 BRR  HE ES   1   1952  2.30                             152     0.5 7   72 296 
 BRR  HZ I        1952  5.85       309.7 0.20                            72 296 
 PAM  SZ EP       1951 46.34                             152     0.310   74  39 
 PAM  SN ES   1   1952  3.17                             152    -0.1 7   74  39 
 RUS  HZ EP   2   1951 47.65                             143    -0.3 5  103 177 
 RUS  HN ES   2   1952  6.67                             143     0.0 5  103 177 
 RUS  HZ I        1952  8.19       113.9 0.33                           103 177 
 PTB  HZ EP   2   1951 50.28                             132    -0.9 5  150 258 
 PTB  HE ES   2   1952 12.24                             132    -0.2 5  150 258 
 PTB  HZ I        1952 15.07        80.9 0.27                           150 258 
 OCA  SZ EP   1   1951 51.92                             130    -0.2 7  158 352 
 OCA  SZ ES   2   1952 13.61                             130    -0.5 5  158 352 
 YOP  SZ EP   1   1951 54.47                             126     0.3 7  180 154 
 YOP  SZ I        1951 57.36        56.1 0.25                           180 154 
 YOP  SN ES   2   1952 17.07                             126    -0.6 4  180 154 
 ZAR  HZ EP   2   1951 56.49                             122     0.0 4  205 291 
 ZAR  HN ES   2   1952 21.64                             122    -0.3 4  205 291 
 ZAR  HZ I        1952 27.14       120.8 0.33                           205 291 
 NOR  SZ EP       1951 59.87                             118    -0.1 8  238 234 
 NOR  SE ES   2   1952 27.56                             118    -0.6 4  238 234 
 CHI  HZ EP   1   1952  2.07                             117     0.1 6  251 195 
 CHI  HN ES   1   1952 31.89                             117     0.2 6  251 195 
 CHI  HZ I        1952 36.65        69.6 0.24                           251 195 
 ROSC BZ EP   2   1952  3.23                             117     0.8 4  256 211 
 ROSC BN ES   2   1952 32.19                             117    -0.3 4  256 211 
 ROSC BZ I        1952 38.04       148.0 0.71                           256 211 
 HEL  HZ EP   2   1952  5.05                             115     0.6 4  275 255 
 HEL  HN ES   2   1952 35.95                             115    -0.1 4  275 255 
 HEL  HZ I        1952 43.17       103.9 0.36                           275 255 
 VIL  SZ EP   1   1952  7.72                             112     0.0 5  306 192 
 VIL  SN ES   2   1952 41.44                             112    -0.4 4  306 192 
 VIL  SZ I        1952 52.50        53.2 0.40                           306 192 
 GUY  SZ EP   2   1952  8.50                             112     0.3 4  307 235 
 GUY  SE ES   2   1952 42.65                             112     0.0 4  307 235 
 GUY  SZ I        1952 51.68        73.1 0.49                           307 235 
 RREF HZ EP   1   1952 10.32                             111    -0.1 5  325 229 
 RREF HE ES   2   1952 46.32                             111    -0.4 3  325 229 
 RREF HZ I        1952 55.74        79.4 0.34                           325 229 
 DBB  SZ EP   2   1952 12.38                             110     0.7 3  341 274 
 DBB  SZ ES   2   1952 49.02                             110     0.1 3  341 274 
 COD  HZ EP   2   1952 11.49                             109    -0.6 3  346 354 
 COD  HE ES   2   1952 49.51                             109    -0.1 3  346 354 
 TOL  SZ EP   2   1952 13.05                             109     0.5 3  347 225 
 TOL  SZ ES   2   1952 50.14                             109    -0.4 3  347 225 
 SDV  BZ EP   2   1952 13.14                             109    -0.5 3  357  50 
 PRA  HZ EP   1   1952 18.22                             106     0.4 4  395 210 
 PRA  HN ES   2   1952 59.85                             106     0.0 3  395 210 
 SJA  SZ EP   2   1952 18.02                             106    -0.8 3  403 193 
 SJA  SZ ES   2   1953  1.59                             106    -0.1 3  403 193 
 SJA  SZ I        1953 11.97        88.8 0.48                           403 193 
                                                                                
