 2013  426 1154 39.5 L   6.792 -73.095143.6  RSN  9 0.3 1.9LRSN                1
 GAP=143        0.71       3.5     4.2  4.9 -0.1982E+00  0.7284E+01  0.4401E+01E
 Epicentro: LOS SANTOS - SANTANDER                                             3
 ACTION:UPD 13-05-22 14:41 OP:EP   STATUS:               ID:20130426115439 L   I
 2013-04-26-1150-00M.COL___249                                                 6
 STAT SP IPHASW D HRMM SECON CODA AMPLIT PERI AZIMU VELO AIN AR TRES W  DIS CAZ7
 BAR2 SZ EP     C 1154 58.89                             170    0.0110 24.1 204 
 BAR2 SZ ES   1   1155 14.02                             170    0.01 7 24.1 204 
 BAR2 SZ I        1155 15.38        18.8 0.16            166           24.1 204 
 GIR2 SZ EP       1154 58.93                             166   -0.0410 33.5 341 
 GIR2 SZ ES   1   1155 13.78                             166   -0.39 7 33.5 341 
 GIR2 SZ I        1155 15.74         9.6 0.48            162           33.5 341 
 PAM  SZ IP     C 1155  1.81                             151    0.4910 74.7  36 
 PAM  SN ES   1   1155 18.31                             151   -0.03 7 74.7  36 
 PAM  SZ I        1155 21.14        13.3 0.38            156           74.7  36 
 BRR  HZ IP     D 1155  0.66                             150   -0.0710 76.5 297 
 BRR  HN ES   1   1155 17.73                             150    0.44 7 76.5 297 
 BRR  HZ I        1155 21.74        12.1 0.20            146           76.5 297 
 RUS  HZ EP     C 1155  2.85                             144   -0.1110 99.5 179 
 RUS  HN ES   1   1155 21.01                             144   -0.24 7 99.5 179 
 RUS  HZ I        1155 22.75        12.1 0.28            146           99.5 179 
 ZAR  HZ EP       1155 11.92                             121   -0.45 8  210 292 
 ZAR  HN ES   1   1155 37.70                             121   -0.32 6  210 292 
 ZAR  HZ I        1155 44.78         5.0 0.38            121            210 292 
 SML  HZ EP   4   1155 15.25                             117   -1.10 0  247 334 
 SML  HN ES   4   1155 44.99                             117   -0.10 0  247 334 
 SML  HZ I        1155 48.08         9.6 0.24            118            247 334 
 GUY  HZ EP       1155 24.07                             111    0.34 7  308 236 
 GUY  HN ES   1   1155 59.21                             111    0.97 5  308 236 
 GUY  HZ I        1156  6.52         3.1 0.64            112            308 236 
 PRA  HZ EP       1155 32.89                             106   -0.29 6  394 210 
 PRA  HN ES   1   1156 14.77                             106   -0.28 4  394 210 
 PRA  HZ I        1156 16.96         2.5 0.26            107            394 210 
                                                                                
