 2015  526 1450 55.7 L   6.884 -73.308127.3  RSN  9 0.4 1.9LRSN                1
 GAP=124        0.89       3.6     4.4  6.5  0.3024E+01  0.6462E+01 -0.3946E+01E
 Epicentro: BETULIA - SANTANDER                                                3
 ACTION:UPD 15-09-10 22:07 OP:cam  STATUS:               ID:20150526145055 L   I
 OLDACT:REG 15-05-26 22:41 OP:spq  STATUS:               ID:20150526144748     3
 2015-05-26-1447-48M.COL___288                                                 6
 STAT SP IPHASW D HRMM SECON CODA AMPLIT PERI AZIMU VELO AIN AR TRES W  DIS CAZ7
 BAR2 EZ EP     D 1451 13.30                             164   -0.1310 35.2 157 
 BAR2 EZ ES   1   1451 26.57                             164   -0.71 7 35.2 157 
 BAR2 EZ I        1451 27.80        50.8 0.24            167           35.2 157 
 BRR  HZ EP       1451 13.76                             157    0.0310 51.0 299 
 BRR  HN ES       1451 28.10                             157    0.2910 51.0 299 
 BRR  HZ I        1451 29.31        18.8 0.30            154           51.0 299 
 PAM  SZ EP       1451 16.79                             145    0.3710 84.0  53 
 PAM  SN ES       1451 33.04                             145    0.4510 84.0  53 
 PAM  SZ I        1451 34.97        14.2 0.30            146           84.0  53 
 RUS  HZ EP   1   1451 18.66                             136    0.03 7  112 167 
 RUS  HE ES   1   1451 36.27                             136   -0.26 7  112 167 
 RUS  HZ I        1451 36.96         9.9 0.28            139            112 167 
 OCA  HZ EP   1   1451 21.50                             127   -0.09 7  150 360 
 OCA  HN ES       1451 41.16                             127   -0.64 9  150 360 
 ZAR  HZ EP   1   1451 24.59                             121   -0.26 7  184 292 
 ZAR  HN ES   1   1451 48.38                             121    0.78 7  184 292 
 ZAR  HZ I        1451 51.85        12.0 0.36            121            184 292 
 SML  HZ EP   1   1451 29.98                             115    0.38 6  228 338 
 SML  HE ES   1   1451 55.60                             115   -0.45 6  228 338 
 SML  HZ I        1452  1.39        15.1 0.13            115            228 338 
 MON  HZ EP   4   1451 40.49                             106   -1.21 0  334 309 
 MON  HN ES   1   1452 17.27                             106   -0.32 5  334 309 
 MON  HZ I        1452 20.84         1.7 0.24            106            334 309 
 SJC  HZ EP   4   1451 47.51                             103   -1.11 0  392 328 
 SJC  HN ES   4   1452 27.28                             103   -2.62 0  392 328 
 SJC  HZ I        1452 31.88         1.3 0.52            104            392 328 
                                                                                
