 2017  526 1148 48.5 L   6.735 -73.194145.2  RSN  6 0.2 1.7LRSN                1
 GAP=227        0.48       2.7     3.2  4.4  0.4061E+01  0.2847E+00 -0.3758E+00E
 Epicentro: VILLANUEVA - SANTANDER                                             3
 ACTION:UPD 17-06-16 13:39 OP:jn   STATUS:               ID:20170526114848 L   I
 OLDACT:UP  17-05-26 22:58 OP:dnl  STATUS:               ID:20170526114742     3
 OLDACT:UP  17-05-26 22:57 OP:dnl  STATUS:               ID:20170526114742     3
 OLDACT:UP  17-05-26 22:55 OP:dnl  STATUS:               ID:20170526114742     3
 OLDACT:UP  17-05-26 22:55 OP:dnl  STATUS:               ID:20170526114742     3
 OLDACT:UP  17-05-26 22:54 OP:dnl  STATUS:               ID:20170526114742     3
 OLDACT:REG 17-05-26 21:48 OP:dnl  STATUS:               ID:20170526114742     3
 2017-05-26-1148-00M.COL___341                                                 6
 STAT SP IPHASW D HRMM SECON CODA AMPLIT PERI AZIMU VELO AIN AR TRES W  DIS CAZ7
 BRR  HZ EP       1149  9.39                             153   -0.1110 70.5 306 
 BRR  HN ES       1149 25.86                             153   -0.0610 70.5 306 
 BRR  HZ I        1149 30.23         5.8 0.20            145           70.5 306 
 RUS  HZ EP       1149 11.91                             146    0.2410 93.9 173 
 RUS  HN ES       1149 29.74                             146   -0.0510 93.9 173 
 RUS  HZ I        1149 31.88         3.0 0.18            137           93.9 173 
 PTB  HZ EP       1149 14.52                             133   -0.27 9  141 261 
 PTB  HN ES       1149 35.29                             133   -0.04 9  141 261 
 PTB  HZ I        1149 41.16         3.1 0.38            123            141 261 
 SPBC HZ EP   2   1149 16.42                             131    0.36 5  154 219 
 SPBC HZ I        1149 35.01        34.6 0.24            121            154 219 
 SPBC HN ES       1149 37.63                             131    0.03 9  154 219 
 ZAR  HZ EP   4   1149 22.09                             122    1.44 0  202 295 
 ZAR  HE ES       1149 46.06                             122    0.29 9  202 295 
 ZAR  HZ I        1149 51.24         5.1 0.36            114            202 295 
 NOR  HZ EP   2   1149 22.87                             119   -0.37 4  226 235 
 NOR  HE ES   4   1149 52.28                             119    1.91 0  226 235 
 NOR  HZ I        1149 55.50         3.0 0.40            111            226 235 
                                                                                
