 2012  926 1357 43.1 L   6.656 -73.210152.3  RSN  5 0.3 2.1LRSN                1
 GAP=154        0.68      10.9     6.0 10.2  0.1957E+02 -0.1304E+02 -0.1740E+01E
 Epicentro: BARICHARA - SANTANDER                                              3
 ACTION:UPD 12-10-22 14:20 OP:ep   STATUS:               ID:20120926135743 L   I
 2012-09-26-1350-00M.COL___217                                                 6
 STAT SP IPHASW D HRMM SECON CODA AMPLIT PERI AZIMU VELO AIN AR TRES W  DIS CAZ7
 BAR2 SZ EP       1358  3.21                             177   -0.1010 7.70 156 
 GIR2 SZ EP   1   1358  3.52                             162   -0.51 7 46.8   2 
 BRR  HZ EP       1358  5.57                             152    0.4310 74.6 312 
 BRR  HN ES   1   1358 22.49                             152    0.15 7 74.6 312 
 BRR  HN I        1358 23.01        34.2 0.16                          74.6 312 
 PTB  HN ES   1   1358 30.58                             135   -0.02 7  138 265 
 PTB  HN I        1358 31.53         8.4 0.36                           138 265 
 ZAR  HZ EP   1   1358 16.08                             124    0.10 6  204 297 
 ZAR  HN ES   1   1358 41.24                             124   -0.40 6  204 297 
 ZAR  HN I        1358 47.01        11.0 0.36                           204 297 
                                                                                
