 2016  126 1122 53.9 L   6.817 -73.135149.4  RSN 17 0.5 2.2LRSN                1
 GAP=137        1.07       2.7     3.9  5.4 -0.2711E+01  0.8917E+01 -0.3716E+00E
 Epicentro: LOS SANTOS - SANTANDER                                             3
 ACTION:UPD 16-03-09 23:28 OP:cam  STATUS:               ID:20160126112253 L   I
 OLDACT:REG 16-01-26 21:17 OP:ak   STATUS:               ID:20160126111744     3
 2016-01-26-1117-44M.COL___328                                                 6
 STAT SP IPHASW D HRMM SECON CODA AMPLIT PERI AZIMU VELO AIN AR TRES W  DIS CAZ7
 BAR2 EZ EP       1123 14.09                             170    0.1010 25.4 192 
 BAR2 EZ ES       1123 29.91                             170    0.2410 25.4 192 
 BAR2 EZ I        1123 30.80        15.3 0.28            168           25.4 192 
 PAM  EZ EP       1123 16.64                             152    0.2910 75.2  40 
 PAM  EN ES       1123 33.39                             152   -0.4910 75.2  40 
 PAM  EZ I        1123 36.26        13.5 0.22            157           75.2  40 
 RUS  HZ EP       1123 18.01                             144   -0.1110  102 177 
 RUS  HN ES       1123 36.74                             144   -0.2810  102 177 
 RUS  HZ I        1123 37.72         9.4 0.28            147            102 177 
 PTB  HZ EP       1123 20.95                             132   -0.33 9  149 258 
 PTB  HN ES       1123 42.42                             132   -0.23 9  149 258 
 PTB  HZ I        1123 49.63        16.9 0.44            132            149 258 
 OCA  HZ EP       1123 23.23                             131    0.92 9  159 353 
 OCA  HE ES       1123 43.75                             131   -0.74 9  159 353 
 OCA  HZ I        1123 50.06        22.4 0.18            133            159 353 
 SPBC HZ EP       1123 23.16                             129    0.30 9  165 219 
 SPBC HN ES       1123 45.81                             129    0.34 9  165 219 
 SPBC HZ I        1123 52.25        22.7 0.38            130            165 219 
 ZAR  HZ EP       1123 27.30                             123    0.70 9  204 292 
 ZAR  HN ES       1123 51.97                             123   -0.15 9  204 292 
 ZAR  HZ I        1123 57.66        16.5 0.46            124            204 292 
 NOR  HZ EP       1123 30.16                             119    0.12 8  237 234 
 NOR  HN ES       1123 58.37                             119    0.13 8  237 234 
 NOR  HZ I        1124  5.37         9.6 0.34            120            237 234 
 SML  HZ EP       1123 30.29                             118   -0.28 8  242 335 
 SML  HE ES       1123 59.86                             118    0.66 8  242 335 
 SML  HZ I        1124  5.15        13.3 0.06            120            242 335 
 HEL  HZ EP       1123 35.43                             115    0.98 8  274 255 
 HEL  HE ES       1124  5.57                             115   -0.53 8  274 255 
 HEL  HZ I        1124 12.55         5.4 0.50            116            274 255 
 SOCV BZ EP   4   1123 34.89                             113   -1.97 0  299  57 
 SOCV BN ES   4   1124  7.64                             113   -2.76 0  299  57 
 GUY2CHZ EP       1123 38.13                             113    0.25 7  303 235 
 GUY2CHE ES   4   1124 14.59                             113    2.38 0  303 235 
 GUY2CHZ I        1124 21.32         6.9 0.62                           303 235 
 ELA  HZ EP   2   1123 40.69                             111   -0.43 3  331 229 
 ELA  HN ES       1124 18.93                             111    0.95 7  331 229 
 ELA  HZ I        1124 25.89         5.4 0.38            112            331 229 
 DBB  SZ EP       1123 41.18                             110   -0.44 7  340 274 
 DBB  SZ ES       1124 18.61                             110   -0.25 7  340 274 
 DBB  SZ I        1124 20.65        16.5 0.40            111            340 274 
 ANIL HZ EP       1123 43.41                             109   -0.66 6  360 224 
 ANIL HE ES       1124 22.99                             109   -0.23 6  360 224 
 ANIL HZ I        1124 30.45        13.7 0.38            111            360 224 
 PRA  HZ EP       1123 47.53                             107   -0.25 6  394 210 
 PRA  HN ES       1124 29.44                             107   -0.39 6  394 210 
 PRA  HZ I        1124 35.53         6.5 0.54            109            394 210 
 ORTC HZ EP       1123 47.33                             107   -0.85 6  398 216 
 ORTC HN ES       1124 30.44                             107   -0.10 6  398 216 
 ORTC HZ I        1124 35.76         3.9 0.32            108            398 216 
 SJC  HZ EP       1123 48.39                             106   -1.05 6  408 327 
 SJC  HE ES   4   1124 29.57                             106   -3.22 0  408 327 
                                                                                
