 2015  726 1213  2.3 L   6.887 -73.305123.2  RSN  6 0.5 2.1LRSN                1
 GAP=104        1.27       5.2     6.2 11.2 -0.9180E+01  0.3918E+02 -0.2159E+02E
 Epicentro: BETULIA - SANTANDER                                                3
 ACTION:UPD 15-09-08 21:50 OP:cam  STATUS:               ID:20150726121302 L   I
 OLDACT:DUP 15-07-26 22:24 OP:stll STATUS:               ID:20150726120749d    3
 2015-07-26-1207-48M.COL___340                                                 6
 STAT SP IPHASW D HRMM SECON CODA AMPLIT PERI AZIMU VELO AIN AR TRES W  DIS CAZ7
 BAR2 EZ EP       1213 19.72                             163    0.1310 35.3 157 
 BAR2 EZ ES       1213 32.46                             163   -0.6110 35.3 157 
 BAR2 EZ I        1213 34.08        46.8 0.40            169           35.3 157 
 PAM  EZ EP       1213 22.90                             144    0.3010 83.5  53 
 PAM  EN ES       1213 39.08                             144    0.6510 83.5  53 
 PAM  EZ I        1213 41.36        13.2 0.30            147           83.5  53 
 OCA  HZ EP     D 1213 27.91                             126    0.02 9  150 359 
 OCA  HN ES       1213 47.29                             126   -0.56 9  150 359 
 OCA  HZ I        1213 48.89        30.9 0.32            128            150 359 
 ZAR  HZ EP       1213 31.67                             120    0.42 9  184 291 
 ZAR  HE ES       1213 54.74                             120    0.91 9  184 291 
 ZAR  HZ I        1213 58.08        10.8 0.34            122            184 291 
 NOR  HE ES       1214  1.78                             114   -0.39 8  227 230 
 SML  HZ EP       1213 35.33                             114   -0.67 8  228 338 
 SML  HN ES       1214  1.81                             114   -0.48 8  228 338 
 SML  HZ I        1214  8.15        12.2 0.28            116            228 338 
                                                                                
