 2016  826 1649 35.5 L   6.522 -73.753 89.9  RSN  5 0.5 1.7LRSN                1
 GAP=132        1.19       4.9     4.0 10.6  0.6307E+01  0.8053E+01 -0.7001E+01E
 Epicentro: SANTA HELENA DEL OPON - SANTANDER                                  3
 ACTION:UPD 16-10-29 15:39 OP:rebc STATUS:               ID:20160826164935 L   I
 OLDACT:REG 16-08-26 21:46 OP:ar   STATUS:               ID:20160826164735     3
 2016-08-26-1648-00M.COL___371                                                 6
 STAT SP IPHASW D HRMM SECON CODA AMPLIT PERI AZIMU VELO AIN AR TRES W  DIS CAZ7
 BAR2 EZ EP       1649 50.77                             142    0.0210 63.6  83 
 BAR2 EZ ES       1650  2.64                             142    0.0210 63.6  83 
 BAR2 EZ I        1650  4.09        25.9 0.32                          63.6  83 
 PTB  HZ EP       1649 50.57                             136   -1.0210 77.8 271 
 PTB  HN ES       1650  3.87                             136   -0.2510 77.8 271 
 PTB  HZ I        1650  6.56        10.3 0.16                          77.8 271 
 RUS  HZ EP       1649 54.46                             128    0.0310  102 133 
 RUS  HE ES       1650  9.14                             128   -0.0410  102 133 
 RUS  HZ I        1650 11.37         5.9 0.26                           102 133 
 SPBC HZ EP       1649 54.38                             127    0.4010  103 200 
 SPBC HN ES       1650  8.67                             127    0.3010  103 200 
 SPBC HZ I        1650 10.74        11.6 0.20                           103 200 
 ZAR  HZ EP       1650  0.08                             114   -0.19 9  163 311 
 ZAR  HN ES       1650 20.41                             114    0.84 9  163 311 
 ZAR  HZ I        1650 23.18        10.7 0.24                           163 311 
                                                                                
