 2016  126 1135 47.2 L   6.776 -73.172137.4  RSN  8 0.3 1.7LRSN                1
 GAP=134        0.80       2.9     3.5  5.7 -0.8288E+00  0.7965E+01 -0.2615E+01E
 Epicentro: LOS SANTOS - SANTANDER                                             3
 ACTION:UPD 16-03-09 23:28 OP:cam  STATUS:               ID:20160126113547 L   I
 OLDACT:UP  16-01-27 00:02 OP:ak   STATUS:               ID:20160126112750     3
 OLDACT:REG 16-01-26 21:17 OP:ak   STATUS:               ID:20160126112750     3
 2016-01-26-1127-50M.COL___328                                                 6
 STAT SP IPHASW D HRMM SECON CODA AMPLIT PERI AZIMU VELO AIN AR TRES W  DIS CAZ7
 BAR2 EZ EP       1136  5.46                             171   -0.2610 20.3 183 
 BAR2 EZ ES       1136 20.41                             171    0.2010 20.3 183 
 BAR2 EZ I        1136 22.45        11.4 0.24            173           20.3 183 
 PAM  EZ EP       1136  8.69                             148   -0.0510 81.3  40 
 PAM  EN ES       1136 25.71                             148    0.1410 81.3  40 
 PAM  EZ I        1136 27.87        19.5 0.80            150           81.3  40 
 RUS  HZ EP       1136  9.57                             143   -0.3510 98.2 174 
 RUS  HN ES       1136 27.71                             143    0.0410 98.2 174 
 RUS  HZ I        1136 28.73         4.8 0.26            148           98.2 174 
 PTB  HZ EP       1136 12.99                             131   -0.16 9  144 260 
 PTB  HN ES       1136 33.16                             131   -0.26 9  144 260 
 PTB  HZ I        1136 36.31         4.2 0.10            132            144 260 
 SPBC HZ EP       1136 14.70                             128    0.05 9  159 219 
 SPBC HE ES       1136 36.25                             128    0.15 9  159 219 
 SPBC HZ I        1136 37.76         4.4 0.19            131            159 219 
 ZAR  HZ EP       1136 19.89                             121    0.99 9  202 293 
 ZAR  HN ES       1136 43.53                             121   -0.13 9  202 293 
 ZAR  HZ I        1136 50.29         9.4 0.30            122            202 293 
 SML  HZ EP   4   1136 22.08                             115   -1.39 0  245 336 
 SML  HN ES       1136 51.47                             115   -0.32 8  245 336 
 SML  HZ I        1136 57.92         9.4 0.19            117            245 336 
 GUY2CHZ EP   2   1136 30.35                             111    0.40 4  297 235 
 GUY2CHN ES   4   1137  5.84                             111    2.51 0  297 235 
 GUY2CHZ I        1137 12.73         2.5 0.32                           297 235 
                                                                                
