 2016  526 1131 17.7 L   6.828 -73.140153.1  RSN  7 0.6 1.9LRSN                1
 GAP=241        1.39       7.1     7.5  8.8  0.1291E+02  0.1725E+02 -0.8378E+00E
 Epicentro: LOS SANTOS - SANTANDER                                             3
 ACTION:UPD 16-08-18 17:49 OP:cam  STATUS:               ID:20160526113117 L   I
 OLDACT:REG 16-05-26 20:46 OP:ar   STATUS:               ID:20160526112742     3
 2016-05-26-1127-42M.COL___313                                                 6
 STAT SP IPHASW D HRMM SECON CODA AMPLIT PERI AZIMU VELO AIN AR TRES W  DIS CAZ7
 BAR2 EZ EP       1131 38.30                             170    0.0510 26.5 190 
 BAR2 EZ ES       1131 53.57                             170   -0.7410 26.5 190 
 BAR2 EZ I        1131 55.89        12.4 0.34            165           26.5 190 
 BRR  HZ EP       1131 40.31                             154    0.7310 70.4 296 
 BRR  HN ES       1131 57.58                             154    0.9210 70.4 296 
 BRR  HZ I        1131 59.99        11.9 0.24            149           70.4 296 
 RUS  HZ EP       1131 42.19                             144   -0.1810  104 177 
 RUS  HN ES       1132  1.23                             144   -0.4010  104 177 
 RUS  HZ I        1132  3.58         5.8 0.42            145            104 177 
 PTB  HZ EP       1131 45.03                             133   -0.33 9  149 258 
 PTB  HN ES       1132  6.45                             133   -0.51 9  149 258 
 PTB  HZ I        1132 13.36        14.3 0.40            131            149 258 
 SPBC HZ EP       1131 47.19                             130    0.18 9  166 218 
 SPBC HE ES       1132 10.82                             130    0.93 9  166 218 
 SPBC HZ I        1132 15.81        10.5 0.12            129            166 218 
 NOR  HZ EP       1131 54.23                             120    0.14 8  237 234 
 NOR  HN ES       1132 22.36                             120   -0.13 8  237 234 
 NOR  HZ I        1132 27.68         5.5 0.32            119            237 234 
 URE  HZ EP       1131 58.97                             115   -0.08 7  283 291 
 URE  HE ES       1132 30.34                             115   -0.99 7  283 291 
 URE  HZ I        1132 42.20         6.8 0.16            115            283 291 
                                                                                
