 2013  626 1142 39.7 L   5.918 -73.605126.7  RSN 10 0.4 1.7LRSN                1
 GAP= 93        0.89       2.9     3.8  7.4 -0.2822E+01  0.8642E+01  0.1383E+01E
 Epicentro: BARBOSA - SANTANDER                                                3
 ACTION:UPD 14-01-08 09:57 OP:ep   STATUS:               ID:20130626114239 L   I
 OLDACT:REG 13-06-26 15:38 OP:carl STATUS:               ID:20130626113959     3
 2013-06-26-1139-59M.COL___267                                                 6
 STAT SP IPHASW D HRMM SECON CODA AMPLIT PERI AZIMU VELO AIN AR TRES W  DIS CAZ7
 RUS  HZ EP   1   1142 58.81                             154    0.01 7 57.9  93 
 RUS  HN ES   1   1143 13.49                             154   -0.17 7 57.9  93 
 RUS  HZ I        1143 14.26         3.6 0.42            160           57.9  93 
 BAR2 SZ EP       1143  0.65                             143    0.2910 88.0  32 
 BAR2 SZ ES   1   1143 16.41                             143   -0.02 7 88.0  32 
 BAR2 SZ I        1143 17.53        26.0 0.16            148           88.0  32 
 PTB  HZ EP   4   1143  1.04                             134   -1.31 0  117 306 
 PTB  HN ES   4   1143 17.99                             134   -1.98 0  117 306 
 PTB  HZ I        1143 24.07         7.3 0.26            136            117 306 
 BRR  HZ EP       1143  3.92                             131    0.2110  132 355 
 BRR  HN ES       1143 22.57                             131    0.1610  132 355 
 BRR  HN I        1143 23.02        15.6 0.20            134            132 355 
 GIR2 SZ EP       1143  4.58                             130    0.29 9  136  20 
 CHI  HZ EP   1   1143  5.36                             128    0.05 7  143 186 
 CHI  HN ES   1   1143 24.68                             128   -0.58 7  143 186 
 CHI  HZ I        1143 27.60         2.8 0.20            131            143 186 
 NOR  HZ EP   1   1143  5.11                             128    0.07 7  145 254 
 NOR  HN ES       1143 24.68                             128   -0.10 9  145 254 
 NOR  HZ I        1143 28.46        13.5 0.16            129            145 254 
 GUY2CHZ EP   1   1143 12.70                             117    0.49 6  209 249 
 GUY2CHN ES   1   1143 38.62                             117    1.08 6  209 249 
 GUY2CHZ I        1143 46.92         3.0 0.42                           209 249 
 ZAR  HZ EP   1   1143 12.07                             115   -0.96 6  222 322 
 ZAR  HE ES       1143 38.27                             115   -0.72 8  222 322 
 ZAR  HZ I        1143 40.43         6.6 0.32            118            222 322 
 PRA  HZ EP       1143 19.40                             110   -0.39 7  282 210 
 PRA  HN ES   1   1143 50.93                             110   -0.10 6  282 210 
 PRA  HZ I        1143 55.41         3.9 0.28            112            282 210 
                                                                                
