 2017  826 1716 35.8 L   6.760 -73.085148.1  RSN  6 0.3 1.4LRSN                1
 GAP=146        0.72       3.9     4.6  5.7 -0.1238E+01  0.4700E+01  0.2379E+01E
 Epicentro: LOS SANTOS - SANTANDER                                             3
 ACTION:UPD 17-09-04 20:24 OP:rebc STATUS:               ID:20170826171635 L   I
 OLDACT:UP  17-08-27 01:28 OP:mg   STATUS:               ID:20170826170740     3
 OLDACT:UP  17-08-27 01:28 OP:mg   STATUS:               ID:20170826170740     3
 OLDACT:REG 17-08-26 21:13 OP:edw  STATUS:               ID:20170826170740     3
 2017-08-26-1708-00M.COL___408                                                 6
 STAT SP IPHASW D HRMM SECON CODA AMPLIT PERI AZIMU VELO AIN AR TRES W  DIS CAZ7
 BAR2 EZ EP       1716 55.47                             171   -0.2210 21.5 210 
 BAR2 EZ ES       1717 11.61                             171    0.4210 21.5 210 
 BAR2 EZ I        1717 11.79         7.0 0.14            171           21.5 210 
 PAM  EZ EP       1716 58.40                             152    0.1510 76.9  34 
 PAM  EN ES       1717 15.47                             152   -0.2810 76.9  34 
 PAM  EZ I        1717 17.61         3.4 0.54            154           76.9  34 
 BRR  HZ EP       1716 57.54                             150   -0.1410 79.2 299 
 BRR  HN ES   1   1717 14.71                             150   -0.03 7 79.2 299 
 BRR  HZ I        1717 16.81         6.0 0.35            150           79.2 299 
 RUS  HZ EP       1716 59.47                             145   -0.0010 95.9 180 
 RUS  HN ES   1   1717 17.98                             145    0.06 7 95.9 180 
 RUS  HZ I        1717 19.31         1.7 0.28            147           95.9 180 
 SPBC HZ EP   1   1717  5.11                             129    0.52 7  164 222 
 SPBC HN ES   2   1717 25.92                             129   -1.11 5  164 222 
 SPBC HZ I        1717 29.19         4.3 0.17            130            164 222 
 ZAR  HN ES   1   1717 35.41                             122    0.12 6  212 293 
 ZAR  HZ I        1717 36.56         1.8 0.09            123            212 293 
                                                                                
