 2017  226 1728 56.6 L   6.767 -73.180148.8  RSN  4 0.4 1.3LRSN                1
 GAP=231        1.15       9.2     8.7  9.2  0.3926E+02  0.6898E+01  0.1600E+01E
 Epicentro: LOS SANTOS - SANTANDER                                             3
 ACTION:UPD 17-05-24 15:41 OP:jn   STATUS:               ID:20170226172856 L   I
 OLDACT:REG 17-02-26 21:02 OP:cog  STATUS:               ID:20170226172745     3
 2017-02-26-1728-00M.COL___375                                                 6
 STAT SP IPHASW D HRMM SECON CODA AMPLIT PERI AZIMU VELO AIN AR TRES W  DIS CAZ7
 BAR2 EZ EP       1729 16.33                             172   -0.2410 19.4 181 
 BAR2 EZ ES       1729 31.32                             172   -0.7810 19.4 181 
 BAR2 EZ I        1729 32.34         5.3 0.32            167           19.4 181 
 BRR  HZ EP       1729 18.37                             153    0.3310 69.7 303 
 BRR  HN ES       1729 35.26                             153    0.5310 69.7 303 
 BRR  HZ I        1729 38.40         5.2 0.30            150           69.7 303 
 RUS  HZ EP       1729 20.55                             145    0.0910 97.3 174 
 RUS  HN ES       1729 39.59                             145    0.5510 97.3 174 
 RUS  HZ I        1729 40.65         2.1 0.26            145           97.3 174 
 PTB  HZ EP       1729 23.08                             134   -0.39 9  143 260 
 PTB  HN ES       1729 44.24                             134   -0.15 9  143 260 
 PTB  HZ I        1729 50.87         2.6 0.56            131            143 260 
                                                                                
