 2011  326 1417  0.2 L   6.814 -73.126141.2  RSN  6 0.2 1.8LRSN                1
 GAP=178        0.36       4.5     4.2  6.1 -0.1035E+02 -0.6334E+01  0.1533E+02E
 Epicentro: LOS SANTOS - SANTANDER                                             3
 ACTION:UP  11-06-16 14:35 OP:jfem STATUS:               ID:20110326141700 L   I
 2011-03-26-1415-19S.COL___139                                                 6
 STAT SP IPHASW D HRMM SECON CODA AMPLIT PERI AZIMU VELO SNR AR TRES W  DIS CAZ7
 BTL  SZ EP   1   1417 19.42                             172     0.2 7   19 306 
 BAR2 SZ EP       1417 19.28                             169     0.010   25 195 
 BAR2 SZ ES   3   1417 34.36                             169     0.1 2   25 195 
 BAR2 SZ I        1417 41.34        26.7 0.74                            25 195 
 GIR2 SZ EP   3   1417 18.88                             167    -0.4 2   30 346 
 GIR2 SZ ES   3   1417 33.94                             167    -0.3 2   30 346 
 BRR  HZ EP       1417 21.02                             151     0.110   72 297 
 BRR  HN ES   1   1417 37.12                             151     0.0 7   72 297 
 BRR  HZ I        1417 42.43        10.3 0.17                            72 297 
 GRA  SZ ES   2   1417 43.80                             136    -0.3 5  124  17 
 GRA  SZ I        1417 47.10         5.3 0.34                           124  17 
 NOR  SZ EP   2   1417 35.78                             117    -0.2 4  237 235 
 NOR  SN ES   1   1418  3.77                             117    -0.1 6  237 235 
                                                                                
