 2012  126 1841 38.0 L   6.760 -73.119145.6  RSN  7 0.2 2.1LRSN                1
 GAP=142        0.68       4.3     5.5  5.8 -0.1340E+01  0.6272E+01  0.1903E+01E
 Epicentro: LOS SANTOS - SANTANDER                                             3
 ACTION:UP  12-02-03 08:21 OP:REBC STATUS:               ID:20120126184138 L   I
 2012-01-26-1840-00M.COL___188                                                 6
 STAT SP IPHASW D HRMM SECON CODA AMPLIT PERI AZIMU VELO SNR AR TRES W  DIS CAZ7
 BAR2 SZ EP       1841 57.61                             172     0.110   20 201 
 BAR2 SZ ES   1   1842 12.67                             172    -0.1 7   20 201 
 BAR2 SZ I        1842 14.00        39.6 0.26                            20 201 
 GIR2 SZ EP       1841 57.77                             165     0.010   36 347 
 BRR  HZ EP       1841 59.55                             151     0.210   76 300 
 BRR  HN ES   1   1842 16.47                             151     0.4 7   76 300 
 BRR  HZ I        1842 18.02        25.7 0.12                            76 300 
 PAM  SZ EP       1842  0.39                             150     0.110   79  36 
 PAM  SN ES   1   1842 17.43                             150    -0.2 7   79  36 
 RUS  HZ EP       1842  1.50                             145     0.110   96 178 
 RUS  HN ES   1   1842 19.64                             145     0.0 7   96 178 
 RUS  HZ I        1842 21.13        15.2 0.42                            96 178 
 PTB  HZ EP       1842  4.55                             132    -0.6 9  150 261 
 PTB  HZ I        1842 32.60        13.7 0.38                           150 261 
 CHI  HZ EP   2   1842 15.63                             118     0.3 4  245 196 
                                                                                
