 2011  926 1708  4.7 L   6.727 -73.208135.2  RSN  4 0.3 1.5LRSN                1
 GAP=186        0.65      10.8    16.8  7.7  0.1486E+03 -0.2687E+02 -0.1467E+02E
 Epicentro: VILLANUEVA - SANTANDER                                             3
 ACTION:UPD 12-07-13 16:00 OP:ep   STATUS:               ID:20110926170804 L   I
 2011-09-26-1704-33S.COL___165                                                 6
 STAT SP IPHASW D HRMM SECON CODA AMPLIT PERI AZIMU VELO AIN AR TRES W  DIS CAZ7
 BAR2 SZ EP   1   17 8 22.36                             173   -0.60 7 15.2 169 
 BAR2 SZ ES   1   17 8 37.23                             173    0.06 7 15.2 169 
 BAR2 SZ I        17 8 38.69         8.4 0.15                          15.2 169 
 BTL  SZ EP       17 8 23.33                             170    0.2410 22.2 343 
 BRR  HZ EP       17 8 24.87                             151    0.1910 69.8 307 
 BRR  HZ I        17 8 27.53        16.6 0.53                          69.8 307 
 BRR  HN ES   1   17 8 39.97                             151   -0.25 7 69.8 307 
 RUS  HZ EP   1   17 8 26.79                             144   -0.14 7 93.3 171 
 RUS  HE ES   2   17 8 44.60                             144    0.36 5 93.3 171 
 RUS  HZ I        17 8 46.15         2.2 0.27                          93.3 171 
                                                                                
