 2017  326 1523 60.0 L   6.768 -73.095142.7  RSN  4 0.3 1.1LRSN                1
 GAP=145        0.79       5.7     9.4  7.8  0.2696E+02 -0.3453E+02 -0.1651E+02E
 Epicentro: LOS SANTOS - SANTANDER                                             3
 ACTION:UPD 17-05-25 18:45 OP:jn   STATUS:               ID:20170326152359 L   I
 OLDACT:UP  17-05-02 14:07 OP:nlst STATUS:               ID:20170326152359 L   3
 OLDACT:REG 17-03-26 20:00 OP:dani STATUS:               ID:20170326151744     3
 2017-03-26-1518-00M.COL___357                                                 6
 STAT SP IPHASW D HRMM SECON CODA AMPLIT PERI AZIMU VELO AIN AR TRES W  DIS CAZ7
 BAR2 EZ EP       1524 19.04                             171   -0.1510 21.7 206 
 BAR2 EZ ES       1524 34.12                             171   -0.0710 21.7 206 
 BAR2 EZ I        1524 35.26         5.4 0.19            171           21.7 206 
 PAM  EZ EP       1524 21.89                             150    0.0710 76.8  35 
 BRR  HZ EP       1524 20.71                             150   -0.4610 77.8 299 
 BRR  HE ES       1524 38.03                             150    0.3110 77.8 299 
 RUS  HZ EP       1524 23.61                             144    0.4710 96.8 179 
 RUS  HN ES       1524 41.04                             144   -0.1810 96.8 179 
 RUS  HZ I        1524 42.71         1.3 0.22            144           96.8 179 
                                                                                
