 2010 1026 1038 46.2 L   6.758 -73.091152.5  RSN  9 0.4 1.7LRSN                1
 GAP=165        0.85       4.9     8.5  8.5 -0.1637E+02  0.9731E+01  0.1140E+00E
 Epicentro: LOS SANTOS - SANTANDER                                             3
 ACTION:UP  11-02-18 11:12 OP:tino STATUS:               ID:20101026103846 L   I
 2010-10-26-1036-43S.COL___125                                                 6
 STAT SP IPHASW D HRMM SECON CODA AMPLIT PERI AZIMU VELO SNR AR TRES W  DIS CAZ7
 BAR2 SZ EP   1   1039  6.77                             172     0.2 8   21 209 
 BAR2 SZ ES   2   1039 22.12                             172    -0.4 5   21 209 
 BAR2 SZ I        1039 25.22         8.0 0.34                            21 209 
 BRR  HZ EP   1   1039  8.59                             151     0.1 8   79 299 
 BRR  HZ I        1039  8.83        16.5 0.09                            79 299 
 BRR  HE ES   2   1039 26.13                             151     0.2 5   79 299 
 RUS  HZ EP   1   1039 10.75                             147     0.5 8   96 179 
 RUS  HE ES   2   1039 29.39                             147     0.3 5   96 179 
 RUS  HZ I        1039 31.02         2.9 0.39                            96 179 
 GUE  SZ EP   1   1039 11.75                             140    -0.1 8  120   9 
 GRA  SZ IP     D 1039 12.45                             138     0.210  129  14 
 GRA  SZ I        1039 13.75         5.3 0.41                           129  14 
 GRA  SZ ES   2   1039 32.33                             138    -0.3 5  129  14 
 OCA  SZ EP   1   1039 15.51                             130     0.0 7  166 351 
 OCA  SZ ES   2   1039 37.83                             130    -0.6 5  166 351 
 OCA  SZ I        1039 42.00        10.5 0.38                           166 351 
 NOR  SZ EP   1   1039 22.24                             120    -0.4 6  237 236 
 NOR  SN ES   2   1039 50.82                             120    -0.2 4  237 236 
 CHI  HZ EP   1   1039 22.84                             119    -1.1 6  246 197 
 CHI  HZ I        1040  3.27         2.1 0.67                           246 197 
 HEL  HZ EP   1   1039 28.03                             116     0.7 6  277 257 
                                                                                
