 2011  826 1236 25.4 L   6.801 -73.108152.1  RSN 15 0.5 3.2LRSN                1
 GAP= 87        1.03       3.5     5.9  6.0 -0.6749E+01  0.9080E+01  0.1517E+01E
 Epicentro: LOS SANTOS - SANTANDER                                             3
 ACTION:UPD 12-07-13 15:53 OP:ep   STATUS:               ID:20110826123625 L   I
 2011-08-26-1234-31S.COL___162                                                 6
 STAT SP IPHASW D HRMM SECON CODA AMPLIT PERI AZIMU VELO AIN AR TRES W  DIS CAZ7
 SAN  SZ EP   1   1236 46.48                             178    0.91 7 5.55 137 
 BAR2 SZ IP       1236 45.81                             170   -0.0610 24.5 200 
 BAR2 SZ ES   1   1237  1.37                             170   -0.42 7 24.5 200 
 BAR2 SZ I        1237  3.88       309.9 0.35                          24.5 200 
 PAM  SZ EP   1   1236 48.56                             153    0.37 7 74.7  37 
 PAM  SN ES   1   1237  5.37                             153   -0.56 7 74.7  37 
 PAM  SZ I        1237  8.31        43.3 0.17                          74.7  37 
 BRR  HZ IP     C 1236 47.77                             152    0.2810 74.8 297 
 BRR  HZ I        1236 48.06       374.0 0.14                          74.8 297 
 BRR  HN ES   1   1237  5.33                             152    0.65 7 74.8 297 
 RUS  HZ EP       1236 49.64                             145   -0.1810  101 178 
 RUS  HN ES   1   1237  8.54                             145   -0.30 7  101 178 
 RUS  HZ I        1237  9.48       134.9 0.26                           101 178 
 OCA  SZ EP       1236 54.71                             131    0.41 9  161 352 
 OCA  SZ ES   1   1237 16.95                             131    0.15 7  161 352 
 OCA  SZ I        1237 21.32       405.2 0.36                           161 352 
 NOR  SZ EP       1237  1.66                             119   -0.26 8  238 235 
 NOR  SN ES   1   1237 29.61                             119   -0.76 6  238 235 
 NOR  SZ I        1237 33.45        25.8 0.19                           238 235 
 CHI  HZ EP       1237  3.43                             118   -0.21 8  250 196 
 CHI  HN ES   1   1237 33.29                             118   -0.14 6  250 196 
 CHI  HZ I        1237 41.53       101.1 0.44                           250 196 
 ROSC BZ EP       1237  4.94                             118    0.77 8  255 212 
 ROSC BZ I        1237 43.62       201.7 0.45                           255 212 
 HEL  HZ EP       1237  6.11                             116   -0.33 7  276 256 
 HEL  HN ES   1   1237 37.87                             116   -0.54 6  276 256 
 HEL  HZ I        1237 44.20       110.8 0.29                           276 256 
 RREF HZ EP   1   1237 12.59                             112    0.35 5  325 230 
 RREF HZ I        1237 58.07       119.5 0.51                           325 230 
 TOL  SZ EP       1237 15.26                             110    0.95 6  347 225 
 COD  HZ EP       1237 13.19                             110   -0.92 6  349 354 
 COD  HN ES   1   1237 51.15                             110   -0.92 5  349 354 
 COD  HZ I        1237 59.85       142.3 0.39                           349 354 
 SDV  BZ EP   1   1237 15.10                             109   -0.26 5  357  50 
 PRA  HZ EP       1237 18.58                             107   -0.87 6  394 210 
 PRA  HN ES   1   1238  2.31                             107    0.74 4  394 210 
                                                                                
