 2015  226 1804  7.9 L   6.790 -73.103151.7  RSN 10 0.4 2.1LRSN                1
 GAP=142        0.91       3.1     4.7  5.1 -0.4490E+01  0.8635E+01  0.2918E+00E
 Epicentro: LOS SANTOS - SANTANDER                                             3
 ACTION:UPD 15-04-30 21:29 OP:nd   STATUS:               ID:20150226180407 L   I
 OLDACT:REG 15-02-26 21:39 OP:carl STATUS:               ID:20150226175747     3
 2015-02-26-1757-47M.COL___293                                                 6
 STAT SP IPHASW D HRMM SECON CODA AMPLIT PERI AZIMU VELO AIN AR TRES W  DIS CAZ7
 BAR2 EZ EP       18 4 28.16                             171   -0.1210 23.6 202 
 BAR2 EZ ES       18 4 43.86                             171   -0.2910 23.6 202 
 BAR2 EZ I        18 4 45.07        22.5 0.32            169           23.6 202 
 PAM  SZ IP     C 18 4 30.93                             152    0.2710 75.3  36 
 PAM  SN ES       18 4 48.49                             152    0.1010 75.3  36 
 PAM  SZ I        18 4 52.43         8.6 0.38            156           75.3  36 
 BRR  HZ EP       18 4 30.00                             152    0.0210 75.9 298 
 BRR  HN ES       18 4 47.70                             152    0.5210 75.9 298 
 BRR  HZ I        18 4 49.93        20.2 0.16            150           75.9 298 
 RUS  HZ EP       18 4 32.34                             145    0.1610 99.3 179 
 RUS  HN ES       18 4 50.98                             145   -0.1110 99.3 179 
 RUS  HZ I        18 4 51.80        10.7 0.42            146           99.3 179 
 SPBC HZ EP       18 4 37.42                             130    0.33 9  165 220 
 SPBC HN ES       18 4 59.32                             130   -0.52 9  165 220 
 SPBC HZ I        18 5  2.00        20.6 0.30            130            165 220 
 NOR  HZ EP       18 4 43.72                             119   -0.63 8  238 235 
 NOR  HN ES       18 5 12.80                             119    0.04 8  238 235 
 NOR  HZ I        18 5 20.03         7.5 0.36            119            238 235 
 SML  HZ EP       18 4 44.54                             118   -0.67 8  247 334 
 SML  HN ES       18 5 14.03                             118   -0.26 8  247 334 
 SML  HZ I        18 5 16.09        20.0 0.30            119            247 334 
 GUY2CHZ EP       18 4 52.56                             113    0.38 7  304 235 
 GUY2CHE ES       18 5 27.26                             113    0.56 7  304 235 
 GUY2CHZ I        18 5 36.86         3.8 0.36                           304 235 
 RREF HZ EP   4   18 4 56.89                             112    2.23 0  325 230 
 RREF HN ES   4   18 5 33.34                             112    2.22 0  325 230 
 RREF HZ I        18 5 39.56         8.2 0.30            112            325 230 
 PRA  HZ EP       18 5  2.67                             107    0.85 6  393 210 
 PRA  HN ES       18 5 43.32                             107   -0.54 6  393 210 
 PRA  HZ I        18 5 49.78         3.7 0.42            108            393 210 
                                                                                
