 2012  426 1402 21.4 L   6.758 -73.195147.3  RSN  5 0.1 1.4LRSN                1
 GAP=132        0.40       3.6     3.3  5.4  0.2477E+01 -0.4510E+01 -0.1987E+01E
 Epicentro: VILLANUEVA - SANTANDER                                             3
 ACTION:UPD 12-07-05 11:56 OP:tino STATUS:               ID:20120426140221 L   I
 2012-04-26-1400-00M.COL___186                                                 6
 STAT SP IPHASW D HRMM SECON CODA AMPLIT PERI AZIMU VELO AIN AR TRES W  DIS CAZ7
 BAR2 SZ EP   1   14 2 41.07                             173    -0.1 7   18 175 
 BAR2 SZ I        14 2 57.69         5.9 0.41                            18 175 
 BRR  HN ES   1   14 2 59.32                             154     0.2 7   69 304 
 PAM  SZ EP   1   14 2 44.13                             149    -0.1 7   84  40 
 RUS  HZ EP   1   14 2 45.28                             145     0.2 7   97 173 
 RUS  HN ES   1   14 3  3.41                             145    -0.1 7   97 173 
 PTB  HZ EP   1   14 2 48.02                             134     0.0 7  142 260 
 PTB  HN ES   1   14 3  8.53                             134    -0.1 7  142 260 
 PTB  HZ I        14 3 14.64         2.9 0.34                           142 260 
                                                                                
