 2012  226 1543  0.7 L   6.750 -73.155150.2  RSN  5 0.4 1.5LRSN                1
 GAP=138        0.78       5.6     5.5  7.6 -0.3890E+01  0.4446E+01  0.6915E+01E
 ACTION:UP  12-03-07 16:34 OP:epov STATUS:               ID:20120226154300 L   I
 2012-02-26-1540-00M.COL___192                                                 6
 STAT SP IPHASW D HRMM SECON CODA AMPLIT PERI AZIMU VELO AIN AR TRES W  DIS CAZ7
 GIR2 SZ EP   1   1543 21.44                             166    0.37 7 36.7 353 
 GIR2 SZ ES   1   1543 37.00                             166    0.05 7 36.7 353 
 BRR  HZ EP       1543 22.66                             153    0.2010 73.2 303 
 BRR  HZ I        1543 22.78         8.7 0.20                          73.2 303 
 BRR  HE ES   1   1543 39.97                             153    0.55 7 73.2 303 
 PAM  SZ EP   1   1543 23.53                             150   -0.18 7 82.4  38 
 PAM  SZ I        1543 23.85         6.2 0.18                          82.4  38 
 PAM  SN ES   1   1543 41.05                             150   -0.59 7 82.4  38 
 RUS  HZ EP   1   1543 24.88                             146    0.35 7 95.1 175 
 RUS  HN ES   1   1543 43.05                             146   -0.05 7 95.1 175 
 RUS  HZ I        1543 44.48         2.8 0.26                          95.1 175 
 PTB  HZ EP   1   1543 27.35                             133   -0.53 7  146 261 
 PTB  HE ES   1   1543 48.60                             133   -0.46 7  146 261 
                                                                                
