 2015  926 1605 59.4 L   6.784 -73.100148.1  RSN  9 0.4 1.9LRSN                1
 GAP=143        0.79       3.2     3.8  6.3 -0.2796E+01  0.6882E+01 -0.9531E+00E
 Epicentro: LOS SANTOS - SANTANDER                                             3
 ACTION:UPD 15-10-28 16:28 OP:cam  STATUS:               ID:20150926160559 L   I
 OLDACT:REG 15-09-26 20:46 OP:spq  STATUS:               ID:20150926155749     3
 2015-09-26-1557-49M.COL___352                                                 6
 STAT SP IPHASW D HRMM SECON CODA AMPLIT PERI AZIMU VELO AIN AR TRES W  DIS CAZ7
 BAR2 EZ EP       16 6 19.08                             171   -0.2310 23.0 203 
 BAR2 EZ ES   1   16 6 34.24                             171   -0.59 7 23.0 203 
 BAR2 EZ I        16 6 35.26        10.0 0.20            170           23.0 203 
 PAM  EZ EP       16 6 22.27                             152    0.4910 75.8  36 
 PAM  EN ES       16 6 39.36                             152    0.1410 75.8  36 
 PAM  EZ I        16 6 41.32        18.4 0.54            153           75.8  36 
 BRR  HZ EP   1   16 6 21.35                             151    0.24 7 76.5 298 
 BRR  HN ES       16 6 38.19                             151    0.1610 76.5 298 
 BRR  HZ I        16 6 41.42        15.1 0.28            149           76.5 298 
 RUS  HZ EP   1   16 6 23.27                             145    0.03 7 98.6 179 
 RUS  HN ES   1   16 6 41.94                             145    0.10 7 98.6 179 
 RUS  HZ I        16 6 42.90         8.2 0.28            147           98.6 179 
 SPBC HE ES       16 6 50.59                             129   -0.17 9  165 221 
 SPBC HZ I        16 6 52.90        12.2 0.12            130            165 221 
 ZAR  HN ES       16 6 58.58                             122    0.18 8  209 292 
 ZAR  HZ I        16 7  3.32         8.3 0.26            122            209 292 
 NOR  HN ES       16 7  3.65                             119   -0.18 8  238 236 
 NOR  HZ I        16 7  7.28         7.0 0.18            119            238 236 
 SML  HZ EP   1   16 6 35.60                             117   -0.97 6  247 334 
 SML  HN ES   1   16 7  5.15                             117   -0.41 6  247 334 
 SML  HZ I        16 7  8.39        10.5 0.24            118            247 334 
 GUY2CHZ EP   4   16 6 45.43                             112    1.96 0  304 236 
 GUY2CHE ES   1   16 7 18.48                             112    0.64 5  304 236 
 GUY2CHZ I        16 7 23.90         3.3 0.32                           304 236 
 SJC  HZ EP   4   16 6 53.98                             106   -1.57 0  413 327 
                                                                                
