 2013 1226 1143 42.8 L   7.438 -73.208130.0  RSN 11 0.5 2.2LRSN                1
 GAP=109        1.05       3.1     4.4  7.4  0.1493E+01  0.1431E+02  0.3809E+01E
 Epicentro: EL PLAYON - SANTANDER                                              3
 ACTION:UPD 14-01-13 10:21 OP:ep   STATUS:               ID:20131226114342 L   I
 OLDACT:REG 13-12-26 14:35 OP:jn   STATUS:               ID:20131226114000     3
 2013-12-26-1140-00M.COL___285                                                 6
 STAT SP IPHASW D HRMM SECON CODA AMPLIT PERI AZIMU VELO AIN AR TRES W  DIS CAZ7
 PAM  SZ EP       1144  2.65                             155    0.4710 57.2 101 
 PAM  SN ES       1144 17.52                             155    0.2310 57.2 101 
 PAM  SZ I        1144 18.83        45.8 0.18            144           57.2 101 
 OCA  HZ EP       1144  4.21                             143    0.4910 89.4 352 
 OCA  HN ES       1144 20.24                             143    0.2010 89.4 352 
 OCA  HZ I        1144 22.94        30.9 0.16            135           89.4 352 
 BAR2 SZ EP       1144  4.24                             142    0.1010 93.5 178 
 BAR2 SZ ES       1144 20.20                             142   -0.5910 93.5 178 
 BAR2 SZ I        1144 21.82        78.1 0.12            130           93.5 178 
 PTB  HZ EP       1144 10.36                             124   -0.36 9  170 234 
 PTB  HN ES       1144 32.47                             124   -0.03 9  170 234 
 PTB  HZ I        1144 35.11        23.9 0.44            114            170 234 
 RUS  HZ EP       1144 10.97                             124   -0.53 9  171 175 
 RUS  HN ES   1   1144 33.78                             124   -0.10 7  171 175 
 RUS  HZ I        1144 38.44         4.7 0.24            114            171 175 
 SML  HZ EP       1144 11.13                             122   -0.41 9  178 328 
 SML  HN ES       1144 32.94                             122   -1.02 9  178 328 
 ZAR  HZ EP       1144 12.13                             122    0.16 9  182 272 
 ZAR  HN ES       1144 35.45                             122    0.73 9  182 272 
 ZAR  HZ I        1144 36.89        28.3 0.16            113            182 272 
 URE  HZ EP   4   1144 22.63                             112    2.31 0  259 278 
 URE  HE ES   4   1144 47.98                             112   -1.60 0  259 278 
 NOR  HZ EP   1   1144 22.86                             111    0.44 6  277 222 
 NOR  HN ES       1144 53.31                             111   -0.01 7  277 222 
 NOR  HZ I        1144 59.54        10.8 0.22            104            277 222 
 CHI  HZ EP   2   1144 27.95                             108    0.60 3  316 191 
 CHI  HN ES   2   1145  2.42                             108    0.32 3  316 191 
 CHI  HZ I        1145  9.08         2.5 0.54            102            316 191 
 GUY2CHZ EP   2   1144 31.18                             106    0.73 3  342 224 
 GUY2CHZ I        1145 20.07         6.1 0.40                           342 224 
 RREF HZ EP   4   1144 35.93                             105    2.32 0  367 220 
 RREF HZ I        1145 23.62         7.4 0.24            100            367 220 
                                                                                
