 2010  526 1243 59.2 L   6.712 -72.899143.9  RSN  4 0.2 2.0LRSN                1
 GAP=229        0.36       6.7    11.6  5.0 -0.7047E+02  0.1580E+02 -0.5702E+01E
 Epicentro: MOLAGAVITA - SANTANDER                                             3
 ACTION:UP  10-08-24 10:06 OP:vdl  STATUS:               ID:20100526124359 L   I
 2010-05-26-1240-04S.COL___108                                                 6
 STAT SP IPHASW D HRMM SECON CODA AMPLIT PERI AZIMU VELO SNR AR TRES W  DIS CAZ7
 BAR2 SZ EP       1244 18.87                             166     0.010   34 247 
 BAR2 SZ ES   2   1244 34.27                             166     0.0 5   34 247 
 GUE  SZ EP   2   1244 24.76                             137     0.4 5  124 359 
 GRA  SZ EP       1244 24.60                             136     0.010  130   5 
 GRA  SZ ES   2   1244 44.33                             136    -0.2 5  130   5 
 RREF BZ EP       1244 46.95                             109    -0.1 7  337 234 
 RREF BN ES   2   1245 24.41                             109     0.1 3  337 234 
 RREF BZ I        1245 29.14         4.2 0.32                           337 234 
                                                                                
