 2017 1126 1956 51.1 L   6.826 -73.302115.6  RSN  6 0.5 1.5LRSN                1
 GAP=103        0.94       4.4     8.3  7.5 -0.7963E+01  0.8638E+01 -0.8075E+01E
 Epicentro: ZAPATOCA - SANTANDER                                               3
 ACTION:UPD 17-12-12 20:00 OP:rebc STATUS:               ID:20171126195651 L   I
 OLDACT:UP  17-11-26 23:01 OP:dani STATUS:               ID:20171126194737     3
 OLDACT:UP  17-11-26 22:59 OP:dani STATUS:               ID:20171126194737     3
 OLDACT:REG 17-11-26 20:20 OP:dhb  STATUS:               ID:20171126194737     3
 2017-11-26-1948-00M.COL___486                                                 6
 STAT SP IPHASW D HRMM SECON CODA AMPLIT PERI AZIMU VELO AIN AR TRES W  DIS CAZ7
 BAR2 EZ EP       1957  7.82                             165    0.5010 29.0 153 
 BAR2 EZ ES       1957 20.01                             165    0.0810 29.0 153 
 BAR2 EZ I        1957 20.91        16.6 0.38            167           29.0 153 
 PAM  EN ES       1957 26.35                             140   -0.1410 87.5  49 
 RUS  HZ EP       1957 11.91                             134   -0.6110  106 167 
 RUS  HN ES       1957 29.29                             134    0.0910  106 167 
 PTB  HZ EP   9   1957 11.77                             128   -2.46 0  132 256 
 PTB  HN ES       1957 29.34                             129   -0.4410  132 256 
 PTB  HZ I        1957 34.75         3.4 0.58            126            132 256 
 OCA  HZ EP       1957 17.11                             122    0.22 9  156 359 
 OCA  HE ES   3   1957 34.86                             122   -2.11 2  156 359 
 ZAR  HE ES   3   1957 42.33                             117   -0.09 2  187 293 
                                                                                
