 2013 1026 1350 36.2 L   6.794 -73.140150.2  RSN 11 0.5 2.2LRSN                1
 GAP=137        1.03       3.8     4.6  5.9 -0.2851E+01  0.5374E+01  0.3250E+01E
 Epicentro: LOS SANTOS - SANTANDER                                             3
 ACTION:UPD 13-11-25 09:23 OP:ep   STATUS:               ID:20131026135036 L   I
 OLDACT:UP  13-10-26 16:08 OP:cam  STATUS:               ID:20131026134848     3
 OLDACT:REG 13-10-26 15:51 OP:cam  STATUS:               ID:20131026134848     3
 2013-10-26-1348-48M.COL___228                                                 6
 STAT SP IPHASW D HRMM SECON CODA AMPLIT PERI AZIMU VELO AIN AR TRES W  DIS CAZ7
 BAR2 SZ EP       1350 56.17                             171   -0.1510 22.8 192 
 BAR2 SZ ES       1351 11.31                             171   -0.7310 22.8 192 
 BAR2 SZ I        1351 12.49        45.3 0.38            169           22.8 192 
 BRR  HZ EP       1350 58.18                             153    0.3310 72.0 299 
 BRR  HN ES       1351 15.68                             153    0.9310 72.0 299 
 BRR  HZ I        1351 19.18        19.8 0.52            152           72.0 299 
 PAM  SZ EP       1350 59.05                             151    0.1910 77.5  39 
 PAM  SN ES       1351 16.47                             151   -0.0910 77.5  39 
 PAM  SZ I        1351 18.16        31.9 0.56            156           77.5  39 
 RUS  HZ EP   1   1351  0.65                             145    0.34 7 99.9 176 
 RUS  HN ES       1351 19.12                             145   -0.0210 99.9 176 
 RUS  HZ I        1351 21.19        18.2 0.48            146           99.9 176 
 PTB  HZ EP       1351  3.01                             133   -0.54 9  148 259 
 PTB  HN ES       1351 24.34                             133   -0.56 9  148 259 
 PTB  HZ I        1351 31.52        21.4 0.40            133            148 259 
 SPBC HZ EP       1351  5.17                             130    0.17 9  163 219 
 SPBC HN ES       1351 27.53                             130    0.04 9  163 219 
 SPBC HZ I        1351 32.05        29.6 0.22            130            163 219 
 ZAR  HN ES   1   1351 34.54                             123   -0.05 6  205 292 
 NOR  HZ EP       1351 12.37                             119    0.20 8  235 235 
 NOR  HN ES   1   1351 40.48                             119    0.22 6  235 235 
 NOR  HZ I        1351 44.32        14.2 0.18            120            235 235 
 CHI  HZ EP       1351 14.34                             118    0.27 8  248 195 
 CHI  HN ES       1351 43.70                             118    0.07 8  248 195 
 CHI  HZ I        1351 49.01         5.8 0.30            119            248 195 
 COD  HZ EP   2   1351 24.67                             109   -0.13 3  349 355 
 SJC  HZ EP   1   1351 30.48                             106   -1.50 4  410 327 
                                                                                
