 2014  126 1415  6.3 L   6.780 -73.149141.5  RSN  6 0.3 1.3LRSN                1
 GAP=137        0.73       3.3     3.8  5.1 -0.1543E+01  0.1702E+01  0.5574E+01E
 Epicentro: LOS SANTOS - SANTANDER                                             3
 ACTION:UPD 14-03-13 09:58 OP:ep   STATUS:               ID:20140126141506 L   I
 OLDACT:REG 14-01-26 16:02 OP:stll STATUS:               ID:20140126140818     3
 2014-01-26-1408-18M.COL___231                                                 6
 STAT SP IPHASW D HRMM SECON CODA AMPLIT PERI AZIMU VELO AIN AR TRES W  DIS CAZ7
 BAR2 SZ ES       1415 40.51                             171    0.2310 21.1 190 
 BAR2 SZ I        1415 41.71         6.6 0.26            167           21.1 190 
 BRR  HN ES       1415 43.52                             151    0.2810 72.0 300 
 BRR  HZ I        1415 47.50         5.8 0.54            148           72.0 300 
 PAM  SZ EP       1415 28.32                             149    0.1010 79.4  39 
 PAM  SZ I        1415 28.51         4.4 0.20            154           79.4  39 
 PAM  SN ES       1415 45.19                             149   -0.1010 79.4  39 
 RUS  HZ EP       1415 29.45                             144   -0.0610 98.4 176 
 RUS  HN ES       1415 47.13                             144   -0.4510 98.4 176 
 RUS  HZ I        1415 49.14         1.7 0.20            143           98.4 176 
 PTB  HZ EP       1415 32.71                             131   -0.18 9  147 260 
 PTB  HN ES       1415 53.30                             131   -0.29 9  147 260 
 PTB  HZ I        1416  0.32         2.0 0.34            129            147 260 
 CHI  HZ EP       1415 43.59                             116    0.03 8  246 195 
 CHI  HE ES       1416 13.21                             116    0.62 8  246 195 
 CHI  HZ I        1416 19.87         0.9 0.46            116            246 195 
                                                                                
