 2012  126 1023 11.2 L   6.778 -73.157140.6  RSN  6 0.4 1.3LRSN                1
 GAP=136        0.90       6.3     6.6  8.5 -0.6109E+01  0.7135E+01 -0.6441E+01E
 Epicentro: LOS SANTOS - SANTANDER                                             3
 ACTION:UP  12-02-03 08:21 OP:REBC STATUS:               ID:20120126102311 L   I
 2012-01-26-1020-00M.COL___188                                                 6
 STAT SP IPHASW D HRMM SECON CODA AMPLIT PERI AZIMU VELO SNR AR TRES W  DIS CAZ7
 BAR2 SZ EP       1023 30.16                             171     0.010   21 188 
 BAR2 SZ ES   1   1023 44.12                             171    -0.9 7   21 188 
 GIR2 SZ EP       1023 30.53                             166     0.210   33 353 
 BRR  HZ EP       1023 31.88                             152     0.010   71 301 
 BRR  HE ES   1   1023 48.58                             152     0.7 7   71 301 
 PAM  SZ EP       1023 32.93                             149    -0.110   80  39 
 PAM  SE ES   1   1023 50.13                             149     0.0 7   80  39 
 RUS  HZ EP   2   1023 34.71                             143     0.4 5   98 175 
 RUS  HN ES   1   1023 52.80                             143     0.5 7   98 175 
 RUS  HZ I        1023 54.63         3.9 0.30                            98 175 
 PTB  HZ EP   1   1023 37.20                             131    -0.4 7  146 260 
 PTB  HN ES   2   1023 57.81                             131    -0.4 5  146 260 
 PTB  HZ I        1024  4.95         2.8 0.40                           146 260 
                                                                                
