 2011  126 1723  3.5 L   6.814 -73.102134.9  RSN 11 0.5 2.3LRSN                1
 GAP=163        1.22       5.0    11.3  9.0 -0.1807E+02  0.5611E+02 -0.4542E+01E
 Epicentro: LOS SANTOS - SANTANDER                                             3
 ACTION:UP  11-02-08 08:42 OP:pat  STATUS:               ID:20110126172303 L   I
 2011-01-26-1719-29S.COL___138                                                 6
 STAT SP IPHASW D HRMM SECON CODA AMPLIT PERI AZIMU VELO SNR AR TRES W  DIS CAZ7
 BTL  SZ IP       1723 22.70                             170     0.910   22 302 
 BTL  SZ ES   2   1723 36.18                             170     0.1 5   22 302 
 BAR2 SZ IP       1723 21.93                             168     0.010   26 200 
 BAR2 SZ ES   1   1723 36.04                             168    -0.2 7   26 200 
 BAR2 SZ I        1723 37.80        57.4 0.11                            26 200 
 GIR2 SZ IP       1723 22.00                             166     0.110   31 341 
 GIR2 SZ ES   2   1723 36.77                             166     0.5 5   31 341 
 RUS  HZ EP       1723 25.92                             141    -0.410  102 179 
 RUS  HN ES   1   1723 43.77                             141    -0.4 7  102 179 
 RUS  HZ I        1723 45.79        33.2 0.34                           102 179 
 GRA  SZ IP       1723 27.87                             135     0.310  123  16 
 GRA  SZ ES   1   1723 46.20                             135    -0.1 7  123  16 
 GRA  SZ I        1723 48.59        45.6 0.39                           123  16 
 OCA  SZ EP       1723 30.53                             127    -0.4 9  159 351 
 OCA  SZ ES   1   1723 51.78                             127    -0.5 7  159 351 
 OCA  SZ I        1723 54.11        32.4 0.25                           159 351 
 NOR  SZ EP       1723 38.45                             115    -0.8 8  240 235 
 CHI  HZ EP   1   1723 41.30                             114     0.3 6  251 196 
 CHI  HZ I        1724 13.23         6.7 0.54                           251 196 
 HEL  HZ EP       1723 44.38                             112     0.6 7  277 256 
 GUY  SZ EP       1723 47.96                             110     0.7 7  306 235 
 GUY  SZ I        1724 27.44        15.5 0.42                           306 235 
 DBB  SZ EP       1723 50.50                             107    -0.6 7  344 274 
                                                                                
