 2013 1226 1155 57.3 L   6.794 -73.178147.4  RSN  5 0.3 1.3LRSN                1
 GAP=198        0.75       4.8     6.4  8.8  0.1641E+02 -0.7977E+01 -0.2369E+02E
 Epicentro: LOS SANTOS - SANTANDER                                             3
 ACTION:UPD 14-01-13 10:21 OP:ep   STATUS:               ID:20131226115557 L   I
 OLDACT:REG 13-12-26 14:37 OP:jn   STATUS:               ID:20131226115000     3
 2013-12-26-1150-00M.COL___285                                                 6
 STAT SP IPHASW D HRMM SECON CODA AMPLIT PERI AZIMU VELO AIN AR TRES W  DIS CAZ7
 BAR2 SZ ES   1   1156 33.03                             171    0.46 8 22.4 181 
 RUS  HZ EP       1156 21.41                             144    0.2110  100 174 
 RUS  HN ES       1156 39.48                             144   -0.3610  100 174 
 RUS  HZ I        1156 40.59         2.3 0.24            143            100 174 
 PTB  HN ES   1   1156 44.70                             133   -0.27 7  144 259 
 PTB  HZ I        1156 47.06         3.7 0.32            132            144 259 
 ZAR  HE ES   1   1156 55.20                             123    0.51 6  201 293 
 SML  HZ EP       1156 34.02                             118    0.09 8  243 336 
 SML  HE ES       1157  2.11                             118   -0.38 8  243 336 
                                                                                
