 2010  226 1059 42.9 L   6.800 -73.115144.0  RSN 10 0.4 2.5LRSN                1
 GAP=186        0.74       3.6     6.8  5.9 -0.2941E+01  0.1172E+02  0.3853E+01E
 Epicentro: LOS SANTOS - SANTANDER                                             3
 ACTION:UP  10-08-24 09:50 OP:vdl  STATUS:               ID:20100226105942 L   I
 2010-02-26-1057-20S.COL___093                                                 6
 STAT SP IPHASW D HRMM SECON CODA AMPLIT PERI AZIMU VELO SNR AR TRES W  DIS CAZ7
 BAR2 SZ IP       11 0  2.30                             170     0.010   24 198 
 BAR2 SZ ES   1   11 0 17.12                             170    -0.3 7   24 198 
 BRR  HZ IP       11 0  4.18                             151     0.210   74 297 
 BRR  HZ I        11 0  4.55        44.5 0.12                            74 297 
 BRR  HN ES   2   11 0 21.52                             151     1.0 5   74 297 
 RUS  BZ IP       11 0  6.18                             144    -0.210  100 178 
 RUS  BE ES   2   11 0 25.39                             144     0.6 5  100 178 
 OCA  SZ EP       11 0 10.92                             129    -0.2 9  161 352 
 OCA  SZ ES   2   11 0 32.48                             129    -0.6 5  161 352 
 OCA  SZ I        11 0 37.29        48.0 0.18                           161 352 
 CHI  HZ IP       11 0 20.64                             117     0.1 8  250 196 
 CHI  HE ES   2   11 0 49.49                             117    -0.5 4  250 196 
 HEL  HZ EP   2   11 0 23.27                             114    -0.1 4  275 256 
 HEL  HN ES   2   11 0 54.05                             114    -0.9 4  275 256 
 HEL  HZ I        11 1  1.44        13.6 0.44                           275 256 
 RREF BZ EP   2   11 0 30.07                             110     0.9 3  324 230 
 RREF BE ES   2   11 1  5.34                             110     0.0 3  324 230 
 RREF BZ I        11 1 17.64        10.0 0.52                           324 230 
 TOL  SZ EP       11 0 31.92                             109     0.6 6  346 225 
 ANIL BZ EP   1   11 0 32.81                             108    -0.1 5  360 225 
 ANIL BE ES   2   11 1 11.70                             108    -0.2 3  360 225 
 ANIL BZ I        11 1 18.59        20.2 0.34                           360 225 
 PRA  HZ EP       11 0 36.33                             106    -0.2 6  394 210 
 PRA  HN ES   2   11 1 18.14                             106    -0.2 3  394 210 
 PRA  HZ I        11 1 24.79         8.7 0.30                           394 210 
                                                                                
