 2011  426 1814 28.8 L   6.775 -73.112140.9  RSN  8 0.3 2.0LRSN                1
 GAP=142        0.50       2.6     4.1  4.0 -0.4267E+01  0.1821E+01  0.4758E+00E
 Epicentro: LOS SANTOS - SANTANDER                                             3
 ACTION:UP  11-06-22 15:33 OP:REBC STATUS:               ID:20110426181428 L   I
 2011-04-26-1812-28S.COL___137                                                 6
 STAT SP IPHASW D HRMM SECON CODA AMPLIT PERI AZIMU VELO SNR AR TRES W  DIS CAZ7
 BAR2 SZ EP       1814 47.83                             171     0.010   22 201 
 BAR2 SZ ES   1   1815  2.44                             171    -0.2 7   22 201 
 BAR2 SZ I        1815  4.08        40.8 0.31                            22 201 
 BRR  HZ EP       1814 49.77                             150     0.110   76 299 
 BRR  HN ES   1   1815  6.31                             150     0.3 7   76 299 
 BRR  HZ I        1815  7.44        34.3 0.16                            76 299 
 PAM  SZ EP   1   1814 50.83                             150     0.3 7   77  36 
 PAM  SN ES   1   1815  7.36                             150    -0.1 7   77  36 
 RUS  HZ EP   1   1814 51.89                             144     0.0 7   98 178 
 RUS  HZ I        1814 53.20         8.4 0.12                            98 178 
 RUS  HN ES   1   1815  9.95                             144     0.1 7   98 178 
 BRI  SZ EP   1   1814 52.11                             140    -0.2 7  110  18 
 GRA  SZ EP   1   1814 53.73                             135     0.0 7  127  15 
 GRA  SZ ES   1   1815 12.93                             135    -0.3 7  127  15 
 GRA  SZ I        1815 14.12        10.9 0.39                           127  15 
 NOR  SZ EP   2   1815  4.21                             117    -0.2 4  236 236 
 NOR  SN ES   2   1815 31.53                             117    -0.6 4  236 236 
 PRA  HZ EP   1   1815 22.40                             106     0.3 4  391 210 
 PRA  HN ES   2   1816  3.04                             106    -0.6 3  391 210 
                                                                                
