 2011 1126 1209  0.6 L   6.750 -73.117146.6  RSN  6 0.2 2.1LRSN                1
 GAP=143        0.41       2.8     3.6  4.0 -0.1400E+01  0.2131E+01  0.7447E+00E
 Epicentro: LOS SANTOS - SANTANDER                                             3
 ACTION:UPD 12-07-13 16:12 OP:ep   STATUS:               ID:20111126120900 L   I
 2011-11-26-1205-24S.COL___160                                                 6
 STAT SP IPHASW D HRMM SECON CODA AMPLIT PERI AZIMU VELO AIN AR TRES W  DIS CAZ7
 BAR2 SZ EP       12 9 20.28                             172    0.0010 18.9 203 
 BAR2 SZ ES   1   12 9 35.31                             172   -0.29 7 18.9 203 
 BAR2 SZ I        12 9 36.50        27.4 0.26                          18.9 203 
 BRR  HZ EP       12 9 22.11                             151   -0.0710 76.7 301 
 BRR  HZ I        12 9 22.35        42.6 0.14                          76.7 301 
 BRR  HN ES   1   12 9 39.22                             151    0.22 7 76.7 301 
 PAM  SZ EP   1   12 9 23.21                             150    0.14 7 79.8  35 
 PAM  SZ I        12 9 23.37        11.9 0.16                          79.8  35 
 PAM  SN ES   1   12 9 40.50                             150   -0.08 7 79.8  35 
 RUS  HZ EP   1   12 9 24.25                             145    0.19 7 94.9 178 
 RUS  HE ES   1   12 9 42.40                             145    0.06 7 94.9 178 
 RUS  HZ I        12 9 44.16        15.3 0.43                          94.9 178 
 NOR  SN ES   2   1210  4.34                             119    0.12 4  234 236 
 RREF HZ EP   2   12 9 46.03                             111   -0.65 3  321 230 
 RREF HZ I        1210 29.64         4.7 0.26                           321 230 
                                                                                
