 2011 1026 1233 42.4 L   6.609 -73.060128.0  RSN  4 0.3 1.7LRSN                1
 GAP=198        0.77       8.8    16.6  8.5  0.9162E+02 -0.1763E+01  0.7282E+01E
 Epicentro: CURITI - SANTANDER                                                 3
 ACTION:UPD 12-07-13 16:06 OP:ep   STATUS:               ID:20111026123342 L   I
 2011-10-26-1220-00M.COL___177                                                 6
 STAT SP IPHASW D HRMM SECON CODA AMPLIT PERI AZIMU VELO AIN AR TRES W  DIS CAZ7
 BAR2 SZ EP       1233 59.13                             174   -0.6310 13.7 262 
 BAR2 SZ ES   1   1234 13.35                             174    0.09 7 13.7 262 
 BAR2 SZ I        1234 18.22         9.8 0.62                          13.7 262 
 GIR2 SZ EP       1234  1.33                             156    0.4110 54.0 344 
 GIR2 SZ ES   2   1234 15.12                             156   -0.22 5 54.0 344 
 RUS  HZ EP       1234  3.10                             147    0.1710 79.3 182 
 RUS  HN ES   3   1234 19.55                             147    0.64 2 79.3 182 
 BRR  HZ EP       1234  3.03                             142   -0.0110 90.7 307 
 BRR  HZ I        1234  9.24        11.3 0.46                          90.7 307 
 BRR  HN ES   2   1234 19.18                             142    0.08 5 90.7 307 
                                                                                
