 2013  126 1246 16.0 L   6.751 -73.163148.9  RSN  7 0.4 1.6LRSN                1
 GAP=137        0.72       4.6     4.3  6.3  0.2367E+01  0.4881E+01  0.4198E+01E
 Epicentro: LOS SANTOS - SANTANDER                                             3
 ACTION:UPD 13-02-15 09:17 OP:ep   STATUS:               ID:20130126124616 L   I
 2013-01-26-1240-00M.COL___241                                                 6
 STAT SP IPHASW D HRMM SECON CODA AMPLIT PERI AZIMU VELO AIN AR TRES W  DIS CAZ7
 BAR2 SZ EP   1   1246 35.85                             173   -0.02 7 17.7 187 
 BAR2 SZ ES   1   1246 51.39                             173    0.00 7 17.7 187 
 BAR2 SZ I        1246 54.90        14.1 0.36            160           17.7 187 
 BRR  HZ EP     C 1246 37.71                             153    0.2010 72.4 303 
 BRR  HN ES   1   1246 55.00                             153    0.68 7 72.4 303 
 BRR  HZ I        1247  0.02         6.7 0.18            143           72.4 303 
 PAM  SZ EP   1   1246 38.71                             150   -0.12 7 82.8  38 
 PAM  SN ES   1   1246 56.47                             150   -0.20 7 82.8  38 
 PAM  SZ I        1246 58.30         6.1 0.64            146           82.8  38 
 RUS  HZ EP   1   1246 39.38                             146   -0.27 7 95.3 175 
 RUS  HN ES   1   1246 58.01                             146   -0.12 7 95.3 175 
 RUS  HZ I        1246 59.64         4.0 0.34            130           95.3 175 
 PTB  HZ EP   1   1246 42.54                             133   -0.39 7  145 261 
 PTB  HN ES   1   1247  3.59                             133   -0.38 7  145 261 
 PTB  HZ I        1247 11.13        11.0 0.28            119            145 261 
 ZAR  HE ES   1   1247 13.92                             123   -0.23 6  204 294 
 ZAR  HZ I        1247 21.09         6.7 0.22            112            204 294 
 CHI  HZ EP   1   1246 54.08                             118    0.87 6  243 195 
 CHI  HZ I        1247 28.72         1.7 0.25            106            243 195 
                                                                                
