 2014  826 1035 29.1 L   6.096 -73.726108.3  RSN  9 0.5 1.8LRSN                1
 GAP= 87        1.31       4.2     3.9  8.7 -0.1229E+01  0.1371E+02 -0.3254E+01E
 Epicentro: CHIPATA - SANTANDER                                                3
 ACTION:UPD 14-09-15 21:53 OP:nd   STATUS:               ID:20140826103529 L   I
 OLDACT:REG 14-08-26 20:39 OP:stll STATUS:               ID:20140826102819     3
 2014-08-26-1028-19M.COL___260                                                 6
 STAT SP IPHASW D HRMM SECON CODA AMPLIT PERI AZIMU VELO AIN AR TRES W  DIS CAZ7
 SPBC HZ IP     C 1035 46.19                             148    0.3010 62.3 218 
 SPBC HN ES       1035 58.95                             148   -0.0210 62.3 218 
 SPBC HZ I        1036  1.29        21.7 0.22            149           62.3 218 
 RUS  HZ EP       1035 47.06                             143   -0.2510 74.6 108 
 RUS  HZ I        1035 47.48        12.8 0.28            149           74.6 108 
 RUS  HN ES       1036  1.53                             143    0.0310 74.6 108 
 BAR2 SZ IP     D 1035 47.98                             140    0.5110 81.4  48 
 BAR2 SZ ES       1036  2.05                             140    0.2710 81.4  48 
 BAR2 SZ I        1036  3.52        54.5 0.12            144           81.4  48 
 PTB  HZ EP       1035 47.90                             136   -0.3310 94.5 301 
 PTB  HN ES       1036  3.32                             136    0.1810 94.5 301 
 PTB  HZ I        1036  5.94         9.3 0.12            135           94.5 301 
 NOR  HZ EP       1035 52.55                             123    0.01 9  140 245 
 NOR  HN ES       1036 11.16                             123    0.35 9  140 245 
 NOR  HZ I        1036 13.30        15.7 0.36            125            140 245 
 CHI  HN ES       1036 14.66                             119   -1.17 9  162 180 
 CHI  HZ I        1036 18.08         4.4 0.36            122            162 180 
 ZAR  HZ EP       1035 58.81                             113   -0.03 9  199 321 
 ZAR  HN ES       1036 20.65                             113   -1.37 9  199 321 
 ZAR  HZ I        1036 28.07         6.9 0.32            115            199 321 
 HEL  HZ EP       1036  0.28                             113    0.86 9  200 273 
 HEL  HN ES       1036 22.91                             113   -0.15 9  200 273 
 HEL  HZ I        1036 31.41         3.7 0.40            115            200 273 
 GUY2CHZ EP       1036  0.50                             113    0.30 8  206 242 
 GUY2CHN ES       1036 24.79                             113    0.35 8  206 242 
 GUY2CHZ I        1036 29.47         3.6 0.40                           206 242 
                                                                                
