 2010 1126 1945 51.1 L   6.772 -73.146140.3  RSN 10 0.5 2.3LRSN                1
 GAP=159        1.09       4.4     7.5  7.5 -0.9170E+01  0.1389E+01  0.5016E+01E
 Epicentro: LOS SANTOS - SANTANDER                                             3
 ACTION:UP  10-12-17 16:55 OP:REBC STATUS:               ID:20101126194551 L   I
 2010-11-26-1943-26S.COL___132                                                 6
 STAT SP IPHASW D HRMM SECON CODA AMPLIT PERI AZIMU VELO SNR AR TRES W  DIS CAZ7
 BAR2 SZ EP   1   1946  9.55                             171    -0.5 7   20 192 
 BAR2 SZ ES   2   1946 24.44                             171    -0.3 5   20 192 
 BAR2 SZ I        1946 25.79        53.7 0.21                            20 192 
 BTL  SZ IP       1946  9.89                             171    -0.210   21 320 
 BTL  SZ ES   1   1946 24.46                             171    -0.3 7   21 320 
 BRR  HZ IP     D 1946 11.65                             151    -0.110   73 301 
 BRR  HE ES       1946 28.40                             151     0.510   73 301 
 BRR  HZ I        1946 32.73        74.2 0.10                            73 301 
 RUS  HZ EP   1   1946 13.75                             144    -0.4 7   97 176 
 RUS  HE ES   1   1946 32.00                             144     0.0 7   97 176 
 RUS  HZ I        1946 34.14        17.5 0.37                            97 176 
 GRA  SZ IP       1946 16.73                             135     0.610  129  17 
 GRA  SZ I        1946 18.06        39.8 0.24                           129  17 
 GRA  SZ ES   1   1946 36.51                             135     0.9 7  129  17 
 OCA  SZ EP   1   1946 18.81                             128    -0.5 7  163 353 
 OCA  SZ ES   1   1946 40.19                             128    -1.1 7  163 353 
 OCA  SZ I        1946 44.52        36.0 0.23                           163 353 
 NOR  SZ EP   2   1946 26.34                             117     0.0 4  233 235 
 NOR  SE ES   2   1946 53.88                             117     0.0 4  233 235 
 CHI  HZ EP   1   1946 28.87                             116     0.7 6  246 195 
 CHI  HN ES   2   1946 57.02                             116    -0.1 4  246 195 
 CHI  HZ I        1947  1.71         4.3 0.17                           246 195 
 HEL  HZ EP   2   1946 31.50                             114     0.5 4  271 256 
 HEL  HE ES   2   1947  1.84                             114    -0.2 4  271 256 
 HEL  HZ I        1947  9.27        12.0 0.44                           271 256 
 RREF HZ EP   1   1946 36.52                             110    -0.3 5  320 230 
 RREF HE ES   2   1947 12.83                             110     0.4 3  320 230 
 RREF HZ I        1947 21.80         7.9 0.32                           320 230 
                                                                                
