 2011  726 1501 54.0 L   6.768 -73.108144.3  RSN  5 0.2 1.8LRSN                1
 GAP=163        0.40       2.2     4.7  3.8 -0.1548E+01 -0.3269E+01 -0.3961E+00E
 Epicentro: LOS SANTOS - SANTANDER                                             3
 ACTION:UPD 12-07-25 14:03 OP:epov STATUS:               ID:20110726150154 L   I
 2011-07-26-1500-48S.COL___142                                                 6
 STAT SP IPHASW D HRMM SECON CODA AMPLIT PERI AZIMU VELO AIN AR TRES W  DIS CAZ7
 BAR2 SZ EP       15 2 13.44                             171    0.0410 21.1 203 
 BAR2 SZ ES   1   15 2 28.37                             171   -0.17 7 21.1 203 
 BAR2 SZ I        15 2 29.78        18.4 0.16                          21.1 203 
 BRR  HZ EP   1   15 2 15.40                             150    0.10 7 76.5 299 
 BRR  HN ES   1   15 2 31.92                             150    0.01 7 76.5 299 
 BRR  HZ I        15 2 35.10        14.7 0.14                          76.5 299 
 RUS  HZ EP   1   15 2 17.34                             144    0.01 7 96.9 178 
 RUS  HN ES   1   15 2 35.67                             144    0.13 7 96.9 178 
 RUS  HZ I        15 2 37.31         7.6 0.29                          96.9 178 
 GRA  SZ EP       15 2 19.45                             136    0.1610  128  15 
 GRA  SZ ES   1   15 2 38.74                             136   -0.28 7  128  15 
 GRA  SZ I        15 2 40.65         8.0 0.36                           128  15 
 PRA  HZ EP   1   15 2 46.90                             106   -0.45 4  391 210 
                                                                                
