 2014  226 1311 10.2 L   6.804 -73.200141.5  RSN  4 0.1 1.4LRSN                1
 GAP=196        0.36       2.0     2.6  3.5  0.1923E+01  0.3511E-01 -0.3165E+01E
 Epicentro: ZAPATOCA - SANTANDER                                               3
 ACTION:UPD 14-03-10 08:13 OP:ep   STATUS:               ID:20140226131110 L   I
 OLDACT:REG 14-02-26 16:53 OP:cam  STATUS:               ID:20140226130818     3
 2014-02-26-1308-18M.COL___235                                                 6
 STAT SP IPHASW D HRMM SECON CODA AMPLIT PERI AZIMU VELO AIN AR TRES W  DIS CAZ7
 BAR2 SZ EP       1311 29.15                             170   -0.1410 23.5 175 
 BAR2 SZ ES       1311 44.11                             170   -0.0910 23.5 175 
 BAR2 SZ I        1311 47.01         7.2 0.30            172           23.5 175 
 RUS  HZ EP       1311 33.63                             143    0.0510  102 173 
 RUS  HN ES       1311 51.98                             143    0.1410  102 173 
 RUS  HZ I        1311 54.50         1.9 0.24            146            102 173 
 PTB  HZ EP   2   1311 36.22                             132   -0.04 5  142 258 
 PTB  HN ES       1311 56.59                             132   -0.02 9  142 258 
 PTB  HZ I        1311 59.09         3.9 0.22            135            142 258 
 SML  HZ EP   1   1311 46.17                             117   -0.08 6  241 337 
 SML  HN ES       1312 14.56                             117    0.17 8  241 337 
 SML  HZ I        1312 17.85         2.3 0.10            119            241 337 
                                                                                
