 2017 1126 1200 50.9 L   6.783 -73.168133.9  RSN 10 0.5 2.0LRSN                1
 GAP=144        1.21       3.9     4.9  7.3 -0.6784E+01  0.1433E+02  0.5244E+00E
 Epicentro: LOS SANTOS - SANTANDER                                             3
 ACTION:UPD 17-12-12 20:00 OP:rebc STATUS:               ID:20171126120050 L   I
 OLDACT:REG 17-11-26 19:29 OP:dhb  STATUS:               ID:20171126115739     3
 2017-11-26-1158-00M.COL___489                                                 6
 STAT SP IPHASW D HRMM SECON CODA AMPLIT PERI AZIMU VELO AIN AR TRES W  DIS CAZ7
 BAR2 EZ IP     C 12 1  8.96                             170   -0.0510 21.2 184 
 BAR2 EZ ES       12 1 23.27                             170    0.1010 21.2 184 
 BAR2 EZ I        12 1 25.01        42.4 0.20            170           21.2 184 
 PAM  EZ IP     D 12 1 11.94                             148   -0.0710 80.4  40 
 PAM  EN ES       12 1 28.81                             148    0.3010 80.4  40 
 PAM  EZ I        12 1 31.21        17.6 0.70            152           80.4  40 
 PTB  HZ EP       12 1 15.71                             130   -0.91 9  145 259 
 PTB  HN ES       12 1 36.75                             130    0.03 9  145 259 
 PTB  HZ I        12 1 38.88        10.1 0.22            130            145 259 
 SPBC HZ EP       12 1 17.79                             127   -0.38 9  160 219 
 SPBC HN ES       12 1 39.89                             127    0.41 9  160 219 
 SPBC HZ I        12 1 45.74        17.0 0.24            128            160 219 
 OCA  HZ EP       12 1 18.37                             126   -0.05 9  162 354 
 OCA  HN ES       12 1 39.51                             126   -0.42 9  162 354 
 OCA  HZ I        12 1 42.95        15.2 0.12            129            162 354 
 ZAR  HZ EP       12 1 22.43                             120    0.04 9  203 293 
 ZAR  HN ES       12 1 46.88                             120   -0.11 9  203 293 
 ZAR  HZ I        12 1 53.42        10.0 0.56            121            203 293 
 NOR  HZ EP       12 1 25.06                             116   -0.52 8  232 234 
 NOR  HE ES       12 1 52.49                             116   -0.18 8  232 234 
 NOR  HZ I        12 1 57.95         6.2 0.24            118            232 234 
 URE  HZ EP       12 1 32.98                             111    1.78 7  282 292 
 URE  HE ES       12 2  2.41                             111   -0.25 7  282 292 
 URE  HZ I        12 2  9.31         7.3 0.18            113            282 292 
 GUY2CHZ EP       12 1 34.58                             110    0.99 7  298 235 
 GUY2CHE ES       12 2  7.38                             110    0.46 7  298 235 
 GUY2CHZ I        12 2 14.01         4.6 0.32                           298 235 
 PRA  HZ EP       12 1 43.51                             105   -0.14 6  389 209 
 PRA  HE ES       12 2 24.37                             105   -0.47 6  389 209 
 PRA  HZ I        12 2 31.45         3.3 0.58            106            389 209 
                                                                                
