 2011  526 1310 36.4 L   6.818 -73.102131.7  RSN  5 0.3 1.4LRSN                1
 GAP=163        0.72       5.0     9.2  9.7 -0.1317E+02 -0.9292E+01 -0.7532E+01E
 Epicentro: LOS SANTOS - SANTANDER                                             3
 ACTION:UP  11-06-29 08:56 OP:tino STATUS:               ID:20110526131036 L   I
 2011-05-26-1306-50S.COL___115                                                 6
 STAT SP IPHASW D HRMM SECON CODA AMPLIT PERI AZIMU VELO SNR AR TRES W  DIS CAZ7
 BTL  SZ EP       1310 54.72                             170     0.410   21 301 
 BAR2 SZ EP   1   1310 54.30                             168    -0.2 7   26 200 
 BAR2 SZ ES   2   1311  9.12                             168     0.6 5   26 200 
 BAR2 SZ I        1311 11.16         9.4 0.33                            26 200 
 BRR  HZ EP       1310 56.22                             148    -0.110   75 295 
 BRR  HN ES   2   1311 11.48                             148    -0.3 5   75 295 
 RUS  HZ EP   2   1310 58.54                             140    -0.4 5  102 179 
 RUS  HE ES   2   1311 16.13                             140    -0.4 5  102 179 
 RUS  HZ I        1311 18.00         3.2 0.22                           102 179 
 GRA  SZ EP       1311  0.33                             134     0.110  123  16 
 GRA  SZ ES   1   1311 18.32                             134    -0.4 7  123  16 
 GRA  SZ I        1311 21.15         4.6 0.42                           123  16 
                                                                                
