 2013  826 1600 39.1 L   6.757 -73.164148.5  RSN  7 0.4 1.8LRSN                1
 GAP=198        0.99       4.0     5.5  6.3  0.6499E+01  0.3066E+01 -0.5971E+01E
 Epicentro: LOS SANTOS - SANTANDER                                             3
 ACTION:UPD 14-01-14 09:07 OP:ep   STATUS:               ID:20130826160039 L   I
 OLDACT:REG 13-08-26 16:51 OP:nd   STATUS:               ID:20130826155959     3
 2013-08-26-1559-59M.COL___270                                                 6
 STAT SP IPHASW D HRMM SECON CODA AMPLIT PERI AZIMU VELO AIN AR TRES W  DIS CAZ7
 BAR2 SZ EP       16 0 58.86                             173   -0.1310 18.3 186 
 BAR2 SZ ES       16 1 14.29                             173   -0.2010 18.3 186 
 BAR2 SZ I        16 1 15.66        10.8 0.34            172           18.3 186 
 BRR  HZ EP       16 1  0.82                             153    0.2110 71.9 303 
 BRR  HN ES       16 1 17.78                             153    0.4210 71.9 303 
 BRR  HZ I        16 1 21.78         8.6 0.14            150           71.9 303 
 RUS  HZ EP       16 1  3.31                             146    0.4910 96.0 175 
 RUS  HN ES       16 1 20.90                             146   -0.4110 96.0 175 
 RUS  HZ I        16 1 22.62         4.8 0.38            149           96.0 175 
 PTB  HZ EP       16 1  5.75                             133   -0.31 9  145 261 
 PTB  HN ES       16 1 26.62                             133   -0.45 9  145 261 
 PTB  HZ I        16 1 29.62         5.7 0.12            133            145 261 
 SPBC HZ EP       16 1  7.86                             131    0.49 9  158 219 
 SPBC HN ES       16 1 29.61                             131    0.21 9  158 219 
 SPBC HZ I        16 1 35.01         8.8 0.44            131            158 219 
 ZAR  HZ EP       16 1 11.75                             123    0.00 9  204 294 
 ZAR  HN ES       16 1 37.17                             123   -0.02 9  204 294 
 ZAR  HZ I        16 1 44.01         8.3 0.30            123            204 294 
 SML  HZ EP       16 1 15.36                             118   -0.92 8  247 336 
 SML  HN ES       16 1 45.71                             118    0.44 8  247 336 
 SML  HZ I        16 1 51.38        11.1 0.07            119            247 336 
                                                                                
