 2014 1026 1800 23.4 L   6.752 -73.203138.9  RSN  6 0.4 2.0LRSN                1
 GAP=132        1.06       4.9     5.0  7.8 -0.5795E+01  0.4849E+01  0.1153E+01E
 Epicentro: VILLANUEVA - SANTANDER                                             3
 ACTION:UPD 14-11-29 23:57 OP:nd   STATUS:               ID:20141026180023 L   I
 OLDACT:REG 14-10-29 15:44 OP:fm   STATUS:               ID:20141026175746     3
 2014-10-26-1757-46M.COL___283                                                 6
 STAT SP IPHASW D HRMM SECON CODA AMPLIT PERI AZIMU VELO AIN AR TRES W  DIS CAZ7
 BAR2 SZ EP       18 0 42.48                             172    0.3610 17.9 173 
 BAR2 SZ I        18 0 42.72        15.1 0.34            171           17.9 173 
 BAR2 SZ ES       18 0 57.14                             172    0.4310 17.9 173 
 BRR  HZ IP     C 18 0 44.19                             152    0.5110 68.6 305 
 BRR  HE ES       18 0 59.89                             152    0.4010 68.6 305 
 BRR  HE I        18 1  1.65        54.3 0.34            151           68.6 305 
 PAM  SZ EP       18 0 45.18                             147   -0.2510 85.5  41 
 PAM  SN ES       18 1  1.97                             147   -0.6310 85.5  41 
 PAM  SN I        18 1  4.64        13.0 0.36            152           85.5  41 
 RUS  HZ EP       18 0 46.40                             144    0.2310 96.0 172 
 RUS  HN ES       18 1  3.67                             144   -0.2410 96.0 172 
 RUS  HN I        18 1  6.30        15.7 0.48            145           96.0 172 
 PTB  HZ EP       18 0 49.07                             132   -0.11 9  141 260 
 PTB  HN ES       18 1  8.62                             132   -0.65 9  141 260 
 PTB  HN I        18 1 17.55        11.0 0.22            131            141 260 
 SPBC HN ES       18 1 11.71                             129   -0.14 9  155 218 
 SPBC HN I        18 1 17.78        16.7 0.26            129            155 218 
                                                                                
