 2017  326 1803 38.3 L   6.765 -73.123145.9  RSN  5 0.3 1.5LRSN                1
 GAP=141        0.85       4.4     4.8  6.8  0.4531E+01  0.3822E+01 -0.5320E+00E
 Epicentro: LOS SANTOS - SANTANDER                                             3
 ACTION:UPD 17-05-25 18:45 OP:jn   STATUS:               ID:20170326180338 L   I
 OLDACT:DUP 17-03-26 23:53 OP:dani STATUS:               ID:20170326175743d    3
 OLDACT:REG 17-03-26 20:10 OP:dani STATUS:               ID:20170326175742     3
 2017-03-26-1758-00M.COL___366                                                 6
 STAT SP IPHASW D HRMM SECON CODA AMPLIT PERI AZIMU VELO AIN AR TRES W  DIS CAZ7
 BAR2 EZ EP       18 3 57.58                             172   -0.3510 20.2 199 
 BAR2 EZ ES       18 4 12.81                             172   -0.4010 20.2 199 
 BAR2 EZ I        18 4 14.52         8.8 0.17            173           20.2 199 
 BRR  HZ EP       18 3 59.56                             151   -0.1810 75.3 300 
 BRR  HN ES       18 4 17.03                             151    0.6010 75.3 300 
 BRR  HZ I        18 4 19.03        11.6 0.72            153           75.3 300 
 PAM  EZ EP       18 4  0.95                             150    0.2810 78.9  36 
 PAM  EE ES       18 4 17.97                             150   -0.1110 78.9  36 
 PAM  EZ I        18 4 20.46         4.4 0.50            152           78.9  36 
 RUS  HZ EP       18 4  2.05                             145    0.2310 96.6 177 
 RUS  HE ES       18 4 20.28                             145    0.1410 96.6 177 
 RUS  HZ I        18 4 21.94         2.6 0.25            147           96.6 177 
 ZAR  HN ES       18 4 36.53                             122   -0.28 8  208 293 
                                                                                
