 2012  426 1045  8.8 L   6.689 -73.184147.4  RSN  5 0.2 1.8LRSN                1
 GAP=224        0.47       4.7     4.1  4.9  0.9235E+01  0.4175E+01 -0.2680E+01E
 Epicentro: VILLANUEVA - SANTANDER                                             3
 ACTION:UPD 12-07-05 11:56 OP:tino STATUS:               ID:20120426104508 L   I
 2012-04-26-1040-00M.COL___186                                                 6
 STAT SP IPHASW D HRMM SECON CODA AMPLIT PERI AZIMU VELO AIN AR TRES W  DIS CAZ7
 BAR2 SZ EP       1045 28.36                             176    -0.110   11 179 
 BAR2 SZ ES   1   1045 43.67                             176    -0.1 7   11 179 
 BAR2 SZ I        1045 44.25        15.1 0.19                            11 179 
 BRR  HZ EP       1045 30.32                             152     0.010   74 308 
 BRR  HZ I        1045 30.73        16.8 0.11                            74 308 
 BRR  HE ES   1   1045 47.34                             152     0.2 7   74 308 
 RUS  HN ES   1   1045 50.14                             148     0.2 7   89 173 
 RUS  HZ I        1045 52.04         6.6 0.31                            89 173 
 PTB  HZ EP       1045 35.53                             134     0.1 9  142 263 
 PTB  HN ES   1   1045 55.86                             134    -0.3 7  142 263 
 PTB  HZ I        1045 58.41         4.5 0.23                           142 263 
 ZAR  HE ES   1   1046  7.03                             123     0.0 6  205 296 
 ZAR  HZ I        1046 13.21        10.8 0.33                           205 296 
                                                                                
