 2010  626 1109  2.9 L   6.790 -73.118149.0  RSN  9 0.4 2.1LRSN                1
 GAP=159        0.82       3.2     7.1  5.9 -0.7704E+01 -0.3923E+01  0.3334E+01E
 Epicentro: LOS SANTOS - SANTANDER                                             3
 ACTION:UP  10-08-24 10:13 OP:vdl  STATUS:               ID:20100626110902 L   I
 2010-06-26-1106-57S.COL___118                                                 6
 STAT SP IPHASW D HRMM SECON CODA AMPLIT PERI AZIMU VELO SNR AR TRES W  DIS CAZ7
 BAR2 SZ IP       11 9 22.66                             171    -0.310   23 198 
 BAR2 SZ ES   1   11 9 38.53                             171     0.0 7   23 198 
 BRR  HZ IP     C 11 9 24.53                             152    -0.110   74 298 
 BRR  HN ES       11 9 41.82                             152     0.310   74 298 
 BRR  HZ I        11 9 44.22        37.9 0.11                            74 298 
 RUS  HZ EP   1   11 9 26.62                             145    -0.3 7   99 178 
 RUS  HE ES   1   11 9 45.38                             145    -0.2 7   99 178 
 RUS  HZ I        11 9 46.16         8.9 0.31                            99 178 
 BRI  SZ EP   1   11 9 27.28                             142     0.2 7  108  19 
 BRI  SZ ES   1   11 9 46.42                             142     0.4 7  108  19 
 GUE  SZ EP   1   11 9 28.43                             140     0.5 7  117  10 
 GRA  SZ EP   1   11 9 28.68                             138     0.2 7  126  16 
 GRA  SZ ES   1   11 9 48.24                             138    -0.2 7  126  16 
 OCA  SZ EP   1   11 9 31.26                             130    -0.4 7  162 352 
 OCA  SZ ES   1   11 9 53.35                             130    -0.7 7  162 352 
 OCA  SZ I        11 9 58.94        11.6 0.22                           162 352 
 CHI  HZ EP   2   11 9 40.30                             118    -0.5 4  248 196 
 CHI  HN ES   2   1110 10.85                             118     0.6 4  248 196 
 CHI  HZ I        1110 19.81         5.5 0.36                           248 196 
 PRA  HZ IP     D 11 9 57.49                             107     0.9 6  393 210 
 PRA  HN ES   1   1110 38.08                             107    -0.4 4  393 210 
 PRA  HZ I        1110 42.36         5.6 0.49                           393 210 
                                                                                
