 2013  826 1845 47.8 L   6.798 -73.118150.8  RSN 15 0.4 2.3LRSN                1
 GAP=140        0.96       2.8     4.2  5.2 -0.7710E+00  0.6168E+01  0.1696E+01E
 Epicentro: LOS SANTOS - SANTANDER                                             3
 ACTION:UPD 14-01-14 09:07 OP:ep   STATUS:               ID:20130826184547 L   I
 OLDACT:REG 13-08-26 17:01 OP:nd   STATUS:               ID:20130826183959     3
 2013-08-26-1839-59M.COL___270                                                 6
 STAT SP IPHASW D HRMM SECON CODA AMPLIT PERI AZIMU VELO AIN AR TRES W  DIS CAZ7
 BAR2 SZ IP     C 1846  8.11                             171    0.0410 23.8 197 
 BAR2 SZ ES       1846 23.72                             171   -0.1410 23.8 197 
 BAR2 SZ I        1846 25.85        31.6 0.28            168           23.8 197 
 BRR  HZ IP     C 1846 10.07                             152    0.3910 74.0 298 
 BRR  HN ES       1846 27.37                             152    0.6510 74.0 298 
 BRR  HZ I        1846 31.52        21.6 0.12            148           74.0 298 
 PAM  SZ EP       1846 10.84                             152    0.3610 75.7  38 
 PAM  SN ES       1846 28.17                             152    0.0210 75.7  38 
 PAM  SZ I        1846 30.32        29.8 0.20            155           75.7  38 
 RUS  HZ IP     D 1846 11.95                             145   -0.1010  100 178 
 RUS  HN ES       1846 30.31                             145   -0.6310  100 178 
 RUS  HZ I        1846 31.94        11.4 0.38            147            100 178 
 PTB  HZ EP       1846 14.97                             132   -0.51 9  151 259 
 PTB  HN ES   2   1846 36.27                             132   -0.77 5  151 259 
 PTB  HZ I        1846 42.01        27.6 0.20            131            151 259 
 SPBC HZ EP       1846 17.09                             130    0.21 9  165 220 
 SPBC HN ES       1846 39.95                             130    0.41 9  165 220 
 SPBC HZ I        1846 46.27        33.8 0.36            130            165 220 
 ZAR  HZ EP   2   1846 20.21                             123   -0.70 4  207 292 
 ZAR  HN ES       1846 46.62                             123   -0.09 8  207 292 
 ZAR  HZ I        1846 52.53        25.4 0.28            122            207 292 
 NOR  HZ EP       1846 24.17                             119    0.06 8  237 235 
 NOR  HN ES       1846 52.35                             119   -0.05 8  237 235 
 NOR  HZ I        1846 55.95        14.7 0.22            119            237 235 
 SML  HZ EP       1846 25.05                             118    0.14 8  245 335 
 SML  HE ES       1846 53.02                             118   -0.81 8  245 335 
 SML  HZ I        1846 56.80        38.7 0.10            119            245 335 
 CHI  HZ EP       1846 26.02                             118    0.14 8  249 196 
 CHI  HN ES       1846 55.09                             118   -0.46 8  249 196 
 CHI  HZ I        1846 59.56         7.9 0.50            119            249 196 
 GUY2CHZ EP   4   1846 33.11                             113    1.17 0  304 235 
 GUY2CHN ES   4   1847 10.62                             113    4.27 0  304 235 
 GUY2CHZ I        1847 14.99        15.4 0.78                           304 235 
 RREF HZ EP   4   1846 35.85                             112    1.41 0  324 230 
 RREF HN ES   4   1847 13.43                             112    2.63 0  324 230 
 RREF HZ I        1847 16.76        10.1 0.28            112            324 230 
 COD  HZ EP   4   1846 35.74                             110   -0.74 0  349 354 
 COD  HN ES   4   1847 14.08                             110   -0.34 0  349 354 
 COD  HZ I        1847 20.38         3.7 0.56            111            349 354 
 PRA  HZ EP       1846 41.60                             107   -0.08 6  393 210 
 PRA  HN ES       1847 24.70                             107    1.02 6  393 210 
 PRA  HZ I        1847 29.60         9.3 0.56            108            393 210 
 SJC  HZ IP   4 C 1846 42.35                             106   -1.44 0  411 327 
 SJC  HN ES   4   1847 23.15                             106   -4.28 0  411 327 
 SJC  HZ I        1847 36.15         2.5 0.34            107            411 327 
                                                                                
