 2010 1026 1633 15.3 L   6.782 -73.164143.5  RSN  6 0.3 1.6LRSN                1
 GAP=157        0.56       3.7     6.2  6.3 -0.7010E+01  0.3950E+01  0.3803E+01E
 Epicentro: LOS SANTOS - SANTANDER                                             3
 ACTION:UP  11-02-18 11:12 OP:tino STATUS:               ID:20101026163315 L   I
 2010-10-26-1631-38S.COL___128                                                 6
 STAT SP IPHASW D HRMM SECON CODA AMPLIT PERI AZIMU VELO SNR AR TRES W  DIS CAZ7
 BAR2 SZ EP   1   1633 34.22                             171    -0.4 7   21 186 
 BAR2 SZ ES   2   1633 49.18                             171    -0.5 5   21 186 
 BAR2 SZ I        1633 50.02         8.3 0.40                            21 186 
 BRR  HZ EP   1   1633 35.98                             152    -0.2 7   70 301 
 BRR  HE ES   2   1633 52.91                             152     0.5 5   70 301 
 BRR  HZ I        1634 17.77        14.0 0.41                            70 301 
 RUS  HZ EP   1   1633 38.61                             144    -0.1 7   99 175 
 RUS  HN ES   2   1633 57.31                             144     0.4 5   99 175 
 RUS  HZ I        1633 58.55         3.7 0.24                            99 175 
 GRA  SZ EP   1   1633 40.87                             136     0.3 7  128  18 
 GRA  SZ ES   2   1634  0.30                             136     0.1 5  128  18 
 NOR  SZ EP   1   1633 50.51                             118    -0.1 6  232 235 
 NOR  SN ES   2   1634 18.04                             118    -0.1 4  232 235 
 CHI  HZ EP   1   1633 52.75                             117     0.2 6  246 195 
 CHI  HN ES   2   1634 22.08                             117     0.4 4  246 195 
 CHI  HZ I        1634 25.54         2.2 0.64                           246 195 
                                                                                
