 2011  826 1034 54.1 L   6.669 -73.002120.0  RSN  4 0.2 1.4LRSN                1
 GAP=197        0.44       5.9     9.6  6.1  0.3898E+02 -0.3357E+02 -0.1795E+02E
 Epicentro: ARATOCA - SANTANDER                                                3
 ACTION:UPD 12-07-13 15:53 OP:ep   STATUS:               ID:20110826103454 L   I
 2011-08-26-1033-49S.COL___161                                                 6
 STAT SP IPHASW D HRMM SECON CODA AMPLIT PERI AZIMU VELO AIN AR TRES W  DIS CAZ7
 BAR2 SZ EP   1   1035 11.00                             169    0.36 7 21.6 247 
 BAR2 SZ I        1035 11.63        13.8 0.23                          21.6 247 
 BAR2 SZ ES   1   1035 23.37                             169   -0.14 7 21.6 247 
 RUS  HZ EP   1   1035 14.25                             142   -0.09 7 86.3 186 
 RUS  HZ I        1035 31.41         1.8 0.26                          86.3 186 
 BRR  HZ EP   1   1035 13.94                             140   -0.16 7 92.2 302 
 BRR  HN ES   1   1035 29.75                             140    0.08 7 92.2 302 
 BRR  HZ I        1035 32.58         6.7 0.24                          92.2 302 
 OCA  SZ EP   1   1035 22.28                             120   -0.06 7  177 349 
                                                                                
