 2015  426 1036 45.3 L   6.883 -73.242128.5  RSN 15 0.5 2.3LRSN                1
 GAP=192        1.11       3.1     4.5  5.5  0.1763E+01  0.8112E+01  0.1067E+01E
 Epicentro: BETULIA - SANTANDER                                                3
 ACTION:UPD 15-06-03 16:57 OP:cam  STATUS:               ID:20150426103645 L   I
 OLDACT:UP  15-04-26 21:25 OP:mh   STATUS:               ID:20150426102748d    3
 OLDACT:DUP 15-04-26 21:20 OP:mh   STATUS:               ID:20150426102748d    3
 OLDACT:UP  15-04-26 21:14 OP:mh   STATUS:               ID:20150426102747     3
 OLDACT:REG 15-04-26 19:55 OP:mh   STATUS:               ID:20150426102747     3
 2015-04-26-1027-47M.COL___268                                                 6
 STAT SP IPHASW D HRMM SECON CODA AMPLIT PERI AZIMU VELO AIN AR TRES W  DIS CAZ7
 BAR2 EZ EP       1037  3.62                             165    0.5410 32.8 168 
 BAR2 EZ ES       1037 16.79                             165   -0.1810 32.8 168 
 BAR2 EZ I        1037 17.64        72.4 0.12            163           32.8 168 
 BRR  HZ EP       1037  4.23                             154    0.4510 57.5 296 
 BRR  HN ES       1037 18.53                             154    0.3110 57.5 296 
 BRR  HZ I        1037 19.44        31.8 0.12            151           57.5 296 
 RUS  HZ EP   1   1037  8.57                             137    0.38 7  111 171 
 RUS  HN ES       1037 25.92                             137   -0.1610  111 171 
 RUS  HZ I        1037 27.59        10.5 0.16            136            111 171 
 PTB  HZ EP     C 1037  9.03                             130   -1.06 9  140 254 
 PTB  HE ES       1037 29.54                             130    0.08 9  140 254 
 PTB  HZ I        1037 31.10        47.8 0.22            127            140 254 
 SPBC HZ EP       1037 12.18                             125   -0.42 9  164 214 
 SPBC HN ES       1037 33.69                             125   -0.23 9  164 214 
 SPBC HZ I        1037 34.08        31.1 0.40            123            164 214 
 ZAR  HZ EP       1037 15.60                             120    0.37 9  191 291 
 ZAR  HN ES       1037 38.79                             120    0.18 9  191 291 
 ZAR  HZ I        1037 43.60        30.1 0.40            119            191 291 
 SML  HZ EP       1037 19.44                             115   -0.13 8  231 337 
 SML  HN ES       1037 46.02                             115   -0.30 8  231 337 
 SML  HZ I        1037 51.33        25.8 0.10            115            231 337 
 NOR  HZ EP       1037 19.74                             115    0.01 8  232 231 
 NOR  HN ES       1037 46.45                             115   -0.16 8  232 231 
 NOR  HZ I        1037 53.27        14.8 0.32            114            232 231 
 CHI  HZ EP       1037 21.95                             113   -0.83 8  255 192 
 CHI  HN ES       1037 52.17                             113    0.13 8  255 192 
 CHI  HZ I        1038  2.83         5.4 0.64            112            255 192 
 HEL  HZ EP       1037 23.94                             112    0.17 8  264 253 
 HEL  HN ES       1037 53.13                             112   -0.67 8  264 253 
 HEL  HZ I        1037 57.84        10.7 0.26            111            264 253 
 URE  HZ EP       1037 23.32                             111   -0.72 8  271 291 
 URE  HN ES   4   1037 52.04                             111   -2.24 0  271 291 
 URE  HZ I        1037 59.03        18.9 0.20            110            271 291 
 GUY2CHZ EP       1037 28.62                             109    0.84 7  298 232 
 GUY2CHN ES   4   1037 59.10                             109   -1.83 0  298 232 
 GUY2CHZ I        1038  5.56         6.9 0.20                           298 232 
 CBOC HZ EP       1037 31.27                             107    0.58 7  327 250 
 CBOC HN ES       1038  6.80                             107    0.67 7  327 250 
 TOL  SZ EP       1037 33.64                             106    0.84 7  343 222 
 TOL  SN ES       1038  9.39                             106   -0.49 7  343 222 
 TOL  SZ I        1038 17.50         7.2 0.32            105            343 222 
 ORTC HZ EP   4   1037 40.83                             103    2.02 0  397 214 
 ORTC HN ES       1038 21.13                             103    0.56 6  397 214 
 ORTC HZ I        1038 27.61         5.2 0.38            103            397 214 
                                                                                
