 2011  726 1654 25.5 L   6.777 -73.145138.5  RSN  5 0.2 1.8LRSN                1
 GAP=159        0.40       2.2     4.8  4.1  0.4414E+00 -0.4542E+01 -0.2476E+01E
 Epicentro: LOS SANTOS - SANTANDER                                             3
 ACTION:UPD 12-07-25 14:03 OP:epov STATUS:               ID:20110726165425 L   I
 2011-07-26-1652-24S.COL___142                                                 6
 STAT SP IPHASW D HRMM SECON CODA AMPLIT PERI AZIMU VELO AIN AR TRES W  DIS CAZ7
 BAR2 SZ EP   1   1654 44.05                             171   -0.12 7 20.8 191 
 BAR2 SZ ES   1   1654 58.83                             171    0.06 7 20.8 191 
 BAR2 SZ I        1655  1.02         9.6 0.27                          20.8 191 
 BRR  HZ EP   1   1654 46.22                             151    0.31 7 72.5 300 
 BRR  HN ES   1   1655  1.73                             151   -0.13 7 72.5 300 
 BRR  HZ I        1655  6.70        13.2 0.25                          72.5 300 
 RUS  HZ EP   1   1654 48.47                             143    0.15 7 98.0 176 
 RUS  HN ES   1   1655  6.04                             143   -0.11 7 98.0 176 
 RUS  HZ I        1655  7.67         4.9 0.37                          98.0 176 
 GRA  SZ EP   1   1654 50.12                             135   -0.16 7  128  17 
 GRA  SZ ES   1   1655  9.78                             135    0.14 7  128  17 
 GRA  SZ I        1655 10.43        15.5 0.26                           128  17 
 OCA  SZ EP   1   1654 53.30                             127   -0.17 7  163 353 
 OCA  SZ I        1655 18.28        14.9 0.42                           163 353 
                                                                                
