 2011  926 1345  6.0 L   6.820 -73.107139.1  RSN  4 0.1 1.6LRSN                1
 GAP=237        0.34       5.4     9.0  4.1  0.4018E+02 -0.1327E+02 -0.9744E+01E
 Epicentro: LOS SANTOS - SANTANDER                                             3
 ACTION:UPD 12-07-13 15:59 OP:ep   STATUS:               ID:20110926134506 L   I
 2011-09-26-1340-19S.COL___165                                                 6
 STAT SP IPHASW D HRMM SECON CODA AMPLIT PERI AZIMU VELO AIN AR TRES W  DIS CAZ7
 BTL  SZ EP   1   1345 24.98                             171    0.21 7 20.9 302 
 BAR2 SZ EP   1   1345 24.75                             169   -0.14 7 26.5 198 
 BAR2 SZ ES       1345 39.59                             169   -0.0410 26.5 198 
 BAR2 SZ I        1345 41.50         9.4 0.17                          26.5 198 
 BRR  HZ EP       1345 26.52                             150   -0.0710 74.0 295 
 BRR  HN ES   1   1345 42.72                             150    0.06 7 74.0 295 
 BRR  HZ I        1345 55.63        10.0 0.40                          74.0 295 
 RUS  HZ EP   2   1345 29.35                             142    0.11 5  103 179 
 RUS  HN ES   1   1345 47.40                             142    0.03 7  103 179 
 RUS  HZ I        1345 49.26         4.1 0.35                           103 179 
                                                                                
