 2011  126 1859 59.5 L   6.748 -73.264142.4  RSN  4 0.3 1.8LRSN                1
 GAP=166        0.60       6.7    25.9  8.8  0.3976E+02  0.1282E+03  0.2894E+02E
 Epicentro: ZAPATOCA - SANTANDER                                               3
 ACTION:UP  11-02-08 08:42 OP:pat  STATUS:               ID:20110126185959 L   I
 2011-01-26-1857-45S.COL___138                                                 6
 STAT SP IPHASW D HRMM SECON CODA AMPLIT PERI AZIMU VELO SNR AR TRES W  DIS CAZ7
 BTL  SZ EP       19 0 18.77                             172     0.110   19 359 
 BTL  SZ ES   2   19 0 34.03                             172     0.4 5   19 359 
 BAR2 SZ EP       19 0 18.51                             172    -0.210   19 153 
 BAR2 SZ ES   2   19 0 32.97                             172    -0.6 5   19 153 
 BAR2 SZ I        19 0 35.37        11.9 0.38                            19 153 
 RUS  HZ EP       19 0 22.74                             144     0.110   97 168 
 RUS  HN ES   2   19 0 41.02                             144     0.3 5   97 168 
 RUS  HZ I        19 0 42.37        10.1 0.59                            97 168 
 CHI  HZ EP       19 0 36.05                             117     0.0 8  240 192 
 CHI  HZ I        19 1 10.35         5.3 0.98                           240 192 
                                                                                
