 2014  626 1107 33.9 L   6.819 -73.164144.9  RSN  5 0.4 1.7LRSN                1
 GAP=200        1.04       5.3     7.1 10.5 -0.5371E+01  0.3138E+02 -0.2836E+02E
 Epicentro: LOS SANTOS - SANTANDER                                             3
 ACTION:UPD 14-07-01 22:57 OP:nd   STATUS:               ID:20140626110733 L   I
 OLDACT:REG 14-06-26 22:49 OP:carl STATUS:               ID:20140626105820     3
 2014-06-26-1058-20M.COL___253                                                 6
 STAT SP IPHASW D HRMM SECON CODA AMPLIT PERI AZIMU VELO AIN AR TRES W  DIS CAZ7
 BAR2 SZ EP       11 7 53.96                             170    0.5110 25.2 185 
 BAR2 SZ ES       11 8  9.04                             170    0.3210 25.2 185 
 BAR2 SZ I        11 8  9.72         9.8 0.32            169           25.2 185 
 RUS  HN ES       11 8 15.61                             143   -0.7010  103 175 
 PTB  HZ EP       11 8  0.62                             132   -0.02 9  146 258 
 PTB  HN ES       11 8 21.75                             132    0.23 9  146 258 
 PTB  HZ I        11 8 26.93         5.6 0.20            131            146 258 
 NOR  HE ES       11 8 37.21                             118   -0.11 8  234 234 
 NOR  HZ I        11 8 40.16         2.9 0.18            119            234 234 
 SML  HZ EP       11 8 10.43                             118    0.26 8  241 336 
 SML  HN ES       11 8 37.81                             118   -0.65 8  241 336 
 SML  HZ I        11 8 41.66         5.1 0.28            119            241 336 
                                                                                
