 2010  126 1926 47.1 L   6.803 -73.044139.1  RSN 11 0.4 2.6LRSN                1
 GAP=193        0.81       3.7     9.0  6.4 -0.4282E+01  0.3023E+02  0.1979E+01E
 Epicentro: CEPITA - SANTANDER                                                 3
 ACTION:UP  10-08-24 09:46 OP:vdl  STATUS:               ID:20100126192647 L   I
 2010-01-26-1925-06S.COL___095                                                 6
 STAT SP IPHASW D HRMM SECON CODA AMPLIT PERI AZIMU VELO SNR AR TRES W  DIS CAZ7
 BAR2 SZ IP       1927  6.35                             168     0.310   28 213 
 BAR2 SZ ES   1   1927 20.75                             168    -0.1 7   28 213 
 GIR2 SZ IP       1927  5.47                             165    -0.610   35 331 
 GIR2 SZ ES   1   1927 20.56                             165    -0.3 7   35 331 
 RUS  BZ IP       1927 10.23                             142     0.010  101 182 
 RUS  BZ I        1927 11.01        39.1 0.30                           101 182 
 RUS  BN ES   1   1927 28.57                             142     0.3 7  101 182 
 OCA  SZ EP   1   1927 15.05                             128     0.0 7  162 349 
 OCA  SZ ES   1   1927 37.35                             128     0.5 7  162 349 
 CHI  HZ EP   2   1927 24.56                             115    -0.3 4  252 198 
 CHI  HE ES   2   1927 53.79                             115    -0.5 4  252 198 
 CHI  HZ I        1928  4.25        16.8 0.43                           252 198 
 HEL  HZ EP   1   1927 28.75                             112     0.5 6  283 256 
 HEL  HZ I        1928  5.38        38.3 0.23                           283 256 
 GUY  HN ES   2   1928  6.50                             110     0.4 3  311 236 
 RREF BZ EP   1   1927 34.67                             109     0.7 5  331 231 
 RREF BZ I        1928 14.47        23.5 0.71                           331 231 
 DBB  SZ EP   1   1927 34.87                             107    -0.7 5  351 274 
 TOL  SZ EP       1927 36.36                             107     0.3 6  352 226 
 TOL  SZ ES   2   1928 13.70                             107    -0.5 3  352 226 
 PRA  HZ EP   2   1927 40.69                             105    -0.4 3  398 211 
 PRA  HN ES   2   1928 22.40                             105    -0.8 3  398 211 
                                                                                
