 2014  926 1006 27.7 L   6.804 -73.177148.2  RSN 10 0.4 1.9LRSN                1
 GAP=132        0.92       2.9     3.9  5.3  0.9671E+00  0.4816E+01  0.8649E+00E
 Epicentro: LOS SANTOS - SANTANDER                                             3
 ACTION:UPD 14-10-03 23:08 OP:nd   STATUS:               ID:20140926100627 L   I
 OLDACT:REG 14-09-26 20:15 OP:cam  STATUS:               ID:20140926100000     3
 2014-09-26-1000-00M.COL___252                                                 6
 STAT SP IPHASW D HRMM SECON CODA AMPLIT PERI AZIMU VELO AIN AR TRES W  DIS CAZ7
 BAR2 SZ EP     D 10 6 47.58                             171   -0.0910 23.4 181 
 BAR2 SZ ES       10 7  2.86                             171   -0.3510 23.4 181 
 BAR2 SZ I        10 7  4.16        44.0 0.18            171           23.4 181 
 BRR  HZ EP       10 6 49.45                             154    0.4710 67.9 300 
 BRR  HN ES       10 7  6.19                             154    0.6510 67.9 300 
 BRR  HZ I        10 7  9.75        12.9 0.30            152           67.9 300 
 PAM  SZ EP     C 10 6 50.54                             151    0.2010 79.3  42 
 PAM  SN ES       10 7  7.73                             151   -0.2310 79.3  42 
 PAM  SZ I        10 7 13.62         5.8 0.50            155           79.3  42 
 RUS  HZ EP       10 6 51.50                             144   -0.2910  101 174 
 RUS  HN ES       10 7 10.79                             144    0.2510  101 174 
 RUS  HZ I        10 7 11.90         8.1 0.24            148            101 174 
 PTB  HZ EP       10 6 54.02                             133   -0.59 9  144 258 
 PTB  HN ES       10 7 15.03                             133   -0.54 9  144 258 
 PTB  HZ I        10 7 22.84         9.3 0.44            134            144 258 
 SPBC HZ EP       10 6 56.48                             130    0.22 9  161 218 
 SPBC HN ES   1   10 7 18.06                             130   -0.44 7  161 218 
 SPBC HZ I        10 7 23.37        13.4 0.18            132            161 218 
 ZAR  HZ EP       10 7  0.01                             123    0.01 9  201 292 
 ZAR  HN ES       10 7 25.58                             123    0.42 9  201 292 
 ZAR  HZ I        10 7 31.81         7.4 0.32            125            201 292 
 SML  HZ EP   1   10 7  4.22                             118   -0.09 6  242 336 
 SML  HN ES       10 7 32.47                             118   -0.36 8  242 336 
 SML  HZ I        10 7 37.72         8.3 0.24            120            242 336 
 CHI  HZ EP       10 7  5.74                             118    0.21 8  248 194 
 CHI  HN ES       10 7 35.33                             118    0.33 8  248 194 
 CHI  HZ I        10 7 38.69         2.7 0.38            120            248 194 
 GUY2CHN I        10 7 53.48         5.2 0.52                           299 234 
                                                                                
