 2011  626 1600 50.1 L   6.765 -73.106138.4  RSN 18 0.3 2.9LRSN                1
 GAP= 63        0.79       2.7     4.3  4.6 -0.2381E+01  0.4798E+01  0.2089E+01E
 Epicentro: LOS SANTOS - SANTANDER                                             3
 ACTION:UP  11-07-14 19:08 OP:ep   STATUS:               ID:20110626160050 L   I
 2011-06-26-1556-38S.COL___140                                                 6
 STAT SP IPHASW D HRMM SECON CODA AMPLIT PERI AZIMU VELO SNR AR TRES W  DIS CAZ7
 SAN  SZ EP       16 1  9.20                             179     0.610    4  91 
 BAR2 SZ IP       16 1  8.71                             171    -0.110   21 204 
 BAR2 SZ ES   1   16 1 22.97                             171    -0.4 7   21 204 
 BAR2 SZ I        16 1 24.74       265.3 0.29                            21 204 
 BTL  SZ IP       16 1  8.90                             169     0.010   25 314 
 GIR2 SZ IP       16 1  8.87                             165    -0.210   36 344 
 GIR2 SZ ES   2   16 1 23.80                             165     0.0 5   36 344 
 BRR  HZ IP     D 16 1 10.68                             149    -0.110   77 299 
 BRR  HZ I        16 1 11.09       198.4 0.13                            77 299 
 BRR  HE ES   1   16 1 27.51                             149     0.5 7   77 299 
 PAM  SZ EP       16 1 11.83                             149     0.310   78  35 
 RUS  HZ EP       16 1 12.65                             143    -0.210   97 178 
 RUS  HN ES   1   16 1 30.50                             143    -0.1 7   97 178 
 RUS  HZ I        16 1 32.41       129.8 0.42                            97 178 
 BRI  SZ IP       16 1 13.47                             139     0.010  111  18 
 BRI  SZ ES   1   16 1 31.64                             139    -0.1 7  111  18 
 GRA  SZ IP       16 1 14.79                             135    -0.110  128  15 
 GRA  SZ ES   1   16 1 34.03                             135    -0.2 7  128  15 
 GRA  SZ I        16 1 37.28       122.3 0.45                           128  15 
 OCA  SZ EP       16 1 17.94                             127    -0.3 9  165 352 
 OCA  SZ I        16 1 43.19       151.8 0.38                           165 352 
 YOP  SZ EP       16 1 19.46                             125     0.4 9  174 154 
 YOP  SE ES   2   16 1 42.08                             125     0.4 4  174 154 
 YOP  SZ I        16 1 45.56        40.3 0.30                           174 154 
 NOR  SZ EP       16 1 25.35                             117    -0.2 8  236 236 
 NOR  SN ES   2   16 1 53.08                             117    -0.2 4  236 236 
 CHI  HZ EP   2   16 1 26.90                             116    -0.2 4  246 196 
 CHI  HE ES   2   16 1 55.44                             116    -0.6 4  246 196 
 HEL  HZ EP       16 1 30.99                             113     0.7 7  275 257 
 HEL  HZ I        16 2  9.28        21.8 0.35                           275 257 
 TOL  SZ EP       16 1 38.60                             108     0.5 7  344 226 
 DBB  SZ EP       16 1 37.77                             108    -0.1 7  344 275 
 PRA  HZ EP       16 1 42.81                             105    -0.4 6  391 210 
 SJA  SZ EP   1   16 1 43.56                             105    -0.5 4  397 194 
 SJA  SZ I        16 2 31.38        31.6 0.26                           397 194 
                                                                                
