 2014 1126 1608 15.0 L   6.805 -73.177143.4  RSN 12 0.5 1.8LRSN                1
 GAP=132        1.29       4.6     5.0  7.6 -0.1727E+01  0.1319E+02  0.4695E+01E
 Epicentro: LOS SANTOS - SANTANDER                                             3
 ACTION:UPD 14-12-19 15:47 OP:nd   STATUS:               ID:20141126160816dL   I
 OLDACT:REG 14-11-26 20:35 OP:fm   STATUS:               ID:20141126160749     3
 2014-11-26-1607-49M.COL___306                                                 6
 STAT SP IPHASW D HRMM SECON CODA AMPLIT PERI AZIMU VELO AIN AR TRES W  DIS CAZ7
 BAR2 SZ EP       16 8 34.59                             170    0.2610 23.5 181 
 BAR2 SZ ES       16 8 49.84                             170    0.4110 23.5 181 
 BAR2 SZ I        16 8 50.82        13.4 0.26            166           23.5 181 
 BRR  HZ EP       16 8 36.47                             153    0.7810 67.9 300 
 BRR  HN ES       16 8 51.86                             153    0.0210 67.9 300 
 BRR  HZ I        16 8 54.13        17.9 0.32            152           67.9 300 
 PAM  SZ IP     D 16 8 37.63                             150    0.5710 79.3  42 
 PAM  SN ES       16 8 53.61                             150   -0.6710 79.3  42 
 PAM  SZ I        16 8 56.15         7.9 0.18            156           79.3  42 
 RUS  HZ EP       16 8 37.58                             143   -0.9810  101 174 
 RUS  HN ES       16 8 56.95                             143   -0.0110  101 174 
 RUS  HZ I        16 8 58.85         4.3 0.44            142            101 174 
 PTB  HZ EP       16 8 41.74                             132    0.29 9  144 258 
 PTB  HN ES       16 9  1.89                             132   -0.21 9  144 258 
 PTB  HZ I        16 9  4.29         7.4 0.14            131            144 258 
 SPBC HZ EP       16 8 43.55                             129    0.42 9  161 218 
 SPBC HE ES       16 9  4.45                             129   -0.64 9  161 218 
 SPBC HZ I        16 9 12.56         9.3 0.32            128            161 218 
 ZAR  HN ES       16 9 11.73                             122   -0.09 9  201 292 
 ZAR  HZ I        16 9 17.75         6.6 0.30            123            201 292 
 NOR  HN ES       16 9 18.58                             118    0.73 8  232 234 
 NOR  HZ I        16 9 26.52         3.9 0.24            118            232 234 
 GUY2CHZ EP       16 8 57.73                             112   -0.46 7  299 234 
 GUY2CHN ES   4   16 9 35.16                             112    3.26 0  299 234 
 GUY2CHZ I        16 9 41.05         3.2 0.56                           299 234 
 RREF HZ EP       16 9  0.77                             110    0.01 7  319 229 
 RREF HN ES   4   16 9 39.65                             110    3.19 0  319 229 
 RREF HZ I        16 9 46.39         3.8 0.44            111            319 229 
 TOL  SE ES       16 9 40.18                             109   -0.10 7  341 224 
 TOL  SZ I        16 9 48.47         7.5 0.66            109            341 224 
 MON  HN ES       16 9 40.43                             108   -0.97 6  351 309 
 MON  HZ I        16 9 40.86         1.2 0.40            109            351 309 
                                                                                
