 2015  826 1357 43.2 L   6.823 -73.119148.6  RSN 15 0.4 2.3LRSN                1
 GAP=139        0.97       2.6     3.9  5.2 -0.1660E+01  0.7068E+01  0.2369E+01E
 Epicentro: LOS SANTOS - SANTANDER                                             3
 ACTION:UPD 15-09-15 23:05 OP:cam  STATUS:               ID:20150826135743 L   I
 OLDACT:REG 15-08-26 20:30 OP:spq  STATUS:               ID:20150826134748     3
 2015-08-26-1347-48M.COL___349                                                 6
 STAT SP IPHASW D HRMM SECON CODA AMPLIT PERI AZIMU VELO AIN AR TRES W  DIS CAZ7
 BAR2 EZ EP     C 1358  3.04                             169   -0.1610 26.4 195 
 BAR2 EZ ES   1   1358 19.03                             169    0.20 7 26.4 195 
 BAR2 EZ I        1358 19.56        31.4 0.22            168           26.4 195 
 BRR  HZ EP       1358  4.91                             153    0.2010 72.7 296 
 BRR  HN ES       1358 21.86                             153    0.3510 72.7 296 
 BRR  HZ I        1358 25.55        27.5 0.36            149           72.7 296 
 PAM  EZ EP       1358  5.97                             152    0.5110 73.5  39 
 PAM  EN ES       1358 23.10                             152    0.2510 73.5  39 
 PAM  EZ I        1358 25.84        16.8 0.41            156           73.5  39 
 RUS  HZ EP       1358  7.04                             144   -0.3310  103 178 
 RUS  HN ES       1358 26.08                             144   -0.1610  103 178 
 RUS  HZ I        1358 26.76        17.9 0.22            146            103 178 
 OCA  HN ES       1358 33.17                             131   -0.44 9  158 352 
 OCA  HZ I        1358 37.75        55.6 0.31            132            158 352 
 SPBC HZ EP       1358 12.02                             129   -0.23 9  167 219 
 SPBC HE ES       1358 34.49                             129   -0.44 9  167 219 
 SPBC HZ I        1358 41.06        32.6 0.18            129            167 219 
 ZAR  HZ EP       1358 15.47                             123   -0.52 8  206 291 
 ZAR  HN ES       1358 41.20                             123   -0.39 8  206 291 
 ZAR  HZ I        1358 49.49        18.1 0.46            123            206 291 
 NOR  HZ EP       1358 19.75                             119    0.27 8  239 234 
 NOR  HE ES       1358 47.38                             119   -0.42 8  239 234 
 NOR  HZ I        1358 51.97        14.2 0.36            119            239 234 
 SML  HZ EP       1358 19.46                             118   -0.39 8  243 334 
 SML  HN ES   1   1358 48.46                             118    0.00 6  243 334 
 SML  HZ I        1358 53.97        15.9 0.10            119            243 334 
 CHI  HZ EP       1358 21.31                             117   -0.06 8  252 196 
 CHI  HN ES   1   1358 50.69                             117   -0.48 6  252 196 
 CHI  HZ I        1358 54.40         6.3 0.78            119            252 196 
 HEL  HE ES   1   1358 56.40                             115    0.70 6  276 255 
 HEL  HZ I        1359  2.83         9.8 0.48            115            276 255 
 GUY2CHZ EP       1358 28.36                             112    1.01 7  305 235 
 GUY2CHE ES       1359  2.80                             112    1.00 7  305 235 
 GUY2CHZ I        1359 11.34         7.3 0.34                           305 235 
 PTGC HZ EP   4   1358 26.39                             112   -0.91 0  310 159 
 PTGC HN ES   4   1358 59.22                             112   -2.49 0  310 159 
 DBB  SZ EP   1   1358 30.72                             110   -0.36 5  342 274 
 TOL  SZ EP       1358 32.96                             109    0.97 6  347 225 
 TOL  SN ES       1359  9.77                             109   -0.29 6  347 225 
 TOL  SZ I        1359 17.38         7.0 0.54            111            347 225 
 PRA  HZ EP       1358 37.07                             107   -0.14 6  396 210 
 PRA  HE ES       1359 19.23                             107   -0.14 6  396 210 
 PRA  HZ I        1359 25.86         6.0 0.38            108            396 210 
                                                                                
