 2016  626 1751 48.8 L   6.762 -73.146147.4  RSN  5 0.4 1.7LRSN                1
 GAP=138        0.95       5.3     4.5  9.2 -0.1967E+00  0.8449E+01 -0.4832E+01E
 Epicentro: LOS SANTOS - SANTANDER                                             3
 ACTION:UPD 16-07-21 22:23 OP:rebc STATUS:               ID:20160626175148 L   I
 OLDACT:DUP 16-06-26 21:56 OP:dnl  STATUS:               ID:20160626174749d    3
 2016-06-26-1747-47M.COL___333                                                 6
 STAT SP IPHASW D HRMM SECON CODA AMPLIT PERI AZIMU VELO AIN AR TRES W  DIS CAZ7
 BRR  HZ EP       1752 10.57                             152    0.2810 73.3 301 
 BRR  HE ES       1752 27.63                             152    0.6110 73.3 301 
 BRR  HZ I        1752 30.49        12.4 0.17                          73.3 301 
 PAM  EZ EP       1752 11.32                             150   -0.1110 80.6  38 
 PAM  EN ES       1752 28.63                             150   -0.4210 80.6  38 
 PAM  EZ I        1752 30.96         8.2 0.23                          80.6  38 
 RUS  HZ EP   2   1752 12.88                             145    0.42 5 96.4 176 
 RUS  HN ES       1752 31.01                             145    0.1210 96.4 176 
 RUS  HZ I        1752 32.28         4.3 0.22                          96.4 176 
 PTB  HZ EP   2   1752 15.34                             133   -0.54 5  147 260 
 PTB  HN ES       1752 36.28                             133   -0.68 9  147 260 
 PTB  HZ I        1752 38.80         5.7 0.46                           147 260 
 ZAR  HZ EP   2   1752 22.18                             122    0.62 4  206 293 
 ZAR  HN ES       1752 47.09                             122    0.01 8  206 293 
 ZAR  HZ I        1752 53.34         9.7 0.36                           206 293 
                                                                                
