 2014 1026 1546 47.3 L   6.771 -73.163134.4  RSN  6 0.3 1.6LRSN                1
 GAP= 98        0.86       4.3     3.7  5.8 -0.9265E+00 -0.1311E+01  0.2057E+01E
 Epicentro: LOS SANTOS - SANTANDER                                             3
 ACTION:UPD 14-11-29 23:57 OP:nd   STATUS:               ID:20141026154647 L   I
 OLDACT:REG 14-10-29 15:34 OP:fm   STATUS:               ID:20141026153750     3
 2014-10-26-1537-50M.COL___277                                                 6
 STAT SP IPHASW D HRMM SECON CODA AMPLIT PERI AZIMU VELO AIN AR TRES W  DIS CAZ7
 BAR2 SZ EP       1547  5.82                             171    0.3410 19.9 186 
 BAR2 SZ I        1547  5.99         7.2 0.10            169           19.9 186 
 BAR2 SZ ES       1547 19.55                             171   -0.1310 19.9 186 
 BRR  HZ EP       1547  7.77                             150    0.5610 71.1 302 
 BRR  HE ES       1547 22.72                             150   -0.0410 71.1 302 
 BRR  HE I        1547 25.15        25.9 0.24            151           71.1 302 
 PAM  SZ EP       1547  8.71                             147    0.1610 81.1  39 
 PAM  SE ES       1547 24.89                             147   -0.2410 81.1  39 
 PAM  SE I        1547 26.85         6.2 0.34            152           81.1  39 
 RUS  HZ EP       1547  9.81                             142    0.1010 97.6 175 
 RUS  HE ES       1547 27.26                             142    0.0610 97.6 175 
 RUS  HE I        1547 31.18         3.3 0.52            143           97.6 175 
 PTB  HZ EP       1547 12.36                             130   -0.76 9  145 260 
 PTB  HN ES       1547 33.31                             130    0.05 9  145 260 
 PTB  HN I        1547 39.03         7.5 0.30            131            145 260 
 TAM  HZ EP       1547 13.97                             128   -0.23 9  156 104 
                                                                                
