 2011  526 1553  7.8 L   6.777 -73.092149.4  RSN  5 0.3 1.8LRSN                1
 GAP=188        0.49       3.8     6.7  6.6  0.1342E+01  0.3176E+01 -0.3974E+00E
 Epicentro: LOS SANTOS - SANTANDER                                             3
 ACTION:UP  11-06-29 08:56 OP:tino STATUS:               ID:20110526155307 L   I
 2011-05-26-1552-00S.COL___109                                                 6
 STAT SP IPHASW D HRMM SECON CODA AMPLIT PERI AZIMU VELO SNR AR TRES W  DIS CAZ7
 BAR2 SZ EP   1   1553 27.52                             171    -0.4 7   23 206 
 BAR2 SZ ES   2   1553 43.92                             171     0.4 5   23 206 
 BAR2 SZ I        1553 47.61        10.4 0.33                            23 206 
 BRR  HZ EP   1   1553 29.85                             151     0.1 7   78 298 
 BRR  HE ES   2   1553 46.40                             151    -0.4 5   78 298 
 BRR  HZ I        1553 50.82        25.3 0.22                            78 298 
 RUS  HZ EP   1   1553 31.72                             145     0.0 7   98 179 
 RUS  HE ES   2   1553 50.54                             145     0.1 5   98 179 
 RUS  HZ I        1553 52.21         4.0 0.38                            98 179 
 OCA  SZ EP   2   1553 36.81                             130     0.1 5  164 351 
 OCA  SZ ES   2   1553 59.51                             130     0.2 5  164 351 
 OCA  SZ I        1554  4.81        13.9 0.19                           164 351 
 NOR  SZ EP   2   1553 44.44                             119     0.3 4  238 236 
 NOR  SN ES   2   1554 12.47                             119     0.0 4  238 236 
                                                                                
