 2016 1226 1012 53.0 L   6.773 -73.148146.7  RSN 15 0.4 2.3LRSN                1
 GAP= 98        0.91       3.5     2.9  4.8  0.1584E+01  0.2257E+01  0.4302E+01E
 Epicentro: LOS SANTOS - SANTANDER                                             3
 ACTION:UPD 17-01-11 20:19 OP:rebc STATUS:               ID:20161226101253 L   I
 OLDACT:UP  16-12-26 21:09 OP:cog  STATUS:               ID:20161226100739     3
 OLDACT:UP  16-12-26 21:09 OP:cog  STATUS:               ID:20161226100739     3
 OLDACT:REG 16-12-26 20:11 OP:cog  STATUS:               ID:20161226100739     3
 2016-12-26-1008-00M.COL___366                                                 6
 STAT SP IPHASW D HRMM SECON CODA AMPLIT PERI AZIMU VELO AIN AR TRES W  DIS CAZ7
 BAR2 EZ EP       1013 12.68                             172    0.0210 20.3 191 
 BAR2 EZ ES       1013 27.95                             172   -0.0610 20.3 191 
 BAR2 EZ I        1013 29.12        61.3 0.20            163           20.3 191 
 BRR  HZ EP       1013 14.33                             152    0.0410 72.5 301 
 BRR  HN ES       1013 31.33                             152    0.4110 72.5 301 
 BRR  HZ I        1013 34.13        25.3 0.20            148           72.5 301 
 PAM  EZ EP       1013 15.40                             150   -0.0310 79.8  38 
 PAM  EN ES       1013 32.64                             150   -0.3110 79.8  38 
 PAM  EZ I        1013 35.02        18.3 0.58            158           79.8  38 
 RUS  HZ EP       1013 16.56                             145   -0.0410 97.6 176 
 RUS  HN ES       1013 35.35                             145    0.3210 97.6 176 
 RUS  HZ I        1013 36.43        23.8 0.28            141           97.6 176 
 PTB  HZ EP       1013 19.51                             132   -0.43 9  147 260 
 PTB  HN ES       1013 40.42                             132   -0.56 9  147 260 
 PTB  HZ I        1013 47.90        29.7 0.40            128            147 260 
 TAM  HZ EP       1013 20.86                             131    0.19 9  155 104 
 TAM  HN ES       1013 42.44                             131    0.16 9  155 104 
 ZAR  HZ EP       1013 25.56                             122   -0.01 9  205 293 
 ZAR  HE ES       1013 51.04                             122    0.04 9  205 293 
 ZAR  HZ I        1013 56.17        23.7 0.34            121            205 293 
 CHI  HZ EP       1013 30.70                             118    0.30 8  246 195 
 CHI  HN ES       1013 59.45                             118   -0.15 8  246 195 
 ROSC BZ EP   4   1013 31.97                             117    1.12 0  250 211 
 ROSC BN ES   4   1013 55.53                             117   -4.86 0  250 211 
 ROSC BZ I        1014 10.48        27.3 0.35            115            250 211 
 GUY2CHZ EP   4   1013 37.54                             113    1.13 0  299 235 
 GUY2CHN ES   4   1014 11.35                             113    1.06 0  299 235 
 GUY2CHZ I        1014 19.04        17.8 0.32                           299 235 
 PTGC HZ EP       1013 35.57                             112   -0.99 7  306 158 
 PTGC HE ES   4   1014  8.84                             112   -1.72 0  306 158 
 PTGC HZ I        1014 15.50         4.6 0.22            112            306 158 
 ELA  HZ EP   4   1013 42.29                             111    2.67 0  327 230 
 ELA  HE ES   4   1014 17.91                             111    1.91 0  327 230 
 ELA  HZ I        1014 32.34        11.2 0.48            109            327 230 
 CBOC HZ EP       1013 40.98                             110    1.19 7  332 253 
 CBOC HE ES   4   1014 13.76                             110   -2.56 0  332 253 
 CBOC HZ I        1014 31.36         4.2 0.36            109            332 253 
 ANIL HZ EP   4   1013 44.69                             109    2.14 0  355 225 
 ANIL HN ES   4   1014 22.96                             109    1.75 0  355 225 
 ANIL HZ I        1014 30.53        22.1 0.36            108            355 225 
 ORTC HZ EP       1013 46.86                             107    0.24 6  393 216 
 ORTC HN ES   4   1014 30.12                             107    1.65 0  393 216 
 ORTC HZ I        1014 35.70         9.0 0.44            106            393 216 
                                                                                
