 2014  126 1044  0.6 L   6.767 -73.188140.5  RSN  4 0.1 0.9LRSN                1
 GAP=140        0.46       3.7     2.8  4.4 -0.7493E-01  0.1111E+01 -0.6116E+01E
 Epicentro: VILLANUEVA - SANTANDER                                             3
 ACTION:UPD 14-03-13 09:58 OP:ep   STATUS:               ID:20140126104400 L   I
 OLDACT:DUP 14-01-26 16:58 OP:stll STATUS:               ID:20140126103812d    3
 2014-01-26-1038-09M.COL___231                                                 6
 STAT SP IPHASW D HRMM SECON CODA AMPLIT PERI AZIMU VELO AIN AR TRES W  DIS CAZ7
 BAR2 SZ EP       1044 19.58                             172    0.0610 19.3 178 
 BAR2 SZ I        1044 19.66         3.5 0.38            167           19.3 178 
 BAR2 SZ ES       1044 34.43                             172    0.1510 19.3 178 
 PAM  SZ EP       1044 22.47                             148   -0.1610 83.2  40 
 RUS  HZ EP       1044 23.82                             144    0.2210 97.3 173 
 RUS  HN ES       1044 41.32                             144   -0.2210 97.3 173 
 RUS  HZ I        1044 45.05         0.8 0.28            141           97.3 173 
 PTB  HZ EP       1044 26.65                             132   -0.01 9  142 260 
 PTB  HN ES       1044 46.94                             132   -0.05 9  142 260 
                                                                                
