 2015  726 1002 50.8 L   6.856 -73.175132.5  RSN 10 0.5 2.0LRSN                1
 GAP=130        1.19       3.5     4.6  7.6 -0.4174E+01  0.1722E+02 -0.5023E+01E
 Epicentro: ZAPATOCA - SANTANDER                                               3
 ACTION:UPD 15-09-08 21:50 OP:cam  STATUS:               ID:20150726100250 L   I
 OLDACT:ARG 15-07-26 20:51 OP:stll STATUS:               ID:20150726100026     3
 2015-07-26-1000-26M.COL___343                                                 6
 STAT SP IPHASW D HRMM SECON CODA AMPLIT PERI AZIMU VELO AIN AR TRES W  DIS CAZ7
 BAR2 EZ EP       10 3  9.11                             167    0.1610 29.2 182 
 BAR2 EZ ES       10 3 23.47                             167    0.3410 29.2 182 
 BAR2 EZ I        10 3 25.57        14.6 0.16            169           29.2 182 
 PAM  EZ EP     C 10 3 11.99                             149    0.5510 75.0  44 
 PAM  EN ES       10 3 27.71                             149    0.1510 75.0  44 
 RUS  HZ EP       10 3 13.65                             139   -0.0910  107 175 
 RUS  HE ES       10 3 31.05                             139   -0.6110  107 175 
 RUS  HZ I        10 3 33.72         8.4 0.42            144            107 175 
 CPBEREZ EP       10 3 16.24                             129   -0.27 9  146 256 
 CPBEREN ES       10 3 35.82                             129   -0.77 9  146 256 
 OCA  HZ EP     C 10 3 17.21                             128   -0.24 9  154 354 
 OCA  HN ES       10 3 38.55                             128    0.29 9  154 354 
 OCA  HZ I        10 3 44.14        24.9 0.16            130            154 354 
 ZAR  HZ EP       10 3 22.29                             120    0.47 9  199 291 
 ZAR  HN ES       10 3 46.78                             120    0.74 9  199 291 
 ZAR  HZ I        10 3 56.30        12.8 0.26            122            199 291 
 NOR  HZ EP       10 3 25.64                             115   -0.23 8  236 233 
 NOR  HE ES       10 3 53.31                             115    0.05 8  236 233 
 NOR  HZ I        10 4  2.16         8.7 0.16            118            236 233 
 SML  HZ EP       10 3 25.30                             115   -0.61 8  237 335 
 SML  HN ES       10 3 52.22                             115   -1.10 8  237 335 
 SML  HZ I        10 3 57.34        12.3 0.10            118            237 335 
 HEL  HZ EP       10 3 30.80                             112    0.64 8  270 254 
 HEL  HN ES       10 4  0.94                             112    0.06 8  270 254 
 GUY2CHN ES       10 4  8.11                             110    0.56 7  302 233 
                                                                                
