 2013  426 1705 39.7 L   6.792 -73.111150.0  RSN  6 0.4 1.6LRSN                1
 GAP=141        0.80       4.1     5.6  6.7 -0.2515E+01  0.9895E+01  0.1616E+01E
 Epicentro: LOS SANTOS - SANTANDER                                             3
 ACTION:UPD 13-05-22 14:41 OP:EP   STATUS:               ID:20130426170539 L   I
 2013-04-26-1700-00M.COL___249                                                 6
 STAT SP IPHASW D HRMM SECON CODA AMPLIT PERI AZIMU VELO AIN AR TRES W  DIS CAZ7
 BAR2 SZ EP       17 5 59.82                             171   -0.0410 23.4 200 
 BAR2 SZ ES   1   17 6 15.24                             171   -0.33 7 23.4 200 
 BAR2 SZ I        17 6 15.94        10.5 0.24            171           23.4 200 
 BRR  HZ EP       17 6  1.70                             152    0.1610 75.0 298 
 BRR  HN ES   1   17 6 19.32                             152    0.76 7 75.0 298 
 PAM  SZ EP       17 6  2.51                             152    0.2210 75.7  37 
 PAM  SN ES   1   17 6 19.75                             152   -0.15 7 75.7  37 
 PAM  SZ I        17 6 21.93         4.9 0.54            153           75.7  37 
 RUS  HZ EP       17 6  3.92                             145    0.1110 99.5 178 
 RUS  HN ES   1   17 6 22.27                             145   -0.33 7 99.5 178 
 RUS  HZ I        17 6 23.65         2.9 0.28            147           99.5 178 
 NOR  HZ EP       17 6 16.07                             119    0.09 8  237 235 
 NOR  HN ES   1   17 6 43.92                             119   -0.33 6  237 235 
 NOR  HZ I        17 6 47.87         3.0 0.18            119            237 235 
 SML  HZ EP   4   17 6 14.81                             118   -2.04 0  246 335 
 SML  HN ES   1   17 6 44.83                             118   -0.98 6  246 335 
 SML  HZ I        17 6 49.46         7.5 0.10            118            246 335 
                                                                                
