 2016 1226 1155 45.0 L   6.624 -73.603100.0  RSN  5 0.5 1.4LRSN                1
 GAP=120        1.18       6.3     5.3  9.3  0.1894E+02  0.1851E+02  0.1150E+02E
 Epicentro: EL CARMEN - SANTANDER                                              3
 ACTION:UPD 17-01-11 20:19 OP:rebc STATUS:               ID:20161226115545 L   I
 OLDACT:DUP 16-12-26 21:17 OP:cog  STATUS:               ID:20161226114749d    3
 2016-12-26-1148-00M.COL___366                                                 6
 STAT SP IPHASW D HRMM SECON CODA AMPLIT PERI AZIMU VELO AIN AR TRES W  DIS CAZ7
 BAR2 EZ EP       1156  0.06                             153   -0.0910 46.6  94 
 BAR2 EZ ES       1156 12.30                             153    0.3310 46.6  94 
 BAR2 EZ I        1156 14.13        23.2 0.20            157           46.6  94 
 BRR  HZ EP       1155 59.75                             149   -0.5410 54.8 347 
 BRR  HN ES       1156 11.91                             149   -0.3110 54.8 347 
 BRR  HZ I        1156 21.16         6.8 0.26            151           54.8 347 
 PTB  HZ EP       1156  3.01                             133   -0.4210 94.8 264 
 PTB  HN ES       1156 17.53                             133   -0.2810 94.8 264 
 PTB  HZ I        1156 19.33         4.7 0.10            140           94.8 264 
 RUS  HZ EP       1156  4.70                             133    0.2310 99.2 145 
 RUS  HN ES       1156 19.88                             133    0.2110 99.2 145 
 RUS  HZ I        1156 22.72         4.3 0.26            140           99.2 145 
 ZAR  HZ EP       1156 10.87                             117   -0.09 9  169 305 
 ZAR  HE ES       1156 32.37                             117    1.16 9  169 305 
                                                                                
