 2011  426 1243 47.7 L   6.883 -72.914131.4  RSN  4 0.2 1.6LRSN                1
 GAP=183        0.43       3.4     6.1  8.6 -0.1161E+00 -0.2534E+02  0.5607E+01E
 Epicentro: GUACA - SANTANDER                                                  3
 ACTION:UP  11-06-22 15:33 OP:REBC STATUS:               ID:20110426124347 L   I
 2011-04-26-1241-12S.COL___137                                                 6
 STAT SP IPHASW D HRMM SECON CODA AMPLIT PERI AZIMU VELO SNR AR TRES W  DIS CAZ7
 BAR2 SZ EP   1   1244  6.59                             161     0.3 7   44 223 
 BAR2 SZ I        1244  7.15        10.9 0.18                            44 223 
 BRR  HZ EP   1   1244  8.60                             143    -0.1 7   92 286 
 BRR  HZ I        1244  9.48        17.0 0.09                            92 286 
 BRR  HN ES   1   1244 25.09                             143     0.0 7   92 286 
 GRA  SZ EP   2   1244 10.57                             137     0.1 5  111   6 
 GRA  SZ ES   2   1244 28.14                             137    -0.1 5  111   6 
 RUS  HZ EP   1   1244 10.78                             138    -0.1 7  111 190 
 RUS  HZ I        1244 11.86         2.9 0.22                           111 190 
 RUS  HN ES   2   1244 28.94                             138    -0.1 5  111 190 
                                                                                
