 2012  226 1321 13.6 L   6.792 -73.153145.6  RSN  8 0.4 1.6LRSN                1
 GAP=136        0.82       5.2     5.1  6.4 -0.6229E+01  0.5280E+01  0.9715E+01E
 ACTION:UP  12-03-07 16:34 OP:epov STATUS:               ID:20120226132113 L   I
 2012-02-26-1320-00M.COL___192                                                 6
 STAT SP IPHASW D HRMM SECON CODA AMPLIT PERI AZIMU VELO AIN AR TRES W  DIS CAZ7
 BAR2 SZ EP   1   1321 33.02                             171   -0.16 7 22.3 188 
 BAR2 SZ ES   1   1321 47.64                             171   -0.81 7 22.3 188 
 BAR2 SZ I        1321 50.31        11.2 0.21                          22.3 188 
 GIR2 SZ EP   1   1321 33.49                             167    0.23 7 32.0 352 
 GIR2 SZ ES   1   1321 49.34                             167    0.74 7 32.0 352 
 BRR  HZ EP   1   1321 34.77                             153    0.07 7 70.9 299 
 BRR  HN ES   1   1321 51.34                             153    0.17 7 70.9 299 
 BRR  HZ I        1321 53.79        10.1 0.14                          70.9 299 
 PAM  SZ EP   1   1321 35.94                             150    0.08 7 78.6  40 
 PAM  SN ES   1   1321 52.96                             150   -0.27 7 78.6  40 
 PAM  SZ I        1321 54.76         5.6 0.55                          78.6  40 
 RUS  HZ EP   1   1321 37.05                             144   -0.22 7 99.8 176 
 RUS  HN ES   1   1321 56.12                             144    0.39 7 99.8 176 
 RUS  HZ I        1321 57.43         7.1 0.24                          99.8 176 
 PTB  HZ EP   1   1321 39.68                             132   -0.77 7  147 259 
 PTB  HE ES   1   1322  1.27                             132   -0.13 7  147 259 
 NOR  SZ EP   1   1321 49.72                             119    0.54 6  233 235 
 NOR  SN ES   1   1322 17.05                             119    0.11 6  233 235 
 CHI  HZ EP   1   1321 51.39                             117    0.23 6  248 195 
 CHI  HZ I        1322 24.89         2.0 0.69                           248 195 
                                                                                
