 2017  126 1538 38.1 L   6.362 -73.648112.3  RSN  5 0.4 1.6LRSN                1
 GAP=153        0.97       7.0     4.7  9.7  0.1805E+02  0.1012E+02 -0.6471E+01E
 Epicentro: SANTA HELENA DEL OPON - SANTANDER                                  3
 ACTION:UPD 17-05-22 16:03 OP:jn   STATUS:               ID:20170126153838 L   I
 OLDACT:REG 17-01-26 20:17 OP:dnl  STATUS:               ID:20170126153744     3
 2017-01-26-1538-00M.COL___343                                                 6
 STAT SP IPHASW D HRMM SECON CODA AMPLIT PERI AZIMU VELO AIN AR TRES W  DIS CAZ7
 BAR2 EZ EP       1538 55.41                             151    0.2410 57.5  64 
 BAR2 EZ ES       1539  8.24                             151   -0.2610 57.5  64 
 BAR2 EZ I        1539  9.61        27.4 0.40            105           57.5  64 
 RUS  HZ EP       1538 57.52                             142    0.3810 81.3 130 
 RUS  HE ES       1539 11.98                             142   -0.0310 81.3 130 
 RUS  HZ I        1539 14.91         3.2 0.52            104           81.3 130 
 BRR  HZ EP       1538 56.54                             141   -0.0110 82.7 355 
 BRR  HZ I        1539 24.29        11.5 0.34            101           82.7 355 
 PTB  HZ EP       1538 56.47                             138   -0.8110 91.5 282 
 PTB  HN ES       1539 12.56                             138    0.2910 91.5 282 
 PTB  HZ I        1539 13.24         6.1 0.10            103           91.5 282 
 ZAR  HE ES       1539 28.50                             117    0.26 9  183 313 
 ZAR  HZ I        1539 32.73         5.0 0.36             56            183 313 
                                                                                
