 2015  926 1102  8.7 L   6.834 -73.048139.9  RSN  4 0.4 1.8LRSN                1
 GAP=220        0.83       5.7     7.8  8.9  0.6490E+01 -0.1601E+02 -0.1611E+02E
 Epicentro: LOS SANTOS - SANTANDER                                             3
 ACTION:UPD 15-10-28 16:28 OP:cam  STATUS:               ID:20150926110208 L   I
 OLDACT:DUP 15-09-27 01:04 OP:spq  STATUS:               ID:20150926105747d    3
 2015-09-26-1057-46M.COL___355                                                 6
 STAT SP IPHASW D HRMM SECON CODA AMPLIT PERI AZIMU VELO AIN AR TRES W  DIS CAZ7
 BAR2 EZ EP       11 2 27.77                             167   -0.0510 30.6 209 
 BAR2 EZ ES   1   11 2 42.22                             167   -0.50 7 30.6 209 
 BAR2 EZ I        11 2 43.76         7.4 0.18            169           30.6 209 
 BRR  HZ EP       11 2 29.98                             149    0.2510 79.3 292 
 BRR  HE ES       11 2 46.58                             149    0.4610 79.3 292 
 BRR  HZ I        11 2 50.53         6.6 0.10            147           79.3 292 
 OCA  HZ EP       11 2 36.47                             129    0.09 9  158 349 
 OCA  HN ES       11 2 57.74                             129   -0.21 9  158 349 
 OCA  HZ I        11 3  3.05        15.2 0.32            129            158 349 
 ZAR  HE ES   1   11 3  6.71                             120   -0.72 6  213 290 
 ZAR  HZ I        11 3 10.94        12.8 0.10            121            213 290 
                                                                                
