 2015  426 1031 19.4 L   6.811 -73.130147.3  RSN 10 0.5 1.6LRSN                1
 GAP=219        1.16       4.0     6.9  7.1 -0.1222E+01  0.8868E+01  0.1103E+01E
 Epicentro: LOS SANTOS - SANTANDER                                             3
 ACTION:UPD 15-06-03 16:57 OP:cam  STATUS:               ID:20150426103119 L   I
 OLDACT:UP  15-04-26 21:25 OP:mh   STATUS:               ID:20150426102747     3
 OLDACT:UP  15-04-26 21:25 OP:mh   STATUS:               ID:20150426102747     3
 OLDACT:UP  15-04-26 21:19 OP:mh   STATUS:               ID:20150426102747     3
 OLDACT:UP  15-04-26 21:14 OP:mh   STATUS:               ID:20150426102747     3
 OLDACT:REG 15-04-26 19:55 OP:mh   STATUS:               ID:20150426102747     3
 2015-04-26-1027-47M.COL___268                                                 6
 STAT SP IPHASW D HRMM SECON CODA AMPLIT PERI AZIMU VELO AIN AR TRES W  DIS CAZ7
 BAR2 EZ EP       1031 39.22                             170   -0.0610 24.9 193 
 BAR2 EZ ES       1031 54.51                             170   -0.2410 24.9 193 
 BAR2 EZ I        1031 56.83         6.9 0.28            166           24.9 193 
 BRR  HZ EP       1031 41.22                             153    0.4210 72.2 297 
 BRR  HN ES       1031 58.38                             153    0.9210 72.2 297 
 BRR  HZ I        1032  2.25         7.1 0.54            149           72.2 297 
 PTB  HZ EP       1031 46.80                             132    0.10 9  150 258 
 PTB  HN ES       1032  6.99                             132   -0.98 9  150 258 
 PTB  HZ I        1032 14.75         5.6 0.32            131            150 258 
 SPBC HZ EP   1   1031 48.25                             129    0.01 7  165 219 
 SPBC HN ES   1   1032 10.77                             129    0.05 7  165 219 
 SPBC HZ I        1032 17.61         6.3 0.28            130            165 219 
 ZAR  HZ EP       1031 52.54                             123    0.45 8  205 292 
 ZAR  HN ES       1032 17.46                             123   -0.11 8  205 292 
 ZAR  HZ I        1032 24.44         4.0 0.38            123            205 292 
 NOR  HZ EP       1031 55.32                             119   -0.16 8  237 234 
 NOR  HN ES       1032 23.31                             119   -0.29 8  237 234 
 NOR  HZ I        1032 27.69         3.5 0.23            120            237 234 
 SML  HZ EP       1031 55.31                             118   -0.79 8  243 335 
 SML  HN ES       1032 24.45                             118   -0.25 8  243 335 
 CHI  HN ES       1032 26.66                             117   -0.35 8  250 195 
 GUY2CHZ EP       1032  3.81                             112    0.46 7  303 235 
 TOL  SN ES       1032 46.78                             109    0.91 6  346 225 
                                                                                
