 2014  126 1428 28.1 L   6.777 -73.155143.8  RSN 10 0.5 2.0LRSN                1
 GAP=136        1.15       4.1     4.4  6.6 -0.2278E+01  0.7391E+01  0.7279E+01E
 Epicentro: LOS SANTOS - SANTANDER                                             3
 ACTION:UPD 14-03-13 09:58 OP:ep   STATUS:               ID:20140126142828 L   I
 OLDACT:DUP 14-01-26 18:15 OP:stll STATUS:               ID:20140126141819d    3
 2014-01-26-1418-18M.COL___231                                                 6
 STAT SP IPHASW D HRMM SECON CODA AMPLIT PERI AZIMU VELO AIN AR TRES W  DIS CAZ7
 BAR2 SZ EP       1428 47.31                             171   -0.1410 20.6 188 
 BAR2 SZ ES       1429  2.08                             171   -0.4510 20.6 188 
 BAR2 SZ I        1429  4.26        28.5 0.46            170           20.6 188 
 BRR  HZ IP     C 1428 49.31                             152    0.2410 71.6 301 
 BRR  HN ES       1429  6.61                             152    1.2010 71.6 301 
 BRR  HZ I        1429 10.44        14.2 0.52            152           71.6 301 
 PAM  SZ EP       1428 50.14                             150   -0.1310 80.0  39 
 PAM  SN ES       1429  7.38                             150   -0.1810 80.0  39 
 PAM  SZ I        1429  9.66         8.1 0.46            155           80.0  39 
 RUS  HZ EP       1428 51.58                             144    0.0910 98.1 175 
 RUS  HN ES       1429  9.76                             144    0.0410 98.1 175 
 RUS  HZ I        1429 12.67        10.9 0.50            146           98.1 175 
 PTB  HZ EP       1428 54.30                             132   -0.48 9  146 260 
 PTB  HN ES       1429 15.02                             132   -0.57 9  146 260 
 PTB  HZ I        1429 18.43        14.0 0.26            133            146 260 
 SPBC HZ EP       1428 56.39                             129    0.18 9  161 219 
 SPBC HN ES       1429 18.44                             129    0.32 9  161 219 
 SPBC HZ I        1429 23.93        12.3 0.18            130            161 219 
 ZAR  HN ES       1429 25.03                             122   -0.61 9  204 293 
 ZAR  HZ I        1429 32.28        13.2 0.34            124            204 293 
 NOR  HZ EP       1429  3.27                             118   -0.21 8  232 235 
 NOR  HE ES       1429 31.03                             118   -0.03 8  232 235 
 NOR  HZ I        1429 35.70        10.8 0.18            120            232 235 
 CHI  HZ EP       1429  5.55                             117    0.15 8  246 195 
 CHI  HN ES       1429 34.22                             117   -0.27 8  246 195 
 CHI  HZ I        1429 40.70         4.6 0.26            119            246 195 
 GUY2CHZ EP       1429 12.46                             112    1.09 7  299 235 
 GUY2CHE ES       1429 45.03                             112   -0.08 7  299 235 
 GUY2CHZ I        1429 53.27         4.9 0.54                           299 235 
                                                                                
