 2017 1226 1947 19.3 L   6.871 -73.147149.9  RSN 21 0.5 2.9LRSN                1
 GAP= 57        1.05       2.8     2.7  5.0 -0.7226E+00  0.2998E+01 -0.2255E+01E
 Epicentro: LOS SANTOS - SANTANDER                                             3
 ACTION:UPD 18-01-04 13:24 OP:rebc STATUS:               ID:20171226194719 L   I
 OLDACT:UP  17-12-27 01:16 OP:dnl  STATUS:               ID:20171226193745     3
 OLDACT:UP  17-12-27 01:15 OP:dnl  STATUS:               ID:20171226193745     3
 OLDACT:REG 17-12-26 23:03 OP:mg   STATUS:               ID:20171226193745     3
 2017-12-26-1938-00M.COL___430                                                 6
 STAT SP IPHASW D HRMM SECON CODA AMPLIT PERI AZIMU VELO AIN AR TRES W  DIS CAZ7
 BAR2 EZ IP     C 1947 39.49                             168   -0.1510 31.0 187 
 BAR2 EZ ES       1947 54.86                             168   -0.6110 31.0 187 
 BAR2 EZ I        1947 56.17       223.4 0.32            164           31.0 187 
 PAM  EZ IP     C 1947 42.30                             153    0.6310 71.6  44 
 PAM  EN ES       1947 59.47                             153    0.3810 71.6  44 
 PAM  EZ I        1948  1.64        87.3 0.52            153           71.6  44 
 PTB  HZ EP       1947 46.38                             133   -0.41 9  149 256 
 PTB  HN ES       1948  7.49                             133   -0.70 9  149 256 
 PTB  HZ I        1948 10.90        76.5 0.16            130            149 256 
 OCA  HZ EP   3   1947 47.39                             132    0.13 2  153 353 
 OCA  HE ES       1948  9.40                             132    0.36 9  153 353 
 TAM  HZ IP     C 1947 47.66                             131    0.10 9  157 108 
 TAM  HZ I        1948  8.49        55.1 0.36            128            157 108 
 TAM  HN ES       1948  9.40                             131   -0.17 9  157 108 
 SPBC HZ EP       1947 48.43                             129   -0.30 9  169 217 
 SPBC HN ES       1948 11.29                             129   -0.36 9  169 217 
 SPBC HZ I        1948 17.49       193.2 0.34            126            169 217 
 YPLC HZ IP     C 1947 49.71                             126   -0.41 9  184 152 
 YPLC HE ES       1948 15.05                             126    0.93 9  184 152 
 YPLC HZ I        1948 21.07        48.5 0.30            123            184 152 
 ZAR  HZ EP       1947 52.21                             124    0.45 9  201 290 
 ZAR  HN ES       1948 17.64                             124    0.60 9  201 290 
 ZAR  HZ I        1948 23.88       144.7 0.30            122            201 290 
 ROSC BZ EP   9   1947 59.36                             117    0.95 0  259 210 
 ROSC BN ES       1948 30.78                             117    0.95 8  259 210 
 ROSC BZ I        1948 37.60       114.9 0.35            114            259 210 
 DRL03HZ EP   4   1948  1.84                             115    1.55 0  281 353 
 DRL03HN ES   4   1948 34.66                             115    2.44 0  281 353 
 URE  HZ EP       1948  0.15                             115   -0.14 7  281 290 
 URE  HN ES   4   1948 29.95                             115   -2.27 0  281 290 
 URE  HZ I        1948 42.58        53.6 0.18            113            281 290 
 GUY2CHZ EP       1948  3.68                             113    0.04 7  306 234 
 GUY2CHN ES   4   1948 43.00                             113    4.80 0  306 234 
 GUY2CHZ I        1948 46.35       100.1 0.76                           306 234 
 VIL  EZ EP   9   1948  2.38                             112   -1.43 0  311 191 
 VIL  EN ES       1948 37.29                             112    0.23 7  311 191 
 VIL  EZ I        1948 48.15        40.4 0.40            110            311 191 
 PTGC HZ EP   4   1948  2.40                             112   -1.81 0  316 159 
 PTGC HN ES   4   1948 35.60                             112   -3.61 0  316 159 
 PTGC HZ I        1948 42.58        21.9 0.28            109            316 159 
 LL6C HZ EP       1948  4.47                             112    0.13 7  317 358 
 LL6C HZ ES       1948 39.16                             112   -0.27 7  317 358 
 LL6C HZ I        1948 50.30        11.3 0.32            110            317 358 
 CBOC HZ EP       1948  7.29                             110    0.59 7  336 251 
 CBOC HN ES       1948 43.81                             110    0.18 7  336 251 
 CBOC HZ I        1948 51.78        15.3 0.52            108            336 251 
 DBB  HZ EP       1948  7.58                             110    0.66 7  339 273 
 DBB  HE ES   4   1948 42.82                             110   -1.20 0  339 273 
 SDV  BZ EP       1948  8.91                             109   -0.08 6  356  51 
 SDV  BZ ES       1948 46.77                             109   -0.94 6  356  51 
 SDV  BZ I        1948 48.33        16.5 0.30            108            356  51 
 APAC HZ EP       1948 13.56                             107    0.18 6  396 287 
 APAC HN ES       1948 55.23                             107   -0.31 6  396 287 
 APAC HZ I        1948 59.12        20.2 0.70            105            396 287 
 ORTC HZ EP       1948 14.38                             107    0.25 6  402 215 
 ORTC HN ES   4   1948 58.47                             107    1.60 0  402 215 
 ORTC HZ I        1949  1.83        23.5 0.20            105            402 215 
 SJC  HZ IP     D 1948 13.80                             107   -0.47 6  403 326 
 SJC  HN ES   4   1948 54.49                             107   -2.62 0  403 326 
 SJC  HZ I        1948 56.50        11.2 0.36            105            403 326 
 CRJC HZ EP       1948 20.35                             104   -0.69 5  460   4 
 CRJC HN ES   4   1949  7.74                             104   -1.42 0  460   4 
 CRJC HZ I        1949 12.09        22.1 0.26            103            460   4 
                                                                                
