 2017  526 1658 53.1 L   6.811 -73.165147.7  RSN  8 0.4 2.2LRSN                1
 GAP=212        0.79       4.4     3.9  5.8  0.9231E+01  0.1090E+01  0.3956E+01E
 Epicentro: LOS SANTOS - SANTANDER                                             3
 ACTION:UPD 17-06-16 13:39 OP:jn   STATUS:               ID:20170526165853 L   I
 OLDACT:UP  17-05-26 23:49 OP:dnl  STATUS:               ID:20170526165740     3
 OLDACT:REG 17-05-26 22:05 OP:dnl  STATUS:               ID:20170526165740     3
 2017-05-26-1658-00M.COL___341                                                 6
 STAT SP IPHASW D HRMM SECON CODA AMPLIT PERI AZIMU VELO AIN AR TRES W  DIS CAZ7
 BRR  HZ EP   2   1659 14.39                             154    0.11 5 68.7 298 
 BRR  HN ES       1659 31.28                             154    0.4410 68.7 298 
 BRR  HZ I        1659 37.76        19.8 0.36            152           68.7 298 
 RUS  HZ EP   2   1659 16.86                             144   -0.24 5  102 175 
 RUS  HN ES       1659 35.62                             144   -0.2310  102 175 
 RUS  HZ I        1659 36.32        22.5 0.24            146            102 175 
 PTB  HZ EP   2   1659 19.13                             133   -0.89 5  146 258 
 PTB  HN ES       1659 40.38                             133   -0.67 9  146 258 
 PTB  HZ I        1659 47.34        18.7 0.36            133            146 258 
 SPBC HZ EP       1659 21.63                             130   -0.04 9  163 218 
 SPBC HE ES       1659 44.21                             130    0.22 9  163 218 
 SPBC HZ I        1659 45.98        27.6 0.28            131            163 218 
 YPLC HZ EP       1659 23.01                             127   -0.19 9  179 151 
 YPLC HN ES       1659 46.94                             127    0.23 9  179 151 
 YPLC HZ I        1659 49.78        22.8 0.32            130            179 151 
 ZAR  HZ EP   2   1659 25.79                             123    0.41 4  202 292 
 ZAR  HN ES       1659 50.51                             123   -0.08 9  202 292 
 ZAR  HZ I        1659 56.10        10.9 0.38            124            202 292 
 NOR  HZ EP       1659 28.70                             119   -0.10 8  234 234 
 NOR  HE ES       1659 57.09                             119    0.42 8  234 234 
 NOR  HZ I        17 0  4.38         9.4 0.18            120            234 234 
 ORTC HZ EP       1659 47.61                             107    0.59 6  395 216 
 ORTC HN ES   4   17 0 30.61                             107    1.51 0  395 216 
 ORTC HZ I        17 0 33.80         4.6 0.50            108            395 216 
                                                                                
