 2012  326 1038 17.8 L   7.180 -73.912 87.3  RSN 11 0.4 2.0LRSN                1
 GAP=101        0.79       3.7     2.9  6.4 -0.2137E+01  0.2291E+01  0.2230E+01E
 ACTION:UP  12-03-31 23:23 OP:EP   STATUS:               ID:20120326103817 L   I
 2012-03-26-1030-00M.COL___196                                                 6
 STAT SP IPHASW D HRMM SECON CODA AMPLIT PERI AZIMU VELO SNR AR TRES W  DIS CAZ7
 BRR  HZ IP     D 1038 30.00                             164    -0.110   23 110 
 BRR  HE ES   1   1038 40.04                             164     0.4 7   23 110 
 PTB  HZ EP   1   1038 34.41                             129    -0.6 7   93 220 
 PTB  HN ES   1   1038 47.70                             129    -0.7 7   93 220 
 PTB  HZ I        1038 51.78        13.7 0.14                            93 220 
 BAR2 SZ EP   1   1038 36.44                             126     0.1 7  104 129 
 BAR2 SZ ES   2   1038 51.31                             126     0.5 5  104 129 
 BAR2 SZ I        1038 53.65        56.2 0.24                           104 129 
 ZAR  HZ EP   1   1038 36.84                             124     0.2 7  110 288 
 ZAR  HN ES   2   1038 51.72                             124     0.3 5  110 288 
 ZAR  HZ I        1038 53.82        36.8 0.12                           110 288 
 OCA  SZ EP   2   1038 39.54                             118     0.1 5  134  29 
 OCA  SZ ES   2   1038 55.70                             118    -0.6 5  134  29 
 PAM  SZ EP   1   1038 40.02                             118     0.1 7  135  82 
 PAM  SN ES   1   1038 57.06                             118    -0.2 7  135  82 
 RUS  HZ EP   1   1038 43.35                             113    -0.4 7  169 147 
 RUS  HN ES   1   1039  4.15                             113     0.1 7  169 147 
 RUS  HZ I        1039  6.54        16.2 0.37                           169 147 
 NOR  SE ES   2   1039 11.67                             108     0.7 4  208 211 
 HEL  HZ EP   1   1038 49.14                             108     0.9 6  210 239 
 HEL  HN ES   2   1039 12.05                             108     0.0 4  210 239 
 HEL  HZ I        1039 19.66         7.0 0.48                           210 239 
 RREF HZ EP   2   1038 58.87                             102    -0.3 4  298 212 
 RREF HN ES   2   1039 31.54                             102     0.1 4  298 212 
 RREF HZ I        1039 38.72         4.4 0.28                           298 212 
 PRA  HZ EP   2   1039 10.77                              98     0.2 3  398 196 
                                                                                
