 2014 1126 1450 31.1 L   6.764 -73.163144.2  RSN  5 0.3 1.4LRSN                1
 GAP=136        0.82       4.3     4.2  6.0 -0.1652E+01  0.3079E+01  0.1007E+01E
 Epicentro: LOS SANTOS - SANTANDER                                             3
 ACTION:UPD 14-12-19 15:47 OP:nd   STATUS:               ID:20141126145031 L   I
 OLDACT:REG 14-11-26 20:27 OP:fm   STATUS:               ID:20141126144746     3
 2014-11-26-1447-46M.COL___303                                                 6
 STAT SP IPHASW D HRMM SECON CODA AMPLIT PERI AZIMU VELO AIN AR TRES W  DIS CAZ7
 BAR2 SZ EP       1450 50.48                             172    0.0210 19.1 186 
 BAR2 SZ ES       1451  5.95                             172    0.3810 19.1 186 
 BAR2 SZ I        1451  6.88         5.4 0.18            171           19.1 186 
 BRR  HZ EP     C 1450 52.32                             152    0.2210 71.6 302 
 BRR  HN ES       1451  8.84                             152    0.3610 71.6 302 
 BRR  HZ I        1451 13.82         9.2 0.42            150           71.6 302 
 PAM  SZ EP       1450 53.38                             149   -0.0310 81.7  39 
 PAM  SN ES       1451 10.37                             149   -0.4510 81.7  39 
 PAM  SZ I        1451 10.99         6.1 0.22            153           81.7  39 
 RUS  HZ EP       1450 54.55                             145    0.1310 96.7 175 
 RUS  HE ES       1451 12.44                             145   -0.1810 96.7 175 
 RUS  HZ I        1451 14.12         2.1 0.22            147           96.7 175 
 PTB  HZ EP       1450 57.80                             132    0.10 9  145 260 
 PTB  HE ES       1451 17.85                             132   -0.60 9  145 260 
 PTB  HZ I        1451 24.02         4.0 0.50            132            145 260 
                                                                                
