 2014  326 1815 51.4 L   5.881 -73.780111.9  RSN  5 0.4 1.2LRSN                1
 GAP= 89        0.92       3.8     3.6  9.5 -0.6233E+00  0.9245E+01  0.5228E+01E
 Epicentro: JESUS MARIA - SANTANDER                                            3
 ACTION:UPD 14-04-09 23:20 OP:nd   STATUS:               ID:20140326181551 L   I
 OLDACT:REG 14-03-26 15:06 OP:mh   STATUS:               ID:20140326180818     3
 2014-03-26-1808-18M.COL___247                                                 6
 STAT SP IPHASW D HRMM SECON CODA AMPLIT PERI AZIMU VELO AIN AR TRES W  DIS CAZ7
 RUS  HZ EP       1816  9.57                             144   -0.5210 77.1  89 
 RUS  HE ES       1816 24.51                             144   -0.1910 77.1  89 
 RUS  HZ I        1816 26.87         1.8 0.18            153           77.1  89 
 BAR2 SZ EP   1   1816 12.20                             135    0.40 7  103  40 
 BAR2 SZ ES   1   1816 28.53                             135    0.80 7  103  40 
 BAR2 SZ I        1816 29.70        18.1 0.31            145            103  40 
 PTB  HZ EP       1816 11.36                             134   -0.2910  104 314 
 PTB  HN ES   1   1816 27.00                             134   -0.46 7  104 314 
 PTB  HZ I        1816 34.72         2.2 0.26            142            104 314 
 NOR  HZ EP       1816 13.99                             128    0.3310  126 254 
 NOR  HN ES       1816 31.34                             128    0.2810  126 254 
 NOR  HZ I        1816 33.14         4.4 0.25            134            126 254 
 CHI  HZ EP       1816 15.30                             125   -0.10 9  139 178 
 CHI  HN ES       1816 34.27                             125    0.12 9  139 178 
 CHI  HZ I        1816 42.94         1.2 0.37            132            139 178 
                                                                                
