 2012 1126 1608 52.3 L   6.789 -73.158148.4  RSN 10 0.4 2.8LRSN                1
 GAP=135        0.86       2.5     4.3  4.8  0.8719E+00  0.7076E+01  0.5562E+00E
 Epicentro: LOS SANTOS - SANTANDER                                             3
 ACTION:UPD 12-12-05 15:36 OP:}ep  STATUS:               ID:20121126160852 L   I
 2012-11-26-1604-48M.COL___198                                                 6
 STAT SP IPHASW D HRMM SECON CODA AMPLIT PERI AZIMU VELO AIN AR TRES W  DIS CAZ7
 BAR2 SZ IP       16 9 12.35                             171    0.1410 22.0 187 
 BAR2 SZ ES       16 9 27.11                             171   -0.6410 22.0 187 
 BAR2 SZ I        16 9 30.36       157.5 0.41                          22.0 187 
 GIR2 SZ EP       16 9 12.46                             167    0.1610 32.3 353 
 GIR2 SZ ES       16 9 28.57                             167    0.6510 32.3 353 
 PAM  SZ EP       16 9 15.19                             151    0.3010 79.2  40 
 PAM  SE ES   1   16 9 32.46                             151   -0.06 7 79.2  40 
 PAM  SZ I        16 9 34.95       109.5 0.59                          79.2  40 
 RUS  HZ EP       16 9 16.22                             145    0.0010 99.5 175 
 RUS  HN ES       16 9 34.97                             145    0.0710 99.5 175 
 RUS  HN I        16 9 36.61        54.6 0.12                          99.5 175 
 PTB  HZ EP   1   16 9 19.16                             133   -0.17 7  146 259 
 PTB  HE ES   1   16 9 39.85                             133   -0.58 7  146 259 
 PTB  HZ I        16 9 47.69       102.2 0.43                           146 259 
 OCA  HZ EP   1   16 9 20.37                             130   -0.53 7  161 354 
 OCA  HN ES   1   16 9 42.81                             130   -0.41 7  161 354 
 OCA  HZ I        16 9 47.62        48.7 0.51                           161 354 
 ZAR  HZ EP       16 9 24.99                             123    0.16 9  203 293 
 ZAR  HE ES       16 9 50.77                             123    0.56 9  203 293 
 ZAR  HZ I        1610  1.21        48.0 0.42                           203 293 
 SML  HZ EP       16 9 28.57                             118   -0.55 8  244 336 
 SML  HE ES       16 9 57.73                             118   -0.12 8  244 336 
 SML  HZ I        1610  0.25        76.1 0.12                           244 336 
 CHI  HZ EP       16 9 30.19                             118    0.22 8  247 195 
 CHI  HE ES       16 9 59.04                             118   -0.33 8  247 195 
 CHI  HZ I        1610  7.52        19.0 0.50                           247 195 
 PRA  HZ EP       16 9 45.92                             107    0.22 6  390 209 
 PRA  HN ES   1   1610 27.66                             107    0.29 4  390 209 
 PRA  HZ I        1610 32.16        19.2 0.40                           390 209 
                                                                                
