 2013  126 1448 47.7 L   6.789 -73.157144.7  RSN  6 0.4 1.5LRSN                1
 GAP=136        0.75       5.0     4.5  7.3  0.1987E+01  0.6343E+01  0.6241E+00E
 Epicentro: LOS SANTOS - SANTANDER                                             3
 ACTION:UPD 13-02-15 09:17 OP:ep   STATUS:               ID:20130126144847 L   I
 2013-01-26-1447-39M.COL___205                                                 6
 STAT SP IPHASW D HRMM SECON CODA AMPLIT PERI AZIMU VELO AIN AR TRES W  DIS CAZ7
 BAR2 SZ EP   1   1449  7.36                             171    0.21 7 21.9 187 
 BAR2 SZ ES   1   1449 22.03                             171   -0.31 7 21.9 187 
 BRR  HZ EP   1   1449  8.98                             152    0.30 7 70.7 300 
 BRR  HE ES   1   1449 25.78                             152    0.72 7 70.7 300 
 PAM  SZ EP   1   1449 10.09                             150    0.21 7 79.1  40 
 PAM  SN ES   1   1449 26.65                             150   -0.55 7 79.1  40 
 PAM  SZ I        1449 27.89         3.3 0.20            152           79.1  40 
 RUS  HZ EP   1   1449 11.31                             144    0.07 7 99.5 175 
 RUS  HN ES   1   1449 29.80                             144    0.18 7 99.5 175 
 RUS  HZ I        1449 30.78         4.1 0.30            145           99.5 175 
 PTB  HZ EP   1   1449 13.92                             132   -0.51 7  146 259 
 PTB  HN ES   1   1449 34.94                             132   -0.35 7  146 259 
 PTB  HZ I        1449 37.63         4.9 0.12            131            146 259 
 ZAR  HE ES   1   1449 45.09                             122   -0.09 6  203 293 
 ZAR  HZ I        1449 51.57         4.6 0.22            121            203 293 
                                                                                
