 2017  226 1627 52.2 L   6.802 -73.124153.4  RSN  4 0.3 1.2LRSN                1
 GAP=139        0.78       4.5     4.2  6.8 -0.2236E+01  0.2473E+01  0.4044E+01E
 Epicentro: LOS SANTOS - SANTANDER                                             3
 ACTION:UPD 17-05-24 15:41 OP:jn   STATUS:               ID:20170226162752 L   I
 OLDACT:DUP 17-02-26 22:48 OP:cog  STATUS:               ID:20170226161748d    3
 2017-02-26-1618-00M.COL___375                                                 6
 STAT SP IPHASW D HRMM SECON CODA AMPLIT PERI AZIMU VELO AIN AR TRES W  DIS CAZ7
 BRR  HZ EP       1628 14.21                             153   -0.1010 73.2 297 
 BRR  HN ES       1628 32.06                             153    0.5110 73.2 297 
 BRR  HZ I        1628 33.83         7.0 0.44            157           73.2 297 
 PAM  EZ EP       1628 15.41                             153    0.2410 75.7  38 
 PAM  EN ES       1628 32.65                             153   -0.4110 75.7  38 
 PAM  EZ I        1628 46.94         2.5 0.42            151           75.7  38 
 RUS  HZ EP       1628 16.93                             145    0.1910  101 177 
 RUS  HN ES       1628 35.85                             145   -0.0110  101 177 
 RUS  HZ I        1628 37.37         1.2 0.22            154            101 177 
 PTB  HZ EP       1628 19.87                             133   -0.17 9  150 259 
 PTB  HN ES       1628 41.41                             133   -0.32 9  150 259 
 PTB  HZ I        1628 43.59         2.2 0.13            142            150 259 
                                                                                
