 2011  926 1930 22.4 L   6.735 -73.154147.0  RSN  5 0.2 1.5LRSN                1
 GAP=207        0.55       7.1     9.5  6.0  0.5317E+02 -0.1658E+02 -0.1166E+02E
 Epicentro: JORDAN - SANTANDER                                                 3
 ACTION:UPD 12-07-13 16:00 OP:ep   STATUS:               ID:20110926193022 L   I
 2011-09-26-1928-47S.COL___165                                                 6
 STAT SP IPHASW D HRMM SECON CODA AMPLIT PERI AZIMU VELO AIN AR TRES W  DIS CAZ7
 BAR2 SZ EP   1   1930 41.72                             173   -0.33 7 16.1 191 
 BAR2 SZ ES   1   1930 57.09                             173   -0.29 7 16.1 191 
 BAR2 SZ I        1930 59.42         7.1 0.27                          16.1 191 
 BTL  SZ EP       1930 42.25                             170    0.0610 23.8 328 
 BRR  HZ EP       1930 43.74                             152   -0.1010 74.1 304 
 BRR  HZ I        1930 48.49        11.3 0.28                          74.1 304 
 BRR  HN ES       1931  0.82                             152    0.2510 74.1 304 
 RUS  HZ EP   1   1930 46.12                             146    0.34 7 93.5 175 
 RUS  HE ES   1   1931  4.06                             146    0.05 7 93.5 175 
 RUS  HZ I        1931  6.10         2.4 0.22                          93.5 175 
 ZAR  HN ES   2   1931 20.24                             122   -0.41 4  206 294 
 ZAR  HZ I        1931 27.63         3.4 0.09                           206 294 
                                                                                
