 2012 1126 1926 37.5 L   6.777 -73.141139.2  RSN 10 0.3 2.4LRSN                1
 GAP= 72        0.63       2.6     2.9  4.0 -0.9159E+00  0.2739E+01  0.1050E+01E
 Epicentro: LOS SANTOS - SANTANDER                                             3
 ACTION:UPD 12-12-05 15:36 OP:}ep  STATUS:               ID:20121126192637 L   I
 2012-11-26-1920-00M.COL___234                                                 6
 STAT SP IPHASW D HRMM SECON CODA AMPLIT PERI AZIMU VELO AIN AR TRES W  DIS CAZ7
 BAR2 SZ EP       1926 56.31                             171    0.0510 21.0 193 
 BAR2 SZ ES       1927 10.96                             171    0.0410 21.0 193 
 BAR2 SZ I        1927 12.24        77.5 0.22                          21.0 193 
 GIR2 SZ EP       1926 56.43                             166    0.0010 33.8 350 
 PAM  SZ EP       1926 59.27                             149    0.1810 79.0  38 
 PAM  SE ES       1927 15.79                             149   -0.1610 79.0  38 
 PAM  SZ I        1927 18.35        70.1 0.46                          79.0  38 
 RUS  HZ EP       1927  0.41                             143    0.0210 98.0 176 
 RUS  HE ES       1927 18.31                             143    0.0410 98.0 176 
 RUS  HE I        1927 20.01        44.0 0.23                          98.0 176 
 PTB  HZ EP   1   1927  3.29                             130   -0.61 7  148 260 
 PTB  HE ES   1   1927 24.76                             130    0.23 7  148 260 
 PTB  HZ I        1927 27.10        35.3 0.25                           148 260 
 TAM  HZ EP       1927  4.62                             129    0.10 9  154 104 
 ZAR  HZ EP   1   1927  8.93                             121   -0.70 6  205 293 
 ZAR  HE ES   1   1927 34.94                             121    0.21 6  205 293 
 ZAR  HZ I        1927 37.03        21.6 0.13                           205 293 
 CHI  HZ EP   1   1927 14.51                             116   -0.04 6  246 195 
 CHI  HN ES   1   1927 42.89                             116   -0.59 6  246 195 
 CHI  HZ I        1927 47.46         7.7 0.49                           246 195 
 HEL  HZ EP   1   1927 18.09                             113    0.76 6  272 256 
 HEL  HZ I        1927 53.35         9.8 0.16                           272 256 
 PRA  HZ EP   1   1927 30.87                             105    0.34 4  390 210 
 PRA  HN ES   1   1928 12.09                             105    0.16 4  390 210 
 PRA  HZ I        1928 18.28         8.0 0.23                           390 210 
                                                                                
