 2017  826 1621 56.3 L   6.777 -73.140141.5  RSN 17 0.5 2.2LRSN                1
 GAP= 98        0.78       2.4     2.3  4.1  0.4510E+00  0.2127E+01  0.1667E+01E
 Epicentro: LOS SANTOS - SANTANDER                                             3
 ACTION:UPD 17-09-04 20:24 OP:rebc STATUS:               ID:20170826162156 L   I
 OLDACT:UP  17-08-27 00:48 OP:mg   STATUS:               ID:20170826161743     3
 OLDACT:UP  17-08-27 00:48 OP:mg   STATUS:               ID:20170826161743     3
 OLDACT:UP  17-08-27 00:47 OP:mg   STATUS:               ID:20170826161743     3
 OLDACT:UP  17-08-27 00:46 OP:mg   STATUS:               ID:20170826161743     3
 OLDACT:REG 17-08-26 21:06 OP:edw  STATUS:               ID:20170826161743     3
 2017-08-26-1618-00M.COL___408                                                 6
 STAT SP IPHASW D HRMM SECON CODA AMPLIT PERI AZIMU VELO AIN AR TRES W  DIS CAZ7
 BAR2 EZ EP       1622 15.26                             171   -0.1210 21.0 193 
 BAR2 EZ ES       1622 29.99                             171   -0.2610 21.0 193 
 BAR2 EZ I        1622 31.29        60.4 0.26            169           21.0 193 
 BRR  HZ EP     C 1622 17.13                             151    0.0310 72.9 300 
 BRR  HN ES       1622 34.01                             151    0.6910 72.9 300 
 BRR  HZ I        1622 38.50        59.7 0.12            149           72.9 300 
 PAM  EZ IP     C 1622 18.11                             150   -0.0610 79.0  38 
 PAM  EN ES       1622 34.89                             150   -0.3310 79.0  38 
 PAM  EZ I        1622 37.10        23.2 0.60            153           79.0  38 
 RUS  HZ EP       1622 19.26                             144   -0.2010 98.0 176 
 RUS  HN ES       1622 37.47                             144   -0.0410 98.0 176 
 RUS  HZ I        1622 38.48        32.0 0.26            144           98.0 176 
 TAM  HZ EP       1622 23.55                             130    0.01 9  154 104 
 TAM  HN ES       1622 45.06                             130    0.28 9  154 104 
 TAM  HZ I        1622 49.27        19.5 0.34            133            154 104 
 SPBC HZ EP       1622 24.65                             128    0.32 9  162 220 
 SPBC HN ES       1622 45.90                             128   -0.29 9  162 220 
 SPBC HZ I        1622 53.11        14.9 0.10            128            162 220 
 YPLC HZ EP       1622 25.58                             126    0.03 9  174 151 
 YPLC HN ES       1622 48.40                             126    0.04 9  174 151 
 YPLC HZ I        1622 52.13        19.9 0.26            128            174 151 
 ZAR  HZ EP       1622 28.23                             121   -0.41 8  206 293 
 ZAR  HN ES       1622 54.13                             121    0.28 8  206 293 
 ZAR  HZ I        1622 59.75        20.7 0.23            121            206 293 
 NOR  HZ EP   4   1622 33.78                             118    2.09 0  234 235 
 NOR  HN ES       1622 59.38                             118    0.10 8  234 235 
 NOR  HZ I        1623  5.90         8.3 0.34            117            234 235 
 CHI  HZ EP   3   1622 34.95                             116    1.43 2  246 195 
 CHI  HE ES       1623  2.75                             116    0.20 8  246 195 
 CHI  HZ I        1623  5.90         5.7 0.30            117            246 195 
 HEL  HZ EP   1   1622 37.29                             114    0.99 6  272 256 
 HEL  HE ES   3   1623  6.27                             114   -1.23 2  272 256 
 HEL  HZ I        1623 17.56         6.7 0.36            114            272 256 
 URE  HZ EP       1622 36.75                             113   -0.59 7  285 292 
 URE  HN ES   3   1623  7.63                             113   -1.72 2  285 292 
 URE  HZ I        1623 21.45        13.4 0.30            113            285 292 
 GUY2CHZ EP   4   1622 41.75                             112    2.14 0  300 235 
 GUY2CHN ES   3   1623 11.69                             112   -1.70 2  300 235 
 GUY2CHZ I        1623 22.27         3.2 0.44                           300 235 
 PTGC HZ EP   3   1622 38.53                             111   -1.15 2  306 159 
 PTGC HE ES   4   1623 11.25                             111   -2.27 0  306 159 
 DBB  EZ EP   3   1622 45.44                             109    1.74 2  340 275 
 DBB  EN ES   3   1623 19.36                             109   -1.31 2  340 275 
 DBB  EZ I        1623 24.09         5.0 0.20            109            340 275 
 PRA  HZ EP       1622 49.87                             106    0.41 6  390 210 
 PRA  HE ES       1623 30.47                             106   -0.45 6  390 210 
 PRA  HZ I        1623 37.06         7.0 0.40            106            390 210 
 SJC  HZ EP   4   1622 49.66                             105   -2.36 0  412 327 
 SJC  HN ES   4   1623 31.18                             105   -4.29 0  412 327 
 SJC  HZ I        1623 35.25         7.5 0.62            105            412 327 
                                                                                
