 2010  926 1106 20.8 L   6.790 -73.099140.8  RSN  7 0.4 1.5LRSN                1
 GAP=164        1.13       5.4    12.4 10.7 -0.7105E+00 -0.3952E+02 -0.1441E+02E
 Epicentro: LOS SANTOS - SANTANDER                                             3
 ACTION:UP  11-02-18 11:05 OP:tino STATUS:               ID:20100926110620 L   I
 2010-09-26-1105-13S.COL___122                                                 6
 STAT SP IPHASW D HRMM SECON CODA AMPLIT PERI AZIMU VELO SNR AR TRES W  DIS CAZ7
 BAR2 SZ EP       11 6 39.66                             170    -0.210   24 203 
 BAR2 SZ ES   1   11 6 54.20                             170    -0.5 7   24 203 
 BAR2 SZ I        11 6 56.09         9.4 0.33                            24 203 
 GIR2 SZ EP       11 6 40.86                             166     0.910   34 342 
 BRR  HZ EP       11 6 41.68                             150    -0.110   76 297 
 BRR  HE ES   1   11 6 58.31                             150     0.2 7   76 297 
 BRR  HZ I        11 7  1.68        10.6 0.29                            76 297 
 RUS  HZ EP       11 6 44.07                             143     0.110   99 179 
 RUS  HN ES   1   11 7  1.94                             143    -0.1 7   99 179 
 RUS  HZ I        11 7  2.96         2.9 0.23                            99 179 
 GUE  SZ EP       11 6 44.89                             138    -0.210  117   9 
 GRA  SZ IP     C 11 6 45.66                             136     0.110  125  15 
 GRA  SZ I        11 6 46.77         4.6 0.33                           125  15 
 GRA  SZ ES   1   11 7  5.21                             136     0.3 7  125  15 
 OCA  SZ EP   1   11 6 48.18                             128    -0.7 7  162 351 
 OCA  SZ ES   2   11 7 10.15                             128    -0.7 5  162 351 
 OCA  SZ I        11 7 13.71         5.2 0.27                           162 351 
                                                                                
