 2010  826 1848 43.2 L   6.801 -73.019140.0  RSN  5 0.3 1.9LRSN                1
 GAP=173        0.66       5.3     9.8 10.2  0.2589E+02 -0.6697E+02 -0.2860E+02E
 Epicentro: CEPITA - SANTANDER                                                 3
 ACTION:UP  10-09-07 10:58 OP:vdl  STATUS:               ID:20100826184843 L   I
 2010-08-26-1845-33S.COL___120                                                 6
 STAT SP IPHASW D HRMM SECON CODA AMPLIT PERI AZIMU VELO SNR AR TRES W  DIS CAZ7
 BAR2 SZ ES   2   1849 16.88                             169    -0.3 5   29 218 
 BAR2 SZ I        1849 19.24        12.3 0.05                            29 218 
 BRR  HZ EP       1849  4.36                             148    -0.210   84 294 
 BRR  HZ I        1849  4.60        20.8 0.28                            84 294 
 BRR  HN ES       1849 21.32                             148     0.110   84 294 
 RUS  HZ EP   1   1849  6.47                             144     0.0 7  101 184 
 RUS  HN ES   1   1849 24.63                             144     0.1 7  101 184 
 GUE  SZ EP   1   1849  6.84                             139    -0.4 7  114   5 
 GRA  SZ EP   1   1849  8.17                             137     0.5 7  122  11 
                                                                                
