 2011  226 1928 34.8 L   6.828 -73.206138.6  RSN  4 0.2 1.6LRSN                1
 GAP=181        0.39       2.7    16.0  6.6 -0.2859E+02  0.4849E+02 -0.7900E+01E
 Epicentro: ZAPATOCA - SANTANDER                                               3
 ACTION:UP  11-03-28 15:11 OP:jfem STATUS:               ID:20110226192834 L   I
 2011-02-26-1926-55S.COL___135                                                 6
 STAT SP IPHASW D HRMM SECON CODA AMPLIT PERI AZIMU VELO SNR AR TRES W  DIS CAZ7
 BAR2 SZ EP   2   1928 54.11                             169     0.5 5   26 175 
 BAR2 SZ ES   3   1929  8.39                             169     0.1 3   26 175 
 BAR2 SZ I        1929 10.92         9.0 0.21                            26 175 
 RUS  HZ EP       1928 58.12                             141     0.010  104 173 
 RUS  HN ES   1   1929 16.22                             141    -0.1 7  104 173 
 RUS  HZ I        1929 17.98         6.8 0.35                           104 173 
 GRA  SZ EP       1928 59.31                             136     0.010  125  21 
 GRA  SZ ES   1   1929 18.52                             136     0.0 7  125  21 
 GRA  SZ I        1929 20.09         8.3 0.30                           125  21 
 OCA  SZ EP   2   1929  2.19                             129     0.0 5  156 355 
 OCA  SZ ES   3   1929 23.22                             129    -0.4 2  156 355 
                                                                                
