 2010  826 1033 13.0 L   6.831 -73.028141.6  RSN  5 0.4 2.0LRSN                1
 GAP=195        0.89       5.7    12.5  9.6  0.3137E+02 -0.5512E+02 -0.2143E+02E
 Epicentro: CEPITA - SANTANDER                                                 3
 ACTION:UP  10-09-07 10:58 OP:vdl  STATUS:               ID:20100826103312 L   I
 2010-08-26-1028-09S.COL___120                                                 6
 STAT SP IPHASW D HRMM SECON CODA AMPLIT PERI AZIMU VELO SNR AR TRES W  DIS CAZ7
 BAR2 SZ EP   1   1033 32.53                             166     0.2 7   32 213 
 BAR2 SZ ES   1   1033 46.81                             166    -0.6 7   32 213 
 BAR2 SZ I        1033 48.58        21.3 0.55                            32 213 
 BRR  HZ EP       1033 34.21                             147    -0.110   82 292 
 BRR  HN ES       1033 51.27                             147     0.310   82 292 
 RUS  HZ EP   1   1033 36.77                             142     0.2 7  104 183 
 RUS  HN ES   1   1033 55.25                             142     0.2 7  104 183 
 RUS  HZ I        1033 57.00        14.3 0.37                           104 183 
 OCA  SZ EP       1033 41.07                             129     0.2 9  159 348 
 OCA  SZ ES   2   1034  1.65                             129    -1.0 5  159 348 
 OCA  SZ I        1034  7.17         9.7 0.17                           159 348 
 PRA  HN ES   2   1034 49.03                             105    -1.0 3  402 211 
 PRA  HZ I        1034 54.94         5.0 0.58                           402 211 
                                                                                
