 2017  926 1138  8.4 L   6.772 -73.122140.0  RSN  8 0.4 1.6LRSN                1
 GAP=238        0.75       3.4     4.3  5.1  0.4620E+01  0.8443E+01  0.7447E+01E
 Epicentro: LOS SANTOS - SANTANDER                                             3
 ACTION:UPD 17-10-05 19:16 OP:rebc STATUS:               ID:20170926113808 L   I
 OLDACT:REG 17-09-26 20:33 OP:dhb  STATUS:               ID:20170926112746     3
 2017-09-26-1128-00M.COL___441                                                 6
 STAT SP IPHASW D HRMM SECON CODA AMPLIT PERI AZIMU VELO AIN AR TRES W  DIS CAZ7
 BAR2 EZ IP     D 1138 27.12                             171   -0.1810 21.0 199 
 BAR2 EZ ES       1138 41.82                             171   -0.2110 21.0 199 
 BAR2 EZ I        1138 43.28        15.5 0.34            165           21.0 199 
 BRR  HZ EP       1138 29.21                             150    0.0510 75.0 300 
 BRR  HN ES       1138 45.90                             150    0.5510 75.0 300 
 BRR  HZ I        1138 50.82         9.2 0.28            148           75.0 300 
 RUS  HZ EP       1138 31.37                             144    0.0110 97.4 177 
 RUS  HE ES       1138 49.51                             144    0.2410 97.4 177 
 RUS  HZ I        1138 50.81         6.9 0.17            144           97.4 177 
 ZAR  HE ES       1139  5.76                             121   -0.42 8  208 293 
 ZAR  HZ I        1139 12.14         4.4 0.33            121            208 293 
 NOR  HZ EP       1138 43.69                             117   -0.17 8  235 235 
 NOR  HE ES       1139 11.41                             117   -0.09 8  235 235 
 NOR  HZ I        1139 16.48         2.8 0.29            117            235 235 
 CHI  HZ EP       1138 45.29                             116   -0.26 8  246 196 
 CHI  HN ES       1139 14.14                             116   -0.38 8  246 196 
 CHI  HZ I        1139 21.95         1.0 0.08            117            246 196 
 GUY2CHZ EP   3   1138 53.71                             111    1.90 2  302 236 
 GUY2CHE ES       1139 25.64                             111   -0.01 7  302 236 
 GUY2CHZ I        1139 34.78         2.2 0.60                           302 236 
 PRA  HZ EP       1139  1.78                             106    0.20 6  391 210 
 PRA  HE ES       1139 43.90                             106    0.85 6  391 210 
 PRA  HZ I        1139 49.01         1.7 0.33            107            391 210 
                                                                                
