 2015 1026 1808  7.7 L   6.739 -73.125140.9  RSN  6 0.3 1.8LRSN                1
 GAP=161        0.53       3.9     3.2  4.7 -0.6823E+00  0.6516E+01 -0.1654E+01E
 Epicentro: LOS SANTOS - SANTANDER                                             3
 ACTION:UPD 15-12-22 20:43 OP:cam  STATUS:               ID:20151026180807 L   I
 OLDACT:REG 15-10-26 22:30 OP:cara STATUS:               ID:20151026175746     3
 2015-10-26-1757-46M.COL___313                                                 6
 STAT SP IPHASW D HRMM SECON CODA AMPLIT PERI AZIMU VELO AIN AR TRES W  DIS CAZ7
 BAR2 EZ EP       18 8 26.72                             173    0.0510 17.4 201 
 BAR2 EZ ES       18 8 41.23                             173   -0.2110 17.4 201 
 BAR2 EZ I        18 8 42.80        13.7 0.22            162           17.4 201 
 BRR  HZ EP       18 8 28.55                             150   -0.1310 76.5 302 
 BRR  HN ES   2   18 8 45.80                             150    0.79 5 76.5 302 
 BRR  HZ I        18 9  9.65        17.9 0.30            146           76.5 302 
 PAM  EZ EP       18 8 29.72                             148    0.0310 81.4  35 
 PAM  EN ES       18 8 46.85                             148    0.0510 81.4  35 
 PAM  EZ I        18 8 48.83         6.4 0.48            161           81.4  35 
 ZAR  HZ EP       18 8 40.53                             120    0.17 8  209 294 
 ZAR  HE ES       18 9  5.58                             120   -0.23 8  209 294 
 ZAR  HZ I        18 9 10.76         7.9 0.42            124            209 294 
 CHI  HN ES   2   18 9 13.60                             116    0.38 4  243 196 
 CHI  HZ I        18 9 20.74         2.2 0.48            123            243 196 
 GUY2CHZ EP   4   18 8 46.91                             111   -3.99 0  299 236 
 GUY2CHE ES   4   18 9 27.30                             111    2.73 0  299 236 
 GUY2CHZ I        18 9 33.20         3.4 0.36                           299 236 
                                                                                
