 2012  126 1516 13.3 L   6.767 -73.157145.8  RSN  9 0.3 2.0LRSN                1
 GAP=137        0.68       3.5     3.9  5.2  0.6827E+00  0.5230E+01  0.4887E+01E
 Epicentro: LOS SANTOS - SANTANDER                                             3
 ACTION:UP  12-02-03 08:21 OP:REBC STATUS:               ID:20120126151613 L   I
 2012-01-26-1510-00M.COL___188                                                 6
 STAT SP IPHASW D HRMM SECON CODA AMPLIT PERI AZIMU VELO SNR AR TRES W  DIS CAZ7
 BAR2 SZ EP       1516 32.88                             172     0.010   20 188 
 BAR2 SZ ES   1   1516 47.66                             172    -0.5 7   20 188 
 BAR2 SZ I        1516 50.60        30.7 0.38                            20 188 
 GIR2 SZ EP       1516 32.98                             166    -0.110   35 353 
 BRR  HZ EP       1516 34.86                             152     0.410   72 302 
 BRR  HN ES   1   1516 51.56                             152     0.5 7   72 302 
 BRR  HZ I        1516 54.15        23.5 0.48                            72 302 
 PAM  SZ EP       1516 35.68                             150     0.010   81  39 
 PAM  SN ES   1   1516 53.11                             150    -0.1 7   81  39 
 RUS  HZ EP       1516 36.73                             145    -0.110   97 175 
 RUS  HN ES   1   1516 55.22                             145     0.1 7   97 175 
 RUS  HZ I        1516 56.65         8.7 0.26                            97 175 
 PTB  HZ EP       1516 39.80                             132    -0.3 9  146 260 
 PTB  HN ES   2   1517  0.47                             132    -0.5 5  146 260 
 PTB  HZ I        1517  6.60        14.1 0.40                           146 260 
 ZAR  HZ EP   3   1516 44.78                             122    -1.0 2  204 293 
 ZAR  HE ES   1   1517 11.02                             122    -0.1 6  204 293 
 ZAR  HZ I        1517 21.69        11.1 0.40                           204 293 
 NOR  SZ EP       1516 48.68                             119     0.0 8  232 235 
 CHI  HZ EP       1516 50.81                             117     0.2 8  245 195 
 CHI  HN ES   2   1517 20.10                             117     0.4 4  245 195 
 CHI  HZ I        1517 24.13         5.7 0.48                           245 195 
                                                                                
