 2014  126 1346 45.6 L   6.740 -73.157137.6  RSN  6 0.2 1.4LRSN                1
 GAP=138        0.64       3.1     3.3  4.5 -0.9014E+00 -0.1944E-01  0.2928E+01E
 Epicentro: VILLANUEVA - SANTANDER                                             3
 ACTION:UPD 14-03-13 09:58 OP:ep   STATUS:               ID:20140126134645 L   I
 OLDACT:DUP 14-01-26 17:28 OP:stll STATUS:               ID:20140126133819d    3
 2014-01-26-1338-18M.COL___231                                                 6
 STAT SP IPHASW D HRMM SECON CODA AMPLIT PERI AZIMU VELO AIN AR TRES W  DIS CAZ7
 BAR2 SZ EP       1347  4.25                             173    0.0810 16.6 190 
 BAR2 SZ ES       1347 18.85                             173    0.2310 16.6 190 
 BAR2 SZ I        1347 20.19        10.2 0.16            172           16.6 190 
 BRR  HZ EP       1347  6.32                             150    0.2610 73.6 304 
 BRR  HN ES       1347 22.23                             150    0.2510 73.6 304 
 BRR  HZ I        1347 28.18         4.4 0.18            149           73.6 304 
 PAM  SZ EP       1347  7.23                             147   -0.1510 83.3  37 
 PAM  SZ I        1347  7.46         7.2 0.20            151           83.3  37 
 PAM  SN ES       1347 24.05                             147   -0.2810 83.3  37 
 RUS  HZ EP       1347  8.23                             144    0.1110 94.1 175 
 RUS  HN ES       1347 25.50                             144   -0.1510 94.1 175 
 RUS  HZ I        1347 27.57         2.7 0.36            147           94.1 175 
 PTB  HN ES       1347 31.64                             130   -0.45 9  145 261 
 PTB  HZ I        1347 34.65         3.8 0.14            131            145 261 
 CHI  HZ EP       1347 22.23                             116    0.06 8  242 195 
                                                                                
