 2015 1226 1938 26.3 L   6.792 -73.160143.1  RSN 12 0.3 2.3LRSN                1
 GAP=135        0.76       2.3     3.0  4.4 -0.8471E+00  0.4334E+01  0.1076E+01E
 Epicentro: LOS SANTOS - SANTANDER                                             3
 ACTION:UPD 16-02-04 15:07 OP:cam  STATUS:               ID:20151226193826 L   I
 OLDACT:REG 15-12-26 20:35 OP:cara STATUS:               ID:20151226193742     3
 2015-12-26-1937-42M.COL___337                                                 6
 STAT SP IPHASW D HRMM SECON CODA AMPLIT PERI AZIMU VELO AIN AR TRES W  DIS CAZ7
 BAR2 EZ IP       1938 45.70                             171    0.1010 22.2 186 
 BAR2 EZ ES       1939  0.40                             171   -0.2410 22.2 186 
 BAR2 EZ I        1939  1.53        68.4 0.30            173           22.2 186 
 BRR  HZ IP     D 1938 47.55                             152    0.4310 70.3 300 
 BRR  HN ES       1939  3.72                             152    0.3710 70.3 300 
 BRR  HZ I        1939  4.84        45.7 0.14            145           70.3 300 
 PAM  EZ EP       1938 48.35                             150    0.0010 79.1  40 
 PAM  EN ES       1939  5.43                             150   -0.1110 79.1  40 
 PAM  EZ I        1939  7.50        49.7 0.48            142           79.1  40 
 RUS  HZ EP       1938 49.57                             143   -0.1710 99.8 175 
 RUS  HN ES       1939  8.07                             143    0.0510 99.8 175 
 RUS  HZ I        1939 10.21        18.5 0.18            140           99.8 175 
 PTB  HZ EP       1938 52.38                             132   -0.53 9  146 259 
 PTB  HN ES       1939 13.34                             132   -0.31 9  146 259 
 PTB  HZ I        1939 16.76        28.3 0.18            125            146 259 
 SPBC HZ EP       1938 54.15                             129   -0.30 9  161 219 
 SPBC HN ES       1939 16.67                             129    0.28 9  161 219 
 SPBC HZ I        1939 22.75        31.1 0.16            123            161 219 
 OCA  HE ES       1939 16.38                             129   -0.08 9  161 354 
 OCA  HZ I        1939 20.30        62.9 0.40            121            161 354 
 ZAR  HZ EP       1938 58.80                             122    0.33 9  203 293 
 ZAR  HN ES       1939 23.51                             122   -0.05 9  203 293 
 ZAR  HZ I        1939 31.13        22.7 0.40            115            203 293 
 NOR  HZ EP       1939  1.33                             118   -0.36 8  233 234 
 NOR  HN ES       1939 29.04                             118   -0.25 8  233 234 
 NOR  HZ I        1939 35.57        15.7 0.20            113            233 234 
 CHI  HN ES       1939 33.42                             117    0.52 8  247 195 
 CHI  HZ I        1939 37.00         6.2 0.52            112            247 195 
 HEL  HZ EP       1939  6.69                             114    0.49 8  270 256 
 HEL  HN ES   4   1939 40.22                             114    2.91 0  270 256 
 HEL  HZ I        1939 43.90        16.0 0.38            109            270 256 
 GUY2CHZ EP   4   1939 11.21                             112    1.62 0  299 235 
 GUY2CHN ES   4   1939 44.67                             112    1.32 0  299 235 
 GUY2CHZ I        1939 51.95         8.9 0.38                           299 235 
                                                                                
