 2011 1226 1355 19.6 L   6.811 -73.148142.5  RSN 20 0.5 2.9LRSN                1
 GAP=103        0.71       2.7     3.6  5.1 -0.1433E+01  0.4615E+01  0.1399E+01E
 Epicentro: LOS SANTOS - SANTANDER                                             3
 ACTION:UPD 12-07-13 16:18 OP:ep   STATUS:               ID:20111226135519 L   I
 2011-12-26-1350-00M.COL___188                                                 6
 STAT SP IPHASW D HRMM SECON CODA AMPLIT PERI AZIMU VELO AIN AR TRES W  DIS CAZ7
 BAR2 SZ IP     C 1355 39.09                             170    0.2010 24.4 189 
 BAR2 SZ ES   2   1355 52.95                             170   -0.96 5 24.4 189 
 BAR2 SZ I        1355 55.20       141.2 0.18                          24.4 189 
 GIR2 SZ EP   1   1355 39.14                             167    0.26 7 30.1 350 
 GIR2 SZ ES   2   1355 53.63                             167   -0.27 5 30.1 350 
 BRR  HZ EP       1355 40.91                             152    0.5310 70.4 298 
 PAM  SZ EP   1   1355 41.88                             150    0.42 7 76.7  40 
 PAM  SZ I        1355 42.23        93.0 0.15                          76.7  40 
 PAM  SN ES   2   1355 58.65                             150    0.17 5 76.7  40 
 RUS  HZ EP   1   1355 43.05                             143   -0.10 7  102 176 
 RUS  HN ES   2   1356  1.08                             143   -0.41 5  102 176 
 RUS  HZ I        1356  3.46        57.2 0.43                           102 176 
 BRI  SZ EP   1   1355 43.52                             141    0.38 7  107  21 
 PTB  HZ EP   1   1355 45.48                             131   -0.85 7  148 258 
 PTB  HE ES   2   1356  6.39                             131   -0.76 5  148 258 
 OCA  SZ EP   1   1355 47.63                             129    0.05 7  159 353 
 OCA  SZ ES   2   1356  9.46                             129    0.09 5  159 353 
 OCA  SZ I        1356 17.96       111.8 0.19                           159 353 
 YOP  SZ EP   1   1355 49.29                             125   -0.27 7  180 153 
 YOP  SE ES   2   1356 13.71                             125    0.81 4  180 153 
 ZAR  HZ EP   1   1355 51.74                             122   -0.05 6  203 292 
 ZAR  HE ES   2   1356 16.45                             122   -0.42 4  203 292 
 ZAR  HZ I        1356 22.29        77.4 0.40                           203 292 
 NOR  SZ EP   1   1355 55.03                             118   -0.19 6  235 234 
 NOR  SE ES   2   1356 23.30                             118    0.32 4  235 234 
 CHI  HZ EP   1   1355 57.20                             116   -0.07 6  250 195 
 CHI  HN ES   2   1356 26.49                             116   -0.13 4  250 195 
 CHI  HZ I        1356 29.99        71.0 0.34                           250 195 
 HEL  HZ EP   1   1356  0.04                             114    0.36 6  272 256 
 HEL  HE ES   2   1356 31.89                             114    0.97 4  272 256 
 HEL  HZ I        1356 37.56        38.7 0.48                           272 256 
 VIL  SZ EP   1   1356  2.70                             111   -0.33 5  304 191 
 RREF HZ EP   1   1356  5.66                             110   -0.04 5  322 229 
 RREF HE ES   2   1356 42.26                             110    0.64 3  322 229 
 RREF HZ I        1356 48.70        62.6 0.32                           322 229 
 DBB  SZ EP   1   1356  6.43                             109   -0.50 5  339 274 
 TOL  SZ EP   1   1356  8.20                             109    0.37 5  344 224 
 COD  HZ EP   1   1356  7.14                             108   -0.60 5  347 355 
 COD  HE ES   2   1356 44.95                             108   -0.32 3  347 355 
 COD  HZ I        1356 51.00        33.6 0.49                           347 355 
 SDV  BZ EP   1   1356  8.62                             108   -0.87 5  360  50 
 PRA  HZ EP   1   1356 12.92                             106   -0.22 4  393 209 
 PRA  HN ES   2   1356 54.61                             106   -0.27 3  393 209 
                                                                                
