 2010  526 1636 56.5 L   6.694 -72.960134.0  RSN  5 0.5 2.1LRSN                1
 GAP=226        0.74       9.9    12.7 11.0 -0.9849E+02  0.5171E+02 -0.2987E+02E
 Epicentro: ARATOCA - SANTANDER                                                3
 ACTION:UP  10-08-24 10:06 OP:vdl  STATUS:               ID:20100526163656 L   I
 2010-05-26-1633-18S.COL___108                                                 6
 STAT SP IPHASW D HRMM SECON CODA AMPLIT PERI AZIMU VELO SNR AR TRES W  DIS CAZ7
 BAR2 SZ EP       1637 14.92                             168     0.110   27 246 
 BAR2 SZ ES   2   1637 29.01                             168    -0.1 5   27 246 
 GUE  SZ EP   1   1637 20.25                             134    -0.7 7  126   2 
 GRA  SZ EP   1   1637 21.44                             133     0.1 7  133   7 
 GRA  SZ ES   2   1637 41.53                             133     0.8 5  133   7 
 HEL  HZ EP   2   1637 38.97                             111     0.8 4  290 259 
 HEL  HE ES   2   1638 10.24                             111    -0.4 4  290 259 
 HEL  HZ I        1638 12.21         4.9 0.25                           290 259 
 RREF BZ EP   2   1637 43.36                             108     0.2 3  330 233 
 RREF BE ES   2   1638 19.41                             108    -0.2 3  330 233 
 RREF BZ I        1638 27.38         8.7 0.32                           330 233 
                                                                                
