 2017 1026 1206 32.0 L   6.856 -73.228133.5  RSN  5 0.4 1.1LRSN                1
 GAP=123        0.97       4.9     4.2  7.8  0.5203E-01  0.1298E+02 -0.5863E+01E
 Epicentro: ZAPATOCA - SANTANDER                                               3
 ACTION:UPD 17-11-07 19:37 OP:rebc STATUS:               ID:20171026120632 L   I
 OLDACT:REG 17-10-26 20:57 OP:dhb  STATUS:               ID:20171026115737     3
 2017-10-26-1158-00M.COL___411                                                 6
 STAT SP IPHASW D HRMM SECON CODA AMPLIT PERI AZIMU VELO AIN AR TRES W  DIS CAZ7
 BAR2 EZ EP       12 6 50.29                             167   -0.0710 29.7 170 
 BAR2 EZ ES       12 7  4.99                             167    0.3510 29.7 170 
 BAR2 EZ I        12 7  8.43         4.6 0.38            169           29.7 170 
 PAM  EZ IP     C 12 6 53.24                             148    0.1610 79.1  48 
 PAM  EN ES       12 7  9.10                             148   -0.3910 79.1  48 
 PAM  EZ I        12 7 10.40         1.7 0.09            154           79.1  48 
 RUS  HZ EP       12 6 54.87                             139   -0.3110  108 171 
 RUS  HN ES       12 7 13.60                             139    0.3910  108 171 
 RUS  HZ I        12 7 14.00         2.4 0.28            145            108 171 
 PTB  HZ EP       12 6 57.25                             131   -0.09 9  140 256 
 PTB  HN ES       12 7 16.32                             131   -0.74 9  140 256 
 PTB  HZ I        12 7 23.71         1.6 0.20            132            140 256 
 ZAR  HZ EP       12 7  2.91                             121    0.32 9  193 291 
 ZAR  HN ES       12 7 26.90                             121    0.49 9  193 291 
 ZAR  HZ I        12 7 34.26         1.6 0.23            123            193 291 
                                                                                
