 2014  126 1338 28.3 L   6.769 -73.161139.6  RSN  8 0.4 1.4LRSN                1
 GAP=136        0.97       4.0     4.2  5.9 -0.3719E+01  0.5986E+01  0.6784E+01E
 Epicentro: LOS SANTOS - SANTANDER                                             3
 ACTION:UPD 14-03-13 09:58 OP:ep   STATUS:               ID:20140126133828 L   I
 OLDACT:REG 14-01-26 16:00 OP:stll STATUS:               ID:20140126133818     3
 2014-01-26-1338-18M.COL___231                                                 6
 STAT SP IPHASW D HRMM SECON CODA AMPLIT PERI AZIMU VELO AIN AR TRES W  DIS CAZ7
 BAR2 SZ EP       1338 47.05                             172   -0.0310 19.7 187 
 BAR2 SZ ES       1339  1.99                             172    0.2410 19.7 187 
 BAR2 SZ I        1339  3.50         9.1 0.26            169           19.7 187 
 BRR  HZ EP       1338 48.79                             151    0.0310 71.4 302 
 BRR  HN ES       1339  5.16                             151    0.4210 71.4 302 
 BRR  HZ I        1339  9.90         5.2 0.30            151           71.4 302 
 PAM  SZ EP       1338 49.94                             148   -0.1210 81.1  39 
 PAM  SZ I        1338 50.15         5.4 0.20            154           81.1  39 
 PAM  SN ES       1339  7.06                             148    0.0110 81.1  39 
 RUS  HZ EP       1338 50.99                             143   -0.1810 97.3 175 
 RUS  HN ES       1339  8.91                             143   -0.1310 97.3 175 
 RUS  HZ I        1339 11.02         2.1 0.28            145           97.3 175 
 PTB  HZ EP       1338 53.71                             131   -0.81 9  145 260 
 PTB  HN ES       1339 14.43                             131   -0.56 9  145 260 
 PTB  HZ I        1339 19.72         3.4 0.30            131            145 260 
 NOR  HZ EP       1339  3.64                             117    0.37 8  231 235 
 NOR  HN ES       1339 30.32                             117   -0.26 8  231 235 
 NOR  HZ I        1339 36.12         2.1 0.30            119            231 235 
 CHI  HZ EP       1339  5.28                             116    0.06 8  245 195 
 CHI  HN ES       1339 34.02                             116   -0.02 8  245 195 
 CHI  HZ I        1339 39.66         1.6 0.34            118            245 195 
 GUY2CHZ EP       1339 12.21                             111    1.00 7  298 235 
 GUY2CHE ES       1339 45.34                             111    0.64 7  298 235 
 GUY2CHZ I        1339 53.31         1.9 0.58                           298 235 
                                                                                
