 2011  726 1514 25.0 L   6.761 -73.064146.0  RSN 10 0.2 2.3LRSN                1
 GAP=166        0.48       2.2     3.9  3.7 -0.2979E+01  0.2743E+01 -0.8052E-01E
 Epicentro: LOS SANTOS - SANTANDER                                             3
 ACTION:UPD 12-07-25 14:03 OP:epov STATUS:               ID:20110726151425 L   I
 2011-07-26-1511-21S.COL___142                                                 6
 STAT SP IPHASW D HRMM SECON CODA AMPLIT PERI AZIMU VELO AIN AR TRES W  DIS CAZ7
 BAR2 SZ EP   1   1514 44.57                             171   -0.03 7 22.8 215 
 BAR2 SZ ES   1   1514 59.74                             171   -0.18 7 22.8 215 
 BAR2 SZ I        1515  1.26        47.4 0.21                          22.8 215 
 BRR  HZ IP     D 1514 46.46                             149   -0.2610 81.2 298 
 BRR  HZ I        1514 46.66       106.3 0.14                          81.2 298 
 BRR  HN ES   1   1515  3.77                             149    0.07 7 81.2 298 
 RUS  HZ EP   1   1514 48.44                             145    0.03 7 96.1 181 
 RUS  HN ES   1   1515  6.90                             145    0.20 7 96.1 181 
 RUS  HZ I        1515  8.29        22.2 0.33                          96.1 181 
 BRI  SZ EP   1   1514 49.02                             141    0.06 7  110  16 
 BRI  SZ I        1515  9.92        10.3 0.23                           110  16 
 GRA  SZ EP   1   1514 50.43                             137    0.07 7  128  13 
 GRA  SZ I        1515 15.81        19.7 0.29                           128  13 
 OCA  SZ EP   1   1514 53.40                             129   -0.41 7  166 350 
 OCA  SZ ES   1   1515 16.75                             129    0.44 7  166 350 
 OCA  SZ I        1515 19.92        37.8 0.29                           166 350 
 HEL  HZ EP   1   1515  6.19                             114    0.15 6  280 257 
 HEL  HZ I        1515 43.36        13.3 0.29                           280 257 
 RREF HN ES       1515 47.91                             111   -0.04 7  326 231 
 TOL  SZ EP   1   1515 14.26                             109    0.65 5  347 226 
 PRA  HZ EP   1   1515 18.34                             106   -0.24 4  393 211 
 PRA  HN ES   1   1516  0.33                             106   -0.08 4  393 211 
                                                                                
