 2014  726 1732 51.6 L   6.795 -73.225132.5  RSN  6 0.4 1.7LRSN                1
 GAP=124        1.02       4.9     4.9  7.8  0.1739E+00  0.1765E+02 -0.2708E+01E
 Epicentro: ZAPATOCA - SANTANDER                                               3
 ACTION:UPD 15-03-16 20:47 OP:nd   STATUS:               ID:20140726173251 L   I
 OLDACT:UP  14-07-27 00:03 OP:mh   STATUS:               ID:20140726172813     3
 OLDACT:REG 14-07-26 21:38 OP:mh   STATUS:               ID:20140726172813     3
 2014-07-26-1728-13M.COL___259                                                 6
 STAT SP IPHASW D HRMM SECON CODA AMPLIT PERI AZIMU VELO AIN AR TRES W  DIS CAZ7
 BAR2 SZ EP   1   1733  9.99                             170    0.33 7 22.9 168 
 BAR2 SZ ES       1733 22.92                             170   -0.8010 22.9 168 
 BAR2 SZ I        1733 27.30         9.2 0.29            169           22.9 168 
 PAM  SZ EP       1733 12.83                             146   -0.0410 83.6  44 
 PAM  SN ES       1733 29.81                             146    0.3810 83.6  44 
 PAM  SZ I        1733 31.54                             154           83.6  44 
 RUS  HZ EP       1733 13.75                             141   -0.3910  101 171 
 RUS  HN ES       1733 32.27                             141    0.5810  101 171 
 RUS  HZ I        1733 34.28         4.5 0.26            145            101 171 
 PTB  HZ EP   1   1733 16.35                             131   -0.39 7  139 258 
 PTB  HN ES   1   1733 36.85                             131    0.54 7  139 258 
 PTB  HZ I        1733 40.09        10.2 0.65            131            139 258 
 ZAR  HZ EP       1733 22.41                             120   -0.00 9  196 293 
 ZAR  HN ES       1733 46.38                             120   -0.04 9  196 293 
 ZAR  HZ I        1733 54.79         8.9 0.49            122            196 293 
 NOR  HZ EP       1733 25.90                             116    0.08 8  227 233 
 NOR  HN ES   4   1733 53.87                             116    1.39 0  227 233 
 NOR  HZ I        1734  0.59         4.0 0.38            119            227 233 
 HEL  HN ES   4   1734  3.21                             113    2.88 0  263 255 
                                                                                
