 2017  526 1603 41.1 L   6.794 -73.203149.9  RSN  4 0.3 1.5LRSN                1
 GAP=231        0.53       5.0     5.3  7.5  0.1828E+02  0.1029E+02  0.3295E+01E
 Epicentro: ZAPATOCA - SANTANDER                                               3
 ACTION:UPD 17-06-16 13:39 OP:jn   STATUS:               ID:20170526160341 L   I
 OLDACT:REG 17-05-26 21:57 OP:dnl  STATUS:               ID:20170526155741     3
 2017-05-26-1558-00M.COL___341                                                 6
 STAT SP IPHASW D HRMM SECON CODA AMPLIT PERI AZIMU VELO AIN AR TRES W  DIS CAZ7
 BRR  HZ EP   2   16 4  1.70                             155   -0.71 5 66.0 302 
 BRR  HE ES       16 4 19.14                             155    0.0910 66.0 302 
 BRR  HZ I        16 4 25.10         8.9 0.36            155           66.0 302 
 RUS  HZ EP   2   16 4  5.64                             145    0.39 5  101 172 
 RUS  HN ES       16 4 24.10                             145    0.0010  101 172 
 RUS  HZ I        16 4 25.70         2.6 0.42            150            101 172 
 PTB  HZ EP   2   16 4  8.10                             134    0.26 5  141 259 
 PTB  HN ES       16 4 28.53                             134   -0.17 9  141 259 
 PTB  HZ I        16 4 34.90         3.3 0.44            137            141 259 
 ZAR  HN ES       16 4 38.43                             124    0.11 9  198 293 
 ZAR  HZ I        16 4 41.34         3.0 0.30            128            198 293 
                                                                                
