 2012  126 1245 42.3 L   6.737 -73.165142.1  RSN 10 0.3 2.0LRSN                1
 GAP=137        0.79       3.8     4.2  5.2 -0.4124E+00  0.5221E+01  0.5365E+01E
 Epicentro: VILLANUEVA - SANTANDER                                             3
 ACTION:UP  12-02-03 08:21 OP:REBC STATUS:               ID:20120126124542 L   I
 2012-01-26-1240-00M.COL___188                                                 6
 STAT SP IPHASW D HRMM SECON CODA AMPLIT PERI AZIMU VELO SNR AR TRES W  DIS CAZ7
 BAR2 SZ IP       1246  1.48                             173     0.110   16 187 
 BAR2 SZ ES   1   1246 15.61                             173    -0.7 7   16 187 
 BAR2 SZ I        1246 17.48        23.1 0.32                            16 187 
 GIR2 SZ EP       1246  1.81                             164     0.010   38 355 
 GIR2 SZ ES   1   1246 16.92                             164     0.0 7   38 355 
 BRR  HZ EP   1   1246  3.50                             151     0.3 7   73 304 
 BRR  HE ES   1   1246 20.02                             151     0.6 7   73 304 
 BRR  HZ I        1246 21.63        31.9 0.20                            73 304 
 PAM  SZ EP       1246  4.63                             148     0.010   84  38 
 PAM  SN ES   1   1246 21.70                             148    -0.2 7   84  38 
 RUS  HZ EP       1246  5.26                             145     0.010   94 174 
 RUS  HZ I        1246  6.33        11.4 0.18                            94 174 
 RUS  HE ES   1   1246 23.63                             145     0.5 7   94 174 
 PTB  HZ EP       1246  8.34                             132    -0.4 9  145 261 
 PTB  HN ES   1   1246 28.84                             132    -0.4 7  145 261 
 PTB  HZ I        1246 34.37         9.1 0.60                           145 261 
 ZAR  HZ EP       1246 14.45                             121    -0.2 9  205 294 
 ZAR  HE ES   2   1246 40.17                             121     0.4 4  205 294 
 ZAR  HZ I        1246 45.81        14.7 0.60                           205 294 
 NOR  SN ES   2   1246 45.06                             118     0.6 4  229 236 
 CHI  HZ EP       1246 19.28                             117     0.2 8  241 195 
 CHI  HE ES   2   1246 47.00                             117    -0.7 4  241 195 
 CHI  HZ I        1246 54.58         3.8 0.58                           241 195 
 PRA  HZ EP       1246 35.09                             106     0.2 6  385 210 
                                                                                
