 2016 1226 1451 17.8 L   6.804 -73.170145.5  RSN  7 0.3 1.7LRSN                1
 GAP=133        0.84       3.5     4.4  6.1  0.2112E+01  0.7362E+01  0.3840E+01E
 Epicentro: LOS SANTOS - SANTANDER                                             3
 ACTION:UPD 17-01-11 20:19 OP:rebc STATUS:               ID:20161226145117 L   I
 OLDACT:DUP 16-12-26 22:00 OP:cog  STATUS:               ID:20161226144745d    3
 2016-12-26-1448-00M.COL___369                                                 6
 STAT SP IPHASW D HRMM SECON CODA AMPLIT PERI AZIMU VELO AIN AR TRES W  DIS CAZ7
 BAR2 EZ EP       1451 37.27                             170   -0.1010 23.4 183 
 BAR2 EZ ES       1451 52.06                             170   -0.5910 23.4 183 
 BAR2 EZ I        1451 54.98        13.3 0.52            165           23.4 183 
 BRR  HZ EP       1451 39.23                             153    0.4810 68.7 299 
 BRR  HN ES       1451 55.28                             153    0.1710 68.7 299 
 PAM  EZ EP       1451 40.01                             150   -0.0310 78.8  41 
 PAM  EE ES       1451 57.52                             150    0.1110 78.8  41 
 PAM  EZ I        1451 59.31        12.8 0.46            149           78.8  41 
 RUS  HZ EP       1451 41.38                             144   -0.1610  101 175 
 RUS  HN ES       1452  0.47                             144    0.3910  101 175 
 RUS  HZ I        1452  1.06         8.3 0.28            137            101 175 
 PTB  HZ EP       1451 43.92                             132   -0.57 9  145 258 
 PTB  HZ I        1452  5.99         4.6 0.16            123            145 258 
 ZAR  HE ES       1452 15.10                             123    0.09 9  201 292 
 CHI  HZ EP   3   1451 55.56                             117    0.14 2  248 195 
 CHI  HN ES       1452 25.02                             117    0.23 8  248 195 
 CHI  HZ I        1452 34.62         2.3 0.34            111            248 195 
                                                                                
