 2014  426 1024  9.3 L   6.827 -73.175138.0  RSN 13 0.4 2.2LRSN                1
 GAP=132        0.98       2.9     4.0  6.7 -0.2001E+01  0.9339E+01  0.6668E+00E
 Epicentro: LOS SANTOS - SANTANDER                                             3
 ACTION:UPD 14-05-13 23:11 OP:nd   STATUS:               ID:20140426102409 L   I
 OLDACT:REG 14-04-26 19:58 OP:nd   STATUS:               ID:20140426102000     3
 2014-04-26-1020-00M.COL___270                                                 6
 STAT SP IPHASW D HRMM SECON CODA AMPLIT PERI AZIMU VELO AIN AR TRES W  DIS CAZ7
 PAM  SZ EP       1024 31.07                             149    0.4010 77.3  43 
 PAM  SN ES       1024 47.55                             149    0.2010 77.3  43 
 PAM  SZ I        1024 50.01        36.2 0.52            158           77.3  43 
 RUS  HZ EP       1024 32.32                             141   -0.2010  104 174 
 RUS  HN ES       1024 50.04                             141   -0.6110  104 174 
 PTB  HZ EP       1024 35.13                             131   -0.26 9  145 257 
 PTB  HN ES       1024 55.96                             131    0.21 9  145 257 
 PTB  HZ I        1025  1.37        17.6 0.30            131            145 257 
 SPBC HZ EP       1024 37.28                             127    0.05 9  163 217 
 SPBC HN ES       1024 59.67                             127    0.65 9  163 217 
 SPBC HZ I        1025  5.40        18.3 0.26            129            163 217 
 ZAR  HZ EP   2   1024 40.76                             121   -0.04 4  200 292 
 ZAR  HN ES   1   1025  5.31                             121   -0.08 6  200 292 
 ZAR  HZ I        1025 15.42        16.1 0.20            123            200 292 
 NOR  HZ EP     D 1024 43.81                             117   -0.67 8  234 233 
 NOR  HN ES       1025 11.56                             117   -0.37 8  234 233 
 NOR  HZ I        1025 19.25        14.0 0.16            119            234 233 
 SML  HZ EP       1024 44.34                             116   -0.70 8  240 336 
 SML  HN ES       1025 12.88                             116   -0.05 8  240 336 
 SML  HZ I        1025 14.81        28.7 0.28            120            240 336 
 CHI  HZ EP       1024 46.74                             115   -0.05 8  251 194 
 CHI  HN ES       1025 16.51                             115    0.47 8  251 194 
 CHI  HZ I        1025 24.30         6.4 0.26            119            251 194 
 HEL  HZ EP       1024 49.98                             113    1.14 8  270 255 
 HEL  HN ES   1   1025 19.40                             113   -0.30 6  270 255 
 HEL  HZ I        1025 27.53         6.2 0.30            116            270 255 
 URE  HZ EP   4   1024 48.40                             112   -1.12 0  280 292 
 URE  HN ES   4   1025 24.07                             112    3.16 0  280 292 
 URE  HZ I        1025 28.43        12.7 0.22            115            280 292 
 GUY2CHZ EP   1   1024 52.81                             111    0.37 5  300 234 
 GUY2CHN ES   1   1025 25.89                             111   -0.21 5  300 234 
 GUY2CHZ I        1025 36.21         5.9 0.32                           300 234 
 PRA  HZ EP       1025  3.05                             105    0.39 6  393 209 
 PRA  HN ES       1025 43.88                             105   -0.42 6  393 209 
 PRA  HZ I        1025 52.02         9.7 0.34            108            393 209 
 SJC  HZ EP   4   1025  2.40                             105   -1.70 0  405 327 
 SJC  HN ES   4   1025 42.62                             105   -4.23 0  405 327 
 SJC  HZ I        1025 47.90         4.7 0.56            108            405 327 
                                                                                
