 2017 1226 1421  4.0 L   6.738 -73.145143.6  RSN  5 0.3 1.6LRSN                1
 GAP=158        0.68       6.3     4.0  6.1 -0.1254E+02  0.8401E+01 -0.1894E+01E
 Epicentro: LOS SANTOS - SANTANDER                                             3
 ACTION:UPD 18-01-04 13:24 OP:rebc STATUS:               ID:20171226142104 L   I
 OLDACT:UP  17-12-27 00:34 OP:mg   STATUS:               ID:20171226141742     3
 OLDACT:REG 17-12-26 22:34 OP:mg   STATUS:               ID:20171226141742     3
 2017-12-26-1418-00M.COL___459                                                 6
 STAT SP IPHASW D HRMM SECON CODA AMPLIT PERI AZIMU VELO AIN AR TRES W  DIS CAZ7
 BAR2 EZ EP       1421 23.60                             173    0.3410 16.7 194 
 BAR2 EZ ES       1421 38.27                             173   -0.0110 16.7 194 
 BAR2 EZ I    2   1421 39.60         8.0 0.36            173           16.7 194 
 PAM  EZ EP       1421 26.35                             149    0.0310 82.7  36 
 PAM  EN ES       1421 43.61                             149   -0.1210 82.7  36 
 PAM  EZ I        1421 44.87         7.0 0.34            148           82.7  36 
 PTB  HZ EP       1421 30.21                             132   -0.48 9  147 261 
 PTB  HN ES       1421 51.34                             132   -0.17 9  147 261 
 PTB  HZ I        1421 54.61         3.9 0.24            130            147 261 
 ZAR  HN ES   1   1422  2.52                             121    0.51 6  207 294 
 ZAR  HZ I        1422  7.45         6.0 0.19            120            207 294 
 GUY2CHZ EP   2   1421 47.17                             112    0.09 4  297 236 
 GUY2CHN ES   2   1422 21.41                             112    0.73 4  297 236 
 GUY2CHZ I        1422 30.28         2.0 0.56                           297 236 
                                                                                
