 2012  926 1038 33.7 L   6.763 -73.162142.9  RSN  8 0.4 1.8LRSN                1
 GAP=136        0.86       4.2     4.8  6.5  0.6845E+00  0.4903E+01  0.4573E+01E
 Epicentro: LOS SANTOS - SANTANDER                                             3
 ACTION:UPD 12-10-22 14:20 OP:ep   STATUS:               ID:20120926103833 L   I
 2012-09-26-1030-00M.COL___217                                                 6
 STAT SP IPHASW D HRMM SECON CODA AMPLIT PERI AZIMU VELO AIN AR TRES W  DIS CAZ7
 BAR2 SZ EP       1038 52.83                             172   -0.0710 19.0 187 
 BAR2 SZ I        1038 53.11        12.7 0.40                          19.0 187 
 BAR2 SZ ES   1   1039  7.61                             172   -0.28 7 19.0 187 
 GIR2 SZ EP   1   1038 53.04                             165   -0.10 7 35.1 354 
 GIR2 SZ ES   1   1039  8.33                             165    0.02 7 35.1 354 
 BRR  HZ EP       1038 54.99                             152    0.4210 71.7 302 
 BRR  HN ES   1   1039 11.67                             152    0.82 7 71.7 302 
 BRR  HN I        1039 12.44        33.4 0.14                          71.7 302 
 PAM  SZ EP       1038 55.89                             149    0.0210 81.7  39 
 PAM  SE ES   1   1039 12.61                             149   -0.56 7 81.7  39 
 PAM  SE I        1039 13.97        11.4 0.28                          81.7  39 
 RUS  HZ EP   1   1038 56.78                             144   -0.11 7 96.7 175 
 RUS  HN ES   1   1039 15.38                             144    0.41 7 96.7 175 
 RUS  HZ I        1039 16.49         7.5 0.24                          96.7 175 
 PTB  HN ES   1   1039 20.53                             132   -0.35 7  145 260 
 PTB  HN I        1039 22.34         6.4 0.26                           145 260 
 ZAR  HZ EP   1   1039  6.52                             122    0.57 6  204 293 
 ZAR  HN ES   1   1039 30.16                             122   -0.95 6  204 293 
 ZAR  HN I        1039 39.49         7.8 0.14                           204 293 
 CHI  HZ EP   1   1039 10.54                             117   -0.22 6  244 195 
 CHI  HN ES   1   1039 39.48                             117   -0.19 6  244 195 
                                                                                
