 2012  326 1129 15.0 L   6.778 -73.128154.7  RSN  6 0.3 1.7LRSN                1
 GAP=140        0.56       4.6     4.6  6.5  0.2589E+01  0.5657E+01 -0.4526E+01E
 ACTION:UP  12-03-31 23:23 OP:EP   STATUS:               ID:20120326112915 L   I
 2012-03-26-1127-59S.COL___205                                                 6
 STAT SP IPHASW D HRMM SECON CODA AMPLIT PERI AZIMU VELO SNR AR TRES W  DIS CAZ7
 BAR2 SZ EP   1   1129 35.67                             172     0.0 7   21 196 
 BAR2 SZ ES   2   1129 51.42                             172    -0.3 5   21 196 
 BAR2 SZ I        1129 52.48        11.9 0.27                            21 196 
 BRR  HZ EP   1   1129 37.61                             153     0.4 7   74 299 
 BRR  HE ES   2   1129 55.15                             153     0.5 5   74 299 
 BRR  HZ I        1129 59.38        11.4 0.18                            74 299 
 PAM  SZ EP   1   1129 37.97                             152    -0.2 7   78  37 
 PAM  SN ES   2   1129 56.12                             152    -0.2 5   78  37 
 RUS  HZ EP   1   1129 39.69                             146     0.3 7   98 177 
 RUS  HE ES   1   1129 58.48                             146     0.0 7   98 177 
 RUS  HZ I        1129 59.60         4.8 0.50                            98 177 
 PTB  HZ EP   1   1129 42.61                             134    -0.2 7  149 260 
 PTB  HN ES   2   1130  4.11                             134    -0.4 5  149 260 
 PTB  HZ I        1130  5.97         4.6 0.25                           149 260 
 ZAR  HZ EP   2   1129 47.88                             124    -0.4 4  207 293 
 ZAR  HN ES   2   1130 14.37                             124     0.1 4  207 293 
 ZAR  HZ I        1130 20.79         8.3 0.33                           207 293 
                                                                                
