 2015  326 1058 57.3 L   6.821 -73.171138.0  RSN  7 0.6 1.5LRSN                1
 GAP=132        1.42       4.8     6.0 10.1 -0.4480E+00  0.1113E+02 -0.5740E+01E
 Epicentro: LOS SANTOS - SANTANDER                                             3
 ACTION:UPD 15-04-30 16:29 OP:nd   STATUS:               ID:20150326105857 L   I
 OLDACT:REG 15-03-26 20:53 OP:stll STATUS:               ID:20150326105750     3
 2015-03-26-1057-50M.COL___275                                                 6
 STAT SP IPHASW D HRMM SECON CODA AMPLIT PERI AZIMU VELO AIN AR TRES W  DIS CAZ7
 BRR  HZ EP       1059 17.98                             152    0.6110 67.6 298 
 BRR  HN ES       1059 33.80                             152    0.7510 67.6 298 
 PAM  SZ EP       1059 18.83                             149    0.1710 77.4  42 
 PAM  SN ES       1059 35.18                             149   -0.1710 77.4  42 
 PAM  SZ I        1059 37.94         5.6 0.48            153           77.4  42 
 RUS  HZ EP       1059 20.04                             141   -0.4210  103 175 
 RUS  HN ES       1059 38.15                             141   -0.3910  103 175 
 RUS  HZ I        1059 40.25         2.8 0.46            144            103 175 
 PTB  HN ES       1059 43.55                             131   -0.24 9  146 258 
 PTB  HZ I        1059 45.62         2.7 0.36            131            146 258 
 SPBC HZ EP       1059 25.64                             127    0.45 9  163 218 
 SPBC HN ES       1059 46.94                             127   -0.03 9  163 218 
 SPBC HZ I        1059 52.90         4.9 0.22            128            163 218 
 ZAR  HZ EP       1059 29.88                             121    1.02 9  201 292 
 ZAR  HN ES       1059 52.43                             121   -1.06 9  201 292 
 ZAR  HZ I        1059 59.98         2.0 0.36            122            201 292 
 SML  HZ EP       1059 32.21                             116   -0.90 8  240 336 
 SML  HN ES       11 0  0.92                             116   -0.14 8  240 336 
 SML  HZ I        11 0  4.19         5.1 0.10            118            240 336 
                                                                                
