 2017  426 1822 32.3 L   6.456 -73.472102.8  RSN  6 0.3 2.0LRSN                1
 GAP=196        0.54       3.3     2.7  7.7 -0.4313E+01  0.3732E+01  0.7788E+01E
 Epicentro: SIMACOTA - SANTANDER                                               3
 ACTION:UPD 17-05-30 21:16 OP:jn   STATUS:               ID:20170426182232 L   I
 OLDACT:UP  17-04-27 00:07 OP:and  STATUS:               ID:20170426180959d    3
 OLDACT:UP  17-04-27 00:07 OP:and  STATUS:               ID:20170426180959d    3
 OLDACT:UP  17-04-27 00:06 OP:and  STATUS:               ID:20170426180959d    3
 OLDACT:UP  17-04-27 00:06 OP:and  STATUS:               ID:20170426180959d    3
 OLDACT:UP  17-04-27 00:05 OP:and  STATUS:               ID:20170426180959d    3
 OLDACT:UP  17-04-27 00:05 OP:and  STATUS:               ID:20170426180959d    3
 OLDACT:UP  17-04-27 00:05 OP:and  STATUS:               ID:20170426180959d    3
 OLDACT:UP  17-04-27 00:05 OP:and  STATUS:               ID:20170426180959d    3
 OLDACT:UP  17-04-27 00:05 OP:and  STATUS:               ID:20170426180959d    3
 OLDACT:UP  17-04-27 00:05 OP:and  STATUS:               ID:20170426180959d    3
 OLDACT:UP  17-04-27 00:04 OP:and  STATUS:               ID:20170426180959d    3
 OLDACT:UP  17-04-27 00:03 OP:and  STATUS:               ID:20170426180959d    3
 OLDACT:UP  17-04-27 00:03 OP:and  STATUS:               ID:20170426180959d    3
 OLDACT:UP  17-04-27 00:03 OP:and  STATUS:               ID:20170426180959d    3
 OLDACT:DUP 17-04-27 00:01 OP:and  STATUS:               ID:20170426180959d    3
 2017-04-26-1818-00M.COL___368                                                 6
 STAT SP IPHASW D HRMM SECON CODA AMPLIT PERI AZIMU VELO AIN AR TRES W  DIS CAZ7
 BRR  HZ EP   2   1822 49.00                             139   -0.45 5 76.7 340 
 BRR  HN ES   2   1823  3.25                             139    0.43 5 76.7 340 
 BRR  HZ I        1823 13.09        20.7 0.14            147           76.7 340 
 PTB  HZ IP   9 C 1822 51.17                             129   -1.14 0  109 275 
 PTB  HN ES   2   1823  5.94                             130   -0.82 5  109 275 
 PTB  HZ I        1823  7.27        16.4 0.16            138            109 275 
 PAM  EZ EP   2   1822 55.22                             123    0.27 5  130  41 
 PAM  EN ES       1823 12.57                             123   -0.0210  130  41 
 PAM  EZ I        1823 14.42        14.1 0.26            134            130  41 
 NOR  HZ EP       1823  0.10                             113   -0.03 9  183 238 
 NOR  HN ES       1823 21.76                             113   -0.06 9  183 238 
 NOR  HZ I        1823 24.39        12.2 0.18            123            183 238 
 ZAR  HZ EP       1823  0.87                             112   -0.07 9  191 307 
 ZAR  HN ES       1823 23.24                             112   -0.02 9  191 307 
 ZAR  HZ I        1823 25.51        35.0 0.38            121            191 307 
 HEL  HZ EP   2   1823  6.50                             108    0.74 4  229 263 
 HEL  HN ES       1823 31.81                             108   -0.03 9  229 263 
 HEL  HZ I        1823 35.16         7.3 0.28            117            229 263 
                                                                                
