 2014  826 1151  0.3 L   5.959 -74.238 20.4  RSN  7 0.3 1.4LRSN                1
 GAP= 85        0.78       1.8     1.6  2.4 -0.2370E+00  0.2375E+00 -0.9525E+00E
 Epicentro: LA BELLEZA - SANTANDER                                             3
 ACTION:UPD 14-09-15 21:53 OP:nd   STATUS:               ID:20140826115100 L   I
 OLDACT:UP  14-08-26 22:19 OP:stll STATUS:               ID:20140826114816     3
 OLDACT:REG 14-08-26 20:42 OP:stll STATUS:               ID:20140826114816     3
 2014-08-26-1148-16M.COL___260                                                 6
 STAT SP IPHASW D HRMM SECON CODA AMPLIT PERI AZIMU VELO AIN AR TRES W  DIS CAZ7
 SPBC HZ EP       1151  7.45                             115    0.0210 38.6 152 
 SPBC HN ES       1151 12.85                             115   -0.1210 38.6 152 
 SPBC HZ I        1151 13.59        32.8 0.20            114           38.6 152 
 PTB  HZ EP       1151 11.71                             104    0.0710 68.6 339 
 PTB  HN ES       1151 20.39                             104   -0.0710 68.6 339 
 PTB  HZ I        1151 20.82        38.1 0.28            104           68.6 339 
 NOR  HZ EP       1151 13.83                             102    0.1110 82.4 238 
 NOR  HN ES       1151 23.96                             102   -0.2110 82.4 238 
 NOR  HZ I        1151 25.31         8.7 0.16            101           82.4 238 
 RUS  HZ EP       1151 20.44                              56   -0.3510  128  93 
 BAR2 SZ EP       1151 21.73                              56    0.23 9  136  59 
 BAR2 SZ ES       1151 37.92                              56   -0.09 9  136  59 
 BAR2 SZ I        1151 39.90        14.0 0.72             56            136  59 
 HEL  HZ EP       1151 22.99                              56    0.22 9  145 280 
 HEL  HN ES       1151 39.87                              56   -0.40 9  145 280 
 HEL  HZ I        1151 41.24         5.1 0.24             56            145 280 
 GUY2CHZ EP       1151 24.18                              56    0.81 9  149 237 
 GUY2CHN ES       1151 41.17                              56   -0.17 9  149 237 
 GUY2CHZ I        1151 42.91         1.9 0.24                           149 237 
                                                                                
