 2013  626 1722 36.6 L   6.737 -73.215151.1  RSN  4 0.2 1.6LRSN                1
 GAP=221        0.44       4.5     4.6  5.6  0.1202E+02 -0.2446E+01 -0.5002E+01E
 Epicentro: VILLANUEVA - SANTANDER                                             3
 ACTION:UPD 14-01-08 09:57 OP:ep   STATUS:               ID:20130626172236 L   I
 OLDACT:DUP 13-06-26 18:48 OP:carl STATUS:               ID:20130626171960d    3
 2013-06-26-1719-59M.COL___266                                                 6
 STAT SP IPHASW D HRMM SECON CODA AMPLIT PERI AZIMU VELO AIN AR TRES W  DIS CAZ7
 BAR2 SZ EP   1   1722 56.42                             174   -0.36 7 16.4 167 
 BAR2 SZ I        1723 16.52         5.2 0.38            163           16.4 167 
 BRR  HZ EP   1   1722 58.26                             154    0.05 7 68.5 307 
 BRR  HN ES   1   1723 15.17                             154    0.13 7 68.5 307 
 BRR  HN I        1723 15.80        26.9 0.26            146           68.5 307 
 RUS  HZ EP   1   1723  0.77                             147    0.29 7 94.5 171 
 RUS  HN ES       1723 19.08                             147   -0.0210 94.5 171 
 RUS  HZ I        1723 20.49         3.1 0.24            140           94.5 171 
 PTB  HZ EP   1   1723  3.25                             135   -0.01 7  139 261 
 PTB  HN ES   1   1723 23.97                             135   -0.07 7  139 261 
 PTB  HZ I        1723 27.23         5.0 0.48            131            139 261 
                                                                                
