 2014  926 1155 44.5 L   6.810 -73.142145.0  RSN  8 0.4 1.8LRSN                1
 GAP=201        1.00       3.9     6.1  6.8  0.9465E+01  0.7226E+01  0.4579E+00E
 Epicentro: LOS SANTOS - SANTANDER                                             3
 ACTION:UPD 14-10-03 23:08 OP:nd   STATUS:               ID:20140926115544 L   I
 OLDACT:REG 14-09-26 20:20 OP:cam  STATUS:               ID:20140926115000     3
 2014-09-26-1150-00M.COL___252                                                 6
 STAT SP IPHASW D HRMM SECON CODA AMPLIT PERI AZIMU VELO AIN AR TRES W  DIS CAZ7
 BAR2 SZ EP       1156  4.16                             170    0.1010 24.4 190 
 BAR2 SZ ES       1156 18.66                             170   -0.6510 24.4 190 
 BAR2 SZ I        1156 20.33        23.8 0.26            172           24.4 190 
 BRR  HZ IP     D 1156  5.95                             152    0.4010 71.0 298 
 BRR  HN ES       1156 22.52                             152    0.5510 71.0 298 
 BRR  HZ I        1156 25.91        13.2 0.42            150           71.0 298 
 RUS  HZ EP       1156  8.06                             143   -0.1910  102 176 
 RUS  HN ES       1156 27.23                             143    0.4610  102 176 
 RUS  HZ I        1156 28.51         8.3 0.44            146            102 176 
 PTB  HZ EP       1156 10.94                             132   -0.51 9  148 258 
 PTB  HN ES   1   1156 31.61                             132   -0.87 7  148 258 
 PTB  HZ I        1156 33.79         8.9 0.42            132            148 258 
 ZAR  HN ES       1156 42.26                             122    0.11 9  204 292 
 ZAR  HZ I        1156 47.27         6.4 0.36            122            204 292 
 SML  HZ EP   1   1156 20.84                             117   -0.15 6  243 335 
 SML  HN ES       1156 49.39                             117   -0.07 8  243 335 
 SML  HZ I        1156 58.77         5.7 0.22            117            243 335 
 CHI  HZ EP   1   1156 22.27                             117   -0.01 6  250 195 
 CHI  HN ES       1156 51.78                             117    0.04 8  250 195 
 CHI  HZ I        1156 54.04         2.6 0.28            118            250 195 
 GUY2CHE ES   1   1157  2.91                             112    0.67 5  302 235 
 GUY2CHE I        1157 12.06         3.7 0.32                           302 235 
                                                                                
