 2014  826 1308 44.6 L   6.572 -73.723 96.6  RSN  5 0.4 1.7LRSN                1
 GAP= 94        1.02       7.1     4.4 10.7  0.5451E+00  0.2994E+01  0.4587E+02E
 Epicentro: EL CARMEN - SANTANDER                                              3
 ACTION:UPD 14-09-15 21:53 OP:nd   STATUS:               ID:20140826130844 L   I
 OLDACT:REG 14-08-26 20:46 OP:stll STATUS:               ID:20140826130819     3
 2014-08-26-1308-19M.COL___257                                                 6
 STAT SP IPHASW D HRMM SECON CODA AMPLIT PERI AZIMU VELO AIN AR TRES W  DIS CAZ7
 BRR  HZ EP       13 8 59.98                             146    0.1510 59.2   1 
 BRR  HE ES       13 9 11.88                             146    0.1710 59.2   1 
 BAR2 SZ EP       13 9  0.38                             146    0.1710 59.9  88 
 BAR2 SZ ES       13 9 11.98                             146   -0.4110 59.9  88 
 BAR2 SZ I        13 9 13.37        30.9 0.26            152           59.9  88 
 PTB  HZ EP       13 9  0.71                             137   -0.8310 81.1 268 
 PTB  HN ES       13 9 15.09                             137    0.3310 81.1 268 
 PTB  HZ I        13 9 18.73         7.1 0.10            139           81.1 268 
 RUS  HZ EP       13 9  4.50                             130    0.3410  103 137 
 SPBC HZ EP       13 9  4.24                             128    0.0810  109 201 
                                                                                
