 2016  726 1301 20.2 L   6.807 -73.133147.4  RSN 13 0.4 2.1LRSN                1
 GAP=120        0.84       3.0     3.4  4.8 -0.1029E+01  0.5343E+01  0.4161E+01E
 Epicentro: LOS SANTOS - SANTANDER                                             3
 ACTION:UPD 17-03-29 16:55 OP:lp   STATUS:               ID:20160726130120 L   I
 OLDACT:REG 16-07-26 20:18 OP:ar   STATUS:               ID:20160726125744     3
 2016-07-26-1257-44M.COL___322                                                 6
 STAT SP IPHASW D HRMM SECON CODA AMPLIT PERI AZIMU VELO AIN AR TRES W  DIS CAZ7
 BAR2 EZ IP     D 13 1 39.95                             170   -0.1210 24.4 193 
 BAR2 EZ ES       13 1 55.22                             170   -0.3210 24.4 193 
 BAR2 EZ I        13 1 57.74        33.7 0.42            171           24.4 193 
 BRR  HZ IP     D 13 1 41.71                             152    0.1210 72.1 297 
 BRR  HN ES       13 1 58.70                             152    0.4410 72.1 297 
 BRR  HZ I        13 2  2.12        20.2 0.21            151           72.1 297 
 PAM  EZ EP       13 1 42.94                             151    0.4210 75.9  39 
 PAM  EN ES       13 2  0.05                             151    0.1410 75.9  39 
 PAM  EZ I        13 2  3.01        20.1 0.26            153           75.9  39 
 RUS  HZ EP   2   13 1 43.96                             144   -0.22 5  101 177 
 RUS  HN ES       13 2  2.77                             144   -0.1010  101 177 
 RUS  HZ I        13 2  3.82        10.1 0.38            147            101 177 
 PTB  HZ EP       13 1 46.70                             132   -0.76 9  149 259 
 PTB  HN ES       13 2  8.44                             132   -0.27 9  149 259 
 PTB  HZ I        13 2 10.35        12.1 0.28            132            149 259 
 ZAR  HZ EP   2   13 1 52.74                             122   -0.14 4  205 292 
 ZAR  HN ES       13 2 18.26                             122   -0.09 9  205 292 
 ZAR  HZ I        13 2 26.97        14.0 0.20            123            205 292 
 NOR  HZ EP       13 1 56.06                             119   -0.16 8  236 235 
 NOR  HE ES       13 2 23.86                             119   -0.44 8  236 235 
 NOR  HZ I        13 2 26.72         9.7 0.22            120            236 235 
 CHI  HZ EP       13 1 58.15                             117    0.02 8  250 195 
 CHI  HN ES       13 2 27.66                             117   -0.04 8  250 195 
 CHI  HZ I        13 2 31.02         5.9 0.38            119            250 195 
 URE  HE ES   4   13 2 30.97                             114   -2.70 0  285 292 
 URE  HZ I        13 2 37.21         6.3 0.22            114            285 292 
 GUY2CHZ EP       13 2  4.32                             112    0.23 7  303 235 
 GUY2CHN ES       13 2 38.48                             112    0.18 7  303 235 
 GUY2CHZ I        13 2 45.14         6.9 0.40                           303 235 
 PTGC HZ EP   9   13 2  2.27                             112   -1.90 0  309 159 
 PTGC HN ES       13 2 36.52                                   -0.03 7  309 159 
 ELA  HN ES       13 2 45.12                             110    1.06 7  331 230 
 PRA  HZ EP       13 2 13.72                             107   -0.24 6  393 210 
 PRA  HN ES       13 2 56.64                             107    0.76 6  393 210 
 PRA  HZ I        13 3  0.16         5.7 0.25            108            393 210 
                                                                                
