 2012  626 1059 22.6 L   5.801 -73.945111.1  RSN  6 0.5 1.5LRSN                1
 GAP=172        1.01       9.0     6.6 14.8 -0.3389E+02 -0.1325E+02 -0.4815E+01E
 Epicentro: ALBANIA - SANTANDER                                                3
 ACTION:UPD 12-08-06 17:52 OP:ep   STATUS:               ID:20120626105922 L   I
 2012-06-26-1057-46M.COL___179                                                 6
 STAT SP IPHASW D HRMM SECON CODA AMPLIT PERI AZIMU VELO AIN AR TRES W  DIS CAZ7
 RUS  HE ES   3   1059 57.18                             136   -1.29 2 96.0  84 
 PTB  HZ EP       1059 41.74                             135   -0.6510 99.3 325 
 PTB  HE ES   2   1059 57.60                             135   -0.21 5 99.3 325 
 PTB  HZ I        11 0  1.05         5.0 0.26                          99.3 325 
 NOR  SZ EP       1059 42.79                             133   -0.2110  106 256 
 NOR  SZ I        1059 43.40         1.8 0.14                           106 256 
 NOR  SN ES   1   1059 59.52                             133    0.63 7  106 256 
 BAR2 SZ EP       1059 44.78                             129    0.0610  122  44 
 BAR2 SZ ES   1   11 0  2.01                             129    0.06 7  122  44 
 BAR2 SZ I        11 0  3.54        15.7 0.26                           122  44 
 BRR  HZ EP       1059 47.60                             123    0.72 9  147  10 
 BRR  HZ I        11 0 10.49         9.7 0.16                           147  10 
 ZAR  HN ES   2   11 0 18.08                             113   -0.44 4  212 332 
                                                                                
