 2015  926 1938 22.3 L   6.823 -73.099142.0  RSN  9 0.4 1.8LRSN                1
 GAP=244        0.98       4.1     4.9  5.7  0.5042E+01  0.6800E+01  0.4121E+01E
 Epicentro: LOS SANTOS - SANTANDER                                             3
 ACTION:UPD 15-10-28 16:28 OP:cam  STATUS:               ID:20150926193822 L   I
 OLDACT:REG 15-09-26 23:31 OP:spq  STATUS:               ID:20150926193749     3
 2015-09-26-1937-49M.COL___358                                                 6
 STAT SP IPHASW D HRMM SECON CODA AMPLIT PERI AZIMU VELO AIN AR TRES W  DIS CAZ7
 BAR2 EZ EP       1938 41.97                             169    0.3910 27.1 200 
 BAR2 EZ ES       1938 56.23                             169   -0.3810 27.1 200 
 BAR2 EZ I        1938 58.47         8.9 0.30            162           27.1 200 
 BRR  HZ EP       1938 43.91                             151    0.6410 74.6 295 
 BRR  HE ES       1938 59.94                             151    0.3410 74.6 295 
 RUS  HZ EP       1938 45.98                             142    0.1010  103 179 
 RUS  HN ES       1939  4.30                             142    0.0510  103 179 
 RUS  HZ I        1939  5.79         5.1 0.42            141            103 179 
 PTB  HZ EP       1938 48.93                             130   -0.57 9  153 258 
 PTB  HE ES       1939 10.21                             130   -0.49 9  153 258 
 PTB  HZ I        1939 15.95         9.2 0.36            129            153 258 
 SPBC HZ EP       1938 50.95                             127   -0.09 9  168 220 
 SPBC HE ES       1939 13.24                             127   -0.20 9  168 220 
 SPBC HZ I        1939 24.55        17.9 0.20            126            168 220 
 ZAR  HZ EP       1938 54.38                             121   -0.54 8  208 291 
 ZAR  HE ES       1939 20.37                             121    0.02 8  208 291 
 ZAR  HZ I        1939 26.32         9.2 0.28            122            208 291 
 NOR  HZ EP       1938 57.93                             117   -0.52 8  240 235 
 NOR  HE ES       1939 26.89                             117    0.26 8  240 235 
 NOR  HZ I        1939 29.64         5.5 0.18            117            240 235 
 SML  HZ EP   4   1938 58.94                             117    0.21 0  244 334 
 CHI  HZ EP       1939  0.09                             116   -0.14 8  252 196 
 CHI  HE ES       1939 29.71                             116   -0.10 8  252 196 
 CHI  HZ I        1939 34.95         2.7 0.52            117            252 196 
 GUY2CHZ EP       1939  6.86                             111    0.46 7  307 235 
 GUY2CHE ES       1939 41.70                             111    0.92 7  307 235 
 GUY2CHZ I        1939 49.15         4.2 0.60                           307 235 
                                                                                
