 2015  426 1049 55.8 L   6.777 -73.201134.0  RSN  6 0.8 1.7LRSN                1
 GAP=275        1.90       9.5    16.4 16.8 -0.2803E+02 -0.4639E+02  0.5061E+02E
 Epicentro: ZAPATOCA - SANTANDER                                               3
 ACTION:UPD 15-06-03 16:57 OP:cam  STATUS:               ID:20150426104956 L   I
 OLDACT:UP  15-04-28 09:51 OP:SPQ  STATUS:               ID:20150426104956 L   3
 OLDACT:UP  15-04-26 21:32 OP:mh   STATUS:               ID:20150426104736     3
 OLDACT:REG 15-04-26 19:55 OP:mh   STATUS:               ID:20150426104736     3
 2015-04-26-1047-36M.COL___268                                                 6
 STAT SP IPHASW D HRMM SECON CODA AMPLIT PERI AZIMU VELO AIN AR TRES W  DIS CAZ7
 BRR  HZ EP       1050 14.88                             152   -0.6210 67.3 303 
 BRR  HN ES       1050 31.96                             152    1.1310 67.3 303 
 BRR  HZ I        1050 35.85         8.6 0.48            149           67.3 303 
 PTB  HZ EP       1050 20.22                             131   -1.05 9  141 259 
 PTB  HN ES       1050 40.73                             131   -0.38 9  141 259 
 PTB  HZ I        1050 48.02         5.0 0.56            132            141 259 
 SPBC HZ EP       1050 22.75                             128   -0.15 9  157 218 
 SPBC HN ES       1050 43.58                             128   -0.42 9  157 218 
 SPBC HZ I        1050 46.75        12.6 0.32            130            157 218 
 ZAR  HZ EP       1050 28.11                             121    1.05 9  199 293 
 ZAR  HN ES       1050 50.77                             121   -0.64 9  199 293 
 ZAR  HZ I        1050 57.23         6.4 0.22            122            199 293 
 NOR  HZ EP       1050 30.50                             117    0.29 8  228 234 
 NOR  HN ES       1050 56.90                             117   -0.12 8  228 234 
 TOL  SN ES       1051 21.57                             108    1.89 7  337 224 
                                                                                
