 2012  826 1357  3.9 L   6.782 -73.140147.3  RSN 11 0.4 2.3LRSN                1
 GAP=138        0.75       3.0     3.8  5.3 -0.2098E+01  0.4194E+01  0.2772E+01E
 Epicentro: LOS SANTOS - SANTANDER                                             3
 ACTION:UPD 12-09-10 11:58 OP:ep   STATUS:               ID:20120826135703 L   I
 2012-08-26-1350-00M.COL___218                                                 6
 STAT SP IPHASW D HRMM SECON CODA AMPLIT PERI AZIMU VELO AIN AR TRES W  DIS CAZ7
 BAR2 SZ EP       1357 23.80                             171    0.0910 21.5 193 
 BAR2 SZ ES   1   1357 39.07                             171   -0.07 7 21.5 193 
 BAR2 SZ I        1357 41.74        61.4 0.37                          21.5 193 
 GIR2 SZ EP       1357 23.78                             167   -0.0610 33.3 350 
 GIR2 SZ I        1357 40.40                                           33.3 350 
 BRR  HZ EP       1357 25.63                             152    0.3010 72.7 300 
 BRR  HN ES   1   1357 42.89                             152    0.87 7 72.7 300 
 PAM  SZ EP       1357 26.70                             151    0.3310 78.5  38 
 PAM  SZ I        1357 26.79        50.8 0.18                          78.5  38 
 PAM  SN ES   1   1357 43.74                             151   -0.14 7 78.5  38 
 RUS  HZ EP       1357 27.57                             145   -0.1210 98.6 176 
 RUS  HN ES   1   1357 45.93                             145   -0.29 7 98.6 176 
 RUS  HZ I        1357 49.38        13.3 0.31                          98.6 176 
 PTB  HZ EP       1357 30.77                             132   -0.27 9  148 260 
 PTB  HN ES   1   1357 51.47                             132   -0.72 7  148 260 
 PTB  HZ I        1357 57.66        15.5 0.22                           148 260 
 OCA  HZ EP   1   1357 31.90                             130   -0.65 7  162 353 
 OCA  HN ES   1   1357 54.45                             130   -0.42 7  162 353 
 OCA  HZ I        1357 59.26        48.7 0.19                           162 353 
 ZAR  HN ES   2   1358  2.19                             123    0.09 4  205 293 
 ZAR  HZ I        1358  8.24        16.7 0.14                           205 293 
 NOR  SZ EP       1357 39.69                             119    0.01 8  234 235 
 NOR  SN ES   1   1358  7.72                             119    0.15 6  234 235 
 NOR  SZ I        1358 11.56        19.8 0.20                           234 235 
 CHI  HZ EP       1357 41.64                             118    0.11 8  247 195 
 CHI  HN ES   1   1358 10.93                             118    0.08 6  247 195 
 CHI  HZ I        1358 19.43         7.4 0.31                           247 195 
 HEL  HZ EP   1   1357 44.86                             115    0.63 6  272 256 
 HEL  HE ES   2   1358 15.35                             115   -0.32 4  272 256 
 HEL  HZ I        1358 22.06         7.1 0.25                           272 256 
                                                                                
