 2013  326 1553 42.2 L   6.792 -73.151149.9  RSN 12 0.4 3.1LRSN 3.4WRSN        1
 SPEC AVERAGE  MO 14.1 ST 10.4 OM  2.5 f0 3.57 R0.5914 AL 2.19 WI 54.8 MW  3.4 3
 SPEC SD       MO  0.3 ST 16.2 OM  0.6 f0 1.26 R0.2511 AL      WI      MW  0.2 3
 GAP= 71        0.91       2.5     2.9  4.6  0.2648E+00  0.2330E+01  0.7683E+00E
 Epicentro: LOS SANTOS - SANTANDER                                             3
 SPEC TAM HH N MO 14.2 ST  2.4 OM  2.2 f0 2.74 R0.6642 AL 2.83 WI 60.8 MW  3.4 3
 SPEC TAM HH N T155430 K 0.050 GD  215 VS 5.20 DE 3.20 Q0750.0 QA 1.50 VS 5.20 3
 SPEC PRA HH N MO 13.7 ST  2.8 OM  1.4 f0 4.28 R0.4252 AL 2.89 WI 35.5 MW  3.1 3
 SPEC PRA HH N T155517 K 0.050 GD  418 VS 5.20 DE 3.20 Q0750.0 QA 1.50 VS 5.20 3
 SPEC OCA HH N MO 14.7 ST 48.8 OM  2.7 f0 5.05 R0.3604 AL 2.34 WI 68.9 MW  3.8 3
 SPEC OCA HH N T155431 K 0.050 GD  219 VS 5.20 DE 3.20 Q0750.0 QA 1.50 VS 5.20 3
 SPEC PTB HH N MO 14.1 ST 14.0 OM  2.1 f0 5.36 R0.3396 AL 2.12 WI 48.9 MW  3.3 3
 SPEC PTB HH N T155428 K 0.050 GD  209 VS 5.20 DE 3.20 Q0750.0 QA 1.50 VS 5.20 3
 SPEC RUS HH N MO 14.0 ST  2.2 OM  2.1 f0 3.05 R0.5967 AL 1.35 WI 60.8 MW  3.3 3
 SPEC RUS HH N T155423 K 0.050 GD  180 VS 5.20 DE 3.20 Q0750.0 QA 1.50 VS 5.20 3
 SPEC COD HH N MO 14.1 ST0.344 OM  1.8 f0 1.61 R1.1304 AL 1.30 WI 68.9 MW  3.3 3
 SPEC COD HH N T1555 7 K 0.050 GD  379 VS 5.20 DE 3.20 Q0750.0 QA 1.50 VS 5.20 3
 SPEC CHI HH N MO 14.1 ST  2.5 OM  2.0 f0 2.92 R0.6233 AL 2.47 WI 39.8 MW  3.4 3
 SPEC CHI HH N T155446 K 0.050 GD  289 VS 5.20 DE 3.20 Q0750.0 QA 1.50 VS 5.20 3
 ACTION:UPD 13-04-09 14:05 OP:ep   STATUS:               ID:20130326155342 L   I
 2013-03-26-1550-00M.COL___244                                                 6
 STAT SP IPHASW D HRMM SECON CODA AMPLIT PERI AZIMU VELO AIN AR TRES W  DIS CAZ7
 BAR2 SZ IP       1554  2.20                             171   -0.0810 22.3 189 
 BAR2 SZ ES       1554 18.17                             171    0.2110 22.3 189 
 BAR2 SZ I        1554 18.87       147.2 0.50            170           22.3 189 
 BRR  HZ IP     C 1554  4.08                             153    0.3210 71.1 299 
 BRR  HN ES       1554 21.55                             153    0.9510 71.1 299 
 BRR  HN I        1554 22.10       256.7 0.20            151           71.1 299 
 PAM  SZ IP     C 1554  5.01                             151    0.1210 78.5  39 
 PAM  SN ES       1554 22.41                             151   -0.2010 78.5  39 
 PAM  SN I        1554 23.38       132.6 0.50            153           78.5  39 
 RUS  HZ EP       1554  6.07                             145   -0.2010 99.7 176 
 RUS  HN ES       1554 24.74                             145   -0.3310 99.7 176 
 RUS  HN I        1554 26.57        96.2 0.28            145           99.7 176 
 PTB  HZ EP       1554  9.13                             133   -0.28 9  147 259 
 PTB  HN ES       1554 30.08                             133   -0.58 9  147 259 
 PTB  HN I        1554 35.51       199.3 0.52            132            147 259 
 TAM  HZ EP       1554 10.36                             131    0.15 9  155 105 
 TAM  HN ES       1554 32.14                             131    0.05 9  155 105 
 TAM  HN I        1554 32.77       178.6 0.36            133            155 105 
 OCA  HZ EP       1554 11.17                             130    0.28 9  161 353 
 OCA  HN ES       1554 32.50                             130   -0.78 9  161 353 
 OCA  HN I        1554 36.17       373.6 0.30            131            161 353 
 ZAR  HZ EP       1554 14.82                             123   -0.05 9  204 292 
 ZAR  HE ES       1554 40.43                             123    0.06 9  204 292 
 ZAR  HE I        1554 46.70       248.2 0.26            123            204 292 
 CHI  HZ EP       1554 20.17                             118    0.18 8  248 195 
 CHI  HN ES       1554 49.24                             118   -0.25 8  248 195 
 CHI  HN I        1554 57.07        55.8 0.36            118            248 195 
 DBB  SZ EP       1554 29.71                             110   -0.05 7  339 274 
 COD  HZ EP   2   1554 31.16                             110    0.35 3  349 355 
 COD  HN ES       1555  8.76                             110    0.01 6  349 355 
 COD  HN I        1555 12.90        21.9 0.52            110            349 355 
 PRA  HZ EP       1554 35.64                             107   -0.07 6  391 210 
 PRA  HN ES       1555 18.25                             107    0.78 6  391 210 
 PRA  HN I        1555 23.45        38.2 0.82            107            391 210 
                                                                                
