 2015 1226 1204 48.2 L   6.761 -73.139141.4  RSN  8 0.4 1.7LRSN                1
 GAP=183        0.94       3.8     4.8  6.8  0.2757E+01  0.9021E+01 -0.1276E+01E
 Epicentro: LOS SANTOS - SANTANDER                                             3
 ACTION:UPD 16-02-04 15:07 OP:cam  STATUS:               ID:20151226120448 L   I
 OLDACT:REG 15-12-26 19:55 OP:cara STATUS:               ID:20151226115750     3
 2015-12-26-1157-50M.COL___328                                                 6
 STAT SP IPHASW D HRMM SECON CODA AMPLIT PERI AZIMU VELO AIN AR TRES W  DIS CAZ7
 BAR2 EZ IP       12 5  7.02                             172   -0.2110 19.3 194 
 BAR2 EZ ES       12 5 21.92                             172   -0.1410 19.3 194 
 BAR2 EZ I        12 5 24.13         5.7 0.58            172           19.3 194 
 BRR  HZ EP       12 5  8.79                             151   -0.2510 74.0 301 
 BRR  HN ES       12 5 25.44                             151    0.1510 74.0 301 
 BRR  HZ I        12 5 30.27         7.9 0.24            150           74.0 301 
 RUS  HZ EP       12 5 11.24                             144    0.0310 96.2 176 
 RUS  HE ES       12 5 29.57                             144    0.4210 96.2 176 
 RUS  HZ I        12 5 31.41         3.7 0.36            148           96.2 176 
 PTB  HZ EP       12 5 14.25                             131   -0.56 9  148 261 
 PTB  HN ES       12 5 34.89                             131   -0.67 9  148 261 
 PTB  HZ I        12 5 38.26         5.5 0.48            132            148 261 
 OCA  HN ES       12 5 38.86                             128    0.13 9  165 353 
 OCA  HZ I        12 5 41.37        11.6 0.56            130            165 353 
 ZAR  HZ EP       12 5 21.00                             121    0.39 8  206 293 
 ZAR  HN ES       12 5 46.39                             121    0.51 8  206 293 
 ZAR  HZ I        12 5 51.53         7.3 0.26            123            206 293 
 NOR  HE ES       12 5 51.47                             118    0.48 8  233 235 
 NOR  HZ I        12 5 53.16         3.8 0.22            120            233 235 
 SML  HZ EP   4   12 5 23.54                             116   -1.50 0  248 336 
 SML  HN ES   4   12 5 52.03                             116   -1.75 0  248 336 
 SML  HZ I        12 5 56.44         7.3 0.10            118            248 336 
                                                                                
