 2017  726 1015 19.5 L   6.797 -73.172145.8  RSN  8 0.5 1.6LRSN                1
 GAP=211        1.19       5.6     5.3  7.7  0.1326E+02  0.4737E+01  0.1466E+01E
 Epicentro: LOS SANTOS - SANTANDER                                             3
 ACTION:UPD 17-08-30 15:36 OP:rebc STATUS:               ID:20170726101519 L   I
 OLDACT:UP  17-07-26 23:39 OP:ar   STATUS:               ID:20170726100738d    3
 OLDACT:DUP 17-07-26 23:34 OP:ar   STATUS:               ID:20170726100738d    3
 2017-07-26-1008-00M.COL___374                                                 6
 STAT SP IPHASW D HRMM SECON CODA AMPLIT PERI AZIMU VELO AIN AR TRES W  DIS CAZ7
 BAR2 EZ EP       1015 38.77                             171   -0.3510 22.7 183 
 BAR2 EZ ES       1015 53.87                             171   -0.5510 22.7 183 
 BAR2 EZ I        1015 55.24         9.5 0.16            170           22.7 183 
 BRR  HZ EP       1015 41.00                             153    0.4810 68.8 300 
 BRR  HN ES       1015 57.75                             153    0.8410 68.8 300 
 RUS  HN ES       1016  1.54                             144   -0.2310  101 174 
 PTB  HZ EP       1015 45.99                             133   -0.21 9  145 259 
 PTB  HN ES       1016  6.53                             133   -0.50 9  145 259 
 PTB  HZ I        1016 11.56         2.8 0.16            132            145 259 
 SPBC HZ EP       1015 47.90                             129    0.10 9  161 218 
 SPBC HE ES       1016  9.55                             129   -0.33 9  161 218 
 SPBC HZ I        1016 12.29         7.4 0.26            129            161 218 
 YPLC HZ EP       1015 49.18                             126   -0.23 9  178 150 
 YPLC HN ES       1016 13.46                             126    0.72 9  178 150 
 YPLC HZ I        1016 14.19         6.5 0.24            128            178 150 
 ZAR  HZ EP       1015 51.37                             123   -0.31 9  201 293 
 ZAR  HN ES       1016 16.70                             123   -0.08 9  201 293 
 ZAR  HZ I        1016 22.53         3.4 0.18            122            201 293 
 NOR  HE ES       1016 23.41                             119    0.80 8  232 234 
                                                                                
