 2017  826 1849  6.6 L   6.812 -73.295140.8  RSN 23 0.6 2.8LRSN                1
 GAP= 56        1.30       3.1     3.4  5.7 -0.2897E+00  0.5772E+01  0.2756E+01E
 Epicentro: ZAPATOCA - SANTANDER                                               3
 ACTION:UPD 17-09-04 20:24 OP:rebc STATUS:               ID:20170826184906 L   I
 OLDACT:UP  17-08-27 01:16 OP:edw  STATUS:               ID:20170826184740     3
 OLDACT:UP  17-08-27 01:15 OP:edw  STATUS:               ID:20170826184740     3
 OLDACT:UP  17-08-27 01:10 OP:edw  STATUS:               ID:20170826184740     3
 OLDACT:REG 17-08-26 21:22 OP:edw  STATUS:               ID:20170826184740     3
 2017-08-26-1848-00M.COL___408                                                 6
 STAT SP IPHASW D HRMM SECON CODA AMPLIT PERI AZIMU VELO AIN AR TRES W  DIS CAZ7
 BAR2 EZ EP       1849 25.37                             169   -0.3210 27.3 153 
 BAR2 EZ ES       1849 40.09                             169   -0.5210 27.3 153 
 BAR2 EZ I        1849 41.93       164.0 0.26            167           27.3 153 
 BRR  HZ IP     C 1849 26.57                             157    0.1710 56.5 305 
 BRR  HN ES       1849 42.80                             157    0.9310 56.5 305 
 BRR  HZ I        1849 43.45       143.3 0.12            156           56.5 305 
 PAM  EZ EP       1849 29.23                             146    0.2910 88.0  48 
 PAM  EN ES       1849 47.03                             146    0.6410 88.0  48 
 PAM  EZ I        1849 49.82        90.1 0.56            152           88.0  48 
 RUS  HZ EP       1849 29.45                             142   -0.6610  104 167 
 RUS  HN ES       1849 47.74                             142   -0.7410  104 167 
 RUS  HZ I        1849 49.17        25.4 0.32            141            104 167 
 SPBC HZ EP       1849 33.19                             130   -0.66 9  154 214 
 SPBC HE ES       1849 54.61                             130   -0.53 9  154 214 
 SPBC HZ I        1849 58.53        94.5 0.36            129            154 214 
 TAM  HZ IP     D 1849 35.59                             126    0.16 9  171 104 
 TAM  HN ES       1849 58.26                             126    0.32 9  171 104 
 TAM  HZ I        1849 58.59        39.5 0.26            129            171 104 
 YPLC HZ EP       1849 37.83                             124    0.87 9  186 147 
 YPLC HN ES       1850  0.53                             124   -0.15 9  186 147 
 YPLC HZ I        1850  2.35        20.5 0.30            125            186 147 
 ZAR  HZ EP       1849 36.80                             123   -0.27 9  188 294 
 ZAR  HN ES       1850  0.28                             123   -0.59 9  188 294 
 ZAR  HZ I        1850  5.61       149.1 0.54            124            188 294 
 NOR  HZ EP       1849 40.08                             119   -0.59 8  222 232 
 NOR  HN ES   4   1850  5.27                             119   -2.01 0  222 232 
 NOR  HZ I        1850 10.84        51.6 0.44            119            222 232 
 TABC EZ EP   4   1849 42.49                             119    1.20 0  223 207 
 TABC EZ ES   4   1850 11.75                             119    3.37 0  223 207 
 TABC EZ I        1850 12.68        48.1 0.48            119            223 207 
 ROSC BZ EP   4   1849 44.68                             116    1.03 0  246 208 
 ROSC BN ES       1850 13.48                             116    0.90 8  246 208 
 ROSC BZ I        1850 19.65        35.0 0.35            116            246 208 
 CHI  HZ EP       1849 43.85                             116    0.14 8  246 191 
 CHI  HN ES       1850 12.49                             116   -0.20 8  246 191 
 CHI  HZ I        1850 16.12        11.8 0.20            117            246 191 
 HEL  HZ EP       1849 45.83                             115    1.04 8  256 255 
 HEL  HN ES       1850 15.19                             115    0.58 8  256 255 
 HEL  HZ I        1850 20.76        45.0 0.24            115            256 255 
 URE  HZ EP   9   1849 44.65                             114   -0.98 0  268 293 
 URE  HN ES   2   1850 14.20                             114   -0.92 4  268 293 
 URE  HZ I        1850 15.80       103.5 0.16            115            268 293 
 GUY2CHZ EP       1849 48.18                             112   -0.35 7  289 233 
 GUY2CHN ES       1850 21.52                             112    0.26 7  289 233 
 GUY2CHZ I        1850 28.34        51.7 0.28                           289 233 
 VIL  EZ EP       1849 49.25                             111   -0.33 7  302 188 
 VIL  EN ES       1850 23.53                             111    0.40 7  302 188 
 VIL  EZ I        1850 30.76        24.9 0.40            112            302 188 
 PTGC HZ EP   4   1849 49.99                             110   -1.08 0  316 156 
 PTGC HN ES   4   1850 22.10                             110   -3.68 0  316 156 
 ELA  HZ EP       1849 52.90                             110    1.01 7  318 227 
 ELA  HN ES   4   1850 28.74                             110    1.50 0  318 227 
 ELA  HZ I        1850 37.87        29.0 0.44            110            318 227 
 DBB  EZ EP       1849 51.78                             110   -0.15 7  323 274 
 DBB  EN ES   4   1850 24.89                             110   -2.43 0  323 274 
 DBB  EZ I        1850 29.92        51.6 0.22            110            323 274 
 LL6C HZ EP       1849 51.92                             109    0.04 7  323   0 
 LL6C HN ES       1850 26.31                             109   -0.91 7  323   0 
 ANIL HZ EP       1849 55.40                             108    0.43 6  347 222 
 ANIL HN ES   4   1850 35.23                             108    2.50 0  347 222 
 ANIL HZ I        1850 39.64        51.8 0.28            109            347 222 
 ARGC HN ES   4   1850 39.06                             108    5.77 0  353 343 
 PRA  HZ EP       1849 58.47                             106   -0.66 6  385 207 
 PRA  HN ES       1850 40.92                             106    0.80 6  385 207 
 PRA  HZ I        1850 48.52        25.9 0.34            106            385 207 
 ORTC HZ EP       1849 58.43                             106   -0.90 6  387 214 
 ORTC HN ES   4   1850 41.83                             106    1.35 0  387 214 
 ORTC HZ I        1850 48.57        12.6 0.50            106            387 214 
 PAL  HZ EP       1849 59.72                             106   -0.27 6  392 238 
 PAL  HN ES   4   1850 40.39                             106   -1.27 0  392 238 
 PAL  HZ I        1850 46.87        10.2 0.66            106            392 238 
 SJC  HZ EP   4   1849 58.89                             105   -1.91 0  399 329 
 SJC  HN ES   4   1850 39.97                             105   -3.14 0  399 329 
                                                                                
