 2010 1226 1555 50.6 L   6.809 -73.177139.2  RSN 13 0.4 2.6LRSN                1
 GAP=133        0.74       2.6     4.3  6.0 -0.1993E+01  0.9863E+01  0.4876E+00E
 Epicentro: LOS SANTOS - SANTANDER                                             3
 ACTION:UP  11-01-14 15:27 OP:pat  STATUS:               ID:20101226155550 L   I
 2010-12-26-1553-28S.COL___133                                                 6
 STAT SP IPHASW D HRMM SECON CODA AMPLIT PERI AZIMU VELO SNR AR TRES W  DIS CAZ7
 BAR2 SZ EP       1556  9.60                             170     0.110   24 182 
 BAR2 SZ ES   1   1556 24.49                             170     0.3 7   24 182 
 BAR2 SZ I        1556 25.53       154.7 0.12                            24 182 
 RUS  HZ EP   1   1556 13.54                             142    -0.3 7  102 174 
 RUS  HE ES   1   1556 31.72                             142    -0.2 7  102 174 
 RUS  HZ I        1556 33.64        44.9 0.45                           102 174 
 GRA  SZ EP   1   1556 15.51                             135     0.2 7  126  19 
 GRA  SZ ES   1   1556 34.59                             135     0.0 7  126  19 
 GRA  SZ I        1556 36.18        94.6 0.52                           126  19 
 OCA  SZ EP       1556 18.17                             128    -0.1 9  159 354 
 OCA  SZ ES   1   1556 39.57                             128    -0.3 7  159 354 
 OCA  SZ I        1556 43.35        76.5 0.27                           159 354 
 YOP  SZ EP   1   1556 20.26                             124    -0.2 7  181 152 
 YOP  SE ES   1   1556 44.20                             124     0.5 7  181 152 
 YOP  SZ I        1556 47.94        21.9 0.43                           181 152 
 NOR  SZ EP   1   1556 25.54                             117    -0.2 6  233 234 
 NOR  SE ES   1   1556 53.24                             117     0.1 6  233 234 
 CHI  HZ EP   2   1556 28.51                             116     0.5 4  249 194 
 CHI  HE ES   2   1556 56.67                             116    -0.4 4  249 194 
 CHI  HZ I        1557  4.33        14.1 0.52                           249 194 
 HEL  HN ES   1   1557  0.74                             114    -0.3 6  269 255 
 HEL  HZ I        1557  8.97        25.0 0.09                           269 255 
 RREF HN ES   2   1557 12.17                             110     0.3 3  320 229 
 RREF HZ I        1557 18.60        21.8 0.10                           320 229 
 DBB  SZ EP   1   1556 37.97                             108     0.5 5  336 274 
 TOL  SZ EP   1   1556 39.49                             108     1.1 5  342 224 
 PRA  HZ EP   1   1556 44.05                             105     0.2 4  391 209 
 PRA  HN ES   1   1557 24.36                             105    -1.0 4  391 209 
 SJA  SZ EP   2   1556 44.03                             105    -1.0 3  400 192 
                                                                                
