 2013  926 1505 31.6 L   6.794 -73.160146.4  RSN 10 0.5 1.8LRSN 2.7WRSN        1
 SPEC AVERAGE  MO 13.2 ST 52.7 OM  1.5 f0 12.3 R2.3064 AL 0.00 WI 20.0 MW  2.7 3
 SPEC SD       MO  0.9 ST113.3 OM  1.0 f0 12.8 R4.7055 AL      WI      MW  0.6 3
 GAP=135        1.26       3.9     5.4  6.9 -0.4743E+01  0.1017E+02  0.1083E+01E
 Epicentro: LOS SANTOS - SANTANDER                                             3
 SPEC BAR2SH Z MO 12.8 ST  3.2 OM  1.0 f0 9.10 R0.2114 AL-0.00 WI 20.0 MW  2.5 3
 SPEC BAR2SH Z T15 6 4 K 0.050 GD  148 VS 5.20 DE 3.20 Q0750.0 QA 1.50 VS 5.20 3
 SPEC BRR HH Z MO 15.2 ST0.003 OM  3.3 f00.150 R 12.83 AL-0.00 WI 20.0 MW  4.1 3
 SPEC BRR HH Z T15 6 8 K 0.050 GD  162 VS 5.20 DE 3.20 Q0750.0 QA 1.50 VS 5.20 3
 SPEC PAM SH Z MO 12.7 ST0.753 OM  0.8 f0 6.27 R0.3069 AL-0.00 WI 20.0 MW  2.4 3
 SPEC PAM SH Z T15 6 9 K 0.050 GD  166 VS 5.20 DE 3.20 Q0750.0 QA 1.50 VS 5.20 3
 SPEC RUS HH Z MO 12.5 ST0.726 OM  0.6 f0 7.07 R0.2721 AL-0.00 WI 20.0 MW  2.3 3
 SPEC RUS HH Z T15 612 K 0.050 GD  177 VS 5.20 DE 3.20 Q0750.0 QA 1.50 VS 5.20 3
 SPEC PTB HH Z MO 12.9 ST306.0 OM  0.9 f0 40.0 R0.0481 AL-0.00 WI 20.0 MW  2.5 3
 SPEC PTB HH Z T15 617 K 0.050 GD  206 VS 5.20 DE 3.20 Q0750.0 QA 1.50 VS 5.20 3
 SPEC NOR HH Z MO 12.8 ST  5.5 OM  0.7 f0 11.1 R0.1733 AL-0.00 WI 20.0 MW  2.5 3
 SPEC NOR HH Z T15 633 K 0.050 GD  275 VS 5.20 DE 3.20 Q0750.0 QA 1.50 VS 5.20 3
 SPECGUY2CHH Z MO 13.0 ST  0.1 OM  0.8 f0 2.71 R 0.710 AL-0.00 WI 20.0 MW  2.6 3
 SPECGUY2CHH Z T15 647 K 0.050 GD333.8 VS 5.20 DE 3.20 Q0750.0 QA 1.50 VS 5.20 3
 OLDACT:REG 13-09-26 15:53 OP:stll STATUS:               ID:20130926145848     3
 ACTION:UPD 13-10-22 09:25 OP:ep   STATUS:               ID:20130926150531 L   I
 OLDACT:UP  13-09-26 19:31 OP:stll STATUS:               ID:20130926145848     3
 2013-09-26-1458-48M.COL___229                                                 6
 STAT SP IPHASW D HRMM SECON CODA AMPLIT PERI AZIMU VELO AIN AR TRES W  DIS CAZ7
 BAR2 SZ EP       15 5 51.19                             171   -0.0910 22.4 186 
 BAR2 SZ ES       15 6  6.19                             171   -0.4410 22.4 186 
 BAR2 SZ I        15 6  8.66         8.6 0.20            171           22.4 186 
 BRR  HZ EP       15 5 53.34                             153    0.5910 70.2 300 
 BRR  HN ES       15 6 10.39                             153    1.1310 70.2 300 
 BRR  SZ I        15 6 13.61        11.9 0.34            153           70.2 300 
 PAM  SZ EP       15 5 54.04                             150    0.0810 78.9  40 
 PAM  SN ES       15 6 11.43                             150    0.0210 78.9  40 
 PAM  SZ I        15 6 13.23        12.8 0.50            153           78.9  40 
 RUS  HZ EP       15 5 55.22                             144   -0.1410  100 175 
 RUS  HN ES       15 6 13.95                             144    0.0510  100 175 
 RUS  SZ I        15 6 14.88         8.9 0.96            146            100 175 
 PTB  HZ EP       15 5 58.73                             132    0.27 9  146 259 
 PTB  HN ES       15 6 19.08                             132   -0.34 9  146 259 
 PTB  SZ I        15 6 21.21         8.2 0.66            133            146 259 
 PTB  HZ I        15 6 21.42         9.0 0.16                           146 259 
 SPBC HN ES       15 6 21.44                             129   -0.71 9  162 219 
 NOR  HZ EP       15 6  7.62                             119    0.44 8  233 234 
 NOR  HN ES       15 6 34.96                             119    0.02 8  233 234 
 NOR  SZ I        15 6 39.51         6.8 0.16            120            233 234 
 SML  HZ EP       15 6  7.49                             118   -0.76 8  244 336 
 SML  HN ES       15 6 35.91                             118   -0.93 8  244 336 
 SML  SZ I        15 6 40.48         9.9 0.08            119            244 336 
 CHI  HZ EP       15 6  9.25                             117    0.05 8  248 195 
 CHI  HN ES       15 6 38.39                             117   -0.16 8  248 195 
 CHI  HZ I        15 6 44.05         3.1 0.32            119            248 195 
 GUY2CHZ EP       15 6 15.99                             113    0.95 7  300 235 
 GUY2CHN ES       15 6 48.52                             113   -0.41 7  300 235 
 GUY2CSZ I        15 6 56.51         4.6 0.68                           300 235 
                                                                                
