 2017  826 1306 30.2 L   6.813 -73.048146.0  RSN  4 0.2 1.2LRSN                1
 GAP=248        0.51       3.2     4.9  4.7  0.4071E+01 -0.2501E+01  0.1282E-01E
 Epicentro: LOS SANTOS - SANTANDER                                             3
 ACTION:UPD 17-09-04 20:24 OP:rebc STATUS:               ID:20170826130630 L   I
 OLDACT:REG 17-08-26 20:48 OP:edw  STATUS:               ID:20170826125741     3
 2017-08-26-1258-00M.COL___408                                                 6
 STAT SP IPHASW D HRMM SECON CODA AMPLIT PERI AZIMU VELO AIN AR TRES W  DIS CAZ7
 BAR2 EZ EP       13 6 49.88                             168   -0.1210 28.5 211 
 BAR2 EZ ES       13 7  5.66                             168    0.2410 28.5 211 
 BAR2 EZ I        13 7  6.36         6.2 0.34            169           28.5 211 
 BRR  HZ EP       13 6 51.88                             150   -0.0510 80.2 294 
 BRR  HN ES       13 7  8.79                             150   -0.0710 80.2 294 
 RUS  HZ EP       13 6 54.30                             143    0.2110  102 182 
 RUS  HN ES       13 7 12.43                             143   -0.2710  102 182 
 RUS  HZ I        13 7 13.92         1.4 0.32            144            102 182 
 SPBC HE ES       13 7 22.42                             128    0.07 9  171 222 
                                                                                
