 2010  926 1609 37.4 L   6.780 -73.074139.9  RSN  5 0.2 1.4LRSN                1
 GAP=167        0.62       4.3     9.5 11.3  0.1569E+02 -0.7189E+02 -0.2527E+02E
 Epicentro: LOS SANTOS - SANTANDER                                             3
 ACTION:UP  11-02-18 11:05 OP:tino STATUS:               ID:20100926160937 L   I
 2010-09-26-1606-58S.COL___122                                                 6
 STAT SP IPHASW D HRMM SECON CODA AMPLIT PERI AZIMU VELO SNR AR TRES W  DIS CAZ7
 BTL  SZ EP       16 9 56.60                             169     0.210   26 305 
 BRR  HZ EP       16 9 58.20                             149    -0.210   79 297 
 BRR  HZ I        16 9 58.67         7.0 0.09                            79 297 
 BRR  HE ES   1   1610 14.85                             149     0.1 7   79 297 
 RUS  HZ EP       1610  0.47                             143     0.110   98 181 
 RUS  HE ES   1   1610 18.09                             143    -0.2 7   98 181 
 RUS  HZ I        1610 20.05         1.8 0.42                            98 181 
 GUE  SZ EP       1610  1.31                             138    -0.310  117   8 
 GRA  SZ EP       1610  2.25                             136     0.210  126  14 
 GRA  SZ I        1610  3.65         5.4 0.22                           126  14 
                                                                                
