 2017  826 1609 42.5 L   6.803 -73.191132.8  RSN  4 0.3 1.4LRSN                1
 GAP=131        0.70       4.8     7.9  6.8  0.1937E+02 -0.2278E+02 -0.1038E+02E
 Epicentro: ZAPATOCA - SANTANDER                                               3
 ACTION:UPD 17-09-04 20:24 OP:rebc STATUS:               ID:20170826160942 L   I
 OLDACT:REG 17-08-26 21:06 OP:edw  STATUS:               ID:20170826160742     3
 2017-08-26-1608-00M.COL___408                                                 6
 STAT SP IPHASW D HRMM SECON CODA AMPLIT PERI AZIMU VELO AIN AR TRES W  DIS CAZ7
 BAR2 EZ ES       1610 14.97                             170    0.2910 23.3 178 
 BAR2 EZ I        1610 16.74         2.8 0.44            172           23.3 178 
 BRR  HZ EP       1610  2.40                             152    0.3910 66.7 300 
 BRR  HN ES       1610 16.89                             152   -0.3210 66.7 300 
 BRR  HN I        1610 20.29        12.9 0.24            152           66.7 300 
 PAM  EZ EP       1610  3.42                             147   -0.1410 80.4  42 
 RUS  HZ EP       1610  4.95                             141   -0.1210  101 173 
 RUS  HN ES       1610 22.56                             141   -0.1010  101 173 
                                                                                
