 2015  926 1126 10.0 L   6.814 -73.146147.8  RSN 14 0.4 2.2LRSN                1
 GAP=136        0.90       2.5     3.5  5.0 -0.1993E+01  0.3460E+01  0.1233E+01E
 Epicentro: LOS SANTOS - SANTANDER                                             3
 ACTION:UPD 15-10-28 16:28 OP:cam  STATUS:               ID:20150926112610 L   I
 OLDACT:REG 15-09-26 20:16 OP:spq  STATUS:               ID:20150926111747     3
 2015-09-26-1117-47M.COL___355                                                 6
 STAT SP IPHASW D HRMM SECON CODA AMPLIT PERI AZIMU VELO AIN AR TRES W  DIS CAZ7
 BAR2 EZ EP       1126 29.92                             170    0.0210 24.8 189 
 BAR2 EZ ES   1   1126 44.82                             170   -0.60 7 24.8 189 
 BAR2 EZ I        1126 46.11        27.2 0.32            170           24.8 189 
 BRR  HZ EP       1126 31.63                             153    0.3110 70.4 297 
 BRR  HN ES       1126 48.76                             153    0.8110 70.4 297 
 BRR  HZ I        1126 52.94        19.4 0.10            151           70.4 297 
 PAM  EZ EP       1126 32.93                             152    0.5710 76.2  40 
 PAM  EN ES       1126 49.85                             152    0.0510 76.2  40 
 PAM  EZ I        1126 52.06        28.3 0.50            154           76.2  40 
 RUS  HZ EP   1   1126 33.85                             144   -0.20 7  102 176 
 RUS  HN ES   1   1126 53.09                             144    0.27 7  102 176 
 RUS  HZ I        1126 53.67        11.2 0.26            146            102 176 
 PTB  HZ EP       1126 36.69                             132   -0.46 9  148 258 
 PTB  HN ES       1126 57.79                             132   -0.54 9  148 258 
 PTB  HZ I        1126 59.71        10.7 0.18            132            148 258 
 OCA  HZ EP       1126 37.89                             130   -0.43 9  159 353 
 OCA  HN ES       1126 59.88                             130   -0.53 9  159 353 
 OCA  HZ I        1127  8.42        26.2 0.22            131            159 353 
 SPBC HZ EP       1126 38.96                             129    0.20 9  164 219 
 SPBC HN ES       1127  0.60                             129   -0.59 9  164 219 
 SPBC HZ I        1127  4.17        24.6 0.10            130            164 219 
 ZAR  HZ EP       1126 42.48                             123   -0.02 9  203 292 
 ZAR  HN ES       1127  7.99                             123    0.13 9  203 292 
 ZAR  HZ I        1127 13.05        13.3 0.30            123            203 292 
 NOR  HZ EP       1126 46.07                             119    0.14 8  236 234 
 NOR  HE ES       1127 14.19                             119    0.23 8  236 234 
 NOR  HZ I        1127 21.82         9.9 0.16            120            236 234 
 SML  HZ EP       1126 46.62                             118    0.04 8  242 335 
 SML  HN ES   1   1127 15.06                             118   -0.05 6  242 335 
 SML  HZ I        1127 17.96        22.8 0.06            119            242 335 
 CHI  HZ EP       1126 48.12                             117    0.16 8  250 195 
 CHI  HN ES       1127 17.39                             117   -0.19 8  250 195 
 CHI  HZ I        1127 20.92        10.3 0.60            119            250 195 
 HEL  HN ES   1   1127 22.06                             115    0.24 6  272 255 
 HEL  HZ I        1127 27.97         7.2 0.26            116            272 255 
 GUY2CHZ EP   4   1126 54.96                             113    1.17 0  302 235 
 GUY2CHE ES   1   1127 28.23                             113    0.28 5  302 235 
 GUY2CHZ I        1127 33.94         5.6 0.30                           302 235 
 ORTC HZ EP   1   1127  3.71                             107   -0.41 4  397 216 
 ORTC HE ES   1   1127 47.12                             107    0.78 4  397 216 
 ORTC HZ I        1127 51.27         4.8 0.32            108            397 216 
                                                                                
