 2016  226 1318 32.4 L   6.770 -73.131145.8  RSN  9 0.4 2.0LRSN                1
 GAP=140        1.10       4.1     4.6  6.7 -0.2695E+01  0.1099E+02  0.2133E+01E
 Epicentro: LOS SANTOS - SANTANDER                                             3
 ACTION:UPD 16-03-04 21:29 OP:rebc STATUS:               ID:20160226131832 L   I
 OLDACT:UP  16-02-26 23:23 OP:drio STATUS:               ID:20160226130750     3
 OLDACT:REG 16-02-26 21:03 OP:drio STATUS:               ID:20160226130750     3
 2016-02-26-1307-50M.COL___318                                                 6
 STAT SP IPHASW D HRMM SECON CODA AMPLIT PERI AZIMU VELO AIN AR TRES W  DIS CAZ7
 BAR2 EZ EP       1318 51.79                             172   -0.1510 20.4 196 
 BAR2 EZ ES       1319  6.78                             172   -0.4310 20.4 196 
 BAR2 EZ I        1319  8.69        20.8 0.18            169           20.4 196 
 PAM  EZ EP       1318 54.92                             150    0.2410 79.0  37 
 PAM  EE ES       1319 12.34                             150    0.2610 79.0  37 
 PAM  EZ I        1319 15.08         7.5 0.54            156           79.0  37 
 RUS  HZ EP       1318 55.62                             145   -0.2510 97.1 177 
 RUS  HN ES       1319 14.53                             145    0.3310 97.1 177 
 RUS  HZ I        1319 15.79         9.6 0.24            146           97.1 177 
 PTB  HZ EP       1318 58.52                             132   -0.90 9  149 260 
 PTB  HN ES       1319 19.82                             132   -0.70 9  149 260 
 PTB  HZ I        1319 24.59        11.1 0.14            132            149 260 
 SPBC HZ EP       1319  0.66                             129   -0.05 9  162 220 
 SPBC HE ES       1319 23.31                             129    0.48 9  162 220 
 SPBC HZ I        1319 29.53        23.7 0.32            130            162 220 
 ZAR  HZ EP       1319  4.88                             122   -0.21 8  207 293 
 ZAR  HN ES       1319 31.52                             122    0.90 8  207 293 
 ZAR  HZ I        1319 38.10        10.8 0.58            123            207 293 
 NOR  HZ EP       1319  7.96                             119   -0.06 8  234 235 
 NOR  HE ES       1319 36.13                             119    0.29 8  234 235 
 NOR  HZ I        1319 42.48        10.4 0.22            120            234 235 
 CHI  HZ EP       1319  9.72                             117   -0.03 8  246 196 
 CHI  HN ES       1319 38.98                             117    0.06 8  246 196 
 CHI  HZ I        1319 47.05         2.9 0.30            119            246 196 
 GUY2CHZ EP       1319 16.61                             112    0.71 7  301 235 
 GUY2CHE ES   4   1319 51.24                             112    1.38 0  301 235 
 GUY2CHZ I        1319 57.91         6.6 0.26                           301 235 
                                                                                
