 2012  526 1800 39.4 L   6.839 -73.182145.9  RSN  5 0.1 1.4LRSN                1
 GAP=130        0.33       3.8     4.2  5.0  0.3476E+01  0.1149E+02  0.1718E+01E
 Epicentro: ZAPATOCA - SANTANDER                                               3
 ACTION:UP  12-07-05 12:08 OP:pat  STATUS:               ID:20120526180039 L   I
 2012-05-26-1800-00M.COL___197                                                 6
 STAT SP IPHASW D HRMM SECON CODA AMPLIT PERI AZIMU VELO SNR AR TRES W  DIS CAZ7
 BAR2 SZ EP   1   18 0 59.26                             169     0.2 7   27 180 
 BAR2 SZ ES   1   18 1 14.44                             169     0.0 7   27 180 
 BAR2 SZ I        18 1 15.56         9.1 0.25                            27 180 
 PAM  SN ES   2   18 1 18.79                             151    -0.1 5   77  44 
 RUS  HZ EP   2   18 1  3.41                             142    -0.1 5  105 174 
 RUS  HZ I        18 1  4.24         2.4 0.10                           105 174 
 RUS  HE ES   2   18 1 22.28                             142     0.0 5  105 174 
 PTB  HZ EP   1   18 1  5.94                             133    -0.1 7  145 257 
 ZAR  HN ES   2   18 1 36.24                             123     0.1 4  199 291 
                                                                                
