 2010  726 1347 27.9 L   6.398 -73.606107.5  RSN 12 0.4 2.8LRSN                1
 GAP= 88        0.71       3.0     5.2  7.4 -0.7417E+01  0.1929E+02 -0.2127E+01E
 Epicentro: SANTA HELENA DEL OPON - SANTANDER                                  3
 ACTION:UPD 10-12-01 15:20 OP:pat  STATUS:               ID:20100726134727 L   I
 2010-07-26-1343-15S.COL___123                                                 6
 STAT SP IPHASW D HRMM SECON CODA AMPLIT PERI AZIMU VELO AIN AR TRES W  DIS CAZ7
 BAR2 SZ IP     D 1347 44.27                             152     0.110   51  65 
 BAR2 SZ ES   2   1347 56.81                             152     0.0 5   51  65 
 BRR  HZ EP   1   1347 45.20                             141    -0.5 7   79 352 
 BRR  HZ I        1347 45.51       182.6 0.16                            79 352 
 BRR  HN ES   2   1347 59.30                             141    -0.3 5   79 352 
 RUS  HZ EP   1   1347 46.34                             140    -0.1 7   80 134 
 RUS  HE ES   2   1348  0.84                             140    -0.1 5   80 134 
 RUS  HZ I        1348  2.51       130.9 0.36                            80 134 
 BRI  SZ EP   1   1347 55.38                             117     0.6 7  171  31 
 GUE  SZ EP   1   1347 55.01                             117    -0.4 7  175  25 
 GRA  SZ EP   1   1347 56.43                             115     0.0 7  187  28 
 GRA  SZ ES   2   1348 19.72                             115     1.0 4  187  28 
 CHI  HZ EP   1   1347 57.70                             114    -0.1 6  196 184 
 CHI  HE ES   2   1348 21.65                             114     0.5 4  196 184 
 CHI  HZ I        1348 29.91        29.7 0.69                           196 184 
 OCA  SZ EP   1   1347 58.52                             112    -0.1 6  206   9 
 OCA  SZ ES   2   1348 22.94                             112     0.4 4  206   9 
 OCA  SZ I        1348 28.87        83.1 0.23                           206   9 
 HEL  HZ EP   1   1347 59.78                             111     0.0 6  214 264 
 HEL  HZ I        1348 27.06        32.7 0.24                           214 264 
 RREF HZ EP   1   1348  4.28                             107    -0.5 6  254 229 
 RREF HN ES   2   1348 34.30                             107     0.8 4  254 229 
 RREF HZ I        1348 39.06        32.4 0.22                           254 229 
 ANIL HZ EP   1   1348  8.76                             104     0.2 5  290 223 
 ANIL HE ES   2   1348 40.63                             104     0.4 4  290 223 
 ANIL HZ I        1348 45.69        94.4 0.17                           290 223 
 PRA  HZ EP   1   1348 12.39                             102    -0.4 5  329 206 
 PRA  HE ES   2   1348 48.10                             102     0.2 3  329 206 
 PRA  HZ I        1348 56.63        44.1 0.39                           329 206 
                                                                                
