 2013 1126 1829 42.7 L   6.798 -73.154151.4  RSN  6 0.4 2.1LRSN                1
 GAP=148        1.01       7.3     4.9  7.2 -0.1006E+02  0.9801E+01  0.1095E+01E
 Epicentro: LOS SANTOS - SANTANDER                                             3
 ACTION:UPD 14-01-09 16:31 OP:ep   STATUS:               ID:20131126182942 L   I
 OLDACT:UP  13-11-26 16:41 OP:cam  STATUS:               ID:20131126182844     3
 OLDACT:REG 13-11-26 16:38 OP:cam  STATUS:               ID:20131126182844     3
 2013-11-26-1828-44M.COL___240                                                 6
 STAT SP IPHASW D HRMM SECON CODA AMPLIT PERI AZIMU VELO AIN AR TRES W  DIS CAZ7
 BAR2 SZ EP       1830  2.96                             171   -0.0610 22.9 188 
 BAR2 SZ ES       1830 19.22                             171    0.3710 22.9 188 
 BAR2 SZ I        1830 19.50        32.2 0.22            170           22.9 188 
 BRR  HZ EP       1830  4.67                             154    0.2310 70.5 299 
 BRR  HN ES       1830 21.95                             154    0.5710 70.5 299 
 PAM  SZ EP       1830  5.80                             152    0.2110 78.2  40 
 PAM  SE ES       1830 22.73                             152   -0.6910 78.2  40 
 PAM  SZ I        1830 24.30        13.0 0.38            154           78.2  40 
 PTB  HZ EP       1830  9.63                             133   -0.44 9  147 259 
 PTB  HN ES       1830 30.75                             133   -0.64 9  147 259 
 ZAR  HZ EP       1830 15.70                             124    0.24 9  203 292 
 ZAR  HN ES       1830 41.03                             124    0.04 9  203 292 
 ZAR  HZ I        1830 46.20        12.8 0.24            123            203 292 
 NOR  HZ EP   2   1830 19.37                             120    0.68 4  234 234 
 NOR  HN ES   1   1830 46.77                             120    0.04 6  234 234 
 NOR  HZ I        1830 52.53         8.6 0.20            119            234 234 
                                                                                
