 2010  826 1602 53.6 L   6.728 -73.099145.6  RSN  5 0.3 2.0LRSN                1
 GAP=170        0.94       6.3    12.4 10.6  0.2952E+02 -0.6191E+02 -0.1594E+02E
 Epicentro: JORDAN - SANTANDER                                                 3
 ACTION:UP  10-09-07 10:58 OP:vdl  STATUS:               ID:20100826160253 L   I
 2010-08-26-1558-22S.COL___120                                                 6
 STAT SP IPHASW D HRMM SECON CODA AMPLIT PERI AZIMU VELO SNR AR TRES W  DIS CAZ7
 BAR2 SZ EP       16 3 12.89                             174    -0.310   18 212 
 BAR2 SZ ES   2   16 3 28.46                             174     0.1 5   18 212 
 BAR2 SZ I        16 3 29.46        24.1 0.09                            18 212 
 BRR  HZ EP       16 3 14.70                             151    -0.610   80 302 
 BRR  HN ES       16 3 32.34                             151     0.210   80 302 
 BRR  HZ I        16 3 34.88        22.1 0.60                            80 302 
 RUS  HZ EP       16 3 16.82                             147     0.010   92 179 
 RUS  HN ES   1   16 3 35.04                             147     0.2 7   92 179 
 RUS  HZ I        16 3 36.76         7.5 0.17                            92 179 
 GUE  SZ EP       16 3 19.33                             138     0.410  123   9 
 PRA  HN ES   2   16 4 28.61                             107     0.6 3  388 211 
 PRA  HZ I        16 4 34.78         5.0 0.80                           388 211 
                                                                                
