 2010  926 1221 12.9 L   6.812 -73.075141.2  RSN  8 0.3 1.8LRSN                1
 GAP=166        0.78       3.9     9.0  7.4  0.9921E+00 -0.1503E+02 -0.7289E+01E
 Epicentro: LOS SANTOS - SANTANDER                                             3
 ACTION:UP  11-02-18 11:05 OP:tino STATUS:               ID:20100926122112 L   I
 2010-09-26-1219-24S.COL___122                                                 6
 STAT SP IPHASW D HRMM SECON CODA AMPLIT PERI AZIMU VELO SNR AR TRES W  DIS CAZ7
 BTL  SZ EP       1221 32.21                             170     0.210   24 299 
 BAR2 SZ EP       1221 31.81                             169    -0.210   27 206 
 BAR2 SZ ES   1   1221 46.70                             169    -0.3 7   27 206 
 BAR2 SZ I        1221 47.91        16.1 0.28                            27 206 
 GIR2 SZ EP   1   1221 32.82                             166     0.8 7   32 336 
 BRR  HZ IP     D 1221 33.65                             150    -0.310   78 295 
 BRR  HZ I        1221 33.80        20.3 0.17                            78 295 
 BRR  HN ES   1   1221 50.50                             150     0.2 7   78 295 
 RUS  HZ EP       1221 36.38                             142     0.110  102 181 
 RUS  HE ES   1   1221 54.36                             142    -0.1 7  102 181 
 RUS  HZ I        1221 55.90         9.5 0.40                           102 181 
 GUE  SZ EP       1221 36.92                             139     0.010  114   8 
 GRA  SZ ES   1   1221 56.54                             137     0.0 7  122  14 
 GRA  SZ I        1221 58.45         7.5 0.30                           122  14 
 OCA  SZ EP       1221 40.54                             129    -0.3 9  160 350 
 OCA  SZ ES   3   1222  2.90                             129     0.3 2  160 350 
 OCA  SZ I        1222  5.18        10.0 0.29                           160 350 
                                                                                
