 2011 1026 1219 57.2 L   6.772 -73.143148.7  RSN 23 0.4 3.9LRSN                1
 GAP=115        0.70       2.7     3.5  4.1 -0.1573E+01  0.5785E+01  0.2233E+01E
 Epicentro: LOS SANTOS - SANTANDER                                             3
 ACTION:UPD 12-07-13 16:06 OP:ep   STATUS:               ID:20111026121957 L   I
 2011-10-26-1220-00M.COL___177                                                 6
 STAT SP IPHASW D HRMM SECON CODA AMPLIT PERI AZIMU VELO AIN AR TRES W  DIS CAZ7
 BAR2 SZ IP       1220 17.20                             172    0.0810 20.4 192 
 BAR2 SZ ES   1   1220 32.07                             172   -0.59 7 20.4 192 
 BAR2 SZ I        1220 35.07      1650.6 0.40                          20.4 192 
 BTL  SZ EP       1220 17.38                             171    0.2410 21.3 320 
 GIR2 SZ IP       1220 17.24                             166   -0.0610 34.4 351 
 GIR2 SZ ES   3   1220 32.99                             166    0.01 2 34.4 351 
 BRR  HZ IP     D 1220 18.99                             152    0.2310 73.0 301 
 BRR  HN ES   1   1220 36.21                             152    0.63 7 73.0 301 
 BRR  HZ I        1220 40.03      1012.4 0.50                          73.0 301 
 PAM  SZ IP       1220 19.98                             150    0.1310 79.6  38 
 PAM  SN ES   1   1220 37.08                             150   -0.44 7 79.6  38 
 RUS  HZ IP     D 1220 20.95                             145   -0.0710 97.5 176 
 RUS  HN ES   1   1220 39.45                             145   -0.15 7 97.5 176 
 BRI  SZ IP       1220 21.70                             141    0.1310  111  20 
 OCA  SZ IP       1220 25.64                             130   -0.38 9  163 353 
 OCA  SZ I        1220 54.55       679.0 0.30                           163 353 
 YOP  SZ IP       1220 27.62                             127    0.45 9  176 153 
 YOP  SE ES   3   1220 50.11                             127   -0.44 2  176 153 
 ZAR  HZ EP       1220 29.81                             123   -0.18 8  206 293 
 ZAR  HE ES   3   1220 54.87                             123   -0.69 2  206 293 
 ZAR  HZ I        1221  3.54       367.4 0.50                           206 293 
 NOR  SZ EP       1220 32.88                             119   -0.06 8  233 235 
 NOR  SN ES   2   1221  0.54                             119   -0.27 4  233 235 
 HEL  HZ EP       1220 37.14                             115   -0.37 8  272 256 
 HEL  HN ES   3   1221  9.25                             115    0.29 2  272 256 
 HEL  HZ I        1221 15.44       275.1 0.28                           272 256 
 VIL  SZ EP       1220 40.03                             113   -0.39 7  300 192 
 VIL  SN ES   2   1221 14.84                             113    0.71 4  300 192 
 VIL  SZ I        1221 25.08       250.1 0.42                           300 192 
 GUY  SZ EP       1220 40.95                             113   -0.09 7  302 236 
 GUY  SE ES   2   1221 15.30                             113    0.07 4  302 236 
 GUY  SZ I        1221 27.83       504.9 0.44                           302 236 
 RREF HZ EP       1220 42.50                             111   -0.77 7  320 230 
 RREF HZ I        1221 29.57       355.3 0.30                           320 230 
 DBB  SZ EP       1220 45.49                             110    0.63 7  340 275 
 TOL  SZ EP       1220 45.67                             110    0.32 7  342 225 
 ANIL HZ EP       1220 47.64                             109    0.75 6  355 225 
 ANIL HN ES   1   1221 25.52                             109   -0.13 5  355 225 
 ANIL HZ I        1221 31.07       714.6 0.32                           355 225 
 PRA  HZ EP       1220 50.29                             107   -0.24 6  390 210 
 PAL  HZ EP   1   1220 52.64                             106    0.33 4  404 239 
 GUA  SZ EP   3   1220 58.00                             104   -2.06 1  471 173 
 CAP2 HZ EP   3   1221  2.36                             102   -2.26 1  509 294 
 HORQ SZ EP   2   1221  6.46                             102   -1.02 2  530 227 
                                                                                
