 2014  226 1037 12.9 L   6.803 -73.193144.0  RSN  5 0.2 1.1LRSN                1
 GAP=131        0.47       2.2     4.0  4.4  0.4368E+00  0.5773E+01 -0.1692E+01E
 Epicentro: ZAPATOCA - SANTANDER                                               3
 ACTION:UPD 14-03-10 08:13 OP:ep   STATUS:               ID:20140226103712 L   I
 OLDACT:UP  14-02-26 19:30 OP:cam  STATUS:               ID:20140226103548     3
 OLDACT:REG 14-02-26 19:19 OP:cam  STATUS:               ID:20140226103548     3
 2014-02-26-1035-48M.COL___223                                                 6
 STAT SP IPHASW D HRMM SECON CODA AMPLIT PERI AZIMU VELO AIN AR TRES W  DIS CAZ7
 BAR2 SZ EP       1037 32.41                             170    0.1110 23.3 177 
 BAR2 SZ ES       1037 47.24                             170   -0.2010 23.3 177 
 PAM  SZ EP   1   1037 35.30                             149    0.20 7 80.6  43 
 PAM  SN ES       1037 52.40                             149   -0.0410 80.6  43 
 PAM  SZ I        1037 54.43         3.0 0.52            151           80.6  43 
 RUS  HZ EP       1037 36.63                             143    0.1110  101 173 
 RUS  HE ES   1   1037 54.90                             143   -0.06 7  101 173 
 RUS  HZ I        1037 58.19         0.8 0.56            146            101 173 
 PTB  HN ES   2   1037 59.90                             132    0.09 5  143 258 
 SML  HZ EP   2   1037 48.27                             117   -0.87 4  241 336 
 SML  HN ES       1038 17.52                             117    0.10 8  241 336 
 SML  HZ I        1038 27.02         2.0 0.10            117            241 336 
                                                                                
