 2011 1226 1008 17.6 L   6.760 -73.168140.0  RSN  7 0.4 1.4LRSN                1
 GAP=135        0.73       5.0     6.9 10.0 -0.1642E+01  0.9788E+01 -0.1271E+01E
 Epicentro: LOS SANTOS - SANTANDER                                             3
 ACTION:UPD 12-07-13 16:18 OP:ep   STATUS:               ID:20111226100817 L   I
 2011-12-26-1006-35S.COL___151                                                 6
 STAT SP IPHASW D HRMM SECON CODA AMPLIT PERI AZIMU VELO AIN AR TRES W  DIS CAZ7
 BAR2 SZ EP   1   10 8 36.52                             172    0.06 7 18.7 185 
 BAR2 SZ I        10 8 36.99         5.8 0.10                          18.7 185 
 GIR2 SZ EP   1   10 8 36.79                             165    0.07 7 35.3 355 
 BRR  HZ EP       10 8 38.64                             151    0.5010 71.3 303 
 BRR  HZ I        10 8 38.96        10.6 0.10                          71.3 303 
 BRR  HN ES   2   10 8 54.68                             151    0.52 5 71.3 303 
 PAM  SN ES   2   10 8 56.20                             148   -0.42 5 82.3  39 
 RUS  HZ EP   1   10 8 40.76                             144    0.26 7 96.4 174 
 RUS  HE ES   2   10 8 57.85                             144   -0.50 5 96.4 174 
 RUS  HZ I        10 9  0.19         1.9 0.32                          96.4 174 
 PTB  HZ EP   1   10 8 43.33                             131   -0.49 7  145 260 
 PTB  HN ES   2   10 9  3.70                             131   -0.55 5  145 260 
 OCA  SZ EP   1   10 8 45.41                             128   -0.46 7  164 354 
 OCA  SZ ES   2   10 9  7.70                             128   -0.21 5  164 354 
                                                                                
