 2012  326 1425 12.2 L   6.770 -73.130151.0  RSN  6 0.3 1.6LRSN                1
 GAP=140        0.71       6.0     5.2  7.9 -0.3106E+00  0.5459E+01  0.1072E+02E
 ACTION:UP  12-03-31 23:23 OP:EP   STATUS:               ID:20120326142000 L   I
 2012-03-26-1420-00M.COL___196                                                 6
 STAT SP IPHASW D HRMM SECON CODA AMPLIT PERI AZIMU VELO SNR AR TRES W  DIS CAZ7
 BAR2 SZ EP   1   1425 32.38                             172    -0.1 7   20 196 
 BAR2 SZ ES   2   1425 47.92                             172    -0.3 5   20 196 
 BAR2 SZ I        1425 49.27        18.6 0.26                            20 196 
 BRR  HZ EP   1   1425 34.35                             152     0.2 7   74 300 
 BRR  HE ES   1   1425 51.70                             152     0.5 7   74 300 
 PAM  SZ EP   1   1425 35.42                             151     0.3 7   79  37 
 PAM  SE ES   1   1425 52.49                             151    -0.5 7   79  37 
 RUS  HZ EP   1   1425 36.44                             146     0.2 7   97 177 
 RUS  HN ES   2   1425 55.20                             146     0.2 5   97 177 
 RUS  HZ I        1425 56.38         4.0 0.34                            97 177 
 PTB  HZ EP   1   1425 39.25                             133    -0.5 7  149 260 
 PTB  HN ES   2   1426  0.83                             133    -0.4 5  149 260 
 PTB  HZ I        1426  3.68         3.1 0.30                           149 260 
 ZAR  HN ES   2   1426 10.98                             123    -0.1 4  207 293 
 ZAR  HZ I        1426 16.44         4.2 0.40                           207 293 
                                                                                
