 2013  626 1402 31.7 L   6.809 -73.145148.0  RSN  8 0.5 1.7LRSN                1
 GAP=136        0.97       4.3     5.8  7.3 -0.8328E+00  0.9446E+01 -0.2290E+01E
 Epicentro: LOS SANTOS - SANTANDER                                             3
 ACTION:UPD 14-01-08 09:57 OP:ep   STATUS:               ID:20130626140231 L   I
 OLDACT:REG 13-06-26 15:45 OP:carl STATUS:               ID:20130626135960d    3
 2013-06-26-1359-59M.COL___267                                                 6
 STAT SP IPHASW D HRMM SECON CODA AMPLIT PERI AZIMU VELO AIN AR TRES W  DIS CAZ7
 BAR2 SZ EP   1   14 2 51.79                             170    0.20 8 24.3 190 
 BAR2 SZ ES   1   14 3  6.88                             170   -0.24 8 24.3 190 
 BAR2 SZ I        14 3  8.22        10.9 0.18            169           24.3 190 
 GIR2 SZ EP   1   14 2 51.77                             168    0.18 8 30.3 350 
 GIR2 SZ ES   1   14 3  7.10                             168   -0.01 8 30.3 350 
 BRR  HZ EP   1   14 2 53.59                             153    0.55 8 70.8 298 
 BRR  HN ES   1   14 3 10.79                             153    1.09 8 70.8 298 
 BRR  HN I        14 3 14.74        29.1 0.34            152           70.8 298 
 PAM  SZ EP   1   14 2 54.46                             151    0.38 8 76.6  40 
 PAM  SN ES   1   14 3 11.27                             151   -0.28 8 76.6  40 
 PAM  SZ I        14 3 12.34         5.8 0.18            156           76.6  40 
 RUS  HZ EP       14 2 55.84                             144    0.1310  102 176 
 RUS  HN ES   1   14 3 13.78                             144   -0.68 7  102 176 
 RUS  HZ I        14 3 15.87         2.8 0.22            146            102 176 
 PTB  HZ EP   1   14 2 58.40                             132   -0.45 7  148 258 
 PTB  HN ES   1   14 3 19.55                             132   -0.49 7  148 258 
 PTB  HZ I        14 3 22.55         7.4 0.16            133            148 258 
 NOR  HE ES   1   14 3 35.95                             119    0.33 6  235 234 
 NOR  HZ I        14 3 39.00         4.4 0.14            120            235 234 
 SML  HZ EP   1   14 3  8.32                             118   -0.01 6  243 335 
 SML  HN ES       14 3 36.21                             118   -0.72 8  243 335 
                                                                                
