 2011  526 1955 15.3 L   6.810 -73.074138.8  RSN  4 0.3 1.6LRSN                1
 GAP=192        0.52       8.0    10.5 11.3 -0.5736E+02 -0.5942E+02  0.4273E+02E
 Epicentro: LOS SANTOS - SANTANDER                                             3
 ACTION:UP  11-06-29 08:56 OP:tino STATUS:               ID:20110526195515 L   I
 2011-05-26-1951-36S.COL___113                                                 6
 STAT SP IPHASW D HRMM SECON CODA AMPLIT PERI AZIMU VELO SNR AR TRES W  DIS CAZ7
 BAR2 SZ EP   1   1955 34.11                             168     0.0 8   27 207 
 BRR  HZ EP   2   1955 35.52                             149    -0.5 5   78 295 
 BRR  HE ES   2   1955 52.55                             149     0.3 5   78 295 
 BRR  HZ I        1955 57.37         9.8 0.57                            78 295 
 GRA  SZ EP       1955 39.77                             136     0.110  123  14 
 GRA  SZ ES   2   1955 58.32                             136    -0.3 5  123  14 
 GRA  SZ I        1956  0.43         4.8 0.29                           123  14 
 NOR  SZ EP   2   1955 51.49                             116     0.1 4  242 235 
                                                                                
