 2010  426 1525  8.1 L   6.819 -73.056142.5  RSN 11 0.5 2.8LRSN                1
 GAP=148        0.91       5.4     7.5  6.7 -0.1480E+02 -0.2934E+01  0.5583E+01E
 Epicentro: LOS SANTOS - SANTANDER                                             3
 ACTION:UPD 10-08-24 10:01 OP:vdl  STATUS:               ID:20100426152516 L   I
 2010-04-26-1523-24S.COL___104                                                 6
 STAT SP IPHASW D HRMM SECON CODA AMPLIT PERI AZIMU VELO AIN AR TRES W  DIS CAZ7
 BAR2 SZ IP       1525 27.51                             168     0.010   29 209 
 BAR2 SZ ES   1   1525 41.82                             168    -0.8 7   29 209 
 BRR  HZ IP     C 1525 29.84                             149     0.410   79 294 
 BRR  HN ES   1   1525 46.64                             149     0.6 7   79 294 
 BRR  HZ I        1525 50.86       141.3 0.13                            79 294 
 OCA  SZ EP   1   1525 35.84                             129    -0.3 7  160 350 
 OCA  SZ ES   2   1525 57.67                             129    -0.3 5  160 350 
 OCA  SZ I        1526  4.28        98.7 0.15                           160 350 
 CHI  HZ EP   2   1525 46.36                             116     0.2 4  253 197 
 CHI  HN ES   2   1526 16.47                             116     0.6 4  253 197 
 CHI  HZ I        1526 23.18        21.5 0.50                           253 197 
 HEL  HZ EP   2   1525 49.03                             113    -0.3 4  282 256 
 HEL  HZ I        1526 26.59        28.9 0.39                           282 256 
 RREF BZ EP   2   1525 55.08                             109    -0.1 3  331 230 
 RREF BN ES   2   1526 31.32                             109    -0.5 3  331 230 
 RREF BZ I        1526 36.09        27.3 0.65                           331 230 
 DBB  SZ IP       1525 55.93                             108    -0.7 6  349 274 
 SDV  BZ IP     C 1525 57.22                             108     0.2 6  351  49 
 SDV  BZ I        1526 39.17        16.1 0.60                           351  49 
 TOL  SZ EP   1   1525 57.42                             108     0.2 5  352 226 
 ANIL BZ EP   2   1525 59.29                             107     0.5 3  366 225 
 ANIL BE ES   2   1526 39.15                             107     0.8 3  366 225 
 ANIL BZ I        1526 45.93        44.9 0.37                           366 225 
 PRA  HZ EP   1   1526  1.54                             105    -0.8 4  399 211 
 PRA  HN ES   2   1526 44.13                             105    -0.5 3  399 211 
 PRA  HZ I        1526 49.53        25.0 0.79                           399 211 
                                                                                
