 2017  326 1007 14.7 L   6.777 -73.148138.0  RSN 12 0.6 2.0LRSN                1
 GAP=137        1.18       4.4     4.5  7.3 -0.2789E+01  0.9623E+01  0.8146E+01E
 Epicentro: LOS SANTOS - SANTANDER                                             3
 ACTION:UPD 17-05-25 18:45 OP:jn   STATUS:               ID:20170326100714 L   I
 OLDACT:UP  17-03-26 20:24 OP:dani STATUS:               ID:20170326095741     3
 OLDACT:UP  17-03-26 20:24 OP:dani STATUS:               ID:20170326095741     3
 OLDACT:REG 17-03-26 19:35 OP:dani STATUS:               ID:20170326095741     3
 2017-03-26-0958-00M.COL___361                                                 6
 STAT SP IPHASW D HRMM SECON CODA AMPLIT PERI AZIMU VELO AIN AR TRES W  DIS CAZ7
 BAR2 EZ EP     C 10 7 33.21                             171   -0.1810 20.7 190 
 BAR2 EZ ES       10 7 48.00                             171    0.0710 20.7 190 
 BAR2 EZ I        10 7 49.29        33.4 0.24            168           20.7 190 
 BRR  HZ EP       10 7 35.25                             151    0.1310 72.2 300 
 BRR  HN ES       10 7 51.86                             151    0.8510 72.2 300 
 BRR  HZ I        10 7 57.11        19.6 0.14            148           72.2 300 
 PAM  EZ EP     D 10 7 36.09                             149   -0.1810 79.6  39 
 PAM  EN ES       10 7 52.88                             149   -0.1910 79.6  39 
 PAM  EZ I        10 7 55.09        26.0 0.52            154           79.6  39 
 RUS  HZ EP       10 7 37.20                             143   -0.3510 98.0 176 
 RUS  HE ES       10 7 55.78                             143    0.4410 98.0 176 
 RUS  HZ I        10 7 56.81         7.0 0.28            145           98.0 176 
 PTB  HZ EP       10 7 40.14                             131   -0.88 9  147 260 
 PTB  HN ES       10 8  0.70                             131   -0.81 9  147 260 
 PTB  HZ I        10 8  7.85         9.5 0.16            130            147 260 
 SPBC HZ EP       10 7 42.32                             128   -0.13 9  161 219 
 SPBC HN ES       10 8  4.46                             128    0.41 9  161 219 
 SPBC HZ I        10 8 10.01        14.5 0.58            128            161 219 
 ZAR  HZ EP   3   10 7 48.64                             121    1.87 2  205 293 
 ZAR  HE ES       10 8 12.59                             121    0.84 9  205 293 
 ZAR  HZ I        10 8 18.23        14.0 0.32            121            205 293 
 NOR  HE ES       10 8 17.01                             118   -0.22 8  233 235 
 HEL  HZ EP   3   10 7 55.93                             114    1.46 2  271 256 
 HEL  HN ES       10 8 24.66                             114   -0.80 8  271 256 
 HEL  HZ I        10 8 32.23         4.4 0.20            114            271 256 
 CBOC HZ EP   3   10 8  2.46                             109    1.24 2  333 252 
 CBOC HN ES   3   10 8 35.72                             109   -1.76 2  333 252 
 PRA  HZ EP       10 8  8.19                             106    0.47 6  390 210 
 PRA  HN ES       10 8 49.33                             106    0.28 6  390 210 
 PRA  HZ I        10 8 57.98         5.5 0.47            107            390 210 
 ORTC HZ EP   4   10 8  5.04                             106   -3.10 0  393 216 
 ORTC HE ES       10 8 50.50                             106    0.71 6  393 216 
 ORTC HZ I        10 8 56.54         4.3 0.36            107            393 216 
 SJC  HZ EP   4   10 8  8.26                             105   -2.04 0  411 327 
 SJC  HN ES   4   10 8 49.79                             105   -3.84 0  411 327 
                                                                                
