 2017  126 1446 31.5 L   6.848 -73.008141.8  RSN  4 0.0 1.6LRSN                1
 GAP=254        0.30       3.8     4.3  3.3  0.1292E+02 -0.1313E+01 -0.4092E+01E
 Epicentro: CEPITA - SANTANDER                                                 3
 ACTION:UPD 17-05-22 16:03 OP:jn   STATUS:               ID:20170126144631 L   I
 OLDACT:REG 17-01-26 20:15 OP:dnl  STATUS:               ID:20170126143425     3
 2017-01-26-1438-00M.COL___349                                                 6
 STAT SP IPHASW D HRMM SECON CODA AMPLIT PERI AZIMU VELO AIN AR TRES W  DIS CAZ7
 BAR2 EZ EP   2   1446 50.98                             166    0.10 5 34.3 214 
 BAR2 EZ ES       1447  6.01                             166   -0.0310 34.3 214 
 BAR2 EZ I        1447  7.46        15.9 0.20            156           34.3 214 
 BRR  HZ EP       1446 52.91                             148    0.0210 82.9 290 
 BRR  HN ES   4   1447  7.83                             148   -1.78 0 82.9 290 
 BRR  HZ I        1447 14.59        10.6 0.20            140           82.9 290 
 RUS  HZ EP       1446 55.18                             141   -0.0410  106 185 
 RUS  HN ES       1447 13.79                             141    0.0310  106 185 
 RUS  HZ I        1447 15.04         3.1 0.24            140            106 185 
 ZAR  HZ EP   4   1447 10.39                             120    5.45 0  216 289 
 ZAR  HE ES       1447 31.06                             120   -0.00 8  216 289 
 ZAR  HZ I        1447 39.35         3.6 0.38            118            216 289 
                                                                                
