 2011 1126 1520 45.5 L   6.781 -73.106141.9  RSN  4 0.4 1.4LRSN                1
 GAP=142        0.76       5.3     7.9  8.3 -0.9328E+00 -0.4452E+01  0.1715E+01E
 Epicentro: LOS SANTOS - SANTANDER                                             3
 ACTION:UPD 12-07-13 16:12 OP:ep   STATUS:               ID:20111126152045 L   I
 2011-11-26-1517-49S.COL___159                                                 6
 STAT SP IPHASW D HRMM SECON CODA AMPLIT PERI AZIMU VELO AIN AR TRES W  DIS CAZ7
 BAR2 SZ EP   1   1521  4.52                             171   -0.17 7 22.5 202 
 BAR2 SZ ES   1   1521 18.90                             171   -0.72 7 22.5 202 
 BAR2 SZ I        1521 21.19         9.7 0.13                          22.5 202 
 BRR  HZ EP   1   1521  6.35                             150   -0.21 7 76.0 298 
 BRR  HE ES   1   1521 23.35                             150    0.40 7 76.0 298 
 BRR  HZ I        1521 24.62        10.2 0.10                          76.0 298 
 PAM  SZ EP   1   1521  7.47                             150    0.18 7 76.4  36 
 PAM  SZ I        1521 23.18         2.5 0.44                          76.4  36 
 PAM  SN ES   1   1521 24.37                             150    0.12 7 76.4  36 
 RUS  HZ EP   1   1521  8.62                             144   -0.13 7 98.2 178 
 RUS  HN ES   1   1521 27.38                             144    0.54 7 98.2 178 
 RUS  HZ I        1521 29.27         2.9 0.31                          98.2 178 
                                                                                
