 2017  226 1707 41.3 L   6.273 -73.534112.8  RSN  5 0.2 1.3LRSN                1
 GAP=112        0.54       2.3     2.7  5.0 -0.1759E+01  0.6439E+01  0.1218E+00E
 Epicentro: EL GUACAMAYO - SANTANDER                                           3
 ACTION:UPD 17-05-24 15:41 OP:jn   STATUS:               ID:20170226170741 L   I
 OLDACT:DUP 17-02-26 23:22 OP:cog  STATUS:               ID:20170226165745d    3
 2017-02-26-1658-00M.COL___375                                                 6
 STAT SP IPHASW D HRMM SECON CODA AMPLIT PERI AZIMU VELO AIN AR TRES W  DIS CAZ7
 BAR2 EZ EP       17 7 58.24                             153    0.1010 52.6  48 
 BAR2 EZ ES       17 8 11.43                             153    0.1210 52.6  48 
 BAR2 EZ I        17 8 13.10        16.8 0.38            157           52.6  48 
 RUS  HZ EP       17 7 59.08                             148   -0.1810 65.3 130 
 RUS  HN ES       17 8 13.28                             148   -0.0210 65.3 130 
 RUS  HZ I        17 8 15.04         1.6 0.18            152           65.3 130 
 BRR  HZ EP       17 8  0.45                             137   -0.2810 94.4 348 
 BRR  HN ES       17 8 15.95                             137    0.0310 94.4 348 
 BRR  HZ I        17 8 18.01         7.2 0.44            140           94.4 348 
 PAM  EN ES       17 8 26.37                             123    0.02 9  150  38 
 NOR  HZ EP       17 8  8.27                             120    0.42 9  167 242 
 NOR  HN ES       17 8 28.42                             120   -0.17 9  167 242 
 NOR  HZ I        17 8 30.21         2.5 0.34            122            167 242 
                                                                                
