 2016  326 1934 44.3 L   6.502 -73.635 98.0  RSN  9 0.5 1.5LRSN                1
 GAP= 68        0.80       4.4     3.8  6.9 -0.1093E+01  0.8979E+01  0.5235E+01E
 Epicentro: SANTA HELENA DEL OPON - SANTANDER                                  3
 ACTION:UPD 16-05-13 21:27 OP:cam  STATUS:               ID:20160326193444 L   I
 OLDACT:REG 16-03-26 20:37 OP:dnl  STATUS:               ID:20160326192749     3
 2016-03-26-1927-49M.COL___298                                                 6
 STAT SP IPHASW D HRMM SECON CODA AMPLIT PERI AZIMU VELO AIN AR TRES W  DIS CAZ7
 BAR2 EZ EP   3   1934 59.71                             151    0.18 2 51.1  79 
 BAR2 EZ ES       1935 11.52                             151    0.1310 51.1  79 
 BAR2 EZ I        1935 12.33        23.3 0.18            146           51.1  79 
 PTB  HZ EP       1935  1.58                             135   -0.6710 90.9 273 
 PTB  HN ES       1935 16.39                             135    0.1710 90.9 273 
 PTB  HZ I        1935 18.22         5.4 0.08            127           90.9 273 
 RUS  HZ EP   2   1935  2.63                             135   -0.27 5 90.9 138 
 RUS  HN ES   2   1935 16.87                             135   -0.51 5 90.9 138 
 RUS  HZ I        1935 17.73         4.2 0.20            130           90.9 138 
 SPBC HZ EP   2   1935  4.23                             130    0.52 5  106 207 
 SPBC HE ES   2   1935 19.28                             130    0.45 5  106 207 
 NOR  HZ EP       1935 10.25                             116   -0.31 9  172 233 
 NOR  HN ES   2   1935 31.99                             116    0.97 4  172 233 
 NOR  HZ I        1935 35.07         3.4 0.16            110            172 233 
 ZAR  HZ EP   3   1935 10.32                             116   -0.45 2  174 309 
 ZAR  HE ES   4   1935 34.24                             116    2.84 0  174 309 
 ZAR  HZ I        1935 38.31         4.5 0.26            109            174 309 
 OCA  HZ EP   2   1935 13.43                             113    0.06 4  195  10 
 OCA  HE ES   2   1935 36.95                             113    0.94 4  195  10 
 OCA  HZ I        1935 41.74        10.5 0.29            107            195  10 
 CHI  HZ EP   2   1935 15.03                             112   -0.04 4  207 183 
 CHI  HE ES   2   1935 39.34                             112    0.29 4  207 183 
 CHI  HZ I        1935 45.98         1.5 0.22            107            207 183 
 GUY2CHZ EP   2   1935 19.76                             109    1.04 4  238 234 
 GUY2CHN ES   4   1935 48.39                             109    2.85 0  238 234 
 GUY2CHZ I        1935 55.64         1.7 0.30                           238 234 
                                                                                
