 2010  226 1827 52.3 L   6.794 -73.051151.8  RSN  8 0.3 2.5LRSN                1
 GAP=193        0.66       3.2     6.1  5.2  0.9078E+00  0.7387E+01  0.2303E+01E
 Epicentro: LOS SANTOS - SANTANDER                                             3
 ACTION:UP  10-08-24 09:50 OP:vdl  STATUS:               ID:20100226182752 L   I
 2010-02-26-1826-04S.COL___093                                                 6
 STAT SP IPHASW D HRMM SECON CODA AMPLIT PERI AZIMU VELO SNR AR TRES W  DIS CAZ7
 BAR2 SZ IP       1828 12.90                             169     0.110   27 213 
 BAR2 SZ ES   2   1828 27.87                             169    -0.8 5   27 213 
 BRR  HZ IP       1828 14.91                             150     0.210   81 295 
 BRR  HN ES   1   1828 32.45                             150     0.3 7   81 295 
 BRR  HZ I        1828 35.40        31.9 0.38                            81 295 
 RUS  BZ EP       1828 16.72                             145     0.110  100 182 
 RUS  BE ES   1   1828 35.63                             145     0.0 7  100 182 
 OCA  SZ EP       1828 21.09                             131    -0.2 9  162 349 
 OCA  SZ ES   2   1828 44.00                             131     0.1 5  162 349 
 OCA  SZ I        1828 48.16        67.5 0.40                           162 349 
 CHI  HZ EP       1828 30.39                             118    -0.2 8  251 198 
 CHI  HN ES   3   1828 59.38                             118    -1.1 2  251 198 
 CHI  HZ I        1829  8.55        13.4 0.37                           251 198 
 RREF BZ EP       1828 39.75                             111     0.1 7  329 231 
 RREF BN ES   1   1829 16.60                             111     0.1 5  329 231 
 RREF BZ I        1829 23.72        15.3 0.16                           329 231 
 DBB  SZ EP       1828 40.68                             110    -0.6 6  350 274 
 PRA  HZ EP       1828 46.95                             107     0.3 6  397 211 
 PRA  HN ES   3   1829 28.62                             107    -0.3 1  397 211 
 PRA  HZ I        1829 34.00         9.5 0.16                           397 211 
                                                                                
