 2016  226 1447 33.3 L   6.814 -73.185140.3  RSN  8 0.4 1.9LRSN                1
 GAP=145        0.87       4.0     4.1  5.7 -0.7125E+01  0.7318E+01  0.2468E+01E
 Epicentro: ZAPATOCA - SANTANDER                                               3
 ACTION:UPD 16-03-04 21:29 OP:rebc STATUS:               ID:20160226144733 L   I
 OLDACT:UP  16-02-26 23:45 OP:drio STATUS:               ID:20160226143753d    3
 OLDACT:DUP 16-02-26 23:34 OP:drio STATUS:               ID:20160226143753d    3
 2016-02-26-1437-52M.COL___313                                                 6
 STAT SP IPHASW D HRMM SECON CODA AMPLIT PERI AZIMU VELO AIN AR TRES W  DIS CAZ7
 BAR2 EZ EP       1447 52.29                             170   -0.0310 24.5 179 
 BAR2 EZ ES       1448  6.69                             170   -0.4510 24.5 179 
 BAR2 EZ I        1448  8.48        24.8 0.32            170           24.5 179 
 PAM  EZ EP       1447 55.19                             149    0.1310 79.1  43 
 PAM  EN ES       1448 12.41                             149    0.3910 79.1  43 
 PAM  EZ I        1448 17.14         9.1 0.74            154           79.1  43 
 RUS  HZ EP       1447 56.51                             142   -0.1710  103 174 
 RUS  HN ES       1448 15.18                             142    0.2810  103 174 
 RUS  HZ I        1448 15.92         7.3 0.24            146            103 174 
 PTB  HZ EP       1447 58.88                             131   -0.60 9  144 258 
 PTB  HN ES       1448 19.97                             131    0.08 9  144 258 
 PTB  HZ I        1448 26.65         7.3 0.16            132            144 258 
 SPBC HZ EP       1448  1.09                             128   -0.17 9  162 217 
 SPBC HN ES       1448 22.76                             128   -0.29 9  162 217 
 SPBC HZ I        1448 27.91        19.2 0.30            130            162 217 
 ZAR  HE ES   4   1448 30.31                             122    0.72 0  199 292 
 NOR  HZ EP       1448  8.50                             118    0.05 8  232 234 
 NOR  HN ES       1448 35.95                             118    0.10 8  232 234 
 NOR  HZ I        1448 43.75         6.9 0.24            120            232 234 
 CHI  HZ EP       1448 10.82                             116    0.06 8  249 194 
 CHI  HN ES       1448 40.00                             116    0.03 8  249 194 
 CHI  HZ I        1448 43.30         8.0 0.56            119            249 194 
 GUY2CHZ EP   4   1448 17.54                             111    1.16 0  299 234 
 GUY2CHE ES       1448 51.03                             111    1.07 7  299 234 
 SJC  HZ EP   4   1448 26.55                             105   -1.72 0  406 327 
 SJC  HE ES   4   1449  7.05                             105   -4.08 0  406 327 
                                                                                
