 2011  526 1501 13.1 L   6.789 -73.079138.1  RSN  5 0.5 1.4LRSN                1
 GAP=166        1.04       9.8    29.0 14.9 -0.9590E+02  0.3067E+02 -0.4520E+02E
 Epicentro: LOS SANTOS - SANTANDER                                             3
 ACTION:UP  11-06-29 08:56 OP:tino STATUS:               ID:20110526150113 L   I
 2011-05-26-1458-01S.COL___115                                                 6
 STAT SP IPHASW D HRMM SECON CODA AMPLIT PERI AZIMU VELO SNR AR TRES W  DIS CAZ7
 BAR2 SZ EP   1   15 1 31.64                             169    -0.2 7   25 208 
 BAR2 SZ ES   1   15 1 45.88                             169    -0.6 7   25 208 
 BAR2 SZ I        15 1 55.81         7.6 0.66                            25 208 
 BTL  SZ EP       15 1 32.54                             168     0.710   25 304 
 BRR  HZ EP   2   15 1 33.42                             147    -0.4 5   78 297 
 RUS  HZ EP   2   15 1 35.66                             142    -0.3 5   99 180 
 RUS  HN ES   2   15 1 54.08                             142     0.2 5   99 180 
 RUS  HZ I        15 1 55.71         2.8 0.79                            99 180 
 GRA  SZ EP   2   15 1 36.85                             135    -0.7 5  125  14 
 GRA  SZ ES   2   15 1 56.86                             135     0.2 5  125  14 
 GRA  SZ I        15 1 58.21         5.2 0.28                           125  14 
                                                                                
