 2011  326 1811 35.1 L   6.741 -73.130141.2  RSN  8 0.3 2.3LRSN                1
 GAP=180        0.65       3.3     6.5  5.6 -0.9885E+01  0.1889E+01  0.2766E+01E
 Epicentro: JORDAN - SANTANDER                                                 3
 ACTION:UP  11-06-16 14:35 OP:jfem STATUS:               ID:20110326181135 L   I
 2011-03-26-1800-00M.COL___141                                                 6
 STAT SP IPHASW D HRMM SECON CODA AMPLIT PERI AZIMU VELO SNR AR TRES W  DIS CAZ7
 BAR2 SZ EP   1   1811 54.08                             173     0.0 7   18 200 
 BAR2 SZ ES   1   1812  8.99                             173     0.1 7   18 200 
 BAR2 SZ I        1812 10.16        48.7 0.34                            18 200 
 BRR  HZ IP     C 1811 55.83                             150    -0.210   76 302 
 BRR  HZ I        1811 56.07        83.2 0.08                            76 302 
 BRR  HE ES   1   1812 12.44                             150     0.1 7   76 302 
 GRA  SZ EP   1   1811 59.92                             135    -0.5 7  131  16 
 OCA  SZ EP   1   1812  4.09                             127     0.4 7  167 353 
 OCA  SZ ES   1   1812 26.23                             127     0.2 7  167 353 
 OCA  SZ I        1812 32.91        15.5 0.37                           167 353 
 NOR  SZ EP   1   1812 10.15                             118    -0.2 6  233 236 
 NOR  SN ES   1   1812 37.49                             118    -0.3 6  233 236 
 CHI  HN ES   1   1812 40.43                             117    -0.2 6  243 196 
 CHI  HZ I        1812 44.13         8.4 0.24                           243 196 
 DBB  SZ EP   2   1812 22.49                             109    -0.2 3  342 275 
 PRA  HZ EP   1   1812 28.50                             106     0.6 4  387 210 
 PRA  HE ES   1   1813  9.84                             106     0.8 4  387 210 
                                                                                
