 2012  826 1913  8.8 L   7.379 -73.121 12.0  RSN  8 0.4 1.7LRSN                1
 GAP=108        0.80       3.6     2.4  4.6 -0.9072E+00  0.4732E+01  0.9847E+00E
 Epicentro: MATANZA - SANTANDER                                                3
 ACTION:UPD 12-09-10 11:58 OP:ep   STATUS:               ID:20120826191308 L   I
 2012-08-26-1910-00M.COL___218                                                 6
 STAT SP IPHASW D HRMM SECON CODA AMPLIT PERI AZIMU VELO AIN AR TRES W  DIS CAZ7
 GIR2 SZ EP       1913 14.43                             105   -0.4510 34.1 194 
 PAM  SZ EP       1913 17.19                             101    0.0810 46.7  95 
 PAM  SN ES   1   1913 23.58                             101    0.00 7 46.7  95 
 PAM  SZ I        1913 24.13        42.9 0.19                          46.7  95 
 BRR  HZ EP       1913 20.69                              97    0.3410 71.8 245 
 BRR  HE ES   1   1913 29.47                              97    0.11 7 71.8 245 
 BRR  HZ I        1913 30.45        25.2 0.12                          71.8 245 
 BAR2 SZ EP   1   1913 22.98                              96    0.06 7 87.3 184 
 BAR2 SZ I        1913 35.05        24.7 0.16                          87.3 184 
 OCA  HN ES   2   1913 36.04                              95   -0.51 5 97.6 347 
 RUS  HZ EP   1   1913 35.40                              56    0.88 7  164 179 
 RUS  HN ES   2   1913 54.22                              56   -0.35 5  164 179 
 RUS  HZ I        1913 58.04         5.4 0.17                           164 179 
 PTB  HZ EP       1913 35.01                              56   -0.17 9  174 238 
 PTB  HN ES   1   1913 55.14                              56   -0.62 7  174 238 
 PTB  HZ I        1913 56.82         7.9 0.25                           174 238 
 ZAR  HE ES   1   1914  0.05                              56    0.34 7  192 274 
 ZAR  HZ I        1914  1.82        11.3 0.30                           192 274 
                                                                                
