 2012  726 1027 53.0 L   6.749 -73.170144.0  RSN  5 0.4 1.2LRSN                1
 GAP=136        0.74       7.9     6.1  8.8 -0.1464E+02  0.2286E+01  0.2925E+01E
 Epicentro: VILLANUEVA - SANTANDER                                             3
 ACTION:UP  12-08-14 11:45 OP:ep   STATUS:               ID:20120726102752 L   I
 2012-07-26-1020-00M.COL___215                                                 6
 STAT SP IPHASW D HRMM SECON CODA AMPLIT PERI AZIMU VELO AIN AR TRES W  DIS CAZ7
 BAR2 SZ EP   3   1028 11.41                             173    -0.9 2   17 184 
 BAR2 SZ ES   3   1028 26.94                             173    -0.4 2   17 184 
 BAR2 SZ I        1028 28.95         3.5 0.26            145             17 184 
 BRR  HZ EP       1028 14.29                             152     0.310   72 304 
 BRR  HZ I        1028 23.98         5.2 0.50            159             72 304 
 BRR  HN ES   1   1028 30.65                             152     0.3 7   72 304 
 PAM  SZ EP       1028 15.40                             149     0.010   83  38 
 PAM  SZ I        1028 15.61         2.4 0.20            150             83  38 
 PAM  SN ES   2   1028 32.34                             149    -0.5 5   83  38 
 RUS  HN ES   2   1028 34.72                             145     0.4 5   95 174 
 RUS  HZ I        1029  5.53         2.8 0.14            126             95 174 
 PTB  HZ EP       1028 19.20                             133    -0.3 9  144 261 
 PTB  HZ I        1028 20.12         1.4 0.16            127            144 261 
 PTB  HN ES   2   1028 39.79                             133    -0.4 5  144 261 
