 2011  726 1416 36.4 L   6.807 -73.115140.9  RSN  5 0.2 1.6LRSN                1
 GAP=162        0.40       2.3     4.5  4.1 -0.9493E+00 -0.2083E+01 -0.5413E+00E
 Epicentro: LOS SANTOS - SANTANDER                                             3
 ACTION:UPD 12-07-25 14:03 OP:epov STATUS:               ID:20110726141636 L   I
 2011-07-26-1412-08S.COL___143                                                 6
 STAT SP IPHASW D HRMM SECON CODA AMPLIT PERI AZIMU VELO AIN AR TRES W  DIS CAZ7
 BAR2 SZ EP   1   1416 55.57                             169    0.07 7 24.8 197 
 BAR2 SZ ES   1   1417 10.08                             169   -0.30 7 24.8 197 
 BAR2 SZ I        1417 11.46         7.4 0.24                          24.8 197 
 BRR  HZ EP   1   1416 57.25                             151    0.05 7 73.8 297 
 BRR  HN ES   1   1417 13.46                             151    0.05 7 73.8 297 
 RUS  HZ EP   1   1416 59.75                             143    0.01 7  101 178 
 RUS  HE ES   1   1417 18.10                             143    0.17 7  101 178 
 RUS  HZ I        1417 19.90         4.9 0.28                           101 178 
 GRA  SZ EP   1   1417  0.84                             136   -0.25 7  124  16 
 GRA  SZ ES   1   1417 20.55                             136    0.21 7  124  16 
 GRA  SZ I        1417 21.74         7.5 0.22                           124  16 
 NOR  SZ EP   2   1417 12.19                             117   -0.03 4  238 235 
                                                                                
