 2012  126 1126 54.6 L   6.760 -73.162142.3  RSN 12 0.4 2.2LRSN                1
 GAP=136        0.93       4.2     4.6  6.7 -0.3560E+01  0.9518E+01 -0.1183E+01E
 Epicentro: LOS SANTOS - SANTANDER                                             3
 ACTION:UP  12-02-03 08:21 OP:REBC STATUS:               ID:20120126112654 L   I
 2012-01-26-1120-00M.COL___188                                                 6
 STAT SP IPHASW D HRMM SECON CODA AMPLIT PERI AZIMU VELO SNR AR TRES W  DIS CAZ7
 BAR2 SZ IP       1127 13.79                             172     0.010   19 187 
 BAR2 SZ ES   1   1127 28.65                             172     0.0 7   19 187 
 BAR2 SZ I        1127 29.74        46.5 0.34                            19 187 
 GIR2 SZ IP       1127 13.89                             165    -0.110   35 354 
 BRR  HZ IP     C 1127 15.71                             152     0.310   72 302 
 BRR  HZ I        1127 16.04        79.2 0.10                            72 302 
 BRR  HN ES   2   1127 32.41                             152     0.7 5   72 302 
 PAM  SZ EP       1127 16.62                             149    -0.110   82  39 
 PAM  SN ES   1   1127 33.64                             149    -0.4 7   82  39 
 RUS  HZ EP       1127 17.78                             144     0.010   96 175 
 RUS  HN ES   1   1127 36.08                             144     0.3 7   96 175 
 RUS  HZ I        1127 37.07        13.2 0.28                            96 175 
 PTB  HZ EP       1127 20.39                             132    -0.7 9  145 260 
 PTB  HN ES   1   1127 41.12                             132    -0.6 7  145 260 
 PTB  HZ I        1127 43.34        17.1 0.36                           145 260 
 OCA  SZ EP       1127 23.40                             128     0.3 9  164 354 
 OCA  SZ I        1127 48.59        23.0 0.23                           164 354 
 ZAR  HZ EP       1127 26.61                             121    -0.3 9  204 293 
 ZAR  HN ES   1   1127 52.69                             121     0.7 6  204 293 
 ZAR  HZ I        1127 58.55        32.3 0.34                           204 293 
 NOR  SZ EP       1127 30.27                             118     0.5 8  231 235 
 NOR  SN ES   1   1127 56.91                             118    -0.2 6  231 235 
 CHI  HZ EP   1   1127 31.78                             117     0.2 6  244 195 
 CHI  HZ I        1128  8.28         5.1 0.28                           244 195 
 RREF HN ES   2   1128 15.51                             110    -0.1 3  318 230 
 RREF HZ I        1128 24.98         7.4 0.38                           318 230 
 PRA  HZ EP   2   1127 47.61                             106     0.1 3  387 210 
                                                                                
