 2014  426 1439 31.9 L   6.808 -73.153144.8  RSN 11 0.4 2.5LRSN                1
 GAP=135        0.99       2.7     4.2  6.8 -0.2636E+01  0.9013E+01 -0.8342E+00E
 Epicentro: LOS SANTOS - SANTANDER                                             3
 ACTION:UPD 14-05-13 23:11 OP:nd   STATUS:               ID:20140426143931 L   I
 OLDACT:REG 14-04-26 21:05 OP:nd   STATUS:               ID:20140426143746     3
 2014-04-26-1437-46M.COL___248                                                 6
 STAT SP IPHASW D HRMM SECON CODA AMPLIT PERI AZIMU VELO AIN AR TRES W  DIS CAZ7
 PAM  SZ EP       1439 54.41                             151    0.4010 77.2  40 
 PAM  SN ES       1440 11.64                             151    0.3910 77.2  40 
 PAM  SZ I        1440 13.76        46.6 0.56            157           77.2  40 
 RUS  HZ EP       1439 55.63                             143   -0.0010  102 176 
 RUS  HN ES       1440 13.66                             143   -0.4810  102 176 
 PTB  HZ EP       1439 58.40                             132   -0.34 9  147 258 
 PTB  HN ES       1440 19.34                             132   -0.32 9  147 258 
 PTB  HZ I        1440 26.87        43.3 0.38            131            147 258 
 OCA  HZ EP       1439 59.75                             130   -0.29 9  159 353 
 OCA  HN ES       1440 22.19                             130    0.20 9  159 353 
 OCA  HZ I        1440 26.52        32.9 0.18            132            159 353 
 SPBC HZ EP       1440  0.65                             129    0.30 9  163 219 
 SPBC HN ES       1440 22.16                             129   -0.37 9  163 219 
 SPBC HZ I        1440 29.91        40.7 0.16            130            163 219 
 ZAR  HZ EP       1440  4.34                             122    0.17 9  203 292 
 ZAR  HN ES       1440 30.02                             122    0.68 9  203 292 
 ZAR  HZ I        1440 36.87        21.4 0.40            123            203 292 
 NOR  HZ EP       1440  7.59                             118    0.03 8  235 234 
 NOR  HN ES       1440 35.58                             118    0.20 8  235 234 
 NOR  HZ I        1440 39.43        22.8 0.22            120            235 234 
 SML  HZ EP       1440  7.81                             117   -0.54 8  243 335 
 SML  HN ES       1440 36.18                             117   -0.59 8  243 335 
 SML  HZ I        1440 39.92        28.0 0.26            120            243 335 
 URE  HZ EP   4   1440 11.76                             113   -1.04 0  283 292 
 URE  HN ES   4   1440 42.94                             113   -1.76 0  283 292 
 URE  HZ I        1440 57.77        13.9 0.16            115            283 292 
 RREF HZ EP   4   1440 19.33                             111    1.33 0  322 229 
 RREF HN ES   4   1440 56.70                             111    2.74 0  322 229 
 RREF HZ I        1441  3.56        19.6 0.26            113            322 229 
 PRA  HZ EP       1440 25.23                             106   -0.21 6  392 209 
 PRA  HN ES       1441  8.40                             106    1.21 6  392 209 
 PRA  HZ I        1441 14.11         8.1 0.36            109            392 209 
                                                                                
