 2013  226 1314 40.7 L   6.634 -73.232143.1  RSN  6 0.4 1.6LRSN                1
 GAP=176        0.66       6.8     7.0  7.4  0.3305E+02  0.2407E+02  0.2123E+02E
 Epicentro: BARICHARA - SANTANDER                                              3
 ACTION:UPD 13-03-12 09:36 OP:ep   STATUS:               ID:20130226131440 L   I
 2013-02-26-1310-00M.COL___228                                                 6
 STAT SP IPHASW D HRMM SECON CODA AMPLIT PERI AZIMU VELO AIN AR TRES W  DIS CAZ7
 BAR2 SZ ES   1   1315 14.29                             177   -0.42 7 7.21 130 
 BAR2 SZ I        1315 14.98        17.1 0.24            178           7.21 130 
 BRR  HN ES   2   1315 18.93                             151    0.73 5 74.5 315 
 BRR  HZ I        1315 22.54         7.0 0.16            148           74.5 315 
 RUS  HZ EP   1   1315  2.91                             148   -0.14 7 83.7 169 
 RUS  HN ES   1   1315 20.69                             148    0.22 7 83.7 169 
 RUS  HZ I        1315 22.16         3.8 0.22            152           83.7 169 
 PTB  HZ EP   1   1315  6.19                             134   -0.22 7  136 266 
 PTB  HN ES   1   1315 26.55                             134    0.12 7  136 266 
 PTB  HZ I        1315 29.47         6.3 0.12            133            136 266 
 ZAR  HN ES   1   1315 37.77                             122   -0.24 6  203 298 
 ZAR  HZ I        1315 43.12         3.7 0.46            122            203 298 
 CHI  HZ EP   1   1315 16.73                             119    0.63 6  229 194 
 CHI  HN ES   2   1315 43.24                             119   -0.46 4  229 194 
                                                                                
