 2017  326 1149  9.5 L   6.759 -73.137148.6  RSN  6 0.3 1.3LRSN                1
 GAP=139        0.88       4.5     4.0  6.6  0.1529E+01  0.4775E+01  0.1536E+01E
 Epicentro: LOS SANTOS - SANTANDER                                             3
 ACTION:UPD 17-05-25 18:45 OP:jn   STATUS:               ID:20170326114909 L   I
 OLDACT:UP  17-03-26 21:15 OP:dani STATUS:               ID:20170326114740     3
 OLDACT:REG 17-03-26 19:45 OP:dani STATUS:               ID:20170326114740     3
 2017-03-26-1148-00M.COL___354                                                 6
 STAT SP IPHASW D HRMM SECON CODA AMPLIT PERI AZIMU VELO AIN AR TRES W  DIS CAZ7
 BAR2 EZ EP       1149 29.45                             172    0.0110 19.1 195 
 BAR2 EZ ES       1149 44.79                             172   -0.1710 19.1 195 
 BRR  HE ES       1149 48.62                             152    0.5710 74.3 301 
 BRR  HZ I        1149 50.16         5.5 0.28            153           74.3 301 
 PAM  EZ EP       1149 32.51                             150    0.2710 80.4  37 
 PAM  EN ES       1149 49.48                             150   -0.4710 80.4  37 
 PAM  EZ I        1149 52.07         4.9 0.44            151           80.4  37 
 RUS  HZ EP       1149 33.30                             146    0.0410 96.0 176 
 RUS  HE ES       1149 52.02                             146    0.2710 96.0 176 
 RUS  HZ I        1149 53.09         2.7 0.34            148           96.0 176 
 PTB  HZ EP       1149 36.50                             133   -0.26 9  148 261 
 PTB  HE ES       1149 57.46                             133   -0.52 9  148 261 
 PTB  HZ I        1149 59.19         1.7 0.15            134            148 261 
 ZAR  HE ES       1150  8.32                             123    0.21 8  207 293 
                                                                                
