 2017  126 1107  6.4 L   6.795 -73.150147.7  RSN 18 0.4 2.6LRSN                1
 GAP=101        0.94       3.3     3.0  4.7  0.6426E+00  0.3061E+01  0.2418E+01E
 Epicentro: LOS SANTOS - SANTANDER                                             3
 ACTION:UPD 17-05-22 16:03 OP:jn   STATUS:               ID:20170126110706 L   I
 OLDACT:UP  17-01-26 21:28 OP:dnl  STATUS:               ID:20170126105742     3
 OLDACT:UP  17-01-26 21:27 OP:dnl  STATUS:               ID:20170126105742     3
 OLDACT:UP  17-01-26 21:27 OP:dnl  STATUS:               ID:20170126105742     3
 OLDACT:UP  17-01-26 21:26 OP:dnl  STATUS:               ID:20170126105742     3
 OLDACT:REG 17-01-26 20:08 OP:dnl  STATUS:               ID:20170126105742     3
 2017-01-26-1058-00M.COL___343                                                 6
 STAT SP IPHASW D HRMM SECON CODA AMPLIT PERI AZIMU VELO AIN AR TRES W  DIS CAZ7
 BAR2 EZ EP     C 11 7 26.06                             171   -0.2110 22.8 189 
 BAR2 EZ ES       11 7 41.80                             171    0.0510 22.8 189 
 BAR2 EZ I        11 7 43.87       153.6 0.32            167           22.8 189 
 BRR  HZ EP       11 7 27.88                             153    0.1110 71.0 299 
 BRR  HN ES       11 7 45.00                             153    0.5810 71.0 299 
 BRR  HZ I        11 7 49.06        79.9 0.24            151           71.0 299 
 PAM  EZ EP       11 7 28.88                             151   -0.0010 78.1  40 
 PAM  EN ES       11 7 46.36                             151   -0.0410 78.1  40 
 PAM  EZ I        11 7 48.71        95.2 0.84            156           78.1  40 
 RUS  HZ IP     C 11 7 30.02                             144   -0.3110  100 176 
 RUS  HN ES       11 7 48.78                             144   -0.1910  100 176 
 RUS  HZ I        11 7 50.10        58.8 0.32            143            100 176 
 PTB  HZ EP       11 7 32.61                             133   -0.88 9  147 259 
 PTB  HE ES       11 7 54.61                             133    0.00 9  147 259 
 PTB  HZ I        11 7 56.30        37.8 0.40            131            147 259 
 TAM  HZ IP     D 11 7 34.47                             131    0.19 9  155 105 
 TAM  HN ES       11 7 56.21                             131    0.20 9  155 105 
 TAM  HZ I        11 7 57.57        25.5 0.50            133            155 105 
 ZAR  HZ EP       11 7 38.93                             123   -0.04 9  204 292 
 ZAR  HE ES       11 8  4.07                             123   -0.28 9  204 292 
 ZAR  HZ I        11 8  9.27        55.8 0.36            123            204 292 
 CHI  HZ EP       11 7 44.43                             118    0.27 8  248 195 
 CHI  HN ES       11 8 13.29                             118   -0.31 8  248 195 
 CHI  HZ I        11 8 19.75        26.0 0.30            117            248 195 
 ROSC BZ EP   9   11 7 46.13                             117    1.56 0  252 211 
 ROSC BN ES       11 8 16.52                             117    0.63 8  252 211 
 ROSC BZ I        11 8 20.72        78.6 0.45            117            252 211 
 URE  HZ EP   4   11 7 46.29                             114   -1.27 0  284 292 
 URE  HN ES   4   11 8 16.61                             114   -3.03 0  284 292 
 URE  HZ I        11 8 27.48        27.1 0.14            114            284 292 
 PTGC HZ IP   9 C 11 7 49.19                             112   -1.14 0  308 159 
 PTGC HN ES       11 8 22.76                             112   -0.68 7  308 159 
 PTGC HZ I        11 8 27.48        17.3 0.36            112            308 159 
 LL6C HZ EP   4   11 7 32.79                             111   -19.5 0  325 358 
 LL6C HE ES   4   11 8  4.39                             111   -23.6 0  325 358 
 LL6C HZ I        11 8 17.62         8.3 0.38            112            325 358 
 ELA  HZ EP   4   11 7 54.98                             111    1.71 0  328 229 
 ELA  HN ES   4   11 8 31.29                             111    1.47 0  328 229 
 ELA  HZ I        11 8 38.74        19.9 0.56            110            328 229 
 DBB  EZ EP       11 7 54.28                             110    0.36 7  339 274 
 DBB  EN ES   4   11 8 29.38                             110   -1.59 0  339 274 
 DBB  EZ I        11 8 31.41        12.1 0.42            110            339 274 
 ORTC HZ IP     D 11 8  0.74                             107    0.41 6  395 216 
 ORTC HE ES       11 8 43.62                             107    1.25 6  395 216 
 ORTC HZ I        11 8 49.93        13.7 0.34            107            395 216 
 PAL  HZ EP       11 8  1.55                             106   -0.02 6  405 239 
 PAL  HE ES   4   11 8 42.46                             106   -2.12 0  405 239 
 PAL  HZ I        11 8 51.56         6.9 0.34            106            405 239 
 SJC  HZ EP   4   11 8  0.27                             106   -1.80 0  409 327 
 SJC  HN ES   4   11 8 40.47                             106   -5.00 0  409 327 
 SJC  HZ I        11 8 55.86         7.6 0.72            107            409 327 
 CRJC HZ EP   4   11 8  6.51                             104   -2.53 0  468   4 
 CRJC HE ES   4   11 8 53.12                             104   -4.76 0  468   4 
 CRJC HZ I        11 9  1.55        13.5 0.18            104            468   4 
                                                                                
