 2014  926 1201  0.5 L   6.771 -73.148159.7  RSN  4 0.4 1.6LRSN                1
 GAP=215        0.86       6.4     7.4 10.3  0.2213E+01  0.2547E+02 -0.2304E+02E
 Epicentro: LOS SANTOS - SANTANDER                                             3
 ACTION:UPD 14-10-03 23:08 OP:nd   STATUS:               ID:20140926120100 L   I
 OLDACT:UP  14-09-26 21:34 OP:cam  STATUS:               ID:20140926120000     3
 OLDACT:UP  14-09-26 21:34 OP:cam  STATUS:               ID:20140926120000     3
 OLDACT:REG 14-09-26 20:21 OP:cam  STATUS:               ID:20140926120000     3
 2014-09-26-1200-00M.COL___252                                                 6
 STAT SP IPHASW D HRMM SECON CODA AMPLIT PERI AZIMU VELO AIN AR TRES W  DIS CAZ7
 BAR2 SZ EP   1   12 1 22.45                             172    0.66 7 20.1 191 
 BAR2 SZ ES       12 1 38.27                             172   -0.1010 20.1 191 
 BAR2 SZ I        12 1 39.11         8.0 0.28            173           20.1 191 
 PTB  HZ EP       12 1 28.25                             135   -0.36 9  147 260 
 PTB  HN ES       12 1 50.40                             135   -0.10 9  147 260 
 PTB  HZ I        12 1 56.29         3.0 0.16            134            147 260 
 ZAR  HN ES   1   12 2  0.88                             125    0.72 6  205 293 
 SML  HN ES       12 2  7.47                             120   -0.26 8  247 336 
 SML  HZ I        12 2 14.72         4.9 0.10            120            247 336 
                                                                                
