 2017  826 1030 22.8 L   6.679 -73.204135.8  RSN  4 0.2 0.9LRSN                1
 GAP=216        0.62       6.7     8.8  5.6  0.4931E+02  0.5019E+01  0.1542E+01E
 Epicentro: VILLANUEVA - SANTANDER                                             3
 ACTION:UPD 17-09-04 20:24 OP:rebc STATUS:               ID:20170826103022 L   I
 OLDACT:REG 17-08-26 19:51 OP:edw  STATUS:               ID:20170826102740     3
 2017-08-26-1028-00M.COL___408                                                 6
 STAT SP IPHASW D HRMM SECON CODA AMPLIT PERI AZIMU VELO AIN AR TRES W  DIS CAZ7
 BAR2 EZ EP       1030 40.57                             176   -0.4510 9.91 166 
 BAR2 EZ ES       1030 55.34                             176    0.1110 9.91 166 
 BAR2 EZ I        1030 57.05         3.2 0.15            171           9.91 166 
 BRR  HZ EP       1030 43.17                             150    0.1610 73.4 310 
 BRR  HN ES       1030 58.81                             150    0.0310 73.4 310 
 RUS  HZ EP       1030 44.96                             145    0.3010 88.0 171 
 RUS  HN ES       1031  1.62                             145   -0.1010 88.0 171 
 RUS  HZ I        1031  5.22         1.0 0.40            144           88.0 171 
 ZAR  HN ES   1   1031 19.23                             120   -0.13 6  204 296 
                                                                                
