 2014 1026 1954 11.5 L   6.765 -73.157138.2  RSN  5 0.4 1.7LRSN                1
 GAP=137        0.98       5.0     4.9  7.2 -0.2188E+01  0.4719E+01  0.1493E+01E
 Epicentro: LOS SANTOS - SANTANDER                                             3
 ACTION:UPD 14-11-29 23:57 OP:nd   STATUS:               ID:20141026195411 L   I
 OLDACT:DUP 14-10-29 22:37 OP:stll STATUS:               ID:20141026194744d    3
 OLDACT:REG 14-10-29 15:51 OP:fm   STATUS:               ID:20141026194743     3
 2014-10-26-1947-43M.COL___275                                                 6
 STAT SP IPHASW D HRMM SECON CODA AMPLIT PERI AZIMU VELO AIN AR TRES W  DIS CAZ7
 BAR2 SZ EP       1954 30.22                             172    0.1110 19.3 188 
 BAR2 SZ ES       1954 44.85                             172    0.2010 19.3 188 
 BAR2 SZ I        1954 46.98         7.0 0.26            171           19.3 188 
 BRR  HZ EP       1954 32.20                             151    0.3410 72.1 302 
 BRR  HE ES       1954 48.25                             151    0.4910 72.1 302 
 PAM  SZ EP       1954 33.33                             148    0.2110 81.2  38 
 PAM  SE ES       1954 49.35                             148   -0.6610 81.2  38 
 PAM  SE I        1954 51.75         6.4 0.34            151           81.2  38 
 RUS  HZ EP       1954 34.44                             143    0.2410 96.8 175 
 RUS  HE ES       1954 51.78                             143   -0.1510 96.8 175 
 PTB  HZ EP       1954 37.21                             131   -0.44 9  146 260 
 PTB  HN ES       1954 57.62                             131   -0.45 9  146 260 
 PTB  HN I        1955  3.73        20.0 0.48            131            146 260 
                                                                                
