 2015  626 1342 47.6 L   6.793 -73.131139.4  RSN 12 0.4 2.2LRSN                1
 GAP=202        0.92       2.9     4.4  5.0  0.9254E+00  0.8755E+01  0.2142E+01E
 Epicentro: LOS SANTOS - SANTANDER                                             3
 ACTION:UPD 15-09-10 22:15 OP:cam  STATUS:               ID:20150626134247 L   I
 OLDACT:REG 15-06-26 22:19 OP:drio STATUS:               ID:20150626133748     3
 2015-06-26-1337-48M.COL___319                                                 6
 STAT SP IPHASW D HRMM SECON CODA AMPLIT PERI AZIMU VELO AIN AR TRES W  DIS CAZ7
 BAR2 EZ EP       1343  6.47                             170   -0.0310 23.0 194 
 BAR2 EZ ES       1343 20.51                             170   -0.7110 23.0 194 
 BAR2 EZ I        1343 22.30        45.3 0.22            165           23.0 194 
 BRR  HZ EP       1343  8.37                             151    0.1510 73.0 298 
 BRR  HN ES       1343 25.19                             151    0.9310 73.0 298 
 BRR  HZ I        1343 29.49        25.9 0.44            147           73.0 298 
 RUS  HZ EP       1343 10.81                             143    0.1010 99.8 177 
 RUS  HE ES       1343 28.85                             143    0.1410 99.8 177 
 RUS  HZ I        1343 30.60        24.7 0.38            143           99.8 177 
 ZAR  HZ EP       1343 20.26                             121    0.39 8  206 292 
 ZAR  HE ES       1343 45.10                             121    0.09 8  206 292 
 ZAR  HZ I        1343 53.22        24.7 0.44            120            206 292 
 NOR  HZ EP       1343 23.23                             117    0.12 8  236 235 
 NOR  HN ES       1343 50.08                             117   -0.70 8  236 235 
 NOR  HZ I        1343 52.91        12.0 0.26            117            236 235 
 SML  HZ EP       1343 23.80                             116   -0.27 8  245 335 
 SML  HE ES       1343 51.87                             116   -0.61 8  245 335 
 SML  HZ I        1343 54.88        19.5 0.20            117            245 335 
 HEL  HN ES       1343 58.43                             113   -0.51 8  273 256 
 HEL  HZ I        1344  3.30         9.4 0.34            113            273 256 
 GUY2CHZ EP       1343 30.95                             111   -0.12 7  302 235 
 GUY2CHE ES       1344  5.26                             111    0.32 7  302 235 
 GUY2CHZ I        1344 13.98         9.3 0.60                           302 235 
 TOL  SZ EP       1343 35.99                             108    0.27 7  344 225 
 TOL  SN ES       1344 12.94                             108   -0.29 7  344 225 
 TOL  SZ I        1344 21.90         6.6 0.62            109            344 225 
 PRA  HZ EP       1343 41.08                             105    0.11 6  392 210 
 PRA  HN ES       1344 22.86                             105    0.29 6  392 210 
 PRA  HZ I        1344 29.59         6.9 0.68            106            392 210 
 ORTC HZ EP       1343 41.30                             105   -0.10 6  396 216 
 ORTC HN ES       1344 23.52                             105    0.20 6  396 216 
 ORTC HZ I        1344 31.55         4.3 0.34            106            396 216 
 PAL  HZ EP       1343 42.81                             105    0.09 6  407 239 
 PAL  HE ES   4   1344 22.51                             105   -3.17 0  407 239 
 PAL  HZ I        1344 35.31         2.8 0.22            105            407 239 
                                                                                
