 2013 1226 1721 32.7 L   6.806 -73.171147.4  RSN 15 0.5 2.3LRSN                1
 GAP=133        1.00       2.7     3.9  5.5 -0.1239E+01  0.5095E+01  0.9497E+00E
 Epicentro: LOS SANTOS - SANTANDER                                             3
 ACTION:UPD 14-01-13 10:21 OP:ep   STATUS:               ID:20131226172132 L   I
 OLDACT:REG 13-12-26 19:36 OP:jn   STATUS:               ID:20131226172000     3
 2013-12-26-1720-00M.COL___285                                                 6
 STAT SP IPHASW D HRMM SECON CODA AMPLIT PERI AZIMU VELO AIN AR TRES W  DIS CAZ7
 BAR2 SZ EP     C 1721 52.52                             170   -0.0210 23.7 183 
 BAR2 SZ ES       1722  8.05                             170    0.0410 23.7 183 
 BAR2 SZ I        1722 10.27        77.0 0.32            171           23.7 183 
 BRR  HZ IP     C 1721 54.34                             154    0.4610 68.4 299 
 BRR  HN ES       1722 11.17                             154    0.7810 68.4 299 
 BRR  HZ I        1722 15.29        32.8 0.24            153           68.4 299 
 PAM  SZ EP       1721 55.55                             151    0.3810 78.7  41 
 PAM  SN ES       1722 12.40                             151   -0.3010 78.7  41 
 PAM  SZ I        1722 15.20        30.2 0.56            155           78.7  41 
 RUS  HZ EP       1721 56.56                             144   -0.1210  102 174 
 RUS  HN ES   1   1722 15.09                             144   -0.30 7  102 174 
 RUS  HZ I        1722 16.60        17.4 0.30            148            102 174 
 PTB  HZ EP       1721 59.28                             133   -0.29 9  145 258 
 PTB  HN ES       1722 20.05                             133   -0.47 9  145 258 
 PTB  HZ I        1722 26.84        25.6 0.10            134            145 258 
 OCA  HN ES       1722 22.98                             130   -0.18 9  159 354 
 OCA  HZ I        1722 26.40        21.0 0.20            133            159 354 
 SPBC HZ EP       1722  1.49                             130    0.28 9  162 218 
 SPBC HN ES       1722 23.37                             130   -0.08 9  162 218 
 SPBC HZ I        1722 29.93        31.1 0.22            132            162 218 
 ZAR  HZ EP       1722  5.19                             123    0.23 9  201 292 
 ZAR  HN ES       1722 30.41                             123    0.29 9  201 292 
 ZAR  HZ I        1722 36.03        24.2 0.48            125            201 292 
 NOR  HN ES       1722 35.52                             119   -0.59 8  233 234 
 SML  HZ EP       1722  8.89                             118   -0.34 8  242 336 
 SML  HN ES       1722 37.11                             118   -0.61 8  242 336 
 CHI  HZ EP       1722 10.92                             117    0.43 8  249 194 
 CHI  HN ES       1722 39.60                             117   -0.36 8  249 194 
 HEL  HN ES   2   1722 43.53                             115   -0.39 4  269 256 
 URE  HZ EP   2   1722 12.54                             114   -0.99 4  281 292 
 GUY2CHZ EP   2   1722 16.66                             113    0.49 4  299 234 
 GUY2CHE ES   2   1722 52.35                             113    2.27 4  299 234 
 GUY2CHZ I        1722 58.40        11.8 0.28                           299 234 
 SJC  HZ EP   4   1722 26.65                             106   -1.42 0  407 327 
 SJC  HN ES   4   1723  7.27                             106   -3.99 0  407 327 
 SJC  HZ I        1723 12.21         4.0 0.62            108            407 327 
                                                                                
