 2017  326 1043  2.6 L   6.796 -73.104141.3  RSN  6 0.3 1.3LRSN                1
 GAP=142        0.71       3.5     3.2  5.2  0.8714E+00  0.3483E+01  0.3346E+00E
 Epicentro: LOS SANTOS - SANTANDER                                             3
 ACTION:UPD 17-05-25 18:45 OP:jn   STATUS:               ID:20170326104302 L   I
 OLDACT:REG 17-03-26 19:39 OP:dani STATUS:               ID:20170326103743     3
 2017-03-26-1038-00M.COL___352                                                 6
 STAT SP IPHASW D HRMM SECON CODA AMPLIT PERI AZIMU VELO AIN AR TRES W  DIS CAZ7
 BAR2 EZ EP       1043 21.76                             170    0.0310 24.1 201 
 BAR2 EZ ES       1043 36.16                             170   -0.4710 24.1 201 
 BAR2 EZ I        1043 37.47         5.4 0.33            171           24.1 201 
 PAM  EZ EP       1043 24.40                             151    0.1910 74.9  37 
 PAM  EN ES       1043 41.15                             151    0.1010 74.9  37 
 PAM  EZ I        1043 43.12         4.7 0.48            153           74.9  37 
 BRR  HZ EP       1043 23.44                             150   -0.1010 75.4 297 
 BRR  HN ES       1043 39.98                             150    0.1310 75.4 297 
 BRR  HZ I        1043 43.78         8.0 0.36            151           75.4 297 
 RUS  HZ EP       1043 26.01                             143    0.1210 99.9 179 
 RUS  HN ES       1043 44.13                             143    0.0910 99.9 179 
 RUS  HZ I        1043 45.54         1.6 0.21            146           99.9 179 
 PTB  HZ EP       1043 29.20                             130   -0.44 9  152 259 
 PTB  HN ES       1043 51.20                             130    0.49 9  152 259 
 PTB  HZ I        1043 52.36         1.8 0.16            132            152 259 
 ZAR  HE ES       1044  0.50                             121   -0.18 8  208 292 
                                                                                
