 2010 1026 1235 47.4 L   6.758 -73.111142.4  RSN  7 0.4 2.1LRSN                1
 GAP=163        0.78       5.6     8.0  8.7 -0.1812E+02  0.1687E+02 -0.4950E+01E
 Epicentro: LOS SANTOS - SANTANDER                                             3
 ACTION:UP  11-02-18 11:12 OP:tino STATUS:               ID:20101026123547 L   I
 2010-10-26-1232-04S.COL___125                                                 6
 STAT SP IPHASW D HRMM SECON CODA AMPLIT PERI AZIMU VELO SNR AR TRES W  DIS CAZ7
 BAR2 SZ EP   1   1236  6.54                             172     0.0 7   20 204 
 BAR2 SZ ES   2   1236 21.13                             172    -0.3 5   20 204 
 BAR2 SZ I        1236 22.66        34.5 0.32                            20 204 
 BRR  HZ EP   1   1236  8.32                             150    -0.2 7   77 300 
 BRR  HE ES   2   1236 25.33                             150     0.4 5   77 300 
 BRR  HZ I        1236 26.02        36.3 0.08                            77 300 
 RUS  HZ EP   1   1236 10.62                             144     0.2 7   96 178 
 RUS  HN ES   2   1236 28.63                             144     0.2 5   96 178 
 RUS  HZ I        1236 31.15        11.2 0.26                            96 178 
 GUE  SZ EP   1   1236 11.40                             138    -0.7 7  120  10 
 GRA  SZ EP   1   1236 13.18                             135     0.6 7  129  15 
 GRA  SZ ES   2   1236 32.38                             135     0.1 5  129  15 
 GRA  SZ I        1236 34.05        12.4 0.23                           129  15 
 NOR  SZ EP   1   1236 22.59                             118    -0.4 6  235 236 
 NOR  SN ES   2   1236 50.51                             118    -0.2 4  235 236 
 HEL  HZ EP   1   1236 28.24                             114     0.5 6  275 257 
 HEL  HZ I        1237  4.92         8.8 0.41                           275 257 
                                                                                
