 2017  326 1452  1.7 L   6.769 -73.159148.0  RSN  6 0.3 2.0LRSN                1
 GAP=136        0.90       4.3     4.5  6.2 -0.4933E+01  0.3619E+01  0.2652E+01E
 Epicentro: LOS SANTOS - SANTANDER                                             3
 ACTION:UPD 17-05-25 18:45 OP:jn   STATUS:               ID:20170326145201 L   I
 OLDACT:REG 17-03-26 19:58 OP:dani STATUS:               ID:20170326144741     3
 2017-03-26-1448-00M.COL___357                                                 6
 STAT SP IPHASW D HRMM SECON CODA AMPLIT PERI AZIMU VELO AIN AR TRES W  DIS CAZ7
 BAR2 EZ EP     C 1452 21.48                             172   -0.0210 19.7 188 
 BAR2 EZ ES       1452 36.91                             172   -0.0510 19.7 188 
 BAR2 EZ I        1452 39.33        20.0 0.42            172           19.7 188 
 BRR  HZ EP       1452 23.29                             153    0.2110 71.7 302 
 BRR  HN ES       1452 40.47                             153    0.6910 71.7 302 
 BRR  HZ I        1452 44.40        19.3 0.32            152           71.7 302 
 PAM  EZ EP       1452 24.46                             150    0.1310 81.0  39 
 PAM  EN ES       1452 41.50                             150   -0.5110 81.0  39 
 PAM  EZ I        1452 43.68        23.0 0.48            154           81.0  39 
 RUS  HZ EP       1452 25.42                             145    0.0210 97.2 175 
 RUS  HN ES       1452 44.06                             145    0.1510 97.2 175 
 RUS  HZ I        1452 45.54        14.5 0.28            149           97.2 175 
 PTB  HZ EP       1452 28.22                             133   -0.41 9  146 260 
 PTB  HN ES       1452 49.17                             133   -0.49 9  146 260 
 PTB  HZ I        1452 54.88         9.5 0.36            134            146 260 
 SPBC HZ EP       1452 30.38                             130    0.38 9  160 219 
 SPBC HN ES       1452 51.92                             130   -0.18 9  160 219 
 SPBC HZ I        1452 54.25        15.5 0.16            132            160 219 
                                                                                
