 2016  226 1050 44.3 L   6.784 -73.144143.6  RSN 10 0.4 1.8LRSN                1
 GAP=137        0.99       3.7     4.0  6.0 -0.2627E+01  0.9113E+01  0.1718E+01E
 Epicentro: LOS SANTOS - SANTANDER                                             3
 ACTION:UPD 16-03-04 21:29 OP:rebc STATUS:               ID:20160226105044 L   I
 OLDACT:REG 16-02-26 20:54 OP:drio STATUS:               ID:20160226104750     3
 2016-02-26-1047-50M.COL___303                                                 6
 STAT SP IPHASW D HRMM SECON CODA AMPLIT PERI AZIMU VELO AIN AR TRES W  DIS CAZ7
 BAR2 EZ EP       1051  3.36                             171   -0.2810 21.6 191 
 BAR2 EZ ES       1051 18.74                             171    0.0210 21.6 191 
 BAR2 EZ I        1051 19.53        13.3 0.20            170           21.6 191 
 PAM  EZ EP       1051  6.55                             150    0.1810 78.6  39 
 PAM  EN ES       1051 23.71                             150    0.1410 78.6  39 
 PAM  EZ I        1051 25.77        10.1 0.58            153           78.6  39 
 RUS  HZ EP       1051  7.47                             144   -0.2510 98.8 176 
 RUS  HE ES       1051 26.28                             144    0.3110 98.8 176 
 RUS  HZ I        1051 27.40         8.9 0.24            144           98.8 176 
 PTB  HZ EP       1051 10.50                             131   -0.58 9  148 260 
 PTB  HN ES       1051 31.40                             131   -0.56 9  148 260 
 PTB  HZ I        1051 33.69        11.4 0.14            131            148 260 
 SPBC HZ EP       1051 12.55                             129    0.03 9  162 219 
 SPBC HN ES       1051 34.22                             129   -0.30 9  162 219 
 SPBC HZ I        1051 36.84        10.6 0.22            129            162 219 
 ZAR  HE ES       1051 42.60                             122    0.64 9  205 293 
 ZAR  HZ I        1051 47.82         7.3 0.30            122            205 293 
 NOR  HZ EP       1051 19.97                             118    0.15 8  234 235 
 NOR  HN ES       1051 47.32                             118   -0.19 8  234 235 
 NOR  HZ I        1051 54.33         4.5 0.52            119            234 235 
 CHI  HZ EP       1051 21.56                             117   -0.14 8  247 195 
 CHI  HE ES       1051 50.93                             117    0.06 8  247 195 
 CHI  HZ I        1051 58.59         2.6 0.46            118            247 195 
 URE  HZ EP       1051 24.87                             113   -0.49 7  285 292 
 GUY2CHZ EP       1051 28.67                             112    0.95 7  300 235 
 GUY2CHE ES       1052  2.52                             112    0.95 7  300 235 
 GUY2CHZ I        1052  7.86         2.7 0.28                           300 235 
                                                                                
