 2017 1126 1143  7.8 L   6.815 -73.191138.0  RSN 14 0.7 2.0LRSN                1
 GAP=107        1.33       3.2     4.3  7.2 -0.2317E+01  0.7335E+01  0.3004E+01E
 Epicentro: ZAPATOCA - SANTANDER                                               3
 ACTION:UPD 17-12-12 20:00 OP:rebc STATUS:               ID:20171126114307 L   I
 OLDACT:UP  17-11-26 21:19 OP:dhb  STATUS:               ID:20171126113739     3
 OLDACT:REG 17-11-26 19:27 OP:dhb  STATUS:               ID:20171126113739     3
 2017-11-26-1138-00M.COL___489                                                 6
 STAT SP IPHASW D HRMM SECON CODA AMPLIT PERI AZIMU VELO AIN AR TRES W  DIS CAZ7
 BAR2 EZ EP       1143 26.04                             169   -0.4510 24.7 178 
 BAR2 EZ ES       1143 41.09                             169   -0.0010 24.7 178 
 BAR2 EZ I        1143 42.14        41.2 0.22            167           24.7 178 
 PAM  EZ EP       1143 28.95                             149   -0.3310 79.4  43 
 PAM  EE ES       1143 46.70                             149    0.6310 79.4  43 
 PAM  EZ I        1143 48.10        14.6 0.36            153           79.4  43 
 PTB  HZ EP       1143 32.93                             131   -0.75 9  143 258 
 PTB  HN ES       1143 53.51                             131   -0.39 9  143 258 
 PTB  HZ I        1143 55.28         7.9 0.12            131            143 258 
 OCA  HZ EP       1143 34.50                             128   -0.77 9  158 355 
 OCA  HN ES       1143 56.76                             128    0.04 9  158 355 
 OCA  HZ I        1143 59.19        33.6 0.26            130            158 355 
 SPBC HZ EP       1143 35.21                             128   -0.29 9  161 217 
 SPBC HN ES       1143 57.03                             128   -0.11 9  161 217 
 SPBC HZ I        1144  0.27        10.4 0.36            127            161 217 
 YPLC HZ IP     D 1143 36.65                             124   -0.75 9  181 150 
 YPLC HE ES       1144  1.13                             124    0.62 9  181 150 
 YPLC HZ I        1144  4.23         8.7 0.44            125            181 150 
 ZAR  HZ EP   2   1143 39.27                             121    0.11 4  199 292 
 ZAR  HE ES       1144  4.37                             121    0.72 9  199 292 
 ZAR  HZ I        1144  9.54         6.8 0.22            122            199 292 
 NOR  HZ EP       1143 41.89                             117   -0.83 8  232 233 
 NOR  HN ES       1144  9.68                             117   -0.30 8  232 233 
 NOR  HZ I        1144 14.91         7.4 0.38            117            232 233 
 CHI  HZ EP       1143 44.82                             116   -0.26 8  249 194 
 CHI  HE ES       1144 15.17                             116    0.98 8  249 194 
 CHI  HZ I        1144 24.93         4.3 0.54            116            249 194 
 HEL  HZ EP       1143 47.96                             114    0.87 8  268 255 
 HEL  HN ES       1144 18.00                             114    0.23 8  268 255 
 HEL  HZ I        1144 26.23         5.3 0.30            114            268 255 
 DRL03HZ EP       1143 50.24                             112    1.49 7  287 354 
 DRL03HE ES       1144 20.52                             112   -0.20 7  287 354 
 GUY2CHZ EP   2   1143 52.32                             111    1.65 4  298 234 
 GUY2CHN ES   3   1144 26.42                             111    2.29 2  298 234 
 GUY2CHZ I        1144 33.97         5.0 0.66                           298 234 
 PRA  HZ EP       1144  0.83                             105   -0.08 6  391 209 
 PRA  HE ES       1144 42.40                             105    0.04 6  391 209 
 PRA  HZ I        1144 47.63         3.0 0.24            106            391 209 
 ORTC HZ EP       1144  1.81                             105    0.57 6  394 215 
 ORTC HE ES       1144 43.42                             105    0.47 6  394 215 
 ORTC HZ I        1144 53.56         2.7 0.10            106            394 215 
                                                                                
