 2013 1226 1726 47.7 L   5.858 -73.648128.1  RSN 13 0.4 2.2LRSN                1
 GAP= 97        0.96       2.9     3.0  5.3 -0.2120E+01  0.2765E+01 -0.3295E+01E
 Epicentro: PUENTE NACIONAL - SANTANDER                                        3
 ACTION:UPD 14-01-13 10:21 OP:ep   STATUS:               ID:20131226172647 L   I
 OLDACT:DUP 13-12-26 20:31 OP:jn   STATUS:               ID:20131226172001d    3
 OLDACT:REG 13-12-26 19:36 OP:jn   STATUS:               ID:20131226172000     3
 2013-12-26-1720-00M.COL___285                                                 6
 STAT SP IPHASW D HRMM SECON CODA AMPLIT PERI AZIMU VELO AIN AR TRES W  DIS CAZ7
 SPBC HZ EP   1   1727  6.29                             156    0.21 7 52.2 244 
 SPBC HN ES       1727 20.50                             156    0.1110 52.2 244 
 SPBC HZ I        1727 23.80        60.0 0.28            157           52.2 244 
 RUS  HZ EP       1727  7.35                             153    0.1310 62.7  86 
 RUS  HN ES       1727 21.97                             153   -0.4310 62.7  86 
 RUS  HZ I        1727 25.00        22.6 0.54            156           62.7  86 
 BAR2 SZ EP     D 1727  9.44                             141    0.3310 96.2  32 
 BAR2 SZ ES       1727 25.60                             141   -0.1710 96.2  32 
 BAR2 SZ I        1727 27.30       165.7 0.46            143           96.2  32 
 PTB  HZ EP       1727  9.80                             135   -0.7010  117 310 
 PTB  HE ES       1727 28.27                             135    0.0110  117 310 
 PTB  HZ I        1727 32.21        33.7 0.12            136            117 310 
 CHI  HZ EP       1727 12.86                             130    0.10 9  136 184 
 CHI  HN ES   1   1727 31.90                             130   -0.38 7  136 184 
 CHI  HZ I        1727 35.08        11.7 0.30            134            136 184 
 BRR  HZ EP       1727 12.64                             129    0.23 9  138 357 
 BRR  HE ES       1727 32.02                             129    0.36 9  138 357 
 BRR  HZ I        1727 35.40        28.1 0.14            131            138 357 
 NOR  HZ EP       1727 13.29                             129    0.73 9  139 257 
 NOR  HN ES       1727 32.07                             129    0.15 9  139 257 
 NOR  HZ I        1727 36.90        26.2 0.18            132            139 257 
 PAM  SZ EP       1727 18.41                             120   -0.30 9  195  33 
 PAM  SN ES   1   1727 42.87                             120    0.00 6  195  33 
 PAM  SZ I        1727 49.94         7.5 0.16            122            195  33 
 GUY2CHZ EP   2   1727 19.55                             119   -0.01 4  203 250 
 GUY2CHZ I        1727 51.16        10.8 0.38                           203 250 
 HEL  HZ EP       1727 20.85                             117    0.48 8  211 280 
 HEL  HN ES       1727 45.27                             117   -0.55 8  211 280 
 HEL  HZ I        1727 53.54        12.1 0.26            119            211 280 
 ZAR  HZ EP       1727 20.80                             115   -0.57 8  225 324 
 ZAR  HN ES   1   1727 47.48                             115   -0.12 6  225 324 
 ZAR  HZ I        1727 49.09        18.9 0.34            117            225 324 
 OCA  HN ES       1727 56.90                             111    0.82 8  266   8 
 OCA  HZ I        1728  6.02        11.5 0.50            113            266   8 
 SML  HZ EP       1727 32.45                             107   -0.76 7  329 352 
 SML  HN ES   1   1728  8.40                             107   -0.27 5  329 352 
 SJC  HZ EP   4   1727 48.91                             100   -2.04 0  478 339 
                                                                                
