 2012  526 1224 32.1 L   6.788 -73.158145.8  RSN  8 0.3 1.8LRSN                1
 GAP=136        0.68       4.2     4.2  6.0 -0.1689E-01  0.9047E+01  0.5590E+01E
 Epicentro: LOS SANTOS - SANTANDER                                             3
 ACTION:UP  12-07-05 12:08 OP:pat  STATUS:               ID:20120526122432 L   I
 2012-05-26-1220-00M.COL___197                                                 6
 STAT SP IPHASW D HRMM SECON CODA AMPLIT PERI AZIMU VELO SNR AR TRES W  DIS CAZ7
 BAR2 SZ EP   1   1224 51.69                             171     0.0 7   22 187 
 BAR2 SZ ES   1   1225  7.04                             171     0.0 7   22 187 
 BAR2 SZ I        1225  8.46        21.3 0.29                            22 187 
 PAM  SZ EP   1   1224 54.55                             150     0.1 7   79  40 
 PAM  SN ES   1   1225 11.90                             150     0.0 7   79  40 
 RUS  HZ EP   1   1224 55.85                             144     0.1 7   99 175 
 RUS  HN ES   1   1225 14.29                             144     0.1 7   99 175 
 RUS  HZ I        1225 15.56        11.3 0.40                            99 175 
 PTB  HZ EP   1   1224 58.37                             132    -0.6 7  146 259 
 PTB  HN ES   1   1225 19.65                             132    -0.2 7  146 259 
 PTB  HZ I        1225 21.67         8.3 0.14                           146 259 
 ZAR  HE ES   1   1225 29.80                             122     0.1 6  203 293 
 CHI  HZ EP   1   1225  9.13                             117    -0.5 6  247 195 
 CHI  HZ I        1225 44.95         3.6 0.40                           247 195 
 HEL  HZ EP   1   1225 13.01                             115     0.9 6  270 256 
 HEL  HZ I        1225 50.04         4.3 0.32                           270 256 
 PRA  HZ EP   1   1225 25.42                             107     0.0 4  390 209 
 PRA  HE ES   1   1226  7.44                             107     0.4 4  390 209 
                                                                                
