 2012 1126 1734 11.5 L   6.785 -73.182139.1  RSN  7 0.2 2.1LRSN                1
 GAP=133        0.42       2.6     2.2  3.4  0.9511E+00  0.8804E+00 -0.2551E+01E
 Epicentro: LOS SANTOS - SANTANDER                                             3
 ACTION:UPD 12-12-05 15:36 OP:}ep  STATUS:               ID:20121126173411 L   I
 2012-11-26-1730-00M.COL___234                                                 6
 STAT SP IPHASW D HRMM SECON CODA AMPLIT PERI AZIMU VELO AIN AR TRES W  DIS CAZ7
 BAR2 SZ EP       1734 30.33                             171    0.0710 21.3 180 
 BAR2 SZ ES       1734 45.06                             171    0.1410 21.3 180 
 BAR2 SZ I        1734 46.71        34.0 0.25                          21.3 180 
 GIR2 SZ EP       1734 30.35                             166   -0.0410 32.5 358 
 PAM  SZ EP       1734 33.25                             148    0.0210 81.3  41 
 PAM  SZ I        1734 33.63        38.1 0.21                          81.3  41 
 RUS  HZ EP       1734 34.40                             143   -0.0810 99.3 174 
 RUS  HN ES       1734 52.27                             143   -0.1510 99.3 174 
 RUS  HN I        1734 54.14        15.6 0.20                          99.3 174 
 PTB  HZ EP       1734 37.33                             131   -0.18 9  143 259 
 PTB  HN ES       1734 57.81                             131   -0.01 9  143 259 
 PTB  HZ I        1735  3.14        12.9 0.20                           143 259 
 ZAR  HZ EP   1   1734 43.02                             121   -0.15 6  201 293 
 ZAR  HN ES   1   1735  8.09                             121    0.20 6  201 293 
 ZAR  HZ I        1735 15.21        18.2 0.37                           201 293 
 CHI  HZ EP   1   1734 49.04                             116    0.52 6  246 194 
                                                                                
