 2011  926 1545 45.1 L   6.817 -73.100142.0  RSN  5 0.3 1.7LRSN                1
 GAP=238        0.59       7.8    10.3  6.7  0.6547E+02 -0.2587E+02 -0.1757E+02E
 Epicentro: LOS SANTOS - SANTANDER                                             3
 ACTION:UPD 12-07-13 15:59 OP:ep   STATUS:               ID:20110926154544 L   I
 2011-09-26-1544-56S.COL___165                                                 6
 STAT SP IPHASW D HRMM SECON CODA AMPLIT PERI AZIMU VELO AIN AR TRES W  DIS CAZ7
 BTL  SZ EP   1   1546  4.17                             171   -0.04 7 21.6 301 
 BAR2 SZ EP       1546  4.20                             169   -0.1210 26.5 200 
 BAR2 SZ I        1546  4.65         9.1 0.06                          26.5 200 
 BAR2 SZ ES   1   1546 18.91                             169   -0.42 7 26.5 200 
 BRR  HZ EP       1546  6.04                             150    0.0210 74.8 295 
 BRR  HN ES       1546 22.70                             150    0.3310 74.8 295 
 BRR  HZ I        1546 23.78        19.0 0.17                          74.8 295 
 RUS  HZ EP   1   1546  8.66                             143    0.09 7  102 179 
 RUS  HE ES   1   1546 27.10                             143    0.19 7  102 179 
 RUS  HZ I        1546 28.18         5.1 0.41                           102 179 
 ZAR  HE ES   2   1546 42.42                             121   -0.71 4  208 291 
                                                                                
