 2015  826 1410 33.4 L   6.763 -73.141147.3  RSN  5 0.2 1.5LRSN                1
 GAP=139        0.51       2.9     3.6  4.9  0.2830E+01  0.5224E+01 -0.3202E+01E
 Epicentro: LOS SANTOS - SANTANDER                                             3
 ACTION:UPD 15-09-15 23:05 OP:cam  STATUS:               ID:20150826141033 L   I
 OLDACT:REG 15-08-26 20:41 OP:spq  STATUS:               ID:20150826140748     3
 2015-08-26-1407-48M.COL___331                                                 6
 STAT SP IPHASW D HRMM SECON CODA AMPLIT PERI AZIMU VELO AIN AR TRES W  DIS CAZ7
 BAR2 EZ EP       1410 52.88                             172   -0.2510 19.4 193 
 BAR2 EZ ES   1   1411  8.57                             172    0.05 7 19.4 193 
 BAR2 EZ I        1411  9.05         7.8 0.18            172           19.4 193 
 PAM  EZ EP   1   1410 56.10                             150    0.16 7 80.3  37 
 PAM  EN ES   1   1411 13.63                             150    0.11 7 80.3  37 
 PAM  EZ I        1411 15.09         4.8 0.44            153           80.3  37 
 RUS  HZ EP       1410 57.08                             145    0.0910 96.5 176 
 RUS  HE ES   1   1411 15.35                             145   -0.06 7 96.5 176 
 RUS  HZ I        1411 16.04         3.4 0.18            148           96.5 176 
 ZAR  HZ EP   1   1411  6.74                             122    0.60 6  206 293 
 ZAR  HE ES       1411 31.62                             122   -0.06 8  206 293 
 ZAR  HZ I        1411 37.57         3.3 0.28            123            206 293 
 SML  HZ EP       1411 10.20                             117   -0.32 8  248 336 
 SML  HE ES   1   1411 39.52                             117    0.04 6  248 336 
 SML  HZ I        1411 41.46         3.4 0.28            118            248 336 
                                                                                
