 2015 1026 1405 10.5 L   6.804 -73.127151.2  RSN  9 0.4 1.9LRSN                1
 GAP=139        0.60       3.7     4.4  6.3 -0.5673E+01  0.9826E+01  0.8537E+00E
 Epicentro: LOS SANTOS - SANTANDER                                             3
 ACTION:UPD 15-12-22 20:43 OP:cam  STATUS:               ID:20151026140510 L   I
 OLDACT:REG 15-10-26 21:43 OP:cara STATUS:               ID:20151026135748     3
 2015-10-26-1357-48M.COL___313                                                 6
 STAT SP IPHASW D HRMM SECON CODA AMPLIT PERI AZIMU VELO AIN AR TRES W  DIS CAZ7
 BAR2 EZ EP     C 14 5 30.72                             170   -0.1310 24.2 195 
 BAR2 EZ ES   2   14 5 46.67                             170   -0.01 5 24.2 195 
 BAR2 EZ I        14 5 48.24        16.1 0.28            165           24.2 195 
 BRR  HZ EP   2   14 5 32.28                             153   -0.09 5 72.8 297 
 BRR  HE ES   2   14 5 50.23                             153    0.83 5 72.8 297 
 BRR  HZ I        14 6  4.08        18.8 0.42            147           72.8 297 
 PAM  EZ EP       14 5 33.48                             152    0.2310 75.7  39 
 PAM  EN ES       14 5 50.91                             152   -0.0410 75.7  39 
 PAM  EZ I        14 5 52.91         8.4 0.60            158           75.7  39 
 RUS  HZ EP   2   14 5 34.64                             145   -0.22 5  101 177 
 RUS  HN ES   2   14 5 53.68                             145   -0.14 5  101 177 
 RUS  HZ I        14 5 54.42         8.1 0.30            152            101 177 
 SPBC HZ EP   2   14 5 39.89                             130    0.27 5  165 219 
 SPBC HN ES   2   14 6  1.32                             130   -0.98 5  165 219 
 SPBC HZ I        14 6  7.84        12.1 0.22            133            165 219 
 ZAR  HZ EP   4   14 5 45.17                             123    1.64 0  206 292 
 ZAR  HN ES   2   14 6  8.99                             123   -0.27 4  206 292 
 ZAR  HZ I        14 6 15.52         5.7 0.21            125            206 292 
 NOR  HZ EP   2   14 5 47.11                             119    0.31 4  237 235 
 NOR  HE ES   2   14 6 15.65                             119    0.57 4  237 235 
 NOR  HZ I        14 6 20.73         6.8 0.18            123            237 235 
 SML  HZ EP   2   14 5 47.46                             118   -0.07 4  244 335 
 SML  HE ES   2   14 6 15.47                             118   -0.91 4  244 335 
 SML  HZ I        14 6 19.54         6.9 0.10            122            244 335 
 GUY2CHZ EP   4   14 5 57.07                             113    2.44 0  303 235 
 GUY2CHN ES   2   14 6 29.43                             113    0.42 4  303 235 
 GUY2CHZ I        14 6 37.14         6.1 0.34                           303 235 
                                                                                
