 2016  626 1856  3.9 L   6.801 -73.120147.2  RSN  7 0.4 2.1LRSN                1
 GAP=140        0.65       4.5     3.3  6.4  0.6465E+00  0.4274E+01  0.1162E+02E
 Epicentro: LOS SANTOS - SANTANDER                                             3
 ACTION:UPD 16-07-21 22:23 OP:rebc STATUS:               ID:20160626185603 L   I
 OLDACT:DUP 16-06-26 22:34 OP:dnl  STATUS:               ID:20160626184747d    3
 2016-06-26-1847-46M.COL___327                                                 6
 STAT SP IPHASW D HRMM SECON CODA AMPLIT PERI AZIMU VELO AIN AR TRES W  DIS CAZ7
 BRR  HZ IP       1856 25.35                             152    0.0410 73.6 297 
 BRR  HN ES       1856 42.29                             152    0.2610 73.6 297 
 BRR  HZ I        1856 43.11        25.9 0.30                          73.6 297 
 PAM  EZ EP       1856 26.47                             151    0.3410 75.6  38 
 PAM  EN ES       1856 43.21                             151   -0.2810 75.6  38 
 PAM  EZ I        1856 44.11        16.6 0.18                          75.6  38 
 RUS  HZ EP       1856 27.62                             144   -0.1310  100 178 
 RUS  HN ES   2   1856 46.59                             144    0.21 5  100 178 
 RUS  HZ I        1856 47.65        11.7 0.24                           100 178 
 PTB  HZ EP   2   1856 30.56                             132   -0.64 5  151 259 
 PTB  HE ES   2   1856 51.56                             132   -0.96 5  151 259 
 PTB  HZ I        1856 54.43        12.7 0.24                           151 259 
 ZAR  HZ EP   2   1856 36.35                             122   -0.32 4  207 292 
 ZAR  HN ES       1857  2.25                             122   -0.01 8  207 292 
 ZAR  HZ I        1857  7.37        24.0 0.58                           207 292 
 HEL  HZ EP   3   1856 43.38                             115   -1.08 2  275 256 
 HEL  HN ES   3   1857 16.43                             115    0.32 2  275 256 
 HEL  HZ I        1857 22.00         6.1 0.32                           275 256 
 GUY2CHZ EP   2   1856 48.46                             112    0.66 4  304 235 
 GUY2CHN ES   2   1857 22.67                             112    0.60 4  304 235 
 GUY2CHZ I        1857 30.39         4.2 0.24                           304 235 
                                                                                
