 2015  126 1058 30.7 L   6.734 -73.159154.0  RSN  4 0.4 1.3LRSN                1
 GAP=231        0.84       8.5     8.3  8.4  0.3574E+02  0.1030E+01  0.5936E+01E
 Epicentro: LOS SANTOS - SANTANDER                                             3
 ACTION:UPD 15-03-02 15:42 OP:nd   STATUS:               ID:20150126105830 L   I
 OLDACT:REG 15-01-26 18:42 OP:spq  STATUS:               ID:20150126104738     3
 2015-01-26-1047-38M.COL___267                                                 6
 STAT SP IPHASW D HRMM SECON CODA AMPLIT PERI AZIMU VELO AIN AR TRES W  DIS CAZ7
 BAR2 EZ EP       1058 50.76                             174   -0.4910 15.9 189 
 BAR2 EZ ES   1   1059  6.83                             174   -0.41 7 15.9 189 
 BAR2 EZ I        1059  7.57         4.2 0.22            169           15.9 189 
 BRR  HZ EP   1   1058 53.04                             153    0.11 7 73.7 304 
 BRR  HE ES       1059 10.63                             153    0.4010 73.7 304 
 BRR  HZ I        1059 15.64         5.8 0.54            150           73.7 304 
 RUS  HZ EP   1   1058 55.35                             148    0.52 7 93.4 175 
 RUS  HE ES   1   1059 13.94                             148    0.32 7 93.4 175 
 RUS  HZ I        1059 15.23         1.8 0.20            149           93.4 175 
 PTB  HZ EP   1   1058 58.02                             135   -0.14 7  145 262 
 PTB  HN ES   1   1059 19.21                             135   -0.32 7  145 262 
 PTB  HZ I        1059 24.88         2.3 0.48            132            145 262 
                                                                                
