 2012 1126 1453 34.4 L   6.772 -73.159146.8  RSN  4 0.1 1.8LRSN                1
 GAP=194        0.31       4.7     2.5  3.4  0.4691E+01  0.1690E+01 -0.5123E+01E
 Epicentro: LOS SANTOS - SANTANDER                                             3
 ACTION:UPD 12-12-05 15:36 OP:}ep  STATUS:               ID:20121126145334 L   I
 2012-11-26-1450-00M.COL___234                                                 6
 STAT SP IPHASW D HRMM SECON CODA AMPLIT PERI AZIMU VELO AIN AR TRES W  DIS CAZ7
 BAR2 SZ EP       1453 54.23                             172    0.1110 20.1 187 
 BAR2 SZ ES       1454  9.47                             172   -0.0110 20.1 187 
 BAR2 SZ I        1454 11.80        11.0 0.13                          20.1 187 
 GIR2 SZ EP   1   1453 54.18                             166   -0.12 7 34.1 354 
 PTB  HZ EP       1454  1.23                             133   -0.07 9  146 260 
 PTB  HE ES   1   1454 22.23                             133   -0.02 7  146 260 
 PTB  HZ I        1454 26.31         5.1 0.21                           146 260 
 ZAR  HZ EP   1   1454  6.95                             123    0.03 6  204 293 
 ZAR  HN ES       1454 32.30                             123    0.04 9  204 293 
 ZAR  HZ I        1454 37.81         9.3 0.29                           204 293 
                                                                                
