 2012  226 1200 42.8 L   6.804 -73.188150.4  RSN  5 0.3 1.3LRSN                1
 GAP=175        0.66       6.1     6.2  6.6  0.1389E+02  0.9977E+01  0.1024E+02E
 ACTION:UP  12-03-07 16:34 OP:epov STATUS:               ID:20120226120042 L   I
 2012-02-26-1200-00M.COL___192                                                 6
 STAT SP IPHASW D HRMM SECON CODA AMPLIT PERI AZIMU VELO AIN AR TRES W  DIS CAZ7
 BAR2 SZ EP   1   12 1  2.62                             171   -0.39 7 23.5 178 
 BAR2 SZ ES   1   12 1 18.57                             171   -0.19 7 23.5 178 
 BAR2 SZ I        12 1 20.57         4.8 0.36                          23.5 178 
 GIR2 SZ ES   1   12 1 18.46                             168   -0.32 7 30.3 359 
 BRR  HZ EP   1   12 1  4.58                             155    0.34 7 66.9 300 
 BRR  HN ES   1   12 1 21.49                             155    0.54 7 66.9 300 
 BRR  HZ I        12 1 23.97         6.7 0.21                          66.9 300 
 RUS  HZ EP   1   12 1  7.21                             144    0.12 7  102 173 
 RUS  HE ES   1   12 1 26.32                             144    0.29 7  102 173 
 RUS  HZ I        12 1 27.42         1.6 0.41                           102 173 
 PTB  HZ EP   1   12 1  9.66                             134   -0.11 7  143 258 
 PTB  HN ES   1   12 1 30.46                             134   -0.33 7  143 258 
                                                                                
