 2012 1026 1210 42.2 L   6.788 -73.175139.6  RSN  4 0.1 1.7LRSN                1
 GAP=133        0.34       2.7     2.9  6.6  0.9121E+00  0.3185E+01 -0.5262E+01E
 Epicentro: LOS SANTOS - SANTANDER                                             3
 ACTION:UPD 12-11-22 17:06 OP:ep   STATUS:               ID:20121026121042 L   I
 2012-10-26-1210-00M.COL___228                                                 6
 STAT SP IPHASW D HRMM SECON CODA AMPLIT PERI AZIMU VELO AIN AR TRES W  DIS CAZ7
 BRR  HZ EP   2   1211  2.23                             152   -0.33 5 69.0 301 
 BRR  HZ I        1211  4.45        14.9 0.52                          69.0 301 
 PAM  SZ EP       1211  3.97                             149    0.0110 80.5  41 
 PAM  SZ I        1211  4.36        13.6 0.23                          80.5  41 
 PAM  SN ES   2   1211 20.98                             149    0.05 5 80.5  41 
 RUS  HZ EP   1   1211  5.35                             143    0.08 7 99.5 174 
 RUS  HE ES   1   1211 23.24                             143   -0.02 7 99.5 174 
 RUS  HE I        1211 24.92         6.3 0.21                          99.5 174 
 ZAR  HE ES   1   1211 38.86                             121    0.08 6  202 293 
 ZAR  HZ I        1211 44.77         3.1 0.14                           202 293 
                                                                                
