 2012  226 1431  8.8 L   6.810 -72.816 13.3  RSN  4 0.1 0.8LRSN                1
 GAP=184        0.39       1.4     4.7 25.8 -0.2074E+01 -0.1045E+03  0.1298E+02E
 ACTION:UP  12-03-07 16:34 OP:epov STATUS:               ID:20120226143108 L   I
 2012-02-26-1430-00M.COL___193                                                 6
 STAT SP IPHASW D HRMM SECON CODA AMPLIT PERI AZIMU VELO AIN AR TRES W  DIS CAZ7
 BAR2 SZ EP   1   1431 16.95                             103   -0.02 7 47.1 239 
 BAR2 SZ ES   1   1431 23.44                             103    0.12 7 47.1 239 
 BAR2 SZ I        1431 24.22        13.1 0.22                          47.1 239 
 GIR2 SZ EP       1431 17.41                             102   -0.0710 51.3 306 
 GIR2 SZ ES   1   1431 24.20                             102   -0.02 7 51.3 306 
 PAM  SZ EP   1   1431 19.16                             101    0.02 7 60.0  12 
 PAM  SZ I        1431 19.37         2.4 0.17                          60.0  12 
 RUS  HZ EP   1   1431 26.28                              96    0.27 7  106 196 
 RUS  HN ES   1   1431 39.16                              96   -0.24 7  106 196 
 RUS  HZ I        1431 40.65         2.1 0.34                           106 196 
                                                                                
