 2012  126 1502 27.7 L   6.762 -73.169147.3  RSN  5 0.2 1.4LRSN                1
 GAP=179        0.51       6.4     5.8  6.4  0.1361E+02  0.1471E+02  0.1950E+02E
 Epicentro: LOS SANTOS - SANTANDER                                             3
 ACTION:UP  12-02-03 08:21 OP:REBC STATUS:               ID:20120126150227 L   I
 2012-01-26-1500-00M.COL___188                                                 6
 STAT SP IPHASW D HRMM SECON CODA AMPLIT PERI AZIMU VELO SNR AR TRES W  DIS CAZ7
 BAR2 SZ EP       15 2 47.42                             173     0.010   19 184 
 BAR2 SZ ES   2   15 3  2.94                             173     0.1 5   19 184 
 BAR2 SZ I        15 3  6.48         5.7 0.54                            19 184 
 GIR2 SZ ES   1   15 3  3.03                             165    -0.2 7   35 356 
 BRR  HZ EP       15 2 49.33                             153     0.310   71 302 
 BRR  HZ I        15 3  4.90        15.1 0.38                            71 302 
 BRR  HN ES   3   15 3  6.16                             153     0.5 2   71 302 
 RUS  HZ EP       15 2 51.28                             145    -0.110   97 174 
 RUS  HN ES   3   15 3 10.15                             145     0.4 2   97 174 
 RUS  HZ I        15 3 11.22         2.3 0.48                            97 174 
 PTB  HZ EP       15 2 54.32                             133    -0.2 9  144 260 
 PTB  HN ES   2   15 3 15.30                             133    -0.1 5  144 260 
 PTB  HZ I        15 3 22.75         1.5 0.42                           144 260 
                                                                                
