 2017  826 1532 28.4 L   6.781 -73.121151.6  RSN 10 0.3 1.7LRSN                1
 GAP=115        0.69       2.6     2.6  4.1  0.5512E+00  0.3129E+01  0.3689E+01E
 Epicentro: LOS SANTOS - SANTANDER                                             3
 ACTION:UPD 17-09-04 20:24 OP:rebc STATUS:               ID:20170826153228 L   I
 OLDACT:UP  17-08-26 23:52 OP:edw  STATUS:               ID:20170826152739     3
 OLDACT:REG 17-08-26 21:02 OP:edw  STATUS:               ID:20170826152739     3
 2017-08-26-1528-00M.COL___408                                                 6
 STAT SP IPHASW D HRMM SECON CODA AMPLIT PERI AZIMU VELO AIN AR TRES W  DIS CAZ7
 BAR2 EZ EP       1532 48.51                             171   -0.1810 22.0 198 
 BAR2 EZ ES       1533  4.78                             171    0.2610 22.0 198 
 BAR2 EZ I        1533  7.04         8.5 0.50            169           22.0 198 
 BRR  HZ EP       1532 50.34                             152   -0.0110 74.6 299 
 BRR  HN ES       1533  7.85                             152    0.3710 74.6 299 
 PAM  EZ EP     D 1532 51.38                             152    0.1710 77.3  37 
 PAM  EN ES       1533  8.60                             152   -0.4210 77.3  37 
 PAM  EZ I        1533 10.37         9.9 0.46            155           77.3  37 
 RUS  HZ EP       1532 52.46                             146   -0.0910 98.4 178 
 RUS  HN ES       1533 11.24                             146   -0.1710 98.4 178 
 RUS  HZ I        1533 12.89         4.0 0.34            144           98.4 178 
 SPBC HZ EP   2   1532 57.06                             130   -0.29 5  163 220 
 SPBC HN ES   2   1533 19.77                             130   -0.17 5  163 220 
 YPLC HZ EP       1532 58.75                             128    0.44 9  174 152 
 YPLC HE ES       1533 21.54                             128   -0.10 9  174 152 
 YPLC HZ I        1533 26.13         4.3 0.20            128            174 152 
 ZAR  HN ES       1533 27.20                             123   -0.22 8  207 292 
 NOR  HZ EP       1533  4.60                             120    0.03 8  236 235 
 NOR  HN ES       1533 33.10                             120    0.31 8  236 235 
 NOR  HZ I        1533 35.13         3.8 0.18            120            236 235 
 GUY2CHZ EP       1533 12.76                             113    0.37 7  302 235 
 GUY2CHN ES       1533 46.01                             113   -0.70 7  302 235 
 GUY2CHZ I        1533 55.41         4.2 0.62                           302 235 
 PRA  HZ EP       1533 21.75                             107   -0.31 6  392 210 
 PRA  HE ES       1534  4.24                             107    0.31 6  392 210 
 PRA  HZ I        1534 13.10         2.5 0.30            108            392 210 
                                                                                
