 2015 1226 1122 11.3 L   6.762 -73.141149.1  RSN  6 0.3 1.7LRSN                1
 GAP=201        0.70       2.4     4.8  4.7 -0.2498E+00  0.1153E+01  0.1186E+01E
 Epicentro: LOS SANTOS - SANTANDER                                             3
 ACTION:UPD 16-02-04 15:07 OP:cam  STATUS:               ID:20151226112211 L   I
 OLDACT:REG 15-12-26 19:53 OP:cara STATUS:               ID:20151226111750     3
 2015-12-26-1117-50M.COL___337                                                 6
 STAT SP IPHASW D HRMM SECON CODA AMPLIT PERI AZIMU VELO AIN AR TRES W  DIS CAZ7
 BAR2 EZ IP       1122 30.92                             172   -0.3010 19.3 194 
 BAR2 EZ ES       1122 46.75                             172   -0.0410 19.3 194 
 BAR2 EZ I        1122 46.98         7.3 0.28            167           19.3 194 
 BRR  HZ EP       1122 32.63                             152   -0.2810 73.7 301 
 BRR  HN ES       1122 50.14                             152    0.3410 73.7 301 
 BRR  HZ I        1122 52.94         6.9 0.26            148           73.7 301 
 SPBC HZ EP       1122 39.56                             130   -0.18 9  160 220 
 SPBC HN ES       1123  2.01                             130    0.05 9  160 220 
 SPBC HZ I        1123  8.28         6.6 0.32            129            160 220 
 OCA  HZ EP       1122 40.16                             130   -0.06 9  164 353 
 OCA  HN ES       1123  2.98                             130    0.16 9  164 353 
 OCA  HZ I        1123  5.01        15.3 0.20            130            164 353 
 ZAR  HZ EP       1122 44.70                             123    0.56 8  206 293 
 ZAR  HN ES       1123  9.33                             123   -0.45 8  206 293 
 ZAR  HZ I        1123 15.78         3.4 0.32            121            206 293 
 CHI  HZ EP       1122 48.94                             118    0.22 8  245 196 
 CHI  HN ES       1123 18.08                             118    0.14 8  245 196 
 CHI  HZ I        1123 22.22         1.3 0.54            118            245 196 
                                                                                
