 2016  526 1032 29.0 L   6.830 -73.147147.7  RSN  8 0.4 1.8LRSN                1
 GAP=135        1.11       3.9     5.2  6.6 -0.7053E+01  0.7032E+01  0.4480E+00E
 Epicentro: LOS SANTOS - SANTANDER                                             3
 ACTION:UPD 16-08-18 17:49 OP:cam  STATUS:               ID:20160526103229 L   I
 OLDACT:DUP 16-05-26 21:38 OP:ar   STATUS:               ID:20160526102745d    3
 OLDACT:REG 16-05-26 20:36 OP:ar   STATUS:               ID:20160526102744     3
 2016-05-26-1027-44M.COL___307                                                 6
 STAT SP IPHASW D HRMM SECON CODA AMPLIT PERI AZIMU VELO AIN AR TRES W  DIS CAZ7
 BAR2 EZ EP       1032 48.89                             169   -0.0110 26.6 188 
 BAR2 EZ ES       1033  4.07                             169   -0.3810 26.6 188 
 BAR2 EZ I        1033  5.19        12.4 0.24            168           26.6 188 
 BRR  HZ EP       1032 50.68                             153    0.4410 69.5 296 
 BRR  HN ES       1033  7.75                             153    0.9210 69.5 296 
 BRR  HZ I        1033  8.12        15.8 0.32            152           69.5 296 
 PAM  EZ EP       1032 51.62                             152    0.3710 75.0  41 
 PAM  EN ES       1033  8.66                             152    0.0310 75.0  41 
 PAM  EZ I        1033 10.77         8.4 0.32            155           75.0  41 
 RUS  HZ EP       1032 52.97                             143   -0.1810  104 176 
 RUS  HN ES       1033 11.97                             143   -0.0410  104 176 
 RUS  HZ I        1033 13.33         4.6 0.22            145            104 176 
 PTB  HZ EP       1032 55.51                             132   -0.64 9  148 258 
 PTB  HN ES       1033 16.63                             132   -0.71 9  148 258 
 PTB  HZ I        1033 22.40         7.9 0.48            132            148 258 
 OCA  HZ EP       1032 56.93                             131   -0.20 9  157 353 
 OCA  HN ES       1033 18.60                             131   -0.49 9  157 353 
 OCA  HZ I        1033 21.57        15.5 0.22            132            157 353 
 SPBC HZ EP       1032 57.98                             129    0.12 9  166 218 
 SPBC HN ES       1033 20.30                             129   -0.08 9  166 218 
 SPBC HZ I        1033 26.13         8.5 0.26            129            166 218 
 NOR  HZ EP       1033  5.48                             119    0.47 8  237 234 
 NOR  HE ES       1033 33.51                             119    0.39 8  237 234 
 NOR  HZ I        1033 38.99         5.6 0.20            119            237 234 
                                                                                
