 2011  426 1053 38.2 L   6.547 -73.540110.9  RSN  9 0.3 2.0LRSN                1
 GAP= 89        0.58       2.6     3.3  4.7 -0.1810E+01  0.5111E+01 -0.1483E+01E
 Epicentro: EL CARMEN DE CHUCURI - SANTANDER                                   3
 ACTION:UP  11-06-22 15:33 OP:REBC STATUS:               ID:20110426105338 L   I
 2011-04-26-1050-58S.COL___137                                                 6
 STAT SP IPHASW D HRMM SECON CODA AMPLIT PERI AZIMU VELO SNR AR TRES W  DIS CAZ7
 BAR2 SZ IP       1053 54.47                             159     0.210   40  83 
 BAR2 SZ ES   1   1054  6.81                             159     0.1 7   40  83 
 BAR2 SZ I        1054  8.56        94.8 0.43                            40  83 
 BRR  HZ EP   1   1053 55.20                             147    -0.1 7   65 343 
 BRR  HN ES   1   1054  8.50                             147    -0.1 7   65 343 
 BRR  HZ I        1054 19.27        18.1 0.20                            65 343 
 RUS  HZ EP   1   1053 57.83                             139     0.2 7   88 145 
 RUS  HN ES   1   1054 12.84                             139     0.0 7   88 145 
 BRI  SZ EP   1   1054  3.11                             122    -0.2 7  153  32 
 GRA  SZ EP   1   1054  5.12                             119     0.2 7  169  29 
 GRA  SZ ES   1   1054 25.43                             119    -0.4 7  169  29 
 GRA  SZ I        1054 27.73        12.3 0.40                           169  29 
 YOP  SZ EP   2   1054  5.62                             117    -0.6 4  181 137 
 YOP  SZ I        1054 30.26        15.5 0.30                           181 137 
 NOR  SZ EP   1   1054  6.13                             116    -0.2 7  183 234 
 NOR  SE ES   2   1054 27.78                             116    -0.6 4  183 234 
 OCA  SZ EP   1   1054  7.63                             116     0.5 7  189   7 
 OCA  SZ ES   2   1054 29.49                             116    -0.2 4  189   7 
 OCA  SZ I        1054 36.54        14.7 0.31                           189   7 
 HEL  HZ EP   1   1054 11.54                             111     0.2 6  224 260 
 HEL  HE ES   2   1054 37.23                             111     0.1 4  224 260 
 HEL  HZ I        1054 39.14         4.9 0.36                           224 260 
                                                                                
