 2014  526 1434 32.2 L   6.810 -73.160140.2  RSN  7 0.5 1.7LRSN                1
 GAP=134        1.30       5.2     6.2  8.2 -0.6926E+01  0.5212E+01  0.1164E+02E
 Epicentro: LOS SANTOS - SANTANDER                                             3
 ACTION:UPD 15-03-16 17:00 OP:nd   STATUS:               ID:20140526143432 L   I
 OLDACT:REG 14-05-26 23:31 OP:stll STATUS:               ID:20140526142807     3
 2014-05-26-1428-07M.COL___265                                                 6
 STAT SP IPHASW D HRMM SECON CODA AMPLIT PERI AZIMU VELO AIN AR TRES W  DIS CAZ7
 BAR2 SZ EP       1434 51.12                             170   -0.0110 24.2 186 
 BAR2 SZ ES       1435  5.82                             170   -0.1210 24.2 186 
 BAR2 SZ I        1435  7.39        17.0 0.16            168           24.2 186 
 BRR  HZ EP       1434 52.93                             152    0.3410 69.3 298 
 BRR  HN ES       1435  9.51                             152    0.9810 69.3 298 
 PAM  SZ EP       1434 53.85                             150    0.0610 77.6  41 
 PAM  SZ I        1434 54.14        18.5 0.20            153           77.6  41 
 PAM  SE ES       1435 10.17                             150   -0.5010 77.6  41 
 RUS  HZ EP       1434 55.52                             142    0.0710  102 175 
 RUS  HN ES       1435 13.54                             142   -0.0810  102 175 
 RUS  HZ I        1435 14.61         3.0 0.18            142            102 175 
 PTB  HZ EP       1434 58.76                             131    0.22 9  146 258 
 PTB  HN ES       1435 17.98                             131   -1.15 9  146 258 
 PTB  HZ I        1435 22.55         4.6 0.14            131            146 258 
 SPBC HZ EP       1435  0.16                             128   -0.05 9  163 218 
 SPBC HE ES       1435 21.99                             128   -0.11 9  163 218 
 SPBC HZ I        1435 28.22         4.9 0.24            128            163 218 
 CHI  HZ EP       1435  9.07                             116   -0.55 8  249 195 
 CHI  HN ES       1435 39.73                             116    0.89 8  249 195 
                                                                                
