 2015 1226 1246 16.0 L   6.797 -73.207141.0  RSN  5 0.2 1.5LRSN                1
 GAP=239        0.53       3.6     3.8  4.6  0.7961E+01  0.7031E+01  0.4172E+01E
 Epicentro: ZAPATOCA - SANTANDER                                               3
 ACTION:UPD 16-02-04 15:07 OP:cam  STATUS:               ID:20151226124616 L   I
 OLDACT:REG 15-12-26 19:57 OP:cara STATUS:               ID:20151226123750     3
 2015-12-26-1237-50M.COL___334                                                 6
 STAT SP IPHASW D HRMM SECON CODA AMPLIT PERI AZIMU VELO AIN AR TRES W  DIS CAZ7
 BAR2 EZ EP       1246 34.90                             170   -0.1010 22.7 173 
 BAR2 EZ ES       1246 49.83                             170   -0.0310 22.7 173 
 BAR2 EZ I        1246 51.18        14.8 0.18            167           22.7 173 
 RUS  HN ES       1246 57.59                             143    0.1410  101 172 
 RUS  HZ I        1246 58.48         5.2 0.18            141            101 172 
 PTB  HZ EP       1246 41.96                             132    0.03 9  141 258 
 PTB  HN ES       1247  1.85                             132   -0.34 9  141 258 
 PTB  HZ I        1247  4.90         2.7 0.10            131            141 258 
 ZAR  HE ES       1247 12.38                             122    0.34 9  198 293 
 CHI  HZ EP       1246 53.00                             116   -0.17 8  247 194 
 CHI  HN ES       1247 22.40                             116    0.20 8  247 194 
 CHI  HZ I        1247 26.26         1.6 0.72            116            247 194 
                                                                                
