 2011  226 1155 47.0 L   6.777 -73.061142.9  RSN  5 0.2 1.5LRSN                1
 GAP=168        0.37       3.3    13.6  3.8 -0.3332E+02 -0.5139E+01  0.1453E+01E
 Epicentro: LOS SANTOS - SANTANDER                                             3
 ACTION:UP  11-03-28 15:11 OP:jfem STATUS:               ID:20110226115547 L   I
 2011-02-26-1152-36S.COL___136                                                 6
 STAT SP IPHASW D HRMM SECON CODA AMPLIT PERI AZIMU VELO SNR AR TRES W  DIS CAZ7
 BAR2 SZ EP       1156  6.30                             170     0.010   25 213 
 BAR2 SZ ES   1   1156 21.40                             170     0.0 7   25 213 
 BAR2 SZ I        1156 22.84        12.3 0.40                            25 213 
 RUS  HZ EP       1156 10.31                             144     0.110   98 181 
 RUS  HN ES   2   1156 28.33                             144    -0.1 5   98 181 
 RUS  HZ I        1156 30.33         3.8 0.32                            98 181 
 GRA  SZ EP       1156 12.06                             136     0.110  126  13 
 GRA  SZ ES   2   1156 31.17                             136    -0.3 5  126  13 
 GRA  SZ I        1156 33.02         3.0 0.52                           126  13 
 OCA  SZ ES   3   1156 37.56                             128    -0.1 2  164 350 
 CHI  HZ EP       1156 24.39                             116    -0.2 8  249 197 
 CHI  HN ES   3   1156 54.67                             116     0.8 2  249 197 
 CHI  HZ I        1157  1.06         1.8 0.60                           249 197 
                                                                                
