 2012  326 1348 42.5 L   6.763 -73.157153.7  RSN  6 0.3 1.7LRSN                1
 GAP=137        0.55       5.1     3.9  6.5  0.2414E+00  0.2427E+01 -0.7015E+00E
 ACTION:UP  12-03-31 23:23 OP:EP   STATUS:               ID:20120326134001dL   I
 2012-03-26-1340-00M.COL___196                                                 6
 STAT SP IPHASW D HRMM SECON CODA AMPLIT PERI AZIMU VELO SNR AR TRES W  DIS CAZ7
 BAR2 SZ EP   2   1349  3.14                             173     0.1 5   19 188 
 BAR2 SZ ES   2   1349 18.57                             173    -0.5 5   19 188 
 BAR2 SZ I        1349 20.23        12.0 0.29                            19 188 
 BRR  HZ EP   2   1349  4.78                             154     0.2 5   72 302 
 BRR  HN ES   2   1349 22.51                             154     0.7 5   72 302 
 PAM  SZ EP   1   1349  6.00                             151     0.2 7   81  38 
 PAM  SN ES   2   1349 23.59                             151    -0.4 5   81  38 
 RUS  HZ EP   1   1349  6.86                             146     0.1 7   97 175 
 RUS  HN ES   2   1349 26.07                             146     0.3 5   97 175 
 RUS  HZ I        1349 27.50         6.1 0.40                            97 175 
 PTB  HZ EP   1   1349  9.82                             134    -0.2 7  146 260 
 PTB  HN ES   1   1349 31.18                             134    -0.2 7  146 260 
 PTB  HZ I        1349 32.88         5.3 0.25                           146 260 
 ZAR  HZ EP   2   1349 15.31                             124    -0.2 4  204 293 
 ZAR  HN ES   2   1349 41.39                             124     0.1 4  204 293 
 ZAR  HZ I        1349 48.26         6.7 0.28                           204 293 
                                                                                
