 2015  926 1044 49.1 L   6.800 -73.116156.7  RSN  7 0.3 1.8LRSN                1
 GAP=206        0.77       3.2     5.1  5.6 -0.2287E+01  0.5480E+00 -0.1038E+01E
 Epicentro: LOS SANTOS - SANTANDER                                             3
 ACTION:UPD 15-10-28 16:28 OP:cam  STATUS:               ID:20150926104449 L   I
 OLDACT:DUP 15-09-27 00:54 OP:spq  STATUS:               ID:20150926103749d    3
 2015-09-26-1037-48M.COL___355                                                 6
 STAT SP IPHASW D HRMM SECON CODA AMPLIT PERI AZIMU VELO AIN AR TRES W  DIS CAZ7
 BAR2 EZ EP     C 1045 10.27                             171    0.2110 24.1 198 
 BAR2 EZ ES   1   1045 26.04                             171   -0.37 7 24.1 198 
 BAR2 EZ I        1045 27.99         5.9 0.32            171           24.1 198 
 BRR  HZ EP   1   1045 12.21                             153    0.61 7 74.1 297 
 BRR  HE ES       1045 29.60                             153    0.4610 74.1 297 
 BRR  HZ I        1045 37.29         7.4 0.22            151           74.1 297 
 PTB  HZ EP       1045 16.84                             134   -0.42 9  151 259 
 PTB  HN ES       1045 39.11                             134   -0.12 9  151 259 
 PTB  HZ I        1045 42.87         6.9 0.14            135            151 259 
 OCA  HE ES       1045 40.66                             132   -0.45 9  161 352 
 OCA  HZ I        1045 44.96        10.6 0.15            134            161 352 
 SPBC HZ EP       1045 18.83                             131    0.18 9  165 220 
 SPBC HE ES       1045 41.54                             131   -0.16 9  165 220 
 SPBC HZ I        1045 45.87         8.4 0.12            134            165 220 
 ZAR  HZ EP       1045 22.32                             124   -0.27 8  207 292 
 ZAR  HE ES       1045 48.80                             124    0.10 8  207 292 
 ZAR  HZ I        1045 54.37        10.0 0.34            126            207 292 
 SML  HZ EP       1045 26.70                             119    0.19 8  245 335 
 SML  HE ES   1   1045 55.77                             119    0.08 6  245 335 
 SML  HZ I        1046  0.07         6.7 0.08            122            245 335 
                                                                                
