 2010  426 1712 56.9 L   6.739 -73.021146.0  RSN  4 0.2 2.0LRSN                1
 GAP=274        0.38       4.7     7.9  5.5 -0.7400E+01  0.4510E+01  0.1300E+02E
 Epicentro: ARATOCA - SANTANDER                                                3
 ACTION:UPD 10-08-24 10:01 OP:vdl  STATUS:               ID:20100426171307 L   I
 2010-04-26-1711-25S.COL___104                                                 6
 STAT SP IPHASW D HRMM SECON CODA AMPLIT PERI AZIMU VELO AIN AR TRES W  DIS CAZ7
 BAR2 SZ EP   2   1713 16.50                             170    -0.1 5   24 228 
 BAR2 SZ ES   2   1713 32.04                             170     0.1 5   24 228 
 BRR  HZ IP     C 1713 19.06                             148     0.010   87 298 
 BRR  HZ I        1713 21.37        21.8 0.15                            87 298 
 BRR  HN ES   2   1713 36.28                             148     0.0 5   87 298 
 RREF BZ EP   2   1713 44.38                             111     0.6 3  328 232 
 RREF BE ES   2   1714 20.04                             111    -0.3 3  328 232 
 RREF BZ I        1714 28.74         3.7 0.25                           328 232 
 PRA  HZ IP     C 1713 50.47                             107    -0.1 6  393 212 
 PRA  HE ES   2   1714 32.83                             107     0.4 3  393 212 
 PRA  HZ I        1714 39.33         3.0 0.48                           393 212 
                                                                                
