 2015  226 1231 19.7 L   6.785 -73.129141.3  RSN 10 0.4 2.1LRSN                1
 GAP=139        0.97       4.0     4.9  5.5 -0.7610E+01  0.6785E+01  0.6254E+01E
 Epicentro: LOS SANTOS - SANTANDER                                             3
 ACTION:UPD 15-04-30 21:29 OP:nd   STATUS:               ID:20150226123119 L   I
 OLDACT:REG 15-02-26 21:29 OP:carl STATUS:               ID:20150226122747     3
 2015-02-26-1227-47M.COL___290                                                 6
 STAT SP IPHASW D HRMM SECON CODA AMPLIT PERI AZIMU VELO AIN AR TRES W  DIS CAZ7
 BAR2 EZ EP       1231 38.62                             171   -0.1210 22.1 196 
 BAR2 EZ ES       1231 53.30                             171   -0.3210 22.1 196 
 BAR2 EZ I        1231 54.65        41.5 0.12            166           22.1 196 
 BRR  HZ EP       1231 40.50                             151    0.0110 73.7 299 
 BRR  HN ES       1231 57.17                             151    0.4510 73.7 299 
 BRR  HZ I        1232  0.77        24.5 0.44            150           73.7 299 
 PAM  SZ EP       1231 41.42                             150   -0.0010 77.5  38 
 PAM  SN ES       1231 58.64                             150    0.2510 77.5  38 
 PAM  SZ I        1232  0.00        15.8 0.44            157           77.5  38 
 RUS  HZ EP       1231 42.57                             143   -0.2910 98.8 177 
 RUS  HE ES       1232  0.99                             143    0.0410 98.8 177 
 RUS  HZ I        1232  2.08         9.0 0.14            144           98.8 177 
 SPBC HZ EP       1231 47.70                             128   -0.13 9  163 220 
 SPBC HN ES       1232  9.55                             128   -0.24 9  163 220 
 SPBC HZ I        1232 19.88        22.6 0.20            128            163 220 
 NOR  HZ EP       1231 54.30                             117   -0.91 8  235 235 
 NOR  HN ES       1232 22.16                             117   -0.77 8  235 235 
 NOR  HZ I        1232 26.59        14.9 0.30            118            235 235 
 CHI  HZ EP       1231 56.74                             116   -0.27 8  248 196 
 CHI  HN ES       1232 26.74                             116    0.61 8  248 196 
 CHI  HZ I        1232 33.27         4.0 0.52            118            248 196 
 GUY2CHZ EP       1232  3.25                             111    0.10 7  302 235 
 GUY2CHN ES       1232 37.42                             111    0.37 7  302 235 
 GUY2CHZ I        1232 45.17         8.9 0.56                           302 235 
 TOL  SZ EP       1232  8.53                             108    0.76 7  344 225 
 TOL  SN ES       1232 45.52                             108    0.23 7  344 225 
 TOL  SZ I        1232 54.92         4.8 0.40            110            344 225 
 PRA  HZ EP       1232 13.46                             106    0.48 6  392 210 
 PRA  HN ES       1232 55.57                             106    1.01 6  392 210 
 PRA  HZ I        1233  1.55         5.5 0.52            107            392 210 
                                                                                
