 2015 1026 1525 16.0 L   6.793 -73.104145.1  RSN 14 0.5 2.3LRSN                1
 GAP=142        0.96       3.2     4.4  5.1 -0.3195E+01  0.8966E+01  0.6290E+00E
 Epicentro: LOS SANTOS - SANTANDER                                             3
 ACTION:UPD 15-12-22 20:43 OP:cam  STATUS:               ID:20151026152516 L   I
 OLDACT:REG 15-10-26 22:04 OP:cara STATUS:               ID:20151026151749     3
 2015-10-26-1517-49M.COL___313                                                 6
 STAT SP IPHASW D HRMM SECON CODA AMPLIT PERI AZIMU VELO AIN AR TRES W  DIS CAZ7
 BAR2 EZ IP     C 1525 35.49                             170   -0.0410 23.8 201 
 BAR2 EZ ES       1525 49.84                             170   -0.9510 23.8 201 
 BAR2 EZ I        1525 51.40        35.4 0.20            166           23.8 201 
 PAM  EZ EP       1525 38.49                             151    0.5110 75.1  36 
 PAM  EN ES       1525 55.46                             151    0.3110 75.1  36 
 PAM  EZ I        1525 56.09        29.2 0.34            155           75.1  36 
 BRR  HZ IP     C 1525 37.48                             151    0.1810 75.6 297 
 BRR  HN ES       1525 54.57                             151    0.6310 75.6 297 
 BRR  HZ I        1525 54.99        37.9 0.14            146           75.6 297 
 RUS  HZ EP       1525 39.43                             144   -0.1610 99.6 179 
 RUS  HN ES       1525 57.98                             144   -0.0310 99.6 179 
 RUS  HZ I        1526  0.09        12.5 0.34            144           99.6 179 
 SPBC HZ EP       1525 44.46                             128   -0.18 9  166 220 
 SPBC HN ES       1526  7.04                             128    0.03 9  166 220 
 SPBC HZ I        1526 13.16        37.9 0.38            127            166 220 
 ZAR  HZ EP       1525 48.66                             121   -0.18 8  209 292 
 ZAR  HN ES   2   1526 14.99                             121    0.51 4  209 292 
 ZAR  HZ I        1526 19.98        24.6 0.30            120            209 292 
 NOR  HZ EP       1525 51.53                             118   -0.49 8  238 235 
 NOR  HN ES       1526 19.66                             118   -0.48 8  238 235 
 NOR  HZ I        1526 24.47        23.9 0.22            117            238 235 
 SML  HZ EP       1525 52.20                             117   -0.65 8  246 334 
 SML  HN ES   2   1526 20.86                             117   -0.75 4  246 334 
 SML  HZ I        1526 30.09        22.7 0.10            117            246 334 
 CHI  HZ EP       1525 53.78                             117    0.09 8  249 196 
 CHI  HE ES       1526 23.45                             117    0.34 8  249 196 
 CHI  HZ I        1526 28.83         7.1 0.26            117            249 196 
 HEL  HZ EP   4   1525 57.67                             114    1.05 0  276 256 
 HEL  HN ES   2   1526 28.98                             114    0.65 4  276 256 
 HEL  HZ I        1526 33.64        13.9 0.24            113            276 256 
 GUY2CHZ EP       1526  0.32                             112    0.39 7  305 235 
 GUY2CHN ES   2   1526 34.97                             112    0.76 4  305 235 
 GUY2CHZ I        1526 42.35        17.3 0.42                           305 235 
 ELA  HZ EP   4   1526  4.89                             110    1.75 0  332 230 
 ELA  HN ES   4   1526 42.40                             110    2.47 0  332 230 
 ELA  HZ I        1526 48.72         9.6 0.54            110            332 230 
 CBOC HZ EP       1526  3.99                             109    0.66 7  338 252 
 CBOC HE ES   2   1526 39.41                             109   -0.87 3  338 252 
 CBOC HZ I        1526 52.17         4.6 0.64            109            338 252 
 ANIL HE ES   4   1526 48.20                             108    3.07 0  360 225 
 PAL  HZ EP   2   1526 11.72                             105    0.19 3  409 239 
 PAL  HE ES       1526 54.85                             105   -0.01 6  409 239 
 PAL  HZ I        1526 57.60         6.1 0.28            105            409 239 
                                                                                
