 2010  326 1323 34.4 L   6.791 -72.953145.4  RSN  7 0.3 2.3LRSN                1
 GAP=214        0.52       3.9     8.1  8.1 -0.1016E+02 -0.5735E+01  0.1530E+02E
 Epicentro: CEPITA - SANTANDER                                                 3
 ACTION:UP  10-08-24 09:56 OP:vdl  STATUS:               ID:20100326132334 L   I
 2010-03-26-1319-01S.COL___098                                                 6
 STAT SP IPHASW D HRMM SECON CODA AMPLIT PERI AZIMU VELO SNR AR TRES W  DIS CAZ7
 BAR2 SZ EP   1   1323 54.51                             166     0.2 7   34 229 
 BRR  HZ EP   1   1323 56.50                             146    -0.3 7   91 293 
 BRR  HZ I        1323 56.79        70.7 0.17                            91 293 
 BRR  HE ES   2   1324 14.07                             146    -0.1 5   91 293 
 OCA  SZ EP   1   1324  2.96                             129    -0.2 7  165 346 
 OCA  SZ ES   2   1324 25.93                             129     0.3 5  165 346 
 CHI  HZ EP   1   1324 12.51                             116    -0.2 6  254 200 
 CHI  HN ES   2   1324 42.84                             116     0.3 4  254 200 
 CHI  HZ I        1324 47.76         5.7 0.47                           254 200 
 HEL  HZ EP   1   1324 17.05                             113     0.1 5  293 257 
 HEL  HZ I        1324 53.57         5.7 0.54                           293 257 
 RREF BZ EP   1   1324 22.99                             110     0.6 5  338 232 
 RREF BN ES   2   1324 59.45                             110    -0.3 3  338 232 
 RREF BZ I        1325  5.71         9.6 0.46                           338 232 
 PRA  HZ EP   1   1324 29.02                             106    -0.1 4  402 212 
 PRA  HN ES   2   1325 11.43                             106    -0.4 3  402 212 
 PRA  HZ I        1325 13.74         5.2 0.35                           402 212 
                                                                                
