 2014  226 1234  1.1 L   6.809 -73.140144.4  RSN  8 0.3 1.9LRSN                1
 GAP=137        0.73       2.4     3.8  5.4 -0.3242E+00  0.9383E+01 -0.9113E-01E
 Epicentro: LOS SANTOS - SANTANDER                                             3
 ACTION:UPD 14-03-10 08:13 OP:ep   STATUS:               ID:20140226123401 L   I
 OLDACT:UP  14-02-26 17:31 OP:cam  STATUS:               ID:20140226122818     3
 OLDACT:UP  14-02-26 17:31 OP:cam  STATUS:               ID:20140226122818     3
 OLDACT:REG 14-02-26 16:51 OP:cam  STATUS:               ID:20140226122818     3
 2014-02-26-1228-18M.COL___229                                                 6
 STAT SP IPHASW D HRMM SECON CODA AMPLIT PERI AZIMU VELO AIN AR TRES W  DIS CAZ7
 BAR2 SZ EP       1234 20.50                             170   -0.0610 24.4 191 
 BAR2 SZ ES       1234 35.49                             170   -0.2710 24.4 191 
 BAR2 SZ I        1234 36.40        47.6 0.36            169           24.4 191 
 PAM  SZ EP       1234 23.39                             151    0.3210 76.3  40 
 PAM  SE ES       1234 40.48                             151    0.2410 76.3  40 
 PAM  SZ I        1234 42.78        17.8 0.50            152           76.3  40 
 RUS  HZ EP       1234 24.85                             143    0.1010  102 176 
 RUS  HN ES       1234 42.97                             143   -0.2610  102 176 
 RUS  HZ I        1234 43.80         9.1 0.24            143            102 176 
 PTB  HZ EP   1   1234 27.16                             131   -0.84 7  149 259 
 PTB  HN ES   4   1234 47.46                             131   -1.54 0  149 259 
 PTB  HZ I        1234 50.07        10.0 0.46            129            149 259 
 ZAR  HZ EP   4   1234 35.06                             122    1.61 0  204 292 
 ZAR  HN ES       1234 59.14                             122    0.44 9  204 292 
 ZAR  HZ I        1235  5.45        10.2 0.26            120            204 292 
 NOR  HZ EP   1   1234 36.76                             118   -0.08 6  236 234 
 NOR  HE ES       1235  4.97                             118    0.24 8  236 234 
 NOR  HZ I        1235  8.59         3.9 0.18            117            236 234 
 SML  HZ EP   1   1234 37.21                             117   -0.34 6  243 335 
 SML  HN ES       1235  5.73                             117   -0.28 8  243 335 
 SML  HZ I        1235 12.05        13.6 0.10            116            243 335 
 CHI  HZ EP   1   1234 38.87                             117    0.06 6  250 195 
 CHI  HE ES       1235  8.53                             117    0.28 8  250 195 
 CHI  HZ I        1235 19.06         2.1 0.70            116            250 195 
                                                                                
