 2011  926 1648 12.5 L   6.763 -73.122159.3  RSN  4 0.1 1.5LRSN                1
 GAP=221        0.30      12.3    22.7 14.9  0.2666E+03 -0.3007E+03 -0.1697E+03E
 Epicentro: LOS SANTOS - SANTANDER                                             3
 ACTION:UP  12-07-13 16:00 OP:ep   STATUS:               ID:20110926164813 L   I
 OLDACT:UP  12-07-12 21:55 OP:ep   STATUS:               ID:20110926164813 L   3
 OLDACT:UP  12-07-12 21:54 OP:ep   STATUS:               ID:20110926164813 L   3
 OLDACT:UPD 12-07-12 20:33 OP:ep   STATUS:               ID:20110926164813 L   3
 2011-09-26-1645-07S.COL___165                                                 6
 STAT SP IPHASW D HRMM SECON CODA AMPLIT PERI AZIMU VELO AIN AR TRES W  DIS CAZ7
 BAR2 SZ EP       1648 33.70                             172    0.0010 20.1 200 
 BAR2 SZ I        1648 49.45         3.7 0.18                          20.1 200 
 BTL  SZ EP   2   1648 33.77                             171    0.01 5 23.6 317 
 BRR  HZ EP   2   1648 35.36                             153    0.00 5 75.5 300 
 BRR  HN ES   2   1648 53.18                             153    0.00 5 75.5 300 
 BRR  HZ I        1648 55.60        15.7 0.35                          75.5 300 
 RUS  HN ES   2   1648 56.53                             148   -0.15 5 96.4 177 
 RUS  HE ES   1   1648 56.75                             148    0.07 7 96.4 177 
 RUS  HZ I        1648 57.93         2.2 0.23                          96.4 177 
                                                                                
