 2017 1026 1318  0.2 L   6.837 -73.168145.9  RSN 19 0.7 2.4LRSN                1
 GAP=108        1.54       4.0     4.5  6.9  0.2095E+01  0.9534E+01  0.6529E+01E
 Epicentro: ZAPATOCA - SANTANDER                                               3
 ACTION:UPD 17-11-07 19:37 OP:rebc STATUS:               ID:20171026131800 L   I
 OLDACT:UP  17-10-26 23:48 OP:dhb  STATUS:               ID:20171026130354     3
 OLDACT:UP  17-10-26 23:46 OP:dhb  STATUS:               ID:20171026130354     3
 OLDACT:UP  17-10-26 23:45 OP:dhb  STATUS:               ID:20171026130354     3
 2017-10-26-1308-00M.COL___423                                                 6
 STAT SP IPHASW D HRMM SECON CODA AMPLIT PERI AZIMU VELO AIN AR TRES W  DIS CAZ7
 BAR2 EZ IP     C 1318 19.87                             169   -0.0710 27.1 183 
 BAR2 EZ ES       1318 34.83                             169   -0.4910 27.1 183 
 BAR2 EZ I        1318 36.00        54.5 0.20            168           27.1 183 
 BRR  HZ IP     C 1318 21.64                             154    0.5010 67.1 296 
 BRR  HN ES       1318 38.68                             154    1.2110 67.1 296 
 BRR  HZ I        1318 42.48        37.7 0.30            152           67.1 296 
 PAM  HZ IP       1318 22.90                             151    0.5510 75.9  43 
 PAM  EN ES       1318 39.84                             151    0.2210 75.9  43 
 PAM  EZ I        1318 42.31        32.0 0.44            156           75.9  43 
 RUS  HZ EP       1318 23.98                             143   -0.3110  105 175 
 RUS  HN ES       1318 42.78                             143   -0.2910  105 175 
 RUS  HZ I        1318 43.61        52.8 0.26            144            105 175 
 PTB  HZ EP       1318 26.52                             132   -0.52 9  146 257 
 PTB  HN ES       1318 47.52                             132   -0.45 9  146 257 
 PTB  HZ I        1318 54.61        23.0 0.40            132            146 257 
 SPBC HZ EP       1318 28.84                             129   -0.04 9  165 217 
 SPBC HN ES       1318 51.04                             129   -0.20 9  165 217 
 SPBC HZ I        1318 53.45        39.2 0.32            129            165 217 
 YPLC HZ EP       1318 30.03                             126   -0.45 9  182 151 
 YPLC HN ES       1318 54.18                             126    0.08 9  182 151 
 YPLC HZ I        1318 55.24        33.1 0.28            129            182 151 
 ZAR  HZ EP       1318 32.39                             123    0.13 9  200 291 
 ZAR  HN ES       1318 57.36                             123    0.09 9  200 291 
 ZAR  HZ I        1319  3.38        21.1 0.52            123            200 291 
 TABC EZ EP   2   1318 37.39                             119    1.18 4  232 210 
 TABC EZ ES       1319  3.79                             119   -0.50 8  232 210 
 TABC EZ I        1319 11.55        20.1 0.36            120            232 210 
 NOR  HZ EP       1318 35.96                             118   -0.03 8  235 233 
 NOR  HN ES       1319  3.51                             118   -0.38 8  235 233 
 NOR  HZ I        1319  8.54        19.6 0.22            119            235 233 
 CHI  HZ EP       1318 38.09                             117   -0.19 8  252 194 
 CHI  HE ES       1319  7.43                             117   -0.54 8  252 194 
 CHI  HZ I        1319  9.73        15.6 0.38            118            252 194 
 ROSC BZ EP   9   1318 40.50                             116    1.92 0  255 210 
 ROSC BE ES       1319  9.73                                   -0.70 8  255 210 
 ROSC BZ I        1319 14.56        28.0 0.35            118            255 210 
 URE  HZ EP       1318 40.36                             114   -0.49 7  280 291 
 URE  HE ES       1319 10.57                             114   -1.99 7  280 291 
 URE  HZ I        1319 24.89        14.0 0.24            115            280 291 
 GUY2CHZ EP       1318 44.08                             112    0.22 7  302 234 
 GUY2CHE ES       1319 20.69                             112    2.78 7  302 234 
 GUY2CHZ I        1319 25.07         9.8 0.22                           302 234 
 VIL  EZ EP       1318 43.59                             112   -0.44 7  307 191 
 VIL  EE ES       1319 18.38                             112    0.16 7  307 191 
 VIL  EZ I        1319 20.64        20.7 0.38            113            307 191 
 DBB  EZ EP       1318 48.25                             110    0.88 7  337 274 
 DBB  EN ES       1319 23.33                             110   -0.82 7  337 274 
 DBB  EZ I        1319 24.56         6.8 0.30            111            337 274 
 ANIL HZ EP       1318 50.73                             108    0.57 6  359 224 
 ANIL HE ES       1319 29.69                             108    0.57 6  359 224 
 ANIL HZ I        1319 36.76        28.7 0.32            109            359 224 
 PRA  HZ EP       1318 53.65                             106   -0.36 6  394 209 
 PRA  HE ES       1319 36.53                             106    0.56 6  394 209 
 PRA  HZ I        1319 41.47         8.5 0.32            108            394 209 
 ORTC HZ EP       1318 54.44                             106    0.09 6  397 216 
 ORTC HN ES       1319 36.86                             106    0.28 6  397 216 
 ORTC HZ I        1319 43.59         5.8 0.48            107            397 216 
                                                                                
