 2017  726 1259 35.4 L   6.678 -73.216155.5  RSN  4 0.3 1.3LRSN                1
 GAP=208        0.82       6.6     6.2  6.6  0.1936E+02  0.4556E+01  0.1512E+01E
 Epicentro: VILLANUEVA - SANTANDER                                             3
 ACTION:UPD 17-08-30 15:36 OP:rebc STATUS:               ID:20170726125935 L   I
 OLDACT:REG 17-07-26 21:48 OP:ar   STATUS:               ID:20170726125741     3
 2017-07-26-1258-00M.COL___386                                                 6
 STAT SP IPHASW D HRMM SECON CODA AMPLIT PERI AZIMU VELO AIN AR TRES W  DIS CAZ7
 BAR2 EZ EP       1259 56.04                             176   -0.0110 10.2 159 
 BAR2 EZ ES       13 0 11.64                             176   -0.5010 10.2 159 
 BAR2 EZ I        13 0 12.85         5.3 0.28            175           10.2 159 
 BRR  HZ EP       1259 57.55                             154   -0.1510 72.5 311 
 BRR  HN ES       13 0 15.57                             154    0.4910 72.5 311 
 RUS  HZ EP       1259 59.27                             149   -0.0610 88.1 170 
 RUS  HN ES       13 0 18.33                             149    0.3510 88.1 170 
 RUS  HZ I        13 0 19.18         2.9 0.52            149           88.1 170 
 PTB  HZ EP       13 0  2.52                             136    0.15 9  138 264 
 PTB  HN ES       13 0 23.10                             136   -0.28 9  138 264 
 PTB  HZ I        13 0 24.75         1.6 0.12            136            138 264 
                                                                                
