 2012  126 1652  2.0 L   6.784 -73.143140.6  RSN  6 0.5 1.5LRSN                1
 GAP=138        1.23      11.4     8.8 13.5 -0.1939E+02  0.2272E+01  0.6692E+02E
 Epicentro: LOS SANTOS - SANTANDER                                             3
 ACTION:UP  12-02-03 08:21 OP:REBC STATUS:               ID:20120126165201 L   I
 2012-01-26-1650-00M.COL___188                                                 6
 STAT SP IPHASW D HRMM SECON CODA AMPLIT PERI AZIMU VELO SNR AR TRES W  DIS CAZ7
 BAR2 SZ EP       1652 21.03                             170     0.010   22 192 
 BAR2 SZ ES   2   1652 35.24                                    -0.6 5   22 192 
 BAR2 SZ I        1652 41.54         5.2 0.38                            22 192 
 GIR2 SZ EP   3   1652 21.06                                    -0.1 2   33 350 
 GIR2 SZ ES   3   1652 36.29                             168     0.3 2   33 350 
 BRR  HZ EP       1652 23.30                             153     0.610   72 300 
 BRR  HZ I        1652 36.53        15.9 0.40                            72 300 
 BRR  HN ES   1   1652 39.28                             153     0.5 7   72 300 
 PAM  SZ EP       1652 23.67                             151    -0.110   79  39 
 PAM  SN ES   1   1652 40.19                             151    -0.5 7   79  39 
 RUS  HZ EP       1652 25.57                             143     0.410   99 176 
 RUS  HZ I        1652 26.32         2.9 0.22                            99 176 
 PTB  HZ EP       1652 27.64                             132    -0.9 9  148 260 
 PTB  HN ES   2   1652 49.11                             132    -0.2 5  148 260 
 PTB  HZ I        1652 54.35         3.9 0.38                           148 260 
                                                                                
