 2010  426 1150 36.1 L   6.604 -73.668101.2  RSN  6 0.3 2.5LRSN                1
 GAP=133        0.61       3.6     4.5  6.0 -0.5285E+01  0.1369E+02 -0.1226E+01E
 Epicentro: EL CARMEN DE CHUCURI - SANTANDER                                   3
 ACTION:UPD 10-08-24 10:01 OP:vdl  STATUS:               ID:20100426115043 L   I
 2010-04-26-1146-12S.COL___104                                                 6
 STAT SP IPHASW D HRMM SECON CODA AMPLIT PERI AZIMU VELO AIN AR TRES W  DIS CAZ7
 BAR2 SZ IP       1150 51.80                             150     0.010   54  91 
 BAR2 SZ ES   1   1151  3.98                             150     0.0 7   54  91 
 BRR  HZ IP     C 1150 51.50                             149    -0.110   56 355 
 BRR  HE ES   1   1151  3.53                             149    -0.1 7   56 355 
 BRR  HZ I        1151  4.88        89.9 0.15                            56 355 
 OCA  SZ IP       1151  3.82                             113    -0.3 9  185  12 
 OCA  SZ ES   1   1151 26.60                             113     0.7 7  185  12 
 OCA  SZ I        1151 31.47        81.8 0.22                           185  12 
 HEL  HZ EP   2   1151  7.03                             110    -0.3 4  211 258 
 HEL  HN ES   2   1151 31.86                             110     0.2 4  211 258 
 HEL  HZ I        1151 34.79        23.5 0.28                           211 258 
 RREF BZ EP   1   1151 14.19                             105     0.3 6  265 225 
 RREF BE ES   2   1151 43.86                             105     0.4 4  265 225 
 RREF BZ I        1151 49.43        21.6 0.78                           265 225 
 DBB  SZ EP   2   1151 15.01                             103    -0.6 4  285 279 
                                                                                
