 2016  826 1146 58.6 L   6.818 -73.119150.7  RSN 28 0.5 2.8LRSN                1
 GAP= 56        1.04       2.6     2.6  4.4 -0.1073E+01  0.1590E+01  0.1848E+01E
 Epicentro: LOS SANTOS - SANTANDER                                             3
 ACTION:UPD 16-10-29 15:39 OP:rebc STATUS:               ID:20160826114658 L   I
 OLDACT:UP  16-08-26 23:02 OP:ar   STATUS:               ID:20160826113733d    3
 OLDACT:UP  16-08-26 22:55 OP:ar   STATUS:               ID:20160826113733d    3
 OLDACT:DUP 16-08-26 22:45 OP:ar   STATUS:               ID:20160826113733d    3
 2016-08-26-1138-00M.COL___372                                                 6
 STAT SP IPHASW D HRMM SECON CODA AMPLIT PERI AZIMU VELO AIN AR TRES W  DIS CAZ7
 BAR2 EZ EP       1147 18.96                             170    0.0410 25.9 196 
 BAR2 EZ ES       1147 34.53                             170   -0.2110 25.9 196 
 BAR2 EZ I        1147 35.74        94.1 0.12                          25.9 196 
 BRR  HZ EP       1147 20.89                             153    0.4610 72.9 296 
 BRR  HE ES       1147 38.32                             153    0.9010 72.9 296 
 BRR  HZ I        1147 44.57        83.1 0.30                          72.9 296 
 PAM  EZ EP       1147 21.72                             153    0.5210 74.0  39 
 PAM  EE ES       1147 38.36                             153   -0.4310 74.0  39 
 PAM  EZ I        1147 41.15        93.1 0.22                          74.0  39 
 RUS  HZ EP       1147 22.83                             144   -0.1810  102 178 
 RUS  HN ES       1147 41.72                             144   -0.3010  102 178 
 RUS  HZ I        1147 42.56        68.7 0.32                           102 178 
 PTB  HZ EP       1147 25.85                             132   -0.47 9  151 258 
 PTB  HE ES       1147 47.76                             132   -0.14 9  151 258 
 PTB  HZ I        1147 54.50       106.1 0.48                           151 258 
 TAM  HZ IP     C 1147 27.10                             132    0.59 9  153 106 
 TAM  HE ES       1147 48.55                             132    0.31 9  153 106 
 TAM  HZ I        1147 49.98        45.2 0.34                           153 106 
 OCA  HZ EP       1147 27.48                             131    0.28 9  159 352 
 OCA  HN ES       1147 49.31                             131   -0.16 9  159 352 
 OCA  HZ I        1147 59.77       147.4 0.44                           159 352 
 SPBC HZ EP       1147 27.88                             130    0.03 9  167 219 
 SPBC HN ES       1147 50.42                             130   -0.20 9  167 219 
 SPBC HZ I        1147 54.91       125.2 0.36                           167 219 
 ZAR  HZ EP       1147 31.53                             123   -0.09 8  206 291 
 ZAR  HE ES       1147 56.95                             123   -0.40 8  206 291 
 ZAR  HZ I        1148  2.79       110.4 0.64                           206 291 
 NOR  HZ EP       1147 34.96                             119   -0.08 8  238 234 
 NOR  HN ES       1148  3.11                             119   -0.32 8  238 234 
 NOR  HZ I        1148 10.23        50.5 0.28                           238 234 
 CHI  HZ EP       1147 37.03                             118    0.12 8  251 196 
 CHI  HN ES       1148  6.25                             118   -0.51 8  251 196 
 CHI  HZ I        1148 10.35        35.8 0.42                           251 196 
 ROSC BZ EP   9   1147 38.90                             117    1.51 0  256 211 
 ROSC BE ES       1148  9.16                             118    0.04 8  256 211 
 ROSC BZ I        1148 12.33        61.9 0.40                           256 211 
 HEL  HZ EP   4   1147 40.69                             115    1.21 0  275 256 
 HEL  HN ES       1148 10.74                             115   -0.60 7  275 256 
 HEL  HZ I        1148 18.04        33.3 0.60                           275 256 
 URE  HZ EP       1147 38.97                             114   -1.22 7  286 291 
 URE  HN ES   4   1148  9.65                             114   -2.94 0  286 291 
 URE  HZ I        1148 18.21        39.3 0.14                           286 291 
 SOCV BZ EP       1147 41.38                             113   -0.15 7  298  57 
 SOCV BN ES   4   1148 12.47                             113   -2.50 0  298  57 
 LL1C HZ EP   4   1147 43.80                             113    1.50 0  305 351 
 LL1C HN ES   4   1148 17.45                             113    1.10 0  305 351 
 GUY2CHZ EP   4   1147 43.80                             113    0.92 0  305 235 
 GUY2CHE ES       1148 18.03                             113    0.64 7  305 235 
 GUY2CHZ I        1148 25.61        37.6 0.24                           305 235 
 VIL  EZ EP       1147 42.82                             113    0.24 7  306 192 
 VIL  EE ES       1148 16.87                             113    0.03 7  306 192 
 VIL  EZ I        1148 24.13        37.6 0.32                           306 192 
 PTGC HZ IP     C 1147 41.78                             112   -1.03 7  309 159 
 PTGC HN ES   4   1148 14.92                             112   -2.34 0  309 159 
 PTGC HZ I        1148 17.69        29.0 0.20                           309 159 
 ELA  HZ EP   4   1147 47.54                             111    1.43 0  333 230 
 ELA  HN ES   4   1148 27.01                             111    3.88 0  333 230 
 ELA  HZ I        1148 31.38        30.1 0.32                           333 230 
 CBOC HZ EP   4   1147 47.04                             110    0.88 0  337 252 
 CBOC HN ES       1148 23.89                             110    0.67 7  337 252 
 CBOC HZ I        1148 31.45         9.6 0.18                           337 252 
 DBB  EZ EP       1147 46.68                             110    0.03 7  342 274 
 DBB  EZ ES   4   1148 18.85                             110   -5.24 0  342 274 
 DBB  EZ I        1148 25.45        18.2 0.40                           342 274 
 ANIL HZ EP       1147 49.86                             109    0.82 6  361 225 
 ANIL HE ES       1148 28.88                             109    0.53 6  361 225 
 PRA  HZ EP       1147 53.33                             107    0.62 6  395 210 
 PRA  HN ES       1148 34.70                             107   -0.18 6  395 210 
 PRA  HZ I        1148 40.25        40.7 0.62                           395 210 
 SJC  HZ EP   4   1147 52.72                             106   -1.65 0  409 326 
 SJC  HE ES   4   1148 35.55                             106   -2.29 0  409 326 
 SJC  HZ I        1148 39.44        12.3 0.30                           409 326 
 CRJC HZ EP   4   1147 59.06                             104   -1.98 0  466   3 
 CRJC HN ES   4   1148 46.71                             104   -2.99 0  466   3 
 CRJC HZ I        1148 55.70        24.3 0.20                           466   3 
 CAP2 HZ EP   4   1148  3.58                             103   -2.59 0  510 294 
 CAP2 HN ES   4   1148 49.54                             103   -9.29 0  510 294 
 CAP2 HZ I        1149  3.99         6.8 0.24                           510 294 
 DABV BZ EP   2   1148  7.35                             102   -1.20 2  530  31 
 URI  HZ EP   4   1148  9.30                             101   -2.16 0  554  13 
 URI  HN ES   4   1149  2.94                             101   -5.31 0  554  13 
 URI  HZ I        1149  9.87         2.7 0.23                           554  13 
                                                                                
