 2016  326 1244 57.6 L   6.807 -73.151133.1  RSN 10 0.5 1.7LRSN                1
 GAP=135        0.86       3.9     4.1  7.7  0.7995E+00  0.7013E+01  0.2794E+01E
 Epicentro: LOS SANTOS - SANTANDER                                             3
 ACTION:UPD 16-05-13 21:27 OP:cam  STATUS:               ID:20160326124457 L   I
 OLDACT:REG 16-03-26 20:24 OP:dnl  STATUS:               ID:20160326123745     3
 2016-03-26-1237-45M.COL___296                                                 6
 STAT SP IPHASW D HRMM SECON CODA AMPLIT PERI AZIMU VELO AIN AR TRES W  DIS CAZ7
 BAR2 EZ EP       1245 15.76                             169    0.0110 24.0 188 
 BAR2 EZ ES   2   1245 30.32                             169    0.44 5 24.0 188 
 BAR2 EZ I        1245 32.37        11.3 0.26            173           24.0 188 
 PAM  EZ EP       1245 18.31                             148   -0.1810 77.1  40 
 PAM  EE ES   2   1245 35.18                             148    0.41 5 77.1  40 
 PAM  EZ I        1245 51.81         4.2 0.36            156           77.1  40 
 RUS  HE ES   2   1245 38.10                             141    0.26 5  101 176 
 RUS  HZ I        1245 40.58         6.2 0.26            151            101 176 
 PTB  HZ IP       1245 22.80                             129   -0.75 9  147 258 
 PTB  HN ES       1245 43.70                             129   -0.07 9  147 258 
 PTB  HZ I        1245 48.76         9.3 0.22            139            147 258 
 SPBC HZ EP   3   1245 24.97                             126   -0.24 2  163 219 
 SPBC HN ES   2   1245 45.87                             126   -0.85 5  163 219 
 SPBC HZ I        1246  2.36         9.8 0.14            136            163 219 
 ZAR  HZ EP       1245 29.39                             120    0.20 9  203 292 
 ZAR  HN ES       1245 53.87                             120    0.07 9  203 292 
 ZAR  HZ I        1245 59.76        15.1 0.22            129            203 292 
 NOR  HZ EP   4   1245 33.60                             116    0.95 0  235 234 
 NOR  HN ES   2   1245 59.89                             116   -0.08 4  235 234 
 NOR  HZ I        1246  1.30         4.2 0.16            125            235 234 
 CHI  HZ EP       1245 34.28                             114   -0.45 8  249 195 
 CHI  HN ES       1246  4.00                             114    0.34 8  249 195 
 CHI  HZ I        1246  9.72         2.0 0.26            124            249 195 
 URE  HZ EP   2   1245 38.83                             111    0.82 4  283 292 
 URE  HN ES   2   1246  9.72                             111    0.21 4  283 292 
 URE  HZ I        1246 15.68         4.9 0.24            120            283 292 
 GUY2CHZ EP       1245 41.73                             110    1.05 7  301 235 
 GUY2CHZ I        1246 26.08         2.2 0.26                           301 235 
                                                                                
