 2011  526 1011  4.6 L   6.766 -73.060140.7  RSN  8 0.3 1.8LRSN                1
 GAP=166        0.71       4.0     8.0  7.4  0.5326E+01 -0.3022E+02 -0.6552E+01E
 Epicentro: LOS SANTOS - SANTANDER                                             3
 ACTION:UP  11-06-29 08:56 OP:tino STATUS:               ID:20110526101104 L   I
 2011-05-26-1008-09S.COL___115                                                 6
 STAT SP IPHASW D HRMM SECON CODA AMPLIT PERI AZIMU VELO SNR AR TRES W  DIS CAZ7
 BAR2 SZ EP       1011 23.73                             170     0.110   23 215 
 BAR2 SZ ES   1   1011 38.07                             170    -0.4 7   23 215 
 BAR2 SZ I        1011 40.50        22.4 0.20                            23 215 
 BTL  SZ EP       1011 24.15                             168     0.410   28 306 
 GIR2 SZ EP       1011 23.87                             164     0.010   38 337 
 BRR  HZ EP       1011 25.54                             148    -0.310   81 298 
 BRR  HZ I        1011 25.87        28.0 0.14                            81 298 
 BRR  HN ES       1011 42.47                             148     0.110   81 298 
 RUS  HZ EP       1011 27.69                             144     0.110   97 181 
 RUS  HN ES   2   1011 45.21                             144    -0.3 5   97 181 
 RUS  HZ I        1011 47.61         4.1 0.41                            97 181 
 BRI  SZ EP   2   1011 28.09                             140     0.0 5  109  15 
 GRA  SZ EP       1011 29.44                             136    -0.110  127  13 
 GRA  SZ ES   2   1011 48.97                             136     0.1 5  127  13 
 GRA  SZ I        1011 51.79         4.2 0.34                           127  13 
 OCA  SZ EP   1   1011 32.44                             127    -0.6 7  165 350 
 OCA  SZ ES   2   1011 55.74                             127     0.6 5  165 350 
 OCA  SZ I        1012  0.66         7.8 0.41                           165 350 
                                                                                
