 2017 1226 1443 53.6 L   6.826 -73.189146.4  RSN  5 0.3 1.5LRSN                1
 GAP=135        0.59       6.0     3.4  6.5 -0.9869E+01  0.3917E+01  0.1085E+02E
 Epicentro: ZAPATOCA - SANTANDER                                               3
 ACTION:UPD 18-01-04 13:24 OP:rebc STATUS:               ID:20171226144353 L   I
 OLDACT:REG 17-12-26 22:36 OP:mg   STATUS:               ID:20171226143741     3
 2017-12-26-1438-00M.COL___453                                                 6
 STAT SP IPHASW D HRMM SECON CODA AMPLIT PERI AZIMU VELO AIN AR TRES W  DIS CAZ7
 BAR2 EZ EP       1444 13.13                             170   -0.2110 25.8 178 
 BAR2 EZ ES   2   1444 28.78                             170    0.03 5 25.8 178 
 BAR2 EZ I        1444 30.99         6.8 0.30            172           25.8 178 
 PAM  EZ EP       1444 16.15                             151    0.2210 78.4  44 
 PAM  EN ES       1444 33.45                             151    0.0910 78.4  44 
 PAM  EZ I        1444 36.42         4.6 0.44            150           78.4  44 
 PTB  HZ EP       1444 19.97                             133   -0.26 9  144 257 
 PTB  HN ES       1444 40.79                             133   -0.23 9  144 257 
 PTB  HZ I        1444 46.03         2.7 0.16            133            144 257 
 ZAR  HN ES   1   1444 50.59                             123    0.18 6  199 292 
 ZAR  HZ I        1444 59.91         2.8 0.19            123            199 292 
 GUY2CHZ EP   1   1444 37.46                             113    0.49 5  299 234 
 GUY2CHN ES   2   1445 11.64                             113    0.83 4  299 234 
 GUY2CHZ I        1445 19.85         2.2 0.60                           299 234 
                                                                                
