 2016  726 1909 44.8 L   6.818 -73.176146.4  RSN  4 0.3 1.6LRSN                1
 GAP=145        0.75       4.6     4.4  6.3 -0.6405E+01  0.7592E+01 -0.2685E+01E
 Epicentro: ZAPATOCA - SANTANDER                                               3
 ACTION:UPD 17-03-29 16:55 OP:lp   STATUS:               ID:20160726190944 L   I
 OLDACT:DUP 16-07-26 21:31 OP:ar   STATUS:               ID:20160726190745d    3
 OLDACT:REG 16-07-26 20:44 OP:ar   STATUS:               ID:20160726190744     3
 2016-07-26-1907-44M.COL___322                                                 6
 STAT SP IPHASW D HRMM SECON CODA AMPLIT PERI AZIMU VELO AIN AR TRES W  DIS CAZ7
 BAR2 EZ EP       1910  4.38                             170   -0.1310 25.0 182 
 BAR2 EZ ES       1910 19.46                             170   -0.4510 25.0 182 
 BAR2 EZ I        1910 20.44        13.7 0.28            171           25.0 182 
 PAM  EZ EP       1910  7.34                             151    0.2510 78.0  42 
 PAM  EN ES       1910 24.61                             151    0.1010 78.0  42 
 PAM  EZ I        1910 26.48        12.4 0.56            151           78.0  42 
 RUS  HZ EP       1910  8.68                             143   -0.0710  103 174 
 RUS  HN ES       1910 27.76                             143    0.3010  103 174 
 RUS  HZ I        1910 28.02         4.2 0.30            145            103 174 
 PTB  HZ EP       1910 11.19                             133   -0.34 9  145 258 
 PTB  HE ES       1910 32.75                             133    0.34 9  145 258 
 PTB  HZ I        1910 33.41         2.9 0.18            134            145 258 
                                                                                
