 2010 1026 1131  7.0 L   6.793 -73.174146.0  RSN 10 0.5 2.3LRSN                1
 GAP=134        0.90       4.3     7.0  8.7 -0.2693E+01  0.8942E+01  0.1913E+01E
 Epicentro: LOS SANTOS - SANTANDER                                             3
 ACTION:UP  11-02-18 11:12 OP:tino STATUS:               ID:20101026113107 L   I
 2010-10-26-1128-07S.COL___125                                                 6
 STAT SP IPHASW D HRMM SECON CODA AMPLIT PERI AZIMU VELO SNR AR TRES W  DIS CAZ7
 BAR2 SZ IP     C 1131 26.42                             171    -0.210   22 183 
 BAR2 SZ ES   2   1131 41.26                             171    -0.7 5   22 183 
 BAR2 SZ I        1131 42.61        70.5 0.30                            22 183 
 BRR  HZ IP     D 1131 28.22                             153     0.210   69 300 
 BRR  HZ I        1131 28.39        90.8 0.19                            69 300 
 BRR  HE ES   2   1131 45.25                             153     0.8 5   69 300 
 RUS  HZ EP   1   1131 30.54                             144    -0.2 7  100 174 
 RUS  HN ES   2   1131 48.93                             144    -0.3 5  100 174 
 RUS  HZ I        1131 51.04        13.8 0.44                           100 174 
 GUE  SZ EP   1   1131 31.46                             139    -0.4 7  118  14 
 GRA  SZ EP   1   1131 33.15                             137     0.7 7  127  19 
 GRA  SZ I        1131 34.52        22.3 0.30                           127  19 
 GRA  SZ ES   2   1131 52.45                             137     0.2 5  127  19 
 OCA  SZ EP   1   1131 34.76                             130    -0.6 7  161 354 
 OCA  SZ I        1132  2.06        35.0 0.20                           161 354 
 YOP  SZ EP   1   1131 37.45                             126     0.3 7  180 152 
 YOP  SZ ES   2   1132  1.63                             126     1.0 4  180 152 
 NOR  SZ EP   1   1131 42.71                             119     0.3 6  232 234 
 NOR  SE ES   2   1132 10.47                             119     0.4 4  232 234 
 CHI  HZ EP   1   1131 44.37                             117    -0.2 6  247 194 
 CHI  HE ES   2   1132 13.41                             117    -0.4 4  247 194 
 CHI  HZ I        1132 20.35         6.3 0.49                           247 194 
 HEL  HZ EP   1   1131 46.73                             115    -0.1 6  269 256 
 HEL  HZ I        1132 25.73        10.9 0.28                           269 256 
                                                                                
