 2015  926 1952 46.2 L   6.795 -73.201138.5  RSN  6 0.4 1.7LRSN                1
 GAP=231        1.14       6.2     6.5  8.4  0.1669E+02  0.1102E+02  0.5487E+01E
 Epicentro: ZAPATOCA - SANTANDER                                               3
 ACTION:UPD 15-10-28 16:28 OP:cam  STATUS:               ID:20150926195246 L   I
 OLDACT:UP  15-09-27 02:39 OP:drio STATUS:               ID:20150926194749     3
 OLDACT:REG 15-09-26 23:31 OP:spq  STATUS:               ID:20150926194749     3
 2015-09-26-1947-49M.COL___358                                                 6
 STAT SP IPHASW D HRMM SECON CODA AMPLIT PERI AZIMU VELO AIN AR TRES W  DIS CAZ7
 BAR2 EZ EP       1953  4.89                             170   -0.0410 22.5 175 
 BAR2 EZ ES       1953 18.91                             170   -0.6410 22.5 175 
 BAR2 EZ I        1953 22.59         5.9 0.36            167           22.5 175 
 BRR  HZ EP       1953  6.88                             153    0.6110 66.2 301 
 BRR  HE ES       1953 22.52                             153    0.5910 66.2 301 
 RUS  HZ EP       1953  9.37                             142    0.1310  101 173 
 RUS  HN ES       1953 27.15                             142   -0.0610  101 173 
 RUS  HZ I        1953 28.48         4.3 0.24            143            101 173 
 PTB  HZ EP       1953 11.28                             132   -0.73 9  142 259 
 PTB  HN ES       1953 32.26                             132    0.11 9  142 259 
 PTB  HZ I        1953 37.49         6.2 0.14            130            142 259 
 SPBC HZ EP       1953 13.86                             128    0.13 9  159 217 
 SPBC HN ES       1953 35.54                             128    0.32 9  159 217 
 SPBC HZ I        1953 40.46         9.6 0.12            128            159 217 
 ZAR  HN ES       1953 41.52                             121   -0.58 9  199 293 
 ZAR  HZ I        1953 48.96         8.3 0.34            122            199 293 
                                                                                
