 2015  326 1002 32.7 L   6.803 -73.160141.5  RSN  6 0.5 1.6LRSN                1
 GAP=113        1.13       4.9     5.4  7.4  0.9639E+01 -0.4428E+01 -0.8036E+01E
 Epicentro: LOS SANTOS - SANTANDER                                             3
 ACTION:UPD 15-04-30 16:29 OP:nd   STATUS:               ID:20150326100232 L   I
 OLDACT:REG 15-03-26 20:35 OP:stll STATUS:               ID:20150326095749     3
 2015-03-26-0957-49M.COL___278                                                 6
 STAT SP IPHASW D HRMM SECON CODA AMPLIT PERI AZIMU VELO AIN AR TRES W  DIS CAZ7
 BAR2 EZ EP       10 2 51.90                             170    0.0710 23.4 186 
 BAR2 EZ ES       10 3  6.46                             170   -0.2810 23.4 186 
 BAR2 EZ I        10 3  7.63         7.8 0.20            173           23.4 186 
 BRR  HZ EP       10 2 53.90                             152    0.5910 69.6 299 
 BRR  HN ES       10 3  9.65                             152    0.2810 69.6 299 
 BRR  HZ I        10 3 14.37         7.3 0.12            152           69.6 299 
 PAM  SZ EP       10 2 55.17                             150    0.6510 78.2  41 
 PAM  SN ES       10 3 11.73                             150    0.2010 78.2  41 
 PAM  SZ I        10 3 14.59         6.4 0.50            151           78.2  41 
 RUS  HZ EP       10 2 55.68                             143   -0.4010  101 175 
 RUS  HN ES       10 3 14.10                             143   -0.2010  101 175 
 RUS  HZ I        10 3 15.60         7.5 0.40            147            101 175 
 TAM  HZ EP       10 3  0.36                             129    0.15 9  157 105 
 TAM  HN ES       10 3 21.26                             129   -0.39 9  157 105 
 SML  HZ EP       10 3  8.98                             117   -0.01 8  243 336 
 SML  HN ES       10 3 36.18                             117   -1.11 8  243 336 
 SML  HZ I        10 3 41.43         4.4 0.10            118            243 336 
                                                                                
