 2015  126 1356 12.1 L   6.777 -73.137142.7  RSN  7 0.3 1.4LRSN                1
 GAP=139        0.68       3.4     3.3  6.2 -0.2550E+01  0.5564E+01  0.1204E+00E
 Epicentro: LOS SANTOS - SANTANDER                                             3
 ACTION:UPD 15-03-02 15:42 OP:nd   STATUS:               ID:20150126135612 L   I
 OLDACT:REG 15-01-26 18:53 OP:spq  STATUS:               ID:20150126134748     3
 2015-01-26-1347-48M.COL___274                                                 6
 STAT SP IPHASW D HRMM SECON CODA AMPLIT PERI AZIMU VELO AIN AR TRES W  DIS CAZ7
 BAR2 EZ EP   1   1356 30.94                             171   -0.42 7 21.0 194 
 BAR2 EZ ES   1   1356 46.78                             171    0.44 7 21.0 194 
 BAR2 EZ I        1356 47.02         6.3 0.18            171           21.0 194 
 PAM  SZ EP       1356 34.08                             150   -0.0410 78.8  38 
 PAM  SN ES   1   1356 51.21                             150   -0.04 7 78.8  38 
 PAM  SZ I        1356 52.94         6.0 0.34            153           78.8  38 
 RUS  HZ EP       1356 35.51                             144    0.1010 98.0 177 
 RUS  HE ES   1   1356 53.41                             144   -0.14 7 98.0 177 
 RUS  HZ I        1356 54.68         3.4 0.26            146           98.0 177 
 PTB  HZ EP   1   1356 38.81                             131   -0.10 7  148 260 
 PTB  HE ES   1   1356 58.95                             131   -0.83 7  148 260 
 PTB  HZ I        1357  2.18         3.4 0.42            132            148 260 
 SPBC HZ EP       1356 40.37                             129    0.09 9  162 220 
 SPBC HN ES       1357  2.19                             129   -0.03 9  162 220 
 SPBC HZ I        1357  7.12         3.5 0.26            130            162 220 
 ZAR  HN ES       1357 10.21                             121    0.32 8  206 293 
 ZAR  HZ I        1357 13.36         1.9 0.24            122            206 293 
 NOR  HN ES       1357 15.60                             118    0.30 8  234 235 
 NOR  HZ I        1357 17.21         1.7 0.18            119            234 235 
                                                                                
