 2011 1226 1216 26.9 L   6.808 -73.333124.5  RSN  6 0.3 1.5LRSN                1
 GAP=102        0.55       5.1     3.6  8.3 -0.3071E+00  0.1197E+02 -0.1428E+02E
 Epicentro: ZAPATOCA - SANTANDER                                               3
 ACTION:UPD 12-07-13 16:18 OP:ep   STATUS:               ID:20111226121626 L   I
 2011-12-26-1210-00M.COL___190                                                 6
 STAT SP IPHASW D HRMM SECON CODA AMPLIT PERI AZIMU VELO AIN AR TRES W  DIS CAZ7
 BAR2 SZ EP   1   1216 44.47                             166    0.32 7 29.1 145 
 BAR2 SZ ES   2   1216 57.16                             166   -0.42 5 29.1 145 
 BAR2 SZ I        1216 58.97        20.2 0.32                          29.1 145 
 BRR  HZ EP   1   1216 44.95                             155    0.17 7 53.4 308 
 BRR  HZ I        1216 47.49         6.3 0.16                          53.4 308 
 PAM  SZ EP   1   1216 48.09                             142    0.17 7 91.3  50 
 PAM  SN ES   2   1217  4.01                             142   -0.28 5 91.3  50 
 PAM  SZ I        1217  6.17         4.2 0.21                          91.3  50 
 RUS  HN ES   2   1217  6.11                             138   -0.10 5  105 165 
 PTB  HZ EP   1   1216 49.89                             131   -0.45 7  128 257 
 PTB  HE ES   2   1217  9.19                             131    0.59 5  128 257 
 PTB  HZ I        1217 11.70         3.4 0.20                           128 257 
 ZAR  HZ EP   1   1216 55.83                             120   -0.17 7  185 294 
 ZAR  HN ES   1   1217 18.67                             120   -0.01 7  185 294 
 ZAR  HZ I        1217 22.94         3.0 0.10                           185 294 
                                                                                
