 2012  326 1343 56.3 L   6.817 -73.183143.4  RSN  8 0.2 1.8LRSN                1
 GAP=131        0.42       3.0     3.0  5.0 -0.4330E+00  0.3067E+01  0.1303E+01E
 ACTION:UP  12-03-31 23:23 OP:EP   STATUS:               ID:20120326134000 L   I
 2012-03-26-1340-00M.COL___196                                                 6
 STAT SP IPHASW D HRMM SECON CODA AMPLIT PERI AZIMU VELO SNR AR TRES W  DIS CAZ7
 BAR2 SZ EP   1   1344 15.60                             170    -0.1 7   25 180 
 BAR2 SZ ES   2   1344 30.81                             170     0.0 5   25 180 
 BAR2 SZ I        1344 31.51        16.9 0.25                            25 180 
 BRR  HZ EP   2   1344 17.21                             154     0.3 5   67 299 
 BRR  HN ES   2   1344 33.07                             154     0.0 5   67 299 
 BRR  HZ I        1344 35.37        23.1 0.21                            67 299 
 PAM  SZ EP   1   1344 18.51                             150     0.2 7   79  43 
 PAM  SN ES   2   1344 35.47                             150     0.0 5   79  43 
 RUS  HZ EP   1   1344 19.77                             143    -0.2 7  103 174 
 RUS  HN ES   2   1344 38.59                             143     0.1 5  103 174 
 RUS  HZ I        1344 40.06         6.2 0.22                           103 174 
 PTB  HZ EP   1   1344 22.41                             132    -0.3 7  144 258 
 PTB  HN ES   2   1344 43.05                             132    -0.3 5  144 258 
 PTB  HZ I        1344 46.18         4.5 0.19                           144 258 
 ZAR  HZ EP   2   1344 28.24                             123     0.1 4  199 292 
 ZAR  HN ES   2   1344 53.01                             123     0.1 4  199 292 
 ZAR  HZ I        1345  0.89         8.4 0.22                           199 292 
 NOR  SN ES   2   1344 59.67                             118     0.5 4  232 233 
 CHI  HN ES   2   1345  3.60                             117     0.3 4  249 194 
                                                                                
