 2017  426 1355 56.5 L   6.813 -73.109154.3  RSN 20 0.5 2.5LRSN                1
 GAP=115        0.95       3.2     3.4  4.9  0.1154E+01  0.3021E+01  0.4242E+01E
 Epicentro: LOS SANTOS - SANTANDER                                             3
 ACTION:UPD 17-05-30 21:16 OP:jn   STATUS:               ID:20170426135556 L   I
 OLDACT:UP  17-04-26 22:26 OP:and  STATUS:               ID:20170426134739     3
 OLDACT:UP  17-04-26 22:25 OP:and  STATUS:               ID:20170426134739     3
 OLDACT:UP  17-04-26 22:23 OP:and  STATUS:               ID:20170426134739     3
 OLDACT:UP  17-04-26 22:22 OP:and  STATUS:               ID:20170426134739     3
 OLDACT:UP  17-04-26 22:08 OP:and  STATUS:               ID:20170426134739     3
 OLDACT:UP  17-04-26 22:06 OP:and  STATUS:               ID:20170426134739     3
 OLDACT:UP  17-04-26 22:05 OP:and  STATUS:               ID:20170426134739     3
 OLDACT:UP  17-04-26 22:05 OP:and  STATUS:               ID:20170426134739     3
 OLDACT:UP  17-04-26 22:03 OP:and  STATUS:               ID:20170426134739     3
 OLDACT:UP  17-04-26 22:03 OP:and  STATUS:               ID:20170426134739     3
 OLDACT:UP  17-04-26 22:01 OP:and  STATUS:               ID:20170426134739     3
 OLDACT:UP  17-04-26 22:00 OP:and  STATUS:               ID:20170426134739     3
 OLDACT:UP  17-04-26 22:00 OP:and  STATUS:               ID:20170426134739     3
 OLDACT:REG 17-04-26 20:22 OP:and  STATUS:               ID:20170426134739     3
 2017-04-26-1348-00M.COL___377                                                 6
 STAT SP IPHASW D HRMM SECON CODA AMPLIT PERI AZIMU VELO AIN AR TRES W  DIS CAZ7
 BAR2 EZ IP     C 1356 17.19                             170   -0.0310 25.8 198 
 BAR2 EZ ES       1356 33.06                             170   -0.3210 25.8 198 
 BAR2 EZ I        1356 35.01        72.4 0.23            163           25.8 198 
 PAM  EZ IP     D 1356 19.81                             154    0.3710 73.7  38 
 PAM  EN ES       1356 36.93                             154   -0.3910 73.7  38 
 PAM  EZ I        1356 39.32        48.8 0.22            163           73.7  38 
 BRR  HZ IP     D 1356 18.94                             153    0.1910 74.1 296 
 BRR  HN ES       1356 36.60                             153    0.5010 74.1 296 
 BRR  HZ I        1356 39.01        52.1 0.28            151           74.1 296 
 PTB  HZ EP       1356 23.87                             133   -0.70 9  152 259 
 PTB  HN ES   3   1356 45.15                             133   -1.31 2  152 259 
 PTB  HZ I        1356 52.36        34.2 0.30            132            152 259 
 SPBC HZ EP       1356 26.02                             130   -0.01 9  167 220 
 SPBC HN ES       1356 48.55                             130   -0.50 9  167 220 
 SPBC HZ I        1356 54.16        50.1 0.10            129            167 220 
 YPLC HZ IP     C 1356 27.25                             128    0.37 9  176 153 
 YPLC HN ES       1356 50.70                             128    0.13 9  176 153 
 YPLC HZ I        1356 53.41        18.7 0.32            130            176 153 
 ZAR  HZ EP       1356 29.69                             124   -0.17 8  207 291 
 ZAR  HN ES       1356 56.14                             124    0.27 8  207 291 
 ZAR  HZ I        1357  2.71        53.5 0.30            125            207 291 
 TABC EZ EP       1356 33.53                             120    0.39 8  233 211 
 TABC EZ ES   3   1357  3.14                             120    1.43 2  233 211 
 TABC EZ I        1357  6.80        39.8 0.62            121            233 211 
 NOR  HZ EP       1356 33.02                             120   -0.18 8  239 235 
 NOR  HN ES   2   1357  0.77                             120   -1.04 4  239 235 
 NOR  HZ I        1357  4.93        29.8 0.32            120            239 235 
 CHI  HZ EP       1356 35.34                             118    0.37 8  251 196 
 CHI  HN ES       1357  5.71                             118    0.74 8  251 196 
 CHI  HZ I        1357  8.74        14.2 0.28            119            251 196 
 ROSC BZ EP   9   1356 37.61                             118    2.13 0  256 212 
 ROSC BN ES       1357  8.24                             117    0.24 8  256 212 
 ROSC BZ I        1357 13.32        38.7 0.45            118            256 212 
 HEL  HZ EP   3   1356 39.29                             116    1.64 2  276 256 
 HEL  HN ES       1357  9.68                             116   -0.05 7  276 256 
 HEL  HZ I        1357 16.81        13.6 0.29            117            276 256 
 PTGC HZ IP     C 1356 39.91                             113   -0.85 7  309 159 
 PTGC HN ES   3   1357 13.50                             113   -1.77 2  309 159 
 LL6C HN EP   9   1356 23.07                             112   -19.4 0  324 357 
 LL6C HN ES       1356 57.94                                   -0.96 7  324 357 
 LL6C HN I        1357  5.95        16.1 0.32            116            324 357 
 ELA  HN ES   4   1357 25.51                             111    4.12 0  333 230 
 ELA  HZ I        1357 34.18        11.6 0.58            112            333 230 
 DBB  HZ EP       1356 44.90                             111    0.10 7  343 274 
 DBB  EN ES   4   1357 20.15                             111   -2.32 0  343 274 
 DBB  HZ I        1357 24.12         9.6 0.40            112            343 274 
 ARGC HZ EP   3   1356 47.44                             110    0.93 2  359 340 
 ARGC HN ES   4   1357 27.51                             110    2.01 0  359 340 
 ORTC HZ EP   9   1356 52.11                             107    0.95 0  399 217 
 ORTC HN ES       1357 35.50                             108    0.77 6  399 217 
 ORTC HZ I        1357 41.49         8.7 0.44            109            399 217 
 SJC  HZ EP   3   1356 50.78                             107   -1.70 1  410 326 
 SJC  HN ES   4   1357 32.97                             107   -3.17 0  410 326 
 SJC  HZ I        1357 37.55         6.6 0.38            109            410 326 
 SMAR HZ EP   2   1357  2.50                             104   -0.06 2  497 346 
 SMAR HN ES   4   1357 50.62                             104   -3.46 0  497 346 
 SMAR HZ I        1357 55.10         7.3 0.46            106            497 346 
                                                                                
