 2017 1126 1419 53.3 L   6.838 -73.183140.9  RSN 12 0.6 1.9LRSN                1
 GAP=107        1.24       3.4     4.2  6.8 -0.1060E+01  0.9020E+01  0.2848E+01E
 Epicentro: ZAPATOCA - SANTANDER                                               3
 ACTION:UPD 17-12-12 20:00 OP:rebc STATUS:               ID:20171126141953 L   I
 OLDACT:REG 17-11-26 19:42 OP:dhb  STATUS:               ID:20171126141741     3
 2017-11-26-1418-00M.COL___495                                                 6
 STAT SP IPHASW D HRMM SECON CODA AMPLIT PERI AZIMU VELO AIN AR TRES W  DIS CAZ7
 BAR2 EZ EP       1420 12.35                             169   -0.1010 27.2 180 
 BAR2 EZ ES       1420 27.13                             169   -0.2410 27.2 180 
 BAR2 EZ I        1420 28.73        29.4 0.28            170           27.2 180 
 PAM  EZ EP       1420 15.34                             150    0.3410 77.0  44 
 PAM  EN ES       1420 32.27                             150    0.3710 77.0  44 
 PAM  EZ I        1420 34.55        10.9 0.54            153           77.0  44 
 RUS  HZ EP       1420 16.43                             141   -0.5110  105 174 
 RUS  HN ES       1420 35.11                             141   -0.2510  105 174 
 RUS  HZ I        1420 36.74         9.9 0.42            145            105 174 
 PTB  HZ EP       1420 19.16                             131   -0.44 9  145 257 
 PTB  HN ES       1420 40.34                             131    0.24 9  145 257 
 PTB  HZ I        1420 42.08         5.4 0.40            132            145 257 
 OCA  HZ EP       1420 20.83                             129    0.01 9  156 354 
 OCA  HE ES       1420 42.36                             129    0.10 9  156 354 
 OCA  HZ I        1420 54.52        24.6 0.56            131            156 354 
 SPBC HZ EP       1420 21.43                             128   -0.09 9  164 217 
 SPBC HN ES       1420 43.26                             128   -0.26 9  164 217 
 SPBC HZ I        1420 52.27         8.7 0.24            129            164 217 
 YPLC HZ IP     C 1420 22.89                             124   -0.45 9  183 151 
 YPLC HN ES       1420 47.32                             124    0.58 9  183 151 
 YPLC HZ I        1420 49.59         5.3 0.26            128            183 151 
 ZAR  HZ EP       1420 24.48                             122   -0.41 9  199 291 
 ZAR  HE ES       1420 49.20                             122   -0.31 9  199 291 
 ZAR  HZ I        1420 55.54         8.2 0.38            123            199 291 
 NOR  HZ EP       1420 28.45                             117   -0.23 8  234 233 
 NOR  HE ES       1420 56.89                             117    0.63 8  234 233 
 NOR  HZ I        1421  4.36         3.7 0.18            119            234 233 
 GUY2CHZ EP       1420 38.75                             111    2.15 7  300 234 
 GUY2CHE ES       1421 10.36                             111   -0.00 7  300 234 
 GUY2CHZ I        1421 18.92         3.7 0.50                           300 234 
 PRA  HZ EP       1420 45.58                             106   -1.29 6  394 209 
 PRA  HE ES       1421 29.05                             106    0.41 6  394 209 
 PRA  HZ I        1421 34.60         3.6 0.72            107            394 209 
 ORTC HZ EP       1420 47.38                             105    0.19 6  396 215 
 ORTC HE ES   3   1421 31.45                             105    2.24 1  396 215 
 ORTC HZ I        1421 34.01         2.4 0.14            107            396 215 
                                                                                
