 2017  926 1746 34.5 L   6.822 -73.123143.9  RSN  7 0.4 1.6LRSN                1
 GAP=138        1.05       4.5     4.8  6.7 -0.1738E+01  0.1331E+02  0.4018E+01E
 Epicentro: LOS SANTOS - SANTANDER                                             3
 ACTION:UPD 17-10-05 19:16 OP:rebc STATUS:               ID:20170926174634 L   I
 OLDACT:DUP 17-09-27 00:36 OP:dhb  STATUS:               ID:20170926173737d    3
 2017-09-26-1738-00M.COL___450                                                 6
 STAT SP IPHASW D HRMM SECON CODA AMPLIT PERI AZIMU VELO AIN AR TRES W  DIS CAZ7
 BAR2 EZ EP       1746 53.33                             169   -0.5910 26.2 194 
 BAR2 EZ ES       1747  8.83                             169   -0.2710 26.2 194 
 BAR2 EZ I        1747  9.81         7.3 0.12            169           26.2 194 
 BRR  HZ EP       1746 55.32                             152   -0.1410 72.3 296 
 BRR  HN ES       1747 12.36                             152    0.5110 72.3 296 
 BRR  HZ I        1747 21.19        14.6 0.30            149           72.3 296 
 PAM  EZ IP     D 1746 56.50                             152    0.2310 73.9  39 
 PAM  EN ES       1747 13.59                             152    0.3210 73.9  39 
 PAM  EZ I        1747 16.65         4.6 0.50            156           73.9  39 
 RUS  HZ EP       1746 58.46                             143    0.2710  103 178 
 RUS  HN ES       1747 16.44                             143   -0.2610  103 178 
 RUS  HZ I        1747 17.62         3.9 0.06            148            103 178 
 ZAR  HZ EP       1747  6.49                             122   -0.44 8  205 291 
 ZAR  HN ES       1747 31.79                             122   -0.46 8  205 291 
 ZAR  HZ I        1747 37.60         4.2 0.27            123            205 291 
 NOR  HZ EP       1747 10.03                             118   -0.42 8  238 234 
 NOR  HN ES       1747 38.52                             118    0.00 8  238 234 
 NOR  HZ I        1747 44.93         2.6 0.17            120            238 234 
 GUY2CHZ EP       1747 19.26                             112    0.89 7  305 235 
 GUY2CHN ES       1747 53.39                             112    0.78 7  305 235 
 GUY2CHZ I        1748  0.24         2.0 0.07                           305 235 
                                                                                
