 2012  526 1230  3.1 L   6.781 -73.160143.8  RSN  6 0.4 1.6LRSN                1
 GAP=136        0.81       7.1     5.8  8.7  0.1169E+02  0.4732E+01 -0.1135E+02E
 Epicentro: LOS SANTOS - SANTANDER                                             3
 ACTION:UP  12-07-05 12:08 OP:pat  STATUS:               ID:20120526123003 L   I
 2012-05-26-1230-00M.COL___197                                                 6
 STAT SP IPHASW D HRMM SECON CODA AMPLIT PERI AZIMU VELO SNR AR TRES W  DIS CAZ7
 BAR2 SZ EP   1   1230 22.44                             172     0.0 7   21 187 
 BAR2 SZ ES   1   1230 37.74                             172     0.2 7   21 187 
 BAR2 SZ I        1230 40.13        13.7 0.31                            21 187 
 PAM  SZ EP   1   1230 25.33                             150     0.0 7   80  39 
 RUS  HZ EP   1   1230 26.26                             144    -0.3 7   99 175 
 RUS  HN ES   1   1230 44.97                             144     0.2 7   99 175 
 RUS  HZ I        1230 46.14         5.0 0.28                            99 175 
 PTB  HZ EP   1   1230 29.08                             132    -0.7 7  146 260 
 PTB  HN ES   1   1230 50.33                             132    -0.2 7  146 260 
 PTB  HZ I        1230 52.16         3.8 0.15                           146 260 
 ZAR  HN ES   1   1231  1.08                             122     0.6 6  203 293 
 PRA  HZ EP   1   1230 57.17                             107     0.9 4  389 210 
                                                                                
