 2017  226 1033  8.7 L   5.916 -73.659118.0  RSN  6 0.4 1.5LRSN                1
 GAP=162        1.05       4.7     4.0  8.6 -0.1169E+01  0.1347E+02 -0.1864E+01E
 Epicentro: PUENTE NACIONAL - SANTANDER                                        3
 ACTION:UPD 17-05-24 15:40 OP:jn   STATUS:               ID:20170226103308 L   I
 OLDACT:REG 17-02-26 20:20 OP:cog  STATUS:               ID:20170226102548     3
 2017-02-26-1028-00M.COL___367                                                 6
 STAT SP IPHASW D HRMM SECON CODA AMPLIT PERI AZIMU VELO AIN AR TRES W  DIS CAZ7
 RUS  HZ EP       1033 26.83                             150   -0.3010 63.8  92 
 RUS  HN ES       1033 41.35                             150   -0.1810 63.8  92 
 BAR2 EZ EP       1033 28.58                             140   -0.1410 91.5  35 
 BAR2 EZ ES       1033 44.76                             140    0.4010 91.5  35 
 BAR2 EZ I        1033 45.60        12.4 0.46            145           91.5  35 
 PTB  HZ EP       1033 29.87                             133   -0.2710  112 308 
 PTB  HN ES       1033 46.14                             133   -0.7410  112 308 
 PTB  HZ I        1033 50.49         4.1 0.10            136            112 308 
 BRR  HZ EP       1033 31.76                             128   -0.1910  132 357 
 BRR  HN ES       1033 50.79                             128    0.6810  132 357 
 NOR  HZ EP       1033 33.14                             127    0.36 9  140 254 
 NOR  HN ES       1033 52.06                             127    0.48 9  140 254 
 NOR  HZ I        1033 56.24         4.9 0.15            129            140 254 
 ZAR  HZ EP       1033 41.44                             114    0.30 8  219 323 
 ZAR  HN ES       1034  6.16                             114   -0.29 8  219 323 
                                                                                
