 2010  226 1155 58.8 L   6.321 -73.605111.9  RSN  5 0.4 1.3LRSN                1
 GAP=121        0.64       4.0     6.9 11.4  0.3117E+01  0.4511E+02  0.1190E+02E
 Epicentro: SANTA HELENA DEL OPON - SANTANDER                                  3
 ACTION:UP  10-08-24 09:50 OP:vdl  STATUS:               ID:20100226115558 L   I
 2010-02-26-1152-42S.COL___094                                                 6
 STAT SP IPHASW D HRMM SECON CODA AMPLIT PERI AZIMU VELO SNR AR TRES W  DIS CAZ7
 BAR2 SZ EP       1156 15.87                             152     0.110   55  57 
 BAR2 SZ ES   2   1156 28.69                             152    -0.3 5   55  57 
 RUS  BZ EP       1156 17.42                             144     0.010   75 129 
 RUS  BE ES   2   1156 31.84                             144     0.0 5   75 129 
 RUS  BZ I        1156 35.14         4.1 0.29                            75 129 
 BRR  HZ EP       1156 17.38                             139    -0.310   88 352 
 BRR  HN ES   2   1156 33.01                             139     0.6 5   88 352 
 CHI  HN ES   2   1156 50.63                             116    -0.1 4  188 184 
 RREF BZ EP   2   1156 36.10                             109     0.9 4  249 231 
 RREF BE ES   2   1157  3.13                             109    -0.4 4  249 231 
 RREF BZ I        1157 11.42         2.2 0.36                           249 231 
                                                                                
