 2016  326 1550  5.9 L   6.279 -73.623109.0  RSN 18 0.4 2.6LRSN                1
 GAP= 86        1.02       2.5     2.4  5.1 -0.7587E+00  0.2526E+01  0.1077E+01E
 Epicentro: SANTA HELENA DEL OPON - SANTANDER                                  3
 ACTION:UPD 16-05-13 21:27 OP:cam  STATUS:               ID:20160326155005 L   I
 OLDACT:UP  16-03-29 11:54 OP:dnl  STATUS:               ID:20160326155005 L   3
 OLDACT:REG 16-03-26 20:30 OP:dnl  STATUS:               ID:20160326154750     3
 2016-03-26-1547-50M.COL___295                                                 6
 STAT SP IPHASW D HRMM SECON CODA AMPLIT PERI AZIMU VELO AIN AR TRES W  DIS CAZ7
 BAR2 EZ IP       1550 23.19                             149    0.4010 59.8  55 
 BAR2 EZ ES       1550 36.32                             149    0.3510 59.8  55 
 BAR2 EZ I        1550 37.62       226.3 0.18            152           59.8  55 
 RUS  HZ EP       1550 23.92                             144   -0.1510 73.4 126 
 RUS  HE ES       1550 38.32                             144    0.0810 73.4 126 
 RUS  HZ I        1550 41.07        53.5 0.38            145           73.4 126 
 SPBC HZ EP       1550 24.32                             139   -0.0910 85.3 216 
 SPBC HN ES       1550 38.95                             139    0.1010 85.3 216 
 SPBC HZ I        1550 41.08        76.1 0.11            138           85.3 216 
 PTB  HZ EP     C 1550 24.58                             135   -0.6710 96.6 287 
 PTB  HN ES       1550 39.71                             135   -0.6410 96.6 287 
 PTB  HZ I        1550 40.33       164.0 0.12            135           96.6 287 
 PAM  EZ EP       1550 31.60                             121    0.02 9  155  41 
 PAM  EN ES       1550 51.49                             121   -0.11 9  155  41 
 PAM  EZ I        1550 55.68        26.7 0.23            122            155  41 
 NOR  HZ EP       1550 30.82                             120   -0.57 9  159 240 
 NOR  HN ES       1550 50.71                             120   -0.56 9  159 240 
 NOR  HZ I        1550 53.38       107.7 0.20            119            159 240 
 CHI  HZ EP       1550 34.05                             116   -0.35 9  183 184 
 CHI  HE ES       1550 56.59                             116   -0.05 9  183 184 
 CHI  HZ I        1550 59.58        20.2 0.40            116            183 184 
 ZAR  HZ EP       1550 34.83                             115   -0.02 9  191 315 
 ZAR  HN ES       1550 58.48                             115    1.06 9  191 315 
 ZAR  HZ I        1550 59.79        83.5 0.24            115            191 315 
 TAM  HZ EP       1550 35.95                             113   -0.27 9  203  85 
 TAM  HE ES   4   1550 57.81                             113   -2.06 0  203  85 
 TAM  HZ I        1550 58.50        47.7 0.18            114            203  85 
 HEL  HZ EP       1550 37.97                             112    0.46 8  211 267 
 HEL  HN ES       1551  2.37                             112    0.21 8  211 267 
 HEL  HZ I        1551  6.27        34.5 0.30            112            211 267 
 GUY2CHZ EP       1550 39.91                             111    0.64 8  225 239 
 GUY2CHE ES   2   1551  5.78                             111    0.49 4  225 239 
 GUY2CHZ I        1551 10.11        23.2 0.28                           225 239 
 VIL  SZ EP       1550 40.10                             109   -0.37 8  240 182 
 VIL  SE ES       1551  8.13                             109    0.70 8  240 182 
 URE  HZ EP   9   1550 42.13                             106   -1.32 0  267 308 
 URE  HN ES       1551 11.06                             107   -0.36 8  267 308 
 URE  HZ I        1551 13.89        41.3 0.12            107            267 308 
 ANIL HZ EP   9   1550 46.81                             106    1.53 0  279 225 
 ANIL HN ES       1551 17.77                             106    0.24 7  279 225 
 ANIL HZ I        1551 30.06        31.6 0.28            106            279 225 
 DBB  SZ EP       1550 46.99                             104   -0.18 7  298 286 
 DBB  SZ ES   4   1551 14.36                             104   -5.00 0  298 286 
 DBB  SZ I        1551 22.62        42.7 0.42            105            298 286 
 ORTC HZ EP       1550 49.52                             103   -0.01 7  318 215 
 ORTC HE ES       1551 24.15                             103    0.59 7  318 215 
 ORTC HZ I        1551 30.39        11.4 0.23            103            318 215 
 SOCV BZ EP   9   1550 53.30                             100   -3.34 0  378  54 
 SOCV BN ES       1551 32.65                             100   -0.23 6  378  54 
 SJC  HZ EP   4   1551  1.88                              97   -1.79 0  435 337 
 SJC  HE ES   4   1551 42.23                              97   -6.49 0  435 337 
 SJC  HZ I        1551 48.22         6.2 0.26             98            435 337 
                                                                                
