 2012 1026 1647 23.3 L   6.775 -73.114149.3  RSN  5 0.2 1.7LRSN                1
 GAP=142        0.45       3.2     3.9  5.1  0.1664E+01  0.1987E+01  0.3051E+00E
 Epicentro: LOS SANTOS - SANTANDER                                             3
 ACTION:UPD 12-11-22 17:06 OP:ep   STATUS:               ID:20121026164723 L   I
 2012-10-26-1640-00M.COL___228                                                 6
 STAT SP IPHASW D HRMM SECON CODA AMPLIT PERI AZIMU VELO AIN AR TRES W  DIS CAZ7
 BAR2 SZ EP   2   1647 43.31                             171   -0.03 5 21.6 200 
 BAR2 SZ ES   2   1647 58.49                             171   -0.47 5 21.6 200 
 BAR2 SZ I        1648  0.31        13.8 0.17                          21.6 200 
 BRR  HZ EP       1647 45.16                             151    0.0610 75.6 299 
 BRR  HE ES   1   1648  2.44                             151    0.36 7 75.6 299 
 BRR  HZ I        1648  5.90         9.5 0.18                          75.6 299 
 PAM  SZ EP   1   1647 45.94                             152    0.03 7 77.4  36 
 PAM  SN ES   1   1648  3.35                             152   -0.18 7 77.4  36 
 PAM  SZ I        1648  5.75         6.5 0.51                          77.4  36 
 RUS  HZ EP   1   1647 47.18                             145   -0.03 7 97.7 178 
 RUS  HN ES   1   1648  5.94                             145    0.09 7 97.7 178 
 RUS  HZ I        1648  8.73         6.2 0.45                          97.7 178 
 ZAR  HE ES   2   1648 21.80                             122   -0.46 4  208 292 
 ZAR  HZ I        1648 28.89         6.7 0.42                           208 292 
                                                                                
