 2012  726 1334 41.1 L   6.728 -73.169146.0  RSN  5 0.3 1.6LRSN                1
 GAP=137        0.64       7.3     8.3  7.2  0.2264E+02  0.8010E+01 -0.4853E+01E
 Epicentro: VILLANUEVA - SANTANDER                                             3
 ACTION:UPD 12-08-14 11:45 OP:ep   STATUS:               ID:20120726133440 L   I
 2012-07-26-1330-00M.COL___215                                                 6
 STAT SP IPHASW D HRMM SECON CODA AMPLIT PERI AZIMU VELO AIN AR TRES W  DIS CAZ7
 BAR2 SZ EP       1335  0.57                             174    -0.110   15 186 
 BAR2 SZ ES   1   1335 15.74                             174    -0.1 7   15 186 
 BAR2 SZ I        1335 19.58        10.1 0.42            169             15 186 
 BRR  HZ EP       1335  2.48                             152     0.110   73 305 
 BRR  HN ES   2   1335 19.37                             152     0.4 5   73 305 
 BRR  HZ I        1335 23.63        16.9 0.24            149             73 305 
 PAM  SZ EP   2   1335  3.46                             148    -0.4 5   85  37 
 PAM  SZ I        1335  3.62         8.7 0.18            156             85  37 
 RUS  HZ EP   1   1335  4.82                             146     0.5 7   93 174 
 RUS  HN ES   2   1335 22.10                             146    -0.4 5   93 174 
 RUS  HZ I        1335 24.34         3.8 0.40            149             93 174 
 PTB  HZ EP   1   1335  7.44                             133    -0.3 7  144 262 
 PTB  HN ES   3   1335 28.34                             133    -0.2 2  144 262 
 PTB  HZ I        1335 34.43         4.7 0.36            132            144 262 
