 2010 1226 1131 38.8 L   6.824 -73.113143.1  RSN  7 0.6 1.7LRSN                1
 GAP=162        1.09       7.6    12.9 14.3 -0.5479E+02  0.5967E+02 -0.2736E+02E
 Epicentro: LOS SANTOS - SANTANDER                                             3
 ACTION:UP  11-01-14 15:27 OP:pat  STATUS:               ID:20101226113138 L   I
 2010-12-26-1120-00M.COL___132                                                 6
 STAT SP IPHASW D HRMM SECON CODA AMPLIT PERI AZIMU VELO SNR AR TRES W  DIS CAZ7
 BAR2 SZ ES   2   1132 13.02                             169    -0.3 5   27 197 
 BAR2 SZ I        1132 14.73        14.5 0.28                            27 197 
 RUS  HZ EP   1   1132  2.40                             142    -0.1 8  103 178 
 RUS  HN ES   2   1132 20.85                             142    -0.1 5  103 178 
 RUS  HZ I        1132 22.30         5.3 0.43                           103 178 
 GRA  SZ EP       1132  3.97                             137     0.410  122  16 
 GRA  SZ ES   2   1132 23.40                             137     0.6 5  122  16 
 GRA  SZ I        1132 29.15         4.7 0.36                           122  16 
 OCA  SZ EP   1   1132  5.62                             129    -1.1 7  158 352 
 OCA  SZ I        1132 30.64         9.8 0.04                           158 352 
 NOR  SN ES   2   1132 42.54                             117    -0.5 4  239 235 
 HEL  HE ES   2   1132 51.95                             114     0.9 4  276 255 
 HEL  HZ I        1132 56.40         2.0 0.17                           276 255 
 PRA  HZ EP   1   1132 32.91                             106     0.2 4  396 210 
 PRA  HN ES   2   1133 15.59                             106     0.8 3  396 210 
                                                                                
