 2015 1226 1135 54.5 L   6.800 -73.168147.6  RSN 12 0.3 2.4LRSN                1
 GAP=181        0.83       2.2     3.5  4.5 -0.9887E-02  0.2279E+01 -0.4964E+00E
 Epicentro: LOS SANTOS - SANTANDER                                             3
 ACTION:UPD 16-02-04 15:07 OP:cam  STATUS:               ID:20151226113554 L   I
 OLDACT:DUP 15-12-26 21:59 OP:cara STATUS:               ID:20151226112751d    3
 OLDACT:UP  15-12-26 21:57 OP:cara STATUS:               ID:20151226112750     3
 OLDACT:UP  15-12-26 21:55 OP:cara STATUS:               ID:20151226112750     3
 OLDACT:UP  15-12-26 21:54 OP:cara STATUS:               ID:20151226112750     3
 OLDACT:UP  15-12-26 21:52 OP:cara STATUS:               ID:20151226112750     3
 OLDACT:REG 15-12-26 19:53 OP:cara STATUS:               ID:20151226112750     3
 2015-12-26-1127-50M.COL___337                                                 6
 STAT SP IPHASW D HRMM SECON CODA AMPLIT PERI AZIMU VELO AIN AR TRES W  DIS CAZ7
 BAR2 EZ IP     C 1136 14.16                             171   -0.1410 23.0 184 
 BAR2 EZ ES       1136 29.51                             171   -0.2710 23.0 184 
 BAR2 EZ I        1136 30.74        45.3 0.18            168           23.0 184 
 BRR  HZ IP       1136 16.06                             154    0.3710 69.1 299 
 BRR  HN ES       1136 32.66                             154    0.4110 69.1 299 
 BRR  HZ I        1136 36.20        40.8 0.28            149           69.1 299 
 RUS  HZ EP       1136 18.23                             144   -0.1710  101 175 
 RUS  HN ES       1136 37.05                             144   -0.0310  101 175 
 PTB  HZ EP       1136 20.98                             133   -0.38 9  145 259 
 PTB  HN ES       1136 42.32                             133   -0.03 9  145 259 
 PTB  HZ I        1136 49.15        31.7 0.34            131            145 259 
 OCA  HZ EP       1136 23.12                             130    0.23 9  160 354 
 OCA  HN ES       1136 45.54                             130    0.48 9  160 354 
 OCA  HZ I        1136 49.53        43.3 0.42            132            160 354 
 SPBC HZ EP       1136 23.08                             130    0.13 9  162 218 
 SPBC HN ES       1136 44.73                             130   -0.45 9  162 218 
 SPBC HZ I        1136 51.01        33.5 0.28            129            162 218 
 ZAR  HZ EP       1136 26.83                             123    0.04 9  202 292 
 ZAR  HE ES       1136 51.77                             123   -0.25 9  202 292 
 ZAR  HZ I        1136 57.05        18.5 0.22            122            202 292 
 NOR  HZ EP       1136 30.42                             119    0.34 8  233 234 
 NOR  HN ES       1136 57.71                             119   -0.16 8  233 234 
 NOR  HZ I        1137  6.02        21.6 0.16            119            233 234 
 SML  HZ EP       1136 30.42                             118   -0.66 8  243 336 
 SML  HN ES       1136 59.08                             118   -0.56 8  243 336 
 SML  HZ I        1137  2.55        35.9 0.26            119            243 336 
 CHI  HZ IP       1136 32.52                             118    0.33 8  248 195 
 CHI  HE ES       1137  1.87                             118    0.25 8  248 195 
 CHI  HZ I        1137  4.99         9.6 0.36            119            248 195 
 HEL  HZ EP   4   1136 36.25                             115    1.75 0  270 256 
 HEL  HE ES       1137  6.29                             115    0.55 8  270 256 
 HEL  HZ I        1137 13.80        13.4 0.42            115            270 256 
 GUY2CHZ IP   4   1136 40.43                             113    2.50 0  299 235 
 GUY2CHN ES   4   1137 14.30                             113    2.47 0  299 235 
 GUY2CHZ I        1137 24.47        12.1 0.48                           299 235 
                                                                                
