 2011  626 1444 51.8 L   6.768 -73.101151.8  RSN 12 0.2 2.0LRSN                1
 GAP=161        0.50       2.2     3.5  3.5 -0.3191E+01  0.2162E+01 -0.8342E-01E
 Epicentro: LOS SANTOS - SANTANDER                                             3
 ACTION:UP  11-07-14 19:08 OP:ep   STATUS:               ID:20110626144451 L   I
 2011-06-26-1441-56S.COL___140                                                 6
 STAT SP IPHASW D HRMM SECON CODA AMPLIT PERI AZIMU VELO SNR AR TRES W  DIS CAZ7
 BAR2 SZ IP       1445 11.97                             172    -0.210   21 205 
 BAR2 SZ ES   1   1445 27.90                             172    -0.1 7   21 205 
 BAR2 SZ I        1445 30.04        21.6 0.33                            21 205 
 BTL  SZ EP   1   1445 12.29                             170     0.1 7   25 312 
 GIR2 SZ ES   2   1445 28.27                             166    -0.1 5   36 343 
 BRR  HZ IP     C 1445 13.91                             151    -0.110   77 299 
 BRR  HN ES   1   1445 31.41                             151     0.2 7   77 299 
 RUS  HZ EP   1   1445 15.78                             146    -0.1 7   97 179 
 RUS  HE ES   1   1445 35.13                             146     0.4 7   97 179 
 RUS  HZ I        1445 35.92         9.0 0.17                            97 179 
 BRI  SZ EP       1445 16.56                             142     0.110  110  18 
 BRI  SZ ES   1   1445 35.12                             142    -0.5 7  110  18 
 GRA  SZ EP   1   1445 17.80                             138     0.0 7  128  15 
 GRA  SZ I        1445 20.97         5.6 0.23                           128  15 
 OCA  SZ EP       1445 21.30                             130     0.3 9  164 352 
 OCA  SZ ES   2   1445 43.77                             130     0.0 5  164 352 
 OCA  SZ I        1445 48.39        18.3 0.32                           164 352 
 NOR  SZ EP   1   1445 28.17                             119     0.0 6  237 236 
 NOR  SN ES   1   1445 56.59                             119     0.1 6  237 236 
 CHI  HZ EP   1   1445 29.22                             119    -0.4 6  247 197 
 CHI  HN ES   2   1445 59.10                             119     0.0 4  247 197 
 CHI  HZ I        1446  5.30         6.8 0.21                           247 197 
 HEL  HZ EP   1   1445 32.76                             116     0.0 6  276 257 
 HEL  HN ES   2   1446  4.43                             116    -0.3 4  276 257 
 HEL  HZ I        1446 11.66         6.6 0.33                           276 257 
 RREF HZ EP   2   1445 38.58                             112     0.2 3  323 230 
 RREF HN ES   2   1446 14.51                             112    -0.2 3  323 230 
                                                                                
