 2016  226 1023 55.7 L   5.912 -74.075 23.3  RSN  4 0.4 0.9LRSN                1
 GAP=122        1.13       3.5     4.0  6.3  0.5260E+01 -0.1747E+02 -0.1012E+02E
 Epicentro: LA BELLEZA - SANTANDER                                             3
 ACTION:UPD 16-03-04 21:29 OP:rebc STATUS:               ID:20160226102355 L   I
 OLDACT:REG 16-02-26 20:53 OP:drio STATUS:               ID:20160226101750     3
 2016-02-26-1017-50M.COL___303                                                 6
 STAT SP IPHASW D HRMM SECON CODA AMPLIT PERI AZIMU VELO AIN AR TRES W  DIS CAZ7
 SPBC HZ EP       1024  1.88                             127    0.1010 28.7 179 
 SPBC HN ES       1024  6.46                             127   -0.0310 28.7 179 
 SPBC HZ I        1024  7.22         7.4 0.10            127           28.7 179 
 PTB  HZ EP       1024  8.28                             104   -0.7310 81.2 329 
 PTB  HE ES       1024 19.82                             104    0.4510 81.2 329 
 PTB  HZ I        1024 20.33         5.4 0.16            104           81.2 329 
 NOR  HZ EP       1024 10.87                             102   -0.3610 96.0 246 
 NOR  HE ES       1024 23.56                             102    0.2410 96.0 246 
 NOR  HZ I        1024 24.70         2.2 0.18            102           96.0 246 
 RUS  HZ EP       1024 14.33                              56    0.6710  110  91 
 RUS  HE ES       1024 27.33                              56   -0.3210  110  91 
 RUS  HZ I        1024 28.01         2.9 0.56             56            110  91 
                                                                                
