 2017  626 1250 42.8 L   6.811 -73.094136.9  RSN  8 0.4 1.9LRSN                1
 GAP=218        0.98       4.2     4.5  6.0  0.6887E+01  0.5801E+00  0.4629E+01E
 Epicentro: LOS SANTOS - SANTANDER                                             3
 ACTION:UPD 17-09-14 16:55 OP:jn   STATUS:               ID:20170626125042 L   I
 OLDACT:REG 17-06-26 20:59 OP:cog  STATUS:               ID:20170626124743     3
 2017-06-26-1248-00M.COL___349                                                 6
 STAT SP IPHASW D HRMM SECON CODA AMPLIT PERI AZIMU VELO AIN AR TRES W  DIS CAZ7
 BAR2 EZ EP       1251  1.62                             169    0.1410 26.1 202 
 BAR2 EZ ES       1251 15.88                             169   -0.1310 26.1 202 
 BAR2 EZ I        1251 18.02        22.0 0.20            167           26.1 202 
 BRR  HZ EP       1251  3.63                             149    0.3110 75.7 296 
 BRR  HN ES       1251 19.68                             149    0.3910 75.7 296 
 BRR  HZ I        1251 24.12        11.9 0.14            147           75.7 296 
 PTB  HZ EP   9   1251  8.59                             129   -1.07 0  154 259 
 PTB  HN ES       1251 29.16                             129   -0.35 9  154 259 
 PTB  HZ I        1251 35.55         7.3 0.12            128            154 259 
 SPBC HN ES       1251 33.05                             126   -0.15 9  168 220 
 YPLC HZ EP       1251 12.34                             125    0.49 9  175 153 
 YPLC HN ES       1251 33.68                             125   -0.80 9  175 153 
 ZAR  HZ EP       1251 15.07                             120   -0.17 8  209 291 
 ZAR  HN ES       1251 40.13                             120   -0.38 8  209 291 
 ZAR  HZ I        1251 45.52        10.8 0.50            120            209 291 
 NOR  HZ EP       1251 18.12                             116   -0.55 8  240 235 
 NOR  HN ES       1251 46.78                             116    0.17 8  240 235 
 NOR  HZ I        1251 50.86         6.6 0.44            117            240 235 
 CHI  HZ EP       1251 20.11                             115   -0.26 8  251 196 
 CHI  HN ES       1251 50.38                             115    0.74 8  251 196 
                                                                                
