 2017  326 1616  3.2 L   6.817 -73.152146.9  RSN  5 0.3 1.4LRSN                1
 GAP=135        0.82       4.5     4.3  6.1 -0.2023E+01  0.3839E+01  0.1036E+01E
 Epicentro: LOS SANTOS - SANTANDER                                             3
 ACTION:UPD 17-05-25 18:45 OP:jn   STATUS:               ID:20170326161603 L   I
 OLDACT:DUP 17-03-27 01:10 OP:dani STATUS:               ID:20170326160752d    3
 OLDACT:UP  17-03-27 01:08 OP:dani STATUS:               ID:20170326160751     3
 OLDACT:REG 17-03-27 00:58 OP:dani STATUS:               ID:20170326160751     3
 2017-03-26-1608-00M.COL___355                                                 6
 STAT SP IPHASW D HRMM SECON CODA AMPLIT PERI AZIMU VELO AIN AR TRES W  DIS CAZ7
 BAR2 EZ ES       1616 38.29                             170   -0.1610 25.1 188 
 BRR  HZ EP       1616 24.60                             153    0.2210 69.7 297 
 BRR  HN ES       1616 41.40                             153    0.4910 69.7 297 
 BRR  HZ I        1616 44.56         7.1 0.43            151           69.7 297 
 PAM  EZ EP       1616 25.59                             151    0.1210 76.4  41 
 PAM  EE ES       1616 42.48                             151   -0.3710 76.4  41 
 PAM  EZ I        1616 44.59         7.9 0.42            155           76.4  41 
 RUS  HZ EP       1616 27.50                             143    0.3010  103 176 
 RUS  HN ES       1616 45.96                             143    0.0310  103 176 
 RUS  HZ I        1616 47.35         1.2 0.17            146            103 176 
 PTB  HZ EP       1616 29.72                             132   -0.51 9  147 258 
 PTB  HN ES       1616 51.10                             132   -0.21 9  147 258 
 PTB  HZ I        1616 58.03         2.9 0.36            132            147 258 
                                                                                
