 2017  926 1803 17.2 L   6.765 -73.140138.4  RSN  5 0.2 1.2LRSN                1
 GAP=139        0.53       2.7     3.3  4.8  0.5829E+00  0.5018E+01 -0.1699E+01E
 Epicentro: LOS SANTOS - SANTANDER                                             3
 ACTION:UPD 17-10-05 19:16 OP:rebc STATUS:               ID:20170926180317 L   I
 OLDACT:UP  17-09-27 00:34 OP:edw  STATUS:               ID:20170926175742     3
 OLDACT:REG 17-09-26 21:03 OP:dhb  STATUS:               ID:20170926175742     3
 2017-09-26-1758-00M.COL___450                                                 6
 STAT SP IPHASW D HRMM SECON CODA AMPLIT PERI AZIMU VELO AIN AR TRES W  DIS CAZ7
 BAR2 EZ EP       18 3 35.68                             171   -0.1510 19.7 194 
 BAR2 EZ ES       18 3 50.58                             171    0.1810 19.7 194 
 BAR2 EZ I        18 3 51.66         3.8 0.16            174           19.7 194 
 BRR  HZ EP       18 3 37.98                             150    0.3110 73.7 301 
 PAM  EZ EP       18 3 38.91                             149    0.1510 80.0  37 
 PAM  EE ES       18 3 55.41                             149   -0.2010 80.0  37 
 PAM  EZ I        18 4  8.74         2.5 0.32            144           80.0  37 
 RUS  HZ EP       18 3 39.80                             143   -0.1010 96.7 176 
 RUS  HN ES       18 3 57.59                             143   -0.0610 96.7 176 
 RUS  HZ I        18 3 58.99         2.6 0.32            152           96.7 176 
 ZAR  HN ES       18 4 14.28                             120   -0.19 8  206 293 
                                                                                
