 2017  126 1131 33.7 L   6.757 -73.181148.2  RSN  5 0.2 1.6LRSN                1
 GAP=230        0.65       5.1     4.7  5.6  0.1356E+02  0.5293E+01 -0.1586E+01E
 Epicentro: LOS SANTOS - SANTANDER                                             3
 ACTION:UPD 17-05-22 16:03 OP:jn   STATUS:               ID:20170126113133 L   I
 OLDACT:REG 17-01-26 20:09 OP:dnl  STATUS:               ID:20170126112018     3
 2017-01-26-1128-00M.COL___343                                                 6
 STAT SP IPHASW D HRMM SECON CODA AMPLIT PERI AZIMU VELO AIN AR TRES W  DIS CAZ7
 BAR2 EZ IP     C 1131 53.33                             173   -0.1610 18.2 180 
 BAR2 EZ ES       1132  8.53                             173   -0.4310 18.2 180 
 BAR2 EZ I        1132  9.47         8.6 0.22            171           18.2 180 
 BRR  HZ EP       1131 55.21                             153    0.1910 70.2 303 
 BRR  HN ES       1132 12.03                             153    0.3510 70.2 303 
 BRR  HZ I        1132 17.36        12.7 0.40            150           70.2 303 
 RUS  HZ EP   2   1131 57.22                             145   -0.12 5 96.2 174 
 RUS  HN ES       1132 16.10                             145    0.2810 96.2 174 
 RUS  HZ I        1132 17.01         4.4 0.32            149           96.2 174 
 PTB  HZ EP       1132  0.38                             133   -0.02 9  143 260 
 PTB  HN ES       1132 21.17                             133   -0.09 9  143 260 
 PTB  HZ I        1132 25.81         3.5 0.12            133            143 260 
 ZAR  HE ES       1132 31.20                             123   -0.17 9  202 294 
 ZAR  HZ I        1132 39.35         3.8 0.30            123            202 294 
                                                                                
