 2013  726 1539 32.2 L   6.776 -73.122142.1  RSN 11 0.4 2.5LRSN                1
 GAP=141        0.89       3.4     3.9  6.1 -0.2406E+01  0.7497E+01 -0.1153E+01E
 Epicentro: LOS SANTOS - SANTANDER                                             3
 ACTION:UPD 13-08-12 10:40 OP:ep   STATUS:               ID:20130726153932 L   I
 OLDACT:REG 13-07-26 19:18 OP:mh   STATUS:               ID:20130726153750     3
 2013-07-26-1537-50M.COL___233                                                 6
 STAT SP IPHASW D HRMM SECON CODA AMPLIT PERI AZIMU VELO AIN AR TRES W  DIS CAZ7
 BAR2 SZ EP       1539 51.47                             171    0.1410 21.4 198 
 BAR2 SZ ES   1   1540  6.02                             171   -0.24 7 21.4 198 
 BAR2 SZ I        1540  7.15        51.7 0.22            172           21.4 198 
 GIR2 SZ IP     C 1539 51.61                             166    0.1010 34.4 347 
 GIR2 SZ I        1540  7.48        25.1 0.18            164           34.4 347 
 BRR  HZ IP     C 1539 53.43                             151    0.2810 74.8 299 
 BRR  HN ES       1540  9.87                             151    0.3710 74.8 299 
 BRR  HN I        1540 15.06        95.7 0.16            150           74.8 299 
 PAM  SZ EP   1   1539 54.42                             150    0.39 7 77.8  37 
 PAM  SN ES       1540 11.08                             150    0.0010 77.8  37 
 PAM  SN I        1540 12.40        78.0 0.52            150           77.8  37 
 RUS  HZ EP   1   1539 55.47                             144    0.10 7 97.8 177 
 RUS  HN ES   1   1540 13.09                             144   -0.36 7 97.8 177 
 RUS  HN I        1540 14.45        40.1 0.24            146           97.8 177 
 PTB  HZ EP   1   1539 58.15                             131   -0.90 7  150 260 
 PTB  HN ES   1   1540 19.01                             131   -0.99 7  150 260 
 PTB  HN I        1540 21.53        53.2 0.34            131            150 260 
 OCA  HZ EP   1   1540  0.13                             128   -0.36 7  163 352 
 OCA  HN ES   1   1540 22.40                             128   -0.17 7  163 352 
 OCA  HN I        1540 25.96       121.9 0.24            128            163 352 
 ZAR  HZ EP   1   1540  5.44                             121    0.69 6  208 293 
 ZAR  HE ES       1540 30.52                             121    0.37 8  208 293 
 ZAR  HZ I        1540 35.38        18.6 0.42            121            208 293 
 NOR  HZ EP   1   1540  7.92                             118    0.15 6  235 235 
 NOR  HN ES       1540 35.78                             118    0.26 8  235 235 
 NOR  HN I        1540 40.36        30.0 0.20            118            235 235 
 SML  HZ EP   1   1540  8.17                             116   -0.82 6  247 335 
 SML  HN ES   1   1540 37.16                             116   -0.54 6  247 335 
 SML  HN I        1540 40.16        45.1 0.10            117            247 335 
 HEL  HE ES   1   1540 43.94                             114    0.13 6  274 256 
                                                                                
