 2014  326 1419 12.2 L   6.798 -73.140151.2  RSN  7 0.3 1.8LRSN                1
 GAP=137        0.57       3.0     2.8  5.1 -0.5854E+00  0.1890E+01  0.2863E+01E
 Epicentro: LOS SANTOS - SANTANDER                                             3
 ACTION:UPD 14-04-09 23:20 OP:nd   STATUS:               ID:20140326141912 L   I
 OLDACT:UP  14-03-26 17:14 OP:mh   STATUS:               ID:20140326141813     3
 OLDACT:REG 14-03-26 14:57 OP:mh   STATUS:               ID:20140326141813     3
 2014-03-26-1418-13M.COL___250                                                 6
 STAT SP IPHASW D HRMM SECON CODA AMPLIT PERI AZIMU VELO AIN AR TRES W  DIS CAZ7
 BAR2 SZ EP   2   1419 32.17                             171   -0.29 5 23.2 192 
 BAR2 SZ I        1419 49.07        15.5 0.26            172           23.2 192 
 BRR  HZ EP   2   1419 34.46                             153    0.50 5 71.9 298 
 BRR  HN ES       1419 51.12                             153    0.1810 71.9 298 
 PAM  SZ EP       1419 35.05                             152    0.0810 77.2  39 
 PAM  SN ES   1   1419 52.51                             152   -0.22 7 77.2  39 
 PAM  SZ I        1419 54.54        10.2 0.07            148           77.2  39 
 RUS  HZ EP       1419 36.44                             145   -0.0110  100 176 
 RUS  HN ES       1419 55.45                             145    0.0710  100 176 
 RUS  HZ I        1419 56.28         3.0 0.16            143            100 176 
 PTB  HZ EP   1   1419 39.07                             133   -0.58 7  148 259 
 PTB  HN ES   1   1420  0.60                             133   -0.47 7  148 259 
 PTB  HZ I        1420  6.23        10.7 0.20            130            148 259 
 ZAR  HZ EP   4   1419 43.31                             123   -1.75 0  205 292 
 ZAR  HN ES   1   1420 10.81                             123    0.12 6  205 292 
 ZAR  HZ I        1420 16.79         7.8 0.13            120            205 292 
 NOR  HZ EP   1   1419 48.48                             120    0.21 6  235 235 
 NOR  HN ES       1420 16.63                             120    0.21 8  235 235 
 NOR  HZ I        1420 20.09         6.4 0.16            117            235 235 
                                                                                
