 2015 1026 1119 20.3 L   6.790 -73.104153.4  RSN  7 0.4 1.6LRSN                1
 GAP=160        1.01       3.5     5.4  6.2 -0.9164E+00  0.7946E+01  0.1543E+01E
 Epicentro: LOS SANTOS - SANTANDER                                             3
 ACTION:UPD 15-12-22 20:43 OP:cam  STATUS:               ID:20151026111920 L   I
 OLDACT:DUP 15-10-27 00:04 OP:cara STATUS:               ID:20151026110750d    3
 OLDACT:REG 15-10-26 23:35 OP:cara STATUS:               ID:20151026110749     3
 2015-10-26-1107-49M.COL___313                                                 6
 STAT SP IPHASW D HRMM SECON CODA AMPLIT PERI AZIMU VELO AIN AR TRES W  DIS CAZ7
 BAR2 EZ EP       1119 40.58                             171   -0.2710 23.5 202 
 BAR2 EZ ES       1119 56.68                             171   -0.2010 23.5 202 
 BAR2 EZ I        1119 58.10         5.5 0.18            163           23.5 202 
 PAM  EZ EP       1119 43.48                             153    0.2610 75.4  36 
 PAM  EE ES       1120  0.82                             153   -0.2710 75.4  36 
 PAM  EZ I        1120  2.64         3.3 0.20            160           75.4  36 
 BRR  HZ EP       1119 42.54                             152    0.0110 75.8 298 
 BRR  HE ES       1120  0.66                             152    0.8010 75.8 298 
 BRR  HZ I        1120 36.17         9.0 0.30            147           75.8 298 
 SPBC HZ EP       1119 49.53                             130   -0.05 9  165 220 
 SPBC HN ES       1120 11.66                             130   -0.77 9  165 220 
 SPBC HZ I        1120 14.91         5.6 0.10            134            165 220 
 ZAR  HZ EP       1119 53.26                             123   -0.46 8  209 292 
 ZAR  HE ES       1120 19.76                             123   -0.04 8  209 292 
 ZAR  HZ I        1120 25.57         3.9 0.30            126            209 292 
 SML  HZ EP       1119 57.66                             119   -0.01 8  247 334 
 SML  HE ES       1120 26.84                             119    0.01 8  247 334 
 SML  HZ I        1120 30.86         5.0 0.10            124            247 334 
 CHI  HZ EP       1119 58.87                             119    0.42 8  249 196 
 CHI  HN ES       1120 28.90                             119    0.69 8  249 196 
 CHI  HZ I        1120 32.75         1.1 0.44            126            249 196 
 GUY2CHE ES   4   1120 43.78                             113    4.59 0  304 235 
                                                                                
