 2017 1226 1031  6.5 L   6.525 -73.461109.2  RSN 12 0.4 1.6LRSN                1
 GAP= 57        0.76       2.0     2.3  5.6 -0.7241E+00  0.1792E+00  0.3472E+00E
 Epicentro: SIMACOTA - SANTANDER                                               3
 ACTION:UPD 18-01-04 13:24 OP:rebc STATUS:               ID:20171226103106 L   I
 OLDACT:UP  17-12-26 23:25 OP:mg   STATUS:               ID:20171226102511     3
 OLDACT:REG 17-12-26 21:38 OP:mg   STATUS:               ID:20171226102511     3
 2017-12-26-1028-00M.COL___446                                                 6
 STAT SP IPHASW D HRMM SECON CODA AMPLIT PERI AZIMU VELO AIN AR TRES W  DIS CAZ7
 BAR2 EZ EP       1031 22.11                             163    0.0810 31.7  77 
 BAR2 EZ ES   2   1031 34.18                             163    0.04 5 31.7  77 
 PTB  HN ES   1   1031 42.41                             131   -0.72 7  110 271 
 PTB  HZ I        1031 44.04         4.1 0.10            132            110 271 
 SPBC HZ EP       1031 27.91                             129    0.0010  118 215 
 SPBC HN ES       1031 44.62                             129    0.0110  118 215 
 SPBC HZ I        1031 49.79         8.3 0.14            131            118 215 
 PAM  EZ EP       1031 28.45                             128   -0.5110  123  43 
 PAM  EN ES       1031 46.60                             128    0.1310  123  43 
 PAM  EZ I        1031 49.92         3.9 0.38            130            123  43 
 YPLC HZ EP       1031 34.01                             118    0.48 9  173 136 
 TAM  HE ES   1   1031 56.93                             116    0.06 7  185  93 
 TAM  HZ I        1031 58.12         5.4 0.33            118            185  93 
 ZAR  HZ EP       1031 34.68                             115   -0.38 9  188 305 
 ZAR  HN ES       1031 57.83                             115    0.51 9  188 305 
 ZAR  HZ I        1032  1.35         5.1 0.28            117            188 305 
 OCA  HZ EP       1031 35.48                             115   -0.03 9  190   5 
 OCA  HN ES   1   1031 58.12                             115   -0.01 7  190   5 
 OCA  HZ I        1032  3.88        10.7 0.22            117            190   5 
 GUY2CHZ EP   1   1031 43.97                             108    0.65 6  255 236 
 GUY2CHE ES   1   1032 12.54                             108    0.52 6  255 236 
 GUY2CHZ I        1032 21.27         1.7 0.39                           255 236 
 PTGC HZ EP   2   1031 46.60                             104   -0.95 4  296 150 
 PTGC HE ES       1032 19.58                             104    0.02 7  296 150 
 DRL03HZ EP       1031 49.79                             103   -0.19 7  317 360 
 DRL03HE ES   1   1032 24.31                             103    0.43 5  317 360 
 PRA  HN ES       1032 30.36                             101   -0.37 6  349 207 
 PRA  HZ I        1032 40.92         1.5 0.27            103            349 207 
                                                                                
