 2016 1226 1503 44.8 L   6.781 -73.164140.0  RSN  9 0.6 2.0LRSN                1
 GAP=135        1.36       5.0     5.8  8.1  0.2226E+01  0.1347E+02  0.1041E+02E
 Epicentro: LOS SANTOS - SANTANDER                                             3
 ACTION:UPD 17-01-11 20:19 OP:rebc STATUS:               ID:20161226150344 L   I
 OLDACT:REG 16-12-26 20:38 OP:cog  STATUS:               ID:20161226145746     3
 2016-12-26-1458-00M.COL___369                                                 6
 STAT SP IPHASW D HRMM SECON CODA AMPLIT PERI AZIMU VELO AIN AR TRES W  DIS CAZ7
 BAR2 EZ EP       15 4  3.54                             171   -0.1610 21.0 185 
 BAR2 EZ ES       15 4 18.42                             171   -0.0210 21.0 185 
 BAR2 EZ I        15 4 19.81        50.0 0.30            169           21.0 185 
 BRR  HZ IP     C 15 4  5.34                             152    0.0410 70.4 301 
 BRR  HN ES       15 4 22.45                             152    1.1810 70.4 301 
 BRR  HZ I        15 4 26.26        26.0 0.30            150           70.4 301 
 PAM  EZ EP       15 4  6.59                             149   -0.0110 80.3  40 
 PAM  EN ES       15 4 23.75                             149    0.1610 80.3  40 
 PAM  EZ I        15 4 26.04        34.0 0.72            154           80.3  40 
 RUS  HZ EP       15 4  7.55                             143   -0.3110 98.7 175 
 RUS  HN ES       15 4 25.63                             143   -0.2110 98.7 175 
 RUS  HZ I        15 4 28.17         7.9 0.20            145           98.7 175 
 PTB  HZ EP       15 4 10.35                             131   -0.74 9  145 259 
 PTB  HN ES       15 4 31.09                             131   -0.50 9  145 259 
 PTB  HZ I        15 4 37.01        16.6 0.62            131            145 259 
 ZAR  HZ EP       15 4 16.50                             121   -0.27 9  203 293 
 ZAR  HE ES       15 4 41.30                             121   -0.40 9  203 293 
 ZAR  HZ I        15 4 48.34        15.7 0.38            122            203 293 
 CHI  HZ EP       15 4 21.82                             116   -0.10 8  246 195 
 CHI  HN ES       15 4 50.79                             116   -0.07 8  246 195 
 CHI  HZ I        15 4 54.62         4.2 0.44            118            246 195 
 GUY2CHZ EP   4   15 4 28.33                             111    0.50 0  298 235 
 GUY2CHN ES   4   15 5  5.77                             111    4.38 0  298 235 
 GUY2CHZ I        15 5  9.24         3.7 0.41                           298 235 
 ORTC HZ EP       15 4 39.38                             105    1.18 6  393 216 
 ORTC HN ES       15 5 21.62                             105    1.78 6  393 216 
 ORTC HZ I        15 5 27.18         3.3 0.60            107            393 216 
                                                                                
