 2015  326 1546 20.5 L   6.752 -73.134131.9  RSN  5 0.4 1.6LRSN                1
 GAP=140        1.06       5.2     5.4  8.6 -0.2347E+01  0.5344E+00  0.1508E+01E
 Epicentro: LOS SANTOS - SANTANDER                                             3
 ACTION:UPD 15-04-30 16:29 OP:nd   STATUS:               ID:20150326154620 L   I
 OLDACT:REG 15-03-26 20:59 OP:stll STATUS:               ID:20150326153748     3
 2015-03-26-1537-48M.COL___278                                                 6
 STAT SP IPHASW D HRMM SECON CODA AMPLIT PERI AZIMU VELO AIN AR TRES W  DIS CAZ7
 BAR2 EZ EP       1546 38.44                             172    0.0710 18.5 197 
 BAR2 EZ ES       1546 52.32                             172    0.0110 18.5 197 
 BAR2 EZ I        1546 54.70        14.7 0.18            170           18.5 197 
 BRR  HZ EP       1546 41.27                             148    0.8610 74.9 302 
 BRR  HN ES       1546 56.14                             148    0.2110 74.9 302 
 PAM  SZ EP       1546 41.09                             147   -0.3910 80.7  36 
 PAM  SZ I        1546 41.27         7.1 0.24            150           80.7  36 
 PAM  SN ES       1546 57.63                             147   -0.2210 80.7  36 
 RUS  HZ EP       1546 42.37                             142   -0.1410 95.2 177 
 RUS  HN ES       1546 59.85                             142    0.1710 95.2 177 
 RUS  HZ I        1547  2.15         5.0 0.38            143           95.2 177 
 PTB  HN ES       1547  5.97                             128   -0.65 9  148 261 
                                                                                
