 2012 1226 1951  0.7 L   6.740 -73.156151.5  RSN  7 0.2 1.8LRSN                1
 GAP=181        0.55       3.3     3.4  3.8  0.3468E+01  0.3554E+01  0.5804E+00E
 Epicentro: JORDAN - SANTANDER                                                 3
 ACTION:UPD 13-01-04 14:30 OP:ep   STATUS:               ID:20121226195100 L   I
 2012-12-26-1950-00M.COL___243                                                 6
 STAT SP IPHASW D HRMM SECON CODA AMPLIT PERI AZIMU VELO AIN AR TRES W  DIS CAZ7
 BAR2 SZ EP   1   1951 20.79                             174   -0.14 7 16.6 190 
 BAR2 SZ ES       1951 36.59                             174   -0.1010 16.6 190 
 BAR2 SZ I        1951 37.42        12.0 0.15                          16.6 190 
 GIR2 SZ EP       1951 21.24                             165   -0.0210 37.7 354 
 BRR  HZ EP       1951 22.69                             153    0.0610 73.7 303 
 BRR  HZ I        1951 33.59        18.6 0.38                          73.7 303 
 BRR  HN ES       1951 40.10                             153    0.3810 73.7 303 
 RUS  HZ EP       1951 24.66                             147    0.0710 94.0 175 
 RUS  HN ES       1951 43.14                             147   -0.0710 94.0 175 
 RUS  HN I        1951 45.52         7.3 0.44                          94.0 175 
 PTB  HZ EP       1951 27.66                             134   -0.30 9  146 261 
 PTB  HE ES   1   1951 48.90                             134   -0.31 7  146 261 
 PTB  HZ I        1951 54.87         7.3 0.38                           146 261 
 ZAR  HZ EP   1   1951 33.57                             123   -0.13 6  206 294 
 ZAR  HE ES   1   1951 59.13                             123   -0.30 6  206 294 
 ZAR  HZ I        1952  5.14         7.9 0.20                           206 294 
 NOR  HZ EP       1951 36.71                             120    0.42 8  230 236 
 NOR  HE ES   1   1952  4.20                             120    0.17 6  230 236 
 NOR  HZ I        1952  9.05         5.8 0.26                           230 236 
                                                                                
