 2012 1226 1936 22.0 L   6.731 -73.183146.3  RSN  4 0.1 1.7LRSN                1
 GAP=228        0.43       3.0     3.1  4.3  0.3363E+01  0.7440E+00  0.8526E+00E
 Epicentro: VILLANUEVA - SANTANDER                                             3
 ACTION:UPD 13-01-04 14:30 OP:ep   STATUS:               ID:20121226193622 L   I
 2012-12-26-1930-00M.COL___243                                                 6
 STAT SP IPHASW D HRMM SECON CODA AMPLIT PERI AZIMU VELO AIN AR TRES W  DIS CAZ7
 BRR  HZ EP       1936 43.43                             152    0.2010 71.7 305 
 BRR  HZ I        1936 47.19        19.3 0.18                          71.7 305 
 BRR  HN ES       1936 59.80                             152    0.0010 71.7 305 
 RUS  HZ EP       1936 45.31                             146    0.0110 93.4 173 
 RUS  HN ES       1937  3.45                             146   -0.0310 93.4 173 
 RUS  HN I        1937  5.59         6.5 0.22                          93.4 173 
 PTB  HZ EP     C 1936 48.30                             133   -0.23 9  142 262 
 PTB  HE ES       1937  9.12                             133   -0.10 9  142 262 
 PTB  HZ I        1937 11.87         4.1 0.25                           142 262 
 NOR  HE ES   1   1937 24.46                             120    0.28 6  227 235 
 NOR  HZ I        1937 31.46         3.0 0.31                           227 235 
                                                                                
