 2011  626 1808 13.0 L   6.802 -73.051144.0  RSN  6 0.3 1.4LRSN                1
 GAP=167        0.67       4.9     9.2  8.4 -0.1367E+01 -0.3792E+02 -0.4019E+01E
 Epicentro: LOS SANTOS - SANTANDER                                             3
 ACTION:UP  11-07-14 19:08 OP:ep   STATUS:               ID:20110626180813 L   I
 2011-06-26-1800-00M.COL___124                                                 6
 STAT SP IPHASW D HRMM SECON CODA AMPLIT PERI AZIMU VELO SNR AR TRES W  DIS CAZ7
 BTL  SZ EP   1   18 8 32.50                             169     0.0 7   27 298 
 BTL  SZ ES   2   18 8 47.75                             169     0.0 5   27 298 
 BAR2 SZ EP   2   18 8 32.36                             169    -0.2 5   27 212 
 BAR2 SZ ES   2   18 8 47.07                             169    -0.7 5   27 212 
 BAR2 SZ I        18 8 49.92         5.8 0.43                            27 212 
 BRR  HZ EP   1   18 8 33.97                             149    -0.6 7   80 295 
 BRR  HZ I        18 8 35.94         6.6 0.50                            80 295 
 BRR  HE ES   1   18 8 51.73                             149     0.4 7   80 295 
 RUS  HZ EP   1   18 8 36.83                             143     0.2 7  101 182 
 RUS  HN ES   2   18 8 55.20                             143     0.2 5  101 182 
 RUS  HZ I        18 8 57.25         3.0 0.22                           101 182 
 BRI  SZ EP   1   18 8 36.69                             142     0.2 7  105  15 
 GRA  SZ EP   1   18 8 37.89                             137     0.0 7  123  13 
 GRA  SZ ES   2   18 8 57.16                             137    -0.1 5  123  13 
 GRA  SZ I        18 9  2.86         2.9 0.64                           123  13 
                                                                                
