 2017 1226 1551 36.0 L   6.801 -73.161143.6  RSN  7 0.3 1.8LRSN                1
 GAP=145        0.65       4.0     4.4  6.5 -0.8633E+01  0.9692E+01  0.2339E+01E
 Epicentro: LOS SANTOS - SANTANDER                                             3
 ACTION:UPD 18-01-04 13:24 OP:rebc STATUS:               ID:20171226155136 L   I
 OLDACT:UP  17-12-27 00:54 OP:mg   STATUS:               ID:20171226154738     3
 OLDACT:REG 17-12-26 22:41 OP:mg   STATUS:               ID:20171226154738     3
 2017-12-26-1548-00M.COL___435                                                 6
 STAT SP IPHASW D HRMM SECON CODA AMPLIT PERI AZIMU VELO AIN AR TRES W  DIS CAZ7
 BAR2 EZ EP       1551 55.37                             170   -0.0410 23.2 186 
 BAR2 EZ ES   1   1552 10.43                             170   -0.08 7 23.2 186 
 BAR2 EZ I        1552 11.27        11.2 0.38            169           23.2 186 
 PAM  EZ EP       1551 58.32                             150    0.2410 78.4  41 
 PAM  EN ES       1552 15.25                             150   -0.0310 78.4  41 
 PAM  EZ I        1552 17.65        14.0 0.74            154           78.4  41 
 PTB  HZ EP       1552  2.26                             132   -0.42 9  146 259 
 PTB  HN ES   2   1552 23.12                             132   -0.34 5  146 259 
 PTB  HZ I        1552 27.10         4.4 0.10            131            146 259 
 SPBC HN ES       1552 26.29                             129   -0.02 9  162 218 
 SPBC HZ I        1552 31.05         5.7 0.10            129            162 218 
 ZAR  HE ES   1   1552 33.68                             122    0.43 6  202 292 
 ZAR  HZ I        1552 40.08         6.0 0.11            122            202 292 
 PRA  HZ EP   2   1552 28.50                             106   -0.91 3  391 209 
 PRA  HE ES       1553 11.70                             106    0.67 6  391 209 
 PRA  HZ I        1553 18.55         1.5 0.27            107            391 209 
 SJC  HZ EP   9   1552 29.87                             105   -1.54 0  408 327 
 SJC  HN ES   4   1553 13.00                             105   -0.06 0  408 327 
 SJC  HZ I        1553 14.30         3.3 0.86            106            408 327 
                                                                                
