 2010  326 1344 10.4 L   6.773 -73.052141.4  RSN  7 0.3 2.9LRSN                1
 GAP=261        0.54       4.9     6.2  6.6 -0.1172E+01  0.1164E+02  0.1560E+02E
 Epicentro: LOS SANTOS - SANTANDER                                             3
 ACTION:UP  10-08-24 09:56 OP:vdl  STATUS:               ID:20100326134410 L   I
 2010-03-26-1342-37S.COL___098                                                 6
 STAT SP IPHASW D HRMM SECON CODA AMPLIT PERI AZIMU VELO SNR AR TRES W  DIS CAZ7
 BAR2 SZ IP       1344 29.58                             170     0.110   25 216 
 BAR2 SZ ES   2   1344 44.37                             170    -0.1 5   25 216 
 BRR  HZ IP       1344 31.61                             148    -0.110   82 297 
 BRR  HZ I        1344 32.17       159.4 0.11                            82 297 
 BRR  HE ES   2   1344 48.51                             148     0.2 5   82 297 
 CHI  HZ EP   1   1344 47.80                             116     0.0 6  249 198 
 CHI  HE ES   2   1345 16.83                             116    -0.2 4  249 198 
 CHI  HZ I        1345 20.30        34.7 0.38                           249 198 
 HEL  HZ EP   1   1344 51.74                             113     0.3 6  281 257 
 HEL  HE ES   2   1345 22.53                             113    -0.9 4  281 257 
 HEL  HZ I        1345 29.08        39.1 0.51                           281 257 
 RREF BZ EP   1   1344 56.92                             110    -0.1 5  328 231 
 RREF BN ES   2   1345 33.79                             110     0.4 3  328 231 
 RREF BZ I        1345 41.35        31.0 0.24                           328 231 
 TOL  SZ EP   1   1344 59.56                             108     0.5 5  349 226 
 TOL  SZ ES   2   1345 37.58                             108     0.5 3  349 226 
 PRA  HZ EP   1   1345  3.37                             106    -0.7 4  395 211 
 PRA  HE ES   2   1345 46.02                             106     0.1 3  395 211 
 PRA  HZ I        1345 51.82        29.2 0.33                           395 211 
                                                                                
