 2015  326 1507 51.8 L   6.825 -73.102145.5  RSN  7 0.7 1.7LRSN                1
 GAP=141        1.67       6.5     8.6 10.4  0.2278E+00  0.1895E+02 -0.6724E+01E
 Epicentro: LOS SANTOS - SANTANDER                                             3
 ACTION:UPD 15-04-30 16:29 OP:nd   STATUS:               ID:20150326150751 L   I
 OLDACT:REG 15-03-26 20:57 OP:stll STATUS:               ID:20150326145749     3
 2015-03-26-1457-49M.COL___278                                                 6
 STAT SP IPHASW D HRMM SECON CODA AMPLIT PERI AZIMU VELO AIN AR TRES W  DIS CAZ7
 BAR2 EZ EP       15 8 11.63                             169    0.1910 27.2 199 
 BAR2 EZ I        15 8 12.10         9.1 0.18            169           27.2 199 
 BAR2 EZ ES       15 8 27.07                             169    0.2810 27.2 199 
 PAM  SZ EP       15 8 14.54                             152    0.8910 72.2  38 
 PAM  SN ES       15 8 29.64                             152   -1.0810 72.2  38 
 PAM  SZ I        15 8 33.80         7.0 0.18            155           72.2  38 
 BRR  HZ EP       15 8 13.60                             151    0.5410 74.3 295 
 BRR  HN ES       15 8 30.80                             151    1.1410 74.3 295 
 BRR  HZ I        15 8 35.36        10.6 0.50            151           74.3 295 
 RUS  HZ EP       15 8 15.88                             143    0.2110  103 179 
 RUS  HZ I        15 8 16.62         5.0 0.44            146            103 179 
 RUS  HE ES       15 8 33.69                             143   -0.6210  103 179 
 PTB  HZ EP       15 8 18.67                             131   -0.52 9  153 258 
 PTB  HN ES       15 8 39.94                             131   -0.64 9  153 258 
 PTB  HZ I        15 8 45.61        11.0 0.34            132            153 258 
 SPBC HZ EP       15 8 20.71                             128   -0.02 9  168 220 
 SML  HZ EP       15 8 28.24                             117   -0.09 8  243 334 
 SML  HN ES       15 8 56.06                             117   -0.79 8  243 334 
                                                                                
