 2013  826 1701 40.7 L   7.471 -73.184129.8  RSN  9 0.3 2.1LRSN                1
 GAP=139        0.86       3.2     3.7  6.0  0.5596E+00  0.7569E+01 -0.2330E+01E
 Epicentro: EL PLAYON - SANTANDER                                              3
 ACTION:UPD 14-01-14 09:07 OP:ep   STATUS:               ID:20130826170140 L   I
 OLDACT:REG 13-08-26 16:56 OP:nd   STATUS:               ID:20130826165959     3
 2013-08-26-1659-59M.COL___270                                                 6
 STAT SP IPHASW D HRMM SECON CODA AMPLIT PERI AZIMU VELO AIN AR TRES W  DIS CAZ7
 PAM  SZ EP       17 2  0.33                             156    0.3510 55.5 105 
 PAM  SN ES       17 2 15.26                             156    0.2410 55.5 105 
 PAM  SZ I        17 2 19.23        16.2 0.26            159           55.5 105 
 BRR  HZ IP     D 17 2  0.26                             150    0.1310 70.8 235 
 BRR  HN ES       17 2 15.41                             150    0.1310 70.8 235 
 BRR  HZ I        17 2 16.23        38.2 0.12            150           70.8 235 
 BAR2 SZ EP       17 2  2.16                             141   -0.1410 97.1 180 
 BAR2 SZ ES       17 2 18.62                             141   -0.5310 97.1 180 
 BAR2 SZ I        17 2 19.75        37.7 0.14            144           97.1 180 
 PTB  HZ EP       17 2  8.69                             123   -0.36 9  174 234 
 PTB  HN ES       17 2 30.83                             123   -0.33 9  174 234 
 PTB  HZ I        17 2 33.71        14.9 0.14            124            174 234 
 SML  HZ EP       17 2  9.23                             123   -0.04 9  177 326 
 SML  HN ES       17 2 30.98                             123   -0.57 9  177 326 
 SML  HZ I        17 2 32.41        44.9 0.10            122            177 326 
 ZAR  HZ EP       17 2 10.27                             121    0.14 9  185 271 
 ZAR  HN ES       17 2 33.76                             121    0.69 9  185 271 
 ZAR  HZ I        17 2 38.11        20.1 0.34            122            185 271 
 SPBC HZ EP       17 2 14.57                             116    0.16 8  224 206 
 SPBC HN ES       17 2 40.86                             116    0.16 8  224 206 
 SPBC HZ I        17 2 43.78        10.3 0.22            118            224 206 
 URE  HZ EP   4   17 2 16.51                             112   -1.94 0  261 277 
 URE  HN ES   4   17 2 46.18                             112   -1.71 0  261 277 
 URE  HZ I        17 2 55.17         8.8 0.16            113            261 277 
 COD  HZ EP   4   17 2 19.04                             111   -0.87 0  274 354 
 COD  HN ES   4   17 2 50.89                             111    0.40 0  274 354 
 COD  HZ I        17 2 58.14         2.3 0.62            111            274 354 
                                                                                
