 2015  226 1244 19.0 L   6.785 -73.131141.8  RSN  7 0.5 2.0LRSN                1
 GAP=220        1.17       4.1     8.3  7.3 -0.6391E+01  0.1167E+02  0.3094E+01E
 Epicentro: LOS SANTOS - SANTANDER                                             3
 ACTION:UPD 15-04-30 21:29 OP:nd   STATUS:               ID:20150226124419 L   I
 OLDACT:REG 15-02-26 21:29 OP:carl STATUS:               ID:20150226123747     3
 2015-02-26-1237-47M.COL___290                                                 6
 STAT SP IPHASW D HRMM SECON CODA AMPLIT PERI AZIMU VELO AIN AR TRES W  DIS CAZ7
 BAR2 EZ EP       1244 38.29                             171    0.1510 22.0 195 
 BAR2 EZ ES       1244 52.86                             171   -0.2010 22.0 195 
 BAR2 EZ I        1244 53.97        27.2 0.32            168           22.0 195 
 BRR  HZ EP       1244 39.45                             151   -0.4110 73.4 299 
 BRR  HN ES       1244 56.92                             151    0.8010 73.4 299 
 SPBC HZ EP       1244 46.94                             128   -0.24 9  163 220 
 SPBC HN ES       1245  9.08                             128   -0.07 9  163 220 
 SPBC HZ I        1245 12.96        14.2 0.22            127            163 220 
 NOR  HZ EP       1244 54.72                             118    0.17 8  235 235 
 NOR  HN ES       1245 21.71                             118   -0.56 8  235 235 
 SML  HZ EP       1244 55.54                             116   -0.12 8  246 335 
 SML  HN ES       1245 23.68                             116   -0.56 8  246 335 
 SML  HZ I        1245 26.39        12.9 0.28            117            246 335 
 CHI  HZ EP       1244 56.65                             116    0.29 8  247 196 
 CHI  HN ES       1245 25.14                             116   -0.35 8  247 196 
 CHI  HZ I        1245 35.37         2.8 0.38            116            247 196 
 GUY2CHZ EP       1245  3.96                             112    1.48 7  302 235 
 GUY2CHN ES       1245 36.13                             112   -0.25 7  302 235 
 GUY2CHZ I        1245 43.66         3.6 0.24                           302 235 
                                                                                
