 2015  526 1243 26.4 L   6.791 -73.116146.5  RSN  7 0.2 1.7LRSN                1
 GAP=141        0.54       2.3     3.2  4.0 -0.2357E+01  0.2346E+01 -0.3398E+00E
 Epicentro: LOS SANTOS - SANTANDER                                             3
 ACTION:UPD 15-09-10 22:07 OP:cam  STATUS:               ID:20150526124326 L   I
 OLDACT:DUP 15-05-27 00:43 OP:spq  STATUS:               ID:20150526123749d    3
 2015-05-26-1237-48M.COL___282                                                 6
 STAT SP IPHASW D HRMM SECON CODA AMPLIT PERI AZIMU VELO AIN AR TRES W  DIS CAZ7
 BAR2 EZ EP       1243 46.00                             171   -0.0710 23.2 199 
 BAR2 EZ ES   1   1244  1.60                             171    0.15 7 23.2 199 
 BAR2 EZ I        1244  2.01         7.1 0.28            168           23.2 199 
 BRR  HZ EP       1243 47.92                             152    0.1410 74.6 298 
 BRR  HE ES       1244  4.75                             152    0.2610 74.6 298 
 BRR  HZ I        1244  6.14         9.1 0.36            150           74.6 298 
 PAM  SZ EP       1243 48.78                             151    0.2110 76.1  37 
 PAM  SN ES   1   1244  5.55                             151   -0.36 7 76.1  37 
 PAM  SZ I        1244  8.03         5.2 0.30            155           76.1  37 
 RUS  HZ EP   1   1243 50.40                             144    0.30 7 99.4 178 
 RUS  HE ES   1   1244  8.46                             144   -0.15 7 99.4 178 
 RUS  HZ I        1244  9.99         6.8 0.48            144           99.4 178 
 SPBC HZ EP   1   1243 54.87                             129   -0.17 7  165 220 
 SPBC HN ES       1244 17.09                             129   -0.32 9  165 220 
 SPBC HZ I        1244 23.94         6.3 0.12            129            165 220 
 NOR  HZ EP   1   1244  2.28                             118   -0.08 6  237 235 
 NOR  HN ES       1244 30.52                             118    0.08 8  237 235 
 NOR  HZ I        1244 36.19         4.2 0.20            118            237 235 
 SML  HZ EP   1   1244  3.26                             117   -0.01 6  246 335 
 SML  HN ES   1   1244 31.53                             117   -0.54 6  246 335 
 SML  HZ I        1244 32.81         6.1 0.06            118            246 335 
                                                                                
