 2016  926 1528 16.0 L   6.809 -73.143142.0  RSN 19 0.5 2.5LRSN                1
 GAP=136        1.05       3.1     4.2  5.0 -0.2721E+01  0.5719E+01  0.2080E+01E
 Epicentro: LOS SANTOS - SANTANDER                                             3
 ACTION:UPD 17-08-17 21:16 OP:lp   STATUS:               ID:20160926152816 L   I
 OLDACT:UP  16-09-27 01:05 OP:edw  STATUS:               ID:20160926151747d    3
 OLDACT:UP  16-09-27 01:03 OP:edw  STATUS:               ID:20160926151747d    3
 OLDACT:DUP 16-09-27 00:56 OP:edw  STATUS:               ID:20160926151747d    3
 2016-09-26-1518-00M.COL___357                                                 6
 STAT SP IPHASW D HRMM SECON CODA AMPLIT PERI AZIMU VELO AIN AR TRES W  DIS CAZ7
 BAR2 EZ EP       1528 34.99                             170   -0.2510 24.3 190 
 BAR2 EZ ES       1528 50.14                             170   -0.0810 24.3 190 
 BAR2 EZ I        1528 51.01        85.2 0.32            169           24.3 190 
 BRR  HZ IP     C 1528 36.71                             152   -0.0710 71.1 298 
 BRR  HN ES       1528 53.01                             152    0.0610 71.1 298 
 BRR  HZ I        1528 59.09        44.3 0.12            148           71.1 298 
 PAM  EZ EP       1528 38.14                             150    0.3410 76.4  40 
 PAM  EN ES       1528 55.33                             150    0.5610 76.4  40 
 PAM  EZ I        1528 56.76        18.1 0.16            153           76.4  40 
 RUS  HZ EP       1528 39.16                             143   -0.3310  102 176 
 RUS  HN ES       1528 57.68                             143   -0.1110  102 176 
 RUS  HZ I        1528 59.18        22.9 0.52            146            102 176 
 PTB  HZ EP   9   1528 41.48                             131   -1.28 0  148 259 
 PTB  HN ES       1529  2.73                             131    0.42 9  148 259 
 PTB  HZ I        1529  4.67        28.2 0.11            130            148 259 
 OCA  HZ EP       1528 43.41                             129   -0.57 9  159 353 
 OCA  HN ES       1529  5.76                             129   -0.01 9  159 353 
 OCA  HZ I        1529 13.55        59.7 0.27            129            159 353 
 SPBC HZ EP       1528 44.03                             128   -0.32 9  164 219 
 SPBC HN ES       1529  6.20                             128   -0.23 9  164 219 
 SPBC HZ I        1529 10.97        73.8 0.18            128            164 219 
 ZAR  HZ EP       1528 48.00                             122   -0.24 9  204 292 
 ZAR  HN ES       1529 13.09                             122   -0.27 9  204 292 
 ZAR  HZ I        1529 19.27        27.0 0.17            121            204 292 
 NOR  HZ EP       1528 51.04                             118   -0.61 8  236 234 
 NOR  HN ES       1529 19.11                             118   -0.31 8  236 234 
 NOR  HZ I        1529 23.95        24.1 0.16            118            236 234 
 CHI  HZ EP       1528 53.56                             116   -0.09 8  250 195 
 CHI  HN ES   4   1529 22.63                             116   -0.35 0  250 195 
 CHI  HZ I        1529 24.91        22.0 0.32            118            250 195 
 ROSC BZ EP       1528 55.00                             116    0.93 8  254 211 
 ROSC BN ES   4   1529 26.05                             116    2.32 0  254 211 
 ROSC BZ I        1529 29.68        43.8 0.40            117            254 211 
 HEL  HZ EP       1528 57.18                             114    1.05 8  273 256 
 HEL  HN ES   4   1529 29.09                             114    1.69 0  273 256 
 HEL  HZ I        1529 33.71        17.1 0.36            114            273 256 
 URE  HZ EP   4   1528 56.36                             113   -0.57 0  284 292 
 URE  HN ES   4   1529 26.99                             113   -1.83 0  284 292 
 URE  HZ I        1529 37.18        35.2 0.18            113            284 292 
 GUY2CHZ EP       1529  0.11                             112    0.53 7  302 235 
 GUY2CHN ES   4   1529 37.04                             112    3.51 0  302 235 
 GUY2CHZ I        1529 40.60        15.2 0.60                           302 235 
 ELA  HZ EP   4   1529  5.47                             110    2.63 0  330 229 
 ELA  HN ES   2   1529 40.02                             110    0.68 3  330 229 
 ELA  HZ I        1529 45.86         6.8 0.36            110            330 229 
 CBOC HZ EP       1529  2.67                             109   -0.21 7  334 252 
 CBOC HN ES   4   1529 37.55                             109   -1.86 0  334 252 
 ANIL HZ EP   4   1529 13.65                             108    7.84 0  358 224 
 ANIL HN ES       1529 45.68                             108    1.05 6  358 224 
 SJC  HZ EP   4   1529  9.23                             105   -2.18 0  409 327 
 SJC  HN ES   4   1529 50.12                             105   -4.48 0  409 327 
 SJC  HZ I        1529 56.70         3.7 0.13            106            409 327 
 CRJC HZ EP   9   1529 15.70                             103   -2.63 0  467   4 
 CRJC HN ES       1530  5.27                                    0.99 5  467   4 
 CRJC HZ I        1530 12.06         9.1 0.36            104            467   4 
                                                                                
