 2013 1226 1849 25.6 L   6.730 -73.228141.3  RSN  7 0.4 1.9LRSN                1
 GAP=121        0.97       3.9     4.5  7.2 -0.1849E+01  0.7443E+01 -0.6179E+01E
 Epicentro: VILLANUEVA - SANTANDER                                             3
 ACTION:UPD 14-01-13 10:21 OP:ep   STATUS:               ID:20131226184925 L   I
 OLDACT:REG 13-12-26 19:59 OP:jn   STATUS:               ID:20131226184746     3
 2013-12-26-1847-46M.COL___238                                                 6
 STAT SP IPHASW D HRMM SECON CODA AMPLIT PERI AZIMU VELO AIN AR TRES W  DIS CAZ7
 BAR2 SZ EP       1849 44.50                             173   -0.0310 16.1 162 
 BAR2 SZ ES       1849 59.07                             173   -0.2410 16.1 162 
 BAR2 SZ I        1850  1.43        24.8 0.12            176           16.1 162 
 BRR  HZ EP       1849 46.66                             153    0.6210 67.8 308 
 BRR  HN ES   2   1850  2.55                             153    0.55 5 67.8 308 
 BRR  HZ I        1850  4.70        25.3 0.18            152           67.8 308 
 PAM  SZ EP       1849 48.48                             146    0.4210 89.1  41 
 PAM  SN ES       1850  5.63                             146    0.0210 89.1  41 
 PAM  SZ I        1850  7.34         8.0 0.38            149           89.1  41 
 RUS  HZ EP       1849 48.24                             144   -0.1610 94.0 170 
 RUS  HN ES       1850  6.40                             144    0.1910 94.0 170 
 RUS  HZ I        1850  8.57        10.3 0.32            149           94.0 170 
 PTB  HZ EP       1849 50.65                             133   -0.59 9  137 261 
 PTB  HN ES       1850 11.03                             133   -0.23 9  137 261 
 PTB  HZ I        1850 12.31        10.1 0.48            134            137 261 
 OCA  HZ EP       1849 54.28                             127    0.09 9  167 357 
 OCA  HN ES       1850 15.83                             127   -0.68 9  167 357 
 OCA  HZ I        1850 19.41        11.1 0.28            129            167 357 
 ZAR  HN ES   1   1850 22.45                             122    0.62 6  199 295 
 ZAR  HZ I        1850 28.96        10.2 0.28            123            199 295 
                                                                                
