 2014  126 1736 24.5 L   6.824 -73.196134.3  RSN  6 0.4 1.3LRSN                1
 GAP=129        1.05       4.9     6.3 10.5 -0.1106E+02  0.3168E+02 -0.1785E+02E
 Epicentro: ZAPATOCA - SANTANDER                                               3
 ACTION:UPD 14-03-13 09:58 OP:ep   STATUS:               ID:20140126173624 L   I
 OLDACT:DUP 14-01-26 19:31 OP:stll STATUS:               ID:20140126172818d    3
 2014-01-26-1728-15M.COL___243                                                 6
 STAT SP IPHASW D HRMM SECON CODA AMPLIT PERI AZIMU VELO AIN AR TRES W  DIS CAZ7
 BAR2 SZ ES       1736 57.30                             169    0.1710 25.7 177 
 BAR2 SZ I        1736 59.01         8.4 0.36            168           25.7 177 
 BRR  HZ EP       1736 44.89                             153    0.7810 65.0 299 
 BRR  HN EP       1737  0.77                                           65.0 299 
 PAM  SZ EP       1736 45.81                             148    0.1510 79.1  44 
 PAM  SZ I        1736 45.99         7.4 0.16            153           79.1  44 
 PAM  SN ES       1737  2.22                             148    0.0910 79.1  44 
 RUS  HN ES       1737  4.86                             140   -0.4210  104 173 
 RUS  HZ I        1737  6.90         1.4 0.28            142            104 173 
 PTB  HZ EP       1736 49.79                             130   -0.35 9  143 257 
 PTB  HN ES       1737 10.15                             130    0.04 9  143 257 
 PTB  HZ I        1737 16.11         3.1 0.26            130            143 257 
 OCA  HE ES       1737 12.24                             127   -0.60 9  157 355 
                                                                                
