 2011 1126 1016 44.4 L   6.782 -73.100144.0  RSN  5 0.3 1.8LRSN                1
 GAP=143        0.62       4.4     6.3  6.3 -0.1629E+01  0.1274E+01  0.2482E+01E
 Epicentro: LOS SANTOS - SANTANDER                                             3
 ACTION:UPD 12-07-13 16:12 OP:ep   STATUS:               ID:20111126101644 L   I
 2011-11-26-1013-26S.COL___160                                                 6
 STAT SP IPHASW D HRMM SECON CODA AMPLIT PERI AZIMU VELO AIN AR TRES W  DIS CAZ7
 BAR2 SZ EP   1   1017  3.46                             171   -0.30 7 22.9 204 
 BAR2 SZ ES   1   1017 18.61                             171   -0.29 7 22.9 204 
 BAR2 SZ I        1017 19.99        23.7 0.24                          22.9 204 
 PAM  SZ EP   1   1017  6.41                             151    0.12 7 75.9  36 
 PAM  SE ES   1   1017 23.64                             151    0.24 7 75.9  36 
 PAM  SZ I        1017 25.66         6.0 0.47                          75.9  36 
 BRR  HZ EP   1   1017  5.44                             151   -0.19 7 76.6 298 
 BRR  HE ES   1   1017 22.35                             151    0.13 7 76.6 298 
 BRR  HZ I        1017 24.79        12.0 0.25                          76.6 298 
 RUS  HZ EP   1   1017  7.42                             144   -0.35 7 98.4 179 
 RUS  HN ES   1   1017 26.47                             144    0.44 7 98.4 179 
 RUS  HZ I        1017 27.83         9.2 0.46                          98.4 179 
 RREF HZ EP   2   1017 31.59                             110    0.88 3  324 230 
 RREF HZ I        1018 14.97         3.9 0.35                           324 230 
                                                                                
