 2014 1226 1232 37.8 L   6.758 -73.144146.3  RSN  6 0.5 1.7LRSN                1
 GAP=234        1.29       7.1     7.3  8.8  0.3347E+01  0.1419E+02  0.9240E+01E
 Epicentro: LOS SANTOS - SANTANDER                                             3
 ACTION:UPD 15-02-10 17:07 OP:nd   STATUS:               ID:20141226123237 L   I
 OLDACT:UP  14-12-26 22:47 OP:carl STATUS:               ID:20141226122750     3
 OLDACT:REG 14-12-26 20:28 OP:y    STATUS:               ID:20141226122750     3
 2014-12-26-1227-50M.COL___283                                                 6
 STAT SP IPHASW D HRMM SECON CODA AMPLIT PERI AZIMU VELO AIN AR TRES W  DIS CAZ7
 BAR2 EZ EP       1232 57.41                             172    0.0510 18.8 193 
 BAR2 EZ ES       1233 12.17                             172   -0.4910 18.8 193 
 BAR2 EZ I        1233 13.98        12.5 0.26            169           18.8 193 
 BRR  HZ EP       1232 59.35                             152    0.2510 73.7 302 
 BRR  HE ES       1233 16.28                             152    0.5310 73.7 302 
 RUS  HZ EP       1233  1.04                             145   -0.1810 95.9 176 
 RUS  HN ES       1233 19.96                             145    0.4310 95.9 176 
 RUS  HZ I        1233 20.81         6.4 0.24            145           95.9 176 
 PTB  HZ EP       1233  4.03                             132   -0.67 9  147 261 
 PTB  HN ES       1233 25.26                             132   -0.46 9  147 261 
 PTB  HZ I        1233 29.00         6.0 0.34            132            147 261 
 SPBC HZ EP       1233  6.55                             130    0.59 9  160 220 
 SPBC HN ES       1233 27.26                             130   -0.70 9  160 220 
 SPBC HZ I        1233 29.54         7.3 0.22            129            160 220 
 NOR  HZ EP       1233 12.97                             119   -0.27 8  232 235 
 NOR  HN ES       1233 41.92                             119    1.01 8  232 235 
 NOR  HZ I        1233 45.65         5.8 0.20            119            232 235 
                                                                                
