 2013 1126 1513 20.8 L   6.851 -73.149150.0  RSN  9 0.4 2.3LRSN                1
 GAP=145        0.94       4.2     4.2  5.8 -0.3010E+01  0.5269E+01  0.4491E+01E
 Epicentro: LOS SANTOS - SANTANDER                                             3
 ACTION:UPD 14-01-09 16:31 OP:ep   STATUS:               ID:20131126151320 L   I
 OLDACT:UP  13-11-26 15:40 OP:cam  STATUS:               ID:20131126151000     3
 OLDACT:REG 13-11-26 15:12 OP:cam  STATUS:               ID:20131126151000     3
 2013-11-26-1510-00M.COL___282                                                 6
 STAT SP IPHASW D HRMM SECON CODA AMPLIT PERI AZIMU VELO AIN AR TRES W  DIS CAZ7
 BAR2 SZ EP       1513 40.89                             169   -0.1610 28.8 187 
 BAR2 SZ ES       1513 56.66                             169   -0.1910 28.8 187 
 BAR2 SZ I        1513 57.64        57.4 0.56            169           28.8 187 
 BRR  HZ EP       1513 42.50                             154    0.2610 68.4 295 
 BRR  HN ES       1513 59.66                             154    0.6810 68.4 295 
 BRR  HZ I        1514  3.26        25.4 0.20            152           68.4 295 
 PAM  SZ EP       1513 43.57                             153    0.3410 73.4  43 
 PAM  SE ES       1514  0.52                             153   -0.2110 73.4  43 
 PAM  SZ I        1514  2.31        20.6 0.24            155           73.4  43 
 PTB  HZ EP       1513 47.52                             133   -0.66 9  149 257 
 PTB  HN ES       1514  8.94                             133   -0.60 9  149 257 
 PTB  HZ I        1514 11.14        42.8 0.30            133            149 257 
 ZAR  HZ EP   2   1513 53.62                             124    0.35 4  202 291 
 ZAR  HN ES       1514 18.80                             124    0.20 9  202 291 
 ZAR  HZ I        1514 22.88        17.3 0.12            124            202 291 
 SML  HZ EP   1   1513 56.64                             119   -0.45 6  238 335 
 SML  HN ES   1   1514 24.99                             119   -0.42 6  238 335 
 SML  HZ I        1514 28.49        24.4 0.10            120            238 335 
 NOR  HZ EP       1513 57.02                             119   -0.07 8  238 233 
 NOR  HN ES       1514 25.74                             119    0.34 8  238 233 
 NOR  HZ I        1514 30.88        13.5 0.22            120            238 233 
 CHI  HZ EP       1513 59.53                             117    0.23 8  254 195 
 CHI  HN ES   2   1514 29.12                             117   -0.22 4  254 195 
 GUY2CHZ EP   2   1514  6.38                             113    1.45 4  304 234 
                                                                                
