 2013  326 1948 52.2 L   6.747 -73.174156.5  RSN  4 0.3 1.8LRSN                1
 GAP=135        0.80       6.0     5.4  9.1  0.6792E+01 -0.1040E+02 -0.1651E+02E
 Epicentro: VILLANUEVA - SANTANDER                                             3
 ACTION:UPD 13-04-09 14:05 OP:ep   STATUS:               ID:20130326194852 L   I
 2013-03-26-1940-00M.COL___245                                                 6
 STAT SP IPHASW D HRMM SECON CODA AMPLIT PERI AZIMU VELO AIN AR TRES W  DIS CAZ7
 BRR  HZ EP   1   1949 14.62                             154    0.13 7 71.6 304 
 BRR  HN ES   1   1949 32.35                             154    0.43 7 71.6 304 
 BRR  HN I        1949 35.22        23.1 0.30            155           71.6 304 
 PAM  SZ EP       1949 15.50                             151   -0.4010 83.8  39 
 RUS  HZ EP       1949 17.11                             147    0.5110 95.1 174 
 RUS  HN ES       1949 35.50                             147   -0.1810 95.1 174 
 RUS  HN I        1949 38.65         3.8 0.42            150           95.1 174 
 PTB  HZ EP       1949 19.64                             135   -0.02 9  144 261 
 PTB  HN ES       1949 40.86                             135   -0.26 9  144 261 
 PTB  HN I        1949 45.78        10.9 0.52            137            144 261 
                                                                                
