 2012  426 1308 57.2 L   6.305 -73.960 30.0  RSN  5 0.3 1.5LRSN                1
 GAP=151        0.89       4.4     3.3  6.8  0.2374E+01 -0.1507E+02  0.3554E+00E
 Epicentro: CIMITARRA - SANTANDER                                              3
 ACTION:UPD 12-07-05 11:56 OP:tino STATUS:               ID:20120426130857 L   I
 2012-04-26-1305-41M.COL___186                                                 6
 STAT SP IPHASW D HRMM SECON CODA AMPLIT PERI AZIMU VELO AIN AR TRES W  DIS CAZ7
 PTB  HZ EP       13 9  7.77                             108     0.010   61 295 
 PTB  HN ES   1   13 9 15.99                             108     0.0 7   61 295 
 PTB  HZ I        13 9 17.17        22.8 0.09                            61 295 
 BAR2 SZ EP       13 9 12.21                              61     0.110   92  70 
 BAR2 SZ ES   1   13 9 23.10                              61    -0.6 7   92  70 
 BAR2 SZ I        13 9 27.00         7.2 0.38                            92  70 
 BRR  HZ EP   1   13 9 11.42                              61    -0.5 7   93  17 
 BRR  HN ES   1   13 9 24.03                              61     0.6 7   93  17 
 BRR  HZ I        13 9 25.24        14.3 0.20                            93  17 
 RUS  HZ EP       13 9 14.65                              61     0.310  107 115 
 RUS  HN ES   1   13 9 27.68                              61     0.0 7  107 115 
 RUS  HZ I        13 9 28.69        10.2 0.23                           107 115 
 HEL  HE ES   1   13 9 42.16                              61    -0.1 7  174 266 
                                                                                
