 2013  926 1940  4.1 L   6.788 -73.141144.3  RSN 10 0.5 2.1LRSN 2.7WRSN        1
 SPEC AVERAGE  MO 13.1 ST124.0 OM  1.5 f0 18.9 R0.1362 AL 0.00 WI 20.0 MW  2.7 3
 SPEC SD       MO  0.2 ST217.9 OM  0.4 f0 10.3 R0.0803 AL      WI      MW  0.1 3
 GAP=120        1.21       4.4     5.0  6.7 -0.9429E+01  0.1104E+00  0.1183E+01E
 Epicentro: LOS SANTOS - SANTANDER                                             3
 SPEC BAR2SH Z MO 13.1 ST 47.8 OM  1.3 f0 17.8 R0.1081 AL-0.00 WI 20.0 MW  2.7 3
 SPEC BAR2SH Z T194036 K 0.050 GD  145 VS 5.20 DE 3.20 Q0750.0 QA 1.50 VS 5.20 3
 SPEC BRR HH Z MO 13.3 ST 33.1 OM  1.4 f0 14.1 R0.1365 AL-0.00 WI 20.0 MW  2.8 3
 SPEC BRR HH Z T194040 K 0.050 GD  161 VS 5.20 DE 3.20 Q0750.0 QA 1.50 VS 5.20 3
 SPEC PAM SH Z MO 13.2 ST  2.4 OM  1.3 f0 6.30 R0.3054 AL-0.00 WI 20.0 MW  2.7 3
 SPEC PAM SH Z T194041 K 0.050 GD  164 VS 5.20 DE 3.20 Q0750.0 QA 1.50 VS 5.20 3
 SPEC RUS HH Z MO 12.7 ST 19.7 OM  0.8 f0 18.3 R0.1051 AL-0.00 WI 20.0 MW  2.4 3
 SPEC RUS HH Z T194044 K 0.050 GD  175 VS 5.20 DE 3.20 Q0750.0 QA 1.50 VS 5.20 3
 SPEC PTB HH Z MO 13.2 ST610.3 OM  1.2 f0 40.0 R0.0481 AL-0.00 WI 20.0 MW  2.7 3
 SPEC PTB HH Z T194049 K 0.050 GD  206 VS 5.20 DE 3.20 Q0750.0 QA 1.50 VS 5.20 3
 SPEC NOR HH Z MO 13.0 ST 30.7 OM  0.9 f0 16.9 R0.1138 AL-0.00 WI 20.0 MW  2.6 3
 SPEC NOR HH Z T1941 5 K 0.050 GD  274 VS 5.20 DE 3.20 Q0750.0 QA 1.50 VS 5.20 3
 OLDACT:REG 13-09-26 16:03 OP:stll STATUS:               ID:20130926193837     3
 ACTION:UPD 13-10-22 09:25 OP:ep   STATUS:               ID:20130926194004 L   I
 OLDACT:UP  13-09-26 20:47 OP:stll STATUS:               ID:20130926193837     3
 2013-09-26-1938-37M.COL___235                                                 6
 STAT SP IPHASW D HRMM SECON CODA AMPLIT PERI AZIMU VELO AIN AR TRES W  DIS CAZ7
 BAR2 SZ IP     D 1940 23.76                             171    0.2610 22.2 192 
 BAR2 SZ ES       1940 38.32                             171   -0.3310 22.2 192 
 BAR2 SZ I        1940 39.90        22.2 0.18            166           22.2 192 
 BRR  HZ IP     C 1940 25.72                             152    0.6010 72.2 299 
 BRR  HE ES       1940 42.41                             152    0.8710 72.2 299 
 BRR  SZ I        1940 46.68        24.1 0.12            148           72.2 299 
 PAM  SZ EP       1940 26.55                             150    0.3810 78.1  39 
 PAM  SN ES       1940 43.36                             150   -0.0510 78.1  39 
 PAM  SZ I        1940 44.52        25.8 0.20            151           78.1  39 
 RUS  HZ EP       1940 27.76                             144    0.1810 99.3 176 
 RUS  HN ES       1940 45.51                             144   -0.4110 99.3 176 
 RUS  SZ I        1940 47.22        13.3 0.34            139           99.3 176 
 PTB  HZ EP       1940 30.47                             132   -0.47 9  148 259 
 PTB  HN ES       1940 51.42                             132   -0.47 9  148 259 
 PTB  SZ I        1940 53.72        30.8 0.12            127            148 259 
 CAPV BZ EP       1940 31.76                             131    0.35 9  150  37 
 OCA  HN ES       1940 53.60                             129   -0.88 9  162 353 
 SPBC HZ EP       1940 32.73                             129    0.34 9  162 219 
 SPBC HN ES       1940 54.56                             129    0.08 9  162 219 
 SPBC SZ I        1940 55.68        17.5 0.24            124            162 219 
 NOR  HZ EP       1940 39.80                             118    0.12 8  234 235 
 NOR  HE ES       1941  7.06                             118   -0.39 8  234 235 
 NOR  SZ I        1941 14.19        12.1 0.16            114            234 235 
 SOCV BZ EP       1940 46.24                             112   -0.85 7  302  57 
                                                                                
