 2013 1126 1842 26.1 L   6.818 -73.136151.4  RSN 11 0.5 2.2LRSN                1
 GAP=152        1.02       4.1     4.5  5.8 -0.3664E+01  0.5316E+01  0.3835E+01E
 Epicentro: LOS SANTOS - SANTANDER                                             3
 ACTION:UPD 14-01-09 16:31 OP:ep   STATUS:               ID:20131126184226 L   I
 OLDACT:UP  13-11-26 16:32 OP:cam  STATUS:               ID:20131126184000     3
 OLDACT:REG 13-11-26 15:18 OP:cam  STATUS:               ID:20131126184000     3
 2013-11-26-1840-00M.COL___282                                                 6
 STAT SP IPHASW D HRMM SECON CODA AMPLIT PERI AZIMU VELO AIN AR TRES W  DIS CAZ7
 BAR2 SZ EP       1842 46.31                             170   -0.1410 25.5 191 
 BAR2 SZ ES       1843  1.75                             170   -0.5710 25.5 191 
 BAR2 SZ I        1843  2.92        39.0 0.28            169           25.5 191 
 BRR  HZ EP       1842 48.15                             153    0.2910 71.2 297 
 BRR  HN ES       1843  5.70                             153    0.8710 71.2 297 
 PAM  SZ EP       1842 49.04                             152    0.2510 75.2  40 
 PAM  SN ES       1843  6.49                             152    0.0010 75.2  40 
 PAM  SZ I        1843  8.44        18.0 0.20            155           75.2  40 
 PTB  HZ EP   1   1842 53.40                             133   -0.25 7  149 258 
 PTB  HN ES       1843 14.52                             133   -0.63 9  149 258 
 PTB  HZ I        1843 20.04        14.9 0.24            132            149 258 
 SPBC HZ EP       1842 55.30                             130    0.06 9  165 219 
 SPBC HN ES   1   1843 17.69                             130   -0.28 7  165 219 
 SPBC HZ I        1843 22.08        22.6 0.40            130            165 219 
 ZAR  HZ EP       1842 58.99                             124    0.05 9  204 292 
 ZAR  HE ES       1843 24.72                             124    0.17 9  204 292 
 ZAR  HZ I        1843 30.41        17.9 0.28            123            204 292 
 NOR  HZ EP       1843  2.44                             119    0.07 8  237 234 
 NOR  HN ES       1843 30.59                             119   -0.07 8  237 234 
 NOR  HZ I        1843 38.37         9.5 0.14            120            237 234 
 SML  HZ EP   2   1843  2.14                             119   -0.76 4  242 335 
 SML  HE ES   1   1843 31.47                             119   -0.13 6  242 335 
 SML  HZ I        1843 37.39        26.3 0.26            119            242 335 
 CHI  HZ EP       1843  4.32                             118   -0.03 8  251 195 
 GUY2CHZ EP   4   1843 11.61                             113    1.42 0  303 235 
 PRA  HZ EP   1   1843 20.91                             107    0.83 4  394 210 
 PRA  HN ES   1   1844  3.64                             107    1.46 4  394 210 
 SJC  HZ EP       1843 20.52                             107   -1.20 6  408 327 
 SJC  HN ES   4   1844  1.27                             107   -3.83 0  408 327 
                                                                                
