 2015  426 1926 39.2 L   7.301 -72.980173.4  RSN  4 0.3 2.1LRSN                1
 GAP=280        0.71      10.3     6.3  7.5  0.3180E+02 -0.9172E+01 -0.2889E+02E
 Epicentro: CHARTA - SANTANDER                                                 3
 ACTION:UPD 15-06-03 16:57 OP:cam  STATUS:               ID:20150426192639 L   I
 OLDACT:UP  15-04-26 22:13 OP:mh   STATUS:               ID:20150426191748     3
 OLDACT:UP  15-04-26 22:13 OP:mh   STATUS:               ID:20150426191748     3
 OLDACT:REG 15-04-26 20:56 OP:mh   STATUS:               ID:20150426191748     3
 2015-04-26-1917-48M.COL___277                                                 6
 STAT SP IPHASW D HRMM SECON CODA AMPLIT PERI AZIMU VELO AIN AR TRES W  DIS CAZ7
 BAR2 EZ EP       1927  4.46                             154    0.1510 81.5 196 
 BAR2 EZ ES       1927 23.50                             154   -0.3610 81.5 196 
 BAR2 EZ I        1927 25.19        18.8 0.20            154           81.5 196 
 BRR  HZ EP       1927  4.26                             153    0.1810 83.6 255 
 BRR  HN ES       1927 23.70                             153    0.2510 83.6 255 
 BRR  HZ I        1927 27.39        17.6 0.24            153           83.6 255 
 PTB  HZ EP       1927 11.47                             131   -0.24 9  184 243 
 PTB  HN ES       1927 37.35                             131    0.31 9  184 243 
 PTB  HZ I        1927 40.15        10.8 0.42            132            184 243 
 ZAR  HN ES       1927 40.82                             127   -0.38 8  208 276 
                                                                                
