 2014  226 1910 37.7 L   6.446 -73.770  0.0  RSN 23 0.5 3.4LRSN                1
 GAP= 72        1.14       2.6     2.3  5.5 -0.1211E+01  0.2207E+01 -0.4677E+01E
 Epicentro: SANTA HELENA DEL OPON - SANTANDER                                  3
 2014-02-26-1908-20M.COL___235                                                 6
 OLDACT:UP  14-02-26 19:09 OP:cam  STATUS:               ID:20140226190820     3
 OLDACT:REG 14-02-26 17:06 OP:cam  STATUS:               ID:20140226190820     3
 ACTION:UPD 14-03-10 08:13 OP:ep   STATUS:               ID:20140226191037 L   I
 OLDACT:UP  14-02-26 19:11 OP:cam  STATUS:               ID:20140226190820     3
 OLDACT:UP  14-02-26 19:09 OP:cam  STATUS:               ID:20140226190820     3
 STAT SP IPHASW D HRMM SECON CODA AMPLIT PERI AZIMU VELO AIN AR TRES W  DIS CAZ7
 BAR2 SZ IP     C 1910 48.58                              47   -0.6810 66.9  76 
 BAR2 SZ I        1910 57.35      2307.4 0.42             47           66.9  76 
 BRR  HZ IP       1910 50.18                              47    0.2010 73.4   5 
 BRR  HN ES       1910 59.59                              47    0.0310 73.4   5 
 BRR  HZ I        1911  7.41       457.5 0.18             47           73.4   5 
 BRR  SZ I        1911  7.59       503.2 0.16                          73.4   5 
 PTB  HZ IP     D 1910 50.79                              47    0.2910 76.6 278 
 PTB  HN ES       1911  0.57                              47    0.0910 76.6 278 
 PTB  HZ I        1911  4.35       903.0 0.30             47           76.6 278 
 PTB  SZ I        1911  4.42       954.5 0.28                          76.6 278 
 SPBC HZ EP       1910 53.51                              47    0.3110 94.0 201 
 SPBC SZ I        1911 10.96      1117.5 0.16             47           94.0 201 
 SPBC HZ I        1911 11.00      1140.9 0.16                          94.0 201 
 RUS  HZ IP     D 1910 53.80                              47   -0.3610 97.6 129 
 RUS  HN ES   4   1911  5.08                              47   -1.92 0 97.6 129 
 RUS  SZ I        1911  5.87       906.1 0.70             47           97.6 129 
 RUS  HZ I        1911  6.24       726.4 0.18                          97.6 129 
 PAM  SZ EP       1911  2.41                              47   -0.31 9  154  50 
 PAM  SN ES   4   1911 20.31                              47   -1.93 0  154  50 
 PAM  SZ I        1911 26.13       663.7 0.18             47            154  50 
 NOR  HZ EP       1911  2.40                              47   -0.16 9  156 231 
 NOR  HE ES       1911 21.87                              47   -0.08 9  156 231 
 NOR  SZ I        1911 22.45       586.6 0.64             47            156 231 
 NOR  HZ I        1911 22.87       699.7 0.56                           156 231 
 ZAR  HZ EP       1911  3.46                              47   -0.70 9  167 314 
 ZAR  HE ES       1911 24.55                              47   -0.25 9  167 314 
 ZAR  SZ I        1911 26.60       595.1 0.32             47            167 314 
 ZAR  HZ I        1911 26.79       689.9 0.26                           167 314 
 ROSC BZ EP   4   1911 10.30                              37    2.73 0  188 199 
 ROSC BZ I        1911 37.28       292.3 0.35             37            188 199 
 ROSC SZ I        1911 40.03       302.5 0.35                           188 199 
 HEL  HZ IP     D 1911  8.37                              37   -0.28 9  197 262 
 HEL  HN ES   4   1911 31.12                              37   -1.68 0  197 262 
 HEL  SZ I        1911 32.81       513.2 0.18             37            197 262 
 HEL  HZ I        1911 32.92       494.7 0.20                           197 262 
 CHI  HZ EP   4   1911 11.20                              37    1.96 0  201 179 
 CHI  HE ES   4   1911 37.82                              37    3.98 0  201 179 
 CHI  HZ I        1911 40.42       275.1 0.36             37            201 179 
 CHI  SZ I        1911 44.32       230.6 0.46                           201 179 
 OCA  HZ EP       1911  9.44                              37    0.08 9  204  14 
 OCA  HN ES       1911 34.20                              37    0.15 9  204  14 
 OCA  SZ I        1911 50.70       379.0 0.28             37            204  14 
 OCA  HZ I        1911 50.82       356.1 0.30                           204  14 
 TAM  EZ EP   4   1911 12.86                              37    1.83 0  219  90 
 TAM  HN ES       1911 38.06                              37    1.03 8  219  90 
 TAM  EZ I        1911 44.06       523.1 0.36             37            219  90 
 URE  HZ EP       1911 15.05                              37    1.10 8  242 307 
 URE  SZ I        1911 48.66       194.1 0.36             37            242 307 
 URE  HN I        1911 48.83       261.6 0.30                           242 307 
 CBOC HZ EP   4   1911 17.30                              37    1.42 0  256 256 
 CBOC HN ES   4   1911 47.73                              37    2.06 0  256 256 
 CBOC SZ I        1911 52.05       127.1 0.46             37            256 256 
 CBOC HZ I        1911 53.02       131.4 0.56                           256 256 
 SML  HZ EP   4   1911 14.75                              37   -1.69 0  263 353 
 SML  SZ I        1911 55.01       265.9 0.82             37            263 353 
 SML  HZ I        1911 55.63       237.4 0.64                           263 353 
 DBB  SZ EP   4   1911 20.49                              37    2.13 0  277 283 
 DBB  SZ I        1912  3.20       197.1 0.64             37            277 283 
 PTGC HZ EP   4   1911 23.43                              36    1.37 0  308 144 
 PTGC HZ I        1912  6.16       219.9 0.50             36            308 144 
 PTGC SZ I        1912  8.60       229.9 1.18                           308 144 
 ORTC HZ EP   4   1911 26.06                              36    1.83 0  325 210 
 ORTC HN ES   4   1912  3.04                              36    2.53 0  325 210 
 ORTC SZ I        1912  5.98       112.3 0.34             36            325 210 
 ORTC HZ I        1912 16.89       109.7 0.34                           325 210 
 PAL  HZ EP   4   1911 26.83                              36    2.37 0  326 239 
 PAL  SZ I        1912 10.84        73.9 0.42             36            326 239 
 PRA  HZ EP   4   1911 26.62                              36    2.18 0  326 202 
 PRA  SZ I        1912 17.87       162.2 0.54             36            326 202 
 SJC  HZ EP   4   1911 36.29                              36    1.27 0  412 338 
 SJC  SZ I        1912 25.65        45.3 0.68             36            412 338 
 SDV  BZ EP   4   1911 39.82                              36    1.34 0  439  52 
 SDV  SZ I        1912 28.47        74.8 0.45             36            439  52 
                                                                                
