 2010  826 1816 45.5 L   6.795 -73.062148.2  RSN  7 0.2 2.0LRSN                1
 GAP=168        0.70       3.3     7.0  6.3  0.1195E+01 -0.1594E+02 -0.4455E+01E
 Epicentro: LOS SANTOS - SANTANDER                                             3
 ACTION:UP  10-09-07 10:58 OP:vdl  STATUS:               ID:20100826181645 L   I
 2010-08-26-1813-33S.COL___120                                                 6
 STAT SP IPHASW D HRMM SECON CODA AMPLIT PERI AZIMU VELO SNR AR TRES W  DIS CAZ7
 BAR2 SZ EP       1817  5.31                             170    -0.110   26 211 
 BAR2 SZ ES   1   1817 20.76                             170    -0.3 7   26 211 
 BAR2 SZ I        1817 22.08        35.3 0.26                            26 211 
 BRR  HZ IP     C 1817  7.16                             150    -0.210   80 296 
 BRR  HZ I        1817  7.38        41.8 0.39                            80 296 
 BRR  HN ES       1817 24.59                             150     0.110   80 296 
 RUS  HZ EP       1817  9.22                             145    -0.210  100 181 
 RUS  HN ES       1817 28.28                             145     0.210  100 181 
 RUS  HZ I        1817 29.87         6.5 0.49                           100 181 
 GUE  SZ EP       1817 10.32                             140     0.010  115   8 
 GUE  SZ I        1817 11.79         6.8 0.15                           115   8 
 GRA  SZ EP       1817 11.11                             138     0.310  124  13 
 GRA  SZ I        1817 12.23         8.8 0.38                           124  13 
 CHI  HN ES   2   1817 53.87                             117     0.7 4  251 197 
 CHI  HZ I        1818  2.31         5.6 0.56                           251 197 
 PRA  HN ES   1   1818 21.70                             107    -0.1 4  396 211 
 PRA  HZ I        1818 27.19         5.7 0.29                           396 211 
                                                                                
