 2015  526 1846 42.7 L   7.468 -73.079150.9  RSN 11 0.4 2.5LRSN                1
 GAP=126        0.78       2.9     3.9  5.1  0.2079E-01  0.5666E+01  0.2039E+01E
 Epicentro: EL PLAYON - SANTANDER                                              3
 ACTION:UPD 15-09-10 22:07 OP:cam  STATUS:               ID:20150526184642 L   I
 OLDACT:REG 15-05-26 22:59 OP:spq  STATUS:               ID:20150526183747     3
 2015-05-26-1837-47M.COL___285                                                 6
 STAT SP IPHASW D HRMM SECON CODA AMPLIT PERI AZIMU VELO AIN AR TRES W  DIS CAZ7
 PAM  SZ EP     D 1847  4.10                             163    0.1610 44.2 109 
 PAM  SN ES       1847 20.43                             163   -0.0410 44.2 109 
 PAM  SZ I        1847 21.79        58.9 0.20            167           44.2 109 
 BRR  HZ EP     C 1847  5.01                             150    0.0310 80.5 240 
 BRR  HE ES       1847 22.42                             150    0.1010 80.5 240 
 BRR  HZ I        1847 25.25        38.4 0.12            148           80.5 240 
 OCA  HZ EP       1847  5.83                             148    0.0810 89.3 343 
 OCA  HN ES       1847 24.11                             148    0.4110 89.3 343 
 OCA  HZ I        1847 26.63       113.4 0.26            150           89.3 343 
 BAR2 EZ EP   1   1847  6.18                             145   -0.24 7 97.5 187 
 BAR2 EZ ES   1   1847 24.26                             145   -0.63 7 97.5 187 
 BAR2 EZ I        1847 25.25        58.1 0.38            145           97.5 187 
 RUS  HZ EP   1   1847 13.01                             128   -0.20 7  174 180 
 SML  HZ EP   1   1847 12.98                             127   -0.48 7  184 323 
 SML  HN ES   1   1847 36.49                             127   -0.93 7  184 323 
 ZAR  HZ EP       1847 14.89                             125    0.14 9  196 271 
 ZAR  HN ES       1847 39.80                             125    0.09 9  196 271 
 ZAR  HZ I        1847 46.19        25.3 0.26            125            196 271 
 SPBC HZ EP   1   1847 18.21                             120    0.01 6  229 209 
 SPBC HN ES       1847 46.14                             120    0.28 8  229 209 
 SPBC HZ I        1847 52.35        15.2 0.16            121            229 209 
 URE  HN ES   4   1847 51.23                             116   -2.85 0  273 277 
 URE  HZ I        1847 53.79        22.1 0.16            116            273 277 
 NOR  HZ EP   1   1847 25.52                             114    0.83 5  289 223 
 NOR  HE ES   1   1847 56.87                             114   -0.55 5  289 223 
 NOR  HZ I        1848  4.20        13.2 0.26            115            289 223 
 MON  HZ EP   4   1847 26.55                             112   -1.52 0  320 297 
 MON  HN ES   4   1848  1.56                             112   -1.86 0  320 297 
 MON  HZ I        1848  3.28         5.4 0.14            113            320 297 
 GUY2CHZ EP   4   1847 35.28                             110    2.66 0  354 226 
                                                                                
