 2013  626 1400 35.4 L   6.799 -73.147152.0  RSN  8 0.5 2.1LRSN                1
 GAP=186        0.96       5.2     6.1  8.4  0.7741E+01  0.6313E+01 -0.6886E+01E
 Epicentro: LOS SANTOS - SANTANDER                                             3
 ACTION:UPD 14-01-08 09:57 OP:ep   STATUS:               ID:20130626140035 L   I
 OLDACT:REG 13-06-26 15:44 OP:carl STATUS:               ID:20130626135959     3
 2013-06-26-1359-59M.COL___267                                                 6
 STAT SP IPHASW D HRMM SECON CODA AMPLIT PERI AZIMU VELO AIN AR TRES W  DIS CAZ7
 BAR2 SZ EP   1   14 0 55.93                             171    0.20 9 23.2 190 
 BAR2 SZ ES   1   14 1 10.84                             171   -0.79 9 23.2 190 
 BAR2 SZ I        14 1 12.32        14.3 0.56            170           23.2 190 
 GIR2 SZ EP   1   14 0 55.57                             168   -0.20 9 31.4 350 
 BRR  HZ EP   1   14 0 57.76                             154    0.58 9 71.2 299 
 BRR  HN ES   1   14 1 15.15                             154    0.94 9 71.2 299 
 BRR  HN I        14 1 16.05        34.6 0.18            150           71.2 299 
 RUS  HZ EP   1   14 1  0.02                             145    0.31 9  100 176 
 RUS  HN ES   1   14 1 18.72                             145    0.01 9  100 176 
 RUS  HZ I        14 1 20.13         9.4 0.36            147            100 176 
 PTB  HZ EP   1   14 1  2.40                             133   -0.43 8  148 259 
 PTB  HN ES   1   14 1 23.80                             133   -0.46 8  148 259 
 PTB  HZ I        14 1 26.75        12.0 0.28            131            148 259 
 ZAR  HE ES       14 1 33.73                             124   -0.1110  204 292 
 ZAR  HZ I        14 1 40.72        11.4 0.32            122            204 292 
 NOR  HZ EP   1   14 1 10.83                             120   -0.61 7  235 234 
 NOR  HE ES   1   14 1 40.21                             120    0.63 7  235 234 
 NOR  HZ I        14 1 44.02         9.6 0.20            119            235 234 
 SML  HZ EP   1   14 1 12.61                             119    0.26 7  244 335 
 SML  HN ES   1   14 1 40.71                             119   -0.50 7  244 335 
 SML  HZ I        14 1 46.42        12.1 0.10            118            244 335 
                                                                                
