 2013  226 1643 47.0 L   6.710 -73.186143.3  RSN  5 0.4 1.2LRSN                1
 GAP=226        0.77       8.6     7.6 10.0  0.4388E+02  0.1474E+02  0.1024E+02E
 Epicentro: VILLANUEVA - SANTANDER                                             3
 ACTION:UPD 13-03-12 09:36 OP:ep   STATUS:               ID:20130226164347 L   I
 2013-02-26-1640-00M.COL___228                                                 6
 STAT SP IPHASW D HRMM SECON CODA AMPLIT PERI AZIMU VELO AIN AR TRES W  DIS CAZ7
 BAR2 SZ EP   1   1644  5.87                             175   -0.27 7 13.0 178 
 BAR2 SZ ES   1   1644 20.71                             175   -0.38 7 13.0 178 
 BAR2 SZ I        1644 24.79         7.4 0.32            174           13.0 178 
 BRR  HE ES   1   1644 24.95                             151    0.64 7 72.9 307 
 RUS  HZ EP   1   1644 10.20                             146    0.39 7 91.1 173 
 RUS  HN ES   1   1644 27.51                             146   -0.11 7 91.1 173 
 RUS  HZ I        1644 29.88         1.6 0.20            149           91.1 173 
 PTB  HN ES   1   1644 33.77                             133    0.13 7  142 262 
 ZAR  HE ES   1   1644 43.90                             122   -0.52 6  204 295 
                                                                                
