 2017 1126 1736 30.1 L   6.810 -73.145137.5  RSN 20 0.7 2.3LRSN                1
 GAP=111        1.35       3.0     4.0  6.5 -0.8589E+00  0.9720E+01  0.1678E+01E
 Epicentro: LOS SANTOS - SANTANDER                                             3
 ACTION:UPD 17-12-12 20:00 OP:rebc STATUS:               ID:20171126173630 L   I
 OLDACT:DUP 17-11-26 23:07 OP:dhb  STATUS:               ID:20171126172739d    3
 2017-11-26-1728-00M.COL___492                                                 6
 STAT SP IPHASW D HRMM SECON CODA AMPLIT PERI AZIMU VELO AIN AR TRES W  DIS CAZ7
 BAR2 EZ IP     C 1736 48.58                             169   -0.2010 24.4 190 
 BAR2 EZ ES       1737  3.48                             169    0.1410 24.4 190 
 BAR2 EZ I        1737  4.77        69.2 0.16            168           24.4 190 
 PAM  EZ EP       1736 51.33                             149   -0.0810 76.5  40 
 PAM  EN ES       1737  8.26                             149    0.2510 76.5  40 
 PAM  EZ I        1737 11.21        13.8 0.32            155           76.5  40 
 RUS  HZ EP       1736 52.46                             142   -0.6910  102 176 
 RUS  HN ES       1737 10.74                             142   -0.3810  102 176 
 RUS  HZ I        1737 11.67        41.3 0.44            143            102 176 
 PTB  HZ EP       1736 55.73                             130   -0.72 9  148 258 
 PTB  HN ES       1737 16.18                             130   -0.81 9  148 258 
 PTB  HZ I        1737 20.91        12.6 0.16            130            148 258 
 OCA  HZ EP       1736 57.19                             128   -0.50 9  159 353 
 OCA  HN ES       1737 19.23                             128    0.03 9  159 353 
 OCA  HZ I        1737 22.64        41.1 0.24            131            159 353 
 YPLC HZ IP     C 1736 58.90                             124   -0.52 9  178 152 
 YPLC HE ES       1737 23.05                             124    0.77 9  178 152 
 YPLC HZ I        1737 25.39        13.5 0.26            127            178 152 
 ZAR  HZ EP       1737  2.86                             120    0.86 9  204 292 
 ZAR  HN ES       1737 27.56                             120    0.69 9  204 292 
 ZAR  HZ I        1737 33.02        31.0 0.44            122            204 292 
 TABC EZ EP       1737  5.69                             117    0.19 8  231 211 
 TABC EZ ES       1737 32.98                             117   -0.11 8  231 211 
 TABC EZ I        1737 40.15        19.3 0.56            119            231 211 
 NOR  HZ EP       1737  4.94                             117   -0.52 8  235 234 
 NOR  HN ES       1737 32.89                             117   -0.13 8  235 234 
 NOR  HZ I        1737 38.89        14.3 0.26            118            235 234 
 CHI  HZ EP       1737  6.80                             115   -0.69 8  250 195 
 CHI  HE ES   2   1737 38.19                             115    1.55 4  250 195 
 CHI  HZ I        1737 42.04         9.2 0.22            117            250 195 
 ROSC BZ EP       1737  8.36                             115    0.45 8  254 211 
 ROSC BE ES       1737 38.31                             115    0.92 8  254 211 
 ROSC BZ I        1737 42.94        13.2 0.35            116            254 211 
 HEL  HZ EP       1737 10.37                             113    0.41 8  272 256 
 HEL  HE ES       1737 41.30                             113    0.27 8  272 256 
 HEL  HZ I        1737 47.05         8.8 0.44            114            272 256 
 DRL03HZ EP       1737 11.69                             111    0.47 7  288 353 
 DRL03HE ES       1737 44.17                             111    0.89 7  288 353 
 GUY2CHZ EP       1737 13.64                             111    0.21 7  302 235 
 GUY2CHE ES   2   1737 48.79                             111    1.57 4  302 235 
 GUY2CHZ I        1737 53.62         9.1 0.30                           302 235 
 CBOC HZ EP       1737 17.47                             108    0.72 7  334 252 
 CBOC HE ES       1737 52.41                             108   -0.71 7  334 252 
 CBOC HZ I        1738  2.69         2.8 0.40            110            334 252 
 DBB  EZ EP       1737 17.40                             108    0.13 7  339 274 
 DBB  EE ES       1737 52.72                             108   -1.32 7  339 274 
 DBB  EZ I        1737 53.94         6.8 0.34            109            339 274 
 PRA  HZ EP       1737 22.27                             105   -1.21 6  393 209 
 PRA  HE ES       1738  6.09                             105    0.99 6  393 209 
 PRA  HZ I        1738 10.33        12.7 0.24            107            393 209 
 ORTC HZ EP       1737 24.02                             105    0.15 6  396 216 
 ORTC HE ES       1738  7.25                             105    1.44 6  396 216 
 ORTC HZ I        1738 12.90         6.9 0.24            106            396 216 
 PAL  HZ EP       1737 24.17                             104   -0.92 6  406 239 
 SJC  HZ EP   9   1737 22.74                             104   -2.57 0  408 327 
 SJC  HE ES       1738  5.63                                   -0.16 6  408 327 
 SJC  HZ I        1738  8.70         4.5 0.50            106            408 327 
                                                                                
