 2010 1026 1743 53.6 L   6.789 -73.041145.3  RSN  8 0.4 1.6LRSN                1
 GAP=176        0.65       4.3    10.3  6.6 -0.7469E+01 -0.7177E+01  0.6822E+01E
 Epicentro: LOS SANTOS - SANTANDER                                             3
 ACTION:UP  11-02-18 11:12 OP:tino STATUS:               ID:20101026174353 L   I
 2010-10-26-1742-29S.COL___127                                                 6
 STAT SP IPHASW D HRMM SECON CODA AMPLIT PERI AZIMU VELO SNR AR TRES W  DIS CAZ7
 BAR2 SZ EP   1   1744 13.29                             169     0.0 7   27 216 
 BAR2 SZ ES   2   1744 27.60                             169    -1.0 5   27 216 
 BAR2 SZ I        1744 30.82         9.2 0.28                            27 216 
 BTL  SZ EP   1   1744 13.52                             169     0.2 7   29 300 
 BTL  SZ ES   2   1744 29.18                             169     0.5 5   29 300 
 GIR2 SZ EP   1   1744 13.20                             165    -0.2 7   36 332 
 BRR  HZ EP   1   1744 15.02                             149    -0.3 7   82 295 
 BRR  HZ I        1744 15.39        17.5 0.27                            82 295 
 BRR  HE ES   2   1744 32.39                             149     0.1 5   82 295 
 RUS  HZ EP   1   1744 17.16                             144     0.0 7   99 183 
 RUS  HN ES   2   1744 35.98                             144     0.4 5   99 183 
 RUS  HZ I        1744 37.47         3.6 0.49                            99 183 
 GUE  SZ EP   1   1744 18.50                             139     0.3 7  116   6 
 CHI  HZ EP   1   1744 31.32                             117    -0.2 6  251 198 
 CHI  HN ES   2   1745  1.16                             117     0.1 4  251 198 
 CHI  HZ I        1745  3.64         2.3 0.39                           251 198 
 PRA  HZ EP   1   1744 47.37                             106    -0.3 4  397 211 
 PRA  HE ES   2   1745 30.71                             106     0.9 3  397 211 
                                                                                
