 2012  126 1737  7.5 L   6.511 -73.505119.4  RSN  5 0.3 1.3LRSN                1
 GAP=126        0.75       5.6     7.2  8.4  0.1950E+02  0.2760E+02  0.1133E+02E
 Epicentro: SIMACOTA - SANTANDER                                               3
 ACTION:UP  12-02-03 08:21 OP:REBC STATUS:               ID:20120126173707 L   I
 2012-01-26-1730-00M.COL___188                                                 6
 STAT SP IPHASW D HRMM SECON CODA AMPLIT PERI AZIMU VELO SNR AR TRES W  DIS CAZ7
 BAR2 SZ EP       1737 24.47                             162     0.110   37  76 
 BAR2 SZ ES   1   1737 37.03                             162    -0.5 7   37  76 
 BRR  HZ EP       1737 26.08                             147     0.310   70 341 
 BRR  HZ I        1737 36.86        14.7 0.34                            70 341 
 BRR  HN ES   1   1737 40.23                             147     0.2 7   70 341 
 GIR2 SZ EP       1737 25.97                             147    -0.110   72  29 
 RUS  HZ EP       1737 27.33                             143     0.010   83 146 
 RUS  HE ES   1   1737 43.25                             143     0.4 7   83 146 
 RUS  HZ I        1737 44.72         2.4 0.38                            83 146 
 PTB  HZ EP       1737 28.25                             136    -0.210  105 272 
 PTB  HZ I        1737 48.10         2.4 0.54                           105 272 
                                                                                
