 2011 1026 1429 13.0 L   6.852 -73.227  1.8  RSN  7 0.4 1.8LRSN                1
 GAP=123        0.96       2.2     3.7  3.8  0.8992E+00 -0.3393E+01  0.1620E+01E
 Epicentro: ZAPATOCA - SANTANDER                                               3
 ACTION:UPD 12-07-13 16:06 OP:ep   STATUS:               ID:20111026142913 L   I
 2011-10-26-1420-00M.COL___177                                                 6
 STAT SP IPHASW D HRMM SECON CODA AMPLIT PERI AZIMU VELO AIN AR TRES W  DIS CAZ7
 BTL  SZ IP       1429 14.39                             110   -0.5810 8.62 329 
 GIR2 SZ IP       1429 17.88                              47   -0.0310 25.3   8 
 GIR2 SZ ES   1   1429 21.49                              47   -0.24 7 25.3   8 
 BAR2 SZ IP       1429 18.46                              47   -0.1310 29.1 170 
 BAR2 SZ ES   1   1429 22.31                              47   -0.62 7 29.1 170 
 BAR2 SZ I        1429 25.96       140.1 0.72                          29.1 170 
 BRR  HZ IP     C 1429 23.65                              47    0.5510 60.6 298 
 BRR  HZ I        1429 30.79        23.8 0.42                          60.6 298 
 BRR  HE ES   2   1429 30.82                              47   -0.15 5 60.6 298 
 PAM  SZ EP       1429 27.08                              47    0.6210 79.4  47 
 PAM  SN ES   2   1429 36.35                              47   -0.59 5 79.4  47 
 RUS  HZ EP       1429 30.99                              47    0.3010  107 171 
 RUS  HZ I        1429 32.93        12.8 0.22                           107 171 
 RUS  HE ES   3   1429 43.97                              47   -0.50 2  107 171 
 ZAR  HN ES   2   1430  5.99                              37   -0.12 4  194 292 
 ZAR  HZ I        1430  7.67        25.2 0.44                           194 292 
                                                                                
