 2012  426 1538 44.8 L   6.953 -73.154148.5  RSN  8 0.3 2.1LRSN                1
 GAP=127        0.72       4.0     4.0  5.8  0.2443E+00  0.3813E+01  0.5074E+01E
 Epicentro: FLORIDABLANCA - SANTANDER                                          3
 ACTION:UPD 12-07-05 11:56 OP:tino STATUS:               ID:20120426153844 L   I
 2012-04-26-1535-35M.COL___186                                                 6
 STAT SP IPHASW D HRMM SECON CODA AMPLIT PERI AZIMU VELO AIN AR TRES W  DIS CAZ7
 BAR2 SZ EP       1539  5.19                             164     0.010   40 184 
 BAR2 SZ ES   1   1539 21.05                             164     0.0 7   40 184 
 BAR2 SZ I        1539 21.73        51.4 0.33                            40 184 
 BRR  HZ EP       1539  6.05                             155     0.210   64 285 
 BRR  HN ES   1   1539 22.93                             155     0.7 7   64 285 
 BRR  HZ I        1539 24.24        50.5 0.12                            64 285 
 PAM  SZ EP       1539  6.63                             155     0.010   66  50 
 PAM  SE ES   1   1539 23.34                             155    -0.3 7   66  50 
 RUS  HZ EP   1   1539  9.87                             140    -0.2 7  118 176 
 RUS  HN ES   1   1539 29.65                             140    -0.1 7  118 176 
 RUS  HZ I        1539 31.41        12.5 0.39                           118 176 
 PTB  HZ EP   1   1539 11.98                             132    -0.3 7  151 252 
 PTB  HN ES   1   1539 33.27                             132    -0.4 7  151 252 
 PTB  HZ I        1539 37.99         7.4 0.24                           151 252 
 ZAR  HN ES   1   1539 41.19                             124    -0.4 6  197 288 
 ZAR  HZ I        1539 47.63        13.3 0.23                           197 288 
 NOR  SZ EP   1   1539 21.91                             118     0.3 6  244 231 
 CHI  HZ EP   1   1539 24.54                             116     0.2 6  265 194 
 CHI  HN ES   1   1539 55.36                             116     0.1 6  265 194 
 CHI  HZ I        1540  1.41         3.2 0.32                           265 194 
                                                                                
