 2017  526 1515 42.0 L   6.802 -73.107134.0  RSN  5 0.3 1.6LRSN                1
 GAP=242        0.66       5.2     5.8  7.6  0.1351E+02  0.1088E+02  0.1385E+02E
 Epicentro: LOS SANTOS - SANTANDER                                             3
 ACTION:UPD 17-06-16 13:39 OP:jn   STATUS:               ID:20170526151542 L   I
 OLDACT:UP  17-05-26 23:19 OP:dnl  STATUS:               ID:20170526150727     3
 OLDACT:UP  17-05-26 23:18 OP:dnl  STATUS:               ID:20170526150727     3
 OLDACT:REG 17-05-26 21:54 OP:dnl  STATUS:               ID:20170526150727     3
 2017-05-26-1508-00M.COL___341                                                 6
 STAT SP IPHASW D HRMM SECON CODA AMPLIT PERI AZIMU VELO AIN AR TRES W  DIS CAZ7
 BRR  HZ EP   4   1516  0.76                             149   -1.32 0 74.9 297 
 BRR  HE ES       1516 17.80                             149    0.0310 74.9 297 
 BRR  HZ I        1516 21.21        11.4 0.14            148           74.9 297 
 RUS  HZ EP       1516  4.25                             141   -0.3410  101 178 
 RUS  HN ES       1516 22.47                             141    0.2410  101 178 
 RUS  HZ I        1516 24.76         2.8 0.28            143            101 178 
 PTB  HZ EP   4   1516  5.81                             129   -2.60 0  152 259 
 PTB  HN ES   4   1516 27.16                             129   -1.87 0  152 259 
 PTB  HZ I        1516 31.71         4.1 0.22            128            152 259 
 ZAR  HZ EP   2   1516 14.32                             119    0.23 4  208 292 
 ZAR  HE ES   4   1516 40.96                             119    1.82 0  208 292 
 ZAR  HZ I        1516 42.14        11.2 0.50            120            208 292 
 NOR  HZ EP   2   1516 18.33                             116    0.89 4  238 235 
 NOR  HE ES       1516 44.92                             116   -0.19 8  238 235 
 NOR  HZ I        1516 49.23         2.9 0.52            117            238 235 
                                                                                
