 2016 1226 1432 56.5 L   6.151 -73.796  0.6  RSN  4 0.4 0.9LRSN                1
 GAP=191        0.56       3.2     1.6  6.3  0.2995E+01 -0.1098E+01 -0.3925E+01E
 Epicentro: LANDAZURI - SANTANDER                                              3
 ACTION:UPD 17-01-11 20:19 OP:rebc STATUS:               ID:20161226143256 L   I
 OLDACT:UP  16-12-26 21:58 OP:cog  STATUS:               ID:20161226142743     3
 OLDACT:REG 16-12-26 20:36 OP:cog  STATUS:               ID:20161226142743     3
 2016-12-26-1428-00M.COL___369                                                 6
 STAT SP IPHASW D HRMM SECON CODA AMPLIT PERI AZIMU VELO AIN AR TRES W  DIS CAZ7
 BAR2 EZ EP   3   1433  9.44                              47   -1.08 2 83.6  54 
 BAR2 EZ ES       1433 21.46                              47    0.0310 83.6  54 
 BAR2 EZ I        1433 24.76         5.3 0.29             47           83.6  54 
 RUS  HZ EP   3   1433  9.56                              47   -1.27 2 84.0 110 
 RUS  HN ES       1433 22.02                              47    0.0310 84.0 110 
 RUS  HZ I        1433 24.73         2.7 0.26             47           84.0 110 
 PTB  HZ EP   4   1433  8.53                              47   -1.92 0 84.7 301 
 PTB  HN ES       1433 21.16                              47   -0.1610 84.7 301 
 PTB  HZ ES       1433 22.33                              47           84.7 301 
 PTB  HZ I        1433 23.03         3.3 0.12             47           84.7 301 
 ZAR  HZ EP       1433 26.28                              37    0.29 9  189 322 
 ZAR  HN ES       1433 49.02                              37    0.04 9  189 322 
 CBOC HZ EP   4   1433 34.56                              37    1.09 0  247 263 
 CBOC HE ES   4   1433 48.43                              37   -13.9 0  247 263 
                                                                                
