 2016 1126 1414 49.5 L   6.789 -73.170146.4  RSN  7 0.3 2.5LRSN                1
 GAP=143        0.80       4.0     3.7  5.9 -0.8741E+00  0.3083E+01  0.8227E+01E
 Epicentro: LOS SANTOS - SANTANDER                                             3
 ACTION:UPD 17-10-26 21:12 OP:lp   STATUS:               ID:20161126141449 L   I
 OLDACT:REG 16-11-26 21:18 OP:cara STATUS:               ID:20161126140741     3
 2016-11-26-1408-00M.COL___352                                                 6
 STAT SP IPHASW D HRMM SECON CODA AMPLIT PERI AZIMU VELO AIN AR TRES W  DIS CAZ7
 BAR2 EZ IP       1415  9.14                             171   -0.0510 21.8 183 
 BAR2 EZ ES       1415 24.30                             171   -0.2410 21.8 183 
 BAR2 EZ  AMP     1415 25.72      8119.0 0.14                          21.8 183 
 BRR  HZ IP       1415 11.05                             153    0.4110 69.4 301 
 BRR  HN ES       1415 27.67                             153    0.5610 69.4 301 
 BRR  HZ I        1415 29.15        31.8 0.42            150           69.4 301 
 PAM  EZ IP     C 1415 11.95                             150   -0.0110 80.1  40 
 PAM  EZ ES       1415 29.27                             150   -0.2010 80.1  40 
 PAM  EZ I        1415 31.48        17.6 0.30            153           80.1  40 
 PTB  HZ EP       1415 15.97                             133   -0.30 9  145 259 
 PTB  HN ES       1415 37.16                             133    0.02 9  145 259 
 PTB  HZ I        1415 38.88        19.6 0.24            129            145 259 
 ZAR  HN ES       1415 46.46                             123   -0.51 9  202 293 
 ZAR  HZ I        1415 53.11        17.2 0.26            121            202 293 
 CHI  HZ EP       1415 27.39                             117    0.34 8  247 195 
 CHI  HN ES       1415 56.20                             117   -0.11 8  247 195 
 CHI  HZ I        1416  0.07         9.7 0.54            116            247 195 
 ELA  HZ EP   4   1415 38.11                             111    2.04 0  326 229 
 ELA  HN ES   4   1416  9.18                             111   -3.19 0  326 229 
 ELA  HZ I        1416 28.48         8.6 0.42            109            326 229 
                                                                                
