 2016 1026 1045 56.3 L   6.786 -73.166144.7  RSN  8 0.3 1.5LRSN                1
 GAP=135        0.83       3.4     4.1  5.3 -0.3019E+01  0.1974E+01  0.4605E+01E
 Epicentro: LOS SANTOS - SANTANDER                                             3
 ACTION:UPD 16-11-09 19:23 OP:rebc STATUS:               ID:20161026104556 L   I
 OLDACT:UP  16-10-26 21:37 OP:cara STATUS:               ID:20161026103741     3
 OLDACT:REG 16-10-26 20:10 OP:cara STATUS:               ID:20161026103741     3
 2016-10-26-1038-00M.COL___322                                                 6
 STAT SP IPHASW D HRMM SECON CODA AMPLIT PERI AZIMU VELO AIN AR TRES W  DIS CAZ7
 BAR2 EZ IP       1046 15.75                             171   -0.0610 21.5 185 
 BAR2 EZ ES       1046 30.62                             171   -0.3710 21.5 185 
 BAR2 EZ I        1046 31.91        10.7 0.24            169           21.5 185 
 BRR  HZ IP       1046 17.55                             153    0.2410 70.0 300 
 BRR  HN ES       1046 34.04                             153    0.3810 70.0 300 
 PAM  EZ EP       1046 18.71                             150    0.1110 80.0  40 
 PAM  HN ES       1046 35.84                             150   -0.1210 80.0  40 
 PAM  EZ I        1046 37.82         4.7 0.46            153           80.0  40 
 RUS  HZ EP       1046 19.70                             144   -0.1910 99.2 175 
 RUS  HN ES       1046 38.54                             144    0.2810 99.2 175 
 RUS  HZ I        1046 39.44         4.6 0.28            143           99.2 175 
 PTB  HZ EP       1046 22.72                             132   -0.28 9  145 259 
 PTB  HN ES       1046 43.31                             132   -0.48 9  145 259 
 PTB  HZ I        1046 45.60         2.8 0.46            132            145 259 
 SPBC HZ EP       1046 24.52                             129    0.00 9  161 219 
 SPBC HN ES       1046 47.12                             129    0.63 9  161 219 
 SPBC HZ I        1046 53.71         5.9 0.28            129            161 219 
 CHI  HZ EP       1046 34.07                             117    0.31 8  247 195 
 CHI  HE ES       1047  2.48                             117   -0.47 8  247 195 
 CHI  HZ I        1047  5.36         2.1 0.44            117            247 195 
 PRA  HE ES   4   1047 28.04                             106   -3.00 0  390 209 
 PRA  HZ I        1047 36.40         1.2 0.34            107            390 209 
                                                                                
