 2017  726 1158 30.6 L   6.763 -73.179146.0  RSN  5 0.4 1.5LRSN                1
 GAP=207        0.97       7.7     6.9  7.1  0.2937E+02 -0.2808E+01  0.3680E+01E
 Epicentro: LOS SANTOS - SANTANDER                                             3
 ACTION:UPD 17-08-30 15:36 OP:rebc STATUS:               ID:20170726115830 L   I
 OLDACT:UP  17-07-27 00:34 OP:ar   STATUS:               ID:20170726114720d    3
 OLDACT:DUP 17-07-27 00:29 OP:ar   STATUS:               ID:20170726114720d    3
 2017-07-26-1148-00M.COL___377                                                 6
 STAT SP IPHASW D HRMM SECON CODA AMPLIT PERI AZIMU VELO AIN AR TRES W  DIS CAZ7
 BAR2 EZ EP       1158 49.49                             172   -0.7110 18.9 181 
 BAR2 EZ ES       1159  5.19                             172   -0.2810 18.9 181 
 BAR2 EZ I        1159  5.87         8.7 0.26            175           18.9 181 
 BRR  HZ EP       1158 51.83                             153    0.1010 70.1 303 
 BRR  HN ES       1159  8.70                             153    0.5010 70.1 303 
 BRR  HZ I        1159 12.99        11.5 0.34            153           70.1 303 
 RUS  HZ EP       1158 54.55                             145    0.4310 96.8 174 
 RUS  HN ES       1159 12.48                             145    0.0210 96.8 174 
 RUS  HZ I        1159 13.39         1.8 0.40            148           96.8 174 
 PTB  HZ EP       1158 56.88                             133   -0.33 9  143 260 
 PTB  HN ES       1159 17.92                             133   -0.03 9  143 260 
 PTB  HZ I        1159 18.66         7.4 0.16            135            143 260 
 YPLC HZ EP       1159  0.57                             127    0.31 9  175 150 
                                                                                
