 2013  526 1701  9.6 L   6.825 -73.169147.9  RSN  7 0.5 2.2LRSN                1
 GAP=180        1.22       4.4     7.5  7.3  0.5005E+01  0.3536E+01 -0.7445E+01E
 Epicentro: LOS SANTOS - SANTANDER                                             3
 ACTION:UPD 13-06-20 09:53 OP:ep   STATUS:               ID:20130526170110 L   I
 OLDACT:UP  13-05-27 02:15 OP:CF   STATUS:               ID:20130526170110 L   3
 2013-05-26-1658-45M.COL___212                                                 6
 STAT SP IPHASW D HRMM SECON CODA AMPLIT PERI AZIMU VELO AIN AR TRES W  DIS CAZ7
 BAR2 SZ EP       17 1 29.50                             170   -0.0810 25.8 183 
 BAR2 SZ ES       17 1 44.45                             170   -0.6910 25.8 183 
 BAR2 SZ I        17 1 46.53        11.3 0.26            171           25.8 183 
 GIR2 SZ EP       17 1 30.04                             168    0.5510 28.2 355 
 GIR2 SZ ES       17 1 44.81                             168   -0.1710 28.2 355 
 BRR  HZ EP       17 1 31.22                             154    0.3910 67.6 298 
 BRR  HN ES       17 1 48.40                             154    1.0410 67.6 298 
 BRR  HN I        17 1 52.23        48.1 0.16            152           67.6 298 
 RUS  HZ EP       17 1 34.07                             143    0.2510  104 175 
 RUS  HN ES       17 1 52.31                             143   -0.3610  104 175 
 RUS  HE I        17 1 53.58        15.7 0.54            147            104 175 
 BRI  SZ EP   4   17 1 35.29                             142    1.67 0  107  23 
 PTB  HZ EP       17 1 36.42                             133   -0.19 9  146 258 
 PTB  HN ES       17 1 57.37                             133   -0.27 9  146 258 
 PTB  HE I        17 1 59.66        25.3 0.36            133            146 258 
 OCA  HZ EP       17 1 38.11                             130    0.27 9  157 354 
 OCA  HN ES       17 1 59.78                             130   -0.05 9  157 354 
 OCA  HE I        17 2  1.92        27.8 0.18            131            157 354 
 SML  HZ EP       17 1 45.60                             118   -0.40 8  240 336 
 SML  HN ES       17 2 13.64                             118   -0.73 8  240 336 
 SML  HE I        17 2 19.62        20.8 0.10            119            240 336 
                                                                                
