 2017 1026 1847 48.9 L   6.833 -73.350125.6  RSN  4 0.2 1.4LRSN                1
 GAP=143        0.50       2.5     3.5  4.1  0.2324E+00 -0.1242E+01  0.7388E+00E
 Epicentro: SAN VICENTE DE CHUCURI - SANTANDER                                 3
 ACTION:UPD 17-11-07 19:37 OP:rebc STATUS:               ID:20171026184748 L   I
 OLDACT:DUP 17-10-27 00:45 OP:osc  STATUS:               ID:20171026182920d    3
 OLDACT:DUP 17-10-27 00:34 OP:osc  STATUS:               ID:20171026182919d    3
 2017-10-26-1838-00M.COL___453                                                 6
 STAT SP IPHASW D HRMM SECON CODA AMPLIT PERI AZIMU VELO AIN AR TRES W  DIS CAZ7
 BAR2 EZ EP       1848  6.25                             165   -0.1310 32.4 145 
 BAR2 EZ ES       1848 19.81                             165   -0.1910 32.4 145 
 BAR2 EZ I        1848 20.52        13.9 0.36            165           32.4 145 
 BRR  HZ EP       1848  6.58                             157   -0.1610 50.2 307 
 BRR  HE ES       1848 20.82                             157    0.1710 50.2 307 
 PAM  EZ EP       1848 10.24                             142    0.2410 91.1  52 
 PAM  EN ES       1848 26.39                             142   -0.0610 91.1  52 
 PAM  EZ I        1848 27.00         2.3 0.52            142           91.1  52 
 RUS  HZ EP       1848 11.27                             137   -0.0810  108 164 
 RUS  HN ES       1848 29.07                             137    0.2110  108 164 
                                                                                
