 2012  626 1507 42.8 L   6.641 -73.153142.9  RSN  4 0.2 1.6LRSN                1
 GAP=225        0.48       6.9     8.5  7.2  0.2353E+02  0.2948E+02  0.1076E+01E
 Epicentro: VILLANUEVA - SANTANDER                                             3
 ACTION:UPD 12-08-06 17:52 OP:ep   STATUS:               ID:20120626150742 L   I
 2012-06-26-1500-00M.COL___201                                                 6
 STAT SP IPHASW D HRMM SECON CODA AMPLIT PERI AZIMU VELO AIN AR TRES W  DIS CAZ7
 BAR2 SZ EP       15 8  2.00                             178    0.1710 6.29 211 
 BAR2 SZ ES   2   15 8 16.19                             178   -0.51 5 6.29 211 
 BAR2 SZ I        15 8 18.99        10.2 0.84                          6.29 211 
 BRR  HZ EP       15 8  4.06                             149   -0.1010 80.4 310 
 BRR  HZ I        15 8 18.43        12.1 0.32                          80.4 310 
 BRR  HN ES   2   15 8 21.19                             149    0.34 5 80.4 310 
 RUS  HN ES   2   15 8 22.56                             148    0.15 5 83.1 175 
 PTB  HZ EP       15 8  9.14                             132   -0.07 9  145 266 
 PTB  HZ I        15 8 31.87         2.8 0.26                           145 266 
                                                                                
