 2011  626 1236 41.5 L   6.784 -73.121154.6  RSN  4 0.1 2.3LRSN                1
 GAP=225        0.38       7.1    13.1  4.5  0.7265E+02 -0.1202E+02 -0.5202E+01E
 Epicentro: LOS SANTOS - SANTANDER                                             3
 ACTION:UP  11-07-14 19:08 OP:ep   STATUS:               ID:20110626123641 L   I
 2011-06-26-1232-13S.COL___140                                                 6
 STAT SP IPHASW D HRMM SECON CODA AMPLIT PERI AZIMU VELO SNR AR TRES W  DIS CAZ7
 BTL  SZ EP   1   1237  2.32                             172     0.2 7   22 313 
 BTL  SZ ES   2   1237 18.13                             172    -0.1 5   22 313 
 BAR2 SZ EP   1   1237  2.04                             172    -0.1 7   22 198 
 BAR2 SZ I        1237  6.98        65.8 0.58                            22 198 
 BAR2 SZ ES   1   1237 18.31                             172     0.0 7   22 198 
 BRR  HZ EP   1   1237  3.59                             153    -0.2 7   74 299 
 BRR  HZ I        1237 17.64        27.2 0.83                            74 299 
 BRR  HE ES   2   1237 21.35                             153     0.2 5   74 299 
 RUS  HZ EP   1   1237  6.10                             146     0.1 7   99 178 
 RUS  HZ I        1237 14.79        23.3 1.34                            99 178 
 RUS  HN ES   2   1237 24.95                             146    -0.1 5   99 178 
                                                                                
