 2010 1026 1407 23.0 L   6.764 -73.091147.4  RSN  6 0.4 1.6LRSN                1
 GAP=171        0.69       5.5     8.2  7.9 -0.5786E+01  0.4074E+01  0.3883E+01E
 Epicentro: LOS SANTOS - SANTANDER                                             3
 ACTION:UP  11-02-18 11:12 OP:tino STATUS:               ID:20101026140723 L   I
 2010-10-26-1404-35S.COL___125                                                 6
 STAT SP IPHASW D HRMM SECON CODA AMPLIT PERI AZIMU VELO SNR AR TRES W  DIS CAZ7
 BAR2 SZ EP   1   14 7 42.96                             171     0.1 7   22 208 
 BAR2 SZ ES   2   14 7 57.50                             171    -0.8 5   22 208 
 BAR2 SZ I        14 7 59.53         9.4 0.16                            22 208 
 BRR  HZ EP   1   14 7 44.80                             150     0.0 7   79 299 
 BRR  HN ES   2   14 8  2.17                             150     0.4 5   79 299 
 BRR  HZ I        14 8  5.01        13.5 0.30                            79 299 
 RUS  HZ EP   1   14 7 46.32                             145    -0.3 7   96 180 
 RUS  HE ES   2   14 8  5.69                             145     0.6 5   96 180 
 RUS  HZ I        14 8  7.32         4.8 0.46                            96 180 
 GUE  SZ EP   1   14 7 48.19                             139     0.1 7  119   9 
 NOR  SZ EP   1   14 7 58.88                             118    -0.3 6  238 236 
 NOR  SN ES   2   14 8 27.26                             118    -0.1 4  238 236 
 CHI  HZ EP   1   14 8  0.95                             118     0.4 6  246 197 
 CHI  HZ I        14 8  1.59         2.0 0.06                           246 197 
                                                                                
