 2017  526 1200 23.8 L   6.796 -73.113146.0  RSN  6 0.3 1.6LRSN                1
 GAP=241        0.70       4.2     7.2  6.9  0.1857E+02  0.1349E+02  0.6279E+01E
 Epicentro: LOS SANTOS - SANTANDER                                             3
 ACTION:UPD 17-06-16 13:39 OP:jn   STATUS:               ID:20170526120023 L   I
 OLDACT:UP  17-05-26 23:09 OP:dnl  STATUS:               ID:20170526115728     3
 OLDACT:REG 17-05-26 21:49 OP:dnl  STATUS:               ID:20170526115728     3
 2017-05-26-1158-00M.COL___340                                                 6
 STAT SP IPHASW D HRMM SECON CODA AMPLIT PERI AZIMU VELO AIN AR TRES W  DIS CAZ7
 BRR  HZ EP   2   12 0 45.55                             152    0.38 5 74.6 297 
 BRR  HZ I        12 1  0.62        11.3 0.34            146           74.6 297 
 BRR  HN ES       12 1  2.15                             152    0.3110 74.6 297 
 RUS  HZ EP   2   12 0 47.63                             144    0.09 5  100 178 
 RUS  HE ES       12 1  5.81                             144   -0.2410  100 178 
 RUS  HZ I        12 1  7.40         4.6 0.38            140            100 178 
 PTB  HZ EP       12 0 50.77                             132   -0.34 9  151 259 
 PTB  HN ES   4   12 1 11.23                             132   -1.18 0  151 259 
 PTB  HZ I        12 1 17.60         3.8 0.30            126            151 259 
 SPBC HZ EP   2   12 0 52.73                             129    0.22 5  165 220 
 SPBC HE ES       12 1 15.35                             129    0.45 9  165 220 
 SPBC HZ I        12 1 17.35         7.4 0.26            124            165 220 
 ZAR  HZ EP   2   12 0 57.23                             122    0.60 4  208 292 
 ZAR  HE ES       12 1 21.77                             122   -0.46 8  208 292 
 ZAR  HZ I        12 1 27.39         4.0 0.14            115            208 292 
 CHI  HZ EP   2   12 1  1.72                             117    0.14 4  249 196 
 CHI  HN ES       12 1 30.87                             117   -0.18 8  249 196 
 CHI  HZ I        12 1 41.14         2.7 0.36            111            249 196 
                                                                                
