 2011  926 1246  4.5 L   6.744 -73.169147.9  RSN  5 0.2 1.5LRSN                1
 GAP=204        0.46       3.8     4.6  5.3  0.2350E+01  0.2993E+01  0.1428E+01E
 Epicentro: VILLANUEVA - SANTANDER                                             3
 ACTION:UPD 12-07-13 15:59 OP:ep   STATUS:               ID:20110926124605dL   I
 2011-09-26-1243-26S.COL___165                                                 6
 STAT SP IPHASW D HRMM SECON CODA AMPLIT PERI AZIMU VELO AIN AR TRES W  DIS CAZ7
 BAR2 SZ EP   1   1246 24.12                             173   -0.17 7 16.8 185 
 BAR2 SZ ES   1   1246 39.42                             173   -0.30 7 16.8 185 
 BAR2 SZ I        1246 41.36         9.5 0.39                          16.8 185 
 BTL  SZ EP   1   1246 24.52                             171    0.14 7 22.1 331 
 BRR  HZ EP   1   1246 25.74                             153   -0.21 7 72.2 304 
 BRR  HZ I        1246 26.44        12.1 0.16                          72.2 304 
 BRR  HN ES   1   1246 42.95                             153    0.28 7 72.2 304 
 RUS  HZ EP   1   1246 28.25                             146    0.19 7 94.6 174 
 RUS  HN ES   1   1246 46.56                             146    0.13 7 94.6 174 
 RUS  HZ I        1246 48.58         2.6 0.16                          94.6 174 
 NOR  SE ES   1   1247  7.17                             120   -0.09 6  229 235 
                                                                                
