 2012  426 1232 26.8 L   6.777 -73.156151.5  RSN 10 0.4 2.1LRSN                1
 GAP=136        0.89       4.2     4.8  6.3  0.1963E+00  0.6055E+01  0.3309E+01E
 Epicentro: LOS SANTOS - SANTANDER                                             3
 ACTION:UPD 12-07-05 11:56 OP:tino STATUS:               ID:20120426123226 L   I
 2012-04-26-1230-00M.COL___186                                                 6
 STAT SP IPHASW D HRMM SECON CODA AMPLIT PERI AZIMU VELO AIN AR TRES W  DIS CAZ7
 BAR2 SZ EP       1232 47.11                             172     0.010   21 188 
 BAR2 SZ ES   1   1233  3.06                             172     0.2 7   21 188 
 BAR2 SZ I        1233  4.83        44.6 0.30                            21 188 
 BRR  HZ EP   1   1232 49.04                             153     0.4 7   71 301 
 BRR  HE ES   1   1233  6.52                             153     0.9 7   71 301 
 PAM  SZ EP       1232 49.88                             151     0.110   80  39 
 PAM  SN ES   1   1233  7.19                             151    -0.5 7   80  39 
 RUS  HZ EP       1232 50.95                             146     0.010   98 175 
 RUS  HN ES   1   1233  9.40                             146    -0.4 7   98 175 
 RUS  HZ I        1233 10.99        14.1 0.16                            98 175 
 PTB  HZ EP       1232 53.79                             134    -0.3 9  146 260 
 PTB  HN ES   1   1233 14.90                             134    -0.5 7  146 260 
 PTB  HZ I        1233 18.10        15.8 0.11                           146 260 
 OCA  SZ EP   1   1232 55.89                             130     0.1 7  163 354 
 ZAR  HZ EP   1   1232 59.36                             124    -0.3 6  204 293 
 ZAR  HE ES   1   1233 25.14                             124    -0.1 6  204 293 
 ZAR  HZ I        1233 30.66        14.4 0.25                           204 293 
 NOR  SZ EP   1   1233  2.29                             120    -0.3 6  232 235 
 CHI  HZ EP   1   1233  5.15                             119     0.6 6  246 195 
 CHI  HN ES   1   1233 34.23                             119     0.3 6  246 195 
 CHI  HZ I        1233 38.52         7.3 0.39                           246 195 
 PRA  HZ EP   1   1233 20.75                             108     0.5 4  389 210 
                                                                                
