 2013  326 1354 15.1 L   6.783 -73.132152.8  RSN  4 0.4 1.8LRSN                1
 GAP=238        0.84       7.5     7.1  9.0  0.2553E+02 -0.1186E+02 -0.1424E+02E
 Epicentro: LOS SANTOS - SANTANDER                                             3
 ACTION:UPD 13-04-09 14:05 OP:ep   STATUS:               ID:20130326135415 L   I
 2013-03-26-1350-00M.COL___244                                                 6
 STAT SP IPHASW D HRMM SECON CODA AMPLIT PERI AZIMU VELO AIN AR TRES W  DIS CAZ7
 BAR2 SZ EP       1354 35.22                             171   -0.3410 21.8 195 
 BAR2 SZ ES   1   1354 50.96                             171   -0.55 7 21.8 195 
 BAR2 SZ I        1354 51.38        18.1 0.38            171           21.8 195 
 BRR  HZ EP       1354 37.16                             153    0.0110 73.5 299 
 BRR  HN ES   1   1354 55.02                             153    0.68 7 73.5 299 
 BRR  HN I        1354 55.32        14.7 0.18            153           73.5 299 
 RUS  HZ EP       1354 39.68                             146    0.2610 98.6 177 
 RUS  HN ES       1354 58.56                             146    0.1810 98.6 177 
 RUS  HN I        1354 59.60         6.6 0.32            146           98.6 177 
 PTB  HN ES       1355  4.13                             133   -0.21 9  149 260 
                                                                                
