 2016 1026 1356 36.5 L   6.799 -73.194136.9  RSN  4 0.2 1.4LRSN                1
 GAP=144        0.56       3.3     3.2  4.7 -0.3213E+01  0.4281E+01 -0.1565E+01E
 Epicentro: ZAPATOCA - SANTANDER                                               3
 ACTION:UPD 16-11-09 19:23 OP:rebc STATUS:               ID:20161026135636 L   I
 OLDACT:REG 16-10-26 20:22 OP:cara STATUS:               ID:20161026134746     3
 2016-10-26-1348-00M.COL___337                                                 6
 STAT SP IPHASW D HRMM SECON CODA AMPLIT PERI AZIMU VELO AIN AR TRES W  DIS CAZ7
 BAR2 EZ EP       1356 55.08                             170    0.0510 22.9 177 
 BAR2 EZ ES       1357  9.18                             170   -0.3210 22.9 177 
 BAR2 EZ I        1357 11.14         9.7 0.20            172           22.9 177 
 PAM  EZ IP       1356 57.95                             148   -0.0410 81.0  42 
 PAM  EN ES       1357 14.93                             148    0.1610 81.0  42 
 PAM  EZ I        1357 17.00         4.8 0.50            150           81.0  42 
 RUS  HZ EP       1356 59.50                             142    0.1010  101 173 
 RUS  HN ES       1357 17.36                             142    0.0910  101 173 
 RUS  HZ I        1357 18.62         4.3 0.30            145            101 173 
 PTB  HZ EP       1357  1.94                             131   -0.31 9  142 258 
 PTB  HN ES       1357 22.60                             131    0.26 9  142 258 
 PTB  HZ I        1357 24.62         3.5 0.24            133            142 258 
                                                                                
