 2015  326 1326 12.2 L   6.829 -73.178137.5  RSN 21 0.6 2.6LRSN                1
 GAP=131        1.68       3.8     5.5  7.5 -0.3344E+01  0.1271E+02  0.4027E+01E
 Epicentro: ZAPATOCA - SANTANDER                                               3
 ACTION:UPD 15-04-30 16:29 OP:nd   STATUS:               ID:20150326132612 L   I
 OLDACT:REG 15-03-26 20:56 OP:stll STATUS:               ID:20150326131750     3
 2015-03-26-1317-50M.COL___275                                                 6
 STAT SP IPHASW D HRMM SECON CODA AMPLIT PERI AZIMU VELO AIN AR TRES W  DIS CAZ7
 BAR2 EZ IP     D 1326 31.00                             169    0.0710 26.2 181 
 BAR2 EZ ES       1326 45.91                             169    0.3810 26.2 181 
 BAR2 EZ I        1326 47.15        64.6 0.26            168           26.2 181 
 BRR  HZ IP     D 1326 32.79                             153    0.5710 66.5 298 
 BRR  HE ES       1326 48.33                             153    0.5210 66.5 298 
 BRR  HZ I        1326 54.00        52.6 0.18            146           66.5 298 
 PAM  SZ EP       1326 33.89                             149    0.3210 77.3  43 
 PAM  SN ES       1326 50.28                             149    0.0710 77.3  43 
 PAM  SZ I        1326 53.15       107.1 0.48            149           77.3  43 
 RUS  HZ EP       1326 34.91                             141   -0.5410  104 174 
 RUS  HN ES       1326 53.41                             141   -0.1510  104 174 
 RUS  HZ I        1326 54.87        45.8 0.30            140            104 174 
 PTB  HZ EP       1326 37.64                             131   -0.63 9  145 257 
 PTB  HN ES       1326 58.61                             131    0.03 9  145 257 
 PTB  HZ I        1327  6.02        29.5 0.34            125            145 257 
 OCA  HZ IP     D 1326 39.07                             128   -0.49 9  157 354 
 OCA  HN ES       1327  0.77                             128   -0.11 9  157 354 
 OCA  HZ I        1327  5.56        75.8 0.40            125            157 354 
 SPBC HZ EP       1326 40.03                             127   -0.11 9  164 217 
 SPBC HN ES       1327  1.81                             127   -0.10 9  164 217 
 SPBC HZ I        1327  5.21        59.2 0.10            123            164 217 
 ZAR  HZ EP       1326 43.63                             121   -0.04 9  200 292 
 ZAR  HE ES       1327  7.75                             121   -0.45 9  200 292 
 ZAR  HZ I        1327 15.20        35.4 0.56            117            200 292 
 NOR  HZ EP     D 1326 47.15                             117   -0.23 8  234 233 
 NOR  HN ES       1327 14.55                             117   -0.26 8  234 233 
 NOR  HZ I        1327 22.61        24.2 0.56            113            234 233 
 SML  HZ EP       1326 47.13                             116   -0.78 8  239 336 
 SML  HN ES       1327 15.94                             116    0.19 8  239 336 
 SML  HZ I        1327 20.16        53.8 0.24            113            239 336 
 ROSC BZ IP     C 1326 51.57                             115    1.55 8  254 210 
 ROSC BN ES       1327 19.64                             115    0.15 8  254 210 
 ROSC BZ I        1327 24.54        41.8 0.35            112            254 210 
 HEL  HZ EP       1326 53.31                             113    1.58 8  269 255 
 HEL  HN ES       1327 21.57                             113   -0.98 8  269 255 
 HEL  HZ I        1327 28.36        12.1 0.30            110            269 255 
 GUY2CHZ EP       1326 55.30                             111   -0.05 7  300 234 
 GUY2CHN ES       1327 29.30                             111    0.32 7  300 234 
 GUY2CHZ I        1327 36.96        12.5 0.30                           300 234 
 VIL  SZ EP       1326 54.52                             110   -1.04 7  306 191 
 VIL  SE ES       1327 28.65                             110   -0.72 7  306 191 
 VIL  SZ I        1327 34.40        28.0 0.38            108            306 191 
 RREF HZ EP       1326 58.75                             109    0.79 7  321 229 
 RREF HN ES       1327 32.93                             109   -0.70 7  321 229 
 RREF HZ I        1327 40.15        22.3 0.24            107            321 229 
 CBOC HZ EP       1326 59.81                             109    1.28 7  331 251 
 CBOC HZ I        1327 34.71         5.2 0.16            106            331 251 
 DBB  SZ EP       1326 58.96                             108    0.02 7  336 274 
 DBB  SZ I        1327 38.97        26.6 0.28            105            336 274 
 MON  HZ EP   9   1326 58.15                             107   -2.21 0  349 308 
 MON  HN ES       1327 35.70                                    0.01 6  349 308 
 MON  HZ I        1327 37.29         4.6 0.16            105            349 308 
 ORTC HZ EP       1327  5.31                             105   -0.63 6  396 215 
 ORTC HE ES       1327 47.73                             105   -0.10 6  396 215 
 ORTC HZ I        1327 52.32        11.9 0.32            103            396 215 
 SJC  HZ EP   9   1327  5.26                             105   -1.71 0  405 327 
 SJC  HZ I        1327  6.90         8.5 0.28            102            405 327 
 SJC  HN ES       1327 43.82                                   -4.14 6  405 327 
 CRJC HZ EP   9   1327 11.20                             102   -2.94 0  465   4 
 CRJC HN ES       1327 58.65                                   -0.85 5  465   4 
 CRJC HZ I        1328 13.01         8.5 0.64            100            465   4 
                                                                                
