 2014 1026 1149 30.7 L   5.891 -73.829106.3  RSN  7 0.4 1.4LRSN                1
 GAP= 90        1.11       3.1     4.7  7.4 -0.2729E+01  0.2609E+00  0.4243E+01E
 Epicentro: SUCRE - SANTANDER                                                  3
 ACTION:UPD 14-11-29 23:57 OP:nd   STATUS:               ID:20141026114930 L   I
 OLDACT:REG 14-10-29 17:27 OP:fm   STATUS:               ID:20141026114749     3
 2014-10-26-1147-49M.COL___280                                                 6
 STAT SP IPHASW D HRMM SECON CODA AMPLIT PERI AZIMU VELO AIN AR TRES W  DIS CAZ7
 SPBC HZ EP       1149 46.21                             159    0.3110 37.7 226 
 SPBC HE ES       1149 58.43                             159    0.6710 37.7 226 
 SPBC HZ I        1150  0.00        14.5 0.22            164           37.7 226 
 RUS  HZ EP       1149 49.48                             140    0.1810 82.6  90 
 RUS  HN ES       1150  3.36                             140   -0.4610 82.6  90 
 RUS  HZ I        1150 16.20         1.7 0.54            141           82.6  90 
 PTB  HN ES       1150  4.45                             133   -0.7710 99.8 316 
 PTB  HZ I        1150  7.86         2.1 0.26            143           99.8 316 
 BAR2 SZ EP       1149 51.23                             132    0.3210  105  43 
 BAR2 SZ ES   1   1150  7.12                             132    0.44 7  105  43 
 BAR2 SZ I        1150  9.35        17.8 0.28            136            105  43 
 BRR  HZ EP       1149 53.24                             124   -0.2110  135   6 
 BRR  HN ES       1150 11.39                             124    0.2010  135   6 
 BRR  HZ I        1150 15.16         6.4 0.34            131            135   6 
 CHI  HZ EP       1149 54.18                             123   -0.31 9  140 176 
 CHI  HN ES       1150 12.46                             123   -0.59 9  140 176 
 CHI  HZ I        1150 19.65         2.7 0.36            128            140 176 
 PRA  HZ EP       1150  8.48                             106    0.16 8  268 206 
 PRA  HN ES       1150 38.09                             106    0.41 8  268 206 
 PRA  HZ I        1150 41.09         2.6 0.28            111            268 206 
                                                                                
