 2017  826 1020 55.5 L   6.790 -73.158147.2  RSN  9 0.4 1.8LRSN                1
 GAP=111        1.05       3.9     4.1  6.5  0.1328E+01  0.4660E+01  0.6680E+01E
 Epicentro: LOS SANTOS - SANTANDER                                             3
 ACTION:UPD 17-09-04 20:24 OP:rebc STATUS:               ID:20170826102055 L   I
 OLDACT:UP  17-08-26 21:38 OP:edw  STATUS:               ID:20170826101737     3
 OLDACT:REG 17-08-26 19:51 OP:edw  STATUS:               ID:20170826101737     3
 2017-08-26-1018-00M.COL___408                                                 6
 STAT SP IPHASW D HRMM SECON CODA AMPLIT PERI AZIMU VELO AIN AR TRES W  DIS CAZ7
 BAR2 EZ EP       1021 14.97                             171   -0.2610 22.0 187 
 BAR2 EZ ES       1021 30.37                             171   -0.2810 22.0 187 
 BAR2 EZ I        1021 30.95        14.7 0.22            170           22.0 187 
 BRR  HZ EP       1021 17.00                             153    0.2810 70.5 300 
 BRR  HN ES       1021 34.00                             153    0.7010 70.5 300 
 PAM  EZ EP       1021 18.00                             151    0.0810 79.1  40 
 PAM  EN ES       1021 34.93                             151   -0.5210 79.1  40 
 PAM  EZ I        1021 36.91        15.3 0.50            152           79.1  40 
 RUS  HZ EP       1021 19.34                             144    0.0710 99.6 175 
 RUS  HN ES       1021 38.05                             144    0.2010 99.6 175 
 RUS  HZ I        1021 38.50         8.2 0.20            144           99.6 175 
 SPBC HZ EP       1021 22.93                             130   -0.97 9  161 219 
 SPBC HN ES       1021 46.34                             130    0.26 9  161 219 
 SPBC HZ I        1021 48.49        14.0 0.18            129            161 219 
 YPLC HZ EP       1021 25.36                             127    0.04 9  177 151 
 YPLC HN ES       1021 49.05                             127    0.43 9  177 151 
 YPLC HZ I        1021 51.77         7.4 0.28            127            177 151 
 ZAR  HZ EP   4   1021 29.39                             123    1.49 0  203 293 
 ZAR  HN ES       1021 53.11                             123   -0.10 9  203 293 
 ZAR  HZ I        1021 59.25         5.5 0.62            122            203 293 
 NOR  HZ EP       1021 31.52                             119    0.45 8  233 234 
 NOR  HN ES       1021 58.36                             119   -0.50 8  233 234 
 NOR  HZ I        1022  0.35         5.6 0.16            119            233 234 
 CHI  HZ EP   2   1021 34.05                             118    0.98 4  247 195 
 CHI  HE ES   2   1022  1.83                             118   -0.59 4  247 195 
 CHI  HZ I        1022  5.63         2.5 0.44            117            247 195 
 GUY2CHN ES   4   1022 15.09                             113    2.26 0  299 235 
                                                                                
