 2014 1126 1339 14.6 L   6.821 -73.122145.7  RSN 23 0.5 2.5LRSN                1
 GAP=127        1.05       2.7     3.3  4.6 -0.2938E+01  0.2130E+01  0.2759E+01E
 Epicentro: LOS SANTOS - SANTANDER                                             3
 ACTION:UPD 14-12-19 15:47 OP:nd   STATUS:               ID:20141126133914 L   I
 OLDACT:REG 14-11-26 20:20 OP:fm   STATUS:               ID:20141126133747     3
 2014-11-26-1337-47M.COL___303                                                 6
 STAT SP IPHASW D HRMM SECON CODA AMPLIT PERI AZIMU VELO AIN AR TRES W  DIS CAZ7
 BAR2 SZ EP       1339 34.51                             169    0.2010 26.1 195 
 BAR2 SZ ES       1339 49.76                             169    0.1010 26.1 195 
 BAR2 SZ I        1339 50.78        65.4 0.24            168           26.1 195 
 BRR  HZ EP     C 1339 36.38                             152    0.5410 72.5 296 
 BRR  HN ES       1339 52.89                             152    0.5010 72.5 296 
 BRR  HZ I        1339 56.49        39.5 0.28            150           72.5 296 
 PAM  SZ EP     C 1339 37.28                             152    0.6410 73.9  39 
 PAM  SN ES       1339 53.99                             152    0.1910 73.9  39 
 PAM  SZ I        1339 56.68        76.6 0.46            155           73.9  39 
 RUS  HZ EP       1339 38.46                             143   -0.0710  103 178 
 RUS  HN ES       1339 57.29                             143    0.1210  103 178 
 RUS  HZ I        1339 58.28        34.9 0.24            144            103 178 
 PTB  HZ EP       1339 41.36                             131   -0.51 9  151 258 
 PTB  HE ES       1340  3.00                             131   -0.11 9  151 258 
 PTB  HZ I        1340  9.57        27.1 0.40            130            151 258 
 OCA  HE ES       1340  4.27                             130   -0.42 9  158 352 
 OCA  HZ I        1340  9.17        25.7 0.34            131            158 352 
 SPBC HZ EP       1339 43.51                             128    0.06 9  167 219 
 SPBC HN ES       1340  5.07                             128   -0.86 9  167 219 
 SPBC HZ I        1340  9.94        41.8 0.18            128            167 219 
 ZAR  HZ EP       1339 47.37                             122    0.14 8  206 291 
 ZAR  HN ES       1340 11.82                             122   -0.84 8  206 291 
 ZAR  HZ I        1340 18.68        21.5 0.26            122            206 291 
 NOR  HZ EP       1339 50.71                             118   -0.02 8  238 234 
 NOR  HN ES       1340 18.69                             118   -0.19 8  238 234 
 NOR  HZ I        1340 21.03        19.6 0.18            118            238 234 
 CHI  HZ EP       1339 52.73                             117    0.09 8  252 196 
 CHI  HN ES       1340 21.84                             117   -0.45 8  252 196 
 CHI  HZ I        1340 25.53        22.6 0.50            117            252 196 
 ROSC BZ EP       1339 53.00                             116   -0.11 8  256 211 
 ROSC BN ES       1340 23.12                             116    0.00 8  256 211 
 ROSC BZ I        1340 29.04        37.1 0.50            117            256 211 
 HEL  HZ EP       1339 55.07                             115   -0.11 8  275 255 
 HEL  HN ES       1340 26.34                             115   -0.47 8  275 255 
 HEL  HZ I        1340 32.61        16.5 0.26            114            275 255 
 URE  HN ES   4   1340 26.70                             113   -1.34 0  285 291 
 URE  HZ I        1340 37.25        15.9 0.18            113            285 291 
 GUY2CHZ EP       1339 59.17                             112    0.54 7  305 235 
 GUY2CHE ES   4   1340 35.14                             112    2.20 0  305 235 
 GUY2CHZ I        1340 38.73        13.4 0.32                           305 235 
 VIL  SN ES       1340 31.70                             112   -0.77 7  306 192 
 VIL  SZ I        1340 42.52        28.2 0.46            112            306 192 
 PTGC HZ EP   4   1339 56.39                             111   -2.23 0  310 159 
 PTGC HN ES   4   1340 29.85                             111   -3.08 0  310 159 
 PTGC HZ I        1340 36.04        23.5 0.26            113            310 159 
 RREF HZ EP       1340  1.50                             111    0.33 7  325 229 
 RREF HN ES       1340 37.95                             111    0.49 7  325 229 
 RREF HZ I        1340 46.57        17.8 0.38            111            325 229 
 DBB  SZ I        1340 42.31        36.6 0.50            109            342 274 
 TOL  SZ EP       1340  3.90                             109    0.62 6  347 225 
 TOL  SN ES       1340 42.11                             109    0.88 6  347 225 
 TOL  SZ I        1340 48.04        34.3 0.52            109            347 225 
 SDV  BZ EP       1340  3.85                             108   -0.42 6  357  50 
 SDV  BN ES       1340 42.14                             108   -0.84 6  357  50 
 SDV  BZ I        1340 44.75         6.3 0.35            110            357  50 
 ANIL HZ EP       1340  5.53                             108    0.70 6  361 225 
 ANIL HE ES       1340 44.82                             108    0.83 6  361 225 
 ANIL HZ I        1340 49.15         4.6 0.38            109            361 225 
 ORTC HZ EP       1340  8.20                             106   -0.75 6  399 216 
 ORTC HN ES       1340 50.77                             106   -0.54 6  399 216 
 ORTC HZ I        1340 55.92        11.9 0.30            107            399 216 
 SJC  HZ EP   4   1340  8.75                             106   -1.38 0  409 326 
 SJC  HN ES   4   1340 48.94                             106   -4.48 0  409 326 
 SJC  HZ I        1340 56.31         4.7 0.56            106            409 326 
                                                                                
