 2013  226 1448 16.0 L   6.772 -73.140145.7  RSN 11 0.3 2.2LRSN                1
 GAP= 97        0.82       3.0     2.7  4.3 -0.5425E+00  0.2731E+01  0.2944E+01E
 Epicentro: LOS SANTOS - SANTANDER                                             3
 ACTION:UPD 13-03-12 09:36 OP:ep   STATUS:               ID:20130226144816 L   I
 2013-02-26-1446-44M.COL___200                                                 6
 STAT SP IPHASW D HRMM SECON CODA AMPLIT PERI AZIMU VELO AIN AR TRES W  DIS CAZ7
 BAR2 SZ IP       1448 35.53                             172   -0.0610 20.5 193 
 BAR2 SZ ES       1448 50.54                             172   -0.3210 20.5 193 
 BAR2 SZ I        1448 52.71        66.7 0.22            169           20.5 193 
 BRR  HZ EP       1448 37.49                             152    0.2110 73.3 300 
 BRR  HN ES       1448 54.42                             152    0.5510 73.3 300 
 BRR  HZ I        1448 55.60        27.3 0.20            150           73.3 300 
 PAM  SZ IP     D 1448 38.46                             150    0.1110 79.4  38 
 PAM  SN ES       1448 55.51                             150   -0.2610 79.4  38 
 PAM  SZ I        1448 57.61        42.1 0.58            154           79.4  38 
 RUS  HZ EP       1448 39.47                             145   -0.0810 97.5 176 
 RUS  HN ES       1448 58.11                             145    0.2110 97.5 176 
 RUS  HZ I        1448 59.87        21.4 0.44            145           97.5 176 
 PTB  HZ IP     C 1448 42.61                             132   -0.38 9  148 260 
 PTB  HN ES       1449  3.38                             132   -0.65 9  148 260 
 PTB  HZ I        1449  9.20        17.4 0.12            131            148 260 
 TAM  HZ IP       1448 43.74                             131    0.17 9  154 104 
 ZAR  HZ EP       1448 48.67                             122    0.02 8  206 293 
 ZAR  HN ES       1449 14.39                             122    0.30 8  206 293 
 ZAR  HZ I        1449 20.39        18.1 0.24            122            206 293 
 NOR  HZ EP       1448 50.77                             119   -0.85 8  233 235 
 NOR  HN ES       1449 19.42                             119    0.04 8  233 235 
 NOR  HZ I        1449 21.50        11.4 0.11            119            233 235 
 CHI  HZ EP       1448 53.76                             117    0.35 8  246 196 
 CHI  HN ES       1449 22.83                             117    0.25 8  246 196 
 CHI  HZ I        1449 25.91         5.4 0.46            118            246 196 
 HEL  HZ EP       1448 56.28                             115    0.06 8  272 256 
 HEL  HN ES       1449 27.93                             115    0.36 8  272 256 
 HEL  HZ I        1449 34.78         6.6 0.56            115            272 256 
 RREF HZ EP       1449  1.97                             111   -0.02 7  320 230 
 RREF HN ES       1449 38.01                             111    0.16 7  320 230 
 RREF HZ I        1449 48.00         7.0 0.28            112            320 230 
                                                                                
