 2017  926 1535 26.1 L   6.586 -73.302129.4  RSN  7 0.4 1.8LRSN                1
 GAP= 77        0.94       3.8     3.9  6.2 -0.1145E+01  0.8626E+01 -0.2437E+00E
 Epicentro: HATO - SANTANDER                                                   3
 ACTION:UPD 17-10-05 19:16 OP:rebc STATUS:               ID:20170926153526 L   I
 OLDACT:UP  17-09-27 00:19 OP:dhb  STATUS:               ID:20170926152739     3
 OLDACT:REG 17-09-26 20:52 OP:dhb  STATUS:               ID:20170926152739     3
 2017-09-26-1528-00M.COL___450                                                 6
 STAT SP IPHASW D HRMM SECON CODA AMPLIT PERI AZIMU VELO AIN AR TRES W  DIS CAZ7
 BAR2 EZ EP       1535 43.20                             174   -0.3810 13.2  87 
 BAR2 EZ ES       1535 56.87                             174   -0.3410 13.2  87 
 BAR2 EZ I        1535 59.08         9.0 0.22            177           13.2  87 
 BRR  HZ IP     C 1535 45.32                             149   -0.3110 73.3 322 
 BRR  HN ES       1536  1.25                             149    0.3810 73.3 322 
 BRR  HZ I        1536  1.87        19.7 0.12            148           73.3 322 
 RUS  HZ EP       1535 46.59                             147   -0.2110 80.4 162 
 RUS  HN ES       1536  3.33                             147    0.3810 80.4 162 
 PAM  EZ IP     C 1535 49.13                             138    0.3810  107  39 
 PAM  EN ES       1536  6.46                             138    0.0410  107  39 
 ZAR  HZ EP       1535 57.67                             119    0.68 9  199 300 
 ZAR  HN ES       1536 20.65                             119   -0.44 9  199 300 
 ZAR  HZ I        1536 25.23        10.4 0.07            120            199 300 
 NOR  HZ IP     D 1535 57.50                             118   -0.42 8  207 237 
 NOR  HE ES       1536 22.99                             118    0.25 8  207 237 
 NOR  HZ I        1536 25.52         4.6 0.57            119            207 237 
 GUY2CHZ EP   9   1536  8.65                             111    2.81 0  274 237 
 GUY2CHN ES       1536 39.95                             110    0.30 8  274 237 
 GUY2CHZ I        1536 45.12         5.4 0.86                           274 237 
                                                                                
