 2010  626 1658 32.0 L   6.345 -73.563108.0  RSN  5 0.3 1.6LRSN                1
 GAP=129        0.53       6.2     5.9  8.5 -0.1121E+02  0.2468E+02  0.1618E+02E
 Epicentro: SANTA HELENA DEL OPON - SANTANDER                                  3
 ACTION:UP  10-08-24 10:13 OP:vdl  STATUS:               ID:20100626165832 L   I
 2010-06-26-1656-10S.COL___118                                                 6
 STAT SP IPHASW D HRMM SECON CODA AMPLIT PERI AZIMU VELO SNR AR TRES W  DIS CAZ7
 BAR2 SZ EP   1   1658 47.89                             154    -0.3 7   50  57 
 BAR2 SZ ES   1   1659  0.97                             154     0.1 7   50  57 
 GUE  SZ EP   2   1659  0.37                             117     0.5 4  179  23 
 CHI  HZ EP   2   1659  1.25                             115     0.0 4  191 186 
 CHI  HZ I        1659 27.28         2.9 0.50                           191 186 
 HEL  HZ EP   2   1659  4.03                             111    -0.3 4  218 266 
 HEL  HZ I        1659 22.27         3.4 0.45                           218 266 
 HEL  HN ES   2   1659 29.69                             111     0.1 4  218 266 
 PRA  HZ EP   2   1659 16.24                             102    -0.3 3  326 207 
 PRA  HN ES   2   1659 51.91                             102     0.6 3  326 207 
 PRA  HZ I        17 0  1.04         2.5 0.46                           326 207 
                                                                                
