 2011 1226 1015  4.7 L   6.684 -73.112153.6  RSN  4 0.2 1.5LRSN                1
 GAP=233        0.40       6.2     5.8  7.3  0.1202E+02  0.3438E+00 -0.1036E+02E
 Epicentro: JORDAN - SANTANDER                                                 3
 ACTION:UPD 12-07-13 16:18 OP:ep   STATUS:               ID:20111226101504 L   I
 2011-12-26-1010-00M.COL___187                                                 6
 STAT SP IPHASW D HRMM SECON CODA AMPLIT PERI AZIMU VELO AIN AR TRES W  DIS CAZ7
 BAR2 SZ EP   1   1015 25.32                             175    0.23 7 12.8 217 
 BAR2 SZ I        1015 44.16         3.8 0.26                          12.8 217 
 BRR  HZ EP   1   1015 27.01                             151   -0.22 7 81.1 305 
 BRR  HZ I        1015 27.84         7.6 0.17                          81.1 305 
 BRR  HE ES   2   1015 44.88                             151    0.05 5 81.1 305 
 RUS  HE ES   2   1015 46.62                             149   -0.19 5 87.6 178 
 PTB  HZ EP   1   1015 32.46                             133    0.02 7  150 264 
 PTB  HN ES   2   1015 54.19                             133    0.09 5  150 264 
                                                                                
