 2017  626 1105 14.9 L   6.812 -73.096139.2  RSN  5 0.3 1.8LRSN                1
 GAP=266        1.22       9.0     7.9  8.3  0.1170E+02  0.1473E+02  0.8085E+01E
 Epicentro: LOS SANTOS - SANTANDER                                             3
 ACTION:UPD 17-09-14 16:55 OP:jn   STATUS:               ID:20170626110514 L   I
 OLDACT:UP  17-06-26 22:03 OP:cog  STATUS:               ID:20170626105747d    3
 OLDACT:DUP 17-06-26 21:57 OP:cog  STATUS:               ID:20170626105747d    3
 2017-06-26-1058-00M.COL___331                                                 6
 STAT SP IPHASW D HRMM SECON CODA AMPLIT PERI AZIMU VELO AIN AR TRES W  DIS CAZ7
 BAR2 EZ EP       11 5 33.58                             169   -0.1910 26.2 202 
 BAR2 EZ ES       11 5 48.15                             169   -0.3610 26.2 202 
 BAR2 EZ I        11 5 49.61        18.9 0.18            172           26.2 202 
 BRR  HZ EP       11 5 35.61                             150    0.0410 75.5 296 
 BRR  HN ES       11 5 52.18                             150    0.4710 75.5 296 
 BRR  HZ I        11 5 56.77        12.3 0.38            145           75.5 296 
 PTB  HZ EP   9   11 5 41.54                             129   -0.30 0  153 259 
 PTB  HN ES       11 6  1.36                             129   -1.22 9  153 259 
 PTB  HZ I        11 6  3.90         4.2 0.34            129            153 259 
 ZAR  HZ EP       11 5 47.08                             119   -0.30 8  209 291 
 ZAR  HN ES       11 6 12.58                             119   -0.16 8  209 291 
 ZAR  HZ I        11 6 20.24         5.8 0.56            119            209 291 
 GUY2CHZ EP       11 5 59.36                             110    0.58 7  307 235 
 GUY2CHN ES       11 6 33.20                             110    0.16 7  307 235 
                                                                                
