 2013  726 1117  4.6 L   6.096 -73.230178.2  RSN  8 0.4 2.6LRSN                1
 GAP=138        0.94       5.6     4.5  6.8 -0.2066E+00  0.6775E+01 -0.3813E+01E
 Epicentro: ENCINO - SANTANDER                                                 3
 ACTION:UPD 13-08-12 10:40 OP:ep   STATUS:               ID:20130726111704 L   I
 OLDACT:UP  13-07-26 18:21 OP:mh   STATUS:               ID:20130726110959     3
 OLDACT:UP  13-07-26 18:20 OP:mh   STATUS:               ID:20130726110959     3
 OLDACT:REG 13-07-26 14:44 OP:mh   STATUS:               ID:20130726110959     3
 2013-07-26-1109-59M.COL___266                                                 6
 STAT SP IPHASW D HRMM SECON CODA AMPLIT PERI AZIMU VELO AIN AR TRES W  DIS CAZ7
 RUS  HZ EP       1117 28.57                             171   -0.0210 27.8 144 
 RUS  HN ES       1117 46.63                             171   -0.6810 27.8 144 
 RUS  HZ I        1117 49.18        10.3 0.36            173           27.8 144 
 BAR2 SZ EP       1117 28.82                             162   -0.1710 55.1   6 
 BAR2 SZ ES   1   1117 48.70                             162    0.67 7 55.1   6 
 BAR2 SZ I        1117 51.82        13.7 0.36            163           55.1   6 
 SPBC HZ EP   1   1117 31.53                             148    0.16 7  105 242 
 SPBC HN ES   1   1117 53.06                             148    0.80 7  105 242 
 SPBC HN I        1117 55.72        90.9 0.22            150            105 242 
 BRR  HZ IP       1117 32.71                             144    0.2010  124 335 
 BRR  HN ES   1   1117 54.64                             144    0.35 7  124 335 
 BRR  HN I        1117 59.81        62.9 0.16            145            124 335 
 PTB  HZ EP   1   1117 33.57                             139   -0.51 7  144 290 
 PTB  HN ES       1117 57.21                             139    0.12 9  144 290 
 PTB  HN I        1117 58.56        67.5 0.26            141            144 290 
 NOR  HZ EP   1   1117 38.59                             131    0.43 7  191 252 
 NOR  HN ES       1118  4.24                             131   -0.10 9  191 252 
 NOR  HN I        1118 10.22        65.6 0.14            133            191 252 
 ZAR  HZ EP   1   1117 42.78                             124    0.21 6  237 311 
 ZAR  HE ES       1118 11.62                             124   -0.58 8  237 311 
 ZAR  HE I        1118 13.23        98.3 0.40            127            237 311 
 HEL  HN ES       1118 15.80                             122   -0.42 8  255 272 
 HEL  HN I        1118 18.04        19.9 0.56            125            255 272 
 GUY2CHN ES   4   1118 17.92                             122    1.32 0  255 248 
 HEL  HZ EP   1   1117 45.34                             122    0.51 6  255 272 
 GUY2CHZ EP   4   1117 46.44                             122    1.40 0  255 248 
 SML  HZ EP   4   1117 50.09                             117   -0.47 0  313 343 
 SML  HN ES   4   1118 26.68                             117    0.26 0  313 343 
                                                                                
