 2011  726 1049 17.8 L   6.805 -73.053148.4  RSN  4 0.2 1.3LRSN                1
 GAP=192        0.37       3.4     8.1  4.9  0.1816E+02 -0.1839E+02 -0.7251E+01E
 Epicentro: LOS SANTOS - SANTANDER                                             3
 ACTION:UPD 12-07-25 14:03 OP:epov STATUS:               ID:20110726104917 L   I
 2011-07-26-1046-19S.COL___143                                                 6
 STAT SP IPHASW D HRMM SECON CODA AMPLIT PERI AZIMU VELO AIN AR TRES W  DIS CAZ7
 BAR2 SZ EP   1   1049 37.62                             169   -0.26 7 27.6 211 
 BAR2 SZ ES   1   1049 53.47                             169   -0.04 7 27.6 211 
 BAR2 SZ I        1049 55.87         5.2 0.20                          27.6 211 
 BRR  HZ EP   1   1049 39.77                             150   -0.02 7 80.1 295 
 BRR  HN ES   1   1049 56.95                             150    0.03 7 80.1 295 
 RUS  HZ EP   1   1049 42.13                             144    0.25 7  101 182 
 RUS  HN ES   1   1050  0.64                             144    0.00 7  101 182 
 RUS  HZ I        1050  2.13         1.3 0.14                           101 182 
 OCA  SZ EP   2   1049 46.34                             130   -0.10 5  161 350 
 OCA  SZ ES   2   1050  8.99                             130    0.23 5  161 350 
 OCA  SZ I        1050 14.41         5.6 0.48                           161 350 
                                                                                
