 2013  926 1803 28.5 L   6.743 -73.146145.9  RSN  5 0.5 1.6LRSN                1
 GAP=139        1.37       7.3     7.1 10.0 -0.4719E+01  0.8660E+01  0.2381E+01E
 Epicentro: JORDAN - SANTANDER                                                 3
 ACTION:UPD 13-10-22 09:25 OP:ep   STATUS:               ID:20130926180328 L   I
 OLDACT:REG 13-09-26 16:00 OP:stll STATUS:               ID:20130926175848     3
 2013-09-26-1758-48M.COL___234                                                 6
 STAT SP IPHASW D HRMM SECON CODA AMPLIT PERI AZIMU VELO AIN AR TRES W  DIS CAZ7
 BAR2 SZ EP       18 3 48.11                             173    0.1210 17.1 194 
 BAR2 SZ I        18 3 48.60        12.0 0.16            171           17.1 194 
 BAR2 SZ ES       18 4  2.61                             173   -0.6210 17.1 194 
 BRR  HZ EP       18 3 50.14                             151    0.3410 74.4 303 
 BRR  HN ES       18 4  7.50                             151    1.0410 74.4 303 
 PAM  SZ EP       18 3 50.96                             149   -0.0310 82.3  37 
 PAM  SN ES       18 4  8.10                             149   -0.4610 82.3  37 
 PAM  SZ I        18 4  9.89         5.5 0.44            152           82.3  37 
 RUS  HZ EP       18 3 52.12                             146    0.3410 94.3 176 
 RUS  HN ES       18 4 10.27                             146    0.3010 94.3 176 
 RUS  HZ I        18 4 14.25         3.7 0.28            145           94.3 176 
 PTB  HZ EP       18 3 54.74                             132   -0.60 9  147 261 
 PTB  HN ES       18 4 15.71                             132   -0.59 9  147 261 
 PTB  HZ I        18 4 18.44         9.6 0.14            134            147 261 
                                                                                
