 2014  626 1738 39.7 L   6.123 -73.967 18.3  RSN  6 0.4 1.4LRSN                1
 GAP= 88        1.13       2.4     2.7  6.3  0.1619E+00  0.5425E+01  0.2297E+01E
 Epicentro: CIMITARRA - SANTANDER                                              3
 ACTION:UPD 14-07-01 22:57 OP:nd   STATUS:               ID:20140626173839 L   I
 OLDACT:REG 14-06-26 22:57 OP:carl STATUS:               ID:20140626173817     3
 2014-06-26-1738-17M.COL___259                                                 6
 STAT SP IPHASW D HRMM SECON CODA AMPLIT PERI AZIMU VELO AIN AR TRES W  DIS CAZ7
 SPBC HZ EP       1738 49.18                             106    0.3510 53.4 193 
 SPBC HN ES       1738 56.11                             106    0.2010 53.4 193 
 SPBC HZ I        1738 59.74        24.9 0.30            110           53.4 193 
 PTB  HZ IP     D 1738 50.95                             102   -0.4110 71.1 310 
 PTB  HN ES       1739  0.02                             102   -0.3910 71.1 310 
 BAR2 SZ EP       1738 56.51                              99    0.4510  101  59 
 BAR2 SZ I        1739 11.17         6.8 0.42             61            101  59 
 RUS  HZ EP       1738 56.43                              99    0.1110  101 105 
 RUS  HE ES       1739  8.41                              99   -0.8410  101 105 
 RUS  HZ I        1739  9.70         7.5 0.12             61            101 105 
 BRR  HZ EP       1738 57.53                              98    0.0210  112  14 
 BRR  HN ES       1739 11.78                              98    0.4210  112  14 
 BRR  HZ I        1739 13.84        16.5 0.12             61            112  14 
 GUY2CHZ EP       1739  7.91                              56    0.55 9  184 237 
 GUY2CHE ES       1739 28.49                              56   -0.41 9  184 237 
 GUY2CHZ I        1739 33.89         3.6 0.58                           184 237 
                                                                                
