 2010  726 1902 41.6 L   6.791 -73.057140.3  RSN  7 0.3 2.2LRSN                1
 GAP=169        0.57       3.8     6.8  6.1 -0.1107E+02  0.4541E+01  0.1708E+01E
 Epicentro: LOS SANTOS - SANTANDER                                             3
 ACTION:UPD 10-12-01 15:20 OP:pat  STATUS:               ID:20100726190241 L   I
 2010-07-26-1859-22S.COL___122                                                 6
 STAT SP IPHASW D HRMM SECON CODA AMPLIT PERI AZIMU VELO AIN AR TRES W  DIS CAZ7
 BAR2 SZ IP     D 19 3  0.58                             169    -0.110   26 212 
 BAR2 SZ ES   2   19 3 15.18                             169    -0.3 5   26 212 
 BRR  HZ EP   1   19 3  2.47                             149    -0.3 7   80 296 
 BRR  HZ I        19 3  6.22        44.3 0.12                            80 296 
 BRR  HE ES   2   19 3 19.15                             149    -0.1 5   80 296 
 RUS  HZ EP   1   19 3  4.66                             143    -0.1 7   99 182 
 RUS  HZ I        19 3  5.77        13.8 0.13                            99 182 
 RUS  HE ES   2   19 3 23.27                             143     0.5 5   99 182 
 GUE  SZ EP   1   19 3  5.69                             138    -0.1 7  116   7 
 GRA  SZ EP   1   19 3  6.52                             136     0.3 7  124  13 
 GRA  SZ ES   2   19 3 25.74                             136     0.3 5  124  13 
 RREF HZ EP   1   19 3 28.87                             109     0.6 5  329 231 
 RREF HN ES   2   19 4  5.15                             109     0.4 3  329 231 
 RREF HZ I        19 4 10.00         5.3 0.36                           329 231 
 PRA  HZ EP   1   19 3 34.70                             105    -0.7 4  396 211 
 PRA  HN ES   2   19 4 17.65                             105     0.2 3  396 211 
 PRA  HZ I        19 4 24.31         5.1 0.54                           396 211 
                                                                                
