 2012 1126 1127 24.7 L   6.792 -73.151138.9  RSN 10 0.4 2.4LRSN                1
 GAP=136        0.78       3.2     3.8  5.2  0.2138E+01  0.3878E+01 -0.3452E+01E
 Epicentro: LOS SANTOS - SANTANDER                                             3
 ACTION:UPD 12-12-05 15:36 OP:}ep  STATUS:               ID:20121126112724 L   I
 2012-11-26-1120-00M.COL___233                                                 6
 STAT SP IPHASW D HRMM SECON CODA AMPLIT PERI AZIMU VELO AIN AR TRES W  DIS CAZ7
 BAR2 SZ EP       1127 43.71                             171    0.2610 22.4 189 
 BAR2 SZ ES       1127 58.09                             171   -0.0110 22.4 189 
 BAR2 SZ I        1127 59.89        83.6 0.21                          22.4 189 
 GIR2 SZ EP       1127 43.74                             166    0.1910 32.0 352 
 PAM  SZ EP       1127 46.44                             149    0.2210 78.4  39 
 PAM  SZ I        1127 46.86        66.0 0.27                          78.4  39 
 RUS  HZ EP       1127 47.60                             143   -0.0910 99.8 176 
 RUS  HN ES       1128  5.51                             143   -0.1410 99.8 176 
 RUS  HN I        1128  6.68        31.1 0.38                          99.8 176 
 PTB  HZ EP       1127 50.66                             131   -0.36 9  147 259 
 PTB  HN ES       1128 11.14                             131   -0.42 9  147 259 
 PTB  HZ I        1128 13.70        19.1 0.11                           147 259 
 ZAR  HZ EP       1127 56.58                             121   -0.07 9  204 292 
 ZAR  HE ES       1128 22.15                             121    0.55 9  204 292 
 ZAR  HZ I        1128 28.21        22.3 0.31                           204 292 
 SML  HZ EP       1128  0.19                             116   -0.79 8  244 336 
 SML  HE ES   1   1128 29.67                             116    0.37 6  244 336 
 SML  HZ I        1128 35.13        22.8 0.07                           244 336 
 CHI  HZ EP   1   1128  1.79                             116   -0.10 6  248 195 
 CHI  HZ I        1128 37.70         7.0 0.36                           248 195 
 RREF HZ EP   2   1128 11.25                             110    0.84 3  321 229 
 PRA  HZ EP       1128 18.16                             105    0.32 6  391 210 
 PRA  HN ES   1   1128 59.85                             105    0.54 4  391 210 
 PRA  HZ I        1129  5.49        10.4 0.26                           391 210 
                                                                                
