 2014  326 1331  5.3 L   7.443 -73.173131.0  RSN  9 0.4 2.0LRSN                1
 GAP=113        0.87       2.8     4.1  6.0  0.1535E+01  0.1093E+02  0.3634E+01E
 Epicentro: EL PLAYON - SANTANDER                                              3
 ACTION:UPD 14-04-09 23:20 OP:nd   STATUS:               ID:20140326133105 L   I
 OLDACT:UP  14-03-26 17:29 OP:mh   STATUS:               ID:20140326132813     3
 OLDACT:UP  14-03-26 15:55 OP:mh   STATUS:               ID:20140326132813     3
 OLDACT:UP  14-03-26 15:55 OP:mh   STATUS:               ID:20140326132813     3
 OLDACT:UP  14-03-26 15:53 OP:mh   STATUS:               ID:20140326132813     3
 OLDACT:UP  14-03-26 15:49 OP:mh   STATUS:               ID:20140326132813     3
 OLDACT:REG 14-03-26 14:56 OP:mh   STATUS:               ID:20140326132813     3
 2014-03-26-1328-13M.COL___247                                                 6
 STAT SP IPHASW D HRMM SECON CODA AMPLIT PERI AZIMU VELO AIN AR TRES W  DIS CAZ7
 PAM  SZ EP   1   1331 25.38                             157    0.80 7 53.5 102 
 PAM  SN ES       1331 39.71                             157    0.0710 53.5 102 
 PAM  SZ I        1331 42.83        15.5 0.15            161           53.5 102 
 OCA  HZ EP       1331 25.68                             144   -0.6210 89.5 350 
 OCA  HN ES       1331 42.96                             144    0.2710 89.5 350 
 OCA  HZ I        1331 45.84        18.6 0.10            148           89.5 350 
 BAR2 SZ EP       1331 26.95                             142    0.2010 94.1 181 
 BAR2 SZ ES       1331 43.24                             142   -0.2710 94.1 181 
 BAR2 SZ I        1331 44.66        59.5 0.19            143           94.1 181 
 RUS  HZ EP       1331 33.58                             124   -0.49 9  172 177 
 RUS  HN ES   2   1331 56.57                             124    0.04 4  172 177 
 RUS  HZ I        1331 59.85         4.3 0.38            126            172 177 
 PTB  HZ EP   1   1331 33.42                             124   -0.20 7  173 235 
 PTB  HN ES   1   1331 55.06                             124   -0.67 7  173 235 
 PTB  HZ I        1331 58.84        10.1 0.09            125            173 235 
 SML  HZ EP       1331 34.10                             122   -0.15 9  180 327 
 SML  HN ES   1   1331 56.52                             122   -0.33 7  180 327 
 SML  HZ I        1331 57.44        41.5 0.09            126            180 327 
 ZAR  HZ EP       1331 35.29                             121    0.38 9  186 272 
 ZAR  HN ES       1331 58.29                             121    0.27 9  186 272 
 ZAR  HZ I        1332  2.97        14.5 0.13            123            186 272 
 NOR  HZ EP       1331 45.52                             111    0.24 7  280 222 
 NOR  HE ES       1332 16.87                             111    0.39 7  280 222 
 NOR  HZ I        1332 20.86         6.4 0.30            112            280 222 
 CHI  HZ EP       1331 50.20                             108    0.19 7  317 191 
 CHI  HN ES   4   1332 26.97                             108    2.06 0  317 191 
 CHI  HZ I        1332 34.60         2.4 0.22            110            317 191 
                                                                                
