 2017 1026 1938 39.4 L   6.782 -73.126148.2  RSN  5 0.4 1.2LRSN                1
 GAP=140        0.87       4.7     6.1  7.3 -0.1318E+01 -0.1776E+01  0.6969E+00E
 Epicentro: LOS SANTOS - SANTANDER                                             3
 ACTION:UPD 17-11-07 19:37 OP:rebc STATUS:               ID:20171026193839 L   I
 OLDACT:UP  17-10-26 23:43 OP:osc  STATUS:               ID:20171026193743     3
 OLDACT:REG 17-10-26 21:54 OP:dhb  STATUS:               ID:20171026193743     3
 2017-10-26-1938-00M.COL___444                                                 6
 STAT SP IPHASW D HRMM SECON CODA AMPLIT PERI AZIMU VELO AIN AR TRES W  DIS CAZ7
 BAR2 EZ ES       1939 14.81                             171    0.0110 21.9 196 
 BAR2 EZ I        1939 16.88         5.9 0.30            170           21.9 196 
 BRR  HZ EP       1939  1.22                             152    0.2610 74.0 299 
 BRR  HN ES       1939 18.06                             152    0.2810 74.0 299 
 PAM  EZ EP       1939  1.99                             151    0.1210 77.6  37 
 PAM  EE ES       1939 19.08                             151   -0.3310 77.6  37 
 PAM  EZ I        1939 19.69         2.6 0.32            153           77.6  37 
 RUS  HZ EP       1939  3.07                             145   -0.1610 98.5 177 
 RUS  HN ES       1939 21.98                             145    0.1510 98.5 177 
 RUS  HZ I        1939 23.25         2.3 0.26            145           98.5 177 
 PTB  HN ES   2   1939 26.46                             132   -1.56 5  150 260 
                                                                                
