 2015 1226 1100 42.8 L   6.049 -73.710112.8  RSN  8 0.3 1.7LRSN                1
 GAP= 77        0.80       2.2     2.7  5.2 -0.1226E+00  0.3056E+01 -0.4044E+00E
 Epicentro: VELEZ - SANTANDER                                                  3
 ACTION:UPD 16-02-04 15:07 OP:cam  STATUS:               ID:20151226110042 L   I
 OLDACT:REG 15-12-26 19:52 OP:cara STATUS:               ID:20151226105749     3
 2015-12-26-1057-49M.COL___334                                                 6
 STAT SP IPHASW D HRMM SECON CODA AMPLIT PERI AZIMU VELO AIN AR TRES W  DIS CAZ7
 SPBC HZ EP       11 0 59.81                             150   -0.0110 59.4 222 
 SPBC HN ES       11 1 13.43                             150    0.3010 59.4 222 
 SPBC HZ I        11 1 14.56        14.0 0.22            151           59.4 222 
 RUS  HZ IP       11 1  1.12                             146   -0.0610 71.5 104 
 RUS  HN ES       11 1 15.75                             146    0.2010 71.5 104 
 RUS  HZ I        11 1 17.01         8.3 0.24            149           71.5 104 
 BAR2 EZ IP     C 11 1  1.83                             141    0.1110 83.8  44 
 BAR2 EZ ES       11 1 16.18                             141   -0.3210 83.8  44 
 BAR2 EZ I        11 1 17.32        11.2 0.14            144           83.8  44 
 PTB  HZ EP       11 1  2.47                             136   -0.1610 98.8 303 
 PTB  HE ES       11 1 17.45                             136   -0.6810 98.8 303 
 PTB  HZ I        11 1 20.33         8.2 0.30            136           98.8 303 
 BRR  HZ EP       11 1  4.39                             130    0.1610  117 360 
 BRR  HN ES       11 1 21.32                             130    0.3410  117 360 
 BRR  HZ I        11 1 24.26        11.1 0.14            132            117 360 
 NOR  HZ IP       11 1  6.76                             125    0.32 9  139 247 
 NOR  HN ES       11 1 25.15                             125    0.23 9  139 247 
 NOR  HZ I        11 1 28.79         9.9 0.40            126            139 247 
 CHI  HZ IP       11 1  8.78                             122    0.04 9  157 181 
 CHI  HN ES       11 1 28.60                             122   -0.40 9  157 181 
 CHI  HZ I        11 1 31.69         5.7 0.36            124            157 181 
 ZAR  HZ EP       11 1 12.86                             114   -0.42 9  204 322 
 ZAR  HN ES       11 1 37.44                             114    0.36 9  204 322 
 ZAR  HZ I        11 1 41.86        11.9 0.36            115            204 322 
                                                                                
