 2011 1226 1821 11.6 L   6.795 -73.154137.8  RSN 15 0.3 2.4LRSN                1
 GAP=136        0.57       2.9     3.6  5.0 -0.2056E+01  0.6377E+01  0.1933E+01E
 Epicentro: LOS SANTOS - SANTANDER                                             3
 ACTION:UPD 12-07-13 16:18 OP:ep   STATUS:               ID:20111226182111 L   I
 2011-12-26-1820-00M.COL___188                                                 6
 STAT SP IPHASW D HRMM SECON CODA AMPLIT PERI AZIMU VELO AIN AR TRES W  DIS CAZ7
 BAR2 SZ EP       1821 30.32                             170    0.0610 22.6 188 
 BAR2 SZ I        1821 30.86        50.7 0.17                          22.6 188 
 BAR2 SZ ES   2   1821 44.51                             170   -0.30 5 22.6 188 
 GIR2 SZ EP   1   1821 30.30                             166   -0.04 7 31.7 352 
 BRR  HZ EP       1821 32.08                             151    0.2110 70.7 299 
 BRR  HZ I        1821 32.43        69.9 0.10                          70.7 299 
 BRR  HE ES   2   1821 48.33                             151    0.66 5 70.7 299 
 PAM  SZ EP   1   1821 33.18                             149    0.14 7 78.4  40 
 PAM  SZ I        1821 33.35        47.4 0.13                          78.4  40 
 PAM  SE ES   2   1821 49.63                             149   -0.13 5 78.4  40 
 RUS  HZ EP   1   1821 34.37                             142   -0.17 7  100 176 
 RUS  HN ES   2   1821 52.60                             142    0.17 5  100 176 
 RUS  HZ I        1821 54.86        34.7 0.26                           100 176 
 BRI  SZ EP   1   1821 34.70                             139   -0.11 7  109  21 
 PTB  HZ EP   1   1821 36.92                             130   -0.92 7  147 259 
 PTB  HE ES   3   1821 57.93                             130   -0.38 2  147 259 
 OCA  SZ EP   1   1821 39.49                             128    0.14 7  161 353 
 OCA  SZ I        1822  6.22        18.4 0.18                           161 353 
 ZAR  HZ EP   1   1821 43.13                             121   -0.35 6  203 292 
 ZAR  HN ES   2   1822  8.36                             121    0.02 4  203 292 
 ZAR  HZ I        1822 13.93        31.3 0.27                           203 292 
 NOR  SZ EP   1   1821 46.52                             117   -0.25 6  234 234 
 NOR  SN ES   2   1822 13.71                             117   -0.49 4  234 234 
 CHI  HZ EP   1   1821 48.81                             115    0.02 6  248 195 
 CHI  HE ES   2   1822 17.71                             115   -0.08 4  248 195 
 CHI  HZ I        1822 21.43        11.5 0.41                           248 195 
 HEL  HZ EP   1   1821 51.72                             113    0.41 6  271 256 
 HEL  HE ES   2   1822 22.42                             113    0.14 4  271 256 
 HEL  HZ I        1822 28.21        12.2 0.26                           271 256 
 GUY  SZ EP   1   1821 55.67                             111    0.67 5  302 235 
 GUY  SZ I        1822 37.14        13.8 0.23                           302 235 
 RREF HZ EP   1   1821 57.35                             109    0.06 5  321 229 
 RREF HZ I        1822 42.14        10.8 0.31                           321 229 
 PRA  HZ EP   1   1822  5.06                             105    0.31 4  391 209 
 PRA  HN ES   2   1822 46.73                             105    0.53 3  391 209 
                                                                                
