 2016 1226 1418  1.1 L   6.767 -73.149153.0  RSN  7 0.4 1.8LRSN                1
 GAP=138        1.14       5.5     5.2  7.1  0.4133E+01  0.8230E+01  0.4241E+01E
 Epicentro: LOS SANTOS - SANTANDER                                             3
 ACTION:UPD 17-01-11 20:19 OP:rebc STATUS:               ID:20161226141801 L   I
 OLDACT:UP  16-12-26 21:51 OP:cog  STATUS:               ID:20161226140748d    3
 OLDACT:DUP 16-12-26 21:47 OP:cog  STATUS:               ID:20161226140748d    3
 2016-12-26-1408-00M.COL___369                                                 6
 STAT SP IPHASW D HRMM SECON CODA AMPLIT PERI AZIMU VELO AIN AR TRES W  DIS CAZ7
 BAR2 EZ EP       1418 21.48                             172   -0.0210 19.7 191 
 BAR2 EZ ES       1418 37.36                             172   -0.0810 19.7 191 
 BAR2 EZ I        1418 38.95        18.2 0.24            168           19.7 191 
 BRR  HZ EP       1418 23.68                             153    0.6010 72.7 301 
 BRR  HN ES       1418 41.25                             153    1.0010 72.7 301 
 PAM  EZ EP       1418 24.21                             151   -0.0210 80.4  38 
 PAM  EN ES       1418 41.80                             151   -0.5010 80.4  38 
 PAM  EZ I        1418 43.74        20.4 0.56            157           80.4  38 
 RUS  HZ EP       1418 25.41                             146    0.1210 97.0 176 
 RUS  HN ES       1418 43.95                             146   -0.2310 97.0 176 
 RUS  HZ I        1418 45.70         4.6 0.18            144           97.0 176 
 PTB  HZ EP       1418 28.23                             134   -0.31 9  147 260 
 PTB  HE ES       1418 49.52                             134   -0.45 9  147 260 
 PTB  HZ I        1418 56.77        15.5 0.27            133            147 260 
 ZAR  HZ EP       1418 33.74                             124   -0.35 9  205 293 
 ZAR  HN ES       1418 59.47                             124   -0.39 9  205 293 
 CHI  HZ EP       1418 39.27                             119    0.48 8  245 195 
 CHI  HN ES   4   1419 10.09                             119    1.88 0  245 195 
 CHI  HZ I        1419 16.63         2.6 0.50            119            245 195 
 GUY2CHN EP   4   1418 47.44                             114    2.69 0  299 235 
 GUY2CHE ES   4   1419 21.91                             114    3.09 0  299 235 
                                                                                
