 2010  726 1914 58.9 L   6.775 -73.058152.4  RSN  5 0.2 1.4LRSN                1
 GAP=169        0.48       3.7     8.2  6.9 -0.2729E+01 -0.1768E+02 -0.4910E+01E
 Epicentro: LOS SANTOS - SANTANDER                                             3
 ACTION:UPD 10-12-01 15:20 OP:pat  STATUS:               ID:20100726191458 L   I
 2010-07-26-1911-30S.COL___123                                                 6
 STAT SP IPHASW D HRMM SECON CODA AMPLIT PERI AZIMU VELO AIN AR TRES W  DIS CAZ7
 BAR2 SZ EP   1   1915 18.95                             170    -0.4 7   25 214 
 BAR2 SZ ES   2   1915 35.01                             170    -0.3 5   25 214 
 BAR2 SZ I        1915 37.20         9.6 0.39                            25 214 
 BRR  HZ EP   1   1915 21.16                             151    -0.1 7   81 297 
 BRR  HE ES   2   1915 39.10                             151     0.3 5   81 297 
 RUS  HZ EP   1   1915 23.38                             146     0.3 7   98 182 
 RUS  HN ES   2   1915 42.07                             146     0.1 5   98 182 
 RUS  HZ I        1915 45.03         2.3 0.65                            98 182 
 GUE  SZ EP   1   1915 24.34                             140     0.1 7  118   7 
 GRA  SZ EP   1   1915 24.75                             138     0.0 7  126  13 
 GRA  SZ ES   2   1915 45.01                             138     0.1 5  126  13 
                                                                                
