 2012 1226 1336 57.0 L   6.730 -73.175142.0  RSN  6 0.4 1.8LRSN                1
 GAP=177        0.80       6.0     5.2  6.7  0.1223E+02  0.2405E+01 -0.3898E+01E
 Epicentro: VILLANUEVA - SANTANDER                                             3
 ACTION:UPD 13-01-04 14:30 OP:ep   STATUS:               ID:20121226133657 L   I
 2012-12-26-1330-00M.COL___243                                                 6
 STAT SP IPHASW D HRMM SECON CODA AMPLIT PERI AZIMU VELO AIN AR TRES W  DIS CAZ7
 BAR2 SZ EP   1   1337 16.09                             174    0.06 7 15.2 183 
 BAR2 SZ ES   1   1337 30.59                             174   -0.29 7 15.2 183 
 BAR2 SZ I        1337 32.10        18.8 0.34                          15.2 183 
 GIR2 SZ EP       1337 16.08                             164   -0.3610 38.6 357 
 BRR  HZ IP     D 1337 17.80                             152   -0.0110 72.5 305 
 BRR  HN ES       1337 34.47                             152    0.4210 72.5 305 
 BRR  HZ I        1337 35.30        11.0 0.13                          72.5 305 
 RUS  HZ EP   1   1337 20.34                             145    0.50 7 93.2 174 
 RUS  HN ES   1   1337 37.80                             145    0.13 7 93.2 174 
 PTB  HZ EP       1337 22.74                             132   -0.50 9  143 262 
 PTB  HE ES       1337 43.68                             132   -0.04 9  143 262 
 PTB  HZ I        1337 46.11         7.2 0.10                           143 262 
 ZAR  HZ EP   1   1337 29.89                             122    0.69 6  204 294 
 ZAR  HN ES   1   1337 54.13                             122   -0.19 6  204 294 
 ZAR  HZ I        1338  1.38         8.5 0.17                           204 294 
                                                                                
