 2014  726 1026 25.7 L   6.824 -73.140139.5  RSN 17 0.5 2.4LRSN                1
 GAP=136        0.94       2.7     4.4  5.7 -0.2897E+01  0.1009E+02  0.1192E+01E
 Epicentro: LOS SANTOS - SANTANDER                                             3
 ACTION:UPD 15-03-16 20:47 OP:nd   STATUS:               ID:20140726102625 L   I
 OLDACT:UP  14-07-26 21:59 OP:mh   STATUS:               ID:20140726101819     3
 OLDACT:REG 14-07-26 20:18 OP:mh   STATUS:               ID:20140726101819     3
 2014-07-26-1018-19M.COL___260                                                 6
 STAT SP IPHASW D HRMM SECON CODA AMPLIT PERI AZIMU VELO AIN AR TRES W  DIS CAZ7
 BAR2 SZ EP       1026 44.91                             169    0.3010 26.0 190 
 BAR2 SZ ES   1   1027  0.18                             169    0.80 7 26.0 190 
 BAR2 SZ I        1027  1.69        31.7 0.11            167           26.0 190 
 PAM  SZ EP   4   1026 48.52                             150    1.44 0 74.9  40 
 PAM  SN ES       1027  3.59                             150   -0.1810 74.9  40 
 RUS  HZ EP   1   1026 49.02                             142    0.01 7  103 177 
 RUS  HN ES   1   1027  6.93                             142   -0.27 7  103 177 
 RUS  HZ I        1027  8.90        16.4 0.33            144            103 177 
 PTB  HZ EP   1   1026 51.55                             130   -0.70 7  149 258 
 PTB  HN ES       1027 12.81                             130   -0.17 9  149 258 
 PTB  HZ I        1027 16.15        26.8 0.10            129            149 258 
 OCA  HZ EP   1   1026 53.51                             129    0.25 7  158 353 
 OCA  HN ES       1027 14.73                             129   -0.05 9  158 353 
 OCA  HZ I        1027 19.72        49.0 0.28            130            158 353 
 SPBC HZ EP   1   1026 53.89                             127   -0.05 7  166 219 
 SPBC HN ES       1027 15.53                             127   -0.45 9  166 219 
 ZAR  HZ EP   1   1026 57.33                             121   -0.35 6  204 291 
 ZAR  HN ES   1   1027 23.41                             121    0.76 6  204 291 
 ZAR  HZ I        1027 30.95        20.9 0.49            121            204 291 
 NOR  HZ EP   1   1027  1.02                             117   -0.25 6  237 234 
 NOR  HN ES   1   1027 28.37                             117   -0.67 6  237 234 
 NOR  HZ I        1027 32.29        24.4 0.20            117            237 234 
 SML  HZ EP       1027  1.32                             116   -0.41 8  242 335 
 SML  HN ES       1027 29.40                             116   -0.45 8  242 335 
 SML  HZ I        1027 33.51        40.8 0.13            117            242 335 
 ROSC BZ EP       1027  4.50                             115    0.75 8  255 211 
 ROSC BN ES   4   1027 31.67                             115   -1.77 0  255 211 
 ROSC BZ I        1027 40.09        20.4 0.26            116            255 211 
 HEL  HZ EP   1   1027  6.62                             113    0.90 6  273 255 
 HEL  HN ES   1   1027 37.30                             113    0.34 6  273 255 
 HEL  HZ I        1027 43.67        14.6 0.30            114            273 255 
 URE  HZ EP   4   1027  5.17                             112   -1.24 0  283 291 
 URE  HN ES   4   1027 35.89                             112   -2.29 0  283 291 
 GUY2CHZ EP       1027  9.70                             111    0.46 7  303 234 
 GUY2CHN ES   4   1027 44.88                             111    1.67 0  303 234 
 GUY2CHZ I        1027 52.07        11.1 0.28                           303 234 
 RREF HZ EP   1   1027 12.15                             109    0.34 5  324 229 
 RREF HN ES   4   1027 49.07                             109    1.28 0  324 229 
 TOL  SZ EP   1   1027 14.36                             108    0.40 5  346 224 
 TOL  SN ES       1027 52.29                             108    0.67 6  346 224 
 PRA  HZ EP   1   1027 18.43                             105   -0.86 4  395 209 
 PRA  HN ES       1028  0.18                             105   -0.94 6  395 209 
 PRA  HZ I        1028  5.73         7.2 0.24            107            395 209 
 ORTC HZ EP     C 1027 19.74                             105    0.06 6  398 216 
 ORTC HN ES   4   1028  3.41                             105    1.60 0  398 216 
 ORTC HZ I        1028 13.08         5.2 0.56            106            398 216 
 SJC  HZ EP   4   1027 19.10                             105   -1.72 0  407 327 
 SJC  HN ES   4   1027 58.83                             105   -5.01 0  407 327 
 SJC  HZ I        1028  5.49         5.0 0.41            106            407 327 
                                                                                
