 2012  626 1443 41.6 L   6.554 -73.587108.0  RSN  5 0.4 1.7LRSN                1
 GAP=126        0.81       9.1     4.8 13.2 -0.1826E+02  0.6215E+01  0.5127E+01E
 Epicentro: EL CARMEN DE CHUCURI - SANTANDER                                   3
 ACTION:UPD 12-08-06 17:52 OP:ep   STATUS:               ID:20120626144341 L   I
 2012-06-26-1440-00M.COL___201                                                 6
 STAT SP IPHASW D HRMM SECON CODA AMPLIT PERI AZIMU VELO AIN AR TRES W  DIS CAZ7
 BAR2 SZ EP       1443 57.85                             156    0.2910 45.0  85 
 BAR2 SZ ES   2   1444 10.16                             156    0.15 5 45.0  85 
 BAR2 SZ I        1444 11.79        32.2 0.52                          45.0  85 
 BRR  HZ EP       1443 58.69                             147    0.4510 62.7 347 
 BRR  HZ I        1444 10.10        11.9 0.75                          62.7 347 
 RUS  HZ EP   2   1444  0.69                             137   -0.45 5 92.0 143 
 PTB  HZ EP       1444  0.63                             135   -0.2010 96.1 269 
 PTB  HN ES   1   1444 15.59                             135   -0.24 7 96.1 269 
 PTB  HZ I        1444 16.71         9.0 0.32                          96.1 269 
 PAM  SN ES   1   1444 22.11                             125   -0.64 7  131  48 
                                                                                
