 2013 1226 1833 20.3 L   6.803 -73.168146.1  RSN  6 0.4 1.4LRSN                1
 GAP=134        0.90       4.5     5.0  6.8 -0.4725E+01  0.2126E+01  0.6951E+01E
 Epicentro: LOS SANTOS - SANTANDER                                             3
 ACTION:UPD 14-01-13 10:21 OP:ep   STATUS:               ID:20131226183320 L   I
 OLDACT:REG 13-12-26 19:41 OP:jn   STATUS:               ID:20131226183000     3
 2013-12-26-1830-00M.COL___285                                                 6
 STAT SP IPHASW D HRMM SECON CODA AMPLIT PERI AZIMU VELO AIN AR TRES W  DIS CAZ7
 BAR2 SZ EP       1833 39.99                             170    0.0110 23.3 184 
 BAR2 SZ ES       1833 55.51                             170    0.1910 23.3 184 
 BAR2 SZ I        1833 56.64        12.0 0.26            169           23.3 184 
 BRR  HN ES   1   1833 58.54                             153    0.75 7 68.9 299 
 PAM  SZ EP       1833 43.10                             150    0.4610 78.7  41 
 PAM  SN ES       1833 59.41                             150   -0.6510 78.7  41 
 PAM  SZ I        1834  0.84         3.4 0.20            153           78.7  41 
 RUS  HZ EP       1833 44.27                             144    0.1410  101 175 
 RUS  HN ES       1834  2.72                             144    0.0210  101 175 
 RUS  HZ I        1834  4.21         1.9 0.30            144            101 175 
 PTB  HZ EP   1   1833 46.78                             133   -0.31 7  145 259 
 PTB  HN ES       1834  7.59                             133   -0.40 9  145 259 
 PTB  HZ I        1834 10.45         3.5 0.16            133            145 259 
 CHI  HZ EP   1   1833 57.81                             117   -0.18 6  248 195 
 CHI  HN ES   1   1834 27.28                             117   -0.09 6  248 195 
 CHI  HZ I        1834 29.62         1.9 0.36            118            248 195 
                                                                                
