 2012  726 1741 32.8 L   6.778 -73.154142.0  RSN 15 0.4 2.5LRSN                1
 GAP= 65        0.80       4.0     4.2  5.7 -0.2634E+00  0.2477E+01  0.6914E+01E
 Epicentro: LOS SANTOS - SANTANDER                                             3
 ACTION:UPD 12-08-14 11:45 OP:ep   STATUS:               ID:20120726174132 L   I
 2012-07-26-1740-00M.COL___215                                                 6
 STAT SP IPHASW D HRMM SECON CODA AMPLIT PERI AZIMU VELO AIN AR TRES W  DIS CAZ7
 BAR2 SZ IP       1741 51.95                             171     0.010   21 189 
 BAR2 SZ ES   1   1742  6.43                             171    -0.4 7   21 189 
 BAR2 SZ I        1742  8.37       103.8 0.20            153             21 189 
 BRR  HZ EP       1741 53.76                             152     0.210   72 301 
 BRR  HN ES   1   1742 10.53                             152     0.8 7   72 301 
 BRR  HZ I        1742 14.70        80.8 0.16            124             72 301 
 PAM  SZ EP       1741 54.79                             149     0.110   80  39 
 PAM  SZ I        1741 54.84        53.5 0.20            127             80  39 
 PAM  SN ES   1   1742 11.57                             149    -0.3 7   80  39 
 RUS  HZ EP       1741 55.89                             144    -0.110   98 175 
 RUS  HN ES   1   1742 14.08                             144     0.0 7   98 175 
 RUS  HZ I        1742 15.90        33.6 0.26            115             98 175 
 PTB  HZ EP   1   1741 58.51                             131    -0.8 7  146 260 
 PTB  HN ES   1   1742 19.65                             131    -0.4 7  146 260 
 PTB  HZ I        1742 22.84        28.2 0.38            105            146 260 
 TAM  HZ EP   3   1742  0.18                             130     0.0 2  155 104 
 TAM  HZ I        1742 23.14        20.7 0.26            106            155 104 
 OCA  HE ES   2   1742 22.78                             128    -0.3 5  163 354 
 OCA  HZ I        1742 25.01       122.8 0.22            105            163 354 
 YOP  SZ EP       1742  2.69                             126     0.3 9  177 153 
 YOP  SZ I        1742  3.35        13.0 0.22            102            177 153 
 ZAR  HZ EP   2   1742  4.95                             121     0.0 4  204 293 
 ZAR  HZ I        1742 35.72        31.5 0.24            100            204 293 
 NOR  SZ EP       1742  8.25                             118     0.2 8  233 235 
 NOR  SN ES   2   1742 36.11                             118     0.5 4  233 235 
 CHI  HZ EP   2   1742  9.51                             116    -0.5 4  246 195 
 CHI  HZ I        1742 46.48        20.3 0.48             98            246 195 
 VIL  SZ EP   1   1742 15.75                             111     0.0 5  301 192 
 DBB  SZ EP   2   1742 19.61                             109    -0.4 3  339 275 
 ANIL HZ EP   3   1742 22.40                             108     0.2 2  355 225 
 PRA  HZ EP   3   1742 25.80                             106    -0.1 1  389 210 
 PRA  HZ I        1743 14.36        18.0 0.50             94            389 210 
