 2017 1026 1804 20.4 L   6.817 -73.211145.1  RSN  5 0.2 1.4LRSN                1
 GAP=171        0.62       3.8     5.3  6.2 -0.1325E+02  0.1297E+02 -0.1057E+01E
 Epicentro: ZAPATOCA - SANTANDER                                               3
 ACTION:UPD 17-11-07 19:37 OP:rebc STATUS:               ID:20171026180420 L   I
 OLDACT:REG 17-10-26 21:47 OP:dhb  STATUS:               ID:20171026175740     3
 2017-10-26-1758-00M.COL___453                                                 6
 STAT SP IPHASW D HRMM SECON CODA AMPLIT PERI AZIMU VELO AIN AR TRES W  DIS CAZ7
 PAM  EZ EP       18 4 42.71                             150   -0.0210 80.9  44 
 PAM  EN ES       18 5  0.07                             150   -0.0910 80.9  44 
 RUS  HZ EP       18 4 43.97                             143   -0.2710  103 172 
 RUS  HN ES       18 5  3.12                             143    0.2610  103 172 
 RUS  HZ I        18 5  3.66         3.6 0.30            143            103 172 
 SPBC HZ EP       18 4 48.99                             129    0.46 9  160 217 
 SPBC HE ES       18 5 10.45                             129   -0.05 9  160 217 
 SPBC HZ I        18 5 16.61         5.4 0.16            130            160 217 
 CHI  HZ EP       18 4 58.18                             117    0.15 8  249 193 
 CHI  HN ES       18 5 27.04                             117   -0.36 8  249 193 
 CHI  HZ I        18 5 33.04         1.2 0.24            118            249 193 
 GUY2CHE ES       18 5 36.81                             113   -0.16 7  296 234 
                                                                                
