 2016  426 1352  0.0 L   6.801 -73.170142.0  RSN  8 0.3 1.7LRSN                1
 GAP=133        0.81       3.6     3.4  5.5 -0.3304E+01  0.7453E+01  0.9260E+00E
 Epicentro: LOS SANTOS - SANTANDER                                             3
 ACTION:UPD 16-05-05 14:24 OP:rebc STATUS:               ID:20160426135200 L   I
 OLDACT:REG 16-04-26 19:28 OP:cara STATUS:               ID:20160426134743     3
 2016-04-26-1347-43M.COL___316                                                 6
 STAT SP IPHASW D HRMM SECON CODA AMPLIT PERI AZIMU VELO AIN AR TRES W  DIS CAZ7
 BAR2 EZ EP       1352 19.09                             170   -0.1310 23.2 183 
 BAR2 EZ ES       1352 34.49                             170    0.3110 23.2 183 
 BAR2 EZ I        1352 35.31        11.8 0.16            170           23.2 183 
 PAM  EZ IP       1352 21.92                             150   -0.0410 79.0  41 
 PAM  EN ES       1352 39.11                             150    0.0610 79.0  41 
 PAM  EZ I        1352 40.24         5.6 0.70            153           79.0  41 
 RUS  HZ EP       1352 22.94                             143   -0.5210  101 175 
 RUS  HN ES       1352 41.99                             143    0.2810  101 175 
 RUS  HZ I        1352 42.74         6.9 0.36            146            101 175 
 PTB  HZ EP       1352 26.05                             132   -0.42 9  145 259 
 PTB  HN ES       1352 46.64                             132   -0.45 9  145 259 
 PTB  HZ I        1352 48.24         6.8 0.54            132            145 259 
 SPBC HZ EP       1352 28.03                             129   -0.08 9  162 218 
 SPBC HN ES       1352 50.02                             129    0.02 9  162 218 
 SPBC HZ I        1352 57.02        11.4 0.40            130            162 218 
 ZAR  HN ES       1352 57.28                             122    0.38 9  202 292 
 ZAR  HZ I        1353  5.44         7.3 0.44            122            202 292 
 NOR  HZ IP       1352 35.72                             118    0.38 8  233 234 
 NOR  HN ES       1353  2.61                             118   -0.25 8  233 234 
 NOR  HZ I        1353  7.88         5.2 0.34            119            233 234 
 GUY2CHZ EP       1352 43.91                             112    0.66 7  299 234 
 GUY2CHN ES       1353 17.23                             112    0.29 7  299 234 
 GUY2CHZ I        1353 28.14         2.5 0.38                           299 234 
                                                                                
