 2012 1126 1534 14.3 L   6.616 -73.752 89.7  RSN  6 0.3 2.1LRSN                1
 GAP=119        0.60       4.2     2.1  5.4  0.1475E+01  0.2335E+01 -0.3838E+01E
 Epicentro: EL CARMEN DE CHUCURI - SANTANDER                                   3
 ACTION:UPD 12-12-05 15:36 OP:}ep  STATUS:               ID:20121126153414 L   I
 2012-11-26-1530-00M.COL___234                                                 6
 STAT SP IPHASW D HRMM SECON CODA AMPLIT PERI AZIMU VELO AIN AR TRES W  DIS CAZ7
 BAR2 SZ IP       1534 29.54                             142    0.0910 63.0  92 
 BAR2 SZ ES       1534 41.47                             142    0.2010 63.0  92 
 BAR2 SZ I        1534 43.59       120.5 0.19                          63.0  92 
 PTB  HZ IP     D 1534 30.16                             135   -0.2310 78.4 264 
 PTB  HE ES       1534 42.71                             135   -0.2410 78.4 264 
 PTB  HZ I        1534 43.54        20.3 0.07                          78.4 264 
 GIR2 SZ EP       1534 30.55                             135   -0.1710 80.2  50 
 RUS  HZ EP       1534 33.69                             126   -0.2110  109 137 
 RUS  HE ES   1   1534 49.36                             126    0.17 7  109 137 
 RUS  HE I        1534 51.51        18.2 0.16                           109 137 
 ZAR  HZ EP       1534 38.49                             115    0.19 9  156 308 
 ZAR  HZ I        1535  1.85        26.2 0.49                           156 308 
 HEL  HZ EP   1   1534 44.35                             109    0.32 6  202 257 
 HEL  HE ES   2   1535  8.07                             109    0.85 4  202 257 
 HEL  HZ I        1535 12.66        12.8 0.43                           202 257 
                                                                                
