 2013  826 1907  4.3 L   6.799 -73.129146.0  RSN 15 0.4 2.2LRSN                1
 GAP=139        0.82       2.5     3.6  4.4 -0.8704E+00  0.5738E+01  0.3818E+00E
 Epicentro: LOS SANTOS - SANTANDER                                             3
 ACTION:UPD 14-01-14 09:07 OP:ep   STATUS:               ID:20130826190704 L   I
 OLDACT:REG 13-08-26 17:04 OP:nd   STATUS:               ID:20130826185959     3
 2013-08-26-1859-59M.COL___270                                                 6
 STAT SP IPHASW D HRMM SECON CODA AMPLIT PERI AZIMU VELO AIN AR TRES W  DIS CAZ7
 BAR2 SZ IP     C 19 7 23.96                             170   -0.0310 23.6 194 
 BAR2 SZ ES       19 7 39.34                             170    0.0210 23.6 194 
 BAR2 SZ I        19 7 40.80        19.4 0.24            167           23.6 194 
 BRR  HZ EP     D 19 7 25.72                             152    0.1310 72.9 298 
 BRR  HN ES       19 7 42.48                             152    0.3010 72.9 298 
 BRR  HZ I        19 7 48.17        19.1 0.14            149           72.9 298 
 PAM  SZ EP       19 7 26.69                             151    0.1910 76.3  38 
 PAM  SN ES       19 7 43.96                             151    0.1610 76.3  38 
 PAM  SZ I        19 7 46.15        20.7 0.52            157           76.3  38 
 RUS  HZ IP     D 19 7 27.76                             144   -0.3210  100 177 
 RUS  HN ES       19 7 46.55                             144   -0.0610  100 177 
 RUS  HZ I        19 7 49.48         8.1 0.34            146            100 177 
 PTB  HZ EP       19 7 30.71                             132   -0.76 9  150 259 
 PTB  HN ES   2   19 7 52.07                             132   -0.57 5  150 259 
 PTB  HZ I        19 7 57.94        25.3 0.40            131            150 259 
 SPBC HZ EP       19 7 32.89                             129   -0.05 9  164 220 
 SPBC HN ES       19 7 55.06                             129   -0.20 9  164 220 
 SPBC HZ I        19 8  1.99        30.0 0.24            130            164 220 
 ZAR  HZ EP       19 7 36.59                             122   -0.37 8  206 292 
 ZAR  HN ES       19 8  2.62                             122    0.20 8  206 292 
 ZAR  HZ I        19 8  8.49        22.7 0.58            123            206 292 
 NOR  HZ IP     D 19 7 40.11                             118   -0.11 8  236 235 
 NOR  HN ES       19 8  8.33                             118    0.12 8  236 235 
 NOR  HZ I        19 8 11.78        10.2 0.20            119            236 235 
 SML  HZ EP       19 7 40.66                             118   -0.40 8  245 335 
 SML  HN ES       19 8  9.88                             118    0.17 8  245 335 
 SML  HZ I        19 8 13.74        21.0 0.08            120            245 335 
 CHI  HZ EP   4   19 7 41.99                             117   -0.08 0  249 196 
 CHI  HN ES   4   19 8 12.89                             117    1.37 0  249 196 
 CHI  HZ I        19 8 15.40         5.7 0.38            119            249 196 
 URE  HZ EP   4   19 7 44.47                             114   -1.13 0  286 292 
 URE  HN ES   4   19 8 17.02                             114   -0.77 0  286 292 
 URE  HZ I        19 8 24.78         8.3 0.28            115            286 292 
 GUY2CHZ EP       19 7 48.85                             112    0.75 7  303 235 
 GUY2CHN ES   4   19 8 26.93                             112    4.68 0  303 235 
 GUY2CHZ I        19 8 31.21         9.5 0.60                           303 235 
 RREF HZ EP   4   19 7 51.83                             111    1.21 0  323 230 
 RREF HN ES   4   19 8 29.48                             111    2.74 0  323 230 
 RREF HZ I        19 8 33.75         8.7 0.28            112            323 230 
 PRA  HZ EP       19 7 58.28                             107    0.34 6  393 210 
 PRA  HN ES       19 8 40.83                             107    1.06 6  393 210 
 PRA  HZ I        19 8 45.43         7.8 0.52            108            393 210 
 SJC  HZ EP   4   19 7 57.92                             106   -2.10 0  410 327 
 SJC  HN ES   4   19 8 38.52                             106   -4.94 0  410 327 
 SJC  HZ I        19 8 46.22         1.6 0.50            108            410 327 
                                                                                
