 2011  126 1348 47.6 L   6.774 -73.111148.0  RSN  5 0.3 1.9LRSN                1
 GAP=163        0.87       5.8    24.6  8.4 -0.6945E+02 -0.3470E+02 -0.3028E+01E
 Epicentro: LOS SANTOS - SANTANDER                                             3
 ACTION:UP  11-02-08 08:42 OP:pat  STATUS:               ID:20110126134847 L   I
 2011-01-26-1345-57S.COL___138                                                 6
 STAT SP IPHASW D HRMM SECON CODA AMPLIT PERI AZIMU VELO SNR AR TRES W  DIS CAZ7
 BAR2 SZ EP       1349  7.66                             171     0.210   22 202 
 BAR2 SZ ES   1   1349 22.94                             171     0.0 7   22 202 
 BAR2 SZ I        1349 24.21        33.0 0.14                            22 202 
 BTL  SZ IP       1349  6.89                             171    -0.610   24 313 
 GIR2 SZ EP       1349  7.74                             166     0.110   35 345 
 GIR2 SZ ES   1   1349 23.73                             166     0.5 7   35 345 
 RUS  HZ EP   1   1349 11.52                             145     0.2 7   98 178 
 RUS  HN ES   1   1349 29.75                             145    -0.1 7   98 178 
 RUS  HZ I        1349 31.58        10.9 0.50                            98 178 
 GRA  SZ EP       1349 13.47                             137     0.310  127  15 
 GRA  SZ ES   1   1349 32.80                             137    -0.3 7  127  15 
 GRA  SZ I        1349 34.21         5.8 0.21                           127  15 
                                                                                
