 2013  526 1030 49.6 L   6.717 -73.196146.5  RSN  6 0.5 1.7LRSN                1
 GAP=134        1.41       6.5     7.3 10.1 -0.8095E+01 -0.2351E+01 -0.6651E+01E
 Epicentro: VILLANUEVA - SANTANDER                                             3
 ACTION:UPD 13-06-20 09:53 OP:ep   STATUS:               ID:20130526103049 L   I
 2013-05-26-1028-51M.COL___209                                                 6
 STAT SP IPHASW D HRMM SECON CODA AMPLIT PERI AZIMU VELO AIN AR TRES W  DIS CAZ7
 BAR2 SZ EP       1031  8.97                             174   -0.2010 13.8 174 
 BAR2 SZ ES       1031 23.46                             174   -0.9810 13.8 174 
 BAR2 SZ I        1031 25.29         7.5 0.20            176           13.8 174 
 BRR  HZ EP       1031 10.78                             152   -0.0710 71.5 307 
 BRR  HN ES       1031 27.55                             152    0.1210 71.5 307 
 BRR  HE I        1031 31.34        16.1 0.16            152           71.5 307 
 PAM  SZ EP       1031 11.67                             148   -0.8910 88.0  39 
 RUS  HZ EP       1031 13.15                             146    0.3210 92.0 172 
 RUS  HN ES       1031 31.60                             146    0.6510 92.0 172 
 BRI  SZ EP       1031 14.77                             139    0.3810  119  22 
 BRI  SZ ES       1031 34.46                             139    0.7310  119  22 
 PTB  HZ EP       1031 15.78                             134   -0.23 9  141 262 
 PTB  HN ES       1031 36.85                             134    0.24 9  141 262 
                                                                                
