 2012  226 1048 45.1 L   6.753 -73.144143.1  RSN  6 0.4 1.6LRSN                1
 GAP=139        0.75       4.9     4.9  6.3 -0.4033E+01  0.1727E+01  0.2177E+01E
 ACTION:UP  12-03-07 16:34 OP:epov STATUS:               ID:20120226104845 L   I
 2012-02-26-1046-59S.COL___195                                                 6
 STAT SP IPHASW D HRMM SECON CODA AMPLIT PERI AZIMU VELO AIN AR TRES W  DIS CAZ7
 BAR2 SZ EP   1   1049  4.44                             172    0.12 7 18.3 193 
 BAR2 SZ ES   1   1049 18.57                             172   -0.74 7 18.3 193 
 BAR2 SZ I        1049 20.22         9.4 0.22                          18.3 193 
 GIR2 SZ EP   1   1049  4.47                             165   -0.14 7 36.4 351 
 GIR2 SZ ES   1   1049 20.01                             165    0.19 7 36.4 351 
 BRR  HZ EP   1   1049  6.21                             151    0.08 7 73.9 302 
 BRR  HZ I        1049  8.83        11.8 0.10                          73.9 302 
 BRR  HN ES   1   1049 23.23                             151    0.71 7 73.9 302 
 PAM  SZ EP       1049  7.30                             149    0.0210 81.3  37 
 PAM  SZ I        1049  7.46         7.4 0.14                          81.3  37 
 PAM  SE ES   1   1049 24.33                             149   -0.25 7 81.3  37 
 RUS  HZ EP   1   1049  8.48                             145    0.26 7 95.4 176 
 RUS  HN ES   1   1049 26.59                             145    0.34 7 95.4 176 
 RUS  HZ I        1049 28.63         4.5 0.43                          95.4 176 
 PTB  HZ EP   1   1049 11.40                             131   -0.39 7  147 261 
 PTB  HN ES   1   1049 32.29                             131   -0.31 7  147 261 
                                                                                
