 2016  526 1037 34.7 L   6.800 -73.319130.1  RSN  9 0.4 1.9LRSN                1
 GAP= 54        0.99       3.1     3.1  5.6 -0.2204E+01  0.1081E+01  0.1176E+01E
 Epicentro: ZAPATOCA - SANTANDER                                               3
 ACTION:UPD 16-08-18 17:49 OP:cam  STATUS:               ID:20160526103734 L   I
 OLDACT:UP  16-05-26 21:38 OP:ar   STATUS:               ID:20160526102744     3
 OLDACT:REG 16-05-26 20:36 OP:ar   STATUS:               ID:20160526102744     3
 2016-05-26-1027-44M.COL___307                                                 6
 STAT SP IPHASW D HRMM SECON CODA AMPLIT PERI AZIMU VELO AIN AR TRES W  DIS CAZ7
 BAR2 EZ EP       1037 52.41                             167   -0.1710 27.5 147 
 BAR2 EZ ES       1038  5.78                             167   -0.7210 27.5 147 
 BAR2 EZ I        1038  7.11        26.4 0.20            168           27.5 147 
 BRR  HZ EP       1037 53.54                             156    0.2410 55.1 308 
 BRR  HN ES       1038  8.26                             156    0.4810 55.1 308 
 BRR  HZ I        1038  8.81        25.0 0.28            155           55.1 308 
 PAM  EZ EP       1037 56.55                             143    0.3210 90.8  49 
 PAM  EN ES       1038 13.63                             143    0.6310 90.8  49 
 PAM  EZ I        1038 15.06        10.2 0.36            145           90.8  49 
 RUS  HZ EP       1037 56.78                             139   -0.4410  104 165 
 RUS  HN ES       1038 14.67                             139   -0.0910  104 165 
 RUS  HZ I        1038 15.20         4.9 0.20            140            104 165 
 PTB  HZ EP       1037 58.20                             132   -0.5210  129 257 
 PTB  HN ES       1038 17.16                             132   -0.2710  129 257 
 PTB  HZ I        1038 22.85        18.2 0.40            132            129 257 
 SPBC HZ EP       1038  1.24                             127    0.28 9  152 213 
 SPBC HN ES       1038 21.80                             127    0.38 9  152 213 
 SPBC HZ I        1038 27.42         9.6 0.22            127            152 213 
 OCA  HZ EP       1038  1.52                             126   -0.24 9  159 360 
 OCA  HN ES       1038 22.39                             126   -0.45 9  159 360 
 OCA  HZ I        1038 27.18        25.9 0.14            127            159 360 
 TAM  HZ EP       1038  3.14                             123    0.07 9  174 103 
 TAM  HE ES       1038 25.20                             123    0.02 9  174 103 
 TAM  HZ I        1038 29.44        12.5 0.48            125            174 103 
 NOR  HZ EP       1038  8.16                             117    0.24 8  219 232 
 NOR  HN ES       1038 34.13                             117    0.33 8  219 232 
 NOR  HZ I        1038 39.27         6.7 0.20            117            219 232 
                                                                                
