 2013  926 1508 56.4 L   6.783 -73.180145.2  RSN  6 0.4 1.6LRSN                1
 GAP=133        0.96       4.1     4.9  6.4 -0.2093E+01  0.3226E+01  0.6983E+01E
 Epicentro: LOS SANTOS - SANTANDER                                             3
 OLDACT:DUP 13-09-26 19:26 OP:stll STATUS:               ID:20130926145849d    3
 ACTION:UPD 13-10-22 09:25 OP:ep   STATUS:               ID:20130926150856 L   I
 OLDACT:UP  13-09-26 19:34 OP:stll STATUS:               ID:20130926145849d    3
 2013-09-26-1458-48M.COL___229                                                 6
 STAT SP IPHASW D HRMM SECON CODA AMPLIT PERI AZIMU VELO AIN AR TRES W  DIS CAZ7
 BAR2 SZ EP       15 9 15.73                             171   -0.2310 21.1 181 
 BAR2 SZ ES       15 9 31.47                             171    0.2810 21.1 181 
 BAR2 SZ I        15 9 32.34         9.1 0.26            171           21.1 181 
 BRR  HZ EP       15 9 17.75                             153    0.3510 68.8 301 
 BRR  HN ES       15 9 34.34                             153    0.6010 68.8 301 
 BRR  SZ I        15 9 35.30        14.4 0.48            152           68.8 301 
 PAM  SZ EP       15 9 18.83                             149   -0.0110 81.3  41 
 PAM  SN ES       15 9 35.97                             149   -0.3310 81.3  41 
 PAM  SZ I        15 9 38.02         5.0 0.68            153           81.3  41 
 RUS  HZ EP       15 9 19.93                             144   -0.1010 99.1 174 
 RUS  HN ES       15 9 38.17                             144   -0.2610 99.1 174 
 RUS  HZ I        15 9 40.56         4.7 0.28            146           99.1 174 
 PTB  HZ EP       15 9 22.93                             133   -0.06 9  144 259 
 PTB  HN ES       15 9 42.92                             133   -0.78 9  144 259 
 PTB  SZ I        15 9 50.83         5.3 0.34            132            144 259 
 CHI  HZ EP       15 9 34.06                             117    0.25 8  246 194 
 CHI  HZ I        15 9 34.56         2.0 0.20            119            246 194 
 CHI  HN ES       1510  3.38                             117    0.43 8  246 194 
                                                                                
