 2012  126 1353 49.6 L   6.683 -73.229154.1  RSN  5 0.4 1.6LRSN                1
 GAP=147        1.04      10.8    10.3 10.4  0.3321E+02  0.1285E+02  0.4933E+01E
 Epicentro: BARICHARA - SANTANDER                                              3
 ACTION:UP  12-02-03 08:21 OP:REBC STATUS:               ID:20120126135349 L   I
 2012-01-26-1350-00M.COL___188                                                 6
 STAT SP IPHASW D HRMM SECON CODA AMPLIT PERI AZIMU VELO SNR AR TRES W  DIS CAZ7
 BAR2 SZ EP       1354  9.99                             176     0.010   11 153 
 BAR2 SZ ES   1   1354 25.47                             176    -0.5 7   11 153 
 BAR2 SZ I        1354 28.14         9.9 0.46                            11 153 
 GIR2 SZ EP       1354 10.32                             163    -0.310   44   5 
 BRR  HZ EP       1354 12.10                             154     0.510   71 311 
 BRR  HZ I        1354 21.59        12.7 0.32                            71 311 
 BRR  HE ES   1   1354 29.17                             154     0.4 7   71 311 
 RUS  HZ EP   1   1354 13.88                             149     0.5 7   89 170 
 RUS  HN ES   2   1354 32.25                             149     0.3 5   89 170 
 RUS  HZ I        1354 33.89         3.7 0.18                            89 170 
 PTB  HZ EP       1354 15.76                             136    -0.5 9  137 263 
 PTB  HN ES   2   1354 37.16                             136     0.1 5  137 263 
 PTB  HZ I        1354 40.15         3.4 0.18                           137 263 
                                                                                
