 2013  426 1810 54.9 L   6.816 -73.146147.7  RSN 14 0.4 2.3LRSN                1
 GAP=136        0.84       2.9     3.9  4.2 -0.6550E+00  0.5609E+01 -0.4220E+00E
 Epicentro: LOS SANTOS - SANTANDER                                             3
 ACTION:UPD 13-05-22 14:41 OP:EP   STATUS:               ID:20130426181054 L   I
 2013-04-26-1810-00M.COL___249                                                 6
 STAT SP IPHASW D HRMM SECON CODA AMPLIT PERI AZIMU VELO AIN AR TRES W  DIS CAZ7
 BAR2 SZ IP     C 1811 14.72                             170   -0.0310 25.0 189 
 BAR2 SZ ES       1811 30.05                             170   -0.2210 25.0 189 
 BAR2 SZ I        1811 31.49        26.3 0.36            168           25.0 189 
 GIR2 SZ EP       1811 14.87                             168    0.1610 29.5 350 
 GIR2 SZ ES   1   1811 29.94                             168   -0.25 7 29.5 350 
 GIR2 SZ I        1811 32.19        25.6 0.14            163           29.5 350 
 BRR  HZ EP       1811 16.47                             153    0.3110 70.3 297 
 BRR  HN ES       1811 33.30                             153    0.5210 70.3 297 
 BRR  HZ I        1811 36.98        29.1 0.14            148           70.3 297 
 PAM  SZ IP     D 1811 17.65                             152    0.4510 76.1  40 
 PAM  SN ES   1   1811 34.26                             152   -0.36 7 76.1  40 
 PAM  SZ I        1811 36.94        30.9 0.54            156           76.1  40 
 RUS  HZ IP     D 1811 18.54                             144   -0.3810  102 176 
 RUS  HN ES       1811 37.81                             144    0.1210  102 176 
 RUS  HZ I        1811 38.36        12.4 0.30            148            102 176 
 PTB  HZ EP     C 1811 21.77                             132   -0.23 9  148 258 
 PTB  HN ES   1   1811 42.71                             132   -0.47 7  148 258 
 PTB  HZ I        1811 50.02        42.8 0.30            131            148 258 
 OCA  HZ EP       1811 23.01                             130   -0.14 9  159 353 
 OCA  HN ES   2   1811 45.13                             130   -0.09 5  159 353 
 OCA  HZ I        1811 52.18        18.8 0.50            131            159 353 
 ZAR  HZ EP       1811 27.43                             123    0.08 9  203 292 
 ZAR  HN ES   1   1811 53.17                             123    0.47 6  203 292 
 ZAR  HZ I        1812  1.70        19.0 0.24            122            203 292 
 NOR  HZ EP       1811 30.59                             119   -0.21 8  236 234 
 NOR  HN ES   1   1811 58.94                             119    0.10 6  236 234 
 NOR  HZ I        1812  2.45        18.7 0.20            120            236 234 
 SML  HZ EP       1811 31.23                             118   -0.18 8  242 335 
 SML  HN ES   1   1811 59.60                             118   -0.33 6  242 335 
 SML  HZ I        1812  2.92        27.9 0.28            119            242 335 
 URE  HZ EP       1811 35.22                             114   -0.72 7  283 292 
 URE  HN ES   4   1812  7.77                             114   -0.22 0  283 292 
 URE  HZ I        1812 15.43        13.0 0.22            114            283 292 
 GUY  HZ EP       1811 39.70                             112    0.78 7  304 235 
 GUY  HN ES   4   1812 16.09                             112    2.79 0  304 235 
 GUY  HZ I        1812 19.71         9.6 0.30            114            304 235 
 PRA  HZ EP       1811 49.35                             107    0.73 6  394 209 
 PRA  HN ES   1   1812 29.58                             107   -0.97 4  394 209 
 PRA  HZ I        1812 34.18         8.0 0.58            109            394 209 
 SJC  HZ IP   4 D 1811 48.96                             106   -1.34 0  408 327 
 SJC  HN ES   4   1812 29.51                             106   -4.05 0  408 327 
 SJC  HZ I        1812 34.67         4.6 0.62            107            408 327 
                                                                                
