 2013  326 1320 59.7 L   6.772 -73.152151.0  RSN  5 0.4 2.2LRSN                1
 GAP=235        1.03       6.0     7.7  8.5  0.1707E+02 -0.1934E+00  0.1080E+02E
 Epicentro: LOS SANTOS - SANTANDER                                             3
 ACTION:UPD 13-04-09 14:05 OP:ep   STATUS:               ID:20130326132059 L   I
 2013-03-26-1320-00M.COL___244                                                 6
 STAT SP IPHASW D HRMM SECON CODA AMPLIT PERI AZIMU VELO AIN AR TRES W  DIS CAZ7
 BAR2 SZ EP       1321 19.67                             172   -0.2510 20.2 190 
 BAR2 SZ ES   2   1321 35.01                             172   -0.67 5 20.2 190 
 BRR  HZ EP       1321 21.81                             154    0.3210 72.1 301 
 BRR  HE ES       1321 39.07                             154    0.6010 72.1 301 
 BRR  HE I        1321 39.42        50.9 0.32            151           72.1 301 
 RUS  HZ EP       1321 23.52                             146   -0.2610 97.6 176 
 RUS  HN ES       1321 42.62                             146    0.0810 97.6 176 
 RUS  HN I        1321 43.75        26.8 0.42            145           97.6 176 
 PTB  HZ EP       1321 26.37                             134   -0.64 9  147 260 
 PTB  HN ES       1321 47.90                             134   -0.40 9  147 260 
 PTB  HN I        1321 52.62        22.5 0.34            132            147 260 
 CHI  HZ EP       1321 37.85                             119    0.47 8  245 195 
 CHI  HN ES       1322  7.20                             119    0.45 8  245 195 
 CHI  HN I        1322  9.09         7.5 0.56            119            245 195 
                                                                                
