 2016  726 1708 43.0 L   6.740 -73.133146.1  RSN  5 0.4 1.5LRSN                1
 GAP=234        0.89       5.3     6.1  7.3  0.5340E+01  0.7569E+01  0.3349E+01E
 Epicentro: LOS SANTOS - SANTANDER                                             3
 ACTION:UPD 17-03-29 16:55 OP:lp   STATUS:               ID:20160726170843 L   I
 OLDACT:REG 16-07-26 20:36 OP:ar   STATUS:               ID:20160726165746     3
 2016-07-26-1657-46M.COL___328                                                 6
 STAT SP IPHASW D HRMM SECON CODA AMPLIT PERI AZIMU VELO AIN AR TRES W  DIS CAZ7
 BAR2 EZ EP       17 9  2.77                             173    0.1710 17.3 199 
 BAR2 EZ ES       17 9 17.75                             173   -0.1110 17.3 199 
 BAR2 EZ I        17 9 20.17         6.8 0.22            170           17.3 199 
 BRR  HZ EP       17 9  4.10                             151   -0.3910 75.8 302 
 BRR  HE ES       17 9 21.74                             151    0.5210 75.8 302 
 RUS  HZ EP   2   17 9  6.27                             146   -0.08 5 93.9 177 
 RUS  HN ES       17 9 24.26                             146   -0.2810 93.9 177 
 RUS  HZ I        17 9 27.13         4.1 0.44            145           93.9 177 
 PTB  HZ EP   2   17 9  9.63                             132   -0.43 5  148 261 
 PTB  HN ES       17 9 30.62                             132   -0.52 9  148 261 
 PTB  HZ I        17 9 32.44         3.4 0.18            133            148 261 
 SPBC HZ EP       17 9 11.66                             130    0.49 9  159 221 
 SPBC HN ES       17 9 33.41                             130    0.29 9  159 221 
 SPBC HZ I        17 9 36.43         9.1 0.05            130            159 221 
                                                                                
