 2012  126 1256 43.9 L   6.775 -73.143147.4  RSN  8 0.3 1.8LRSN                1
 GAP=138        0.74       4.4     5.5  6.0 -0.4765E+00  0.6186E+01  0.7127E+01E
 Epicentro: LOS SANTOS - SANTANDER                                             3
 ACTION:UP  12-02-03 08:21 OP:REBC STATUS:               ID:20120126125643 L   I
 2012-01-26-1250-00M.COL___188                                                 6
 STAT SP IPHASW D HRMM SECON CODA AMPLIT PERI AZIMU VELO SNR AR TRES W  DIS CAZ7
 BAR2 SZ EP       1257  3.65                             172     0.010   21 192 
 BAR2 SZ ES   2   1257 18.99                             172    -0.1 5   21 192 
 BAR2 SZ I        1257 21.45        18.3 0.42                            21 192 
 GIR2 SZ EP       1257  3.80                             166    -0.110   34 351 
 GIR2 SZ ES   1   1257 19.08                             166    -0.3 7   34 351 
 BRR  HZ EP       1257  5.60                             152     0.310   73 300 
 BRR  HZ I        1257  6.21        17.3 0.32                            73 300 
 BRR  HE ES   1   1257 22.71                             152     0.7 7   73 300 
 PAM  SZ EP       1257  6.55                             150     0.110   79  38 
 PAM  SN ES   1   1257 23.68                             150    -0.3 7   79  38 
 RUS  HZ EP       1257  7.89                             145     0.310   98 176 
 RUS  HN ES   1   1257 25.94                             145    -0.2 7   98 176 
 RUS  HZ I        1257 27.12         4.7 0.60                            98 176 
 PTB  HZ EP       1257 10.55                             132    -0.4 9  148 260 
 PTB  HN ES   3   1257 31.52                             132    -0.6 2  148 260 
 PTB  HZ I        1257 37.45         8.2 0.28                           148 260 
 ZAR  HZ EP   3   1257 15.70                             122    -0.9 2  205 293 
 ZAR  HN ES   3   1257 41.44                             122    -0.7 2  205 293 
 ZAR  HZ I        1257 47.96         6.3 0.56                           205 293 
 CHI  HZ EP   1   1257 21.64                             118     0.2 6  246 195 
 CHI  HZ I        1257 22.47         2.9 0.48                           246 195 
 CHI  HE ES   3   1257 51.00                             118     0.3 2  246 195 
                                                                                
