 2012  926 1315  7.3 L   6.730 -73.139140.1  RSN  6 0.4 2.3LRSN                1
 GAP=162        0.83       8.6     4.8  7.0 -0.7205E+01  0.5196E+01 -0.1239E+01E
 Epicentro: JORDAN - SANTANDER                                                 3
 ACTION:UPD 12-10-22 14:20 OP:ep   STATUS:               ID:20120926131507 L   I
 2012-09-26-1309-49M.COL___211                                                 6
 STAT SP IPHASW D HRMM SECON CODA AMPLIT PERI AZIMU VELO AIN AR TRES W  DIS CAZ7
 BAR2 SZ EP       1315 26.23                             173    0.1310 16.0 198 
 BAR2 SZ ES   1   1315 41.14                             173    0.36 7 16.0 198 
 GIR2 SZ EP       1315 26.39                             164   -0.1310 39.0 351 
 GIR2 SZ ES   1   1315 41.01                             164   -0.52 7 39.0 351 
 BRR  HZ EP       1315 28.37                             150    0.2810 75.8 303 
 BRR  HN ES   1   1315 45.05                             150    0.72 7 75.8 303 
 BRR  HN I        1315 45.77        66.0 0.18                          75.8 303 
 PAM  SZ EP       1315 29.16                             148   -0.0910 83.0  36 
 PAM  SN ES   1   1315 46.14                             148   -0.25 7 83.0  36 
 PAM  SN I        1315 47.34        21.2 0.38                          83.0  36 
 PTB  HN ES   1   1315 53.53                             131   -0.85 7  147 262 
 PTB  HN I        1315 56.51        29.0 0.24                           147 262 
 ZAR  HZ EP   1   1315 39.81                             121    0.06 6  208 294 
 ZAR  HN ES   1   1316  5.15                             121    0.07 6  208 294 
 ZAR  HN I        1316  6.50        17.3 0.10                           208 294 
                                                                                
