 2010  726 1431 53.7 L   6.784 -73.062140.1  RSN  9 0.4 2.6LRSN                1
 GAP=166        0.71       4.3     7.1  7.1 -0.1507E+02  0.9443E+01 -0.8228E+00E
 Epicentro: LOS SANTOS - SANTANDER                                             3
 ACTION:UPD 10-12-01 15:20 OP:pat  STATUS:               ID:20100726143153 L   I
 2010-07-26-1428-51S.COL___122                                                 6
 STAT SP IPHASW D HRMM SECON CODA AMPLIT PERI AZIMU VELO AIN AR TRES W  DIS CAZ7
 BAR2 SZ IP     D 1432 12.70                             169     0.010   25 212 
 BAR2 SZ ES   2   1432 27.28                             169    -0.3 5   25 212 
 BRR  HZ IP     C 1432 14.62                             148    -0.210   80 296 
 BRR  HE ES   2   1432 31.50                             148     0.2 5   80 296 
 BRR  HZ I        1432 36.00        80.0 0.10                            80 296 
 RUS  HZ EP   1   1432 16.69                             143    -0.1 7   99 181 
 RUS  HZ I        1432 17.35        29.6 0.28                            99 181 
 RUS  HE ES   2   1432 35.41                             143     0.6 5   99 181 
 BRI  SZ EP   1   1432 17.17                             140     0.2 7  107  16 
 GUE  SZ EP   1   1432 17.73                             138    -0.2 7  117   7 
 GRA  SZ IP     D 1432 18.65                             136     0.210  125  13 
 GRA  SZ ES   2   1432 37.14                             136    -0.5 5  125  13 
 HEL  HZ EP   1   1432 35.01                             113     0.4 6  281 257 
 HEL  HZ I        1433 11.09        18.0 0.68                           281 257 
 RREF HZ EP   1   1432 41.04                             109     0.7 5  328 231 
 RREF HN ES   2   1433 16.46                             109    -0.2 3  328 231 
 RREF HZ I        1433 25.07        19.3 0.41                           328 231 
 PRA  HZ EP   1   1432 46.51                             105    -0.9 4  395 211 
 PRA  HN ES   2   1433 28.54                             105    -0.8 3  395 211 
 PRA  HZ I        1433 34.10        19.5 0.26                           395 211 
                                                                                
