 2012 1126 1054 35.5 L   6.807 -73.166140.4  RSN  5 0.1 1.6LRSN                1
 GAP=209        0.31       2.5     2.8  5.3  0.2001E+01 -0.3677E+01 -0.2418E+01E
 Epicentro: LOS SANTOS - SANTANDER                                             3
 ACTION:UPD 12-12-05 15:36 OP:}ep  STATUS:               ID:20121126105435 L   I
 2012-11-26-1050-00M.COL___233                                                 6
 STAT SP IPHASW D HRMM SECON CODA AMPLIT PERI AZIMU VELO AIN AR TRES W  DIS CAZ7
 BAR2 SZ EP       1054 54.55                             170    0.0210 23.9 184 
 PTB  HZ EP       1055  1.85                             131   -0.03 9  146 258 
 PTB  HN ES   1   1055 22.39                             131   -0.04 7  146 258 
 PTB  HZ I        1055 28.80         3.7 0.21                           146 258 
 ZAR  HZ EP   1   1055  7.57                             121    0.18 6  202 292 
 ZAR  HE ES   1   1055 32.22                             121   -0.01 6  202 292 
 ZAR  HZ I        1055 39.36         3.2 0.25                           202 292 
 SML  HZ EP   1   1055 11.48                             116   -0.20 6  242 336 
 SML  HN ES   2   1055 40.01                             116    0.13 4  242 336 
 SML  HZ I        1055 44.70         6.1 0.11                           242 336 
 CHI  HZ EP   1   1055 12.99                             116    0.03 6  249 195 
                                                                                
