 2010  726 1402 54.0 L   6.797 -73.074138.0  RSN  5 0.3 1.6LRSN                1
 GAP=167        0.57       5.0    10.5  9.9  0.1292E+02 -0.5313E+02 -0.2273E+02E
 Epicentro: LOS SANTOS - SANTANDER                                             3
 ACTION:UPD 10-12-01 15:20 OP:pat  STATUS:               ID:20100726140254 L   I
 2010-07-26-1359-15S.COL___123                                                 6
 STAT SP IPHASW D HRMM SECON CODA AMPLIT PERI AZIMU VELO AIN AR TRES W  DIS CAZ7
 BAR2 SZ EP   1   14 3 12.58                             169    -0.2 7   26 208 
 BAR2 SZ ES   2   14 3 27.47                             169     0.1 5   26 208 
 BRR  HZ EP   1   14 3 14.47                             149    -0.3 7   78 296 
 BRR  HE ES   2   14 3 31.32                             149     0.4 5   78 296 
 BRR  HZ I        14 3 35.53        18.9 0.16                            78 296 
 RUS  HZ EP   1   14 3 17.34                             142     0.4 7  100 181 
 RUS  HN ES   2   14 3 34.46                             142    -0.4 5  100 181 
 RUS  HZ I        14 3 36.03         2.7 0.44                           100 181 
 GUE  SZ EP   1   14 3 17.79                             138    -0.1 7  115   8 
 GRA  SZ EP   1   14 3 18.60                             136     0.2 7  124  14 
                                                                                
