 2012  726 1238 39.1 L   6.772 -73.166149.3  RSN  5 0.2 1.6LRSN                1
 GAP=135        0.52       4.8     4.7  5.4 -0.2285E+01  0.4626E+01  0.2308E+01E
 Epicentro: LOS SANTOS - SANTANDER                                             3
 ACTION:UPD 12-08-14 11:45 OP:ep   STATUS:               ID:20120726123839 L   I
 2012-07-26-1230-00M.COL___215                                                 6
 STAT SP IPHASW D HRMM SECON CODA AMPLIT PERI AZIMU VELO AIN AR TRES W  DIS CAZ7
 BAR2 SZ EP       1238 59.15                             172     0.010   20 185 
 BAR2 SZ ES   1   1239 14.69                             172     0.0 7   20 185 
 BAR2 SZ I        1239 17.24         9.8 0.18            168             20 185 
 BRR  HZ EP       1239  0.90                             153     0.310   71 302 
 BRR  HN ES   2   1239 17.72                             153     0.3 5   71 302 
 BRR  HZ I        1239 17.86        11.4 0.32            152             71 302 
 PAM  SZ EP       1239  1.95                             150     0.010   81  39 
 PAM  SZ I        1239  2.20         5.1 0.46            157             81  39 
 PAM  SN ES   2   1239 19.30                             150    -0.5 5   81  39 
 RUS  HZ EP       1239  3.03                             145     0.010   98 175 
 RUS  HN ES   3   1239 21.81                             145     0.2 2   98 175 
 RUS  HZ I        1239 23.87         3.3 0.44            145             98 175 
 PTB  HZ EP       1239  5.87                             133    -0.3 9  145 260 
 PTB  HN ES   3   1239 26.92                             133    -0.3 2  145 260 
 PTB  HZ I        1239 32.89         6.0 0.50            132            145 260 
