 2013  626 1511 14.3 L   6.876 -73.259130.4  RSN 14 0.5 2.4LRSN                1
 GAP=115        0.92       2.7     4.5  5.6 -0.1366E+01  0.9548E+01 -0.4963E+00E
 Epicentro: BETULIA - SANTANDER                                                3
 ACTION:UPD 14-01-08 09:57 OP:ep   STATUS:               ID:20130626151114 L   I
 OLDACT:REG 13-06-26 15:46 OP:carl STATUS:               ID:20130626150959     3
 2013-06-26-1509-59M.COL___266                                                 6
 STAT SP IPHASW D HRMM SECON CODA AMPLIT PERI AZIMU VELO AIN AR TRES W  DIS CAZ7
 GIR2 SZ EP   1   1511 31.92                             169   -0.07 7 23.6  18 
 GIR2 SZ ES   1   1511 45.51                             169   -0.24 7 23.6  18 
 GIR2 SZ I        1511 46.71        35.6 0.20            168           23.6  18 
 BAR2 SZ EP   1   1511 32.35                             165   -0.02 7 32.4 165 
 BAR2 SZ ES   1   1511 46.55                             165    0.12 7 32.4 165 
 BAR2 SZ I        1511 47.11        80.1 0.28            167           32.4 165 
 BRR  HZ IP     C 1511 33.04                             155    0.0310 56.3 297 
 BRR  HN ES   1   1511 47.99                             155    0.43 7 56.3 297 
 BRR  HZ I        1511 51.08        53.2 0.12            152           56.3 297 
 PAM  SZ EP   1   1511 35.54                             147    0.40 7 80.3  50 
 PAM  SN ES   1   1511 51.85                             147    0.49 7 80.3  50 
 PAM  SZ I        1511 55.26        35.1 0.60            148           80.3  50 
 RUS  HZ EP   1   1511 37.02                             138   -0.39 7  110 170 
 RUS  HE ES   1   1511 54.75                             138   -0.64 7  110 170 
 RUS  HZ I        1511 56.54        13.2 0.58            139            110 170 
 PTB  HZ EP   4   1511 38.18                             130   -0.96 0  138 254 
 PTB  HN ES   4   1511 56.85                             130   -1.63 0  138 254 
 PTB  HZ I        1512  1.78        58.0 0.50            129            138 254 
 OCA  HZ EP   1   1511 39.20                             128   -1.39 7  151 357 
 OCA  HN ES   1   1512  1.02                             128   -0.04 7  151 357 
 OCA  HZ I        1512  3.38        57.8 0.24            127            151 357 
 ZAR  HZ EP   1   1511 45.08                             121    0.80 7  189 291 
 ZAR  HE ES   1   1512  7.72                             121    0.09 7  189 291 
 ZAR  HZ I        1512 11.99        43.6 0.36            120            189 291 
 NOR  HZ EP   1   1511 48.07                             116   -0.62 6  230 231 
 NOR  HN ES   1   1512 14.91                             116   -0.58 6  230 231 
 NOR  HZ I        1512 17.77        23.4 0.68            115            230 231 
 SML  HZ EP   1   1511 48.69                             115   -0.06 6  231 337 
 SML  HN ES   1   1512 15.16                             115   -0.43 6  231 337 
 SML  HZ I        1512 24.57        63.0 0.10            115            231 337 
 CHI  HZ EP   1   1511 52.02                             113    0.20 6  254 192 
 CHI  HN ES       1512 21.68                             113    0.63 8  254 192 
 CHI  HZ I        1512 30.05         9.0 0.46            113            254 192 
 HEL  HZ EP   1   1511 53.48                             112    0.77 6  262 253 
 HEL  HE ES   1   1512 22.46                             112   -0.17 6  262 253 
 HEL  HZ I        1512 28.63        21.1 0.26            112            262 253 
 GUY2CHZ EP   1   1511 56.78                             110    0.07 5  296 232 
 GUY2CHN ES   4   1512 28.42                             110   -1.33 0  296 232 
 GUY2CHZ I        1512 37.09        10.4 0.42                           296 232 
 COD  HZ EP   1   1512  1.51                             107    0.44 5  339 357 
 COD  HN ES       1512 37.68                             107    0.16 7  339 357 
 COD  HZ I        1512 46.35        21.4 0.88            106            339 357 
                                                                                
