 2017  626 1655 34.0 L   6.757 -73.120142.0  RSN  7 0.4 1.8LRSN                1
 GAP=260        0.91       5.1     6.2  7.1 -0.2575E+01  0.1590E+02  0.9257E+01E
 Epicentro: LOS SANTOS - SANTANDER                                             3
 ACTION:UPD 17-09-14 16:55 OP:jn   STATUS:               ID:20170626165534 L   I
 OLDACT:REG 17-06-26 21:13 OP:cog  STATUS:               ID:20170626164740     3
 2017-06-26-1648-00M.COL___352                                                 6
 STAT SP IPHASW D HRMM SECON CODA AMPLIT PERI AZIMU VELO AIN AR TRES W  DIS CAZ7
 BAR2 EZ EP       1655 52.83                             172   -0.3110 19.5 201 
 BAR2 EZ ES       1656  8.18                             172    0.1410 19.5 201 
 BAR2 EZ I        1656  9.23        13.4 0.18            170           19.5 201 
 BRR  HZ EP       1655 54.73                             150   -0.3410 76.1 301 
 BRR  HN ES       1656 11.89                             150    0.4210 76.1 301 
 BRR  HZ I        1656 13.85        15.5 0.14            150           76.1 301 
 PTB  HZ EP   9   1655 59.73                             131   -1.15 0  150 261 
 PTB  HN ES   3   1656 20.74                                    0.07 2  150 261 
 PTB  HZ I    9   1656 22.90        10.5 0.14            131            150 261 
 SPBC HN ES       1656 23.56                             129   -0.38 9  161 221 
 ZAR  HZ EP   4   1656  6.06                             121   -0.65 0  209 293 
 ZAR  HE ES       1656 31.86                             121   -0.33 8  209 293 
 NOR  HZ EP       1656 10.07                             118    0.56 8  234 236 
 NOR  HN ES       1656 37.55                             118    0.37 8  234 236 
 NOR  HZ I        1656 42.37         4.9 0.24            118            234 236 
 GUY2CHZ EP       1656 18.04                             112    0.61 7  301 236 
 GUY2CHE ES       1656 50.75                             112   -0.53 7  301 236 
 GUY2CHZ I        1657  0.51         3.2 0.66                           301 236 
                                                                                
