 2017 1026 1243 40.4 L   6.695 -73.122137.0  RSN  5 0.3 1.0LRSN                1
 GAP=144        0.70       3.5     3.5  5.1 -0.1103E+01  0.2550E+01  0.3285E+00E
 Epicentro: JORDAN - SANTANDER                                                 3
 ACTION:UPD 17-11-07 19:37 OP:rebc STATUS:               ID:20171026124340 L   I
 OLDACT:DUP 17-10-26 23:20 OP:dhb  STATUS:               ID:20171026123741d    3
 OLDACT:REG 17-10-26 21:01 OP:dhb  STATUS:               ID:20171026123740     3
 2017-10-26-1238-00M.COL___423                                                 6
 STAT SP IPHASW D HRMM SECON CODA AMPLIT PERI AZIMU VELO AIN AR TRES W  DIS CAZ7
 BAR2 EZ EP       1243 59.06                             174    0.2610 13.2 211 
 BAR2 EZ ES       1244 13.51                             174    0.3610 13.2 211 
 BAR2 EZ I        1244 14.85         1.2 0.07            173           13.2 211 
 BRR  HZ EP       1244  1.26                             148    0.1410 79.6 305 
 BRR  HN ES       1244 17.44                             148    0.1610 79.6 305 
 BRR  HZ I        1244 25.60         5.9 0.26            148           79.6 305 
 PAM  EZ IP     D 1244  2.12                             147   -0.0610 85.1  33 
 PAM  EN ES       1244 18.83                             147   -0.3510 85.1  33 
 PAM  EZ I        1244 22.01         3.3 0.50            150           85.1  33 
 RUS  HZ EP       1244  2.67                             145    0.2310 88.9 177 
 RUS  HE ES       1244 19.30                             145   -0.3410 88.9 177 
 RUS  HZ I        1244 22.51         1.3 0.24            151           88.9 177 
 PTB  HZ EP       1244  6.55                             130   -0.19 9  149 263 
 PTB  HN ES       1244 27.01                             130   -0.27 9  149 263 
 PTB  HZ I        1244 30.71         1.0 0.24            132            149 263 
                                                                                
