 2011 1026 1208 48.3 L   6.789 -73.093138.7  RSN  6 0.3 1.8LRSN                1
 GAP=144        0.60       4.4     6.2  5.8  0.1854E+01 -0.7656E+01  0.1665E+01E
 Epicentro: LOS SANTOS - SANTANDER                                             3
 ACTION:UPD 12-07-13 16:06 OP:ep   STATUS:               ID:20111026120848 L   I
 2011-10-26-1200-00M.COL___177                                                 6
 STAT SP IPHASW D HRMM SECON CODA AMPLIT PERI AZIMU VELO AIN AR TRES W  DIS CAZ7
 BAR2 SZ EP       12 9  7.01                             170   -0.1310 23.9 204 
 BAR2 SZ ES   1   12 9 21.84                             170    0.04 7 23.9 204 
 BAR2 SZ I        12 9 24.71         8.6 0.32                          23.9 204 
 BTL  SZ EP   3   12 9  8.16                             170    1.01 2 24.0 307 
 GIR2 SZ EP       12 9  7.05                             166   -0.2110 33.9 341 
 GIR2 SZ ES   2   12 9 21.88                             166   -0.13 5 33.9 341 
 PAM  SZ EP       12 9 10.01                             150    0.3510 74.8  36 
 PAM  SN ES   2   12 9 25.95                             150   -0.33 5 74.8  36 
 BRR  HZ EP       12 9  8.76                             150   -0.3210 76.9 297 
 BRR  HZ I        12 9 10.96        17.4 0.36                          76.9 297 
 BRR  HE ES   1   12 9 25.63                             150    0.38 7 76.9 297 
 RUS  HZ EP       12 9 11.45                             143    0.1510 99.2 179 
 RUS  HN ES   2   12 9 29.14                             143   -0.07 5 99.2 179 
                                                                                
