 2011 1126 1450 28.5 L   6.765 -73.120140.4  RSN 10 0.3 2.4LRSN                1
 GAP=141        0.63       3.8     5.0  4.9 -0.3932E+01  0.7756E+01  0.5410E+01E
 Epicentro: LOS SANTOS - SANTANDER                                             3
 ACTION:UPD 12-07-13 16:12 OP:ep   STATUS:               ID:20111126145028 L   I
 2011-11-26-1448-17S.COL___160                                                 6
 STAT SP IPHASW D HRMM SECON CODA AMPLIT PERI AZIMU VELO AIN AR TRES W  DIS CAZ7
 BAR2 SZ EP       1450 47.25                             171   -0.1710 20.3 200 
 BAR2 SZ ES   1   1451  1.93                             171   -0.25 7 20.3 200 
 BAR2 SZ I        1451  3.34        53.9 0.19                          20.3 200 
 BRR  HZ EP   1   1450 49.00                             150   -0.33 7 75.6 300 
 BRR  HN ES   1   1451  6.07                             150    0.49 7 75.6 300 
 BRR  HZ I        1451  9.57        47.6 0.25                          75.6 300 
 PAM  SZ EP   1   1450 50.24                             150    0.02 7 78.7  36 
 PAM  SZ I        1450 50.37        36.2 0.16                          78.7  36 
 PAM  SN ES   1   1451  7.18                             150    0.01 7 78.7  36 
 RUS  HZ EP   1   1450 51.26                             144   -0.17 7 96.5 178 
 RUS  HE ES   1   1451  9.57                             144    0.26 7 96.5 178 
 RUS  HZ I        1451 11.60        19.3 0.41                          96.5 178 
 CTAU SZ EP   1   1451  1.64                             122    0.72 6  201 211 
 CTAU SZ ES   2   1451 25.60                             122   -0.60 4  201 211 
 NOR  SZ EP   1   1451  3.43                             117   -0.50 6  235 236 
 NOR  SE ES   2   1451 31.51                             117   -0.06 4  235 236 
 CHI  HZ EP   1   1451  5.88                             116    0.30 6  246 196 
 CHI  HZ I        1451 38.53        23.7 0.48                           246 196 
 HEL  HZ EP   1   1451  8.44                             113   -0.21 6  274 257 
 HEL  HZ I        1451 46.39        13.6 0.43                           274 257 
 RREF HZ EP   1   1451 14.89                             110    0.52 5  321 230 
 RREF HZ I        1451 56.83        19.8 0.36                           321 230 
 PRA  HZ EP   1   1451 21.57                             106   -0.04 4  390 210 
                                                                                
