 2017  226 1144 24.7 L   6.797 -73.151146.1  RSN  6 0.4 1.5LRSN                1
 GAP=136        0.99       5.0     4.4  7.2  0.1978E+01  0.6139E+01  0.6856E+00E
 Epicentro: LOS SANTOS - SANTANDER                                             3
 ACTION:UPD 17-05-24 15:40 OP:jn   STATUS:               ID:20170226114424 L   I
 OLDACT:REG 17-02-26 20:26 OP:cog  STATUS:               ID:20170226113743     3
 2017-02-26-1138-00M.COL___361                                                 6
 STAT SP IPHASW D HRMM SECON CODA AMPLIT PERI AZIMU VELO AIN AR TRES W  DIS CAZ7
 BAR2 EZ EP       1144 44.18                             171   -0.1610 22.9 189 
 BAR2 EZ ES       1144 58.91                             171   -0.7610 22.9 189 
 BAR2 EZ I        1145  0.22         9.6 0.36            171           22.9 189 
 BRR  HZ EP       1144 46.13                             153    0.2910 70.8 299 
 BRR  HE ES       1145  2.94                             153    0.5910 70.8 299 
 PAM  EZ EP       1144 47.11                             151    0.1510 78.0  40 
 PAM  EE ES       1145  4.24                             151   -0.1010 78.0  40 
 PAM  EZ I        1145  6.34         7.6 0.52            151           78.0  40 
 RUS  HZ EP       1144 48.40                             144   -0.0410  100 176 
 RUS  HN ES       1145  7.49                             144    0.5210  100 176 
 RUS  HZ I        1145  7.90         2.4 0.26            145            100 176 
 PTB  HZ EP       1144 51.25                             132   -0.36 9  147 259 
 PTB  HE ES       1145 12.55                             132   -0.07 9  147 259 
 PTB  HZ I        1145 13.82         3.2 0.40            133            147 259 
 ZAR  HE ES       1145 22.22                             122   -0.17 9  204 292 
                                                                                
