 2017  926 1207 51.7 L   6.789 -73.127147.9  RSN 12 0.5 2.1LRSN                1
 GAP=114        0.93       3.2     3.4  5.2  0.1896E+01  0.6166E+01  0.5164E+01E
 Epicentro: LOS SANTOS - SANTANDER                                             3
 ACTION:UPD 17-10-05 19:16 OP:rebc STATUS:               ID:20170926120751 L   I
 OLDACT:REG 17-09-26 20:34 OP:dhb  STATUS:               ID:20170926115747     3
 2017-09-26-1158-00M.COL___444                                                 6
 STAT SP IPHASW D HRMM SECON CODA AMPLIT PERI AZIMU VELO AIN AR TRES W  DIS CAZ7
 BAR2 EZ IP       12 8 11.55                             171   -0.0710 22.6 196 
 BAR2 EZ ES       12 8 26.73                             171   -0.3910 22.6 196 
 BAR2 EZ I        12 8 28.03        43.9 0.17            167           22.6 196 
 BRR  HZ EP       12 8 13.32                             152    0.0610 73.6 299 
 BRR  HN ES       12 8 30.71                             152    0.6710 73.6 299 
 BRR  HZ I        12 8 31.58        19.9 0.16            154           73.6 299 
 PAM  EZ EP       12 8 14.47                             151    0.3010 77.1  38 
 PAM  EE ES       12 8 31.71                             151    0.0510 77.1  38 
 PAM  EZ I        12 8 34.03        23.3 0.31            156           77.1  38 
 RUS  HZ EP       12 8 15.52                             145   -0.0910 99.2 177 
 RUS  HN ES       12 8 34.35                             145    0.1310 99.2 177 
 RUS  HZ I        12 8 35.96        16.9 0.09            142           99.2 177 
 YPLC HZ EP       12 8 20.89                             127   -0.60 9  175 152 
 YPLC HN ES       12 8 44.56                             127   -0.14 9  175 152 
 YPLC HZ I        12 8 56.64         8.2 0.23            127            175 152 
 ZAR  HZ EP       12 8 24.86                             122    0.29 8  206 292 
 ZAR  HE ES       12 8 49.26                             122   -0.91 8  206 292 
 ZAR  HZ I        12 8 52.06         6.9 0.42            124            206 292 
 NOR  HZ EP       12 8 27.61                             119   -0.09 8  236 235 
 NOR  HN ES       12 8 55.87                             119    0.13 8  236 235 
 NOR  HZ I        12 8 58.94         9.1 0.32            119            236 235 
 CHI  HZ IP     D 12 8 29.83                             118    0.34 8  248 196 
 CHI  HN ES       12 8 58.74                             118   -0.19 8  248 196 
 CHI  HZ I        12 9  4.36         4.8 0.36            117            248 196 
 ROSC BN ES   3   12 9  1.03                             117    1.23 2  253 212 
 ROSC BZ I        12 9  5.49        10.1 0.48            117            253 212 
 HEL  HZ EP       12 8 32.48                             115    0.23 8  274 256 
 HEL  HE ES       12 9  3.27                             115   -0.57 8  274 256 
 HEL  HZ I        12 9 10.74         7.2 0.34            116            274 256 
 GUY2CHZ EP   3   12 8 36.70                             113    1.14 2  302 235 
 GUY2CHN ES   3   12 9 12.74                             113    3.01 2  302 235 
 GUY2CHZ I        12 9 16.83         6.0 0.20                           302 235 
 PRA  HZ EP       12 8 45.38                             107    0.05 6  392 210 
 PRA  HE ES       12 9 27.87                             107    0.75 6  392 210 
 PRA  HZ I        12 9 35.10         5.1 0.24            107            392 210 
                                                                                
