 2010  226 1754 24.9 L   6.797 -73.018145.4  RSN  5 0.2 2.0LRSN                1
 GAP=196        0.56       3.1     8.5  5.8  0.7279E+01 -0.1414E+02 -0.3049E+00E
 Epicentro: CEPITA - SANTANDER                                                 3
 ACTION:UP  10-08-24 09:50 OP:vdl  STATUS:               ID:20100226175424 L   I
 2010-02-26-1752-37S.COL___093                                                 6
 STAT SP IPHASW D HRMM SECON CODA AMPLIT PERI AZIMU VELO SNR AR TRES W  DIS CAZ7
 BAR2 SZ EP       1754 44.59                             168     0.010   29 219 
 BAR2 SZ ES   2   1755  0.21                             168     0.2 5   29 219 
 BRR  HZ EP       1754 46.70                             148    -0.110   84 294 
 BRR  HZ I        1754 47.03        22.4 0.15                            84 294 
 BRR  HE ES   1   1755  3.94                             148     0.1 7   84 294 
 RUS  BZ EP       1754 48.67                             144     0.110  100 184 
 RUS  BN ES   2   1755  6.63                             144    -0.4 5  100 184 
 RUS  BZ I        1755  7.93         6.1 0.36                           100 184 
 OCA  SZ EP       1754 53.64                             129     0.2 9  163 348 
 OCA  SZ ES   1   1755 15.21                             129    -0.4 7  163 348 
 OCA  SZ I        1755 20.73        19.8 0.50                           163 348 
 PRA  HZ EP       1755 18.96                             106    -0.2 6  399 211 
 PRA  HZ I        1756  7.21         2.4 0.56                           399 211 
                                                                                
