 2011  626 1756 52.1 L   6.760 -73.120149.4  RSN  9 0.3 1.9LRSN                1
 GAP=159        0.55       2.9     4.6  5.3 -0.3556E+01  0.3818E+01 -0.9149E+00E
 Epicentro: LOS SANTOS - SANTANDER                                             3
 ACTION:UP  11-07-14 19:08 OP:ep   STATUS:               ID:20110626175652 L   I
 2011-06-26-1740-00M.COL___124                                                 6
 STAT SP IPHASW D HRMM SECON CODA AMPLIT PERI AZIMU VELO SNR AR TRES W  DIS CAZ7
 BAR2 SZ EP   1   1757 11.91                             172    -0.2 7   20 200 
 BAR2 SZ I        1757 12.22        18.4 0.36                            20 200 
 BAR2 SZ ES   1   1757 27.74                             172     0.1 7   20 200 
 BTL  SZ EP   1   1757 12.29                             171     0.1 7   24 317 
 BRR  HZ EP   1   1757 13.86                             152     0.0 7   76 300 
 BRR  HE ES   1   1757 30.52                             152    -0.4 7   76 300 
 BRR  HZ I        1757 32.98        17.3 0.20                            76 300 
 RUS  HZ EP   1   1757 15.46                             146    -0.4 7   96 178 
 RUS  HN ES   1   1757 34.56                             146     0.2 7   96 178 
 RUS  HZ I        1757 36.23         8.2 0.50                            96 178 
 BRI  SZ EP   2   1757 16.75                             141     0.2 5  112  19 
 BRI  SZ ES   1   1757 36.15                             141     0.5 7  112  19 
 GRA  SZ EP   2   1757 17.80                             137    -0.1 5  129  16 
 GRA  SZ ES   2   1757 37.75                             137    -0.3 5  129  16 
 GRA  SZ I        1757 38.42        13.9 0.39                           129  16 
 OCA  SZ EP   2   1757 21.06                             130     0.0 5  165 352 
 OCA  SZ ES   2   1757 43.50                             130    -0.2 5  165 352 
 OCA  SZ I        1757 49.12         9.9 0.21                           165 352 
 NOR  SN ES   2   1757 56.29                             119     0.3 4  235 236 
 HEL  HZ EP   2   1757 32.68                             115     0.0 4  274 257 
 HEL  HN ES   2   1758  4.76                             115     0.4 4  274 257 
 HEL  HZ I        1758 10.35         5.8 0.50                           274 257 
                                                                                
