 2012  426 1032 36.3 L   6.682 -73.210150.1  RSN  5 0.3 1.6LRSN                1
 GAP=213        0.65       6.5     5.7  6.2  0.2217E+02  0.4630E+01 -0.3081E+01E
 Epicentro: VILLANUEVA - SANTANDER                                             3
 ACTION:UPD 12-07-05 11:56 OP:tino STATUS:               ID:20120426103236 L   I
 2012-04-26-1030-00M.COL___186                                                 6
 STAT SP IPHASW D HRMM SECON CODA AMPLIT PERI AZIMU VELO AIN AR TRES W  DIS CAZ7
 BAR2 SZ EP       1032 56.04                             176    -0.210   10 163 
 BAR2 SZ ES   1   1033 11.55                             176    -0.3 7   10 163 
 BAR2 SZ I        1033 12.30        10.4 0.15                            10 163 
 BRR  HZ EP   1   1032 58.11                             153     0.1 7   73 310 
 BRR  HZ I        1033  0.04        13.3 0.07                            73 310 
 BRR  HN ES   1   1033 15.22                             153     0.3 7   73 310 
 RUS  HZ EP   1   1033  0.04                             148     0.4 7   88 171 
 RUS  HN ES   1   1033 18.13                             148     0.2 7   88 171 
 RUS  HZ I        1033 19.85         5.0 0.46                            88 171 
 PTB  HZ EP   1   1033  2.67                             135    -0.2 7  139 264 
 PTB  HE ES   1   1033 23.26                             135    -0.3 7  139 264 
 PTB  HZ I        1033 24.93         4.2 0.12                           139 264 
 ZAR  HZ EP   1   1033  8.81                             123    -0.1 6  203 296 
 ZAR  HE ES   1   1033 34.73                             123     0.4 6  203 296 
                                                                                
