 2015  426 1808 59.3 L   6.858 -73.328118.2  RSN 12 0.6 2.2LRSN                1
 GAP= 73        1.30       3.6     3.3  6.6 -0.3257E+00  0.5320E+01  0.3488E+00E
 Epicentro: BETULIA - SANTANDER                                                3
 ACTION:UPD 15-06-03 16:57 OP:cam  STATUS:               ID:20150426180859 L   I
 OLDACT:UP  15-04-26 22:12 OP:mh   STATUS:               ID:20150426180747     3
 OLDACT:UP  15-04-26 22:12 OP:mh   STATUS:               ID:20150426180747     3
 OLDACT:UP  15-04-26 22:10 OP:mh   STATUS:               ID:20150426180747     3
 OLDACT:REG 15-04-26 20:14 OP:mh   STATUS:               ID:20150426180747     3
 2015-04-26-1807-47M.COL___277                                                 6
 STAT SP IPHASW D HRMM SECON CODA AMPLIT PERI AZIMU VELO AIN AR TRES W  DIS CAZ7
 BAR2 EZ EP     C 18 9 16.27                             163    0.3210 33.5 151 
 BAR2 EZ ES       18 9 28.66                             163   -0.2610 33.5 151 
 BAR2 EZ I        18 9 30.03        99.8 0.30            162           33.5 151 
 BRR  HZ EP       18 9 16.34                             155   -0.0010 50.6 303 
 BRR  HN ES       18 9 29.41                             155   -0.2110 50.6 303 
 BRR  HZ I        18 9 30.64        47.3 0.10            155           50.6 303 
 PAM  SZ EP       18 9 19.90                             141    0.4810 87.5  52 
 PAM  SN ES       18 9 35.71                             141    0.6110 87.5  52 
 PAM  SZ I        18 9 36.75        18.6 0.36            140           87.5  52 
 RUS  HZ EP       18 9 21.32                             134    0.0410  110 166 
 RUS  HN ES       18 9 38.22                             134   -0.1910  110 166 
 PTB  HZ EP   1   18 9 21.05                             129   -1.37 7  130 254 
 PTB  HN ES       18 9 39.57                             129   -0.8710  130 254 
 PTB  HZ I        18 9 42.23        36.3 0.10            128            130 254 
 SPBC HZ EP       18 9 25.27                             123    0.07 9  157 212 
 SPBC HE ES       18 9 46.28                             123    0.90 9  157 212 
 SPBC HZ I        18 9 51.16        27.3 0.24            122            157 212 
 TAM  HZ EP       18 9 27.29                             120    0.13 9  176 105 
 TAM  HN ES       18 9 48.24                             120   -0.64 9  176 105 
 TAM  HZ I        18 9 57.03        19.0 0.34            118            176 105 
 ZAR  HZ EP       18 9 27.59                             119   -0.26 9  183 293 
 ZAR  HN ES       18 9 50.63                             119    0.53 9  183 293 
 ZAR  HZ I        18 9 52.86        28.3 0.30            117            183 293 
 SML  HZ EP       18 9 32.02                             112   -0.99 8  230 339 
 SML  HE ES       18 9 59.46                             112    0.17 8  230 339 
 SML  HZ I        1810  6.45        26.8 0.26            111            230 339 
 HEL  HZ EP   1   18 9 36.69                             110    0.44 6  254 253 
 HEL  HN ES       1810  5.78                             110    0.73 8  254 253 
 HEL  HZ I        1810 10.07         7.8 0.28            109            254 253 
 GUY2CHZ EP       18 9 40.83                             107    0.45 7  289 231 
 GUY2CHN ES   1   1810 12.55                             107    0.15 5  289 231 
 GUY2CHZ I        1810 22.45         5.5 0.52                           289 231 
 TOL  SZ EP   4   18 9 47.17                             104    1.63 0  334 221 
 TOL  SE ES       1810 21.00                             104   -0.59 7  334 221 
 TOL  SZ I        1810 27.74         4.9 0.31            103            334 221 
                                                                                
