 2013  126 1001 37.6 L   6.800 -73.156141.5  RSN  9 0.4 1.8LRSN                1
 GAP= 71        0.86       3.8     3.7  6.6  0.1665E+01  0.3015E+01  0.3980E+01E
 Epicentro: LOS SANTOS - SANTANDER                                             3
 ACTION:UPD 13-02-15 09:16 OP:ep   STATUS:               ID:20130126100137 L   I
 2013-01-26-1000-00M.COL___241                                                 6
 STAT SP IPHASW D HRMM SECON CODA AMPLIT PERI AZIMU VELO AIN AR TRES W  DIS CAZ7
 BAR2 SZ EP   1   10 1 56.82                             170    0.07 7 23.1 187 
 BAR2 SZ ES   1   10 2 11.71                             170    0.06 7 23.1 187 
 BAR2 SZ I        10 2 13.19        39.4 0.18            169           23.1 187 
 BRR  HZ EP   1   10 1 58.55                             152    0.29 7 70.2 299 
 BRR  HN ES   1   10 2 15.35                             152    1.00 7 70.2 299 
 BRR  HZ I        10 2 19.33         8.2 0.12            151           70.2 299 
 PAM  SZ EP   1   10 1 59.66                             150    0.22 7 78.1  40 
 PAM  SN ES   1   10 2 16.27                             150   -0.18 7 78.1  40 
 PAM  SZ I        10 2 18.93         5.4 0.30            153           78.1  40 
 RUS  HZ EP   1   10 2  1.19                             143    0.22 7  101 175 
 RUS  HN ES   1   10 2 18.99                             143   -0.19 7  101 175 
 RUS  HZ I        10 2 20.79         8.3 0.26            144            101 175 
 PTB  HZ EP   1   10 2  3.75                             131   -0.40 7  147 259 
 PTB  HN ES   1   10 2 24.46                             131   -0.37 7  147 259 
 PTB  HZ I        10 2 27.19         7.2 0.12            131            147 259 
 TAM  HZ EP   1   10 2  5.16                             129    0.08 7  156 105 
 TAM  HN ES   1   10 2 26.15                             129   -0.34 7  156 105 
 OCA  HN ES   1   10 2 26.84                             129   -0.58 7  160 354 
 OCA  HZ I        10 2 29.85        12.1 0.20            131            160 354 
 ZAR  HZ EP   1   10 2 10.49                             122    0.80 6  203 292 
 ZAR  HN ES   1   10 2 33.83                             122   -0.86 6  203 292 
 ZAR  HZ I        10 2 40.35         7.6 0.40            122            203 292 
 CHI  HZ EP   1   10 2 15.13                             116    0.07 6  248 195 
 CHI  HN ES   1   10 2 44.07                             116   -0.19 6  248 195 
 CHI  HZ I        10 2 51.41         3.5 0.48            118            248 195 
                                                                                
