 2013  926 1008 59.2 L   6.760 -73.162144.8  RSN  6 0.4 1.3LRSN                1
 GAP=136        1.04       5.1     5.2  7.4 -0.7071E+01  0.4893E+01  0.6326E+01E
 Epicentro: LOS SANTOS - SANTANDER                                             3
 ACTION:UPD 13-10-22 09:25 OP:ep   STATUS:               ID:20130926100859 L   I
 OLDACT:UP  13-09-26 17:07 OP:stll STATUS:               ID:20130926100849     3
 OLDACT:REG 13-09-26 15:39 OP:stll STATUS:               ID:20130926100849     3
 2013-09-26-1008-49M.COL___238                                                 6
 STAT SP IPHASW D HRMM SECON CODA AMPLIT PERI AZIMU VELO AIN AR TRES W  DIS CAZ7
 BAR2 SZ ES       10 9 33.68                             172   -0.1110 18.6 187 
 BAR2 SZ I        10 9 36.38         5.3 0.30            171           18.6 187 
 BRR  HN ES       10 9 37.52                             152    0.7810 71.9 302 
 PAM  SZ EP       10 9 21.61                             149    0.0010 82.0  39 
 PAM  SZ I        10 9 21.80         4.2 0.20            152           82.0  39 
 PAM  SN ES       10 9 38.53                             149   -0.5510 82.0  39 
 RUS  HZ EP       10 9 22.88                             145    0.3210 96.3 175 
 RUS  HN ES       10 9 41.03                             145    0.2610 96.3 175 
 RUS  HZ I        10 9 42.49         2.5 0.28            145           96.3 175 
 PTB  HZ EP       10 9 25.71                             132   -0.15 9  145 260 
 PTB  HN ES       10 9 46.30                             132   -0.35 9  145 260 
 PTB  HZ I        10 9 48.97         2.0 0.14            133            145 260 
 SPBC HZ EP       10 9 27.42                             130    0.22 9  159 219 
 SPBC HN ES       10 9 48.49                             130   -0.54 9  159 219 
 SPBC HZ I        10 9 51.45         2.3 0.24            130            159 219 
                                                                                
