 2012  626 1557  5.9 L   6.791 -73.148143.8  RSN  9 0.4 2.5LRSN                1
 GAP=137        0.87       4.6     5.1  6.4 -0.4030E+01  0.1037E+02  0.5957E+00E
 Epicentro: LOS SANTOS - SANTANDER                                             3
 ACTION:UPD 12-08-06 17:52 OP:ep   STATUS:               ID:20120626155705 L   I
 2012-06-26-1550-00M.COL___201                                                 6
 STAT SP IPHASW D HRMM SECON CODA AMPLIT PERI AZIMU VELO AIN AR TRES W  DIS CAZ7
 BAR2 SZ IP       1557 25.38                             171    0.1110 22.3 190 
 BAR2 SZ ES   1   1557 39.95                             171   -0.43 7 22.3 190 
 BAR2 SZ I        1557 41.04        94.1 0.24                          22.3 190 
 BRR  HZ IP     C 1557 27.26                             152    0.4210 71.4 299 
 BRR  HZ I        1557 27.67       129.8 0.10                          71.4 299 
 BRR  HN ES   1   1557 44.02                             152    0.84 7 71.4 299 
 PAM  SZ IP       1557 28.26                             150    0.3010 78.4  39 
 PAM  SZ I        1557 28.38        47.0 0.24                          78.4  39 
 PAM  SN ES   1   1557 45.08                             150   -0.09 7 78.4  39 
 RUS  HZ EP       1557 29.40                             144    0.0210 99.6 176 
 RUS  HN ES   2   1557 47.45                             144   -0.25 5 99.6 176 
 RUS  HZ I        1557 48.57        27.9 0.22                          99.6 176 
 PTB  HZ EP       1557 32.09                             132   -0.57 9  147 259 
 PTB  HN ES   2   1557 52.65                             132   -0.88 5  147 259 
 PTB  HZ I        1557 54.78        22.4 0.46                           147 259 
 OCA  HZ EP       1557 33.67                             129   -0.48 9  161 353 
 OCA  HN ES   2   1557 55.29                             129   -0.89 5  161 353 
 OCA  HZ I        1557 58.81        82.0 0.20                           161 353 
 ZAR  HZ EP   2   1557 38.07                             122   -0.15 4  204 292 
 ZAR  HN ES   2   1558  3.66                             122    0.22 4  204 292 
 ZAR  HZ I        1558 10.04        40.9 0.34                           204 292 
 NOR  SZ EP       1557 41.72                             118    0.30 8  234 235 
 NOR  SE ES   2   1558  8.87                             118   -0.26 4  234 235 
 DBB  SZ EP       1557 53.57                             109    0.31 7  339 274 
                                                                                
