 2013  726 1817 19.7 L   6.686 -73.237140.1  RSN  4 0.1 1.7LRSN                1
 GAP=198        0.39       5.3     3.0  5.2  0.2539E+01  0.2265E+01 -0.5802E+01E
 Epicentro: BARICHARA - SANTANDER                                              3
 ACTION:UPD 13-08-12 10:40 OP:ep   STATUS:               ID:20130726181719 L   I
 OLDACT:REG 13-07-26 15:30 OP:mh   STATUS:               ID:20130726180959     3
 2013-07-26-1809-59M.COL___265                                                 6
 STAT SP IPHASW D HRMM SECON CODA AMPLIT PERI AZIMU VELO AIN AR TRES W  DIS CAZ7
 BAR2 SZ EP   1   1817 38.29                             175   -0.13 7 12.0 150 
 BAR2 SZ ES   1   1817 53.24                             175    0.18 7 12.0 150 
 BAR2 SZ I        1817 55.56         4.9 0.28            174           12.0 150 
 BRR  HZ EP       1817 40.19                             152    0.0610 70.2 312 
 BRR  HN ES   1   1817 55.91                             152   -0.19 7 70.2 312 
 BRR  HN I        1818  0.09        16.2 0.20            149           70.2 312 
 PTB  HN ES       1818  4.87                             133   -0.05 9  136 263 
 PTB  HN I        1818 11.31         6.2 0.28            133            136 263 
 ZAR  HE ES   1   1818 16.18                             122    0.16 6  200 297 
 ZAR  HE I        1818 22.37         9.5 0.22            123            200 297 
                                                                                
