 2010  126 1703 28.1 L   6.845 -72.994145.4  RSN  4 0.2 1.8LRSN                1
 GAP=329        0.39       6.8    14.4  6.1 -0.5982E+02  0.1297E+02  0.6641E+01E
 Epicentro: LOS SANTOS - SANTANDER                                             3
 ACTION:UP  10-08-24 09:46 OP:vdl  STATUS:               ID:20100126170328 L   I
 2010-01-26-1659-50S.COL___092                                                 6
 STAT SP IPHASW D HRMM SECON CODA AMPLIT PERI AZIMU VELO SNR AR TRES W  DIS CAZ7
 BAR2 SZ EP   2   17 3 48.07                             166     0.1 5   35 217 
 BAR2 SZ ES   2   17 4  3.30                             166    -0.1 5   35 217 
 RUS  HZ EP   1   17 3 52.20                             142     0.0 7  106 185 
 RUS  HZ I        17 3 53.40         4.6 0.07                           106 185 
 RUS  HE ES   2   17 4 11.16                             142     0.2 5  106 185 
 CHI  HZ EP   2   17 4  6.64                             116    -0.2 4  258 198 
 CHI  HE ES   1   17 4 36.73                             116    -0.3 6  258 198 
 PRA  HZ EP   2   17 4 22.96                             106    -0.1 3  405 211 
 PRA  HE ES   2   17 5  6.63                             106     0.7 3  405 211 
 PRA  HZ I        17 5 10.84         3.4 0.27                           405 211 
                                                                                
