 2013  226 1837 13.1 L   6.773 -73.161144.9  RSN  8 0.4 1.8LRSN                1
 GAP=136        0.81       3.7     4.8  6.9  0.2387E+01  0.6863E+01  0.3320E+01E
 Epicentro: LOS SANTOS - SANTANDER                                             3
 ACTION:UPD 13-03-12 09:36 OP:ep   STATUS:               ID:20130226183713 L   I
 2013-02-26-1830-00M.COL___228                                                 6
 STAT SP IPHASW D HRMM SECON CODA AMPLIT PERI AZIMU VELO AIN AR TRES W  DIS CAZ7
 BAR2 SZ EP   1   1837 32.64                             172    0.05 7 20.2 187 
 BAR2 SZ ES   1   1837 47.47                             172   -0.30 7 20.2 187 
 BAR2 SZ I        1837 50.46        31.3 0.30            168           20.2 187 
 BRR  HZ EP   1   1837 34.53                             152    0.35 7 71.2 301 
 BRR  HN ES   1   1837 51.43                             152    0.83 7 71.2 301 
 BRR  HZ I        1837 55.81        12.9 0.54            150           71.2 301 
 PAM  SZ EP   1   1837 35.49                             150    0.04 7 80.7  39 
 PAM  SN ES   1   1837 52.45                             150   -0.41 7 80.7  39 
 PAM  SZ I        1837 53.85         6.0 0.18            156           80.7  39 
 RUS  HZ EP   1   1837 36.43                             144   -0.16 7 97.8 175 
 RUS  HN ES   1   1837 55.00                             144    0.11 7 97.8 175 
 RUS  HZ I        1837 56.37         7.0 0.24            147           97.8 175 
 PTB  HZ EP   1   1837 39.22                             132   -0.60 7  146 260 
 PTB  HN ES   1   1838  0.00                             132   -0.64 7  146 260 
 PTB  HZ I        1838  6.52         5.8 0.22            132            146 260 
 ZAR  HN ES   1   1838 10.55                             122   -0.14 6  204 293 
 ZAR  HZ I        1838 16.97         6.7 0.44            123            204 293 
 CHI  HZ EP   1   1837 50.46                             117    0.05 6  245 195 
 CHI  HN ES   1   1838 20.16                             117    0.66 6  245 195 
 CHI  HZ I        1838 23.58         3.1 0.40            120            245 195 
 SML  HN ES   1   1838 18.95                             117    0.34 6  246 336 
                                                                                
