 2017  126 1905 22.9 L   6.799 -73.160145.3  RSN  4 0.2 1.6LRSN                1
 GAP=135        0.45       2.4     2.9  4.3  0.4611E+00  0.3229E+01 -0.9001E+00E
 Epicentro: LOS SANTOS - SANTANDER                                             3
 ACTION:UPD 17-05-22 16:03 OP:jn   STATUS:               ID:20170126190522 L   I
 OLDACT:UP  17-01-26 22:38 OP:dnl  STATUS:               ID:20170126185747d    3
 OLDACT:DUP 17-01-26 22:35 OP:dnl  STATUS:               ID:20170126185747d    3
 2017-01-26-1858-00M.COL___343                                                 6
 STAT SP IPHASW D HRMM SECON CODA AMPLIT PERI AZIMU VELO AIN AR TRES W  DIS CAZ7
 BAR2 EZ EP   2   19 5 42.23                             171   -0.24 5 23.0 186 
 BAR2 EZ ES       19 5 57.64                             171   -0.0910 23.0 186 
 BAR2 EZ I        19 6  0.12        13.5 0.18            172           23.0 186 
 PAM  EZ EP       19 5 45.33                             150    0.1910 78.5  40 
 PAM  EN ES       19 6  2.41                             150   -0.0710 78.5  40 
 PAM  EZ I        19 6  5.16         4.5 0.46            153           78.5  40 
 RUS  HZ EP       19 5 46.41                             144   -0.2010  101 175 
 RUS  HN ES       19 6  5.29                             144    0.1910  101 175 
 RUS  HZ I        19 6  6.42         4.1 0.30            147            101 175 
 ZAR  HZ EP   4   19 5 57.09                             122    1.92 0  203 292 
 ZAR  HE ES       19 6 20.37                             122    0.04 9  203 292 
 ZAR  HZ I        19 6 26.21         5.0 0.28            123            203 292 
                                                                                
