 2011  726 1303 13.7 L   6.796 -73.086139.2  RSN  5 0.1 1.7LRSN                1
 GAP=165        0.37       2.9     5.3  3.9  0.4774E+01 -0.5581E+01 -0.2765E+01E
 Epicentro: LOS SANTOS - SANTANDER                                             3
 ACTION:UPD 12-07-25 14:03 OP:epov STATUS:               ID:20110726130313 L   I
 2011-07-26-1259-25S.COL___144                                                 6
 STAT SP IPHASW D HRMM SECON CODA AMPLIT PERI AZIMU VELO AIN AR TRES W  DIS CAZ7
 BAR2 SZ EP   1   13 3 32.48                             169   -0.05 7 24.9 205 
 BAR2 SZ ES   1   13 3 47.12                             169   -0.14 7 24.9 205 
 BAR2 SZ I        13 3 48.86        12.9 0.17                          24.9 205 
 BRR  HZ EP   1   13 3 34.21                             149   -0.25 7 77.3 296 
 BRR  HN ES   1   13 3 50.88                             149    0.18 7 77.3 296 
 BRR  HZ I        13 3 52.05        19.1 0.08                          77.3 296 
 RUS  HZ EP   2   13 3 36.89                             143    0.18 5 99.9 180 
 RUS  HN ES   1   13 3 54.77                             143    0.07 7 99.9 180 
 RUS  HZ I        13 3 56.58         8.6 0.24                          99.9 180 
 GRA  SZ EP   1   13 3 38.31                             136    0.11 7  124  14 
 GRA  SZ I        13 3 59.13         5.5 0.20                           124  14 
 PRA  HZ EP   1   13 4  7.32                             105    0.02 4  395 210 
                                                                                
