 2016 1226 1710 44.9 L   6.799 -73.148146.0  RSN 14 0.5 2.4LRSN                1
 GAP=101        1.22       4.5     3.5  6.2  0.1352E+01  0.7389E+01  0.4217E+01E
 Epicentro: LOS SANTOS - SANTANDER                                             3
 ACTION:UPD 17-01-11 20:19 OP:rebc STATUS:               ID:20161226171044 L   I
 OLDACT:UP  16-12-26 22:37 OP:cog  STATUS:               ID:20161226170748     3
 OLDACT:REG 16-12-26 20:49 OP:cog  STATUS:               ID:20161226170748     3
 2016-12-26-1708-00M.COL___375                                                 6
 STAT SP IPHASW D HRMM SECON CODA AMPLIT PERI AZIMU VELO AIN AR TRES W  DIS CAZ7
 BAR2 EZ IP     C 1711  4.37                             171   -0.1610 23.2 189 
 BAR2 EZ ES       1711 19.67                             171   -0.1910 23.2 189 
 BAR2 EZ I        1711 21.57        57.6 0.56            166           23.2 189 
 BRR  HZ IP       1711  6.22                             153    0.1810 71.1 299 
 BRR  HN ES       1711 23.58                             153    1.0310 71.1 299 
 BRR  HZ I        1711 26.80        71.5 0.14            155           71.1 299 
 PAM  EZ EP       1711  7.03                             151   -0.1010 77.6  40 
 PAM  EN ES       1711 24.59                             151    0.1110 77.6  40 
 PAM  EZ I        1711 26.14        33.3 0.22            157           77.6  40 
 RUS  HZ EP       1711  8.22                             144   -0.4210  100 176 
 RUS  HN ES       1711 27.18                             144    0.0110  100 176 
 RUS  HZ I        1711 29.60        20.6 0.17            143            100 176 
 PTB  HZ EP       1711 11.04                             132   -0.80 9  148 259 
 PTB  HN ES       1711 31.80                             132   -1.07 9  148 259 
 PTB  HZ I        1711 36.98        50.9 0.27            133            148 259 
 TAM  HZ EP       1711 12.54                             131   -0.04 9  155 105 
 TAM  HN ES       1711 34.10                             131   -0.10 9  155 105 
 TAM  HZ I        1711 34.86        30.7 0.22            133            155 105 
 ZAR  HZ EP       1711 17.13                             122   -0.18 9  204 292 
 ZAR  HE ES       1711 42.94                             122    0.32 9  204 292 
 CHI  HZ EP       1711 23.35                             117    0.79 8  248 195 
 CHI  HE ES       1711 52.45                             117    0.49 8  248 195 
 CHI  HZ I        1712  1.55        10.7 0.36            118            248 195 
 ROSC BZ EP   4   1711 25.37                             117    2.39 0  253 211 
 ROSC BN ES   4   1711 51.19                             117   -1.51 0  253 211 
 ROSC BZ I        1712  2.44        25.8 0.35            118            253 211 
 URE  HZ EP       1711 25.08                             114   -0.85 7  284 292 
 URE  HE ES   4   1711 55.40                             114   -2.56 0  284 292 
 GUY2CHZ EP       1711 28.94                             112    0.48 7  301 235 
 GUY2CHN ES       1712  2.82                             112    0.36 7  301 235 
 GUY2CHZ I        1712 11.30        30.2 0.72                           301 235 
 ELA  HZ EP   4   1711 34.00                             110    2.30 0  329 229 
 ELA  HN ES   4   1712  7.90                             110   -0.33 0  329 229 
 CBOC HZ EP       1711 32.62                             110    0.85 7  333 252 
 CBOC HN ES       1712  7.68                             110   -0.66 7  333 252 
 DBB  EZ EP       1711 32.81                             109    0.48 7  339 274 
 DBB  EN ES       1712  9.66                             109    0.31 7  339 274 
 ANIL HE ES   4   1712 15.71                             108    2.22 0  357 225 
 ORTC HZ ES   3   1712 20.31                             106   -0.50 1  395 216 
                                                                                
