 2011  926 1745 24.0 L   6.689 -73.212140.0  RSN  4 0.4 1.6LRSN                1
 GAP=177        0.58      25.8    15.2  8.4  0.3534E+03  0.3029E+02  0.3303E+02E
 Epicentro: VILLANUEVA - SANTANDER                                             3
 ACTION:UPD 12-07-13 16:00 OP:ep   STATUS:               ID:20110926174524 L   I
 2011-09-26-1740-10S.COL___165                                                 6
 STAT SP IPHASW D HRMM SECON CODA AMPLIT PERI AZIMU VELO AIN AR TRES W  DIS CAZ7
 BAR2 SZ EP   2   1745 42.04                             175   -0.68 5 11.2 163 
 BAR2 SZ ES   2   1745 57.72                             175    0.38 5 11.2 163 
 BAR2 SZ I        1746  4.69         5.1 0.64                          11.2 163 
 BTL  SZ EP   2   1745 43.49                             169    0.52 5 26.1 346 
 BRR  HZ EP   1   1745 44.39                             151   -0.16 7 72.0 310 
 BRR  HN ES   1   1746  0.52                             151   -0.08 7 72.0 310 
 BRR  HZ I        1746  4.83        12.1 0.11                          72.0 310 
 ZAR  HZ EP   2   1745 56.36                             121    0.49 4  202 296 
 ZAR  HE ES   1   1746 20.73                             121   -0.02 6  202 296 
 ZAR  HZ I        1746 26.22         5.8 0.24                           202 296 
                                                                                
