 2011  826 1415 28.2 L   6.540 -73.537108.7  RSN  6 0.3 2.0LRSN                1
 GAP= 89        0.65       3.9     4.1  7.4  0.7525E+00  0.1497E+02  0.5679E+01E
 Epicentro: EL CARMEN DE CHUCURI - SANTANDER                                   3
 ACTION:UPD 12-07-13 15:53 OP:ep   STATUS:               ID:20110826141528 L   I
 2011-08-26-1411-05S.COL___162                                                 6
 STAT SP IPHASW D HRMM SECON CODA AMPLIT PERI AZIMU VELO AIN AR TRES W  DIS CAZ7
 BAR2 SZ EP       1415 44.15                             159    0.1910 39.7  82 
 BAR2 SZ ES   1   1415 56.59                             159    0.32 7 39.7  82 
 BAR2 SZ I        1415 57.88       131.6 0.34                          39.7  82 
 BRR  HZ EP   1   1415 44.61                             146   -0.47 7 65.6 343 
 BRR  HZ I        1415 45.11        28.8 0.10                          65.6 343 
 BRR  HN ES   1   1415 58.26                             146    0.00 7 65.6 343 
 GIR2 SZ EP   1   1415 45.57                             145   -0.06 7 70.7  33 
 RUS  HZ EP   1   1415 47.38                             139   -0.02 7 87.5 145 
 RUS  HN ES   1   1416  1.99                             139   -0.40 7 87.5 145 
 RUS  HZ I        1416  4.37         8.2 0.25                          87.5 145 
 NOR  SN ES   1   1416 18.34                             116    0.27 7  183 234 
 HEL  HZ EP   1   1416  1.67                             111    0.48 6  224 260 
 HEL  HN ES   2   1416 26.17                             111   -0.78 4  224 260 
 HEL  HZ I        1416 32.86         7.1 0.30                           224 260 
                                                                                
