 2011  126 1118 20.7 L   7.413 -73.269130.0  RSN  5 0.4 1.5LRSN                1
 GAP=225        0.90      15.8    40.4 14.2 -0.5684E+03  0.3112E+03 -0.9320E+02E
 Epicentro: EL PLAYON - SANTANDER                                              3
 ACTION:UP  11-02-08 08:42 OP:pat  STATUS:               ID:20110126111820 L   I
 2011-01-26-1116-14S.COL___138                                                 6
 STAT SP IPHASW D HRMM SECON CODA AMPLIT PERI AZIMU VELO SNR AR TRES W  DIS CAZ7
 GIR2 SZ IP       1118 39.36                             163     0.710   38 167 
 GIR2 SZ ES   2   1118 52.25                             163    -0.5 5   38 167 
 BTL  SZ IP       1118 39.20                             156    -0.410   55 180 
 GRA  SZ IP       1118 40.29                             149    -0.210   73  44 
 GRA  SZ ES   1   1118 56.09                             149     0.1 7   73  44 
 GRA  SZ I        1118 57.56         7.2 0.26                            73  44 
 BAR2 SZ EP   2   1118 41.78                             143    -0.1 5   91 174 
 BAR2 SZ ES   2   1118 58.62                             143     0.2 5   91 174 
 BAR2 SZ I        1119  1.25         4.9 0.71                            91 174 
 RUS  HZ EP   2   1118 48.86                             125    -0.3 5  169 173 
                                                                                
