 2015 1126 1314  0.7 L   6.759 -73.161144.7  RSN  8 0.4 1.9LRSN                1
 GAP=136        0.82       3.3     3.6  5.5 -0.1544E+01  0.5023E+01 -0.1750E+01E
 Epicentro: LOS SANTOS - SANTANDER                                             3
 ACTION:UPD 15-12-28 16:13 OP:cam  STATUS:               ID:20151126131400 L   I
 OLDACT:UP  15-11-26 22:29 OP:ak   STATUS:               ID:20151126130751d    3
 OLDACT:UP  15-11-26 22:28 OP:ak   STATUS:               ID:20151126130751d    3
 OLDACT:DUP 15-11-26 22:25 OP:ak   STATUS:               ID:20151126130751d    3
 2015-11-26-1307-50M.COL___301                                                 6
 STAT SP IPHASW D HRMM SECON CODA AMPLIT PERI AZIMU VELO AIN AR TRES W  DIS CAZ7
 BAR2 EZ EP     D 1314 19.96                             172   -0.1910 18.6 187 
 BAR2 EZ ES       1314 35.48                             172    0.1910 18.6 187 
 BAR2 EZ I        1314 36.21        14.7 0.14            172           18.6 187 
 BRR  HZ EP       1314 22.03                             152    0.2210 72.0 302 
 BRR  HN ES       1314 38.28                             152    0.0310 72.0 302 
 BRR  HZ I        1314 40.04        16.0 0.17            150           72.0 302 
 PAM  EZ EP       1314 23.21                             149    0.0910 81.9  38 
 PAM  EN ES       1314 40.70                             149    0.1310 81.9  38 
 PAM  EZ I        1314 42.56        14.0 0.42            152           81.9  38 
 RUS  HZ EP   2   1314 23.80                             145   -0.27 5 96.2 175 
 RUS  HE ES   2   1314 41.65                             145   -0.62 5 96.2 175 
 RUS  HZ I        1314 43.41         8.6 0.34            147           96.2 175 
 PTB  HZ EP   2   1314 27.08                             132   -0.31 5  145 260 
 PTB  HN ES       1314 47.46                             132   -0.72 9  145 260 
 PTB  HZ I        1314 53.55         8.8 0.36            132            145 260 
 SPBC HZ EP       1314 28.84                             130    0.12 9  159 220 
 SPBC HN ES       1314 50.75                             130    0.20 9  159 220 
 SPBC HZ I        1314 53.06        14.9 0.24            130            159 220 
 ZAR  HZ EP       1314 33.35                             122    0.22 9  204 293 
 ZAR  HN ES       1314 59.06                             122    0.67 9  204 293 
 ZAR  HZ I        1315  5.11        11.8 0.30            123            204 293 
 SML  HZ EP   2   1314 37.36                             117   -0.31 4  247 336 
 SML  HN ES       1315  5.83                             117   -0.65 8  247 336 
 SJC  HZ EP   4   1314 54.90                             105   -1.70 0  412 327 
 SJC  HN ES   4   1315 37.19                             105   -2.98 0  412 327 
                                                                                
