 2014 1026 1751 26.7 L   6.765 -73.153143.7  RSN  7 0.3 2.0LRSN                1
 GAP= 97        0.89       4.1     3.8  5.7 -0.3786E+01 -0.9715E+00  0.3400E+01E
 Epicentro: LOS SANTOS - SANTANDER                                             3
 ACTION:UPD 14-11-29 23:57 OP:nd   STATUS:               ID:20141026175126 L   I
 OLDACT:DUP 14-10-29 21:56 OP:stll STATUS:               ID:20141026174751d    3
 2014-10-26-1747-50M.COL___280                                                 6
 STAT SP IPHASW D HRMM SECON CODA AMPLIT PERI AZIMU VELO AIN AR TRES W  DIS CAZ7
 BAR2 SZ EP       1751 46.24                             172    0.2210 19.4 189 
 BAR2 SZ ES       1752  0.81                             172   -0.2710 19.4 189 
 BAR2 SZ I        1752  2.95        13.6 0.46            171           19.4 189 
 BRR  HZ IP     C 1751 48.00                             152    0.2910 72.4 302 
 BRR  HE ES       1752  4.70                             152    0.6210 72.4 302 
 BRR  HE I        1752  6.35        30.6 0.24            151           72.4 302 
 PAM  SZ EP       1751 49.01                             149    0.0810 80.9  38 
 PAM  SE ES       1752  5.75                             149   -0.5010 80.9  38 
 PAM  SE I        1752  8.35        12.2 0.54            152           80.9  38 
 RUS  HZ EP       1751 50.22                             144    0.2310 96.8 175 
 RUS  HE ES       1752  8.38                             144    0.2410 96.8 175 
 RUS  HE I        1752  9.28        14.0 0.34            146           96.8 175 
 PTB  HZ EP       1751 52.76                             132   -0.62 9  146 260 
 PTB  HE ES       1752 13.98                             132   -0.19 9  146 260 
 PTB  HE I        1752 19.19        12.0 0.26            132            146 260 
 TAM  HZ EP       1751 54.20                             130   -0.02 9  155 104 
 SPBC HZ EP       1751 54.81                             129    0.09 9  160 220 
 SPBC HE ES       1752 16.28                             129   -0.28 9  160 220 
 SPBC HE I        1752 20.41        25.5 0.20            130            160 220 
                                                                                
