 2015  326 1106 30.5 L   6.823 -73.134142.5  RSN 26 0.6 3.2LRSN                1
 GAP= 56        1.79       3.9     4.3  7.3 -0.3152E+01  0.5147E+01  0.2902E+01E
 Epicentro: LOS SANTOS - SANTANDER                                             3
      23.0      31.0    -125.0 10.0 10.0  5.0  0.1  0.1           RSN FPFIT    F
 ACTION:UPD 15-04-30 16:29 OP:nd   STATUS:               ID:20150326110630 L   I
 OLDACT:DUP 15-03-26 22:10 OP:stll STATUS:               ID:20150326105751d    3
 OLDACT:REG 15-03-26 20:53 OP:stll STATUS:               ID:20150326105750     3
 2015-03-26-1057-50M.COL___275                                                 6
 STAT SP IPHASW D HRMM SECON CODA AMPLIT PERI AZIMU VELO AIN AR TRES W  DIS CAZ7
 BAR2 EZ IP     D 11 6 50.18                             169    0.3710 26.1 192 
 BAR2 EZ ES       11 7  4.80                             169   -0.0610 26.1 192 
 BAR2 EZ I        11 7  6.18       414.8 0.18            167           26.1 192 
 BRR  HZ IP     D 11 6 52.06                             152    0.7510 71.2 296 
 BRR  HN ES       11 7  8.52                             152    0.9910 71.2 296 
 BRR  HZ I        11 7 13.29       281.4 0.14            147           71.2 296 
 PAM  SZ IP     D 11 6 53.02                             151    0.8010 74.6  40 
 PAM  SZ I        11 6 53.39       632.6 0.22            152           74.6  40 
 PAM  SN ES       11 7  9.57                             151    0.4310 74.6  40 
 RUS  HZ IP     C 11 6 54.06                             142   -0.0710  103 177 
 RUS  HN ES       11 7 12.16                             142   -0.3810  103 177 
 RUS  HZ I        11 7 13.45       162.0 0.22            142            103 177 
 PTB  HZ EP       11 6 57.13                             131   -0.25 9  150 258 
 PTB  HN ES       11 7 17.73                             131   -0.61 9  150 258 
 PTB  HZ I        11 7 21.13       150.3 0.16            127            150 258 
 TAM  HZ IP     C 11 6 58.52                             129    0.64 9  155 106 
 TAM  HZ I        11 6 58.70       191.3 0.20            131            155 106 
 TAM  HN ES       11 7 18.34                             129   -0.88 9  155 106 
 OCA  HZ IP     C 11 6 58.49                             129    0.14 9  158 353 
 OCA  HE ES       11 7 20.00                             129   -0.06 9  158 353 
 OCA  HZ I        11 7 23.79       438.7 0.36            127            158 353 
 SPBC HZ EP       11 6 59.09                             127    0.06 9  166 219 
 SPBC HE ES       11 7 20.59                             127   -0.69 9  166 219 
 SPBC HZ I        11 7 24.80       208.6 0.38            125            166 219 
 ZAR  HZ EP       11 7  3.24                             121    0.46 9  204 291 
 ZAR  HN ES       11 7 27.96                             121    0.02 9  204 291 
 ZAR  HZ I        11 7 34.10       164.3 0.34            119            204 291 
 NOR  HZ EP     D 11 7  6.21                             117   -0.12 8  237 234 
 NOR  HE ES       11 7 33.98                             117   -0.29 8  237 234 
 NOR  HZ I        11 7 37.66        90.7 0.22            115            237 234 
 SML  HZ EP       11 7  6.42                             117   -0.35 8  242 335 
 SML  HE ES       11 7 33.97                             117   -1.08 8  242 335 
 SML  HZ I        11 7 42.48       127.5 0.10            115            242 335 
 ROSC BZ IP     C 11 7 10.01                             115    1.24 8  256 211 
 ROSC BN ES       11 7 38.56                             115   -0.05 8  256 211 
 ROSC BZ I        11 7 47.76        76.5 0.35            114            256 211 
 HEL  HZ EP       11 7 10.68                             114   -0.09 8  274 255 
 HEL  HE ES       11 7 41.33                             114   -0.85 8  274 255 
 HEL  HZ I        11 7 49.26        55.8 0.38            112            274 255 
 URE  HZ EP   9   11 7 10.86                             113   -0.60 0  284 291 
 URE  HN ES       11 7 41.04                                   -1.76 7  284 291 
 GUY2CHZ EP       11 7 14.72                             111    0.46 7  304 235 
 GUY2CHE ES       11 7 48.09                             111   -0.29 7  304 235 
 GUY2CHZ I        11 7 56.91        55.0 0.62                           304 235 
 VIL  SZ EP       11 7 13.77                             111   -0.32 7  306 192 
 VIL  SE ES       11 7 48.19                             111    0.10 7  306 192 
 VIL  SZ I        11 7 53.18        52.3 0.46            110            306 192 
 PTGC HZ EP   9   11 7 13.45                             110   -0.99 0  311 159 
 PTGC HZ I        11 7 14.59       147.4 0.26            110            311 159 
 PTGC HN ES       11 7 46.08                                   -1.63 7  311 159 
 RREF HZ EP       11 7 17.43                             110    0.61 7  324 229 
 RREF HN ES       11 7 52.39                             110   -0.55 7  324 229 
 RREF HZ I        11 8  3.25        62.9 0.74            108            324 229 
 CBOC HZ EP       11 7 17.50                             109   -0.03 7  336 252 
 CBOC HZ I        11 7 20.47        24.4 0.16            107            336 252 
 DBB  SZ IP     C 11 7 18.41                             109    0.42 7  341 274 
 DBB  SZ I        11 8  1.09       151.5 0.32            107            341 274 
 MON  HZ EP   9   11 7 17.88                             108   -1.45 0  353 308 
 MON  HN ES       11 7 56.17                                    0.21 6  353 308 
 MON  HZ I        11 7 57.33        42.6 0.20            106            353 308 
 SDV  BZ IP     D 11 7 19.97                             108   -0.15 6  358  50 
 SDV  BN ES       11 7 56.42                             108   -2.40 6  358  50 
 SDV  BZ I        11 7 59.38        30.6 0.35            107            358  50 
 ORTC HZ EP       11 7 24.62                             105   -0.03 6  398 216 
 ORTC HZ I        11 7 26.94        33.6 0.64            104            398 216 
 ORTC HN ES       11 8  7.10                             105    0.22 6  398 216 
 SJC  HZ IP   9 C 11 7 24.51                             105   -1.29 0  408 327 
 SJC  HZ I        11 7 25.23        40.8 0.20            104            408 327 
 SJC  HN ES       11 8  5.87                                   -1.77 6  408 327 
 CRJC HZ EP   9   11 7 30.90                             103   -1.71 0  465   3 
 CRJC HZ I        11 7 31.15        27.7 0.10            102            465   3 
 CRJC HN ES       11 8 15.55                                   -3.79 5  465   3 
 URI  HZ EP   9   11 7 40.75                             100   -2.36 0  554  13 
 URI  HZ I        11 7 41.46         9.9 0.40             99            554  13 
 URI  HN ES       11 8 33.87                                   -3.51 4  554  13 
                                                                                
