 2017  126 1031 49.5 L   6.893 -73.268  4.7  RSN  7 0.3 1.9LRSN                1
 GAP=116        0.70       1.6     1.6  5.3  0.4429E+00  0.2352E+01 -0.2030E+01E
 Epicentro: BETULIA - SANTANDER                                                3
 ACTION:UPD 17-05-22 16:03 OP:jn   STATUS:               ID:20170126103149 L   I
 OLDACT:REG 17-01-26 20:07 OP:dnl  STATUS:               ID:20170126102742     3
 2017-01-26-1028-00M.COL___343                                                 6
 STAT SP IPHASW D HRMM SECON CODA AMPLIT PERI AZIMU VELO AIN AR TRES W  DIS CAZ7
 BAR2 EZ IP     C 1031 55.46                              91   -0.0810 34.5 164 
 BAR2 EZ ES       1032  0.28                              91    0.0010 34.5 164 
 BAR2 EZ I        1032  1.22        94.6 0.58             47           34.5 164 
 BRR  HZ IP     D 1031 58.35                              91    0.0310 54.5 296 
 BRR  HE ES       1032  5.35                              91    0.1210 54.5 296 
 BRR  HZ I        1032  7.10        48.1 0.14             47           54.5 296 
 PAM  EZ EP   2   1032  2.76                              91    0.09 5 79.9  52 
 PAM  EN ES       1032 12.74                              91   -0.2310 79.9  52 
 PAM  EZ I        1032 13.34        21.4 0.16             47           79.9  52 
 RUS  HZ IP       1032  7.83                              90    0.2210  112 170 
 RUS  HN ES       1032 21.69                              90   -0.0710  112 170 
 RUS  HZ I        1032 22.68        15.0 0.54             47            112 170 
 PTB  HZ IP     D 1032 11.10                              90    0.25 9  137 254 
 PTB  HN ES       1032 27.06                              90   -0.47 9  137 254 
 PTB  HZ I        1032 30.93        25.7 0.20             47            137 254 
 ZAR  HZ EP       1032 18.76                              56    0.62 9  188 291 
 ZAR  HE ES       1032 40.15                              56   -0.36 9  188 291 
 ZAR  HZ I        1032 41.83        29.4 0.68             37            188 291 
 URE  HZ EP   4   1032 31.24                              56    3.12 0  268 291 
 URE  HE ES   4   1033  0.51                              56    2.24 0  268 291 
 URE  HZ I        1033  5.93         5.0 0.20             37            268 291 
                                                                                
