 2013  226 1125  6.6 L   6.235 -73.695100.7  RSN  5 0.4 1.4LRSN                1
 GAP=111        0.72       5.4     4.6 10.8  0.9744E+01  0.2193E+02  0.2997E+02E
 Epicentro: LANDAZURI - SANTANDER                                              3
 ACTION:UPD 13-03-12 09:35 OP:ep   STATUS:               ID:20130226112506 L   I
 2013-02-26-1120-00M.COL___228                                                 6
 STAT SP IPHASW D HRMM SECON CODA AMPLIT PERI AZIMU VELO AIN AR TRES W  DIS CAZ7
 BAR2 SZ EP   1   1125 23.27                             143   -0.07 7 69.1  55 
 BAR2 SZ ES   1   1125 35.95                             143   -0.41 7 69.1  55 
 BAR2 SZ I        1125 37.65         9.9 0.22            146           69.1  55 
 RUS  HN ES   1   1125 38.27                             140    0.13 7 77.6 119 
 RUS  HN I        1125 39.73         5.5 0.22            142           77.6 119 
 PTB  HZ EP   1   1125 24.25                             134   -0.53 7 90.7 292 
 PTB  HN ES   1   1125 38.96                             134    0.04 7 90.7 292 
 PTB  HZ I        1125 39.68         5.4 0.12            138           90.7 292 
 BRR  HN ES   1   1125 40.34                             132    0.55 7 96.5 359 
 CHI  HZ EP   1   1125 34.50                             114    0.35 7  178 181 
                                                                                
