 2011 1226 1907 36.6 L   6.677 -73.041138.2  RSN  6 0.3 1.6LRSN                1
 GAP=156        0.57       4.9     5.6  8.4  0.4789E+01  0.1256E+02 -0.8821E+00E
 Epicentro: ARATOCA - SANTANDER                                                3
 ACTION:UPD 12-07-13 16:18 OP:ep   STATUS:               ID:20111226190736 L   I
 2011-12-26-1900-00M.COL___188                                                 6
 STAT SP IPHASW D HRMM SECON CODA AMPLIT PERI AZIMU VELO AIN AR TRES W  DIS CAZ7
 BAR2 SZ EP   1   19 7 55.30                             172    0.08 7 18.2 239 
 BAR2 SZ I        19 8 13.57        10.1 0.23                          18.2 239 
 GIR2 SZ EP   1   19 7 56.47                             160    0.53 7 47.5 339 
 PAM  SZ EP   1   19 7 58.33                             148    0.00 7 82.4  27 
 PAM  SN ES   2   19 8 14.76                             148   -0.53 5 82.4  27 
 PAM  SZ I        19 8 18.09         7.3 0.23                          82.4  27 
 RUS  HZ EP   1   19 7 58.49                             146   -0.15 7 86.9 183 
 RUS  HZ I        19 8  0.53         2.2 0.18                          86.9 183 
 RUS  HN ES   2   19 8 15.76                             146   -0.07 5 86.9 183 
 BRR  HZ EP   1   19 7 57.75                             146   -0.26 7 88.0 303 
 BRR  HE ES   2   19 8 15.17                             146    0.45 5 88.0 303 
 BRR  HZ I        19 8 16.87        22.6 0.16                          88.0 303 
 ZAR  HZ EP   1   19 8 10.31                             119    0.06 6  220 294 
 ZAR  HN ES   2   19 8 35.95                             119   -0.55 4  220 294 
                                                                                
