 2013  626 1346  6.4 L   6.779 -73.169144.3  RSN 10 0.5 2.0LRSN                1
 GAP=135        1.05       3.6     4.8  7.3 -0.9690E+00  0.9883E+01  0.9034E+00E
 Epicentro: LOS SANTOS - SANTANDER                                             3
 ACTION:UPD 14-01-08 09:57 OP:ep   STATUS:               ID:20130626134606 L   I
 OLDACT:REG 13-06-26 15:43 OP:carl STATUS:               ID:20130626133959     3
 2013-06-26-1339-59M.COL___267                                                 6
 STAT SP IPHASW D HRMM SECON CODA AMPLIT PERI AZIMU VELO AIN AR TRES W  DIS CAZ7
 BAR2 SZ EP       1346 25.78                             171   -0.0610 20.7 184 
 BAR2 SZ ES   1   1346 40.62                             171   -0.35 7 20.7 184 
 BAR2 SZ I        1346 41.67        25.0 0.16            170           20.7 184 
 GIR2 SZ EP       1346 26.03                             166    0.0310 33.3 355 
 GIR2 SZ ES   1   1346 40.59                             166   -0.65 7 33.3 355 
 BRR  HZ EP       1346 28.09                             153    0.7210 70.2 301 
 BRR  HN ES   1   1346 44.61                             153    0.91 7 70.2 301 
 BRR  HN I        1346 44.94        61.8 0.20            150           70.2 301 
 PAM  SZ EP       1346 28.91                             149    0.2010 80.8  40 
 PAM  SN ES   1   1346 45.88                             149   -0.20 7 80.8  40 
 PAM  SZ I        1346 48.10        11.6 0.64            153           80.8  40 
 RUS  HZ EP   1   1346 29.94                             144    0.04 7 98.4 174 
 RUS  HN ES   1   1346 48.36                             144    0.18 7 98.4 174 
 RUS  HZ I        1346 49.94        11.0 0.40            145           98.4 174 
 PTB  HZ EP       1346 32.74                             132   -0.28 9  145 260 
 PTB  HN ES   1   1346 53.32                             132   -0.43 7  145 260 
 PTB  HZ I        1346 56.54        13.6 0.48            131            145 260 
 ZAR  HZ EP   4   1346 41.18                             122    2.53 0  203 293 
 ZAR  HE ES       1347  4.40                             122    0.64 9  203 293 
 ZAR  HZ I        1347  9.95         8.1 0.46            122            203 293 
 NOR  HZ EP   1   1346 41.82                             119    0.10 6  231 235 
 NOR  HE ES       1347  8.50                             119   -0.73 8  231 235 
 NOR  HZ I        1347 17.06         4.3 0.16            119            231 235 
 SML  HZ EP   1   1346 42.27                             117   -0.84 6  245 336 
 SML  HE ES       1347 11.24                             117   -0.46 8  245 336 
 SML  HZ I        1347 15.06         8.3 0.26            117            245 336 
 CHI  HN ES       1347 13.13                             117    0.30 8  246 195 
                                                                                
