 2012  626 1754  7.3 L   6.789 -73.164148.0  RSN  8 0.4 2.4LRSN                1
 GAP=135        0.82       4.0     4.5  6.0 -0.3216E+01  0.6323E+01  0.5653E+00E
 Epicentro: LOS SANTOS - SANTANDER                                             3
 ACTION:UPD 12-08-06 17:52 OP:ep   STATUS:               ID:20120626175407 L   I
 2012-06-26-1750-00M.COL___201                                                 6
 STAT SP IPHASW D HRMM SECON CODA AMPLIT PERI AZIMU VELO AIN AR TRES W  DIS CAZ7
 BAR2 SZ EP       1754 27.38                             171    0.1710 21.8 185 
 BAR2 SZ ES   1   1754 42.55                             171   -0.16 7 21.8 185 
 BAR2 SZ I        1754 44.22        51.0 0.38                          21.8 185 
 BRR  HZ EP       1754 29.20                             153    0.5310 70.0 300 
 BRR  HZ I        1754 29.45        91.9 0.22                          70.0 300 
 BRR  HN ES   1   1754 46.14                             153    0.84 7 70.0 300 
 PAM  SZ EP       1754 30.19                             151    0.2610 79.7  40 
 PAM  SN ES   1   1754 47.26                             151   -0.29 7 79.7  40 
 PAM  SZ I        1754 49.40        21.4 0.50                          79.7  40 
 RUS  HZ EP       1754 31.17                             145   -0.0710 99.5 175 
 RUS  HN ES   2   1754 49.34                             145   -0.54 5 99.5 175 
 RUS  HZ I        1754 51.43        24.4 0.38                          99.5 175 
 PTB  HZ EP       1754 33.86                             133   -0.43 9  145 259 
 PTB  HN ES   1   1754 55.14                             133   -0.17 7  145 259 
 PTB  HZ I        1754 57.21        22.1 0.40                           145 259 
 OCA  HZ EP       1754 35.57                             130   -0.35 9  161 354 
 OCA  HN ES   1   1754 57.79                             130   -0.42 7  161 354 
 OCA  HZ I        1755  3.01        56.1 0.28                           161 354 
 ZAR  HZ EP       1754 39.91                             123    0.12 9  203 293 
 ZAR  HN ES   2   1755  4.27                             123   -0.82 4  203 293 
 ZAR  HZ I        1755 12.17        27.2 0.46                           203 293 
 NOR  SZ EP       1754 43.05                             119    0.10 8  232 234 
 NOR  SN ES   2   1755 10.50                             119   -0.22 4  232 234 
                                                                                
