 2012  126 1132  5.7 L   6.434 -73.448115.3  RSN  5 0.2 1.1LRSN                1
 GAP=130        0.44       4.8     6.4  9.9  0.1547E+02  0.4702E+02  0.2406E+02E
 Epicentro: SIMACOTA - SANTANDER                                               3
 ACTION:UP  12-02-03 08:21 OP:REBC STATUS:               ID:20120126113205 L   I
 2012-01-26-1130-00M.COL___188                                                 6
 STAT SP IPHASW D HRMM SECON CODA AMPLIT PERI AZIMU VELO SNR AR TRES W  DIS CAZ7
 BAR2 SZ EP   3   1132 21.69                             162    -0.3 2   34  59 
 BAR2 SZ ES   2   1132 35.03                             162     0.3 5   34  59 
 RUS  HZ EP       1132 24.43                             146     0.010   72 146 
 RUS  HZ I        1132 24.57         2.0 0.30                            72 146 
 RUS  HE ES   3   1132 38.98                             146     0.0 2   72 146 
 GIR2 SZ EP   3   1132 23.80                             144    -0.4 2   77  22 
 GIR2 SZ ES   2   1132 38.40                             144    -0.3 5   77  22 
 BRR  HZ EP       1132 24.44                             143     0.210   80 339 
 BRR  HZ I        1132 26.80         9.6 0.22                            80 339 
 PTB  HZ EP       1132 26.80                             133    -0.110  112 276 
 PTB  HZ I        1132 47.88         1.0 0.22                           112 276 
                                                                                
