 2017  126 1917 28.0 L   5.812 -74.019103.8  RSN  4 0.1 1.4LRSN                1
 GAP=169        0.36       2.5     1.4  4.7 -0.1416E+00 -0.7132E+00  0.2059E+01E
 Epicentro: FLORIAN - SANTANDER                                                3
 ACTION:UPD 17-05-22 16:03 OP:jn   STATUS:               ID:20170126191728 L   I
 OLDACT:DUP 17-01-26 22:40 OP:dnl  STATUS:               ID:20170126190750d    3
 2017-01-26-1908-00M.COL___343                                                 6
 STAT SP IPHASW D HRMM SECON CODA AMPLIT PERI AZIMU VELO AIN AR TRES W  DIS CAZ7
 PTB  HZ EP       1917 46.69                             134   -0.0010 93.8 329 
 PTB  HN ES       1918  1.25                             134    0.0010 93.8 329 
 PTB  HZ I        1918  3.56         6.8 0.12             47           93.8 329 
 NOR  HZ EP       1917 46.99                             133   -0.1310 98.1 254 
 NOR  HE ES       1918  2.09                             133    0.0710 98.1 254 
 NOR  HZ I        1918  5.03         8.7 0.12             47           98.1 254 
 RUS  HZ EP       1917 48.38                             132    0.1310  104  85 
 RUS  HN ES       1918  3.94                             132   -0.0810  104  85 
 RUS  HZ I        1918  5.49         2.2 0.38             47            104  85 
 ZAR  HN ES   4   1918 24.53                             111    2.18 0  208 334 
 ZAR  HZ I        1918 31.57         5.6 0.32             37            208 334 
                                                                                
