 2014  426 1504  4.9 L   6.551 -73.557101.0  RSN 12 0.5 2.4LRSN                1
 GAP= 97        1.08       2.7     3.0  7.5 -0.1403E+01  0.5150E+01 -0.2672E+01E
 Epicentro: EL CARMEN DE CHUCURI - SANTANDER                                   3
 ACTION:UPD 14-05-13 23:11 OP:nd   STATUS:               ID:20140426150404 L   I
 OLDACT:REG 14-04-26 20:30 OP:nd   STATUS:               ID:20140426150000     3
 2014-04-26-1500-00M.COL___270                                                 6
 STAT SP IPHASW D HRMM SECON CODA AMPLIT PERI AZIMU VELO AIN AR TRES W  DIS CAZ7
 RUS  HZ EP       15 4 23.53                             135   -0.1210 89.8 144 
 RUS  HN ES   1   15 4 38.61                             135    0.35 7 89.8 144 
 PTB  HZ EP     D 15 4 23.33                             131   -0.5310 99.4 269 
 PTB  HN ES       15 4 38.06                             131   -0.5710 99.4 269 
 PTB  HZ I        15 4 39.54        94.9 0.32            130           99.4 269 
 SPBC HZ EP       15 4 25.31                             127   -0.0910  115 210 
 SPBC HN ES       15 4 41.98                             127    0.6210  115 210 
 SPBC HZ I        15 4 44.01        99.5 0.26            128            115 210 
 PAM  SZ EP       15 4 27.19                             124   -0.1410  129  47 
 PAM  SN ES       15 4 44.90                             124    0.1010  129  47 
 PAM  SZ I        15 4 46.68        72.1 0.24            126            129  47 
 ZAR  HZ EP       15 4 32.50                             114    0.59 9  177 306 
 ZAR  HN ES   2   15 4 53.22                             114    0.26 4  177 306 
 ZAR  HZ I        15 5  2.08        29.9 0.12            114            177 306 
 NOR  HZ EP       15 4 31.95                             113   -0.50 9  182 233 
 NOR  HN ES       15 4 53.26                             113   -0.66 9  182 233 
 NOR  HZ I        15 4 56.04        40.8 0.16            114            182 233 
 CHI  HZ EP       15 4 36.54                             109    0.04 8  213 185 
 CHI  HN ES       15 5  1.15                             109    0.02 8  213 185 
 CHI  HZ I        15 5  6.50        14.3 0.28            111            213 185 
 HEL  HZ EP       15 4 37.53                             108    0.12 8  222 260 
 HEL  HN ES       15 5  3.04                             108    0.30 8  222 260 
 HEL  HZ I        15 5  5.75        22.0 0.36            109            222 260 
 URE  HZ EP   1   15 4 40.42                             105   -0.47 6  255 301 
 URE  HN ES   1   15 5  8.25                             105   -0.70 6  255 301 
 URE  HZ I        15 5 19.22        15.9 0.14            106            255 301 
 SML  HZ EP       15 4 40.46                             105   -0.38 8  255 347 
 SML  HN ES       15 5  9.59                             105    0.73 8  255 347 
 CBOC HZ EP       15 4 44.90                             103    0.65 7  282 255 
 CBOC HN ES       15 5 16.00                             103    1.08 7  282 255 
 CBOC HZ I        15 5 20.69        11.5 0.34            104            282 255 
 PRA  HZ EP       15 4 51.16                              99   -0.65 6  347 205 
 PRA  HN ES       15 5 28.70                              99    0.31 6  347 205 
 PRA  HZ I        15 5 31.04        14.1 0.24            100            347 205 
                                                                                
