 2015  126 1930 17.8 L   6.782 -73.156143.8  RSN  8 0.4 1.7LRSN                1
 GAP=136        0.87       3.9     4.2  7.2 -0.2515E+01  0.8240E+01  0.4569E+01E
 Epicentro: LOS SANTOS - SANTANDER                                             3
 ACTION:UPD 15-03-02 15:42 OP:nd   STATUS:               ID:20150126193017 L   I
 OLDACT:REG 15-01-26 22:46 OP:spq  STATUS:               ID:20150126192747     3
 2015-01-26-1927-47M.COL___275                                                 6
 STAT SP IPHASW D HRMM SECON CODA AMPLIT PERI AZIMU VELO AIN AR TRES W  DIS CAZ7
 BAR2 EZ EP       1930 37.09                             171   -0.0810 21.1 188 
 BAR2 EZ ES   1   1930 52.24                             171   -0.03 7 21.1 188 
 BAR2 EZ I        1930 53.07        15.5 0.16            170           21.1 188 
 PAM  SZ EP       1930 40.13                             150    0.1610 79.7  39 
 PAM  SE ES       1930 57.32                             150    0.0810 79.7  39 
 PAM  SZ I        1930 59.03         5.8 0.62            154           79.7  39 
 RUS  HZ EP       1930 41.06                             144   -0.1810 98.6 175 
 RUS  HN ES   1   1930 59.25                             144   -0.26 7 98.6 175 
 RUS  HZ I        1931  1.57         4.8 0.44            146           98.6 175 
 PTB  HZ EP       1930 43.92                             132   -0.57 9  146 260 
 PTB  HN ES   1   1931  4.47                             132   -0.82 7  146 260 
 PTB  HZ I        1931  7.89        14.7 0.10            131            146 260 
 SPBC HZ EP       1930 45.85                             129   -0.10 9  161 219 
 SPBC HE ES       1931  8.41                             129    0.52 9  161 219 
 SPBC HZ I        1931 12.84         5.4 0.16            129            161 219 
 ZAR  HN ES       1931 15.85                             122    0.56 9  204 293 
 ZAR  HZ I        1931 23.53         9.2 0.34            122            204 293 
 CHI  HZ EP   1   1930 55.56                             117    0.40 6  246 195 
 CHI  HE ES   1   1931 24.78                             117    0.49 6  246 195 
 CHI  HZ I        1931 28.51         2.3 0.28            118            246 195 
 GUY2CHZ EP   4   1931  2.58                             112    1.49 0  299 235 
 GUY2CHN ES   4   1931 37.43                             112    2.58 0  299 235 
 GUY2CHZ I        1931 44.49         2.0 0.28                           299 235 
                                                                                
