 2012  726 1958 31.8 L   6.752 -73.153143.8  RSN  5 0.4 1.8LRSN                1
 GAP=138        0.58       4.8     6.4  9.4 -0.3874E+01  0.1316E+02 -0.6997E+00E
 Epicentro: LOS SANTOS - SANTANDER                                             3
 ACTION:UPD 12-08-14 11:45 OP:ep   STATUS:               ID:20120726195832 L   I
 2012-07-26-1950-00M.COL___215                                                 6
 STAT SP IPHASW D HRMM SECON CODA AMPLIT PERI AZIMU VELO AIN AR TRES W  DIS CAZ7
 BAR2 SZ EP   3   1958 51.08                             172     0.0 2   18 191 
 BAR2 SZ ES   3   1959  6.00                             172    -0.1 2   18 191 
 BAR2 SZ I        1959  7.63        15.1 0.24            173             18 191 
 BRR  HZ EP       1958 53.16                             151     0.310   73 302 
 BRR  HN ES   3   1959  9.91                             151     0.6 2   73 302 
 BRR  HZ I        1959 11.20        13.6 0.14            151             73 302 
 PAM  SZ EP       1958 53.97                             149    -0.110   82  38 
 PAM  SN ES   2   1959 11.03                             149    -0.4 5   82  38 
 RUS  HZ EP       1958 55.03                             145     0.110   95 175 
 RUS  HN ES   2   1959 13.01                             145     0.0 5   95 175 
 PTB  HZ EP   2   1958 57.84                             131    -0.6 5  146 261 
 PTB  HN ES   3   1959 18.12                             131    -1.1 2  146 261 
