 2012  726 1307 36.2 L   6.732 -73.166145.2  RSN  4 0.2 1.6LRSN                1
 GAP=230        0.35       6.6     5.5  6.3  0.1166E+02  0.1074E+02  0.9321E+01E
 Epicentro: VILLANUEVA - SANTANDER                                             3
 ACTION:UPD 12-08-14 11:45 OP:ep   STATUS:               ID:20120726130736 L   I
 2012-07-26-1300-00M.COL___215                                                 6
 STAT SP IPHASW D HRMM SECON CODA AMPLIT PERI AZIMU VELO AIN AR TRES W  DIS CAZ7
 BAR2 SZ EP       13 7 55.57                             173    -0.110   16 187 
 BAR2 SZ I        13 7 55.96         6.6 0.34            174             16 187 
 BAR2 SZ ES   3   13 8 10.81                             173     0.0 2   16 187 
 BRR  HZ EP       13 7 57.41                             152     0.010   73 305 
 BRR  HZ I        13 8  4.14         8.1 0.52            145             73 305 
 BRR  HN ES   2   13 8 14.06                             152     0.1 5   73 305 
 RUS  HN ES   3   13 8 17.95                             146     0.5 2   93 174 
 PTB  HZ EP       13 8  2.90                             133     0.1 9  144 262 
 PTB  HN ES   3   13 8 23.09                             133    -0.5 2  144 262 
