 2013  626 1214 43.0 L   6.814 -73.156151.5  RSN 10 0.4 1.8LRSN                1
 GAP=184        0.80       3.6     4.7  6.4  0.3608E+01  0.2991E+01 -0.5356E-01E
 Epicentro: LOS SANTOS - SANTANDER                                             3
 ACTION:UPD 14-01-08 09:57 OP:ep   STATUS:               ID:20130626121443 L   I
 OLDACT:REG 13-06-26 15:40 OP:carl STATUS:               ID:20130626120959     3
 2013-06-26-1209-59M.COL___267                                                 6
 STAT SP IPHASW D HRMM SECON CODA AMPLIT PERI AZIMU VELO AIN AR TRES W  DIS CAZ7
 BAR2 SZ EP   1   1215  3.87                             170    0.53 7 24.7 187 
 BAR2 SZ ES   1   1215 18.47                             170   -0.74 7 24.7 187 
 BAR2 SZ I        1215 21.80        10.8 0.26            169           24.7 187 
 GIR2 SZ EP       1215  3.35                             168    0.0410 29.6 352 
 GIR2 SZ IPg  1   1215  3.35                             168    0.04 7 29.6 352 
 BRR  HN ES   1   1215 22.56                             154    0.98 7 69.5 298 
 RUS  HZ EP   1   1215  7.48                             144    0.05 7  102 175 
 RUS  HN ES   1   1215 26.30                             144   -0.18 7  102 175 
 RUS  HZ I        1215 27.08         6.6 0.28            144            102 175 
 PTB  HZ EP   1   1215 10.33                             133   -0.04 7  147 258 
 PTB  HN ES   1   1215 31.44                             133   -0.28 7  147 258 
 PTB  HZ I        1215 33.38         6.4 0.48            132            147 258 
 ZAR  HE ES       1215 41.21                             124    0.07 9  202 292 
 NOR  HZ EP   1   1215 18.70                             120   -0.37 6  235 234 
 NOR  HN ES   1   1215 47.10                             120   -0.10 6  235 234 
 NOR  HZ I        1215 52.43         4.2 0.18            119            235 234 
 SML  HZ EP   1   1215 19.49                             119   -0.26 6  242 335 
 SML  HN ES   1   1215 47.83                             119   -0.59 6  242 335 
 SML  HZ I        1215 54.01         6.4 0.24            119            242 335 
 CHI  HZ EP   1   1215 21.56                             118    0.41 6  250 195 
 CHI  HN ES   1   1215 50.97                             118    0.06 6  250 195 
 CHI  HZ I        1215 56.08         3.7 0.46            118            250 195 
 GUY2CHZ EP   4   1215 28.31                             113    1.43 0  301 234 
 GUY2CHE ES   4   1216  6.20                             113    5.10 0  301 234 
 GUY2CHZ I        1216  9.66         3.4 0.40                           301 234 
                                                                                
