 2011  126 1955  5.2 L   6.771 -73.104147.1  RSN  6 0.2 1.9LRSN                1
 GAP=187        0.64       4.1     8.3  5.6 -0.8414E+01  0.1670E+02 -0.4919E+01E
 Epicentro: LOS SANTOS - SANTANDER                                             3
 ACTION:UP  11-02-08 08:42 OP:pat  STATUS:               ID:20110126195505 L   I
 2011-01-26-1953-03S.COL___138                                                 6
 STAT SP IPHASW D HRMM SECON CODA AMPLIT PERI AZIMU VELO SNR AR TRES W  DIS CAZ7
 BAR2 SZ EP       1955 24.90                             171     0.010   22 204 
 BAR2 SZ ES   1   1955 40.23                             171    -0.1 7   22 204 
 BAR2 SZ I        1955 41.67        44.7 0.23                            22 204 
 BTL  SZ EP       1955 25.52                             170     0.510   24 312 
 BTL  SZ ES   2   1955 40.42                             170     0.0 5   24 312 
 GIR2 SZ EP       1955 25.07                             166    -0.110   35 344 
 GIR2 SZ ES   2   1955 40.84                             166     0.2 5   35 344 
 RUS  HZ EP       1955 28.83                             145     0.010   97 179 
 RUS  HZ I        1955 29.91         5.7 0.11                            97 179 
 RUS  HN ES   1   1955 47.01                             145    -0.2 7   97 179 
 OCA  SZ EP       1955 33.58                             129    -0.4 9  164 352 
 OCA  SZ I        1956  1.63        10.7 0.10                           164 352 
 NOR  SZ EP       1955 41.24                             119     0.0 8  237 236 
 NOR  SN ES   2   1956  9.09                             119    -0.2 4  237 236 
                                                                                
