 2017 1226 1901 52.3 L   5.790 -73.903107.7  RSN 10 0.5 2.0LRSN                1
 GAP=162        1.19       3.2     4.4  7.0 -0.5296E+01  0.3218E+01 -0.2223E+00E
 Epicentro: ALBANIA - SANTANDER                                                3
 ACTION:UPD 18-01-04 13:24 OP:rebc STATUS:               ID:20171226190152 L   I
 OLDACT:UP  17-12-27 01:02 OP:dnl  STATUS:               ID:20171226185740     3
 OLDACT:REG 17-12-26 23:01 OP:mg   STATUS:               ID:20171226185740     3
 2017-12-26-1858-00M.COL___427                                                 6
 STAT SP IPHASW D HRMM SECON CODA AMPLIT PERI AZIMU VELO AIN AR TRES W  DIS CAZ7
 SPBC HZ EP       19 2  6.99                             166   -0.2010 24.2 231 
 SPBC HN ES       19 2 18.80                             166    0.0110 24.2 231 
 PTB  HZ IP     C 19 2 11.32                             133   -0.8110  103 324 
 PTB  HN ES       19 2 27.09                             133   -0.4910  103 324 
 PTB  HZ I        19 2 30.38        14.0 0.22            134            103 324 
 ROSC BZ EP       19 2 13.59                             130   -0.1110  115 204 
 ROSC BN ES       19 2 30.15                             130   -0.2410  115 204 
 ROSC BZ I        19 2 34.41        22.8 0.35            131            115 204 
 BAR2 EZ EP       19 2 14.47                             128    0.5410  119  42 
 BAR2 EZ ES       19 2 31.42                             128    0.6310  119  42 
 BAR2 EZ I        19 2 33.10        39.0 0.42            129            119  42 
 GUY2CHZ EP       19 2 20.08                             117    0.24 9  174 249 
 GUY2CHN ES       19 2 42.19                             117    0.89 9  174 249 
 GUY2CHZ I        19 2 46.17         8.2 0.38                           174 249 
 ZAR  HZ EP       19 2 23.76                             111   -0.18 8  216 331 
 ZAR  HN ES       19 2 48.24                             111   -0.38 8  216 331 
 ZAR  HZ I        19 2 50.24        19.1 0.26            112            216 331 
 PAM  EZ EP       19 2 24.74                             111    0.07 8  217  38 
 PAM  EE ES   4   19 2 51.34                             111    1.43 0  217  38 
 PAM  EZ I        19 2 55.53         5.4 0.42            112            217  38 
 CBOC HZ EP   4   19 2 27.40                             109    1.20 0  234 272 
 CBOC HN ES       19 2 53.44                             109    0.81 8  234 272 
 CBOC HZ I        19 2 55.02         5.7 0.24            110            234 272 
 PRA  HZ EP   4   19 2 26.09                             107   -2.30 0  254 205 
 PRA  HE ES       19 2 55.83                             107   -0.71 8  254 205 
 PRA  HZ I        19 2 58.78         6.5 0.20            108            254 205 
 ORTC HZ EP       19 2 28.38                             107   -0.21 8  256 216 
 ORTC HN ES       19 2 57.14                             107    0.26 8  256 216 
 ORTC HZ I        19 3  0.16         5.3 0.30            108            256 216 
                                                                                
