 2016  126 1419 23.8 L   6.817 -73.194140.0  RSN  6 0.5 1.6LRSN                1
 GAP=134        1.06       5.2     4.8  8.0 -0.4065E+01  0.1247E+02  0.1235E+02E
 Epicentro: ZAPATOCA - SANTANDER                                               3
 ACTION:UPD 16-03-09 23:28 OP:cam  STATUS:               ID:20160126141923 L   I
 OLDACT:UP  16-01-27 01:18 OP:ak   STATUS:               ID:20160126140749d    3
 OLDACT:DUP 16-01-27 01:16 OP:ak   STATUS:               ID:20160126140749d    3
 2016-01-26-1407-47M.COL___334                                                 6
 STAT SP IPHASW D HRMM SECON CODA AMPLIT PERI AZIMU VELO AIN AR TRES W  DIS CAZ7
 BAR2 EZ EP       1419 42.45                             169   -0.2810 24.9 177 
 BAR2 EZ ES       1419 57.68                             169    0.1610 24.9 177 
 BAR2 EZ I        1419 58.62        11.8 0.24            170           24.9 177 
 PAM  EZ EP       1419 45.90                             149    0.4110 79.5  43 
 PAM  EN ES       1420  2.46                             149    0.0110 79.5  43 
 PAM  EZ I        1420  4.89         4.9 0.70            150           79.5  43 
 PTB  HZ EP       1419 49.10                             132   -0.71 9  143 258 
 PTB  HN ES       1420 10.10                             132   -0.04 9  143 258 
 PTB  HZ I        1420 11.66         2.6 0.22            133            143 258 
 ZAR  HZ EP   2   1419 55.92                             122    0.68 4  198 292 
 ZAR  HN ES       1420 19.67                             122   -0.13 9  198 292 
 ZAR  HZ I        1420 22.22         4.6 0.12            123            198 292 
 CHI  HZ EP       1420  0.34                             116   -0.85 8  249 194 
 CHI  HN ES       1420 30.55                             116    0.16 8  249 194 
 CHI  HZ I        1420 32.38         3.2 0.32            117            249 194 
 GUY2CHZ EP       1420  7.57                             112    0.84 7  298 234 
 GUY2CHE ES       1420 40.89                             112    0.64 7  298 234 
 GUY2CHZ I        1420 50.30         2.0 0.26                           298 234 
                                                                                
