 2011  826 1138 16.1 L   6.824 -73.103143.0  RSN 12 0.5 3.5LRSN                1
 GAP=141        0.96       3.7     6.0  6.4 -0.6308E+01  0.1167E+02  0.5017E+01E
 Epicentro: LOS SANTOS - SANTANDER                                             3
 ACTION:UPD 12-07-13 15:53 OP:ep   STATUS:               ID:20110826113816 L   I
 2011-08-26-1136-38S.COL___161                                                 6
 STAT SP IPHASW D HRMM SECON CODA AMPLIT PERI AZIMU VELO AIN AR TRES W  DIS CAZ7
 BAR2 SZ IP       1138 35.51                             169    0.0710 27.1 199 
 BAR2 SZ ES   1   1138 50.42                             169   -0.14 7 27.1 199 
 BAR2 SZ I        1138 51.95       600.3 0.41                          27.1 199 
 PAM  SZ EP       1138 38.18                             152    0.4910 72.4  38 
 PAM  SN ES   1   1138 54.92                             152    0.37 7 72.4  38 
 PAM  SZ I        1138 57.11       375.5 0.41                          72.4  38 
 BRR  HZ EP       1138 37.22                             151    0.1310 74.2 295 
 BRR  HN ES   1   1138 53.87                             151    0.39 7 74.2 295 
 BRR  HZ I        1138 57.67       849.1 0.22                          74.2 295 
 RUS  HZ EP       1138 39.54                             142   -0.1810  103 179 
 RUS  HZ I        1138 40.97       162.2 0.15                           103 179 
 RUS  HN ES   1   1138 57.28                             142   -0.90 7  103 179 
 OCA  SZ EP       1138 43.62                             129   -0.35 9  158 351 
 OCA  SZ ES   1   1139  5.11                             129   -0.62 7  158 351 
 OCA  SZ I        1139  8.63       528.0 0.21                           158 351 
 NOR  SZ EP       1138 51.47                             117   -0.74 8  240 235 
 NOR  SN ES   1   1139 20.34                             117   -0.07 6  240 235 
 CHI  HZ EP       1138 53.91                             116   -0.12 8  252 196 
 CHI  HN ES   1   1139 24.22                             116    0.58 6  252 196 
 CHI  HZ I        1139 29.75       126.4 0.37                           252 196 
 ROSC BZ EP       1138 55.48                             116    0.93 8  257 212 
 ROSC BZ I        1139 31.64       269.5 0.34                           257 212 
 HEL  HZ EP   1   1138 56.40                             114   -0.32 6  277 256 
 HEL  HN ES   2   1139 28.65                             114    0.22 4  277 256 
 RREF HZ EP   1   1139  2.99                             110    0.30 5  327 230 
 RREF HZ I        1139 46.68       128.0 0.27                           327 230 
 ANIL HZ EP   1   1139  7.05                             108    0.68 5  363 225 
 ANIL HN ES   1   1139 46.31                             108    0.71 5  363 225 
 ANIL HZ I        1139 53.04       247.4 0.33                           363 225 
 PRA  HZ EP   1   1139  9.10                             106   -0.93 4  397 210 
 PRA  HN ES   1   1139 51.57                             106   -0.56 4  397 210 
 PRA  HZ I        1139 59.87       346.8 0.28                           397 210 
                                                                                
