 2016 1026 1612 47.2 L   6.793 -73.131140.6  RSN 20 0.3 2.9LRSN                1
 GAP=139        0.69       2.0     2.6  3.3 -0.1756E+01  0.2625E+01  0.3041E+00E
 Epicentro: LOS SANTOS - SANTANDER                                             3
 ACTION:UPD 16-11-09 19:23 OP:rebc STATUS:               ID:20161026161247 L   I
 OLDACT:UP  16-10-26 23:47 OP:cara STATUS:               ID:20161026160746     3
 OLDACT:UP  16-10-26 23:46 OP:cara STATUS:               ID:20161026160746     3
 OLDACT:REG 16-10-26 20:48 OP:cara STATUS:               ID:20161026160746     3
 2016-10-26-1608-00M.COL___346                                                 6
 STAT SP IPHASW D HRMM SECON CODA AMPLIT PERI AZIMU VELO AIN AR TRES W  DIS CAZ7
 BAR2 EZ IP       1613  6.21                             170    0.0310 22.9 194 
 BAR2 EZ ES       1613 20.64                             170   -0.3610 22.9 194 
 BAR2 EZ I        1613 21.84       200.9 0.32            167           22.9 194 
 BRR  HZ EP       1613  7.96                             151    0.0810 73.0 298 
 BRR  HN ES       1613 24.62                             151    0.5910 73.0 298 
 BRR  HZ I        1613 28.48       122.5 0.14            148           73.0 298 
 PAM  EZ EP       1613  8.97                             150    0.1510 77.0  38 
 PAM  EN ES       1613 25.68                             150   -0.0210 77.0  38 
 PAM  EZ I        1613 27.92       281.0 0.48            153           77.0  38 
 RUS  HZ EP       1613 10.27                             143   -0.0910 99.7 177 
 RUS  HN ES       1613 28.71                             143    0.2710 99.7 177 
 PTB  HZ EP       1613 13.13                             130   -0.74 9  149 259 
 PTB  HN ES       1613 34.61                             130   -0.08 9  149 259 
 PTB  HZ I        1613 36.87        67.8 0.16            128            149 259 
 OCA  HZ EP       1613 14.84                             128   -0.35 9  161 353 
 OCA  HN ES   4   1613 35.61                             128   -1.43 0  161 353 
 SPBC HZ EP       1613 15.33                             128    0.00 9  164 220 
 SPBC HN ES       1613 37.14                             128   -0.15 9  164 220 
 SPBC HZ I        1613 43.16        98.7 0.26            126            164 220 
 NOR  HZ EP       1613 22.79                             117    0.08 8  236 235 
 NOR  HN ES       1613 50.30                             117   -0.13 8  236 235 
 NOR  HZ I        1613 56.13        47.9 0.22            116            236 235 
 CHI  HZ EP       1613 24.62                             116    0.06 8  248 196 
 CHI  HN ES       1613 53.66                             116   -0.06 8  248 196 
 CHI  HZ I        1613 57.20        21.9 0.34            116            248 196 
 ROSC BZ EP   4   1613 26.66                             116    1.62 0  253 211 
 ROSC BN ES   4   1613 55.18                             116    0.60 0  253 211 
 ROSC BZ I        1614  0.27        42.6 0.50            115            253 211 
 HEL  HZ EP       1613 27.58                             114    0.29 8  273 256 
 HEL  HN ES       1613 58.48                             114   -0.10 8  273 256 
 HEL  HZ I        1614  5.44        31.7 0.38            113            273 256 
 GUY2CHZ EP       1613 31.22                             111    0.56 7  302 235 
 GUY2CHN ES       1614  4.96                             111    0.39 7  302 235 
 GUY2CHZ I        1614 14.65        33.9 0.28                           302 235 
 PTGC HZ EP   4   1613 29.70                             111   -0.96 0  307 159 
 PTGC HN ES   4   1614  1.74                             111   -2.83 0  307 159 
 PTGC HZ I        1614  5.40        51.3 0.28            111            307 159 
 ELA  HZ EP   4   1613 36.01                             109    2.11 0  330 230 
 ELA  HN ES       1614 10.24                             109   -0.11 7  330 230 
 ELA  HZ I        1614 22.75        25.4 0.74            109            330 230 
 ANIL HZ EP   4   1613 38.95                             107    2.09 0  358 225 
 ANIL HN ES       1614 15.25                             107   -0.36 6  358 225 
 ANIL HZ I        1614 25.24        60.2 0.32            107            358 225 
 ARGC HZ EP       1613 37.22                             107    0.42 6  361 340 
 ARGC HN ES       1614 15.25                             107   -0.25 6  361 340 
 ARGC HZ I        1614 23.00        13.6 0.26            107            361 340 
 PRA  HZ EP       1613 40.37                             106   -0.17 6  392 210 
 PRA  HN ES       1614 22.12                             106   -0.04 6  392 210 
 PRA  HZ I        1614 28.30        36.6 0.22            105            392 210 
 ORTC HZ EP       1613 41.33                             105    0.36 6  396 216 
 ORTC HN ES   4   1614 23.97                             105    1.05 0  396 216 
 ORTC HZ I        1614 31.10        19.4 0.40            105            396 216 
 SJC  HZ EP   4   1613 40.50                             105   -2.26 0  411 327 
 SJC  HN ES   4   1614 21.21                             105   -4.91 0  411 327 
 SJC  HZ I        1614 26.07        23.2 0.60            105            411 327 
 CRJC HZ EP   4   1613 46.67                             102   -2.95 0  468   3 
 CRJC HN ES   4   1614 32.46                             102   -5.87 0  468   3 
 CRJC HZ I        1614 45.00        11.0 0.28            103            468   3 
                                                                                
