 2015  326 1531 34.3 L   6.747 -73.203136.1  RSN  5 0.4 1.6LRSN                1
 GAP=132        0.98       5.5     5.4  8.2 -0.7755E+01  0.1409E+02 -0.7601E+01E
 Epicentro: VILLANUEVA - SANTANDER                                             3
 ACTION:UPD 15-04-30 16:29 OP:nd   STATUS:               ID:20150326153134 L   I
 OLDACT:REG 15-03-26 20:58 OP:stll STATUS:               ID:20150326152749     3
 2015-03-26-1527-49M.COL___278                                                 6
 STAT SP IPHASW D HRMM SECON CODA AMPLIT PERI AZIMU VELO AIN AR TRES W  DIS CAZ7
 BAR2 EZ EP       1531 52.69                             172    0.0710 17.2 172 
 BAR2 EZ ES       1532  7.41                             172    0.4810 17.2 172 
 BAR2 EZ I        1532 10.62        10.8 0.28            170           17.2 172 
 BRR  HZ EP       1531 54.78                             151    0.5410 69.0 305 
 PAM  SZ EP     C 1531 55.60                             146   -0.4210 86.0  40 
 PAM  SN ES       1532 12.79                             146   -0.2010 86.0  40 
 PAM  SZ I        1532 13.88         5.7 0.18            154           86.0  40 
 RUS  HZ EP       1531 57.08                             143    0.3910 95.4 172 
 RUS  HE ES       1532 13.75                             143   -0.4310 95.4 172 
 RUS  HZ I        1532 18.22         7.2 0.42            147           95.4 172 
 PTB  HZ EP       1531 59.65                             131   -0.13 9  140 261 
 PTB  HN ES       1532 19.34                             131   -0.35 9  140 261 
 PTB  HZ I        1532 28.08         9.5 0.52            132            140 261 
                                                                                
