 2017  426 1621 12.0 L   6.769 -73.130141.0  RSN 14 0.5 2.4LRSN                1
 GAP=114        0.95       3.6     3.3  5.7 -0.1520E+01  0.4519E+01  0.4805E+01E
 Epicentro: LOS SANTOS - SANTANDER                                             3
 ACTION:UPD 17-05-30 21:16 OP:jn   STATUS:               ID:20170426162112 L   I
 OLDACT:UP  17-04-26 23:09 OP:and  STATUS:               ID:20170426161742     3
 OLDACT:UP  17-04-26 23:09 OP:and  STATUS:               ID:20170426161742     3
 OLDACT:UP  17-04-26 23:08 OP:and  STATUS:               ID:20170426161742     3
 OLDACT:UP  17-04-26 23:08 OP:and  STATUS:               ID:20170426161742     3
 OLDACT:UP  17-04-26 23:07 OP:and  STATUS:               ID:20170426161742     3
 OLDACT:UP  17-04-26 23:07 OP:and  STATUS:               ID:20170426161742     3
 OLDACT:UP  17-04-26 23:06 OP:and  STATUS:               ID:20170426161742     3
 OLDACT:UP  17-04-26 23:06 OP:and  STATUS:               ID:20170426161742     3
 OLDACT:UP  17-04-26 23:05 OP:and  STATUS:               ID:20170426161742     3
 OLDACT:REG 17-04-26 20:31 OP:and  STATUS:               ID:20170426161742     3
 2017-04-26-1618-00M.COL___375                                                 6
 STAT SP IPHASW D HRMM SECON CODA AMPLIT PERI AZIMU VELO AIN AR TRES W  DIS CAZ7
 BAR2 EZ EP       1621 31.15                             171    0.1310 20.4 196 
 BAR2 EZ ES       1621 45.74                             171   -0.1010 20.4 196 
 BAR2 EZ I        1621 46.98       127.3 0.22            166           20.4 196 
 BRR  HZ IP     C 1621 32.83                             151   -0.0110 74.3 300 
 BRR  HN ES       1621 49.87                             151    0.7910 74.3 300 
 BRR  HZ I        1621 50.93        55.2 0.14            150           74.3 300 
 PAM  EZ IP     D 1621 33.82                             149   -0.0110 79.0  37 
 PAM  EN ES       1621 50.49                             149   -0.3510 79.0  37 
 PAM  EZ I        1621 53.27        43.2 0.64            154           79.0  37 
 PTB  HZ EP   2   1621 37.81                             131   -0.89 5  149 260 
 PTB  HN ES       1621 58.67                             131   -0.84 9  149 260 
 PTB  HZ I        1622  0.60        33.3 0.46            129            149 260 
 SPBC HZ EP       1621 39.95                             128   -0.06 9  162 220 
 SPBC HN ES       1622  1.93                             128    0.09 9  162 220 
 SPBC HZ I        1622  5.95        41.1 0.12            126            162 220 
 YPLC HZ IP     D 1621 41.40                             126    0.30 9  173 151 
 YPLC HN ES   3   1622  5.12                             126    1.34 2  173 151 
 YPLC HZ I        1622  7.96        13.7 0.28            125            173 151 
 ZAR  HZ EP       1621 43.92                             121   -0.54 8  207 293 
 ZAR  HN ES       1622  9.98                             121    0.22 8  207 293 
 ZAR  HZ I        1622 15.91        24.4 0.20            121            207 293 
 TABC EZ ES   4   1622 19.36                             118    4.59 0  228 212 
 TABC EZ I        1622 20.72        23.7 0.66            117            228 212 
 NOR  HZ EP   2   1621 46.97                             117   -0.45 4  234 235 
 NOR  HN ES       1622 15.04                             117    0.01 8  234 235 
 NOR  HZ I        1622 18.96        20.7 0.42            116            234 235 
 CHI  HN ES       1622 18.23                             116    0.12 8  246 196 
 CHI  HZ I        1622 22.02         5.9 0.22            115            246 196 
 ROSC BN ES   4   1622 23.15                             116    4.12 0  251 212 
 ROSC BZ I        1622 29.56        17.0 0.35            115            251 212 
 HEL  HZ EP   2   1621 53.52                             114    1.43 4  273 257 
 HEL  HN ES       1622 23.49                             114    0.15 8  273 257 
 HEL  HZ I        1622 30.02        11.9 0.26            113            273 257 
 PTGC HZ EP   9   1621 54.17                             111   -1.07 0  305 159 
 PTGC HN ES       1622 27.11                             111   -0.77 7  305 159 
 CBOC HZ EP       1621 58.97                             109    0.16 7  334 253 
 CBOC HN ES       1622 35.32                             109    0.01 7  334 253 
 CBOC HZ I        1622 47.40         4.5 0.65            109            334 253 
                                                                                
