 2016  626 1211  3.3 L   6.539 -73.578108.0  RSN 10 0.5 2.0LRSN                1
 GAP=156        1.17       4.4     4.9  9.0  0.2439E+01  0.1154E+02  0.1114E+02E
 Epicentro: EL CARMEN - SANTANDER                                              3
 ACTION:UPD 16-07-21 22:23 OP:rebc STATUS:               ID:20160626121103 L   I
 OLDACT:REG 16-06-26 20:17 OP:dnl  STATUS:               ID:20160626120743     3
 2016-06-26-1207-43M.COL___333                                                 6
 STAT SP IPHASW D HRMM SECON CODA AMPLIT PERI AZIMU VELO AIN AR TRES W  DIS CAZ7
 BRR  HZ EP       1211 19.90                             147   -0.1410 64.5 347 
 BRR  HN ES       1211 34.08                             147    0.9710 64.5 347 
 BRR  HZ I        1211 38.26        16.0 0.40                          64.5 347 
 RUS  HZ EP       1211 22.31                             138   -0.3410 90.1 143 
 RUS  HN ES       1211 37.47                             138   -0.2910 90.1 143 
 RUS  HZ I        1211 39.19        13.6 0.30                          90.1 143 
 PTB  HZ EP     D 1211 21.95                             135   -0.6410 97.1 270 
 PTB  HN ES       1211 36.80                             135   -0.8610 97.1 270 
 PTB  HZ I        1211 38.30        29.6 0.16                          97.1 270 
 SPBC HZ EP       1211 24.14                             131    0.0810  112 209 
 SPBC HN ES       1211 40.83                             131    0.5610  112 209 
 SPBC HZ I        1211 42.45        34.4 0.18                           112 209 
 ZAR  HZ EP   2   1211 30.88                             117    0.36 4  176 307 
 ZAR  HE ES   4   1211 54.18                             117    2.42 0  176 307 
 ZAR  HZ I        1211 55.33        32.6 0.62                           176 307 
 NOR  HZ EP       1211 31.11                             117    0.24 9  179 233 
 NOR  HE ES       1211 52.63                             117    0.24 9  179 233 
 NOR  HZ I        1211 55.91        15.6 0.18                           179 233 
 HEL  HZ EP   2   1211 36.44                             111    0.68 4  219 260 
 HEL  HN ES   2   1212  1.34                             111    0.24 4  219 260 
 HEL  HZ I        1212  8.77         8.0 0.24                           219 260 
 URE  HZ EP   4   1211 38.38                             108   -0.96 0  254 302 
 URE  HN ES   2   1212  6.93                             108   -0.54 4  254 302 
 URE  HZ I        1212  9.92        12.9 0.16                           254 302 
 PRA  HZ EP   2   1211 49.83                             101   -0.22 3  344 205 
 PRA  HN ES       1212 26.96                             101    0.42 7  344 205 
 PRA  HZ I        1212 30.91         4.1 0.26                           344 205 
 SJC  HZ EP   4   1211 55.81                              98   -2.29 0  411 335 
 SJC  HN ES   4   1212 36.97                              98   -3.88 0  411 335 
 SJC  HZ I        1212 43.72         1.4 0.14                           411 335 
                                                                                
