 2010  626 1814 47.2 L   6.782 -73.083142.6  RSN 12 0.4 2.5LRSN                1
 GAP=163        0.99       3.6     7.4  6.7 -0.1174E+02  0.6959E+01  0.1507E+01E
 Epicentro: LOS SANTOS - SANTANDER                                             3
 ACTION:UP  10-08-24 10:13 OP:vdl  STATUS:               ID:20100626181447 L   I
 2010-06-26-1813-14S.COL___118                                                 6
 STAT SP IPHASW D HRMM SECON CODA AMPLIT PERI AZIMU VELO SNR AR TRES W  DIS CAZ7
 BAR2 SZ IP       1815  6.33                             170    -0.210   24 208 
 BAR2 SZ ES   1   1815 21.13                             170    -0.4 7   24 208 
 BRR  HZ IP     D 1815  8.25                             150    -0.210   78 297 
 BRR  HE ES   1   1815 25.01                             150     0.0 7   78 297 
 BRR  HZ I        1815 29.66        79.2 0.16                            78 297 
 RUS  HZ IP     C 1815 10.30                             144    -0.210   98 180 
 RUS  HN ES   1   1815 28.57                             144    -0.1 7   98 180 
 RUS  HZ I        1815 30.04        35.9 0.21                            98 180 
 BRI  SZ IP       1815 11.02                             140     0.210  108  17 
 BRI  SZ ES   1   1815 29.84                             140     0.7 7  108  17 
 GUE  SZ EP       1815 12.38                             138     0.710  117   9 
 GRA  SZ IP       1815 12.34                             136     0.110  126  14 
 GRA  SZ ES   1   1815 31.97                             136     0.3 7  126  14 
 OCA  SZ IP       1815 15.05                             128    -0.5 9  163 351 
 OCA  SZ ES   1   1815 36.86                             128    -0.8 7  163 351 
 OCA  SZ I        1815 40.53        40.3 0.36                           163 351 
 CHI  HZ EP   1   1815 24.28                             116    -0.5 6  249 197 
 CHI  HE ES   2   1815 54.21                             116     0.2 4  249 197 
 CHI  HZ I        1816  4.23        14.0 0.57                           249 197 
 HEL  HZ EP   2   1815 28.07                             113     0.1 4  278 257 
 HEL  HZ I        1816  5.42        18.7 0.42                           278 257 
 RREF HZ EP   1   1815 34.51                             110     0.8 5  326 230 
 RREF HN ES   1   1816 10.61                             110     0.7 5  326 230 
 RREF HZ I        1816 16.26        10.8 0.32                           326 230 
 DBB  SZ EP   2   1815 34.98                             108    -0.4 3  346 275 
 PRA  HZ EP   1   1815 40.11                             106    -0.7 4  394 211 
 PRA  HE ES   1   1816 23.04                             106     0.4 4  394 211 
 PRA  HZ I        1816 27.61        10.9 0.21                           394 211 
                                                                                
