 2010  926 1121  6.3 L   6.780 -73.098143.2  RSN 10 0.4 2.0LRSN                1
 GAP=164        0.92       3.7     6.8  6.7 -0.8243E+01  0.5055E+01  0.8985E+00E
 Epicentro: LOS SANTOS - SANTANDER                                             3
 ACTION:UP  11-02-18 11:05 OP:tino STATUS:               ID:20100926112106 L   I
 2010-09-26-1119-32S.COL___122                                                 6
 STAT SP IPHASW D HRMM SECON CODA AMPLIT PERI AZIMU VELO SNR AR TRES W  DIS CAZ7
 BAR2 SZ IP       1121 25.63                             170     0.010   23 204 
 BAR2 SZ ES   1   1121 40.56                             170    -0.1 7   23 204 
 BAR2 SZ I        1121 41.54        21.8 0.25                            23 204 
 BTL  SZ EP       1121 26.25                             170     0.610   24 309 
 BRR  HZ IP     C 1121 27.48                             150     0.010   77 298 
 BRR  HZ I        1121 27.76        46.7 0.22                            77 298 
 BRR  HE ES   1   1121 44.60                             150     0.5 7   77 298 
 RUS  HZ EP       1121 29.61                             144     0.010   98 179 
 RUS  HN ES   1   1121 47.77                             144    -0.1 7   98 179 
 RUS  HZ I        1121 49.34        11.9 0.43                            98 179 
 GUE  SZ EP   2   1121 31.61                             139     0.7 5  118   9 
 GRA  SZ IP       1121 31.48                             136     0.110  126  15 
 GRA  SZ I        1121 32.92        16.0 0.31                           126  15 
 GRA  SZ ES   1   1121 50.51                             136    -0.4 7  126  15 
 OCA  SZ EP       1121 34.11                             129    -0.6 9  163 351 
 OCA  SZ ES   2   1121 56.42                             129    -0.4 5  163 351 
 OCA  SZ I        1121 59.21        11.9 0.19                           163 351 
 NOR  SZ EP       1121 42.03                             118    -0.2 8  238 236 
 NOR  SN ES   1   1122  9.53                             118    -0.7 6  238 236 
 CHI  HZ EP       1121 44.07                             117     0.3 8  248 196 
 CHI  HE ES   2   1122 12.73                             117    -0.3 4  248 196 
 CHI  HZ I        1122 19.84         3.3 0.83                           248 196 
 HEL  HZ EP   2   1121 47.42                             114     0.5 4  277 257 
 HEL  HN ES   3   1122 19.80                             114     1.2 2  277 257 
 HEL  HZ I        1122 24.78         7.0 0.03                           277 257 
                                                                                
