 2014  926 1620 38.7 L   6.834 -73.139137.2  RSN  4 0.4 1.6LRSN                1
 GAP=202        0.86       5.0     6.4 13.2  0.1039E+02 -0.1516E+02 -0.4391E+02E
 Epicentro: LOS SANTOS - SANTANDER                                             3
 ACTION:UPD 14-10-03 23:08 OP:nd   STATUS:               ID:20140926162038 L   I
 OLDACT:UP  14-09-26 23:07 OP:cam  STATUS:               ID:20140926162000     3
 OLDACT:UP  14-09-26 23:07 OP:cam  STATUS:               ID:20140926162000     3
 OLDACT:REG 14-09-26 20:41 OP:cam  STATUS:               ID:20140926162000     3
 2014-09-26-1620-00M.COL___252                                                 6
 STAT SP IPHASW D HRMM SECON CODA AMPLIT PERI AZIMU VELO AIN AR TRES W  DIS CAZ7
 RUS  HZ EP       1621  1.48                             141   -0.4810  104 177 
 RUS  HN ES       1621 20.33                             141    0.2710  104 177 
 RUS  HZ I        1621 20.97         2.9 0.46            145            104 177 
 PTB  HZ EP       1621  5.79                             130    0.61 9  149 257 
 PTB  HN ES       1621 25.47                             130   -0.33 9  149 257 
 PTB  HZ I        1621 27.92         6.1 0.12            132            149 257 
 SPBC HE ES   1   1621 28.89                             126   -0.05 7  167 218 
 SML  HZ EP       1621 14.49                             116   -0.08 8  241 335 
 SML  HE ES       1621 42.55                             116    0.04 8  241 335 
 SML  HZ I        1621 44.71         4.9 0.28            118            241 335 
                                                                                
