 2015  126 1116 39.9 L   6.774 -73.136142.9  RSN 16 0.4 2.1LRSN                1
 GAP= 73        0.95       3.1     3.2  5.2 -0.1777E+01  0.2464E+01  0.1542E+01E
 Epicentro: LOS SANTOS - SANTANDER                                             3
 ACTION:UPD 15-03-02 15:42 OP:nd   STATUS:               ID:20150126111639 L   I
 OLDACT:UP  15-01-26 20:15 OP:spq  STATUS:               ID:20150126110749d    3
 OLDACT:DUP 15-01-26 20:06 OP:spq  STATUS:               ID:20150126110749d    3
 2015-01-26-1107-48M.COL___267                                                 6
 STAT SP IPHASW D HRMM SECON CODA AMPLIT PERI AZIMU VELO AIN AR TRES W  DIS CAZ7
 BAR2 EZ EP       1116 59.02                             171   -0.0710 20.7 194 
 BAR2 EZ ES   1   1117 13.79                             171   -0.31 7 20.7 194 
 BAR2 EZ I        1117 15.02        31.2 0.18            169           20.7 194 
 BRR  HZ EP     C 1117  0.93                             151    0.1010 73.6 300 
 BRR  HN ES       1117 17.93                             151    0.7310 73.6 300 
 BRR  HZ I        1117 21.06        20.7 0.14            151           73.6 300 
 PAM  SZ EP       1117  1.79                             150   -0.0810 79.0  38 
 PAM  SN ES       1117 18.90                             150   -0.1410 79.0  38 
 PAM  SZ I        1117 21.58        21.8 0.65            154           79.0  38 
 RUS  HZ EP   1   1117  3.04                             144   -0.07 7 97.6 177 
 RUS  HE ES   1   1117 21.73                             144    0.48 7 97.6 177 
 RUS  HZ I        1117 22.51        14.5 0.34            145           97.6 177 
 PTB  HZ EP       1117  5.89                             131   -0.75 9  148 260 
 PTB  HN ES       1117 26.68                             131   -0.85 9  148 260 
 PTB  HZ I        1117 28.63        14.5 0.28            131            148 260 
 TAM  HZ EP       1117  7.30                             130    0.16 9  153 104 
 SPBC HZ EP       1117  7.94                             129   -0.05 9  162 220 
 SPBC HN ES       1117 30.09                             129    0.16 9  162 220 
 SPBC HZ I        1117 35.40        17.4 0.19            129            162 220 
 OCA  HZ EP   1   1117  8.31                             128    0.08 7  163 353 
 OCA  HN ES   4   1117 27.82                             128   -2.55 0  163 353 
 OCA  HZ I        1117 33.81        10.1 0.48            131            163 353 
 ZAR  HZ EP       1117 12.96                             122    0.62 8  206 293 
 ZAR  HN ES       1117 37.66                             122   -0.01 8  206 293 
 ZAR  HZ I        1117 43.59        14.7 0.34            122            206 293 
 NOR  HZ EP       1117 14.84                             118   -0.49 8  234 235 
 NOR  HN ES       1117 42.81                             118   -0.20 8  234 235 
 NOR  HZ I        1117 48.04         9.3 0.22            119            234 235 
 CHI  HZ EP   1   1117 17.15                             117    0.03 6  246 196 
 CHI  HN ES   1   1117 46.23                             117    0.04 6  246 196 
 CHI  HZ I        1117 53.50         3.9 0.30            118            246 196 
 SML  HZ EP   1   1117 16.11                             117   -0.55 6  247 335 
 SML  HE ES   1   1117 45.40                             117    0.03 6  247 335 
 HEL  HZ EP   1   1117 20.67                             114    0.71 6  272 256 
 HEL  HE ES   1   1117 51.19                             114   -0.06 6  272 256 
 HEL  HZ I        1117 57.88         8.3 0.50            115            272 256 
 GUY2CHZ EP   1   1117 24.14                             112    0.90 5  300 235 
 GUY2CHN ES   1   1117 57.90                             112    0.81 5  300 235 
 GUY2CHZ I        1118  5.69         5.4 0.46                           300 235 
 RREF HZ EP   4   1117 27.51                             110    1.76 0  321 230 
 RREF HN ES   4   1118  3.01                             110    1.46 0  321 230 
 RREF HZ I        1118  8.05         6.9 0.24            111            321 230 
 MON  HE ES   4   1118  5.69                             108   -1.74 0  356 309 
 MON  HZ I        1118  5.97         3.1 0.18            109            356 309 
                                                                                
