 2013  926 1538 25.8 L   6.831 -73.154143.9  RSN  7 0.6 1.8LRSN 2.5WRSN        1
 SPEC AVERAGE  MO 12.9 ST200.7 OM  1.2 f0 24.4 R0.1213 AL 0.00 WI 20.0 MW  2.5 3
 SPEC SD       MO  0.2 ST254.3 OM  0.3 f0 13.5 R0.0870 AL      WI      MW  0.1 3
 GAP=134        1.51       5.7     7.0  9.2 -0.4969E+01  0.2028E+02 -0.4309E+01E
 Epicentro: LOS SANTOS - SANTANDER                                             3
 SPEC BAR2SH Z MO 12.6 ST 23.8 OM  0.8 f0 20.7 R0.0929 AL-0.00 WI 20.0 MW  2.4 3
 SPEC BAR2SH Z T153858 K 0.050 GD  146 VS 5.20 DE 3.20 Q0750.0 QA 1.50 VS 5.20 3
 SPEC BRR HH Z MO 13.0 ST 17.1 OM  1.1 f0 14.3 R0.1345 AL-0.00 WI 20.0 MW  2.6 3
 SPEC BRR HH Z T1539 2 K 0.050 GD  159 VS 5.20 DE 3.20 Q0750.0 QA 1.50 VS 5.20 3
 SPEC PAM SH Z MO 12.7 ST0.938 OM  0.8 f0 6.80 R0.2829 AL-0.00 WI 20.0 MW  2.4 3
 SPEC PAM SH Z T1539 3 K 0.050 GD  162 VS 5.20 DE 3.20 Q0750.0 QA 1.50 VS 5.20 3
 SPEC PTB HH Z MO 12.9 ST305.5 OM  0.9 f0 40.0 R0.0481 AL-0.00 WI 20.0 MW  2.5 3
 SPEC PTB HH Z T153911 K 0.050 GD  206 VS 5.20 DE 3.20 Q0750.0 QA 1.50 VS 5.20 3
 SPEC SML HH Z MO 13.2 ST656.3 OM  1.1 f0 40.0 R0.0481 AL-0.00 WI 20.0 MW  2.8 3
 SPEC SML HH Z T153928 K 0.050 GD  279 VS 5.20 DE 3.20 Q0750.0 QA 1.50 VS 5.20 3
 SPECGUY2CHH Z MO 13.2 ST  0.1 OM  1.0 f0 2.17 R 0.887 AL-0.00 WI 20.0 MW  2.7 3
 SPECGUY2CHH Z T153942 K 0.050 GD334.5 VS 5.20 DE 3.20 Q0750.0 QA 1.50 VS 5.20 3
 OLDACT:DUP 13-09-26 19:37 OP:stll STATUS:               ID:20130926152837d    3
 ACTION:UPD 13-10-22 09:25 OP:ep   STATUS:               ID:20130926153825 L   I
 OLDACT:UP  13-09-26 19:46 OP:stll STATUS:               ID:20130926152837d    3
 2013-09-26-1528-36M.COL___232                                                 6
 STAT SP IPHASW D HRMM SECON CODA AMPLIT PERI AZIMU VELO AIN AR TRES W  DIS CAZ7
 BAR2 SZ EP       1538 45.34                             169    0.0810 26.5 187 
 BAR2 SZ ES       1539  0.22                             169   -0.2310 26.5 187 
 BAR2 SZ I        1539  5.12         9.2 0.34            173           26.5 187 
 BRR  HZ EP       1538 47.06                             153    0.4610 68.8 296 
 BRR  HN ES       1539  3.50                             153    0.6710 68.8 296 
 BRR  SZ I        1539 10.23        14.9 0.46            150           68.8 296 
 PAM  SZ EP       1538 48.17                             151    0.4810 75.4  42 
 PAM  SN ES       1539  5.07                             151    0.3010 75.4  42 
 PAM  SZ I        1539  6.13         7.5 0.26            152           75.4  42 
 RUS  HZ EP       1538 49.21                             143   -0.4010  104 176 
 RUS  HN ES       1539  7.73                             143   -0.4610  104 176 
 RUS  HZ I        1539 10.34         4.4 0.42            150            104 176 
 PTB  HZ EP       1538 51.89                             132   -0.69 9  148 257 
 PTB  HN ES       1539 12.98                             132   -0.50 9  148 257 
 PTB  SZ I        1539 15.23         8.7 0.12            133            148 257 
 SML  HZ EP       1539  0.93                             117   -1.01 8  240 335 
 SML  HN ES       1539 29.72                             117   -0.41 8  240 335 
 SML  SZ I        1539 43.77         7.2 0.08            119            240 335 
 GUY2CHZ EP       1539 11.22                             112    1.77 7  302 234 
 GUY2CHN ES       1539 43.78                             112    0.28 7  302 234 
 GUY2CSZ I        1539 57.20         4.6 1.08                           302 234 
                                                                                
