 2014  226 1405 26.4 L   6.801 -73.196142.0  RSN  5 0.3 1.6LRSN                1
 GAP=130        0.73       3.2     4.0  5.9 -0.1375E+01  0.7968E+01 -0.5313E+01E
 Epicentro: ZAPATOCA - SANTANDER                                               3
 ACTION:UPD 14-03-10 08:13 OP:ep   STATUS:               ID:20140226140526 L   I
 OLDACT:UP  14-02-26 17:54 OP:cam  STATUS:               ID:20140226135818     3
 OLDACT:REG 14-02-26 16:54 OP:cam  STATUS:               ID:20140226135818     3
 2014-02-26-1358-18M.COL___235                                                 6
 STAT SP IPHASW D HRMM SECON CODA AMPLIT PERI AZIMU VELO AIN AR TRES W  DIS CAZ7
 BAR2 SZ EP   1   14 5 45.59                             170    0.03 7 23.1 176 
 BAR2 SZ ES       14 6  0.98                             170    0.4610 23.1 176 
 BAR2 SZ I        14 6  1.32        11.5 0.14            172           23.1 176 
 PAM  SZ EP       14 5 48.57                             149    0.1410 81.0  43 
 PAM  SN ES       14 6  5.54                             149   -0.0810 81.0  43 
 PAM  SZ I        14 6  7.68         8.4 0.62            149           81.0  43 
 RUS  HZ EP       14 5 49.97                             143    0.1510  101 173 
 RUS  HN ES       14 6  7.52                             143   -0.5810  101 173 
 RUS  HZ I        14 6  9.16         3.0 0.26            145            101 173 
 PTB  HZ EP       14 5 52.68                             132    0.13 9  142 258 
 PTB  HE ES       14 6 12.96                             132   -0.01 9  142 258 
 SML  HZ EP   1   14 6  2.60                             117    0.06 6  241 336 
 SML  HN ES       14 6 30.37                             117   -0.38 8  241 336 
 SML  HZ I        14 6 33.69         5.9 0.10            117            241 336 
                                                                                
