 2014  726 1206 11.2 L   6.843 -73.170137.5  RSN  6 0.4 1.6LRSN                1
 GAP=199        0.90       4.0     5.6  8.8 -0.1300E+01  0.1744E+02 -0.1308E+02E
 Epicentro: ZAPATOCA - SANTANDER                                               3
 ACTION:UPD 15-03-16 20:47 OP:nd   STATUS:               ID:20140726120611 L   I
 OLDACT:UP  14-07-26 22:31 OP:mh   STATUS:               ID:20140726115820     3
 OLDACT:UP  14-07-26 22:31 OP:mh   STATUS:               ID:20140726115820     3
 OLDACT:REG 14-07-26 21:23 OP:mh   STATUS:               ID:20140726115820     3
 2014-07-26-1158-20M.COL___260                                                 6
 STAT SP IPHASW D HRMM SECON CODA AMPLIT PERI AZIMU VELO AIN AR TRES W  DIS CAZ7
 BAR2 SZ EP       12 6 30.67                             168    0.7010 27.7 183 
 BAR2 SZ ES   1   12 6 44.93                             168    0.34 7 27.7 183 
 BAR2 SZ I        12 6 48.05         5.8 0.07            170           27.7 183 
 RUS  HZ EP   1   12 6 33.98                             141   -0.57 7  106 175 
 RUS  HN ES       12 6 52.36                             141   -0.3810  106 175 
 RUS  HZ I        12 6 54.85         3.0 0.36            146            106 175 
 PTB  HZ EP       12 6 37.08                             130   -0.30 9  146 257 
 PTB  HN ES       12 6 57.62                             130   -0.16 9  146 257 
 PTB  HZ I        12 7  2.01         5.1 0.14            132            146 257 
 NOR  HN ES   1   12 7 14.35                             117    0.24 6  235 233 
 NOR  HZ I        12 7 20.76         3.9 0.18            120            235 233 
 SML  HZ EP       12 6 46.98                             116    0.17 8  238 335 
 SML  HN ES       12 7 14.34                             116   -0.22 8  238 335 
 SML  HZ I        12 7 21.76         6.0 0.14            119            238 335 
 TOL  SE ES       12 7 37.19                             108    0.33 7  345 224 
                                                                                
