 2017  226 1308 54.5 L   6.735 -73.128148.1  RSN  4 0.2 1.9LRSN                1
 GAP=166        0.58       6.0     3.6  4.7 -0.1095E+02  0.1239E+01  0.3063E+01E
 Epicentro: JORDAN - SANTANDER                                                 3
 ACTION:UPD 17-05-24 15:40 OP:jn   STATUS:               ID:20170226130854 L   I
 OLDACT:REG 17-02-26 20:31 OP:cog  STATUS:               ID:20170226130746     3
 2017-02-26-1308-00M.COL___367                                                 6
 STAT SP IPHASW D HRMM SECON CODA AMPLIT PERI AZIMU VELO AIN AR TRES W  DIS CAZ7
 BAR2 EZ EP       13 9 14.50                             173    0.2010 16.9 201 
 BAR2 EZ ES       13 9 29.71                             173   -0.0310 16.9 201 
 BAR2 EZ I        13 9 30.69        13.9 0.30            172           16.9 201 
 BRR  HZ EP       13 9 16.30                             151    0.0910 76.6 303 
 BRR  HE ES       13 9 33.31                             151    0.1710 76.6 303 
 BRR  HZ I        13 9 37.39        17.3 0.32            147           76.6 303 
 PAM  EZ EP       13 9 17.43                             150    0.1910 81.9  35 
 PAM  EN ES       13 9 34.68                             150   -0.2910 81.9  35 
 PAM  EZ I        13 9 36.65        12.7 0.52            151           81.9  35 
 PTB  HZ EP       13 9 21.34                             132   -0.39 9  148 262 
 PTB  HN ES       13 9 42.95                             132   -0.01 9  148 262 
 PTB  HZ I        13 9 47.83         9.8 0.10            132            148 262 
                                                                                
