 2012  426 1747  9.1 L   6.766 -73.141140.6  RSN  5 0.6 1.4LRSN                1
 GAP=139        1.36       9.1     8.7 15.1 -0.1379E+02  0.2648E+02  0.2718E+02E
 Epicentro: LOS SANTOS - SANTANDER                                             3
 ACTION:UPD 12-07-05 11:56 OP:tino STATUS:               ID:20120426174709 L   I
 2012-04-26-1740-00M.COL___189                                                 6
 STAT SP IPHASW D HRMM SECON CODA AMPLIT PERI AZIMU VELO AIN AR TRES W  DIS CAZ7
 BAR2 SZ EP   1   1747 28.18                             171     0.2 7   20 193 
 BRR  HZ EP       1747 30.17                             151     0.410   74 301 
 BRR  HZ I        1747 31.59        12.7 0.34                            74 301 
 BRR  HN ES   1   1747 46.97                             151     1.0 7   74 301 
 PAM  SZ EP   1   1747 31.07                             149     0.2 7   80  38 
 PAM  SN ES       1747 47.23                             149    -0.710   80  38 
 RUS  HZ EP   1   1747 32.23                             143     0.2 7   97 176 
 RUS  HE ES   1   1747 50.14                             143     0.2 7   97 176 
 RUS  HZ I        1747 52.14         1.7 0.13                            97 176 
 PTB  HZ EP   1   1747 35.19                             130    -0.4 7  148 260 
 PTB  HN ES   1   1747 55.35                             130    -1.0 7  148 260 
 PTB  HZ I        1747 58.72         2.4 0.19                           148 260 
                                                                                
