 2013  526 1825 38.1 L   6.521 -74.044 28.6  RSN  7 0.4 1.9LRSN                1
 GAP=117        0.99       4.1     2.6  5.2 -0.5850E+01 -0.8731E+01  0.1295E+02E
 Epicentro: PUERTO PARRA - SANTANDER                                           3
 ACTION:UPD 13-06-20 09:53 OP:ep   STATUS:               ID:20130526182538 L   I
 2013-05-26-1818-37M.COL___212                                                 6
 STAT SP IPHASW D HRMM SECON CODA AMPLIT PERI AZIMU VELO AIN AR TRES W  DIS CAZ7
 PTB  HZ EP       1825 46.29                             115   -0.3110 45.6 273 
 PTB  HN ES       1825 53.08                             115   -0.1310 45.6 273 
 PTB  HN I        1825 53.30       154.6 0.24            108           45.6 273 
 BRR  HZ EP       1825 50.39                             101   -0.1310 74.5  30 
 BRR  HN ES       1826  0.41                             101    0.2310 74.5  30 
 BRR  HE I        1826  0.88        48.5 0.16             91           74.5  30 
 BAR2 SZ EP       1825 53.42                              61   -0.1710 95.7  85 
 BAR2 SZ I        1825 53.56        17.8 0.14             90           95.7  85 
 BAR2 SZ ES       1826  5.03                              61   -0.6110 95.7  85 
 GIR2 SZ EP       1825 55.89                              61    0.3210  112  57 
 GIR2 SZ ES       1826  9.34                              61    0.1710  112  57 
 GIR2 SZ I        1826 10.14        11.5 0.48             61            112  57 
 RUS  HZ EP       1825 58.19                              61    0.3710  127 123 
 RUS  HN ES       1826 13.02                              61   -0.1610  127 123 
 HEL  HZ EP       1826  2.81                              61   -0.01 9  168 258 
 HEL  HN ES       1826 21.72                              61   -0.35 9  168 258 
 GUY2CHZ EP       1826  8.54                              61    1.02 9  205 226 
                                                                                
