 2013 1126 1615 44.1 L   6.798 -73.129150.0  RSN  6 0.3 1.9LRSN                1
 GAP=156        0.73       6.3     3.6  5.5 -0.5151E+01  0.4602E+01  0.2280E+00E
 Epicentro: LOS SANTOS - SANTANDER                                             3
 ACTION:UPD 14-01-09 16:31 OP:ep   STATUS:               ID:20131126161544 L   I
 OLDACT:UP  13-11-26 15:44 OP:cam  STATUS:               ID:20131126161000     3
 OLDACT:REG 13-11-26 15:13 OP:cam  STATUS:               ID:20131126161000     3
 2013-11-26-1610-00M.COL___282                                                 6
 STAT SP IPHASW D HRMM SECON CODA AMPLIT PERI AZIMU VELO AIN AR TRES W  DIS CAZ7
 BAR2 SZ EP       1616  4.43                             171    0.2110 23.5 194 
 BAR2 SZ ES   1   1616 19.95                             171    0.02 7 23.5 194 
 BAR2 SZ I        1616 21.22        17.6 0.52            173           23.5 194 
 BRR  HZ EP       1616  6.08                             153    0.3010 72.9 298 
 BRR  HE ES       1616 22.93                             153    0.2210 72.9 298 
 BRR  HZ I        1616 26.52        11.2 0.46            150           72.9 298 
 PAM  SZ EP       1616  6.96                             152    0.2710 76.4  38 
 PAM  SN ES       1616 23.88                             152   -0.4510 76.4  38 
 PAM  SZ I        1616 25.91        18.3 0.46            152           76.4  38 
 PTB  HZ EP       1616 11.05                             132   -0.50 9  149 259 
 PTB  HN ES       1616 32.78                             132   -0.20 9  149 259 
 PTB  HZ I        1616 34.50         8.1 0.46            133            149 259 
 ZAR  HZ EP       1616 17.13                             123    0.15 8  206 292 
 ZAR  HN ES       1616 42.68                             123    0.03 8  206 292 
 ZAR  HZ I        1616 47.79        10.5 0.40            124            206 292 
 SML  HZ EP   2   1616 20.53                             118   -0.52 4  245 335 
                                                                                
