 2016 1226 1513 11.1 L   6.258 -74.011 74.0  RSN  4 0.3 0.9LRSN                1
 GAP=191        0.53       4.9     2.5  8.6 -0.3061E+01 -0.1107E+02  0.1797E+02E
 Epicentro: CIMITARRA - SANTANDER                                              3
 ACTION:UPD 17-01-11 20:19 OP:rebc STATUS:               ID:20161226151311 L   I
 OLDACT:UP  16-12-26 22:21 OP:cog  STATUS:               ID:20161226150744     3
 OLDACT:REG 16-12-26 20:40 OP:cog  STATUS:               ID:20161226150744     3
 2016-12-26-1508-00M.COL___369                                                 6
 STAT SP IPHASW D HRMM SECON CODA AMPLIT PERI AZIMU VELO AIN AR TRES W  DIS CAZ7
 PTB  HZ EP       1513 23.93                             138   -0.2010 58.3 302 
 PTB  HN ES       1513 34.46                             138    0.2010 58.3 302 
 PTB  HZ I        1513 35.22         4.0 0.10            147           58.3 302 
 BAR2 EZ EP       1513 28.27                             122   -0.0310 98.8  68 
 BAR2 EZ ES       1513 41.83                             122    0.1610 98.8  68 
 BAR2 EZ I        1513 42.76         6.1 0.16            128           98.8  68 
 BRR  HN ES       1513 41.15                             121   -0.1110 99.5  19 
 RUS  HZ EP   3   1513 30.60                             119    0.74 2  110 111 
 RUS  HN ES   3   1513 43.39                             119   -1.06 2  110 111 
 RUS  HZ I        1513 46.69         0.9 0.14            123            110 111 
                                                                                
