 2012  726 1913 23.4 L   6.768 -73.156149.6  RSN  5 0.4 1.7LRSN                1
 GAP=137        0.92       7.3     6.2  8.5 -0.2722E+01 -0.6996E+00  0.4315E+01E
 Epicentro: LOS SANTOS - SANTANDER                                             3
 ACTION:UPD 12-08-14 11:45 OP:ep   STATUS:               ID:20120726191323 L   I
 2012-07-26-1910-00M.COL___215                                                 6
 STAT SP IPHASW D HRMM SECON CODA AMPLIT PERI AZIMU VELO AIN AR TRES W  DIS CAZ7
 BAR2 SZ EP       1913 43.39                             172    -0.110   20 188 
 BAR2 SZ ES   1   1913 58.99                             172    -0.1 7   20 188 
 BAR2 SZ I        1914  0.18        14.0 0.40            172             20 188 
 BRR  HZ EP       1913 45.29                             153     0.210   72 301 
 BRR  HZ I        1913 45.53        21.5 0.28            154             72 301 
 BRR  HN ES   1   1914  2.51                             153     0.6 7   72 301 
 PAM  SZ EP       1913 46.27                             150     0.010   81  39 
 PAM  SN ES   2   1914  3.19                             150    -0.9 5   81  39 
 PAM  SZ I        1914  5.27         3.3 0.36            152             81  39 
 RUS  HZ EP       1913 47.62                             145     0.310   97 175 
 RUS  HN ES   2   1914  6.00                             145     0.0 5   97 175 
 RUS  HZ I        1914  6.89         5.6 0.38            147             97 175 
 PTB  HZ EP       1913 50.24                             133    -0.3 9  146 260 
 PTB  HN ES   1   1914 11.22                             133    -0.5 7  146 260 
 PTB  HZ I        1914 13.49         5.6 0.44            134            146 260 
