 2017  526 1151 16.5 L   6.789 -73.118149.4  RSN  6 0.5 1.8LRSN                1
 GAP=240        0.93       4.9     7.0  8.7  0.1670E+02  0.1378E+02  0.8747E+01E
 Epicentro: LOS SANTOS - SANTANDER                                             3
 ACTION:UPD 17-06-16 13:39 OP:jn   STATUS:               ID:20170526115116 L   I
 OLDACT:UP  17-05-26 23:01 OP:dnl  STATUS:               ID:20170526114743d    3
 OLDACT:UP  17-05-26 23:00 OP:dnl  STATUS:               ID:20170526114743d    3
 OLDACT:UP  17-05-26 23:00 OP:dnl  STATUS:               ID:20170526114743d    3
 OLDACT:DUP 17-05-26 22:58 OP:dnl  STATUS:               ID:20170526114743d    3
 OLDACT:UP  17-05-26 22:58 OP:dnl  STATUS:               ID:20170526114742     3
 OLDACT:UP  17-05-26 22:57 OP:dnl  STATUS:               ID:20170526114742     3
 OLDACT:UP  17-05-26 22:55 OP:dnl  STATUS:               ID:20170526114742     3
 OLDACT:UP  17-05-26 22:55 OP:dnl  STATUS:               ID:20170526114742     3
 OLDACT:UP  17-05-26 22:54 OP:dnl  STATUS:               ID:20170526114742     3
 OLDACT:REG 17-05-26 21:48 OP:dnl  STATUS:               ID:20170526114742     3
 2017-05-26-1148-00M.COL___341                                                 6
 STAT SP IPHASW D HRMM SECON CODA AMPLIT PERI AZIMU VELO AIN AR TRES W  DIS CAZ7
 BRR  HZ IP     C 1151 38.32                             152    0.0610 74.4 298 
 BRR  HN ES       1151 55.07                             152   -0.1410 74.4 298 
 BRR  HZ I        1152  0.06        14.5 0.18            150           74.4 298 
 RUS  HZ EP       1151 40.82                             145    0.2710 99.3 178 
 RUS  HN ES       1151 59.02                             145   -0.2610 99.3 178 
 RUS  HZ I        1152  0.33         6.3 0.26            146           99.3 178 
 PTB  HZ EP       1151 43.58                             132   -0.47 9  151 259 
 PTB  HN ES   4   1152  4.02                             132   -1.49 0  151 259 
 PTB  HZ I        1152  9.48         7.8 0.26            132            151 259 
 ZAR  HZ EP   2   1151 50.39                             122    0.83 4  207 292 
 ZAR  HE ES       1152 15.68                             122    0.37 8  207 292 
 ZAR  HZ I        1152 20.40        12.1 0.32            124            207 292 
 NOR  HZ EP   2   1151 52.12                             119   -0.55 4  237 235 
 NOR  HE ES       1152 20.65                             119   -0.21 8  237 235 
 NOR  HZ I        1152 24.30         5.9 0.32            120            237 235 
 CHI  HZ EP   2   1151 53.13                             118   -1.28 4  248 196 
 CHI  HN ES       1152 24.74                             118    0.80 8  248 196 
 CHI  HZ I        1152 28.14         2.4 0.32            120            248 196 
                                                                                
