 2017 1126 1657 24.7 L   6.797 -73.152143.7  RSN  5 0.3 1.4LRSN                1
 GAP=243        0.73       5.1     4.5  6.2  0.9648E+01  0.5743E+01 -0.2492E+01E
 Epicentro: LOS SANTOS - SANTANDER                                             3
 ACTION:UPD 17-12-12 20:00 OP:rebc STATUS:               ID:20171126165724 L   I
 OLDACT:DUP 17-11-26 22:53 OP:dhb  STATUS:               ID:20171126164744d    3
 2017-11-26-1648-00M.COL___483                                                 6
 STAT SP IPHASW D HRMM SECON CODA AMPLIT PERI AZIMU VELO AIN AR TRES W  DIS CAZ7
 BAR2 EZ EP       1657 44.07                             170    0.0210 22.9 188 
 BAR2 EZ ES       1657 58.95                             170   -0.2110 22.9 188 
 BAR2 EZ I        1658  0.58         4.7 0.20            165           22.9 188 
 RUS  HZ EP       1657 47.99                             143   -0.2210  100 176 
 RUS  HN ES       1658  6.97                             143    0.4110  100 176 
 RUS  HZ I        1658  7.80         3.2 0.26            146            100 176 
 PTB  HZ EP       1657 51.32                             132   -0.08 9  147 259 
 PTB  HN ES       1658 11.78                             132   -0.47 9  147 259 
 PTB  HZ I        1658 19.25         1.5 0.38            129            147 259 
 SPBC HZ EP       1657 53.00                             129    0.05 9  162 219 
 SPBC HE ES       1658 15.10                             129    0.10 9  162 219 
 SPBC HZ I        1658 21.29         7.6 0.10            128            162 219 
 ZAR  HE ES       1658 22.57                             122    0.49 9  203 292 
 ZAR  HZ I        1658 34.49         3.8 0.24            121            203 292 
                                                                                
