 2014  926 1446 59.8 L   6.832 -73.110138.6  RSN  5 0.4 1.6LRSN                1
 GAP=204        0.99       4.4     6.5  8.1  0.2761E+01  0.9701E+01 -0.1304E+02E
 Epicentro: LOS SANTOS - SANTANDER                                             3
 ACTION:UPD 14-10-03 23:08 OP:nd   STATUS:               ID:20140926144659 L   I
 OLDACT:UP  14-09-26 22:40 OP:cam  STATUS:               ID:20140926144000     3
 OLDACT:REG 14-09-26 20:38 OP:cam  STATUS:               ID:20140926144000     3
 2014-09-26-1440-00M.COL___252                                                 6
 STAT SP IPHASW D HRMM SECON CODA AMPLIT PERI AZIMU VELO AIN AR TRES W  DIS CAZ7
 BAR2 SZ EP       1447 19.20                             168    0.5610 27.7 197 
 BAR2 SZ ES       1447 32.95                             168   -0.4110 27.7 197 
 BAR2 SZ I        1447 36.06         9.9 0.22            165           27.7 197 
 RUS  HZ EP       1447 23.24                             141    0.1610  104 178 
 RUS  HN ES       1447 41.13                             141   -0.1210  104 178 
 RUS  HZ I        1447 46.56         1.7 0.28            143            104 178 
 PTB  HZ EP       1447 26.06                             129   -0.54 9  152 258 
 PTB  HN ES       1447 47.40                             129   -0.12 9  152 258 
 PTB  HZ I        1447 53.31         3.9 0.56            130            152 258 
 SPBC HZ EP       1447 28.14                             126   -0.10 9  168 219 
 SPBC HN ES       1447 50.98                             126    0.53 9  168 219 
 SPBC HZ I        1447 57.51         6.3 0.22            128            168 219 
 SML  HZ EP       1447 35.33                             116   -0.51 8  242 334 
 SML  HN ES       1448  4.51                             116    0.54 8  242 334 
 SML  HZ I        1448  7.87         6.1 0.22            119            242 334 
                                                                                
