 2014  226 1811 29.0 L   6.762 -73.135138.8  RSN  7 0.5 2.1LRSN                1
 GAP=140        1.24       5.4     5.1  8.0 -0.1324E+01  0.1352E+02  0.1076E+01E
 Epicentro: LOS SANTOS - SANTANDER                                             3
 ACTION:UPD 14-03-10 08:13 OP:ep   STATUS:               ID:20140226181129 L   I
 OLDACT:UP  14-02-26 18:43 OP:cam  STATUS:               ID:20140226180815     3
 OLDACT:REG 14-02-26 17:04 OP:cam  STATUS:               ID:20140226180815     3
 2014-02-26-1808-15M.COL___238                                                 6
 STAT SP IPHASW D HRMM SECON CODA AMPLIT PERI AZIMU VELO AIN AR TRES W  DIS CAZ7
 BAR2 SZ EP       1811 47.84                             172    0.0810 19.5 196 
 BAR2 SZ ES       1812  1.61                             172   -0.7510 19.5 196 
 BAR2 SZ I        1812  3.51        65.5 0.34            171           19.5 196 
 BRR  HZ EP       1811 49.65                             150    0.0210 74.3 301 
 BRR  HN ES       1812  6.50                             150    0.8210 74.3 301 
 BRR  HZ I        1812 10.83        20.3 0.28            149           74.3 301 
 PAM  SZ EP       1811 50.56                             149   -0.1210 79.9  37 
 PAM  SN ES       1812  7.42                             149   -0.1310 79.9  37 
 PAM  SZ I        1812  9.62        31.2 0.48            152           79.9  37 
 RUS  HZ EP       1811 51.87                             143    0.0710 96.4 177 
 RUS  HN ES       1812 10.11                             143    0.5610 96.4 177 
 RUS  HZ I        1812 12.01        14.3 0.32            148           96.4 177 
 PTB  HZ EP       1811 54.85                             130   -0.64 9  148 260 
 PTB  HN ES       1812 15.60                             130   -0.52 9  148 260 
 PTB  HZ I        1812 21.82        14.8 0.22            131            148 260 
 ZAR  HZ EP       1812  2.15                             120    0.82 8  207 293 
 ZAR  HE ES       1812 26.33                             120   -0.18 8  207 293 
 ZAR  HZ I        1812 32.53        14.7 0.32            122            207 293 
 NOR  HZ EP   1   1812  3.56                             117   -0.67 6  233 235 
 NOR  HE ES       1812 32.04                             117    0.37 8  233 235 
 NOR  HZ I        1812 33.48        11.7 0.18            119            233 235 
 URE  HN ES   4   1812 40.45                             112   -1.65 0  287 293 
                                                                                
