 2014 1026 1808 45.1 L   7.285 -73.273125.8  RSN  5 0.4 1.9LRSN                1
 GAP=197        1.02       6.2     4.9  7.6 -0.4984E+01  0.5249E+01  0.4846E+01E
 Epicentro: RIONEGRO - SANTANDER                                               3
 ACTION:UPD 14-11-29 23:57 OP:nd   STATUS:               ID:20141026180845 L   I
 OLDACT:REG 14-10-29 15:45 OP:fm   STATUS:               ID:20141026180745     3
 2014-10-26-1807-45M.COL___280                                                 6
 STAT SP IPHASW D HRMM SECON CODA AMPLIT PERI AZIMU VELO AIN AR TRES W  DIS CAZ7
 BRR  HZ EP       18 9  2.87                             156   -0.2110 52.3 248 
 BRR  HN ES       18 9 16.83                             156   -0.2510 52.3 248 
 BRR  HN I        18 9 17.17        68.0 0.16            154           52.3 248 
 PAM  SZ EP       18 9  4.42                             152    0.0310 63.6  85 
 PAM  SN ES       18 9 19.25                             152   -0.1810 63.6  85 
 PAM  SN I        18 9 21.52        20.2 0.42            154           63.6  85 
 BAR2 SZ EP       18 9  5.40                             146    0.5110 77.3 173 
 BAR2 SZ I        18 9  5.51        21.8 0.10            145           77.3 173 
 BAR2 SZ ES       18 9 20.94                             146    0.6310 77.3 173 
 PTB  HZ EP       18 9 10.96                             126   -0.25 9  155 238 
 PTB  HN ES       18 9 31.81                             126    0.24 9  155 238 
 PTB  HN I        18 9 37.01         9.1 0.20            126            155 238 
 RUS  HZ EP       18 9 12.08                             126    0.16 9  155 172 
 RUS  HN ES       18 9 32.05                             126   -0.78 9  155 172 
 RUS  HN I        18 9 36.63         2.1 0.28            125            155 172 
                                                                                
