 2017 1226 1500  2.5 L   6.723 -73.174142.1  RSN  9 0.4 1.7LRSN                1
 GAP= 82        0.71       4.0     3.2  5.5 -0.5510E+01  0.3058E+01  0.5433E+00E
 Epicentro: VILLANUEVA - SANTANDER                                             3
 ACTION:UPD 18-01-04 13:24 OP:rebc STATUS:               ID:20171226150002 L   I
 OLDACT:UP  17-12-27 00:43 OP:mg   STATUS:               ID:20171226145740     3
 OLDACT:REG 17-12-26 22:37 OP:mg   STATUS:               ID:20171226145740     3
 2017-12-26-1458-00M.COL___462                                                 6
 STAT SP IPHASW D HRMM SECON CODA AMPLIT PERI AZIMU VELO AIN AR TRES W  DIS CAZ7
 BAR2 EZ IP     D 15 0 21.76                             174    0.2010 14.5 184 
 BAR2 EZ ES   1   15 0 36.92                             174    0.51 7 14.5 184 
 BAR2 EZ I        15 0 37.95        14.6 0.20            172           14.5 184 
 PAM  EZ EP     D 15 0 24.91                             147    0.0310 85.9  38 
 PAM  EN ES       15 0 41.95                             147   -0.3810 85.9  38 
 PAM  EZ I        15 0 44.41        13.5 0.44            152           85.9  38 
 PTB  HZ EP       15 0 28.62                             132   -0.16 9  143 262 
 PTB  HN ES   1   15 0 48.68                             132   -0.59 7  143 262 
 PTB  HZ I        15 0 54.80         4.3 0.20            132            143 262 
 SPBC HE ES   1   15 0 51.45                             130    0.14 7  155 220 
 SPBC HZ I        15 0 57.24         7.6 0.24            131            155 220 
 TAM  HZ EP       15 0 29.99                             129   -0.01 9  156 102 
 ZAR  HZ EP   2   15 0 33.82                             121   -0.96 4  205 295 
 ZAR  HN ES   1   15 1  0.55                             121    0.60 6  205 295 
 ZAR  HZ I        15 1  6.05         7.9 0.40            122            205 295 
 GUY2CHZ EP   1   15 0 45.18                             112    0.06 5  294 236 
 GUY2CHE ES       15 1 18.42                             112    0.06 7  294 236 
 GUY2CHZ I        15 1 28.76         1.8 0.47                           294 236 
 DRL03HZ EP   1   15 0 45.08                             112    0.22 5  297 354 
 DRL03HN ES   2   15 1 18.39                             112    0.50 4  297 354 
 SJC  HZ EP   9   15 0 57.31                             105   -1.30 0  415 328 
 SJC  HN ES   4   15 1 40.72                             105   -0.34 0  415 328 
 SJC  HZ I        15 1 45.16         1.0 0.33            106            415 328 
                                                                                
