 2016  326 1313 47.6 L   6.810 -73.127142.0  RSN  8 0.3 1.8LRSN                1
 GAP=246        0.67       4.2     4.2  5.0  0.5233E+01  0.4965E+01  0.3016E+01E
 Epicentro: LOS SANTOS - SANTANDER                                             3
 ACTION:UPD 16-05-13 21:27 OP:cam  STATUS:               ID:20160326131347 L   I
 OLDACT:REG 16-03-26 20:24 OP:dnl  STATUS:               ID:20160326130745     3
 2016-03-26-1307-45M.COL___296                                                 6
 STAT SP IPHASW D HRMM SECON CODA AMPLIT PERI AZIMU VELO AIN AR TRES W  DIS CAZ7
 BAR2 EZ EP   2   1314  7.19                             170    0.42 5 24.8 194 
 BAR2 EZ ES       1314 21.91                             170    0.1610 24.8 194 
 BAR2 EZ I        1314 23.41        16.9 0.13            167           24.8 194 
 RUS  HZ EP   2   1314 11.58                             143    0.57 5  102 177 
 RUS  HN ES   2   1314 28.45                             143   -0.86 5  102 177 
 RUS  HZ I        1314 30.95         7.1 0.22            143            102 177 
 PTB  HZ EP       1314 13.85                             131   -0.57 9  150 259 
 PTB  HN ES       1314 35.12                             131   -0.26 9  150 259 
 PTB  HZ I        1314 38.21         5.5 0.14            131            150 259 
 SPBC HZ EP       1314 16.12                             128    0.14 9  165 219 
 SPBC HN ES       1314 38.40                             128    0.26 9  165 219 
 SPBC HZ I        1314 41.64        13.4 0.13            128            165 219 
 ZAR  HZ EP   2   1314 19.88                             121   -0.03 4  206 292 
 ZAR  HN ES       1314 45.41                             121    0.26 8  206 292 
 ZAR  HZ I        1314 50.96         8.4 0.28            122            206 292 
 NOR  HZ EP       1314 23.26                             118   -0.06 8  237 235 
 NOR  HE ES       1314 51.45                             118    0.24 8  237 235 
 NOR  HZ I        1314 52.61         5.6 0.18            118            237 235 
 CHI  HZ EP       1314 25.13                             116   -0.10 8  250 196 
 CHI  HN ES   2   1314 54.38                             116   -0.23 4  250 196 
 CHI  HZ I        1315  0.11         2.1 0.48            117            250 196 
 GUY2CHZ EP   4   1314 32.47                             112    1.21 0  303 235 
 GUY2CHE ES   2   1315  5.29                             112   -0.05 4  303 235 
 GUY2CHZ I        1315 15.66         3.3 0.54                           303 235 
                                                                                
