 2016  926 1413 18.1 L   6.403 -73.641100.4  RSN 18 0.5 2.3LRSN                1
 GAP= 65        1.07       2.5     2.8  5.7 -0.1887E+01  0.6614E+01 -0.3344E+00E
 Epicentro: SANTA HELENA DEL OPON - SANTANDER                                  3
 ACTION:UPD 17-08-17 21:16 OP:lp   STATUS:               ID:20160926141318 L   I
 OLDACT:UP  16-09-27 00:34 OP:edw  STATUS:               ID:20160926140745d    3
 OLDACT:UP  16-09-27 00:33 OP:edw  STATUS:               ID:20160926140745d    3
 OLDACT:UP  16-09-27 00:33 OP:edw  STATUS:               ID:20160926140745d    3
 OLDACT:UP  16-09-27 00:31 OP:edw  STATUS:               ID:20160926140745d    3
 OLDACT:DUP 16-09-27 00:21 OP:edw  STATUS:               ID:20160926140745d    3
 OLDACT:UP  16-09-27 00:13 OP:edw  STATUS:               ID:20160926140743     3
 OLDACT:REG 16-09-26 20:22 OP:edw  STATUS:               ID:20160926140743     3
 2016-09-26-1408-00M.COL___357                                                 6
 STAT SP IPHASW D HRMM SECON CODA AMPLIT PERI AZIMU VELO AIN AR TRES W  DIS CAZ7
 BAR2 EZ IP     C 1413 33.80                             149    0.0210 54.9  68 
 BAR2 EZ ES       1413 46.27                             149    0.2510 54.9  68 
 BAR2 EZ I        1413 47.96       133.5 0.14            152           54.9  68 
 BRR  HZ EP       1413 34.89                             139   -0.2310 78.2 354 
 BRR  HN ES       1413 48.53                             139    0.1210 78.2 354 
 BRR  HZ I        1413 49.88        47.5 0.46            141           78.2 354 
 RUS  HZ EP       1413 35.60                             137   -0.6510 83.7 132 
 RUS  HN ES       1413 50.39                             137   -0.0310 83.7 132 
 RUS  HZ I        1413 51.69        38.6 0.24            138           83.7 132 
 PTB  HZ EP   9 D 1413 34.85                             134   -1.41 0 91.4 280 
 PTB  HN ES       1413 49.01                             134   -0.0110 91.4 280 
 PTB  HZ I        1413 51.58        53.4 0.14            134           91.4 280 
 SPBC HZ EP   4   1413 35.94                             132   -0.81 0 95.8 210 
 SPBC HN ES       1413 50.81                             132   -0.4910 95.8 210 
 SPBC HZ I        1413 53.15        79.8 0.14            132           95.8 210 
 PAM  EZ EP       1413 42.38                             120    0.06 9  147  45 
 PAM  EN ES       1414  1.34                             120    0.12 9  147  45 
 PAM  EZ I        1414  1.93        37.4 0.26            122            147  45 
 NOR  HZ EP       1413 43.23                             116   -0.46 9  165 236 
 NOR  HN ES       1414  2.96                             116   -0.70 9  165 236 
 NOR  HZ I        1414  6.50        25.6 0.22            116            165 236 
 ZAR  HZ EP       1413 44.97                             113   -0.42 9  181 312 
 ZAR  HN ES       1414  7.15                             113    0.47 9  181 312 
 ZAR  HZ I        1414 11.33        24.9 0.13            114            181 312 
 ROSC BZ EP       1413 47.59                             112    0.81 9  189 204 
 ROSC BN ES   4   1414 11.27                             112    2.11 0  189 204 
 ROSC BZ I        1414 15.79        26.0 0.50            113            189 204 
 CHI  HZ EP   4   1413 46.72                             111   -0.98 0  196 183 
 CHI  HN ES       1414 11.21                             111    0.42 9  196 183 
 CHI  HZ I        1414 14.89        14.0 0.28            112            196 183 
 OCA  HZ EP   4   1413 49.75                             110    1.28 0  206  10 
 OCA  HN ES       1414 12.28                             110    0.12 8  206  10 
 HEL  HZ EP       1413 48.99                             110   -0.22 8  210 264 
 HEL  HN ES       1414 13.87                             110    0.38 8  210 264 
 HEL  HZ I        1414 16.15        22.8 0.22            110            210 264 
 GUY2CHZ EP       1413 51.74                             107   -0.04 8  231 236 
 GUY2CHN ES       1414 19.06                             107    1.01 8  231 236 
 GUY2CHZ I        1414 24.44        16.1 0.26                           231 236 
 ELA  HZ EP   4   1413 57.38                             105    2.28 0  259 229 
 ELA  HN ES   4   1414 25.25                             105    1.27 0  259 229 
 ELA  HZ I        1414 28.72        11.6 0.52            105            259 229 
 CBOC HZ EP       1413 56.31                             104    0.45 8  269 257 
 CBOC HN ES       1414 24.87                             104   -0.45 8  269 257 
 CBOC HZ I        1414 27.86         7.4 0.16            104            269 257 
 ANIL HZ EP       1413 58.79                             102    0.57 7  288 223 
 ANIL HN ES   4   1414 31.30                             102    1.77 0  288 223 
 ANIL HZ I        1414 34.59        36.2 0.26            103            288 223 
 SJC  HZ EP       1414 13.06                              94   -1.05 5  422 336 
 SJC  HN ES   4   1414 54.07                              94   -3.73 0  422 336 
 SJC  HZ I        1414 59.33         3.1 0.27             96            422 336 
 CRJC HZ EP   9   1414 22.25                              90   -3.53 0  517   9 
 CRJC HN ES       1415 15.66                              91    0.61 4  517   9 
 CRJC HZ I        1415 22.80         8.0 0.18             92            517   9 
                                                                                
