 2017  826 1407 24.8 L   6.762 -73.119142.9  RSN  8 0.4 1.7LRSN                1
 GAP=116        0.91       4.1     4.3  5.7 -0.6288E+01  0.2633E+01  0.6451E+01E
 Epicentro: LOS SANTOS - SANTANDER                                             3
 ACTION:UPD 17-09-04 20:24 OP:rebc STATUS:               ID:20170826140724 L   I
 OLDACT:REG 17-08-26 20:55 OP:edw  STATUS:               ID:20170826135736     3
 2017-08-26-1358-00M.COL___405                                                 6
 STAT SP IPHASW D HRMM SECON CODA AMPLIT PERI AZIMU VELO AIN AR TRES W  DIS CAZ7
 BAR2 EZ EP     C 14 7 43.86                             172   -0.1610 20.0 201 
 BAR2 EZ ES       14 7 59.28                             172    0.2710 20.0 201 
 BAR2 EZ I        14 7 59.91         9.5 0.32            171           20.0 201 
 BRR  HZ EP       14 7 45.86                             150   -0.0510 75.9 300 
 BRR  HE ES       14 8  2.67                             150    0.2910 75.9 300 
 PAM  EZ EP       14 7 46.98                             150    0.1810 78.9  36 
 PAM  EN ES       14 8  3.50                             150   -0.4710 78.9  36 
 PAM  EZ I        14 8  5.75        12.0 0.50            152           78.9  36 
 RUS  HZ EP       14 7 47.92                             144   -0.0310 96.2 178 
 RUS  HN ES       14 8  6.38                             144    0.3710 96.2 178 
 RUS  HZ I        14 8  8.01         4.5 0.38            145           96.2 178 
 SPBC HZ EP       14 7 53.18                             129    0.23 9  162 221 
 SPBC HN ES       14 8 13.90                             129   -1.01 9  162 221 
 SPBC HZ I        14 8 17.28         8.2 0.32            130            162 221 
 YPLC HZ EP       14 7 53.94                             127    0.07 9  172 152 
 NOR  HZ EP       14 8  0.36                             118   -0.00 8  235 236 
 NOR  HN ES       14 8 28.05                             118   -0.05 8  235 236 
 NOR  HZ I        14 8 29.69         3.1 0.28            119            235 236 
 GUY2CHE ES       14 8 42.62                             112    0.43 7  301 236 
                                                                                
