 2010 1226 1544 15.6 L   6.820 -73.163142.3  RSN  4 0.1 1.4LRSN                1
 GAP=156        0.39       2.8     4.7  4.6 -0.7818E+01  0.1007E+02 -0.3635E+01E
 Epicentro: LOS SANTOS - SANTANDER                                             3
 ACTION:UP  11-01-14 15:27 OP:pat  STATUS:               ID:20101226154415 L   I
 2010-12-26-1541-38S.COL___133                                                 6
 STAT SP IPHASW D HRMM SECON CODA AMPLIT PERI AZIMU VELO SNR AR TRES W  DIS CAZ7
 BAR2 SZ EP   1   1544 34.90                             169     0.1 7   25 185 
 BAR2 SZ ES   1   1544 49.91                             169     0.0 7   25 185 
 BAR2 SZ I        1544 51.22         7.2 0.17                            25 185 
 RUS  HZ EP   1   1544 38.96                             142    -0.2 7  103 175 
 RUS  HN ES   1   1544 57.65                             142     0.1 7  103 175 
 RUS  HZ I        1544 59.23         2.9 0.44                           103 175 
 GRA  SZ EP   1   1544 40.64                             137     0.2 7  124  19 
 GRA  SZ ES   1   1544 59.58                             137    -0.2 7  124  19 
 GRA  SZ I        1545  3.33         5.8 0.06                           124  19 
 NOR  SZ EP   1   1544 51.10                             118     0.0 6  235 234 
 NOR  SN ES   1   1545 18.79                             118     0.0 6  235 234 
                                                                                
