 2012  426 1132  2.1 L   6.752 -73.186144.7  RSN  5 0.5 1.6LRSN                1
 GAP=229        1.11      10.6     9.6 10.6  0.6017E+02  0.8711E+01 -0.1512E+02E
 Epicentro: VILLANUEVA - SANTANDER                                             3
 ACTION:UPD 12-07-05 11:56 OP:tino STATUS:               ID:20120426113202 L   I
 2012-04-26-1130-00M.COL___186                                                 6
 STAT SP IPHASW D HRMM SECON CODA AMPLIT PERI AZIMU VELO AIN AR TRES W  DIS CAZ7
 BAR2 SZ EP       1132 21.21                             173    -0.310   18 179 
 BAR2 SZ ES   1   1132 36.07                             173    -0.6 7   18 179 
 BAR2 SZ I        1132 37.07        11.6 0.23                            18 179 
 BRR  HZ EP       1132 23.17                             153     0.110   70 304 
 BRR  HE ES   1   1132 39.89                             153     0.4 7   70 304 
 RUS  HZ EP   1   1132 25.39                             145     0.0 7   96 173 
 RUS  HN ES   1   1132 44.36                             145     0.8 7   96 173 
 RUS  HZ I        1132 45.78         5.9 0.29                            96 173 
 PTB  HZ EP   1   1132 27.80                             133    -0.7 7  142 261 
 PTB  HN ES   1   1132 48.85                             133    -0.2 7  142 261 
 PTB  HZ I        1132 51.86         3.3 0.18                           142 261 
 ZAR  HZ EP   1   1132 35.14                             122     0.9 6  202 294 
 ZAR  HN ES   1   1132 59.32                             122     0.0 6  202 294 
                                                                                
