 2010  526 1922 41.1 L   6.834 -73.184131.7  RSN  8 0.5 2.1LRSN                1
 GAP=160        0.81       4.7     9.2  9.8 -0.2755E+02  0.3301E+02 -0.5132E+01E
 Epicentro: ZAPATOCA - SANTANDER                                               3
 ACTION:UP  10-08-24 10:06 OP:vdl  STATUS:               ID:20100526192241 L   I
 2010-05-26-1921-08S.COL___108                                                 6
 STAT SP IPHASW D HRMM SECON CODA AMPLIT PERI AZIMU VELO SNR AR TRES W  DIS CAZ7
 BAR2 SZ IP       1922 59.01                             168    -0.110   27 180 
 BAR2 SZ ES   2   1923 13.36                             168     0.2 5   27 180 
 GUE  SZ EP       1923  4.10                             136    -0.210  114  15 
 GUE  SZ ES   3   1923 23.16                             136     0.8 2  114  15 
 GRA  SZ EP       1923  4.97                             134     0.110  124  20 
 GRA  SZ ES   3   1923 23.84                             134     0.4 2  124  20 
 OCA  SZ EP       1923  7.81                             126    -0.1 9  156 355 
 OCA  SZ ES   2   1923 28.79                             126    -0.1 5  156 355 
 OCA  SZ I        1923 33.18        15.5 0.11                           156 355 
 CHI  HZ EP   2   1923 17.33                             113    -1.0 4  251 194 
 CHI  HN ES   2   1923 46.40                             113    -0.9 4  251 194 
 CHI  HZ I        1923 56.65         6.5 0.56                           251 194 
 ROSC BZ EP       1923 19.16                             113     0.6 8  254 210 
 ROSC BN ES   2   1923 47.21                             113    -0.6 4  254 210 
 ROSC BZ I        1923 55.41        13.2 0.60                           254 210 
 HEL  HZ EP   2   1923 20.48                             111     0.2 4  269 255 
 HEL  HE ES   2   1923 49.69                             111    -1.1 4  269 255 
 HEL  HZ I        1923 57.90         9.5 0.36                           269 255 
 RREF BZ EP   1   1923 27.05                             108     0.5 5  321 228 
 RREF BN ES   2   1924  3.26                             108     1.2 3  321 228 
                                                                                
