 2011  626 1938 20.0 L   6.774 -73.151149.4  RSN 10 0.3 2.0LRSN                1
 GAP=137        0.64       3.4     4.6  4.8 -0.7624E+01  0.8065E+00  0.3443E+01E
 Epicentro: LOS SANTOS - SANTANDER                                             3
 ACTION:UP  11-07-14 19:08 OP:ep   STATUS:               ID:20110626193820 L   I
 2011-06-26-1920-00M.COL___124                                                 6
 STAT SP IPHASW D HRMM SECON CODA AMPLIT PERI AZIMU VELO SNR AR TRES W  DIS CAZ7
 BAR2 SZ ES   1   1938 55.58                             172     0.0 7   20 190 
 BAR2 SZ I        1938 56.09        29.4 0.18                            20 190 
 BTL  SZ EP   2   1938 40.64                             172     0.6 5   21 321 
 BTL  SZ ES   1   1938 56.17                             172     0.6 7   21 321 
 BRR  HZ EP   1   1938 41.89                             153     0.3 7   72 301 
 BRR  HE ES   1   1938 58.46                             153     0.0 7   72 301 
 BRR  HZ I        1939  3.24        18.5 0.14                            72 301 
 PAM  SZ EP   2   1938 42.68                             151    -0.1 5   80  39 
 PAM  SN ES   2   1939  0.31                             151    -0.2 5   80  39 
 RUS  HZ EP       1938 43.90                             145     0.010   98 176 
 RUS  HE ES   2   1939  2.28                             145    -0.3 5   98 176 
 RUS  HZ I        1939  3.40        14.0 0.47                            98 176 
 BRI  SZ EP   1   1938 44.55                             141     0.1 7  111  21 
 BRI  SZ ES   1   1939  3.32                             141    -0.2 7  111  21 
 GRA  SZ EP   1   1938 45.93                             137     0.1 7  129  17 
 GRA  SZ ES   1   1939  5.30                             137    -0.6 7  129  17 
 GRA  SZ I        1939  6.67        17.4 0.42                           129  17 
 NOR  SZ EP   2   1938 55.34                             120    -0.4 4  233 235 
 NOR  SE ES   1   1939 22.93                             120    -0.6 6  233 235 
 CHI  HZ EP   2   1938 57.64                             118     0.1 4  246 195 
 CHI  HN ES   2   1939 26.90                             118     0.0 4  246 195 
 HEL  HZ EP   2   1939  0.42                             116     0.2 4  271 256 
 HEL  HE ES   2   1939 31.63                             116     0.0 4  271 256 
 HEL  HZ I        1939 38.38         4.6 0.54                           271 256 
                                                                                
