 2014 1226 1029 10.0 L   6.739 -73.155138.2  RSN  6 0.4 1.2LRSN                1
 GAP=232        1.05       5.7     6.6  8.4  0.1096E+02  0.1759E+02 -0.7588E+01E
 Epicentro: LOS SANTOS - SANTANDER                                             3
 ACTION:UPD 15-02-10 17:07 OP:nd   STATUS:               ID:20141226102910 L   I
 OLDACT:DUP 14-12-26 22:31 OP:carl STATUS:               ID:20141226102750d    3
 2014-12-26-1027-49M.COL___286                                                 6
 STAT SP IPHASW D HRMM SECON CODA AMPLIT PERI AZIMU VELO AIN AR TRES W  DIS CAZ7
 BAR2 EZ EP       1029 28.54                             173   -0.0210 16.5 190 
 BAR2 EZ ES       1029 42.67                             173   -0.4010 16.5 190 
 BAR2 EZ I        1029 47.80         3.1 0.20            171           16.5 190 
 BRR  HZ EP       1029 30.57                             150    0.1210 73.8 304 
 BRR  HN ES       1029 47.19                             150    0.7610 73.8 304 
 RUS  HN ES       1029 49.80                             144   -0.2610 93.9 175 
 PTB  HZ EP       1029 36.24                             131    0.12 9  146 261 
 PTB  HN ES       1029 56.32                             131   -0.20 9  146 261 
 PTB  HZ I        1030  2.88         2.0 0.54            132            146 261 
 SPBC HN ES       1029 59.11                             128    0.44 9  157 220 
 ZAR  HZ EP       1029 42.23                             120    0.13 8  206 294 
 ZAR  HE ES       1030  6.34                             120   -0.83 8  206 294 
 ZAR  HZ I        1030 13.31         2.2 0.40            122            206 294 
                                                                                
