 2014  426 1943 46.1 L   6.800 -73.163148.2  RSN  5 0.5 1.8LRSN                1
 GAP=134        1.18       5.0     6.1  9.1  0.1912E+00  0.7953E+01 -0.6859E+01E
 Epicentro: LOS SANTOS - SANTANDER                                             3
 ACTION:UPD 14-05-13 23:11 OP:nd   STATUS:               ID:20140426194346 L   I
 OLDACT:REG 14-04-26 20:59 OP:nd   STATUS:               ID:20140426194000     3
 2014-04-26-1940-00M.COL___270                                                 6
 STAT SP IPHASW D HRMM SECON CODA AMPLIT PERI AZIMU VELO AIN AR TRES W  DIS CAZ7
 BRR  HZ EP       1944  7.90                             153    0.5310 69.5 299 
 BRR  HN ES       1944 24.86                             153    0.8510 69.5 299 
 BRR  HZ I        1944 29.55        13.6 0.16            154           69.5 299 
 PAM  SZ EP       1944  8.82                             151    0.2210 78.6  41 
 PAM  SN ES       1944 25.68                             151   -0.5110 78.6  41 
 PAM  SZ I        1944 28.82         7.4 0.24            154           78.6  41 
 RUS  HZ EP       1944 10.07                             144    0.0110  101 175 
 RUS  HN ES       1944 28.61                             144   -0.1710  101 175 
 RUS  HZ I        1944 29.48         9.4 0.26            149            101 175 
 PTB  HZ EP       1944 12.99                             133   -0.06 9  146 259 
 PTB  HN ES       1944 33.45                             133   -0.66 9  146 259 
 PTB  HZ I        1944 36.10        12.2 0.16            136            146 259 
 SML  HZ EP       1944 22.86                             118    0.13 8  243 336 
 SML  HN ES       1944 50.74                             118   -0.60 8  243 336 
                                                                                
