 2014  826 1920 42.4 L   6.803 -73.154141.6  RSN 11 0.4 2.5LRSN                1
 GAP=182        0.87       2.5     4.0  4.8 -0.2566E+00  0.5739E+01 -0.6744E+00E
 Epicentro: LOS SANTOS - SANTANDER                                             3
 ACTION:UPD 14-09-15 21:53 OP:nd   STATUS:               ID:20140826192042 L   I
 OLDACT:REG 14-08-26 21:10 OP:stll STATUS:               ID:20140826191819     3
 2014-08-26-1918-19M.COL___242                                                 6
 STAT SP IPHASW D HRMM SECON CODA AMPLIT PERI AZIMU VELO AIN AR TRES W  DIS CAZ7
 BAR2 SZ IP     D 1921  1.86                             170    0.2910 23.5 188 
 BAR2 SZ ES       1921 16.76                             170    0.2710 23.5 188 
 BAR2 SZ I        1921 18.40       115.7 0.22            168           23.5 188 
 BRR  HZ EP       1921  3.66                             152    0.5810 70.3 299 
 BRR  HE ES       1921 19.62                             152    0.4410 70.3 299 
 BRR  HZ I        1921 23.39        22.3 0.30            145           70.3 299 
 RUS  HZ IP     C 1921  5.75                             143   -0.0510  101 176 
 RUS  HN ES       1921 23.52                             143   -0.5110  101 176 
 RUS  HZ I        1921 26.05        33.5 0.24            142            101 176 
 PTB  HZ EP       1921  8.87                             131   -0.12 9  147 259 
 PTB  HN ES       1921 29.29                             131   -0.41 9  147 259 
 PTB  HZ I        1921 37.12        30.6 0.20            126            147 259 
 OCA  HN ES       1921 31.86                             129   -0.32 9  160 353 
 OCA  HZ I        1921 36.64        26.7 0.42            125            160 353 
 SPBC HZ EP       1921 10.54                             128   -0.04 9  163 219 
 SPBC HE ES       1921 32.18                             128   -0.36 9  163 219 
 SPBC HZ I        1921 35.45        55.3 0.20            125            163 219 
 ZAR  HZ EP       1921 14.25                             122   -0.26 9  203 292 
 ZAR  HN ES       1921 39.54                             122    0.01 9  203 292 
 ZAR  HZ I        1921 46.07        22.4 0.32            117            203 292 
 NOR  HZ EP       1921 17.86                             118   -0.00 8  234 234 
 NOR  HN ES       1921 45.51                             118    0.01 8  234 234 
 NOR  HZ I        1921 51.13        24.6 0.14            114            234 234 
 SML  HZ EP       1921 18.48                             117   -0.28 8  243 335 
 SML  HN ES       1921 46.92                             117   -0.17 8  243 335 
 SML  HZ I        1921 52.29        25.3 0.24            114            243 335 
 GUY2CHZ EP       1921 26.71                             112    0.92 7  301 235 
 GUY2CHN ES       1921 59.98                             112    0.38 7  301 235 
 GUY2CHZ I        1922  6.08        14.3 0.26                           301 235 
 DBB  SZ EP       1921 29.27                             109   -0.37 7  339 274 
 DBB  SZ I        1922  9.63        30.0 0.68            106            339 274 
                                                                                
