 2017  326 1614  6.3 L   6.786 -73.155145.6  RSN  6 0.3 1.6LRSN                1
 GAP=136        0.77       3.6     3.8  5.3 -0.3493E+01  0.2740E+01  0.2067E+01E
 Epicentro: LOS SANTOS - SANTANDER                                             3
 ACTION:UPD 17-05-25 18:45 OP:jn   STATUS:               ID:20170326161406 L   I
 OLDACT:UP  17-03-27 01:08 OP:dani STATUS:               ID:20170326160751     3
 OLDACT:REG 17-03-27 00:58 OP:dani STATUS:               ID:20170326160751     3
 2017-03-26-1608-00M.COL___355                                                 6
 STAT SP IPHASW D HRMM SECON CODA AMPLIT PERI AZIMU VELO AIN AR TRES W  DIS CAZ7
 BAR2 EZ EP     C 1614 25.84                             171   -0.0210 21.7 188 
 BAR2 EZ ES       1614 40.93                             171   -0.2010 21.7 188 
 BAR2 EZ I        1614 44.64         8.6 0.46            170           21.7 188 
 BRR  HZ EP       1614 27.74                             152    0.3310 71.0 300 
 BRR  HN ES       1614 44.32                             152    0.4410 71.0 300 
 PAM  EZ EP       1614 28.67                             150    0.0810 79.2  39 
 PAM  EN ES       1614 45.79                             150   -0.1910 79.2  39 
 PAM  EZ I        1614 47.84        10.2 0.52            154           79.2  39 
 RUS  HZ EP       1614 29.80                             144   -0.1210 99.2 175 
 RUS  HN ES       1614 48.37                             144    0.0210 99.2 175 
 RUS  HZ I        1614 50.63         3.2 0.40            146           99.2 175 
 PTB  HZ EP       1614 32.61                             132   -0.51 9  146 259 
 PTB  HN ES       1614 53.61                             132   -0.44 9  146 259 
 PTB  HZ I        1614 59.07         5.7 0.18            134            146 259 
 SPBC HZ EP       1614 34.91                             129    0.31 9  161 219 
 SPBC HE ES       1614 56.95                             129    0.27 9  161 219 
 SPBC HZ I        1614 59.35         9.7 0.09            131            161 219 
                                                                                
