 2017 1126 1519 52.8 L   5.867 -73.893105.9  RSN 15 0.6 1.8LRSN                1
 GAP= 70        1.40       3.3     3.1  6.7 -0.1877E+01  0.2234E+01  0.6817E+00E
 Epicentro: LA BELLEZA - SANTANDER                                             3
 ACTION:UPD 17-12-12 20:00 OP:rebc STATUS:               ID:20171126151952 L   I
 OLDACT:REG 17-11-26 19:49 OP:dhb  STATUS:               ID:20171126151743     3
 2017-11-26-1518-00M.COL___495                                                 6
 STAT SP IPHASW D HRMM SECON CODA AMPLIT PERI AZIMU VELO AIN AR TRES W  DIS CAZ7
 SPBC HZ IP     C 1520  7.97                             163    0.2710 31.0 220 
 SPBC HE ES       1520 19.92                             163    0.6010 31.0 220 
 RUS  HZ EP       1520 11.82                             137   -0.1410 89.7  88 
 RUS  HN ES       1520 26.31                             137   -0.5910 89.7  88 
 RUS  HZ I        1520 29.27        23.7 0.38            132           89.7  88 
 PTB  HZ EP       1520 11.49                             134   -0.4510 97.1 320 
 PTB  HN ES       1520 26.81                             134   -0.0510 97.1 320 
 PTB  HZ I        1520 29.86         9.3 0.24            129           97.1 320 
 BAR2 EZ EP       1520 14.07                             130    0.4510  112  44 
 BAR2 EZ ES       1520 30.35                             130    0.4910  112  44 
 NOR  HZ EP       1520 13.02                             129   -0.4510  113 253 
 NOR  HN ES       1520 28.35                             129   -1.2310  113 253 
 NOR  HZ I        1520 31.30        14.7 0.22            126            113 253 
 ROSC BZ EP   9   1520 16.07                             127    1.21 0  123 203 
 ROSC BN ES       1520 33.92                                    0.6510  123 203 
 ROSC BZ I        1520 36.43        16.1 0.25            124            123 203 
 CHI  HZ EP       1520 16.19                             123   -0.19 9  138 173 
 CHI  HN ES       1520 34.10                             123   -0.66 9  138 173 
 CHI  HZ I        1520 37.03         6.8 0.22            121            138 173 
 YPLC HZ EP       1520 20.35                             116    0.44 9  175 107 
 YPLC HE ES       1520 41.17                             116    0.11 9  175 107 
 YPLC HZ I        1520 43.31        27.6 0.24            113            175 107 
 GUY2CHZ EP       1520 21.01                             116    0.31 9  178 247 
 GUY2CHE ES       1520 43.21                             116    0.75 9  178 247 
 GUY2CHZ I        1520 50.14         5.1 0.50                           178 247 
 ELA  HZ EP       1520 23.33                             113    0.03 9  201 236 
 ELA  HE ES       1520 47.40                             113    0.31 9  201 236 
 ELA  HZ I        1520 53.22         6.2 0.48            111            201 236 
 ZAR  HZ EP       1520 23.72                             111    0.14 8  209 329 
 ZAR  HE ES       1520 47.77                             111    0.18 8  209 329 
 ZAR  HZ I        1520 53.75         5.8 0.50            109            209 329 
 PAM  EZ EP       1520 24.34                             112    0.09 8  210  39 
 PAM  EZ I        1520 51.57         9.1 0.48            109            210  39 
 PRA  HZ EP       1520 29.24                             106   -0.54 8  262 205 
 PRA  HE ES       1520 57.97                             106   -0.66 8  262 205 
 PRA  HZ I        1521  2.45         5.0 0.38            105            262 205 
 ORTC HZ EP       1520 29.91                             106   -0.00 8  263 215 
 ORTC HE ES       1521  0.59                             106    1.74 8  263 215 
 ORTC HZ I        1521  1.88         5.0 0.68            105            263 215 
 URE  HZ EP       1520 30.85                             105   -0.53 7  276 319 
                                                                                
