 2014 1026 1033  6.3 L   6.751 -73.143149.5  RSN 10 0.5 1.7LRSN                1
 GAP=139        1.25       4.4     6.2  7.5 -0.6000E+01  0.6858E+01  0.6685E+01E
 Epicentro: LOS SANTOS - SANTANDER                                             3
 ACTION:UPD 14-11-29 23:57 OP:nd   STATUS:               ID:20141026103306 L   I
 OLDACT:DUP 14-10-29 16:14 OP:fm   STATUS:               ID:20141026102740d    3
 2014-10-26-1027-39M.COL___277                                                 6
 STAT SP IPHASW D HRMM SECON CODA AMPLIT PERI AZIMU VELO AIN AR TRES W  DIS CAZ7
 BAR2 SZ EP       1033 26.68                             173    0.4010 18.1 194 
 BAR2 SZ ES       1033 41.68                             173   -0.1810 18.1 194 
 BAR2 SZ I        1033 43.10        14.0 0.18            170           18.1 194 
 BRR  HZ EP       1033 28.49                             152    0.4810 74.2 302 
 BRR  HN ES       1033 45.52                             152    0.5710 74.2 302 
 BRR  HZ I        1033 49.44        10.2 0.12            155           74.2 302 
 PAM  SZ EP       1033 29.42                             150    0.2710 81.5  37 
 PAM  SN ES       1033 46.39                             150   -0.5810 81.5  37 
 PAM  SZ I        1033 48.22         7.6 0.16            157           81.5  37 
 RUS  HZ EP       1033 30.33                             146    0.3010 95.2 176 
 RUS  HN ES       1033 48.45                             146   -0.1010 95.2 176 
 RUS  HZ I        1033 50.26         4.4 0.26            147           95.2 176 
 PTB  HZ EP       1033 32.71                             133   -0.79 9  147 261 
 PTB  HN ES       1033 54.38                             133   -0.35 9  147 261 
 PTB  HZ I        1033 59.57         8.5 0.20            136            147 261 
 SPBC HZ EP       1033 35.23                             130    0.53 9  159 220 
 SPBC HE ES       1033 57.42                             130    0.55 9  159 220 
 SPBC HZ I        1034  1.30         6.3 0.26            133            159 220 
 OCA  HN ES       1033 57.62                             129   -0.48 9  166 353 
 CHI  HZ EP       1033 43.73                             118    0.09 8  243 196 
 CHI  HN ES   1   1034 11.38                             118   -1.40 6  243 196 
 CHI  HZ I        1034 13.89         3.4 0.48            121            243 196 
 GUY2CHZ EP       1033 49.27                             113   -0.48 7  298 236 
 SJC  HZ EP   4   1034 11.21                             106    8.68 0  414 327 
 SJC  HN ES   4   1034 28.29                             106   -18.1 0  414 327 
 SJC  HZ I        1034 31.26         2.7 0.56            110            414 327 
 MACC HZ EP   4   1033 47.95                             102   -26.5 0  515 189 
                                                                                
