 2011  426 1625 22.3 L   6.808 -73.073139.9  RSN  9 0.4 1.9LRSN                1
 GAP=146        0.77       4.3     6.8  7.8 -0.1092E+02 -0.2732E+01  0.7418E+01E
 Epicentro: LOS SANTOS - SANTANDER                                             3
 ACTION:UP  11-06-22 15:33 OP:REBC STATUS:               ID:20110426162522 L   I
 2011-04-26-1620-52S.COL___136                                                 6
 STAT SP IPHASW D HRMM SECON CODA AMPLIT PERI AZIMU VELO SNR AR TRES W  DIS CAZ7
 BAR2 SZ EP   1   1625 41.46                             169     0.1 7   27 207 
 BAR2 SZ I        1625 57.84        15.5 0.19                            27 207 
 PAM  SZ EP   1   1625 44.06                             152     0.5 7   72  35 
 PAM  SN ES   2   1625 59.97                             152    -0.2 5   72  35 
 BRR  HZ EP       1625 43.16                             149    -0.110   78 295 
 BRR  HZ I        1625 49.79        20.8 0.20                            78 295 
 BRR  HE ES   1   1626  0.05                             149     0.5 7   78 295 
 RUS  HZ EP   1   1625 45.68                             142     0.1 7  101 181 
 RUS  HE ES   2   1626  3.07                             142    -0.6 5  101 181 
 RUS  HZ I        1626  5.73         6.0 0.36                           101 181 
 BRI  SZ EP   1   1625 45.76                             141     0.4 7  105  17 
 GRA  SZ EP       1625 47.00                             136     0.210  123  14 
 GRA  SZ I        1625 48.15        14.5 0.35                           123  14 
 GRA  SZ ES   1   1626  5.44                             136    -0.5 7  123  14 
 OCA  SZ EP   1   1625 49.54                             128    -0.7 7  161 350 
 OCA  SZ ES   2   1626 11.77                             128    -0.2 5  161 350 
 OCA  SZ I        1626 14.49        19.6 0.21                           161 350 
 NOR  SZ EP   1   1625 58.14                             116    -0.4 6  242 235 
 PRA  HZ EP   2   1626 16.48                             105     0.3 3  397 211 
 PRA  HN ES   2   1626 58.21                             105     0.0 3  397 211 
                                                                                
