 2013  226 1041 37.1 L   6.625 -73.212142.4  RSN  5 0.3 1.3LRSN                1
 GAP=184        0.55       5.4     5.1  5.9  0.1514E+02  0.6136E+01  0.1823E+01E
 Epicentro: BARICHARA - SANTANDER                                              3
 ACTION:UPD 13-03-12 09:35 OP:ep   STATUS:               ID:20130226104137 L   I
 2013-02-26-1040-00M.COL___228                                                 6
 STAT SP IPHASW D HRMM SECON CODA AMPLIT PERI AZIMU VELO AIN AR TRES W  DIS CAZ7
 BAR2 SZ EP   1   1041 55.82                             178   -0.29 7 4.88 138 
 BAR2 SZ ES   1   1042 10.99                             178    0.07 7 4.88 138 
 BAR2 SZ I        1042 12.20         6.2 0.44            177           4.88 138 
 BRR  HZ EP   1   1041 58.09                             150   -0.14 7 76.8 314 
 BRR  HN ES   1   1042 14.90                             150    0.20 7 76.8 314 
 BRR  HZ I        1042 18.50         4.7 0.52            152           76.8 314 
 RUS  HZ EP   1   1041 59.80                             149    0.53 7 82.2 170 
 RUS  HN ES   1   1042 16.25                             149   -0.31 7 82.2 170 
 RUS  HZ I        1042 19.32         1.6 0.32            151           82.2 170 
 PTB  HZ EP   1   1042  2.90                             133   -0.02 7  138 266 
 PTB  HN ES   1   1042 23.14                             133    0.09 7  138 266 
 PTB  HZ I        1042 25.58         4.5 0.58            135            138 266 
 ZAR  HN ES   2   1042 34.40                             121   -0.36 4  206 298 
                                                                                
