 2017  826 1951 44.0 L   6.805 -73.013147.8  RSN  4 0.2 1.1LRSN                1
 GAP=168        0.64       5.1     8.2  5.8 -0.3156E+02  0.1970E+01  0.1227E+01E
 Epicentro: CEPITA - SANTANDER                                                 3
 ACTION:UPD 17-09-04 20:24 OP:rebc STATUS:               ID:20170826195144 L   I
 OLDACT:REG 17-08-27 00:58 OP:edw  STATUS:               ID:20170826194940     3
 2017-08-26-1950-00M.COL___408                                                 6
 STAT SP IPHASW D HRMM SECON CODA AMPLIT PERI AZIMU VELO AIN AR TRES W  DIS CAZ7
 BAR2 EZ EP       1952  3.74                             168   -0.3310 30.1 218 
 BAR2 EZ ES       1952 19.47                             168   -0.2210 30.1 218 
 BAR2 EZ I        1952 21.33         4.8 0.22            169           30.1 218 
 PAM  EZ EP       1952  6.26                             154    0.2910 68.5  30 
 PAM  EN ES       1952 23.15                             154    0.0710 68.5  30 
 PAM  EZ I        1952 25.34         2.1 0.30            155           68.5  30 
 RUS  HZ EP       1952  7.84                             144   -0.1910  101 184 
 RUS  HN ES       1952 26.94                             144    0.1910  101 184 
 RUS  HZ I        1952 29.69         1.3 0.18            145            101 184 
 SPBC HN ES       1952 36.98                             128    0.23 9  173 223 
                                                                                
