 2011 1126 1054 25.0 L   6.765 -73.066142.0  RSN  4 0.3 1.4LRSN                1
 GAP=149        0.60       5.4     7.2  8.1  0.3595E+01 -0.1403E+02  0.4131E+01E
 Epicentro: LOS SANTOS - SANTANDER                                             3
 ACTION:UPD 12-07-13 16:12 OP:ep   STATUS:               ID:20111126105425 L   I
 2011-11-26-1052-23S.COL___160                                                 6
 STAT SP IPHASW D HRMM SECON CODA AMPLIT PERI AZIMU VELO AIN AR TRES W  DIS CAZ7
 BAR2 SZ EP   1   1054 44.12                             170   -0.09 7 23.0 214 
 BAR2 SZ ES   2   1054 58.56                             170   -0.60 5 23.0 214 
 BAR2 SZ I        1055  0.70         7.7 0.35                          23.0 214 
 PAM  SZ EP   1   1054 47.07                             151    0.34 7 75.3  32 
 PAM  SZ I        1054 47.34         2.2 0.28                          75.3  32 
 PAM  SN ES   2   1055  3.42                             151   -0.23 5 75.3  32 
 BRR  HZ EP   1   1054 46.03                             149   -0.34 7 80.8 298 
 BRR  HZ I        1054 46.51         9.3 0.07                          80.8 298 
 BRR  HN ES   1   1055  3.30                             149    0.30 7 80.8 298 
 RUS  HZ EP   1   1054 48.05                             144   -0.07 7 96.5 181 
 RUS  HN ES   2   1055  6.64                             144    0.51 5 96.5 181 
 RUS  HZ I        1055  7.51         3.1 0.41                          96.5 181 
                                                                                
