 2011 1026 1006 38.0 L   7.373 -73.403119.4  RSN  5 0.1 1.4LRSN                1
 GAP=139        0.43       2.9     4.5  7.3 -0.1775E+01 -0.6446E+01  0.2638E+01E
 Epicentro: SABANA DE TORRES - SANTANDER                                       3
 ACTION:UPD 12-07-13 16:06 OP:ep   STATUS:               ID:20111026100638 L   I
 2011-10-26-1000-00M.COL___177                                                 6
 STAT SP IPHASW D HRMM SECON CODA AMPLIT PERI AZIMU VELO AIN AR TRES W  DIS CAZ7
 GIR2 SZ EP       10 6 54.55                             160   -0.2710 39.9 145 
 BRR  HZ EP       10 6 54.89                             158    0.0510 45.0 229 
 BRR  HN ES   2   10 7  8.10                             158    0.09 5 45.0 229 
 BRR  HZ I        10 7 19.87         6.1 0.50                          45.0 229 
 BTL  SZ EP       10 6 55.74                             155    0.1910 52.4 163 
 OCA  SZ EP       10 6 58.44                             138    0.0510 96.2   5 
 OCA  SZ ES   1   10 7 14.31                             138   -0.02 7 96.2   5 
 OCA  SZ I        10 7 17.07         5.5 0.60                          96.2   5 
 ZAR  HN ES   2   10 7 24.67                             122   -0.11 5  161 275 
                                                                                
