 2016 1226 1229 14.2 L   6.852 -73.166145.1  RSN  5 0.3 1.3LRSN                1
 GAP=244        0.82       5.6     5.6  6.6  0.1769E+02  0.8859E+01  0.6108E+01E
 Epicentro: ZAPATOCA - SANTANDER                                               3
 ACTION:UPD 17-01-11 20:19 OP:rebc STATUS:               ID:20161226122914 L   I
 OLDACT:REG 16-12-26 20:27 OP:cog  STATUS:               ID:20161226122746     3
 2016-12-26-1228-00M.COL___366                                                 6
 STAT SP IPHASW D HRMM SECON CODA AMPLIT PERI AZIMU VELO AIN AR TRES W  DIS CAZ7
 BAR2 EZ EP       1229 33.76                             168   -0.0710 28.8 183 
 BAR2 EZ ES       1229 49.40                             168    0.2210 28.8 183 
 RUS  HZ EP       1229 38.01                             142   -0.2710  107 175 
 RUS  HN ES       1229 57.09                             142   -0.0110  107 175 
 RUS  HZ I        1229 57.77         3.1 0.38            136            107 175 
 PTB  HZ EP       1229 41.00                             132    0.02 9  147 256 
 PTB  HN ES       1230  1.26                             132   -0.64 9  147 256 
 PTB  HZ I        1230  5.24         2.5 0.16            127            147 256 
 ZAR  HN ES       1230 11.58                             123    0.53 9  200 291 
 CHI  HZ EP       1229 52.36                             116   -0.01 8  254 194 
 CHI  HN ES       1230 22.62                             116    0.46 8  254 194 
 CHI  HZ I        1230 31.44         1.1 0.05            113            254 194 
                                                                                
