 2013  426 1027  2.2 L   6.106 -73.697110.1  RSN 13 0.4 1.9LRSN                1
 GAP= 97        0.79       3.1     2.9  5.5 -0.3878E+01  0.4789E+01  0.1025E+01E
 Epicentro: BOLIVAR - SANTANDER                                                3
 ACTION:UPD 13-05-22 14:41 OP:EP   STATUS:               ID:20130426102702 L   I
 2013-04-26-1020-00M.COL___249                                                 6
 STAT SP IPHASW D HRMM SECON CODA AMPLIT PERI AZIMU VELO AIN AR TRES W  DIS CAZ7
 RUS  HZ IP     D 1027 20.24                             145   -0.1210 72.0 109 
 RUS  HN ES   1   1027 34.15                             145   -0.40 7 72.0 109 
 RUS  HZ I        1027 38.19         6.9 0.40            144           72.0 109 
 BAR2 SZ EP       1027 20.83                             142    0.3710 78.3  47 
 BAR2 SZ ES       1027 34.96                             142    0.2310 78.3  47 
 BAR2 SZ I        1027 36.80        52.4 0.38            138           78.3  47 
 PTB  HZ EP       1027 20.98                             135   -0.6510 96.7 300 
 PTB  HN ES   1   1027 36.26                             135   -0.55 7 96.7 300 
 PTB  HZ I        1027 38.79        16.1 0.07            133           96.7 300 
 BRR  HZ EP     D 1027 23.09                             131    0.2410  111 359 
 BRR  HE ES   1   1027 38.95                             131   -0.03 7  111 359 
 BRR  HZ I        1027 46.73        11.6 0.30            128            111 359 
 GIR2 SZ IP     D 1027 24.41                             128    0.3910  121  27 
 GIR2 SZ I        1027 44.91        12.9 0.44            125            121  27 
 NOR  HZ EP       1027 26.16                             123    0.09 9  143 245 
 NOR  HN ES   1   1027 45.03                             123    0.33 7  143 245 
 NOR  HZ I        1027 47.23        20.4 0.18            123            143 245 
 PAM  SZ EP       1027 29.81                             118   -0.23 9  175  39 
 PAM  SN ES   1   1027 51.83                             118    0.06 7  175  39 
 PAM  SZ I        1027 53.45         6.0 0.42            115            175  39 
 HEL  HZ EP       1027 33.45                             114    0.53 9  203 273 
 HEL  HN ES   4   1027 55.34                             114   -1.55 0  203 273 
 HEL  HZ I        1028  0.97         6.9 0.24            112            203 273 
 GUY  HZ EP       1027 33.91                             113   -0.09 8  211 243 
 GUY  HN ES   1   1027 59.35                             113    0.52 6  211 243 
 GUY  HZ I        1028  3.08         7.6 0.56            112            211 243 
 OCA  HZ EP   4   1027 23.29                             109   -13.5 0  239  10 
 OCA  HN ES   3   1028  3.76                             109   -0.03 2  239  10 
 OCA  HZ I        1028 12.55         6.0 0.30            107            239  10 
 URE  HZ EP   4   1027 38.57                             106   -1.88 0  272 312 
 URE  HN ES   4   1028  8.64                             106   -1.66 0  272 312 
 URE  HZ I        1028 10.96         5.2 0.24            105            272 312 
 PRA  HZ EP       1027 42.88                             105   -0.32 7  296 207 
 PRA  HN ES   2   1028 14.67                             105   -0.53 4  296 207 
 PRA  HZ I        1028 18.14         4.8 0.22            104            296 207 
 SML  HZ EP       1027 43.35                             104   -0.41 7  301 352 
 SML  HN ES   2   1028 15.79                             104   -0.41 4  301 352 
 SML  HZ I        1028 19.41         8.3 0.10            103            301 352 
                                                                                
