 2013  326 2135 47.4 L   6.779 -73.158148.5  RSN  6 0.3 2.0LRSN                1
 GAP=136        0.89       4.9     4.7  7.8 -0.2439E+01  0.2224E+01  0.5419E+01E
 Epicentro: LOS SANTOS - SANTANDER                                             3
 ACTION:UPD 13-04-09 14:05 OP:ep   STATUS:               ID:20130326213547 L   I
 2013-03-26-2130-00M.COL___245                                                 6
 STAT SP IPHASW D HRMM SECON CODA AMPLIT PERI AZIMU VELO AIN AR TRES W  DIS CAZ7
 BAR2 SZ EP       2136  7.34                             172    0.0610 20.8 188 
 BRR  HZ EP       2136  9.16                             153    0.3510 71.2 301 
 BRR  HE ES       2136 26.10                             153    0.5610 71.2 301 
 BRR  HE I        2136 26.50        32.8 0.32            150           71.2 301 
 PAM  SZ EP       2136 10.03                             150    0.0010 80.0  39 
 PAM  SN ES       2136 27.25                             150   -0.4610 80.0  39 
 PAM  SN I        2136 29.75         6.7 0.48            152           80.0  39 
 RUS  HZ EP       2136 11.39                             145    0.1610 98.3 175 
 RUS  HN ES       2136 29.86                             145    0.0210 98.3 175 
 RUS  HN I        2136 30.84         4.6 0.18            147           98.3 175 
 PTB  HZ EP       2136 14.10                             133   -0.30 9  146 260 
 PTB  HN ES       2136 34.98                             133   -0.51 9  146 260 
 PTB  HN I        2136 40.21        19.1 0.24            132            146 260 
 ZAR  HE ES   4   2136 48.54                             123    3.16 0  204 293 
 ZAR  HE I        2136 50.61        20.6 0.34            123            204 293 
                                                                                
