 2012  326 2325 43.2 L   6.762 -73.150147.9  RSN  4 0.1 1.5LRSN                1
 GAP=242        0.33       7.0     6.0  7.1  0.3700E+02 -0.1236E+02 -0.2505E+02E
 ACTION:UP  12-03-31 23:23 OP:EP   STATUS:               ID:20120326232543 L   I
 2012-03-26-2320-00M.COL___196                                                 6
 STAT SP IPHASW D HRMM SECON CODA AMPLIT PERI AZIMU VELO SNR AR TRES W  DIS CAZ7
 BAR2 SZ EP   1   2326  3.05                             172     0.0 9   19 191 
 BAR2 SZ I        2326  3.39        10.3 0.13                            19 191 
 RUS  HZ EP   1   2326  6.98                             145     0.1 9   96 176 
 RUS  HN ES   1   2326 25.30                                    -0.1 9   96 176 
 RUS  HZ ES   1   2326 25.58                             145             96 176 
 RUS  HZ I        2326 26.70         3.0 0.49                            96 176 
 PTB  HZ EP   1   2326 10.28                             133     0.0 8  147 260 
 ZAR  HZ EP   2   2326 15.69                             123    -0.2 5  205 293 
 ZAR  HE ES       2326 41.46                             123     0.010  205 293 
                                                                                
