 2011  726 2144 10.2 L   6.751 -73.079148.7  RSN  9 0.3 2.8LRSN                1
 GAP=161        0.47       2.3     4.2  3.7 -0.4899E+01  0.1011E+01  0.3189E+01E
 Epicentro: LOS SANTOS - SANTANDER                                             3
 ACTION:UPD 12-07-25 14:03 OP:epov STATUS:               ID:20110726214410 L   I
 2011-07-26-2142-37S.COL___139                                                 6
 STAT SP IPHASW D HRMM SECON CODA AMPLIT PERI AZIMU VELO AIN AR TRES W  DIS CAZ7
 BAR2 SZ IP       2144 30.10                             172   -0.0410 21.0 213 
 BAR2 SZ ES   1   2144 45.69                             172   -0.01 7 21.0 213 
 BAR2 SZ I        2144 48.14       118.6 0.34                          21.0 213 
 PAM  SZ EP   1   2144 32.87                             151    0.14 7 77.4  33 
 PAM  SE ES   1   2144 50.07                             151   -0.24 7 77.4  33 
 BRR  HZ EP   1   2144 32.04                             150   -0.16 7 80.3 299 
 BRR  HE ES   1   2144 49.45                             150    0.09 7 80.3 299 
 BRR  HZ I        2144 51.75       136.8 0.17                          80.3 299 
 BRI  SZ EP   1   2144 34.67                             141    0.09 7  111  16 
 BRI  SZ ES   1   2144 53.90                             141    0.30 7  111  16 
 BRI  SZ I        2144 55.40        62.8 0.26                           111  16 
 OCA  SZ EP   1   2144 39.14                             129   -0.20 7  167 351 
 OCA  SZ ES   1   2145  1.89                             129   -0.18 7  167 351 
 OCA  SZ I        2145  6.58        87.7 0.24                           167 351 
 CHI  HZ EP   1   2144 47.99                             118    0.26 6  246 197 
 CHI  HE ES   1   2145 17.09                             118    0.09 6  246 197 
 CHI  HZ I        2145 25.30        27.1 0.31                           246 197 
 TOL  SZ EP   1   2144 59.53                             110    0.79 5  345 226 
 TOL  SZ ES   1   2145 36.57                             110   -0.04 5  345 226 
 PRA  HZ EP   1   2145  3.73                             107    0.02 4  391 211 
 PRA  HE ES   1   2145 45.07                             107   -0.38 4  391 211 
 SJA  SZ EP   1   2145  3.77                             107   -0.67 4  397 194 
                                                                                
