 2012  426 2212  9.4 L   6.752 -73.089139.4  RSN  4 0.1 1.7LRSN                1
 GAP=146        0.50       3.0     4.4  4.6 -0.1936E+01  0.6295E+00  0.1633E+01E
 Epicentro: LOS SANTOS - SANTANDER                                             3
 ACTION:UPD 12-07-05 11:56 OP:tino STATUS:               ID:20120426221209 L   I
 2012-04-26-2210-00M.COL___189                                                 6
 STAT SP IPHASW D HRMM SECON CODA AMPLIT PERI AZIMU VELO AIN AR TRES W  DIS CAZ7
 BAR2 SZ EP       2212 28.22                             171     0.010   21 210 
 BAR2 SZ ES   1   2212 42.78                             171    -0.1 7   21 210 
 BAR2 SZ I        2212 44.12        15.6 0.35                            21 210 
 PAM  SZ EP       2212 30.65                             149    -0.310   78  33 
 PAM  SN ES       2212 47.93                             149     0.210   78  33 
 BRR  HZ EP       2212 30.46                             149     0.110   79 300 
 BRR  HZ I        2212 36.16        15.1 0.65                            79 300 
 BRR  HN ES   1   2212 46.56                             149    -0.1 7   79 300 
 RUS  HZ EP       2212 32.21                             144     0.110   95 180 
 RUS  HN ES   1   2212 49.74                             144    -0.1 7   95 180 
 RUS  HZ I        2212 51.64         4.7 0.29                            95 180 
                                                                                
