 2011 1126 2302 34.9 L   6.751 -73.096146.3  RSN  5 0.3 1.6LRSN                1
 GAP=145        0.54       3.4     6.2  6.3 -0.6509E+01 -0.7584E+01  0.7125E+01E
 Epicentro: LOS SANTOS - SANTANDER                                             3
 ACTION:UPD 12-07-13 16:12 OP:ep   STATUS:               ID:20111126230234 L   I
 2011-11-26-2300-38S.COL___160                                                 6
 STAT SP IPHASW D HRMM SECON CODA AMPLIT PERI AZIMU VELO AIN AR TRES W  DIS CAZ7
 BAR2 SZ EP   1   23 2 54.63                             172    0.13 7 20.0 208 
 BAR2 SZ ES   1   23 3  9.71                             172   -0.10 7 20.0 208 
 BAR2 SZ I        23 3 11.22        12.9 0.18                          20.0 208 
 PAM  SZ EP   1   23 2 57.11                             150   -0.09 7 78.5  34 
 PAM  SN ES   1   23 3 14.41                             150   -0.22 7 78.5  34 
 PAM  SZ I        23 3 17.34         4.5 0.54                          78.5  34 
 BRR  HN ES   1   23 3 13.45                             150    0.07 7 78.6 300 
 RUS  HZ EP   1   23 2 58.62                             145    0.35 7 94.9 179 
 RUS  HN ES   1   23 3 16.75                             145    0.22 7 94.9 179 
 RUS  HZ I        23 3 18.57         5.7 0.23                          94.9 179 
 CHI  HN ES   1   23 3 40.71                             118   -0.59 6  245 197 
                                                                                
