 2010  626 2035 48.9 L   6.775 -73.231139.1  RSN  6 0.3 1.7LRSN                1
 GAP=141        0.67       5.9    14.9  9.4  0.8032E+01 -0.5465E+01 -0.3227E+02E
 Epicentro: ZAPATOCA - SANTANDER                                               3
 ACTION:UP  10-08-24 10:13 OP:vdl  STATUS:               ID:20100626203548 L   I
 2010-06-26-2033-13S.COL___118                                                 6
 STAT SP IPHASW D HRMM SECON CODA AMPLIT PERI AZIMU VELO SNR AR TRES W  DIS CAZ7
 BAR2 SZ ES   1   2036 22.16                             171    -0.2 7   21 166 
 BRR  HZ EP   1   2036  9.06                             154     0.1 7   65 305 
 BRR  HZ I        2036 23.64        10.6 0.33                            65 305 
 RUS  HZ EP   1   2036 11.66                             143    -0.2 7   99 170 
 RUS  HN ES   1   2036 30.02                             143     0.2 7   99 170 
 RUS  HZ I        2036 31.71         7.4 0.28                            99 170 
 BRI  SZ EP   2   2036 12.63                             138     0.0 5  115  25 
 GUE  SZ EP   1   2036 13.06                             137    -0.3 7  121  16 
 GRA  SZ EP   2   2036 14.94                             134     0.9 5  131  21 
                                                                                
