 2010  626 2205 24.9 L   6.768 -73.131141.8  RSN 12 0.4 2.6LRSN                1
 GAP=158        1.05       3.7     6.4  7.0 -0.8314E+01  0.1089E+02  0.1031E+01E
 Epicentro: LOS SANTOS - SANTANDER                                             3
 *URI                                                                          3
 ACTION:UP  10-08-24 10:13 OP:vdl  STATUS:               ID:20100626220524 L   I
 2010-06-26-2201-51S.COL___118                                                 6
 STAT SP IPHASW D HRMM SECON CODA AMPLIT PERI AZIMU VELO SNR AR TRES W  DIS CAZ7
 BAR2 SZ IP       22 5 43.88                             171    -0.110   20 197 
 BAR2 SZ ES   1   22 5 58.60                             171    -0.3 7   20 197 
 BRR  HZ IP     C 22 5 45.77                             151     0.010   74 300 
 BRR  HZ I        22 5 46.12       151.5 0.08                            74 300 
 BRR  HE ES   1   22 6  2.21                             151     0.1 7   74 300 
 RUS  HZ IP     C 22 5 47.90                             144    -0.110   97 177 
 RUS  HN ES   1   22 6  5.60                             144    -0.4 7   97 177 
 RUS  HZ I        22 6  7.21        39.1 0.18                            97 177 
 BRI  SZ IP       22 5 48.51                             140    -0.110  111  19 
 BRI  SZ ES   1   22 6  7.74                             140     0.6 7  111  19 
 GUE  SZ EP       22 5 48.71                             138    -0.810  120  11 
 GRA  SZ IP       22 5 50.77                             135     0.710  129  16 
 GRA  SZ ES   1   22 6 10.08                             135     0.4 7  129  16 
 OCA  SZ EP   1   22 5 52.39                             128    -0.9 7  164 353 
 OCA  SZ ES   1   22 6 15.35                             128     0.0 7  164 353 
 OCA  SZ I        22 6 19.22        56.8 0.28                           164 353 
 CHI  HZ EP   1   22 6  2.10                             117     0.1 6  246 196 
 CHI  HE ES   1   22 6 31.84                             117     0.8 6  246 196 
 CHI  HZ I        22 6 39.34        13.7 0.32                           246 196 
 HEL  HZ EP   1   22 6  5.22                             114     0.2 6  273 257 
 HEL  HN ES   1   22 6 36.32                             114     0.1 6  273 257 
 HEL  HZ I        22 6 42.25        31.2 0.32                           273 257 
 RREF HZ EP   1   22 6 11.19                             110     0.5 5  321 230 
 RREF HZ I        22 6 52.10        20.1 0.80                           321 230 
 DBB  SZ EP       22 6 12.22                             109    -0.2 7  341 275 
 PRA  HZ EP   1   22 6 18.54                             106     0.5 4  390 210 
 PRA  HN ES   2   22 6 58.92                             106    -0.5 3  390 210 
 PRA  HZ I        22 7  6.69        14.9 0.33                           390 210 
                                                                                
