 2015  826 2227 43.3 L   6.557 -73.499113.8  RSN 19 0.4 2.8LRSN                1
 GAP= 54        0.92       1.9     2.2  4.2 -0.8724E+00  0.3081E+01  0.3573E+00E
 Epicentro: EL CARMEN - SANTANDER                                              3
 ACTION:UPD 15-09-15 23:05 OP:cam  STATUS:               ID:20150826222743 L   I
 OLDACT:REG 15-08-27 03:59 OP:ar   STATUS:               ID:20150826221750     3
 2015-08-26-2217-50M.COL___340                                                 6
 STAT SP IPHASW D HRMM SECON CODA AMPLIT PERI AZIMU VELO AIN AR TRES W  DIS CAZ7
 BAR2 EZ EP     D 2227 59.67                             162    0.2010 35.2  84 
 BAR2 EZ ES       2228 12.30                             162    0.2110 35.2  84 
 BRR  HZ EP       2228  0.58                             148   -0.1210 65.3 339 
 BRR  HE ES       2228 14.48                             148    0.2110 65.3 339 
 BRR  HZ I        2228 16.06        79.7 0.14            144           65.3 339 
 RUS  HZ EP       2228  2.58                             140   -0.3410 86.6 148 
 RUS  HN ES       2228 18.70                             140    0.4710 86.6 148 
 RUS  HZ I        2228 19.55        75.8 0.40            137           86.6 148 
 SPBC HZ EP       2228  4.93                             130   -0.1810  118 212 
 SPBC HN ES       2228 21.28                             130   -0.8410  118 212 
 SPBC HZ I        2228 23.02       115.6 0.10            126            118 212 
 PAM  EZ EP       2228  6.16                             129    0.0310  124  46 
 PAM  EN ES       2228 24.14                             129    0.2010  124  46 
 PAM  EZ I        2228 25.67        92.6 0.28            125            124  46 
 ZAR  HZ EP       2228 11.63                             117    0.13 9  182 305 
 ZAR  HE ES       2228 33.47                             117   -0.04 9  182 305 
 ZAR  HZ I        2228 36.22       113.3 0.50            113            182 305 
 NOR  HZ EP       2228 11.26                             117   -0.83 9  187 234 
 NOR  HZ I        2228 36.99        80.6 0.18            113            187 234 
 OCA  HZ EP       2228 11.99                             117   -0.21 9  187   6 
 OCA  HN ES       2228 34.71                             117   -0.04 9  187   6 
 NOR  HN ES       2228 34.04                             117   -0.52 9  187 234 
 OCA  HZ I        2228 40.34       147.5 0.30            113            187   6 
 TAM  HZ EP       2228 12.58                             116    0.28 9  189  94 
 TAM  HN ES       2228 34.88                             116   -0.04 9  189  94 
 TAM  HZ I        2228 41.56        45.1 0.28            113            189  94 
 CHI  HZ EP       2228 16.10                             113    0.52 8  215 187 
 CHI  HN ES       2228 40.15                             113   -0.61 8  215 187 
 CHI  HZ I        2228 45.52        19.1 0.28            110            215 187 
 HEL  HZ EP       2228 17.46                             112    0.41 8  228 260 
 HEL  HN ES       2228 43.59                             112    0.20 8  228 260 
 HEL  HZ I        2228 50.57        40.0 0.46            108            228 260 
 GUY2CHZ EP       2228 20.41                             109    0.30 8  254 235 
 GUY2CHN ES   4   2228 51.55                             109    2.72 0  254 235 
 GUY2CHZ I        2228 52.05        47.3 0.34                           254 235 
 SML  HZ EP       2228 19.58                             109   -0.20 8  256 346 
 SML  HN ES   4   2228 49.62                             109    1.39 0  256 346 
 SML  HZ I        2228 51.49        70.0 0.28            105            256 346 
 URE  HZ EP   4   2228 19.67                             108   -0.66 0  261 301 
 URE  HN ES   4   2228 47.27                             108   -1.94 0  261 301 
 TOL  SZ EP       2228 25.66                             106    0.69 7  297 223 
 TOL  SN ES       2228 57.98                             106    0.49 7  297 223 
 TOL  SZ I        2228 59.89        31.1 0.66            102            297 223 
 DBB  SZ EP       2228 25.34                             105   -0.14 7  304 280 
 DBB  SZ ES       2228 58.63                             105    0.25 7  304 280 
 DBB  SZ I        2229  2.27       107.4 0.62            102            304 280 
 LL2C HZ EP   4   2228 30.16                             103    1.53 0  332   1 
 LL2C HN ES   4   2229  8.13                             103    4.13 0  332   1 
 LL2C HZ I        2229 13.84        74.3 0.46            100            332   1 
 SOCV BZ EP   4   2228 29.42                             102   -1.28 0  349  57 
 SOCV BN ES   4   2229  5.42                             102   -2.25 0  349  57 
 PRA  HZ EP       2228 30.81                             102   -0.06 6  350 206 
 PRA  HE ES       2229  7.93                             102   -0.05 6  350 206 
 PRA  HZ I        2229 12.36        31.2 0.24             99            350 206 
 ORTC HZ EP       2228 31.64                             102    0.64 6  351 214 
 ORTC HN ES       2229  8.57                             102    0.36 6  351 214 
 ORTC HZ I        2229 13.72        22.0 0.74             99            351 214 
 MACC HN ES   4   2229 35.15                              97   -2.62 0  489 185 
 CRJC HZ EP       2228 47.99                              97   -0.80 4  498   8 
 CRJC HN ES       2229 38.75                              97   -1.12 4  498   8 
 CRJC HZ I        2229 42.62        15.0 0.30             92            498   8 
                                                                                
