 2011 1026 2255  3.8 L   6.812 -73.130141.4  RSN 17 0.4 3.0LRSN                1
 GAP=115        0.76       2.6     3.7  4.9 -0.3013E+00  0.6788E+01  0.3346E+01E
 Epicentro: LOS SANTOS - SANTANDER                                             3
 ACTION:UPD 12-07-13 16:06 OP:ep   STATUS:               ID:20111026225503 L   I
 2011-10-26-2253-15S.COL___177                                                 6
 STAT SP IPHASW D HRMM SECON CODA AMPLIT PERI AZIMU VELO AIN AR TRES W  DIS CAZ7
 BAR2 SZ IP       2255 23.04                             169    0.1110 25.0 193 
 BAR2 SZ ES   1   2255 37.90                             169    0.03 7 25.0 193 
 BAR2 SZ I        2255 39.62       164.2 0.16                          25.0 193 
 BRR  HZ IP     C 2255 24.86                             151    0.3310 72.1 297 
 BRR  HN ES   1   2255 41.38                             151    0.68 7 72.1 297 
 BRR  HZ I        2255 42.53       183.8 0.13                          72.1 297 
 PAM  SZ EP   1   2255 25.78                             151    0.37 7 75.2  39 
 PAM  SN ES   1   2255 42.19                             151   -0.09 7 75.2  39 
 RUS  HZ EP   1   2255 27.01                             143   -0.20 7  102 177 
 RUS  HZ I        2255 28.30        82.0 0.15                           102 177 
 RUS  HN ES   1   2255 44.94                             143   -0.54 7  102 177 
 OCA  SZ EP   1   2255 31.24                             129   -0.42 7  159 352 
 OCA  SZ ES   1   2255 52.80                             129   -0.60 7  159 352 
 OCA  SZ I        2255 56.63        98.6 0.29                           159 352 
 YOP  SZ EP       2255 33.91                             125    0.34 9  179 154 
 YOP  SE ES   1   2255 56.55                             125   -0.24 7  179 154 
 YOP  SZ I        2255 58.67        51.8 0.24                           179 154 
 ZAR  HZ EP   1   2255 35.64                             121   -0.44 6  205 292 
 ZAR  HZ I        2256  7.20       125.7 0.27                           205 292 
 NOR  SZ EP   1   2255 39.08                             117   -0.43 6  237 234 
 NOR  SN ES   1   2256  6.54                             117   -0.84 6  237 234 
 ROSC BZ EP   1   2255 42.49                             116    0.58 6  255 211 
 ROSC BN ES   1   2256 12.05                             116    0.41 6  255 211 
 ROSC BZ I        2256 17.02        89.2 0.56                           255 211 
 HEL  HZ EP   1   2255 43.84                             114   -0.18 6  274 256 
 HEL  HE ES   2   2256 15.62                             114    0.23 4  274 256 
 HEL  HZ I        2256 21.44        52.2 0.31                           274 256 
 VIL  SZ EP   2   2255 46.75                             111   -0.45 4  305 192 
 VIL  SN ES   1   2256 20.77                             111   -0.30 5  305 192 
 GUY  SZ EP   1   2255 46.99                             111   -0.73 5  306 235 
 GUY  SZ I        2256 28.69        71.0 0.30                           306 235 
 RREF HE ES   2   2256 25.52                             110   -0.53 3  324 229 
 RREF HZ I        2256 34.82        42.7 0.20                           324 229 
 DBB  SZ EP   1   2255 51.48                             109    0.19 5  341 274 
 TOL  SZ EP   1   2255 52.95                             108    0.82 5  346 225 
 ANIL HZ EP   1   2255 54.23                             107    0.54 5  360 225 
 ANIL HN ES   1   2256 33.08                             107    0.47 5  360 225 
 ANIL HZ I        2256 40.73       105.6 0.33                           360 225 
 PRA  HZ EP   1   2255 57.18                             106   -0.23 4  394 210 
 PRA  HE ES   1   2256 39.40                             106    0.17 4  394 210 
                                                                                
