 2012  726 2155 44.7 L   6.768 -73.122156.5  RSN  5 0.3 1.7LRSN                1
 GAP=238        0.71       7.9     7.4  9.5  0.3703E+02 -0.9130E+01 -0.1162E+02E
 Epicentro: LOS SANTOS - SANTANDER                                             3
 ACTION:UPD 12-08-14 11:45 OP:ep   STATUS:               ID:20120726215545dL   I
 2012-07-26-2150-00M.COL___215                                                 6
 STAT SP IPHASW D HRMM SECON CODA AMPLIT PERI AZIMU VELO AIN AR TRES W  DIS CAZ7
 BAR2 SZ EP   1   2156  5.30                             172    -0.2 7   21 199 
 BAR2 SZ I        2156 22.13        11.6 0.27            170             21 199 
 BRR  HZ EP   1   2156  7.26                             153     0.1 7   75 300 
 BRR  HZ I        2156  7.51        24.0 0.17            154             75 300 
 BRR  HN ES   1   2156 24.76                             153     0.0 7   75 300 
 RUS  HZ EP   1   2156  9.76                             147     0.5 7   97 177 
 RUS  HE ES   1   2156 28.26                             147    -0.1 7   97 177 
 RUS  HZ I        2156 29.21         5.5 0.42            147             97 177 
 PTB  HZ EP   1   2156 12.18                             134    -0.5 7  150 260 
 PTB  HE ES   1   2156 34.66                             134     0.1 7  150 260 
 PTB  HZ I        2156 35.49         3.2 0.20            138            150 260 
 ZAR  HN ES   1   2156 44.58                             124     0.2 6  208 293 
