 2014 1026 2128 27.2 L   6.787 -73.162130.3  RSN  4 0.2 1.5LRSN                1
 GAP=141        0.47       3.6     2.8  4.4 -0.1028E+00  0.1733E+01 -0.5613E+01E
 Epicentro: LOS SANTOS - SANTANDER                                             3
 ACTION:UPD 14-11-29 23:57 OP:nd   STATUS:               ID:20141026212827 L   I
 OLDACT:DUP 14-10-29 16:29 OP:stll STATUS:               ID:20141026211751d    3
 2014-10-26-2117-50M.COL___277                                                 6
 STAT SP IPHASW D HRMM SECON CODA AMPLIT PERI AZIMU VELO AIN AR TRES W  DIS CAZ7
 BAR2 SZ ES       2128 58.62                             170   -0.1710 21.6 186 
 PAM  SZ EP       2128 48.11                             147    0.1410 79.6  40 
 RUS  HZ EP       2128 49.31                             141   -0.0710 99.3 175 
 RUS  HN ES       2129  6.80                             141    0.1310 99.3 175 
 RUS  HN I        2129  9.71         5.2 0.30            140           99.3 175 
 PTB  HZ EP       2128 52.58                             129   -0.20 9  146 259 
 PTB  HN ES       2129 12.88                             129    0.17 9  146 259 
 PTB  HN I        2129 18.47         4.6 0.48            127            146 259 
                                                                                
