 2010  826 2325 48.4 L   6.800 -73.105150.9  RSN  4 0.2 1.6LRSN                1
 GAP=169        0.49       5.4    11.6 10.4  0.4161E+02 -0.8610E+02 -0.3368E+02E
 Epicentro: LOS SANTOS - SANTANDER                                             3
 ACTION:UP  10-09-07 10:58 OP:vdl  STATUS:               ID:20100826232548 L   I
 2010-08-26-2323-45S.COL___120                                                 6
 STAT SP IPHASW D HRMM SECON CODA AMPLIT PERI AZIMU VELO SNR AR TRES W  DIS CAZ7
 BAR2 SZ EP   1   2326  8.33                             170    -0.4 7   25 201 
 BAR2 SZ I        2326  8.85         7.2 0.08                            25 201 
 BRR  HZ EP   1   2326 10.33                             152     0.0 7   75 297 
 BRR  HN ES   1   2326 27.51                             152     0.1 7   75 297 
 BRR  HZ I        2326 40.49        16.0 0.39                            75 297 
 RUS  HZ EP   1   2326 12.85                             145     0.2 7  100 179 
 RUS  HN ES   1   2326 31.61                             145     0.0 7  100 179 
 RUS  HZ I        2326 32.82         2.4 0.29                           100 179 
 GUE  SZ EP   1   2326 13.65                             141     0.1 7  116  10 
                                                                                
