 2011  626 2026 57.5 L   6.802 -73.123141.3  RSN 17 0.4 2.5LRSN                1
 GAP= 88        0.88       3.3     4.7  5.4 -0.5215E+01  0.5595E+01  0.2531E+01E
 Epicentro: LOS SANTOS - SANTANDER                                             3
 ACTION:UP  11-07-14 19:08 OP:ep   STATUS:               ID:20110626202657 L   I
 2011-06-26-2025-02S.COL___140                                                 6
 STAT SP IPHASW D HRMM SECON CODA AMPLIT PERI AZIMU VELO SNR AR TRES W  DIS CAZ7
 SAN  SZ EP   1   2027 16.99                             177     0.7 7    7 127 
 BTL  SZ EP       2027 16.63                             171     0.110   21 309 
 BAR2 SZ IP       2027 16.55                             170     0.010   24 196 
 BAR2 SZ ES   1   2027 31.08                             170    -0.4 7   24 196 
 BAR2 SZ I        2027 32.75        61.4 0.23                            24 196 
 GIR2 SZ EP       2027 16.58                             167     0.010   32 346 
 BRR  HZ IP     C 2027 18.37                             151     0.110   73 297 
 BRR  HZ I        2027 19.43       175.5 0.09                            73 297 
 BRR  HN ES       2027 34.98                             151     0.510   73 297 
 PAM  SZ EP   1   2027 19.34                             151     0.2 7   76  38 
 PAM  SN ES   1   2027 36.10                             151     0.1 7   76  38 
 RUS  HZ EP   1   2027 20.46                             143    -0.3 7  101 177 
 RUS  HN ES   1   2027 38.61                             143    -0.4 7  101 177 
 RUS  HZ I        2027 40.96        46.3 0.30                           101 177 
 BRI  SZ EP       2027 21.07                             141     0.210  107  20 
 BRI  SZ ES   1   2027 39.10                             141     0.0 7  107  20 
 BRI  SZ I        2027 41.20        58.7 0.21                           107  20 
 GRA  SZ EP   1   2027 22.38                             136     0.2 7  125  16 
 GRA  SZ ES   1   2027 40.99                             136    -0.6 7  125  16 
 GRA  SZ I        2027 43.94        55.7 0.37                           125  16 
 OCA  SZ EP       2027 25.15                             129    -0.3 9  160 352 
 OCA  SZ ES   1   2027 46.37                             129    -0.9 7  160 352 
 OCA  SZ I        2027 50.03        37.8 0.32                           160 352 
 YOP  SZ EP   2   2027 27.39                             125     0.3 4  178 154 
 YOP  SZ I        2027 55.40        13.3 0.29                           178 154 
 NOR  SZ EP       2027 33.19                             117     0.0 8  237 235 
 NOR  SN ES   2   2028  0.00                             117    -1.0 4  237 235 
 CHI  HZ EP   2   2027 35.87                             116     0.9 4  249 196 
 CHI  HE ES   2   2028  3.54                             116    -0.7 4  249 196 
 CHI  HZ I        2028 12.04        14.2 0.41                           249 196 
 HEL  HZ EP   1   2027 37.32                             114    -0.4 6  275 256 
 HEL  HN ES   1   2028  9.48                             114     0.4 6  275 256 
 HEL  HZ I        2028 14.97        18.8 0.46                           275 256 
 RREF HZ EP   1   2027 43.42                             110    -0.2 5  324 230 
 RREF HZ I        2028 26.01        18.6 0.29                           324 230 
 DBB  SZ EP   1   2027 44.97                             108    -0.1 5  342 274 
 PRA  HZ EP   1   2027 50.91                             106    -0.1 4  393 210 
                                                                                
