 2017  726 2121 39.9 L   6.758 -73.182147.7  RSN  5 0.2 1.6LRSN                1
 GAP=230        0.60       4.7     4.2  4.8  0.1222E+02  0.2793E+01  0.1074E+00E
 Epicentro: LOS SANTOS - SANTANDER                                             3
 ACTION:UPD 17-08-30 15:37 OP:rebc STATUS:               ID:20170726212139 L   I
 OLDACT:REG 17-07-27 03:45 OP:dnl  STATUS:               ID:20170726211741     3
 2017-07-26-2118-00M.COL___392                                                 6
 STAT SP IPHASW D HRMM SECON CODA AMPLIT PERI AZIMU VELO AIN AR TRES W  DIS CAZ7
 BAR2 EZ EP       2121 59.58                             173   -0.0910 18.3 180 
 BAR2 EZ ES       2122 14.69                             173   -0.4010 18.3 180 
 BAR2 EZ I        2122 15.57        15.4 0.28            166           18.3 180 
 BRR  HZ EP       2122  1.23                             153    0.0310 70.1 303 
 BRR  HN ES       2122 18.14                             153    0.3310 70.1 303 
 BRR  HZ I        2122 20.26        20.2 0.30            150           70.1 303 
 RUS  HZ EP       2122  3.71                             145    0.1710 96.3 173 
 RUS  HN ES       2122 22.19                             145    0.2110 96.3 173 
 RUS  HZ I        2122 24.93         2.5 0.28            144           96.3 173 
 PTB  HZ EP       2122  6.38                             133   -0.22 9  143 260 
 PTB  HE ES       2122 27.34                             133   -0.08 9  143 260 
 PTB  HZ I        2122 33.22         2.6 0.24            130            143 260 
 ZAR  HZ EP   4   2122 14.64                             123    2.36 0  202 294 
 ZAR  HE ES       2122 37.56                             123    0.03 9  202 294 
 ZAR  HZ I        2122 43.67         3.8 0.40            122            202 294 
                                                                                
