 2017  126 2117 51.2 L   6.792 -73.161140.8  RSN  4 0.2 1.1LRSN                1
 GAP=235        0.67       5.4     5.5  5.6  0.1641E+02  0.5441E+01  0.2636E+01E
 Epicentro: LOS SANTOS - SANTANDER                                             3
 ACTION:UPD 17-05-22 16:03 OP:jn   STATUS:               ID:20170126211751 L   I
 OLDACT:REG 17-01-27 03:19 OP:cara STATUS:               ID:20170126210742     3
 2017-01-26-2108-00M.COL___349                                                 6
 STAT SP IPHASW D HRMM SECON CODA AMPLIT PERI AZIMU VELO AIN AR TRES W  DIS CAZ7
 BAR2 EZ ES       2118 25.20                             171    0.1710 22.2 186 
 BRR  HZ EP       2118 11.98                             152    0.2210 70.2 300 
 BRR  HN ES       2118 27.53                             152   -0.2610 70.2 300 
 RUS  HZ EP       2118 14.57                             143    0.1610 99.8 175 
 RUS  HN ES       2118 32.30                             143   -0.2110 99.8 175 
 RUS  HZ I        2118 34.29         2.4 0.26            141           99.8 175 
 PTB  HZ EP       2118 17.22                             131   -0.38 9  146 259 
 PTB  HN ES       2118 38.47                             131    0.28 9  146 259 
 PTB  HZ I        2118 40.84         1.8 0.22            130            146 259 
                                                                                
