 2012 1126 2333 35.1 L   6.249 -73.667110.1  RSN  5 0.3 1.3LRSN                1
 GAP=169        0.58       4.6     3.6  6.6  0.4945E+01  0.2114E+01 -0.1282E+02E
 Epicentro: SANTA HELENA DEL OPON - SANTANDER                                  3
 ACTION:UPD 12-12-05 15:36 OP:}ep  STATUS:               ID:20121126233335 L   I
 2012-11-26-2330-00M.COL___234                                                 6
 STAT SP IPHASW D HRMM SECON CODA AMPLIT PERI AZIMU VELO AIN AR TRES W  DIS CAZ7
 BAR2 SZ EP   1   2333 52.40                             147   -0.05 7 65.7  55 
 BAR2 SZ ES   1   2334  5.82                             147   -0.19 7 65.7  55 
 RUS  HZ EP   1   2333 53.58                             143    0.08 7 75.6 121 
 RUS  HE ES   1   2334  8.25                             143    0.36 7 75.6 121 
 RUS  HZ I        2334 10.60         3.1 0.34                          75.6 121 
 PTB  HZ EP   1   2333 54.11                             137   -0.09 7 93.1 290 
 PTB  HN ES   1   2334  9.10                             137   -0.05 7 93.1 290 
 PTB  HZ I        2334 11.89         7.2 0.12                          93.1 290 
 GIR2 SZ EP   1   2333 54.99                             133   -0.48 7  106  30 
 SML  HZ EP   1   2334 14.97                             105    0.11 6  286 351 
 SML  HE ES   1   2334 46.56                             105    0.65 6  286 351 
                                                                                
