 2013  126 2117 53.5 L   6.757 -73.147151.0  RSN  7 0.4 1.7LRSN                1
 GAP=138        0.94       5.0     5.5  7.4 -0.6050E+01  0.5897E+01  0.7635E+01E
 Epicentro: LOS SANTOS - SANTANDER                                             3
 ACTION:UPD 13-02-15 09:17 OP:ep   STATUS:               ID:20130126211753 L   I
 2013-01-26-2110-00M.COL___241                                                 6
 STAT SP IPHASW D HRMM SECON CODA AMPLIT PERI AZIMU VELO AIN AR TRES W  DIS CAZ7
 BAR2 SZ EP       2118 12.86                             173   -0.8410 18.6 192 
 BAR2 SZ ES   1   2118 29.24                             173   -0.19 7 18.6 192 
 BRR  HZ EP     C 2118 15.70                             153    0.3410 73.5 302 
 BRR  HN ES   1   2118 33.19                             153    0.79 7 73.5 302 
 BRR  HZ I        2118 37.96        12.8 0.18            153           73.5 302 
 PAM  SZ EP       2118 16.66                             151    0.1410 81.2  37 
 PAM  SN ES   1   2118 34.16                             151   -0.30 7 81.2  37 
 PAM  SZ I        2118 36.30         5.1 0.20            157           81.2  37 
 RUS  HZ EP       2118 17.72                             146    0.2610 95.8 176 
 RUS  HN ES   1   2118 36.42                             146    0.29 7 95.8 176 
 RUS  HZ I        2118 38.13         7.3 0.40            147           95.8 176 
 PTB  HZ EP       2118 20.53                             133   -0.30 9  147 261 
 PTB  HN ES   1   2118 41.89                             133   -0.24 7  147 261 
 PTB  HZ I        2118 43.89         9.9 0.14            134            147 261 
 NOR  HZ EP   1   2118 29.57                             120    0.32 6  232 235 
 NOR  HE ES   1   2118 56.65                             120   -0.47 6  232 235 
 NOR  HZ I        2119  5.15         7.6 0.16            121            232 235 
 CHI  HZ EP   1   2118 31.41                             119    0.40 6  244 195 
 CHI  HN ES   1   2119  0.41                             119    0.15 6  244 195 
 CHI  HZ I        2119  6.91         2.2 0.28            121            244 195 
                                                                                
