 2016  526 2006 16.9 L   6.807 -73.177141.7  RSN  6 0.3 1.7LRSN                1
 GAP=132        0.68       3.2     3.3  4.6 -0.2542E+01  0.2145E+01  0.1706E+01E
 Epicentro: LOS SANTOS - SANTANDER                                             3
 ACTION:UPD 16-08-18 17:49 OP:cam  STATUS:               ID:20160526200616 L   I
 OLDACT:REG 16-05-27 02:23 OP:drio STATUS:               ID:20160526195747     3
 2016-05-26-1957-47M.COL___321                                                 6
 STAT SP IPHASW D HRMM SECON CODA AMPLIT PERI AZIMU VELO AIN AR TRES W  DIS CAZ7
 BAR2 EZ EP       20 6 35.86                             170   -0.2010 23.7 181 
 BAR2 EZ ES       20 6 51.02                             170    0.0210 23.7 181 
 BAR2 EZ I        20 6 52.73       119.9 1.18            166           23.7 181 
 BRR  HZ EP       20 6 37.75                             153    0.3210 67.8 299 
 BRR  HN ES       20 6 53.59                             153    0.1510 67.8 299 
 PAM  EZ EP       20 6 38.89                             149    0.0910 79.1  42 
 PAM  EE ES       20 6 55.81                             149   -0.0610 79.1  42 
 PAM  EZ I        20 6 56.29         3.9 0.28            155           79.1  42 
 RUS  HZ EP       20 6 40.47                             143    0.1310  102 174 
 RUS  HE ES       20 6 58.36                             143   -0.2510  102 174 
 RUS  HZ I        20 7  1.86         2.0 0.42            141            102 174 
 PTB  HZ EP       20 6 42.98                             132   -0.27 9  145 258 
 PTB  HN ES       20 7  3.41                             132   -0.39 9  145 258 
 PTB  HZ I        20 7  5.77         6.6 0.24            132            145 258 
 SPBC HZ EP       20 6 44.85                             128   -0.10 9  162 218 
 SPBC HE ES       20 7  7.36                             128    0.54 9  162 218 
 SPBC HZ I        20 7 14.96         5.8 0.10            128            162 218 
                                                                                
