 2010  826 2218 16.4 L   6.774 -73.138144.2  RSN 17 0.5 3.0LRSN                1
 GAP=160        0.97       3.5     5.6  6.0 -0.6484E+01  0.5472E+01  0.5366E+01E
 Epicentro: LOS SANTOS - SANTANDER                                             3
 ACTION:UP  10-09-07 10:58 OP:vdl  STATUS:               ID:20100826221816 L   I
 2010-08-26-2215-25S.COL___119                                                 6
 STAT SP IPHASW D HRMM SECON CODA AMPLIT PERI AZIMU VELO SNR AR TRES W  DIS CAZ7
 BAR2 SZ IP       2218 35.43                             172    -0.410   21 194 
 BAR2 SZ ES   1   2218 50.30                             172    -0.6 7   21 194 
 BAR2 SZ I        2218 53.29       210.0 0.42                            21 194 
 GIR2 SZ EP   2   2218 35.39                             166    -0.6 5   34 350 
 BRR  HZ EP       2218 37.27                             151    -0.210   73 300 
 BRR  HN ES       2218 54.44                             151     0.510   73 300 
 BRR  HZ I        2218 58.62        92.0 0.17                            73 300 
 RUS  HZ EP       2218 39.41                             144    -0.410   98 176 
 RUS  HE ES   1   2218 58.01                             144     0.0 7   98 176 
 RUS  HZ I        2218 59.63        84.5 0.34                            98 176 
 GUE  SZ EP       2218 41.22                             138     0.110  119  11 
 GRA  SZ EP       2218 42.11                             136     0.410  128  17 
 GRA  SZ ES       2219  1.96                             136     0.510  128  17 
 GRA  SZ I        2219  3.43        76.3 0.40                           128  17 
 OCA  SZ EP   2   2218 44.37                             128    -0.5 5  163 353 
 OCA  SZ ES   1   2219  6.92                             128    -0.1 7  163 353 
 OCA  SZ I        2219 11.34        90.5 0.06                           163 353 
 CHI  HZ EP       2218 53.68                             117     0.0 8  246 196 
 CHI  HE ES   2   2219 23.25                             117     0.4 4  246 196 
 CHI  HZ I        2219 27.02        40.2 0.40                           246 196 
 ROSC BZ EP   1   2218 55.08                             117     0.9 6  251 212 
 ROSC BZ I        2219 31.42        61.6 0.48                           251 212 
 CVER SZ I        2218 59.39        88.5 0.33                           270 203 
 HEL  HZ EP   1   2218 56.49                             114     0.0 6  272 256 
 HEL  HN ES   1   2219 27.07                             114    -0.8 6  272 256 
 HEL  HZ I        2219 35.13        56.5 0.35                           272 256 
 GUY  SZ EP   2   2219  0.63                             112     0.8 4  300 235 
 GUY  SN ES   2   2219 33.61                             112    -0.1 4  300 235 
 RREF HZ EP   1   2219  2.57                             111     0.2 5  321 230 
 DBB  SZ EP   1   2219  3.15                             109    -0.8 5  341 275 
 TOL  SZ EP   1   2219  4.83                             109     0.4 5  342 225 
 ANIL HZ EP   1   2219  6.68                                     0.7 5  356 225 
 ANIL HE ES   2   2219 44.32                                    -0.3 3  356 225 
 ANIL HZ I        2219 50.65        83.1 0.33                           356 225 
 PRA  HZ EP       2219  9.20                             106    -0.4 6  390 210 
 PRA  HE ES   1   2219 51.53                             106     0.4 4  390 210 
 PRA  HZ I        2219 58.23        46.9 0.25                           390 210 
                                                                                
