 2010  826 2024 32.9 L   6.799 -73.056144.2  RSN  6 0.3 1.8LRSN                1
 GAP=175        0.82       6.3    11.1  8.2  0.3066E+02 -0.3420E+02 -0.1159E+02E
 Epicentro: LOS SANTOS - SANTANDER                                             3
 ACTION:UP  10-09-07 10:58 OP:vdl  STATUS:               ID:20100826202432 L   I
 2010-08-26-2020-50S.COL___120                                                 6
 STAT SP IPHASW D HRMM SECON CODA AMPLIT PERI AZIMU VELO SNR AR TRES W  DIS CAZ7
 BAR2 SZ EP   1   2024 52.12                             169    -0.3 7   27 212 
 BAR2 SZ ES   1   2025  7.61                             169     0.0 7   27 212 
 BAR2 SZ I        2025  8.93        16.1 0.34                            27 212 
 GIR2 SZ EP   1   2024 53.28                             166     0.8 7   35 334 
 BRR  HZ IP     C 2024 54.11                             150    -0.310   80 295 
 BRR  HZ I        2024 54.37        38.3 0.17                            80 295 
 BRR  HE ES       2025 11.29                             150     0.110   80 295 
 RUS  HZ EP   1   2024 56.45                             144     0.0 7  100 182 
 RUS  HN ES   1   2025 14.90                             144     0.0 7  100 182 
 RUS  HZ I        2025 16.05         7.1 0.35                           100 182 
 GUE  SZ EP   1   2024 57.25                             139    -0.1 7  115   7 
 GUE  SZ I        2024 58.65         3.5 0.04                           115   7 
 PRA  HZ EP   1   2025 27.15                             106     0.2 4  397 211 
 PRA  HZ I        2026 17.70         2.7 0.56                           397 211 
                                                                                
