 2010  926 2143  9.0 L   6.818 -73.048141.5  RSN  7 0.4 2.1LRSN                1
 GAP=211        0.79       6.6    12.2  8.6  0.2645E+02  0.2985E+02  0.1857E+02E
 Epicentro: LOS SANTOS - SANTANDER                                             3
 ACTION:UP  11-02-18 11:05 OP:tino STATUS:               ID:20100926214309 L   I
 2010-09-26-2140-44S.COL___122                                                 6
 STAT SP IPHASW D HRMM SECON CODA AMPLIT PERI AZIMU VELO SNR AR TRES W  DIS CAZ7
 BTL  SZ EP   1   2143 28.88                             169     0.7 7   27 295 
 BAR2 SZ EP   1   2143 28.40                             168     0.1 7   29 211 
 BAR2 SZ ES   2   2143 42.96                             168    -0.3 5   29 211 
 BAR2 SZ I        2143 44.60        39.2 0.30                            29 211 
 GIR2 SZ EP   1   2143 27.56                             166    -0.7 7   33 331 
 GIR2 SZ ES   2   2143 42.83                             166    -0.4 5   33 331 
 BRR  HZ IP     D 2143 30.26                             149     0.010   80 294 
 BRR  HE ES   2   2143 47.23                             149     0.5 5   80 294 
 BRR  HZ I        2143 48.24        31.9 0.09                            80 294 
 RUS  HZ EP   1   2143 32.62                             142     0.2 7  102 182 
 RUS  HE ES   2   2143 50.70                             142    -0.1 5  102 182 
 RUS  HZ I        2143 53.05        14.5 0.26                           102 182 
 CHI  HZ EP   1   2143 46.91                             116    -0.1 6  254 197 
 CHI  HE ES   2   2144 16.69                             116     0.0 4  254 197 
 CHI  HZ I        2144 20.83         4.9 0.58                           254 197 
 HEL  HZ EP   1   2143 49.81                             113    -0.4 6  283 256 
 HEL  HZ I        2144 26.86         8.0 0.40                           283 256 
                                                                                
