 2017  426 2033 42.9 L   6.790 -73.145146.0  RSN 17 0.3 2.3LRSN                1
 GAP=112        0.87       3.0     3.0  5.4 -0.6188E+00  0.8107E+00  0.4350E+01E
 Epicentro: LOS SANTOS - SANTANDER                                             3
 ACTION:UPD 17-05-30 21:16 OP:jn   STATUS:               ID:20170426203342 L   I
 OLDACT:DUP 17-04-27 08:09 OP:lv   STATUS:               ID:20170426202741d    3
 2017-04-26-2028-00M.COL___370                                                 6
 STAT SP IPHASW D HRMM SECON CODA AMPLIT PERI AZIMU VELO AIN AR TRES W  DIS CAZ7
 BRR  HZ EP       2034  4.47                             153    0.3310 71.9 299 
 BRR  HN ES       2034 21.19                             153    0.5110 71.9 299 
 BRR  HZ I        2034 25.40        22.7 0.07            152           71.9 299 
 PAM  EZ EP       2034  5.31                             151    0.0910 78.2  39 
 PAM  EN ES       2034 22.66                             151    0.0610 78.2  39 
 PAM  EZ I        2034 25.34        18.0 0.29            162           78.2  39 
 PTB  HZ EP       2034  9.53                             132   -0.38 9  148 259 
 PTB  HN ES       2034 30.29                             132   -0.66 9  148 259 
 PTB  HZ I        2034 37.85        36.4 0.54            132            148 259 
 SPBC HZ EP       2034 11.47                             129    0.10 9  162 219 
 SPBC HE ES       2034 33.15                             129   -0.40 9  162 219 
 SPBC HZ I        2034 39.49        23.9 0.21            128            162 219 
 YPLC HZ EP       2034 12.71                             127    0.07 9  176 151 
 YPLC HN ES       2034 35.55                             127   -0.26 9  176 151 
 YPLC HZ I        2034 37.67        26.2 0.19            129            176 151 
 ZAR  HZ EP       2034 15.24                             123   -0.21 9  205 292 
 ZAR  HN ES       2034 40.75                             123   -0.06 9  205 292 
 TABC EZ EP   4   2034 20.15                             120    1.55 0  229 211 
 TABC EZ ES   4   2034 49.22                             120    2.81 0  229 211 
 TABC EZ I        2034 55.35        16.9 0.26            120            229 211 
 NOR  HZ EP       2034 18.40                             119   -0.21 8  234 235 
 NOR  HN ES       2034 46.42                             119   -0.02 8  234 235 
 NOR  HZ I        2034 50.35        26.3 0.14            119            234 235 
 CHI  HN ES       2034 50.25                             118    0.40 8  248 195 
 CHI  HZ I        2034 55.57         7.9 0.12            118            248 195 
 ROSC BZ EP   9   2034 22.58                             117    1.62 0  252 211 
 ROSC BN ES       2034 52.66                                    0.41 8  252 211 
 ROSC BZ I        2035  0.11        16.7 0.29            118            252 211 
 HEL  HZ EP   9   2034 24.48                             115    1.34 0  272 256 
 HEL  HN ES       2034 56.24                                    0.40 8  272 256 
 HEL  HZ I        2035  1.54        17.5 0.35            116            272 256 
 PTGC HN ES   4   2034 59.05                             112   -1.74 0  308 159 
 PTGC HZ I        2035  2.64        24.5 0.28            114            308 159 
 ELA  HZ EP   9   2034 32.61                             111    2.89 0  328 230 
 ELA  HN ES       2035 10.15                                    1.05 7  328 230 
 ELA  HZ I        2035 23.43         7.1 0.37            112            328 230 
 CBOC HZ EP       2034 30.32                             110    0.49 7  333 252 
 CBOC HN ES   4   2035  3.64                             110   -2.77 0  333 252 
 CBOC HZ I        2035 13.10         5.2 0.21            111            333 252 
 ANIL HZ EP   4   2034 34.41                             109    1.75 0  357 225 
 ANIL HN ES   4   2035 14.78                             109    3.33 0  357 225 
 ANIL HZ I        2035 18.82        24.8 0.05            110            357 225 
 ORTC HZ EP       2034 36.95                             107    0.19 6  395 216 
 ORTC HN ES       2035 19.11                             107    0.37 6  395 216 
 ORTC HZ I        2035 26.40         7.3 0.24            108            395 216 
 SJC  HZ EP   4   2034 36.74                             106   -1.88 0  410 327 
 SJC  HN ES   4   2035 16.97                             106   -5.08 0  410 327 
 SJC  HZ I        2035 21.47         2.9 0.08            109            410 327 
                                                                                
