 2017  626 2339 12.1 L   6.784 -73.091142.1  RSN  5 0.2 1.5LRSN                1
 GAP=268        0.71       4.7     4.9  6.0  0.3956E+01 -0.5207E+00 -0.1239E+01E
 Epicentro: LOS SANTOS - SANTANDER                                             3
 ACTION:UPD 17-09-14 16:55 OP:jn   STATUS:               ID:20170626233912 L   I
 OLDACT:UP  17-06-27 03:46 OP:dnl  STATUS:               ID:20170626233743     3
 OLDACT:UP  17-06-27 03:46 OP:dnl  STATUS:               ID:20170626233743     3
 OLDACT:REG 17-06-27 02:33 OP:dnl  STATUS:               ID:20170626233743     3
 2017-06-26-2338-00M.COL___352                                                 6
 STAT SP IPHASW D HRMM SECON CODA AMPLIT PERI AZIMU VELO AIN AR TRES W  DIS CAZ7
 BAR2 EZ EP       2339 31.31                             171    0.0110 23.5 206 
 BAR2 EZ ES       2339 46.01                             171   -0.2510 23.5 206 
 BAR2 EZ I        2339 47.25         7.2 0.44            167           23.5 206 
 BRR  HZ EP       2339 33.35                             150    0.1210 77.4 298 
 BRR  HN ES       2339 50.03                             150    0.3310 77.4 298 
 BRR  HZ I        2339 54.27         7.5 0.14            145           77.4 298 
 PTB  HZ EP   9   2339 38.31                             130   -0.99 0  153 260 
 PTB  HN ES       2339 58.96                             131   -0.56 9  153 260 
 PTB  HZ I        2340  4.75         2.7 0.48            128            153 260 
 SPBC HZ EP   2   2339 40.57                             128   -0.00 5  166 221 
 SPBC HE ES       2340  2.79                             128    0.02 9  166 221 
 SPBC HZ I        2340  5.40         4.0 0.50            127            166 221 
 ZAR  HZ EP   4   2339 48.23                             120    3.26 0  210 292 
 ZAR  HN ES       2340 10.29                             120   -0.32 8  210 292 
 ZAR  HZ I        2340 15.44         4.8 0.50            119            210 292 
                                                                                
