 2012 1126 2002 47.8 L   6.527 -73.592105.1  RSN  6 0.4 1.5LRSN                1
 GAP=130        0.72       4.0     3.9  7.1  0.8820E+00  0.1150E+02 -0.7387E+01E
 Epicentro: EL CARMEN DE CHUCURI - SANTANDER                                   3
 ACTION:UPD 12-12-05 15:36 OP:}ep  STATUS:               ID:20121126200247 L   I
 2012-11-26-2000-00M.COL___234                                                 6
 STAT SP IPHASW D HRMM SECON CODA AMPLIT PERI AZIMU VELO AIN AR TRES W  DIS CAZ7
 BAR2 SZ EP   1   20 3  3.70                             155    0.17 7 45.9  81 
 BAR2 SZ ES   1   20 3 15.50                             155   -0.25 7 45.9  81 
 GIR2 SZ EP   1   20 3  5.22                             142   -0.07 7 75.3  36 
 GIR2 SZ ES   1   20 3 19.15                             142    0.26 7 75.3  36 
 GIR2 SZ I        20 3 20.03         9.2 0.14                          75.3  36 
 RUS  HZ EP   1   20 3  6.82                             137   -0.13 7 90.0 141 
 RUS  HN ES   1   20 3 22.03                             137    0.18 7 90.0 141 
 RUS  HZ I        20 3 23.91         4.7 0.34                          90.0 141 
 PTB  HZ EP     D 20 3  6.50                             134   -0.2710 95.5 271 
 PTB  HN ES   1   20 3 21.49                             134   -0.05 7 95.5 271 
 PTB  HZ I        20 3 24.91        10.9 0.14                          95.5 271 
 ZAR  HZ EP   1   20 3 15.87                             116    0.99 7  176 307 
 SML  HZ EP   1   20 3 23.63                             106   -0.48 6  257 348 
 SML  HN ES   1   20 3 52.17                             106   -0.22 6  257 348 
                                                                                
