 2010  826 2309 56.1 L   6.747 -73.102144.0  RSN  7 0.4 2.0LRSN                1
 GAP=164        0.97       4.3     8.7  7.1 -0.9869E+01 -0.3078E+01  0.8353E+01E
 Epicentro: LOS SANTOS - SANTANDER                                             3
 ACTION:UP  10-09-07 10:58 OP:vdl  STATUS:               ID:20100826230956 L   I
 2010-08-26-2307-16S.COL___120                                                 6
 STAT SP IPHASW D HRMM SECON CODA AMPLIT PERI AZIMU VELO SNR AR TRES W  DIS CAZ7
 BAR2 SZ EP   1   2310 15.10                             172    -0.3 7   19 208 
 BAR2 SZ ES   1   2310 30.19                             172    -0.3 7   19 208 
 BAR2 SZ I        2310 31.85        30.4 0.20                            19 208 
 BRR  HZ EP       2310 16.95                             150    -0.510   78 301 
 BRR  HN ES       2310 34.37                             150     0.210   78 301 
 BRR  HZ I        2310 35.93        18.2 0.11                            78 301 
 RUS  HZ EP   1   2310 18.99                             145    -0.3 7   94 179 
 RUS  HN ES   1   2310 37.77                             145     0.5 7   94 179 
 RUS  HZ I        2310 38.72         8.1 0.36                            94 179 
 GRA  SZ EP       2310 21.88                             136     0.310  130  15 
 GRA  SZ ES   1   2310 41.61                             136     0.2 7  130  15 
 GRA  SZ I        2310 46.04         6.7 0.60                           130  15 
 CHI  HZ EP   1   2310 32.99                             117    -0.2 6  244 197 
 CHI  HE ES   1   2311  2.31                             117     0.1 6  244 197 
 CHI  HZ I        2311  6.93         5.1 0.50                           244 197 
 RREF HZ EP   1   2310 43.12                             111     1.0 5  322 231 
 RREF HZ I        2311 23.87         5.5 0.24                           322 231 
 PRA  HZ EP       2310 48.93                             106    -0.3 6  389 211 
 PRA  HN ES   1   2311 31.07                             106     0.4 4  389 211 
 PRA  HZ I        2311 36.65         6.1 0.37                           389 211 
                                                                                
