 2017  326 2253  1.6 L   6.820 -73.136140.4  RSN  5 0.3 1.1LRSN                1
 GAP=137        0.75       4.9     4.4  6.0  0.4120E+01 -0.2318E+01 -0.2536E+01E
 Epicentro: LOS SANTOS - SANTANDER                                             3
 ACTION:UPD 17-05-25 18:45 OP:jn   STATUS:               ID:20170326225301 L   I
 OLDACT:REG 17-03-27 03:00 OP:cara STATUS:               ID:20170326224745     3
 2017-03-26-2248-00M.COL___360                                                 6
 STAT SP IPHASW D HRMM SECON CODA AMPLIT PERI AZIMU VELO AIN AR TRES W  DIS CAZ7
 BAR2 EZ EP       2253 20.90                             169    0.3210 25.7 191 
 BAR2 EZ ES       2253 35.05                             169   -0.3810 25.7 191 
 BAR2 EZ I        2253 36.24         5.8 0.42            164           25.7 191 
 BRR  HN ES       2253 38.18                             152    0.0310 71.1 297 
 PAM  EZ EP       2253 23.17                             151    0.1210 75.0  40 
 RUS  HZ EP       2253 24.88                             142   -0.0510  103 177 
 RUS  HN ES       2253 43.30                             142    0.1310  103 177 
 RUS  HZ I        2253 44.82         1.3 0.30            140            103 177 
 PTB  HZ EP       2253 27.70                             130   -0.52 9  149 258 
 PTB  HE ES       2253 49.33                             130    0.31 9  149 258 
 PTB  HZ I        2253 55.72         1.8 0.18            127            149 258 
                                                                                
