 2017 1026 2149 11.4 L   6.554 -73.549108.0  RSN 12 0.5 2.6LRSN                1
 GAP= 64        1.29       3.2     3.7  6.8  0.2341E+00  0.8906E+01  0.3874E+01E
 Epicentro: EL CARMEN - SANTANDER                                              3
 ACTION:UPD 17-11-07 19:37 OP:rebc STATUS:               ID:20171026214911 L   I
 OLDACT:REG 17-10-27 03:05 OP:leo  STATUS:               ID:20171026213742     3
 2017-10-26-2138-00M.COL___302                                                 6
 STAT SP IPHASW D HRMM SECON CODA AMPLIT PERI AZIMU VELO AIN AR TRES W  DIS CAZ7
 BAR2 EZ IP     C 2149 27.37                             158    0.2510 40.7  84 
 BAR2 EZ ES       2149 39.72                             158    0.3110 40.7  84 
 BRR  HZ EP       2149 28.18                             147    0.1010 63.7 344 
 BRR  HN ES       2149 41.99                             147    0.8810 63.7 344 
 RUS  HZ EP       2149 30.41                             138   -0.2810 89.5 145 
 RUS  HN ES       2149 45.32                             138   -0.4510 89.5 145 
 RUS  HZ I        2149 47.58        78.6 0.32            138           89.5 145 
 PTB  HZ IP     C 2149 30.18                             134   -0.7910  100 269 
 PTB  HE ES       2149 45.37                             134   -0.8910  100 269 
 PTB  HZ I        2149 46.52        67.3 0.20            133            100 269 
 SPBC HZ EP       2149 32.36                             129   -0.0810  115 210 
 SPBC HN ES       2149 48.91                             129    0.0310  115 210 
 SPBC HZ I        2149 52.50       107.5 0.20            129            115 210 
 PAM  EZ EP       2149 33.78                             126   -0.3910  128  47 
 PAM  EN ES       2149 51.68                             126   -0.2810  128  47 
 PAM  EZ I        2149 53.21        36.6 0.36            128            128  47 
 ZAR  HZ EP       2149 39.16                             116    0.38 9  178 306 
 ZAR  HE ES       2150  1.15                             116    0.99 9  178 306 
 ZAR  HZ I        2150  3.83       109.4 0.34            117            178 306 
 NOR  HZ EP       2149 39.07                             116   -0.28 9  183 233 
 NOR  HN ES       2150  0.98                             116   -0.20 9  183 233 
 NOR  HZ I        2150  4.15        51.8 0.16            115            183 233 
 CHI  HZ EP       2149 43.70                             112    0.41 8  214 185 
 CHI  HN ES       2150  8.62                             112    0.43 8  214 185 
 CHI  HZ I        2150 13.72        11.3 0.30            112            214 185 
 GUY2CHZ EP       2149 48.25                             108    0.82 8  249 234 
 GUY2CHE ES   4   2150 16.85                             108    1.30 0  249 234 
 GUY2CHZ I        2150 25.61        25.9 0.40                           249 234 
 URE  HZ EP       2149 47.20                             107   -0.45 8  256 301 
 URE  HE ES       2150 15.27                             107   -0.68 8  256 301 
 URE  HZ I        2150 18.10        37.8 0.16            108            256 301 
 PRA  HZ EP       2149 58.80                             101    0.31 6  347 205 
 PRA  HE ES       2150 35.93                             101    0.68 6  347 205 
 PRA  HZ I        2150 40.62        22.6 0.22            101            347 205 
                                                                                
