 2014 1126 2057 35.9 L   6.800 -73.134141.2  RSN 13 0.6 2.1LRSN                1
 GAP=138        1.31       3.7     4.7  6.6 -0.3634E+01  0.9614E+01  0.3198E+01E
 Epicentro: LOS SANTOS - SANTANDER                                             3
 ACTION:UPD 14-12-19 15:47 OP:nd   STATUS:               ID:20141126205735 L   I
 OLDACT:DUP 14-11-27 06:21 OP:stll STATUS:               ID:20141126204748d    3
 2014-11-26-2047-46M.COL___309                                                 6
 STAT SP IPHASW D HRMM SECON CODA AMPLIT PERI AZIMU VELO AIN AR TRES W  DIS CAZ7
 BAR2 SZ EP       2057 54.86                             170   -0.0810 23.6 193 
 BAR2 SZ ES       2058  9.88                             170    0.0510 23.6 193 
 BAR2 SZ I        2058 12.64        23.2 0.32            166           23.6 193 
 BRR  HZ EP     C 2057 56.91                             151    0.3310 72.3 298 
 BRR  HZ I        2057 57.16        28.4 0.26            151           72.3 298 
 BRR  HN ES       2058 13.18                             151    0.4410 72.3 298 
 PAM  SZ IP     C 2057 57.82                             150    0.2910 76.5  39 
 PAM  SZ I        2057 58.14        33.1 0.24            156           76.5  39 
 PAM  SN ES       2058 14.88                             150    0.4410 76.5  39 
 RUS  HZ EP       2057 59.02                             143   -0.1310  101 177 
 RUS  HN ES       2058 17.33                             143    0.0010  101 177 
 RUS  HZ I        2058 20.45         9.2 0.40            143            101 177 
 PTB  HZ EP       2058  1.66                             131   -0.91 9  149 259 
 PTB  HN ES       2058 22.47                             131   -0.94 9  149 259 
 PTB  HZ I        2058 28.65        21.7 0.40            130            149 259 
 OCA  HZ EP       2058  3.36                             128   -0.46 9  160 353 
 OCA  HN ES       2058 25.24                             128   -0.40 9  160 353 
 SPBC HZ EP       2058  3.69                             128   -0.40 9  164 219 
 SPBC HN ES       2058 26.04                             128   -0.07 9  164 219 
 SPBC HZ I        2058 29.17        24.5 0.22            128            164 219 
 ZAR  HZ EP       2058  8.31                             121    0.18 8  205 292 
 ZAR  HN ES       2058 33.37                             121    0.06 8  205 292 
 ZAR  HZ I        2058 38.45        18.0 0.36            122            205 292 
 NOR  HZ EP       2058 11.11                             117   -0.33 8  236 235 
 NOR  HN ES       2058 38.01                             117   -1.19 8  236 235 
 NOR  HZ I        2058 47.39         7.2 0.18            118            236 235 
 CHI  HZ EP       2058 13.14                             116   -0.20 8  249 195 
 CHI  HN ES       2058 42.48                             116   -0.11 8  249 195 
 CHI  HZ I        2058 51.97         6.0 0.36            117            249 195 
 HEL  HZ EP       2058 17.16                             114    1.18 8  273 256 
 HEL  HN ES       2058 47.56                             114    0.28 8  273 256 
 HEL  HZ I        2058 53.33         8.8 0.34            114            273 256 
 GUY2CHZ EP       2058 19.93                             111    0.55 7  302 235 
 GUY2CHN ES       2058 54.66                             111    1.33 7  302 235 
 GUY2CHZ I        2059  3.59         6.0 0.52                           302 235 
 RREF HZ EP       2058 22.24                             110    0.32 7  323 230 
 RREF HN ES       2058 58.81                             110    0.96 7  323 230 
 RREF HZ I        2059  6.36         7.6 0.30            111            323 230 
                                                                                
