 2015  926 2050 31.2 L   5.873 -73.778104.3  RSN  7 0.4 1.6LRSN                1
 GAP=119        1.07       4.6     3.6  7.4 -0.7029E+01  0.8321E+01 -0.2469E+01E
 Epicentro: JESUS MARIA - SANTANDER                                            3
 ACTION:UPD 15-10-28 16:28 OP:cam  STATUS:               ID:20150926205031 L   I
 OLDACT:REG 15-09-27 03:58 OP:drio STATUS:               ID:20150926204749     3
 2015-09-26-2047-49M.COL___361                                                 6
 STAT SP IPHASW D HRMM SECON CODA AMPLIT PERI AZIMU VELO AIN AR TRES W  DIS CAZ7
 SPBC HZ EP       2050 46.25                             157   -0.0710 40.7 233 
 SPBC HN ES       2050 58.11                             157   -0.0110 40.7 233 
 SPBC HZ I        2051  0.03        18.2 0.12            157           40.7 233 
 RUS  HZ EP       2050 49.51                             141    0.3310 76.9  88 
 RUS  HN ES       2051  2.68                             141   -0.5310 76.9  88 
 RUS  HZ I        2051  8.81         4.5 0.52            142           76.9  88 
 BAR2 EZ EP       2050 51.04                             132   -0.0110  103  40 
 BAR2 EZ ES       2051  6.98                             132    0.4410  103  40 
 BAR2 EZ I        2051  9.23        16.4 0.50            136            103  40 
 NOR  HZ EP       2050 52.24                             125   -0.7010  126 254 
 NOR  HE ES       2051  9.95                             125    0.0410  126 254 
 CHI  HZ EP       2050 55.23                             123    0.61 9  138 178 
 CHI  HN ES       2051 12.71                             123   -0.19 9  138 178 
 CHI  HZ I        2051 23.38         2.6 0.32            124            138 178 
 GUY2CHZ EP       2051  0.08                             114   -0.26 9  190 248 
 GUY2CHN ES       2051 23.84                             114    0.77 9  190 248 
 GUY2CHZ I        2051 27.31         8.9 0.86                           190 248 
 HEL  HZ EP       2051  0.61                             113   -0.39 9  197 280 
 HEL  HE ES   4   2051 22.06                             113   -2.18 0  197 280 
 HEL  HZ I        2051 29.32         5.6 0.48            116            197 280 
                                                                                
