 2013  626 2033  2.1 L   6.762 -73.157144.0  RSN  5 0.4 1.8LRSN                1
 GAP=137        0.88       4.9     4.8  7.4 -0.2010E+01  0.4857E+01  0.1943E+01E
 Epicentro: LOS SANTOS - SANTANDER                                             3
 ACTION:UPD 14-01-08 09:57 OP:ep   STATUS:               ID:20130626203302 L   I
 OLDACT:UP  13-06-26 22:18 OP:cam  STATUS:               ID:20130626202959     3
 OLDACT:REG 13-06-26 21:31 OP:cam  STATUS:               ID:20130626202959     3
 2013-06-26-2029-59M.COL___266                                                 6
 STAT SP IPHASW D HRMM SECON CODA AMPLIT PERI AZIMU VELO AIN AR TRES W  DIS CAZ7
 BAR2 SZ EP       2033 21.41                             172   -0.0010 19.0 188 
 BAR2 SZ ES       2033 36.40                             172   -0.1010 19.0 188 
 BAR2 SZ I        2033 37.76        19.4 0.21            174           19.0 188 
 BRR  HZ EP   1   2033 23.32                             152    0.23 7 72.2 302 
 BRR  HN ES       2033 40.17                             152    0.6810 72.2 302 
 BRR  HZ I        2033 43.20        17.6 0.30            151           72.2 302 
 PAM  SZ EP   1   2033 24.40                             149    0.05 7 81.4  38 
 PAM  SN ES       2033 41.32                             149   -0.4110 81.4  38 
 PAM  SZ I        2033 44.02         5.7 0.50            150           81.4  38 
 RUS  HZ EP   1   2033 25.56                             145    0.20 7 96.5 175 
 RUS  HZ I        2033 26.62         7.0 0.16            147           96.5 175 
 RUS  HN ES       2033 43.66                             145    0.1410 96.5 175 
 PTB  HZ EP   1   2033 28.67                             132   -0.05 7  146 260 
 PTB  HN ES       2033 48.87                             132   -0.63 9  146 260 
 PTB  HZ I        2033 52.24         7.4 0.16            132            146 260 
                                                                                
