 2017  126 2102 37.2 L   6.807 -73.202145.7  RSN  5 0.2 1.2LRSN                1
 GAP=129        0.59       3.8     3.6  4.7  0.2920E+01 -0.8807E+00 -0.2528E+01E
 Epicentro: ZAPATOCA - SANTANDER                                               3
 ACTION:UPD 17-05-22 16:03 OP:jn   STATUS:               ID:20170126210237 L   I
 OLDACT:REG 17-01-27 03:18 OP:cara STATUS:               ID:20170126205748     3
 2017-01-26-2058-00M.COL___349                                                 6
 STAT SP IPHASW D HRMM SECON CODA AMPLIT PERI AZIMU VELO AIN AR TRES W  DIS CAZ7
 BAR2 EZ ES       21 3 12.11                             170   -0.0610 23.9 175 
 BRR  HZ EP       21 2 58.52                             154    0.4610 65.4 301 
 BRR  HN ES       21 3 14.16                             154   -0.1410 65.4 301 
 PAM  EZ EP       21 2 59.57                             150   -0.0810 80.9  43 
 RUS  HZ EP       21 3  0.97                             143   -0.1110  102 173 
 RUS  HN ES       21 3 19.79                             143    0.1210  102 173 
 RUS  HZ I        21 3 20.34         2.8 0.28            143            102 173 
 PTB  HZ EP       21 3  3.38                             133   -0.28 9  142 258 
 PTB  HN ES       21 3 24.34                             133    0.07 9  142 258 
                                                                                
