 2014  326 2057 22.1 L   6.794 -73.140148.6  RSN 11 0.3 2.1LRSN                1
 GAP=138        0.71       3.1     3.3  4.9 -0.2373E+01  0.4514E+01  0.1915E+01E
 Epicentro: LOS SANTOS - SANTANDER                                             3
 OLDACT:REG 14-03-26 22:51 OP:fm   STATUS:               ID:20140326204812     3
 OLDACT:DUP 14-03-26 23:59 OP:fm   STATUS:               ID:20140326204813d    3
 OLDACT:UP  14-03-26 23:59 OP:fm   STATUS:               ID:20140326204812     3
 ACTION:UPD 14-04-09 23:20 OP:nd   STATUS:               ID:20140326205722 L   I
 OLDACT:UP  14-03-27 00:07 OP:fm   STATUS:               ID:20140326204813d    3
 2014-03-26-2048-12M.COL___252                                                 6
 STAT SP IPHASW D HRMM SECON CODA AMPLIT PERI AZIMU VELO AIN AR TRES W  DIS CAZ7
 BAR2 SZ EP   1   2057 41.73                             171   -0.30 7 22.7 192 
 BAR2 SZ ES   1   2057 57.13                             171   -0.46 7 22.7 192 
 BAR2 SZ I        2058 10.95        28.0 0.84            171           22.7 192 
 BRR  HZ EP       2057 43.89                             153    0.3210 72.1 299 
 BRR  HN ES   1   2058  1.15                             153    0.81 7 72.1 299 
 BRR  SZ I        2058  6.37        21.7 0.38            154           72.1 299 
 PAM  SZ EP       2057 44.54                             151   -0.0510 77.5  39 
 PAM  SN ES       2058  2.09                             151   -0.0710 77.5  39 
 PAM  SZ I        2058  5.48        10.8 0.62            157           77.5  39 
 RUS  HZ EP       2057 46.11                             145    0.0610 99.8 176 
 RUS  HE ES       2058  4.93                             145    0.1910 99.8 176 
 RUS  SZ I        2058  7.00         8.3 0.48            150           99.8 176 
 PTB  HZ EP       2057 48.91                             133   -0.40 9  148 259 
 PTB  HN ES       2058 10.09                             133   -0.47 9  148 259 
 PTB  SZ I        2058 15.62        11.8 0.26            137            148 259 
 ZAR  HN ES   2   2058 20.33                             123    0.02 4  205 292 
 NOR  HZ EP       2057 57.94                             119   -0.04 8  235 235 
 NOR  HN ES       2058 26.28                             119    0.30 8  235 235 
 NOR  SZ I        2058 30.06        10.0 0.22            124            235 235 
 SML  HZ EP   4   2058  0.66                             118    1.71 0  245 335 
 SML  HN ES   4   2058 25.91                             118   -1.81 0  245 335 
 SML  SZ I        2058 30.39        13.1 0.08            123            245 335 
 CHI  HZ EP   1   2058  0.18                             118    0.31 6  248 195 
 CHI  HN ES   1   2058 29.21                             118   -0.14 6  248 195 
 CHI  SZ I        2058 36.39         4.4 1.46            123            248 195 
 GUY2CHZ EP   4   2058  8.12                             113    2.30 0  301 235 
 GUY2CHE ES   1   2058 40.06                             113    0.11 5  301 235 
 GUY2CSZ I        2058 45.61         5.5 1.84                           301 235 
 SJC  HZ EP   1   2058 17.95                             106    0.11 4  410 327 
 SJC  HN ES   4   2058 59.42                             106   -1.91 0  410 327 
 SJC  SZ I        2059 11.38         8.9 2.30            110            410 327 
                                                                                
