 2010  826 2230 53.5 L   6.775 -73.120143.7  RSN 20 0.4 3.8LRSN                1
 GAP=159        0.99       3.3     5.8  5.3 -0.8816E+01  0.1064E+02  0.6504E+00E
 Epicentro: LOS SANTOS - SANTANDER                                             3
 ACTION:UP  10-09-07 10:58 OP:vdl  STATUS:               ID:20100826223053 L   I
 2010-08-26-2228-45S.COL___120                                                 6
 STAT SP IPHASW D HRMM SECON CODA AMPLIT PERI AZIMU VELO SNR AR TRES W  DIS CAZ7
 BAR2 SZ IP       2231 12.60                             171    -0.210   21 199 
 BAR2 SZ ES   1   2231 27.54                             171    -0.3 7   21 199 
 BAR2 SZ I        2231 30.50      1192.1 0.51                            21 199 
 GIR2 SZ EP   1   2231 12.67                             166    -0.3 7   35 347 
 GIR2 SZ ES   1   2231 28.27                             166     0.1 7   35 347 
 BRR  HZ EP       2231 14.53                             151    -0.110   75 299 
 BRR  HE ES   1   2231 31.62                             151     0.5 7   75 299 
 BRR  HZ I        2231 35.82       528.8 0.17                            75 299 
 RUS  HZ IP     D 2231 16.57                             144    -0.210   98 178 
 RUS  HN ES       2231 34.98                             144     0.010   98 178 
 RUS  HZ I        2231 37.25       458.7 0.34                            98 178 
 BRI  SZ EP       2231 17.10                             140    -0.210  110  19 
 BRI  SZ ES   2   2231 35.66                             140    -0.2 5  110  19 
 GUE  SZ EP       2231 18.66                             138     0.510  119  10 
 GRA  SZ IP       2231 19.39                             136     0.710  128  16 
 GRA  SZ ES   1   2231 38.42                             136     0.1 7  128  16 
 GRA  SZ I        2231 40.60       464.8 0.42                           128  16 
 OCA  SZ EP       2231 20.99                             128    -0.9 9  163 352 
 OCA  SZ I        2231 48.48       558.6 0.19                           163 352 
 CHI  HZ EP       2231 30.54                             117    -0.3 8  247 196 
 CHI  HN ES   1   2231 59.87                             117    -0.1 6  247 196 
 CHI  HZ I        2232  7.26       239.1 0.50                           247 196 
 ROSC BZ EP       2231 32.25                             116     0.9 8  252 212 
 ROSC BZ I        2232  8.71       354.2 0.47                           252 212 
 HEL  HZ EP   1   2231 33.48                             114    -0.3 6  274 257 
 HEL  HE ES   2   2232  4.96                             114    -0.3 4  274 257 
 HEL  HZ I        2232 12.27       355.9 0.66                           274 257 
 GUY  SZ EP       2231 37.14                             112     0.1 7  302 236 
 GUY  SN ES   1   2232 11.60                             112     0.5 5  302 236 
 GUY  SZ I        2232 19.94      1104.7 0.56                           302 236 
 RREF HZ EP       2231 39.98                             110     0.4 7  322 230 
 RREF HN ES   1   2232 15.34                             110    -0.1 5  322 230 
 RREF HZ I        2232 27.04       286.8 0.69                           322 230 
 DBB  SZ EP       2231 40.55                             109    -0.6 7  342 275 
 TOL  SZ EP       2231 41.82                             109     0.2 7  343 225 
 ANIL HZ EP       2231 43.47                             108     0.3 6  357 225 
 ANIL HE ES   2   2232 21.19                             108    -0.8 3  357 225 
 ANIL HZ I        2232 27.85       513.9 0.34                           357 225 
 PRA  HZ EP   1   2231 46.33                             106    -0.4 4  391 210 
 PRA  HE ES   1   2232 28.19                             106    -0.2 4  391 210 
 PRA  HZ I        2232 35.50       311.2 0.38                           391 210 
 MARA HZ EP   1   2232  4.01                             101    -0.3 3  536 216 
 SOTA HZ EP   2   2232 17.88                              98     0.5 1  643 217 
 GCAL SZ EP   1   2232 33.51                              96    -0.1 0  779 218 
 GCAL SZ I        2232 34.92        17.7 0.31                           779 218 
                                                                                
