 2010  826 2236 53.1 L   6.754 -73.112140.0  RSN  7 0.4 1.9LRSN                1
 GAP=163        0.93       5.2    10.0  7.7  0.3301E+00  0.5779E+01  0.5409E+01E
 Epicentro: LOS SANTOS - SANTANDER                                             3
 ACTION:UP  10-09-07 10:58 OP:vdl  STATUS:               ID:20100826223653 L   I
 2010-08-26-2232-52S.COL___120                                                 6
 STAT SP IPHASW D HRMM SECON CODA AMPLIT PERI AZIMU VELO SNR AR TRES W  DIS CAZ7
 BAR2 SZ ES   1   2237 26.27                             172    -0.4 7   20 204 
 BAR2 SZ I        2237 29.38        24.4 0.35                            20 204 
 BRR  HZ EP       2237 13.62                             150    -0.410   77 301 
 BRR  HE ES   1   2237 30.58                             150     0.3 7   77 301 
 BRR  HZ I        2237 34.74        15.3 0.31                            77 301 
 RUS  HZ EP       2237 15.68                             144    -0.210   95 178 
 RUS  HN ES   1   2237 34.30                             144     0.6 7   95 178 
 RUS  HZ I        2237 35.56         9.5 0.39                            95 178 
 GRA  SZ EP   1   2237 18.44                             135     0.3 7  130  15 
 GRA  SZ ES   2   2237 38.22                             135     0.5 5  130  15 
 GRA  SZ I        2237 40.65         7.6 0.24                           130  15 
 CHI  HZ EP   2   2237 29.68                             116    -0.4 4  245 196 
 CHI  HZ I        2238  9.22         4.6 0.54                           245 196 
 RREF HZ EP   1   2237 39.66                             110     0.7 5  321 231 
 RREF HZ I        2238 25.95         5.5 0.47                           321 231 
 PRA  HZ EP   1   2237 46.17                             106     0.0 4  389 210 
 PRA  HE ES   2   2238 27.65                             106     0.1 3  389 210 
 PRA  HZ I        2238 36.31         5.6 0.32                           389 210 
                                                                                
