 2010  826 2223 52.6 L   6.767 -73.121140.0  RSN 17 0.5 3.1LRSN                1
 GAP=162        0.99       3.3     5.6  5.2 -0.7112E+01  0.5485E+01  0.3811E+01E
 Epicentro: LOS SANTOS - SANTANDER                                             3
 ACTION:UP  10-09-07 10:58 OP:vdl  STATUS:               ID:20100826222352 L   I
 2010-08-26-2221-49S.COL___120                                                 6
 STAT SP IPHASW D HRMM SECON CODA AMPLIT PERI AZIMU VELO SNR AR TRES W  DIS CAZ7
 BAR2 SZ IP     C 2224 11.17                             171    -0.310   21 200 
 BAR2 SZ ES       2224 25.95                             171    -0.210   21 200 
 BAR2 SZ I        2224 30.01       287.2 0.68                            21 200 
 GIR2 SZ EP   1   2224 11.22                             165    -0.5 7   35 347 
 GIR2 SZ ES   1   2224 27.05                             165     0.4 7   35 347 
 BRR  HZ EP       2224 13.11                             150    -0.310   75 300 
 BRR  HE ES       2224 29.63                             150     0.110   75 300 
 BRR  HZ I        2224 34.51       115.1 0.21                            75 300 
 RUS  HZ EP       2224 15.15                             144    -0.310   97 178 
 RUS  HE ES   1   2224 33.49                             144     0.1 7   97 178 
 RUS  HZ I        2224 37.38        91.0 0.62                            97 178 
 GUE  SZ EP       2224 17.23                             137     0.210  120  10 
 GRA  SZ IP       2224 17.90                             135     0.310  129  16 
 GRA  SZ ES   1   2224 37.58                             135     0.5 7  129  16 
 GRA  SZ I        2224 39.27        72.7 0.34                           129  16 
 OCA  SZ EP   2   2224 20.33                             127    -0.5 5  164 352 
 OCA  SZ ES   1   2224 42.54                             127    -0.3 7  164 352 
 OCA  SZ I        2224 47.44       106.2 0.28                           164 352 
 CHI  HZ EP       2224 29.22                             116    -0.4 8  246 196 
 CHI  HE ES   1   2224 58.90                             116     0.3 6  246 196 
 CHI  HZ I        2225  3.39        57.1 0.70                           246 196 
 ROSC BZ EP       2224 31.03                             116     0.8 8  251 212 
 ROSC BZ I        2224 33.13        82.9 0.56                           251 212 
 ROSC BN ES   1   2224 59.60                             116     0.0 6  251 212 
 CVER SZ EP   2   2224 33.90                             114     1.5 4  270 203 
 CVER SZ I        2224 35.21       156.1 0.39                           270 203 
 HEL  HZ EP   1   2224 33.16                             113     0.4 6  274 257 
 HEL  HE ES   2   2225  3.93                             113    -0.1 4  274 257 
 HEL  HZ I        2225 11.72        60.7 0.78                           274 257 
 GUY  SZ EP   1   2224 36.49                             111     0.5 5  301 236 
 GUY  SE ES   1   2225 10.68                             111     0.9 5  301 236 
 GUY  SZ I        2225 18.50       209.8 0.41                           301 236 
 RREF HZ EP   1   2224 38.44                             110     0.0 5  321 230 
 RREF HN ES   1   2225 13.44                             110    -0.8 5  321 230 
 RREF HZ I        2225 22.11        66.6 0.41                           321 230 
 DBB  SZ EP   1   2224 39.24                             108    -0.9 5  343 275 
 TOL  SZ EP   1   2224 40.49                             108    -0.1 5  343 225 
 TOL  SZ ES   2   2225 17.70                             108    -0.2 3  343 225 
 ANIL HZ EP   1   2224 42.15                             107     0.1 5  357 225 
 ANIL HN ES   2   2225 20.13                             107    -0.6 3  357 225 
 ANIL HZ I        2225 25.94       101.4 0.33                           357 225 
 PRA  HZ EP   1   2224 45.03                             106    -0.7 4  390 210 
 PRA  HN ES   1   2225 27.59                             106     0.5 4  390 210 
 PRA  HZ I        2225 34.14        75.7 0.36                           390 210 
                                                                                
