 2011  626 2355 37.6 L   6.756 -73.084147.0  RSN 12 0.2 2.5LRSN                1
 GAP=163        0.47       1.8     3.5  3.3 -0.2034E+01  0.2618E+01 -0.9675E-01E
 Epicentro: LOS SANTOS - SANTANDER                                             3
 ACTION:UP  11-07-14 19:08 OP:ep   STATUS:               ID:20110626235537 L   I
 2011-06-26-2340-00M.COL___124                                                 6
 STAT SP IPHASW D HRMM SECON CODA AMPLIT PERI AZIMU VELO SNR AR TRES W  DIS CAZ7
 BAR2 SZ EP       2355 57.33                             171     0.010   21 211 
 BAR2 SZ ES   1   2356 12.66                             171     0.0 7   21 211 
 BAR2 SZ I        2356 13.89       156.4 0.11                            21 211 
 BTL  SZ EP   1   2355 57.48                             169     0.1 7   27 312 
 GIR2 SZ EP   1   2355 57.39                             165    -0.2 7   38 341 
 BRR  HZ IP     C 2355 59.19                             150    -0.110   80 299 
 BRR  HZ I        2355 59.44       177.3 0.16                            80 299 
 BRR  HN ES   1   2356 16.44                             150     0.1 7   80 299 
 RUS  HZ EP   1   2356  1.23                             146     0.1 7   95 180 
 RUS  HN ES       2356 19.46                             146     0.010   95 180 
 RUS  HZ I        2356 21.23        58.8 0.41                            95 180 
 BRI  SZ EP   1   2356  1.87                             141     0.1 7  111  17 
 BRI  SZ I        2356 25.28        20.5 0.34                           111  17 
 GRA  SZ EP   1   2356  3.02                             137    -0.1 7  129  14 
 GRA  SZ ES   1   2356 22.91                             137    -0.2 7  129  14 
 GRA  SZ I        2356 33.10        24.4 0.63                           129  14 
 OCA  SZ EP   1   2356  6.58                             129     0.1 7  166 351 
 OCA  SZ ES   1   2356 29.47                             129     0.4 7  166 351 
 OCA  SZ I        2356 32.55        36.3 0.08                           166 351 
 NOR  SZ EP   1   2356 13.31                             118    -0.4 6  238 236 
 NOR  SE ES   1   2356 41.66                             118    -0.2 6  238 236 
 CHI  HZ EP   1   2356 15.19                             118     0.2 6  246 197 
 CHI  HN ES   2   2356 43.78                             118    -0.5 4  246 197 
 CHI  HZ I        2356 50.61        15.3 0.33                           246 197 
 HEL  HZ EP   1   2356 18.57                             114     0.1 6  278 257 
 HEL  HZ I        2356 50.04         5.5 0.27                           278 257 
 PRA  HZ EP   1   2356 30.99                             107     0.0 4  391 211 
 PRA  HE ES   1   2357 13.43                             107     0.7 4  391 211 
                                                                                
