 2016 1126 2256  6.7 L   6.802 -73.104155.5  RSN 10 0.4 2.3LRSN                1
 GAP=193        0.81       4.0     4.5  5.3  0.4454E+01  0.1110E+01  0.6896E+01E
 Epicentro: LOS SANTOS - SANTANDER                                             3
 ACTION:UPD 17-10-26 21:12 OP:lp   STATUS:               ID:20161126225606 L   I
 OLDACT:UP  16-11-27 06:35 OP:ar   STATUS:               ID:20161126224747     3
 OLDACT:UP  16-11-27 06:33 OP:ar   STATUS:               ID:20161126224747     3
 OLDACT:REG 16-11-27 05:29 OP:ar   STATUS:               ID:20161126224747     3
 2016-11-26-2248-00M.COL___343                                                 6
 STAT SP IPHASW D HRMM SECON CODA AMPLIT PERI AZIMU VELO AIN AR TRES W  DIS CAZ7
 BAR2 EZ EP       2256 27.40                             171   -0.1010 24.8 200 
 BAR2 EZ ES       2256 43.52                             171   -0.2210 24.8 200 
 BAR2 EZ I        2256 44.15        34.6 0.36            164           24.8 200 
 BRR  HZ EP       2256 29.17                             153    0.0810 75.1 297 
 BRR  HE ES       2256 47.11                             153    0.5310 75.1 297 
 BRR  HZ I        2256 50.74        25.3 0.34            148           75.1 297 
 PTB  HZ EP       2256 34.30                             133   -0.54 9  152 259 
 PTB  HN ES       2256 56.46                             133   -0.36 9  152 259 
 PTB  HZ I        2256 56.97        18.3 0.16            129            152 259 
 ZAR  HZ EP       2256 40.74                             124    0.56 8  208 292 
 ZAR  HN ES       2257  6.08                             124   -0.25 8  208 292 
 ZAR  HZ I        2257 12.49        33.9 0.30            121            208 292 
 NOR  HZ EP       2256 43.27                             120   -0.12 8  239 235 
 NOR  HE ES       2257 12.16                             120    0.13 8  239 235 
 NOR  HZ I        2257 19.23        13.4 0.28            117            239 235 
 CHI  HZ EP       2256 45.59                             119    0.51 8  250 196 
 CHI  HN ES       2257 14.87                             119   -0.17 8  250 196 
 CHI  HZ I        2257 24.52         6.5 0.40            117            250 196 
 ROSC BZ EP   4   2256 50.40                             118    4.79 0  255 212 
 ROSC BN ES   2   2257 16.92                             118    0.93 4  255 212 
 ROSC BZ I        2257 21.04        16.6 0.45            116            255 212 
 PTGC HZ EP       2256 50.53                             113   -0.29 7  307 159 
 PTGC HN ES   4   2257 23.63                             113   -1.62 0  307 159 
 PTGC HZ I        2257 25.90        14.4 0.48            113            307 159 
 ELA  HZ EP   4   2256 56.26                             112    1.90 0  333 230 
 ELA  HN ES   2   2257 31.87                             112    0.32 3  333 230 
 ELA  HZ I        2257 41.72         8.1 0.38            110            333 230 
 SJC  HZ EP   9   2257  1.11                             107   -1.72 0  412 326 
 SJC  HN ES       2257 44.77                             107   -0.15 6  412 326 
 SJC  HZ I        2257 55.39         3.2 0.36            106            412 326 
                                                                                
