 2011  326 2244 35.8 L   6.735 -73.078144.3  RSN 13 0.4 2.3LRSN                1
 GAP=165        0.84       4.0     6.4  5.5 -0.1213E+02  0.6720E+01  0.3474E+01E
 Epicentro: JORDAN - SANTANDER                                                 3
 ACTION:UP  11-06-16 14:35 OP:jfem STATUS:               ID:20110326224435 L   I
 2011-03-26-2243-41S.COL___138                                                 6
 STAT SP IPHASW D HRMM SECON CODA AMPLIT PERI AZIMU VELO SNR AR TRES W  DIS CAZ7
 BAR2 SZ IP       2244 55.20                             172     0.010   20 216 
 BAR2 SZ ES   1   2245 10.32                             172     0.0 7   20 216 
 BAR2 SZ I        2245 11.23        49.0 0.24                            20 216 
 BTL  SZ EP   1   2244 55.46                             168     0.0 7   29 314 
 BTL  SZ ES   1   2245 11.05                             168     0.3 7   29 314 
 PAM  SZ EP   1   2244 58.20                             150     0.2 7   79  32 
 PAM  SZ I        2244 58.42        23.0 0.19                            79  32 
 PAM  SE ES   3   2245 15.35                             150     0.1 2   79  32 
 BRR  HZ EP   1   2244 57.02                             149    -0.4 7   81 300 
 BRR  HN ES   1   2245 14.11                             149    -0.2 7   81 300 
 BRR  HZ I        2245 15.43        60.8 0.15                            81 300 
 GRA  SZ IP       2245  1.13                             135    -0.210  131  13 
 GRA  SZ ES   1   2245 21.05                             135    -0.2 7  131  13 
 GRA  SZ I        2245 23.09        19.8 0.27                           131  13 
 OCA  SZ EP   1   2245  4.74                             128    -0.1 7  168 351 
 OCA  SZ ES   1   2245 27.91                             128     0.5 7  168 351 
 NOR  SZ EP   1   2245 11.48                             118    -0.2 6  237 237 
 NOR  SN ES   2   2245 39.15                             118    -0.6 4  237 237 
 CHI  HZ EP   1   2245 13.18                             117     0.2 6  244 197 
 CHI  HE ES   1   2245 41.38                             117    -0.5 6  244 197 
 CHI  HZ I        2245 46.21         5.0 0.20                           244 197 
 HEL  HZ EP       2245 17.04                             114     0.4 7  278 258 
 HEL  HZ I        2245 54.04        12.4 0.41                           278 258 
 GUY  SN ES   3   2245 55.38                             112     1.6 2  303 237 
 GUY  SZ I        2246  2.39        14.0 0.35                           303 237 
 RREF HZ EP       2245 23.02                             110     1.0 7  323 231 
 RREF HE ES   2   2245 57.97                             110    -0.1 3  323 231 
 RREF HZ I        2246  9.93         8.7 0.31                           323 231 
 DBB  SZ EP       2245 23.37                             109    -0.8 6  348 275 
 PRA  HZ EP   3   2245 28.62                             106    -0.4 1  390 211 
                                                                                
