 2010 1226 2032  4.6 L   6.788 -73.232144.0  RSN  4 0.3 1.7LRSN                1
 GAP=170        0.43       3.2    13.4 12.7  0.8383E+01  0.3988E+02 -0.1155E+01E
 Epicentro: ZAPATOCA - SANTANDER                                               3
 ACTION:UP  11-01-14 15:27 OP:pat  STATUS:               ID:20101226203204 L   I
 2010-12-26-2028-00S.COL___128                                                 6
 STAT SP IPHASW D HRMM SECON CODA AMPLIT PERI AZIMU VELO SNR AR TRES W  DIS CAZ7
 BAR2 SZ EP   2   2032 23.80                             171    -0.2 5   22 166 
 BAR2 SZ ES   3   2032 38.62                             171    -0.5 2   22 166 
 BAR2 SZ I        2032 40.93        11.4 0.31                            22 166 
 RUS  HZ EP   2   2032 28.09                             144    -0.1 5  100 171 
 RUS  HN ES   2   2032 46.91                             144     0.3 5  100 171 
 RUS  HZ I        2032 49.43         6.1 0.26                           100 171 
 OCA  SZ ES   1   2032 54.94                             130     0.1 7  161 357 
 OCA  SZ I        2032 59.45         6.9 0.42                           161 357 
 NOR  SN ES   3   2033  6.53                             119     0.1 2  226 233 
                                                                                
