 2011  426 2307 40.8 L   6.511 -73.217104.9  RSN  5 0.5 1.8LRSN                1
 GAP=153        1.27       5.9    12.6 13.5 -0.4649E+01 -0.4683E+02 -0.1079E+02E
 Epicentro: PINCHOTE - SANTANDER                                               3
 ACTION:UP  11-06-22 15:33 OP:REBC STATUS:               ID:20110426230740 L   I
 2011-04-26-2307-12S.COL___137                                                 6
 STAT SP IPHASW D HRMM SECON CODA AMPLIT PERI AZIMU VELO SNR AR TRES W  DIS CAZ7
 BAR2 SZ EP       23 7 54.52                             175    -0.810   10  23 
 BAR2 SZ ES   1   23 8  6.27                             175    -0.3 7   10  23 
 BAR2 SZ I        23 8  8.39        50.1 0.34                            10  23 
 RUS  HZ EP       23 7 59.04                             144     0.710   70 168 
 RUS  HN ES   1   23 8 11.83                             144    -0.2 7   70 168 
 BRR  HZ I        23 8  6.88        18.1 0.33                            86 320 
 BRR  HN ES   1   23 8 13.33                             138     0.4 7   86 320 
 PAM  SZ EP   1   23 8  1.33                             131    -0.2 7  108  32 
 PAM  SN ES   1   23 8 18.27                             131     0.7 7  108  32 
 GRA  SZ EP   2   23 8  5.61                             119    -0.5 5  159  17 
 GRA  SZ ES   1   23 8 25.69                             119    -0.2 7  159  17 
 GRA  SZ I        23 8 27.83         3.5 0.31                           159  17 
                                                                                
