 2011  126 2042 18.7 L   6.768 -73.076138.0  RSN 11 0.4 2.3LRSN                1
 GAP=164        0.90       4.0     7.0  6.5 -0.3605E+01  0.1166E+02  0.4289E+01E
 Epicentro: LOS SANTOS - SANTANDER                                             3
 ACTION:UP  11-02-08 08:42 OP:pat  STATUS:               ID:20110126204218 L   I
 2011-01-26-2040-00M.COL___139                                                 6
 STAT SP IPHASW D HRMM SECON CODA AMPLIT PERI AZIMU VELO SNR AR TRES W  DIS CAZ7
 BAR2 SZ EP   1   2042 37.58                             170     0.2 7   23 211 
 BAR2 SZ ES   1   2042 52.19                             170     0.3 7   23 211 
 BAR2 SZ I        2042 53.89       104.7 0.23                            23 211 
 BTL  SZ EP   1   2042 38.12                             169     0.7 7   27 308 
 BTL  SZ ES   1   2042 51.65                             169    -0.5 7   27 308 
 RUS  HZ EP       2042 41.43                             143     0.010   97 180 
 RUS  HN ES   1   2042 59.18                             143     0.1 7   97 180 
 RUS  HZ I        2043  1.06        27.8 0.23                            97 180 
 OCA  SZ EP   1   2042 46.11                             127    -0.7 7  165 351 
 OCA  SZ ES   1   2043  8.81                             127     0.0 7  165 351 
 OCA  SZ I        2043 12.63        42.5 0.21                           165 351 
 YOP  SZ EP   1   2042 47.66                             125     0.1 7  172 155 
 YOP  SZ I        2043 14.70        10.6 0.21                           172 155 
 NOR  SZ EP   1   2042 53.96                             116    -0.5 6  239 236 
 NOR  SE ES   1   2043 22.05                             116    -0.3 6  239 236 
 CHI  HZ EP   1   2042 55.81                             116     0.0 6  247 197 
 CHI  HE ES   1   2043 24.00                             116    -0.8 6  247 197 
 CHI  HZ I        2043 32.31        16.5 0.51                           247 197 
 HEL  HZ EP   1   2042 59.82                             113     0.6 6  279 257 
 HEL  HZ I        2043 33.93         8.8 0.37                           279 257 
 RREF HE ES   1   2043 41.41                             109     0.4 5  325 231 
 RREF HZ I        2043 47.52        12.6 0.40                           325 231 
 TOL  SZ EP   1   2043  7.63                             108     0.7 5  346 226 
 SJA  SZ EP   2   2043 12.28                             105    -0.5 3  398 194 
                                                                                
