 2017 1026 2116 11.8 L   6.646 -74.067  4.0  RSN  9 0.4 2.3LRSN                1
 GAP= 81        1.03       2.0     1.6  4.5 -0.6852E+00 -0.1300E+00  0.1290E+01E
 Epicentro: PUERTO PARRA - SANTANDER                                           3
 ACTION:UPD 17-11-07 19:37 OP:rebc STATUS:               ID:20171026211611 L   I
 OLDACT:UP  17-10-27 04:01 OP:leo  STATUS:               ID:20171026210739     3
 OLDACT:REG 17-10-27 03:03 OP:leo  STATUS:               ID:20171026210739     3
 2017-10-26-2108-00M.COL___459                                                 6
 STAT SP IPHASW D HRMM SECON CODA AMPLIT PERI AZIMU VELO AIN AR TRES W  DIS CAZ7
 PTB  HZ IP     D 2116 19.02                              47   -0.1010 44.6 255 
 PTB  HE ES       2116 24.89                              47    0.0210 44.6 255 
 PTB  HZ I        2116 25.16        87.8 0.22             47           44.6 255 
 BRR  HZ IP     D 2116 22.10                              47   -0.0010 64.4  38 
 BRR  HN ES       2116 30.53                              47    0.3610 64.4  38 
 BRR  HZ I        2116 31.10       188.3 0.10             47           64.4  38 
 BAR2 EZ IP     D 2116 27.49                              47    0.0510 98.0  93 
 BAR2 EZ ES       2116 39.51                              47   -0.1710 98.0  93 
 BAR2 EZ I        2116 45.64        60.7 0.46             47           98.0  93 
 ZAR  HZ EP       2116 31.82                              47    0.0610  128 317 
 ZAR  HN ES       2116 47.00                              47   -0.3610  128 317 
 ZAR  HZ I        2116 48.74        59.2 0.28             47            128 317 
 RUS  HZ EP       2116 33.81                              47    0.19 9  137 127 
 RUS  HN ES       2116 49.98                              47   -0.70 9  137 127 
 RUS  HZ I        2116 54.05        97.4 0.22             47            137 127 
 NOR  HZ EP       2116 35.32                              47    0.34 9  149 217 
 NOR  HN ES       2116 52.54                              47   -0.55 9  149 217 
 NOR  HZ I        2116 53.11        19.7 0.24             47            149 217 
 PAM  EZ EP       2116 38.82                              47    0.29 9  169  63 
 PAM  EN ES       2116 58.91                              47   -0.51 9  169  63 
 PAM  EZ I        2117  2.04        82.1 0.24             47            169  63 
 GUY2CHZ EP       2116 44.87                              37    0.67 8  213 222 
 GUY2CHE ES       2117  8.95                              37   -0.56 8  213 222 
 GUY2CHZ I        2117 14.16        20.8 0.62                           213 222 
 CHI  HZ EP       2116 46.24                              37    0.48 8  226 171 
 CHI  HN ES       2117 13.10                              37    0.82 8  226 171 
                                                                                
