 2014  726 2120 50.6 L   6.810 -73.166136.7  RSN 20 0.6 2.7LRSN 3.2WRSN        1
 SPEC AVERAGE  MO 13.9 ST0.539 OM  2.9 f0 2.15 R1.0708 AL 0.00 WI 50.0 MW  3.2 3
 SPEC SD       MO  1.0 ST  1.9 OM  1.0 f00.932 R0.6058 AL      WI      MW  0.7 3
 GAP= 64        1.27       2.9     3.4  5.5 -0.2074E+01  0.4710E+01  0.3037E+01E
 Epicentro: LOS SANTOS - SANTANDER                                             3
 SPEC PAM SH Z MO 13.7 ST0.650 OM  1.8 f0 2.74 R0.7022 AL-0.00 WI 50.0 MW  3.1 3
 SPEC PAM SH Z T212127 K 0.000 GD  157 VS 5.20 DE 3.50 Q0750.0 QA 1.50 VS 5.20 3
 SPEC HEL HH Z MO 14.0 ST0.077 OM  1.8 f0 1.08 R1.7815 AL-0.00 WI 50.0 MW  3.3 3
 SPEC HEL HH Z T212159 K 0.000 GD  302 VS 5.20 DE 3.50 Q0750.0 QA 1.50 VS 5.20 3
 SPECGUY2CHH Z MO 14.2 ST  0.1 OM  2.0 f00.852 R  2.26 AL-0.00 WI 50.0 MW  3.4 3
 SPECGUY2CHH Z T2122 5 K       GD329.7 VS 5.20 DE 3.50 Q0750.0 QA 1.50 VS 5.20 3
 SPEC ANILHH Z MO 13.9 ST0.892 OM  1.6 f0 2.64 R0.7288 AL-0.00 WI 50.0 MW  3.2 3
 SPEC ANILHH Z T212216 K 0.000 GD  382 VS 5.20 DE 3.50 Q0750.0 QA 1.50 VS 5.20 3
 2014-07-26-2118-18M.COL___266                                                 6
 ACTION:UPD 15-03-16 20:47 OP:nd   STATUS:               ID:20140726212050 L   I
 OLDACT:UP  14-07-27 06:08 OP:stll STATUS:               ID:20140726211818     3
 OLDACT:REG 14-07-27 05:19 OP:stll STATUS:               ID:20140726211818     3
 STAT SP IPHASW D HRMM SECON CODA AMPLIT PERI AZIMU VELO AIN AR TRES W  DIS CAZ7
 BAR2 SZ IP     D 2121  9.69                             169    0.5210 24.1 184 
 BAR2 SZ ES       2121 23.79                             169    0.1410 24.1 184 
 BAR2 SZ I        2121 25.71       125.2 0.18            164           24.1 184 
 BRR  HZ IP     C 2121 11.56                             152    0.9210 68.7 299 
 BRR  HZ I        2121 11.72        67.2 0.26            141           68.7 299 
 BRR  HN ES       2121 26.62                             152    0.3510 68.7 299 
 PAM  SZ I        2121 12.52        76.9 0.22            147           78.0  41 
 PAM  SZ EP       2121 12.55                             149    0.6410 78.0  41 
 PAM  SN ES       2121 28.63                             149    0.1110 78.0  41 
 RUS  HZ IP     C 2121 13.74                             141    0.1610  102 175 
 RUS  HZ I        2121 14.76        53.9 0.14            135            102 175 
 RUS  HN ES       2121 31.42                             141   -0.0710  102 175 
 PTB  HZ EP       2121 16.36                             130   -0.31 9  146 258 
 PTB  HN ES       2121 37.12                             130    0.12 9  146 258 
 PTB  HZ I        2121 39.66        77.8 0.14            121            146 258 
 TAM  HZ IP     C 2121 18.13                             128    0.31 9  158 105 
 TAM  HN ES       2121 38.25                             128   -0.79 9  158 105 
 TAM  HZ I        2121 38.52        49.3 0.40            124            158 105 
 OCA  HZ EP       2121 18.16                             128    0.06 9  159 354 
 OCA  HN ES       2121 39.34                             128   -0.21 9  159 354 
 OCA  HZ I        2121 42.91        45.0 0.28            121            159 354 
 SPBC HZ EP       2121 18.57                             127    0.19 9  163 218 
 SPBC HZ I        2121 19.13        59.9 0.18            119            163 218 
 SPBC HN ES       2121 39.04                             127   -0.99 9  163 218 
 NOR  HZ EP       2121 25.78                             117    0.08 8  234 234 
 NOR  HE ES       2121 52.99                             117   -0.08 8  234 234 
 NOR  HZ I        2121 57.22        42.3 0.18            109            234 234 
 SML  HZ EP       2121 26.10                             116   -0.43 8  242 336 
 SML  HN ES       2121 52.58                             116   -1.97 8  242 336 
 SML  HZ I        2122  1.17        35.7 0.10            109            242 336 
 CHI  HZ EP       2121 27.80                             115   -0.07 8  249 195 
 CHI  HN ES       2121 56.74                             115   -0.20 8  249 195 
 CHI  HZ I        2122  4.87        13.5 0.28            109            249 195 
 HEL  HZ EP       2121 30.71                             113    0.55 8  270 255 
 HEL  HE ES       2122  0.88                             113   -0.14 8  270 255 
 HEL  HZ I        2122  8.20        25.0 0.66            106            270 255 
 GUY2CHZ EP       2121 34.00                             111    0.32 7  300 234 
 GUY2CHE ES       2122  7.07                             111   -0.20 7  300 234 
 GUY2CHZ I        2122 17.10        18.5 0.42                           300 234 
 PTGC HZ EP       2121 33.12                             110   -1.16 7  311 158 
 RREF HZ EP       2121 37.34                             109    1.08 7  321 229 
 RREF HN ES       2122 11.44                             109   -0.43 7  321 229 
 RREF HZ I        2122 20.05        20.7 0.40            103            321 229 
 DBB  SZ EP       2121 37.92                             108    0.45 7  337 274 
 DBB  SZ I        2122 18.40        47.4 0.30            102            337 274 
 TOL  SZ EP       2121 38.83                             108    0.41 7  343 224 
 TOL  SN ES       2122 15.85                             108    0.13 7  343 224 
 TOL  SZ I        2122 25.35        41.8 0.34            102            343 224 
 ANIL HZ EP   1   2121 40.71                             107    0.72 5  357 224 
 ANIL HN ES       2122 18.49                             107   -0.01 6  357 224 
 ANIL HZ I        2122 36.38        29.9 0.38            101            357 224 
 PRA  HZ EP       2121 43.65                             105   -0.16 6  392 209 
 PRA  HN ES       2122 24.66                             105   -0.65 6  392 209 
 PRA  HZ I        2122 31.36        14.7 0.30            100            392 209 
 ORTC HZ EP       2121 43.77                             105   -0.41 6  395 216 
 ORTC HN ES       2122 26.17                             105    0.20 6  395 216 
 ORTC HZ I        2122 31.76        10.1 0.24            100            395 216 
                                                                                
