 2013  626 2022  2.7 L   7.186 -73.270124.0  RSN 10 0.4 2.3LRSN                1
 GAP=101        0.77       4.3     4.1  5.4 -0.1365E+01  0.4535E+01 -0.2963E+01E
 Epicentro: LEBRIJA - SANTANDER                                                3
 ACTION:UPD 14-01-08 09:57 OP:ep   STATUS:               ID:20130626202202 L   I
 OLDACT:UP  13-06-26 21:55 OP:cam  STATUS:               ID:20130626201959     3
 OLDACT:REG 13-06-26 21:30 OP:cam  STATUS:               ID:20130626201959     3
 2013-06-26-2019-59M.COL___267                                                 6
 STAT SP IPHASW D HRMM SECON CODA AMPLIT PERI AZIMU VELO AIN AR TRES W  DIS CAZ7
 GIR2 SZ EP   1   2022 19.35                             173   -0.08 7 14.5 145 
 BRR  HZ IP     D 2022 20.52                             157    0.1710 49.6 260 
 BRR  HE ES       2022 34.55                             157    0.4610 49.6 260 
 PAM  SZ EP       2022 21.94                             151    0.0410 65.2  75 
 PAM  SZ I        2022 22.15        29.4 0.14             47           65.2  75 
 PAM  SN ES   1   2022 36.66                             151   -0.20 7 65.2  75 
 BAR2 SZ EP   1   2022 21.86                             151    0.25 7 66.4 172 
 BAR2 SZ ES       2022 36.41                             151    0.0710 66.4 172 
 BAR2 SZ I        2022 37.39       114.4 0.50             47           66.4 172 
 RUS  HZ EP   1   2022 28.18                             128   -0.15 7  145 172 
 RUS  HN ES   1   2022 48.02                             128   -0.28 7  145 172 
 RUS  HZ I        2022 49.10         9.3 0.18             47            145 172 
 PTB  HZ EP       2022 27.64                             127   -0.54 9  149 241 
 PTB  HN ES   1   2022 47.58                             127   -0.44 7  149 241 
 PTB  HZ I        2022 50.01        26.5 0.18             47            149 241 
 ZAR  HZ EP   2   2022 31.58                             121    0.44 4  179 281 
 SML  HZ EP   1   2022 32.87                             118   -0.45 6  199 334 
 SML  HZ I        2023  2.05        38.7 0.50             37            199 334 
 NOR  HZ EP   2   2022 39.49                             112    0.25 4  252 225 
 NOR  HZ I        2023 17.18        13.1 0.16             37            252 225 
 RREF HZ EP   4   2022 53.13                             106    2.77 0  342 222 
 PRA  HZ EP   1   2023  0.80                             102    1.44 4  424 205 
 PRA  HZ I        2023 54.46         9.6 0.34             36            424 205 
                                                                                
