 2013  526 2017 55.0 L   6.802 -73.204140.5  RSN  4 0.3 1.2LRSN                1
 GAP=231        0.62       7.4     5.8  6.7  0.1371E+02  0.7554E+01 -0.1100E+02E
 Epicentro: ZAPATOCA - SANTANDER                                               3
 ACTION:UPD 13-06-20 09:53 OP:ep   STATUS:               ID:20130526201755 L   I
 2013-05-26-2010-00M.COL___261                                                 6
 STAT SP IPHASW D HRMM SECON CODA AMPLIT PERI AZIMU VELO AIN AR TRES W  DIS CAZ7
 BAR2 SZ EP       2018 13.77                             170   -0.1710 23.3 174 
 BAR2 SZ ES       2018 28.63                             170   -0.1310 23.3 174 
 BAR2 SZ I        2018 30.24         5.3 0.24            163           23.3 174 
 BRR  HZ EP   1   2018 15.74                             153    0.53 7 65.5 301 
 RUS  HZ EP   1   2018 18.38                             142    0.13 7  101 172 
 RUS  HN ES   1   2018 36.59                             142    0.17 7  101 172 
 RUS  HZ I        2018 37.86         1.3 0.22            142            101 172 
 PTB  HZ EP   1   2018 20.47                             132   -0.45 7  141 258 
 PTB  HN ES   1   2018 41.28                             132    0.11 7  141 258 
 PTB  HZ I        2018 48.72         3.6 0.50            128            141 258 
                                                                                
