 2014  326 2052 37.2 L   6.876 -73.102133.8  RSN  4 0.5 1.4LRSN                1
 GAP=249        0.96      10.5     9.0 16.7  0.6222E+02 -0.1220E+02 -0.5284E+02E
 Epicentro: LOS SANTOS - SANTANDER                                             3
 OLDACT:REG 14-03-26 22:51 OP:fm   STATUS:               ID:20140326204812     3
 ACTION:UPD 14-04-09 23:20 OP:nd   STATUS:               ID:20140326205237 L   I
 OLDACT:UP  14-03-26 23:59 OP:fm   STATUS:               ID:20140326204812     3
 2014-03-26-2048-12M.COL___252                                                 6
 STAT SP IPHASW D HRMM SECON CODA AMPLIT PERI AZIMU VELO AIN AR TRES W  DIS CAZ7
 RUS  HZ EP   1   2053  0.83                             139    0.41 8  109 179 
 RUS  HN ES   1   2053 18.63                             139    0.08 8  109 179 
 RUS  HZ I        2053 20.13         4.0 0.84            141            109 179 
 PTB  HZ EP       2053  3.26                             128   -0.5610  154 256 
 PTB  HN ES       2053 24.19                             128   -0.4110  154 256 
 PTB  HZ I        2053 24.68         4.0 1.14            130            154 256 
 ZAR  HN ES       2053 34.43                             120    0.56 9  206 289 
 GUY2CHN ES   1   2053 56.20                             109    0.53 6  310 234 
                                                                                
