 2013  326 2325 23.2 L   6.783 -73.153146.4  RSN  7 0.4 2.3LRSN                1
 GAP=200        1.00       3.5     5.8  7.3  0.5997E+01 -0.7834E+00 -0.1834E+01E
 Epicentro: LOS SANTOS - SANTANDER                                             3
 ACTION:UPD 13-04-09 14:05 OP:ep   STATUS:               ID:20130326232523 L   I
 2013-03-26-2320-00M.COL___245                                                 6
 STAT SP IPHASW D HRMM SECON CODA AMPLIT PERI AZIMU VELO AIN AR TRES W  DIS CAZ7
 BRR  HZ EP       2325 44.80                             153    0.3410 71.4 300 
 BRR  HN ES       2326  1.46                             153    0.4410 71.4 300 
 BRR  HN I        2326  2.58        43.2 0.30            149           71.4 300 
 RUS  HZ EP       2325 47.18                             144    0.2610 98.8 175 
 RUS  HN ES       2326  4.89                             144   -0.5110 98.8 175 
 RUS  HN I        2326  6.05        13.8 0.32            144           98.8 175 
 PTB  HZ EP       2325 49.81                             132   -0.33 9  147 259 
 PTB  HN ES       2326 10.63                             132   -0.51 9  147 259 
 PTB  HN I        2326 16.49        23.0 0.40            129            147 259 
 ZAR  HZ EP   1   2325 56.15                             123    0.44 6  204 293 
 ZAR  HN ES       2326 21.64                             123    0.60 9  204 293 
 ZAR  HN I        2326 26.28        23.8 0.42            121            204 293 
 NOR  HZ EP       2325 58.60                             119   -0.21 8  233 235 
 NOR  HN ES       2326 26.23                             119   -0.33 8  233 235 
 NOR  HN I        2326 32.25        16.1 0.18            117            233 235 
 SML  HZ EP       2325 59.75                             117   -0.29 8  245 336 
 SML  HN ES       2326 28.22                             117   -0.53 8  245 336 
 SML  HN I        2326 32.86        18.5 0.26            117            245 336 
 CHI  HZ EP   1   2326  0.88                             117    0.13 6  247 195 
 CHI  HN ES       2326 30.66                             117    0.65 8  247 195 
 CHI  HN I        2326 35.38         8.4 0.54            117            247 195 
                                                                                
