 2017  126 2039 18.2 L   6.850 -73.164144.9  RSN  9 0.4 1.9LRSN                1
 GAP=132        0.97       4.2     4.0  6.1 -0.3393E+00  0.7684E+01  0.2874E+01E
 Epicentro: ZAPATOCA - SANTANDER                                               3
 ACTION:UPD 17-05-22 16:03 OP:jn   STATUS:               ID:20170126203918 L   I
 OLDACT:UP  17-01-27 03:55 OP:edw  STATUS:               ID:20170126203747     3
 OLDACT:REG 17-01-27 03:13 OP:cara STATUS:               ID:20170126203747     3
 2017-01-26-2038-00M.COL___349                                                 6
 STAT SP IPHASW D HRMM SECON CODA AMPLIT PERI AZIMU VELO AIN AR TRES W  DIS CAZ7
 BAR2 EZ EP       2039 37.63                             168   -0.2210 28.6 184 
 BAR2 EZ ES       2039 53.09                             168   -0.0810 28.6 184 
 BAR2 EZ I        2039 53.53        13.5 0.26            169           28.6 184 
 BRR  HZ IP     D 2039 39.56                             154    0.5410 66.9 295 
 BRR  HN ES       2039 56.03                             154    0.7710 66.9 295 
 BRR  HZ I        2039 56.86        11.7 0.14            152           66.9 295 
 PAM  EZ IP     C 2039 40.14                             152   -0.0210 74.6  43 
 PAM  EN ES       2039 56.79                             152   -0.5010 74.6  43 
 PAM  EZ I        2039 58.94        16.6 0.26            154           74.6  43 
 RUS  HZ EP       2039 42.20                             142   -0.0910  106 175 
 RUS  HN ES       2040  1.30                             142    0.2310  106 175 
 RUS  HZ I        2040  2.23         8.1 0.38            144            106 175 
 PTB  HZ EP       2039 44.60                             132   -0.42 9  147 257 
 PTB  HN ES       2040  5.45                             132   -0.50 9  147 257 
 PTB  HZ I        2040  8.46        15.0 0.20            132            147 257 
 ZAR  HZ EP       2039 50.00                             123   -0.19 9  200 291 
 ZAR  HN ES       2040 15.25                             123    0.12 9  200 291 
 ZAR  HZ I        2040 20.73        13.3 0.27            123            200 291 
 NOR  HZ EP     C 2039 54.44                             118    0.39 8  236 233 
 NOR  HN ES       2040 21.71                             118   -0.31 8  236 233 
 NOR  HZ I        2040 25.79         6.3 0.18            119            236 233 
 CHI  HZ EP   2   2039 57.65                             116    1.27 4  253 194 
 CHI  HN ES   2   2040 26.59                             116    0.44 4  253 194 
 CBOC HE ES   2   2040 40.88                             110   -0.72 3  333 251 
                                                                                
