 2014  326 2043 40.0 L   6.812 -73.127149.8  RSN 18 0.4 2.4LRSN                1
 GAP=138        0.93       3.0     3.6  5.2 -0.2427E+01  0.4334E+01  0.2010E+01E
 Epicentro: LOS SANTOS - SANTANDER                                             3
 OLDACT:REG 14-03-26 22:50 OP:fm   STATUS:               ID:20140326203817     3
 ACTION:UPD 14-04-09 23:20 OP:nd   STATUS:               ID:20140326204340 L   I
 OLDACT:UP  14-03-26 23:52 OP:fm   STATUS:               ID:20140326203817     3
 2014-03-26-2038-17M.COL___253                                                 6
 STAT SP IPHASW D HRMM SECON CODA AMPLIT PERI AZIMU VELO AIN AR TRES W  DIS CAZ7
 BAR2 SZ EP     C 2044  0.09                             170   -0.1010 25.1 194 
 BAR2 SZ ES   1   2044 16.06                             170    0.14 7 25.1 194 
 BAR2 SZ I        2044 17.62        38.4 0.24            167           25.1 194 
 BRR  HZ EP       2044  1.89                             153    0.2010 72.4 297 
 BRR  HN ES       2044 19.09                             153    0.5010 72.4 297 
 BRR  SZ I        2044 20.73        18.7 0.12            147           72.4 297 
 PAM  SZ EP       2044  2.78                             152    0.2310 75.0  39 
 PAM  SE ES       2044 20.13                             152    0.0210 75.0  39 
 PAM  SZ I        2044 22.01        34.9 0.52            155           75.0  39 
 RUS  HZ EP   1   2044  4.06                             144   -0.22 7  102 177 
 RUS  HN ES   1   2044 22.84                             144   -0.35 7  102 177 
 RUS  SZ I        2044 25.58        10.3 0.32            146            102 177 
 PTB  HZ EP       2044  6.69                             133   -0.85 9  150 258 
 PTB  HN ES       2044 28.16                             133   -0.84 9  150 258 
 PTB  SZ I        2044 35.10        41.7 0.38            130            150 258 
 OCA  HZ EP   1   2044  8.57                             131    0.00 7  159 352 
 OCA  HN ES   1   2044 30.55                             131   -0.27 7  159 352 
 OCA  SZ I        2044 38.38        22.6 0.36            130            159 352 
 SPBC HZ EP       2044  9.09                             130    0.02 9  166 219 
 SPBC HN ES       2044 31.89                             130    0.17 9  166 219 
 SPBC SZ I        2044 39.19        24.2 0.50            129            166 219 
 ZAR  HZ EP       2044 12.75                             123   -0.14 8  205 292 
 ZAR  HE ES       2044 38.85                             123    0.33 8  205 292 
 ZAR  SZ I        2044 43.87        27.1 0.52            121            205 292 
 NOR  HZ EP       2044 15.70                             119   -0.57 8  237 234 
 NOR  HN ES       2044 44.15                             119   -0.38 8  237 234 
 NOR  SZ I        2044 49.44        21.3 0.36            119            237 234 
 SML  HZ EP   1   2044 16.94                             118    0.08 6  243 335 
 SML  HN ES   4   2044 47.15                             118    1.58 0  243 335 
 SML  SZ I        2044 54.94        36.8 0.08            118            243 335 
 CHI  HZ EP       2044 18.39                             118    0.23 8  250 196 
 CHI  HN ES       2044 48.43                             118    0.53 8  250 196 
 CHI  SZ I        2044 57.19         6.6 0.30            119            250 196 
 HEL  HZ EP   4   2044 22.44                             115    1.72 0  274 256 
 HEL  HN ES   1   2044 52.86                             115    0.41 6  274 256 
 HEL  SZ I        2044 59.06        19.1 0.36            115            274 256 
 URE  HZ EP   4   2044 20.24                             114   -1.22 0  285 292 
 URE  HN ES   4   2044 51.40                             114   -2.38 0  285 292 
 URE  SZ I        2045  4.08        18.3 0.28            114            285 292 
 GUY2CHZ EP   1   2044 24.88                             113    0.77 5  304 235 
 GUY2CHN ES       2044 59.29                             113    0.80 7  304 235 
 GUY2CSZ I        2045  6.37        16.0 0.42                           304 235 
 RREF HZ EP   4   2044 28.26                             111    1.62 0  324 229 
 RREF HN ES   4   2045  6.25                             111    3.27 0  324 229 
 RREF SZ I        2045 11.34         9.5 0.46            112            324 229 
 CBOC HZ EP   2   2044 28.02                             110    0.63 3  336 252 
 CBOC HN ES   4   2045  5.43                             110    1.10 0  336 252 
 CBOC SZ I        2045  7.82         5.4 0.96            110            336 252 
 DBB  SZ EP   1   2044 27.85                             110   -0.06 5  341 274 
 DBB  SZ ES   4   2045  3.91                             110   -1.33 0  341 274 
 DBB  SZ I        2045 19.37        29.5 1.72            110            341 274 
 SJC  HZ EP   4   2044 33.93                             106   -1.80 0  409 327 
 SJC  HN ES   4   2045 15.62                             106   -3.56 0  409 327 
 SJC  SZ I        2045 23.82        10.7 2.60            107            409 327 
                                                                                
