 2017  326 2341 18.1 L   6.787 -73.160146.0  RSN 19 0.4 2.3LRSN                1
 GAP=118        0.97       3.0     3.4  4.8  0.8606E+00  0.4344E+01  0.5326E+01E
 Epicentro: LOS SANTOS - SANTANDER                                             3
 ACTION:UPD 17-05-25 18:45 OP:jn   STATUS:               ID:20170326234118 L   I
 OLDACT:UP  17-03-27 03:51 OP:edw  STATUS:               ID:20170326233641     3
 OLDACT:REG 17-03-27 03:04 OP:cara STATUS:               ID:20170326233641     3
 2017-03-26-2338-00M.COL___360                                                 6
 STAT SP IPHASW D HRMM SECON CODA AMPLIT PERI AZIMU VELO AIN AR TRES W  DIS CAZ7
 BAR2 EZ EP       2341 37.70                             171   -0.0110 21.7 186 
 BAR2 EZ ES       2341 53.00                             171   -0.0210 21.7 186 
 BAR2 EZ I        2341 54.79        51.3 0.28            168           21.7 186 
 BRR  HZ EP       2341 39.52                             153    0.3110 70.5 300 
 BRR  HN ES       2341 56.51                             153    0.8110 70.5 300 
 BRR  HZ I        2341 57.64        25.2 0.12            149           70.5 300 
 PAM  EZ EP       2341 40.66                             150    0.2110 79.5  40 
 PAM  EN ES       2341 57.36                             150   -0.5310 79.5  40 
 PAM  EZ I        2341 59.87        56.4 0.50            155           79.5  40 
 RUS  HZ EP       2341 41.71                             144   -0.0610 99.3 175 
 RUS  HN ES       2342  0.24                             144    0.0010 99.3 175 
 RUS  HZ I        2342  1.58        55.5 0.32            144           99.3 175 
 PTB  HZ EP   9   2341 44.20                             133   -0.70 0  146 259 
 PTB  HN ES       2342  5.38                             132    0.26 9  146 259 
 PTB  HZ I        2342  7.21        18.2 0.34            130            146 259 
 SPBC HZ EP       2341 46.56                             130    0.16 9  161 219 
 SPBC HN ES   4   2342  7.56                             130   -0.93 0  161 219 
 SPBC HZ I        2342 11.12        51.3 0.26            128            161 219 
 ZAR  HZ EP       2341 50.75                             123    0.31 9  203 293 
 ZAR  HN ES       2342 14.93                             123   -0.75 9  203 293 
 ZAR  HZ I        2342 22.31        12.0 0.30            122            203 293 
 NOR  HZ EP       2341 53.77                             119    0.17 8  233 235 
 NOR  HN ES       2342 20.87                             119   -0.43 8  233 235 
 NOR  HZ I        2342 26.37        17.0 0.26            118            233 235 
 CHI  HZ EP       2341 55.85                             117    0.25 8  247 195 
 CHI  HN ES       2342 24.83                             117   -0.04 8  247 195 
 CHI  HZ I        2342 29.24         7.8 0.24            117            247 195 
 HEL  HZ EP   4   2341 59.42                             115    1.32 0  270 256 
 HEL  HN ES   4   2342 27.46                             115   -1.85 0  270 256 
 HEL  HZ I        2342 35.76        10.2 0.26            114            270 256 
 URE  HZ EP   4   2341 57.44                             114   -1.61 0  283 292 
 URE  HN ES       2342 30.92                             114   -0.09 7  283 292 
 URE  HZ I        2342 38.75        11.6 0.18            113            283 292 
 VIL  EZ EP       2342  1.92                             112    0.60 7  302 191 
 VIL  EN ES       2342 34.82                             112   -0.22 7  302 191 
 VIL  EZ I        2342 38.36        18.6 0.46            112            302 191 
 PTGC HZ EP       2342  0.89                             112   -0.98 7  308 158 
 PTGC HN ES   4   2342 33.28                             112   -2.74 0  308 158 
 ELA  HZ EP   4   2342  7.41                             111    2.71 0  327 229 
 ELA  HN ES   4   2342 43.13                             111    2.07 0  327 229 
 ELA  HZ I        2342 52.27         7.9 0.38            110            327 229 
 CBOC HZ EP   4   2342  6.37                             110    1.59 0  332 252 
 CBOC HN ES       2342 40.44                             110   -0.77 7  332 252 
 CBOC HZ I        2342 46.27         4.0 0.44            110            332 252 
 ANIL HZ EP   4   2342 11.52                             109    3.87 0  355 224 
 ANIL HN ES   4   2342 49.06                             109    2.75 0  355 224 
 PRA  HZ EP       2342 11.48                             107    0.10 6  390 209 
 PRA  HN ES       2342 52.98                             107    0.04 6  390 209 
 PRA  HZ I        2342 59.76         7.7 0.36            107            390 209 
 ORTC HZ EP       2342 12.20                             107    0.43 6  393 216 
 ORTC HN ES       2342 54.36                             107    0.72 6  393 216 
 ORTC HZ I        2342 58.81         5.0 0.28            107            393 216 
 PAL  HZ EP       2342 12.25                             106   -0.75 6  404 239 
 PAL  HN ES   4   2342 57.75                             106    1.91 0  404 239 
 PAL  HZ I        2342 59.27         3.8 0.20            106            404 239 
 SJC  HZ EP   4   2342 11.88                             106   -1.80 0  410 327 
 SJC  HN ES   4   2342 53.15                             106   -3.90 0  410 327 
 SJC  HZ I        2343  0.43         3.4 0.28            106            410 327 
                                                                                
