 2014  426 2015 41.8 L   6.790 -73.174140.4  RSN  4 0.4 1.9LRSN                1
 GAP=133        1.07       5.7     5.4  9.6 -0.3487E+01  0.4553E+01  0.8093E+01E
 Epicentro: LOS SANTOS - SANTANDER                                             3
 ACTION:UPD 14-05-13 23:11 OP:nd   STATUS:               ID:20140426201541 L   I
 OLDACT:DUP 14-04-27 08:12 OP:stll STATUS:               ID:20140426200815d    3
 2014-04-26-2008-14M.COL___251                                                 6
 STAT SP IPHASW D HRMM SECON CODA AMPLIT PERI AZIMU VELO AIN AR TRES W  DIS CAZ7
 BRR  HZ EP       2016  2.76                             152    0.5410 69.0 301 
 BRR  HN ES       2016 18.73                             152    0.5710 69.0 301 
 PAM  SZ EP       2016  3.55                             149   -0.0510 80.2  41 
 PAM  SZ I        2016  3.90        17.1 0.26            150           80.2  41 
 PAM  SN ES       2016 20.12                             149   -0.5010 80.2  41 
 RUS  HZ EP       2016  5.19                             143    0.2510 99.7 174 
 RUS  HE ES       2016 23.01                             143    0.0110 99.7 174 
 PTB  HZ EP       2016  7.60                             131   -0.41 9  144 259 
 PTB  HN ES       2016 27.94                             131   -0.53 9  144 259 
 PTB  HZ I        2016 31.15         7.5 0.32            131            144 259 
                                                                                
