 2011  926 2130 11.6 L   6.771 -73.097148.6  RSN 12 0.3 2.3LRSN                1
 GAP=185        0.45       2.5     4.5  4.5 -0.8975E+00  0.7356E+01 -0.3019E-01E
 Epicentro: LOS SANTOS - SANTANDER                                             3
 ACTION:UPD 12-07-13 16:00 OP:ep   STATUS:               ID:20110926213011 L   I
 2011-09-26-2126-56S.COL___165                                                 6
 STAT SP IPHASW D HRMM SECON CODA AMPLIT PERI AZIMU VELO AIN AR TRES W  DIS CAZ7
 BAR2 SZ EP       2130 31.57                             171   -0.0110 21.9 205 
 BAR2 SZ ES   2   2130 46.71                             171   -0.42 5 21.9 205 
 BAR2 SZ I        2130 49.41        33.4 0.32                          21.9 205 
 BTL  SZ EP       2130 31.93                             170    0.2910 24.9 311 
 BRR  HZ EP       2130 33.55                             151    0.1010 77.4 299 
 BRR  HZ I        2130 35.78        27.8 0.30                          77.4 299 
 BRR  HN ES   2   2130 50.60                             151    0.14 5 77.4 299 
 RUS  HZ EP       2130 35.32                             146   -0.1010 97.1 179 
 RUS  HE ES   2   2130 54.13                             146    0.16 5 97.1 179 
 OCA  SZ EP       2130 40.54                             130    0.00 9  164 351 
 OCA  SZ I        2131  3.19        15.6 0.23                           164 351 
 ZAR  HN ES   3   2131 10.13                             122   -0.72 2  210 292 
 ZAR  HZ I        2131 15.77        20.8 0.36                           210 292 
 NOR  SZ EP       2130 47.35                             119   -0.45 8  237 236 
 NOR  SE ES   3   2131 15.83                             119   -0.18 2  237 236 
 CHI  HZ EP   2   2130 49.28                             118   -0.04 4  247 197 
 CHI  HE ES   2   2131 18.40                             118   -0.30 4  247 197 
 CHI  HZ I        2131 27.16         7.8 0.30                           247 197 
 HEL  HZ EP       2130 52.63                             115    0.15 7  276 257 
 HEL  HE ES   3   2131 24.73                             115    0.39 2  276 257 
 HEL  HZ I        2131 29.79         7.4 0.24                           276 257 
 RREF HZ EP   3   2130 59.36                             111    1.23 2  324 230 
 RREF HZ I        2131 43.04        10.7 0.32                           324 230 
 COD  HZ EP   3   2130 59.77                             109   -0.79 2  352 354 
 COD  HZ I        2131  4.36        15.5 0.76                           352 354 
 COD  HN ES   3   2131 38.06                             109   -0.66 2  352 354 
 PRA  HZ EP   2   2131  5.03                             107   -0.21 3  392 210 
 PRA  HE ES   2   2131 47.83                             107    0.78 3  392 210 
                                                                                
