 2010  826 2105 11.8 L   6.804 -73.066144.0  RSN  8 0.3 2.2LRSN                1
 GAP=167        0.64       3.1     6.4  4.7 -0.7604E+01  0.5440E+01  0.2486E+00E
 Epicentro: LOS SANTOS - SANTANDER                                             3
 ACTION:UP  10-09-07 10:58 OP:vdl  STATUS:               ID:20100826210511 L   I
 2010-08-26-2102-42S.COL___120                                                 6
 STAT SP IPHASW D HRMM SECON CODA AMPLIT PERI AZIMU VELO SNR AR TRES W  DIS CAZ7
 BAR2 SZ EP       21 5 31.29                             169     0.010   27 209 
 BAR2 SZ ES   1   21 5 46.37                             169    -0.2 7   27 209 
 BAR2 SZ I        21 5 47.96        29.6 0.17                            27 209 
 GIR2 SZ EP   1   21 5 31.29                             166    -0.1 7   33 335 
 GIR2 SZ ES   1   21 5 47.26                             166     0.7 7   33 335 
 BRR  HZ IP     C 21 5 33.06                             150    -0.210   79 295 
 BRR  HZ I        21 5 33.45        50.4 0.09                            79 295 
 BRR  HE ES   2   21 5 49.62                             150    -0.3 5   79 295 
 RUS  HZ EP       21 5 35.35                             144    -0.110  101 181 
 RUS  HN ES   1   21 5 53.73                             144    -0.1 7  101 181 
 RUS  HZ I        21 5 54.97        11.2 0.37                           101 181 
 GRA  SZ EP       21 5 36.86                             137     0.210  123  14 
 GRA  SZ ES   1   21 5 56.02                             137    -0.1 7  123  14 
 GRA  SZ I        21 5 57.31        20.3 0.22                           123  14 
 OCA  SZ EP   1   21 5 39.89                             129    -0.2 7  161 350 
 OCA  SZ I        21 6  5.61        26.5 0.12                           161 350 
 GUY  SZ EP   1   21 5 56.63                             111     0.4 5  309 236 
 GUY  SN ES   2   21 6 30.58                             111    -0.3 4  309 236 
 GUY  SZ I        21 6 38.72        18.0 0.49                           309 236 
 PRA  HZ EP   1   21 6  5.79                             106    -0.1 4  397 211 
 PRA  HN ES   1   21 6 48.67                             106     0.7 4  397 211 
 PRA  HZ I        21 6 53.29         4.7 0.36                           397 211 
                                                                                
