 2014  726 2323 38.7 L   6.760 -73.154136.0  RSN  9 0.6 2.3LRSN                1
 GAP=137        1.32       6.1     5.6  7.8 -0.5788E+01  0.1250E+02  0.1363E+02E
 Epicentro: LOS SANTOS - SANTANDER                                             3
 ACTION:UPD 15-03-16 20:47 OP:nd   STATUS:               ID:20140726232338 L   I
 OLDACT:REG 14-07-27 05:21 OP:stll STATUS:               ID:20140726231812     3
 2014-07-26-2318-12M.COL___263                                                 6
 STAT SP IPHASW D HRMM SECON CODA AMPLIT PERI AZIMU VELO AIN AR TRES W  DIS CAZ7
 BAR2 SZ EP       2323 56.86                             172   -0.2210 18.8 190 
 BAR2 SZ ES       2324 11.72                             172    0.3110 18.8 190 
 BAR2 SZ I        2324 14.21        58.1 0.22            171           18.8 190 
 BRR  HZ IP     C 2323 58.61                             150   -0.2910 72.6 302 
 BRR  HZ I        2323 58.84        64.5 0.26            152           72.6 302 
 BRR  HN ES       2324 15.39                             150    0.7410 72.6 302 
 PAM  SZ EP       2323 59.64                             148   -0.5110 81.4  38 
 PAM  SN ES       2324 16.83                             148   -0.0510 81.4  38 
 PAM  SZ I        2324 19.13        35.3 0.70            150           81.4  38 
 RUS  HZ EP       2324  0.92                             143   -0.2710 96.3 175 
 RUS  HN ES       2324 18.96                             143    0.2310 96.3 175 
 RUS  HZ I        2324 20.60        24.2 0.26            144           96.3 175 
 PTB  HZ EP   4   2324  3.14                             130   -1.60 0  146 260 
 PTB  HN ES       2324 24.51                             130   -0.54 9  146 260 
 PTB  HZ I        2324 26.42        18.9 0.14            132            146 260 
 CHI  HZ EP       2324 15.11                             116   -0.28 8  244 195 
 HEL  HZ EP       2324 18.98                             113    0.75 8  270 257 
 HEL  HN ES       2324 48.32                             113   -0.73 8  270 257 
 GUY2CHZ EP       2324 22.36                             111    0.85 7  298 235 
 RREF HZ EP       2324 25.35                             109    1.31 7  318 230 
 RREF HN ES       2324 58.64                             109   -0.76 7  318 230 
 RREF HZ I        2325  2.19        10.2 0.24            111            318 230 
                                                                                
