 2015  626 2349 54.3 L   6.753 -73.145141.3  RSN  4 0.2 2.1LRSN                1
 GAP=234        0.66       7.1     8.1  5.2  0.4844E+02  0.4372E+01 -0.1690E+01E
 Epicentro: LOS SANTOS - SANTANDER                                             3
 ACTION:UPD 15-09-10 22:15 OP:cam  STATUS:               ID:20150626234954 L   I
 OLDACT:REG 15-06-27 05:23 OP:stll STATUS:               ID:20150626234748     3
 2015-06-26-2347-48M.COL___328                                                 6
 STAT SP IPHASW D HRMM SECON CODA AMPLIT PERI AZIMU VELO AIN AR TRES W  DIS CAZ7
 BAR2 EZ EP     D 2350 13.18                             172   -0.0710 18.2 193 
 BAR2 EZ I        2350 13.43        28.3 0.10            163           18.2 193 
 BAR2 EZ ES       2350 27.70                             172   -0.3610 18.2 193 
 BRR  HZ EP     D 2350 15.01                             151   -0.0710 73.9 302 
 BRR  HZ I        2350 15.27        33.2 0.28            145           73.9 302 
 BRR  HN ES       2350 31.78                             151    0.4610 73.9 302 
 RUS  HZ EP       2350 17.32                             144    0.1410 95.4 176 
 RUS  HN ES       2350 35.16                             144    0.0910 95.4 176 
 RUS  HZ I        2350 36.58         9.7 0.24            140           95.4 176 
 ZAR  HZ EP       2350 26.67                             121    0.04 8  206 293 
 ZAR  HN ES       2350 51.59                             121   -0.30 8  206 293 
 ZAR  HZ I        2350 57.16        13.6 0.54            118            206 293 
                                                                                
