 2017 1026 2240  7.7 L   6.823 -73.143141.6  RSN 13 0.5 2.3LRSN                1
 GAP=111        1.17       3.9     4.0  6.1  0.2124E+01  0.7078E+01  0.8159E+01E
 Epicentro: LOS SANTOS - SANTANDER                                             3
 ACTION:UPD 17-11-07 19:37 OP:rebc STATUS:               ID:20171026224007 L   I
 OLDACT:REG 17-10-27 03:09 OP:leo  STATUS:               ID:20171026223741     3
 2017-10-26-2238-00M.COL___450                                                 6
 STAT SP IPHASW D HRMM SECON CODA AMPLIT PERI AZIMU VELO AIN AR TRES W  DIS CAZ7
 BAR2 EZ EP     C 2240 26.66                             169   -0.2210 25.9 190 
 BAR2 EZ ES       2240 41.14                             169   -0.7110 25.9 190 
 BAR2 EZ I        2240 42.95        34.5 0.34            165           25.9 190 
 BRR  HZ EP     C 2240 28.41                             152    0.0710 70.3 297 
 BRR  HN ES       2240 45.35                             152    0.9010 70.3 297 
 BRR  HZ I        2240 45.90        52.5 0.30            148           70.3 297 
 PAM  EZ EP       2240 29.54                             151    0.2010 75.2  41 
 PAM  EN ES       2240 46.51                             151    0.2910 75.2  41 
 PAM  EZ I        2240 47.08        32.8 0.22            150           75.2  41 
 RUS  HZ EP       2240 30.77                             142   -0.4610  103 176 
 RUS  HN ES       2240 49.30                             142   -0.2810  103 176 
 RUS  HZ I        2240 51.33        27.3 0.34            137            103 176 
 PTB  HZ EP       2240 33.31                             131   -1.09 9  149 258 
 PTB  HN ES       2240 55.00                             131   -0.24 9  149 258 
 PTB  HZ I        2240 56.61        16.9 0.16            126            149 258 
 YPLC HZ EP     C 2240 37.26                             125   -0.14 9  179 152 
 YPLC HN ES       2241  1.32                             125    0.75 9  179 152 
 YPLC HZ I        2241  3.96        23.0 0.24            121            179 152 
 ZAR  HZ EP       2240 39.85                             121    0.04 9  203 291 
 ZAR  HN ES       2241  4.60                             121   -0.25 9  203 291 
 ZAR  HZ I        2241 10.44        24.2 0.34            117            203 291 
 NOR  HZ EP       2240 43.44                             117    0.06 8  236 234 
 NOR  HN ES       2241 11.38                             117    0.17 8  236 234 
 NOR  HZ I        2241 17.26        15.9 0.30            113            236 234 
 CHI  HZ EP       2240 45.19                             116   -0.26 8  251 195 
 CHI  HN ES       2241 14.97                             116    0.08 8  251 195 
 CHI  HZ I        2241 20.88         8.7 0.34            112            251 195 
 ROSC BZ EP   4   2240 46.94                             115    1.09 0  255 211 
 ROSC BN ES   4   2241 15.39                             115   -0.22 0  255 211 
 ROSC BZ I        2241 22.26        17.5 0.35            111            255 211 
 GUY2CHZ EP       2240 52.15                             111    0.84 7  303 234 
 GUY2CHN ES       2241 26.02                             111    0.68 7  303 234 
 GUY2CHZ I        2241 34.70        13.6 0.60                           303 234 
 PRA  HZ EP       2241  1.19                             106   -0.17 6  394 209 
 PRA  HE ES       2241 43.71                             106    0.50 6  394 209 
 PRA  HZ I        2241 46.99         9.6 0.30            103            394 209 
 ORTC HZ EP       2241  2.05                             105    0.31 6  398 216 
 ORTC HZ I        2241 49.21         7.7 0.40            102            398 216 
                                                                                
