 2011  526 2358 11.5 L   6.800 -73.151143.6  RSN  6 0.1 1.7LRSN                1
 GAP=158        0.43       2.5     3.4  3.5 -0.1728E+01  0.1085E+01 -0.2029E+00E
 Epicentro: LOS SANTOS - SANTANDER                                             3
 ACTION:UP  11-06-29 08:56 OP:tino STATUS:               ID:20110526235811 L   I
 2011-05-26-2356-00S.COL___115                                                 6
 STAT SP IPHASW D HRMM SECON CODA AMPLIT PERI AZIMU VELO SNR AR TRES W  DIS CAZ7
 BAR2 SZ EP       2358 30.79                             170    -0.110   23 188 
 BAR2 SZ ES   1   2358 45.77                             170    -0.2 7   23 188 
 BAR2 SZ I        2358 48.19        10.8 0.30                            23 188 
 GIR2 SZ EP       2358 30.85                             167    -0.110   31 351 
 GIR2 SZ ES   2   2358 46.05                             167     0.0 5   31 351 
 BRR  HZ EP       2358 32.58                             152     0.210   71 299 
 BRR  HZ I        2358 32.76        22.3 0.14                            71 299 
 BRR  HN ES   1   2358 48.70                             152     0.0 7   71 299 
 RUS  HZ EP       2358 34.94                             143    -0.110  101 176 
 RUS  HN ES   1   2358 53.68                             143     0.3 7  101 176 
 RUS  HZ I        2358 54.53         5.9 0.23                           101 176 
 GRA  SZ EP       2358 36.52                             136     0.010  126  18 
 GRA  SZ I        2359  0.85         3.4 0.23                           126  18 
 NOR  SZ EP       2358 47.14                             118     0.1 8  234 234 
 NOR  SN ES   1   2359 14.50                             118    -0.3 6  234 234 
                                                                                
