 2012 1226 2310 43.3 L   6.810 -73.174136.6  RSN  8 0.6 2.5LRSN                1
 GAP=179        1.48       5.9     6.9  8.3  0.8479E+01  0.1889E+02 -0.4307E+01E
 Epicentro: LOS SANTOS - SANTANDER                                             3
 ACTION:UPD 13-01-04 14:30 OP:ep   STATUS:               ID:20121226231043 L   I
 2012-12-26-2310-00M.COL___243                                                 6
 STAT SP IPHASW D HRMM SECON CODA AMPLIT PERI AZIMU VELO AIN AR TRES W  DIS CAZ7
 BAR2 SZ EP       2311  1.81                             170   -0.0210 24.1 182 
 BAR2 SZ ES       2311 15.65                             170   -0.6410 24.1 182 
 BAR2 SZ I        2311 18.16        56.8 0.18                          24.1 182 
 GIR2 SZ EP       2311  1.85                             167    0.0310 29.8 356 
 GIR2 SZ ES       2311 16.62                             167    0.3410 29.8 356 
 BRR  HZ EP       2311  3.79                             152    0.5410 67.9 299 
 BRR  HN ES       2311 19.75                             152    0.9210 67.9 299 
 BRR  HN I        2311 23.87        70.8 0.16                          67.9 299 
 RUS  HZ EP       2311  5.86                             142   -0.3910  102 174 
 RUS  HN ES       2311 24.32                             142    0.1610  102 174 
 RUS  HN I        2311 25.80        30.0 0.24                           102 174 
 PTB  HZ EP       2311  8.65                             130   -0.60 9  145 258 
 PTB  HN ES       2311 28.88                             130   -0.63 9  145 258 
 PTB  HN I        2311 32.51        35.9 0.20                           145 258 
 ZAR  HZ EP       2311 15.89                             121    1.09 9  201 292 
 ZAR  HN ES       2311 38.92                             121   -0.46 9  201 292 
 ZAR  HN I        2311 45.39        30.7 0.20                           201 292 
 SML  HZ EP       2311 18.51                             116   -0.64 8  241 336 
 SML  HN ES       2311 46.44                             116   -0.69 8  241 336 
 SML  HN I        2311 49.64        61.5 0.10                           241 336 
 HEL  HZ EP       2311 23.82                             113    1.09 8  269 255 
 HEL  HN ES       2311 53.34                             113   -0.17 8  269 255 
 HEL  HN I        2311 59.64         8.4 0.28                           269 255 
                                                                                
