 2017  126 2122 35.3 L   6.799 -73.158137.6  RSN  4 0.2 1.2LRSN                1
 GAP=141        0.54       3.2     3.2  6.1 -0.3084E+01  0.6235E+01 -0.6633E+00E
 Epicentro: LOS SANTOS - SANTANDER                                             3
 ACTION:UPD 17-05-22 16:03 OP:jn   STATUS:               ID:20170126212235 L   I
 OLDACT:UP  17-01-27 04:24 OP:edw  STATUS:               ID:20170126211746d    3
 OLDACT:DUP 17-01-27 04:21 OP:edw  STATUS:               ID:20170126211746d    3
 OLDACT:UP  17-01-27 04:20 OP:edw  STATUS:               ID:20170126211745     3
 OLDACT:REG 17-01-27 03:21 OP:cara STATUS:               ID:20170126211745     3
 2017-01-26-2118-00M.COL___349                                                 6
 STAT SP IPHASW D HRMM SECON CODA AMPLIT PERI AZIMU VELO AIN AR TRES W  DIS CAZ7
 PAM  EZ IP     D 2122 56.97                             149    0.2510 78.4  40 
 PAM  EN ES       2123 13.28                             149   -0.1410 78.4  40 
 PAM  EZ I        2123 15.70         2.2 0.66            153           78.4  40 
 RUS  HZ EP       2122 58.30                             142    0.0410  101 175 
 RUS  HN ES       2123 16.14                             142   -0.0310  101 175 
 RUS  HZ I        2123 18.02         2.7 0.46            147            101 175 
 PTB  HZ EP       2123  1.17                             130   -0.32 9  146 259 
 PTB  HN ES       2123 22.09                             130    0.18 9  146 259 
 PTB  HZ I        2123 26.89         3.0 0.46            133            146 259 
 TAM  HZ EP   4   2123  3.89                             128    1.42 0  156 105 
 TAM  HN ES   4   2123 19.34                             128   -4.32 0  156 105 
 ORTC HZ E        2124 48.32                                            395 216 
                                                                                
