 2013  526 2239 22.4 L   6.826 -73.162144.3  RSN 12 0.3 2.1LRSN                1
 GAP= 69        0.60       2.3     2.9  4.0 -0.1887E+01  0.2905E+01  0.5536E+00E
 Epicentro: LOS SANTOS - SANTANDER                                             3
 ACTION:UPD 13-06-20 09:54 OP:ep   STATUS:               ID:20130526223922 L   I
 2013-05-26-2237-50M.COL___211                                                 6
 STAT SP IPHASW D HRMM SECON CODA AMPLIT PERI AZIMU VELO AIN AR TRES W  DIS CAZ7
 BAR2 SZ EP   1   2239 42.01                             169    0.12 8 25.9 185 
 BAR2 SZ ES   1   2239 56.82                             169   -0.29 8 25.9 185 
 BAR2 SZ I        2239 58.09        12.8 0.34            168           25.9 185 
 GIR2 SZ EP   1   2239 41.89                             168    0.09 8 28.2 353 
 GIR2 SZ ES   1   2239 57.17                             168    0.22 8 28.2 353 
 GIR2 SZ I        2239 58.54        16.6 0.34            164           28.2 353 
 BRR  HZ EP   1   2239 43.73                             153    0.53 8 68.3 297 
 BRR  HZ I        2240  5.10        24.3 0.12            147           68.3 297 
 PAM  SZ EP   1   2239 44.73                             151    0.35 8 76.4  42 
 PAM  SN ES   1   2240  1.83                             151    0.29 8 76.4  42 
 PAM  SZ I        2240  3.72        22.8 0.48            152           76.4  42 
 RUS  HZ EP   1   2239 46.05                             143   -0.15 8  104 175 
 RUS  HE ES   1   2240  4.49                             143   -0.30 8  104 175 
 RUS  HZ I        2240  6.03        10.5 0.24            143            104 175 
 PTB  HZ EP   1   2239 48.71                             132   -0.41 7  147 258 
 PTB  HE ES       2240  9.68                             132   -0.2910  147 258 
 PTB  HZ I        2240 18.05         8.4 0.22            128            147 258 
 OCA  HZ EP   1   2239 50.13                             130   -0.16 7  157 354 
 OCA  HN ES   1   2240 12.22                             130    0.16 7  157 354 
 OCA  HZ I        2240 14.75        14.5 0.20            128            157 354 
 TAM  HZ EP   1   2239 49.80                             130   -0.37 7  158 106 
 NOR  HZ EP   1   2239 58.18                             118    0.14 6  235 234 
 NOR  HE ES   1   2240 26.55                             118    0.69 6  235 234 
 NOR  HZ I        2240 32.21        10.2 0.14            116            235 234 
 SML  HZ EP   1   2239 58.18                             117   -0.38 6  240 335 
 SML  HN ES   1   2240 26.32                             117   -0.46 6  240 335 
 SML  HZ I        2240 31.49        22.2 0.10            116            240 335 
 GUY2CHZ EP   1   2240  6.22                             112    0.29 6  301 234 
 GUY2CHN ES   1   2240 39.88                             112   -0.03 6  301 234 
 GUY2CHZ I        2240 48.59         8.2 0.28                           301 234 
 PRA  HZ EP   1   2240 16.17                             106    0.14 5  394 209 
 PRA  HN ES       2240 58.00                             106    0.12 6  394 209 
 PRA  HZ I        2241  5.93         5.2 0.28            105            394 209 
                                                                                
