 2010  326 2221 49.5 L   6.900 -72.926130.0  RSN  4 0.3 1.7LRSN                1
 GAP=264        0.54       6.8    11.5 12.5 -0.6846E+01 -0.7027E+02  0.5035E+02E
 Epicentro: GUACA - SANTANDER                                                  3
 ACTION:UP  10-08-24 09:56 OP:vdl  STATUS:               ID:20100326222149 L   I
 2010-03-26-2220-00S.COL___097                                                 6
 STAT SP IPHASW D HRMM SECON CODA AMPLIT PERI AZIMU VELO SNR AR TRES W  DIS CAZ7
 BRR  HZ IP       2222 10.04                             144    -0.210   90 285 
 BRR  HN ES   1   2222 26.64                             144     0.2 7   90 285 
 BRR  HZ I        2222 31.11        18.5 0.11                            90 285 
 RUS  HZ EP   2   2222 13.04                             137     0.3 5  113 189 
 RUS  HZ I        2222 31.78         3.3 0.60                           113 189 
 CHI  HZ EP   2   2222 28.62                             113     0.2 4  266 200 
 CHI  HE ES   2   2222 58.40                             113    -0.3 4  266 200 
 CHI  HZ I        2223  3.27         1.9 0.65                           266 200 
 RREF BZ EP   2   2222 38.54                             107     0.5 3  347 231 
 RREF BE ES   2   2223 15.55                             107    -0.3 3  347 231 
 RREF BZ I        2223 22.42         3.9 0.39                           347 231 
                                                                                
