 2016  226 2214 20.3 L   6.782 -73.115145.3  RSN  7 0.3 1.7LRSN                1
 GAP=141        0.76       3.6     3.3  5.2 -0.2237E+01  0.6782E+01 -0.1984E+01E
 Epicentro: LOS SANTOS - SANTANDER                                             3
 ACTION:UPD 16-03-04 21:29 OP:rebc STATUS:               ID:20160226221420 L   I
 OLDACT:REG 16-02-27 07:37 OP:cara STATUS:               ID:20160226220751     3
 2016-02-26-2207-51M.COL___319                                                 6
 STAT SP IPHASW D HRMM SECON CODA AMPLIT PERI AZIMU VELO AIN AR TRES W  DIS CAZ7
 BAR2 EZ IP     C 2214 39.93                             171    0.1310 22.3 200 
 BAR2 EZ ES       2214 55.28                             171    0.2310 22.3 200 
 BAR2 EZ I        2214 55.98        12.3 0.16            171           22.3 200 
 PAM  EZ IP       2214 42.00                             151   -0.3810 76.8  37 
 PAM  EN ES       2214 59.86                             151    0.2110 76.8  37 
 PAM  EZ I        2215  1.44         6.2 0.38            153           76.8  37 
 RUS  HZ EP       2214 43.75                             144   -0.0510 98.4 178 
 RUS  HN ES       2215  1.96                             144   -0.2010 98.4 178 
 RUS  HZ I        2215  3.33         5.0 0.20            147           98.4 178 
 PTB  HZ EP       2214 47.04                             131   -0.42 9  151 260 
 PTB  HE ES       2215  8.29                             131   -0.38 9  151 260 
 PTB  HZ I        2215 11.31         5.4 0.16            131            151 260 
 ZAR  HZ EP       2214 53.61                             122    0.54 8  208 292 
 ZAR  HN ES       2215 18.55                             122   -0.13 8  208 292 
 ZAR  HZ I        2215 24.06         8.5 0.58            122            208 292 
 NOR  HZ EP     D 2214 56.50                             118    0.37 8  236 235 
 NOR  HE ES       2215 24.46                             118    0.34 8  236 235 
 NOR  HZ I        2215 28.19         5.1 0.18            119            236 235 
 GUY2CHZ EP   9   2215  5.32                             112    1.29 0  303 235 
 GUY2CHE ES       2215 39.60                                    0.14 7  303 235 
 GUY2CHZ I        2215 46.54         4.0 0.48                           303 235 
                                                                                
