 2011  626 2141  2.0 L   6.827 -72.981142.8  RSN  4 0.3 1.3LRSN                1
 GAP=255        0.83      13.3    22.9 12.3  0.2549E+03 -0.1702E+03 -0.9635E+02E
 Epicentro: CEPITA - SANTANDER                                                 3
 ACTION:UP  11-07-14 19:08 OP:ep   STATUS:               ID:20110626214102 L   I
 2011-06-26-2138-05S.COL___140                                                 6
 STAT SP IPHASW D HRMM SECON CODA AMPLIT PERI AZIMU VELO SNR AR TRES W  DIS CAZ7
 BTL  SZ EP   1   2141 21.98                             166     0.4 7   33 288 
 BAR2 SZ EP       2141 21.77                             166     0.210   34 221 
 BAR2 SZ ES   1   2141 36.36                             166    -0.5 7   34 221 
 BAR2 SZ I        2141 39.44         4.1 0.10                            34 221 
 BRR  HZ EP       2141 23.63                             147    -0.210   87 291 
 BRR  HZ I        2141 25.20         5.5 0.08                            87 291 
 BRR  HN ES   1   2141 40.94                             147     0.1 7   87 291 
 RUS  HZ EP   1   2141 25.31                             142    -0.4 7  104 186 
 RUS  HN ES   1   2141 44.57                             142     0.3 7  104 186 
 RUS  HZ I        2141 46.16         2.5 0.29                           104 186 
                                                                                
