 2011  926 2033 44.0 L   6.809 -73.167142.6  RSN  4 0.5 1.6LRSN                1
 GAP=217        0.55      16.9    21.0 16.0  0.2623E+03 -0.1729E+03 -0.9449E+02E
 Epicentro: LOS SANTOS - SANTANDER                                             3
 ACTION:UPD 12-07-13 16:00 OP:ep   STATUS:               ID:20110926203344 L   I
 2011-09-26-2028-39S.COL___165                                                 6
 STAT SP IPHASW D HRMM SECON CODA AMPLIT PERI AZIMU VELO AIN AR TRES W  DIS CAZ7
 BTL  SZ EP       2034  3.02                             173   -0.1110 16.4 317 
 BAR2 SZ EP   3   2034  5.03                             169    1.77 2 24.0 184 
 BAR2 SZ I        2034 20.92         6.0 0.22                          24.0 184 
 BRR  HZ EP       2034  4.67                             152    0.0110 68.6 299 
 BRR  HZ I        2034 14.82        11.7 0.36                          68.6 299 
 BRR  HN ES   2   2034 20.78                             152    0.01 5 68.6 299 
 RUS  HZ EP   3   2034  7.46                             142   -0.07 2  102 175 
 RUS  HN ES   3   2034 25.61                             142   -0.27 2  102 175 
                                                                                
