 2013  526 2001 46.6 L   6.412 -73.593113.2  RSN  5 0.2 1.3LRSN                1
 GAP=143        0.47       3.5     3.0  6.0  0.3666E+01  0.4481E+01 -0.1396E+01E
 Epicentro: SANTA HELENA DEL OPON - SANTANDER                                  3
 ACTION:UPD 13-06-20 09:53 OP:ep   STATUS:               ID:20130526200146 L   I
 2013-05-26-2000-00M.COL___261                                                 6
 STAT SP IPHASW D HRMM SECON CODA AMPLIT PERI AZIMU VELO AIN AR TRES W  DIS CAZ7
 BAR2 SZ EP   1   20 2  3.16                             155   -0.17 7 49.6  66 
 BAR2 SZ ES   1   20 2 16.75                             155    0.34 7 49.6  66 
 BAR2 SZ I        20 2 17.78         9.4 0.52            158           49.6  66 
 BRR  HE ES   1   20 2 18.84                             143   -0.17 7 78.0 350 
 BRR  HE I        20 2 19.08        14.1 0.44            148           78.0 350 
 RUS  HN ES       20 2 20.46                             142   -0.1010 80.4 135 
 RUS  HZ I        20 2 23.78         1.7 0.44            143           80.4 135 
 GIR2 SZ EP   1   20 2  5.57                             140   -0.03 7 86.0  31 
 PTB  HZ EP   1   20 2  6.57                             136    0.28 7 96.6 278 
 PTB  HN ES   1   20 2 21.59                             136   -0.08 7 96.6 278 
 PTB  HZ I        20 2 22.75         3.7 0.24            139           96.6 278 
                                                                                
