 2016 1226 2137 53.9 L   6.769 -73.148133.5  RSN  8 0.3 1.8LRSN                1
 GAP=138        0.80       2.8     3.5  4.8 -0.2045E+00  0.6626E+01  0.3361E+01E
 Epicentro: LOS SANTOS - SANTANDER                                             3
 ACTION:UPD 17-01-11 20:19 OP:rebc STATUS:               ID:20161226213753 L   I
 OLDACT:REG 16-12-27 02:52 OP:cara STATUS:               ID:20161226212744     3
 2016-12-26-2128-00M.COL___372                                                 6
 STAT SP IPHASW D HRMM SECON CODA AMPLIT PERI AZIMU VELO AIN AR TRES W  DIS CAZ7
 BAR2 EZ EP       2138 12.01                             171    0.0410 19.9 191 
 BAR2 HN ES       2138 25.72                             171   -0.3610 19.9 191 
 BAR2 EZ I        2138 28.37        17.4 0.18            169           19.9 191 
 BRR  HZ EP       2138 13.50                             150   -0.3110 72.7 301 
 BRR  HE ES       2138 29.58                             150    0.2310 72.7 301 
 PAM  EZ IP     D 2138 14.97                             147   -0.0210 80.2  38 
 PAM  EN ES       2138 31.62                             147    0.1710 80.2  38 
 PAM  EZ I        2138 34.31         9.7 0.50            152           80.2  38 
 RUS  HZ EP       2138 16.16                             142   -0.0310 97.2 176 
 RUS  HZ ES       2138 33.88                             142    0.2910 97.2 176 
 RUS  HZ I        2138 35.74         5.8 0.18            143           97.2 176 
 ZAR  HZ EP       2138 25.34                             119   -0.34 9  205 293 
 ZAR  HN ES       2138 50.48                             119    0.00 9  205 293 
 ZAR  HZ I        2138 55.93        10.1 0.48            121            205 293 
 NOR  HZ EP       2138 28.57                             116   -0.12 8  233 235 
 NOR  HN ES       2138 56.24                             116    0.39 8  233 235 
 NOR  HZ I        2139  1.13         6.2 0.28            117            233 235 
 CHI  HZ EP       2138 30.44                             115   -0.12 8  245 195 
 CHI  HE ES       2138 58.81                             115   -0.36 8  245 195 
 CHI  HZ I        2139  6.71         2.8 0.50            116            245 195 
 GUY2CHZ EP       2138 37.78                             110    1.07 7  299 235 
 GUY2CHN ES       2139  9.71                             110   -0.40 7  299 235 
 GUY2CHZ I        2139 21.06         3.3 0.54                           299 235 
                                                                                
