 2010 1226 2007 51.5 L   6.787 -73.171145.0  RSN  7 0.3 1.9LRSN                1
 GAP=156        0.65       3.8     8.0  6.5 -0.1767E+02  0.2824E+02 -0.8787E+01E
 Epicentro: LOS SANTOS - SANTANDER                                             3
 ACTION:UP  11-01-14 15:27 OP:pat  STATUS:               ID:20101226200751 L   I
 2010-12-26-2005-34S.COL___132                                                 6
 STAT SP IPHASW D HRMM SECON CODA AMPLIT PERI AZIMU VELO SNR AR TRES W  DIS CAZ7
 BAR2 SZ IP       20 8 10.92                             171    -0.110   22 184 
 BAR2 SZ ES   1   20 8 26.23                             171     0.0 7   22 184 
 BAR2 SZ I        20 8 27.97        25.0 0.36                            22 184 
 RUS  HZ EP       20 8 14.78                             144    -0.310   99 174 
 RUS  HN ES   1   20 8 33.77                             144     0.3 7   99 174 
 RUS  HZ I        20 8 35.25        11.1 0.38                            99 174 
 GRA  SZ IP       20 8 16.71                             136    -0.110  128  18 
 GRA  SZ ES   1   20 8 36.81                             136     0.2 7  128  18 
 GRA  SZ I        20 8 37.54         6.3 0.23                           128  18 
 OCA  SZ EP   1   20 8 20.17                             129     0.3 7  161 354 
 OCA  SZ ES   3   20 8 41.65                             129    -0.3 2  161 354 
 OCA  SZ I        20 8 45.71         8.1 0.25                           161 354 
 NOR  SZ EP       20 8 26.87                             119     0.0 8  232 234 
 NOR  SN ES   2   20 8 54.02                             119    -0.4 4  232 234 
 RREF HZ EP   1   20 8 38.09                             111     0.8 5  319 229 
 RREF HZ I        20 9 22.13         5.1 0.46                           319 229 
 PRA  HZ EP   3   20 8 44.63                             107    -0.1 1  389 209 
                                                                                
