 2011 1026 2007 43.0 L   6.825 -73.305121.5  RSN  8 0.4 2.2LRSN                1
 GAP=103        0.63       3.6     3.6  6.0  0.8399E+00  0.4912E+01 -0.4209E+01E
 Epicentro: ZAPATOCA - SANTANDER                                               3
 ACTION:UPD 12-07-13 16:06 OP:ep   STATUS:               ID:20111026200743 L   I
 2011-10-26-2005-21S.COL___177                                                 6
 STAT SP IPHASW D HRMM SECON CODA AMPLIT PERI AZIMU VELO AIN AR TRES W  DIS CAZ7
 BTL  SZ EP       20 7 59.70                             174    0.2110 11.1  22 
 BAR2 SZ EP   1   20 8  0.09                             166    0.22 7 29.1 152 
 BAR2 SZ ES   1   20 8 13.19                             166    0.16 7 29.1 152 
 BAR2 SZ I        20 8 14.50        66.0 0.33                          29.1 152 
 BRR  HZ EP       20 8  0.50                             154   -0.0910 54.7 305 
 BRR  HZ I        20 8  0.90        41.2 0.08                          54.7 305 
 BRR  HE ES   1   20 8 14.29                             154   -0.02 7 54.7 305 
 PAM  SZ EP   1   20 8  3.57                             142    0.14 7 87.8  50 
 PAM  SE ES   1   20 8 18.98                             142   -0.40 7 87.8  50 
 RUS  HZ EP   2   20 8  5.57                             136    0.68 5  106 167 
 RUS  HE ES   1   20 8 21.74                             136   -0.23 7  106 167 
 OCA  SZ EP   1   20 8  8.91                             124   -0.22 7  156 359 
 ZAR  HZ EP   2   20 8 11.61                             119   -0.50 4  187 293 
 ZAR  HN ES   1   20 8 35.19                             119    0.37 7  187 293 
 ZAR  HZ I        20 8 37.87        10.4 0.42                           187 293 
 NOR  SE ES   2   20 8 40.81                             114   -1.03 4  222 231 
                                                                                
