 2017  326 2247  4.6 L   7.334 -73.173133.8  RSN  6 0.3 1.6LRSN                1
 GAP=174        0.75       4.2     3.2  5.3  0.1877E+01  0.4592E+01 -0.4827E+00E
 Epicentro: RIONEGRO - SANTANDER                                               3
 ACTION:UPD 17-05-25 18:45 OP:jn   STATUS:               ID:20170326224704 L   I
 OLDACT:REG 17-03-28 03:07 OP:dani STATUS:               ID:20170326223746     3
 2017-03-26-2238-00M.COL___360                                                 6
 STAT SP IPHASW D HRMM SECON CODA AMPLIT PERI AZIMU VELO AIN AR TRES W  DIS CAZ7
 PAM  EZ EP       2247 24.22                             158    0.0210 52.3  89 
 PAM  EN ES       2247 39.56                             158    0.1110 52.3  89 
 PAM  EZ I        2247 40.61         9.2 0.13            159           52.3  89 
 BRR  HZ EP       2247 23.94                             153   -0.1710 64.6 247 
 BRR  HN ES       2247 39.15                             153   -0.1510 64.6 247 
 BRR  HZ I        2247 39.65         9.0 0.38            150           64.6 247 
 BAR2 EZ EP       2247 25.59                             147    0.0610 82.1 181 
 BAR2 EZ ES       2247 41.97                             147    0.1310 82.1 181 
 BAR2 EZ I        2247 43.22        10.7 0.36            143           82.1 181 
 RUS  HZ EP       2247 32.95                             127    0.51 9  160 176 
 RUS  HE ES       2247 53.51                             127   -0.62 9  160 176 
 RUS  HZ I        2248  2.46         2.0 0.16            125            160 176 
 PTB  HZ EP       2247 32.48                             125   -0.02 9  167 238 
 PTB  HN ES       2247 54.70                             125    0.46 9  167 238 
 PTB  HZ I        2247 57.78         4.3 0.14            124            167 238 
 ZAR  HZ EP       2247 34.16                             122   -0.36 9  187 275 
 ZAR  HN ES       2247 57.84                             122    0.01 9  187 275 
 ZAR  HZ I        2248  1.11         9.6 0.32            122            187 275 
                                                                                
