 2016 1226 2216 13.2 L   6.800 -73.177140.4  RSN  9 0.3 1.8LRSN                1
 GAP=133        0.82       3.2     3.5  4.8  0.1273E+01  0.5337E+01  0.3628E+01E
 Epicentro: LOS SANTOS - SANTANDER                                             3
 ACTION:UPD 17-01-11 20:19 OP:rebc STATUS:               ID:20161226221613 L   I
 OLDACT:DUP 16-12-27 04:34 OP:cara STATUS:               ID:20161226220745d    3
 2016-12-26-2208-00M.COL___372                                                 6
 STAT SP IPHASW D HRMM SECON CODA AMPLIT PERI AZIMU VELO AIN AR TRES W  DIS CAZ7
 BAR2 EZ EP       2216 32.13                             170   -0.0210 23.0 181 
 BAR2 EZ ES       2216 46.53                             170   -0.4310 23.0 181 
 BAR2 EZ I        2216 48.59        12.9 0.50            170           23.0 181 
 BRR  HZ EP       2216 33.97                             153    0.4010 68.2 300 
 BRR  HN ES       2216 49.99                             153    0.5110 68.2 300 
 BRR  HZ I        2216 55.96        11.3 0.68            151           68.2 300 
 PAM  EZ IP       2216 34.91                             149   -0.0610 79.7  41 
 PAM  EN ES       2216 52.05                             149    0.0910 79.7  41 
 PAM  EZ I        2216 53.97        12.6 0.50            154           79.7  41 
 RUS  HZ EP       2216 36.16                             143   -0.2610  101 174 
 RUS  HN ES       2216 54.58                             143    0.0210  101 174 
 RUS  HZ I        2216 56.53        13.9 0.30            146            101 174 
 PTB  HZ EP       2216 39.30                             131   -0.10 9  144 259 
 PTB  HN ES       2216 59.43                             131   -0.42 9  144 259 
 PTB  HZ I        2217  2.66         6.6 0.36            132            144 259 
 ZAR  HZ EP       2216 44.50                             122   -0.44 9  201 293 
 ZAR  HN ES       2217  9.80                             122    0.08 9  201 293 
 ZAR  HZ I        2217 17.27         5.5 0.28            123            201 293 
 NOR  HZ EP       2216 47.97                             118   -0.32 8  232 234 
 NOR  HN ES   4   2217 17.01                             118    1.33 0  232 234 
 NOR  HZ I        2217 20.71         4.7 0.14            119            232 234 
 CHI  HZ EP       2216 50.54                             116    0.06 8  248 194 
 CHI  HN ES       2217 20.16                             116    0.58 8  248 194 
 CHI  HZ I        2217 23.17         2.6 0.38            119            248 194 
 GUY2CHZ EP       2216 56.78                             111    0.56 7  298 234 
 GUY2CHN ES   4   2217 30.86                             111    1.07 0  298 234 
 GUY2CHZ I        2217 38.30         3.3 0.58                           298 234 
                                                                                
