 2015  826 2154 26.0 L   6.675 -73.483116.7  RSN  5 0.4 2.0LRSN                1
 GAP=121        0.85       3.9     4.9  7.9  0.5598E+01  0.1828E+02 -0.4286E+01E
 Epicentro: EL CARMEN - SANTANDER                                              3
 ACTION:UPD 15-09-15 23:05 OP:cam  STATUS:               ID:20150826215426 L   I
 OLDACT:REG 15-08-27 03:58 OP:ar   STATUS:               ID:20150826214750     3
 2015-08-26-2147-50M.COL___343                                                 6
 STAT SP IPHASW D HRMM SECON CODA AMPLIT PERI AZIMU VELO AIN AR TRES W  DIS CAZ7
 BAR2 EZ EP       2154 42.60                             162    0.1010 34.4 105 
 BAR2 EZ ES       2154 55.33                             162   -0.0310 34.4 105 
 BAR2 EZ I        2154 55.67        47.3 0.26            167           34.4 105 
 RUS  HZ EP       2154 47.21                             138    0.4710 97.1 153 
 RUS  HE ES       2155  2.75                             138   -0.1610 97.1 153 
 RUS  HZ I        2155  4.07        10.6 0.18            140           97.1 153 
 SPBC HZ EP       2154 49.23                             128    0.0510  131 210 
 SPBC HN ES       2155  6.71                             128   -0.5510  131 210 
 SPBC HZ I        2155 12.11        12.7 0.24            129            131 210 
 ZAR  HZ EP       2154 53.65                             119   -0.13 9  177 301 
 ZAR  HN ES       2155 15.98                             119    0.53 9  177 301 
 ZAR  HZ I        2155 18.40         9.1 0.28            119            177 301 
 SML  HZ EP   2   2155  0.63                             110   -0.58 4  244 345 
 SML  HN ES   2   2155 27.72                             110   -0.95 4  244 345 
 SML  HZ I        2155 32.54        12.1 0.22            112            244 345 
                                                                                
