 2014  726 2324 12.2 L   6.821 -73.153136.7  RSN 20 0.6 2.8LRSN                1
 GAP= 70        1.39       3.4     3.5  6.7 -0.1955E+01  0.4182E+01  0.5221E+01E
 Epicentro: LOS SANTOS - SANTANDER                                             3
 ACTION:UPD 15-03-16 20:47 OP:nd   STATUS:               ID:20140726232412 L   I
 OLDACT:DUP 14-07-27 07:28 OP:stll STATUS:               ID:20140726231814d    3
 2014-07-26-2318-12M.COL___263                                                 6
 STAT SP IPHASW D HRMM SECON CODA AMPLIT PERI AZIMU VELO AIN AR TRES W  DIS CAZ7
 BAR2 SZ IP     D 2324 31.20                             169    0.4110 25.5 187 
 BAR2 SZ ES       2324 44.32                             169   -0.9610 25.5 187 
 BAR2 SZ I        2324 47.00       109.8 0.28            167           25.5 187 
 BRR  HZ IP     C 2324 32.83                             151    0.5610 69.4 297 
 BRR  HN ES       2324 48.43                             151    0.5110 69.4 297 
 BRR  HZ I        2324 53.58        90.1 0.50            145           69.4 297 
 PAM  SZ EP     C 2324 33.97                             149    0.5810 76.2  41 
 PAM  SN ES       2324 50.46                             149    0.5610 76.2  41 
 PAM  SZ I        2324 52.84       203.6 0.52            149           76.2  41 
 RUS  HZ EP       2324 35.38                             141    0.1310  103 176 
 RUS  HN ES       2324 53.13                             141   -0.0910  103 176 
 RUS  HZ I        2324 55.66        70.5 0.22            140            103 176 
 PTB  HZ EP       2324 37.96                             130   -0.45 9  147 258 
 PTB  HN ES       2324 58.32                             130   -0.53 9  147 258 
 PTB  HZ I        2325  1.32       109.8 0.42            125            147 258 
 TAM  HZ IP     D 2324 39.53                             128    0.22 9  157 106 
 TAM  HZ I        2324 39.95       100.7 0.36            128            157 106 
 TAM  HN ES       2325  0.15                             128   -0.31 9  157 106 
 OCA  HE ES       2325  1.03                             128    0.07 9  158 353 
 OCA  HZ I        2325  5.12        61.4 0.20            124            158 353 
 SPBC HZ EP       2324 40.07                             127   -0.07 9  164 218 
 SPBC HE ES       2325  2.25                             127    0.32 9  164 218 
 SPBC HZ I        2325  9.20        88.2 0.30            123            164 218 
 ZAR  HN ES       2325  8.31                             120   -0.31 9  202 292 
 ZAR  HZ I        2325 18.13        55.4 0.36            116            202 292 
 NOR  HN ES       2325 13.49                             116   -1.53 8  235 234 
 NOR  HZ I        2325 20.19        37.8 0.34            113            235 234 
 SML  HE ES       2325 15.35                             116   -0.69 8  241 335 
 SML  HZ I        2325 17.69        67.3 0.30            112            241 335 
 CHI  HZ EP       2324 49.78                             115    0.15 8  251 195 
 CHI  HN ES       2325 18.43                             115   -0.40 8  251 195 
 CHI  HZ I        2325 22.47        23.9 0.56            112            251 195 
 HEL  HN ES       2325 23.41                             113    0.48 8  272 255 
 HEL  HZ I        2325 30.50        32.6 0.26            110            272 255 
 SOCV BZ EP       2324 53.81                             110   -0.98 7  301  57 
 SOCV BN ES   4   2325 23.98                             110   -4.03 0  301  57 
 GUY2CHN ES       2325 30.50                             110    1.27 7  302 234 
 GUY2CHZ I        2325 39.03        32.0 0.32                           302 234 
 DBB  SZ EP     C 2324 58.85                             108   -0.36 7  338 274 
 DBB  SZ I        2325 40.46        56.3 0.34            105            338 274 
 TOL  SN ES       2325 38.92                             107    1.23 7  345 224 
 ANIL HN ES       2325 41.08                             107    0.61 6  358 224 
 ANIL HZ I        2325 54.53        52.5 0.40            104            358 224 
 PRA  HZ EP       2325  5.50                             105   -0.11 6  394 209 
 PRA  HN ES       2325 46.35                             105   -0.92 6  394 209 
 PRA  HZ I        2325 53.70        28.6 0.28            103            394 209 
 ORTC HZ EP       2325  5.73                             105   -0.26 6  397 216 
 ORTC HE ES       2325 48.56                             105    0.62 6  397 216 
 ORTC HZ I        2325 52.91        14.6 0.52            103            397 216 
                                                                                
