 2016  226 2015 58.0 L   6.824 -73.141147.2  RSN  9 0.3 2.1LRSN                1
 GAP=136        0.68       2.6     2.8  4.1 -0.1178E+01  0.4274E+01  0.9175E+00E
 Epicentro: LOS SANTOS - SANTANDER                                             3
 ACTION:UPD 16-03-04 21:29 OP:rebc STATUS:               ID:20160226201558 L   I
 OLDACT:REG 16-02-27 07:00 OP:cara STATUS:               ID:20160226200751     3
 2016-02-26-2007-51M.COL___319                                                 6
 STAT SP IPHASW D HRMM SECON CODA AMPLIT PERI AZIMU VELO AIN AR TRES W  DIS CAZ7
 BAR2 EZ EP       2016 17.83                             170   -0.0210 26.0 190 
 BAR2 EZ ES       2016 33.35                             170    0.0110 26.0 190 
 BAR2 EZ I        2016 34.20        20.8 0.20            168           26.0 190 
 PAM  EZ EP       2016 20.29                             152    0.0710 75.1  41 
 PAM  EE ES       2016 37.70                             152    0.1410 75.1  41 
 PAM  EZ I        2016 39.09        15.4 0.38            157           75.1  41 
 RUS  HZ EP       2016 21.81                             143   -0.2610  103 176 
 RUS  HN ES       2016 40.90                             143    0.0510  103 176 
 RUS  HZ I        2016 42.62        12.1 0.30            145            103 176 
 PTB  HZ EP       2016 24.38                             132   -0.78 9  149 258 
 PTB  HN ES       2016 46.11                             132   -0.24 9  149 258 
 PTB  HZ I        2016 51.27        16.0 0.16            132            149 258 
 SPBC HZ EP       2016 26.84                             129    0.02 9  166 219 
 SPBC HE ES       2016 49.34                             129    0.04 9  166 219 
 SPBC HZ I        2016 56.11        32.5 0.18            130            166 219 
 ZAR  HZ EP       2016 30.51                             123    0.04 9  204 291 
 ZAR  HE ES       2016 56.02                             123    0.21 9  204 291 
 ZAR  HZ I        2017  3.72        12.8 0.40            124            204 291 
 NOR  HZ IP       2016 34.44                             119    0.44 8  237 234 
 NOR  HE ES       2017  2.36                             119    0.26 8  237 234 
 NOR  HZ I        2017  5.82        12.4 0.26            120            237 234 
 CHI  HZ EP       2016 35.86                             117   -0.19 8  251 195 
 CHI  HN ES       2017  5.83                             117    0.09 8  251 195 
 CHI  HZ I        2017 11.46         6.2 0.30            119            251 195 
 GUY2CHZ EP       2016 42.42                             112    0.54 7  303 234 
 GUY2CHN ES       2017 16.07                             112   -0.04 7  303 234 
 GUY2CHZ I        2017 28.35         8.1 0.54                           303 234 
                                                                                
