 2010  526 2051 49.4 L   6.843 -73.155143.6  RSN 10 0.4 2.4LRSN                1
 GAP=136        0.70       3.3     6.0  6.6 -0.9121E+01  0.3649E+01  0.4342E+01E
 Epicentro: LOS SANTOS - SANTANDER                                             3
 ACTION:UP  10-08-24 10:07 OP:vdl  STATUS:               ID:20100526205149 L   I
 2010-05-26-2049-54S.COL___108                                                 6
 STAT SP IPHASW D HRMM SECON CODA AMPLIT PERI AZIMU VELO SNR AR TRES W  DIS CAZ7
 BAR2 SZ IP       2052  8.78                             168    -0.110   28 187 
 BAR2 SZ ES   2   2052 23.41                             168    -0.6 5   28 187 
 GUE  SZ IP       2052 13.70                             141     0.210  112  13 
 GUE  SZ ES   2   2052 32.28                             141    -0.1 5  112  13 
 GRA  SZ IP       2052 14.54                             138     0.510  122  19 
 GRA  SZ ES   1   2052 33.48                             138     0.1 7  122  19 
 OCA  SZ EP       2052 17.22                             131     0.2 9  155 353 
 OCA  SZ ES   1   2052 38.35                             131    -0.3 7  155 353 
 OCA  SZ I        2052 46.04        32.0 0.23                           155 353 
 CHI  HZ EP       2052 27.28                             117    -0.1 8  253 195 
 CHI  HN ES   2   2052 57.26                             117     0.2 4  253 195 
 CHI  HZ I        2053  0.49        12.2 0.63                           253 195 
 ROSC BZ EP   2   2052 27.82                             116     0.1 4  256 210 
 ROSC BE ES   2   2052 57.72                             116     0.0 4  256 210 
 ROSC BZ I        2053  4.41        24.9 0.53                           256 210 
 HEL  HZ EP   2   2052 30.02                             115     0.5 4  272 255 
 HEL  HN ES   3   2053  1.02                             115     0.2 2  272 255 
 HEL  HZ I        2053  8.19        21.2 0.31                           272 255 
 RREF BZ EP   2   2052 35.66                             111     0.0 3  324 229 
 RREF BE ES   2   2053 12.15                             111     0.3 3  324 229 
 RREF BZ I        2053 16.40        12.8 0.29                           324 229 
 MON  HZ EP   2   2052 37.09                             109    -0.7 3  349 308 
 MON  HN ES   2   2053 14.62                             109    -1.0 3  349 308 
 MON  HZ I        2053 28.41         7.0 0.74                           349 308 
 SDV  BZ EP       2052 38.30                             108    -0.8 6  358  51 
 SDV  BZ I        2052 39.11         8.1 0.22                           358  51 
                                                                                
