 2011 1226 2007 35.8 L   6.785 -73.173146.0  RSN  4 0.4 1.5LRSN                1
 GAP=134        0.80       7.6     6.2 10.7 -0.6523E+01 -0.9113E+01  0.1935E+02E
 Epicentro: LOS SANTOS - SANTANDER                                             3
 ACTION:UPD 12-07-13 16:18 OP:ep   STATUS:               ID:20111226200735 L   I
 2011-12-26-2000-00M.COL___187                                                 6
 STAT SP IPHASW D HRMM SECON CODA AMPLIT PERI AZIMU VELO AIN AR TRES W  DIS CAZ7
 BRR  HZ EP   1   20 7 57.14                             153    0.31 7 69.4 301 
 BRR  HZ I        20 7 57.51        16.8 0.33                          69.4 301 
 BRR  HN ES   1   20 8 13.86                             153    0.59 7 69.4 301 
 PAM  SZ EP   1   20 7 58.06                             150   -0.13 7 80.6  40 
 PAM  SN ES   2   20 8 14.92                             150   -0.77 5 80.6  40 
 RUS  HZ EP   1   20 7 59.84                             144    0.41 7 99.2 174 
 RUS  HN ES   2   20 8 17.75                             144   -0.14 5 99.2 174 
 RUS  HZ I        20 8 19.88         2.9 0.26                          99.2 174 
 PTB  HZ EP   1   20 8  1.97                             133   -0.48 7  144 259 
 PTB  HE ES   1   20 8 22.87                             133   -0.40 7  144 259 
 PTB  HZ I        20 8 25.76         2.5 0.26                           144 259 
                                                                                
