 2017  626 2128 36.4 L   6.175 -73.760112.5  RSN 21 0.5 2.9LRSN                1
 GAP= 51        1.26       3.0     2.6  6.1  0.3359E+00  0.1913E+01  0.3742E+01E
 Epicentro: LANDAZURI - SANTANDER                                              3
 ACTION:UPD 17-09-14 16:55 OP:jn   STATUS:               ID:20170626212836 L   I
 OLDACT:UP  17-06-27 03:27 OP:dnl  STATUS:               ID:20170626212743     3
 OLDACT:UP  17-06-27 03:25 OP:dnl  STATUS:               ID:20170626212743     3
 OLDACT:REG 17-06-27 02:30 OP:dnl  STATUS:               ID:20170626212743     3
 2017-06-26-2128-00M.COL___358                                                 6
 STAT SP IPHASW D HRMM SECON CODA AMPLIT PERI AZIMU VELO AIN AR TRES W  DIS CAZ7
 SPBC HZ IP     D 2128 53.24                             147   -0.7110 67.4 211 
 SPBC HE ES       2129  7.50                             147   -0.1310 67.4 211 
 SPBC HZ I        2129  8.05       325.6 0.26            144           67.4 211 
 BAR2 EZ IP     C 2128 54.97                             142    0.0010 78.8  54 
 BAR2 EZ ES       2129  8.98                             142   -0.4610 78.8  54 
 PTB  HZ IP   9 D 2128 53.96                             139   -1.32 0 86.9 298 
 PTB  HE ES       2129  7.93                             139   -0.7510 86.9 298 
 PTB  HZ I        2129  8.34       149.5 0.28            139           86.9 298 
 BRR  HZ EP     D 2128 56.50                             134   -0.1110  103   3 
 BRR  HE ES       2129 12.80                             134    0.4310  103   3 
 BRR  HZ I        2129 15.43       145.6 0.14            136            103   3 
 TABC EZ EP     D 2129  0.89                             125    0.41 9  138 201 
 TABC EZ ES   4   2129 20.45                             125    1.19 0  138 201 
 TABC EZ I        2129 24.00       141.3 0.50            124            138 201 
 NOR  HZ EP       2128 59.10                             124   -1.08 9  140 241 
 NOR  HE ES       2129 18.61                             124   -0.11 9  140 241 
 NOR  HZ I        2129 21.27       323.6 0.24            123            140 241 
 ROSC BZ EP     D 2129  3.11                             121    0.44 9  160 203 
 ROSC BE ES   4   2129 25.39                             121    2.24 0  160 203 
 ROSC BZ I        2129 27.24       105.1 0.45            119            160 203 
 CHI  HZ EP       2129  3.27                             119   -0.57 9  171 179 
 CHI  HN ES   4   2129 23.90                             119   -1.33 0  171 179 
 CHI  HZ I        2129 30.57        65.3 0.36            118            171 179 
 YPLC HZ EP     C 2129  4.23                             118    0.35 9  175 119 
 YPLC HE ES       2129 26.02                             118    0.71 9  175 119 
 YPLC HZ I        2129 27.78       112.0 0.40            117            175 119 
 ZAR  HZ IP     C 2129  5.29                             115   -0.04 9  190 320 
 ZAR  HE ES       2129 28.42                             115    0.53 9  190 320 
 ZAR  HZ I        2129 30.58       219.6 0.58            116            190 320 
 HEL  HZ EP       2129  6.18                             115   -0.29 9  196 271 
 HEL  HN ES   4   2129 31.30                             115    1.38 0  196 271 
 HEL  HZ I        2129 34.01        83.0 0.28            115            196 271 
 GUY2CHZ EP       2129  7.46                             114   -0.34 8  206 239 
 GUY2CHN ES       2129 33.41                             114    1.12 8  206 239 
 GUY2CHZ I        2129 38.48       142.7 0.52                           206 239 
 TAM  HZ EP     C 2129  9.01                             112    0.27 8  220  82 
 TAM  HN ES       2129 34.22                             112    0.26 8  220  82 
 TAM  HZ I        2129 37.03        54.0 0.24            112            220  82 
 VIL  EZ EP       2129  9.77                             111   -0.05 8  228 178 
 VIL  EN ES       2129 36.24                             111    0.37 8  228 178 
 VIL  EZ I        2129 46.21        77.4 0.40            110            228 178 
 CBOC HZ EP       2129 12.99                             108    0.44 8  252 262 
 CBOC HN ES       2129 40.85                             108    0.11 8  252 262 
 CBOC HZ I        2129 42.61        49.7 0.40            108            252 262 
 PTGC HZ EP     D 2129 15.20                             106   -0.82 7  283 140 
 PTGC HE ES       2129 45.91                             106   -1.00 7  283 140 
 PTGC HZ I        2129 53.49        25.0 0.22            106            283 140 
 DBB  EZ EP       2129 16.76                             106    0.27 7  286 289 
 DBB  EN ES   4   2129 49.38                             106    1.63 0  286 289 
 DBB  EZ I        2129 51.53        43.0 0.30            106            286 289 
 ORTC HZ EP       2129 18.53                             105    0.52 7  300 213 
 ORTC HN ES   4   2129 53.52                             105    3.06 0  300 213 
 ORTC HZ I        2129 56.30        32.7 0.54            104            300 213 
 PAL  HZ EP       2129 20.14                             104    0.57 7  313 243 
 PAL  HN ES   4   2129 51.77                             104   -1.47 0  313 243 
 PAL  HZ I        2130  1.04        24.0 0.34            104            313 243 
 APAC HZ EP       2129 25.45                             101   -0.28 6  365 302 
 APAC HN ES       2130  3.41                             101   -0.79 6  365 302 
 APAC HZ I        2130  8.63        20.7 0.56            101            365 302 
 SJC  HZ EP   4 D 2129 33.52                              98   -1.31 0  440 339 
 SJC  HN ES   4   2130 17.67                              98   -2.72 0  440 339 
 SJC  HZ I        2130 23.71         9.3 0.60             98            440 339 
                                                                                
