 2012  326 2117 48.1 L   6.762 -73.099143.9  RSN  6 0.2 1.4LRSN                1
 GAP=240        0.40       4.9     5.4  5.4  0.1516E+02  0.1006E+02  0.5326E+01E
 *BRR-BAR2-RUS-ZAR                                                             3
 ACTION:UP  12-03-31 23:23 OP:EP   STATUS:               ID:20120326211748 L   I
 2012-03-26-2110-00M.COL___196                                                 6
 STAT SP IPHASW D HRMM SECON CODA AMPLIT PERI AZIMU VELO SNR AR TRES W  DIS CAZ7
 BAR2 SZ EP   2   2118  7.60                             171     0.1 5   21 206 
 BAR2 SZ ES   1   2118 22.33                             171    -0.2 7   21 206 
 BAR2 SZ I        2118 23.53         7.9 0.15                            21 206 
 BRR  HE ES   2   2118 26.45                             150     0.4 5   78 299 
 RUS  HZ EP   1   2118 11.31                             145     0.0 7   96 179 
 RUS  HN ES   1   2118 29.59                             145     0.1 7   96 179 
 RUS  HZ I        2118 30.78         3.5 0.20                            96 179 
 PTB  HZ EP   2   2118 15.28                             131     0.0 5  152 261 
 PTB  HZ I        2118 40.77         3.7 0.07                           152 261 
 ZAR  HE ES   2   2118 46.60                             121    -0.2 4  210 293 
 NOR  SN ES   2   2118 51.90                             118     0.0 4  237 236 
                                                                                
