 2011 1226 2332 29.8 L   6.768 -73.139142.0  RSN  9 0.4 2.2LRSN                1
 GAP=139        0.73       3.4     3.7  5.8 -0.1894E+01  0.4192E+01 -0.2298E+01E
 Epicentro: LOS SANTOS - SANTANDER                                             3
 ACTION:UPD 12-07-13 16:18 OP:ep   STATUS:               ID:20111226233229 L   I
 2011-12-26-2330-00M.COL___187                                                 6
 STAT SP IPHASW D HRMM SECON CODA AMPLIT PERI AZIMU VELO AIN AR TRES W  DIS CAZ7
 BAR2 SZ EP       2332 49.00                             172    0.0510 20.0 194 
 BAR2 SZ ES   1   2333  3.67                             172   -0.19 7 20.0 194 
 BAR2 SZ I        2333  4.74        21.5 0.15                          20.0 194 
 GIR2 SZ EP       2332 49.11                             165   -0.0610 34.9 350 
 GIR2 SZ ES   2   2333  4.48                             165    0.24 5 34.9 350 
 BRR  HZ EP       2332 50.90                             151    0.1810 73.6 301 
 BRR  HE ES   1   2333  7.20                             151    0.20 7 73.6 301 
 BRR  HZ I        2333  9.07        39.2 0.13                          73.6 301 
 PAM  SZ IP     C 2332 51.92                             149    0.1210 79.7  38 
 PAM  SE ES   1   2333  8.79                             149   -0.13 7 79.7  38 
 RUS  HZ EP   1   2332 53.01                             144    0.05 7 97.0 176 
 RUS  HE ES   1   2333 11.21                             144    0.22 7 97.0 176 
 RUS  HZ I        2333 12.67        12.5 0.41                          97.0 176 
 PTB  HZ EP   2   2332 56.45                             131   -0.05 5  148 260 
 PTB  HN ES   1   2333 16.34                             131   -0.96 7  148 260 
 OCA  SZ EP   1   2332 57.88                             128   -0.32 7  164 353 
 OCA  SZ ES   1   2333 19.93                             128   -0.40 7  164 353 
 OCA  SZ I        2333 23.95        32.2 0.32                           164 353 
 ZAR  HZ EP   1   2333  2.21                             121   -0.04 6  206 293 
 ZAR  HE ES   1   2333 28.58                             121    1.05 6  206 293 
 ZAR  HZ I        2333 33.13        15.7 0.07                           206 293 
 NOR  SN ES   1   2333 32.64                             118   -0.12 6  233 235 
                                                                                
