 2017  626 2245  0.8 L   6.821 -73.076148.2  RSN 10 0.5 2.2LRSN                1
 GAP=262        1.03       4.3     6.1  5.8 -0.2058E-01 -0.2876E+00  0.5467E+01E
 Epicentro: LOS SANTOS - SANTANDER                                             3
 ACTION:UPD 17-09-14 16:55 OP:jn   STATUS:               ID:20170626224500 L   I
 OLDACT:UP  17-06-27 03:37 OP:dnl  STATUS:               ID:20170626223741     3
 OLDACT:UP  17-06-27 03:36 OP:dnl  STATUS:               ID:20170626223741     3
 OLDACT:REG 17-06-27 02:31 OP:dnl  STATUS:               ID:20170626223741     3
 2017-06-26-2238-00M.COL___352                                                 6
 STAT SP IPHASW D HRMM SECON CODA AMPLIT PERI AZIMU VELO AIN AR TRES W  DIS CAZ7
 BAR2 EZ EP       2245 20.88                             169    0.0910 27.9 205 
 BAR2 EZ ES       2245 36.28                             169   -0.1210 27.9 205 
 BAR2 EZ I        2245 36.95        33.5 0.38             47           27.9 205 
 BRR  HZ EP       2245 22.73                             151    0.2110 77.1 294 
 BRR  HN ES       2245 39.87                             151    0.3910 77.1 294 
 BRR  HZ I        2245 43.84        18.9 0.30             47           77.1 294 
 PTB  HZ EP   9   2245 27.59                             131   -1.08 0  156 259 
 PTB  HE ES       2245 49.12                             130   -0.23 9  156 259 
 PTB  HZ I        2245 54.93        10.0 0.22             47            156 259 
 SPBC HZ EP       2245 30.06                             128   -0.04 9  170 221 
 SPBC HE ES       2245 52.81                             128   -0.16 9  170 221 
 SPBC HZ I        2245 56.68        25.0 0.20             47            170 221 
 ZAR  HZ EP       2245 34.30                             122    0.27 8  210 291 
 ZAR  HE ES       2245 58.94                             122   -1.02 8  210 291 
 ZAR  HZ I        2246  4.04        15.9 0.36             37            210 291 
 NOR  HZ EP       2245 36.90                             118   -0.56 8  242 235 
 NOR  HN ES       2246  6.92                             118    0.84 8  242 235 
 NOR  HZ I        2246 14.19         8.2 0.38             47            242 235 
 CHI  HZ EP       2245 39.06                             117   -0.02 8  253 197 
 CHI  HN ES       2246  8.33                             117   -0.63 8  253 197 
 CHI  HZ I        2246 12.17         9.1 0.44             37            253 197 
 ROSC BZ EP   9   2245 41.21                             117    1.53 0  259 212 
 ROSC BN ES       2246 11.88                             116    0.32 8  259 212 
 ROSC BZ I        2246 15.64        19.7 0.40             37            259 212 
 GUY2CHZ EP       2245 46.13                             112    0.77 7  309 235 
 GUY2CHE ES   4   2246 23.31                             112    3.18 0  309 235 
 GUY2CHZ I        2246 27.11         7.5 0.32                           309 235 
 ORTC HZ EP       2245 55.15                             106   -0.38 6  402 217 
 ORTC HN ES       2246 38.52                             106    0.27 6  402 217 
 ORTC HZ I        2246 42.24         4.8 0.22             36            402 217 
                                                                                
