 2016  526 2351 42.4 L   6.790 -73.135149.7  RSN  8 0.5 2.0LRSN                1
 GAP=138        1.13       5.1     5.4  6.8 -0.9365E+01  0.6567E+01  0.8024E+01E
 Epicentro: LOS SANTOS - SANTANDER                                             3
 ACTION:UPD 16-08-18 17:49 OP:cam  STATUS:               ID:20160526235142 L   I
 OLDACT:DUP 16-05-27 04:59 OP:drio STATUS:               ID:20160526234745d    3
 2016-05-26-2347-44M.COL___322                                                 6
 STAT SP IPHASW D HRMM SECON CODA AMPLIT PERI AZIMU VELO AIN AR TRES W  DIS CAZ7
 BAR2 EZ EP       2352  2.51                             171    0.0110 22.5 193 
 BAR2 EZ ES       2352 17.76                             171   -0.4010 22.5 193 
 BAR2 EZ I        2352 18.95        24.7 0.14            169           22.5 193 
 BRR  HZ EP       2352  4.38                             153    0.3110 72.8 299 
 BRR  HE ES       2352 21.81                             153    0.8410 72.8 299 
 PAM  EZ EP       2352  5.36                             151    0.3110 77.5  38 
 PAM  EN ES       2352 22.50                             151   -0.2110 77.5  38 
 PAM  EZ I        2352 24.73         8.4 0.48            153           77.5  38 
 RUS  HZ EP       2352  6.06                             145   -0.4110 99.4 177 
 RUS  HE ES       2352 25.40                             145    0.1710 99.4 177 
 RUS  HZ I        2352 26.23         9.4 0.26            144           99.4 177 
 PTB  HZ EP       2352  8.86                             133   -0.93 9  149 259 
 PTB  HN ES       2352 30.43                             133   -0.71 9  149 259 
 PTB  HZ I        2352 32.35        10.5 0.36            133            149 259 
 SPBC HZ EP       2352 11.30                             130    0.10 9  163 220 
 SPBC HE ES       2352 33.80                             130    0.14 9  163 220 
 SPBC HZ I        2352 36.15        19.3 0.18            129            163 220 
 NOR  HZ EP       2352 18.47                             119    0.06 8  235 235 
 NOR  HE ES       2352 46.75                             119    0.27 8  235 235 
 NOR  HZ I        2352 49.96         6.0 0.16            119            235 235 
 PRA  HZ EP       2352 36.54                             107    0.51 6  392 210 
 PRA  HE ES       2353 18.46                             107    0.61 6  392 210 
 PRA  HZ I        2353 25.79         3.4 0.66            107            392 210 
                                                                                
