 2016  526 2152  1.9 L   6.782 -73.111148.9  RSN 15 0.5 2.5LRSN                1
 GAP=123        1.07       4.1     5.2  5.6 -0.6780E+01  0.5123E+01  0.6753E+01E
 Epicentro: LOS SANTOS - SANTANDER                                             3
 ACTION:UPD 16-08-18 17:49 OP:cam  STATUS:               ID:20160526215201 L   I
 OLDACT:UP  16-06-01 05:07 OP:dnl  STATUS:               ID:20160526215201 L   3
 OLDACT:UP  16-05-27 04:41 OP:drio STATUS:               ID:20160526214741     3
 OLDACT:UP  16-05-27 04:27 OP:drio STATUS:               ID:20160526214741     3
 OLDACT:UP  16-05-27 04:27 OP:drio STATUS:               ID:20160526214741     3
 OLDACT:REG 16-05-27 03:28 OP:drio STATUS:               ID:20160526214741     3
 2016-05-26-2147-41M.COL___322                                                 6
 STAT SP IPHASW D HRMM SECON CODA AMPLIT PERI AZIMU VELO AIN AR TRES W  DIS CAZ7
 BAR2 EZ EP       2152 21.96                             171    0.0810 22.4 201 
 BAR2 EZ ES       2152 37.15                             171   -0.3310 22.4 201 
 BAR2 EZ I        2152 38.46       109.0 0.22            167           22.4 201 
 BRR  HZ EP       2152 23.55                             152   -0.0810 75.5 298 
 BRR  HN ES       2152 41.00                             152    0.4210 75.5 298 
 BRR  HZ I        2152 42.03        33.4 0.38            150           75.5 298 
 PAM  EZ EP       2152 24.55                             152    0.1510 76.6  36 
 PAM  EE ES       2152 42.34                             152    0.3910 76.6  36 
 PAM  EZ I        2152 44.36        16.0 0.66            157           76.6  36 
 RUS  HZ EP       2152 25.74                             145   -0.0610 98.4 178 
 RUS  HE ES       2152 44.11                             145   -0.3410 98.4 178 
 RUS  HZ I        2152 45.70        48.0 0.22            144           98.4 178 
 PTB  HZ EP       2152 28.47                             132   -0.95 9  151 260 
 PTB  HN ES   4   2152 49.70                             132   -1.20 0  151 260 
 PTB  HZ I        2152 55.30        26.6 0.32            131            151 260 
 SPBC HZ EP       2152 30.83                             130    0.11 9  164 220 
 SPBC HN ES       2152 52.77                             130   -0.43 9  164 220 
 SPBC HZ I        2152 55.52        72.1 0.24            129            164 220 
 NOR  HZ EP       2152 38.20                             119    0.19 8  237 235 
 NOR  HE ES       2153  5.69                             119   -0.50 8  237 235 
 NOR  HZ I        2153 11.55        21.4 0.18            119            237 235 
 CHI  HZ EP       2152 39.79                             118    0.12 8  248 196 
 CHI  HE ES       2153 10.09                             118    0.96 8  248 196 
 CHI  HZ I        2153 14.89        11.7 0.32            118            248 196 
 ROSC BZ EP   4   2152 41.86                             117    1.65 0  253 212 
 ROSC BN ES   4   2153 14.44                             117    4.33 0  253 212 
 ROSC BZ I        2153 17.46        22.3 0.35            117            253 212 
 HEL  HZ EP       2152 43.05                             115    0.43 7  275 256 
 HEL  HN ES   4   2153 15.87                             115    1.48 0  275 256 
 HEL  HZ I        2153 20.21        10.2 0.32            115            275 256 
 PTGC HZ EP       2152 44.99                             112   -0.53 7  305 159 
 LL6C HZ EP   4   2152 46.27                             111   -1.71 0  327 357 
 LL6C HN ES   4   2153 21.15                             111   -2.77 0  327 357 
 ANIL HZ EP   9   2152 53.04                             109    1.08 0  359 225 
 ANIL HE ES       2153 32.87                             109    0.77 6  359 225 
 ANIL HZ I        2153 35.99        23.2 0.28            109            359 225 
 PRA  HZ EP       2152 54.95                             107   -0.59 6  392 210 
 PRA  HE ES       2153 38.15                             107    0.77 6  392 210 
 PRA  HZ I        2153 43.90        12.0 0.40            107            392 210 
 ORTC HZ EP       2152 56.17                             107    0.18 6  396 217 
 ORTC HE ES       2153 39.02                             107    0.82 6  396 217 
 ORTC HZ I        2153 45.08        10.8 0.72            107            396 217 
 SJC  HZ EP   4   2152 55.90                             106   -2.10 0  413 327 
 SJC  HN ES   4   2153 36.50                             106   -5.27 0  413 327 
 SJC  HZ I        2153 41.41         3.9 0.46            107            413 327 
                                                                                
