 2010  626 2042 26.7 L   6.937 -72.812107.3  RSN  4 0.3 1.3LRSN                1
 GAP=194        0.65       4.0     7.6 12.6 -0.1181E+02 -0.5484E+02  0.1649E+02E
 Epicentro: GUACA - SANTANDER                                                  3
 ACTION:UP  10-08-24 10:13 OP:vdl  STATUS:               ID:20100626204226 L   I
 2010-06-26-2039-55S.COL___118                                                 6
 STAT SP IPHASW D HRMM SECON CODA AMPLIT PERI AZIMU VELO SNR AR TRES W  DIS CAZ7
 GUE  SZ IP       2042 46.52                             134     0.010  100 353 
 GUE  SZ ES   1   2043  1.68                             134    -0.4 7  100 353 
 BRR  HZ EP   1   2042 45.99                             133    -0.3 7  101 281 
 BRR  HE ES   1   2043  1.75                             133     0.2 7  101 281 
 BRR  HZ I        2043  3.14         9.3 0.20                           101 281 
 GRA  SZ EP       2042 47.12                             132     0.310  105   0 
 RUS  HZ EP   1   2042 48.35                             128    -0.2 7  119 195 
 RUS  HN ES   2   2043  5.93                             128     0.2 5  119 195 
 RUS  HZ I        2043 10.86         1.7 0.58                           119 195 
                                                                                
