 2017  226 2228 33.4 L   6.797 -73.159149.4  RSN  5 0.2 1.5LRSN                1
 GAP=135        0.52       3.1     2.8  4.3 -0.1834E+01  0.3348E+01 -0.1115E+01E
 Epicentro: LOS SANTOS - SANTANDER                                             3
 ACTION:UPD 17-05-24 15:41 OP:jn   STATUS:               ID:20170226222833 L   I
 OLDACT:UP  17-02-27 04:07 OP:e    STATUS:               ID:20170226222745     3
 OLDACT:REG 17-02-27 02:53 OP:and  STATUS:               ID:20170226222745     3
 2017-02-26-2228-00M.COL___378                                                 6
 STAT SP IPHASW D HRMM SECON CODA AMPLIT PERI AZIMU VELO AIN AR TRES W  DIS CAZ7
 BAR2 EZ EP       2228 53.34                             171   -0.0810 22.8 187 
 BAR2 EZ ES       2229  9.11                             171    0.0510 22.8 187 
 BAR2 EZ I        2229 10.30         5.5 0.10            171           22.8 187 
 PAM  EZ IP     D 2228 56.25                             151    0.2210 78.5  40 
 PAM  EN ES       2229 13.49                             151   -0.2210 78.5  40 
 PAM  EZ I        2229 15.74         3.6 0.19            154           78.5  40 
 RUS  HZ EP       2228 57.66                             144    0.2110  100 175 
 RUS  HN ES       2229 16.35                             144    0.1010  100 175 
 RUS  HZ I        2229 18.15         2.6 0.34            148            100 175 
 PTB  HZ EP       2229  0.23                             133   -0.26 9  146 259 
 PTB  HN ES       2229 21.51                             133   -0.15 9  146 259 
 PTB  HZ I        2229 26.63         5.2 0.36            133            146 259 
 ZAR  HN ES   2   2229 31.76                             123    0.44 4  203 292 
 ZAR  HZ I        2229 37.03         4.5 0.11            123            203 292 
                                                                                
