 2017  726 2244 46.1 L   6.560 -73.518116.3  RSN 10 0.4 1.8LRSN                1
 GAP= 66        0.98       3.3     3.4  5.8 -0.2325E+01  0.3705E+00  0.4326E+01E
 Epicentro: EL CARMEN - SANTANDER                                              3
 ACTION:UPD 17-08-30 15:37 OP:rebc STATUS:               ID:20170726224446 L   I
 OLDACT:UP  17-07-27 05:01 OP:dnl  STATUS:               ID:20170726223739     3
 OLDACT:UP  17-07-27 05:01 OP:dnl  STATUS:               ID:20170726223739     3
 OLDACT:REG 17-07-27 03:49 OP:dnl  STATUS:               ID:20170726223739     3
 2017-07-26-2238-00M.COL___380                                                 6
 STAT SP IPHASW D HRMM SECON CODA AMPLIT PERI AZIMU VELO AIN AR TRES W  DIS CAZ7
 BAR2 EZ IP     D 2245  2.77                             161    0.0810 37.3  84 
 BAR2 EZ ES       2245 15.87                             161    0.2710 37.3  84 
 BRR  HZ EP       2245  3.62                             149   -0.1110 64.2 341 
 BRR  HE ES       2245 17.73                             149    0.2710 64.2 341 
 BRR  HZ I        2245 19.11        17.8 0.34            147           64.2 341 
 RUS  HZ EP       2245  6.07                             140   -0.0410 88.1 147 
 RUS  HN ES       2245 21.67                             140   -0.0210 88.1 147 
 RUS  HZ I        2245 22.83        10.0 0.38            141           88.1 147 
 PTB  HZ EP   9   2245  5.61                             135   -1.13 0  104 269 
 PTB  HE ES       2245 20.88                             134   -0.8010  104 269 
 PTB  HZ I        2245 21.48        11.7 0.26            134            104 269 
 SPBC HZ EP       2245  7.84                             131   -0.2310  118 211 
 SPBC HN ES       2245 24.51                             131   -0.6710  118 211 
 SPBC HZ I        2245 29.86        16.9 0.28            131            118 211 
 PAM  EZ EP       2245  9.47                             129    0.1810  125  46 
 PAM  EN ES       2245 26.87                             129   -0.4810  125  46 
 PAM  EZ I        2245 31.07         5.1 0.18            129            125  46 
 YPLC HZ EP   2   2245 14.34                             118    0.02 4  180 136 
 YPLC HN ES       2245 36.71                             118    0.40 9  180 136 
 YPLC HZ I        2245 38.82        17.2 0.40            118            180 136 
 ZAR  HZ EP   9   2245 16.47                             118    2.20 0  180 305 
 ZAR  HN ES       2245 38.64                             118    0.22 9  180 305 
 ZAR  HZ I        2245 43.66         7.7 0.52            117            180 305 
 NOR  HZ EP       2245 14.57                             117   -0.34 9  186 234 
 NOR  HN ES       2245 38.03                             117    0.68 9  186 234 
 NOR  HZ I        2245 38.72         5.7 0.26            117            186 234 
 GUY2CHZ EP   2   2245 23.54                             110    0.66 4  252 234 
 GUY2CHN ES   4   2245 53.46                             110    1.93 0  252 234 
 GUY2CHZ I        2246  1.22         2.6 0.48                           252 234 
                                                                                
