 2015  126 2329 43.2 L   6.854 -73.138142.2  RSN 16 0.5 2.4LRSN                1
 GAP=135        1.10       2.7     3.9  5.3 -0.2155E+01  0.6587E+01  0.1238E+01E
 Epicentro: LOS SANTOS - SANTANDER                                             3
 ACTION:UPD 15-03-02 15:42 OP:nd   STATUS:               ID:20150126232943 L   I
 OLDACT:REG 15-01-27 04:25 OP:carl STATUS:               ID:20150126232748     3
 2015-01-26-2327-48M.COL___277                                                 6
 STAT SP IPHASW D HRMM SECON CODA AMPLIT PERI AZIMU VELO AIN AR TRES W  DIS CAZ7
 BAR2 EZ EP       2330  2.27                             168   -0.2710 29.4 190 
 BAR2 EZ ES       2330 17.73                             168    0.1110 29.4 190 
 BAR2 EZ I        2330 19.84        30.9 0.30            166           29.4 190 
 BRR  HZ EP       2330  4.41                             153    0.5610 69.3 294 
 BRR  HN ES       2330 20.41                             153    0.4510 69.3 294 
 BRR  HZ I        2330 27.28        39.0 0.14            148           69.3 294 
 PAM  SZ IP     C 2330  5.24                             152    0.5110 72.3  42 
 PAM  SN ES       2330 21.92                             152    0.3910 72.3  42 
 PAM  SZ I        2330 24.38        30.1 0.48            154           72.3  42 
 RUS  HZ EP       2330  6.70                             141   -0.3410  107 177 
 RUS  HN ES       2330 25.49                             141   -0.1510  107 177 
 PTB  HZ EP       2330  9.27                             131   -0.79 9  150 257 
 PTB  HE ES       2330 30.64                             131   -0.38 9  150 257 
 PTB  HZ I        2330 32.74        57.1 0.12            128            150 257 
 OCA  HZ EP       2330 10.60                             130   -0.08 9  154 353 
 OCA  HN ES       2330 31.98                             130   -0.13 9  154 353 
 OCA  HZ I        2330 35.54        35.2 0.18            129            154 353 
 SPBC HZ EP       2330 11.49                             127   -0.43 9  168 218 
 SPBC HN ES       2330 34.08                             127   -0.25 9  168 218 
 SPBC HZ I        2330 38.69        30.2 0.16            125            168 218 
 ZAR  HZ EP       2330 15.55                             122    0.29 9  203 290 
 ZAR  HN ES       2330 40.23                             122   -0.05 9  203 290 
 ZAR  HZ I        2330 46.03        40.9 0.26            120            203 290 
 NOR  HZ EP       2330 19.02                             117   -0.15 8  239 233 
 NOR  HN ES       2330 46.83                             117   -0.41 8  239 233 
 NOR  HZ I        2330 48.64        14.7 0.20            116            239 233 
 SML  HZ EP       2330 18.96                             117   -0.11 8  239 335 
 SML  HN ES       2330 45.94                             117   -1.11 8  239 335 
 SML  HZ I        2330 49.36        61.9 0.10            116            239 335 
 CHI  HZ EP       2330 21.13                             116   -0.23 8  255 195 
 CHI  HN ES       2330 50.49                             116   -0.63 8  255 195 
 CHI  HZ I        2330 57.54         9.5 0.46            115            255 195 
 ROSC BZ EP   4   2330 22.86                             115    1.13 0  258 211 
 ROSC BN ES   4   2330 53.70                             115    1.90 0  258 211 
 HEL  HZ EP       2330 24.02                             114    0.53 8  274 255 
 HEL  HE ES       2330 55.02                             114    0.10 8  274 255 
 HEL  HZ I        2331  2.13        19.7 0.30            112            274 255 
 GUY2CHZ EP       2330 27.46                             111    0.35 7  305 234 
 GUY2CHN ES       2331  1.70                             111    0.33 7  305 234 
 GUY2CHZ I        2331  6.98        10.1 0.40                           305 234 
 RREF HZ EP       2330 30.71                             110    1.00 7  326 229 
 RREF HN ES       2331  7.12                             110    1.13 7  326 229 
 RREF HZ I        2331 15.07        10.9 0.34            109            326 229 
 TOL  SZ EP       2330 32.49                             108    0.62 6  348 224 
 TOL  SN ES       2331  9.90                             108    0.06 6  348 224 
 TOL  SZ I        2331 15.94         8.6 0.52            107            348 224 
 MON  HZ EP   4   2330 29.95                             108   -1.76 0  351 308 
 MON  HN ES   4   2331  8.12                             108   -1.42 0  351 308 
 MON  HZ I        2331 22.55         6.9 0.36            107            351 308 
 ANIL HN ES   4   2331 14.49                             107    1.88 0  362 224 
                                                                                
