 2016 1026 2226 41.5 L   6.785 -73.100149.6  RSN  6 0.2 1.6LRSN                1
 GAP=143        0.49       2.2     3.4  4.1 -0.2705E+01 -0.1657E+01  0.3215E+01E
 Epicentro: LOS SANTOS - SANTANDER                                             3
 ACTION:UPD 16-11-09 19:23 OP:rebc STATUS:               ID:20161026222641 L   I
 OLDACT:DUP 16-10-27 04:45 OP:ar   STATUS:               ID:20161026221748d    3
 OLDACT:REG 16-10-27 02:53 OP:ar   STATUS:               ID:20161026221747     3
 2016-10-26-2218-00M.COL___358                                                 6
 STAT SP IPHASW D HRMM SECON CODA AMPLIT PERI AZIMU VELO AIN AR TRES W  DIS CAZ7
 PAM  EZ EP       2227  4.35                             152    0.2810 75.6  36 
 PAM  EN ES       2227 21.50                             152   -0.1410 75.6  36 
 PAM  EZ I        2227 24.05         3.6 0.40            154           75.6  36 
 BRR  HZ EP       2227  3.18                             151   -0.2310 76.4 298 
 BRR  HE ES       2227 20.59                             151    0.1310 76.4 298 
 RUS  HZ EP       2227  5.31                             145   -0.2310 98.7 179 
 RUS  HE ES       2227 24.35                             145    0.0910 98.7 179 
 RUS  HZ I        2227 25.08         4.6 0.28            145           98.7 179 
 PTB  HZ EP   9   2227  7.68                             132   -1.57 0  152 260 
 PTB  HN ES   2   2227 28.99                              47   -0.30 5  152 260 
 PTB  HZ I        2227 31.08         4.4 0.08            133            152 260 
 SPBC HZ EP   4   2227 12.59                             129    2.07 0  165 221 
 SPBC HN ES       2227 33.13                             129    0.00 9  165 221 
 SPBC HZ I        2227 36.72         8.9 0.20            130            165 221 
 CHI  HZ EP       2227 19.64                             118    0.21 8  248 196 
 CHI  HN ES       2227 48.93                             118   -0.06 8  248 196 
 CHI  HZ I        2227 52.11         5.3 0.82            119            248 196 
                                                                                
