 2010  326 2343  3.2 L   6.825 -72.972146.4  RSN  5 0.3 1.7LRSN                1
 GAP=256        0.59       4.8     7.8  6.3  0.1249E+02  0.7257E+01  0.6340E+01E
 Epicentro: CEPITA - SANTANDER                                                 3
 ACTION:UP  10-08-24 09:56 OP:vdl  STATUS:               ID:20100326234303 L   I
 2010-03-26-2340-15S.COL___098                                                 6
 STAT SP IPHASW D HRMM SECON CODA AMPLIT PERI AZIMU VELO SNR AR TRES W  DIS CAZ7
 BAR2 SZ EP   1   2343 23.29                             166     0.1 7   35 222 
 BAR2 SZ ES   1   2343 38.62                             166    -0.1 7   35 222 
 BRR  HZ IP       2343 25.33                             148    -0.110   88 291 
 BRR  HZ I        2343 25.73        15.7 0.14                            88 291 
 BRR  HE ES   1   2343 42.61                             148    -0.1 7   88 291 
 RUS  HZ EP   2   2343 27.34                             143     0.1 5  104 187 
 RUS  HZ I        2343 29.01         3.3 0.33                           104 187 
 RUS  HN ES   2   2343 46.73                             143     0.8 5  104 187 
 CHI  HZ EP   2   2343 41.93                             116     0.1 4  257 199 
 CHI  HN ES   1   2344 11.38                             116    -0.6 6  257 199 
 CHI  HZ I        2344 13.60         2.5 0.32                           257 199 
 HEL  HZ EP   2   2343 45.71                             113     0.2 4  291 256 
 HEL  HE ES   2   2344 19.01                             113     0.4 4  291 256 
 HEL  HZ I        2344 22.31         4.5 0.19                           291 256 
                                                                                
