 2011  126 2252 58.2 L   6.781 -73.129140.8  RSN 13 0.5 2.1LRSN                1
 GAP=104        0.85       3.4     6.0  5.6 -0.7780E+01  0.6368E+01  0.2041E+00E
 Epicentro: LOS SANTOS - SANTANDER                                             3
 ACTION:UP  11-02-08 08:42 OP:pat  STATUS:               ID:20110126225258 L   I
 2011-01-26-2252-02S.COL___138                                                 6
 STAT SP IPHASW D HRMM SECON CODA AMPLIT PERI AZIMU VELO SNR AR TRES W  DIS CAZ7
 BTL  SZ EP   1   2253 17.65                             171     0.4 8   22 315 
 BTL  SZ ES   1   2253 32.40                             171     0.3 8   22 315 
 BAR2 SZ EP   1   2253 17.37                             171     0.1 8   22 196 
 BAR2 SZ ES   1   2253 31.90                             171    -0.2 8   22 196 
 GIR2 SZ EP   1   2253 17.40                             166     0.0 8   34 348 
 RUS  HZ EP   1   2253 21.32                             143     0.0 8   98 177 
 RUS  HN ES   1   2253 39.12                             143    -0.2 8   98 177 
 RUS  HZ I        2253 41.05        18.6 0.42                            98 177 
 GRA  SZ IP       2253 23.36                             135     0.210  127  16 
 GRA  SZ ES   1   2253 42.58                             135     0.0 7  127  16 
 GRA  SZ I        2253 43.82        26.5 0.25                           127  16 
 OCA  SZ EP   1   2253 26.42                             128     0.0 7  163 353 
 OCA  SZ ES   1   2253 47.69                             128    -0.6 7  163 353 
 OCA  SZ I        2253 51.13        37.8 0.35                           163 353 
 YOP  SZ EP   1   2253 28.05                             125     0.4 7  176 154 
 YOP  SZ I        2253 28.76        11.2 0.13                           176 154 
 NOR  SZ EP   1   2253 33.27                             117    -0.5 6  235 235 
 NOR  SN ES   1   2254  0.86                             117    -0.6 6  235 235 
 CHI  HZ EP   1   2253 35.60                             116     0.1 6  247 196 
 CHI  HN ES   2   2254  3.60                             116    -1.0 4  247 196 
 CHI  HZ I        2254 12.20         3.2 0.47                           247 196 
 HEL  HZ EP   2   2253 38.98                             114     0.6 4  273 256 
 HEL  HZ I        2254 14.41         5.1 0.62                           273 256 
 RREF HZ EP   1   2253 45.31                             110     1.1 5  322 230 
 RREF HN ES   2   2254 20.50                             110     0.5 4  322 230 
 RREF HZ I        2254 29.44         6.4 0.26                           322 230 
 DBB  SZ EP   1   2253 45.46                             108    -0.3 5  342 275 
 SDV  BZ EP   1   2253 47.15                             107    -0.9 5  360  50 
                                                                                
