 2013  526 2214 19.9 L   6.861 -73.326127.3  RSN  9 0.4 1.8LRSN                1
 GAP= 99        0.78       3.0     3.5  5.8  0.4561E+00  0.7049E+01 -0.2345E+01E
 Epicentro: BETULIA - SANTANDER                                                3
 ACTION:UPD 13-06-20 09:54 OP:ep   STATUS:               ID:20130526221419 L   I
 2013-05-26-2210-00M.COL___261                                                 6
 STAT SP IPHASW D HRMM SECON CODA AMPLIT PERI AZIMU VELO AIN AR TRES W  DIS CAZ7
 GIR2 SZ EP       2214 37.48                             167    0.1810 28.2  31 
 GIR2 SZ ES   1   2214 50.25                             167   -0.62 7 28.2  31 
 GIR2 SZ I        2214 50.91        12.2 0.54            165           28.2  31 
 BAR2 SZ EP       2214 37.93                             164    0.3110 33.7 152 
 BAR2 SZ ES   1   2214 51.61                             164    0.19 7 33.7 152 
 BAR2 SZ I        2214 52.39        40.5 0.26            167           33.7 152 
 BRR  HZ EP       2214 38.28                             157    0.3410 50.6 303 
 BRR  HE ES   1   2214 52.46                             157    0.45 7 50.6 303 
 BRR  HE I        2214 52.89        23.7 0.20            156           50.6 303 
 PAM  SN ES       2214 57.10                             144   -0.1210 87.2  53 
 PAM  SZ I        2215  1.07         9.6 0.38            143           87.2  53 
 RUS  HZ EP   1   2214 42.80                             137    0.11 7  110 166 
 RUS  HE ES   1   2215  0.32                             137   -0.14 7  110 166 
 RUS  HZ I        2215  1.61         2.1 0.22            139            110 166 
 PTB  HZ EP       2214 43.45                             131   -0.3010  130 254 
 PTB  HE ES   1   2215  1.57                             131   -0.78 7  130 254 
 PTB  HZ I        2215  5.11         7.2 0.34            133            130 254 
 OCA  HZ EP   1   2214 45.92                             127   -0.16 7  152   0 
 OCA  HN ES   1   2215  6.26                             127   -0.22 7  152   0 
 OCA  HZ I        2215 11.45         8.2 0.30            126            152   0 
 ZAR  HN ES       2215 12.09                             121    0.42 9  183 293 
 SML  HZ EP   1   2214 53.55                             115   -0.47 6  230 339 
 SML  HN ES       2215 20.63                             115    0.01 8  230 339 
 SML  HZ I        2215 24.75        13.6 0.10            115            230 339 
                                                                                
