 2010  226 2022 53.7 L   6.842 -73.028147.7  RSN  4 0.2 1.7LRSN                1
 GAP=252        0.38       4.5     7.7  5.1  0.1444E+02  0.3948E+01  0.5687E+01E
 Epicentro: CEPITA - SANTANDER                                                 3
 ACTION:UP  10-08-24 09:51 OP:vdl  STATUS:               ID:20100226202253 L   I
 2010-02-26-2020-00S.COL___101                                                 6
 STAT SP IPHASW D HRMM SECON CODA AMPLIT PERI AZIMU VELO SNR AR TRES W  DIS CAZ7
 BAR2 SZ EP   1   2023 13.86                             167     0.0 7   33 212 
 BAR2 SZ ES   2   2023 29.64                             167     0.2 5   33 212 
 BRR  HZ EP   1   2023 15.54                             150    -0.1 7   81 291 
 BRR  HN ES   2   2023 32.85                             150     0.1 5   81 291 
 BRR  HZ I        2023 41.11        14.4 0.38                            81 291 
 RUS  BZ EP   1   2023 18.18                             143     0.2 7  105 183 
 RUS  BN ES   2   2023 36.65                             143    -0.3 5  105 183 
 RUS  BZ I        2023 38.60         4.3 0.32                           105 183 
 PRA  HZ EP   1   2023 48.34                             106    -0.2 4  403 211 
 PRA  HN ES   2   2024 31.53                             106     0.2 3  403 211 
 PRA  HZ I        2024 35.22         1.8 0.41                           403 211 
                                                                                
