 2014  926 2353  3.2 L   6.808 -73.131144.6  RSN  9 0.5 2.0LRSN                1
 GAP=138        1.30       4.1     5.7  7.5  0.7858E+00  0.1235E+02 -0.2479E+00E
 Epicentro: LOS SANTOS - SANTANDER                                             3
 ACTION:UPD 14-10-03 23:08 OP:nd   STATUS:               ID:20140926235303 L   I
 OLDACT:REG 14-09-27 09:38 OP:carl STATUS:               ID:20140926234819     3
 2014-09-26-2348-19M.COL___298                                                 6
 STAT SP IPHASW D HRMM SECON CODA AMPLIT PERI AZIMU VELO AIN AR TRES W  DIS CAZ7
 BAR2 SZ EP       2353 22.80                             170    0.1010 24.6 193 
 BAR2 SZ ES       2353 37.58                             170   -0.3410 24.6 193 
 BAR2 SZ I        2353 39.01        40.1 0.24            170           24.6 193 
 BRR  HZ EP       2353 24.96                             152    0.7010 72.2 297 
 BRR  HN ES       2353 41.39                             152    0.6910 72.2 297 
 BRR  HZ I        2353 42.88        12.3 0.16            150           72.2 297 
 PAM  SZ EP       2353 25.87                             151    0.7010 75.6  39 
 PAM  SN ES       2353 42.44                             151    0.1210 75.6  39 
 PAM  SZ I        2353 44.28         7.4 0.18            153           75.6  39 
 RUS  HZ EP       2353 26.93                             143    0.0510  101 177 
 RUS  HN ES       2353 44.79                             143   -0.5710  101 177 
 RUS  HZ I        2353 46.20         7.0 0.26            145            101 177 
 PTB  HZ EP       2353 29.73                             131   -0.49 9  150 259 
 PTB  HE ES       2353 50.91                             131   -0.40 9  150 259 
 PTB  HZ I        2353 53.46         9.2 0.14            131            150 259 
 OCA  HN ES       2353 52.83                             129   -0.46 9  160 353 
 OCA  HZ I        2353 56.26        12.0 0.36            130            160 353 
 ZAR  HZ EP       2353 35.95                             122    0.27 8  205 292 
 ZAR  HN ES       2354  1.64                             122    0.62 8  205 292 
 ZAR  HZ I        2354  7.83         9.8 0.36            122            205 292 
 SML  HZ EP       2353 38.78                             117   -0.95 8  244 335 
 SML  HN ES       2354  7.41                             117   -0.82 8  244 335 
 SML  HZ I        2354 11.33        20.4 0.10            117            244 335 
 PRA  HZ EP       2353 57.51                             106    0.66 6  394 210 
 PRA  HN ES       2354 38.58                             106   -0.14 6  394 210 
 PRA  HZ I        2354 44.84         3.2 0.34            107            394 210 
                                                                                
