 2016 1026 2345 40.1 L   6.808 -73.140149.2  RSN 22 0.6 2.9LRSN                1
 GAP= 73        1.25       4.1     3.5  5.7 -0.2013E+01  0.4796E+01  0.5133E+01E
 Epicentro: LOS SANTOS - SANTANDER                                             3
 ACTION:UPD 16-11-09 19:23 OP:rebc STATUS:               ID:20161026234540 L   I
 OLDACT:UP  16-10-27 05:43 OP:ar   STATUS:               ID:20161026233748     3
 OLDACT:UP  16-10-27 05:41 OP:ar   STATUS:               ID:20161026233748     3
 OLDACT:UP  16-10-27 05:38 OP:ar   STATUS:               ID:20161026233748     3
 OLDACT:UP  16-10-27 05:35 OP:ar   STATUS:               ID:20161026233748     3
 OLDACT:UP  16-10-27 05:33 OP:ar   STATUS:               ID:20161026233748     3
 OLDACT:REG 16-10-27 03:00 OP:ar   STATUS:               ID:20161026233748     3
 2016-10-26-2338-00M.COL___355                                                 6
 STAT SP IPHASW D HRMM SECON CODA AMPLIT PERI AZIMU VELO AIN AR TRES W  DIS CAZ7
 BAR2 EZ EP       2346  0.01                             170   -0.1510 24.3 191 
 BAR2 EZ ES       2346 14.98                             170   -0.8310 24.3 191 
 BAR2 EZ I        2346 16.22       258.6 0.26            168           24.3 191 
 BRR  HZ IP     C 2346  1.81                             153    0.1910 71.3 298 
 BRR  HN ES       2346 19.08                             153    0.6710 71.3 298 
 BRR  HZ I        2346 22.12       144.4 0.42            153           71.3 298 
 PAM  EZ EP       2346  2.97                             151    0.3610 76.3  40 
 PAM  EN ES       2346 20.39                             151    0.2110 76.3  40 
 PAM  EZ I        2346 22.20       109.8 0.48            151           76.3  40 
 RUS  HZ EP       2346  4.01                             144   -0.2410  101 176 
 RUS  HN ES       2346 23.03                             144   -0.0610  101 176 
 RUS  HZ I        2346 23.65        92.8 0.30            141            101 176 
 PTB  HZ EP       2346  6.52                             133   -0.89 9  149 259 
 PTB  HN ES       2346 27.90                             133   -0.82 9  149 259 
 PTB  HZ I        2346 29.71        94.3 0.44            131            149 259 
 TAM  HZ IP     D 2346  8.45                             131    0.44 9  155 105 
 TAM  HZ I        2346 29.34        51.3 0.36            128            155 105 
 TAM  HN ES       2346 30.17                             131    0.38 9  155 105 
 SPBC HZ EP       2346  8.81                             130   -0.15 9  164 219 
 SPBC HN ES       2346 32.08                             130    0.60 9  164 219 
 SPBC HZ I        2346 35.38       162.9 0.22            127            164 219 
 NOR  HZ EP       2346 16.17                             119    0.04 8  236 234 
 NOR  HN ES       2346 43.59                             119   -0.65 8  236 234 
 NOR  HZ I        2346 53.36        51.7 0.44            117            236 234 
 CHI  HZ EP       2346 18.16                             118    0.07 8  250 195 
 CHI  HN ES       2346 47.52                             118   -0.22 8  250 195 
 CHI  HZ I        2346 52.46        52.4 0.42            115            250 195 
 ROSC BZ EP   4   2346 20.09                             117    1.57 0  254 211 
 ROSC BN ES   4   2346 51.23                             117    2.74 0  254 211 
 ROSC BZ I        2346 54.66       144.5 0.40            115            254 211 
 HEL  HZ EP       2346 21.15                             115    0.58 8  273 256 
 HEL  HN ES       2346 52.47                             115    0.33 8  273 256 
 HEL  HZ I        2347  0.28        35.8 0.26            114            273 256 
 GUY2CHZ EP       2346 24.60                             113    0.63 7  302 235 
 GUY2CHE ES   4   2347  1.05                             113    2.85 0  302 235 
 GUY2CHZ I        2347  6.20        43.5 0.32                           302 235 
 PTGC HZ IP     D 2346 23.18                             112   -1.00 7  309 159 
 PTGC HN ES   4   2346 56.87                             112   -1.69 0  309 159 
 PTGC HZ I        2346 59.30        34.6 0.34            110            309 159 
 ELA  HZ EP   4   2346 29.30                             111    2.09 0  330 229 
 ELA  HN ES   4   2347  5.93                             111    1.97 0  330 229 
 ELA  HZ I        2347 11.79        30.5 0.38            109            330 229 
 ANIL HZ EP   4   2346 32.25                             109    2.10 0  358 224 
 ANIL HN ES       2347 10.18                             109    0.98 6  358 224 
 ARGC HZ EP   4   2346 30.65                             109    0.85 0  359 340 
 ARGC HN ES   4   2347 12.03                             109    3.45 0  359 340 
 PRA  HZ EP       2346 33.78                             107   -0.08 6  393 210 
 PRA  HN ES       2347 15.61                             107   -0.19 6  393 210 
 PRA  HZ I        2347 22.45        42.5 0.22            105            393 210 
 ORTC HZ EP       2346 34.48                             107    0.22 6  397 216 
 ORTC HN ES   4   2347 17.91                             107    1.40 0  397 216 
 ORTC HZ I        2347 21.39        32.3 0.22            105            397 216 
 PAL  HZ EP       2346 35.64                             106    0.16 6  407 239 
 PAL  HN ES       2347 19.58                             106    0.90 6  407 239 
 PAL  HZ I        2347 25.37        10.0 0.34            105            407 239 
 SJC  HZ EP       2346 34.11                             106   -1.60 6  409 327 
 SJC  HN ES   4   2347 15.59                             106   -3.51 0  409 327 
 SJC  HZ I        2347 19.43        12.6 0.54            105            409 327 
 LCBC HZ EP   4   2346 34.54                             106   -2.63 0  422 303 
 LCBC HN ES       2347 22.33                             106    0.65 5  422 303 
 CRJC HZ EP   4   2346 40.39                             104   -2.18 0  467   3 
 CRJC HN ES   4   2347 27.60                             104   -3.71 0  467   3 
 CRJC HZ I        2347 31.07        15.9 0.40            103            467   3 
 URI  HZ EP   4   2346 50.61                             101   -2.44 0  556  13 
 URI  HE ES   4   2347 44.76                             101   -5.20 0  556  13 
 URI  HZ I        2347 51.37         3.3 0.32            100            556  13 
                                                                                
