 2012  126 2056 22.3 L   6.786 -73.072143.5  RSN 12 0.4 2.6LRSN                1
 GAP=147        0.71       3.1     4.2  5.1 -0.2206E+01  0.5529E+01  0.2037E+01E
 Epicentro: LOS SANTOS - SANTANDER                                             3
 ACTION:UP  12-02-03 08:21 OP:REBC STATUS:               ID:20120126205622 L   I
 2012-01-26-2050-00M.COL___188                                                 6
 STAT SP IPHASW D HRMM SECON CODA AMPLIT PERI AZIMU VELO SNR AR TRES W  DIS CAZ7
 BAR2 SZ EP       2056 41.64                             170     0.010   25 210 
 BAR2 SZ ES   1   2056 56.50                             170    -0.3 7   25 210 
 BAR2 SZ I        2056 57.65       106.3 0.27                            25 210 
 GIR2 SZ EP       2056 41.72                             166    -0.110   35 338 
 GIR2 SZ ES   2   2056 57.19                             166     0.2 5   35 338 
 PAM  SZ EP       2056 44.38                             151     0.310   74  34 
 PAM  SN ES   1   2057  1.12                             151     0.1 7   74  34 
 BRR  HZ IP     C 2056 43.41                             150    -0.310   79 297 
 BRR  HZ I        2056 43.67       180.5 0.17                            79 297 
 BRR  HN ES   1   2057  0.48                             150     0.1 7   79 297 
 RUS  HZ EP       2056 45.68                             144     0.010   99 181 
 RUS  HN ES   2   2057  4.17                             144     0.2 5   99 181 
 RUS  HZ I        2057  5.65        25.4 0.22                            99 181 
 PTB  HZ EP   2   2056 48.20                             130    -1.6 5  155 260 
 OCA  SZ EP   2   2056 50.93                             129     0.2 5  163 350 
 OCA  SZ ES   2   2057 13.21                             129     0.4 5  163 350 
 OCA  SZ I        2057 18.13        55.8 0.13                           163 350 
 ZAR  HZ EP   1   2056 55.54                             121     0.1 6  212 292 
 ZAR  HE ES   2   2057 21.04                             121    -0.3 4  212 292 
 ZAR  HZ I        2057 25.26        39.7 0.35                           212 292 
 NOR  SZ EP   2   2056 58.55                             117     0.0 4  240 236 
 NOR  SN ES   1   2057 26.78                             117     0.0 6  240 236 
 CHI  HZ EP   1   2057  0.08                             116     0.1 6  249 197 
 CHI  HE ES   1   2057 29.44                             116     0.1 6  249 197 
 CHI  HZ I        2057 38.17        10.1 0.51                           249 197 
 HEL  HZ EP   1   2057  3.83                             114     0.6 6  280 257 
 HEL  HN ES   2   2057 35.94                             114     0.8 4  280 257 
 HEL  HZ I        2057 40.61        12.2 0.53                           280 257 
 COD  HZ EP   2   2057 10.33                             108    -0.5 3  351 353 
 COD  HE ES   2   2057 48.29                             108    -0.4 3  351 353 
 COD  HZ I        2057 58.55        26.7 0.85                           351 353 
                                                                                
