 2015 1026 2325 31.7 L   6.805 -73.141146.9  RSN  9 0.3 1.7LRSN                1
 GAP=137        0.71       2.2     3.5  4.3  0.3823E+00  0.3225E+01  0.4330E+00E
 Epicentro: LOS SANTOS - SANTANDER                                             3
 ACTION:UPD 15-12-22 20:43 OP:cam  STATUS:               ID:20151026232531 L   I
 OLDACT:REG 15-10-27 03:59 OP:drio STATUS:               ID:20151026231749     3
 2015-10-26-2317-49M.COL___313                                                 6
 STAT SP IPHASW D HRMM SECON CODA AMPLIT PERI AZIMU VELO AIN AR TRES W  DIS CAZ7
 BAR2 EZ EP       2325 51.40                             170   -0.0410 24.0 191 
 BAR2 EZ ES       2326  6.46                             170   -0.4010 24.0 191 
 BAR2 EZ I        2326  7.39         9.6 0.30            170           24.0 191 
 BRR  HZ EP       2325 53.15                             153    0.2110 71.4 298 
 BRR  HN ES       2326 10.16                             153    0.6210 71.4 298 
 PAM  EZ EP       2325 54.22                             151    0.2710 76.6  39 
 PAM  EE ES       2326 11.40                             151    0.0710 76.6  39 
 PAM  EZ I        2326 14.14         5.1 0.42            153           76.6  39 
 RUS  HZ EP       2325 55.53                             144   -0.0310  101 176 
 RUS  HN ES       2326 13.93                             144   -0.2710  101 176 
 RUS  HZ I        2326 15.07         5.8 0.24            144            101 176 
 SPBC HZ EP       2326  0.34                             129    0.02 9  164 219 
 SPBC HE ES       2326 22.62                             129   -0.05 9  164 219 
 SPBC HZ I        2326 29.37         8.3 0.20            129            164 219 
 ZAR  HE ES       2326 29.35                             123   -0.25 9  204 292 
 SML  HZ EP       2326  7.93                             118   -0.39 8  243 335 
 SML  HN ES       2326 36.62                             118   -0.29 8  243 335 
 SML  HZ I        2326 41.84         6.5 0.24            118            243 335 
 CHI  HZ EP       2326  9.66                             117    0.16 8  249 195 
 CHI  HE ES       2326 39.22                             117    0.21 8  249 195 
 CHI  HZ I        2326 42.17         2.9 0.32            118            249 195 
 GUY2CHZ EP   4   2326 16.54                             112    1.13 0  302 235 
 GUY2CHN ES   4   2326 46.80                             112   -2.73 0  302 235 
 GUY2CHZ I        2326 59.15         1.8 0.24                           302 235 
                                                                                
