 2012  926 2130 46.0 L   6.761 -73.108139.9  RSN  4 0.1 1.6LRSN                1
 GAP=143        0.41       2.8     4.0  5.2  0.3462E+00  0.6629E+00  0.1500E+01E
 Epicentro: LOS SANTOS - SANTANDER                                             3
 ACTION:UPD 12-10-22 14:21 OP:ep   STATUS:               ID:20120926213046 L   I
 2012-09-26-2130-40M.COL___221                                                 6
 STAT SP IPHASW D HRMM SECON CODA AMPLIT PERI AZIMU VELO AIN AR TRES W  DIS CAZ7
 BAR2 SZ EP   1   2131  5.03                             171    0.19 7 20.3 204 
 BAR2 SZ I        2131  5.33        12.0 0.09                          20.3 204 
 BRR  HZ EP       2131  6.63                             150   -0.2010 76.9 300 
 BRR  HE ES   1   2131 23.27                             150    0.17 7 76.9 300 
 BRR  HZ I        2131 48.88        19.8 0.66                          76.9 300 
 PAM  SZ EP   1   2131  7.74                             149    0.12 7 78.3  35 
 PAM  SN ES   1   2131 24.42                             149   -0.09 7 78.3  35 
 PAM  SZ I        2131 27.27         2.9 0.33                          78.3  35 
 RUS  HZ EP   1   2131  8.90                             144    0.08 7 96.0 178 
 RUS  HE ES   1   2131 26.53                             144   -0.11 7 96.0 178 
                                                                                
