 2010  426 2358 55.1 L   6.824 -73.056150.0  RSN 11 0.6 3.6LRSN                1
 GAP=148        1.31       5.8     7.5  9.6 -0.2430E+02 -0.1836E+02  0.2225E+02E
 Epicentro: LOS SANTOS - SANTANDER                                             3
 ACTION:UPD 10-08-24 10:01 OP:vdl  STATUS:               ID:20100426235901 L   I
 2010-04-26-2357-34S.COL___104                                                 6
 STAT SP IPHASW D HRMM SECON CODA AMPLIT PERI AZIMU VELO AIN AR TRES W  DIS CAZ7
 BAR2 SZ IP       2359 15.49                             168     0.110   29 209 
 BAR2 SZ ES   2   2359 30.54                             168    -0.7 5   29 209 
 BRR  HZ EP       2359 17.85                             151     0.710   79 293 
 BRR  HN ES       2359 34.76                             151     0.410   79 293 
 BRR  HZ I        2359 39.01       511.4 0.04                            79 293 
 OCA  SZ EP       2359 23.75                             131     0.1 9  159 350 
 OCA  SZ ES   1   2359 45.60                             131    -0.3 7  159 350 
 OCA  SZ I        2359 48.96       911.4 0.75                           159 350 
 CHI  HZ EP       2359 33.83                             118     0.2 8  254 197 
 CHI  HN ES   2   24 0  3.48                             118    -0.2 4  254 197 
 CHI  HZ I        24 0 10.37       168.2 0.19                           254 197 
 ROSC BZ EP       2359 35.29                             117     1.0 8  260 213 
 ROSC BE ES       24 0  4.50                             117    -0.3 8  260 213 
 ROSC BZ I        24 0 12.34       215.9 0.70                           260 213 
 HEL  HZ EP       2359 36.35                             115    -0.3 7  282 256 
 HEL  HN ES   1   24 0  8.20                             115    -0.9 6  282 256 
 HEL  HZ I        24 0 15.35       163.4 0.31                           282 256 
 RREF BZ EP   2   2359 43.72                             111     1.2 3  331 230 
 RREF BN ES       24 0 18.59                             111    -0.9 7  331 230 
 RREF BZ I        24 0 29.66       226.1 0.08                           331 230 
 DBB  SZ EP       2359 43.36                             110    -0.5 6  349 274 
 SDV  BZ EP   1   2359 44.86                             110     0.6 5  351  49 
 SDV  BZ I        2359 45.94       116.5 0.03                           351  49 
 SDV  BN ES       24 0 21.39                             110    -1.2 6  351  49 
 TOL  SZ EP       2359 45.09                             110     0.5 6  352 225 
 PRA  HZ EP       2359 49.14                             107    -0.5 6  399 211 
 PRA  HE ES   1   24 0 31.82                             107    -0.3 4  399 211 
 PRA  HZ I        24 0 36.18       220.1 0.29                           399 211 
                                                                                
