 2012  726 2211  8.2 L   6.756 -73.133146.0  RSN  6 0.3 1.7LRSN                1
 GAP=140        0.87       6.8     6.6  8.9  0.2392E+02 -0.8850E+00 -0.1697E+02E
 Epicentro: LOS SANTOS - SANTANDER                                             3
 ACTION:UPD 12-08-14 11:45 OP:ep   STATUS:               ID:20120726221108 L   I
 2012-07-26-2210-00M.COL___215                                                 6
 STAT SP IPHASW D HRMM SECON CODA AMPLIT PERI AZIMU VELO AIN AR TRES W  DIS CAZ7
 BAR2 SZ EP   1   2211 27.37                             172    -0.4 7   19 197 
 BAR2 SZ ES   1   2211 42.41                             172    -0.6 7   19 197 
 BAR2 SZ I        2211 43.65        17.5 0.21            170             19 197 
 BRR  HZ EP   1   2211 29.81                             151     0.3 7   75 301 
 BRR  HN ES   1   2211 46.54                             151     0.3 7   75 301 
 BRR  HZ I        2211 48.15        14.2 0.18            150             75 301 
 PAM  SZ EP   1   2211 30.70                             150     0.1 7   80  37 
 PAM  SZ I        2211 30.92        10.0 0.26            153             80  37 
 RUS  HZ EP   1   2211 31.84                             145     0.2 7   96 177 
 RUS  HN ES       2211 50.13                             145     0.310   96 177 
 RUS  HZ I        2211 51.09         8.3 0.36            145             96 177 
 PTB  HZ EP   1   2211 34.60                             132    -0.6 7  148 261 
 PTB  HN ES   2   2211 56.17                             132    -0.1 5  148 261 
 PTB  HZ I        2212  0.01         4.0 0.10            131            148 261 
 ZAR  HN ES       2212  6.68                             122     0.1 8  207 293 
