 2017  226 2300 39.3 L   6.750 -73.155146.4  RSN  4 0.2 0.9LRSN                1
 GAP=233        0.34       3.8     5.2  4.7  0.1431E+02  0.1999E+01  0.1480E+01E
 Epicentro: LOS SANTOS - SANTANDER                                             3
 ACTION:UPD 17-05-24 15:41 OP:jn   STATUS:               ID:20170226230039 L   I
 OLDACT:UP  17-02-27 04:23 OP:e    STATUS:               ID:20170226225744     3
 OLDACT:REG 17-02-27 02:57 OP:and  STATUS:               ID:20170226225744     3
 2017-02-26-2258-00M.COL___378                                                 6
 STAT SP IPHASW D HRMM SECON CODA AMPLIT PERI AZIMU VELO AIN AR TRES W  DIS CAZ7
 BAR2 EZ EP   2   23 0 58.68                             173   -0.25 5 17.7 190 
 BAR2 EZ ES   2   23 1 14.20                             173   -0.03 5 17.7 190 
 BAR2 EZ I        23 1 14.77         2.9 0.17            167           17.7 190 
 BRR  HZ EP   2   23 1  0.76                             152    0.11 5 73.1 303 
 BRR  HN ES       23 1 17.31                             152    0.0210 73.1 303 
 RUS  HZ EP   2   23 1  3.09                             145    0.34 5 95.1 175 
 RUS  HN ES       23 1 21.01                             145   -0.0210 95.1 175 
 RUS  HZ I        23 1 23.20         0.6 0.29            143           95.1 175 
 PTB  HZ EP   2   23 1  5.93                             133   -0.23 5  146 261 
 PTB  HN ES   2   23 1 27.16                             133    0.06 5  146 261 
 PTB  HZ I        23 1 29.51         1.4 0.12            131            146 261 
                                                                                
