 2010  826 2255  1.0 L   6.752 -73.082143.0  RSN 12 0.4 2.6LRSN                1
 GAP=166        0.93       3.7     5.9  5.4 -0.7209E+01  0.7993E+01  0.3110E+01E
 Epicentro: LOS SANTOS - SANTANDER                                             3
 ACTION:UP  10-09-07 10:58 OP:vdl  STATUS:               ID:20100826225501 L   I
 2010-08-26-2252-12S.COL___120                                                 6
 STAT SP IPHASW D HRMM SECON CODA AMPLIT PERI AZIMU VELO SNR AR TRES W  DIS CAZ7
 BAR2 SZ IP       2255 20.13                             171    -0.210   21 212 
 BAR2 SZ ES       2255 34.81                             171    -0.510   21 212 
 BAR2 SZ I        2255 36.74        69.6 0.05                            21 212 
 GIR2 SZ EP   1   2255 20.29                             164    -0.3 7   38 341 
 GIR2 SZ ES   1   2255 36.10                             164     0.2 7   38 341 
 BRR  HZ EP       2255 22.00                             149    -0.410   80 300 
 BRR  HN ES   1   2255 39.32                             149     0.2 7   80 300 
 BRR  HZ I        2255 42.74        79.9 0.08                            80 300 
 RUS  HZ IP     C 2255 24.09                             145     0.010   95 180 
 RUS  HN ES   1   2255 42.60                             145     0.5 7   95 180 
 RUS  HZ I        2255 44.52        37.4 0.41                            95 180 
 GRA  SZ EP       2255 26.94                             135     0.610  129  14 
 GRA  SZ ES   1   2255 46.56                             135     0.5 7  129  14 
 GRA  SZ I        2255 51.10        22.5 0.31                           129  14 
 OCA  SZ EP   1   2255 29.00                             128    -0.7 7  167 351 
 OCA  SZ ES   2   2255 52.29                             128     0.2 5  167 351 
 OCA  SZ I        2255 55.99        37.8 0.58                           167 351 
 CHI  HZ EP   1   2255 38.27                             117     0.0 6  245 197 
 CHI  HZ I        2255 39.08        17.5 0.13                           245 197 
 CHI  HE ES   2   2256  7.90                             117     0.6 4  245 197 
 HEL  HZ EP   1   2255 41.52                             114    -0.2 6  278 257 
 HEL  HE ES   1   2256 13.52                             114     0.0 6  278 257 
 HEL  HZ I        2256 20.57        24.9 0.32                           278 257 
 GUY  SZ EP   1   2255 45.33                             112     0.5 5  304 236 
 GUY  SE ES   1   2256 19.01                             112     0.0 5  304 236 
 GUY  SZ I        2256 28.01        76.4 0.36                           304 236 
 TOL  SZ EP   1   2255 49.92                             109     0.6 5  345 226 
 ANIL HZ EP   1   2255 51.24                                     0.4 5  359 226 
 ANIL HN ES   2   2256 30.19                                     0.4 3  359 226 
 PRA  HZ EP       2255 53.70                             106    -0.6 6  391 211 
 PRA  HE ES   1   2256 36.07                             106     0.2 4  391 211 
 PRA  HZ I        2256 42.34        15.6 0.37                           391 211 
                                                                                
