 2010  126 2332 25.1 L   6.812 -72.978138.0  RSN  8 0.5 1.8LRSN                1
 GAP=177        0.83       4.7    20.7  9.3 -0.5348E+02  0.2088E+02  0.1219E+01E
 Epicentro: CEPITA - SANTANDER                                                 3
 ACTION:UP  10-08-24 09:46 OP:vdl  STATUS:               ID:20100126233224 L   I
 2010-01-26-2319-50S.COL___089                                                 6
 STAT SP IPHASW D HRMM SECON CODA AMPLIT PERI AZIMU VELO SNR AR TRES W  DIS CAZ7
 BAR2 SZ ES   2   2332 58.21                             166    -0.6 5   33 223 
 GIR2 SZ EP   2   2332 43.40                             164    -0.6 5   38 321 
 RUS  HZ EP       2332 48.32                             142     0.110  102 187 
 RUS  HN ES   1   2333  6.78                             142     0.5 7  102 187 
 GUE  SZ EP       2332 48.80                             139     0.010  113   3 
 GUE  SZ ES   3   2333  6.58                             139    -0.7 2  113   3 
 GRA  SZ EP   3   2332 49.49                             137     0.3 2  120   9 
 GRA  SZ ES   2   2333  7.33                             137    -0.6 5  120   9 
 OCA  SZ ES   2   2333 16.08                             128     1.3 5  162 347 
 OCA  SZ I        2333 19.93        18.1 0.18                           162 347 
 CHI  HZ EP       2333  2.79                             115    -0.3 8  255 199 
 CHI  HN ES   2   2333 32.96                             115     0.2 4  255 199 
 CHI  HZ I        2333 39.67         2.0 0.11                           255 199 
 PRA  HE ES   2   2334  1.46                             105    -0.7 3  403 212 
                                                                                
