 2017  726 2128 57.6 L   6.759 -73.120140.8  RSN  9 0.4 1.9LRSN                1
 GAP=142        0.99       4.0     4.6  6.6 -0.4548E+01  0.1209E+02  0.2292E+01E
 Epicentro: LOS SANTOS - SANTANDER                                             3
 ACTION:UPD 17-08-30 15:37 OP:rebc STATUS:               ID:20170726212857 L   I
 OLDACT:UP  17-07-27 04:14 OP:dnl  STATUS:               ID:20170726212743     3
 OLDACT:REG 17-07-27 03:45 OP:dnl  STATUS:               ID:20170726212743     3
 2017-07-26-2128-00M.COL___386                                                 6
 STAT SP IPHASW D HRMM SECON CODA AMPLIT PERI AZIMU VELO AIN AR TRES W  DIS CAZ7
 BAR2 EZ EP       2129 16.40                             172   -0.1910 19.6 201 
 BAR2 EZ ES       2129 31.26                             172   -0.1210 19.6 201 
 BAR2 EZ I        2129 32.32        27.3 0.18            170           19.6 201 
 BRR  HZ EP       2129 18.46                             150   -0.0710 76.0 301 
 BRR  HN ES       2129 35.23                             150    0.4110 76.0 301 
 BRR  HZ I        2129 36.42        22.9 0.44            150           76.0 301 
 PAM  EZ IP     C 2129 19.56                             149    0.1310 79.3  36 
 PAM  EN ES       2129 36.35                             149   -0.0910 79.3  36 
 PAM  EZ I        2129 38.71        21.1 0.56            153           79.3  36 
 RUS  HZ EP   2   2129 21.37                             144    0.82 5 95.8 178 
 RUS  HN ES       2129 38.65                             144    0.2210 95.8 178 
 RUS  HZ I        2129 40.41         6.6 0.52            145           95.8 178 
 PTB  HZ EP       2129 23.42                             130   -0.96 9  150 261 
 PTB  HN ES   4   2129 43.45                             130   -1.80 0  150 261 
 PTB  HZ I        2129 47.59         9.1 0.18            131            150 261 
 SPBC HZ EP       2129 25.84                             128    0.25 9  161 221 
 SPBC HN ES       2129 46.73                             128   -0.67 9  161 221 
 SPBC HZ I        2129 54.54        11.3 0.34            129            161 221 
 ZAR  HZ EP   4   2129 28.10                             121   -2.12 0  208 293 
 ZAR  HE ES       2129 55.76                             121    0.13 8  208 293 
 ZAR  HZ I        2129 59.13         8.0 0.38            122            208 293 
 NOR  HZ EP       2129 33.30                             117    0.25 8  234 236 
 NOR  HN ES       2130  0.81                             117    0.14 8  234 236 
 NOR  HZ I        2130  2.47         6.4 0.38            119            234 236 
 GUY2CHZ EP   4   2129 42.97                             111    1.99 0  301 236 
 GUY2CHN ES       2130 15.46                             111    0.66 7  301 236 
 GUY2CHZ I        2130 21.98         5.1 0.24                           301 236 
                                                                                
