 2010  226 2339 47.7 L   6.871 -72.920141.3  RSN  4 0.1 1.8LRSN                1
 GAP=263        0.35       4.2     5.7  4.6  0.7477E+01  0.3024E+01  0.2809E+01E
 Epicentro: GUACA - SANTANDER                                                  3
 ACTION:UP  10-08-24 09:51 OP:vdl  STATUS:               ID:20100226233947 L   I
 2010-02-26-2340-00S.COL___095                                                 6
 STAT SP IPHASW D HRMM SECON CODA AMPLIT PERI AZIMU VELO SNR AR TRES W  DIS CAZ7
 BAR2 SZ EP   1   2340  7.36                             162     0.1 7   42 223 
 BAR2 SZ ES   2   2340 22.74                             162     0.1 5   42 223 
 BRR  HZ EP   1   2340  9.49                             145    -0.1 7   91 287 
 BRR  HZ I        2340 24.46        16.9 0.14                            91 287 
 BRR  HE ES   2   2340 26.80                             145     0.1 5   91 287 
 RUS  BZ EP   1   2340 11.57                             140    -0.1 7  110 190 
 RUS  BN ES   2   2340 30.38                             140     0.0 5  110 190 
 RUS  BZ I        2340 32.53         4.2 0.52                           110 190 
 RREF BZ EP   1   2340 36.71                             108     0.3 5  346 231 
 RREF BN ES   2   2341 14.19                             108    -0.2 3  346 231 
 RREF BZ I        2341 19.79         3.3 0.37                           346 231 
                                                                                
