 2013  826 2328 28.8 L   6.735 -73.203139.7  RSN  5 0.3 1.5LRSN 2.0WRSN        1
 SPEC AVERAGE  MO 12.1 ST  2.6 OM  1.2 f0 10.5 R0.1852 AL 0.00 WI 20.0 MW  2.0 3
 SPEC SD       MO  0.1 ST  2.9 OM  0.7 f0 5.36 R0.0742 AL      WI      MW  0.1 3
 GAP=226        0.88       7.6     6.0  8.3  0.2632E+02  0.5962E+01 -0.1439E+02E
 Epicentro: VILLANUEVA - SANTANDER                                             3
 SPEC BAR2SH Z MO 12.2 ST0.413 OM  0.7 f0 5.86 R0.2652 AL-0.00 WI 20.0 MW  2.1 3
 SPEC BAR2SH Z T232860 K 0.000 GD  140 VS 4.20 DE 3.20 Q0300.0 QA 0.60 VS 4.20 3
 SPEC BRR HH Z MO 12.2 ST0.797 OM  0.6 f0 7.61 R0.2042 AL-0.00 WI 20.0 MW  2.1 3
 SPEC BRR HH Z T2329 4 K 0.000 GD  156 VS 4.20 DE 3.20 Q0300.0 QA 0.60 VS 4.20 3
 SPEC PTB HH Z MO 12.0 ST  6.7 OM  0.3 f0 18.0 R0.0863 AL-0.00 WI 20.0 MW  1.9 3
 SPEC PTB HH Z T232912 K 0.000 GD  197 VS 4.20 DE 3.20 Q0300.0 QA 0.60 VS 4.20 3
 OLDACT:DUP 13-08-27 03:21 OP:stll STATUS:               ID:20130826231850d    3
 ACTION:UPD 14-01-14 09:07 OP:ep   STATUS:               ID:20130826232828 L   I
 OLDACT:UP  13-08-27 03:33 OP:stll STATUS:               ID:20130826231850d    3
 2013-08-26-2318-48M.COL___211                                                 6
 STAT SP IPHASW D HRMM SECON CODA AMPLIT PERI AZIMU VELO AIN AR TRES W  DIS CAZ7
 BAR2 SZ EP       2328 47.22                             173   -0.3510 15.9 172 
 BAR2 SZ ES       2329  1.98                             173   -0.2310 15.9 172 
 BAR2 SZ I        2329  3.01         6.5 0.26            172           15.9 172 
 BRR  HZ EP       2328 49.43                             152    0.2210 69.7 306 
 BRR  SZ I        2329  5.74         8.1 0.30            146           69.7 306 
 RUS  HZ EP       2328 51.48                             144   -0.0110 94.0 172 
 RUS  HN ES       2329  9.67                             144    0.4910 94.0 172 
 RUS  SZ I        2329 12.92         5.4 3.90            146           94.0 172 
 PTB  HZ EP       2328 54.37                             132   -0.23 9  140 261 
 PTB  HN ES       2329 14.34                             132   -0.38 9  140 261 
 PTB  SZ I        2329 17.26         3.3 0.24            131            140 261 
 ZAR  HN ES       2329 25.88                             121    0.56 9  201 295 
                                                                                
