 2013  426 2358 30.1 L   6.795 -73.176140.3  RSN  5 0.5 1.3LRSN                1
 GAP=133        1.22       6.8     6.4  9.8 -0.8079E+01  0.1093E+02  0.2483E+01E
 Epicentro: LOS SANTOS - SANTANDER                                             3
 ACTION:UPD 13-05-22 14:41 OP:EP   STATUS:               ID:20130426235830 L   I
 2013-04-26-2348-50M.COL___217                                                 6
 STAT SP IPHASW D HRMM SECON CODA AMPLIT PERI AZIMU VELO AIN AR TRES W  DIS CAZ7
 BAR2 SZ ES       2359  3.31                             170   -0.5110 22.4 182 
 BRR  HN ES   1   2359  7.75                             152    1.34 7 68.6 300 
 PAM  SZ EP       2358 51.91                             149    0.0310 79.9  41 
 PAM  SZ I        2358 52.12         5.1 0.24            149           79.9  41 
 PAM  SN ES       2359  8.61                             149   -0.2710 79.9  41 
 RUS  HZ EP       2358 53.58                             143    0.3010  100 174 
 RUS  HZ I        2358 53.89         1.3 0.50            142            100 174 
 RUS  HE ES       2359 11.64                             143    0.2710  100 174 
 PTB  HZ EP       2358 56.05                             131   -0.25 9  144 259 
 PTB  HN ES       2359 16.33                             131   -0.42 9  144 259 
 PTB  HN I        2359 18.41         4.5 0.24            130            144 259 
                                                                                
