 2015  526 2257 49.8 L   6.843 -73.124139.4  RSN  6 0.4 1.7LRSN                1
 GAP=137        1.00       4.6     5.4  8.7  0.6188E+01  0.7580E+01 -0.2132E+01E
 Epicentro: LOS SANTOS - SANTANDER                                             3
 ACTION:UPD 15-09-10 22:07 OP:cam  STATUS:               ID:20150526225749 L   I
 OLDACT:UP  15-05-27 06:22 OP:mh   STATUS:               ID:20150526224749     3
 OLDACT:REG 15-05-27 06:01 OP:mh   STATUS:               ID:20150526224749     3
 2015-05-26-2247-49M.COL___294                                                 6
 STAT SP IPHASW D HRMM SECON CODA AMPLIT PERI AZIMU VELO AIN AR TRES W  DIS CAZ7
 BAR2 EZ EP   1   2258  8.83                             168    0.06 7 28.5 193 
 BAR2 EZ I        2258 25.53        12.9 0.16            165           28.5 193 
 BRR  HZ EP       2258 10.18                             151   -0.0610 71.2 294 
 BRR  HN ES       2258 26.62                             151    0.4210 71.2 294 
 BRR  HZ I        2258 31.08         8.3 0.34            149           71.2 294 
 PAM  SZ EP       2258 11.24                             151    0.2310 72.2  41 
 PAM  SN ES       2258 27.43                             151   -0.1410 72.2  41 
 RUS  HZ EP       2258 13.92                             141    0.6610  105 178 
 RUS  HN ES       2258 30.84                             141   -0.7310  105 178 
 RUS  HZ I        2258 33.97         3.9 0.40            138            105 178 
 ZAR  HN ES       2258 46.82                             120   -0.07 9  205 291 
 ZAR  HZ I        2258 51.70         7.3 0.34            118            205 291 
 SML  HZ EP   1   2258 25.30                             116   -0.40 6  240 334 
 SML  HN ES   1   2258 53.13                             116   -0.58 6  240 334 
 SML  HZ I        2258 58.91         9.0 0.10            115            240 334 
                                                                                
