 2013  626 2108 46.8 L   6.776 -73.173149.1  RSN  5 0.3 2.1LRSN                1
 GAP=134        0.75       4.4     4.2  6.1 -0.4459E+00  0.1096E+01 -0.2462E+01E
 Epicentro: LOS SANTOS - SANTANDER                                             3
 ACTION:UPD 14-01-08 09:57 OP:ep   STATUS:               ID:20130626210846 L   I
 OLDACT:REG 13-06-26 21:32 OP:cam  STATUS:               ID:20130626205959     3
 2013-06-26-2059-59M.COL___267                                                 6
 STAT SP IPHASW D HRMM SECON CODA AMPLIT PERI AZIMU VELO AIN AR TRES W  DIS CAZ7
 BAR2 SZ EP   1   21 9  6.83                             172    0.09 7 20.4 183 
 BAR2 SZ ES       21 9 21.98                             172   -0.3410 20.4 183 
 BAR2 SZ I        21 9 23.24        41.2 0.21            172           20.4 183 
 BRR  HZ EP       21 9  8.49                             153    0.2810 69.9 302 
 BRR  HN ES       21 9 25.38                             153    0.4510 69.9 302 
 BRR  HZ I        21 9 28.72        18.5 0.12            153           69.9 302 
 PAM  SZ EP       21 9  9.58                             150    0.0110 81.3  40 
 PAM  SZ I        21 9  9.85        41.8 0.20            152           81.3  40 
 PAM  SN ES   1   21 9 26.97                             150   -0.39 7 81.3  40 
 RUS  HZ EP   1   21 9 10.73                             145    0.05 7 98.2 174 
 RUS  HN ES       21 9 29.57                             145    0.2410 98.2 174 
 RUS  HZ I        21 9 30.69        17.9 0.26            147           98.2 174 
 PTB  HZ EP   1   21 9 13.26                             133   -0.44 7  144 260 
 PTB  HZ I        21 9 15.34         7.4 0.38            134            144 260 
 PTB  HN ES       21 9 34.38                             133   -0.33 9  144 260 
                                                                                
