 2017 1226 2153 35.7 L   6.839 -73.190144.5  RSN  4 0.3 1.5LRSN                1
 GAP=134        0.72       6.3     3.7  7.0 -0.7359E+01  0.9879E+01 -0.7152E+01E
 Epicentro: ZAPATOCA - SANTANDER                                               3
 ACTION:UPD 18-01-04 13:24 OP:rebc STATUS:               ID:20171226215335 L   I
 OLDACT:REG 17-12-27 03:00 OP:edw  STATUS:               ID:20171226213939     3
 2017-12-26-2148-00M.COL___448                                                 6
 STAT SP IPHASW D HRMM SECON CODA AMPLIT PERI AZIMU VELO AIN AR TRES W  DIS CAZ7
 BAR2 EZ EP       2153 55.31                             169    0.0910 27.3 178 
 BAR2 EZ ES       2154 10.51                             169    0.0310 27.3 178 
 BAR2 EZ I        2154 11.64         9.2 0.28            171           27.3 178 
 PAM  EZ EP       2153 58.13                             151    0.3910 77.5  44 
 PAM  EN ES       2154 14.68                             151   -0.2810 77.5  44 
 PAM  EZ I        2154 17.29         3.6 0.50            151           77.5  44 
 PTB  HZ EP       2154  1.67                             132   -0.49 9  144 257 
 PTB  HE ES       2154 23.00                             132    0.16 9  144 257 
 ZAR  HN ES       2154 32.20                             123    0.08 9  198 292 
                                                                                
