 2013 1126 2049 45.3 L   6.764 -73.177138.7  RSN 12 0.4 2.3LRSN                1
 GAP=142        0.97       2.7     3.9  5.3 -0.2838E+01  0.4210E+01  0.7041E+00E
 Epicentro: LOS SANTOS - SANTANDER                                             3
 ACTION:UPD 14-01-09 16:31 OP:ep   STATUS:               ID:20131126204945 L   I
 OLDACT:REG 13-11-26 21:42 OP:nd   STATUS:               ID:20131126205000     3
 2013-11-26-2050-00M.COL___282                                                 6
 STAT SP IPHASW D HRMM SECON CODA AMPLIT PERI AZIMU VELO AIN AR TRES W  DIS CAZ7
 BAR2 SZ IP     C 2050  4.15                             172    0.1210 19.0 182 
 BAR2 SZ ES       2050 18.85                             172    0.2410 19.0 182 
 BAR2 SZ I        2050 20.30        69.8 0.28            171           19.0 182 
 BRR  HZ EP       2050  6.28                             152    0.6210 70.2 303 
 BRR  HN ES       2050 21.33                             152   -0.1910 70.2 303 
 BRR  HZ I        2050 26.70        42.2 0.34            149           70.2 303 
 PAM  SZ IP     D 2050  7.31                             148    0.1710 82.7  40 
 PAM  SN ES       2050 24.11                             148   -0.0310 82.7  40 
 PAM  SZ I        2050 26.79        25.8 0.48            152           82.7  40 
 PTB  HZ EP       2050 11.00                             131   -0.35 9  144 260 
 PTB  HN ES       2050 30.89                             131   -0.75 9  144 260 
 PTB  HZ I        2050 33.02        28.1 0.10            131            144 260 
 SPBC HZ EP       2050 12.96                             128    0.17 9  158 219 
 SPBC HN ES       2050 34.47                             128    0.27 9  158 219 
 SPBC HZ I        2050 37.23        28.1 0.40            129            158 219 
 OCA  HZ EP       2050 12.95                             127   -0.50 9  164 355 
 OCA  HE ES       2050 35.33                             127   -0.05 9  164 355 
 OCA  HZ I        2050 40.29        14.9 0.32            129            164 355 
 ZAR  HN EP       2050 17.55                             121    0.40 9  202 294 
 ZAR  HE ES       2050 42.83                             121    0.86 9  202 294 
 ZAR  HN I        2050 51.36        46.7 0.16            121            202 294 
 NOR  HZ IP     C 2050 20.48                             118    0.38 8  230 235 
 NOR  HN ES       2050 46.80                             118   -0.42 8  230 235 
 NOR  HZ I        2050 53.24        17.2 0.30            119            230 235 
 CHI  HZ EP       2050 21.97                             116   -0.15 8  244 195 
 CHI  HN ES       2050 50.31                             116   -0.51 8  244 195 
 CHI  HZ I        2050 55.54         4.6 0.50            118            244 195 
 SML  HZ EP       2050 21.70                             116   -0.11 8  246 336 
 SML  HN ES       2050 49.66                             116   -0.61 8  246 336 
 SML  HZ I        2050 53.21        18.5 0.28            117            246 336 
 HEL  HZ EP   2   2050 25.04                             114    0.33 4  268 256 
 HEL  HN ES   2   2050 55.79                             114    0.37 4  268 256 
 HEL  HZ I        2051  3.70         9.1 0.38            115            268 256 
 GUY2CHZ EP   4   2050 29.07                             111    1.04 0  296 235 
 GUY2CHN ES   4   2051  3.01                             111    1.67 0  296 235 
 GUY2CHZ I        2051  9.18         8.9 0.42                           296 235 
                                                                                
