 2010  426 2357 36.2 L   6.833 -73.055146.3  RSN 10 0.5 2.5LRSN                1
 GAP=148        0.88       4.8     7.2  7.1 -0.1543E+02 -0.1681E+02  0.1343E+02E
 Epicentro: LOS SANTOS - SANTANDER                                             3
 ACTION:UPD 10-08-24 10:01 OP:vdl  STATUS:               ID:20100426235743 L   I
 2010-04-26-2357-34S.COL___104                                                 6
 STAT SP IPHASW D HRMM SECON CODA AMPLIT PERI AZIMU VELO AIN AR TRES W  DIS CAZ7
 BAR2 SZ EP       2357 55.69                             168    -0.310   30 208 
 BAR2 SZ ES   2   2358 11.08                             168    -0.4 5   30 208 
 BRR  HZ EP       2357 58.02                             150     0.210   79 293 
 BRR  HZ I        2357 58.29        77.1 0.32                            79 293 
 BRR  HN ES       2358 15.03                             150     0.310   79 293 
 OCA  SZ EP       2358  4.54                             130     0.2 9  158 349 
 OCA  SZ ES   2   2358 25.35                             130    -1.0 5  158 349 
 CHI  HZ EP   2   2358 14.06                             116    -0.5 4  255 197 
 CHI  HN ES   2   2358 44.50                             116     0.0 4  255 197 
 CHI  HZ I        2358 50.64        10.7 1.35                           255 197 
 ROSC BZ EP       2358 15.88                             116     0.6 8  261 213 
 ROSC BN ES   2   2358 45.82                             116     0.1 4  261 213 
 ROSC BZ I        2358 49.70        15.7 0.36                           261 213 
 HEL  HZ EP   2   2358 17.57                             114     0.0 4  283 256 
 HEL  HN ES   2   2358 49.42                             114    -0.5 4  283 256 
 HEL  HZ I        2358 54.10        15.4 0.15                           283 256 
 RREF BZ EP   1   2358 23.94                             110     0.5 5  332 230 
 RREF BN ES   2   2359  0.88                             110     0.5 3  332 230 
 RREF BZ I        2359  9.84        13.7 0.06                           332 230 
 DBB  SZ EP   1   2358 23.79                             109    -1.0 5  349 274 
 SDV  BZ EP       2358 25.32                             109     0.2 6  350  50 
 PRA  HZ EP       2358 29.91                             106    -0.8 6  400 211 
 PRA  HN ES   1   2359 12.88                             106    -0.3 4  400 211 
 PRA  HZ I        2359 16.43        13.4 0.90                           400 211 
                                                                                
