 2012 1126 2225  6.2 L   6.324 -73.589121.5  RSN  5 0.3 1.1LRSN                1
 GAP=154        0.54       4.4     3.7  8.2  0.5360E+01  0.1488E+02  0.8444E+01E
 Epicentro: SANTA HELENA DEL OPON - SANTANDER                                  3
 ACTION:UPD 12-12-05 15:36 OP:}ep  STATUS:               ID:20121126222506 L   I
 2012-11-26-2220-00M.COL___234                                                 6
 STAT SP IPHASW D HRMM SECON CODA AMPLIT PERI AZIMU VELO AIN AR TRES W  DIS CAZ7
 BAR2 SZ ES   1   2225 37.83                             155   -0.23 7 53.8  57 
 RUS  HZ EP   1   2225 25.90                             147    0.27 7 73.5 130 
 RUS  HN ES   1   2225 40.83                             147    0.03 7 73.5 130 
 RUS  HZ I        2225 46.29         1.2 0.42                          73.5 130 
 GIR2 SZ ES   1   2225 42.69                             140    0.09 7 94.2  28 
 GIR2 SZ I        2225 43.82         3.1 0.44                          94.2  28 
 PTB  HZ EP   1   2225 26.40                             138   -0.45 7 98.9 284 
 PTB  HE ES   1   2225 43.10                             138    0.14 7 98.9 284 
 PTB  HZ I        2225 43.42         3.9 0.32                          98.9 284 
 ZAR  HN ES   2   2225 59.21                             118    0.42 4  191 313 
                                                                                
