 2011 1226 2108 59.3 L   6.795 -73.110151.0  RSN 12 0.5 2.4LRSN                1
 GAP=141        0.74       3.8     4.7  6.2 -0.4015E+00  0.8752E+01  0.4145E+01E
 Epicentro: LOS SANTOS - SANTANDER                                             3
 ACTION:UPD 12-07-13 16:18 OP:ep   STATUS:               ID:20111226210859 L   I
 2011-12-26-2107-00S.MAN___179                                                 6
 STAT SP IPHASW D HRMM SECON CODA AMPLIT PERI AZIMU VELO AIN AR TRES W  DIS CAZ7
 BAR2 SZ EP   2   21 9 19.51                             171   -0.02 5 23.8 200 
 BAR2 SZ I        21 9 36.47        38.1 0.38                          23.8 200 
 BRR  HZ EP       21 9 21.55                             152    0.3710 74.9 297 
 BRR  HE ES   1   21 9 38.66                             152    0.38 7 74.9 297 
 BRR  HZ I        21 9 41.03        65.7 0.23                          74.9 297 
 PAM  SZ EP   1   21 9 22.21                             152    0.29 7 75.4  37 
 PAM  SN ES   1   21 9 39.51                             152   -0.08 7 75.4  37 
 RUS  HZ EP   1   21 9 23.36                             145   -0.12 7 99.9 178 
 RUS  HN ES   1   21 9 41.93                             145   -0.44 7 99.9 178 
 RUS  HZ I        21 9 43.22        20.7 0.30                          99.9 178 
 PTB  HZ EP   1   21 9 26.09                             132   -0.90 7  152 259 
 ZAR  HZ EP   1   21 9 32.22                             123   -0.22 6  208 292 
 ZAR  HE ES   1   21 9 57.90                             123   -0.42 6  208 292 
 ZAR  HZ I        2110  3.43        32.2 0.33                           208 292 
 NOR  SZ EP   1   21 9 35.53                             119   -0.08 6  238 235 
 NOR  SN ES   1   2110  3.95                             119   -0.01 6  238 235 
 CHI  HZ EP   1   21 9 37.58                             118    0.27 6  249 196 
 CHI  HN ES   2   2110  7.70                             118    0.71 4  249 196 
 CHI  HZ I        2110 12.61        14.9 0.42                           249 196 
 HEL  HZ EP   2   21 9 41.08                             115    0.93 4  276 256 
 HEL  HZ I        2110 17.93        12.0 0.33                           276 256 
 GUY  SZ EP   2   21 9 44.76                             113    1.05 4  306 236 
 GUY  SZ I        2110 25.27        17.1 0.28                           306 236 
 COD  HZ EP   1   21 9 47.76                             110   -0.19 5  349 354 
 COD  HZ I        2110 27.77        20.0 0.47                           349 354 
 PRA  HZ EP   1   21 9 52.70                             107   -0.44 4  394 210 
                                                                                
