 2015  326 2211  2.9 L   6.894 -73.166131.7  RSN  6 0.5 1.6LRSN                1
 GAP=186        1.23       6.3     6.1 12.1 -0.1090E+02  0.2833E+02  0.1621E+02E
 Epicentro: BETULIA - SANTANDER                                                3
 ACTION:UPD 15-04-30 16:29 OP:nd   STATUS:               ID:20150326221101 L   I
 OLDACT:UP  15-03-30 10:30 OP:CAM  STATUS:               ID:20150326221101 L   3
 OLDACT:UP  15-03-27 07:33 OP:cam  STATUS:               ID:20150326220750     3
 OLDACT:REG 15-03-27 07:06 OP:cam  STATUS:               ID:20150326220750     3
 2015-03-26-2207-50M.COL___278                                                 6
 STAT SP IPHASW D HRMM SECON CODA AMPLIT PERI AZIMU VELO AIN AR TRES W  DIS CAZ7
 PAM  SZ EP       2211 23.66                             150    0.3810 71.3  46 
 PAM  SE ES       2211 39.15                             150    0.0010 71.3  46 
 PTB  HZ EP       2211 27.71                             128   -1.09 9  148 255 
 PTB  HN ES       2211 48.58                             128   -0.41 9  148 255 
 PTB  HZ I        2211 51.13         4.5 0.52            129            148 255 
 ZAR  HZ EP       2211 34.04                             120    0.16 9  198 290 
 ZAR  HN ES       2211 58.86                             120    0.83 9  198 290 
 ZAR  HZ I        2212  4.10         3.8 0.52            121            198 290 
 SML  HN ES       2212  4.30                             115   -0.45 8  233 335 
 NOR  HZ EP       2211 38.73                             115    0.36 8  239 232 
 NOR  HN ES       2212  6.34                             115    0.33 8  239 232 
 NOR  HZ I        2212 10.32         2.4 0.28            116            239 232 
 GUY2CHZ EP       2211 46.49                             109    0.07 7  306 233 
 GUY2CHN ES   4   2212 22.71                             109    2.36 0  306 233 
 GUY2CHZ I        2212 29.44         2.5 0.34                           306 233 
                                                                                
