 2013  226 2320 36.7 L   6.808 -73.171143.3  RSN  7 0.4 1.6LRSN                1
 GAP=133        0.72       3.4     4.1  7.4  0.1039E+01  0.3844E+01 -0.4484E+01E
 Epicentro: LOS SANTOS - SANTANDER                                             3
 ACTION:UPD 13-03-12 09:36 OP:ep   STATUS:               ID:20130226232036 L   I
 2013-02-26-2320-00M.COL___228                                                 6
 STAT SP IPHASW D HRMM SECON CODA AMPLIT PERI AZIMU VELO AIN AR TRES W  DIS CAZ7
 BRR  HN ES   2   2321 13.72                             153    0.15 5 68.4 299 
 PAM  SZ EP       2320 58.95                             150    0.2410 78.5  41 
 PAM  SN ES   1   2321 16.01                             150    0.13 7 78.5  41 
 PAM  SZ I        2321 17.48         4.2 0.42            152           78.5  41 
 RUS  HZ EP       2321  0.39                             143    0.1210  102 175 
 RUS  HN ES   1   2321 18.00                             143   -0.67 7  102 175 
 RUS  HZ I        2321 20.10         3.7 0.24            147            102 175 
 PTB  HZ EP   2   2321  2.64                             132   -0.58 5  145 258 
 PTB  HE ES   1   2321 24.15                             132    0.23 7  145 258 
 ZAR  HE ES   1   2321 33.89                             122    0.27 6  201 292 
 ZAR  HZ I        2321 39.45         4.1 0.30            123            201 292 
 SML  HZ EP       2321 13.08                             117    0.12 8  242 336 
 SML  HN ES   1   2321 40.43                             117   -0.83 6  242 336 
 SML  HZ I        2321 46.81         6.5 0.24            118            242 336 
 CHI  HN ES   2   2321 43.78                             116    0.21 4  249 194 
                                                                                
