 2013 1226 2318 22.9 L   6.811 -73.161146.9  RSN  8 0.4 1.7LRSN                1
 GAP=134        0.98       3.6     4.9  6.1  0.5590E+00  0.5306E+01  0.1973E+01E
 Epicentro: LOS SANTOS - SANTANDER                                             3
 ACTION:UPD 14-01-13 10:21 OP:ep   STATUS:               ID:20131226231822 L   I
 OLDACT:REG 13-12-26 22:01 OP:cam  STATUS:               ID:20131226231000     3
 2013-12-26-2310-00M.COL___285                                                 6
 STAT SP IPHASW D HRMM SECON CODA AMPLIT PERI AZIMU VELO AIN AR TRES W  DIS CAZ7
 BAR2 SZ EP       2318 42.65                             170    0.0010 24.3 186 
 BAR2 SZ ES       2318 57.66                             170   -0.4210 24.3 186 
 BAR2 SZ I        2318 59.11        26.9 0.20            168           24.3 186 
 BRR  HZ EP       2318 44.24                             153    0.2210 69.2 298 
 BRR  HN ES       2319  1.46                             153    0.9310 69.2 298 
 BRR  HZ I        2319  4.72         9.4 0.16            151           69.2 298 
 PAM  SZ EP       2318 45.54                             151    0.3310 77.5  41 
 PAM  SN ES       2319  2.49                             151   -0.1510 77.5  41 
 PAM  SN I        2319  3.55        13.5 0.48            156           77.5  41 
 RUS  HZ EP       2318 46.61                             144   -0.2110  102 175 
 RUS  HE ES       2319  5.36                             144   -0.1410  102 175 
 RUS  HZ I        2319  6.66         3.5 0.22            144            102 175 
 PTB  HZ EP       2318 49.40                             133   -0.40 9  146 258 
 PTB  HN ES       2319 10.45                             133   -0.35 9  146 258 
 PTB  HZ I        2319 17.68         7.0 0.32            132            146 258 
 SPBC HZ EP   2   2318 51.86                             129    0.43 5  163 218 
 SML  HZ EP   2   2318 59.72                             118    0.36 4  242 336 
 SML  HE ES       2319 27.23                             118   -0.60 8  242 336 
 CHI  HZ EP       2319  0.91                             117    0.21 8  249 195 
 CHI  HN ES   1   2319 30.71                             117    0.50 6  249 195 
 CHI  HZ I        2319 35.35         2.6 0.46            118            249 195 
                                                                                
