 2017  326 2315 58.0 L   6.651 -73.369157.5  RSN  4 0.3 1.2LRSN                1
 GAP=144        0.85       6.8     6.4  7.7  0.1978E+02 -0.2199E+01  0.1343E+01E
 Epicentro: GALAN - SANTANDER                                                  3
 ACTION:UPD 17-05-25 18:45 OP:jn   STATUS:               ID:20170326231558 L   I
 OLDACT:UP  17-03-27 04:13 OP:edw  STATUS:               ID:20170326230742     3
 OLDACT:UP  17-03-27 04:12 OP:edw  STATUS:               ID:20170326230742     3
 OLDACT:REG 17-03-27 03:02 OP:cara STATUS:               ID:20170326230742     3
 2017-03-26-2308-00M.COL___360                                                 6
 STAT SP IPHASW D HRMM SECON CODA AMPLIT PERI AZIMU VELO AIN AR TRES W  DIS CAZ7
 BAR2 EZ EP       2316 19.03                             172   -0.0210 21.6 107 
 BAR2 EZ ES       2316 35.27                             172   -0.1610 21.6 107 
 BAR2 EZ I        2316 36.01         5.7 0.50            170           21.6 107 
 BRR  HZ EP       2316 20.55                             157    0.4910 63.1 323 
 BRR  HN ES       2316 37.09                             157   -0.1410 63.1 323 
 RUS  HZ EP       2316 21.74                             149   -0.5010 89.6 159 
 RUS  HN ES       2316 41.51                             149    0.3910 89.6 159 
 RUS  HZ I        2316 45.06         1.5 0.30            146           89.6 159 
 PTB  HZ EP   4   2316 22.01                             141   -1.76 0  121 264 
 PTB  HE ES       2316 43.78                             141   -0.0610  121 264 
 PTB  HZ I        2316 49.80         1.8 0.40            137            121 264 
                                                                                
