 2014  926 2108 30.2 L   6.819 -73.157143.9  RSN  7 0.4 1.8LRSN                1
 GAP=134        0.96       3.2     4.4  6.5  0.8716E+00  0.8632E+01 -0.8296E+00E
 Epicentro: LOS SANTOS - SANTANDER                                             3
 ACTION:UPD 14-10-03 23:08 OP:nd   STATUS:               ID:20140926210830 L   I
 OLDACT:REG 14-09-27 09:34 OP:carl STATUS:               ID:20140926210819     3
 2014-09-26-2108-19M.COL___301                                                 6
 STAT SP IPHASW D HRMM SECON CODA AMPLIT PERI AZIMU VELO AIN AR TRES W  DIS CAZ7
 BAR2 SZ EP       21 8 49.61                             170   -0.0410 25.2 186 
 BAR2 SZ ES       21 9  4.22                             170   -0.6010 25.2 186 
 BAR2 SZ I        21 9  7.37        19.7 0.26            168           25.2 186 
 PAM  SZ EP       21 8 52.53                             151    0.3610 76.6  41 
 PAM  SN ES       21 9  9.76                             151    0.4510 76.6  41 
 PAM  SZ I        21 9 11.72        10.1 0.20            156           76.6  41 
 RUS  HZ EP       21 8 53.49                             143   -0.4410  103 175 
 RUS  HN ES       21 9 12.41                             143   -0.0310  103 175 
 RUS  HZ I        21 9 13.22         4.0 0.50            145            103 175 
 PTB  HZ EP       21 8 56.65                             132   -0.30 9  147 258 
 PTB  HN ES       21 9 17.89                             132    0.08 9  147 258 
 PTB  HZ I        21 9 23.45         9.6 0.20            131            147 258 
 ZAR  HN ES       21 9 27.73                             122    0.34 9  202 292 
 ZAR  HZ I        21 9 38.12         7.1 0.50            122            202 292 
 SML  HZ EP       21 9  6.24                             117   -0.22 8  241 335 
 SML  HN ES       21 9 34.58                             117   -0.16 8  241 335 
 SML  HZ I        21 9 38.22        10.2 0.10            118            241 335 
 CHI  HZ EP       21 9  7.84                             116   -0.14 8  250 195 
 CHI  HN ES       21 9 38.36                             116    0.91 8  250 195 
 CHI  HZ I        21 9 44.57         2.1 0.28            118            250 195 
                                                                                
