 2016  826 2001 41.6 L   6.786 -73.182136.9  RSN  4 0.1 1.5LRSN                1
 GAP=142        0.39       2.5     2.4  3.7 -0.9091E+00  0.3313E+01  0.6067E+00E
 Epicentro: LOS SANTOS - SANTANDER                                             3
 ACTION:UPD 16-10-29 15:39 OP:rebc STATUS:               ID:20160826200141 L   I
 OLDACT:REG 16-08-27 02:27 OP:dnl  STATUS:               ID:20160826195734     3
 2016-08-26-1958-00M.COL___382                                                 6
 STAT SP IPHASW D HRMM SECON CODA AMPLIT PERI AZIMU VELO AIN AR TRES W  DIS CAZ7
 BAR2 EZ EP       20 1 59.89                             171   -0.2310 21.4 180 
 BAR2 EZ ES       20 2 14.53                             171   -0.0410 21.4 180 
 BAR2 EZ I        20 2 15.83        11.9 0.32                          21.4 180 
 PAM  EE ES       20 2 19.99                             148    0.0810 81.2  41 
 PAM  EZ I        20 2 21.83         9.9 0.54                          81.2  41 
 RUS  HZ EP       20 2  4.41                             142    0.0110 99.3 174 
 RUS  HN ES       20 2 22.26                             142    0.0810 99.3 174 
 RUS  HZ I        20 2 24.43         2.2 0.30                          99.3 174 
 PTB  HZ EP       20 2  7.60                             131    0.13 9  144 259 
 PTB  HN ES       20 2 27.62                             131   -0.02 9  144 259 
 PTB  HZ I        20 2 30.65         3.7 0.44                           144 259 
                                                                                
