 2012 1026 2142  8.1 L   6.805 -73.152143.6  RSN 10 0.4 2.4LRSN                1
 GAP= 71        0.80       3.2     4.3  5.6 -0.3409E+00  0.2978E+01  0.2505E+01E
 Epicentro: LOS SANTOS - SANTANDER                                             3
 ACTION:UPD 12-11-22 17:06 OP:ep   STATUS:               ID:20121026214208 L   I
 2012-10-26-2140-00M.COL___228                                                 6
 STAT SP IPHASW D HRMM SECON CODA AMPLIT PERI AZIMU VELO AIN AR TRES W  DIS CAZ7
 BAR2 SZ ES   1   2142 42.26                             170   -0.28 7 23.8 188 
 BAR2 SZ I        2142 43.42       103.9 0.20                          23.8 188 
 GIR2 SZ EP   1   2142 27.48                             167    0.03 7 30.6 351 
 GIR2 SZ ES   1   2142 42.40                             167   -0.18 7 30.6 351 
 BRR  HZ EP   1   2142 29.22                             152    0.30 7 70.3 298 
 BRR  HN ES   1   2142 46.14                             152    0.95 7 70.3 298 
 PAM  SZ EP   1   2142 30.33                             150    0.29 7 77.4  40 
 PAM  SZ I        2142 30.55        44.3 0.22                          77.4  40 
 PAM  SN ES   1   2142 47.21                             150    0.03 7 77.4  40 
 PAM  SN I        2142 48.51        96.8 0.70                          77.4  40 
 RUS  HZ EP   1   2142 31.40                             143   -0.24 7  101 176 
 RUS  HE ES   1   2142 50.12                             143    0.09 7  101 176 
 RUS  HN I        2142 51.62        31.4 0.24                           101 176 
 TAM  HZ EP   1   2142 35.71                             130    0.08 7  156 105 
 OCA  HZ EP   1   2142 36.01                             129   -0.13 7  160 353 
 OCA  HN ES   1   2142 57.15                             129   -0.89 7  160 353 
 ZAR  HZ EP   1   2142 40.76                             122    0.49 6  203 292 
 ZAR  HN ES   1   2143  5.23                             122   -0.17 6  203 292 
 NOR  HE ES   1   2143 10.66                             118   -0.73 6  234 234 
 NOR  HZ I        2143 13.30        13.3 0.18                           234 234 
 CHI  HZ EP   1   2142 45.86                             117    0.19 6  249 195 
 CHI  HN ES   1   2143 14.89                             117   -0.12 6  249 195 
 CHI  HN I        2143 17.77        14.4 0.36                           249 195 
                                                                                
