 2013  526 2308 51.2 L   6.217 -73.801 91.8  RSN 11 0.5 1.9LRSN                1
 GAP=123        1.05       3.7     2.5  8.6 -0.2749E+01  0.2390E+01  0.5188E+01E
 Epicentro: LANDAZURI - SANTANDER                                              3
 ACTION:UPD 13-06-20 09:54 OP:ep   STATUS:               ID:20130526230851 L   I
 2013-05-26-2300-00M.COL___261                                                 6
 STAT SP IPHASW D HRMM SECON CODA AMPLIT PERI AZIMU VELO AIN AR TRES W  DIS CAZ7
 BAR2 SZ EP       23 9  8.40                             136    0.4310 80.0  59 
 BAR2 SZ ES   1   23 9 21.80                             136    0.78 7 80.0  59 
 BAR2 SZ I        23 9 23.11       386.3 1.04            143           80.0  59 
 PTB  HZ EP       23 9  6.96                             135   -0.7610 80.8 296 
 PTB  HN ES   1   23 9 19.99                             135   -0.60 7 80.8 296 
 PTB  HZ I        23 9 23.50        29.4 0.12            141           80.8 296 
 RUS  HZ EP   1   23 9  9.04                             134    0.10 7 87.2 114 
 RUS  HN ES   1   23 9 22.97                             134    0.22 7 87.2 114 
 RUS  HZ I        23 9 26.49         9.5 0.30            140           87.2 114 
 BRR  HZ EP       23 9  9.29                             129   -0.0710 98.9   6 
 BRR  HE ES   1   23 9 23.88                             129    0.38 7 98.9   6 
 BRR  HZ I        23 9 26.98        20.2 0.48            135           98.9   6 
 GIR2 SZ EP   1   23 9 11.53                             124    0.23 7  117  35 
 GIR2 SZ ES   1   23 9 26.37                             124   -0.58 7  117  35 
 GIR2 SZ I        23 9 28.05        10.8 0.34            131            117  35 
 NOR  HZ EP       23 9 13.34                             119   -0.16 9  139 239 
 NOR  HN ES   1   23 9 30.23                             119   -0.64 7  139 239 
 NOR  HZ I        23 9 33.50        17.3 0.16            124            139 239 
 PAM  SZ EP   1   23 9 17.91                             114   -0.05 7  174  44 
 PAM  SN ES       23 9 38.67                             114   -0.14 9  174  44 
 PAM  SZ I        23 9 39.93         6.0 0.26            119            174  44 
 ZAR  HZ EP   1   23 9 18.36                             112   -0.05 7  183 320 
 ZAR  HN ES       23 9 40.21                             112    0.61 9  183 320 
 ZAR  HZ I        23 9 42.57         8.5 0.66            116            183 320 
 HEL  HZ EP   1   23 9 19.48                             111   -0.31 7  191 269 
 HEL  HN ES       23 9 42.08                             111    0.01 9  191 269 
 HEL  HZ I        23 9 44.43         8.5 0.28            115            191 269 
 GUY2CHZ EP   1   23 9 22.39                             110    0.86 6  205 238 
 GUY2CHN ES       23 9 45.76                             110    0.60 9  205 238 
 GUY2CHZ I        23 9 51.49         6.9 0.24                           205 238 
 TAM  HZ EP   1   23 9 23.42                             108    0.25 6  224  84 
 TAM  HN ES       23 9 47.31                             108   -0.77 8  224  84 
                                                                                
