 2013  826 2120 57.7 L   6.782 -73.163143.3  RSN  9 0.4 1.8LRSN 2.1WRSN        1
 SPEC AVERAGE  MO 12.3 ST  3.1 OM  1.3 f0 9.13 R0.2393 AL 0.00 WI 20.0 MW  2.1 3
 SPEC SD       MO  0.1 ST  3.7 OM  0.7 f0 5.32 R0.1279 AL      WI      MW  0.0 3
 GAP=135        0.96       3.1     4.1  5.8  0.1304E+01  0.5927E+01  0.4210E+01E
 Epicentro: LOS SANTOS - SANTANDER                                             3
 SPEC BRR HH Z MO 12.3 ST0.852 OM  0.7 f0 7.15 R0.2173 AL-0.00 WI 20.0 MW  2.1 3
 SPEC BRR HH Z T212133 K 0.000 GD  159 VS 4.20 DE 3.20 Q0300.0 QA 0.60 VS 4.20 3
 SPEC RUS HH Z MO 12.3 ST0.143 OM  0.7 f0 3.83 R0.4057 AL-0.00 WI 20.0 MW  2.2 3
 SPEC RUS HH Z T212137 K 0.000 GD  174 VS 4.20 DE 3.20 Q0300.0 QA 0.60 VS 4.20 3
 SPEC PTB HH Z MO 12.2 ST  8.3 OM  0.5 f0 16.4 R0.0948 AL-0.00 WI 20.0 MW  2.1 3
 SPEC PTB HH Z T212143 K 0.000 GD  203 VS 4.20 DE 3.20 Q0300.0 QA 0.60 VS 4.20 3
 OLDACT:REG 13-08-26 23:30 OP:stll STATUS:               ID:20130826211852     3
 ACTION:UPD 14-01-14 09:07 OP:ep   STATUS:               ID:20130826212057 L   I
 OLDACT:UP  13-08-27 02:19 OP:stll STATUS:               ID:20130826211852     3
 2013-08-26-2118-52M.COL___211                                                 6
 STAT SP IPHASW D HRMM SECON CODA AMPLIT PERI AZIMU VELO AIN AR TRES W  DIS CAZ7
 BAR2 SZ EP       2121 16.92                             171   -0.0810 21.1 186 
 BAR2 SZ ES       2121 31.96                             171   -0.0910 21.1 186 
 BAR2 SZ I        2121 34.93        12.3 0.26            167           21.1 186 
 BRR  HZ EP       2121 19.08                             152    0.5310 70.5 301 
 BRR  HN ES       2121 35.33                             152    0.5210 70.5 301 
 BRR  HZ I        2122  1.61        19.2 0.30            150           70.5 301 
 PAM  SZ EP       2121 20.11                             149    0.2810 80.1  40 
 PAM  SN ES       2121 37.01                             149   -0.0810 80.1  40 
 PAM  SZ I        2121 39.30         6.2 0.50            159           80.1  40 
 RUS  HZ EP       2121 21.20                             144    0.1110 98.8 175 
 RUS  HN ES       2121 39.01                             144   -0.3110 98.8 175 
 RUS  HZ I        2121 40.98         5.1 0.32            149           98.8 175 
 PTB  HZ EP       2121 24.16                             132   -0.11 9  145 259 
 PTB  HN ES       2121 44.85                             132   -0.14 9  145 259 
 PTB  HZ I        2121 47.47         4.9 0.14            133            145 259 
 ZAR  HN ES       2121 55.13                             122    0.15 9  203 293 
 ZAR  HN I        2122  3.48         9.4 0.38            125            203 293 
 SML  HN ES       2122  1.71                             117   -1.14 8  245 336 
 CHI  HZ EP       2121 35.35                             117    0.34 8  246 195 
 CHI  HN ES       2122  3.48                             117   -0.62 8  246 195 
 CHI  HZ I        2122 15.28         3.1 0.42            122            246 195 
 PRA  HZ EP       2121 50.96                             106    0.13 6  389 209 
 PRA  HN ES       2122 32.46                             106    0.19 6  389 209 
 PRA  HZ I        2122 39.36         3.5 0.40            111            389 209 
                                                                                
