 2013  226 2148 40.6 L   5.947 -74.238  0.0  RSN  4 0.2 1.8LRSN                1
 GAP=256        0.49       4.7     2.9  5.3 -0.1123E+02  0.1056E+02 -0.1931E+02E
 Epicentro: LA BELLEZA - SANTANDER                                             3
 ACTION:UPD 13-03-12 09:36 OP:ep   STATUS:               ID:20130226214840 L   I
 2013-02-26-2140-00M.COL___228                                                 6
 STAT SP IPHASW D HRMM SECON CODA AMPLIT PERI AZIMU VELO AIN AR TRES W  DIS CAZ7
 PTB  HZ IP     D 2148 52.26                              47   -0.1310 69.8 340 
 PTB  HN ES       2149  1.60                              47    0.0310 69.8 340 
 PTB  HN I        2149  4.88        26.8 0.24             95           69.8 340 
 BRR  HZ EP       2149  2.94                              47   -0.20 9  141  24 
 BRR  HN ES       2149 20.95                              47    0.26 9  141  24 
 BRR  HN I        2149 21.67        25.9 0.20             93            141  24 
 HEL  HZ EP       2149  4.39                              47    0.17 9  145 281 
 HEL  HE ES       2149 22.64                              47    0.03 9  145 281 
 HEL  HE I        2149 25.06        13.1 0.18             93            145 281 
 ZAR  HE ES   1   2149 31.84                              37   -0.32 7  184 338 
                                                                                
