 2016  726 2234 25.0 L   6.759 -73.156144.7  RSN  5 0.4 1.4LRSN                1
 GAP=137        0.87       4.7     4.3  8.9  0.3755E+01  0.1063E+02  0.7189E+01E
 Epicentro: LOS SANTOS - SANTANDER                                             3
 ACTION:UPD 17-03-29 16:55 OP:lp   STATUS:               ID:20160726223425 L   I
 OLDACT:REG 16-07-27 03:47 OP:dnl  STATUS:               ID:20160726222759     3
 2016-07-26-2227-59S.COL___340                                                 6
 STAT SP IPHASW D HRMM SECON CODA AMPLIT PERI AZIMU VELO AIN AR TRES W  DIS CAZ7
 BRR  HZ EP   2   2234 46.29                             152    0.14 5 72.5 302 
 BRR  HN ES       2235  3.30                             152    0.6910 72.5 302 
 BRR  HZ I        2235  4.13         4.9 0.13            150           72.5 302 
 PAM  EZ EP   2   2234 47.22                             149   -0.18 5 81.6  38 
 PAM  EN ES       2235  4.47                             149   -0.3610 81.6  38 
 PAM  EZ I        2235  6.33         7.2 0.58            151           81.6  38 
 RUS  HZ EP       2234 48.76                             145    0.3910 96.2 175 
 RUS  HN ES       2235  6.42                             145   -0.1510 96.2 175 
 RUS  HZ I        2235  8.73         2.2 0.42            146           96.2 175 
 PTB  HZ EP   2   2234 51.49                             132   -0.26 5  146 260 
 PTB  HN ES       2235 12.11                             132   -0.47 9  146 260 
 PTB  HZ I        2235 15.83         2.5 0.16            131            146 260 
 ZAR  HZ EP   2   2234 57.67                             122    0.18 4  205 293 
 ZAR  HE ES       2235 22.63                             122   -0.17 9  205 293 
 ZAR  HZ I        2235 28.88         4.4 0.42            122            205 293 
                                                                                
