 2010 1226 2036  5.6 L   6.775 -73.184141.4  RSN 17 0.4 2.9LRSN                1
 GAP=133        0.77       2.4     3.9  5.5 -0.2135E+01  0.9095E+01  0.4703E+00E
 Epicentro: LOS SANTOS - SANTANDER                                             3
 ACTION:UP  11-01-14 15:27 OP:pat  STATUS:               ID:20101226203605 L   I
 2010-12-26-2034-14S.COL___132                                                 6
 STAT SP IPHASW D HRMM SECON CODA AMPLIT PERI AZIMU VELO SNR AR TRES W  DIS CAZ7
 BAR2 SZ IP       2036 24.80                             172     0.210   20 180 
 BAR2 SZ ES   1   2036 39.76                             172     0.3 7   20 180 
 BAR2 SZ I        2036 40.77       148.0 0.14                            20 180 
 RUS  HZ IP     C 2036 28.66                             144    -0.110   98 173 
 RUS  HN ES   1   2036 46.87                             144     0.1 7   98 173 
 RUS  HZ I        2036 48.69       112.1 0.24                            98 173 
 GUE  SZ EP   2   2036 29.74                             137    -0.4 5  120  14 
 GRA  SZ EP       2036 30.80                             135     0.010  130  19 
 GRA  SZ ES   1   2036 50.45                             135     0.0 7  130  19 
 GRA  SZ I        2036 51.65       106.4 0.41                           130  19 
 OCA  SZ IP       2036 33.53                             128    -0.2 9  163 355 
 OCA  SZ ES   1   2036 55.57                             128    -0.2 7  163 355 
 OCA  SZ I        2036 60.00       117.7 0.41                           163 355 
 YOP  SZ EP       2036 35.13                             125    -0.1 9  178 152 
 YOP  SN ES   1   2036 57.85                             125    -0.6 7  178 152 
 YOP  SZ I        2036 59.68        55.0 0.31                           178 152 
 NOR  SZ EP       2036 40.67                             118     0.2 8  230 235 
 NOR  SN ES   1   2037  7.31                             118    -0.5 6  230 235 
 CHI  HZ EP       2036 42.81                             117     0.2 8  245 194 
 CHI  HN ES   1   2037 11.40                             117    -0.1 6  245 194 
 CHI  HZ I        2037 19.96        28.7 0.47                           245 194 
 ROSC BN ES   3   2037 12.35                             116     0.2 2  248 211 
 ROSC BZ I        2037 20.38        43.9 0.34                           248 211 
 HEL  HZ EP   2   2036 45.26                             114     0.2 4  267 256 
 HEL  HN ES   2   2037 15.38                             114    -0.4 4  267 256 
 HEL  HZ I        2037 23.13        29.3 0.54                           267 256 
 GUY  SZ EP   2   2036 48.49                             112     0.1 4  296 235 
 GUY  SN ES   1   2037 21.76                             112    -0.1 5  296 235 
 GUY  SZ I        2037 30.96        68.0 0.46                           296 235 
 RREF HZ EP       2036 51.79                             110     0.8 7  317 229 
 RREF HN ES   1   2037 25.96                             110    -0.4 5  317 229 
 RREF HZ I        2037 35.88        45.9 0.59                           317 229 
 DBB  SZ EP       2036 53.12                             109     0.7 7  336 275 
 TOL  SZ EP       2036 53.58                             109     0.5 7  339 224 
 MON  HZ EP   2   2036 52.73                             108    -1.5 3  351 309 
 MON  HN ES   3   2037 31.41                             108    -0.7 2  351 309 
 PRA  HZ EP       2036 58.06                             106    -0.4 6  388 209 
 PRA  HN ES   1   2037 39.14                             106    -0.5 4  388 209 
 SJA  SZ EP   2   2036 58.59                             106    -1.0 3  396 192 
 SJA  SZ I        2037 41.37        26.8 0.25                           396 192 
                                                                                
