 2013 1126 2301 52.1 L   6.796 -73.164144.6  RSN  5 0.4 1.8LRSN                1
 GAP=154        0.98       4.8     5.5  7.8 -0.7895E+01 -0.1086E+01  0.1226E+02E
 Epicentro: LOS SANTOS - SANTANDER                                             3
 ACTION:UPD 14-01-09 16:31 OP:ep   STATUS:               ID:20131126230152 L   I
 OLDACT:REG 13-11-26 21:52 OP:nd   STATUS:               ID:20131126230000     3
 2013-11-26-2300-00M.COL___282                                                 6
 STAT SP IPHASW D HRMM SECON CODA AMPLIT PERI AZIMU VELO AIN AR TRES W  DIS CAZ7
 BRR  HZ EP       23 2 13.51                             153    0.4510 69.6 300 
 BRR  HN ES       23 2 30.01                             153    0.6310 69.6 300 
 BRR  HZ I        23 3  4.40        12.4 0.28            154           69.6 300 
 PAM  SZ IP     C 23 2 14.42                             150    0.1110 79.0  40 
 PAM  SN ES       23 2 31.13                             150   -0.4810 79.0  40 
 PAM  SZ I        23 2 33.14         5.9 0.18            164           79.0  40 
 PTB  HZ EP       23 2 18.60                             132   -0.21 9  146 259 
 PTB  HN ES       23 2 39.06                             132   -0.56 9  146 259 
 PTB  HZ I        23 2 41.31         7.0 0.40            138            146 259 
 SML  HZ EP       23 2 28.62                             117   -0.01 8  243 336 
 SML  HN ES   2   23 2 56.36                             117   -0.75 4  243 336 
 SML  HZ I        23 2 59.34         9.4 0.10            128            243 336 
 CHI  HZ EP       23 2 29.97                             117    0.31 8  248 195 
 CHI  HN ES       23 2 58.76                             117   -0.18 8  248 195 
 CHI  HZ I        23 3  5.05         2.8 0.36            128            248 195 
                                                                                
