 2010  326 2033 10.8 L   6.828 -72.937138.0  RSN  4 0.4 1.9LRSN                1
 GAP=270        0.67       8.8    17.5 14.3 -0.2108E+02 -0.1026E+03  0.7983E+02E
 Epicentro: CEPITA - SANTANDER                                                 3
 ACTION:UP  10-08-24 09:56 OP:vdl  STATUS:               ID:20100326203310 L   I
 2010-03-26-2029-00S.COL___098                                                 6
 STAT SP IPHASW D HRMM SECON CODA AMPLIT PERI AZIMU VELO SNR AR TRES W  DIS CAZ7
 BRR  HZ EP   1   2033 32.10                             145    -0.3 7   91 290 
 BRR  HZ I        2033 32.65        18.1 0.12                            91 290 
 BRR  HE ES   1   2033 49.49                             145     0.2 7   91 290 
 CHI  HZ EP   2   2033 49.96                             115     0.8 4  259 200 
 CHI  HE ES   2   2034 18.93                             115    -0.2 4  259 200 
 CHI  HZ I        2034 19.99         2.6 0.49                           259 200 
 HEL  HZ EP   2   2033 53.89                             111     0.6 4  295 256 
 HEL  HZ I        2034 29.32         3.7 0.44                           295 256 
 RREF BZ EP   2   2033 58.81                             108    -0.1 3  342 232 
 RREF BN ES   2   2034 35.93                             108    -0.5 3  342 232 
 RREF BZ I        2034 42.66         5.0 0.20                           342 232 
                                                                                
