 2017  326 2335 30.0 L   6.770 -73.152146.3  RSN  5 0.1 1.4LRSN                1
 GAP=234        0.40       2.4     2.6  3.0  0.1368E+01  0.9555E+00  0.6438E+00E
 Epicentro: LOS SANTOS - SANTANDER                                             3
 ACTION:UPD 17-05-25 18:45 OP:jn   STATUS:               ID:20170326233530 L   I
 OLDACT:UP  17-03-27 03:57 OP:edw  STATUS:               ID:20170326232740     3
 OLDACT:REG 17-03-27 03:04 OP:cara STATUS:               ID:20170326232740     3
 2017-03-26-2328-00M.COL___360                                                 6
 STAT SP IPHASW D HRMM SECON CODA AMPLIT PERI AZIMU VELO AIN AR TRES W  DIS CAZ7
 BAR2 EZ EP       2335 49.69                             172    0.0310 19.9 190 
 BAR2 EZ ES       2336  4.86                             172   -0.1110 19.9 190 
 BAR2 EZ I        2336  6.26         7.7 0.16            166           19.9 190 
 BRR  HZ EP       2335 51.33                             152    0.0410 72.2 301 
 BRR  HE ES       2336  8.02                             152    0.1510 72.2 301 
 RUS  HZ EP       2335 53.60                             145    0.0010 97.3 175 
 RUS  HN ES       2336 11.94                             145   -0.0410 97.3 175 
 RUS  HZ I        2336 15.23         2.2 0.28            144           97.3 175 
 PTB  HZ EP       2335 56.62                             132   -0.29 9  146 260 
 PTB  HN ES       2336 17.82                             132   -0.07 9  146 260 
 PTB  HZ I        2336 25.23         2.7 0.40            131            146 260 
 SPBC HZ EP       2335 58.48                             130    0.20 9  160 220 
 SPBC HN ES       2336 20.40                             130    0.09 9  160 220 
 SPBC HZ I        2336 23.55         4.8 0.72            129            160 220 
 ZAR  HE ES   4   2336 28.47                             122    0.52 0  205 293 
                                                                                
