 2012  526 2352 14.2 L   6.784 -73.114148.2  RSN 12 0.5 2.1LRSN                1
 GAP=141        1.10       5.9     8.5  9.1 -0.9376E+01  0.3460E+02 -0.8264E+01E
 Epicentro: LOS SANTOS - SANTANDER                                             3
 ACTION:UP  12-07-05 12:08 OP:pat  STATUS:               ID:20120526235214 L   I
 2012-05-26-2350-00M.COL___198                                                 6
 STAT SP IPHASW D HRMM SECON CODA AMPLIT PERI AZIMU VELO SNR AR TRES W  DIS CAZ7
 BAR2 SZ EP       2352 34.33                             171     0.210   23 199 
 BAR2 SZ ES   1   2352 49.37                             171    -0.3 7   23 199 
 BAR2 SZ I        2352 50.86        19.7 0.36                            23 199 
 PAM  SZ EP       2352 37.17                             151     0.510   77  37 
 RUS  HZ EP       2352 38.15                             145     0.110   99 178 
 RUS  HE ES   1   2352 56.34                             145    -0.3 7   99 178 
 RUS  HZ I        2352 58.16        11.8 0.66                            99 178 
 PTB  HZ EP       2352 41.07                             132    -0.6 9  151 260 
 OCA  HN ES   3   2353  4.89                             129    -0.4 2  162 352 
 ZAR  HE ES   2   2353 12.58                             122    -0.4 4  208 292 
 NOR  SZ EP       2352 50.42                             119     0.1 8  237 235 
 CHI  HZ EP       2352 51.40                             118    -0.6 8  248 196 
 CHI  HN ES   2   2353 21.19                             118    -0.2 4  248 196 
 CHI  HZ I        2353 27.29         6.3 0.36                           248 196 
 HEL  HZ EP       2352 55.86                             115     1.0 8  275 256 
 HEL  HZ I        2353 32.85         5.1 0.28                           275 256 
 RREF HN ES   2   2353 38.01                             111     1.2 3  323 230 
 COD  HZ EP       2353  2.40                             109    -0.5 6  350 354 
 COD  HZ I        2353 37.44        14.5 0.66                           350 354 
 PRA  HZ EP       2353  7.55                             107    -0.3 6  392 210 
                                                                                
