 2014  526 2247 10.9 L   6.306 -73.664 87.0  RSN 13 0.6 1.5LRSN                1
 GAP= 66        1.40       3.4     3.4  9.4 -0.1967E+01  0.7454E+01  0.5294E+01E
 Epicentro: SANTA HELENA DEL OPON - SANTANDER                                  3
 ACTION:UPD 15-03-16 17:01 OP:nd   STATUS:               ID:20140526224710 L   I
 OLDACT:REG 14-05-27 08:06 OP:spq  STATUS:               ID:20140526223813     3
 2014-05-26-2238-13M.COL___261                                                 6
 STAT SP IPHASW D HRMM SECON CODA AMPLIT PERI AZIMU VELO AIN AR TRES W  DIS CAZ7
 BAR2 SZ EP       2247 26.30                             142    0.5510 62.0  59 
 BAR2 SZ ES   1   2247 38.11                             142    0.80 7 62.0  59 
 RUS  HZ EP       2247 28.33                             135    0.8310 78.9 125 
 RUS  HE ES       2247 39.69                             135   -0.7310 78.9 125 
 RUS  HZ I        2247 44.35         4.7 0.15            116           78.9 125 
 SPBC HZ EP       2247 28.56                             132    1.0410 85.3 212 
 SPBC HN ES       2247 39.83                             132   -0.6310 85.3 212 
 SPBC HZ I        2247 47.76         8.5 0.26            114           85.3 212 
 BRR  HE ES       2247 41.00                             130    0.2010 88.7 357 
 BRR  HZ I        2247 42.40        16.0 0.48            118           88.7 357 
 PTB  HZ EP       2247 27.44                             130   -0.5510 91.3 286 
 PTB  HE ES       2247 41.34                             130    0.0510 91.3 286 
 PTB  HZ I        2247 44.19        10.6 0.16            115           91.3 286 
 PAM  SZ EP       2247 34.48                             115   -0.96 9  156  43 
 PAM  SE ES       2247 53.97                             115   -0.58 9  156  43 
 PAM  SZ I        2247 58.12         3.7 0.50            103            156  43 
 NOR  HZ EP       2247 35.05                             114    0.12 9  157 238 
 NOR  HN ES       2247 53.99                             114    0.34 9  157 238 
 NOR  HZ I        2247 57.30         8.1 0.16            101            157 238 
 ZAR  HN ES       2247 59.64                             110    0.12 9  186 315 
 ZAR  HZ I        2248  3.00         6.1 0.26            100            186 315 
 CHI  HZ EP       2247 38.96                             110    0.27 9  186 182 
 CHI  HN ES       2248  0.07                             110   -0.27 9  186 182 
 CHI  HZ I        2248  9.86         1.5 0.38             99            186 182 
 HEL  HE ES       2248  4.61                             108   -0.02 8  207 267 
 HEL  HZ I        2248 11.84         4.9 0.54             98            207 267 
 GUY2CHZ EP   1   2247 43.22                             107    0.05 6  223 238 
 GUY2CHE ES   1   2248  7.96                             107   -0.35 6  223 238 
 GUY2CHZ I        2248 14.69         2.6 0.30                           223 238 
 RREF HE ES       2248 12.06                             105   -0.74 8  243 230 
 RREF HZ I        2248 23.41         2.0 0.58             96            243 230 
 PRA  HE ES   1   2248 28.14                             101    0.71 5  317 205 
 PRA  HZ I        2248 40.25         1.8 0.30             94            317 205 
                                                                                
