 2015 1126 2243 58.1 L   6.769 -73.172143.9  RSN  5 0.4 1.4LRSN                1
 GAP=232        0.67       5.8     5.2  7.1  0.1337E+02  0.2840E+01  0.2313E+01E
 Epicentro: LOS SANTOS - SANTANDER                                             3
 ACTION:UPD 15-12-28 16:13 OP:cam  STATUS:               ID:20151126224358 L   I
 OLDACT:REG 15-11-27 08:25 OP:dnl  STATUS:               ID:20151126223750     3
 2015-11-26-2237-50M.COL___310                                                 6
 STAT SP IPHASW D HRMM SECON CODA AMPLIT PERI AZIMU VELO AIN AR TRES W  DIS CAZ7
 BAR2 EZ EP   2   2244 17.01                             172   -0.46 5 19.5 183 
 BAR2 EZ ES   2   2244 32.39                             172   -0.16 5 19.5 183 
 BAR2 EZ I        2244 33.38         3.9 0.17            170           19.5 183 
 BRR  HZ EP   1   2244 19.23                             153    0.18 7 70.5 302 
 BRR  HE ES   1   2244 35.77                             153    0.42 7 70.5 302 
 RUS  HZ EP       2244 21.33                             145   -0.1510 97.4 174 
 RUS  HE ES       2244 39.84                             145    0.1710 97.4 174 
 RUS  HZ I        2244 40.72         3.6 0.25            145           97.4 174 
 PTB  HZ EP   2   2244 23.96                             133   -0.68 5  144 260 
 PTB  HN ES       2244 45.01                             133   -0.30 9  144 260 
 PTB  HZ I        2244 48.03         4.3 0.14            132            144 260 
 GUY2CHZ EP   2   2244 42.19                             113    1.02 4  297 235 
 GUY2CHN ES   2   2245 15.31                             113    0.58 4  297 235 
 GUY2CHZ I        2245 22.86         1.9 0.69                           297 235 
                                                                                
