 2017  526 2234 56.9 L   6.777 -73.181150.4  RSN 10 0.4 2.1LRSN                1
 GAP=208        0.76       3.4     3.8  5.1  0.4650E+01 -0.1297E+01  0.2523E+01E
 Epicentro: LOS SANTOS - SANTANDER                                             3
 ACTION:UPD 17-06-16 13:39 OP:jn   STATUS:               ID:20170526223456 L   I
 OLDACT:UP  17-05-27 10:13 OP:cog  STATUS:               ID:20170526222205     3
 OLDACT:REG 17-05-27 06:09 OP:cog  STATUS:               ID:20170526222205     3
 2017-05-26-2228-00M.COL___338                                                 6
 STAT SP IPHASW D HRMM SECON CODA AMPLIT PERI AZIMU VELO AIN AR TRES W  DIS CAZ7
 BRR  HZ EP       2235 18.39                             154   -0.0810 69.1 302 
 BRR  HE ES       2235 35.66                             154    0.4010 69.1 302 
 BRR  HZ I        2235 39.40        41.0 0.42            152           69.1 302 
 RUS  HZ EP       2235 20.59                             145   -0.4010 98.4 174 
 RUS  HN ES       2235 39.72                             145   -0.0310 98.4 174 
 RUS  HZ I        2235 40.30        11.1 0.26            145           98.4 174 
 PTB  HZ EP       2235 23.66                             134   -0.24 9  143 260 
 PTB  HN ES       2235 44.43                             134   -0.50 9  143 260 
 PTB  HZ I        2235 51.62        10.6 0.40            133            143 260 
 SPBC HZ EP       2235 25.61                             131    0.23 9  159 218 
 SPBC HE ES       2235 47.50                             131   -0.06 9  159 218 
 SPBC HZ I        2235 55.50        21.1 0.12            130            159 218 
 YPLC HZ EP       2235 27.00                             128   -0.04 9  177 150 
 YPLC HN ES   3   2235 51.53                             128    1.01 2  177 150 
 ZAR  HZ EP   4   2235 31.91                             124    2.49 0  201 293 
 ZAR  HN ES       2235 54.67                             124   -0.08 9  201 293 
 NOR  HZ EP       2235 33.24                             120    0.80 8  230 234 
 NOR  HN ES       2236  0.16                             120    0.03 8  230 234 
 NOR  HZ I        2236  8.19         7.5 0.28            120            230 234 
 CHI  HZ EP       2235 34.73                             118    0.21 8  245 194 
 CHI  HN ES       2236  3.97                             118    0.14 8  245 194 
 CHI  HZ I        2236  7.52        10.6 0.50            119            245 194 
 PTGC HZ EP   9   2235 39.75                             112   -1.15 0  308 158 
 PTGC HN ES       2236 13.69                             112   -0.35 7  308 158 
 PTGC HZ I        2236 17.56         9.1 0.32            114            308 158 
 ORTC HZ EP       2235 50.04                             107   -0.46 6  391 216 
 ORTC HN ES   3   2236 33.75                             107    1.46 1  391 216 
                                                                                
