 2017  326 2308 32.7 L   5.852 -73.955 93.5  RSN  5 0.4 1.1LRSN                1
 GAP=123        1.15       6.2     4.9  9.8  0.7575E+01 -0.1239E+02 -0.2775E+02E
 Epicentro: LA BELLEZA - SANTANDER                                             3
 ACTION:UPD 17-05-25 18:45 OP:jn   STATUS:               ID:20170326230832 L   I
 OLDACT:UP  17-03-27 04:22 OP:edw  STATUS:               ID:20170326230743d    3
 OLDACT:UP  17-03-27 04:19 OP:edw  STATUS:               ID:20170326230743d    3
 OLDACT:DUP 17-03-27 04:09 OP:edw  STATUS:               ID:20170326230743d    3
 2017-03-26-2308-00M.COL___360                                                 6
 STAT SP IPHASW D HRMM SECON CODA AMPLIT PERI AZIMU VELO AIN AR TRES W  DIS CAZ7
 SPBC HN ES       23 8 55.99                             164   -0.2310 25.6 211 
 SPBC HZ I        23 9  0.76         6.3 0.20            164           25.6 211 
 PTB  HZ EP       23 8 50.23                             131   -0.2610 94.1 324 
 PTB  HE ES       23 9  4.72                             131    0.3310 94.1 324 
 PTB  HZ I        23 9  8.95         3.7 0.10            135           94.1 324 
 RUS  HZ EP       23 8 52.05                             131    0.6910 96.6  87 
 RUS  HN ES       23 9  6.14                             131    0.1910 96.6  87 
 RUS  HZ I        23 9  8.07         3.1 0.62            137           96.6  87 
 BAR2 EZ EP       23 8 52.98                             124   -0.1710  118  46 
 BAR2 EZ ES       23 9  8.46                             124   -0.6710  118  46 
 BRR  HZ EP       23 8 54.77                             119   -0.48 9  141  11 
 BRR  HN ES       23 9 13.44                             119    0.56 9  141  11 
 ZAR  HN ES   4   23 9 24.45                             110   -1.63 0  207 331 
                                                                                
