 2013  226 2222 51.2 L   6.649 -73.537135.5  RSN 12 0.5 2.1LRSN                1
 GAP= 50        1.02       3.5     3.9  6.7  0.1097E+01  0.1617E+01  0.1059E+01E
 Epicentro: EL CARMEN DE CHUCURI - SANTANDER                                   3
 ACTION:UPD 13-03-12 09:36 OP:ep   STATUS:               ID:20130226222251 L   I
 2013-02-26-2220-00M.COL___228                                                 6
 STAT SP IPHASW D HRMM SECON CODA AMPLIT PERI AZIMU VELO AIN AR TRES W  DIS CAZ7
 BAR2 SZ EP       2223 10.24                             163    0.1510 39.8  99 
 BAR2 SZ ES   1   2223 24.49                             163   -0.32 7 39.8  99 
 BAR2 SZ I        2223 25.82       117.1 0.34            158           39.8  99 
 BRR  HZ IP     C 2223 10.73                             157    0.3810 54.2 339 
 BRR  HN ES   1   2223 26.36                             157    1.09 7 54.2 339 
 BRR  HZ I        2223 28.93        24.0 0.48            154           54.2 339 
 RUS  HZ EP       2223 13.52                             142   -0.2310 97.6 149 
 RUS  HE ES   1   2223 31.00                             142   -0.32 7 97.6 149 
 RUS  HZ I        2223 31.91         8.7 0.16            136           97.6 149 
 PTB  HZ EP       2223 13.00                             141   -0.4410  102 263 
 PTB  HN ES   1   2223 29.81                             141   -0.96 7  102 263 
 PTB  HZ I        2223 31.64        24.5 0.10            136            102 263 
 PAM  SZ EP       2223 15.69                             136    0.1610  120  50 
 PAM  SN ES   1   2223 34.85                             136    0.36 7  120  50 
 PAM  SZ I        2223 38.03        17.0 0.74            130            120  50 
 ZAR  HZ EP       2223 19.93                             125    0.10 9  173 303 
 ZAR  HN ES   1   2223 42.20                             125    0.05 7  173 303 
 ZAR  HZ I        2223 50.48        18.4 0.12            120            173 303 
 OCA  HN ES   1   2223 43.03                             124   -0.23 7  177   8 
 OCA  HZ I        2223 44.93        37.7 0.32            119            177   8 
 TAM  HZ EP       2223 21.60                             121   -0.46 9  195  97 
 TAM  HZ I        2223 45.32        10.3 0.20            116            195  97 
 TAM  HN ES   2   2223 45.45                             121   -0.67 4  195  97 
 CHI  HZ EP       2223 26.49                             118    0.78 8  224 186 
 CHI  HN ES   1   2223 53.14                             118    0.53 6  224 186 
 CHI  HZ I        2223 57.22         6.4 0.34            112            224 186 
 SML  HZ EP   1   2223 26.53                             115   -0.92 6  245 346 
 SML  HN ES   2   2223 55.57                             115   -0.15 4  245 346 
 RREF HN ES   2   2224  3.98                             112    0.20 4  278 226 
 RREF HZ I        2224 12.84         7.5 0.26            108            278 226 
 COD  HZ EP   2   2223 41.95                             106    0.95 3  364   2 
 COD  HE ES   2   2224 20.25                             106    0.42 3  364   2 
                                                                                
