 2010  726 2155 22.7 L   6.776 -73.079151.2  RSN  6 0.3 2.2LRSN                1
 GAP=172        0.60       3.2     7.1  5.1  0.3351E-01 -0.2288E-01 -0.1315E+01E
 Epicentro: LOS SANTOS - SANTANDER                                             3
 ACTION:UPD 10-12-01 15:20 OP:pat  STATUS:               ID:20100726215522 L   I
 2010-07-26-2151-14S.COL___122                                                 6
 STAT SP IPHASW D HRMM SECON CODA AMPLIT PERI AZIMU VELO AIN AR TRES W  DIS CAZ7
 BAR2 SZ EP   1   2155 42.88                             171    -0.2 7   23 210 
 BAR2 SZ ES   1   2155 58.55                             171    -0.3 7   23 210 
 BAR2 SZ I        2155 59.94        48.1 0.20                            23 210 
 BRR  HZ IP     C 2155 45.00                             151     0.110   79 298 
 BRR  HZ I        2155 45.27        97.6 0.16                            79 298 
 BRR  HN ES   1   2156  2.49                             151     0.2 7   79 298 
 RUS  HZ EP   1   2155 46.89                             146     0.1 7   98 180 
 RUS  HN ES       2156  5.68                             146     0.110   98 180 
 RUS  HZ I        2156  6.95        15.9 0.21                            98 180 
 GUE  SZ EP       2155 48.08                             140     0.010  118   8 
 GUE  SZ I        2155 50.00         8.2 0.14                           118   8 
 CHI  HZ EP   2   2156  0.93                             118     0.2 4  248 197 
 CHI  HZ I        2156  1.74         8.5 0.37                           248 197 
 CHI  HE ES   2   2156 31.05                             118     0.8 4  248 197 
 PRA  HZ EP   1   2156 16.47                             107    -0.1 4  393 211 
 PRA  HE ES   1   2156 57.88                             107    -0.8 4  393 211 
 PRA  HZ I        2157  7.17         6.9 0.43                           393 211 
                                                                                
