 2017  226 2044 34.5 L   6.800 -73.160144.0  RSN 11 0.4 1.9LRSN                1
 GAP=135        0.73       3.1     3.1  5.0 -0.1063E+01  0.6414E+01 -0.7936E+00E
 Epicentro: LOS SANTOS - SANTANDER                                             3
 ACTION:UPD 17-05-24 15:41 OP:jn   STATUS:               ID:20170226204434 L   I
 OLDACT:UP  17-02-27 03:42 OP:e    STATUS:               ID:20170226203745     3
 OLDACT:UP  17-02-27 03:42 OP:e    STATUS:               ID:20170226203745     3
 OLDACT:UP  17-02-27 03:41 OP:e    STATUS:               ID:20170226203745     3
 OLDACT:UP  17-02-27 03:39 OP:e    STATUS:               ID:20170226203745     3
 OLDACT:UP  17-02-27 03:39 OP:e    STATUS:               ID:20170226203745     3
 OLDACT:UP  17-02-27 03:38 OP:e    STATUS:               ID:20170226203745     3
 OLDACT:UP  17-02-27 03:38 OP:e    STATUS:               ID:20170226203745     3
 OLDACT:REG 17-02-27 02:43 OP:and  STATUS:               ID:20170226203745     3
 2017-02-26-2038-00M.COL___376                                                 6
 STAT SP IPHASW D HRMM SECON CODA AMPLIT PERI AZIMU VELO AIN AR TRES W  DIS CAZ7
 BAR2 EZ EP       2044 53.97                             171    0.0410 23.1 186 
 BAR2 EZ ES       2045  8.96                             171   -0.1210 23.1 186 
 BAR2 EZ I        2045  9.98        21.4 0.26            169           23.1 186 
 BRR  HZ EP       2044 55.65                             153    0.2510 69.8 299 
 BRR  HN ES   3   2045 12.54                             153    0.85 2 69.8 299 
 BRR  HZ I        2045 17.47        19.6 0.20            141           69.8 299 
 PAM  EZ IP     D 2044 56.81                             150    0.2010 78.4  40 
 PAM  EN ES       2045 13.85                             150    0.0110 78.4  40 
 PAM  EZ I        2045 15.91        11.8 0.46            144           78.4  40 
 RUS  HZ EP       2044 57.98                             143   -0.1210  101 175 
 RUS  HN ES       2045 16.57                             143    0.0710  101 175 
 RUS  HZ I        2045 17.92         8.5 0.26            140            101 175 
 PTB  HZ EP       2045  0.67                             132   -0.53 9  146 259 
 PTB  HN ES       2045 21.34                             132   -0.67 9  146 259 
 PTB  HZ I        2045 27.27         6.6 0.20            122            146 259 
 ZAR  HZ EP       2045  6.63                             122   -0.07 9  203 292 
 ZAR  HN ES       2045 32.32                             122    0.52 9  203 292 
 ZAR  HZ I        2045 37.86         9.2 0.28            113            203 292 
 NOR  HZ EP       2045 10.41                             118    0.41 8  233 234 
 NOR  HN ES       2045 37.74                             118    0.06 8  233 234 
 NOR  HZ I        2045 46.35         4.8 0.24            111            233 234 
 CHI  HZ EP   2   2045 12.27                             117    0.20 4  248 195 
 CHI  HN ES   2   2045 41.60                             117    0.24 4  248 195 
 CHI  HZ I        2045 46.74         5.0 0.40            111            248 195 
 HEL  HE ES   3   2045 47.17                             114    1.54 2  271 256 
 HEL  HZ I        2045 52.81         4.0 0.52            108            271 256 
 URE  HZ EP   3   2045 14.37                             113   -0.97 2  282 292 
 URE  HZ I        2045 56.06         4.8 0.22            106            282 292 
 SJC  HZ EP   2   2045 29.37                             105   -0.55 3  408 327 
 SJC  HN ES   4   2046  9.95                             105   -3.19 0  408 327 
                                                                                
