 2017 1126 2122  4.4 L   6.841 -73.124146.6  RSN 31 0.9 3.0LRSN 3.5WRSN        1
 SPEC AVERAGE  MO 14.4 ST  1.6 OM  3.0 f0 1.67 R1.5102 AL 0.00 WI 30.0 MW  3.5 3
 SPEC SD       MO  0.5 ST  2.2 OM  0.5 f00.868 R0.5476 AL      WI      MW  0.4 3
 GAP= 56        1.74       3.2     3.6  7.1 -0.5585E+00  0.7184E+01 -0.1379E+00E
 Epicentro: LOS SANTOS - SANTANDER                                             3
 SPEC RUS HH Z MO 14.4 ST0.602 OM  2.4 f0 1.61 R1.1950 AL 0.00 WI 30.0 MW  3.5 3
 SPEC RUS HH Z T212245 K 0.000 GD  180 VS 5.20 DE 3.50 Q0750.0 QA 1.50 VS 3.50 3
 SPEC OCA HH Z MO 14.4 ST  5.6 OM  2.4 f0 3.19 R0.6031 AL 0.00 WI 30.0 MW  3.6 3
 SPEC OCA HH Z T212252 K 0.000 GD  214 VS 5.20 DE 3.50 Q0750.0 QA 1.50 VS 3.50 3
 SPECDRL03HH Z MO 12.2 ST0.020 OM  0.0 f0 2.68 R0.7179 AL 0.00 WI 30.0 MW  2.1 3
 SPECDRL03HH Z T212316 K 0.000 GD  320 VS 5.20 DE 3.50 Q0750.0 QA 1.50 Q1 0.00 3
 SPECGUY2CHH Z MO 14.3 ST0.121 OM  2.1 f00.961 R2.0021 AL 0.00 WI 30.0 MW  3.5 3
 SPECGUY2CHH Z T212322 K 0.000 GD  339 VS 5.20 DE 3.50 Q0750.0 QA 1.50 Q1 0.00 3
 SPEC VIL EH Z MO 14.3 ST0.192 OM  2.1 f0 1.12 R1.7179 AL 0.00 WI 30.0 MW  3.5 3
 SPEC VIL EH Z T212321 K 0.000 GD  341 VS 5.20 DE 3.50 Q0750.0 QA 1.50 VS 3.50 3
 SPEC APACHH Z MO 14.3 ST0.060 OM  2.0 f00.762 R2.5249 AL 0.00 WI 30.0 MW  3.5 3
 SPEC APACHH Z T212340 K 0.000 GD  425 VS 5.20 DE 3.50 Q0750.0 QA 1.50 VS 3.50 3
 OLDACT:UP  17-11-27 04:36 OP:leo  STATUS:               ID:20171126211738     3
 OLDACT:REG 17-11-27 03:26 OP:leo  STATUS:               ID:20171126211738     3
 ACTION:UPD 17-12-12 20:00 OP:rebc STATUS:               ID:20171126212204 L   I
 OLDACT:UP  17-11-27 04:38 OP:leo  STATUS:               ID:20171126211738     3
 OLDACT:UP  17-11-27 04:37 OP:leo  STATUS:               ID:20171126211738     3
 2017-11-26-2118-00M.COL___495                                                 6
 STAT SP IPHASW D HRMM SECON CODA AMPLIT PERI AZIMU VELO AIN AR TRES W  DIS CAZ7
 BAR2 EZ EP       2122 24.21                             169   -0.0510 28.3 193 
 BAR2 HN ES       2122 39.48                             169   -0.2610 28.3 193 
 BAR2 EZ I        2122 40.11       202.7 0.32            167           28.3 193 
 PAM  EZ EP       2122 27.11                             152    0.6710 72.4  40 
 PAM  EN ES       2122 44.06                             152    0.4510 72.4  40 
 PAM  EZ I        2122 46.00       282.7 0.52            156           72.4  40 
 RUS  HZ EP       2122 28.29                             143   -0.2910  105 178 
 RUS  HN ES       2122 46.78                             143   -0.6410  105 178 
 RUS  HZ I        2122 48.80       191.3 0.18            143            105 178 
 PTB  HZ EP       2122 30.81                             131   -0.95 9  151 257 
 PTB  HN ES       2122 52.06                             131   -1.02 9  151 257 
 PTB  HZ I        2122 54.32       123.5 0.12            131            151 257 
 TAM  HZ IP     D 2122 32.62                             131    0.55 9  154 107 
 TAM  HN ES       2122 54.34                             131    0.71 9  154 107 
 OCA  HZ EP       2122 32.23                             130   -0.18 9  156 352 
 OCA  HN ES       2122 54.26                             130    0.03 9  156 352 
 SPBC HZ EP       2122 33.13                             128   -0.33 9  168 219 
 SPBC HE ES       2122 56.08                             128   -0.04 9  168 219 
 SPBC HZ I        2123  0.16       115.8 0.44            128            168 219 
 YPLC HZ EP       2122 34.83                             126    0.27 9  180 153 
 YPLC HN ES       2122 59.02                             126    0.95 9  180 153 
 YPLC HZ I        2123  1.62       110.7 0.30            127            180 153 
 ZAR  HZ EP       2122 36.94                             122   -0.04 9  205 291 
 ZAR  HE ES       2123  2.43                             122    0.05 9  205 291 
 ZAR  HZ I        2123 11.18        85.1 0.18            122            205 291 
 NOR  HZ EP       2122 40.57                             118   -0.12 8  239 234 
 NOR  HN ES       2123  9.60                             118    0.62 8  239 234 
 NOR  HZ I        2123 10.03        59.6 0.16            118            239 234 
 CHI  HZ EP       2122 42.87                             117    0.16 8  254 195 
 CHI  HN ES       2123 11.98                             117   -0.60 8  254 195 
 CHI  HZ I        2123 20.98        34.1 0.44            117            254 195 
 ROSC BZ EP   4   2122 44.34                             116    1.19 0  258 211 
 ROSC BN ES   4   2123 15.65                             116    2.30 0  258 211 
 ROSC BZ I        2123 21.22        82.5 0.35            116            258 211 
 HEL  HZ EP       2122 45.83                             114    0.77 7  276 255 
 HEL  HN ES       2123 17.34                             114    0.58 7  276 255 
 HEL  HZ I        2123 23.66        60.8 0.28            115            276 255 
 URE  HZ EP       2122 44.19                             113   -1.41 7  284 291 
 URE  HN ES       2123 15.16                             113   -2.55 7  284 291 
 URE  HZ I        2123 25.34        55.0 0.28            114            284 291 
 DRL03HZ EP       2122 45.82                             113    0.22 7  285 352 
 DRL03HN ES       2123 18.31                             113    0.59 7  285 352 
 GUY2CHZ EP       2122 48.69                             112    0.10 7  306 234 
 GUY2CHN ES       2123 24.00                             112    0.97 7  306 234 
 GUY2CHZ I        2123 32.19        49.2 0.34                           306 234 
 VIL  EZ EP       2122 48.27                             112   -0.16 7  308 192 
 VIL  EN ES       2123 22.77                             112    0.01 7  308 192 
 VIL  EZ I        2123 33.13        85.7 0.38            112            308 192 
 PTGC HZ EP       2122 47.52                             111   -1.18 7  312 159 
 PTGC HN ES       2123 21.12                             111   -2.11 7  312 159 
 PTGC HZ I        2123 23.68        44.8 0.48            112            312 159 
 NIZA HZ EP       2122 52.67                             110    2.00 7  326 233 
 CBOC HZ EP       2122 52.91                             110    1.12 7  337 251 
 CBOC HN ES       2123 28.37                             110   -0.37 7  337 251 
 CBOC HZ I        2123 44.77        25.9 0.16            110            337 251 
 DBB  EZ EP       2122 52.47                             109    0.30 7  342 273 
 DBB  HN ES       2123 28.96                             109   -0.45 7  342 273 
 DBB  EZ I        2123 31.34        27.0 0.22            110            342 273 
 SDV  BZ EP       2122 53.75                             108   -0.20 6  356  50 
 SDV  B1 ES       2123 31.07                             108   -1.50 6  356  50 
 SDV  BZ I        2123 33.94        16.6 0.40            110            356  50 
 ARGC HZ EP       2122 54.81                             108    1.10 6  356 340 
 ARGC HN ES       2123 33.71                             108    1.56 6  356 340 
 ARGC HZ I        2123 39.45        23.0 0.34            109            356 340 
 PRA  HZ EP       2122 58.18                             106   -0.39 6  397 210 
 PRA  HN ES       2123 41.30                             106    0.49 6  397 210 
 PRA  HZ I        2123 46.80        50.3 0.24            107            397 210 
 APAC HZ EP       2122 58.17                             106   -0.57 6  399 287 
 APAC HN ES       2123 42.31                             106    1.19 6  399 287 
 APAC HZ I        2123 43.72        15.3 0.40            107            399 287 
 ORTC HZ EP       2122 58.92                             106   -0.04 6  401 216 
 ORTC HE ES       2123 43.65                             106    2.14 6  401 216 
 ORTC HZ I        2123 45.96        21.6 0.58            107            401 216 
 SJC  HZ EP   4   2122 58.02                             106   -1.70 0  407 326 
 SJC  HN ES   4   2123 39.57                             106   -3.28 0  407 326 
 SJC  HZ I        2123 43.64        25.2 0.42            106            407 326 
 PAL  HZ EP       2123  0.07                             106   -0.05 6  410 239 
 PAL  HN ES       2123 44.24                             106    0.67 6  410 239 
 PAL  HZ I        2123 48.68        18.6 0.40            106            410 239 
 YOT  HZ EP       2123  6.96                             103   -1.10 5  477 229 
 YOT  HN ES       2123 57.58                             103   -0.11 5  477 229 
 SMAR HZ EP       2123  8.79                             102   -1.07 4  493 346 
 CAP2 HZ EP   4   2123 10.34                             102   -1.31 0  508 293 
 CAP2 HN ES   4   2124  0.75                             102   -3.34 0  508 293 
 CAP2 HZ I        2124  2.92         8.8 0.12            102            508 293 
                                                                                
