 2012  226 2316 55.7 L   6.704 -73.204153.4  RSN  5 0.4 1.7LRSN                1
 GAP=170        0.70       7.2     7.2  9.2  0.2777E+02 -0.5084E+01 -0.6986E+01E
 ACTION:UP  12-03-07 16:34 OP:epov STATUS:               ID:20120226231655 L   I
 2012-02-26-2310-00M.COL___192                                                 6
 STAT SP IPHASW D HRMM SECON CODA AMPLIT PERI AZIMU VELO AIN AR TRES W  DIS CAZ7
 GIR2 SZ EP   2   2317 16.00                             164   -0.62 5 41.5   2 
 BRR  HZ EP   1   2317 17.78                             154    0.04 7 71.7 308 
 BRR  HZ I        2317 18.05        12.1 0.16                          71.7 308 
 BRR  HE ES   1   2317 35.28                             154    0.37 7 71.7 308 
 RUS  HZ EP   1   2317 20.09                             148    0.50 7 90.7 172 
 RUS  HN ES   1   2317 37.79                             148   -0.40 7 90.7 172 
 RUS  HZ I        2317 39.75         4.1 0.46                          90.7 172 
 PTB  HZ EP   1   2317 22.61                             135   -0.02 7  140 263 
 PTB  HN ES   1   2317 43.64                             135    0.02 7  140 263 
 ZAR  HN ES   2   2317 53.37                             124   -0.74 4  202 296 
 ZAR  HZ I        2317 59.54         6.6 0.36                           202 296 
                                                                                
