 2010  326 2136 35.8 L   6.817 -73.036144.1  RSN 12 0.4 2.9LRSN                1
 GAP=194        0.74       3.1     6.5  5.5 -0.1092E+01  0.8790E+01  0.3397E+01E
 Epicentro: CEPITA - SANTANDER                                                 3
 ACTION:UP  10-08-24 09:56 OP:vdl  STATUS:               ID:20100326213635 L   I
 2010-03-26-2132-40S.COL___098                                                 6
 STAT SP IPHASW D HRMM SECON CODA AMPLIT PERI AZIMU VELO SNR AR TRES W  DIS CAZ7
 BAR2 SZ IP       2136 55.59                             168     0.210   30 213 
 BAR2 SZ ES   1   2137 10.13                             168    -0.5 7   30 213 
 BRR  HZ IP       2136 57.45                             149     0.110   81 293 
 BRR  HN ES   1   2137 14.54                             149     0.4 7   81 293 
 BRR  HZ I        2137 18.62       102.4 0.21                            81 293 
 RUS  HZ IP       2136 59.61                             143     0.110  102 183 
 RUS  HN ES   1   2137 18.11                             143     0.1 7  102 183 
 RUS  HZ I        2137 20.10        49.7 0.23                           102 183 
 OCA  SZ EP   1   2137  4.06                             129     0.1 7  160 349 
 OCA  SZ ES   1   2137 25.53                             129    -0.4 7  160 349 
 OCA  SZ I        2137 28.96       145.2 0.20                           160 349 
 CHI  HZ IP       2137 13.96                             116     0.0 8  254 198 
 CHI  HN ES   2   2137 43.03                             116    -0.7 4  254 198 
 CHI  HZ I        2137 50.45        27.0 0.61                           254 198 
 ROSC BN ES   1   2137 44.52                             115    -0.5 6  261 213 
 ROSC BZ I        2137 50.15        40.4 0.77                           261 213 
 HEL  HZ EP   2   2137 17.09                             113    -0.2 4  284 256 
 HEL  HZ I        2137 54.74        40.9 0.44                           284 256 
 RREF BZ EP   1   2137 23.27                             110     0.2 5  332 231 
 RREF BE ES   1   2138  0.54                             110     0.6 5  332 231 
 RREF BZ I        2138  4.04        26.1 0.23                           332 231 
 DBB  SZ EP   1   2137 23.75                             108    -0.8 5  351 274 
 TOL  SZ EP   2   2137 25.52                             108     0.4 3  353 226 
 ANIL BZ EP   2   2137 27.20                             108     0.5 3  367 226 
 ANIL BZ I        2138 11.91        57.1 0.24                           367 226 
 PRA  HZ EP   1   2137 29.64                             106    -0.5 4  400 211 
 PRA  HE ES   1   2138 12.37                             106    -0.2 4  400 211 
 PRA  HZ I        2138 16.21        33.3 0.60                           400 211 
                                                                                
