 2012  826 2132 35.5 L   6.755 -73.119151.7  RSN  9 0.3 2.0LRSN                1
 GAP=142        0.68       3.6     4.1  4.9  0.8488E+00  0.1420E+01 -0.1118E+01E
 Epicentro: LOS SANTOS - SANTANDER                                             3
 ACTION:UPD 12-09-10 11:58 OP:ep   STATUS:               ID:20120826213235 L   I
 2012-08-26-2130-00M.COL___217                                                 6
 STAT SP IPHASW D HRMM SECON CODA AMPLIT PERI AZIMU VELO AIN AR TRES W  DIS CAZ7
 BAR2 SZ EP       2132 55.75                             173    0.0110 19.3 201 
 BAR2 SZ I        2132 56.37        22.5 0.17                          19.3 201 
 BAR2 SZ ES   1   2133 11.29                             173   -0.26 7 19.3 201 
 BRR  HZ EP       2132 57.71                             152    0.1710 76.3 301 
 BRR  HZ I        2132 59.24        28.7 0.09                          76.3 301 
 BRR  HN ES       2133 15.07                             152    0.3110 76.3 301 
 PAM  SZ EP       2132 58.29                             151   -0.1510 79.5  36 
 RUS  HZ EP       2132 59.62                             147    0.1710 95.4 178 
 RUS  HN ES   1   2133 18.04                             147   -0.12 7 95.4 178 
 PTB  HZ EP       2133  2.48                             133   -0.63 9  150 261 
 PTB  HZ I        2133 29.71         7.4 0.20                           150 261 
 OCA  HZ EP       2133  5.00                             130    0.26 9  166 352 
 ZAR  HZ EP   1   2133  8.32                             123   -0.46 6  209 293 
 ZAR  HN ES   1   2133 34.67                             123   -0.10 6  209 293 
 ZAR  HZ I        2133 40.26        12.4 0.31                           209 293 
 NOR  SZ EP   1   2133 11.66                             120    0.15 6  234 236 
 NOR  SN ES   1   2133 39.85                             120    0.23 6  234 236 
 NOR  SZ I        2133 44.03         6.5 0.28                           234 236 
 PRA  HZ EP   1   2133 29.56                             108    0.69 4  389 210 
                                                                                
