 2014 1026 2325 34.8 L   6.815 -73.180139.7  RSN  4 0.5 1.3LRSN                1
 GAP=132        1.38       7.4     6.9 12.3 -0.5980E+01  0.7223E+01  0.1492E+02E
 Epicentro: ZAPATOCA - SANTANDER                                               3
 ACTION:UPD 14-11-29 23:57 OP:nd   STATUS:               ID:20141026232534 L   I
 OLDACT:ARG 14-10-29 14:56 OP:stll STATUS:               ID:20141026231748     3
 2014-10-26-2317-48M.COL___271                                                 6
 STAT SP IPHASW D HRMM SECON CODA AMPLIT PERI AZIMU VELO AIN AR TRES W  DIS CAZ7
 BRR  HZ EP       2325 55.78                             153    0.6710 67.1 299 
 BRR  HN ES       2326 11.53                             153    0.6210 67.1 299 
 BRR  HE I        2326 17.05         5.8 0.20            153           67.1 299 
 PAM  SZ EP       2325 56.79                             149    0.2910 78.7  42 
 PAM  SN ES       2326 12.60                             149   -0.7810 78.7  42 
 PAM  SN I        2326 14.88         3.6 0.46            153           78.7  42 
 RUS  HZ EP       2325 58.26                             142    0.1110  103 174 
 RUS  HN ES       2326 16.47                             142    0.1510  103 174 
 RUS  HN I        2326 17.39         2.2 0.56            147            103 174 
 PTB  HZ EP       2326  0.35                             131   -0.66 9  144 258 
 PTB  HN ES       2326 20.87                             131   -0.55 9  144 258 
                                                                                
