 2014 1026 2019 22.4 L   6.772 -73.131148.4  RSN  7 0.3 2.1LRSN                1
 GAP= 97        0.91       4.2     3.2  5.8 -0.2013E+01 -0.1009E+00  0.3186E+01E
 Epicentro: LOS SANTOS - SANTANDER                                             3
 ACTION:UPD 14-11-29 23:57 OP:nd   STATUS:               ID:20141026201922 L   I
 OLDACT:ARG 14-10-29 14:56 OP:stll STATUS:               ID:20141026201745     3
 2014-10-26-2017-45M.COL___277                                                 6
 STAT SP IPHASW D HRMM SECON CODA AMPLIT PERI AZIMU VELO AIN AR TRES W  DIS CAZ7
 BAR2 SZ EP       2019 42.07                             172   -0.1910 20.7 196 
 BAR2 SZ ES       2019 57.61                             172   -0.1710 20.7 196 
 BAR2 SZ I        2019 59.85        11.9 0.26            169           20.7 196 
 BRR  HZ EP       2019 44.21                             152    0.2510 74.2 300 
 BRR  HN ES       2020  1.36                             152    0.5510 74.2 300 
 BRR  HN I        2020  4.02        29.3 0.20            153           74.2 300 
 PAM  SZ EP       2019 45.02                             151    0.0810 78.8  37 
 PAM  SN ES       2020  2.36                             151   -0.1910 78.8  37 
 PAM  SN I        2020  3.18        19.4 0.20            156           78.8  37 
 RUS  HZ EP       2019 46.08                             145   -0.0710 97.4 177 
 RUS  HN ES       2020  4.44                             145   -0.2610 97.4 177 
 RUS  HN I        2020  7.83         9.3 0.16            145           97.4 177 
 PTB  HZ EP       2019 49.07                             132   -0.57 9  149 260 
 PTB  HN ES       2020 10.44                             132   -0.48 9  149 260 
 PTB  HE I        2020 15.92        20.8 0.46            133            149 260 
 TAM  HZ EP       2019 50.37                             132    0.34 9  153 104 
 TAM  HN ES       2020 11.61                             132   -0.00 9  153 104 
 TAM  HN I        2020 12.93        25.5 0.36            135            153 104 
 SPBC HZ EP       2019 50.97                             130    0.03 9  162 220 
 SPBC HN ES       2020 13.94                             130    0.71 9  162 220 
 SPBC HN I        2020 19.76        33.5 0.10            131            162 220 
                                                                                
