 2016  426 2253 26.9 L   6.795 -73.159144.0  RSN  8 0.3 2.1LRSN                1
 GAP=135        0.73       2.7     3.1  5.3 -0.9786E+00  0.5218E+01  0.1406E+01E
 Epicentro: LOS SANTOS - SANTANDER                                             3
 ACTION:UPD 16-05-05 14:24 OP:rebc STATUS:               ID:20160426225326 L   I
 OLDACT:REG 16-04-27 03:44 OP:ar   STATUS:               ID:20160426224743     3
 2016-04-26-2247-43M.COL___315                                                 6
 STAT SP IPHASW D HRMM SECON CODA AMPLIT PERI AZIMU VELO AIN AR TRES W  DIS CAZ7
 PAM  EZ EP       2253 49.12                             150    0.1510 78.8  40 
 PAM  EE ES       2254  6.10                             150   -0.1210 78.8  40 
 PAM  EZ I        2254  8.17        22.1 0.58            157           78.8  40 
 RUS  HZ EP       2253 50.07                             144   -0.3310  100 175 
 RUS  HN ES       2254  9.04                             144    0.2810  100 175 
 RUS  HZ I        2254 11.60         9.8 0.38            147            100 175 
 PTB  HZ EP       2253 53.05                             132   -0.48 9  146 259 
 PTB  HN ES       2254 14.69                             132    0.35 9  146 259 
 PTB  HZ I        2254 21.65        15.7 0.42            134            146 259 
 SPBC HZ EP       2253 55.10                             129    0.01 9  162 219 
 SPBC HN ES       2254 17.03                             129   -0.07 9  162 219 
 SPBC HZ I        2254 22.09        24.8 0.20            132            162 219 
 ZAR  HZ EP       2253 59.58                             122    0.52 9  203 292 
 ZAR  HE ES       2254 23.98                             122   -0.21 9  203 292 
 ZAR  HZ I        2254 30.36        12.1 0.30            125            203 292 
 NOR  HZ EP       2254  2.21                             118   -0.10 8  233 234 
 NOR  HN ES       2254 29.60                             118   -0.37 8  233 234 
 NOR  HZ I        2254 37.40         8.8 0.34            121            233 234 
 CHI  HZ EP       2254  4.20                             117   -0.15 8  248 195 
 CHI  HN ES       2254 33.76                             117    0.16 8  248 195 
 CHI  HZ I        2254 37.50         6.1 0.40            121            248 195 
 GUY2CHZ EP       2254 10.73                             112    0.52 7  300 235 
 GUY2CHN ES   4   2254 46.85                             112    2.83 0  300 235 
 GUY2CHZ I        2254 52.71         8.5 0.74                           300 235 
                                                                                
