 2014  426 2211 24.5 L   6.854 -73.130145.2  RSN 11 0.6 2.3LRSN                1
 GAP=136        1.48       4.3     5.8  9.2 -0.5188E+01  0.1621E+02  0.1888E+01E
 Epicentro: LOS SANTOS - SANTANDER                                             3
 ACTION:UPD 14-05-13 23:11 OP:nd   STATUS:               ID:20140426221124 L   I
 OLDACT:REG 14-04-27 07:55 OP:stll STATUS:               ID:20140426220812     3
 2014-04-26-2208-12M.COL___248                                                 6
 STAT SP IPHASW D HRMM SECON CODA AMPLIT PERI AZIMU VELO AIN AR TRES W  DIS CAZ7
 BRR  HZ EP       2211 45.96                             153    0.4010 70.1 294 
 BRR  HZ I        2211 46.26        26.9 0.18            150           70.1 294 
 BRR  HE ES       2212  2.85                             153    0.8910 70.1 294 
 PAM  SZ EP       2211 46.99                             152    0.6310 71.8  42 
 PAM  SZ I        2211 47.30        58.4 0.18            156           71.8  42 
 PAM  SN ES       2212  3.88                             152    0.4910 71.8  42 
 RUS  HZ EP       2211 48.70                             142    0.0510  106 177 
 RUS  HE ES       2212  6.98                             142   -0.4910  106 177 
 PTB  HZ EP       2211 51.12                             131   -0.60 9  151 257 
 PTB  HN ES       2212 12.59                             131   -0.33 9  151 257 
 PTB  HZ I        2212 14.86        23.1 0.38            130            151 257 
 OCA  HE ES       2212 13.09                             131   -0.81 9  155 352 
 SPBC HZ EP       2211 53.14                             128   -0.39 9  169 218 
 SPBC HE ES       2212 15.39                             128   -0.76 9  169 218 
 SPBC HZ I        2212 23.13        14.5 0.28            128            169 218 
 ZAR  HZ EP       2211 57.91                             122    1.03 9  203 290 
 ZAR  HN ES       2212 22.61                             122    0.50 9  203 290 
 ZAR  HZ I        2212 27.82        30.7 0.32            122            203 290 
 SML  HZ EP       2212  0.25                             118   -0.37 8  239 334 
 SML  HN ES       2212 27.48                             118   -1.29 8  239 334 
 SML  HZ I        2212 34.15        20.3 0.10            118            239 334 
 NOR  HZ EP       2212  0.83                             118    0.08 8  240 234 
 NOR  HE ES       2212 28.51                             118   -0.49 8  240 234 
 NOR  HZ I        2212 34.65         8.7 0.16            118            240 234 
 HEL  HZ EP   1   2212  5.80                             114    0.74 6  275 255 
 HEL  HN ES       2212 36.58                             114   -0.10 8  275 255 
 HEL  HZ I        2212 44.18         7.6 0.50            114            275 255 
 GUY2CHZ EP   2   2212  9.69                             112    1.03 4  306 234 
 GUY2CHN ES       2212 43.77                             112    0.69 7  306 234 
 GUY2CHZ I        2212 52.77         8.5 0.62                           306 234 
                                                                                
