 2017  926 2314 40.7 L   6.827 -73.135145.3  RSN 20 0.6 2.6LRSN                1
 GAP= 66        1.14       3.4     3.0  5.5  0.9243E+00  0.4523E+01  0.3717E+01E
 Epicentro: LOS SANTOS - SANTANDER                                             3
 ACTION:UPD 17-10-05 19:16 OP:rebc STATUS:               ID:20170926231440 L   I
 OLDACT:UP  17-09-27 05:42 OP:leo  STATUS:               ID:20170926230740     3
 OLDACT:UP  17-09-27 05:01 OP:leo  STATUS:               ID:20170926230740     3
 OLDACT:REG 17-09-27 03:57 OP:leo  STATUS:               ID:20170926230740     3
 2017-09-26-2308-00M.COL___453                                                 6
 STAT SP IPHASW D HRMM SECON CODA AMPLIT PERI AZIMU VELO AIN AR TRES W  DIS CAZ7
 BAR2 EZ IP     C 2315  0.09                             169   -0.2310 26.4 191 
 BAR2 EZ ES       2315 14.73                             169   -0.9110 26.4 191 
 BAR2 EZ I        2315 16.16        80.6 0.18            168           26.4 191 
 BRR  HZ EP       2315  2.14                             152    0.3810 70.9 296 
 BRR  HN ES       2315 18.86                             152    0.6610 70.9 296 
 BRR  HZ I        2315 22.91        71.8 0.12            151           70.9 296 
 PAM  EZ IP     C 2315  2.96                             152    0.2910 74.4  40 
 PAM  EE ES       2315 19.86                             152    0.0410 74.4  40 
 PAM  EZ I        2315 22.26       124.0 0.64            154           74.4  40 
 RUS  HZ EP       2315  4.46                             143   -0.1410  103 177 
 RUS  HN ES   4   2315 22.09                             143   -1.16 0  103 177 
 RUS  HZ I        2315 23.15        47.3 0.46            143            103 177 
 TAM  HZ IP     C 2315  8.45                             130    0.16 9  155 106 
 TAM  HZ EP       2315  8.49                             130    0.20 9  155 106 
 TAM  HN ES       2315 29.86                             130    0.03 9  155 106 
 TAM  HZ I        2315 30.99        30.0 0.28            132            155 106 
 YPLC HZ IP     D 2315 10.56                             126   -0.09 9  179 152 
 YPLC HN ES       2315 34.14                             126    0.13 9  179 152 
 YPLC HZ I        2315 37.81        31.8 0.28            127            179 152 
 ZAR  HZ EP       2315 13.98                             122    0.89 9  204 291 
 ZAR  HN ES       2315 39.07                             122    0.70 9  204 291 
 ZAR  HZ I        2315 44.24        96.3 0.32            122            204 291 
 NOR  HZ EP       2315 16.75                             118    0.08 8  237 234 
 NOR  HE ES       2315 44.69                             118   -0.05 8  237 234 
 NOR  HZ I        2315 50.00        32.5 0.34            118            237 234 
 CHI  HZ EP       2315 18.43                             117   -0.27 8  252 195 
 CHI  HN ES   3   2315 47.29                             117   -1.06 2  252 195 
 CHI  HZ I        2315 50.80        13.9 0.30            117            252 195 
 ROSC BZ EP   3   2315 20.37                             116    1.25 2  256 211 
 ROSC BN ES   3   2315 50.38                             116    1.28 2  256 211 
 ROSC BZ I        2315 57.91        26.5 0.35            116            256 211 
 HEL  HZ EP       2315 21.13                             114    0.05 8  274 255 
 HEL  HN ES       2315 51.90                             114   -0.68 8  274 255 
 HEL  HZ I        2315 59.32        27.4 0.46            114            274 255 
 URE  HZ EP       2315 20.67                             113   -1.06 7  284 291 
 URE  HN ES   4   2315 51.70                             113   -2.04 0  284 291 
 URE  HZ I        2315 54.02        49.0 0.14            113            284 291 
 GUY2CHZ EP   4   2315 25.99                             112    1.42 0  304 234 
 GUY2CHN ES   4   2315 57.66                             112   -1.14 0  304 234 
 GUY2CHZ I        2316  8.07        12.3 0.28                           304 234 
 PTGC HZ EP   4   2315 23.42                             111   -1.37 0  311 159 
 PTGC HN ES   4   2315 56.09                             111   -3.09 0  311 159 
 PTGC HZ I        2316  1.02        17.6 0.20            112            311 159 
 LL6C HZ EP       2315 25.08                             110   -0.95 7  322 357 
 LL6C HN ES       2316  0.88                             110   -0.52 7  322 357 
 LL6C HZ I        2316 11.72         9.4 0.38            111            322 357 
 ELA  HZ EP   4   2315 29.58                             110    1.74 0  332 229 
 ELA  HN ES   4   2316  8.16                             110    3.55 0  332 229 
 ELA  HZ I        2316 13.84        15.4 0.44            110            332 229 
 DBB  EZ EP       2315 29.02                             109    0.77 7  340 274 
 DBB  EN ES       2316  4.48                             109   -0.87 7  340 274 
 DBB  EZ I        2316  6.70        20.3 0.34            109            340 274 
 PRA  HZ EP       2315 34.17                             106   -0.39 6  395 210 
 PRA  HN ES       2316 16.02                             106   -0.55 6  395 210 
 PRA  HZ I        2316 22.01        21.9 0.36            106            395 210 
 ORTC HZ EP       2315 35.43                             106    0.48 6  398 216 
 ORTC HN ES       2316 18.20                             106    0.93 6  398 216 
 ORTC HZ I        2316 25.02        12.9 0.44            106            398 216 
 SJC  HZ EP   4   2315 34.51                             106   -1.50 0  407 327 
 SJC  HN ES   4   2316 16.46                             106   -2.71 0  407 327 
 SJC  HZ I        2316 24.15         8.7 0.30            106            407 327 
 CRJC HZ EP   4   2315 39.01                             103   -3.80 0  465   3 
                                                                                
