 2011  626 2308 26.7 L   6.799 -73.095145.4  RSN  6 0.2 1.7LRSN                1
 GAP=234        0.49       4.6     6.1  5.3  0.1103E+02  0.2202E+01  0.1616E+00E
 Epicentro: LOS SANTOS - SANTANDER                                             3
 ACTION:UP  11-07-14 19:08 OP:ep   STATUS:               ID:20110626230826 L   I
 2011-06-26-2300-00M.COL___124                                                 6
 STAT SP IPHASW D HRMM SECON CODA AMPLIT PERI AZIMU VELO SNR AR TRES W  DIS CAZ7
 BTL  SZ EP   1   23 8 46.62                             170     0.4 7   23 305 
 BAR2 SZ EP   1   23 8 46.15                             170    -0.1 7   25 203 
 BAR2 SZ ES   1   23 9  1.34                             170    -0.3 7   25 203 
 BAR2 SZ I        23 9  2.70         8.9 0.27                            25 203 
 BRR  HZ EP   1   23 8 47.89                             151    -0.2 7   76 297 
 BRR  HN ES   1   23 9  4.89                             151     0.1 7   76 297 
 BRR  HZ I        23 9  8.57        10.4 0.12                            76 297 
 RUS  HZ EP   1   23 8 50.30                             144    -0.1 7  100 179 
 RUS  HN ES   1   23 9  9.01                             144     0.2 7  100 179 
 RUS  HZ I        23 9 10.87         6.3 0.26                           100 179 
 NOR  SZ ES   2   23 9 31.08                             118     0.0 4  239 235 
 HEL  HZ EP   2   23 9  7.40                             114    -0.1 4  277 256 
 HEL  HZ I        23 9 45.74         3.7 0.52                           277 256 
                                                                                
