 2013  426 2248 51.8 L   6.775 -73.115142.5  RSN  5 0.1 1.6LRSN                1
 GAP=142        0.36       1.8     2.8  2.6 -0.6042E-01 -0.5728E+00  0.4923E+00E
 Epicentro: LOS SANTOS - SANTANDER                                             3
 ACTION:UPD 13-05-22 14:41 OP:EP   STATUS:               ID:20130426224851 L   I
 2013-04-26-2238-44M.COL___214                                                 6
 STAT SP IPHASW D HRMM SECON CODA AMPLIT PERI AZIMU VELO AIN AR TRES W  DIS CAZ7
 BAR2 SZ EP       2249 10.90                             171   -0.0610 21.5 200 
 BAR2 SZ ES       2249 26.11                             171    0.1710 21.5 200 
 BAR2 SZ I        2249 27.34         9.0 0.18            171           21.5 200 
 GIR2 SZ EP       2249 11.04                             166   -0.1010 34.7 346 
 GIR2 SZ ES       2249 26.22                             166   -0.0410 34.7 346 
 GIR2 SZ I        2249 27.50        10.1 0.60            166           34.7 346 
 BRR  HZ EP       2249 12.85                             150    0.0410 75.5 299 
 BRR  HN ES       2249 29.21                             150   -0.0210 75.5 299 
 BRR  HN I        2249 30.33        24.9 0.36            151           75.5 299 
 PAM  SZ EP       2249 13.85                             150    0.2210 77.5  36 
 PAM  SZ I        2249 14.01         6.8 0.22            151           77.5  36 
 PAM  SN ES       2249 30.59                             150   -0.1110 77.5  36 
 RUS  HZ EP       2249 14.91                             144   -0.0710 97.6 178 
 RUS  HZ I        2249 15.95         2.9 0.18            144           97.6 178 
 RUS  HN ES       2249 33.06                             144   -0.0310 97.6 178 
                                                                                
