 2010  926 2317  8.7 L   6.783 -73.088145.3  RSN  6 0.3 1.7LRSN                1
 GAP=165        0.70       4.8    11.2  7.6  0.2520E+01 -0.1550E+02  0.2566E+01E
 Epicentro: LOS SANTOS - SANTANDER                                             3
 ACTION:UP  11-02-18 11:05 OP:tino STATUS:               ID:20100926231708 L   I
 2010-09-26-2314-58S.COL___122                                                 6
 STAT SP IPHASW D HRMM SECON CODA AMPLIT PERI AZIMU VELO SNR AR TRES W  DIS CAZ7
 BAR2 SZ EP   1   2317 28.21                             171    -0.1 7   24 206 
 BAR2 SZ ES   2   2317 42.86                             171    -0.7 5   24 206 
 BAR2 SZ I        2317 44.30        16.7 0.37                            24 206 
 BTL  SZ IP     D 2317 28.65                             170     0.310   25 307 
 BTL  SZ ES   2   2317 44.33                             170     0.7 5   25 307 
 BRR  HZ IP     D 2317 29.88                             151    -0.310   78 298 
 BRR  HZ I        2317 30.08        22.4 0.15                            78 298 
 BRR  HE ES   2   2317 47.03                             151     0.1 5   78 298 
 RUS  HZ EP   1   2317 32.44                             144     0.2 7   98 180 
 RUS  HE ES   2   2317 50.39                             144    -0.3 5   98 180 
 RUS  HZ I        2317 52.66         4.2 0.38                            98 180 
 GRA  SZ EP   1   2317 33.92                             137     0.0 7  126  14 
 CHI  HZ EP   1   2317 46.40                             117     0.0 6  249 197 
 CHI  HN ES   2   2318 16.04                             117     0.3 4  249 197 
 CHI  HZ I        2318 20.28         2.1 0.48                           249 197 
                                                                                
