 2011  626 2200 29.7 L   6.752 -73.077154.6  RSN  6 0.3 1.6LRSN                1
 GAP=164        0.66       4.5     5.4  5.8 -0.5370E+01  0.1237E+01 -0.6380E+00E
 Epicentro: LOS SANTOS - SANTANDER                                             3
 ACTION:UP  11-07-14 19:08 OP:ep   STATUS:               ID:20110626220030 L   I
 2011-06-26-2158-46S.COL___140                                                 6
 STAT SP IPHASW D HRMM SECON CODA AMPLIT PERI AZIMU VELO SNR AR TRES W  DIS CAZ7
 BAR2 SZ EP       22 0 50.24                             172    -0.110   21 214 
 BAR2 SZ ES   1   22 1  6.14                             172    -0.4 7   21 214 
 BAR2 SZ I        22 1  7.89         7.6 0.25                            21 214 
 BTL  SZ EP   1   22 0 50.49                             169     0.0 7   28 311 
 BTL  SZ ES   1   22 1  7.38                             169     0.6 7   28 311 
 BRR  HZ EP       22 0 52.26                             151    -0.110   80 299 
 BRR  HN ES   1   22 1  9.74                             151    -0.3 7   80 299 
 BRR  HZ I        22 1 12.51        13.2 0.17                            80 299 
 RUS  HZ EP   1   22 0 54.05                             147     0.1 7   95 180 
 RUS  HE ES   1   22 1 12.91                             147     0.0 7   95 180 
 RUS  HZ I        22 1 14.19         3.2 0.29                            95 180 
 BRI  SZ EP   1   22 0 54.90                             142     0.2 7  111  16 
 NOR  SE ES       22 1 35.05                             120     0.2 8  238 237 
                                                                                
