 2012  626 2142 21.2 L   6.386 -73.757 91.8  RSN  5 0.2 1.2LRSN                1
 GAP=156        0.48       4.6     2.7  7.5  0.5069E+01  0.4331E+01  0.1113E+02E
 Epicentro: SANTA HELENA DEL OPON - SANTANDER                                  3
 ACTION:UPD 12-08-06 17:52 OP:ep   STATUS:               ID:20120626214221 L   I
 2012-06-26-2140-00M.COL___201                                                 6
 STAT SP IPHASW D HRMM SECON CODA AMPLIT PERI AZIMU VELO AIN AR TRES W  DIS CAZ7
 BAR2 SZ EP   1   2142 37.21                             141    0.32 7 67.5  70 
 BAR2 SZ ES   1   2142 49.09                             141   -0.04 7 67.5  70 
 BAR2 SZ I        2142 50.86        13.8 0.35                          67.5  70 
 PTB  HZ EP   1   2142 37.18                             136   -0.36 7 79.2 282 
 PTB  HZ I        2142 37.94         2.9 0.10                          79.2 282 
 PTB  HN ES   1   2142 50.49                             136    0.19 7 79.2 282 
 BRR  HE ES   2   2142 50.02                             136   -0.34 5 79.9   4 
 RUS  HZ EP   1   2142 39.34                             132   -0.02 7 92.4 126 
 RUS  HZ I        2142 40.55         1.9 0.28                          92.4 126 
 RUS  HE ES   2   2142 53.47                             132   -0.06 5 92.4 126 
 ZAR  HN ES   2   2143  7.69                             113    0.27 4  173 315 
                                                                                
