 2011  826 2237 33.5 L   6.776 -73.046143.4  RSN  8 0.3 2.0LRSN                1
 GAP=151        0.67       3.3     5.6  4.9 -0.1656E+01  0.1475E+01  0.2260E+01E
 Epicentro: LOS SANTOS - SANTANDER                                             3
 ACTION:UPD 12-07-13 15:53 OP:ep   STATUS:               ID:20110826223733 L   I
 2011-08-26-2233-41S.COL___161                                                 6
 STAT SP IPHASW D HRMM SECON CODA AMPLIT PERI AZIMU VELO AIN AR TRES W  DIS CAZ7
 BAR2 SZ IP       2237 53.05                             170    0.1410 25.3 216 
 BAR2 SZ ES       2238  8.03                             170   -0.0110 25.3 216 
 BAR2 SZ I        2238  9.85        36.7 0.27                          25.3 216 
 GIR2 SZ EP       2237 53.35                             165    0.2610 37.2 334 
 PAM  SZ EP   2   2237 55.88                             152    0.64 5 73.1  32 
 PAM  SN ES   1   2238 12.01                             152   -0.16 7 73.1  32 
 BRR  HZ EP       2237 54.55                             149   -0.5310 82.1 296 
 BRR  HZ I        2237 55.21        37.9 0.15                          82.1 296 
 BRR  HE ES       2238 12.00                             149    0.1110 82.1 296 
 RUS  HZ EP   1   2237 56.65                             144   -0.19 7 97.8 182 
 RUS  HE ES   1   2238 14.85                             144   -0.18 7 97.8 182 
 RUS  HZ I        2238 16.92         7.7 0.28                          97.8 182 
 OCA  SZ EP   1   2238  2.29                             128    0.24 7  165 349 
 OCA  SZ I        2238 27.32        15.4 0.14                           165 349 
 CHI  HZ EP   1   2238 10.67                             117   -0.48 6  249 198 
 CHI  HE ES   1   2238 41.15                             117    0.64 6  249 198 
 CHI  HZ I        2238 48.67         3.9 0.44                           249 198 
 RREF HZ EP   2   2238 20.05                             110   -0.28 3  329 231 
 RREF HN ES   2   2238 57.20                             110    0.35 3  329 231 
 RREF HZ I        2239  4.61         5.8 0.22                           329 231 
                                                                                
