 2015  626 2045 11.1 L   6.814 -73.191145.0  RSN  8 0.6 2.2LRSN                1
 GAP=183        1.35       5.1     7.8  9.1 -0.7043E+01  0.2967E+02 -0.4645E+01E
 Epicentro: ZAPATOCA - SANTANDER                                               3
 ACTION:UPD 15-09-10 22:15 OP:cam  STATUS:               ID:20150626204511 L   I
 OLDACT:REG 15-06-27 05:16 OP:stll STATUS:               ID:20150626203748     3
 2015-06-26-2037-48M.COL___325                                                 6
 STAT SP IPHASW D HRMM SECON CODA AMPLIT PERI AZIMU VELO AIN AR TRES W  DIS CAZ7
 BAR2 EZ EP       2045 30.45                             170   -0.2110 24.5 178 
 BAR2 EZ I        2045 30.64        24.4 0.42            170           24.5 178 
 BAR2 EZ ES       2045 45.33                             170   -0.5910 24.5 178 
 BRR  HZ EP       2045 32.32                             154    0.4410 66.1 299 
 BRR  HZ I        2045 32.69        37.8 0.24            149           66.1 299 
 BRR  HE ES       2045 48.66                             154    0.5710 66.1 299 
 OCA  HN ES       2046  0.97                             130   -0.07 9  158 355 
 OCA  HZ I        2046  4.71        34.2 0.20            130            158 355 
 ZAR  HZ EP       2045 43.74                             123    0.79 9  199 292 
 ZAR  HN ES       2046  8.18                             123    0.37 9  199 292 
 ZAR  HZ I        2046 15.02        21.2 0.32            122            199 292 
 NOR  HN ES       2046 14.51                             119    0.50 8  232 233 
 NOR  HZ I        2046 20.23         7.5 0.18            119            232 233 
 SML  HZ EP       2045 46.83                             118   -0.47 8  240 336 
 SML  HE ES       2046 15.40                             118   -0.15 8  240 336 
 SML  HZ I        2046 18.68        16.4 0.10            118            240 336 
 URE  HZ EP       2045 51.36                             114   -0.18 7  279 292 
 URE  HN ES       2046 21.91                             114   -1.19 7  279 292 
 URE  HZ I        2046 28.81         6.2 0.18            113            279 292 
 GUY2CHZ EP       2045 55.06                             112    0.75 7  298 234 
 GUY2CHN ES       2046 26.91                             112   -1.10 7  298 234 
 GUY2CHZ I        2046 37.05         5.9 0.60                           298 234 
                                                                                
