 2012  926 2241 12.1 L   6.618 -73.639100.0  RSN  4 0.2 1.6LRSN                1
 GAP=151        0.43       3.0     2.7  5.3  0.3799E+01  0.2579E+01  0.6963E+01E
 Epicentro: EL CARMEN DE CHUCURI - SANTANDER                                   3
 ACTION:UPD 12-10-22 14:21 OP:ep   STATUS:               ID:20120926224112 L   I
 2012-09-26-2240-00M.COL___214                                                 6
 STAT SP IPHASW D HRMM SECON CODA AMPLIT PERI AZIMU VELO AIN AR TRES W  DIS CAZ7
 BRR  HZ EP       2241 27.31                             149   -0.1210 54.7 352 
 BRR  HE ES       2241 39.37                             149    0.0110 54.7 352 
 BRR  HZ I        2241 42.69        13.9 0.37                          54.7 352 
 PTB  HZ EP       2241 30.19                             134   -0.0210 90.8 265 
 PTB  HZ I        2241 34.33        24.4 0.88                          90.8 265 
 PTB  HE ES   1   2241 44.20                             134   -0.11 7 90.8 265 
 RUS  HZ EP       2241 31.75                             131   -0.0410  101 142 
 RUS  HE ES   1   2241 47.29                             131    0.18 7  101 142 
 RUS  HZ I        2241 49.41         4.4 0.38                           101 142 
 ZAR  HE ES   2   2241 58.42                             116    0.64 5  166 306 
                                                                                
