 2013 1226 2307 40.7 L   6.795 -73.152146.6  RSN  7 0.5 1.6LRSN                1
 GAP=136        1.17       5.4     5.5  9.6 -0.7747E+00  0.1752E+02 -0.1489E+02E
 Epicentro: LOS SANTOS - SANTANDER                                             3
 ACTION:UPD 14-01-13 10:21 OP:ep   STATUS:               ID:20131226230740 L   I
 OLDACT:REG 13-12-26 22:01 OP:cam  STATUS:               ID:20131226230000     3
 2013-12-26-2300-00M.COL___285                                                 6
 STAT SP IPHASW D HRMM SECON CODA AMPLIT PERI AZIMU VELO AIN AR TRES W  DIS CAZ7
 BAR2 SZ ES       23 8 15.36                             171   -0.4210 22.7 189 
 BRR  HZ EP       23 8  2.18                             153    0.2810 70.9 299 
 BRR  HZ I        23 8 17.16        10.2 0.50            147           70.9 299 
 BRR  HN ES       23 8 19.21                             153    0.7610 70.9 299 
 PAM  SZ EP       23 8  3.22                             151    0.1810 78.2  40 
 PAM  SN ES       23 8 20.08                             151   -0.3910 78.2  40 
 RUS  HN ES       23 8 23.43                             144    0.3910  100 176 
 PTB  HZ EP       23 8  7.38                             132   -0.27 9  147 259 
 PTB  HN ES       23 8 27.90                             132   -0.78 9  147 259 
 PTB  HZ I        23 8 29.70         3.6 0.30            125            147 259 
 ZAR  HN ES       23 8 38.85                             123    0.40 9  204 292 
 ZAR  HZ I        23 8 45.78         3.9 0.10            116            204 292 
 SML  HE ES       23 8 45.74                             118   -0.26 8  244 335 
                                                                                
