 2013 1126 2334 13.6 L   7.067 -73.327112.0  RSN  8 0.5 1.9LRSN                1
 GAP=237        1.20       6.1     5.7  7.6  0.1480E+02  0.2020E+02  0.1226E+02E
 Epicentro: LEBRIJA - SANTANDER                                                3
 ACTION:UPD 14-01-09 16:31 OP:ep   STATUS:               ID:20131126233413 L   I
 OLDACT:REG 13-11-26 21:54 OP:nd   STATUS:               ID:20131126233000     3
 2013-11-26-2330-00M.COL___282                                                 6
 STAT SP IPHASW D HRMM SECON CODA AMPLIT PERI AZIMU VELO AIN AR TRES W  DIS CAZ7
 BRR  HZ IP     C 2334 29.64                             158    0.0610 42.8 276 
 BRR  HN ES       2334 41.93                             158   -0.0910 42.8 276 
 BRR  HZ I        2334 42.97        39.9 0.10            153           42.8 276 
 BAR2 SZ EP       2334 30.91                             152    0.3610 54.8 163 
 BAR2 SZ ES       2334 44.10                             152    0.3510 54.8 163 
 BAR2 SZ I        2334 46.56        41.0 0.24            150           54.8 163 
 RUS  HZ EP       2334 36.84                             127   -0.3510  133 168 
 RUS  HN ES       2334 55.42                             127   -0.1510  133 168 
 RUS  HZ I        2334 58.96         3.8 0.38            128            133 168 
 PTB  HZ EP       2334 35.79                             125   -1.29 9  138 245 
 PTB  HN ES   2   2334 54.86                             125   -0.51 5  138 245 
 PTB  HZ I        2334 59.00        12.5 0.50            124            138 245 
 ZAR  HZ EP       2334 40.68                             118   -0.31 9  176 286 
 ZAR  HN ES       2335  2.67                             118    0.33 9  176 286 
 ZAR  HZ I        2335  5.79        11.2 0.26            119            176 286 
 NOR  HZ EP       2334 48.16                             110    0.10 8  238 226 
 NOR  HN ES       2335 14.47                             110   -0.44 8  238 226 
 NOR  HZ I        2335 17.60         6.5 0.22            111            238 226 
 HEL  HZ EP       2334 51.92                             108    0.72 8  262 248 
 HEL  HN ES       2335 20.66                             108    0.15 8  262 248 
 HEL  HZ I        2335 30.48         3.7 0.30            109            262 248 
 GUY2CHZ EP       2334 57.16                             105    0.92 7  304 228 
 GUY2CHN ES       2335 30.00                             105    0.52 7  304 228 
 GUY2CHZ I        2335 39.13         4.2 0.74                           304 228 
                                                                                
