 2015  626 2236 51.9 L   6.728 -73.141151.3  RSN  4 0.2 1.6LRSN                1
 GAP=232        0.52       5.8     6.6  4.1  0.3226E+02  0.2502E+01 -0.1380E+01E
 Epicentro: JORDAN - SANTANDER                                                 3
 ACTION:UPD 15-09-10 22:15 OP:cam  STATUS:               ID:20150626223651 L   I
 OLDACT:DUP 15-06-27 09:54 OP:stll STATUS:               ID:20150626222748d    3
 2015-06-26-2227-47M.COL___331                                                 6
 STAT SP IPHASW D HRMM SECON CODA AMPLIT PERI AZIMU VELO AIN AR TRES W  DIS CAZ7
 BAR2 EZ EP       2237 12.08                             174   -0.0410 15.7 197 
 BAR2 EZ ES       2237 27.55                             174   -0.3110 15.7 197 
 BAR2 EZ I        2237 30.13         7.2 0.34            161           15.7 197 
 BRR  HZ EP       2237 14.10                             152    0.1510 75.8 304 
 BRR  HN ES       2237 31.38                             152    0.2610 75.8 304 
 RUS  HZ EP       2237 15.83                             147    0.1310 92.6 176 
 RUS  HN ES       2237 34.28                             147    0.0510 92.6 176 
 RUS  HZ I        2237 38.58         3.8 0.14            141           92.6 176 
 ZAR  HZ EP       2237 24.88                             123   -0.25 8  208 294 
 ZAR  HN ES       2237 50.94                             123   -0.07 8  208 294 
 ZAR  HZ I        2237 56.43         5.8 0.24            121            208 294 
                                                                                
