 2016 1227 0736  7.5 L   6.816 -73.131140.8  RSN  7 0.3 1.3LRSN                1
 GAP=138        0.88       4.3     4.2  5.7  0.2660E+01  0.3101E+01 -0.1581E+01E
 Epicentro: LOS SANTOS - SANTANDER                                             3
 ACTION:UPD 17-01-11 20:19 OP:rebc STATUS:               ID:20161227073607 L   I
 OLDACT:UP  16-12-27 18:40 OP:edw  STATUS:               ID:20161227072739     3
 OLDACT:UP  16-12-27 18:40 OP:edw  STATUS:               ID:20161227072739     3
 OLDACT:REG 16-12-27 13:32 OP:edw  STATUS:               ID:20161227072739     3
 2016-12-27-0728-00M.COL___366                                                 6
 STAT SP IPHASW D HRMM SECON CODA AMPLIT PERI AZIMU VELO AIN AR TRES W  DIS CAZ7
 BAR2 EZ EP        736 26.48                             169   -0.0910 25.4 193 
 BAR2 EZ ES        736 40.94                             169   -0.5110 25.4 193 
 BAR2 EZ I         736 41.88         5.0 0.48            167           25.4 193 
 BRR  HZ EP        736 28.11                             151   -0.0310 71.8 297 
 BRR  HE ES        736 44.99                             151    0.7410 71.8 297 
 PAM  EZ IP     C  736 29.09                             151    0.0510 75.0  39 
 PAM  EN ES        736 45.71                             151   -0.1310 75.0  39 
 RUS  HZ EP        736 30.91                             142    0.0210  102 177 
 RUS  HN ES        736 49.32                             142    0.2010  102 177 
 RUS  HZ I         736 50.76         1.2 0.24            142            102 177 
 PTB  HZ EP   9    736 33.26                             130   -0.98 0  150 258 
 PTB  HN ES        736 53.64                             131   -0.48 9  150 258 
 PTB  HZ I         736 57.39         2.2 0.16            128            150 258 
 ZAR  HZ EP        736 39.82                             121    0.11 9  205 292 
 ZAR  HN ES        737  4.36                             121   -0.47 9  205 292 
 ZAR  HZ I         737 10.79         2.8 0.30            120            205 292 
 GUY2CHZ EP   4    736 52.08                             111    0.94 0  303 235 
 GUY2CHN ES   2    737 25.39                             111    0.20 4  303 235 
 GUY2CHZ I         737 34.98         1.2 0.34                           303 235 
                                                                                
