 2010  827 0931 36.8 L   6.771 -73.086146.6  RSN  5 0.2 1.7LRSN                1
 GAP=166        0.45       2.9     5.3  4.9 -0.3486E+01 -0.5838E+01  0.2058E+01E
 Epicentro: LOS SANTOS - SANTANDER                                             3
 ACTION:UP  10-09-07 10:58 OP:vdl  STATUS:               ID:20100827093136 L   I
 2010-08-27-0929-12S.COL___120                                                 6
 STAT SP IPHASW D HRMM SECON CODA AMPLIT PERI AZIMU VELO SNR AR TRES W  DIS CAZ7
 BAR2 SZ IP        931 56.46                             171    -0.110   23 209 
 BAR2 SZ I         931 56.63        12.6 0.22                            23 209 
 BAR2 SZ ES   2    932 11.57                             171    -0.3 5   23 209 
 BRR  HZ IP     C  931 58.40                             149    -0.110   79 298 
 BRR  HZ I         931 58.74        16.6 0.14                            79 298 
 BRR  HN ES   1    932 15.53                             149     0.2 7   79 298 
 RUS  HZ EP   1    932  0.35                             145     0.0 7   97 180 
 RUS  HE ES   2    932 19.16                                     0.4 5   97 180 
 RUS  HZ I         932 20.44         4.7 0.31                            97 180 
 GRA  SZ IP        932  2.40                             136     0.210  127  14 
 GRA  SZ ES   1    932 21.92                             136    -0.1 7  127  14 
 GRA  SZ I         932 22.84         6.6 0.29                           127  14 
 PRA  HZ EP   1    932 30.33                             106    -0.1 4  393 211 
 PRA  HZ I         933 19.69         2.1 0.18                           393 211 
                                                                                
