 2012  627 0519 44.5 L   6.773 -73.146147.0  RSN  7 0.4 2.0LRSN                1
 GAP=138        0.70       3.7     4.1  6.0 -0.8253E-01  0.5070E+01 -0.3139E+01E
 Epicentro: LOS SANTOS - SANTANDER                                             3
 ACTION:UPD 12-08-06 17:52 OP:ep   STATUS:               ID:20120627051944 L   I
 2012-06-27-0518-59S.COL___210                                                 6
 STAT SP IPHASW D HRMM SECON CODA AMPLIT PERI AZIMU VELO AIN AR TRES W  DIS CAZ7
 BAR2 SZ EP   1    520  4.18                             172    0.01 7 20.4 192 
 BAR2 SZ ES   1    520 19.04                             172   -0.51 7 20.4 192 
 BAR2 SZ I         520 20.97        20.4 0.25                          20.4 192 
 BRR  HZ EP   1    520  6.07                             152    0.26 7 72.7 301 
 BRR  HZ I         520  6.37        45.5 0.18                          72.7 301 
 BRR  HN ES   1    520 22.91                             152    0.43 7 72.7 301 
 PAM  SZ EP   1    520  7.04                             150    0.11 7 79.7  38 
 PAM  SE ES   1    520 24.51                             150    0.04 7 79.7  38 
 RUS  HZ EP   1    520  8.17                             145    0.06 7 97.6 176 
 RUS  HN ES   1    520 26.86                             145    0.30 7 97.6 176 
 RUS  HZ I         520 28.08        11.1 0.42                          97.6 176 
 PTB  HZ EP   1    520 10.87                             132   -0.60 7  147 260 
 PTB  HN ES   1    520 32.32                             132   -0.22 7  147 260 
 PTB  HZ I         520 34.33         4.9 0.16                           147 260 
 OCA  HZ EP   1    520 12.60                             129   -0.54 7  163 353 
 OCA  HN ES   1    520 35.49                             129   -0.02 7  163 353 
 OCA  HZ I         520 40.15        24.8 0.30                           163 353 
 ZAR  HZ EP   1    520 17.82                             122    0.72 6  205 293 
 ZAR  HE ES   1    520 42.50                             122   -0.06 6  205 293 
                                                                                
