 2012  127 0407 57.1 L   6.752 -73.142142.2  RSN 10 0.3 1.7LRSN                1
 GAP=139        0.65       3.1     4.5  5.2 -0.5969E+00  0.3700E+01  0.1355E+01E
 Epicentro: LOS SANTOS - SANTANDER                                             3
 ACTION:UP  12-02-03 08:21 OP:REBC STATUS:               ID:20120127040757 L   I
 2012-01-27-0400-00M.COL___188                                                 6
 STAT SP IPHASW D HRMM SECON CODA AMPLIT PERI AZIMU VELO SNR AR TRES W  DIS CAZ7
 BAR2 SZ IP        4 8 16.22                             172     0.010   18 194 
 BAR2 SZ ES   1    4 8 31.34                             172     0.2 7   18 194 
 BAR2 SZ I         4 8 33.01        24.5 0.24                            18 194 
 GIR2 SZ EP   1    4 8 16.26                             165    -0.3 7   37 351 
 BRR  HZ EP        4 8 18.09                             151     0.010   74 302 
 BRR  HN ES   1    4 8 34.77                             151     0.3 7   74 302 
 BRR  HZ I         4 8 39.19         9.6 0.12                            74 302 
 PAM  SZ EP   1    4 8 19.01                             149    -0.2 7   81  37 
 PAM  SN ES   1    4 8 36.06                             149    -0.4 7   81  37 
 RUS  HZ EP   1    4 8 20.07                             145    -0.1 7   95 176 
 RUS  HE ES   1    4 8 38.32                             145     0.2 7   95 176 
 RUS  HZ I         4 8 40.13         5.7 0.37                            95 176 
 PTB  HN ES   2    4 8 44.08                             131    -0.5 5  147 261 
 OCA  SZ EP   1    4 8 26.40                             128     0.7 7  166 353 
 OCA  SZ ES   2    4 8 48.07                             128     0.1 5  166 353 
 OCA  SZ I         4 8 54.03         6.4 0.34                           166 353 
 ZAR  HE ES   2    4 8 54.56                             121    -0.4 4  206 293 
 ZAR  HZ I         4 9  0.46         5.4 0.29                           206 293 
 NOR  SZ EP   1    4 8 32.17                             118    -0.2 6  232 236 
 CHI  HZ EP   1    4 8 34.31                             117     0.2 6  244 196 
 CHI  HN ES   2    4 9  3.01                             117     0.1 4  244 196 
 CHI  HZ I         4 9 11.84         3.2 0.28                           244 196 
                                                                                
