 2011 1027 0629 17.5 L   6.852 -73.156148.7  RSN 15 0.3 2.7LRSN                1
 GAP=111        0.36       1.8     2.2  3.6 -0.2413E+00  0.2501E+01  0.1039E+01E
 Epicentro: LOS SANTOS - SANTANDER                                             3
 ACTION:UPD 12-07-13 16:06 OP:ep   STATUS:               ID:20111027062917 L   I
 2011-10-27-0627-31S.COL___176                                                 6
 STAT SP IPHASW D HRMM SECON CODA AMPLIT PERI AZIMU VELO AIN AR TRES W  DIS CAZ7
 BTL  SZ EP   2    629 37.48                             174    0.19 5 14.4 301 
 BAR2 SZ IP        629 37.45                             168   -0.1110 28.9 186 
 BAR2 SZ ES   2    629 52.73                             168   -0.50 5 28.9 186 
 BAR2 SZ I         629 53.57       113.4 0.34                          28.9 186 
 BRR  HZ IP        629 38.93                             154    0.2110 67.6 295 
 BRR  HN ES   2    629 55.91                             154    0.60 5 67.6 295 
 BRR  HZ I         629 59.30       153.8 0.13                          67.6 295 
 PAM  SZ EP   1    629 39.82                             152    0.05 7 73.8  43 
 PAM  SN ES   2    629 56.84                             152   -0.34 5 73.8  43 
 RUS  HZ EP   1    629 42.06                             143    0.15 7  106 176 
 RUS  HN ES   2    630  1.22                             143    0.23 5  106 176 
 RUS  HZ I         630  2.53        33.6 0.62                           106 176 
 OCA  SZ EP   1    629 45.27                             131   -0.18 7  154 353 
 OCA  SZ ES   2    630  7.03                             131   -0.26 5  154 353 
 OCA  SZ I         630 12.02        64.8 0.06                           154 353 
 YOP  SZ EP   2    629 48.22                             126   -0.04 4  185 154 
 YOP  SN ES   2    630 12.48                             126    0.19 4  185 154 
 ZAR  HZ EP   2    629 49.93                             123    0.16 4  201 291 
 ZAR  HN ES   2    630 15.13                             123    0.15 4  201 291 
 ZAR  HZ I         630 20.67       103.8 0.29                           201 291 
 NOR  SZ EP   2    629 53.55                             119   -0.07 4  237 233 
 NOR  SN ES   2    630 21.31                             119   -0.52 4  237 233 
 ROSC BZ EP   2    629 56.04                             117   -0.17 4  257 210 
 ROSC BN ES   2    630 26.33                             117   -0.11 4  257 210 
 ROSC BZ I         630 39.07        22.1 0.46                           257 210 
 HEL  HZ EP   2    629 57.77                             115   -0.09 4  272 255 
 HEL  HN ES   2    630 29.19                             115   -0.19 4  272 255 
 HEL  HZ I         630 37.44        39.5 0.27                           272 255 
 GUY  SE ES   2    630 36.33                             112    0.06 4  306 234 
 GUY  SZ I         630 44.79        34.1 0.36                           306 234 
 RREF HZ EP   2    630  4.36                             111    0.30 3  325 228 
 RREF HN ES   2    630 40.43                             111    0.02 3  325 228 
 RREF HZ I         630 47.98        17.2 0.37                           325 228 
 DBB  SZ EP   3    630  5.41                             110    0.53 2  338 273 
 DBB  SZ ES   2    630 41.51                             110   -0.36 3  338 273 
 PRA  HZ EP   2    630 11.34                             107   -0.26 3  396 209 
 PRA  HN ES   2    630 53.68                             107   -0.15 3  396 209 
                                                                                
