 2011  527 0109 45.3 L   6.485 -73.611108.0  RSN  5 0.4 1.6LRSN                1
 GAP=213        0.88       7.3    15.0 14.4  0.7138E+02 -0.2877E+02 -0.8270E+01E
 Epicentro: SANTA HELENA DEL OPON - SANTANDER                                  3
 ACTION:UP  11-06-29 08:56 OP:tino STATUS:               ID:20110527010945 L   I
 2011-05-27-0106-07S.COL___115                                                 6
 STAT SP IPHASW D HRMM SECON CODA AMPLIT PERI AZIMU VELO SNR AR TRES W  DIS CAZ7
 BAR2 SZ EP   1    110  1.23                             154    -0.3 7   49  76 
 BAR2 SZ I         110 15.73        20.9 0.24                            49  76 
 BTL  SZ EP   1    110  2.80                             148     0.6 7   61  38 
 BRR  HZ EP   1    110  1.91                             144    -0.5 7   70 351 
 BRR  HZ I         110  2.33         9.2 0.11                            70 351 
 BRR  HN ES   1    110 15.98                             144     0.2 7   70 351 
 RUS  HZ EP   1    110  4.80                             138     0.3 7   88 138 
 RUS  HN ES   1    110 19.28                             138    -0.2 7   88 138 
 RUS  HZ I         110 21.28         5.5 0.25                            88 138 
 GRA  SZ ES   2    110 34.43                             116    -0.2 4  179  30 
 GRA  SZ I         110 38.66         4.8 0.38                           179  30 
                                                                                
