 2014  627 0457 44.7 L   6.738 -73.148141.9  RSN  4 0.3 1.1LRSN                1
 GAP=250        0.76       5.5     6.1  7.0 -0.5890E+01 -0.1740E+01  0.1039E+02E
 Epicentro: JORDAN - SANTANDER                                                 3
 ACTION:UPD 14-07-01 22:57 OP:nd   STATUS:               ID:20140627045744 L   I
 OLDACT:REG 14-06-27 15:05 OP:spq  STATUS:               ID:20140627044812     3
 2014-06-27-0448-12M.COL___259                                                 6
 STAT SP IPHASW D HRMM SECON CODA AMPLIT PERI AZIMU VELO AIN AR TRES W  DIS CAZ7
 BAR2 SZ EP        458  3.57                             173   -0.1910 16.6 193 
 BAR2 SZ ES   1    458 18.31                             173   -0.31 7 16.6 193 
 BAR2 SZ I         458 20.46         3.3 0.18            165           16.6 193 
 BRR  HZ EP        458  5.89                             151    0.2510 74.5 303 
 BRR  HE ES        458 22.27                             151    0.3110 74.5 303 
 BRR  HZ I         458 25.09         2.8 0.46            150           74.5 303 
 PTB  HZ EP        458 10.83                             131   -0.41 9  146 261 
 PTB  HN ES        458 31.60                             131   -0.33 9  146 261 
 PTB  HZ I         458 37.99         1.1 0.24            131            146 261 
 SPBC HZ EP        458 12.71                             129    0.30 9  158 220 
 SPBC HN ES        458 34.26                             129    0.25 9  158 220 
 SPBC HZ I         458 42.21         1.7 0.13            128            158 220 
                                                                                
