 2012  127 0634 51.2 L   6.115 -73.715105.8  RSN  8 0.2 1.6LRSN                1
 GAP=119        0.56       2.3     3.2  5.6  0.2376E+00  0.6126E+01  0.4598E+00E
 Epicentro: BOLIVAR - SANTANDER                                                3
 ACTION:UP  12-02-03 08:21 OP:REBC STATUS:               ID:20120127063451 L   I
 2012-01-27-0630-00M.COL___188                                                 6
 STAT SP IPHASW D HRMM SECON CODA AMPLIT PERI AZIMU VELO SNR AR TRES W  DIS CAZ7
 RUS  HZ EP   1    635  9.08                             142     0.0 7   74 109 
 RUS  HE ES   1    635 22.69                             142    -0.4 7   74 109 
 BAR2 SZ EP        635  9.23                             140     0.110   79  48 
 BAR2 SZ ES   1    635 23.37                             140     0.3 7   79  48 
 BAR2 SZ I         635 24.66        16.1 0.53                            79  48 
 PTB  HZ EP        635  9.75                             135    -0.310   94 300 
 PTB  HN ES   2    635 24.60                             135    -0.2 5   94 300 
 BRR  HZ EP   1    635 11.41                             130     0.0 7  110   0 
 BRR  HN ES   1    635 27.46                             130     0.3 7  110   0 
 BRR  HZ I         635 29.86         8.9 0.12                           110   0 
 GIR2 SZ EP        635 12.68                             127     0.010  121  28 
 CHI  HZ EP   1    635 17.80                             118     0.3 7  164 181 
 CHI  HN ES   1    635 38.14                             118     0.1 7  164 181 
 CHI  HZ I         635 41.54         2.8 0.30                           164 181 
 PAM  SZ EP   1    635 18.52                             116    -0.3 7  176  40 
 PAM  SN ES   2    635 40.18                             116    -0.2 4  176  40 
 ZAR  HZ EP   1    635 20.92                             113     0.3 6  198 320 
 ZAR  HZ I         635 21.90         7.3 0.14                           198 320 
                                                                                
