 2017 1127 0219 49.4 L   6.967 -73.023130.4  RSN  5 0.3 1.3LRSN                1
 GAP=257        0.85       6.3     5.6  7.5  0.1652E+02  0.6523E+01 -0.6969E+01E
 Epicentro: PIEDECUESTA - SANTANDER                                            3
 ACTION:UPD 17-12-12 20:00 OP:rebc STATUS:               ID:20171127021949 L   I
 OLDACT:REG 17-11-27 12:09 OP:dhb  STATUS:               ID:20171127021739     3
 2017-11-27-0218-00M.COL___495                                                 6
 STAT SP IPHASW D HRMM SECON CODA AMPLIT PERI AZIMU VELO AIN AR TRES W  DIS CAZ7
 BAR2 EZ EP        220  8.02                             160    0.1210 45.0 203 
 BAR2 EZ ES        220 21.85                             160   -0.4710 45.0 203 
 BAR2 EZ I         220 25.13         4.9 0.46            163           45.0 203 
 RUS  HZ EP        220 13.29                             135    0.1010  119 183 
 RUS  HN ES        220 32.33                             135    0.5910  119 183 
 RUS  HZ I         220 33.75         2.5 0.32            140            119 183 
 PTB  HZ EP        220 16.66                             125   -0.23 9  165 253 
 PTB  HE ES        220 38.50                             125    0.18 9  165 253 
 PTB  HZ I         220 38.89         1.8 0.12            127            165 253 
 SPBC HZ EP        220 18.74                             121   -0.36 9  186 219 
 SPBC HE ES        220 41.96                             121   -0.30 9  186 219 
 SPBC HZ I         220 43.39         2.3 0.24            125            186 219 
 ZAR  HE ES        220 47.08                             118    0.33 8  211 286 
 ZAR  HZ I         220 52.96         2.1 0.38            120            211 286 
                                                                                
