 2017  127 0250 31.7 L   6.747 -73.144149.8  RSN  6 0.4 1.3LRSN                1
 GAP=234        0.97       5.9     5.5  7.7  0.1188E+02  0.1037E+02  0.3234E+01E
 Epicentro: LOS SANTOS - SANTANDER                                             3
 ACTION:UPD 17-05-22 16:03 OP:jn   STATUS:               ID:20170127025031 L   I
 OLDACT:UP  17-01-27 15:09 OP:lv   STATUS:               ID:20170127024747     3
 OLDACT:REG 17-01-27 12:34 OP:lv   STATUS:               ID:20170127024747     3
 2017-01-27-0248-00M.COL___340                                                 6
 STAT SP IPHASW D HRMM SECON CODA AMPLIT PERI AZIMU VELO AIN AR TRES W  DIS CAZ7
 BAR2 EZ EP        250 51.58                             173   -0.1310 17.7 194 
 BAR2 EZ ES        251  6.91                             173   -0.4110 17.7 194 
 BAR2 EZ I         251  9.20         4.9 0.31            173           17.7 194 
 BRR  HZ EP        250 53.63                             152    0.1710 74.3 302 
 BRR  HN ES        251 11.00                             152    0.5710 74.3 302 
 BRR  HZ I         251 14.64         4.1 0.37            153           74.3 302 
 RUS  HZ EP        250 55.46                             146    0.0110 94.8 176 
 RUS  HN ES        251 14.20                             146    0.2410 94.8 176 
 RUS  HZ I         251 15.27         1.9 0.36            149           94.8 176 
 PTB  HZ EP        250 58.69                             133   -0.23 9  147 261 
 PTB  HN ES        251 19.43                             133   -0.72 9  147 261 
 PTB  HZ I         251 24.13         3.1 0.15            135            147 261 
 ZAR  HN ES        251 30.40                             123    0.04 8  206 294 
 NOR  HN ES        251 35.65                             120    0.54 8  231 236 
                                                                                
