 2012  927 0417 59.4 L   6.796 -73.124147.4  RSN 15 0.5 2.7LRSN                1
 GAP=116        1.00       4.1     4.3  6.1 -0.2089E+00  0.6854E+01  0.8358E+01E
 Epicentro: LOS SANTOS - SANTANDER                                             3
 ACTION:UPD 12-10-22 14:21 OP:ep   STATUS:               ID:20120927041759 L   I
 2012-09-27-0410-00M.COL___217                                                 6
 STAT SP IPHASW D HRMM SECON CODA AMPLIT PERI AZIMU VELO AIN AR TRES W  DIS CAZ7
 BAR2 SZ IP        418 19.10                             171   -0.0910 23.4 196 
 BAR2 SZ ES   1    418 34.75                             171    0.10 7 23.4 196 
 BAR2 SZ I         418 37.42       115.5 0.20                          23.4 196 
 GIR2 SZ EP   1    418 19.22                             167   -0.03 7 32.2 346 
 GIR2 SZ ES   1    418 34.79                             167    0.03 7 32.2 346 
 BRR  HZ EP        418 21.02                             152    0.2010 73.5 298 
 BRR  HZ I         418 22.65       105.8 0.12                          73.5 298 
 BRR  HN ES   1    418 38.40                             152    0.85 7 73.5 298 
 BRR  HN I         418 39.76       350.3 0.18                          73.5 298 
 PAM  SZ EP        418 21.90                             151    0.2210 76.2  38 
 PAM  SZ I         418 22.34        34.9 0.17                          76.2  38 
 PAM  SN ES   1    418 38.79                             151   -0.30 7 76.2  38 
 PAM  SN I         418 40.94       105.3 0.43                          76.2  38 
 RUS  HZ EP        418 22.88                             144   -0.3510100.0 177 
 RUS  HN ES   1    418 41.68                             144   -0.16 7100.0 177 
 PTB  HN ES   1    418 46.67                             132   -1.29 7  150 259 
 PTB  HN I         418 52.44       134.4 0.32                           150 259 
 YOP  SZ EP   1    418 29.60                             127    0.22 7  177 154 
 ZAR  HZ EP   1    418 31.68                             122   -0.48 6  206 292 
 ZAR  HE ES   1    418 57.46                             122   -0.28 6  206 292 
 NOR  SN ES   1    419  3.85                             119    0.40 6  236 235 
 CHI  HZ EP   1    418 37.07                             117   -0.10 6  249 196 
 CHI  HZ I         418 39.80        20.2 0.30                           249 196 
 CHI  HN ES        419  6.29                             117   -0.37 8  249 196 
 ROSC BZ EP        418 38.82                             117    1.16 8  254 212 
 ROSC BZ I         419 16.93        59.1 0.36                           254 212 
 HEL  HZ EP   1    418 39.85                             115   -0.05 6  274 256 
 HEL  HN ES        419 12.11                             115    0.59 8  274 256 
 HEL  HZ I         419 18.85        21.8 0.29                           274 256 
 RREF HZ EP   1    418 46.19                             111    0.44 5  323 230 
 RREF HZ I         419 26.33        16.1 0.56                           323 230 
 DBB  SZ EP        418 46.48                             110   -0.71 7  342 274 
 DBB  SZ I         418 48.08        13.2 0.51                           342 274 
 PRA  HZ EP   1    418 52.33                             107   -0.70 4  393 210 
 PRA  HZ I         418 54.96        17.0 0.27                           393 210 
 PRA  HE ES   1    419 34.98                             107    0.09 4  393 210 
 PRA  HN I         419 41.15        20.7 0.58                           393 210 
                                                                                
