 2017  227 0940 20.5 L   6.806 -73.181145.6  RSN  7 0.5 1.4LRSN                1
 GAP=132        1.21       5.4     6.1  7.8  0.1128E+02  0.3967E+01  0.1697E+01E
 Epicentro: ZAPATOCA - SANTANDER                                               3
 ACTION:UPD 17-05-24 15:41 OP:jn   STATUS:               ID:20170227094020 L   I
 OLDACT:UP  17-02-27 18:37 OP:dani STATUS:               ID:20170227093742     3
 OLDACT:REG 17-02-27 13:45 OP:ar   STATUS:               ID:20170227093742     3
 2017-02-27-0938-00M.COL___348                                                 6
 STAT SP IPHASW D HRMM SECON CODA AMPLIT PERI AZIMU VELO AIN AR TRES W  DIS CAZ7
 BAR2 EZ EP        940 40.03                             170   -0.1210 23.7 180 
 BAR2 EZ ES        940 54.66                             170   -0.7910 23.7 180 
 BAR2 EZ I         940 57.00         7.3 0.34            169           23.7 180 
 BRR  HZ EP        940 41.69                             154    0.2310 67.4 300 
 BRR  HN ES        940 58.73                             154    0.9610 67.4 300 
 BRR  HZ I         940 59.54         5.4 0.26            150           67.4 300 
 PAM  EZ EP        940 42.93                             150    0.0810 79.4  42 
 RUS  HZ EP        940 44.07                             143   -0.2710  102 174 
 RUS  HN ES        941  3.16                             143    0.2510  102 174 
 RUS  HZ I         941  3.99         4.7 0.35            145            102 174 
 PTB  HZ EP        940 46.64                             133   -0.51 9  144 258 
 PTB  HN ES        941  7.62                             133   -0.29 9  144 258 
 PTB  HZ I         941 13.39         2.7 0.50            131            144 258 
 ZAR  HZ EP        940 53.06                             123    0.49 9  200 292 
 ZAR  HN ES        941 17.08                             123   -0.47 9  200 292 
 ZAR  HZ I         941 26.74         1.8 0.13            122            200 292 
 CHI  HZ EP        940 58.16                             117   -0.03 8  248 194 
 CHI  HN ES        941 28.16                             117    0.60 8  248 194 
                                                                                
