 2017  727 0851 57.6 L   6.784 -73.152137.0  RSN  6 0.4 1.0LRSN                1
 GAP=236        0.62       5.3     4.6  6.9  0.8582E+01  0.5620E+01 -0.1003E+02E
 Epicentro: LOS SANTOS - SANTANDER                                             3
 ACTION:UPD 17-08-30 15:37 OP:rebc STATUS:               ID:20170727085157 L   I
 OLDACT:UP  17-07-27 16:52 OP:and  STATUS:               ID:20170727084737d    3
 OLDACT:UP  17-07-27 16:52 OP:and  STATUS:               ID:20170727084737d    3
 OLDACT:UP  17-07-27 16:52 OP:and  STATUS:               ID:20170727084737d    3
 OLDACT:DUP 17-07-27 16:50 OP:and  STATUS:               ID:20170727084737d    3
 OLDACT:UP  17-07-27 16:48 OP:and  STATUS:               ID:20170727084736     3
 OLDACT:UP  17-07-27 16:48 OP:and  STATUS:               ID:20170727084736     3
 OLDACT:UP  17-07-27 16:48 OP:and  STATUS:               ID:20170727084736     3
 OLDACT:UP  17-07-27 16:48 OP:and  STATUS:               ID:20170727084736     3
 OLDACT:UP  17-07-27 16:48 OP:and  STATUS:               ID:20170727084736     3
 OLDACT:REG 17-07-27 12:35 OP:and  STATUS:               ID:20170727084736     3
 2017-07-27-0848-00M.COL___368                                                 6
 STAT SP IPHASW D HRMM SECON CODA AMPLIT PERI AZIMU VELO AIN AR TRES W  DIS CAZ7
 BAR2 EZ EP        852 16.08                             170   -0.0910 21.4 189 
 BAR2 EZ ES        852 30.32                             170   -0.3210 21.4 189 
 BRR  HZ EP        852 18.00                             151    0.1410 71.5 300 
 BRR  HN ES   3    852 35.18                             151    1.54 2 71.5 300 
 RUS  HZ EP   2    852 20.51                             142    0.11 5 98.8 176 
 RUS  HN ES        852 38.41                             142    0.2510 98.8 176 
 RUS  HZ I         852 39.98         1.6 0.30            136           98.8 176 
 PTB  HN ES        852 43.97                             130   -0.26 9  147 259 
 PTB  HZ I         852 48.54         1.1 0.18            125            147 259 
 SPBC HZ EP   2    852 25.27                             127   -0.03 5  161 219 
 SPBC HN ES   3    852 47.75                             127    0.87 2  161 219 
 SPBC HZ I         852 51.52         1.5 0.06            122            161 219 
 ZAR  HN ES   2    852 54.92                             120    0.50 4  204 293 
                                                                                
