 2012  227 0150 10.7 L   6.806 -73.190147.5  RSN  5 0.4 1.2LRSN                1
 GAP=174        0.85       7.0     7.6  8.6  0.1403E+02  0.7738E+01  0.2204E+02E
 ACTION:UP  12-03-07 16:34 OP:epov STATUS:               ID:20120227015010 L   I
 2012-02-27-0150-00M.COL___192                                                 6
 STAT SP IPHASW D HRMM SECON CODA AMPLIT PERI AZIMU VELO AIN AR TRES W  DIS CAZ7
 GIR2 SZ EP   1    150 30.64                             168    0.08 7 30.2 359 
 GIR2 SZ ES   1    150 45.31                             168   -0.73 7 30.2 359 
 BRR  HZ EP   1    150 32.04                             154    0.24 7 66.6 300 
 BRR  HE ES   1    150 49.03                             154    0.79 7 66.6 300 
 BRR  HZ I         150 51.91         3.4 0.27                          66.6 300 
 RUS  HZ EP   1    150 34.88                             144    0.17 7  102 173 
 RUS  HN ES   1    150 53.51                             144    0.09 7  102 173 
 RUS  HZ I         150 54.51         2.4 0.29                           102 173 
 PTB  HZ EP   1    150 36.87                             133   -0.53 7  143 258 
 PTB  HN ES   1    150 57.98                             133   -0.23 7  143 258 
 CHI  HZ EP   1    150 48.49                             117    0.05 6  248 194 
 CHI  HZ I         150 49.00         0.9 0.18                           248 194 
                                                                                
