 2013  927 0550 53.2 L   6.802 -73.118148.0  RSN 16 0.5 1.8LRSN                1
 GAP=140        0.99       3.0     4.3  6.1 -0.8874E+00  0.8473E+01  0.2441E+01E
 Epicentro: LOS SANTOS - SANTANDER                                             3
 ACTION:UPD 13-10-22 09:25 OP:ep   STATUS:               ID:20130927055054dL   I
 OLDACT:UP  13-09-27 13:20 OP:mh   STATUS:               ID:20130927054959     3
 OLDACT:UP  13-09-27 12:45 OP:mh   STATUS:               ID:20130927054959     3
 OLDACT:UP  13-09-27 12:45 OP:mh   STATUS:               ID:20130927054959     3
 OLDACT:UP  13-09-27 12:44 OP:mh   STATUS:               ID:20130927054959     3
 OLDACT:UP  13-09-27 12:44 OP:mh   STATUS:               ID:20130927054959     3
 OLDACT:UP  13-09-27 12:44 OP:mh   STATUS:               ID:20130927054959     3
 OLDACT:REG 13-09-27 09:47 OP:mh   STATUS:               ID:20130927054959     3
 2013-09-27-0549-59M.COL___272                                                 6
 STAT SP IPHASW D HRMM SECON CODA AMPLIT PERI AZIMU VELO AIN AR TRES W  DIS CAZ7
 BAR2 SZ EP   1    551 13.20                             170    0.09 7 24.2 197 
 BAR2 SZ ES   1    551 28.24                             170   -0.40 7 24.2 197 
 BAR2 SZ I         551 30.71        10.2 0.28            167           24.2 197 
 BRR  HZ EP   1    551 15.05                             152    0.32 7 73.8 297 
 BRR  HN ES        551 32.16                             152    0.6310 73.8 297 
 BRR  HZ I         551 36.39         4.9 0.10            150           73.8 297 
 PAM  SZ EP   1    551 15.97                             152    0.45 7 75.3  38 
 PAM  SN ES        551 33.28                             152    0.3410 75.3  38 
 PAM  SZ I         551 35.33         7.3 0.48            157           75.3  38 
 RUS  HZ EP   1    551 17.19                             144    0.03 7  101 178 
 RUS  HN ES        551 35.54                             144   -0.3210  101 178 
 RUS  HZ I         551 38.40         6.1 0.32            145            101 178 
 PTB  HZ EP   1    551 20.02                             132   -0.60 7  151 259 
 PTB  HN ES   1    551 41.24                             132   -0.77 7  151 259 
 PTB  HZ I         551 48.41         8.6 0.48            131            151 259 
 OCA  HZ EP   4    551 23.96                             130    2.27 0  160 352 
 OCA  HN ES        551 43.58                             130   -0.35 9  160 352 
 OCA  HZ I         551 48.77         5.9 0.44            133            160 352 
 SPBC HZ EP   1    551 22.01                             129   -0.05 7  165 220 
 SPBC HN ES   1    551 44.29                             129   -0.29 7  165 220 
 SPBC HZ I         551 49.75         9.5 0.16            129            165 220 
 ZAR  HN ES        551 52.08                             123    0.37 8  207 292 
 ZAR  HZ I         551 58.33         6.3 0.32            123            207 292 
 NOR  HZ EP   1    551 28.42                             119   -0.91 6  237 235 
 NOR  HN ES        551 57.53                             119    0.01 8  237 235 
 NOR  HZ I         552  0.68         5.3 0.18            119            237 235 
 SML  HZ EP   1    551 29.84                             118   -0.22 6  245 335 
 SML  HN ES        551 58.05                             118   -0.77 8  245 335 
 SML  HZ I         552  1.61        14.4 0.10            120            245 335 
 CHI  HZ EP   1    551 30.82                             118   -0.30 6  250 196 
 CHI  HN ES   2    552  1.34                             118    0.63 4  250 196 
 CHI  HZ I         552  9.20         2.1 0.34            119            250 196 
 ROSC BZ EP        551 32.08                             117    0.45 8  255 212 
 ROSC BN ES   4    552  3.09                             117    1.49 0  255 212 
 HEL  HZ EP   1    551 34.73                             115    0.88 6  275 256 
 HEL  HN ES   1    552  6.43                             115    0.86 6  275 256 
 HEL  HZ I         552 10.99         2.6 0.74            116            275 256 
 GUY2CHZ EP   4    551 38.14                             113    0.94 0  304 235 
 GUY2CHN ES   4    552 12.53                             113    1.00 0  304 235 
 GUY2CHZ I         552 19.91         4.1 0.78                           304 235 
 RREF HZ EP   4    551 39.18                             111   -0.53 0  324 230 
 RREF HN ES   4    552 19.53                             111    3.53 0  324 230 
 RREF HZ I         552 23.95         3.4 0.26            112            324 230 
 COD  HZ EP   4    551 44.86                             109    3.19 0  348 354 
 PRA  HZ EP   4    551 45.15                             107   -1.84 0  394 210 
 PRA  HN ES   4    552 30.26                             107    1.31 0  394 210 
 PRA  HZ I         552 35.40         3.3 0.80            108            394 210 
                                                                                
