 2017  327 0714 31.9 L   6.845 -73.358117.0  RSN  6 0.2 1.2LRSN                1
 GAP=106        0.54       2.7     3.0  4.5  0.1118E+01 -0.1611E+01 -0.4788E+00E
 Epicentro: SAN VICENTE DE CHUCURI - SANTANDER                                 3
 ACTION:UPD 17-05-25 18:45 OP:jn   STATUS:               ID:20170327071431 L   I
 OLDACT:UP  17-03-27 18:05 OP:and  STATUS:               ID:20170327070639     3
 OLDACT:UP  17-03-27 18:05 OP:and  STATUS:               ID:20170327070639     3
 OLDACT:UP  17-03-27 18:05 OP:and  STATUS:               ID:20170327070639     3
 OLDACT:REG 17-03-27 13:20 OP:and  STATUS:               ID:20170327070639     3
 2017-03-27-0707-00M.COL___348                                                 6
 STAT SP IPHASW D HRMM SECON CODA AMPLIT PERI AZIMU VELO AIN AR TRES W  DIS CAZ7
 BAR2 EZ IP     C  714 48.55                             163    0.1310 34.0 145 
 BAR2 EZ ES        715  1.11                             163   -0.1810 34.0 145 
 BAR2 EZ I         715  2.48        12.0 0.31            163           34.0 145 
 BRR  HZ EP        714 48.29                             156   -0.4110 48.7 307 
 BRR  HN ES        715  1.96                             156    0.1710 48.7 307 
 BRR  HZ I         715  2.50         2.6 0.12            157           48.7 307 
 PAM  EZ EP   2    714 52.52                             140    0.35 5 91.1  53 
 PAM  EN ES        715  8.09                             140    0.1110 91.1  53 
 PAM  EZ I         715 10.76         1.7 0.26            141           91.1  53 
 RUS  HZ EP   2    714 53.61                             135   -0.11 5  110 164 
 RUS  HN ES        715 10.83                             135    0.0910  110 164 
 RUS  HZ I         715 12.25         1.9 0.32            135            110 164 
 PTB  HZ IP   9 C  714 53.24                             130   -1.33 0  126 255 
 PTB  HN ES        715 11.13                             131    0.2110  126 255 
 PTB  HZ I         715 14.31         3.7 0.28            130            126 255 
 ZAR  HN ES   2    715 22.18                             119    0.11 4  180 293 
                                                                                
