 2014  527 0742 29.1 L   6.727 -73.149150.0  RSN  7 0.5 1.6LRSN                1
 GAP=139        1.13       4.8     5.7  7.5 -0.6109E+01  0.2589E+01  0.6953E+01E
 Epicentro: JORDAN - SANTANDER                                                 3
 ACTION:UPD 15-03-16 17:01 OP:nd   STATUS:               ID:20140527074229 L   I
 OLDACT:UP  14-05-27 19:19 OP:nlst STATUS:               ID:20140527074229 L   3
 OLDACT:REG 14-05-27 13:50 OP:stll STATUS:               ID:20140527073805     3
 2014-05-27-0738-05M.COL___261                                                 6
 STAT SP IPHASW D HRMM SECON CODA AMPLIT PERI AZIMU VELO AIN AR TRES W  DIS CAZ7
 BAR2 SZ EP        742 49.08                             174   -0.0110 15.4 194 
 BAR2 SZ ES        743  4.78                             174    0.0910 15.4 194 
 BAR2 SZ I         743  5.87        15.8 0.46            170           15.4 194 
 BRR  HZ EP        742 50.92                             152    0.0210 75.1 304 
 BRR  HZ I         742 51.19        12.6 0.22            150           75.1 304 
 BRR  HN ES        743  8.47                             152    0.5410 75.1 304 
 PAM  SZ EP        742 52.21                             150    0.0810 83.9  36 
 PAM  SN ES        743  9.41                             150   -0.7110 83.9  36 
 PAM  SZ I         743 11.15         3.8 0.66            154           83.9  36 
 RUS  HZ EP        742 52.99                             147    0.2910 92.6 176 
 RUS  HN ES        743 11.33                             147    0.2110 92.6 176 
 RUS  HZ I         743 12.74         3.4 0.32            147           92.6 176 
 PTB  HZ EP        742 56.07                             133   -0.17 9  146 262 
 PTB  HN ES        743 16.97                             133   -0.46 9  146 262 
 PTB  HZ I         743 24.61         4.8 0.34            132            146 262 
 SPBC HN ES        743 19.45                             131    0.11 9  157 221 
 SPBC HZ I         743 27.11         8.5 0.18            130            157 221 
 CHI  HZ EP        743  6.91                             119    0.74 8  241 196 
 CHI  HZ I         743  8.40         1.6 0.24            119            241 196 
 CHI  HN ES   1    743 33.66                             119   -1.45 6  241 196 
                                                                                
