 2017 1227 0434 20.1 L   6.795 -73.146147.1  RSN  6 0.3 1.3LRSN                1
 GAP=180        0.79       3.6     4.1  7.2 -0.7513E+01  0.4308E+01  0.5415E+01E
 Epicentro: LOS SANTOS - SANTANDER                                             3
 ACTION:UPD 18-01-04 13:24 OP:rebc STATUS:               ID:20171227043420 L   I
 OLDACT:REG 17-12-27 13:06 OP:osc  STATUS:               ID:20171227042354     3
 2017-12-27-0428-00M.COL___454                                                 6
 STAT SP IPHASW D HRMM SECON CODA AMPLIT PERI AZIMU VELO AIN AR TRES W  DIS CAZ7
 PAM  EZ EP        434 42.62                             151    0.1510 77.8  39 
 PAM  EN ES        434 59.75                             151   -0.1810 77.8  39 
 PAM  EZ I         435  1.09         3.4 0.38            156           77.8  39 
 PTB  HZ EP        434 46.84                             132   -0.31 9  148 259 
 PTB  HE ES        435  8.79                             132    0.53 9  148 259 
 PTB  HZ I         435  9.99         2.3 0.16            135            148 259 
 OCA  HZ EP        434 48.81                             130    0.26 9  161 353 
 OCA  HN ES        435 10.46                             130   -0.30 9  161 353 
 SPBC HZ EP        434 49.13                             129    0.49 9  163 219 
 SPBC HN ES        435 10.75                             129   -0.17 9  163 219 
 SPBC HZ I         435 19.79         2.9 0.20            131            163 219 
 ZAR  HN ES        435 18.09                             123    0.05 9  204 292 
 GUY2CHZ EP        435  3.34                             113   -0.38 7  301 235 
 GUY2CHN ES        435 37.30                             113   -0.45 7  301 235 
 GUY2CHZ I         435 46.05         0.8 0.40                           301 235 
                                                                                
