 2010  127 0603 13.2 L   6.602 -73.481110.9  RSN  5 0.3 1.2LRSN                1
 GAP=108        0.61       8.4    14.0 11.9 -0.7594E+02  0.1265E+03 -0.7359E+02E
 Epicentro: EL CARMEN DE CHUCURI - SANTANDER                                   3
 ACTION:UP  10-08-24 09:46 OP:vdl  STATUS:               ID:20100127060313 L   I
 2010-01-27-0559-50S.COL___086                                                 6
 STAT SP IPHASW D HRMM SECON CODA AMPLIT PERI AZIMU VELO SNR AR TRES W  DIS CAZ7
 BAR2 SZ IP        6 3 29.25                             162     0.310   33  92 
 BAR2 SZ ES   1    6 3 41.09                             162    -0.2 7   33  92 
 RUS  HE ES   3    6 3 48.18                             138     0.1 2   90 151 
 RUS  HZ I         6 3 49.35         2.8 0.28                            90 151 
 GUE  SZ EP        6 3 37.76                             123    -0.4 9  149  24 
 GUE  SZ ES   2    6 3 57.88                             123     0.3 5  149  24 
 OCA  SZ EP   2    6 3 41.69                             117     0.3 4  182   6 
 HEL  HZ EP   2    6 3 46.98                             111    -0.2 4  231 259 
 HEL  HZ I         6 4 17.05         2.1 0.32                           231 259 
                                                                                
