 2016 1227 0758  8.3 L   6.769 -73.135144.9  RSN  6 0.2 1.0LRSN                1
 GAP=139        0.65       3.3     2.9  4.7  0.8018E+00  0.2745E+01  0.1683E+00E
 Epicentro: LOS SANTOS - SANTANDER                                             3
 ACTION:UPD 17-01-11 20:19 OP:rebc STATUS:               ID:20161227075808 L   I
 OLDACT:DUP 16-12-27 18:51 OP:edw  STATUS:               ID:20161227075745d    3
 OLDACT:REG 16-12-27 13:36 OP:edw  STATUS:               ID:20161227075744     3
 2016-12-27-0758-00M.COL___366                                                 6
 STAT SP IPHASW D HRMM SECON CODA AMPLIT PERI AZIMU VELO AIN AR TRES W  DIS CAZ7
 BAR2 EZ EP        758 27.86                             172    0.1310 20.2 195 
 BAR2 EZ ES        758 42.78                             172   -0.1410 20.2 195 
 BRR  HZ EP     C  758 29.56                             151    0.0810 73.9 300 
 BRR  HN ES        758 46.27                             151    0.2510 73.9 300 
 BRR  HZ I         758 51.08         2.5 0.12            152           73.9 300 
 PAM  EZ EP        758 30.47                             150   -0.0410 79.4  37 
 PAM  EN ES        758 47.67                             150   -0.1910 79.4  37 
 PAM  EZ I         758 49.32         2.0 0.14            153           79.4  37 
 RUS  HZ EP        758 31.96                             145    0.2810 97.0 177 
 RUS  HN ES        758 50.03                             145    0.0910 97.0 177 
 RUS  HZ I         758 51.96         1.7 0.58            148           97.0 177 
 PTB  HZ EP        758 34.72                             132   -0.49 9  148 260 
 PTB  HN ES        758 55.92                             132   -0.31 9  148 260 
 PTB  HZ I         758 59.27         1.1 0.09            134            148 260 
 ZAR  HN ES        759  6.69                             122    0.33 8  206 293 
                                                                                
