 2017 1027 0841  4.5 L   6.759 -73.139147.4  RSN  7 0.3 1.1LRSN                1
 GAP=139        0.79       3.4     3.4  5.3 -0.5196E+00  0.4479E+01 -0.1458E+01E
 Epicentro: LOS SANTOS - SANTANDER                                             3
 ACTION:UPD 17-11-07 19:37 OP:rebc STATUS:               ID:20171027084104 L   I
 OLDACT:UP  17-10-27 17:33 OP:edw  STATUS:               ID:20171027083744     3
 OLDACT:REG 17-10-27 13:07 OP:dani STATUS:               ID:20171027083744     3
 2017-10-27-0838-00M.COL___435                                                 6
 STAT SP IPHASW D HRMM SECON CODA AMPLIT PERI AZIMU VELO AIN AR TRES W  DIS CAZ7
 BAR2 EZ EP        841 24.17                             172   -0.0510 19.1 195 
 BAR2 EZ ES        841 39.50                             172   -0.1310 19.1 195 
 BAR2 EZ I         841 42.27         2.6 0.58            172           19.1 195 
 BRR  HZ EP        841 25.92                             152   -0.0410 74.1 301 
 BRR  HN ES        841 43.18                             152    0.4510 74.1 301 
 BRR  HZ I         841 45.95         3.5 0.54            152           74.1 301 
 PAM  EZ EP        841 27.04                             150   -0.0110 80.5  37 
 PAM  EE ES        841 44.46                             150   -0.2010 80.5  37 
 PAM  EZ I         841 46.06         2.3 0.46            153           80.5  37 
 RUS  HZ EP        841 28.29                             145    0.2310 96.0 176 
 RUS  HN ES        841 46.56                             145    0.0910 96.0 176 
 RUS  HZ I         841 47.64         2.3 0.54            148           96.0 176 
 PTB  HZ EP        841 31.81                             132    0.24 9  148 261 
 PTB  HN ES        841 51.99                             132   -0.71 9  148 261 
 PTB  HZ I         841 58.00         1.1 0.14            134            148 261 
 SPBC HN ES        841 54.98                             130    0.06 9  160 220 
 ZAR  HZ EP        841 36.88                             122   -0.39 8  206 293 
 ZAR  HN ES        842  3.29                             122    0.43 8  206 293 
                                                                                
