 2017  727 0447 18.7 L   6.800 -73.115149.8  RSN  5 0.3 1.2LRSN                1
 GAP=241        0.64       4.5     4.7  6.0 -0.1781E+00  0.1413E+01  0.2746E+01E
 Epicentro: LOS SANTOS - SANTANDER                                             3
 ACTION:UPD 17-08-30 15:37 OP:rebc STATUS:               ID:20170727044718 L   I
 OLDACT:DUP 17-07-27 14:38 OP:and  STATUS:               ID:20170727043737d    3
 2017-07-27-0438-00M.COL___371                                                 6
 STAT SP IPHASW D HRMM SECON CODA AMPLIT PERI AZIMU VELO AIN AR TRES W  DIS CAZ7
 BAR2 EZ EP        447 38.82                             170    0.0310 24.2 198 
 BAR2 EZ ES        447 54.14                             170   -0.3510 24.2 198 
 BAR2 EZ I         447 56.36         3.5 0.20            166           24.2 198 
 BRR  HZ IP     C  447 40.43                             152    0.0210 74.2 297 
 BRR  HN ES        447 57.63                             152    0.2510 74.2 297 
 RUS  HZ EP   2    447 43.18                             145    0.38 5  100 178 
 RUS  HN ES   2    448  2.15                             145    0.53 5  100 178 
 RUS  HZ I         448  2.41         2.5 0.24            142            100 178 
 PTB  HZ EP   2    447 45.28                             132   -0.98 5  151 259 
 PTB  HE ES        448  7.84                             132    0.05 9  151 259 
 PTB  HZ I         448  8.40         1.0 0.20            132            151 259 
 SPBC HZ EP   2    447 47.89                             129    0.22 5  165 220 
 SPBC HN ES        448 10.25                             129   -0.05 9  165 220 
 SPBC HZ I         448 15.52         2.5 0.11            128            165 220 
                                                                                
