 2017 1027 0419 48.5 L   6.805 -73.126149.6  RSN 12 0.7 1.8LRSN                1
 GAP=113        1.50       5.0     5.1  8.0  0.6699E+00  0.9987E+01  0.1225E+02E
 Epicentro: LOS SANTOS - SANTANDER                                             3
 ACTION:UPD 17-11-07 19:37 OP:rebc STATUS:               ID:20171027041948 L   I
 OLDACT:REG 17-10-27 12:43 OP:dani STATUS:               ID:20171027041739     3
 2017-10-27-0418-00M.COL___453                                                 6
 STAT SP IPHASW D HRMM SECON CODA AMPLIT PERI AZIMU VELO AIN AR TRES W  DIS CAZ7
 BAR2 EZ EP     D  420  8.45                             170   -0.1410 24.3 195 
 BAR2 EZ ES        420 24.44                             170    0.1610 24.3 195 
 BAR2 EZ I         420 26.29        12.7 0.38            168           24.3 195 
 BRR  HZ EP        420 10.52                             153    0.3810 72.9 297 
 BRR  HE ES        420 27.84                             153    0.8110 72.9 297 
 BRR  HZ I         420 32.85        17.4 0.16            154           72.9 297 
 PAM  EZ EP        420 11.38                             152    0.3810 75.6  39 
 PAM  EN ES        420 28.63                             152    0.0610 75.6  39 
 PAM  EZ I         420 30.76        12.7 0.58            158           75.6  39 
 RUS  HZ EP        420 12.28                             144   -0.3610  101 177 
 RUS  HN ES        420 31.19                             144   -0.2910  101 177 
 RUS  HZ I         420 34.51         4.1 0.44            146            101 177 
 PTB  HZ EP        420 15.16                             132   -0.81 9  150 259 
 PTB  HN ES        420 36.35                             132   -1.05 9  150 259 
 PTB  HZ I         420 43.95        10.5 0.40            134            150 259 
 SPBC HZ EP        420 17.42                             130   -0.03 9  165 219 
 SPBC HN ES        420 40.11                             130    0.07 9  165 219 
 SPBC HZ I         420 43.64        10.3 0.14            131            165 219 
 YPLC HZ EP        420 18.61                             128    0.10 9  176 152 
 YPLC HN ES        420 41.66                             128   -0.26 9  176 152 
 YPLC HZ I         420 44.78         4.0 0.22            131            176 152 
 NOR  HZ EP        420 24.73                             119    0.07 8  237 235 
 NOR  HN ES        420 53.44                             119    0.56 8  237 235 
 NOR  HZ I         420 57.35         4.3 0.20            121            237 235 
 CHI  HZ EP        420 26.70                             118    0.18 8  250 196 
 CHI  HN ES        420 55.28                             118   -0.90 8  250 196 
 CHI  HZ I         421  3.88         3.7 0.28            120            250 196 
 URE  HN ES        421  0.81                             114   -1.47 7  286 292 
 GUY2CHZ EP        420 33.30                             113    0.79 7  303 235 
 GUY2CHN ES        421  8.74                             113    1.90 7  303 235 
 GUY2CHZ I         421 13.44         3.2 0.30                           303 235 
 PRA  HZ EP        420 42.78                             107    0.46 6  394 210 
 PRA  HN ES        421 24.29                             107   -0.02 6  394 210 
 PRA  HZ I         421 28.41         2.7 0.20            109            394 210 
                                                                                
