 2012  427 0452  3.3 L   6.551 -73.567103.9  RSN 12 0.6 2.5LRSN                1
 GAP= 60        1.35       4.6     5.3 10.8 -0.4840E+01  0.2465E+02 -0.4307E+01E
 Epicentro: EL CARMEN DE CHUCURI - SANTANDER                                   3
 ACTION:UPD 12-07-05 11:56 OP:tino STATUS:               ID:20120427045203 L   I
 2012-04-27-0450-00M.COL___189                                                 6
 STAT SP IPHASW D HRMM SECON CODA AMPLIT PERI AZIMU VELO AIN AR TRES W  DIS CAZ7
 BAR2 SZ EP        452 18.89                             156     0.210   43  84 
 BAR2 SZ ES   1    452 31.23                             156     0.6 7   43  84 
 BAR2 SZ I         452 32.79       567.0 0.29                            43  84 
 BRR  HZ EP        452 19.82                             146     0.310   64 345 
 BRR  HZ I         452 39.91       108.6 0.09                            64 345 
 RUS  HZ EP        452 21.85                             136    -0.410   90 144 
 RUS  HE ES   1    452 37.17                             136     0.0 7   90 144 
 PTB  HZ IP     C  452 21.70                             133    -0.610   98 269 
 PTB  HN ES   1    452 36.42                             133    -0.8 7   98 269 
 PTB  HZ I         452 37.69        30.6 0.11                            98 269 
 PAM  SN ES   1    452 43.03                             124    -0.6 7  130  48 
 ZAR  HZ EP   1    452 30.93                             115     0.6 7  177 306 
 NOR  SZ EP   1    452 30.62                             114    -0.2 7  181 233 
 NOR  SN ES   1    452 51.47                             114    -0.9 7  181 233 
 OCA  SZ EP        452 31.72                             113    -0.1 9  189   8 
 OCA  SZ ES   1    452 54.63                             113     0.5 7  189   8 
 ROSC BZ EP   1    452 34.78                             111     0.6 6  207 204 
 ROSC BZ I         453  5.85        15.5 0.60                           207 204 
 CHI  HZ EP   1    452 34.67                             110    -0.3 6  213 185 
 CHI  HN ES   1    453  0.07                             110     0.4 6  213 185 
 HEL  HZ EP        452 36.44                             109     0.7 8  221 260 
 HEL  HN ES   1    453  2.55                             109     1.5 6  221 260 
 MON  HZ EP   1    452 47.99                             100    -1.1 5  338 317 
                                                                                
