 2015  927 0308 12.4 L   7.431 -73.211132.0  RSN  4 0.3 1.5LRSN                1
 GAP=301        0.60       6.6     5.8  6.2  0.7379E+00 -0.2181E+01 -0.3723E+01E
 Epicentro: EL PLAYON - SANTANDER                                              3
 ACTION:UPD 15-10-28 16:28 OP:cam  STATUS:               ID:20150927030812 L   I
 OLDACT:REG 15-09-27 12:25 OP:spq  STATUS:               ID:20150927025747     3
 2015-09-27-0257-47M.COL___352                                                 6
 STAT SP IPHASW D HRMM SECON CODA AMPLIT PERI AZIMU VELO AIN AR TRES W  DIS CAZ7
 BRR  HZ EP        3 8 31.61                             152   -0.1110 65.9 237 
 BRR  HE ES        3 8 47.09                             152    0.2710 65.9 237 
 BRR  HZ I         3 8 48.04         9.3 0.12            140           65.9 237 
 BAR2 EZ EP        3 8 34.01                             143    0.1710 92.8 178 
 BAR2 EZ ES   1    3 8 50.22                             143   -0.38 7 92.8 178 
 BAR2 EZ I         3 8 51.10         9.0 0.36            133           92.8 178 
 PTB  HZ EP        3 8 40.21                             125   -0.14 9  169 234 
 PTB  HN ES   1    3 9  1.86                             125   -0.32 7  169 234 
 PTB  HZ I         3 9  5.76         1.8 0.18            118            169 234 
 SPBC HN ES   1    3 9 11.94                             117    0.39 6  219 206 
 SPBC HZ I         3 9 18.69         3.2 0.20            112            219 206 
                                                                                
