 2013 1227 0455  6.5 L   6.748 -73.105149.3  RSN  6 0.4 1.6LRSN                1
 GAP=238        0.92       5.5     5.6  9.6  0.3468E+01 -0.8025E+00  0.1882E+01E
 Epicentro: LOS SANTOS - SANTANDER                                             3
 ACTION:UPD 14-01-13 10:21 OP:ep   STATUS:               ID:20131227045506 L   I
 OLDACT:REG 13-12-27 07:44 OP:mh   STATUS:               ID:20131227045000     3
 2013-12-27-0450-00M.COL___285                                                 6
 STAT SP IPHASW D HRMM SECON CODA AMPLIT PERI AZIMU VELO AIN AR TRES W  DIS CAZ7
 BAR2 SZ EP        455 26.57                             172    0.0710 19.3 206 
 BAR2 SZ I         455 43.27         6.0 0.15            173           19.3 206 
 BRR  HZ EP        455 28.36                             151   -0.0710 78.0 301 
 BRR  HN ES        455 45.93                             151    0.4010 78.0 301 
 BRR  HZ I         455 51.92        73.6 0.07                          78.0 301 
 RUS  HZ EP        455 30.33                             146    0.1310 94.7 179 
 RUS  HN ES        455 48.49                             146   -0.1910 94.7 179 
 RUS  HZ I         455 50.90         2.0 0.10            145           94.7 179 
 PTB  HZ EP   1    455 33.73                             132   -0.36 7  151 261 
 PTB  HN ES        455 54.90                             132   -0.69 9  151 261 
 PTB  HZ I         455 56.82         2.2 0.17            133            151 261 
 SPBC HN ES   1    455 57.40                             130   -0.09 7  162 222 
 NOR  HN ES        456 11.30                             119    0.73 8  235 236 
                                                                                
