 2016  327 0958 11.4 L   6.838 -73.091148.0  RSN 11 0.5 1.8LRSN                1
 GAP=123        1.11       3.3     3.7  6.5 -0.2154E+01  0.2657E+01 -0.2820E+01E
 Epicentro: LOS SANTOS - SANTANDER                                             3
 ACTION:UPD 16-05-13 21:28 OP:cam  STATUS:               ID:20160327095811 L   I
 OLDACT:UP  16-03-27 18:15 OP:ak   STATUS:               ID:20160327094746d    3
 OLDACT:DUP 16-03-27 18:10 OP:ak   STATUS:               ID:20160327094746d    3
 OLDACT:REG 16-03-27 13:40 OP:ak   STATUS:               ID:20160327094745     3
 2016-03-27-0947-45M.COL___293                                                 6
 STAT SP IPHASW D HRMM SECON CODA AMPLIT PERI AZIMU VELO AIN AR TRES W  DIS CAZ7
 BAR2 EZ EP        958 32.05                             168    0.5810 29.0 200 
 BAR2 EZ ES        958 47.45                             168    0.3610 29.0 200 
 BAR2 EZ I         958 48.55        22.6 0.16            168           29.0 200 
 RUS  HZ EP        958 35.55                             143   -0.1610  105 180 
 RUS  HN ES        958 54.84                             143    0.2110  105 180 
 RUS  HZ I         958 57.48         6.6 0.30            144            105 180 
 PTB  HZ EP   1    958 38.77                             131   -0.44 7  155 258 
 PTB  HN ES        959  0.09                             131   -0.78 9  155 258 
 PTB  HZ I         959  5.37         7.0 0.30            127            155 258 
 OCA  HZ EP   1    958 40.19                             131    0.57 7  157 351 
 OCA  HN ES        959  2.08                             131    0.49 9  157 351 
 OCA  HZ I         959  6.92        15.1 0.52            126            157 351 
 SPBC HZ EP        958 40.67                             128   -0.12 9  170 220 
 SPBC HN ES        959  3.31                             128   -0.37 9  170 220 
 SPBC HZ I         959  5.67        19.4 0.34            126            170 220 
 ZAR  HZ EP        958 44.85                             122    0.39 8  208 290 
 ZAR  HE ES        959  9.76                             122   -0.45 8  208 290 
 ZAR  HZ I         959 20.96         5.2 0.34            118            208 290 
 CHI  HZ EP        958 50.23                             117    0.34 8  254 196 
 CHI  HN ES        959 19.32                             117   -0.55 8  254 196 
 CHI  HZ I         959 23.25         4.4 0.84            116            254 196 
 SOCV BZ EP        958 53.12                             113   -0.65 7  294  57 
 SOCV BE ES        959 25.94                             113   -0.84 7  294  57 
 GUY2CHZ EP        958 56.63                             112    0.64 7  309 235 
 GUY2CHN ES        959 31.30                             112    0.57 7  309 235 
 GUY2CHZ I         959 39.90         3.7 0.38                           309 235 
 CBOC HZ EP        958 59.98                             110    0.72 7  341 252 
 CBOC HN ES        959 36.14                             110   -0.42 7  341 252 
 CBOC HZ I         959 42.38         0.8 0.13            108            341 252 
 MON  HZ EP   4    958 58.66                             109   -2.12 0  356 307 
 MON  HZ I         959 38.43         0.8 0.40            106            356 307 
 MON  HE ES        959 38.80                             109   -0.47 6  356 307 
                                                                                
