 2012 1027 0803 15.3 L   6.805 -73.135148.6  RSN 16 0.4 3.2LRSN 3.4WRSN        1
 SPEC AVERAGE  MO 14.2 ST 25.3 OM  3.3 f0 4.66 R0.3204 AL 2.53 WI 21.1 MW  3.4 3
 SPEC SD       MO  0.2 ST 13.1 OM  0.9 f00.613 R0.0374 AL      WI      MW  0.1 3
 GAP= 66        0.71       2.1     2.4  4.2  0.8303E+00  0.3286E+01  0.2457E+01E
 Epicentro: LOS SANTOS - SANTANDER                                             3
 SPEC OCA HH N MO 14.4 ST 33.8 OM  2.7 f0 4.48 R0.3281 AL 1.67 WI 14.5 MW  3.6 3
 SPEC OCA HH N T 8 4 4 K 0.000 GD  218 VS 4.20 DE 3.20 Q0230.0 QA 0.60 VS 4.20 3
 SPEC HEL HH N MO 14.0 ST  9.5 OM  2.1 f0 4.13 R0.3559 AL 2.50 WI 36.4 MW  3.3 3
 SPEC HEL HH N T 8 425 K 0.000 GD  310 VS 4.20 DE 3.20 Q0230.0 QA 0.60 VS 4.20 3
 SPEC CHI HH N MO 14.2 ST 16.2 OM  2.3 f0 4.33 R0.3395 AL 3.32 WI 17.4 MW  3.4 3
 SPEC CHI HH N T 8 421 K 0.000 GD  289 VS 4.20 DE 3.20 Q0230.0 QA 0.60 VS 4.20 3
 SPEC BRR HH N MO 14.2 ST 41.9 OM  2.6 f0 5.70 R0.2579 AL 2.64 WI 16.1 MW  3.4 3
 SPEC BRR HH N T 8 352 K 0.000 GD  165 VS 4.20 DE 3.20 Q0230.0 QA 0.60 VS 4.20 3
 ACTION:UPD 12-11-22 17:06 OP:ep   STATUS:               ID:20121027080315 L   I
 2012-10-27-0800-00M.COL___228                                                 6
 STAT SP IPHASW D HRMM SECON CODA AMPLIT PERI AZIMU VELO AIN AR TRES W  DIS CAZ7
 BAR2 SZ EP        8 3 35.17                             170   -0.1510 24.1 193 
 BAR2 SZ ES   1    8 3 50.58                             170   -0.32 7 24.1 193 
 BAR2 SZ I         8 3 53.17       289.1 0.41                          24.1 193 
 GIR2 SZ EP        8 3 35.27                             168   -0.0610 31.0 348 
 BRR  HZ IP     C  8 3 37.07                             153    0.2410 72.0 298 
 BRR  HN ES   1    8 3 54.34                             153    0.74 7 72.0 298 
 BRR  HN I         8 3 55.63       435.8 0.18                          72.0 298 
 PAM  SZ EP        8 3 37.98                             152    0.2010 76.2  39 
 PAM  SN ES        8 3 55.15                             152   -0.1410 76.2  39 
 PAM  SN I         8 3 56.26       274.2 0.50                          76.2  39 
 RUS  HZ EP        8 3 39.05                             144   -0.3510  101 177 
 RUS  HN ES        8 3 57.99                             144   -0.1710  101 177 
 RUS  HN I         8 3 59.73       342.0 0.44                           101 177 
 TAM  HZ IP     C  8 3 43.34                             131    0.20 9  154 105 
 TAM  HN ES        8 4  4.98                             131    0.15 9  154 105 
 TAM  HN I         8 4  5.65       215.0 0.38                           154 105 
 OCA  HZ EP   1    8 3 43.44                             130   -0.39 7  160 353 
 OCA  HN ES        8 4  6.14                             130    0.09 9  160 353 
 OCA  HN I         8 4  8.61       565.7 0.32                           160 353 
 YOP  SZ EP   1    8 3 45.65                             127    0.07 7  179 154 
 YOP  SN ES        8 4  9.25                             127    0.09 9  179 154 
 YOP  SN I         8 4 12.85       144.6 0.28                           179 154 
 ZAR  HZ EP   1    8 3 47.47                             123   -0.59 6  205 292 
 ZAR  HE ES        8 4 13.43                             123   -0.15 9  205 292 
 ZAR  HN I         8 4 19.19       174.4 0.28                           205 292 
 CHI  HZ EP   1    8 3 53.17                             117   -0.11 6  249 195 
 CHI  HN ES   1    8 4 22.29                             117   -0.59 6  249 195 
 CHI  HN I         8 4 24.78        73.1 0.50                           249 195 
 ROSC BZ EP   1    8 3 54.46                             117    0.73 6  254 211 
 ROSC BZ I         8 4 29.90        82.2 0.30                           254 211 
 HEL  HZ EP   1    8 3 55.86                             115    0.03 6  273 256 
 HEL  HN ES        8 4 27.31                             115   -0.11 8  273 256 
 HEL  HN I         8 4 33.59        55.8 0.40                           273 256 
 GUY  SZ EP   1    8 3 59.86                             112    0.38 5  305 235 
 RREF HZ EP   1    8 4  2.27                             111    0.53 5  323 229 
 RREF HZ I         8 4 45.88        64.9 0.26                           323 229 
 PRA  HZ EP   1    8 4  8.45                             107   -0.63 4  393 210 
 PRA  HN ES        8 4 51.81                             107    0.82 6  393 210 
 PRA  HN I         8 4 56.90        25.4 0.22                           393 210 
 YOT  HZ EP   1    8 4 17.80                             103   -0.80 4  473 229 
                                                                                
