 2014  327 0121 12.6 L   6.798 -73.161148.0  RSN 19 0.4 2.6LRSN                1
 GAP= 70        1.01       2.6     2.6  4.6 -0.1061E+01  0.3901E+01  0.6883E+00E
 Epicentro: LOS SANTOS - SANTANDER                                             3
 ACTION:UPD 14-04-09 23:20 OP:nd   STATUS:               ID:20140327012112 L   I
 OLDACT:REG 14-03-27 08:12 OP:carl STATUS:               ID:20140327012044     3
 2014-03-27-0120-44M.COL___244                                                 6
 STAT SP IPHASW D HRMM SECON CODA AMPLIT PERI AZIMU VELO AIN AR TRES W  DIS CAZ7
 BAR2 SZ EP     D  121 32.42                             171   -0.0710 22.9 186 
 BAR2 SZ ES        121 47.57                             171   -0.4410 22.9 186 
 BAR2 SZ I         121 50.14       115.6 0.24            172           22.9 186 
 BRR  HZ IP     D  121 34.32                             153    0.4010 69.8 299 
 BRR  HN ES        121 51.79                             153    1.2510 69.8 299 
 BRR  HZ I         121 56.57        51.5 0.16            151           69.8 299 
 PAM  SZ EP        121 35.26                             151    0.1310 78.7  40 
 PAM  SN ES        121 52.61                             151   -0.0910 78.7  40 
 PAM  SZ I         121 54.61        40.1 0.46            149           78.7  40 
 RUS  HZ EP     C  121 36.23                             144   -0.3410  100 175 
 RUS  HN ES        121 55.10                             144   -0.1610  100 175 
 RUS  HZ I         121 56.22        32.3 0.28            144            100 175 
 PTB  HZ EP        121 38.89                             133   -0.71 9  146 259 
 PTB  HN ES        122  0.04                             133   -0.61 9  146 259 
 PTB  HZ I         122  6.42        49.6 0.18            131            146 259 
 TAM  HZ IP     C  121 40.59                             131   -0.01 9  157 105 
 TAM  HZ I         122  1.44        25.3 0.32            130            157 105 
 TAM  HN ES        122  2.39                             131   -0.05 9  157 105 
 OCA  HZ EP        121 41.33                             130    0.24 9  160 354 
 OCA  HN ES        122  3.50                             130    0.19 9  160 354 
 OCA  HZ I         122  8.19        54.5 0.24            128            160 354 
 SPBC HZ EP        121 41.34                             130    0.18 9  162 219 
 SPBC HN ES        122  3.49                             130    0.06 9  162 219 
 ZAR  HZ EP        121 44.70                             123   -0.34 9  203 292 
 ZAR  HN ES        122 10.03                             123   -0.31 9  203 292 
 ZAR  HZ I         122 16.96        56.1 0.36            121            203 292 
 NOR  HZ EP        121 48.29                             119   -0.01 8  233 234 
 NOR  HE ES        122 16.10                             119   -0.04 8  233 234 
 NOR  HZ I         122 23.00        29.5 0.24            118            233 234 
 SML  HZ EP        121 48.84                             118   -0.46 8  243 336 
 SML  HN ES        122 17.81                             118   -0.11 8  243 336 
 SML  HZ I         122 24.60        50.7 0.28            116            243 336 
 ROSC BZ EP   4    121 51.74                             117    1.01 0  252 211 
 ROSC BN ES   4    122 21.95                             117    1.48 0  252 211 
 HEL  HZ EP   4    121 53.67                             115    0.93 0  270 256 
 HEL  HE ES        122 23.66                             115   -0.39 8  270 256 
 HEL  HZ I         122 31.96        21.9 0.26            114            270 256 
 URE  HZ EP   4    121 52.25                             114   -1.36 0  282 292 
 URE  HN ES   4    122 22.51                             114   -3.09 0  282 292 
 URE  HZ I         122 35.62        27.7 0.30            113            282 292 
 GUY2CHZ EP        121 56.96                             113    0.82 7  300 235 
 GUY2CHN ES        122 30.83                             113    0.73 7  300 235 
 RREF HZ EP        121 58.71                             111    0.03 7  320 229 
 RREF HN ES        122 35.01                             111    0.39 7  320 229 
 RREF HZ I         122 40.91        22.2 0.26            110            320 229 
 CBOC HZ EP        121 59.99                             110    0.57 7  332 252 
 CBOC HN ES        122 35.80                             110   -0.13 7  332 252 
 CBOC HZ I         122 47.83         6.5 0.48            109            332 252 
 DBB  SZ EP        121 59.82                             110   -0.16 7  338 274 
 DBB  SZ ES        122 36.39                             110   -0.54 7  338 274 
 DBB  SZ I         122 38.22        36.0 0.36            109            338 274 
 ORTC HZ EP        122  6.57                             107    0.11 6  394 216 
 ORTC HN ES        122 48.90                             107    0.43 6  394 216 
 ORTC HZ I         122 53.79         9.8 0.70            106            394 216 
 SJC  HZ EP   4    122  6.51                             106   -1.64 0  408 327 
 SJC  HN ES   4    122 47.09                             106   -4.39 0  408 327 
 SJC  HZ I         122 55.78         6.6 0.34            105            408 327 
                                                                                
