 2017  827 0656 28.2 L   6.711 -73.084144.0  RSN  5 0.4 1.2LRSN                1
 GAP=149        0.93       6.6     6.9  7.3  0.2603E+02 -0.4671E+01 -0.1526E+02E
 Epicentro: JORDAN - SANTANDER                                                 3
 ACTION:UPD 17-09-04 20:25 OP:rebc STATUS:               ID:20170827065628 L   I
 OLDACT:UP  17-08-27 17:00 OP:edw  STATUS:               ID:20170827064737d    3
 OLDACT:UP  17-08-27 16:59 OP:edw  STATUS:               ID:20170827064737d    3
 OLDACT:DUP 17-08-27 16:55 OP:edw  STATUS:               ID:20170827064737d    3
 OLDACT:REG 17-08-27 13:25 OP:edw  STATUS:               ID:20170827064736     3
 2017-08-27-0648-00M.COL___411                                                 6
 STAT SP IPHASW D HRMM SECON CODA AMPLIT PERI AZIMU VELO AIN AR TRES W  DIS CAZ7
 BAR2 EZ EP        656 47.44                             173   -0.0710 17.0 220 
 BAR2 EZ ES        657  3.14                             173    0.5710 17.0 220 
 BAR2 EZ I         657  3.41         3.9 0.20            167           17.0 220 
 PAM  EZ EP        656 50.43                             149   -0.0510 81.5  31 
 BRR  HZ EP        656 49.90                             149    0.0810 82.1 302 
 BRR  HN ES        657  6.16                             149   -0.5110 82.1 302 
 RUS  HZ EP        656 50.64                             146   -0.4310 90.4 180 
 RUS  HN ES        657  8.92                             146    0.0110 90.4 180 
 RUS  HZ I         657 11.19         1.6 0.26            144           90.4 180 
 ZAR  HZ EP        657  2.23                             121    0.64 8  214 294 
 ZAR  HN ES        657 27.55                             121   -0.08 8  214 294 
 ZAR  HZ I         657 32.70         2.0 0.48            120            214 294 
                                                                                
