 2016 1127 0918 57.2 L   6.783 -73.159144.2  RSN  5 0.2 0.9LRSN                1
 GAP=220        0.65       8.1     3.6  6.0 -0.1371E+02  0.1033E+01  0.1499E+02E
 Epicentro: LOS SANTOS - SANTANDER                                             3
 ACTION:UPD 17-10-26 21:12 OP:lp   STATUS:               ID:20161127091857 L   I
 OLDACT:REG 16-11-27 13:08 OP:dani STATUS:               ID:20161127091735     3
 2016-11-27-0918-00M.COL___349                                                 6
 STAT SP IPHASW D HRMM SECON CODA AMPLIT PERI AZIMU VELO AIN AR TRES W  DIS CAZ7
 BRR  HZ EP        919 18.35                             152    0.2210 70.8 300 
 BRR  HN ES        919 34.62                             152    0.1410 70.8 300 
 PAM  EZ EP        919 19.74                             150    0.3710 79.8  40 
 PAM  EN ES        919 36.34                             150   -0.3410 79.8  40 
 PAM  EZ I         919 38.74         1.1 0.54            147           79.8  40 
 PTB  HZ EP        919 23.65                             132   -0.20 9  146 259 
 PTB  HN ES        919 44.62                             132   -0.03 9  146 259 
 PTB  HZ I         919 46.03         1.2 0.16            131            146 259 
 ZAR  HZ EP        919 29.12                             122   -0.33 9  203 293 
 ZAR  HN ES        919 54.69                             122    0.07 9  203 293 
 ZAR  HZ I         920  0.05         1.1 0.20            120            203 293 
 MAP  HZ E         926 22.77                                            985 252 
                                                                                
