 2016  727 0144  6.7 L   6.793 -73.149144.3  RSN  4 0.2 1.0LRSN                1
 GAP=237        0.46       3.5     3.9  4.6  0.7395E+01 -0.7968E+00  0.6022E+00E
 Epicentro: LOS SANTOS - SANTANDER                                             3
 ACTION:UPD 17-03-29 16:55 OP:lp   STATUS:               ID:20160727014406 L   I
 OLDACT:UP  16-07-27 14:42 OP:edw  STATUS:               ID:20160727013759     3
 OLDACT:REG 16-07-27 12:36 OP:edw  STATUS:               ID:20160727013759     3
 2016-07-27-0137-59S.COL___340                                                 6
 STAT SP IPHASW D HRMM SECON CODA AMPLIT PERI AZIMU VELO AIN AR TRES W  DIS CAZ7
 BRR  HZ IP     D  144 27.87                             152    0.1510 71.2 299 
 BRR  HE ES        144 44.10                             152    0.0110 71.2 299 
 RUS  HZ EP        144 30.41                             144    0.1310 99.8 176 
 RUS  HN ES        144 48.52                             144   -0.1310 99.8 176 
 RUS  HZ I         144 49.86         1.0 0.24            143           99.8 176 
 PTB  HZ EP        144 33.25                             132   -0.28 9  147 259 
 PTB  HE ES        144 54.47                             132    0.04 9  147 259 
 PTB  HZ I         144 55.97         2.0 0.14            132            147 259 
 VIL  EZ EP   4    144 51.56                             112    1.57 0  303 192 
 VIL  EN ES   2    145 24.15                             112    0.43 4  303 192 
                                                                                
