 2010  127 0755 34.4 L   6.826 -73.327141.5  RSN  6 0.3 0.9LRSN                1
 GAP=195        0.41       3.3    12.8  5.3 -0.1068E+02  0.2108E+02 -0.3924E+01E
 Epicentro: ZAPATOCA - SANTANDER                                               3
 ACTION:UP  10-08-24 09:46 OP:vdl  STATUS:               ID:20100127075534 L   I
 2010-01-27-0739-51S.COL___086                                                 6
 STAT SP IPHASW D HRMM SECON CODA AMPLIT PERI AZIMU VELO SNR AR TRES W  DIS CAZ7
 BAR2 SZ EP   2    755 53.57                             167    -0.1 5   30 149 
 BAR2 SZ ES   2    756  8.41                             167    -0.3 5   30 149 
 GIR2 SZ EP   2    755 53.98                             167     0.4 5   32  28 
 GIR2 SZ ES   2    756  8.99                             167     0.5 5   32  28 
 RUS  HZ EP   2    755 58.48                             141     0.3 5  107 165 
 RUS  HN ES   3    756 16.22                             141    -0.5 2  107 165 
 RUS  HZ I         756 17.72         1.3 0.34                           107 165 
 GUE  SZ EP   2    755 58.91                             138    -0.1 5  120  22 
 GUE  SZ ES   2    756 18.01                             138    -0.1 5  120  22 
 GRA  SZ EP   1    755 59.73                             135     0.1 7  131  26 
 GRA  SZ ES   2    756 19.27                             135    -0.1 5  131  26 
 OCA  SZ EP   1    756  1.77                             129    -0.2 7  156   0 
 OCA  SZ ES   2    756 23.43                             129    -0.1 5  156   0 
                                                                                
