 2012  627 0544 20.4 L   6.736 -73.199156.8  RSN  4 0.1 1.1LRSN                1
 GAP=226        0.34       3.6     3.8  4.8  0.7119E+01 -0.4662E-01 -0.4735E+01E
 Epicentro: VILLANUEVA - SANTANDER                                             3
 ACTION:UPD 12-08-06 17:52 OP:ep   STATUS:               ID:20120627054420 L   I
 2012-06-27-0540-00M.COL___201                                                 6
 STAT SP IPHASW D HRMM SECON CODA AMPLIT PERI AZIMU VELO AIN AR TRES W  DIS CAZ7
 BAR2 SZ EP   1    544 41.15                             174   -0.12 7 16.0 173 
 BRR  HZ EP   1    544 42.90                             155    0.18 7 70.0 306 
 BRR  HZ I         544 43.22         2.7 0.11                          70.0 306 
 BRR  HN ES   1    545  0.05                             155   -0.05 7 70.0 306 
 RUS  HN ES        545  3.92                             148    0.0210 94.1 172 
 PTB  HZ EP   1    544 47.63                             136   -0.08 7  141 261 
 PTB  HN ES   1    545  9.01                             136    0.02 7  141 261 
 PTB  HZ I         545 14.38         1.1 0.16                           141 261 
                                                                                
