 2011  627 0249 30.6 L   6.749 -73.063149.8  RSN  5 0.2 1.3LRSN                1
 GAP=204        0.67       6.6     9.0  6.9 -0.2338E+02 -0.2283E+02  0.5795E+01E
 Epicentro: LOS SANTOS - SANTANDER                                             3
 ACTION:UP  11-07-14 19:08 OP:ep   STATUS:               ID:20110627024930 L   I
 2011-06-27-0246-49S.COL___140                                                 6
 STAT SP IPHASW D HRMM SECON CODA AMPLIT PERI AZIMU VELO SNR AR TRES W  DIS CAZ7
 BAR2 SZ EP        249 50.23                             171    -0.410   22 217 
 BAR2 SZ ES   2    250  6.54                             171     0.2 5   22 217 
 BAR2 SZ I         250  9.54         4.3 0.64                            22 217 
 BTL  SZ EP        249 51.25                             168     0.410   29 310 
 BTL  SZ ES   1    250  6.53                             168    -0.1 7   29 310 
 GIR2 SZ EP        249 51.04                             165     0.110   39 338 
 GIR2 SZ ES   3    250  6.94                             165     0.1 2   39 338 
 BRR  HZ EP        249 52.64                             150    -0.110   82 299 
 BRR  HN ES   1    250 10.05                             150     0.0 7   82 299 
 BRR  HZ I         250 11.73         3.9 0.19                            82 299 
 GRA  SZ EP        249 56.52                             137     0.110  129  13 
 GRA  SZ ES   1    250 16.39                             137    -0.2 7  129  13 
 GRA  SZ I         250 18.13         3.0 0.41                           129  13 
                                                                                
