 2016  127 0435 34.7 L   6.809 -73.168141.8  RSN 12 0.4 1.7LRSN                1
 GAP=133        0.86       2.1     3.4  4.8 -0.1551E+01  0.5461E+01  0.1183E+00E
 Epicentro: LOS SANTOS - SANTANDER                                             3
 ACTION:UPD 16-03-09 23:28 OP:cam  STATUS:               ID:20160127043534 L   I
 OLDACT:REG 16-01-27 15:58 OP:ak   STATUS:               ID:20160127042744     3
 2016-01-27-0427-44M.COL___328                                                 6
 STAT SP IPHASW D HRMM SECON CODA AMPLIT PERI AZIMU VELO AIN AR TRES W  DIS CAZ7
 BAR2 EZ EP        435 54.06                             170    0.1510 24.0 184 
 BAR2 EZ ES        436  8.58                             170   -0.2810 24.0 184 
 BAR2 EZ I         436 10.68         7.8 0.26            169           24.0 184 
 PAM  EZ EP        435 56.88                             150    0.2910 78.2  41 
 PAM  EN ES        436 13.65                             150    0.0210 78.2  41 
 PAM  EZ I         436 15.81         7.0 0.60            155           78.2  41 
 RUS  HZ EP        435 58.05                             143   -0.1410  102 175 
 RUS  HN ES        436 16.63                             143    0.1510  102 175 
 RUS  HZ I         436 17.67         4.1 0.26            146            102 175 
 PTB  HZ EP        436  0.48                             132   -0.71 9  146 258 
 PTB  HN ES        436 22.01                             132    0.19 9  146 258 
 PTB  HZ I         436 29.57         4.8 0.34            131            146 258 
 OCA  HZ EP        436  3.21                             129    0.58 9  159 354 
 OCA  HN ES        436 24.48                             129    0.10 9  159 354 
 OCA  HZ I         436 28.42        12.2 0.14            131            159 354 
 SPBC HZ EP        436  2.97                             128    0.10 9  162 218 
 SPBC HN ES        436 25.01                             128    0.20 9  162 218 
 SPBC HZ I         436 31.33         7.9 0.22            129            162 218 
 ZAR  HZ EP   2    436  6.98                             122    0.32 4  201 292 
 ZAR  HN ES        436 31.06                             122   -0.50 9  201 292 
 ZAR  HZ I         436 37.76         4.5 0.27            122            201 292 
 NOR  HZ EP        436 10.04                             118   -0.06 8  233 234 
 NOR  HE ES        436 37.76                             118    0.09 8  233 234 
 NOR  HZ I         436 45.66         4.2 0.14            119            233 234 
 SML  HZ EP        436 10.32                             117   -0.63 8  242 336 
 SML  HN ES        436 39.19                             117    0.01 8  242 336 
 SML  HZ I         436 44.91         5.8 0.09            119            242 336 
 CHI  HZ EP        436 12.23                             116   -0.03 8  249 195 
 CHI  HN ES        436 40.79                             116   -0.73 8  249 195 
 CHI  HZ I         436 47.20         1.7 0.38            119            249 195 
 GUY2CHZ EP   1    436 18.78                             112    0.77 5  300 234 
 GUY2CHE ES        436 52.55                             112    0.79 7  300 234 
 GUY2CHZ I         437  0.80         3.0 0.42                           300 234 
 MON  HZ EP   4    436 20.10                             108   -3.21 0  351 308 
 MON  HE ES   4    436 59.93                             108   -1.25 0  351 308 
 PRA  HZ EP        436 27.91                             106   -0.18 6  392 209 
 PRA  HN ES        437  9.80                             106    0.10 6  392 209 
 PRA  HZ I         437 14.87         2.3 0.32            108            392 209 
                                                                                
