 2014  127 0733 37.3 L   6.823 -73.136140.0  RSN  7 0.5 1.5LRSN                1
 GAP=137        1.17       5.2     6.0  8.6  0.9197E+01  0.3969E+01 -0.1467E+02E
 Epicentro: LOS SANTOS - SANTANDER                                             3
 ACTION:UPD 14-03-13 09:58 OP:ep   STATUS:               ID:20140127073337 L   I
 OLDACT:REG 14-01-27 08:29 OP:stll STATUS:               ID:20140127072813     3
 2014-01-27-0728-13M.COL___222                                                 6
 STAT SP IPHASW D HRMM SECON CODA AMPLIT PERI AZIMU VELO AIN AR TRES W  DIS CAZ7
 BAR2 SZ EP        733 56.50                             169    0.2210 26.0 191 
 BAR2 SZ ES        734 11.52                             169    0.4210 26.0 191 
 BAR2 SZ I         734 14.11        10.7 0.26            152           26.0 191 
 PAM  SZ EP        733 59.01                             151    0.2910 74.8  40 
 PAM  SZ I         733 59.51         5.8 0.22            150           74.8  40 
 RUS  HZ EP        734  0.68                             142    0.0310  103 177 
 RUS  HN ES        734 18.27                             142   -0.6110  103 177 
 RUS  HZ I         734 20.29         2.1 0.26            125            103 177 
 PTB  HZ EP        734  3.50                             130   -0.42 9  149 258 
 PTB  HN ES        734 24.66                             130   -0.05 9  149 258 
 PTB  HZ I         734 31.68         3.2 0.46            116            149 258 
 ZAR  HZ EP        734 10.49                             121    1.13 9  204 291 
 ZAR  HN ES        734 34.43                             121    0.05 9  204 291 
 ZAR  HZ I         734 40.11         2.9 0.28            110            204 291 
 SML  HZ EP        734 12.86                             116   -0.52 8  242 335 
 SML  HN ES        734 40.85                             116   -0.70 8  242 335 
 SML  HZ I         734 44.59         4.1 0.28            108            242 335 
 CHI  HN EP        734 14.92                             116   -0.04 8  251 195 
 CHI  HN I         734 46.29         1.8 0.26            103            251 195 
                                                                                
