 2014  827 0652  1.6 L   6.786 -73.144144.0  RSN 19 0.5 2.1LRSN                1
 GAP=137        1.08       2.7     3.8  5.5 -0.2026E+01  0.5871E+01  0.1737E+01E
 Epicentro: LOS SANTOS - SANTANDER                                             3
 ACTION:UPD 14-09-15 21:53 OP:nd   STATUS:               ID:20140827065201 L   I
 OLDACT:REG 14-08-27 13:08 OP:fm   STATUS:               ID:20140827064807     3
 2014-08-27-0648-07M.COL___257                                                 6
 STAT SP IPHASW D HRMM SECON CODA AMPLIT PERI AZIMU VELO AIN AR TRES W  DIS CAZ7
 BAR2 SZ EP        652 21.27                             171    0.2910 21.8 191 
 BAR2 SZ ES   1    652 36.30                             171    0.19 7 21.8 191 
 BAR2 SZ I         652 37.21        54.7 0.28            169           21.8 191 
 BRR  HZ EP     D  652 23.24                             152    0.6310 72.1 300 
 BRR  HN ES        652 39.15                             152    0.1610 72.1 300 
 BRR  HZ I         652 43.19        20.4 0.14            150           72.1 300 
 PAM  SZ EP        652 24.15                             150    0.4610 78.4  39 
 PAM  SN ES        652 41.13                             150    0.2110 78.4  39 
 PAM  SZ I         652 43.32        20.0 0.54            155           78.4  39 
 RUS  HZ EP        652 25.24                             144    0.1810 99.0 176 
 RUS  HN ES        652 43.01                             144   -0.3510 99.0 176 
 RUS  HZ I         652 44.39        12.5 0.46            145           99.0 176 
 PTB  HZ EP        652 28.40                             132   -0.01 9  148 259 
 PTB  HN ES        652 48.84                             132   -0.49 9  148 259 
 PTB  HZ I         652 54.46        12.5 0.28            131            148 259 
 OCA  HZ EP        652 29.33                             129   -0.59 9  162 353 
 OCA  HN ES        652 51.47                             129   -0.54 9  162 353 
 OCA  HZ I         652 55.96        18.8 0.28            131            162 353 
 SPBC HZ EP        652 30.27                             129    0.41 9  162 219 
 SPBC HN ES        652 51.05                             129   -0.85 9  162 219 
 SPBC HZ I         652 58.71        15.0 0.24            129            162 219 
 ZAR  HZ EP   1    652 33.58                             122   -0.43 6  205 293 
 ZAR  HN ES        652 59.97                             122    0.68 9  205 293 
 ZAR  HZ I         653  5.93        12.8 0.30            123            205 293 
 NOR  HZ EP        652 37.72                             118    0.58 8  234 235 
 NOR  HN ES        653  4.50                             118   -0.37 8  234 235 
 NOR  HZ I         653  7.86         9.0 0.18            119            234 235 
 SML  HZ EP        652 37.61                             117   -0.67 8  245 335 
 SML  HE ES   1    653  6.28                             117   -0.62 6  245 335 
 SML  HZ I         653 11.78        15.2 0.20            119            245 335 
 CHI  HZ EP   1    652 38.25                             117   -0.79 6  247 195 
 CHI  HN ES        653  8.16                             117   -0.08 8  247 195 
 CHI  HZ I         653 14.63         6.6 0.20            118            247 195 
 ROSC BZ EP   1    652 39.84                             116    0.35 6  252 211 
 ROSC BN ES   4    653 12.12                             116    3.08 0  252 211 
 ROSC BZ I         653 17.43         8.5 0.50            117            252 211 
 HEL  HZ EP        652 42.64                             114    0.94 8  272 256 
 HEL  HN ES        653 13.47                             114    0.49 8  272 256 
 HEL  HZ I         653 21.00         5.4 0.22            115            272 256 
 URE  HN ES   4    653 13.36                             113   -1.34 0  285 292 
 URE  HZ I         653 13.98         8.6 0.16            114            285 292 
 GUY2CHZ EP   4    652 46.62                             112    1.58 0  300 235 
 GUY2CHN ES   4    653 21.61                             112    2.68 0  300 235 
 GUY2CHZ I         653 27.90         5.4 0.58                           300 235 
 CBOC HZ EP   1    652 47.53                             109   -0.87 5  333 252 
 CBOC HN ES        653 24.78                             109   -0.14 7  333 252 
 CBOC HZ I         653 28.47         2.3 0.46            110            333 252 
 PRA  HZ EP   1    652 54.53                             106   -0.38 4  391 210 
 PRA  HN ES        653 36.37                             106   -0.12 6  391 210 
 PRA  HZ I         653 43.81         5.3 0.28            107            391 210 
 ORTC HZ EP   1    652 54.97                             106   -0.35 4  394 216 
 ORTC HN ES        653 37.45                             106    0.22 6  394 216 
 ORTC HZ I         653 45.20         4.4 0.52            107            394 216 
 SJC  HZ EP   4    652 55.93                             105   -1.33 0  411 327 
 SJC  HN ES   4    653 36.44                             105   -4.25 0  411 327 
 SJC  HZ I         653 41.40         5.1 0.50            107            411 327 
                                                                                
