 2010  227 0149 26.8 L   6.835 -73.016145.2  RSN  4 0.2 1.8LRSN                1
 GAP=253        0.57       5.7     9.9  5.8  0.3210E+02 -0.2048E+01  0.1116E+01E
 Epicentro: CEPITA - SANTANDER                                                 3
 ACTION:UP  10-08-24 09:51 OP:vdl  STATUS:               ID:20100227014926 L   I
 2010-02-27-0145-51S.COL___093                                                 6
 STAT SP IPHASW D HRMM SECON CODA AMPLIT PERI AZIMU VELO SNR AR TRES W  DIS CAZ7
 BAR2 SZ EP        149 46.73                             167     0.210   33 215 
 BAR2 SZ ES   1    150  1.51                             167    -0.5 7   33 215 
 BRR  HZ EP        149 48.49                             149    -0.110   83 291 
 BRR  HN ES   1    150  5.76                             149     0.2 7   83 291 
 RUS  BZ EP   1    149 50.74                             142     0.0 7  105 184 
 RUS  BN ES   1    150  9.76                             142     0.3 7  105 184 
 RUS  BZ I         150 10.53         5.0 0.13                           105 184 
 PRA  HZ EP   1    150 21.28                             106    -0.3 4  403 211 
 PRA  HN ES   2    151  4.08                             106    -0.2 3  403 211 
 PRA  HZ I         151  8.04         4.1 0.35                           403 211 
                                                                                
