 2015  527 0841  1.0 L   6.317 -73.572117.5  RSN 10 0.3 1.6LRSN                1
 GAP= 86        0.86       2.6     3.0  5.3 -0.1881E+01  0.6726E+01 -0.5234E+01E
 Epicentro: SANTA HELENA DEL OPON - SANTANDER                                  3
 ACTION:UPD 15-09-10 22:07 OP:cam  STATUS:               ID:20150527084101 L   I
 OLDACT:REG 15-05-27 12:54 OP:spq  STATUS:               ID:20150527083739     3
 2015-05-27-0837-39M.COL___291                                                 6
 STAT SP IPHASW D HRMM SECON CODA AMPLIT PERI AZIMU VELO AIN AR TRES W  DIS CAZ7
 BAR2 EZ IP        841 18.90                             154    0.4510 52.7  55 
 BAR2 EZ ES        841 32.15                             154    0.1310 52.7  55 
 BAR2 EZ I         841 33.36        19.7 0.36            159           52.7  55 
 RUS  HZ EP        841 20.12                             147    0.1710 71.7 131 
 RUS  HE ES        841 34.78                             147    0.0910 71.7 131 
 RUS  HZ I         841 37.10         3.0 0.26            154           71.7 131 
 BRR  HZ EP        841 20.68                             140    0.1910 88.7 350 
 BRR  HN ES        841 35.46                             140   -0.2010 88.7 350 
 BRR  HZ I         841 39.18         6.2 0.26            142           88.7 350 
 SPBC HZ EP        841 20.40                             139   -0.4810 92.1 217 
 SPBC HN ES        841 36.13                             139   -0.2310 92.1 217 
 SPBC HZ I         841 40.26         8.4 0.10            142           92.1 217 
 PAM  SZ EP        841 25.92                             125   -0.66 9  149  40 
 PAM  SN ES        841 46.33                             125   -0.16 9  149  40 
 PAM  SZ I         841 48.69         3.6 0.20            129            149  40 
 ZAR  HZ EP        841 30.55                             117   -0.01 9  193 313 
 ZAR  HN ES        841 53.13                             117   -0.45 9  193 313 
 ZAR  HZ I         841 56.56         7.7 0.20            119            193 313 
 OCA  HZ EP        841 33.40                             114    0.26 8  214   7 
 OCA  HN ES        841 58.70                             114    0.52 8  214   7 
 OCA  HZ I         842  7.13         9.6 0.20            117            214   7 
 HEL  HZ EP        841 33.95                             114    0.24 8  217 266 
 HEL  HE ES        841 59.89                             114    0.69 8  217 266 
 HEL  HZ I         842 12.07         1.9 0.46            116            217 266 
 URE  HZ EP        841 38.86                             109   -0.26 8  268 306 
 URE  HN ES   4    842  5.95                             109   -2.87 0  268 306 
 URE  HZ I         842  8.89         6.7 0.14            111            268 306 
 SML  HZ EP        841 40.41                             108   -0.04 7  280 349 
 SML  HE ES        842 11.04                             108   -0.15 7  280 349 
                                                                                
