 2010  327 0337 13.0 L   6.847 -73.032145.9  RSN  4 0.4 1.2LRSN                1
 GAP=252        0.69       7.7    16.1  9.3  0.5995E+02 -0.1277E+02  0.1258E+02E
 Epicentro: CEPITA - SANTANDER                                                 3
 ACTION:UP  10-08-24 09:56 OP:vdl  STATUS:               ID:20100327033713 L   I
 2010-03-27-0333-16S.COL___098                                                 6
 STAT SP IPHASW D HRMM SECON CODA AMPLIT PERI AZIMU VELO SNR AR TRES W  DIS CAZ7
 BAR2 SZ EP   1    337 32.87                             167     0.0 7   33 211 
 BAR2 SZ ES   2    337 47.51                             167    -0.9 5   33 211 
 BRR  HZ EP   1    337 34.79                             149     0.1 7   81 291 
 BRR  HN ES   2    337 51.90                             149     0.3 5   81 291 
 RUS  HZ EP   1    337 37.25                             142     0.1 7  106 183 
 RUS  HE ES   2    337 56.71                             142     0.7 5  106 183 
 RUS  HZ I         337 57.72         1.9 0.37                           106 183 
 CHI  HZ EP   1    337 51.29                             116    -0.3 6  257 198 
 CHI  HZ I         337 55.39         1.5 0.50                           257 198 
 CHI  HN ES   2    338 21.61                             116    -0.2 4  257 198 
                                                                                
