 2014  927 0656 49.7 L   7.471 -73.231133.6  RSN  8 0.4 1.9LRSN                1
 GAP=110        0.99       3.1     4.5  7.0 -0.1120E+01  0.1126E+02 -0.1879E+01E
 Epicentro: EL PLAYON - SANTANDER                                              3
 ACTION:UPD 14-10-03 23:08 OP:nd   STATUS:               ID:20140927065649 L   I
 OLDACT:REG 14-09-27 13:55 OP:mh   STATUS:               ID:20140927064820     3
 2014-09-27-0648-20M.COL___295                                                 6
 STAT SP IPHASW D HRMM SECON CODA AMPLIT PERI AZIMU VELO AIN AR TRES W  DIS CAZ7
 PAM  SZ EP        657  9.97                             154    0.2910 60.5 104 
 PAM  SN ES        657 24.87                             154   -0.3710 60.5 104 
 BRR  HZ EP        657  9.80                             152    0.5010 66.6 233 
 BRR  HN ES        657 24.94                             152    0.3710 66.6 233 
 BRR  HZ I         657 26.36        13.4 0.10            149           66.6 233 
 OCA  HZ EP        657 10.89                             145    0.1710 85.4 353 
 OCA  HN ES        657 27.35                             145    0.2610 85.4 353 
 OCA  HZ I         657 31.02        10.9 0.20            147           85.4 353 
 BAR2 SZ EP   1    657 11.73                             142    0.03 7 97.4 177 
 BAR2 SZ ES        657 28.60                             142   -0.2410 97.4 177 
 BAR2 SZ I         657 29.28        31.1 0.05            143           97.4 177 
 PTB  HZ EP        657 17.26                             125   -0.65 9  170 233 
 PTB  HN ES        657 39.28                             125   -0.61 9  170 233 
 PTB  HZ I         657 43.24         6.2 0.18            125            170 233 
 SML  HZ EP        657 18.15                             124   -0.10 9  174 328 
 SML  HN ES        657 39.87                             124   -0.63 9  174 328 
 SML  HZ I         657 41.47        18.9 0.28            125            174 328 
 ZAR  HZ EP   1    657 19.23                             123    0.37 7  180 271 
 ZAR  HN ES   1    657 42.09                             123    0.51 7  180 271 
 ZAR  HZ I         657 47.62         6.8 0.26            123            180 271 
 SPBC HZ EP   4    657 21.60                             117   -1.80 0  222 205 
 SPBC HN ES        657 50.00                             117    0.33 8  222 205 
 SPBC HZ I         657 57.43         4.1 0.36            118            222 205 
                                                                                
