 2016  727 0939 54.1 L   7.333 -73.236136.1  RSN  4 0.1 1.7LRSN                1
 GAP=260        0.32       3.5     2.3  3.0  0.4143E+01 -0.4859E+00 -0.4343E+01E
 Epicentro: RIONEGRO - SANTANDER                                               3
 ACTION:UPD 17-03-29 16:55 OP:lp   STATUS:               ID:20160727093954 L   I
 OLDACT:REG 16-07-27 13:48 OP:edw  STATUS:               ID:20160727093759     3
 2016-07-27-0937-59S.COL___337                                                 6
 STAT SP IPHASW D HRMM SECON CODA AMPLIT PERI AZIMU VELO AIN AR TRES W  DIS CAZ7
 BRR  HZ EP        940 13.35                             155   -0.1610 58.2 245 
 BRR  HN ES        940 28.66                             155    0.0210 58.2 245 
 BRR  HZ I         940 28.97         7.6 0.12            155           58.2 245 
 BAR2 EZ EP        940 15.30                             147    0.0310 82.2 176 
 BAR2 EZ ES        940 31.80                             147    0.0410 82.2 176 
 BAR2 EZ I         940 32.61         9.7 0.38            150           82.2 176 
 PTB  HZ EP        940 21.58                             127    0.00 9  161 237 
 PTB  HE ES        940 42.95                             127   -0.04 9  161 237 
 ZAR  HZ EP        940 23.57                             124    0.11 9  180 276 
 ZAR  HN ES        940 46.36                             124    0.02 9  180 276 
 ZAR  HZ I         940 51.16         5.6 0.30            124            180 276 
                                                                                
