 2012  227 0941 18.0 L   6.734 -73.185144.4  RSN  4 0.3 1.1LRSN                1
 GAP=228        0.55       6.0     6.0  7.4  0.2402E+02 -0.1561E-01 -0.2709E+01E
 ACTION:UP  12-03-07 16:34 OP:epov STATUS:               ID:20120227094118 L   I
 2012-02-27-0940-00M.COL___192                                                 6
 STAT SP IPHASW D HRMM SECON CODA AMPLIT PERI AZIMU VELO AIN AR TRES W  DIS CAZ7
 BRR  HZ EP   1    941 38.69                             152   -0.34 7 71.4 305 
 BRR  HN ES   1    941 55.72                             152    0.30 7 71.4 305 
 RUS  HZ EP   1    941 41.36                             145    0.20 7 93.8 173 
 RUS  HZ I         941 43.81         1.5 0.47                          93.8 173 
 RUS  HN ES   1    941 58.97                             145   -0.23 7 93.8 173 
 PTB  HZ EP   1    941 44.69                             133    0.31 7  142 261 
 PTB  HN ES   1    942  4.95                             133    0.01 7  142 261 
 ZAR  HN ES   1    942 15.13                             122   -0.29 6  203 294 
 ZAR  HZ I         942 21.91         1.4 0.22                           203 294 
                                                                                
