 2015  227 0426 20.4 L   6.815 -73.173148.0  RSN 16 0.5 2.2LRSN                1
 GAP= 69        1.06       2.7     3.2  5.0 -0.1571E+01  0.3714E+01  0.1459E+01E
 Epicentro: LOS SANTOS - SANTANDER                                             3
 ACTION:UPD 15-04-30 21:29 OP:nd   STATUS:               ID:20150227042620 L   I
 OLDACT:REG 15-02-27 14:49 OP:carl STATUS:               ID:20150227041745     3
 2015-02-27-0417-45M.COL___299                                                 6
 STAT SP IPHASW D HRMM SECON CODA AMPLIT PERI AZIMU VELO AIN AR TRES W  DIS CAZ7
 BAR2 EZ EP        426 40.35                             170    0.0210 24.7 182 
 BAR2 EZ ES        426 55.92                             170    0.0510 24.7 182 
 BAR2 EZ I         426 58.02        43.7 0.28            170           24.7 182 
 BRR  HZ EP        426 42.04                             154    0.4410 67.8 298 
 BRR  HN ES        426 59.23                             154    1.0910 67.8 298 
 BRR  HZ I         427  3.14        26.8 0.28            155           67.8 298 
 PAM  SZ EP        426 43.12                             151    0.2310 78.1  42 
 PAM  SN ES        427  0.30                             151   -0.1410 78.1  42 
 PAM  SZ I         427  3.35        17.8 0.48            154           78.1  42 
 RUS  HZ EP        426 44.20                             144   -0.3110  103 174 
 RUS  HN ES        427  3.04                             144   -0.2710  103 174 
 PTB  HZ EP        426 46.88                             133   -0.44 9  145 258 
 PTB  HN ES        427  7.67                             133   -0.64 9  145 258 
 PTB  HZ I         427 10.60        12.0 0.14            134            145 258 
 TAM  HZ IP     C  426 48.66                             131    0.10 9  158 105 
 TAM  HN ES        427 10.50                             131   -0.03 9  158 105 
 TAM  HZ I         427 17.61         6.8 0.52            133            158 105 
 OCA  HZ EP        426 48.48                             131   -0.22 9  158 354 
 OCA  HN ES        427 10.67                             131   -0.10 9  158 354 
 OCA  HZ I         427 18.70        18.9 0.24            133            158 354 
 SPBC HZ EP        426 49.20                             130    0.18 9  163 218 
 SPBC HN ES        427 11.16                             130   -0.18 9  163 218 
 SPBC HZ I         427 15.44        22.8 0.14            131            163 218 
 NOR  HZ EP        426 55.27                             119   -0.84 8  233 234 
 NOR  HE ES        427 24.09                             119    0.13 8  233 234 
 NOR  HZ I         427 31.01         9.6 0.20            121            233 234 
 SML  HZ EP        426 56.51                             118   -0.34 8  241 336 
 SML  HN ES        427 24.79                             118   -0.49 8  241 336 
 SML  HZ I         427 28.57        18.0 0.10            120            241 336 
 CHI  HZ EP        426 58.55                             118    0.23 8  250 194 
 CHI  HN ES        427 27.90                             118    0.01 8  250 194 
 CHI  HZ I         427 33.10         8.8 0.30            119            250 194 
 ROSC BZ EP   4    426 59.86                             117    1.23 0  253 210 
 ROSC BN ES   4    427 31.00                             117    2.54 0  253 210 
 ROSC BZ I         427 34.83        25.4 0.45            119            253 210 
 GUY2CHZ EP        427  4.16                             113    0.21 7  300 234 
 GUY2CHE ES        427 38.16                             113    0.25 7  300 234 
 GUY2CHZ I         427 46.66         8.8 0.60                           300 234 
 CBOC HZ EP        427  8.62                             110    1.48 7  331 252 
 CBOC HN ES        427 43.25                             110   -0.35 7  331 252 
 TOL  SZ EP   4    427  9.81                             110    1.17 0  343 224 
 TOL  SN ES   4    427 48.54                             110    2.27 0  343 224 
 TOL  SZ I         427 56.35         5.9 0.46            111            343 224 
 PRA  HZ EP        427 14.36                             107    0.36 6  392 209 
 PRA  HN ES        427 55.84                             107    0.04 6  392 209 
 PRA  HZ I         428  2.75         8.0 0.26            108            392 209 
                                                                                
