 2011  127 0535 41.9 L   6.708 -72.870150.7  RSN  4 0.2 1.3LRSN                1
 GAP=191        0.51       6.2    26.7 13.2 -0.1004E+03  0.5754E+02 -0.2247E+02E
 Epicentro: MOLAGAVITA - SANTANDER                                             3
 ACTION:UP  11-02-08 08:42 OP:pat  STATUS:               ID:20110127053541 L   I
 2011-01-27-0532-58S.COL___138                                                 6
 STAT SP IPHASW D HRMM SECON CODA AMPLIT PERI AZIMU VELO SNR AR TRES W  DIS CAZ7
 BAR2 SZ EP   2    536  1.87                             165    -0.6 5   37 250 
 BAR2 SZ I         536 18.59         6.2 0.33                            37 250 
 BTL  SZ EP        536  3.03                             160     0.110   50 298 
 RUS  HZ EP   2    536  5.82                             147     0.2 5   93 195 
 RUS  HN ES   2    536 24.15                             147     0.0 5   93 195 
 RUS  HZ I         536 27.92         2.4 0.40                            93 195 
 GRA  SZ EP   2    536  7.90                             137    -0.1 5  130   3 
 GRA  SZ ES   2    536 28.36                             137     0.1 5  130   3 
 GRA  SZ I         536 29.25         3.2 0.33                           130   3 
                                                                                
