 2017  827 0251 53.2 L   6.800 -73.060143.0  RSN  5 0.2 1.2LRSN                1
 GAP=246        0.57       3.4     4.5  4.5  0.6108E+01  0.2245E+01  0.1310E+01E
 Epicentro: LOS SANTOS - SANTANDER                                             3
 ACTION:UPD 17-09-04 20:25 OP:rebc STATUS:               ID:20170827025153 L   I
 OLDACT:UP  17-08-27 15:40 OP:edw  STATUS:               ID:20170827024744     3
 OLDACT:REG 17-08-27 13:06 OP:edw  STATUS:               ID:20170827024744     3
 2017-08-27-0248-00M.COL___411                                                 6
 STAT SP IPHASW D HRMM SECON CODA AMPLIT PERI AZIMU VELO AIN AR TRES W  DIS CAZ7
 BAR2 EZ EP        252 12.59                             169    0.0510 26.7 211 
 BAR2 EZ ES        252 27.95                             169    0.3010 26.7 211 
 BAR2 EZ I         252 29.62         3.7 0.18            162           26.7 211 
 BRR  HZ EP        252 14.51                             149   -0.0210 79.7 295 
 BRR  HN ES        252 30.93                             149   -0.2610 79.7 295 
 RUS  HZ EP        252 16.82                             143    0.1810  100 181 
 RUS  HN ES        252 34.65                             143   -0.2910  100 181 
 RUS  HZ I         252 37.31         1.3 0.30            141            100 181 
 SPBC HZ EP        252 21.84                             127   -0.21 9  169 221 
 SPBC HE ES        252 44.74                             127    0.16 9  169 221 
 SPBC HZ I         252 50.40         2.5 0.28            126            169 221 
 ZAR  HE ES   1    252 52.44                             121    0.19 6  213 291 
                                                                                
