 2010  327 0146 10.8 L   6.854 -72.935146.3  RSN  4 0.3 1.4LRSN                1
 GAP=261        0.57       6.4    13.5  7.8  0.4130E+02 -0.1939E+02  0.5175E+01E
 Epicentro: GUACA - SANTANDER                                                  3
 ACTION:UP  10-08-24 09:56 OP:vdl  STATUS:               ID:20100327014610 L   I
 2010-03-27-0141-11S.COL___098                                                 6
 STAT SP IPHASW D HRMM SECON CODA AMPLIT PERI AZIMU VELO SNR AR TRES W  DIS CAZ7
 BAR2 SZ EP   1    146 31.01                             164     0.1 7   40 224 
 BAR2 SZ ES   2    146 46.46                             164    -0.2 5   40 224 
 BRR  HZ EP   1    146 32.97                             147    -0.2 7   90 288 
 BRR  HN ES   2    146 50.96                             147     0.3 5   90 288 
 BRR  HZ I         146 56.39        10.7 0.47                            90 288 
 RUS  HZ EP   1    146 35.55                             142     0.4 7  108 189 
 RUS  HE ES   2    146 53.78                             142    -0.3 5  108 189 
 RUS  HZ I         146 54.47         2.2 0.40                           108 189 
 CHI  HZ EP   1    146 49.62                             116    -0.3 6  261 200 
 CHI  HN ES   2    147 20.63                             116     0.2 4  261 200 
 CHI  HZ I         147 32.46         1.3 0.66                           261 200 
                                                                                
