 2016  427 0300 26.6 L   6.680 -73.241135.1  RSN  6 0.3 1.4LRSN                1
 GAP=107        0.43       3.7     3.6  4.6 -0.2011E+01  0.8563E+01 -0.2656E+01E
 Epicentro: BARICHARA - SANTANDER                                              3
 ACTION:UPD 16-05-05 14:24 OP:rebc STATUS:               ID:20160427030026 L   I
 OLDACT:REG 16-04-27 12:50 OP:dnl  STATUS:               ID:20160427025749     3
 2016-04-27-0257-49M.COL___319                                                 6
 STAT SP IPHASW D HRMM SECON CODA AMPLIT PERI AZIMU VELO AIN AR TRES W  DIS CAZ7
 BAR2 EZ EP   2    3 0 44.88                             175    0.13 5 11.6 146 
 BAR2 EZ ES        3 0 58.91                             175    0.0010 11.6 146 
 BAR2 EZ I         3 1  0.20        13.6 0.22            177           11.6 146 
 RUS  HZ EP   2    3 0 48.81                             145    0.36 5 88.8 169 
 RUS  HN ES   2    3 1  5.47                             145   -0.02 5 88.8 169 
 RUS  HZ I         3 1  7.50         3.6 0.34            148           88.8 169 
 PAM  EZ EP   2    3 0 49.11                             143    0.27 5 94.4  39 
 PAM  EE ES   2    3 1  5.91                             143   -0.29 5 94.4  39 
 PAM  EZ I         3 1  8.84         4.1 0.72            146           94.4  39 
 PTB  HZ EP        3 0 51.33                             132   -0.22 9  135 263 
 PTB  HE ES   2    3 1 11.08                             132    0.05 5  135 263 
 PTB  HZ I         3 1 12.81         3.1 0.10            132            135 263 
 SPBC HZ EP   2    3 0 52.90                             130    0.24 5  146 219 
 SPBC HE ES   2    3 1 12.85                             130   -0.15 5  146 219 
 SPBC HZ I         3 1 17.32         4.1 0.18            131            146 219 
 ZAR  HZ EP   2    3 0 57.58                             120   -0.35 4  200 297 
 ZAR  HE ES   2    3 1 23.03                             120    0.65 4  200 297 
 ZAR  HZ I         3 1 27.45         2.8 0.17            121            200 297 
                                                                                
