 2017  927 0449 13.0 L   6.776 -73.124146.7  RSN 11 0.4 1.7LRSN                1
 GAP=115        0.88       3.1     3.5  5.1  0.1581E+01  0.3347E+01  0.6458E+01E
 Epicentro: LOS SANTOS - SANTANDER                                             3
 ACTION:UPD 17-10-05 19:16 OP:rebc STATUS:               ID:20170927044913 L   I
 OLDACT:UP  17-09-27 17:07 OP:edw  STATUS:               ID:20170927044741     3
 OLDACT:REG 17-09-27 12:37 OP:edw  STATUS:               ID:20170927044741     3
 2017-09-27-0448-00M.COL___447                                                 6
 STAT SP IPHASW D HRMM SECON CODA AMPLIT PERI AZIMU VELO AIN AR TRES W  DIS CAZ7
 BAR2 EZ EP        449 32.69                             171   -0.0510 21.3 198 
 BAR2 EZ ES        449 47.80                             171   -0.3110 21.3 198 
 BAR2 EZ I         449 50.38        16.7 0.30            168           21.3 198 
 BRR  HZ EP        449 34.40                             152   -0.0810 74.6 299 
 BRR  HN ES        449 51.56                             152    0.3510 74.6 299 
 BRR  HZ I         449 55.43         9.9 0.24            151           74.6 299 
 PAM  EZ EP     C  449 35.65                             151    0.2710 77.9  37 
 PAM  EN ES        449 52.79                             151   -0.0210 77.9  37 
 PAM  EZ I         449 55.69         6.7 0.32            156           77.9  37 
 RUS  HZ EP        449 36.75                             145    0.0710 97.8 177 
 RUS  HN ES        449 55.54                             145    0.4210 97.8 177 
 RUS  HZ I         449 56.55         5.2 0.34            145           97.8 177 
 YPLC HZ EP        449 42.86                             127    0.30 9  173 152 
 YPLC HN ES        450  4.83                             127   -0.75 9  173 152 
 YPLC HZ I         450  8.00         7.2 0.26            130            173 152 
 ZAR  HN ES        450 10.84                             122   -0.65 8  207 293 
 ZAR  HZ I         450 15.82         4.7 0.28            123            207 293 
 NOR  HZ EP        449 49.00                             119    0.13 8  235 235 
 NOR  HN ES        450 16.81                             119   -0.01 8  235 235 
 NOR  HZ I         450 22.90         3.0 0.12            119            235 235 
 CHI  HZ EP        449 50.98                             117    0.40 8  247 196 
 CHI  HE ES        450 20.24                             117    0.38 8  247 196 
 CHI  HZ I         450 26.41         2.4 0.34            119            247 196 
 ROSC BE ES   4    450 22.87                             117    2.08 0  252 212 
 URE  HE ES   4    450 23.71                             113   -3.15 0  287 292 
 GUY2CHZ EP   4    449 58.01                             112    1.27 0  302 235 
 GUY2CHN ES   4    450 34.34                             112    3.51 0  302 235 
 GUY2CHZ I         450 39.35         2.6 0.28                           302 235 
 PTGC HZ EP        449 55.89                             112   -0.66 7  305 159 
 PTGC HE ES   4    450 29.10                             112   -1.40 0  305 159 
 LL6C HZ EP   4    449 56.78                             110   -2.31 0  328 357 
 LL6C HE ES   4    450 35.11                             110    0.10 0  328 357 
 PRA  HZ EP        450  6.71                             107    0.25 6  391 210 
 PRA  HE ES        450 47.68                             107   -0.45 6  391 210 
 PRA  HZ I         450 54.94         2.5 0.46            108            391 210 
                                                                                
