 2013 1227 0146 59.7 L   6.781 -73.136147.6  RSN  6 0.5 1.5LRSN                1
 GAP=139        1.06       7.4     5.6  9.1 -0.1732E+02 -0.8575E+00  0.2885E+02E
 Epicentro: LOS SANTOS - SANTANDER                                             3
 ACTION:UP  14-01-13 10:21 OP:ep   STATUS:               ID:20131227014659 L   I
 OLDACT:UPD 14-01-09 13:44 OP:ep   STATUS:               ID:20131227014659 L   3
 OLDACT:UP  13-12-27 08:22 OP:mh   STATUS:               ID:20131227014000     3
 OLDACT:REG 13-12-27 07:40 OP:mh   STATUS:               ID:20131227014000     3
 2013-12-27-0140-00M.COL___285                                                 6
 STAT SP IPHASW D HRMM SECON CODA AMPLIT PERI AZIMU VELO AIN AR TRES W  DIS CAZ7
 BAR2 SZ EP   1    147 19.06                             171   -0.48 7 21.5 194 
 BAR2 SZ ES   2    147 34.89                             171   -0.11 5 21.5 194 
 BAR2 SZ I         147 36.36        18.5 0.21            168           21.5 194 
 BRR  HZ EP        147 21.45                             152    0.2610 73.2 300 
 BRR  HN ES        147 38.07                             152    0.1410 73.2 300 
 BRR  HZ I         147 42.06         6.3 0.15            151           73.2 300 
 PAM  SZ EP        147 22.75                             151    0.5610 78.4  38 
 PAM  SE ES        147 39.60                             151   -0.1210 78.4  38 
 RUS  HZ EP        147 23.31                             145   -0.1910 98.4 177 
 RUS  HN ES   2    147 42.08                             145    0.03 5 98.4 177 
 RUS  HZ I         147 44.05         2.0 0.22            146           98.4 177 
 PTB  HZ EP        147 26.01                             132   -0.89 9  148 260 
 PTB  HN ES        147 47.80                             132   -0.31 9  148 260 
 PTB  HZ I         147 53.39         3.6 0.17            132            148 260 
 NOR  HZ EP        147 35.70                             119    0.18 8  234 235 
 NOR  HN ES        148  4.31                             119    0.86 8  234 235 
 NOR  HZ I         148 10.92         2.6 0.15            120            234 235 
                                                                                
