 2016 1127 0537  6.1 L   5.819 -73.896106.0  RSN  5 0.4 1.1LRSN                1
 GAP=213        0.73       5.9     3.6  8.5 -0.5170E+00  0.3064E+01  0.1567E+02E
 Epicentro: ALBANIA - SANTANDER                                                3
 ACTION:UPD 17-10-26 21:12 OP:lp   STATUS:               ID:20161127053706 L   I
 OLDACT:UP  16-11-27 14:50 OP:dani STATUS:               ID:20161127052739     3
 OLDACT:UP  16-11-27 14:49 OP:dani STATUS:               ID:20161127052739     3
 OLDACT:UP  16-11-27 14:49 OP:dani STATUS:               ID:20161127052739     3
 OLDACT:UP  16-11-27 14:48 OP:dani STATUS:               ID:20161127052739     3
 OLDACT:REG 16-11-27 12:52 OP:dani STATUS:               ID:20161127052739     3
 2016-11-27-0528-00M.COL___349                                                 6
 STAT SP IPHASW D HRMM SECON CODA AMPLIT PERI AZIMU VELO AIN AR TRES W  DIS CAZ7
 PTB  HZ EP        537 25.45                             133   -0.1410  101 322 
 PTB  HN ES        537 41.04                             133    0.2610  101 322 
 PTB  HZ I         537 41.76         2.2 0.12            134            101 322 
 NOR  HZ EP   2    537 26.99                             130    0.39 5  111 255 
 NOR  HN ES   3    537 41.38                             130   -1.21 2  111 255 
 NOR  HZ I         537 44.37         1.6 0.10            132            111 255 
 BAR2 EZ EP        537 27.08                             129   -0.2310  116  43 
 BAR2 EZ ES        537 43.77                             129   -0.0810  116  43 
 BAR2 EZ I         537 45.83         4.6 0.34            131            116  43 
 BRR  HZ EP        537 30.35                             122    0.61 9  144   8 
 BRR  HN ES        537 48.17                             122   -0.01 9  144   8 
 BRR  HZ I         537 51.06         1.9 0.15            123            144   8 
 ZAR  HZ EP        537 37.13                             111   -0.25 8  213 330 
 ZAR  HN ES        538  1.50                             111   -0.28 8  213 330 
 ZAR  HZ I         538  5.83         1.2 0.19            112            213 330 
                                                                                
