 2012  327 0605  7.7 L   6.777 -73.111143.4  RSN 17 0.5 2.6LRSN                1
 GAP=118        1.13       4.2     6.1  6.9  0.1749E+00  0.1640E+02  0.7837E+01E
 ACTION:UP  12-03-31 23:23 OP:EP   STATUS:               ID:20120327060507 L   I
 2012-03-27-0600-00M.COL___196                                                 6
 STAT SP IPHASW D HRMM SECON CODA AMPLIT PERI AZIMU VELO SNR AR TRES W  DIS CAZ7
 BAR2 SZ IP     D  6 5 27.02                             171     0.010   22 201 
 BAR2 SZ ES   1    6 5 41.77                             171    -0.3 7   22 201 
 BAR2 SZ I         6 5 43.79        84.3 0.34                            22 201 
 BRR  HZ IP     C  6 5 28.86                             150     0.010   76 299 
 BRR  HZ I         6 5 29.13       202.3 0.14                            76 299 
 BRR  HN ES   1    6 5 46.38                             150     1.0 7   76 299 
 PAM  SZ IP        6 5 29.81                             151     0.110   77  36 
 PAM  SN ES   1    6 5 47.04                             151     0.3 7   77  36 
 RUS  HZ EP        6 5 30.89                             144    -0.210   98 178 
 RUS  HN ES   1    6 5 49.11                             144    -0.1 7   98 178 
 RUS  HZ I         6 5 50.72        44.5 0.38                            98 178 
 PTB  HZ EP   2    6 5 33.59                             131    -1.2 5  151 260 
 PTB  HE ES   2    6 5 55.61                             131    -0.3 5  151 260 
 PTB  HZ I         6 5 57.06        30.6 0.38                           151 260 
 OCA  SZ EP        6 5 35.68                             129    -0.5 9  163 352 
 OCA  SZ ES   1    6 5 58.34                             129     0.0 7  163 352 
 YOP  SZ EP        6 5 37.42                             127     0.2 9  175 154 
 YOP  SZ I         6 6  2.39        16.1 0.26                           175 154 
 ZAR  HZ EP        6 5 39.64                             121    -0.9 8  209 292 
 ZAR  HE ES   3    6 6  5.23                             121    -0.8 2  209 292 
 ZAR  HZ I         6 6 11.98        65.8 0.38                           209 292 
 NOR  SZ EP        6 5 42.76                             118    -0.7 8  236 236 
 CHI  HZ EP        6 5 45.00                             117    -0.1 8  247 196 
 CHI  HN ES   2    6 6 14.14                             117    -0.2 4  247 196 
 HEL  HZ EP        6 5 48.89                             114     0.7 8  275 257 
 HEL  HZ I         6 6 25.39        17.8 0.32                           275 257 
 VIL  SZ EP   3    6 5 51.25                             112     0.4 2  302 192 
 GUY  SZ EP        6 5 52.77                             112     1.1 7  305 236 
 GUY  SZ I         6 6 33.48        32.0 0.34                           305 236 
 RREF HZ EP        6 5 54.28                             110     0.4 7  323 230 
 RREF HZ I         6 6 38.21        27.9 0.46                           323 230 
 TOL  SZ EP        6 5 56.06                             109     0.1 7  344 225 
 DBB  SZ EP        6 5 56.18                             109     0.6 7  344 275 
 PRA  HZ EP        6 6  1.20                             106     0.1 6  392 210 
 PRA  HN ES   1    6 6 42.85                             106     0.1 4  392 210 
                                                                                
