 2016  727 0616 45.1 L   5.744 -73.884111.8  RSN 22 0.4 2.6LRSN                1
 GAP= 52        1.09       2.3     2.5  5.2 -0.1414E+01  0.2015E+01 -0.2182E+01E
 Epicentro: ALBANIA - SANTANDER                                                3
 ACTION:UPD 17-03-29 16:55 OP:lp   STATUS:               ID:20160727061645 L   I
 OLDACT:UP  16-07-27 18:09 OP:edw  STATUS:               ID:20160727060760d    3
 OLDACT:UP  16-07-27 18:03 OP:edw  STATUS:               ID:20160727060760d    3
 OLDACT:DUP 16-07-27 17:57 OP:edw  STATUS:               ID:20160727060760d    3
 2016-07-27-0607-59S.COL___334                                                 6
 STAT SP IPHASW D HRMM SECON CODA AMPLIT PERI AZIMU VELO AIN AR TRES W  DIS CAZ7
 SPBC HZ IP     C  617  0.26                             167   -0.1610 23.1 244 
 SPBC HN ES        617 12.10                             167   -0.2910 23.1 244 
 SPBC HZ I         617 13.85       235.5 0.24            165           23.1 244 
 RUS  HZ EP        617  5.00                             138    0.1910 90.2  79 
 RUS  HN ES        617 20.06                             138   -0.1410 90.2  79 
 PTB  HZ IP     C  617  4.78                             132   -0.9310  108 324 
 PTB  HE ES        617 20.99                             132   -0.8110  108 324 
 PTB  HZ I         617 23.65        60.8 0.48            132            108 324 
 ROSC BZ EP        617  6.62                             132    0.1610  111 206 
 ROSC BN ES        617 23.51                             132    0.3810  111 206 
 ROSC BZ I         617 28.66        63.8 0.60            131            111 206 
 NOR  HZ EP        617  5.63                             132   -0.3610  111 260 
 NOR  HN ES        617 22.65                             132    0.3510  111 260 
 NOR  HZ I         617 23.00       123.2 0.19            131            111 260 
 BAR2 EZ IP     C  617  7.77                             129    0.5210  122  40 
 BAR2 EZ ES        617 25.09                             129    0.5510  122  40 
 BAR2 EZ I         617 26.64       154.2 0.44            130            122  40 
 CHI  HZ EP        617  7.65                             128   -0.0810  124 172 
 CHI  HN ES        617 24.90                             128   -0.5010  124 172 
 CHI  HZ I         617 29.76        37.6 0.28            129            124 172 
 BRR  HZ EP        617 10.21                             122    0.28 9  152   7 
 BRR  HN ES        617 30.13                             122    0.82 9  152   7 
 BRR  HZ I         617 32.75        97.2 0.14            122            152   7 
 GUY2CHZ EP        617 13.30                             118    0.44 9  174 251 
 GUY2CHN ES        617 34.68                             118    0.16 9  174 251 
 GUY2CHZ I         617 38.91        32.8 0.24                           174 251 
 HEL  HZ EP        617 14.37                             116    0.04 9  189 285 
 HEL  HN ES        617 37.27                             116    0.13 9  189 285 
 HEL  HZ I         617 41.94        14.7 0.20            115            189 285 
 ELA  HZ EP   4    617 16.12                             115    0.96 0  194 240 
 ELA  HE ES   4    617 40.25                             115    1.63 0  194 240 
 ELA  HZ I         617 45.70        16.4 0.48            115            194 240 
 ANIL HZ EP   4    617 18.05                             112    0.55 0  218 231 
 ANIL HN ES   4    617 43.43                             112    0.64 0  218 231 
 ANIL HZ I         617 46.50        52.7 0.38            112            218 231 
 PAM  EZ EP        617 17.46                             112   -0.49 8  220  37 
 PAM  EN ES        617 43.60                             112    0.02 8  220  37 
 PAM  EZ I         617 46.13        24.2 0.22            112            220  37 
 ZAR  HZ EP        617 16.95                             111   -0.56 8  221 331 
 ZAR  HN ES        617 42.88                             111    0.07 8  221 331 
 ZAR  HZ I         617 50.39        57.7 0.28            111            221 331 
 CBOC HZ EP        617 19.72                             110    0.32 8  236 273 
 CBOC HN ES        617 46.19                             110    0.03 8  236 273 
 CBOC HZ I         617 49.58        10.9 0.24            110            236 273 
 PRA  HZ EP        617 20.11                             109   -0.78 8  250 206 
 PRA  HN ES        617 49.58                             109    0.76 8  250 206 
 PRA  HZ I         617 53.83        22.1 0.24            108            250 206 
 PTGC HZ EP   9    617 21.31                             108   -0.47 0  259 131 
 PTGC HN ES        617 49.17                             109   -0.77 8  259 131 
 PTGC HZ I         617 50.52        19.9 0.32            108            259 131 
 URE  HZ EP   9    617 23.38                             105   -1.76 0  287 321 
 URE  HN ES        617 53.99                             107   -0.64 7  287 321 
 URE  HZ I         617 58.40        38.5 0.20            105            287 321 
 GUA  EZ EP   9    617 35.18                             100   -1.01 0  380 158 
 GUA  EN ES        618 14.87                                   -0.18 6  380 158 
 GUA  EZ I         618 16.92        11.2 0.36            100            380 158 
 MACC HZ EP   4    617 36.62                              99   -1.71 0  398 179 
 MACC HN ES   4    618 16.50                              99   -3.36 0  398 179 
 LL6C HZ EP   4    617 45.21                              98    1.04 0  447   9 
 LL6C HN ES   4    618 30.51                              98    0.25 0  447   9 
 ARGC HZ EP        617 45.76                              97    0.36 5  457 355 
 ARGC HN ES        618 32.42                              97   -0.03 5  457 355 
 ARGC HZ I         618 43.59         5.3 0.42                           457 355 
 SJC  HZ EP   4    617 46.25                              96   -2.16 0  481 343 
 SJC  HN ES   4    618 33.65                              96   -4.15 0  481 343 
 SJC  HZ I         618 37.48         5.1 0.28                           481 343 
 CRJC HZ EP        618  1.84                              94   -0.32 3  594  11 
 CRJC HN ES        619  1.71                              94   -0.57 3  594  11 
 CRJC HZ I         619 12.60        10.4 0.28             94            594  11 
                                                                                
